Origin Time       2025/01/13 21:19:00
Lat.              31.8
Long.             131.6
Depth. (km)       30
Mag.              6.9
Station Code      MIEH10
Station Lat.      34.8224
Station Long.     136.4245
Station Height(m) 75
Record Time       2025/01/13 21:22:26
Sampling Freq(Hz) 100Hz
Duration Time(s)  120
Dir.              5
Scale Factor      7845(gal)/8223790
Max. Acc. (gal)   0.260
Last Correction   2025/01/13 21:22:28
Memo.             
[...]
  -15456   -15452   -15450   -15453   -15457   -15460   -15460   -15464 
  -15465   -15466   -15475   -15476   -15475   -15479   -15491   -15508 
  -15515   -15526   -15537   -15537   -15541   -15545   -15545   -15546 
  -15552   -15561   -15564   -15569   -15585   -15591   -15595   -15606 
  -15606   -15607   -15615   -15626   -15639   -15650   -15653   -15654 
  -15655   -15655   -15665   -15677   -15678   -15680   -15685   -15688 
  -15701   -15712   -15711   -15712   -15715   -15719   -15715   -15707 
  -15711   -15709   -15703   -15703   -15696   -15684   -15678   -15676 
  -15670   -15662   -15665   -15662   -15651   -15651   -15653   -15649 
  -15643   -15634   -15627   -15623   -15619   -15606   -15592   -15584 
  -15580   -15584   -15584   -15573   -15570   -15566   -15558   -15556 
  -15552   -15541   -15529   -15527   -15530   -15522   -15518   -15514 
  -15503   -15506   -15512   -15504   -15499   -15500   -15498   -15496 
  -15495   -15488   -15480   -15473   -15465   -15464   -15462   -15454 
  -15454   -15464   -15465   -15469   -15481   -15493   -15491   -15485 
  -15498   -15496   -15487   -15491   -15488   -15481   -15481   -15483 
  -15489   -15493   -15498   -15504   -15510   -15515   -15519   -15522 
  -15516   -15518   -15534   -15543   -15539   -15541   -15546   -15545 
  -15543   -15558   -15566   -15561   -15569   -15574   -15569   -15572 
  -15579   -15589   -15595   -15595   -15603   -15608   -15608   -15611 
  -15610   -15615   -15615   -15618   -15628   -15624   -15618   -15627 
  -15628   -15619   -15619   -15618   -15603   -15595   -15600   -15595 
  -15580   -15572   -15573   -15573   -15564   -15562   -15564   -15560 
  -15558   -15552   -15547   -15545   -15537   -15538   -15539   -15531 
  -15531   -15537   -15535   -15537   -15539   -15538   -15530   -15531 
  -15539   -15537   -15537   -15539   -15537   -15535   -15538   -15542 
  -15539   -15534   -15527   -15519   -15518   -15515   -15511   -15507 
  -15495   -15492   -15493   -15485   -15481   -15481   -15485   -15484 
  -15472   -15475   -15479   -15472   -15475   -15477   -15479   -15489 
  -15500   -15506   -15507   -15506   -15510   -15519   -15529   -15531 
  -15534   -15542   -15549   -15560   -15569   -15568   -15560   -15561 
  -15574   -15585   -15591   -15593   -15592   -15604   -15615   -15614 
  -15619   -15624   -15623   -15624   -15626   -15633   -15641   -15646 
  -15647   -15647   -15655   -15666   -15670   -15672   -15668   -15665 
  -15672   -15674   -15664   -15655   -15657   -15649   -15643   -15643 
  -15631   -15626   -15630   -15626   -15623   -15618   -15611   -15607 
  -15601   -15600   -15596   -15589   -15591   -15588   -15587   -15589 
  -15580   -15570   -15566   -15562   -15560   -15554   -15549   -15546 
  -15547   -15547   -15541   -15537   -15534   -15533   -15537   -15533 
  -15529   -15522   -15516   -15516   -15510   -15511   -15510   -15498 
  -15500   -15500   -15492   -15495   -15498   -15496   -15493   -15492 
  -15492   -15492   -15492   -15485   -15476   -15480   -15477   -15472 
  -15479   -15477   -15468   -15468   -15473   -15473   -15475   -15477 
  -15480   -15485   -15491   -15498   -15510   -15518   -15526   -15539 
  -15549   -15560   -15564   -15569   -15579   -15579   -15581   -15591 
  -15585   -15581   -15585   -15584   -15587   -15593   -15599   -15604 
  -15610   -15614   -15615   -15622   -15630   -15635   -15645   -15653 
  -15658   -15662   -15670   -15674   -15674   -15682   -15689   -15688 
  -15697   -15700   -15699   -15701   -15700   -15701   -15703   -15699 
  -15700   -15699   -15697   -15695   -15689   -15689   -15681   -15668 
  -15658   -15639   -15626   -15616   -15604   -15596   -15591   -15577 
  -15564   -15558   -15549   -15533   -15527   -15525   -15516   -15511 
  -15511   -15511   -15500   -15491   -15492   -15487   -15487   -15491 
  -15485   -15483   -15479   -15475   -15479   -15473   -15472   -15476 
  -15476   -15475   -15471   -15468   -15468   -15471   -15477   -15480 
  -15479   -15481   -15487   -15489   -15489   -15496   -15504   -15506 
  -15508   -15500   -15498   -15506   -15502   -15496   -15500   -15502 
  -15504   -15512   -15520   -15525   -15531   -15545   -15554   -15560 
  -15562   -15556   -15558   -15564   -15560   -15561   -15562   -15558 
  -15561   -15569   -15570   -15570   -15573   -15572   -15569   -15573 
  -15573   -15574   -15577   -15581   -15585   -15580   -15577   -15577 
  -15572   -15577   -15579   -15574   -15580   -15580   -15577   -15583 
  -15585   -15585   -15588   -15595   -15600   -15606   -15614   -15616 
  -15615   -15618   -15618   -15618   -15616   -15611   -15606   -15606 
  -15606   -15599   -15595   -15591   -15579   -15572   -15573   -15570 
  -15570   -15570   -15570   -15568   -15566   -15569   -15568   -15568 
  -15570   -15564   -15568   -15577   -15580   -15585   -15589   -15593 
  -15601   -15610   -15614   -15611   -15607   -15604   -15601   -15603 
  -15601   -15596   -15592   -15587   -15583   -15581   -15583   -15584 
  -15583   -15592   -15597   -15596   -15597   -15596   -15597   -15603 
  -15599   -15595   -15588   -15580   -15573   -15564   -15557   -15549 
  -15539   -15535   -15527   -15522   -15520   -15512   -15504   -15503 
  -15502   -15496   -15495   -15492   -15484   -15483   -15479   -15469 
  -15471   -15469   -15464   -15465   -15464   -15461   -15454   -15458 
  -15465   -15465   -15471   -15473   -15469   -15476   -15480   -15481 
  -15489   -15491   -15492   -15500   -15508   -15511   -15514   -15522 
  -15529   -15530   -15533   -15535   -15537   -15541   -15550   -15554 
  -15554   -15561   -15565   -15570   -15580   -15583   -15595   -15612 
  -15619   -15626   -15637   -15647   -15658   -15664   -15672   -15674 
  -15677   -15689   -15693   -15696   -15701   -15697   -15697   -15701 
  -15699   -15695   -15695   -15695   -15693   -15693   -15692   -15685 
  -15687   -15689   -15691   -15687   -15676   -15666   -15662   -15662 
  -15655   -15642   -15635   -15630   -15622   -15620   -15612   -15601 
  -15597   -15591   -15583   -15574   -15558   -15545   -15539   -15533 
  -15519   -15508   -15503   -15489   -15476   -15472   -15468   -15460 
  -15452   -15445   -15433   -15425   -15425   -15417   -15412   -15411 
  -15406   -15406   -15403   -15392   -15388   -15392   -15396   -15395 
  -15398   -15402   -15399   -15402   -15410   -15404   -15408   -15412 
  -15407   -15408   -15414   -15418   -15426   -15435   -15439   -15441 
  -15449   -15458   -15468   -15483   -15496   -15507   -15518   -15529 
  -15538   -15538   -15543   -15546   -15545   -15550   -15550   -15553 
  -15564   -15565   -15570   -15580   -15584   -15593   -15604   -15614 
  -15620   -15626   -15637   -15642   -15649   -15660   -15665   -15672 
  -15680   -15685   -15692   -15700   -15705   -15704   -15711   -15716 
  -15712   -15714   -15716   -15716   -15720   -15724   -15732   -15741 
  -15746   -15751   -15750   -15754   -15759   -15754   -15758   -15755 
  -15742   -15739   -15735   -15723   -15719   -15711   -15699   -15691 
  -15685   -15672   -15658   -15653   -15641   -15626   -15616   -15607 
  -15591   -15577   -15570   -15558   -15542   -15530   -15511   -15496 
  -15487   -15469   -15461   -15456   -15441   -15430   -15421   -15408 
  -15400   -15395   -15391   -15379   -15371   -15369   -15364   -15360 
  -15361   -15353   -15349   -15350   -15350   -15350   -15352   -15350 
  -15349   -15354   -15357   -15356   -15358   -15361   -15363   -15364 
  -15365   -15369   -15371   -15379   -15385   -15387   -15400   -15410 
  -15418   -15439   -15450   -15453   -15465   -15473   -15481   -15491 
  -15498   -15507   -15516   -15527   -15534   -15543   -15556   -15561 
  -15565   -15574   -15585   -15592   -15599   -15608   -15612   -15619 
  -15626   -15624   -15633   -15634   -15627   -15631   -15631   -15626 
  -15627   -15628   -15628   -15623   -15620   -15624   -15624   -15626 
  -15628   -15628   -15633   -15633   -15630   -15628   -15620   -15615 
  -15612   -15608   -15597   -15588   -15580   -15570   -15564   -15561 
  -15554   -15547   -15539   -15535   -15537   -15533   -15530   -15525 
  -15523   -15526   -15518   -15512   -15512   -15504   -15500   -15495 
  -15487   -15480   -15473   -15471   -15461   -15453   -15454   -15448 
  -15439   -15437   -15433   -15430   -15431   -15431   -15431   -15433 
  -15437   -15438   -15444   -15445   -15444   -15454   -15462   -15465 
  -15469   -15473   -15480   -15483   -15491   -15502   -15506   -15511 
  -15514   -15515   -15529   -15534   -15533   -15541   -15543   -15546 
  -15556   -15562   -15565   -15574   -15588   -15596   -15597   -15604 
  -15610   -15614   -15619   -15622   -15619   -15620   -15624   -15623 
  -15627   -15633   -15628   -15633   -15643   -15642   -15645   -15650 
  -15650   -15651   -15650   -15653   -15655   -15655   -15658   -15658 
  -15661   -15666   -15664   -15661   -15666   -15668   -15669   -15669 
  -15668   -15666   -15669   -15668   -15664   -15668   -15672   -15676 
  -15681   -15682   -15687   -15688   -15691   -15693   -15691   -15692 
  -15691   -15680   -15678   -15677   -15673   -15670   -15660   -15657 
  -15655   -15646   -15638   -15630   -15626   -15619   -15614   -15612 
  -15606   -15599   -15599   -15592   -15584   -15581   -15584   -15577 
  -15572   -15570   -15561   -15561   -15560   -15550   -15553   -15558 
  -15558   -15565   -15568   -15569   -15566   -15565   -15570   -15569 
  -15570   -15577   -15577   -15581   -15584   -15585   -15592   -15595 
  -15592   -15595   -15593   -15588   -15588   -15593   -15585   -15572 
  -15572   -15569   -15560   -15556   -15556   -15553   -15546   -15547 
  -15543   -15537   -15537   -15529   -15525   -15525   -15516   -15516 
  -15523   -15520   -15515   -15514   -15511   -15503   -15499   -15506 
  -15506   -15503   -15506   -15506   -15506   -15511   -15515   -15518 
  -15523   -15526   -15523   -15531   -15541   -15537   -15539   -15542 
  -15541   -15546   -15550   -15554   -15556   -15557   -15561   -15561 
  -15564   -15568   -15566   -15570   -15573   -15576   -15587   -15588 
  -15585   -15591   -15596   -15599   -15601   -15610   -15610   -15606 
  -15612   -15614   -15612   -15619   -15623   -15624   -15622   -15622 
  -15627   -15635   -15638   -15634   -15638   -15641   -15633   -15635 
  -15641   -15637   -15641   -15646   -15647   -15647   -15649   -15654 
  -15654   -15657   -15661   -15657   -15657   -15653   -15643   -15642 
  -15641   -15634   -15630   -15630   -15624   -15614   -15608   -15600 
  -15589   -15579   -15566   -15561   -15554   -15541   -15531   -15525 
  -15523   -15519   -15510   -15511   -15504   -15496   -15500   -15498 
  -15493   -15495   -15493   -15492   -15488   -15487   -15484   -15479 
  -15484   -15487   -15489   -15498   -15503   -15508   -15514   -15518 
  -15522   -15527   -15531   -15533   -15541   -15550   -15549   -15552 
  -15553   -15547   -15554   -15562   -15566   -15570   -15572   -15573 
  -15573   -15577   -15579   -15570   -15570   -15570   -15564   -15566 
  -15570   -15572   -15579   -15587   -15587   -15583   -15585   -15588 
  -15592   -15599   -15599   -15599   -15601   -15597   -15597   -15604 
  -15607   -15606   -15606   -15612   -15610   -15606   -15608   -15603 
  -15601   -15604   -15597   -15597   -15595   -15587   -15584   -15577 
  -15570   -15566   -15562   -15556   -15543   -15542   -15541   -15533 
  -15527   -15527   -15520   -15512   -15514   -15516   -15515   -15520 
  -15522   -15518   -15518   -15514   -15511   -15512   -15514   -15516 
  -15516   -15518   -15526   -15526   -15530   -15534   -15535   -15543 
  -15543   -15543   -15554   -15564   -15573   -15584   -15591   -15595 
  -15607   -15626   -15638   -15649   -15662   -15672   -15685   -15700 
  -15707   -15709   -15716   -15726   -15731   -15738   -15747   -15749 
  -15758   -15769   -15768   -15773   -15777   -15776   -15776   -15774 
  -15774   -15774   -15769   -15765   -15757   -15757   -15755   -15746 
  -15739   -15735   -15727   -15722   -15712   -15700   -15691   -15684 
  -15673   -15664   -15653   -15626   -15608   -15603   -15589   -15573 
  -15564   -15558   -15550   -15539   -15535   -15523   -15510   -15504 
  -15491   -15483   -15480   -15460   -15446   -15441   -15427   -15417 
  -15411   -15399   -15383   -15377   -15379   -15373   -15372   -15371 
  -15368   -15367   -15365   -15368   -15372   -15372   -15373   -15377 
  -15388   -15391   -15390   -15400   -15407   -15408   -15417   -15423 
  -15431   -15442   -15452   -15460   -15461   -15469   -15477   -15480 
  -15488   -15491   -15492   -15504   -15514   -15516   -15519   -15522 
  -15523   -15534   -15553   -15566   -15580   -15592   -15599   -15610 
  -15623   -15638   -15653   -15660   -15672   -15689   -15707   -15727 
  -15735   -15745   -15762   -15766   -15774   -15788   -15790   -15797 
  -15807   -15808   -15809   -15817   -15826   -15823   -15822   -15823 
  -15820   -15823   -15822   -15817   -15816   -15813   -15808   -15801 
  -15800   -15790   -15777   -15773   -15765   -15754   -15753   -15746 
  -15738   -15728   -15712   -15700   -15682   -15668   -15655   -15641 
  -15630   -15610   -15589   -15583   -15568   -15552   -15542   -15529 
  -15512   -15498   -15484   -15472   -15461   -15445   -15421   -15403 
  -15398   -15392   -15383   -15369   -15361   -15353   -15348   -15344 
  -15331   -15327   -15326   -15313   -15313   -15318   -15313   -15313 
  -15310   -15300   -15300   -15303   -15303   -15298   -15298   -15299 
  -15296   -15300   -15304   -15302   -15303   -15307   -15311   -15318 
  -15326   -15331   -15334   -15346   -15357   -15364   -15381   -15396 
  -15404   -15415   -15429   -15444   -15453   -15461   -15466   -15476 
  -15491   -15495   -15500   -15511   -15511   -15514   -15519   -15516 
  -15520   -15523   -15522   -15522   -15525   -15529   -15529   -15525 
  -15519   -15514   -15515   -15515   -15514   -15515   -15518   -15518 
  -15518   -15526   -15531   -15523   -15527   -15535   -15533   -15542 
  -15554   -15560   -15562   -15565   -15572   -15581   -15588   -15592 
  -15596   -15610   -15619   -15624   -15635   -15638   -15638   -15650 
  -15662   -15669   -15676   -15682   -15682   -15687   -15699   -15705 
  -15708   -15708   -15708   -15711   -15712   -15718   -15726   -15728 
  -15731   -15726   -15724   -15731   -15724   -15718   -15719   -15712 
  -15708   -15704   -15699   -15696   -15693   -15689   -15685   -15685 
  -15682   -15672   -15666   -15660   -15654   -15657   -15657   -15649 
  -15643   -15647   -15647   -15639   -15639   -15638   -15638   -15646 
  -15642   -15641   -15650   -15649   -15646   -15650   -15654   -15653 
  -15651   -15658   -15657   -15649   -15653   -15653   -15645   -15639 
  -15638   -15643   -15647   -15639   -15631   -15627   -15623   -15616 
  -15620   -15626   -15623   -15620   -15618   -15614   -15607   -15601 
  -15604   -15599   -15592   -15589   -15584   -15584   -15580   -15565 
  -15561   -15550   -15535   -15530   -15519   -15506   -15496   -15488 
  -15479   -15465   -15460   -15458   -15446   -15438   -15437   -15434 
  -15426   -15417   -15408   -15399   -15388   -15381   -15380   -15384 
  -15381   -15381   -15385   -15380   -15383   -15390   -15392   -15398 
  -15404   -15415   -15423   -15426   -15437   -15442   -15445   -15456 
  -15461   -15469   -15481   -15491   -15500   -15508   -15512   -15518 
  -15530   -15541   -15549   -15561   -15569   -15574   -15589   -15606 
  -15618   -15630   -15642   -15650   -15657   -15674   -15688   -15692 
  -15705   -15715   -15722   -15735   -15738   -15739   -15747   -15755 
  -15759   -15758   -15758   -15759   -15758   -15762   -15761   -15754 
  -15753   -15743   -15732   -15726   -15716   -15705   -15700   -15696 
  -15682   -15674   -15673   -15660   -15650   -15646   -15637   -15627 
  -15615   -15606   -15599   -15593   -15589   -15574   -15568   -15568 
  -15558   -15558   -15560   -15550   -15546   -15541   -15537   -15539 
  -15539   -15538   -15538   -15539   -15539   -15539   -15539   -15537 
  -15535   -15538   -15537   -15533   -15533   -15541   -15543   -15542 
  -15550   -15550   -15553   -15569   -15574   -15581   -15592   -15593 
  -15595   -15595   -15596   -15603   -15606   -15610   -15611   -15615 
  -15618   -15611   -15611   -15619   -15618   -15614   -15614   -15614 
  -15610   -15608   -15611   -15608   -15606   -15603   -15591   -15583 
  -15579   -15577   -15569   -15554   -15546   -15538   -15529   -15522 
  -15512   -15511   -15507   -15491   -15484   -15477   -15468   -15461 
  -15453   -15444   -15430   -15422   -15418   -15411   -15406   -15406 
  -15407   -15408   -15407   -15406   -15408   -15419   -15427   -15431 
  -15434   -15427   -15429   -15444   -15448   -15452   -15458   -15457 
  -15458   -15462   -15466   -15468   -15473   -15484   -15487   -15489 
  -15498   -15498   -15507   -15519   -15518   -15526   -15535   -15530 
  -15527   -15534   -15538   -15538   -15542   -15546   -15547   -15552 
  -15556   -15557   -15564   -15572   -15573   -15573   -15577   -15584 
  -15589   -15601   -15603   -15597   -15607   -15614   -15619   -15622 
  -15616   -15614   -15619   -15631   -15642   -15642   -15645   -15647 
  -15647   -15651   -15651   -15651   -15660   -15660   -15654   -15658 
  -15662   -15662   -15658   -15660   -15655   -15654   -15653   -15649 
  -15650   -15650   -15650   -15653   -15646   -15637   -15633   -15639 
  -15642   -15633   -15631   -15633   -15620   -15623   -15627   -15616 
  -15612   -15614   -15615   -15615   -15614   -15608   -15601   -15603 
  -15603   -15603   -15606   -15603   -15597   -15599   -15606   -15606 
  -15604   -15611   -15606   -15600   -15612   -15615   -15615   -15620 
  -15614   -15615   -15626   -15633   -15637   -15638   -15639   -15638 
  -15641   -15650   -15651   -15650   -15657   -15657   -15655   -15662 
  -15668   -15666   -15668   -15669   -15664   -15666   -15676   -15678 
  -15681   -15685   -15691   -15697   -15701   -15705   -15705   -15707 
  -15709   -15708   -15720   -15730   -15718   -15715   -15716   -15715 
  -15719   -15718   -15709   -15708   -15708   -15707   -15705   -15707 
  -15701   -15697   -15699   -15692   -15682   -15678   -15670   -15661 
  -15655   -15651   -15645   -15641   -15639   -15627   -15619   -15615 
  -15606   -15604   -15601   -15591   -15588   -15588   -15584   -15576 
  -15573   -15580   -15576   -15572   -15574   -15566   -15562   -15562 
  -15562   -15566   -15566   -15562   -15560   -15556   -15557   -15565 
  -15572   -15565   -15557   -15558   -15558   -15561   -15565   -15562 
  -15557   -15557   -15568   -15569   -15564   -15576   -15584   -15581 
  -15585   -15589   -15591   -15595   -15600   -15608   -15614   -15616 
  -15615   -15618   -15626   -15623   -15623   -15633   -15631   -15628 
  -15634   -15637   -15630   -15622   -15618   -15608   -15610   -15615 
  -15611   -15608   -15603   -15591   -15589   -15591   -15592   -15589 
  -15584   -15581   -15572   -15573   -15581   -15579   -15581   -15581 
  -15572   -15574   -15583   -15589   -15599   -15603   -15603   -15603 
  -15607   -15607   -15608   -15615   -15618   -15619   -15620   -15620 
  -15619   -15611   -15607   -15607   -15601   -15592   -15579   -15572 
  -15570   -15558   -15552   -15545   -15530   -15520   -15512   -15507 
  -15496   -15480   -15472   -15462   -15446   -15437   -15429   -15421 
