Origin Time       2025/01/13 21:19:00
Lat.              31.8
Long.             131.6
Depth. (km)       30
Mag.              6.9
Station Code      MIEH03
Station Lat.      34.5470
Station Long.     136.3692
Station Height(m) 179.6
Record Time       2025/01/13 21:22:26
Sampling Freq(Hz) 100Hz
Duration Time(s)  120
Dir.              3
Scale Factor      2942(gal)/8224139
Max. Acc. (gal)   0.097
Last Correction   2025/01/13 21:22:28
Memo.             
  -19394   -19388   -19388   -19387   -19383   -19383   -19379   -19375 
  -19376   -19376   -19372   -19372   -19375   -19372   -19369   -19371 
  -19369   -19367   -19369   -19371   -19367   -19365   -19364   -19365 
  -19368   -19365   -19367   -19372   -19372   -19372   -19373   -19367 
  -19364   -19367   -19367   -19364   -19361   -19363   -19364   -19365 
  -19368   -19365   -19361   -19363   -19360   -19356   -19354   -19350 
  -19342   -19338   -19337   -19336   -19333   -19332   -19334   -19333 
  -19327   -19327   -19329   -19326   -19322   -19321   -19322   -19319 
  -19314   -19311   -19311   -19303   -19298   -19300   -19294   -19284 
  -19286   -19286   -19280   -19279   -19279   -19280   -19280   -19282 
  -19284   -19282   -19287   -19296   -19300   -19305   -19314   -19321 
  -19325   -19332   -19338   -19346   -19353   -19357   -19367   -19373 
  -19376   -19381   -19390   -19394   -19398   -19404   -19408   -19413 
  -19423   -19431   -19435   -19444   -19449   -19448   -19450   -19456 
  -19457   -19457   -19458   -19457   -19457   -19457   -19453   -19449 
  -19450   -19450   -19445   -19444   -19446   -19448   -19450   -19449 
  -19448   -19444   -19438   -19434   -19433   -19427   -19425   -19422 
  -19413   -19407   -19407   -19403   -19395   -19392   -19387   -19383 
  -19381   -19379   -19375   -19369   -19368   -19367   -19364   -19361 
  -19363   -19363   -19363   -19365   -19369   -19368   -19367   -19367 
  -19367   -19368   -19371   -19368   -19368   -19372   -19372   -19373 
  -19380   -19381   -19380   -19384   -19388   -19387   -19388   -19391 
  -19395   -19399   -19398   -19398   -19403   -19406   -19404   -19407 
  -19407   -19407   -19410   -19413   -19414   -19415   -19414   -19417 
  -19417   -19414   -19417   -19423   -19421   -19418   -19426   -19433 
  -19429   -19427   -19431   -19435   -19438   -19437   -19434   -19434 
  -19431   -19423   -19417   -19417   -19411   -19403   -19398   -19390 
  -19383   -19381   -19376   -19372   -19371   -19368   -19363   -19365 
  -19367   -19363   -19357   -19360   -19363   -19360   -19361   -19365 
  -19361   -19361   -19371   -19372   -19371   -19381   -19387   -19384 
  -19391   -19395   -19396   -19396   -19396   -19399   -19399   -19398 
  -19399   -19396   -19395   -19396   -19398   -19399   -19396   -19396 
  -19399   -19400   -19403   -19403   -19403   -19408   -19407   -19402 
  -19406   -19408   -19404   -19406   -19406   -19400   -19400   -19402 
  -19396   -19394   -19399   -19399   -19396   -19396   -19396   -19399 
  -19402   -19395   -19392   -19395   -19392   -19388   -19381   -19379 
  -19380   -19373   -19368   -19371   -19367   -19360   -19360   -19360 
  -19359   -19356   -19352   -19350   -19354   -19353   -19348   -19346 
  -19349   -19352   -19353   -19353   -19352   -19352   -19350   -19352 
  -19357   -19359   -19354   -19354   -19357   -19357   -19357   -19360 
  -19357   -19359   -19364   -19367   -19365   -19361   -19365   -19373 
  -19369   -19365   -19372   -19379   -19376   -19377   -19383   -19384 
  -19384   -19384   -19383   -19377   -19375   -19375   -19372   -19368 
  -19367   -19361   -19354   -19352   -19349   -19345   -19338   -19332 
  -19332   -19332   -19325   -19322   -19322   -19322   -19322   -19322 
  -19326   -19334   -19336   -19337   -19344   -19348   -19348   -19354 
  -19359   -19359   -19363   -19367   -19367   -19368   -19373   -19376 
  -19377   -19381   -19387   -19390   -19390   -19391   -19394   -19395 
  -19391   -19392   -19396   -19395   -19394   -19396   -19396   -19394 
  -19394   -19392   -19392   -19391   -19388   -19387   -19386   -19384 
  -19381   -19379   -19381   -19386   -19388   -19391   -19386   -19387 
  -19396   -19395   -19392   -19406   -19413   -19408   -19414   -19421 
  -19419   -19423   -19426   -19427   -19429   -19429   -19430   -19431 
  -19427   -19426   -19426   -19425   -19425   -19422   -19417   -19414 
  -19413   -19408   -19407   -19403   -19395   -19390   -19387   -19386 
  -19384   -19380   -19373   -19368   -19368   -19365   -19360   -19357 
  -19356   -19350   -19346   -19344   -19346   -19346   -19344   -19342 
  -19346   -19345   -19344   -19344   -19342   -19342   -19345   -19344 
  -19345   -19344   -19340   -19344   -19342   -19336   -19336   -19334 
  -19330   -19326   -19326   -19321   -19309   -19306   -19306   -19300 
  -19296   -19292   -19291   -19290   -19287   -19286   -19283   -19279 
  -19278   -19278   -19273   -19269   -19273   -19278   -19279   -19282 
  -19284   -19288   -19296   -19306   -19310   -19317   -19327   -19337 
  -19340   -19345   -19354   -19359   -19363   -19368   -19371   -19373 
  -19376   -19377   -19381   -19381   -19381   -19384   -19384   -19388 
  -19392   -19390   -19386   -19388   -19386   -19383   -19383   -19379 
  -19369   -19364   -19363   -19357   -19353   -19345   -19340   -19341 
  -19336   -19329   -19332   -19326   -19317   -19321   -19318   -19307 
  -19305   -19302   -19296   -19295   -19294   -19290   -19286   -19284 
  -19280   -19275   -19272   -19271   -19265   -19265   -19268   -19263 
  -19260   -19261   -19259   -19260   -19261   -19260   -19261   -19261 
  -19260   -19260   -19261   -19261   -19263   -19264   -19265   -19269 
  -19271   -19271   -19273   -19275   -19275   -19278   -19280   -19279 
  -19276   -19278   -19280   -19282   -19283   -19284   -19290   -19294 
  -19291   -19294   -19302   -19307   -19313   -19311   -19310   -19315 
  -19321   -19319   -19322   -19330   -19334   -19334   -19336   -19338 
  -19341   -19345   -19346   -19348   -19350   -19354   -19359   -19357 
  -19359   -19359   -19359   -19364   -19368   -19368   -19369   -19368 
  -19369   -19373   -19376   -19375   -19376   -19379   -19377   -19379 
  -19383   -19384   -19384   -19386   -19387   -19387   -19390   -19392 
  -19390   -19388   -19392   -19388   -19383   -19383   -19384   -19384 
  -19381   -19379   -19377   -19379   -19379   -19377   -19375   -19377 
  -19379   -19375   -19369   -19369   -19375   -19373   -19371   -19369 
  -19365   -19367   -19371   -19371   -19368   -19367   -19369   -19375 
  -19379   -19381   -19387   -19392   -19396   -19402   -19411   -19417 
  -19421   -19429   -19434   -19438   -19444   -19449   -19453   -19457 
  -19462   -19467   -19471   -19477   -19484   -19487   -19491   -19496 
  -19498   -19502   -19504   -19502   -19498   -19499   -19500   -19498 
  -19496   -19495   -19492   -19488   -19483   -19477   -19473   -19472 
  -19472   -19468   -19458   -19450   -19444   -19440   -19437   -19429 
  -19421   -19417   -19411   -19403   -19398   -19394   -19392   -19387 
  -19377   -19375   -19373   -19368   -19365   -19361   -19356   -19356 
  -19354   -19349   -19348   -19345   -19341   -19338   -19338   -19334 
  -19327   -19329   -19323   -19317   -19321   -19317   -19307   -19306 
  -19303   -19295   -19292   -19290   -19288   -19287   -19286   -19284 
  -19286   -19287   -19284   -19286   -19288   -19291   -19295   -19294 
  -19295   -19303   -19309   -19310   -19313   -19317   -19318   -19321 
  -19323   -19321   -19322   -19326   -19332   -19332   -19334   -19342 
  -19342   -19337   -19342   -19350   -19352   -19354   -19359   -19367 
  -19371   -19373   -19379   -19381   -19383   -19391   -19395   -19392 
  -19396   -19404   -19410   -19415   -19419   -19425   -19427   -19430 
  -19438   -19448   -19449   -19452   -19456   -19460   -19462   -19464 
  -19465   -19468   -19471   -19475   -19475   -19472   -19471   -19471 
  -19468   -19468   -19465   -19460   -19453   -19450   -19445   -19438 
  -19430   -19426   -19419   -19407   -19402   -19399   -19392   -19386 
  -19379   -19376   -19371   -19363   -19356   -19354   -19348   -19337 
  -19333   -19333   -19326   -19319   -19315   -19310   -19303   -19298 
  -19291   -19284   -19280   -19276   -19269   -19260   -19255   -19249 
  -19240   -19230   -19225   -19225   -19217   -19207   -19210   -19210 
  -19202   -19203   -19207   -19205   -19203   -19203   -19206   -19209 
  -19211   -19214   -19214   -19215   -19221   -19224   -19226   -19230 
  -19234   -19240   -19246   -19249   -19256   -19267   -19273   -19278 
  -19282   -19290   -19296   -19302   -19311   -19323   -19332   -19340 
  -19348   -19356   -19361   -19363   -19368   -19376   -19383   -19388 
  -19391   -19395   -19400   -19404   -19407   -19415   -19418   -19422 
  -19425   -19426   -19427   -19433   -19435   -19440   -19441   -19438 
  -19437   -19437   -19438   -19440   -19441   -19441   -19438   -19438 
  -19437   -19433   -19431   -19433   -19427   -19423   -19422   -19418 
  -19415   -19415   -19411   -19406   -19404   -19398   -19394   -19392 
  -19387   -19383   -19379   -19373   -19371   -19367   -19359   -19360 
  -19361   -19352   -19352   -19354   -19348   -19348   -19352   -19348 
  -19348   -19346   -19345   -19346   -19345   -19344   -19346   -19348 
  -19350   -19352   -19353   -19357   -19360   -19363   -19372   -19375 
  -19379   -19387   -19390   -19396   -19406   -19410   -19418   -19427 
  -19431   -19440   -19449   -19454   -19467   -19479   -19484   -19495 
  -19504   -19507   -19519   -19535   -19539   -19548   -19554   -19554 
  -19558   -19564   -19566   -19568   -19569   -19570   -19569   -19569 
  -19570   -19572   -19572   -19572   -19572   -19572   -19573   -19579 
  -19581   -19580   -19581   -19584   -19583   -19587   -19588   -19585 
  -19587   -19585   -19584   -19587   -19584   -19581   -19584   -19581 
  -19577   -19576   -19572   -19568   -19568   -19564   -19554   -19553 
  -19550   -19543   -19537   -19531   -19523   -19514   -19510   -19504 
  -19496   -19488   -19479   -19467   -19458   -19452   -19437   -19427 
  -19417   -19407   -19400   -19387   -19372   -19363   -19354   -19340 
  -19322   -19310   -19295   -19280   -19269   -19259   -19245   -19232 
  -19219   -19209   -19199   -19194   -19184   -19171   -19164   -19159 
  -19151   -19144   -19138   -19133   -19128   -19121   -19118   -19116 
  -19107   -19102   -19105   -19101   -19095   -19097   -19098   -19097 
  -19097   -19095   -19094   -19091   -19090   -19089   -19089   -19093 
  -19094   -19095   -19101   -19103   -19102   -19106   -19113   -19114 
  -19118   -19129   -19133   -19134   -19144   -19155   -19163   -19171 
  -19176   -19182   -19190   -19199   -19205   -19209   -19217   -19226 
  -19232   -19238   -19249   -19261   -19269   -19275   -19284   -19291 
  -19295   -19300   -19309   -19317   -19322   -19322   -19330   -19336 
  -19333   -19338   -19346   -19350   -19352   -19354   -19357   -19359 
  -19363   -19365   -19365   -19372   -19376   -19372   -19375   -19381 
  -19383   -19384   -19392   -19398   -19400   -19406   -19411   -19415 
  -19421   -19426   -19431   -19435   -19442   -19452   -19460   -19464 
  -19472   -19481   -19489   -19496   -19506   -19514   -19518   -19526 
  -19537   -19545   -19552   -19560   -19568   -19575   -19580   -19585 
  -19589   -19595   -19600   -19600   -19604   -19614   -19614   -19614 
  -19619   -19620   -19620   -19623   -19622   -19620   -19623   -19626 
  -19622   -19619   -19620   -19622   -19619   -19615   -19615   -19615 
  -19610   -19604   -19599   -19596   -19592   -19583   -19573   -19566 
  -19557   -19546   -19538   -19529   -19518   -19512   -19503   -19488 
  -19476   -19464   -19452   -19441   -19430   -19418   -19406   -19392 
  -19380   -19369   -19357   -19344   -19329   -19315   -19302   -19292 
  -19283   -19271   -19259   -19249   -19241   -19232   -19219   -19210 
  -19206   -19198   -19188   -19182   -19174   -19168   -19160   -19149 
  -19148   -19145   -19136   -19132   -19128   -19125   -19122   -19117 
  -19116   -19110   -19106   -19110   -19110   -19107   -19110   -19110 
  -19107   -19113   -19118   -19121   -19124   -19128   -19132   -19141 
  -19149   -19155   -19161   -19171   -19182   -19190   -19197   -19209 
  -19219   -19229   -19241   -19248   -19256   -19268   -19275   -19279 
  -19288   -19298   -19300   -19305   -19313   -19318   -19323   -19329 
  -19330   -19329   -19337   -19342   -19342   -19345   -19350   -19350 
  -19350   -19357   -19359   -19359   -19365   -19367   -19364   -19367 
  -19368   -19368   -19368   -19368   -19367   -19369   -19373   -19369 
  -19363   -19360   -19363   -19360   -19352   -19348   -19349   -19348 
  -19345   -19337   -19330   -19326   -19317   -19309   -19300   -19292 
  -19288   -19284   -19275   -19267   -19259   -19252   -19248   -19241 
  -19234   -19232   -19228   -19222   -19222   -19222   -19221   -19219 
  -19218   -19221   -19226   -19228   -19232   -19236   -19238   -19244 
  -19246   -19245   -19252   -19260   -19263   -19271   -19279   -19280 
  -19287   -19299   -19305   -19310   -19315   -19322   -19329   -19334 
  -19341   -19346   -19346   -19356   -19363   -19364   -19369   -19372 
  -19368   -19371   -19379   -19379   -19376   -19377   -19379   -19379 
  -19380   -19383   -19383   -19380   -19383   -19383   -19377   -19383 
  -19390   -19387   -19388   -19394   -19388   -19386   -19390   -19390 
  -19387   -19387   -19387   -19387   -19387   -19384   -19380   -19380 
  -19383   -19380   -19376   -19376   -19376   -19376   -19380   -19379 
  -19376   -19379   -19383   -19383   -19386   -19387   -19388   -19394 
  -19399   -19402   -19403   -19407   -19414   -19418   -19417   -19422 
  -19430   -19433   -19437   -19442   -19444   -19448   -19456   -19458 
  -19458   -19461   -19464   -19465   -19464   -19464   -19467   -19468 
  -19467   -19464   -19461   -19462   -19464   -19458   -19454   -19458 
  -19458   -19457   -19460   -19460   -19461   -19468   -19469   -19468 
  -19467   -19465   -19469   -19473   -19473   -19475   -19476   -19475 
  -19479   -19481   -19476   -19473   -19476   -19476   -19475   -19472 
  -19468   -19462   -19458   -19458   -19456   -19445   -19440   -19438 
  -19433   -19425   -19415   -19411   -19406   -19395   -19395   -19392 
  -19377   -19372   -19369   -19363   -19357   -19352   -19348   -19345 
  -19341   -19332   -19325   -19326   -19325   -19315   -19315   -19319 
  -19315   -19314   -19315   -19313   -19315   -19321   -19319   -19317 
  -19317   -19321   -19323   -19322   -19319   -19321   -19323   -19321 
  -19317   -19317   -19321   -19321   -19317   -19313   -19314   -19315 
  -19310   -19306   -19307   -19302   -19296   -19302   -19298   -19291 
  -19292   -19290   -19282   -19282   -19283   -19280   -19279   -19279 
  -19276   -19275   -19278   -19276   -19272   -19273   -19268   -19263 
  -19265   -19261   -19253   -19253   -19249   -19245   -19248   -19241 
  -19233   -19232   -19229   -19226   -19225   -19222   -19219   -19218 
  -19221   -19224   -19221   -19217   -19219   -19222   -19222   -19224 
  -19228   -19225   -19224   -19232   -19232   -19225   -19228   -19229 
  -19229   -19229   -19228   -19232   -19234   -19230   -19234   -19241 
  -19237   -19237   -19248   -19252   -19249   -19255   -19267   -19271 
  -19278   -19286   -19291   -19302   -19311   -19315   -19322   -19329 
  -19334   -19344   -19353   -19361   -19368   -19377   -19384   -19384 
  -19390   -19395   -19398   -19404   -19408   -19404   -19404   -19411 
  -19413   -19413   -19415   -19413   -19410   -19413   -19411   -19410 
  -19413   -19413   -19408   -19408   -19411   -19408   -19403   -19403 
  -19406   -19399   -19392   -19392   -19394   -19390   -19381   -19379 
  -19376   -19369   -19367   -19364   -19357   -19352   -19352   -19348 
  -19338   -19333   -19333   -19329   -19321   -19314   -19307   -19305 
  -19305   -19299   -19290   -19282   -19282   -19278   -19271   -19267 
  -19267   -19267   -19265   -19260   -19260   -19261   -19257   -19255 
  -19256   -19255   -19256   -19259   -19259   -19260   -19260   -19261 
  -19269   -19276   -19279   -19283   -19290   -19298   -19303   -19307 
  -19313   -19321   -19325   -19327   -19334   -19342   -19348   -19350 
  -19352   -19354   -19357   -19361   -19367   -19369   -19372   -19376 
  -19380   -19377   -19376   -19379   -19381   -19383   -19381   -19376 
  -19375   -19379   -19379   -19375   -19375   -19372   -19369   -19367 
  -19363   -19361   -19361   -19360   -19357   -19357   -19356   -19354 
  -19356   -19356   -19357   -19353   -19356   -19360   -19359   -19357 
  -19359   -19360   -19357   -19352   -19348   -19350   -19350   -19345 
  -19341   -19340   -19334   -19330   -19329   -19327   -19322   -19321 
  -19319   -19317   -19314   -19315   -19317   -19314   -19315   -19317 
  -19313   -19309   -19309   -19313   -19311   -19313   -19314   -19313 
  -19313   -19317   -19318   -19317   -19315   -19318   -19318   -19318 
  -19319   -19321   -19321   -19321   -19323   -19323   -19321   -19318 
  -19321   -19326   -19326   -19325   -19325   -19326   -19327   -19325 
  -19327   -19329   -19329   -19336   -19338   -19336   -19340   -19341 
  -19340   -19342   -19345   -19346   -19345   -19344   -19348   -19350 
  -19349   -19349   -19352   -19352   -19348   -19342   -19344   -19345 
  -19341   -19341   -19340   -19336   -19334   -19332   -19326   -19325 
  -19322   -19315   -19315   -19317   -19314   -19311   -19313   -19311 
  -19306   -19300   -19305   -19307   -19299   -19294   -19295   -19294 
  -19294   -19294   -19291   -19284   -19280   -19282   -19276   -19269 
  -19269   -19269   -19260   -19256   -19260   -19263   -19256   -19256 
  -19267   -19269   -19264   -19267   -19271   -19268   -19271   -19278 
  -19278   -19283   -19291   -19294   -19298   -19306   -19310   -19315 
  -19321   -19323   -19325   -19336   -19344   -19342   -19346   -19354 
  -19361   -19365   -19368   -19373   -19383   -19386   -19384   -19388 
  -19396   -19396   -19398   -19400   -19399   -19399   -19406   -19406 
  -19406   -19410   -19407   -19407   -19408   -19404   -19404   -19406 
  -19404   -19404   -19403   -19395   -19391   -19390   -19386   -19379 
  -19373   -19369   -19367   -19364   -19359   -19353   -19345   -19337 
  -19333   -19329   -19322   -19319   -19313   -19306   -19300   -19295 
  -19292   -19292   -19287   -19282   -19280   -19276   -19275   -19275 
  -19272   -19269   -19268   -19269   -19278   -19276   -19273   -19278 
  -19278   -19283   -19294   -19292   -19295   -19306   -19314   -19322 
  -19327   -19334   -19345   -19353   -19359   -19369   -19375   -19375 
  -19383   -19391   -19396   -19399   -19403   -19408   -19410   -19411 
  -19419   -19419   -19415   -19421   -19423   -19421   -19419   -19423 
  -19425   -19419   -19419   -19422   -19421   -19419   -19418   -19417 
  -19414   -19414   -19415   -19414   -19413   -19410   -19406   -19404 
  -19402   -19394   -19392   -19392   -19387   -19381   -19380   -19380 
  -19375   -19371   -19373   -19369   -19364   -19363   -19360   -19357 
  -19359   -19356   -19352   -19350   -19350   -19349   -19353   -19356 
  -19352   -19353   -19359   -19356   -19353   -19357   -19361   -19364 
  -19369   -19369   -19372   -19379   -19380   -19381   -19388   -19390 
  -19391   -19396   -19403   -19408   -19410   -19410   -19415   -19419 
  -19417   -19415   -19419   -19422   -19417   -19413   -19415   -19415 
  -19410   -19410   -19411   -19410   -19407   -19404   -19404   -19407 
  -19402   -19402   -19404   -19398   -19398   -19402   -19399   -19398 
  -19394   -19390   -19390   -19388   -19384   -19381   -19377   -19373 
  -19369   -19367   -19360   -19352   -19349   -19342   -19334   -19332 
  -19327   -19322   -19318   -19315   -19309   -19305   -19300   -19295 
