Origin Time       2025/01/13 21:19:00
Lat.              31.8
Long.             131.6
Depth. (km)       30
Mag.              6.9
Station Code      MIEH10
Station Lat.      34.8224
Station Long.     136.4245
Station Height(m) -122
Record Time       2025/01/13 21:22:26
Sampling Freq(Hz) 100Hz
Duration Time(s)  120
Dir.              3
Scale Factor      2942(gal)/8224139
Max. Acc. (gal)   0.253
Last Correction   2025/01/13 21:22:28
Memo.             
[...]
 -136983  -136989  -136995  -136996  -136998  -136999  -137002  -137000 
 -136999  -137000  -137006  -137012  -137015  -137016  -137016  -137016 
 -137014  -137011  -137007  -137004  -137006  -137003  -136992  -136985 
 -136985  -136981  -136976  -136969  -136966  -136966  -136965  -136962 
 -136958  -136956  -136953  -136949  -136941  -136938  -136937  -136927 
 -136917  -136906  -136896  -136890  -136883  -136871  -136861  -136853 
 -136845  -136840  -136837  -136830  -136821  -136817  -136810  -136806 
 -136804  -136802  -136800  -136800  -136802  -136803  -136803  -136798 
 -136798  -136800  -136803  -136810  -136815  -136821  -136826  -136834 
 -136842  -136848  -136856  -136864  -136868  -136875  -136885  -136891 
 -136894  -136899  -136904  -136912  -136921  -136926  -136929  -136934 
 -136939  -136946  -136954  -136960  -136965  -136972  -136980  -136987 
 -136995  -137002  -137006  -137007  -137010  -137011  -137015  -137027 
 -137034  -137030  -137026  -137026  -137029  -137037  -137043  -137046 
 -137052  -137054  -137054  -137058  -137062  -137064  -137068  -137072 
 -137073  -137076  -137081  -137084  -137088  -137095  -137097  -137100 
 -137104  -137110  -137110  -137110  -137111  -137114  -137116  -137118 
 -137116  -137119  -137123  -137120  -137118  -137114  -137107  -137104 
 -137103  -137095  -137085  -137077  -137070  -137066  -137061  -137056 
 -137052  -137045  -137038  -137034  -137029  -137025  -137023  -137019 
 -137011  -137006  -137003  -136995  -136985  -136980  -136979  -136976 
 -136972  -136969  -136969  -136968  -136964  -136960  -136953  -136948 
 -136942  -136934  -136931  -136929  -136922  -136917  -136910  -136902 
 -136900  -136902  -136900  -136898  -136899  -136900  -136895  -136894 
 -136898  -136900  -136899  -136898  -136904  -136907  -136908  -136912 
 -136914  -136911  -136910  -136908  -136908  -136907  -136908  -136907 
 -136904  -136902  -136899  -136898  -136899  -136900  -136903  -136903 
 -136906  -136910  -136911  -136912  -136918  -136919  -136918  -136925 
 -136931  -136930  -136929  -136931  -136935  -136935  -136934  -136933 
 -136933  -136931  -136929  -136926  -136926  -136926  -136923  -136921 
 -136918  -136918  -136921  -136918  -136912  -136915  -136914  -136912 
 -136912  -136908  -136904  -136904  -136902  -136899  -136896  -136894 
 -136896  -136899  -136896  -136895  -136895  -136894  -136892  -136890 
 -136887  -136890  -136890  -136887  -136888  -136890  -136891  -136892 
 -136892  -136891  -136890  -136890  -136887  -136885  -136888  -136891 
 -136888  -136887  -136892  -136895  -136894  -136894  -136898  -136902 
 -136903  -136908  -136914  -136915  -136917  -136919  -136925  -136929 
 -136926  -136927  -136934  -136937  -136937  -136938  -136939  -136941 
 -136942  -136946  -136950  -136952  -136953  -136954  -136956  -136957 
 -136956  -136953  -136954  -136956  -136953  -136952  -136949  -136944 
 -136938  -136937  -136931  -136922  -136918  -136918  -136911  -136908 
 -136911  -136910  -136906  -136900  -136899  -136902  -136899  -136896 
 -136900  -136899  -136898  -136903  -136907  -136908  -136912  -136919 
 -136925  -136931  -136938  -136939  -136942  -136948  -136952  -136958 
 -136962  -136964  -136965  -136969  -136975  -136979  -136981  -136981 
 -136981  -136985  -136987  -136985  -136984  -136985  -136988  -136988 
 -136983  -136980  -136981  -136976  -136968  -136966  -136965  -136958 
 -136952  -136944  -136931  -136919  -136908  -136899  -136891  -136887 
 -136881  -136873  -136868  -136868  -136865  -136860  -136856  -136853 
 -136854  -136858  -136857  -136853  -136852  -136856  -136856  -136854 
 -136856  -136861  -136865  -136867  -136869  -136877  -136885  -136892 
 -136900  -136910  -136918  -136926  -136935  -136948  -136960  -136972 
 -136985  -136998  -137007  -137019  -137031  -137042  -137053  -137064 
 -137073  -137083  -137092  -137101  -137114  -137123  -137126  -137134 
 -137143  -137146  -137146  -137150  -137154  -137157  -137158  -137160 
 -137160  -137160  -137161  -137161  -137157  -137153  -137146  -137139 
 -137133  -137126  -137119  -137111  -137103  -137096  -137087  -137076 
 -137066  -137057  -137047  -137039  -137031  -137023  -137014  -137004 
 -137000  -136995  -136985  -136977  -136971  -136961  -136952  -136946 
 -136937  -136926  -136917  -136907  -136894  -136881  -136875  -136867 
 -136857  -136850  -136841  -136826  -136814  -136807  -136800  -136790 
 -136777  -136768  -136761  -136755  -136748  -136745  -136742  -136734 
 -136732  -136732  -136726  -136721  -136722  -136723  -136723  -136725 
 -136725  -136726  -136732  -136737  -136741  -136746  -136753  -136761 
 -136771  -136777  -136786  -136795  -136806  -136817  -136823  -136830 
 -136836  -136841  -136848  -136854  -136863  -136871  -136879  -136890 
 -136899  -136911  -136923  -136935  -136949  -136961  -136972  -136981 
 -136992  -137004  -137016  -137029  -137038  -137050  -137064  -137073 
 -137083  -137096  -137106  -137111  -137116  -137123  -137131  -137137 
 -137141  -137147  -137153  -137153  -137154  -137155  -137154  -137150 
 -137147  -137141  -137131  -137126  -137119  -137107  -137093  -137077 
 -137062  -137047  -137030  -137014  -137000  -136985  -136969  -136953 
 -136939  -136926  -136912  -136898  -136883  -136865  -136849  -136837 
 -136825  -136811  -136799  -136784  -136768  -136756  -136740  -136723 
 -136709  -136696  -136684  -136676  -136668  -136661  -136653  -136644 
 -136638  -136634  -136633  -136632  -136626  -136625  -136625  -136622 
 -136622  -136625  -136628  -136630  -136637  -136641  -136647  -136655 
 -136664  -136674  -136686  -136698  -136710  -136718  -136726  -136737 
 -136750  -136765  -136776  -136787  -136803  -136819  -136830  -136841 
 -136857  -136868  -136876  -136891  -136907  -136918  -136927  -136934 
 -136942  -136950  -136958  -136969  -136975  -136980  -136988  -136996 
 -137004  -137011  -137016  -137022  -137029  -137038  -137045  -137049 
 -137049  -137052  -137057  -137061  -137064  -137068  -137076  -137083 
 -137083  -137084  -137088  -137092  -137095  -137097  -137097  -137095 
 -137095  -137096  -137095  -137092  -137091  -137091  -137088  -137088 
 -137088  -137088  -137085  -137081  -137076  -137069  -137065  -137065 
 -137062  -137054  -137052  -137052  -137045  -137038  -137031  -137026 
 -137025  -137019  -137014  -137010  -137004  -136996  -136988  -136985 
 -136981  -136975  -136972  -136972  -136972  -136969  -136965  -136962 
 -136961  -136957  -136950  -136944  -136937  -136931  -136929  -136926 
 -136922  -136917  -136912  -136907  -136902  -136896  -136887  -136881 
 -136881  -136875  -136867  -136864  -136860  -136853  -136848  -136844 
 -136838  -136834  -136831  -136830  -136827  -136825  -136822  -136821 
 -136822  -136822  -136823  -136823  -136825  -136829  -136829  -136829 
 -136833  -136837  -136841  -136844  -136848  -136853  -136860  -136863 
 -136865  -136871  -136875  -136880  -136884  -136891  -136896  -136900 
 -136904  -136908  -136917  -136925  -136931  -136938  -136945  -136950 
 -136956  -136962  -136975  -136984  -136989  -136998  -137006  -137011 
 -137019  -137033  -137038  -137042  -137053  -137062  -137069  -137077 
 -137080  -137083  -137088  -137092  -137096  -137097  -137097  -137093 
 -137089  -137092  -137095  -137091  -137088  -137089  -137088  -137085 
 -137084  -137083  -137080  -137079  -137077  -137073  -137073  -137073 
 -137070  -137068  -137068  -137069  -137066  -137062  -137064  -137062 
 -137058  -137054  -137052  -137052  -137050  -137049  -137045  -137041 
 -137037  -137029  -137023  -137020  -137014  -137007  -137003  -136995 
 -136988  -136979  -136969  -136961  -136956  -136953  -136953  -136952 
 -136952  -136948  -136941  -136938  -136937  -136933  -136933  -136933 
 -136930  -136926  -136922  -136919  -136919  -136915  -136912  -136912 
 -136908  -136903  -136899  -136896  -136892  -136890  -136890  -136887 
 -136884  -136883  -136881  -136879  -136876  -136876  -136876  -136875 
 -136871  -136868  -136872  -136872  -136868  -136867  -136865  -136863 
 -136865  -136867  -136865  -136867  -136869  -136871  -136875  -136879 
 -136880  -136883  -136891  -136896  -136900  -136908  -136918  -136926 
 -136934  -136939  -136945  -136952  -136957  -136966  -136973  -136977 
 -136984  -136988  -136991  -136995  -137003  -137010  -137014  -137019 
 -137026  -137030  -137038  -137046  -137052  -137054  -137057  -137058 
 -137061  -137066  -137070  -137070  -137073  -137077  -137077  -137074 
 -137073  -137073  -137073  -137068  -137064  -137065  -137064  -137060 
 -137061  -137060  -137057  -137056  -137056  -137057  -137058  -137054 
 -137053  -137056  -137058  -137058  -137054  -137049  -137043  -137038 
 -137038  -137037  -137031  -137026  -137019  -137014  -137010  -137003 
 -136995  -136985  -136977  -136971  -136964  -136957  -136948  -136941 
 -136935  -136927  -136921  -136915  -136908  -136903  -136898  -136892 
 -136888  -136883  -136879  -136876  -136872  -136869  -136864  -136857 
 -136856  -136856  -136853  -136850  -136849  -136849  -136848  -136849 
 -136850  -136849  -136848  -136849  -136853  -136858  -136863  -136864 
 -136867  -136872  -136877  -136884  -136888  -136891  -136895  -136899 
 -136902  -136904  -136908  -136908  -136908  -136910  -136911  -136911 
 -136911  -136915  -136915  -136914  -136918  -136923  -136923  -136923 
 -136925  -136926  -136930  -136933  -136934  -136933  -136933  -136935 
 -136934  -136931  -136933  -136934  -136931  -136929  -136929  -136929 
 -136927  -136925  -136925  -136922  -136918  -136915  -136915  -136910 
 -136906  -136903  -136898  -136891  -136887  -136880  -136875  -136872 
 -136869  -136864  -136858  -136853  -136850  -136849  -136846  -136842 
 -136841  -136841  -136840  -136837  -136836  -136833  -136827  -136823 
 -136821  -136817  -136814  -136817  -136817  -136814  -136811  -136811 
 -136811  -136811  -136813  -136815  -136818  -136821  -136825  -136826 
 -136830  -136836  -136841  -136845  -136853  -136863  -136869  -136879 
 -136891  -136900  -136910  -136925  -136937  -136946  -136956  -136966 
 -136975  -136981  -136993  -137006  -137015  -137020  -137023  -137030 
 -137039  -137047  -137053  -137058  -137064  -137065  -137068  -137077 
 -137084  -137089  -137097  -137104  -137111  -137118  -137123  -137126 
 -137127  -137128  -137133  -137133  -137130  -137130  -137128  -137126 
 -137127  -137124  -137115  -137114  -137114  -137108  -137106  -137103 
 -137093  -137088  -137083  -137074  -137064  -137054  -137045  -137035 
 -137025  -137015  -137008  -136998  -136985  -136977  -136971  -136956 
 -136942  -136934  -136919  -136906  -136898  -136887  -136869  -136854 
 -136844  -136831  -136821  -136809  -136796  -136786  -136779  -136772 
 -136763  -136753  -136750  -136748  -136741  -136737  -136738  -136734 
 -136733  -136736  -136736  -136738  -136742  -136748  -136752  -136759 
 -136765  -136771  -136777  -136783  -136790  -136800  -136809  -136818 
 -136829  -136837  -136844  -136854  -136868  -136880  -136892  -136903 
 -136914  -136929  -136941  -136953  -136962  -136972  -136981  -136993 
 -137004  -137014  -137019  -137027  -137035  -137041  -137046  -137053 
 -137057  -137061  -137066  -137070  -137072  -137072  -137076  -137077 
 -137077  -137077  -137073  -137070  -137070  -137065  -137061  -137057 
 -137049  -137045  -137045  -137041  -137033  -137029  -137023  -137018 
 -137011  -137007  -137000  -136991  -136985  -136979  -136968  -136958 
 -136950  -136944  -136937  -136929  -136922  -136918  -136911  -136904 
 -136895  -136887  -136884  -136880  -136873  -136867  -136858  -136854 
 -136849  -136842  -136834  -136826  -136818  -136811  -136806  -136799 
 -136792  -136786  -136780  -136780  -136777  -136772  -136769  -136772 
 -136776  -136779  -136783  -136787  -136791  -136796  -136803  -136810 
 -136817  -136827  -136837  -136846  -136857  -136868  -136877  -136885 
 -136896  -136910  -136925  -136937  -136949  -136964  -136980  -136992 
 -137002  -137016  -137030  -137042  -137056  -137068  -137077  -137088 
 -137101  -137116  -137128  -137138  -137150  -137158  -137161  -137166 
 -137173  -137180  -137188  -137192  -137193  -137197  -137197  -137196 
 -137197  -137196  -137195  -137192  -137191  -137188  -137182  -137177 
 -137173  -137169  -137165  -137161  -137155  -137149  -137143  -137138 
 -137133  -137127  -137122  -137119  -137115  -137111  -137106  -137100 
 -137096  -137093  -137085  -137079  -137073  -137065  -137056  -137049 
 -137042  -137031  -137018  -137008  -136999  -136985  -136971  -136957 
 -136945  -136929  -136911  -136896  -136880  -136858  -136840  -136823 
 -136806  -136787  -136769  -136752  -136734  -136715  -136695  -136675 
 -136657  -136640  -136622  -136605  -136586  -136564  -136545  -136530 
 -136514  -136498  -136483  -136471  -136458  -136444  -136431  -136414 
 -136401  -136390  -136379  -136368  -136358  -136345  -136336  -136328 
 -136317  -136306  -136297  -136290  -136286  -136281  -136274  -136267 
 -136264  -136267  -136273  -136274  -136278  -136289  -136297  -136302 
 -136313  -136329  -136343  -136355  -136371  -136395  -136420  -136440 
 -136463  -136486  -136510  -136540  -136564  -136587  -136613  -136640 
 -136668  -136699  -136728  -136756  -136788  -136818  -136850  -136888 
 -136921  -136953  -136989  -137023  -137057  -137095  -137131  -137165 
 -137195  -137227  -137262  -137296  -137323  -137350  -137381  -137409 
 -137438  -137465  -137485  -137506  -137529  -137551  -137567  -137582 
 -137598  -137613  -137620  -137627  -137633  -137639  -137641  -137640 
 -137636  -137632  -137624  -137614  -137606  -137597  -137583  -137571 
 -137556  -137538  -137520  -137502  -137489  -137473  -137452  -137431 
 -137415  -137398  -137378  -137359  -137340  -137319  -137299  -137280 
 -137259  -137239  -137219  -137196  -137177  -137157  -137135  -137112 
 -137092  -137074  -137054  -137033  -137014  -136995  -136973  -136956 
 -136935  -136910  -136888  -136871  -136849  -136827  -136807  -136787 
 -136768  -136750  -136732  -136714  -136698  -136683  -136669  -136657 
 -136647  -136637  -136628  -136620  -136611  -136601  -136591  -136583 
 -136578  -136572  -136567  -136561  -136557  -136553  -136549  -136545 
 -136541  -136534  -136532  -136530  -136528  -136524  -136522  -136522 
 -136521  -136521  -136526  -136529  -136530  -136536  -136540  -136544 
 -136549  -136557  -136566  -136574  -136582  -136591  -136599  -136610 
 -136622  -136634  -136647  -136661  -136674  -136686  -136699  -136714 
 -136728  -136740  -136752  -136764  -136779  -136795  -136807  -136819 
 -136833  -136845  -136857  -136871  -136883  -136895  -136904  -136912 
 -136926  -136939  -136948  -136952  -136960  -136968  -136975  -136980 
 -136984  -136988  -136992  -136996  -136999  -137003  -137002  -137002 
 -137006  -137008  -137008  -137010  -137010  -137007  -137007  -137010 
 -137012  -137011  -137014  -137014  -137008  -137006  -137007  -137007 
 -137003  -136998  -136998  -136996  -136992  -136991  -136988  -136991 
 -136993  -136992  -136991  -136995  -136998  -136996  -136998  -136999 
 -137002  -137004  -137002  -137003  -137003  -137002  -137004  -137004 
 -137002  -137003  -137004  -137002  -137006  -137007  -137002  -137002 
 -137004  -137002  -137003  -137004  -137003  -137003  -137006  -137008 
 -137010  -137014  -137018  -137020  -137022  -137023  -137026  -137029 
 -137033  -137035  -137035  -137035  -137039  -137043  -137046  -137047 
 -137049  -137047  -137046  -137052  -137056  -137056  -137056  -137060 
 -137066  -137073  -137081  -137085  -137088  -137096  -137107  -137110 
 -137112  -137120  -137126  -137128  -137130  -137135  -137139  -137143 
 -137147  -137149  -137149  -137150  -137151  -137154  -137153  -137150 
 -137150  -137145  -137137  -137133  -137126  -137116  -137107  -137097 
 -137087  -137070  -137054  -137038  -137019  -137002  -136985  -136965 
 -136945  -136926  -136903  -136881  -136863  -136842  -136822  -136802 
 -136779  -136757  -136736  -136719  -136706  -136687  -136667  -136652 
 -136637  -136620  -136603  -136587  -136572  -136559  -136549  -136540 
 -136529  -136521  -136518  -136514  -136510  -136512  -136512  -136513 
 -136516  -136517  -136514  -136518  -136525  -136530  -136534  -136540 
 -136548  -136557  -136566  -136574  -136583  -136595  -136610  -136625 
 -136640  -136652  -136667  -136684  -136698  -136714  -136732  -136745 
 -136761  -136780  -136794  -136810  -136827  -136840  -136854  -136867 
 -136875  -136888  -136903  -136912  -136917  -136921  -136929  -136935 
 -136941  -136948  -136950  -136952  -136956  -136957  -136957  -136957 
 -136956  -136953  -136950  -136949  -136946  -136941  -136933  -136925 
 -136919  -136914  -136908  -136904  -136896  -136885  -136877  -136869 
 -136860  -136854  -136848  -136837  -136825  -136813  -136803  -136790 
 -136777  -136769  -136761  -136752  -136745  -136736  -136729  -136726 
 -136718  -136713  -136715  -136717  -136717  -136719  -136725  -136729 
 -136736  -136746  -136755  -136764  -136777  -136792  -136803  -136817 
 -136831  -136846  -136864  -136887  -136904  -136922  -136944  -136962 
 -136977  -136995  -137011  -137026  -137042  -137057  -137072  -137087 
 -137097  -137108  -137118  -137127  -137135  -137143  -137149  -137153 
 -137161  -137162  -137162  -137169  -137177  -137177  -137177  -137177 
 -137176  -137176  -137177  -137177  -137176  -137177  -137178  -137181 
 -137181  -137182  -137185  -137185  -137188  -137192  -137193  -137195 
 -137200  -137205  -137209  -137214  -137216  -137220  -137222  -137226 
 -137231  -137234  -137236  -137241  -137242  -137245  -137247  -137247 
 -137246  -137245  -137245  -137246  -137247  -137247  -137243  -137242 
 -137245  -137247  -137246  -137247  -137245  -137238  -137234  -137231 
 -137227  -137219  -137211  -137205  -137200  -137189  -137178  -137169 
 -137155  -137142  -137128  -137115  -137101  -137091  -137076  -137061 
 -137047  -137030  -137014  -136996  -136979  -136962  -136945  -136927 
 -136912  -136896  -136880  -136864  -136846  -136833  -136818  -136802 
 -136790  -136780  -136764  -136752  -136746  -136734  -136722  -136717 
 -136707  -136694  -136687  -136682  -136669  -136661  -136657  -136648 
 -136638  -136634  -136628  -136622  -136620  -136613  -136607  -136605 
 -136598  -136591  -136588  -136583  -136576  -136574  -136571  -136570 
 -136571  -136571  -136567  -136568  -136576  -136582  -136584  -136586 
 -136593  -136597  -136603  -136613  -136617  -136620  -136629  -136641 
 -136652  -136657  -136661  -136671  -136682  -136692  -136702  -136711 
 -136722  -136733  -136745  -136756  -136769  -136784  -136798  -136811 
 -136822  -136833  -136845  -136857  -136871  -136883  -136895  -136903 
 -136908  -136919  -136930  -136937  -136948  -136957  -136962  -136969 
 -136976  -136977  -136983  -136988  -136988  -136989  -136992  -136995 
 -136996  -136993  -136993  -136999  -137002  -136999  -137000  -136999 
 -136996  -136998  -137002  -137000  -136999  -137002  -137007  -137008 
 -137010  -137012  -137015  -137019  -137027  -137031  -137033  -137038 
 -137041  -137039  -137041  -137043  -137047  -137049  -137046  -137043 
 -137042  -137042  -137046  -137046  -137041  -137039  -137039  -137038 
 -137034  -137034  -137035  -137033  -137030  -137034  -137038  -137035 
 -137037  -137042  -137046  -137049  -137053  -137054  -137056  -137057 
