Origin Time       2025/01/13 21:19:00
Lat.              31.8
Long.             131.6
Depth. (km)       30
Mag.              6.9
Station Code      MYZH01
Station Lat.      32.6536
Station Long.     131.2257
Station Height(m) 502.4
Record Time       2025/01/13 21:19:49
Sampling Freq(Hz) 100Hz
Duration Time(s)  162
Dir.              2
Scale Factor      3923(gal)/8224838
Max. Acc. (gal)   6.213
Last Correction   2025/01/13 21:19:49
Memo.             
[...]
   18280    18318    18519    18800    19063    19199    19151    18958 
   18705    18523    18451    18362    18172    17992    17928    17952 
   17999    17994    17890    17771    17743    17817    17956    18148 
   18355    18481    18476    18446    18489    18534    18465    18343 
   18358    18620    19022    19322    19399    19359    19334    19305 
   19129    18752    18307    17996    17915    17968    17987    17944 
   17976    18154    18361    18474    18489    18388    18123    17840 
   17709    17593    17361    17200    17240    17424    17793    18350 
   18760    18725    18434    18274    18306    18354    18350    18301 
   18233    18226    18285    18274    18138    18007    18073    18395 
   18809    19057    19005    18765    18558    18458    18412    18373 
   18291    18137    17937    17718    17514    17392    17433    17655 
   17972    18315    18623    18738    18589    18412    18459    18590 
   18513    18276    18130    18188    18449    18841    19179    19346 
   19342    19167    18935    18794    18704    18612    18535    18416 
   18322    18446    18696    18765    18679    18720    18951    19203 
   19345    19288    18960    18469    18090    17934    17825    17649 
   17614    17909    18360    18677    18835    18874    18756    18628 
   18721    18966    19149    19176    18964    18495    17969    17624 
   17462    17451    17655    18014    18320    18457    18391    18103 
   17756    17556    17413    17177    17001    17043    17242    17539 
   17824    17891    17805    17892    18218    18486    18501    18373 
   18297    18331    18364    18274    18137    18198    18627    19300 
   19882    20137    20050    19672    19130    18624    18208    17848 
   17644    17728    18094    18517    18639    18362    17979    17749 
   17616    17467    17458    17780    18268    18578    18620    18576 
   18661    18848    18925    18912    18954    18900    18636    18377 
   18233    18130    18049    17988    17945    18038    18280    18459 
   18469    18392    18293    18234    18285    18501    18882    19229 
   19245    18881    18395    18079    18025    18156    18335    18400 
   18328    18262    18249    18181    17986    17745    17644    17787 
   18079    18333    18517    18760    19106    19369    19367    19184 
   19026    18951    18870    18657    18274    17871    17645    17721 
   18033    18297    18288    18138    18117    18196    18157    17953 
   17749    17671    17734    17901    18091    18260    18435    18519 
   18366    18054    17748    17587    17706    17940    17892    17562 
   17358    17416    17527    17660    17864    17975    17941    17896 
   17860    17883    18099    18411    18577    18555    18567    18779 
   19051    19187    19137    18870    18453    18188    18289    18570 
   18738    18817    18948    19110    19249    19411    19566    19538 
   19294    19076    18936    18720    18543    18559    18581    18508 
   18557    18751    18885    18967    19036    18960    18781    18715 
   18719    18598    18450    18431    18373    18154    18029    18158 
   18308    18274    18137    17973    17760    17536    17370    17257 
   17270    17478    17662    17558    17253    17054    17126    17365 
   17605    17779    17810    17586    17196    16897    16798    16852 
   17057    17397    17771    18112    18434    18652    18652    18497 
   18380    18414    18598    18889    19113    19045    18679    18183 
   17690    17339    17275    17490    17844    18242    18640    18981 
   19192    19244    19140    18905    18705    18765    19028    19203 
   19105    18777    18450    18318    18324    18315    18229    18084 
   18009    18126    18319    18420    18472    18488    18331    17987 
   17653    17494    17505    17604    17701    17756    17778    17810 
   17955    18216    18454    18655    18931    19213    19371    19371 
   19183    18906    18790    18833    18806    18693    18663    18684 
   18580    18385    18330    18485    18721    18956    19110    19009 
   18642    18301    18200    18202    18060    17699    17235    16907 
   16888    17069    17265    17498    17793    18071    18347    18621 
   18719    18571    18358    18250    18293    18420    18482    18393 
   18254    18237    18357    18539    18805    19140    19300    19068 
   18619    18350    18362    18455    18596    18851    19030    18909 
   18646    18574    18771    19059    19279    19402    19414    19261 
   18952    18574    18204    17869    17582    17446    17589    17921 
   18152    18121    17894    17567    17300    17311    17556    17733 
   17736    17718    17820    18034    18208    18175    17933    17643 
   17579    17949    18576    19028    19132    19032    18895    18949 
   19306    19643    19674    19516    19244    18854    18634    18775 
   18966    18805    18426    18307    18584    18947    19186    19305 
   19282    19134    19028    18968    18783    18508    18384    18420 
   18318    17905    17415    17180    17255    17448    17529    17489 
   17601    17921    18076    17883    17620    17487    17425    17408 
   17409    17348    17301    17423    17621    17670    17618    17779 
   18223    18577    18515    18210    17965    17836    17847    18018 
   18210    18335    18466    18619    18682    18570    18328    18018 
   17790    17901    18299    18684    19017    19415    19742    19799 
   19618    19467    19595    19924    20162    20251    20308    20263 
   20034    19726    19438    19218    19164    19228    19157    18827 
   18373    17963    17618    17267    16946    16860    17140    17649 
   18108    18277    18042    17528    16957    16395    15904    15660 
   15773    16152    16552    16848    17142    17496    17811    18026 
   18181    18326    18466    18576    18634    18715    18898    18998 
   18751    18334    18200    18436    18755    18947    18949    18702 
   18262    17926    17923    18092    18184    18264    18477    18652 
   18509    18098    17699    17423    17275    17361    17728    18208 
   18600    18837    18910    18801    18574    18463    18670    19125 
   19562    19746    19678    19583    19548    19453    19209    18841 
   18476    18253    18239    18380    18522    18569    18536    18482 
   18493    18650    18890    19057    19084    18981    18797    18640 
   18582    18616    18746    18987    19259    19404    19446    19545 
   19700    19801    19840    19801    19570    19241    19124    19330 
   19587    19514    19001    18370    18025    17959    17887    17683 
   17458    17269    17014    16640    16264    16025    16017    16267 
   16625    16833    16819    16784    16972    17417    17914    18162 
   18038    17720    17385    17037    16789    16876    17238    17609 
   17949    18380    18889    19404    19803    19828    19422    18994 
   18939    19153    19373    19622    19950    20136    19998    19619 
   19180    18860    18678    18438    18057    17672    17334    17004 
   16788    16754    16733    16621    16561    16676    17005    17604 
   18364    18949    19222    19394    19584    19708    19714    19558 
   19294    19118    19051    18959    18840    18715    18571    18470 
   18416    18280    18042    17852    17822    17945    18050    17923 
   17601    17284    17162    17478    18135    18539    18442    18173 
   17922    17730    17798    18108    18353    18443    18526    18634 
   18762    19049    19553    19989    19942    19448    18986    18878 
   19014    19036    18735    18299    17999    17879    17882    17976 
   18139    18373    18640    18833    18916    18878    18644    18277 
   17949    17626    17216    16853    16680    16664    16803    17178 
   17755    18335    18648    18565    18257    17998    17928    18011 
   18079    18079    18260    18724    19120    19172    19013    18767 
   18528    18493    18507    18173    17622    17338    17393    17504 
   17672    18148    18820    19364    19723    19923    19795    19263 
   18657    18414    18603    18991    19295    19244    18817    18280 
   17856    17647    17703    17907    18042    18014    17968    18076 
   18204    18199    18195    18153    17861    17555    17555    17676 
   17726    17894    18195    18450    18720    18958    18933    18775 
   18696    18561    18303    18176    18328    18652    19043    19441 
   19742    19919    19971    19836    19623    19579    19600    19298 
   18728    18415    18546    18832    19145    19608    20078    20221 
   19961    19527    19199    18955    18605    18243    18068    18000 
   17946    18003    18231    18617    19018    19232    19427    19795 
   19997    19830    19681    19835    20067    20127    20025    19884 
   19799    19867    20055    20079    19788    19458    19342    19314 
   19236    19214    19348    19596    19947    20445    20964    21222 
   21317    21644    22150    22468    22449    22054    21294    20424 
   19800    19518    19423    19458    19651    19843    19867    19975 
   20526    21199    21378    21112    20671    20012    19264    18721 
   18403    18157    17946    17624    16985    16240    15732    15454 
   15230    15030    14899    14824    14692    14438    14146    13950 
   13917    14003    14154    14389    14639    14806    14951    15184 
   15637    16372    17216    17863    18060    17828    17489    17389 
   17644    18185    18860    19561    20212    20602    20549    20227 
   20020    20171    20618    21070    21232    21018    20594    20216 
   19936    19607    19210    18917    18792    18678    18438    18130 
   17829    17412    16775    16083    15631    15516    15546    15422 
   14936    14072    12950    11911    11480    11682    11929    11961 
   11952    11890    11700    11477    11169    10646    10095     9876 
   10021    10427    11268    12592    14095    15662    17331    18916 
   20309    21651    22970    24061    24669    24764    24615    24408 
   24051    23564    23118    22819    22762    23008    23469    23947 
   24197    24065    23611    22967    22168    21284    20362    19386 
   18503    17914    17523    16953    16017    15118    14769    14785 
   14542    13922    13363    13170    13325    13813    14671    15800 
   16977    18100    19145    19966    20409    20530    20475    20245 
   19778    19084    18441    18238    18481    18904    19391    19915 
   20474    21105    21828    22577    23220    23733    24231    24889 
   25915    27156    28008    28169    27897    27487    27066    26743 
   26543    26226    25431    24069    22437    20949    19797    18908 
   18126    17352    16742    16494    16401    16206    16086    16182 
   16212    15898    15330    14774    14328    13845    13227    12600 
   12106    11794    11634    11539    11392    11021    10366     9697 
    9377     9452     9647     9855    10307    11171    12415    13857 
   15207    16245    16962    17513    17938    18175    18387    18801 
   19275    19465    19264    18905    18631    18293    17524    16259 
   14789    13544    13011    13304    14064    15126    16553    18115 
   19494    20609    21456    21905    21901    21721    21620    21482 
   21196    20875    20560    20217    19908    19701    19615    19622 
   19645    19593    19372    19035    18859    18997    19257    19564 
   20174    21085    21822    22081    22113    22185    22272    22428 
   22820    23267    23328    22846    22068    21188    20177    19120 
   18185    17437    17019    16985    17219    17832    18918    20250 
   21462    22243    22619    22937    23488    24233    24903    25309 
   25450    25257    24413    22725    20390    17744    15095    12765 
   10956     9679     8881     8521     8556     8930     9632    10662 
   11830    12681    12928    12781    12537    12189    11807    11753 
   12083    12372    12505    12707    12935    13058    13043    12722 
   12094    11635    11778    12545    13706    15086    16740    18798 
   21255    23957    26503    28452    29690    30294    30383    30173 
   29886    29640    29434    29118    28621    28115    27621    26832 
   25555    23876    21863    19543    17112    14836    12852    11119 
    9552     8259     7388     6847     6535     6498     6794     7492 
    8606     9961    11341    12631    13602    14013    13976    13946 
   14543    16047    17901    19273    19990    20417    20794    21045 
   21073    20983    20946    20976    20947    20848    20819    20804 
   20680    20594    20524    20113    19317    18461    17666    16802 
   15923    15256    14825    14463    14164    14044    14131    14492 
   15241    16218    17061    17663    18188    18790    19518    20299 
   21155    22208    23383    24548    25704    26703    27261    27396 
   27403    27205    26337    24590    22226    19687    17290    15133 
   13211    11572    10362     9629     9202     8977     8903     8765 
    8446     8209     8467     9323    10577    12013    13389    14612 
   15854    17136    18331    19442    20428    21023    20918    20038 
   18708    17537    16924    16856    17286    18146    19192    20160 
   20908    21556    22216    22634    22608    22411    22385    22437 
   22315    22104    21953    21687    21112    20374    19727    19309 
   19145    19060    18736    18048    17271    16717    16295    15908 
   15871    16456    17590    19268    21533    24020    26141    27704 
   28903    29856    30564    31072    31368    31301    30850    30132 
   29039    27519    25964    24648    23272    21510    19581    17894 
   16499    15454    14987    15020    15218    15341    15319    15187 
   15032    15032    15286    15661    15940    16094    16251    16402 
   16536    16784    17116    17358    17501    17664    17986    18644 
   19688    20719    21263    21424    21709    22339    23174    24132 
   25049    25454    25193    24528    23595    22453    21181    19769 
   18036    15932    13876    12167    10581     9024     7780     6971 
    6427     6034     5791     5832     6550     8079     9988    11794 
   13324    14581    15638    16714    18013    19546    21320    23311 
   25203    26469    26813    26430    25648    24653    23535    22327 
   21034    19618    18064    16494    15102    14044    13328    12862 
   12596    12657    13193    14076    15132    16297    17383    18237 
   18882    19310    19407    19205    18901    18554    18095    17604 
   17307    17417    17991    18906    19926    20794    21343    21483 
   21240    20868    20607    20484    20470    20468    20368    20374 
   20690    21132    21550    21910    21938    21362    20310    19172 
   18118    17039    16011    15322    14944    14607    14439    14731 
   15327    15955    16669    17594    18567    19278    19638    19912 
   20359    20889    21335    21736    22140    22391    22304    21945 
   21500    21138    21042    21158    21118    20661    19804    18566 
   17003    15314    13749    12510    11707    11358    11340    11331 
   11171    11017    10955    10875    10725    10628    10748    10994 
   11107    11128    11375    11997    12966    14310    15946    17579 
   18906    19896    20758    21591    22312    22840    23170    23372 
   23587    23997    24626    25309    25913    26334    26464    26352 
   26235    26164    25875    25164    23986    22427    20696    19037 
   17639    16575    15853    15465    15406    15688    16190    16745 
   17338    17902    18261    18327    18153    17805    17354    16906 
   16545    16281    16051    15873    15704    15277    14478    13491 
   12509    11557    10652    10027     9883    10135    10608    11184 
   11935    13085    14642    16267    17641    18721    19506    19947 
   20187    20448    20767    21012    21096    21064    20926    20622 
   20251    19965    19742    19485    19179    18847    18503    18261 
   18287    18543    18894    19288    19645    19788    19742    19745 
   19907    20128    20317    20472    20506    20304    19997    19664 
   19188    18738    18516    18299    17952    17832    18198    18774 
   19203    19467    19588    19469    19300    19537    20332    21371 
   22303    23053    23625    23998    24256    24425    24414    24173 
   23766    23333    22848    22137    21316    20788    20618    20547 
   20521    20592    20698    20879    21213    21554    21667    21540 
   21342    21207    21209    21242    21087    20772    20301    19558 
   18659    17818    17119    16591    16371    16600    17199    17948 
   18671    19291    19807    20245    20682    21217    21736    21932 
   21722    21216    20533    19963    19749    19742    19676    19453 
   19080    18688    18584    18891    19435    20121    20794    21213 
   21323    21085    20472    19614    18717    17883    17073    16349 
   15948    15982    16263    16528    16646    16640    16521    16287 
   16081    16046    16093    16065    15939    15747    15469    15097 
   14705    14378    14110    13857    13641    13371    12803    11969 
   11187    10516     9783     9150     8981     9332     9995    10805 
   11703    12667    13672    14736    15934    17271    18601    19762 
   20702    21394    21790    21836    21519    20969    20414    20016 
   19813    19718    19616    19523    19510    19593    19761    20016 
   20336    20659    20902    20946    20698    20229    19791    19579 
   19651    20005    20532    20979    21031    20556    19699    18693 
   17713    16804    15975    15315    14856    14534    14335    14445 
   15121    16366    17822    19080    19981    20563    20826    20741 
   20366    19809    19175    18531    17896    17301    16843    16559 
   16395    16379    16557    16865    17197    17531    17898    18222 
   18459    18689    18814    18630    18198    17801    17564    17473 
   17590    17887    18144    18220    18085    17694    17066    16390 
   15865    15529    15380    15410    15549    15793    16194    16699 
   17103    17207    17045    16787    16519    16303    16209    16177 
   16048    15770    15479    15313    15245    15277    15535    16036 
   16640    17250    17872    18497    19047    19456    19793    20121 
   20386    20486    20320    19880    19288    18644    17972    17285 
   16691    16401    16498    16808    17099    17289    17356    17230 
   16918    16582    16395    16405    16463    16352    16063    15769 
   15507    15249    15106    15138    15291    15542    15853    16067 
   16048    15828    15499    15159    14943    14920    15137    15665 
   16456    17383    18403    19480    20533    21604    22681    23526 
   23958    23981    23692    23238    22767    22496    22639    23167 
   23751    24073    24065    23870    23679    23615    23658    23625 
   23376    23045    22817    22644    22455    22397    22639    23175 
   23851    24491    24991    25326    25450    25250    24692    23812 
   22561    20825    18600    16170    13876    11819    10098     8981 
    8584     8797     9479    10377    11149    11691    12208    12891 
   13683    14428    15051    15493    15720    15803    15876    16006 
   16163    16339    16519    16648    16762    16996    17512    18454 
   19772    21285    22963    24823    26662    28170    29143    29521 
