Origin Time       2025/01/13 21:19:00
Lat.              31.8
Long.             131.6
Depth. (km)       30
Mag.              6.9
Station Code      MYZH08
Station Lat.      32.2132
Station Long.     131.5309
Station Height(m) 68
Record Time       2025/01/13 21:19:40
Sampling Freq(Hz) 100Hz
Duration Time(s)  222
Dir.              6
Scale Factor      3920(gal)/6170801
Max. Acc. (gal)   70.252
Last Correction   2025/01/13 21:19:25
Memo.             
[...]
  -24297   -24305   -24301   -24290   -24282   -24281   -24285   -24293 
  -24300   -24301   -24294   -24288   -24284   -24285   -24291   -24298 
  -24301   -24298   -24290   -24284   -24284   -24288   -24295   -24298 
  -24296   -24293   -24292   -24291   -24287   -24286   -24292   -24299 
  -24299   -24293   -24285   -24281   -24288   -24300   -24305   -24296 
  -24285   -24280   -24284   -24296   -24305   -24301   -24291   -24281 
  -24283   -24292   -24297   -24297   -24295   -24292   -24290   -24289 
  -24290   -24293   -24293   -24293   -24294   -24292   -24288   -24287 
  -24291   -24295   -24295   -24293   -24291   -24292   -24292   -24291 
  -24292   -24296   -24297   -24290   -24285   -24286   -24290   -24294 
  -24298   -24298   -24292   -24284   -24282   -24289   -24299   -24300 
  -24293   -24287   -24286   -24291   -24297   -24299   -24292   -24286 
  -24284   -24289   -24299   -24304   -24297   -24287   -24282   -24284 
  -24293   -24299   -24298   -24293   -24289   -24287   -24287   -24291 
  -24295   -24297   -24296   -24293   -24290   -24290   -24290   -24291 
  -24295   -24296   -24293   -24292   -24291   -24286   -24287   -24295 
  -24297   -24294   -24294   -24291   -24288   -24290   -24292   -24293 
  -24292   -24291   -24293   -24296   -24293   -24287   -24282   -24284 
  -24294   -24303   -24302   -24292   -24281   -24278   -24285   -24300 
  -24309   -24303   -24290   -24280   -24281   -24293   -24303   -24300 
  -24290   -24287   -24288   -24293   -24303   -24304   -24294   -24283 
  -24281   -24288   -24299   -24307   -24304   -24292   -24281   -24279 
  -24289   -24303   -24307   -24298   -24286   -24280   -24285   -24294 
  -24297   -24294   -24289   -24289   -24293   -24296   -24292   -24286 
  -24282   -24286   -24296   -24300   -24294   -24287   -24284   -24286 
  -24293   -24302   -24301   -24291   -24281   -24279   -24285   -24297 
  -24303   -24298   -24290   -24285   -24282   -24287   -24299   -24304 
  -24298   -24289   -24284   -24283   -24287   -24294   -24298   -24293 
  -24288   -24288   -24294   -24297   -24295   -24296   -24296   -24291 
  -24289   -24289   -24290   -24295   -24300   -24298   -24290   -24285 
  -24285   -24290   -24299   -24304   -24298   -24288   -24282   -24281 
  -24291   -24303   -24305   -24298   -24288   -24283   -24285   -24292 
  -24299   -24300   -24295   -24290   -24286   -24288   -24293   -24295 
  -24296   -24295   -24290   -24291   -24294   -24293   -24293   -24291 
  -24288   -24290   -24293   -24294   -24294   -24293   -24289   -24284 
  -24287   -24295   -24298   -24296   -24294   -24291   -24288   -24288 
  -24292   -24294   -24292   -24291   -24290   -24290   -24290   -24289 
  -24289   -24291   -24292   -24291   -24292   -24295   -24292   -24288 
  -24289   -24292   -24293   -24293   -24293   -24293   -24291   -24290 
  -24291   -24290   -24292   -24293   -24295   -24295   -24292   -24290 
  -24290   -24290   -24292   -24295   -24298   -24293   -24288   -24288 
  -24291   -24294   -24296   -24295   -24291   -24287   -24286   -24291 
  -24295   -24296   -24292   -24286   -24286   -24290   -24294   -24297 
  -24295   -24290   -24286   -24284   -24289   -24295   -24298   -24297 
  -24292   -24285   -24284   -24291   -24298   -24300   -24296   -24293 
  -24296   -24304   -24318   -24336   -24351   -24361   -24377   -24403 
  -24432   -24462   -24485   -24498   -24502   -24499   -24488   -24476 
  -24463   -24453   -24454   -24457   -24460   -24473   -24516   -24607 
  -24722   -24780   -24697   -24432   -24003   -23599   -23546   -23988 
  -24772   -25561   -25880   -25398   -24323   -23381   -23356   -24381 
  -25721   -26275   -25415   -23774   -22825   -23376   -24748   -25291 
  -23927   -21443   -20085   -21737   -26022   -30015   -30198   -25412 
  -18501   -14693   -17524   -25441   -32180   -31726   -24055   -15646 
  -13761   -20044   -29155   -33450   -29707   -21693   -16642   -19021 
  -26652   -32737   -31937   -25018   -18253   -17648   -23387   -30090 
  -31844   -27147   -19978   -16404   -19507   -26720   -32053   -31399 
  -25755   -19928   -18489   -22030   -27022   -29218   -27093   -22976 
  -20769   -22220   -25828   -28499   -28002   -24910   -21969   -21340 
  -22923   -25007   -26077   -26061   -25902   -26259   -26799   -26295 
  -23954   -21152   -20725   -24109   -29496   -32853   -31254   -25646 
  -20502   -20214   -24979   -30424   -31438   -26639   -19857   -17032 
  -21143   -29327   -34658   -32396   -24604   -17918   -17787   -24069 
  -31489   -34629   -31450   -24126   -18156   -18297   -24556   -31754 
  -33283   -27400   -19398   -16991   -23125   -32032   -34338   -26872 
  -15579    -9921   -14633   -25292   -32446   -30469   -22037   -14865 
  -14997   -22034   -29850   -32462   -28721   -22134   -17738   -18260 
  -22156   -25036   -23687   -19083   -15046   -14936   -19102   -24513 
  -27511   -26496   -22881   -20361   -21503   -25032   -27082   -25169 
  -20917   -17915   -18432   -22567   -27528   -29226   -26695   -22968 
  -21655   -23632   -26469   -26843   -24013   -20951   -21165   -25157 
  -30243   -32773   -31257   -27327   -24036   -23470   -24623   -25111 
  -24691   -24904   -26939   -30371   -32918   -31810   -25966   -18069 
  -14089   -18214   -27624   -34158   -32704   -25953   -20000   -19446 
  -25451   -33643   -36750   -31377   -20960   -13233   -13654   -20656 
  -28170   -30554   -26091   -18884   -15826   -19604   -25867   -27891 
  -22943   -15468   -14204   -22736   -33963   -36853   -27264   -11888 
   -2998    -8064   -23559   -37850   -39580   -28127   -16006   -15709 
  -26755   -37638   -37704   -26893   -14383   -10105   -17517   -30774 
  -39453   -37272   -26469   -15457   -11847   -16604   -24960   -31360 
  -32274   -27099   -18434   -10433    -7367   -12140   -23204   -34460 
  -39031   -33550   -21311   -11536   -12585   -23417   -34290   -36228 
  -27680   -15731   -10765   -17537   -32162   -44236   -43902   -32088 
  -19752   -16486   -23001   -31877   -34143   -26865   -15839   -10901 
  -17225   -30599   -40525   -38947   -27486   -15827   -13363   -21196 
  -31652   -36019   -31209   -20944   -12782   -12175   -17968   -23556 
  -24013   -21442   -21086   -25126   -31453   -36263   -38280   -39349 
  -40361   -38378   -29408   -15890    -6831    -8318   -18728   -29674 
  -31386   -23446   -15872   -17611   -27590   -35781   -33373   -22499 
  -13620   -14729   -24927   -34578   -32187   -16720    -1067     -300 
  -17857   -41973   -54966   -47783   -26681    -7354    -3195   -16128 
  -34891   -42801   -30387    -4145    15916    12360   -13357   -40879 
  -47508   -28951    -4216     2327   -16034   -42001   -51316   -36137 
  -10730     3731    -2080   -20366   -35942   -39202   -30721   -17928 
   -9875   -12222   -24446   -39498   -46761   -40618   -26638   -16686 
  -17692   -26337   -35430   -40985   -41264   -37138   -34831   -39694 
  -47572   -48002   -35526   -16693    -5131    -8262   -19947   -28360 
  -27998   -20448   -11013    -7364   -13456   -25733   -36967   -40120 
  -31107   -13341      307    -3680   -25132   -46522   -46941   -23322 
    4961    14857      -31   -26377   -45677   -49526   -40800   -27952 
  -18812   -14060    -9737    -5718    -6346   -13975   -23965   -27925 
  -23460   -18723   -23663   -35688   -40612   -31519   -19354   -19146 
  -29910   -36318   -27827    -8567     6069     1084   -21903   -43805 
  -46752   -30632   -12010    -6931   -16659   -31274   -41024   -41872 
  -35005   -23681   -12134    -8595   -20273   -40417   -52996   -51195 
  -39457   -24130   -10976    -4640    -6830   -15856   -25504   -27849 
  -21659   -12956    -7375    -8360   -17470   -31442   -42131   -39739 
  -21707     -720     5640    -8044   -32357   -50212   -49640   -34587 
  -17860    -8323    -8027   -12420   -13968   -10196    -7219   -14466 
  -33987   -55486   -63360   -50326   -26184    -8990    -6959   -13888 
  -19327   -19162   -16717   -15334   -15500   -19709   -30847   -42956 
  -43617   -31047   -19534   -21975   -34640   -43317   -39845   -28589 
  -19624   -19106   -24228   -29241   -32558   -33005   -30483   -29249 
  -33731   -45919   -59270   -57534   -32922       30    14809    -1129 
  -31827   -48210   -35204    -4540    15572     5801   -26180   -53218 
  -53290   -26528     5151    15229    -5149   -40419   -62960   -54655 
  -21025    13600    23952     3085   -30683   -48007   -33535      -61 
   20190     4806   -33732   -60333   -52521   -19904     5208       56 
  -27706   -51866   -50822   -26190    -3133    -4847   -29077   -52032 
  -53065   -34761   -16811   -13753   -23130   -30510   -25230   -12622 
   -6311   -13790   -32687   -51303   -55277   -41644   -22841   -15903 
  -27758   -49253   -65498   -66394   -47359   -16007     5666      235 
  -27591   -52510   -48997   -17877    13855    20197    -2972   -34843 
  -46381   -29193    -2083    12359     4999   -18150   -39379   -44315 
  -31994   -10194     5416     -193   -24131   -47236   -50974   -33072 
   -9992    -1369   -13056   -32862   -43623   -40433   -29556   -19507 
  -17460   -24899   -36954   -45567   -42886   -29520   -15791    -9177 
   -8033    -9045   -14662   -29825   -51015   -63313   -53619   -26395 
   -1080     6491    -3800   -19184   -27869   -29506   -26984   -19463 
   -8790    -1737    -6068   -19763   -28701   -27706   -25453   -26223 
  -27276   -28701   -32825   -35710   -31062   -18472    -2883     2059 
  -13604   -36269   -44134   -28650     -807    11884    -5219   -35752 
  -53689   -45762   -20330    -1756    -9561   -40098   -67018   -65504 
  -34477     3241    16239   -10329   -60856   -99461   -94363   -43628 
   19397    49022    23346   -35195   -77716   -68759   -15484    35343 
   38347    -8352   -66335   -93706   -73126   -19174    29923    38668 
    2238   -50223   -77700   -60273   -18319     7293    -2808   -32947 
  -53078   -41566    -4374    26261    23751   -11469   -57099   -84080 
  -74251   -33555     8031    18137    -8815   -47559   -67633   -59222 
  -36623   -20542   -16075   -14500   -12090   -11089   -12971   -18338 
  -22982   -20419   -11716    -6998   -16129   -36996   -56037   -57291 
  -34166    -1719    14161     1121   -31877   -58867   -56390   -29990 
   -8887   -13538   -35594   -48083   -36369   -13749    -2541   -11735 
  -33755   -52828   -55932   -37823    -6819    12005     -551   -34300 
  -61031   -59744   -32064    -2256     2354   -22306   -49831   -49428 
  -19252    10976    10776   -17282   -44622   -51346   -36330   -14020 
   -8699   -28575   -53749   -59153   -37773    -4961    12166    -3347 
  -38986   -62385   -55087   -27395    -3416     -104   -15013   -31094 
  -32636   -17743      857     9047     2740   -14589   -34614   -43601 
  -31015    -2333    20860    18184   -10251   -41174   -45432   -17353 
   15049    19421    -8896   -43930   -53400   -30218     4978    24547 
   10781   -31563   -76036   -91240   -62997    -9364    31720    30682 
  -11806   -60437   -75200   -47270    -2613    18153    -6765   -57779 
  -90483   -75523   -25011    19892    25145   -10749   -55051   -68010 
  -40257     -352    13960    -7626   -39874   -51324   -34710    -9348 
    -278   -14705   -38649   -54603   -55359   -41543   -19566    -3420 
   -5367   -23822   -43172   -46251   -30675   -11932   -10079   -30068 
  -52104   -51868   -29393    -7163    -6098   -25924   -46977   -53310 
  -45067   -32011   -24317   -23839   -26554   -28496   -22979    -6388 
   13096    21486    12171    -7053   -20637   -18508    -3917    10344 
   13683     3747   -12904   -25237   -27831   -22231   -14789   -15222 
  -25186   -33406   -29491   -17936   -13988   -25686   -45013   -55032 
  -45089   -23381   -10156   -16594   -33717   -43671   -39389   -28597 
  -22505   -24390   -29709   -35081   -39973   -43805   -45450   -42683 
  -33045   -16783    -3691    -7343   -26367   -46849   -53856   -36782 
   -3684    20538    18240    -9621   -45699   -63996   -49256   -14405 
    8573     -550   -32547   -60184   -63327   -44783   -23991   -17930 
  -27626   -38901   -35002   -14697      614    -9788   -38692   -60424 
  -58485   -36972   -13426    -5049   -18345   -43748   -60937   -55523 
  -31117    -7923    -3687   -14776   -26701   -32714   -34408   -34771 
  -33234   -28071   -21107   -17444   -21474   -29747   -33373   -29781 
  -24083   -19589   -12493      734    16592    25906    16072   -15004 
  -50325   -70587   -63996   -29888     9903    24907     6700   -28296 
  -56719   -60506   -40661   -22583   -25231   -38167   -45783   -41868 
  -22606     2136    11131    -2662   -27581   -46797   -48129   -28534 
    1602    20403    10526   -28235   -73339   -87051   -53849     -399 
   32263    22161   -19619   -59456   -68433   -41839     -695    24816 
   17002   -17847   -53125   -62161   -40078    -9090     3623    -4515 
  -19212   -30910   -33508   -27610   -24145   -31684   -45118   -45085 
  -22807     1495     5324   -12718   -35377   -40785   -26476   -10252 
   -7630   -19877   -33176   -30447   -11351     6877     9117    -3219 
  -18828   -30379   -36731   -37518   -27684    -8935    -1371   -11222 
  -18461   -20532   -31295   -44837   -44221   -22440     9000    20202 
   -3727   -33392   -33124    -8162    12943    10342   -13224   -32113 
  -30416   -16881    -4408    -5615   -23150   -39760   -40642   -27359 
  -13490   -14243   -28890   -44715   -56285   -62682   -52364   -20269 
    4621    -8419   -50950   -93019  -108856   -88841   -41080    16171 
   51056    34487   -25866   -84653   -90333   -29533    51442    86298 
   49033   -29645   -86649   -75552   -14149    36098    33766   -19151 
  -84220  -111709   -83447   -24072    19765    10427   -44377   -96705 
 -105857   -68625   -17528     7650    -1307   -20924   -32423   -35270 
  -31887   -23601   -20476   -34897   -60248   -73364   -59240   -24176 
    7833    11143   -20997   -68803   -97147   -79715   -25696    20069 
   23295    -4636   -31170   -31976      973    47645    69670    42897 
  -24746   -89131   -93745   -31894    37802    58118    21530   -36184 
  -65256   -48399   -11281    15072    13070   -17696   -52479   -63774 
  -51974   -34375   -23973   -24443   -26163   -20439   -16972   -27896 
  -44424   -42816   -16818     9654    10125   -19705   -56862   -64444 
  -30330    13943    29022     7552   -26586   -42448   -29309    -5993 
    1293   -17219   -48234   -64824   -53682   -28810   -11762    -7855 
   -9875   -16736   -24605   -18849    -1039     7391    -6112   -33584 
  -54866   -52373   -22875    17319    40348    29337    -9746   -50581 
  -59326   -26404    18791    34858     3084   -55994   -98419   -94527 
  -48311     5374    21011   -17436   -78165  -111724   -93047   -39341 
    6641    16712    -4244   -34728   -52006   -41932   -11137    14593 
   12037   -16726   -49004   -65060   -60690   -44786   -28938   -20901 
  -23938   -35075   -48597   -60070   -64714   -58952   -44719   -30963 
  -26724   -30150   -32587   -30113   -21689    -8468     -519    -9700 
  -32472   -47171   -36518   -10234     6595     1741   -14559   -22562 
  -13950     2667    12936     5761   -19061   -45289   -52032   -34819 
  -11061    -4469   -24713   -60050   -85038   -79186   -43705      262 
   24295    13513   -15492   -30780   -14523    23765    51123    40228 
   -6089   -61782   -93443   -81432   -39620    -6160    -9593   -42819 
  -71953   -69223   -35631     1847    13677    -4905   -29256   -33533 
  -17411      996     8186     5795     2341    -1114    -9431   -18293 
  -14438     4612    21325    17225    -4590   -28532   -46898   -56733 
  -55264   -46592   -37844   -32147   -28585   -21168    -4876    11483 
    9457   -15721   -44202   -49557   -24630     8363    13778   -21148 
  -71500  -104042  -103555   -73551   -34767   -11930   -11661   -23661 
  -37155   -45495   -42686   -27763   -12355   -12757   -28875   -43130 
  -42192   -27629   -12262   -10533   -24833   -42653   -48519   -36786 
  -12714     8858     7581   -19805   -50111   -56052   -29133    10363 
   29870    15776   -19468   -50228   -57153   -38658    -7229    13684 
    4915   -26992   -54548   -53357   -23967    10275    25261     9309 
  -29897   -63297   -59415   -16596    27894    34636     1542   -40962 
  -59764   -43871    -9357    17233    14964   -20134   -65422   -84646 
  -60248    -9603    28405    23740   -18666   -62660   -72681   -42528 
    2052    26124    10216   -36437   -76618   -73411   -26146    27648 
   44860    16630   -23879   -40277   -25811       67     7100   -18779 
  -56802   -75644   -63789   -34417   -16832   -31482   -64926   -82926 
  -68862   -36113    -8087     -445   -15824   -44581   -69534   -71662 
  -43860    -5360    12240    -4290   -39885   -65316   -59522   -26805 
    4795     7841   -21753   -63277   -83193   -61818   -16835    12709 
    4698   -27303   -50541   -47797   -30222   -20118   -30211   -53337 
  -68431   -61888   -42137   -29474   -32683   -38991   -29109     -410 
   28904    38689    26297     6666    -3386      264     9056    12803 
    4122   -19561   -44593   -46655   -21233     8913    20613     7519 
  -21232   -44855   -45564   -26520    -9625   -14694   -38224   -54590 
  -41717    -3184    32646    35711     2517   -40735   -62595   -48507 
   -9909    20581    15152   -23255   -63818   -74651   -49722   -13418 
    4176    -5222   -30058   -54589   -62560   -46125   -19663    -8328 
  -22880   -51364   -70378   -66482   -45978   -24723   -19195   -36138 
  -60272   -67040   -47340   -13812     9892     8979   -11397   -37994 
  -58922   -58579   -29002     9569    23603     2313   -33993   -56214 
  -52504   -32916   -13106    -5117   -17898   -50623   -82474   -82941 
  -49334   -14819    -5481   -18209   -35444   -36542   -12250    22399 
   42473    33625    -1588   -40689   -55412   -39978   -11956     7305 
    4679   -17094   -40528   -47021   -32223    -8513     9983    12724 
   -9094   -43233   -56423   -33094     6298    24619     2379   -38954 
  -59332   -43935    -8837    21846    28579     6299   -29408   -54860 
  -52795   -26564    -4663    -8611   -27013   -37320   -32655   -20760 
  -12414   -14511   -26889   -41139   -43183   -26679    -7988   -12676 
  -44607   -81635   -97175   -78860   -36190     4501    17868    -2853 
  -39127   -58701   -43711    -6694    23871    28248     7596   -21522 
  -41802   -43540   -28534   -11432    -6236   -13543   -25296   -33364 
  -36439   -39755   -43891   -43048   -36489   -31142   -32695   -41514 
  -54123   -62925   -59688   -43964   -24279    -9330    -3001    -6476 
  -16975   -26784   -29800   -26730   -20819   -12586    -4435    -4073 
  -14528   -26699   -28444   -18251    -6224    -3187   -12549   -29172 
  -41162   -38823   -26167   -16594   -16977   -22010   -21845   -13212 
   -2695     2263      914    -2777    -5302    -7008    -8599    -8176 
   -7450   -11696   -21030   -29216   -30325   -25697   -22641   -26161 
  -35945   -46553   -49502   -41805   -30899   -27752   -35865   -47785 
  -51945   -44045   -32506   -29331   -36807   -45486   -41574   -19496 
    9235    24002    12215   -19969   -49332   -52335   -26975     3400 
   12258    -5901   -34211   -49238   -38677   -11655     7840      519 
  -30884   -61967   -68256   -45122    -8783    15806    12490   -16076 
  -51481   -68638   -53299   -18149     7276     4238   -21875   -49533 
