Origin Time       2025/01/13 21:19:00
Lat.              31.8
Long.             131.6
Depth. (km)       30
Mag.              6.9
Station Code      MYZH16
Station Lat.      32.5060
Station Long.     131.6958
Station Height(m) 2
Record Time       2025/01/13 21:19:45
Sampling Freq(Hz) 100Hz
Duration Time(s)  165
Dir.              6
Scale Factor      3920(gal)/6170801
Max. Acc. (gal)   13.322
Last Correction   2025/01/13 21:19:30
Memo.             
[...]
   16450    16448    16444    16444    16438    16434    16449    16458 
   16439    16427    16441    16452    16446    16441    16442    16439 
   16442    16452    16447    16439    16443    16441    16445    16448 
   16440    16442    16440    16435    16453    16456    16432    16431 
   16450    16455    16445    16433    16438    16455    16444    16434 
   16453    16450    16431    16443    16449    16443    16449    16439 
   16435    16452    16445    16443    16447    16433    16447    16456 
   16434    16442    16449    16435    16443    16447    16442    16446 
   16435    16439    16457    16447    16436    16443    16444    16445 
   16446    16445    16444    16440    16438    16448    16452    16438 
   16433    16448    16451    16441    16444    16445    16439    16443 
   16451    16449    16436    16437    16450    16450    16441    16440 
   16445    16443    16437    16446    16448    16436    16441    16450 
   16447    16446    16440    16435    16446    16446    16444    16445 
   16436    16438    16449    16445    16444    16447    16436    16433 
   16452    16458    16440    16432    16439    16447    16452    16447 
   16438    16436    16438    16451    16452    16436    16442    16446 
   16434    16449    16458    16440    16430    16439    16455    16453 
   16435    16439    16447    16439    16446    16451    16435    16436 
   16446    16445    16446    16444    16440    16442    16443    16448 
   16448    16436    16437    16446    16445    16443    16442    16443 
   16436    16438    16456    16453    16432    16434    16447    16456 
   16452    16431    16432    16450    16447    16445    16442    16435 
   16440    16441    16446    16457    16441    16426    16439    16452 
   16453    16444    16425    16425    16448    16453    16436    16420 
   16418    16432    16437    16424    16416    16412    16410    16413 
   16422    16431    16418    16404    16425    16444    16438    16433 
   16430    16432    16442    16438    16417    16384    16361    16357 
   16350    16342    16345    16352    16382    16438    16476    16472 
   16451    16461    16499    16517    16500    16468    16447    16449 
   16451    16416    16377    16403    16457    16450    16410    16419 
   16519    16644    16630    16508    16499    16592    16592    16496 
   16443    16497    16574    16511    16379    16435    16599    16563 
   16308    16153    16311    16529    16546    16526    16533    16446 
   16389    16419    16396    16409    16523    16543    16387    16167 
   16071    16245    16482    16480    16361    16373    16403    16267 
   16120    16240    16556    16712    16571    16395    16473    16721 
   16802    16631    16459    16408    16344    16193    16097    16193 
   16301    16229    16177    16249    16221    16159    16344    16597 
   16508    16202    16199    16488    16544    16341    16290    16386 
   16338    16214    16324    16562    16458    16086    15991    16089 
   15929    15717    15859    16088    15936    15572    15557    15917 
   16094    15897    15777    15957    16051    15799    15588    15784 
   16159    16483    16663    16455    16171    16454    16931    16801 
   16310    16239    16645    16977    16837    16435    16419    16819 
   16968    16796    16731    16839    16894    16637    16199    16133 
   16644    17390    17753    17349    16756    16776    17049    16792 
   16339    16524    17119    17208    16792    16737    17285    17711 
   17407    16728    16449    16835    17509    17705    17077    16325 
   16161    16355    16310    15988    15906    16191    16287    15900 
   15457    15474    15953    16420    16519    16498    16644    16600 
   16151    15800    15717    15588    15698    16208    16185    15404 
   15292    16422    17414    17225    16440    16142    16624    17110 
   16883    16288    16010    16336    17074    17478    17276    17431 
   18317    18418    17011    16128    17067    18016    17299    15872 
   15749    17154    18006    17207    16423    16846    17276    17062 
   17218    17569    16816    15729    15955    16595    16090    15133 
   14948    15158    14509    13310    13727    15848    16822    15755 
   14854    15364    16258    16466    16342    16516    16277    15120 
   14452    15123    16193    17065    17460    16749    15276    14462 
   15004    15902    16342    16901    17184    16357    15688    16105 
   16718    17153    17249    16700    16374    16954    17626    17083 
   15273    14690    16943    18806    17481    15836    16986    19166 
   18902    16206    14888    16591    17880    16279    14039    14048 
   15968    16696    14504    12515    14289    17359    16967    13728 
   12192    14460    17836    18352    16621    16232    16961    16162 
   14307    14057    16491    19750    20214    17223    15069    16231 
   18265    19615    20665    20541    18792    17221    17238    17660 
   17482    18413    20344    19167    14939    13717    16735    18956 
   18691    17709    16029    14006    13670    15392    17458    18071 
   16664    14634    14252    16421    19165    18920    16019    15101 
   16692    17055    16588    17606    17932    14970    11378    11491 
   14777    17626    18596    17762    15735    14402    14348    14460 
   15703    18338    18314    14910    12948    13724    15227    17285 
   19199    19453    18408    17050    16371    17425    18737    18078 
   16889    16591    15642    14933    16529    17882    16684    15247 
   15234    15695    16497    17609    17773    17297    16981    15886 
   15093    16157    16525    15237    15258    16257    15316    13728 
   15170    18551    19090    17134    17954    21434    21079    16127 
   14341    16955    16637    12950    11012    11723    13287    13630 
   13516    16242    20257    20089    14793    10770    13316    17802 
   18689    18555    18912    17374    15569    16299    17994    18964 
   19723    19083    16190    14583    16027    17329    17242    17424 
   18659    20171    19977    18150    17940    20581    22100    18026 
   12000    12227    17105    17830    13819    11726    14182    17771 
   18070    15665    15340    16948    15875    12276    10816    13918 
   17720    16486    12827    14540    20578    22254    18507    17314 
   20013    19014    13387    10980    14415    17654    16711    14736 
   15011    15990    15475    14070    13671    15428    17565    17362 
   16547    18024    19840    19066    17343    18069    20095    19760 
   17761    16480    15122    13618    14423    16603    16318    14896 
   16182    18970    20400    19824    17877    16683    17426    17345 
   13857     9963    10103    13697    16934    16755    14311    14887 
   18844    20469    18646    16636    14927    13314    13414    15005 
   15813    15973    16986    18257    18928    18567    16739    15233 
   15939    17019    15388    11985    12579    19299    23957    20450 
   15806    16620    18830    17963    15991    16062    17463    17561 
   15811    14465    16249    19798    20318    17304    14948    14726 
   14702    13981    13248    13369    14557    15555    14921    14009 
   15868    19675    21356    20258    18545    16948    16601    18874 
   20711    18200    13961    12360    12183    11310    11818    15496 
   19562    20231    17958    16328    16560    16665    16318    17018 
   18110    18112    17062    16198    16896    18111    17684    15766 
   13529    12305    13563    16191    17297    17145    18125    18875 
   16971    15302    16948    18780    17476    15189    15073    17366 
   20251    21069    19396    18167    18794    19573    19301    18080 
   16386    14854    14022    13888    13964    15061    17350    17866 
   16143    15592    16210    15088    13077    13055    14498    16216 
   18450    18822    15820    13649    14967    16282    14658    12591 
   13955    17212    17969    17253    18428    19483    17583    15723 
   17527    20406    19642    16117    14783    16679    17658    15908 
   15161    17371    19159    18708    17449    15789    14767    16023 
   17737    17166    15144    14179    14174    12938    11015    11775 
   15580    18613    18715    18056    18130    16974    14091    12562 
   13758    15623    16627    16094    13855    12556    14264    16514 
   16935    16331    15845    16584    19403    21998    21228    18675 
   17632    17543    17182    16906    16546    16838    18456    19637 
   19038    16768    14256    14259    16205    15835    12264    10126 
   12968    17443    18095    15773    14870    15760    16578    17079 
   17411    17884    18877    18847    15879    12522    13352    17046 
   18818    17158    13364    10765    12032    14746    15240    13680 
   12675    14905    19394    21341    20296    20369    21583    21068 
   18917    16729    14867    13824    14843    16675    16088    13581 
   13172    16130    19385    20227    18895    16774    15602    16983 
   19724    19752    16359    14670    17091    19023    16739    13336 
   13970    17456    17882    14749    14100    18147    21082    18511 
   14889    16041    18527    15443    10653    13324    20051    20638 
   16969    16659    17664    15535    13743    15796    17443    14691 
   11814    13545    16453    15916    14755    16927    18715    16188 
   14424    17658    20556    18877    16945    18758    19777    14671 
    9529    12481    18081    18318    16009    15511    16148    17088 
   17472    15565    12543    12489    16574    20292    19688    17587 
   17609    17651    16321    15931    15979    14073    11535    11636 
   14668    17991    19318    18334    17215    17277    16486    14899 
   14854    16009    17194    17592    15904    12500     9963    10893 
   14702    16848    15183    14650    18720    22104    20433    17837 
   18277    18640    15608    12403    11995    11938    12159    15258 
   18715    18789    17209    17279    18481    18887    19140    19370 
   17726    15875    17090    19472    20369    21208    22069    20703 
   17744    15506    14769    14819    13971    13633    17295    20168 
   15242     9762    14193    22201    20843    11672     7587    12819 
   18331    18159    17227    19686    22176    21547    18861    15500 
   13616    16653    22223    21885    14746    11354    16856    21533 
   17423    11891    12958    16789    19206    20607    19795    16662 
   12868    11092    14626    19807    20536    18073    15647    13472 
   11719    12642    17057    20430    18465    14370    13664    14998 
   14743    13900    13819    13632    13246    14699    18204    20179 
   19819    18826    15719    10149     7361    11926    19773    23250 
   21699    19295    17060    13684    11800    15366    20727    21386 
   18649    17438    18379    19435    19136    17244    15468    15078 
   15218    15990    17177    17352    17775    18454    15559    10060 
    8181    10688    12715    13495    16331    20114    19882    15945 
   14616    18702    22330    18434    10598     9683    16774    21641 
   20256    18586    18418    15973    12392    12661    15939    16312 
   13902    13600    14898    14741    14461    17498    22864    24153 
   18796    14607    18025    21495    16773    10776    12914    18940 
   18945    13163    11874    19445    24976    18652     9108     8564 
   13785    15549    12553    11080    16721    25041    27446    24297 
   20859    18451    16117    13135     9685     9272    14355    19073 
   17653    14313    15074    18917    19939    15657    12944    17243 
   21032    17280    12922    14079    13894     9083     8041    12566 
   14522    13270    14909    18034    17735    15557    15842    19592 
   22129    18125    11986    12146    15646    15058    14146    17386 
   18911    17987    21093    23644    17008     7136     4991    10449 
   14818     9643     -836      496    14494    21465    17930    18177 
   22078    18548    10627     9915    15142    16026    11644    11056 
   17826    23937    24560    24337    22381    16196    14091    17731 
   17443    14078    15701    21091    22339    15519     7581     8882 
   16020    15155     6330     3926     9475    12303    13457    19866 
   26012    23564    17678    18160    22510    21348    14776    11293 
   14079    16726    14936    14027    17422    20769    19200    11865 
    7582    15447    25240    23307    15866    14152    18093    21917 
   21213    18853    21853    26805    24819    18940    17121    17603 
   15021    11142    11113    13704    13881    12532    12967    13885 
   14003    15460    19292    22070    21132    20014    21520    21587 
   16741    11107    10258    13061    14226    11465     8288     9621 
   14949    19083    18312    13199     9560    12499    16259    14499 
   13820    19494    25347    26959    26438    24050    18017    12202 
   13659    19906    21609    17668    14374    16087    21613    23771 
   18964    15076    17961    19585    13451     8251    11135    16002 
   18488    21029    23263    23171    20477    16165    14097    16004 
   17971    17043    15091    16253    20161    21232    17474    12611 
   11687    15183    18543    21964    27487    30557    30180    30185 
   27756    21664    20043    25446    27773    19955     9549     8105 
   14952    19532    16255     9172     5302     7853    13386    16197 
   16408    19536    25095    23594    12589     2793      285     -943 
   -4125    -4528     -298     4978     7580     6513     5564     9089 
   14413    15451    11662     8535    11449    18428    20894    16337 
   13756    19200    25073    24047    21621    23689    25939    24186 
   21984    22487    21973    16891    11227     8972     7907     6850 
    7331     9053    10713    12303    14981    17989    19398    19900 
   21026    23131    24793    23119    18901    17834    22920    27848 
   23213    11476     5322     9760    17309    18830    13916    10794 
   14266    19605    21060    18945    18469    22946    27820    26344 
   18699    12179    14448    24071    30681    26448    14337     6062 
    6313     7184     8085    16048    24725    23512    16920    13867 
   13769    14007    15987    18189    16919    14521    15366    17542 
   16047    12709    15309    22593    23678    16453    10567    11781 
   14956    14417    13718    17939    22941    22059    17155    14987 
   17706    21876    24154    23988    22262    20725    19862    18121 
   16539    17609    19901    21812    24760    27310    25273    20638 
   20047    22593    22069    18695    15432    13326    15719    21953 
   24456    22028    19975    18641    17072    17014    16365    12752 
   10727    13582    16716    16732    16668    17962    18060    16923 
   15256    11050     5151     2414     4922     8214     6907     3659 
    5596    12425    16048    12854     9674    12621    18341    22187 
   24994    27289    26176    23017    24006    28609    29887    25998 
   21000    19025    20892    22080    17910    12212    12518    16788 
   16035    10153     9292    16834    22336    18111    10727     9955 
   16973    23903    24184    22061    22130    21809    21254    21434 
   18502    13838    13869    16939    15079     7235     2106     5615 
   11715    11800     6286     2863     7400    16023    18620    12433 
    5789     6524    13022    17884    16791    14073    15881    18494 
   15580    12113    15865    22610    23408    19184    16806    17921 
   19464    18618    14840    11809    13507    16353    14257    10827 
   14940    24705    28219    21878    16584    20814    27135    25191 
   18766    18102    23087    25051    22417    22762    28373    31334 
   25427    16547    14659    18329    18740    14687    12738    14835 
   13658     6742     4276    10419    15264    13805    11601    11814 
   12559    12850    13291    13366    11201     6540     2345     1336 
    2084     1796     1540     3790     7731    11669    14837    15485 
   13587    13273    17022    21181    20857    16678    14714    18220 
   21240    17092    11497    15531    25539    27342    20557    17709 
   22484    27650    28175    25836    25564    28707    30477    27328 
   22161    19282    19968    22967    24757    22580    18712    17068 
   17811    18585    16947    11742     6095     5819    11834    18206 
   19368    16555    15868    19420    21727    18441    13310    13497 
   20245    25454    21670    14228    14394    21633    24943    21001 
   17548    19852    24379    24994    20382    14472    10514     7887 
    5723     5030     5947     7803    10944    14881    18472    21846 
   24266    24071    21880    19773    18322    15901    12496    11979 
   14473    13955     9030     5780     8267    13925    18260    19364 
   19042    20660    23072    22380    20706    22173    24015    21999 
   18154    16676    17486    17836    16925    16415    16980    15750 
   11756     9490    10710    12394    13822    15933    17483    17399 
   17271    18375    18938    16970    13742    12040    11975    10480 
    5835     1922     3274     7008     7744     6562     7409    10242 
   12587    13967    15094    15209    14708    16213    18987    18443 
   14044    11406    13577    16143    14426    10675    10525    13597 
   13463    10227    11552    17383    19670    16659    13767    13861 
   14148    12530    11685    12144    10799     9212    10197    10696 
    8521     6727     7984    12013    16888    20201    20804    20144 
   20668    22446    23066    21078    18688    18850    20087    19346 
   17449    17247    19545    22012    21834    19350    16868    15869 
   16996    19537    21752    22965    23102    21468    18107    15996 
   18008    21186    21094    18741    17223    17523    18596    18557 
   17536    17892    20343    22134    20490    16981    14957    14078 
   12556    12335    15476    17863    15868    13634    14746    17276 
   19751    21610    20511    15616    10024     7117     7505     9640 
   11481    11764    10196     8243     7868     8625     9706    10362 
    8536     5405     4055     4797     8550    15305    20684    21435 
   18174    14516    15070    19190    22054    22569    22609    22022 
   21016    22378    26206    28228    27077    27016    29699    29853 
   25376    23196    26574    28960    26769    23971    23977    26422 
   28032    25818    21083    17003    15371    16429    18174    18919 
   19456    20292    21077    21733    22249    22275    20793    18549 
   17513    16628    14356    11791     9904     9324    11486    15511 
   17746    17254    16702    17414    17891    16392    14024    13249 
   13347    12713    11469     8974     5730     4695     7177    11279 
   13738    13588    13084    13494    15122    18994    22817    22173 
   18550    17260    18024    16980    14756    14612    16284    17264 
   17198    16501    14564    12332    11759    13053    14537    14033 
   12551    13499    16270    17695    17533    16990    16251    15448 
   15266    16131    17840    19383    19863    20313    21486    22168 
   21926    20718    18258    16187    15748    15266    13478    11430 
   10637    11838    14168    16674    19800    22065    20739    17060 
   15356    17739    21191    21616    20281    21319    24608    26278 
