Origin Time       2025/01/13 21:19:00
Lat.              31.8
Long.             131.6
Depth. (km)       30
Mag.              6.9
Station Code      MYZH11
Station Lat.      32.0208
Station Long.     131.4700
Station Height(m) 12
Record Time       2025/01/13 21:19:38
Sampling Freq(Hz) 100Hz
Duration Time(s)  300
Dir.              6
Scale Factor      7845(gal)/8223790
Max. Acc. (gal)   57.172
Last Correction   2025/01/13 21:19:38
Memo.             
[...]
  -30271   -30269   -30272   -30271   -30271   -30273   -30275   -30273 
  -30272   -30271   -30273   -30273   -30272   -30273   -30273   -30275 
  -30273   -30271   -30271   -30271   -30273   -30276   -30273   -30273 
  -30275   -30275   -30273   -30271   -30271   -30275   -30275   -30272 
  -30272   -30272   -30272   -30272   -30271   -30272   -30275   -30275 
  -30273   -30272   -30272   -30272   -30273   -30273   -30273   -30273 
  -30269   -30269   -30272   -30272   -30271   -30273   -30273   -30272 
  -30273   -30272   -30271   -30272   -30275   -30272   -30269   -30269 
  -30272   -30275   -30275   -30273   -30275   -30275   -30272   -30273 
  -30273   -30271   -30272   -30276   -30276   -30273   -30271   -30271 
  -30273   -30272   -30272   -30272   -30271   -30272   -30276   -30276 
  -30273   -30273   -30273   -30272   -30273   -30273   -30272   -30275 
  -30273   -30272   -30272   -30272   -30272   -30272   -30272   -30275 
  -30276   -30275   -30275   -30273   -30272   -30273   -30275   -30273 
  -30273   -30272   -30272   -30273   -30271   -30272   -30275   -30276 
  -30275   -30272   -30273   -30273   -30269   -30269   -30271   -30271 
  -30273   -30273   -30271   -30272   -30273   -30275   -30276   -30273 
  -30271   -30273   -30273   -30273   -30276   -30277   -30276   -30272 
  -30271   -30275   -30276   -30268   -30265   -30271   -30275   -30273 
  -30269   -30268   -30268   -30271   -30273   -30275   -30275   -30275 
  -30273   -30275   -30276   -30273   -30275   -30273   -30269   -30271 
  -30273   -30272   -30271   -30269   -30271   -30273   -30273   -30272 
  -30271   -30272   -30273   -30273   -30273   -30276   -30275   -30275 
  -30275   -30272   -30273   -30275   -30276   -30275   -30272   -30271 
  -30273   -30275   -30273   -30272   -30271   -30273   -30275   -30273 
  -30275   -30275   -30275   -30275   -30273   -30272   -30271   -30271 
  -30272   -30273   -30272   -30272   -30272   -30271   -30272   -30275 
  -30276   -30276   -30273   -30275   -30273   -30269   -30268   -30271 
  -30272   -30272   -30272   -30271   -30273   -30276   -30272   -30271 
  -30273   -30272   -30275   -30277   -30275   -30272   -30271   -30273 
  -30273   -30272   -30272   -30269   -30268   -30268   -30272   -30276 
  -30268   -30267   -30275   -30272   -30269   -30273   -30273   -30271 
  -30273   -30275   -30273   -30275   -30275   -30272   -30272   -30271 
  -30269   -30269   -30272   -30275   -30275   -30271   -30268   -30269 
  -30272   -30273   -30271   -30271   -30272   -30276   -30276   -30273 
  -30275   -30271   -30268   -30272   -30276   -30275   -30275   -30276 
  -30275   -30275   -30275   -30271   -30272   -30275   -30273   -30273 
  -30273   -30269   -30265   -30268   -30275   -30277   -30273   -30272 
  -30273   -30272   -30272   -30275   -30275   -30276   -30276   -30272 
  -30275   -30280   -30284   -30307   -30366   -30480   -30680   -30997 
  -31428   -31912   -32329   -32526   -32356   -31734   -30771   -29841 
  -29400   -29629   -30238   -30685   -30635   -30113   -29355   -28737 
  -28711   -29512   -30890   -32225   -32958   -32996   -32630   -32119 
  -31642   -31590   -32240   -33095   -33232   -32324   -30748   -29097 
  -27985   -27758   -28028   -28127   -27996   -27951   -27837   -27152 
  -25880   -24723   -24619   -25967   -28070   -29619   -29943   -29531 
  -29223   -29369   -29924   -30769   -31691   -32346   -32400   -31928 
  -31617   -32024   -32823   -33342   -33451   -33303   -32690   -31461 
  -30230   -29878   -30496   -31278   -31433   -30798   -29677   -28757 
  -28819   -29933   -31329   -32080   -31891   -31353   -31029   -30601 
  -29590   -28383   -27935   -28686   -30065   -31020   -30885   -30037 
  -29654   -30271   -31075   -31272   -31237   -31571   -32028   -32219 
  -32556   -33558   -34743   -35333   -35491   -35964   -36883   -37407 
  -36606   -34695   -32821   -31696   -31318   -31793   -33286   -35164 
  -36254   -36244   -36027   -36147   -35730   -33905   -31384   -29573 
  -28848   -28745   -29115   -29856   -30245   -29852   -29162   -28667 
  -28362   -28212   -28597   -29913   -31631   -32864   -33822   -35167 
  -36400   -36293   -34362   -31243   -28111   -25810   -24256   -23018 
  -22496   -23564   -26075   -28768   -30369   -29992   -27364   -23589 
  -20922   -21018   -23942   -28564   -32915   -34761   -33107   -29184 
  -25767   -25211   -27607   -31017   -33222   -32908   -30281   -27113 
  -25369   -25606   -27144   -29230   -31317   -32277   -30669   -27091 
  -24788   -26025   -29593   -33103   -35125   -34643   -31477   -27510 
  -25506   -26589   -29149   -30368   -29142   -26542   -24120   -23853 
  -27826   -35221   -41143   -40975   -35413   -29130   -25483   -25297 
  -28578   -34241   -39637   -42090   -40404   -35302   -29450   -26130 
  -26581   -29115   -31043   -30682   -27886   -24387   -23854   -28742 
  -36270   -40379   -37971   -31459   -25771   -23967   -26007   -30719 
  -36435   -39641   -36958   -30427   -26577   -28096   -31419   -33420 
  -34377   -33951   -30639   -26206   -25186   -29192   -34996   -37903 
  -35959   -30956   -25343   -20669   -19554   -24020   -31028   -35228 
  -35611   -34504   -32975   -31279   -30206   -29893   -29683   -29301 
  -29174   -30385   -34295   -40486   -45409   -45445   -40277   -31635 
  -21899   -14993   -14424   -19807   -27369   -33046   -35071   -34280 
  -31176   -25265   -19120   -17948   -22848   -29832   -35577   -39309 
  -40578   -39299   -36972   -35159   -33428   -30624   -27261   -24864 
  -23538   -22258   -21361   -21975   -23164   -22694   -20216   -17189 
  -14783   -13863   -15211   -18434   -22650   -27943   -34038   -39046 
  -40906   -39024   -34956   -32104   -33049   -36657   -39295   -39204 
  -37858   -37501   -39571   -43846   -47309   -45964   -38888   -29960 
  -24960   -25839   -29349   -32227   -33994   -34306   -32514   -29667 
  -26958   -23939   -20772   -18916   -18607   -19048   -20567   -24318 
  -30802   -38749   -44861   -46346   -43968   -40936   -39206   -38658 
  -39105   -40088   -39630   -36865   -33816   -32190   -32163   -33879 
  -36198   -36412   -33934   -31594   -31753   -33164   -33779   -34666 
  -37107   -38349   -35163   -29188   -24970   -24258   -24686   -23855 
  -22581   -22906   -25798   -31725   -38904   -41855   -37219   -28262 
  -19886   -14571   -15005   -22630   -32606   -38194   -39004   -38701 
  -38302   -37552   -38846   -43920   -49210   -49254   -43281   -35241 
  -28606   -23953   -21502   -21973   -23469   -22747   -21150   -23013 
  -26115   -22233   -12274    -8395   -15140   -23884   -26816   -23368 
  -18010   -18171   -27708   -40203   -43699   -34539   -21932   -15974 
  -17373   -21551   -25801   -28455   -26411   -19488   -14868   -19395 
  -27938   -30049   -27495   -30979   -40856   -45968   -40416   -29710 
  -22192   -22134   -28012   -33021   -30523   -21197   -13155   -14239 
  -24948   -38236   -45441   -43221   -35208   -28154   -26049   -26422 
  -24644   -21208   -21386   -28568   -38902   -43818   -39822   -32850 
  -30396   -32914   -35216   -33979   -31746   -31619   -30142   -23917 
  -19912   -25582   -35629   -41076   -40494   -36711   -32944   -30958 
  -29756   -29331   -31136   -33115   -31868   -29747   -32035   -37409 
  -39312   -36112   -31665   -28356   -26620   -27105   -29436   -31918 
  -32343   -29695   -26246   -24807   -25290   -25604   -23417   -19878 
  -20212   -25290   -29023   -27101   -21463   -16911   -16470   -18902 
  -21643   -25038   -30204   -33975   -31668   -26233   -26044   -31981 
  -38022   -40961   -39104   -31789   -24077   -20953   -21069   -21142 
  -20179   -19774   -21876   -25312   -27099   -26036   -22932   -20223 
  -20887   -25007   -29551   -33207   -37778   -43147   -45276   -41588 
  -35009   -30558   -29524   -29355   -28560   -28385   -29554   -30800 
  -31306   -31368   -30990   -30709   -30586   -28717   -26271   -28156 
  -34420   -39852   -42071   -42957   -44577   -46485   -46205   -42213 
  -35220   -27834   -23668   -24482   -29382   -36431   -41987   -42303 
  -38179   -32829   -26796   -19572   -12237    -7472    -9336   -19143 
  -31218   -37763   -36759   -32603   -30847   -32948   -36004   -36532 
  -32850   -26601   -23151   -27087   -36782   -45046   -45461   -37208 
  -25290   -17543   -17658   -21475   -23789   -24498   -25583   -26318 
  -23409   -16248    -9967   -10064   -17030   -27646   -37512   -43659 
  -46639   -47989   -48234   -48103   -47795   -45910   -41391   -35957 
  -32890   -33139   -34534   -34317   -31160   -25343   -18253   -12955 
  -13088   -18669   -24845   -26997   -26003   -26145   -29403   -34430 
  -38919   -41278   -41107   -38920   -36101   -34528   -35199   -37233 
  -38568   -38159   -36701   -34781   -31958   -28324   -24781   -21336 
  -18027   -16534   -17941   -21118   -25070   -30839   -39114   -46344 
  -47097   -40886   -32695   -28161   -30013   -35931   -39885   -37783 
  -30632   -22635   -18092   -18152   -19041   -15653    -7071     2670 
    8093     5935    -2978   -14625   -25081   -33058   -39560   -45970 
  -52030   -55537   -54889   -51802   -50307   -51287   -49458   -39262 
  -22293    -6700      -39    -3311   -12197   -21625   -27448   -27884 
  -25537   -25209   -28722   -33941   -38792   -43021   -46323   -48212 
  -49212   -49859   -49685   -48123   -44474   -37359   -26555   -14936 
   -6755    -3343    -2481    -3044    -6885   -14604   -22713   -27098 
  -27286   -25641   -25096   -29243   -40142   -54033   -63811   -66798 
  -65574   -61364   -52698   -40026   -25308    -9967     2601     8077 
    6241      330    -5722    -7996    -7326    -9302   -15322   -22195 
  -28273   -33092   -36599   -41350   -49522   -57373   -59876   -57673 
  -53204   -49181   -50566   -56959   -60328   -54723   -40620   -22933 
   -8537    -2100    -3416    -8579   -13186   -15438   -16742   -19666 
  -24795   -30528   -35806   -40612   -45511   -50290   -52974   -53608 
  -54876   -57172   -58164   -56779   -53624   -47945   -38920   -28175 
  -16501    -5188       10    -2905    -7304    -8229    -7468    -6745 
   -4793    -2544    -4360   -12136   -22747   -30946   -34740   -38302 
  -44865   -51671   -56579   -58977   -55093   -44798   -35253   -30950 
  -30524   -32968   -37725   -40566   -38225   -32690   -24452   -13544 
   -4734    -2096    -7473   -21335   -38955   -52101   -55956   -53254 
  -49981   -48228   -46535   -43279   -38250   -33286   -30240   -28413 
  -26183   -24057   -23409   -24354   -25826   -25701   -23278   -19827 
  -15853   -12621   -12162   -14586   -19156   -24687   -28817   -29290 
  -26796   -25390   -27310   -30674   -33759   -36157   -36097   -32491 
  -28224   -26850   -28459   -29459   -25683   -18886   -15180   -16706 
  -22936   -29980   -29550   -21984   -14625   -10677   -11834   -16106 
  -20289   -24162   -24124   -21417   -23279   -29162   -35645   -40331 
  -41110   -41432   -44122   -49329   -57406   -65287   -70175   -71312 
  -67824   -61365   -55120   -49967   -45594   -44247   -47065   -49763 
  -48405   -41710   -29041   -13585    -2169      346    -5190   -12981 
  -16503   -12519    -3766     2479     1939    -4399   -17504   -37008 
  -52911   -59582   -60257   -52645   -40126   -32950   -32393   -40880 
  -55564   -60964   -54438   -43394   -29770   -18208   -12758   -11916 
  -14719   -17826   -15655    -7036     3437     6670    -2261   -16999 
  -29932   -38847   -42901   -44941   -47250   -45895   -41320   -38911 
  -39764   -42040   -42805   -38167   -28362   -20455   -18623   -20478 
  -23234   -22559   -18436   -12317    -2376     3650     2419    -2389 
  -15117   -29866   -40509   -52281   -59856   -59456   -54739   -45168 
  -35742   -33160   -37366   -41678   -36057   -21875    -8995    -3546 
   -6014    -9163    -9784    -8884    -5373   -10037   -25513   -35988 
  -41376   -46584   -48162   -49337   -47206   -41002   -41877   -45245 
  -43858   -43525   -40031   -32258   -30312   -32736   -37517   -47406 
  -56428   -59022   -55115   -46719   -38416   -32906   -27508   -18276 
   -6259     3559     6027     1294    -3572    -5969   -10022   -19533 
  -35775   -53013   -62132   -61022   -53738   -47209   -47347   -50916 
  -51337   -47417   -35912   -15723     2057    10612    14023    13821 
   11515     7214    -3106   -16406   -29289   -42844   -53898   -62172 
  -68948   -72146   -74775   -77093   -74279   -66869   -56943   -46340 
  -36460   -28107   -24703   -24915   -22100   -14395    -5154     1073 
    2178      715    -1610    -4606    -4719    -1867    -1607    -8009 
  -22582   -40158   -50089   -48207   -39452   -30312   -24264   -23791 
  -29176   -34762   -33924   -28551   -27125   -29968   -32659   -39198 
  -48432   -52550   -51564   -46163   -41200   -42774   -41716   -33170 
  -25359   -23259   -26562   -29026   -24705   -15496    -9157   -12518 
  -21226   -26306   -24699   -19504   -16437   -14910   -13331   -14531 
  -18135   -24783   -36167   -48851   -60920   -72210   -76840   -69070 
  -53473   -38691   -28792   -26947   -31696   -33791   -28904   -21533 
  -16313   -13609   -12507   -13973   -17840   -21871   -22701   -17423 
   -8760    -3751    -8093   -23072   -44173   -62295   -68170   -60018 
  -46368   -37277   -34315   -34006   -36688   -42549   -47795   -51831 
  -56315   -58014   -51067   -34501   -16178    -5908    -5756   -12441 
  -23070   -34497   -41932   -41411   -34541   -27275   -24321   -28158 
  -39170   -53921   -64061   -60909   -47839   -40019   -43121   -45762 
  -39177   -27518   -14669     1912    19944    29659    27715    21139 
   14392     6912     1236     1787     8698    12856     1709   -22725 
  -45141   -57098   -61155   -60538   -54616   -44572   -37331   -35532 
  -33563   -31822   -35374   -40057   -42338   -43773   -39426   -29546 
  -23738   -23916   -25142   -23504   -21585   -26404   -36634   -45393 
  -50068   -50323   -45771   -40031   -37238   -34852   -30604   -23938 
  -12969    -1032     5497     1887   -10323   -20684   -24036   -23724 
  -19907   -12834    -6772    -3549    -5269   -18594   -42583   -63740 
  -73657   -77384   -80728   -81756   -76119   -63009   -46094   -32448 
  -26095   -22489   -14848    -3654     4665     4504    -5926   -19761 
  -25670   -24138   -23800   -26819   -32769   -42762   -54002   -61684 
  -65198   -67729   -71172   -72886   -69610   -61915   -51750   -41227 
  -32849   -27198   -23753   -20688   -14126    -4210     2895     1283 
   -9123   -20052   -23156   -21648   -23454   -30034   -37119   -38603 
  -33763   -28453   -25493   -24800   -27734   -32633   -35856   -35407 
  -31450   -30203   -36074   -43359   -46738   -45308   -38516   -27236 
  -15651   -12417   -21465   -34214   -39731   -34607   -22990   -12313 
   -8478   -14883   -30950   -49466   -60018   -56722   -42341   -26954 
  -22331   -32732   -50355   -61986   -59757   -44280   -21452    -1630 
    7468     6008    -5290   -17022   -12738     2509    12287    12587 
    2822   -13613   -28918   -42996   -56292   -64913   -67386   -61965 
  -51529   -45526   -43505   -38754   -32799   -26404   -16748    -8854 
   -7712   -10547   -15708   -23600   -35739   -48463   -51899   -48153 
  -44934   -43930   -45512   -44863   -39618   -34935   -32714   -30122 
  -24462   -15552    -7240    -7605   -16983   -27072   -36672   -44612 
  -46041   -44058   -44065   -46565   -47475   -43035   -36643   -30983 
  -24945   -19194   -12117    -3229     5324    12073    12162     4473 
   -5165   -11781   -14161   -16769   -24321   -35968   -47526   -55098 
  -59269   -62514   -64868   -66089   -64300   -55047   -39345   -26509 
  -23716   -28188   -32061   -31699   -28347   -24046   -24804   -36026 
  -49990   -55395   -52982   -48949   -46629   -46685   -46477   -43622 
  -40072   -38913   -39955   -39745   -35768   -29751   -25020   -22694 
  -22496   -24584   -28459   -31868   -32340   -29370   -24160   -17262 
   -9196    -2350     1070     -167    -6543   -15118   -21172   -23697 
  -25223   -27577   -31017   -35826   -42925   -51885   -58536   -60350 
  -60664   -61389   -61279   -59155   -51894   -39058   -25000   -12604 
   -3339     2130     4245     3640     1803     -973    -5246   -10135 
  -14443   -18141   -23171   -31606   -41627   -46946   -42715   -32139 
  -24183   -23878   -27418   -27958   -22955   -14297    -5086     2060 
    6242     8588    10130     9420     3141    -9730   -25227   -37303 
  -42029   -41635   -45323   -56801   -67977   -72404   -68747   -59242 
  -50738   -44860   -42994   -47440   -51310   -53161   -54999   -52623 
  -47745   -42338   -36043   -31309   -28875   -29153   -30524   -31657 
  -32038   -28070   -19600    -8559     2357     7299     3890    -4486 
  -12010   -15927   -17419   -17559   -19639   -27010   -37597   -47245 
  -53064   -54027   -51417   -47325   -43930   -42562   -41212   -36765 
  -30053   -23638   -19462   -19880   -24950   -33535   -44042   -51570 
  -51331   -41646   -25490   -10192    -2154    -3740   -11774   -20746 
  -26952   -27417   -22592   -17825   -18461   -25479   -35116   -44516 
  -54190   -62846   -67718   -69167   -67655   -62202   -54950   -48514 
  -42572   -36277   -28676   -19564   -10029    -1867     2805     4635 
    5717     4368    -2458   -12078   -19399   -25575   -33316   -42304 
  -52112   -59871   -63626   -65384   -63730   -57385   -49820   -42203 
  -35016   -27924   -17836    -6864     1210     3873      105    -3966 
   -5956    -9063   -12820   -17691   -23926   -28933   -31604   -32652 
  -33018   -33698   -35916   -39544   -42665   -42707   -38506   -33399 
  -31895   -33632   -34686   -32999   -30944   -31704   -35141   -38989 
  -40393   -38719   -35409   -29679   -24931   -25142   -23134   -17284 
  -13439    -7993     -849     3412     5030      116   -12610   -27319 
  -40232   -49588   -56436   -62918   -68665   -72971   -75404   -75645 
  -72350   -64503   -53847   -43536   -36990   -34326   -32431   -28745 
  -21265   -11367    -3260      467    -1933   -10467   -22580   -34730 
  -42580   -43825   -40417   -36699   -35627   -35198   -31124   -23348 
  -16251   -13134   -13975   -16974   -19284   -19267   -19168   -22523 
  -29133   -36477   -44428   -52180   -56475   -56870   -54022   -47837 
  -41026   -35792   -31305   -26256   -18879    -8945      317     6299 
   10026    12407    11215     4658    -5759   -17281   -28853   -41643 
  -55331   -67495   -76588   -80638   -78599   -72503   -65524   -60397 
  -56027   -49253   -38439   -23458    -8761     1111     6783    10222 
   12509    11360     3430   -10139   -25365   -37539   -43486   -43367 
  -40008   -37746   -38001   -38331   -36756   -33378   -29421   -25127 
  -19769   -13716    -8241    -4669    -3557    -4637    -7762   -12544 
  -18528   -25667   -33278   -40274   -46348   -51622   -55225   -55277 
  -51926   -48219   -45264   -41408   -37805   -37255   -39280   -41103 
  -39374   -32062   -21320   -12654    -9771   -12020   -18917   -27967 
  -33134   -34248   -32775   -28725   -27232   -29288   -31696   -33778 
  -32391   -27382   -22569   -19622   -20324   -23683   -25581   -23792 
  -19588   -17409   -18600   -19695   -18802   -17057   -14897   -11994 
  -11346   -13124   -12276   -10291   -10552   -12540   -17358   -22670 
  -26643   -31214   -33696   -34870   -39147   -43862   -47509   -53149 
  -60295   -64673   -63436   -58774   -54163   -50148   -46273   -41243 
