Origin Time       2025/01/13 21:19:00
Lat.              31.8
Long.             131.6
Depth. (km)       30
Mag.              6.9
Station Code      MYZH06
Station Lat.      32.3607
Station Long.     131.4643
Station Height(m) 0
Record Time       2025/01/13 21:19:42
Sampling Freq(Hz) 100Hz
Duration Time(s)  193
Dir.              1
Scale Factor      2942(gal)/8224139
Max. Acc. (gal)   12.409
Last Correction   2025/01/13 21:19:42
Memo.             
[...]
   48118    48118    48118    48118    48119    48119    48120    48123 
   48123    48118    48119    48122    48119    48118    48119    48116 
   48116    48119    48118    48119    48120    48118    48118    48122 
   48120    48119    48115    48116    48120    48118    48118    48123 
   48120    48119    48119    48119    48118    48120    48120    48118 
   48115    48118    48119    48120    48119    48118    48119    48120 
   48120    48119    48118    48116    48116    48119    48119    48119 
   48119    48118    48118    48120    48119    48118    48120    48119 
   48119    48120    48119    48120    48120    48118    48118    48118 
   48118    48119    48119    48118    48120    48120    48120    48119 
   48115    48116    48119    48115    48116    48118    48114    48116 
   48122    48119    48116    48120    48119    48118    48120    48120 
   48119    48120    48119    48118    48120    48122    48120    48119 
   48119    48119    48119    48118    48116    48119    48119    48119 
   48119    48119    48119    48118    48118    48120    48122    48119 
   48116    48112    48115    48120    48118    48116    48118    48118 
   48118    48120    48120    48118    48116    48118    48120    48119 
   48116    48118    48119    48119    48118    48119    48119    48119 
   48120    48120    48119    48118    48115    48115    48118    48118 
   48119    48118    48115    48116    48118    48118    48118    48120 
   48119    48116    48115    48118    48119    48116    48116    48119 
   48119    48119    48119    48116    48116    48119    48119    48119 
   48118    48118    48118    48119    48122    48120    48118    48118 
   48120    48119    48118    48119    48118    48116    48118    48119 
   48119    48116    48115    48118    48119    48116    48116    48119 
   48119    48116    48119    48120    48116    48118    48123    48123 
   48120    48116    48114    48118    48122    48120    48120    48120 
   48120    48118    48116    48118    48119    48116    48118    48119 
   48119    48119    48119    48116    48115    48118    48119    48118 
   48116    48119    48122    48119    48114    48116    48120    48119 
   48116    48116    48118    48118    48115    48115    48116    48118 
   48119    48120    48116    48116    48119    48120    48120    48119 
   48118    48118    48118    48120    48123    48122    48119    48119 
   48118    48119    48119    48118    48119    48123    48120    48118 
   48116    48118    48119    48118    48119    48120    48118    48116 
   48118    48118    48118    48118    48118    48118    48118    48118 
   48118    48118    48116    48120    48123    48119    48119    48120 
   48118    48115    48119    48118    48115    48118    48119    48116 
   48119    48119    48114    48115    48120    48119    48119    48118 
   48115    48116    48115    48109    48107    48107    48104    48100 
   48093    48087    48082    48080    48074    48070    48065    48060 
   48061    48060    48051    48047    48049    48050    48047    48045 
   48041    48035    48033    48028    48019    47999    47970    47933 
   47879    47821    47783    47773    47795    47839    47900    47965 
   48003    47996    47962    47941    47973    48046    48111    48158 
   48169    48112    48016    47949    47915    47879    47858    47923 
   48064    48204    48290    48288    48141    47889    47713    47758 
   48018    48317    48474    48454    48342    48278    48398    48679 
   48914    48918    48713    48427    48185    48153    48296    48317 
   48097    47848    47869    48255    48644    48608    48227    47842 
   47615    47656    47968    48261    48259    47999    47673    47497 
   47595    47841    48000    47941    47677    47471    47494    47501 
   47393    47502    47853    48020    47814    47478    47390    47575 
   47645    47475    47339    47322    47295    47243    47240    47320 
   47391    47332    47154    46947    46743    46464    46084    45775 
   45666    45678    45644    45592    45750    46132    46522    46766 
   46755    46507    46260    46264    46548    46874    46997    46915 
   46691    46363    46207    46529    47092    47370    47355    47293 
   47050    46642    46502    46749    47181    47537    47601    47618 
   48007    48625    49096    49400    49616    49578    49273    48990 
   48836    48722    48671    48648    48568    48639    49096    49702 
   50114    50463    50889    51165    51052    50488    49580    48728 
   48474    49025    50095    51216    51922    51868    51078    49839 
   48647    48212    48775    49716    50205    49836    48783    47560 
   46568    45976    45859    46068    46232    46303    46467    46545 
   46440    46228    45836    45373    44837    44008    43237    43181 
   43803    44523    44999    45175    45079    44932    45092    45729 
   46504    46886    46796    46499    46224    46143    46448    47282 
   48439    49454    50116    50423    50491    50583    50782    51239 
   52258    53428    53757    52984    51802    50815    50295    50433 
   50784    50704    50359    49929    49356    49141    49586    50059 
   49878    49094    48255    47571    46803    46174    46314    47175 
   47956    47953    47167    46206    45566    45331    45651    46462 
   47075    47132    46998    46685    45593    43686    42041    41658 
   42558    44266    45948    46931    47429    47532    46757    45453 
   44736    45154    46569    48581    50669    52251    52714    52257 
   51880    51682    51106    50321    49712    49323    48837    47872 
   46672    45824    45725    46359    47073    47472    47815    47999 
   47756    47050    45762    44477    44146    44631    45508    46772 
   47912    48479    48795    49103    49320    49223    48559    47860 
   47598    47106    46406    46217    46241    46417    47069    47576 
   47841    48438    48568    47386    46062    45893    46656    47941 
   49635    51356    52378    51564    48803    46300    46391    48685 
   50479    50278    49357    48743    48037    47576    47893    48270 
   47879    46627    45181    44942    46387    48267    49176    48851 
   48419    48798    49345    48976    47576    46592    46966    47341 
   46882    46742    47722    48965    49229    48968    49366    49959 
   49746    49014    48563    48643    49223    50098    50430    49624 
   48442    47758    47362    47093    47418    48114    48429    48774 
   49860    50754    50315    49087    47718    45993    44602    44782 
   46167    47811    49330    49928    49291    48357    47741    47655 
   48425    49427    49179    47151    44490    42719    42446    43394 
   44855    46245    47019    46417    44730    43519    43470    43939 
   44797    46403    48313    49642    49931    49588    49577    50085 
   50475    50679    51159    51673    51605    50993    49927    48513 
   47719    47893    47933    47371    47343    48779    50727    51387 
   50363    48834    47686    46438    44909    44369    45534    47279 
   48217    48416    48671    48670    48186    48343    49327    50198 
   50260    48641    45701    43341    42520    43290    45431    47854 
   49446    50087    50244    50166    50282    51219    52103    51833 
   51806    53091    54129    53723    52218    50666    50159    50278 
   50307    50899    52070    52853    52677    51123    48617    46549 
   45689    46078    47174    48016    48412    48595    48424    48157 
   48282    48722    49287    49566    49025    48186    48091    48847 
   49982    50897    50658    49198    47904    47590    47691    47831 
   48493    49852    50737    50330    50031    50616    50499    49230 
   47952    46576    44923    44124    44560    45333    46140    47047 
   47356    46947    46845    47225    47290    46909    46340    45813 
   45555    45130    44296    43563    43168    43263    43802    44157 
   44232    44506    44950    44982    44504    44632    46072    47536 
   47498    46593    46453    46676    45686    44298    45004    47819 
   50120    50773    51036    51594    51926    51640    51067    51140 
   51826    51750    50566    49491    49742    51436    53137    53589 
   53268    52771    52115    51849    52510    53593    54248    54221 
   53744    53395    53257    52124    49724    47571    46183    45261 
   45369    46365    46869    46097    44382    42728    42284    43428 
   45338    46473    46284    46244    47248    47595    46055    44101 
   43127    42707    42311    42259    43147    44653    45366    44896 
   44513    44617    44220    43420    43453    44766    46847    48714 
   49670    50133    50576    50585    49775    48479    47447    47101 
   47430    48533    50102    50965    50332    48471    46210    44770 
   45058    46803    49077    51071    52277    52942    53892    54981 
   55278    54649    53040    50373    48118    47760    49037    51375 
   53923    55086    54666    53326    51075    48836    47468    46635 
   46687    47459    47391    46441    45612    44556    43174    42861 
   44410    46935    48917    49384    48744    47804    46511    45316 
   45262    46107    47214    48602    49842    50579    51258    51903 
   52062    51310    49519    47617    46772    47237    48498    49669 
   50390    50560    49663    48645    49682    52319    53947    53485 
   51437    48882    46907    45562    44942    45688    46867    46863 
   46043    45303    44366    42921    41565    41786    44113    46986 
   49264    50396    49299    46792    45014    44080    43515    43891 
   45369    47549    49620    50114    48969    48269    48478    47592 
   45639    45027    46494    48940    51278    52856    53743    53657 
   51965    49937    49318    49511    49449    49681    50753    51931 
   52728    53508    53364    50882    47848    47051    47368    45956 
   43012    40882    40435    40917    42132    44432    47260    48847 
   48211    47062    47584    49447    50580    49977    48852    48354 
   47838    46980    47046    48227    48186    46014    44545    45661 
   47900    49716    49902    47399    43679    41312    41000    42187 
   44238    46923    49735    51016    50184    48983    48995    49912 
   50002    48286    46352    45692    44905    43183    42450    42969 
   42516    40641    39179    39371    40645    41851    42457    42588 
   42750    42958    42925    43591    45770    48675    51189    52024 
   50722    49053    48355    48643    50244    52161    52817    53077 
   53765    53809    53160    52857    53107    53730    54357    54513 
   54630    55522    57283    58594    57277    53342    49175    46865 
   47186    48714    49997    51651    52770    51887    50664    50641 
   51448    52269    51815    50126    48982    48874    48641    47715 
   46665    45985    45484    45083    44971    45092    45574    46543 
   47476    48155    48807    49018    48756    49007    49879    50464 
   50129    48703    47197    47082    48213    49923    51741    51983 
   49850    47607    46962    46676    45966    45787    45754    44501 
   42641    41026    39079    37697    38588    40864    43151    45862 
   48948    51219    52231    52305    51769    51583    52712    54897 
   57690    60901    63913    66189    67491    67556    66494    64696 
   62310    60172    59559    60328    62272    65990    69819    70367 
   66602    59711    50760    41381    34649    32738    35241    40598 
   47023    51997    52999    49374    42994    36558    32251    31576 
   33953    37303    40188    41419    40863    40090    39518    38653 
   38468    39858    42414    45027    45701    43433    39934    36694 
   33970    33771    38168    45316    51279    53215    51117    47823 
   44794    42057    41717    44714    49025    53190    56286    56967 
   54787    50772    46847    44575    44768    47402    50958    53547 
   54465    54006    52326    48631    43109    38573    36942    37206 
   38739    41706    44980    46647    45080    41551    40205    41578 
   42188    41477    41243    41091    40701    41601    44003    45998 
   46454    46421    46315    45408    44751    45058    45598    47937 
   53377    59077    62760    65391    66939    65508    60515    54075 
   48621    45168    45767    50831    55952    58386    58264    54599 
   48663    44478    44111    46481    49315    52749    57824    61867 
   62060    59152    54858    49999    44882    41631    43218    49087 
   56436    61978    63269    62164    60131    54329    45118    38551 
   38163    40751    42217    43414    45736    46704    45100    42327 
   39237    36701    35637    37624    43486    49951    53944    56004 
   57053    57028    56253    56112    57388    59305    60050    58430 
   56905    57306    56053    50897    44629    40716    40383    40576 
   38593    38992    44923    50368    51252    51147    53346    58128 
   63779    68139    71255    72905    71644    68131    64918    64093 
   64812    64025    61929    61310    61838    61888    60925    58090 
   55922    57523    59097    57973    56979    55688    52143    48091 
   44554    41320    40347    40728    38217    34608    34290    36351 
   39326    42861    45905    48273    49221    48676    49342    51559 
   52860    54047    56423    58051    58537    59297    59556    57740 
   53819    49044    44601    40147    35257    31170    27977    24177 
   20817    19939    20016    18728    16877    15971    15329    14050 
   13431    14274    15095    15356    15936    16683    17120    17936 
   19948    22034    22177    21130    21438    23768    27229    30824 
   34731    40763    48448    54129    57006    60404    66121    72064 
   74726    73442    71641    71169    70842    71211    72693    73631 
   73452    72392    70465    68345    67410    68640    70958    72550 
   73322    73175    70650    66286    62810    60851    59459    58418 
   57578    56578    54799    52134    49239    45863    41781    37997 
   35121    33567    34292    36591    38564    40595    43864    47727 
   51680    55895    59838    62586    63343    62197    60015    57265 
   54072    50458    46842    44086    42018    39553    36479    33551 
   30812    27777    25218    24327    25272    27719    30168    30558 
   30411    32664    35912    37486    37763    38475    40263    42190 
   43864    46623    50943    54504    55171    54626    55085    55745 
   55502    54082    51389    48551    46403    43891    40521    37586 
   36046    35363    34311    32884    32647    33666    34470    35729 
   38703    41801    43378    44590    45908    45571    44197    44230 
   45108    45111    44305    43729    44840    48050    52228    56972 
   61920    65317    66467    66987    68675    70889    70780    67576 
   64017    62360    62148    62166    62411    63061    62895    60736 
   57199    53608    50611    48351    47100    47561    49651    52231 
   54777    56633    56582    55108    53627    52177    50870    51173 
   53287    55472    56847    56806    53921    49042    44760    41430 
   38682    37349    37293    37557    37949    38763    40088    40805 
   39926    38755    38369    38284    38904    40579    42302    43737 
   45280    46654    46730    44312    39711    34381    30099    29072 
   31549    35455    39499    42714    43410    41442    38627    36618 
   36177    37847    41401    45712    50620    56338    61465    64889 
   67909    72111    76310    78069    77426    76204    74833    72446 
   69651    67709    65395    61101    55825    51528    48929    46909 
   43957    40305    37274    35210    33517    32512    33481    36096 
   38391    40074    42417    45432    48028    49669    50739    51891 
   53310    54626    55567    56431    56880    56380    56232    57341 
   58874    60867    63471    65507    66006    65047    63003    59880 
   56120    52774    50031    47522    44942    41717    38230    35761 
   34701    35108    37100    39271    39347    37498    36244    36259 
   36128    35607    35673    36848    38157    38129    37026    35897 
   35329    35803    37031    38597    40286    41256    41839    43455 
   45098    45077    45297    48146    52624    56663    58973    59772 
   61063    63536    65988    67981    69561    70019    68260    63737 
   57319    51116    47081    45072    43441    41922    41445    41509 
   40419    37995    35348    33035    32300    34218    37347    40238 
   42637    44286    45806    47317    48085    48979    50201    50260 
   49450    49600    51301    53345    55051    57488    60585    62421 
   62114    60574    58660    55804    51318    46477    43182    41327 
   39785    38726    38581    38043    35560    31909    29145    28036 
   28202    29327    31074    33878    39179    46545    53306    57530 
   59120    59722    60956    62286    62993    63371    62785    60922 
   59564    59832    60895    61785    61830    60925    59324    56546 
   52278    47363    42766    38718    35263    33315    34284    38183 
   42838    45685    46296    45711    43866    40763    37601    35230 
   34758    36447    38294    40014    42913    46261    49036    51202 
   53114    55599    58078    58639    57369    56073    55352    54691 
   53887    52594    49878    45773    42090    39954    38446    36671 
   35046    34508    34985    34987    33696    32418    32629    33723 
   34747    36377    38967    42029    46022    51048    55810    59250 
   60528    59273    57161    56133    56195    56767    57420    57402 
   57086    58337    61149    62719    61488    58537    55335    53015 
   51745    50434    48994    48582    48952    48639    47262    45594 
   44047    42596    42136    43726    46645    49388    51200    51807 
   51370    50699    50529    50326    49077    47517    47178    47644 
   47709    47746    48238    48217    46877    45114    44335    44369 
   44474    44937    45499    45069    44000    43818    45327    48258 
   51621    54776    57843    60228    60907    60193    59397    59152 
   58847    58222    57962    57909    57558    57295    57164    56444 
   54710    52419    50566    49630    49339    49378    49466    49135 
   48138    46942    46584    47582    48995    49928    50664    50931 
   49924    47941    45715    44105    44408    46732    49673    51865 
   52485    51169    47835    42796    37467    33524    31311    30700 
   32055    35060    38554    41774    44367    45998    46568    46016 
   44350    42084    40077    39027    39193    40475    42309    43999 
   45906    48721    51966    54743    56351    56376    55161    53291 
   51399    50323    49921    49272    48779    49509    50766    51309 
   51425    52026    53559    55305    55529    53902    52139    50971 
   49308    46762    44423    43552    44332    45765    46870    47488 
   48082    48763    48867    48559    48951    49800    49716    48452 
   46815    45338    44761    46221    49813    54542    59215    62617 
   64247    64539    63846    62309    60403    58552    56447    53813 
   51374    49928    49287    48687    47819    47181    46981    46516 
   45354    43579    41199    38668    36583    35156    35078    36906 
   39772    41971    41949    39641    36718    34420    33130    33153 
   34059    35301    37197    39727    42184    44508    47193    50005 
