Origin Time       2025/01/13 21:19:00
Lat.              31.8
Long.             131.6
Depth. (km)       30
Mag.              6.9
Station Code      MYZH01
Station Lat.      32.6536
Station Long.     131.2257
Station Height(m) 502.4
Record Time       2025/01/13 21:19:49
Sampling Freq(Hz) 100Hz
Duration Time(s)  162
Dir.              1
Scale Factor      3923(gal)/8224838
Max. Acc. (gal)   6.068
Last Correction   2025/01/13 21:19:49
Memo.             
[...]
    7600     7603     7700     7987     8149     7890     7484     7330 
    7377     7322     7010     6562     6324     6597     7217     7651 
    7639     7423     7335     7429     7541     7657     7912     8302 
    8707     9030     9162     9005     8607     8108     7515     6920 
    6652     6843     7272     7803     8417     8878     8878     8563 
    8326     8147     7879     7749     7834     7938     8128     8415 
    8487     8297     8050     7798     7584     7565     7809     8121 
    8244     8144     7954     7766     7570     7300     6957     6775 
    6967     7323     7614     7948     8359     8711     9072     9478 
    9647     9337     8769     8221     7582     6833     6374     6444 
    6844     7227     7381     7312     7075     6683     6281     6085 
    6257     6748     7240     7645     8171     8657     8854     8976 
    9190     9367     9504     9663     9709     9447     8895     8330 
    8004     7830     7581     7234     6917     6758     6748     6654 
    6365     6189     6494     7345     8459     9413    10015    10355 
   10485    10374    10041     9541     9031     8807     9077     9745 
   10395    10660    10602    10331     9780     9112     8591     8216 
    7924     7712     7504     7252     7030     6882     6781     6787 
    7024     7415     7773     7955     7835     7539     7402     7375 
    7165     6835     6673     6736     6889     7055     7148     6998 
    6592     6201     6091     6299     6799     7499     8214     8904 
    9521     9906     9992     9782     9445     9319     9478     9595 
    9277     8523     7713     7056     6516     6142     5949     5859 
    5888     6066     6338     6625     6829     6998     7291     7672 
    7971     8105     8064     7913     7789     7720     7487     6934 
    6272     5768     5478     5279     4999     4669     4491     4378 
    4054     3650     3635     4180     4939     5510     5814     5872 
    5602     4918     3970     3195     2851     2793     2835     2959 
    3140     3339     3638     4178     4982     5918     6851     7668 
    8294     8842     9437     9930    10108    10054    10096    10272 
   10173     9579     8819     8375     8513     9103     9626     9752 
    9676     9621     9521     9204     8635     8067     7700     7387 
    7017     6632     6112     5389     4687     4251     4164     4322 
    4442     4403     4378     4584     5008     5385     5552     5591 
    5699     6070     6612     6953     6999     7005     7072     7040 
    6810     6509     6401     6546     6678     6682     6878     7535 
    8495     9520    10581    11680    12671    13397    13991    14764 
   15712    16565    17108    17139    16568    15557    14318    12946 
   11538    10303     9312     8330     7295     6612     6583     6999 
    7461     7712     7739     7778     7981     8243     8565     9131 
    9815    10142     9833     9096     8403     8029     7796     7377 
    6870     6636     6654     6509     5946     5049     4025     3137 
    2559     2130     1541      812      230      -93     -203      -63 
     272      560      801     1293     2181     3420     4951     6725 
    8610    10353    11676    12445    12845    13193    13490    13513 
   13223    12754    12202    11487    10408     8957     7527     6524 
    5877     5216     4419     3796     3636     3842     4203     4579 
    4827     4972     5194     5633     6357     7318     8320     9076 
    9316     8953     8073     6760     5151     3526     2166     1231 
     654      195     -233     -432     -160      610     1644     2674 
    3713     4842     5903     6818     7754     8695     9302     9404 
    9319     9486    10129    11215    12480    13668    14767    15700 
   16170    16050    15577    15093    14694    14218    13505    12529 
   11597    11160    11137    11080    10920    10863    10818    10523 
    9968     9410     9086     8999     9073     9421    10179    11314 
   12699    14188    15554    16418    16468    15780    14708    13581 
   12534    11431    10002     8235     6555     5387     4642     3929 
    3175     2562     2070     1594     1085      508       56      -70 
    -112     -295     -459     -562     -780    -1039    -1055     -683 
     -52      518      814      865      796      828     1290     2336 
    3805     5441     7095     8676    10019    10974    11572    11931 
   12113    12221    12415    12715    12907    12822    12602    12560 
   12742    12752    12252    11500    10891    10481    10162     9802 
    9300     8810     8565     8548     8665     8907     9198     9410 
    9347     8653     7119     4990     2801      943     -499    -1441 
   -1691    -1312     -669      -58      464      919     1302     1638 
    1966     2269     2497     2663     2920     3334     3763     4194 
    4896     5957     7057     7842     8276     8613     9046     9477 
    9680     9675     9684     9763     9957    10505    11418    12486 
   13613    14485    14611    14011    13277    12924    13055    13636 
   14639    15838    16865    17477    17568    17088    16110    14841 
   13441    12008    10551     8978     7358     6023     5188     4745 
    4553     4553     4483     4164     3816     3619     3497     3285 
    2875     2486     2558     3177     4062     5086     6254     7376 
    8149     8345     8081     7861     8027     8527     9225    10037 
   10837    11564    12376    13371    14314    14995    15433    15608 
   15460    15138    14823    14395    13701    12804    11778    10525 
    9003     7425     6087     5132     4504     4023     3569     3100 
    2613     2220     1971     1849     2000     2463     3078     3902 
    5044     6345     7744     9354    11063    12590    13733    14401 
   14588    14320    13702    12885    11915    10787     9516     7996 
    6170     4256     2571     1158     -112    -1092    -1476    -1316 
    -908     -253      843     2182     3404     4503     5618     6750 
    7805     8696     9366     9730     9701     9305     8714     8095 
    7464     6727     5826     4874     4109     3699     3700     4102 
    4872     5942     7122     8301     9396    10157    10662    11308 
   12191    13124    13961    14640    15036    14958    14368    13363 
   12079    10725     9456     8089     6261     3986     1642     -379 
   -1836    -2691    -2924    -2501    -1582     -500      453     1281 
    2147     3156     4375     5742     7014     7871     8270     8560 
    8988     9456     9764     9767     9369     8671     8050     7774 
    7863     8247     8707     9016     9080     8911     8615     8293 
    8039     7936     7962     8071     8263     8511     8799     9153 
    9477     9567     9468     9363     9224     8997     8829     8872 
    9061     9217     9273     9159     8749     8189     7832     7921 
    8544     9402     9888     9829     9408     8575     7354     6176 
    5401     5077     5205     5755     6527     7267     7803     8117 
    8280     8309     8199     8027     7889     7813     7730     7469 
    6963     6420     6084     5940     5821     5755     5992     6569 
    7203     7607     7676     7519     7231     6681     5829     4849 
    3798     2678     1664      920      467      284      394      830 
    1490     2181     2897     3811     4990     6254     7310     8020 
    8494     8812     8851     8559     8036     7372     6623     5664 
    4282     2664     1300      369     -191     -240      368     1364 
    2357     3222     3989     4706     5489     6397     7315     8083 
    8695     9350    10160    11017    11881    12764    13626    14457 
   15149    15585    15781    15750    15458    14945    14312    13508 
   12374    10948     9382     7888     6787     6183     5780     5296 
    4700     4066     3445     2836     2242     1707     1169      569 
      27     -276     -183      287      932     1676     2610     3770 
    5101     6556     8108     9643    10959    11885    12414    12652 
   12741    12846    12884    12671    12425    12425    12536    12514 
   12353    12240    12251    12179    11939    11758    11740    11788 
   11905    12143    12469    12861    13362    13988    14611    15079 
   15261    14931    14041    12869    11700    10696     9907     9217 
    8413     7473     6662     6141     5791     5503     5231     4931 
    4714     4735     5019     5607     6489     7360     7977     8433 
    8785     8915     8815     8608     8356     8060     7692     7140 
    6376     5599     5063     4865     4934     5067     5008     4645 
    4147     3751     3550     3501     3554     3700     3850     3735 
    3214     2485     1849     1539     1645     2064     2531     2776 
    2826     2918     3171     3665     4409     5188     5810     6235 
    6489     6696     6964     7183     7169     6961     6725     6504 
    6234     5954     5798     5818     6023     6384     6771     7107 
    7362     7501     7722     8282     9073     9914    10795    11565 
   12039    12312    12491    12582    12636    12679    12706    12746 
   12798    12829    12819    12717    12426    11943    11469    11234 
   11230    11418    11870    12459    12888    13054    12997    12793 
   12611    12469    12129    11523    10858    10227     9560     8846 
    8185     7703     7422     7236     7052     6843     6636     6489 
    6448     6593     6951     7380     7677     7688     7360     6843 
    6351     5937     5543     5107     4542     3812     2940     1908 
     751     -340    -1156    -1601    -1665    -1417     -884     -112 
     703     1387     1954     2443     2884     3329     3767     4180 
    4568     4986     5489     5962     6199     6095     5703     5179 
    4707     4507     4723     5246     5825     6309     6721     7164 
    7678     8198     8621     8870     8908     8815     8800     9003 
    9402     9946    10557    11024    11169    11097    11051    11110 
   11182    11194    11141    10998    10840    10868    11121    11452 
   11765    12100    12484    12780    12891    12865    12711    12459 
   12144    11668    10929    10019     9108     8280     7604     7157 
    6895     6663     6397     6203     6088     5871     5474     5011 
    4644     4500     4612     4955     5513     6151     6748     7280 
    7635     7732     7672     7462     7056     6582     6222     5977 
    5778     5672     5724     5819     5881     5991     6146     6257 
    6326     6393     6471     6606     6925     7533     8322     9039 
    9598    10048    10334    10424    10426    10436    10466    10423 
   10201     9786     9157     8274     7296     6520     5988     5470 
    4812     4041     3169     2228     1316      522     -153     -751 
   -1258    -1656    -1964    -2131    -1984    -1402     -537      324 
    1015     1557     2043     2528     3011     3460     3856     4201 
    4445     4602     4811     5179     5628     5914     5883     5657 
    5451     5354     5390     5551     5757     5953     6197     6594 
    7183     7913     8739     9686    10737    11838    12916    13879 
   14721    15468    15957    16040    15884    15741    15678    15753 
   15985    16131    15886    15114    13799    12085    10332     8923 
    7920     7068     6145     5150     4249     3721     3839     4641 
    5902     7325     8657     9752    10543    11045    11364    11576 
   11669    11593    11358    11144    11052    10953    10810    10658 
   10359     9778     9042     8414     8071     8110     8544     9158 
    9691    10118    10476    10632    10585    10532    10565    10602 
   10476    10064     9429     8679     7828     6862     5771     4658 
    3778     3315     3229     3372     3576     3711     3789     3886 
    4081     4388     4714     4984     5238     5566     5984     6293 
    6257     5894     5341     4634     3801     2949     2196     1683 
    1436     1266      970      542      207      205      492      845 
    1127     1435     1999     2914     4032     5097     5972     6709 
    7348     7825     8179     8602     9173     9756    10224    10562 
   10827    11117    11503    11966    12433    12916    13444    13811 
   13799    13517    13297    13321    13475    13555    13498    13416 
   13375    13271    12972    12411    11605    10605     9425     8132 
    6905     5942     5329     4961     4645     4349     4167     4095 
    4031     3909     3758     3630     3539     3489     3526     3723 
    4172     4881     5759     6752     7842     8915     9787    10415 
   10910    11268    11371    11242    11068    10964    10859    10728 
   10754    11099    11670    12321    12996    13621    14035    14037 
   13458    12349    10995     9694     8598     7734     7045     6438 
    5895     5481     5229     5209     5529     6172     6994     7859 
    8664     9289     9556     9374     8878     8220     7433     6602 
    5838     5135     4455     3762     3025     2301     1705     1300 
    1074     1013     1194     1676     2344     3017     3564     3829 
    3662     3061     2177     1186      260     -460    -1004    -1494 
   -1941    -2301    -2544    -2639    -2547    -2193    -1578     -795 
      13      672     1194     1840     2856     4280     5913     7543 
    9028    10233    11173    11998    12777    13473    14062    14563 
   14949    15223    15496    15925    16654    17694    18813    19712 
   20179    20056    19279    18002    16484    14966    13563    12221 
   10870     9567     8388     7290     6154     5020     4059     3335 
    2864     2763     3149     3969     5047     6218     7326     8251 
    8905     9335     9711    10052    10216    10160     9926     9525 
    8932     8145     7171     6070     5049     4305     3834     3519 
    3372     3443     3569     3595     3538     3457     3497     3763 
    4217     4766     5313     5903     6654     7538     8440     9285 
   10006    10509    10755    10617    10025     9246     8419     7634 
    7126     6793     6546     6574     6833     7229     7870     8873 
   10091    11137    11739    11836    11435    10683     9838     8959 
    7986     7090     6372     5691     4982     4259     3636     3362 
    3499     3924     4579     5394     6227     7060     7973     8949 
    9923    10863    11743    12434    12749    12708    12413    11893 
   11321    10844    10444    10176    10019     9822     9663     9695 
    9780     9753     9576     9177     8503     7576     6466     5259 
    3906     2463     1250      448      -51     -368     -494     -406 
    -201        4      226      511      816     1189     1760     2539 
    3434     4325     5107     5818     6489     7026     7437     7863 
    8379     8910     9327     9556     9663     9737     9790     9825 
    9902    10064    10247    10347    10409    10466    10400    10215 
   10008     9697     9101     8278     7546     7146     7105     7391 
    7925     8460     8665     8406     7789     7128     6771     6779 
    6999     7337     7681     7888     7916     7831     7803     7944 
    8117     8182     8225     8386     8718     9181     9734    10463 
   11387    12341    13127    13568    13653    13574    13506    13531 
   13609    13668    13729    13729    13485    12945    12118    10963 
    9570     8162     6925     5983     5346     4901     4608     4506 
    4552     4688     4927     5223     5449     5559     5670     5908 
    6235     6539     6808     7028     7064     6766     6111     5242 
    4287     3240     2073      851     -290    -1165    -1610    -1591 
   -1250     -766     -175      456      905     1117     1239     1381 
    1584     1815     2060     2457     3030     3601     4040     4322 
    4491     4661     4918     5281     5830     6677     7732     8754 
    9634    10454    11300    12145    12874    13385    13672    13824 
   13852    13740    13547    13255    12841    12344    11788    11341 
   11236    11476    11842    12104    12175    12105    12019    12015 
   12093    12256    12515    12810    13080    13312    13401    13180 
   12634    11902    11080    10193     9305     8534     7906     7325 
    6737     6141     5530     4930     4371     3897     3585     3489 
    3578     3730     3835     3869     3843     3765     3670     3681 
    3927     4433     5115     5822     6426     6866     7156     7334 
    7419     7466     7537     7569     7496     7422     7468     7615 
    7724     7657     7383     6984     6590     6315     6129     5940 
    5782     5699     5724     5913     6214     6508     6743     6848 
    6779     6606     6366     6083     5950     6201     6855     7651 
    8253     8487     8374     8081     7838     7735     7728     7762 
    7736     7581     7376     7252     7280     7510     7881     8129 
    8041     7701     7325     7009     6709     6312     5733     4986 
    4180     3483     3003     2698     2479     2369     2490     2839 
    3327     3998     4834     5683     6477     7263     8044     8783 
    9508    10270    10959    11461    11838    12179    12514    12856 
   13211    13566    13867    13995    13795    13180    12164    10839 
    9402     8132     7256     6817     6674     6704     6836     6934 
    6910     6804     6623     6353     6046     5725     5383     5022 
    4622     4152     3620     3086     2656     2529     2883     3643 
    4577     5524     6385     7122     7811     8529     9221     9805 
   10274    10647    10845    10813    10727    10798    10999    11234 
   11456    11620    11743    11820    11742    11399    10818    10135 
    9474     8946     8572     8280     8002     7651     7136     6455 
    5725     5069     4544     4159     3859     3638     3601     3739 
    3963     4310     4696     4888     4887     4900     5015     5273 
    5697     6110     6270     6150     5827     5340     4747     4185 
    3780     3661     3996     4752     5636     6347     6747     6872 
    6860     6778     6667     6643     6779     7060     7484     8005 
    8503     8883     9130     9317     9517     9728     9973    10231 
   10369    10384    10390    10443    10528    10611    10621    10557 
   10566    10696    10775    10740    10669    10557    10411    10384 
   10548    10778    11010    11265    11477    11643    11828    11982 
   12064    12082    11950    11630    11234    10847    10444    10000 
    9518     8997     8406     7774     7150     6535     6031     5769 
    5751     5952     6278     6517     6542     6382     6100     5796 
    5533     5209     4820     4525     4349     4203     4062     4009 
    4136     4459     5023     5844     6767     7690     8588     9297 
    9679     9795     9767     9649     9409     9022     8532     7897 
    7037     6046     5101     4336     3838     3547     3299     3013 
    2724     2505     2342     2118     1796     1475     1244     1144 
    1212     1471     1904     2443     3017     3605     4147     4503 
    4591     4434     4178     4010     3990     4055     4136     4156 
    4114     4132     4368     4923     5761     6682     7537     8274 
    8796     9063     9165     9198     9243     9331     9445     9570 
    9693     9788     9776     9598     9285     8927     8676     8673 
