Origin Time       2025/01/13 21:19:00
Lat.              31.8
Long.             131.6
Depth. (km)       30
Mag.              6.9
Station Code      MYZH10
Station Lat.      32.0215
Station Long.     131.2900
Station Height(m) 80
Record Time       2025/01/13 21:19:39
Sampling Freq(Hz) 100Hz
Duration Time(s)  214
Dir.              5
Scale Factor      3920(gal)/6170801
Max. Acc. (gal)   49.491
Last Correction   2025/01/13 21:19:24
Memo.             
[...]
    9261     9257     9256     9263     9263     9253     9253     9265 
    9267     9261     9258     9260     9258     9254     9261     9267 
    9257     9254     9265     9260     9254     9265     9264     9250 
    9253     9262     9263     9264     9260     9256     9256     9260 
    9264     9257     9251     9256     9261     9268     9272     9257 
    9242     9250     9267     9270     9258     9259     9269     9258 
    9253     9261     9254     9252     9266     9263     9256     9263 
    9263     9255     9254     9258     9258     9259     9265     9266 
    9258     9254     9253     9255     9261     9264     9263     9264 
    9259     9255     9257     9257     9256     9262     9265     9264 
    9262     9259     9256     9254     9254     9258     9261     9263 
    9265     9262     9257     9257     9256     9255     9257     9261 
    9264     9265     9260     9253     9251     9255     9261     9264 
    9261     9260     9262     9261     9258     9256     9256     9257 
    9260     9264     9264     9259     9256     9256     9256     9259 
    9262     9260     9260     9259     9255     9257     9259     9259 
    9261     9260     9259     9259     9257     9255     9257     9261 
    9262     9261     9262     9260     9255     9257     9258     9255 
    9259     9262     9262     9262     9259     9257     9259     9258 
    9257     9258     9262     9264     9259     9255     9258     9260 
    9260     9259     9258     9257     9259     9258     9258     9261 
    9262     9261     9259     9254     9251     9260     9265     9262 
    9261     9260     9256     9257     9258     9258     9258     9261 
    9262     9262     9261     9257     9256     9258     9258     9258 
    9263     9264     9260     9257     9255     9255     9259     9261 
    9259     9259     9261     9261     9258     9257     9257     9260 
    9262     9261     9259     9259     9258     9257     9259     9259 
    9257     9258     9263     9263     9260     9260     9258     9256 
    9260     9261     9262     9266     9264     9261     9261     9253 
    9246     9260     9272     9266     9257     9257     9256     9254 
    9261     9266     9256     9253     9263     9267     9262     9257 
    9252     9250     9255     9264     9268     9265     9261     9259 
    9253     9246     9255     9270     9267     9257     9260     9263 
    9254     9254     9259     9254     9258     9270     9270     9264 
    9261     9254     9248     9255     9264     9264     9265     9267 
    9262     9254     9248     9249     9259     9265     9267     9269 
    9265     9257     9249     9245     9258     9269     9262     9259 
    9263     9262     9259     9254     9247     9250     9264     9273 
    9268     9261     9256     9252     9251     9261     9270     9261 
    9250     9258     9268     9264     9256     9254     9252     9255 
    9267     9270     9258     9253     9257     9257     9259     9263 
    9262     9258     9258     9259     9257     9256     9258     9261 
    9263     9263     9259     9259     9260     9259     9257     9258 
    9260     9261     9261     9259     9259     9260     9260     9257 
    9256     9259     9263     9262     9257     9257     9259     9259 
    9263     9264     9257     9256     9260     9261     9260     9257 
    9257     9261     9262     9259     9258     9260     9260     9259 
    9256     9255     9259     9259     9258     9261     9261     9257 
    9259     9268     9272     9265     9263     9275     9293     9308 
    9325     9339     9341     9352     9389     9424     9444     9475 
    9517     9545     9534     9468     9385     9356     9391     9412 
    9355     9267     9263     9388     9575     9722     9768     9745 
    9717     9681     9627     9650     9823    10022    10052     9849 
    9473     9072     8882     9047     9446     9801     9882     9645 
    9326     9225     9373     9569     9661     9657     9612     9478 
    9215     8936     8769     8717     8737     8759     8738     8752 
    8860     8944     8953     9049     9267     9389     9286     9092 
    9044     9244     9498     9508     9257     8991     8873     8847 
    8802     8764     8889     9223     9576     9710     9559     9222 
    8897     8938     9583    10379    10521     9953     9395     9370 
    9798    10256    10398    10314    10274    10306    10354    10455 
   10663    11105    11798    12335    12298    11818    11316    11046 
   11138    11559    12028    12274    12242    12076    11991    12087 
   12351    12813    13356    13696    13694    13204    12056    10731 
   10145    10376    10626    10445    10138    10170    10708    11454 
   11917    12172    12632    12958    12565    11897    11609    11181 
    9830     7997     6524     5305     4159     3766     4670     6435 
    8040     8658     8531     8973    10496    11731    11478    10099 
    8103     5638     3314     1842     1554     2536     4372     6144 
    7171     7416     7273     7188     7339     7626     8043     8761 
    9273     8544     6794     5368     4896     5309     6345     7199 
    7268     6927     6781     6737     6048     4416     2823     2821 
    4841     7412     8943     9403     9342     9112     8893     8279 
    7084     6298     6975     8694     9632     8604     6958     6963 
    8639    10202    11049    11952    13002    13659    13841    13636 
   13142    12550    11704    10615    10088    10516    11359    12550 
   14440    16324    16706    15063    12669    11326    11663    13201 
   15003    15960    15606    14440    13053    11748    11266    12546 
   15082    17321    18471    18333    17092    15299    12841     9841 
    7754     7441     8161     9229    10431    11174    11213    11174 
   11034     9798     7480     5396     4446     4755     6328     8613 
    9968     9016     6205     3254     1951     3013     4900     5460 
    4888     4670     5285     6821     8983     9906     8031     4948 
    3631     4815     7320     9742    10921    10928    10698    10556 
   10675    11210    11276     9613     6162     2730     2052     5120 
    9824    13226    14577    14861    14266    12479    10339     8855 
    8603    10514    14162    16836    16972    15662    14090    12482 
   11306    11208    11729    11461     9459     6239     3393     2203 
    3173     5850     8833    11325    13011    12526     8948     3752 
    -361    -1854    -1388     -418      325      624     1100     3084 
    6439     9184     9953     9654    10243    11976    13261    13171 
   11959     9887     7383     5184     3676     3262     4757     8001 
   11261    13076    13369    12638    11843    12557    15384    18929 
   21296    21274    18272    13449     9704     8205     7483     7195 
    8729    11802    14704    16998    18698    19214    18910    19112 
   20282    21680    22690    23323    22736    19370    13734     8179 
    4094     2149     2864     5715     9756    13729    15827    15487 
   13842    11590     8580     5916     5616     7629    10010    10953 
    9242     5689     3433     3639     4278     4940     7351    11197 
   14163    14610    12195     7864     3357     -285    -3006    -4549 
   -4129    -1600     1901     4965     6899     7821     8210     8085 
    7111     5841     5449     6284     7549     7747     6483     5016 
    3469     1336      404     2474     6542    10445    12766    13607 
   14304    15430    16009    15642    15277    14594    12448     9783 
    7547     5019     2715     2315     4654     9946    16611    21252 
   21580    17309    10296     4734     4058     7553    11774    13759 
   12115     8121     5187     5049     5655     5693     8622    15523 
   20811    21059    19620    20338    21004    17959    14499    15139 
   18531    21040    19688    13530     4518    -3021    -4849    -1014 
    6123    14103    19256    19449    14985     8589     4196     1930 
     844     1709     2855     2502     2479     4180     4084    -1318 
   -6958    -5487     1870     9854    15417    16673    13599     8428 
    3265    -1391    -6100    -9755    -9641    -5728     -146     6600 
   14568    21611    23617    18243     7737    -2655    -7672    -4650 
    4511    13889    18148    16455    11212     6679     6403     8897 
   12241    18112    23582    21633    13147     5576     1171    -2396 
   -2149     5576    15987    22322    22516    19133    16358    13473 
    9295     9693    17602    27134    32213    29476    19250     6938 
   -1472    -3559    -1276     1992     4255     4165     1941      150 
     458     1972     3639     7192    13669    19288    21903    22848 
   21813    18012    11313     3843      331     1921     5558     8816 
   10741    10969     9295     6585     5366     7242    11733    17796 
   23557    26732    26679    23438    17886    11715     4123    -4000 
   -7616    -5237      436     6827    12171    15068    13778     8082 
     -19    -7180    -9594    -7123    -3492     -861      553      -78 
   -1645     -767     2850     7135    11409    14037    13143    10410 
    8805     7463     2380    -4318    -5694    -2811     -707      721 
    3201     6193     6761     4416     3379     5887    10711    16366 
   20547    21686    20475    17994    15393    13720    13202    14102 
   17171    22323    26936    27054    21585    13983     8102     3993 
    1701     4529    12127    19123    23043    24017    21736    17536 
   13030     9300     8708    10760    10774     7149     3260     1882 
    2116     1788     1447     2948     5497     7524     9115    10562 
   11720    12020    11139    10296    11167    14274    18869    23014 
   24139    20682    14378     9451     7808     7585     6192     2399 
   -2838    -7198    -9364    -9189    -6391    -1224     4403     8005 
    8717     7958     7880     9230    10687    11004    11546    14094 
   17931    22131    26778    31079    33047    30427    23211    14504 
    7506     4056     4740     8519    13205    15949    14299     7985 
    -353    -7890   -15099   -20500   -18708   -10969    -3536     1841 
    4739     4023     1356      769     4302     9160    12087    13246 
   13239    11714    10368    12249    17187    23229    29659    33790 
   31891    25269    20203    20176    20187    16520    15027    18936 
   24123    27485    26876    22492    18389    15944    14256    14406 
   16695    20187    23884    24981    22669    18865    11686     -370 
  -11625   -16109   -11529     1564    17043    29665    38093    40662 
   37481    28968    18651    14847    19164    25681    27366    20121 
    7820    -5615   -20956   -34024   -37847   -30738   -16531    -2517 
    6669     9665     4135    -7966   -18018   -19385   -10673     6772 
   25931    37691    38739    29835    17461     8150    -2734   -13550 
  -10434     4383    14167    10859    -3159   -19237   -29698   -35122 
  -37636   -33743   -21287    -6152     4741     9257     7758      230 
  -12153   -24891   -34123   -37577   -33275   -23057   -13271    -7871 
   -3826      838     3584     4657     4278     -500    -8634   -14680 
  -14538    -9166    -3870     -710     3455    10572    19533    28073 
   34606    39293    42928    45822    47021    46741    48155    51016 
   50187    42932    31398    20894    15694    15296    18514    24500 
   28729    27424    20212     7850    -5266   -16350   -27337   -33173 
  -26916   -13063     1843    15993    26430    29156    24502    19120 
   18292    20774    25577    33765    42797    48236    48283    43045 
   33914    22994    11849     2769     -542     3331    10236    16405 
   22778    28241    29773    28785    27888    26452    23254    19619 
   17873    18158    18620    18017    16631    14897    12402     8454 
    3381    -1315    -4141    -4391    -2804    -1239     -548      449 
    3504     8820    14606    18265    17278    10883     2100    -3880 
   -4282     -927     2527     3409     -497    -9705   -20718   -28317 
  -29982   -28243   -26376   -22827   -17301   -14353   -15075   -16955 
  -19012   -20435   -20471   -17891   -10621     -661     7296    11860 
   13192    12160    11684    12551    13128    12747    10698     6471 
     846    -5053   -10126   -13670   -14820   -12712    -8174    -2632 
    2883     7085    10120    13422    16765    19117    20330    19866 
   16713    10831     4276      991     3464    10205    17910    24438 
   29051    31019    29970    27384    25449    25258    26522    27384 
   26147    24269    25425    31159    39202    46218    50627    52317 
   51520    49656    48561    48275    49561    54667    62088    67252 
   68524    66606    59571    44821    25894     9615    -1009    -5259 
   -2969     3716    11072    15569    14365     5828    -8177   -23140 
  -35972   -43129   -39650   -26266   -10824      892     8357    10396 
    7831     4354     -390    -2387     5082    15758    21982    23265 
   17419     4459   -11024   -21800   -19513    -5439     9339    17051 
   17346    14369    12262    12489    15319    19225    23063    26927 
   27978    25006    21621    19719    17475    13080     6896     -580 
   -9055   -16436   -21127   -23016   -21335   -15377    -7066     -932 
    -158    -4262   -10531   -15930   -19112   -19820   -17737   -14884 
  -14149   -15611   -17997   -19389   -17552   -12340    -4319     6232 
   16641    23938    27577    25377    14211    -3680   -22678   -40479 
  -56938   -67849   -68649   -62125   -51458   -35144   -16741    -5222 
   -3825    -8138   -10763    -5058     8996    24372    35093    41046 
   45977    50790    51455    48781    48194    48415    47064    46568 
   45986    42150    35190    27370    19877    12089     7916    12672 
   22506    30921    37102    40318    38553    33738    28837    23271 
   17578    14837    13491     8187    -2751   -17198   -31576   -41982 
  -46081   -42709   -32292   -18127    -3633    10458    23732    33251 
   37307    38964    42186    47314    50741    48902    42527    35810 
   32312    31560    31014    30176    28458    23139    12955      -31 
  -11744   -18637   -20193   -16642    -6808     8096    24043    38675 
   50104    54302    50380    43111    35564    27897    23587    25241 
   27770    24595    14717     1031   -12576   -22313   -25882   -23726 
  -18368   -13935   -14907   -21538   -29742   -35942   -38654   -38369 
  -34749   -24685    -9539     5099    18069    26600    24350    14870 
    7899     5151     3119      643    -1735    -4445    -7149    -7104 
   -3572      544     3007     3855     3199      -45    -5771    -9847 
   -7290     1526    11025    16078    16633    17334    22475    32423 
   43926    53271    58997    60425    56972    50092    43364    38642 
   33311    27108    24942    26543    26476    23222    17768    10936 
    5442     5961    13992    24669    32959    36839    37440    40160 
   45635    45356    33305    15246     3633     2094     2495       28 
   -2596    -3075    -4126   -12127   -26691   -38380   -41300   -35775 
  -23384    -9915     -508    10433    26713    39372    43424    44077 
   43374    39725    34668    30660    27022    20142     8561    -2507 
   -7219    -7242    -6895    -5965    -3908    -2932    -2299     1504 
    7589     9957     4548    -4839    -9768    -5660     5716    18905 
   27222    27889    25285    24931    26619    25431    18079     7463 
   -1390    -8025   -13544   -15614   -12525    -6481    -1694    -1640 
   -4796    -7196    -9490   -12038   -10011    -1797     7654    14127 
   16208    12212     4132      538     5526    14014    21766    26880 
   26832    21888    16299    14539    15613    18396    27176    37280 
   36306    24274    10320      297    -7609   -19758   -31048   -29195 
  -16485    -2079    12416    25526    31205    25180     9833    -8041 
  -21823   -26770   -20273    -2932    19040    36366    45283    45610 
   35115    20264     9729    -2242   -12404    -5525    13305    29753 
   40960    47605    47431    36680    18830     1835   -13511   -25782 
  -29688   -27007   -22900   -17604    -9827    -2311    -1163    -7725 
  -16039   -20018   -17140    -8662     1225     9216    14914    18786 
   20153    18961    18183    20847    24906    24963    18903     9941 
    3061      730     2364     8474    19878    30410    31118    22338 
   11766     6590     7860     8084     6114    10252    17804    20550 
   19072    15023     8877     1678    -4522    -4785     1410     9162 
   16021    20720    20888    16399    10060     4932     1910     -438 
   -3543    -6538    -7732    -7008    -4580     -605     3262     4599 
    3470     4350    11066    21247    30228    35354    34349    26133 
   13511     1823    -4485    -3833     3802    16767    28516    31522 
   25587    17081    13245    17134    23885    29039    35464    41874 
   40450    28251    10567    -5314   -20045   -33482   -35761   -25932 
  -15749   -12860   -14285   -14834   -17611   -23554   -25464   -19738 
   -6404    12083    31228    50052    65465    71915    70458    64168 
   55146    47979    43209    37267    29224    19241     9175     2279 
    -480     1378     6038     7965     4447    -3527   -14605   -24830 
  -27400   -17872     2030    23632    37396    40436    32404    15742 
     744    -7614   -12697    -9709     5652    23695    35084    38541 
   35627    30069    23099    12621     1469    -4617    -5571    -3654 
     931     7476    14727    21196    25509    26846    23110    12492 
   -2779   -16809   -24037   -21951   -11892     1040    11171    16120 
   16428    13383     9928     8366     6957     7510    15337    27739 
   38697    45463    45366    36857    21516     6858      -12    -3137 
   -8694   -15600   -21008   -24627   -27817   -31295   -34114   -34789 
  -33057   -29727   -24817   -17285    -6578     6096    18636    29236 
   36056    38148    36554    32108    24094    13447     4247      457 
    2098     5243     7631    10908    15821    20495    22431    21000 
   17695    12402     5469      958     1273     5248    10479    13369 
   12967    13085    16946    23102    27222    26647    22182    15653 
    8660     3985     4385     8943    13568    15057    12300     6204 
     572     -552     2500     4724     2445    -2635    -8902   -15483 
  -17868   -16059   -17314   -23572   -28566   -26876   -19638   -11440 
   -3611     5497    16160    27279    36807    41785    42311    41127 
   37650    29568    19084    11760    10318    12493    15346    19801 
   27813    38082    48420    56883    59969    54619    41720    25186 
    6017   -15443   -31197   -32085   -19322    -3296     7173    11512 
    9801      819    -9903   -17570   -23766   -24691   -15851    -5137 
    1430     9287    19176    25914    29620    31709    31320    28707 
   26564    27593    28238    23358    15802    11388    12595    18019 
   22591    22468    18976    16404    17825    22657    27888    31358 
   31327    24463    11368    -1242    -9869   -16103   -21108   -24886 
  -25200   -18212    -3506    15389    34262    47874    50930    43585 
   31920    21655    14156     8967     6151     4257      127    -8120 
  -18305   -25720   -28318   -26418   -19528    -8210     2737     6332 
    1245    -6624   -13409   -19440   -22834   -20402   -11696       98 
