Origin Time       2025/01/13 21:19:00
Lat.              31.8
Long.             131.6
Depth. (km)       30
Mag.              6.9
Station Code      MYZH14
Station Lat.      31.5649
Station Long.     131.3510
Station Height(m) 5
Record Time       2025/01/13 21:19:39
Sampling Freq(Hz) 100Hz
Duration Time(s)  193
Dir.              6
Scale Factor      3920(gal)/6170801
Max. Acc. (gal)   27.643
Last Correction   2025/01/13 21:19:24
Memo.             
[...]
  -32127   -31094   -30215   -32137   -36299   -39427   -38931   -35973 
  -33992   -34036   -34171   -33092   -31198   -28827   -25582   -21423 
  -17924   -17219   -19367   -22127   -23472   -23606   -24165   -25706 
  -26827   -26183   -24981   -26006   -29480   -31984   -30346   -24851 
  -18779   -15502   -15654   -17128   -17254   -15199   -13100   -14060 
  -18599   -24368   -28923   -31222   -31373   -30349   -29764   -30709 
  -32000   -31145   -28152   -26234   -27233   -29370   -30488   -30554 
  -30872   -32194   -34060   -36312   -40178   -46382   -52560   -54617 
  -50955   -43427   -34246   -24448   -15975   -12226   -13969   -16827 
  -16038   -12208    -9558   -10699   -15743   -23643   -31577   -35481 
  -33530   -28367   -24889   -25445   -28104   -29476   -27621   -23307 
  -19143   -16877   -16193   -16331   -18314   -23730   -30639   -33759 
  -30003   -21805   -14318   -10170    -8445    -8330   -10315   -13817 
  -17638   -22618   -30516   -40395   -48703   -52776   -52521   -49221 
  -43820   -36793   -30148   -27047   -27990   -30299   -31205   -29762 
  -26876   -23400   -19484   -17064   -18886   -23991   -28345   -29794 
  -30043   -32028   -35733   -37927   -36675   -33877   -33146   -35728 
  -38458   -37363   -32432   -26244   -19740   -12991    -8271    -8110 
  -11369   -14374   -15927   -18600   -24441   -32396   -39593   -43187 
  -42651   -40025   -37550   -36002   -33625   -28001   -20833   -16709 
  -16553   -17175   -16619   -15934   -16008   -15881   -15363   -16425 
  -20083   -24029   -24749   -22123   -19901   -20453   -22852   -25594 
  -28246   -31545   -35287   -37282   -37106   -37822   -41374   -44963 
  -43886   -37278   -29859   -27810   -33746   -44201   -51572   -51435 
  -46258   -40545   -36327   -33162   -29981   -26988   -24703   -21502 
  -15915   -10917   -10538   -13859   -17289   -19378   -20704   -21431 
  -20663   -18767   -18039   -19847   -22859   -24296   -23080   -21221 
  -20712   -20896   -21042   -22788   -27126   -31067   -30146   -24114 
  -17730   -15056   -15935   -19013   -23819   -28783   -31659   -32596 
  -33771   -35814   -36977   -36162   -34489   -33586   -34046   -35162 
  -35251   -33347   -30655   -29524   -30834   -31903   -28774   -21500 
  -14288   -10985   -12424   -16720   -21438   -25442   -28804   -31810 
  -33718   -33125   -30560   -28260   -26275   -22607   -17697   -14521 
  -14666   -16836   -18774   -19856   -21074   -23228   -26070   -28405 
  -29510   -29842   -29475   -27856   -25181   -22437   -20559   -19653 
  -19088   -19140   -21451   -27236   -35831   -44334   -49029   -48635 
  -45046   -40421   -35307   -30041   -26635   -27968   -33748   -38225 
  -36073   -30078   -27473   -30043   -32939   -31093   -24423   -18060 
  -16911   -20857   -26450   -30325   -30583   -28234   -27419   -31467 
  -38354   -42372   -39966   -31878   -21282   -11760    -6604    -8422 
  -16226   -24037   -26195   -22526   -17435   -16020   -20003   -26739 
  -32716   -36110   -36869   -36749   -37811   -39917   -41367   -42016 
  -43071   -44332   -44285   -41582   -36270   -30260   -25040   -19916 
  -13559    -6594    -1501      969     2329     2091    -2457   -11286 
  -19522   -22521   -22489   -25615   -32897   -39194   -40465   -37305 
  -31646   -24404   -17594   -14369   -15268   -18850   -24968   -32694 
  -38233   -38271   -33885   -29506   -27731   -27559   -27445   -26441 
  -23521   -18799   -13807   -10150   -10062   -15587   -25204   -34480 
  -39911   -41359   -41640   -42388   -42056   -39628   -37084   -36534 
  -37151   -37314   -37969   -41447   -47200   -50793   -49545   -46059 
  -43183   -39760   -33080   -22850   -12054    -3216     4119     9903 
   12367    11584     9129     4981    -3124   -18038   -37539   -52891 
  -58430   -55664   -48400   -41341   -38303   -39476   -42474   -43497 
  -39720   -32892   -27910   -28364   -33659   -39059   -40805   -38851 
  -33249   -24231   -14882    -8264    -3817     -160     1345    -1332 
   -7447   -13612   -18910   -26357   -35938   -43675   -47928   -50269 
  -51261   -47950   -38450   -27725   -21876   -20184   -19409   -19761 
  -21789   -22286   -18533   -14036   -14136   -18210   -20450   -17695 
  -12779    -8715    -6508    -8631   -16772   -28483   -39341   -46477 
  -49812   -49886   -46880   -42449   -38468   -35264   -32990   -30711 
  -25923   -19706   -17350   -20514   -25321   -28949   -32213   -35771 
  -36728   -31691   -23273   -17877   -17715   -20460   -23307   -24546 
  -24341   -24090   -24886   -27468   -31517   -34580   -34583   -32117 
  -28097   -23086   -18830   -16482   -15789   -17002   -20569   -25587 
  -29840   -31618   -31397   -30054   -26795   -21449   -16120   -13730 
  -16403   -21749   -23041   -18081   -12391   -11569   -15851   -21763 
  -26678   -30514   -33063   -34662   -38169   -44385   -49215   -48653 
  -43624   -38281   -34356   -30777   -28855   -30876   -34138   -33707 
  -28830   -22597   -18364   -17212   -17606   -17247   -14179    -8270 
   -3188    -3908   -11207   -20015   -24458   -24393   -24646   -28653 
  -36001   -44078   -49719   -50799   -45954   -33732   -15549     1845 
   10829     9842     3229    -5197   -14657   -24367   -32564   -38418 
  -42155   -43723   -42912   -39762   -33583   -24046   -14778   -11921 
  -16404   -21833   -23612   -25543   -33271   -45604   -56515   -62358 
  -62705   -56955   -46610   -38641   -39012   -44558   -46853   -41964 
  -33110   -25559   -21692   -20327   -17909   -11485    -2655     2899 
     298    -9870   -20711   -24246   -19394   -13450   -13039   -16492 
  -19086   -21922   -30138   -43510   -54092   -54900   -46974   -36075 
  -27478   -25014   -28820   -33492   -33011   -26371   -16196    -5692 
    1640     3857     1862    -3631   -13292   -25689   -35738   -39035 
  -37017   -35107   -35948   -38190   -40787   -43586   -43850   -37990 
  -28715   -24282   -28628   -37261   -43919   -46915   -47065   -43881 
  -36921   -29010   -24553   -23870   -23478   -20425   -14224    -8499 
   -6766    -7824   -10201   -14056   -19485   -25197   -27162   -24246 
  -21476   -22515   -25644   -28645   -32117   -37176   -42182   -44388 
  -45209   -48395   -53332   -55624   -52139   -43451   -32735   -22783 
  -15141   -10536    -8580    -8212    -7826    -5599    -1793     -340 
   -6303   -20190   -35801   -45596   -47620   -46145   -46389   -49557 
  -52642   -51815   -45343   -34916   -24778   -18028   -14317   -11651 
   -9166    -7014    -4828    -3705    -7220   -15774   -23217   -23210 
  -16811   -10839   -10067   -14178   -20481   -25515   -27351   -28251 
  -31339   -36740   -42433   -46652   -49296   -49753   -45937   -37530 
  -26806   -17025   -10726    -8310    -8305    -8586    -8561    -9393 
  -11979   -17516   -27045   -38640   -48002   -51436   -48297   -42002 
  -37431   -36703   -37949   -37155   -31530   -22364   -14288   -11275 
  -13450   -18045   -21569   -21516   -19630   -20873   -26750   -33165 
  -35637   -33839   -30234   -27133   -26096   -27947   -31739   -34432 
  -33831   -30604   -26862   -25356   -27314   -29470   -28074   -25003 
  -24911   -28453   -31685   -31430   -29302   -27977   -26260   -22310 
  -18138   -16774   -17144   -15383   -10489    -5496    -4123    -8469 
  -17966   -28219   -33368   -32266   -29938   -31154   -34659   -36258 
  -36080   -38218   -43907   -49727   -52362   -51983   -50516   -48826 
  -47037   -46093   -46841   -48115   -47155   -42172   -33925   -25023 
  -18380   -14818   -12773   -11779   -13041   -16494   -20523   -23589 
  -24723   -23734   -21348   -19256   -19404   -21132   -20682   -15762 
   -8951    -5582    -8430   -15207   -21336   -23727   -22399   -19691 
  -17316   -15047   -13483   -14575   -17860   -20565   -22341   -26239 
  -34010   -42624   -46837   -43995   -36313   -29604   -28266   -30854 
  -32317   -30102   -26471   -24953   -25768   -26416   -26653   -29117 
  -33592   -35228   -31062   -24788   -22293   -24600   -27605   -27879 
  -26935   -28651   -33399   -37597   -38198   -35044   -30381   -27169 
  -26681   -27786   -28579   -28158   -26867   -25195   -23145   -20819 
  -19022   -18855   -20288   -21846   -22780   -24288   -27155   -29948 
  -30469   -27426   -21580   -16395   -15894   -20884   -28337   -35135 
  -40369   -43226   -42056   -36779   -30527   -28002   -30276   -32133 
  -28404   -20165   -12174    -8043    -8390   -11802   -17011   -22868 
  -27479   -29614   -30327   -32596   -38492   -45865   -50128   -49503 
  -45877   -42246   -40830   -41595   -42643   -42047   -38616   -33096 
  -28502   -26403   -24600   -20636   -14975    -9748    -6524    -5583 
   -6116    -7103    -8373   -10165   -11978   -13254   -15121   -20000 
  -28263   -36165   -39537   -38753   -37176   -36102   -34174   -30627 
  -26731   -23559   -20199   -16148   -13604   -14990   -18993   -21280 
  -20272   -19609   -22341   -26170   -27634   -27300   -27673   -28800 
  -29028   -28225   -27431   -27240   -28938   -34572   -42865   -48382 
  -48188   -45186   -42887   -41623   -40413   -39639   -40410   -41049 
  -38128   -31773   -25581   -21941   -19738   -16241   -10409    -3722 
    1503     3185      -42    -6874   -13626   -18480   -22997   -28862 
  -35663   -42232   -47971   -52463   -55472   -56804   -55669   -51741 
  -46359   -41267   -37106   -33609   -30776   -29527   -30011   -30072 
  -27521   -23001   -19360   -18392   -18878   -18374   -16170   -14177 
  -14810   -17920   -21450   -24566   -27688   -30819   -33363   -33953 
  -31080   -25225   -18800   -14083   -12572   -14459   -17641   -19989 
  -21636   -22277   -19977   -14646    -9262    -7534   -10746   -16403 
  -21776   -27414   -34630   -41795   -45296   -43195   -37065   -30430 
  -25761   -22996   -20639   -18678   -19536   -23975   -28297   -29434 
  -29598   -31538   -33127   -31186   -27051   -23944   -21842   -19273 
  -17630   -19624   -25001   -30306   -32592   -32391   -32008   -31834 
  -30716   -28932   -28427   -30112   -32074   -31735   -29011   -25275 
  -21678   -20247   -22798   -28073   -32186   -32182   -29167   -26794 
  -26964   -28662   -30091   -30866   -31778   -32629   -31874   -28872 
  -24885   -21276   -18287   -16374   -16730   -19445   -22965   -25826 
  -27253   -26489   -23648   -21090   -21958   -26919   -33139   -36829 
  -36737   -35198   -35912   -39964   -44698   -47459   -48082   -46848 
  -43302   -37803   -31894   -26975   -23559   -21335   -19317   -16997 
  -15979   -18593   -24404   -29945   -31808   -29425   -24927   -19579 
  -12358    -4212     1009     1683     -773    -5284   -11476   -17915 
  -22093   -23027   -22646   -23757   -27821   -33815   -38313   -38544 
  -35824   -34536   -37645   -43140   -45846   -43870   -40562   -39376 
  -39780   -38513   -33937   -28257   -24412   -22754   -22123   -22015 
  -22289   -21950   -20039   -17623   -17308   -19993   -23372   -24787 
  -24577   -25275   -27644   -29539   -29464   -28744   -28769   -27827 
  -23416   -17276   -14198   -15802   -19108   -20930   -21603   -23870 
  -28371   -33015   -36694   -39675   -41435   -40904   -38469   -36201 
  -34832   -33098   -31242   -31263   -34080   -38639   -42475   -43557 
  -42453   -41938   -43688   -44731   -39747   -28662   -17569   -11647 
  -11270   -13958   -17657   -21172   -23230   -24341   -27041   -32197 
  -37451   -39359   -36201   -29841   -24696   -23807   -26203   -28445 
  -28144   -25110   -19432   -11701    -5549    -5127   -10172   -16721 
  -21482   -24937   -29870   -36728   -42707   -44827   -42786   -39523 
  -38349   -39560   -39995   -36102   -28708   -22484   -19809   -19483 
  -20313   -22105   -24573   -26507   -26479   -24716   -23043   -22426 
  -21235   -17407   -11645    -6660    -4364    -5047    -8232   -13162 
  -18821   -24034   -28010   -31010   -33549   -35315   -35471   -33534 
  -30254   -27405   -26342   -27354   -29411   -30495   -30162   -30068 
  -30777   -30980   -29461   -25627   -20057   -15349   -14064   -16042 
  -19344   -23280   -29437   -38487   -46902   -50821   -51855   -54089 
  -57003   -55415   -46792   -35685   -28050   -24757   -22597   -17610 
   -9200    -1065     4872     9690    12786    11808     5266    -4849 
  -13170   -17548   -22284   -30923   -40596   -46568   -47863   -46085 
  -42268   -37158   -32894   -32250   -35113   -37376   -35744   -30811 
  -24385   -18720   -16479   -17013   -17406   -17153   -17110   -18210 
  -21773   -27487   -33331   -38021   -41619   -43479   -42699   -41233 
  -41875   -44058   -44607   -41668   -37235   -34880   -34638   -32995 
  -28531   -23158   -18121   -13076    -8536    -6711    -9003   -14318 
  -20291   -24588   -26636   -27516   -26860   -23244   -17529   -12259 
   -8478    -5973    -5146    -6906   -11759   -18757   -25927   -31775 
  -35970   -39504   -42459   -42587   -39018   -34652   -32468   -31404 
  -28483   -23706   -19669   -18650   -21760   -28458   -36483   -43109 
  -46390   -45306   -40648   -35158   -30657   -26998   -23858   -21437 
  -19815   -18295   -16349   -14869   -15101   -17044   -19213   -19760 
  -18945   -18602   -18147   -15389   -10889    -7573    -6915    -7521 
   -7852    -8938   -13417   -22647   -34140   -43090   -47968   -51522 
  -55652   -58567   -58220   -55823   -53622   -51884   -49234   -44592 
  -38500   -31178   -21492   -10731    -3595    -2494    -4584    -6537 
   -8552   -13142   -21735   -32261   -41604   -49004   -55108   -60036 
  -63029   -63119   -60514   -56381   -50642   -42051   -30804   -19162 
   -9322    -2097     2843     7362    12748    16516    15656    11032 
    5281    -1280   -10301   -21328   -30803   -35862   -37355   -38731 
  -42223   -46342   -47605   -44490   -39049   -34229   -30176   -25317 
  -20336   -17488   -17283   -17927   -17036   -14413   -12673   -14127 
  -18184   -21428   -21043   -19029   -19901   -24776   -31078   -36567 
  -41135   -44976   -46752   -44937   -40233   -35419   -32836   -31909 
  -30250   -27398   -25032   -24366   -25424   -27869   -31093   -33348 
  -32861   -30043   -26422   -22714   -19363   -17355   -17639   -19889 
  -22534   -24506   -25997   -27348   -28388   -28907   -28926   -28279 
  -26872   -25721   -26068   -27224   -27213   -25724   -24848   -26076 
  -27902   -28243   -28025   -29614   -32492   -33371   -30588   -26294 
  -23940   -25112   -29108   -34084   -38343   -41560   -44642   -48138 
  -51193   -52133   -50061   -45784   -41164   -37371   -33552   -28210 
  -21852   -16322   -12203    -8831    -6439    -6685   -10134   -14504 
  -16984   -17365   -17890   -20556   -25072   -29457   -32021   -31944 
  -29157   -25007   -21493   -19167   -17737   -18421   -22666   -29105 
  -34797   -38261   -40123   -42197   -45154   -46963   -45098   -39181 
  -30764   -21835   -13680    -7085    -3114    -2350    -3803    -5634 
   -6562    -6555    -6842    -8511   -11269   -14264   -16674   -18028 
  -19081   -21010   -24134   -28296   -33540   -39766   -46268   -52078 
  -56161   -57328   -54806   -48700   -40142   -31371   -24510   -20545 
  -19301   -18511   -15515   -11378    -9779   -12082   -15880   -18504 
  -20389   -23319   -27606   -32481   -36731   -39371   -40901   -42083 
  -41555   -37358   -30827   -26239   -25890   -27370   -26751   -23312 
  -20005   -19728   -22375   -25847   -28510   -30270   -31594   -31288 
  -27344   -21291   -18036   -19893   -23746   -25099   -23224   -21066 
  -21024   -22840   -25254   -27742   -30348   -32577   -33158   -31414 
  -28349   -26016   -25960   -28242   -31602   -34457   -36511   -38815 
  -41584   -43345   -42528   -38750   -32856   -26339   -20614   -16632 
  -14494   -13886   -14922   -17653   -21669   -26193   -29852   -31326 
  -30347   -27899   -25578   -24210   -23255   -21835   -19781   -17634 
  -16132   -15927   -17440   -20565   -24615   -28708   -32234   -34907 
  -36007   -34433   -30350   -25513   -21389   -18224   -16004   -15293 
  -16999   -21078   -25756   -29407   -32493   -36568   -41990   -46890 
  -48837   -47271   -43840   -40993   -39634   -38387   -35969   -32529 
  -28581   -24611   -21327   -19444   -19780   -22412   -25335   -26206 
  -25058   -23866   -24316   -25871   -25947   -23158   -19090   -16199 
  -15994   -18431   -22344   -27330   -33324   -39061   -43372   -46526 
  -49263   -51637   -52924   -52293   -49633   -45070   -38208   -29416 
  -20639   -13955   -10278    -9160    -9492   -10608   -12530   -15370 
  -18457   -20368   -20287   -18621   -16336   -14349   -13081   -12218 
  -11095    -9496    -8056    -7564    -8152    -9556   -11802   -15250 
  -19790   -24473   -28687   -32616   -36094   -38408   -39053   -38341 
  -37617   -37827   -38208   -38104   -38452   -40002   -41783   -41894 
  -39526   -35857   -32265   -28949   -25447   -20956   -15211    -9512 
   -5819    -5292    -7393   -10277   -13198   -17173   -22508   -27863 
  -31924   -34633   -36591   -37727   -37393   -35596   -33076   -30223 
  -26969   -23732   -21525   -21084   -22337   -24418   -26090   -26703 
  -26256   -24822   -22999   -21503   -20089   -18621   -18196   -19647 
  -22240   -25293   -29378   -34603   -39361   -41573   -40755   -38432 
  -36108   -33788   -31144   -28638   -26932   -26226   -26220   -26453 
  -26903   -27851   -28894   -29033   -28252   -27970   -29166   -31266 
  -33265   -34505   -34467   -32917   -30388   -28094   -26862   -26357 
  -25925   -25637   -26135   -27777   -30158   -32525   -34308   -35131 
  -34839   -33435   -30872   -27228   -23092   -19531   -17267   -16274 
  -16468   -17959   -20324   -22433   -23510   -24113   -25467   -27820 
  -30270   -32205   -33813   -34881   -34340   -31998   -29423   -27966 
  -27258   -26496   -25925   -26118   -26698   -26929   -27122   -28135 
  -29779   -30919   -30724   -29227   -27226   -25765   -25224   -25072 
  -24826   -24741   -25202   -25917   -26323   -26815   -28759   -32474 
  -35936   -36857   -35349   -32954   -30401   -27844   -25759   -24436 
  -23181   -20841   -17511   -14828   -14241   -15892   -18880   -21975 
  -24472   -26477   -28067   -28755   -28270   -27250   -26923   -28036 
  -29472   -28929   -25731   -21399   -17618   -15324   -14910   -16375 
  -19343   -22946   -26446   -29920   -33652   -37351   -40268   -41558 
  -40439   -36954   -32530   -28896   -26642   -24950   -22774   -20445 
  -19495   -20957   -24427   -28430   -31386   -32610   -32460   -31447 
  -29614   -27034   -24509   -23026   -22460   -21643   -20225   -19436 
  -20171   -21619   -22558   -22713   -22565   -22726   -23505   -24595 
  -25007   -24163   -23025   -23150   -25352   -28978   -31818   -32481 
  -32281   -33154   -34911   -35771   -35065   -34096   -33999   -33995 
  -32632   -30042   -27790   -26745   -26169   -25178   -24264   -24342 
  -25167   -26021   -26936   -28147   -29244   -29610   -28934   -26924 
  -23664   -20608   -19582   -20721   -22994   -25892   -29224   -32450 
  -34940   -36591   -37966   -39173   -39170   -37265   -34170   -30984 
  -28522   -27365   -27503   -28402   -29507   -30398   -30906   -31039 
  -30530   -28879   -26351   -24181   -23058   -22450   -21785   -21210 
  -20948   -20604   -19878   -19316   -19389   -19786   -19922   -19352 
  -18117   -17164   -17613   -19225   -20667   -21427   -22056   -22701 
  -22952   -23190   -24684   -27774   -30981   -32586   -32099   -30036 
  -27408   -25252   -24037   -23587   -23486   -23729   -24850   -26959 
