Origin Time       2025/01/13 21:19:00
Lat.              31.8
Long.             131.6
Depth. (km)       30
Mag.              6.9
Station Code      MYZH16
Station Lat.      32.5060
Station Long.     131.6958
Station Height(m) 2
Record Time       2025/01/13 21:19:45
Sampling Freq(Hz) 100Hz
Duration Time(s)  165
Dir.              5
Scale Factor      3920(gal)/6170801
Max. Acc. (gal)   22.654
Last Correction   2025/01/13 21:19:30
Memo.             
[...]
   32294    30949    29831    28754    28188    29295    31458    32833 
   32674    31397    29743    28227    26970    26756    28799    32280 
   34338    33414    30820    28456    26888    26561    28059    30249 
   31214    30954    30755    30835    30780    31215    32496    33209 
   32547    31636    31031    30291    29768    30087    31057    31775 
   31271    29788    28562    28055    28074    28773    29909    30778 
   31554    32769    33615    32634    30032    27897    27934    29783 
   31403    31482    31252    31838    32044    31120    29823    28593 
   27993    28637    30094    31991    33872    34096    32162    30088 
   29548    30084    30703    30887    30042    28455    28036    29703 
   31853    32883    32669    31415    29874    29731    31424    33564 
   34970    34814    32738    30193    29004    29374    30527    31262 
   30301    28036    26697    27780    30538    32630    32011    29450 
   27822    28162    29179    30091    30812    30808    30036    29183 
   28496    28177    28676    29748    30873    31742    31772    30905 
   30494    31781    33898    34547    32786    30067    28318    28367 
   30017    32175    33362    32914    31426    30130    30130    31185 
   31418    30015    28786    29276    30496    30721    29931    29173 
   28543    27978    28741    31444    34344    35675    35407    33696 
   30582    27760    27621    30016    32372    32786    30988    28012 
   26238    27345    30430    33131    33057    29754    26474    26634 
   29380    31931    33497    34399    34200    32560    30635    29779 
   29526    29126    29438    30724    31554    31370    30701    29664 
   28919    29645    31524    33265    34388    34323    32017    28378 
   26091    26138    27180    27795    27743    27838    28999    31121 
   33066    34040    34010    32281    28650    26021    27189    30366 
   32254    32533    32259    31422    30093    29461    30544    32602 
   33836    33688    32790    31283    29473    28650    29090    29386 
   29183    29670    30781    31112    30539    30418    31129    31375 
   30365    28775    27793    28547    30987    33289    34014    33621 
   32776    31332    29880    29694    30330    30256    29283    28104 
   28160    30929    34390    35434    34875    33520    29709    25054 
   24044    27035    30347    31880    32065    31473    30874    31369 
   32447    32473    31164    29539    28608    28753    29551    30492 
   31389    31837    31632    31591    32222    32350    31201    29598 
   27838    26485    27723    31426    33924    32983    29705    26501 
   26592    31677    38208    40628    37505    31092    24584    21564 
   23892    29236    33422    34765    33832    31262    28849    29206 
   31294    31099    28702    28293    30975    33624    33724    31530 
   28229    24610    22418    24066    29489    35412    38197    36320 
   30693    24350    21616    25102    32792    39420    41027    37763 
   32569    28540    27578    29447    31843    32494    31103    29236 
   28390    28538    29167    29817    29359    27983    27956    29653 
   30835    30772    30805    31289    31607    32196    33842    35939 
   36733    34577    30016    26359    25547    26916    30969    36946 
   39433    34857    26881    21777    22180    26691    32332    35574 
   34275    30329    27728    28037    29684    29835    27019    24211 
   25728    30708    35189    37335    36666    33470    29659    27363 
   28114    31880    35750    36656    34753    31999    29613    28246 
   28434    29758    31059    31882    32620    33654    33957    31126 
   25867    22750    23372    25338    27593    30161    32058    32674 
   31763    29270    26714    26093    28034    31649    34749    35781 
   35248    33284    29579    26998    29313    34819    38215    37531 
   33951    28717    24434    24202    27647    32105    35650    36134 
   33060    30560    31450    33307    34903    36631    35974    32926 
   31667    31666    29565    27025    26094    25739    26568    28956 
   30070    28943    27371    25904    25984    29934    34340    33573 
   30415    31683    36808    40522    40627    37341    31528    26037 
   24756    28873    34972    38208    37095    33783    31750    33794 
   38748    41841    40729    37133    33361    31703    33387    36079 
   36996    36465    35270    33684    34059    37550    39799    37304 
   33948    34474    37853    41150    42526    40130    34162    28035 
   24990    25491    27856    30054    30433    28299    25923    27178 
   31468    33583    31110    26628    23524    23923    28238    34414 
   38908    38851    33903    27664    25243    26754    27882    28331 
   31108    34915    37027    38286    39178    38729    37913    38318 
   39667    40388    38894    34940    29999    26096    24449    24214 
   23683    22712    21444    19358    17148    16204    16902    19003 
   21584    23137    23914    25426    26881    26832    26738    27897 
   28747    28983    30720    33248    33386    31560    30700    31388 
   33249    36219    38334    37753    36426    36977    38331    38595 
   37661    34606    29211    24660    22740    21728    21345    22128 
   21721    19003    17023    17917    20764    24335    27148    27772 
   27636    28714    29459    28298    26492    25211    25075    26593 
   28925    31475    34084    34592    31137    25236    19510    15530 
   15025    18935    24537    27996    28727    28135    27954    30058 
   33495    34754    32768    29210    25933    25848    31799    42065 
   50639    52988    49440    43366    38221    36102    37170    39753 
   41699    41658    39360    35660    32057    29852    29532    30415 
   31358    31836    31683    30469    27777    23980    20348    17458 
   14149     9915     6697     6065     7112     8525    10311    12753 
   14983    16181    16958    17642    18725    22607    30094    38186 
   43964    46793    46302    42153    35968    30399    26856    25707 
   26073    25107    21088    17214    18481    24496    29996    31620 
   29196    24425    21803    24847    30824    34003    32304    27734 
   23176    21322    23891    29016    32049    30601    26301    23015 
   24868    32830    42989    49344    48448    42046    34326    28370 
   26756    30310    34603    33592    27164    20101    15895    16795 
   24478    35515    43397    47174    49940    51002    48580    45691 
   45600    46757    46206    43177    38213    31729    24437    18367 
   16432    20073    26514    30112    28058    22463    16683    13494 
   15339    21386    26862    28314    26098    22227    20076    22777 
   28738    33642    36427    38124    38803    39705    42697    46635 
   49409    50906    50900    48709    45979    44855    44000    41240 
   36978    31473    24378    17451    12512     9521     9027    11388 
   13647    13024    11639    12971    17677    25187    33782    39547 
   40589    39538    38566    37091    35589    35529    36118    35908 
   35394    35265    35506    36484    37684    37454    35178    31459 
   27443    24946    25547    29125    33802    37540    39198    38489 
   36661    36004    37355    40180    44710    50254    53222    51831 
   49487    48974    48532    46308    42785    38817    35414    33015 
   29950    24567    17596    11049     7056     7798    14376    25346 
   36892    44113    43286    35762    28036    25020    26439    30068 
   33544    35099    35945    38183    40231    38788    33571    27088 
   22597    22730    26917    31443    32647    28390    19495    11444 
   10438    16724    24856    29232    27359    20851    14451    12009 
   13565    16409    17974    17540    16222    17173    23521    33776 
   43149    49585    54067    56836    56958    53519    46034    35704 
   25542    18414    16103    19506    27770    37145    43279    45395 
   45882    46823    48469    49143    46604    40134    31185    23282 
   19854    20559    21858    21119    17902    12649     6987     3968 
    5703    11924    20745    29204    34563    36886    39001    43111 
   48320    51239    48912    41315    31036    21280    14372    11640 
   13421    17876    21609    23408    25414    29690    35996    42629 
   48170    52788    56529    57533    54446    47948    39594    31985 
   28220    28826    31038    32397    32644    32134    31549    31815 
   32854    34371    36591    38306    37102    33176    29672    28527 
   28556    27266    23463    18816    16549    18241    22368    25864 
   26523    24333    21764    21998    25728    31014    35717    37983 
   36445    32289    28674    26727    25000    23087    22262    23185 
   26065    31407    38019    42242    41610    37765    34407    33695 
   34942    36278    36298    33554    26987    17914    10033     6702 
    8169    12410    17714    22901    27762    33459    39541    42728 
   40772    35579    31275    30352    32670    36003    37203    35311 
   32016    29037    28265    31439    36885    40290    39484    35588 
   31219    29962    34107    41007    44728    41793    33881    25178 
   18612    15518    16215    19144    21883    23452    24524    26361 
   29783    34636    40332    46523    53152    59336    62463    60239 
   53031    43302    34216    28377    26128    25364    24071    22573 
   22381    23786    26292    29611    31655    29185    22983    17629 
   15730    16545    18444    19969    20363    19829    18786    17880 
   18203    20134    22916    26184    30261    34030    35130    33601 
   32232    33138    36791    42773    48939    51787    49575    44012 
   38448    35804    37578    41911    43589    39335    31427    24704 
   22802    26273    31786    34648    32571    26321    18741    13815 
   14331    19089    23126    22401    17934    13975    13924    18951 
   27383    34461    35775    31008    23125    16724    16542    23741 
   34654    44002    48349    47832    44935    41732    39570    39544 
   41181    42400    41882    39954    37202    33888    30650    28606 
   27689    25821    21676    16796    13652    13650    17318    23663 
   29115    30425    28409    26126    25221    25730    26817    26713 
   24322    21148    20008    22762    29288    36320    38522    32675 
   20510     8428     3711     8114    16416    22385    23552    21397 
   19827    22177    28559    35803    40239    41504    42245    44799 
   50067    56670    60674    58878    51360    40918    32111    28255 
   27570    25958    22884    20554    20672    24580    31932    38537 
   39991    37107    34310    34271    36694    39611    40079    36176 
   29102    22188    18609    19881    24754    30025    33089    33242 
   31393    28784    26117    24791    26888    32224    37788    40700 
   40130    37084    33558    31677    32779    35881    37302    33672 
   25053    14654     6649     4154     7828    15729    24454    30673 
   33002    33195    34439    38316    43574    47386    47807    44752 
   39081    32698    28781    29065    31977    35345    38350    39994 
   38883    34630    27958    20241    13094     7960     5970     7579 
   12306    18686    24535    28029    28349    26045    23205    21955 
   23287    27217    32604    37494    40146    40005    38585    38620 
   41488    46057    50148    52168    51253    47175    40714    33879 
   29120    27390    27059    25427    21176    15351    10557     9012 
   10864    14540    18258    20449    19759    16824    15260    18570 
   26657    35933    41936    42510    39016    34483    31407    31152 
   33871    38035    41191    42336    42307    41851    41286    41084 
   40920    40013    38688    37002    34006    30743    30705    35795 
   43214    47276    44573    36176    25541    16541    12287    13149 
   16338    19079    20977    22078    21938    21783    23864    28611 
   34593    39898    42673    42142    39218    35222    31423    29839 
   31947    36638    41009    42860    41484    37393    32838    30138 
   28948    28033    27081    25039    21476    18767    19153    22327 
   26687    30056    30373    27657    24322    23128    25065    29129 
   33887    38430    41959    43704    43038    39712    34740    30115 
   27223    26279    26919    28661    30844    32578    33530    34392 
   35525    36133    35923    35922    36237    34830    30400    24530 
   19554    17026    18278    23160    29038    33087    34485    33960 
   32453    30664    29223    28674    29275    30986    33733    37330 
   40955    43780    45843    47245    48050    48406    47091    42582 
   35829    29232    24126    20641    18509    17301    16617    16694 
   18253    21159    24138    25673    24752    22287    21202    23253 
   27379    31685    34795    36196    36843    38568    42272    46527 
   48074    44372    36085    27034    21003    18562    18002    18528 
   20372    23046    25749    27703    27532    24627    20649    18218 
   18839    22373    27389    31648    33662    34342    35672    38483 
   43050    49585    56882    62246    63098    58653    50433    41126 
   33408    28945    27293    26814    26417    25627    24827    25026 
   26240    27698    28387    26599    22011    17442    16176    19403 
   26273    33892    38428    38590    37443    38824    42138    43006 
   38316    29129    20552    18302    23808    33814    43381    47907 
   45234    37191    28303    23014    23333    28145    33996    36348 
   32585    24195    14326     5437     -655    -3819    -5074    -4408 
   -1794     1268     3201     4475     7620    14477    24201    34863 
   45031    52903    56016    52973    44772    34477    26625    25263 
   30479    38672    46298    51426    53433    52717    49717    44998 
   40493    38203    37515    36156    33831    32641    33691    35587 
   36045    33401    28042    22604    19047    16993    15965    16723 
   19682    23605    26489    27440    27549    29225    34074    40648 
   45524    46839    45166    42284    40564    41165    42256    40387 
   33632    23706    14800    10352    11290    15691    19459    19270 
   15919    13881    16971    24908    33806    39040    38150    32336 
   25364    20720    19688    21279    22940    22166    19357    18652 
   23740    33192    41800    45447    43537    38591    34417    33434 
   35564    39376    43086    44876    43707    40015    35247    30943 
   28036    26291    24868    23591    22573    21538    20884    22185 
   26788    33929    40138    41826    38542    32733    27675    26305 
   30006    37172    43982    46948    44502    37838    30512    25343 
   22207    19954    18622    18798    20968    25593    31631    36340 
   38407    39126    39722    39794    38624    36126    32248    26934 
   21069    16739    15789    17934    20667    21029    18333    15853 
   18180    26234    36333    44075    47694    47761    45489    42173 
   39143    37181    36033    34667    32339    30004    29871    32017 
   33112    30490    25590    22466    24405    31076    37712    38974 
   34263    27391    21816    18447    16881    16634    17621    20141 
   24315    29914    36544    42986    46908    46586    42356    36432 
   32088    31182    31931    30986    27318    23212    21899    24018 
   26812    27465    26032    24405    23967    25189    27751    30406 
   32177    33065    33184    32808    32559    32559    32507    32213 
   31222    29039    25906    22718    20777    21391    24729    29487 
   33962    37214    39250    40096    39439    37184    33401    28473 
   23651    20262    18818    19383    21488    23548    23715    21882 
   19959    19752    22014    27219    34805    42495    47929    49948 
   48809    46045    43167    40185    36022    30925    27854    30220 
   37851    46019    49505    47007    40981    34939    31737    32240 
   34321    34770    31973    26199    19803    16780    19413    25817 
   31420    32541    29177    24729    22914    25206    30569    36389 
   40033    40199    36908    31378    25830    22255    21506    23241 
   26484    30569    34778    37657    38130    36665    34635    32722 
   30394    27184    23599    20785    20374    23728    30278    37596 
   43104    44921    41979    34806    26344    20591    19924    23979 
   29744    33142    32967    31866    32357    34593    37486    39582 
   39663    37287    32693    27227    23530    23876    27992    32705 
   34144    30678    24215    18569    16040    16110    16999    17394 
   17439    18469    21413    26117    31937    37608    41091    41308 
   39703    39146    41205    44268    45016    42112    37447    33901 
   32855    33836    35684    36911    35828    32160    27847    25409 
   25887    28235    30603    31941    32071    31126    29498    27665 
   25913    24463    23439    22652    22087    22014    22065    21690 
   21356    21791    23013    24931    27623    30627    32914    33879 
   33870    33480    32889    32569    33493    35587    37558    38427 
   37412    33608    27390    20920    16701    15986    18385    22661 
   27473    31636    34454    35957    36647    37090    37538    37650 
   36728    34388    31133    28299    26882    26579    26849    27809 
   29242    30635    32262    34387    36227    36468    34262    30315 
   27039    26856    30224    35028    38181    38134    35391    31676 
   29518    30592    33710    35865    34844    30556    25087    21249 
   20553    22570    25723    28689    31413    34730    39021    43224 
   45389    44167    39660    33584    28855    27795    30033    32829 
   33790    32750    31120    29836    28305    25674    22260    19077 
   17193    17897    21805    27573    32612    34897    33815    30526 
   27770    27731    30115    33040    34793    34946    34620    35016 
   36089    36935    36627    35022    32950    31324    30698    31408 
   33145    34666    34652    32772    29451    25644    23081    23246 
   26073    29944    32667    32781    30317    26546    23120    21289 
   21252    21953    22098    21916    23519    28534    35557    41134 
   42911    40774    36078    30901    27128    25400    24855    24187 
   23123    22446    22974    24996    28244    31992    35170    36908 
   37366    37555    38092    38617    38251    36298    32968    29247 
   25935    23351    21535    20364    19785    19898    20624    21432 
   22032    23248    26139    30427    34803    38286    40391    40586 
   38722    35691    32922    31431    31257    31399    30897    30153 
   30553    32790    35988    38412    38821    37281    34812    32342 
   30265    28862    28479    29133    30376    31610    32404    32872 
   33604    34694    35434    35454    35175    34547    32525    28784 
   24942    23117    24090    27494    32482    37217    39325    37783 
   33699    29500    27102    26114    24778    22828    22015    24032 
   28926    35242    40903    43854    42891    38515    32928    29088 
   28807    31287    33917    34475    32622    29611    26953    25750 
   26534    28837    31382    32851    32597    31292    30462    30983 
   32456    33793    33902    32227    29269    26532    25555    26581 
   28184    28555    27195    25430    25307    27572    30864    33266 
   34095    33718    32647    31658    31744    32947    33843    32921 
