Origin Time       2025/01/13 21:19:00
Lat.              31.8
Long.             131.6
Depth. (km)       30
Mag.              6.9
Station Code      MYZH15
Station Lat.      32.3654
Station Long.     131.5893
Station Height(m) 170
Record Time       2025/01/13 21:19:43
Sampling Freq(Hz) 100Hz
Duration Time(s)  183
Dir.              6
Scale Factor      7845(gal)/8223790
Max. Acc. (gal)   49.552
Last Correction   2025/01/13 21:19:43
Memo.             
[...]
  -21338   -21338   -21338   -21338   -21339   -21338   -21335   -21336 
  -21340   -21340   -21338   -21338   -21336   -21336   -21339   -21339 
  -21336   -21336   -21338   -21338   -21338   -21338   -21336   -21336 
  -21335   -21336   -21339   -21339   -21336   -21336   -21336   -21338 
  -21338   -21336   -21339   -21339   -21336   -21336   -21338   -21338 
  -21338   -21338   -21336   -21338   -21339   -21338   -21336   -21338 
  -21336   -21336   -21338   -21339   -21339   -21338   -21338   -21339 
  -21335   -21335   -21340   -21339   -21335   -21338   -21339   -21336 
  -21336   -21338   -21339   -21338   -21336   -21336   -21339   -21339 
  -21336   -21335   -21336   -21335   -21336   -21339   -21338   -21338 
  -21339   -21339   -21339   -21339   -21338   -21336   -21336   -21336 
  -21336   -21336   -21336   -21338   -21340   -21338   -21338   -21339 
  -21338   -21336   -21336   -21336   -21338   -21339   -21336   -21336 
  -21338   -21336   -21338   -21338   -21338   -21336   -21335   -21336 
  -21336   -21338   -21339   -21338   -21335   -21335   -21339   -21336 
  -21335   -21339   -21339   -21336   -21339   -21342   -21340   -21336 
  -21335   -21335   -21335   -21336   -21338   -21338   -21336   -21338 
  -21338   -21336   -21336   -21338   -21336   -21335   -21335   -21336 
  -21338   -21338   -21336   -21339   -21340   -21338   -21336   -21336 
  -21338   -21338   -21338   -21340   -21338   -21334   -21336   -21339 
  -21336   -21338   -21338   -21336   -21338   -21338   -21338   -21339 
  -21336   -21334   -21335   -21338   -21338   -21336   -21335   -21336 
  -21335   -21335   -21336   -21338   -21339   -21339   -21340   -21340 
  -21336   -21336   -21338   -21338   -21339   -21338   -21336   -21339 
  -21339   -21336   -21335   -21335   -21336   -21339   -21338   -21336 
  -21339   -21340   -21336   -21336   -21338   -21338   -21336   -21338 
  -21338   -21338   -21339   -21340   -21339   -21339   -21342   -21342 
  -21340   -21340   -21343   -21343   -21343   -21342   -21340   -21343 
  -21346   -21346   -21347   -21350   -21348   -21348   -21352   -21355 
  -21357   -21355   -21354   -21359   -21365   -21367   -21369   -21370 
  -21374   -21379   -21379   -21377   -21378   -21381   -21384   -21384 
  -21381   -21382   -21384   -21381   -21374   -21363   -21355   -21361 
  -21381   -21396   -21397   -21393   -21393   -21378   -21332   -21297 
  -21323   -21378   -21386   -21330   -21277   -21288   -21338   -21358 
  -21344   -21358   -21416   -21439   -21382   -21317   -21304   -21294 
  -21224   -21085   -20961   -21022   -21251   -21388   -21276   -21076 
  -21053   -21236   -21411   -21475   -21552   -21674   -21629   -21288 
  -20939   -20968   -21330   -21655   -21690   -21494   -21343   -21382 
  -21352   -21031   -20768   -20954   -21447   -21809   -21764   -21536 
  -21465   -21467   -21355   -21190   -21250   -21664   -22060   -22023 
  -21493   -20727   -20340   -20646   -21228   -21676   -21895   -21913 
  -21919   -21911   -21568   -20903   -20453   -20632   -21235   -21855 
  -22261   -22268   -21934   -21514   -21145   -20983   -21049   -21165 
  -21394   -21902   -22520   -22659   -21967   -21105   -20849   -21092 
  -21575   -22237   -22950   -23452   -23163   -21879   -20406   -19715 
  -20159   -21317   -22488   -23268   -23373   -22684   -21498   -20391 
  -19980   -20364   -21033   -21585   -22032   -22431   -22632   -22381 
  -21658   -20812   -20444   -20738   -21304   -21988   -22562   -22431 
  -21708   -21011   -20683   -20818   -21120   -21038   -20568   -20337 
  -20680   -21335   -21712   -21371   -20632   -20061   -19851   -19957 
  -20243   -20827   -21737   -22320   -21857   -20375   -18952   -18894 
  -20236   -21805   -22334   -21397   -20012   -19801   -20889   -21575 
  -21238   -21301   -22351   -23390   -23332   -21506   -19093   -18763 
  -20565   -22019   -22249   -22387   -23249   -23772   -22466   -20283 
  -19322   -20407   -22666   -23723   -22455   -20667   -20119   -20637 
  -20991   -20256   -19441   -20630   -23355   -24682   -23616   -21805 
  -20467   -19928   -20198   -20626   -20799   -20844   -20772   -20734 
  -21088   -22142   -23290   -22742   -20506   -19013   -19107   -19630 
  -20204   -21026   -22241   -23823   -24451   -22902   -20182   -18308 
  -18246   -19311   -20493   -21855   -23391   -24011   -22875   -20757 
  -19148   -18968   -20690   -23217   -24055   -23259   -23039   -23253 
  -22349   -20591   -19566   -20267   -22194   -23719   -22955   -20196 
  -18638   -19237   -20007   -20669   -21350   -21199   -20318   -19527 
  -19799   -20979   -21921   -22122   -21188   -20490   -21807   -22804 
  -21874   -21608   -22735   -23121   -22221   -21429   -21536   -21814 
  -21359   -20436   -20127   -21254   -23615   -25196   -24418   -23039 
  -22505   -21980   -21768   -22293   -22557   -22592   -22634   -21512 
  -19992   -20131   -20385   -19442   -20048   -23193   -25880   -24884 
  -19881   -14980   -14806   -18824   -22709   -24051   -24588   -26526 
  -27984   -25351   -19062   -13934   -14351   -19063   -23004   -24655 
  -25411   -24777   -22077   -18189   -15217   -15866   -19668   -22621 
  -22248   -20378   -20791   -22985   -22522   -19360   -17778   -19762 
  -23414   -24405   -20883   -17716   -18743   -20109   -18600   -16853 
  -18796   -24540   -27611   -24233   -20154   -19427   -20071   -20281 
  -19843   -19712   -20302   -21263   -22003   -21334   -20220   -20474 
  -21760   -23328   -23747   -21400   -17906   -16436   -17828   -21438 
  -25870   -28651   -28532   -25303   -19683   -15655   -16017   -19025 
  -23735   -29281   -31434   -28425   -23639   -19700   -16476   -14658 
  -15971   -20576   -26183   -28597   -24945   -17635   -13466   -15928 
  -20668   -23495   -24962   -24976   -22883   -19542   -15169   -11610 
  -13925   -22007   -28327   -29029   -26491   -23152   -19812   -15871 
  -12328   -12523   -17675   -25604   -31407   -31133   -26287   -20563 
  -16324   -14422   -14188   -16090   -21251   -26442   -27132   -25388 
  -24767   -22680   -17810   -14278   -15041   -20565   -28347   -32054 
  -29509   -25042   -20337   -13733    -7886    -8594   -16363   -25486 
  -30939   -31224   -27811   -23672   -19060   -13401   -10451   -13837 
  -21114   -27459   -30258   -28128   -22210   -17793   -17874   -18636 
  -17660   -18119   -20491   -21964   -21843   -20132   -18014   -18671 
  -21332   -21504   -20162   -21826   -25247   -26265   -24752   -23018 
  -20888   -18650   -19179   -20626   -20517   -21791   -23754   -22626 
  -19144   -15808   -14559   -18185   -26565   -32185   -29234   -23315 
  -20470   -18158   -15276   -15296   -18603   -24497   -31460   -32144 
  -23484   -14372   -13714   -19985   -24767   -24212   -21604   -18879 
  -17107   -18507   -20769   -20933   -21824   -25807   -29461   -28378 
  -22962   -17556   -15438   -16174   -17335   -18677   -22084   -26590 
  -28798   -26515   -20120   -13883   -12596   -16741   -22400   -24710 
  -23866   -22817   -21637   -20875   -20684   -18832   -16740   -18053 
  -21394   -23375   -24260   -24247   -21513   -17375   -15620   -17965 
  -22999   -27027   -27598   -25438   -22387   -20251   -19388   -18543 
  -18057   -19125   -21586   -25348   -28671   -28458   -25617   -22910 
  -20131   -17219   -16409   -18160   -20208   -21601   -23058   -23994 
  -23191   -21039   -18748   -16776   -16152   -18330   -21876   -24065 
  -24254   -22798   -20316   -18422   -18674   -20348   -22374   -25662 
  -29196   -29911   -26931   -21082   -14461   -10714   -12941   -20621 
  -27587   -28996   -27857   -26484   -22040   -14536    -9491   -11823 
  -19476   -26441   -29808   -29405   -26064   -21922   -19376   -18025 
  -17007   -19502   -24332   -24420   -19192   -13841   -12401   -16155 
  -22738   -28139   -29421   -26600   -21369   -15442   -12928   -16731 
  -22870   -25481   -24505   -23560   -21968   -17377   -13365   -13574 
  -16984   -22126   -25910   -25401   -22729   -22015   -24602   -26042 
  -21537   -15703   -16077   -21092   -23453   -21581   -20953   -24221 
  -27699   -27342   -22697   -16984   -14481   -16271   -20040   -23515 
  -25641   -26014   -24349   -20353   -16266   -16653   -21089   -23625 
  -22164   -19889   -19924   -22283   -22883   -19386   -15534   -16146 
  -21540   -26962   -28055   -25038   -21262   -20341   -21748   -21400 
  -18535   -17340   -20108   -23754   -26141   -26781   -23099   -16592 
  -13582   -15145   -16532   -17319   -22380   -30836   -35754   -33799 
  -26049   -17320   -12945   -12818   -16033   -21014   -24673   -27491 
  -27587   -22600   -16567   -13126   -13643   -16845   -19192   -21250 
  -24243   -24891   -19673   -13344   -15317   -23514   -28856   -28954 
  -24842   -19774   -18246   -19608   -22203   -26092   -28606   -27766 
  -24057   -17469   -11736   -13506   -21640   -26882   -23853   -17689 
  -16150   -18195   -18219   -16537   -17633   -24281   -32575   -34078 
  -28217   -23202   -24602   -27791   -23530   -14246   -11412   -18447 
  -29836   -37142   -35044   -27244   -20522   -17080   -16055   -15460 
  -13628   -13333   -18295   -24290   -23333   -17068   -16727   -25623 
  -31206   -24082   -13020   -10552   -16324   -21802   -21714   -18910 
  -20576   -26595   -28336   -23013   -17101   -16767   -22069   -26022 
  -24044   -20521   -18357   -18069   -20699   -21323   -18794   -20402 
  -25830   -27534   -22943   -17308   -18711   -25455   -26481   -19448 
  -13890   -16245   -21578   -23548   -23718   -23078   -19768   -15485 
  -12382   -12941   -18747   -25331   -28667   -28767   -26134   -22134 
  -17641   -14727   -17865   -26245   -33629   -35842   -31018   -21435 
  -14777   -14532   -18293   -23957   -27911   -27507   -24260   -18288 
   -9684    -3137    -4363   -13975   -25263   -31637   -33496   -32431 
  -27756   -20919   -15867   -15988   -21884   -30057   -33513   -28661 
  -19418    -9710    -4410   -10268   -22944   -31878   -34172   -29416 
  -16260     -234     6682    -1494   -19306   -38028   -50377   -49292 
  -34863   -17226    -4752    -1628    -9598   -21683   -30708   -36759 
  -37465   -30098   -19159   -10316    -6369    -9049   -16447   -23688 
  -28918   -31056   -28152   -22727   -18027   -15963   -18982   -22168 
  -19626   -17220   -20181   -23793   -22686   -17618   -16137   -23483 
  -32320   -32840   -25751   -16671   -10127    -8337   -10763   -19225 
  -30703   -34385   -30449   -26500   -23774   -22665   -21687   -19776 
  -21203   -25315   -27233   -28225   -30689   -30844   -25914   -17772 
  -10409    -9632   -14817   -22607   -33336   -40478   -37073   -25073 
  -11056    -6589   -18292   -36452   -46570   -45316   -36404   -23188 
  -10864    -1409     2940    -6868   -28140   -44564   -47567   -36383 
  -16884    -2192      363    -9710   -26612   -39822   -46168   -45054 
  -34884   -19942    -5185     4360      494   -17807   -39021   -50365 
  -46240   -28709    -9795    -2174    -4367    -7429    -8382   -13153 
  -28509   -45532   -46101   -27367    -4769     4054    -3356   -16251 
  -25999   -27434   -20132   -11134    -6767    -7786   -12569   -21331 
  -30488   -32691   -30680   -27538   -17378    -4098     1487    -1840 
  -11624   -23458   -29061   -26488   -17982    -7280    -1892    -2045 
   -8538   -24376   -34786   -28270   -14589    -5761    -9346   -20135 
  -23998   -23221   -25971   -30141   -31887   -26538   -14864    -6355 
   -8086   -18225   -27918   -35028   -40679   -38637   -30881   -23342 
  -15468   -14305   -23816   -36131   -48963   -57890   -51263   -30366 
   -7358     5184    -4005   -27510   -41727   -38481   -27375   -20085 
  -18102    -8391     8473    14469     4220   -17890   -41138   -47745 
  -38770   -32197   -31086   -23211    -6581     3820    -6095   -31303 
  -50982   -50153   -31143    -8537     4857     9169     7283    -3933 
  -24260   -42595   -42824   -22871      256    12239    11674     1765 
  -13007   -28239   -38364   -36888   -24047    -4895    12650    16525 
    2736   -18956   -34445   -39858   -45068   -49623   -40486   -20001 
   -1236     4044   -11497   -33095   -40567   -34878   -25168   -17517 
   -9472     1194     1702   -12483   -28679   -38053   -38121   -32917 
  -31087   -33322   -33696   -28277   -20247   -20185   -30680   -39422 
  -39717   -36949   -33204   -30179   -32387   -34842   -31360   -28275 
  -32324   -38465   -38493   -32641   -24781   -15873    -8614    -7003 
  -10562   -14683   -16798   -19415   -24088   -28034   -26686   -18432 
  -12191   -17273   -26747   -31271   -28765   -18135   -10264   -15877 
  -24116   -25714   -24297   -18441    -6906     -513    -6394   -16029 
  -22276   -27854   -32879   -31236   -20713    -9778    -6575    -7403 
   -8287   -13031   -21941   -29756   -32158   -25789   -12787    -3314 
   -2855    -9440   -22546   -35426   -37075   -29114   -18619    -9201 
   -5827   -11469   -21898   -28544   -30096   -32174   -31774   -24759 
  -17631   -15399   -15601   -14642   -13776   -17181   -23566   -30013 
  -34196   -31351   -24421   -20787   -18881   -17705   -20750   -25222 
  -26676   -24699   -20391   -17348   -18485   -23843   -31194   -34789 
  -31621   -22763   -10447    -4842   -15429   -33851   -45701   -47071 
  -38394   -20950    -1975     9170     7950    -1902   -13443   -26113 
  -37778   -38514   -26956   -12189      388     7025     2173   -15260 
  -38723   -55833   -56319   -39051   -12636     7202    10416     -279 
  -19607   -40277   -50658   -44751   -27514   -11148    -3126    -2525 
  -12042   -32323   -51687   -58633   -45611   -12371    20148    30607 
   17041   -15349   -49478   -63792   -58784   -42866   -16141    13127 
   26526    13987   -17764   -50870   -67209   -59256   -34425    -6052 
   16351    25489    16987    -7894   -41878   -66447   -64636   -40554 
   -7495    18141    18200    -1599   -22378   -39195   -44888   -31966 
  -12457      345     2940    -8384   -29458   -46275   -49176   -39891 
  -26519   -12248     -302      247   -12117   -29728   -44702   -51606 
  -46334   -26362    -2809     4315    -8102   -27216   -40917   -42580 
  -34034   -23445   -13598    -2457     2992    -7825   -31376   -50197 
  -49138   -30896    -9765     2556     1121    -6817   -12074   -17158 
  -24121   -27672   -23507   -14391    -8262    -9674   -19824   -35946 
  -46437   -42402   -28575   -15952   -11820   -14827   -17780   -18399 
  -18797   -16228    -9111    -2160      540    -4105   -15608   -27160 
  -33802   -33227   -26758   -23180   -26287   -30807   -32320   -28513 
  -22735   -22214   -25099   -24487   -20403   -18160   -22252   -30192 
  -33554   -30111   -23418   -14388    -6525    -4707    -7348   -12066 
  -19329   -29489   -38550   -37023   -24624   -13878   -11658   -16930 
  -27565   -36616   -37636   -32591   -24625   -13522    -4804    -7515 
  -19192   -30823   -37574   -37589   -35411   -36198   -36188   -30244 
  -18986    -8384    -5001   -10288   -19238   -23210   -19741   -15515 
  -14342   -11618    -4754     1687     3384    -3091   -17726   -30127 
  -31376   -24354   -17174   -17481   -25536   -33567   -36879   -36273 
  -35189   -36339   -33812   -21463    -6916    -3044   -14323   -30149 
  -31992   -19434   -11492   -16444   -25455   -29065   -23961   -15410 
  -13705   -20637   -25759   -19769    -9207    -8406   -16498   -22639 
  -26576   -31062   -32359   -30214   -28416   -27294   -23707   -17300 
  -14389   -17482   -22616   -30308   -37951   -37277   -29814   -20713 
   -9370      715     1437    -8733   -20765   -25639   -22848   -14612 
   -6874    -6978   -11745   -16607   -23383   -30869   -36861   -39313 
  -34184   -24503   -17852   -18126   -23895   -23463   -11236    -3245 
  -10266   -23711   -31934   -27180   -15353   -13336   -22385   -27581 
  -22530   -15402   -13198   -14976   -19685   -26091   -30599   -32869 
  -34495   -32347   -23743   -15098   -14890   -20780   -24780   -25739 
  -23708   -17759   -11245    -5285    -1976    -6470   -17014   -26662 
  -29195   -25809   -24125   -26002   -29046   -29512   -23612   -17649 
  -19666   -28081   -37241   -38780   -31135   -25003   -24204   -23830 
  -22848   -20179   -14964   -11296   -11298   -11666   -11466   -14507 
  -20263   -24757   -27588   -25991   -17223    -8360    -7514   -12707 
  -17261   -18998   -19353   -19646   -21932   -25725   -26611   -23049 
  -18563   -18096   -22864   -29506   -35870   -39846   -38801   -36678 
  -38141   -39086   -35098   -29223   -25494   -24309   -23908   -22044 
  -19415   -18364   -17616   -16665   -17258   -16725   -14049   -13765 
  -17309   -21776   -23490   -22605   -24070   -27899   -28567   -25633 
  -22596   -19388   -14791    -9926    -5967    -4467    -7518   -13038 
  -16297   -18222   -22716   -26550   -23456   -15199    -9217    -9616 
  -15847   -24850   -31000   -31378   -30535   -32626   -34111   -28493 
  -15815    -4027     -784    -8029   -20526   -30604   -37579   -42469 
  -39839   -28597   -16687    -9747    -9120   -14763   -22891   -28142 
  -29620   -31858   -35257   -32894   -23982   -15277   -11306   -14543 
  -22003   -25921   -25979   -27346   -31247   -34917   -34735   -29405 
  -21384   -15259   -13570   -14397   -14600   -15230   -21568   -32047 
  -36497   -32495   -25874   -18385   -10497    -4914    -3349    -7360 
  -16686   -26881   -32953   -30731   -20355   -11052   -10069   -14704 
  -20938   -25438   -26854   -27891   -27039   -22343   -17651   -14985 
  -15584   -20900   -27252   -29269   -23089   -11398    -5452    -9591 
  -17138   -24309   -29797   -30416   -26299   -18991   -10415    -6421 
  -11844   -24599   -34550   -33130   -25598   -19541   -13838    -8762 
   -6602    -8284   -18443   -37789   -54444   -53892   -35175   -12789 
     307     1771    -5701   -16699   -27303   -36483   -41346   -39372 
  -29344   -13761    -3527    -4583   -10925   -18065   -25262   -31306 
  -33859   -28275   -15527    -7118   -12263   -26168   -38596   -44065 
  -39432   -27754   -17007    -7985      -67     2806     -834    -9207 
  -16617   -17342   -12490    -4407     3100     3497    -1906    -8318 
  -15720   -22589   -26597   -26951   -24453   -24529   -29760   -36281 
  -40005   -38003   -31652   -25758   -22939   -24773   -29423   -32370 
  -34075   -35056   -30734   -20187   -10578    -9526   -17921   -27542 
  -27893   -21905   -20135   -22531   -24754   -25489   -23693   -21855 
  -22030   -20295   -13776    -6115    -3553    -9200   -18684   -22639 
  -17019    -7007    -1629    -4873   -12337   -20129   -27827   -34177 
  -38553   -39600   -35806   -28352   -20027   -15315   -15001   -17621 
  -26428   -38584   -43464   -36678   -21316    -5028     2999      508 
   -8039   -19951   -33014   -40590   -38522   -29045   -16999    -9078 
   -9452   -16051   -23683   -27232   -25863   -23839   -23480   -22770 
  -20553   -17290   -14797   -16511   -20147   -18728   -13057    -9606 
  -10679   -15449   -21031   -22788   -21795   -23182   -26042   -26067 
  -22697   -18944   -18075   -21223   -26545   -28888   -26138   -23093 
  -22256   -19603   -12214    -4491    -4205   -12853   -23916   -30292 
  -30883   -29423   -28313   -26133   -21697   -18852   -22272   -30936 
  -39685   -41303   -33274   -24451   -21973   -22142   -20850   -17525 
  -14239   -15599   -20668   -22245   -16922    -8714    -3875    -3964 
   -6045    -9846   -17955   -29014   -38003   -40938   -36683   -28871 
