Origin Time       2025/01/13 21:19:00
Lat.              31.8
Long.             131.6
Depth. (km)       30
Mag.              6.9
Station Code      MYZH06
Station Lat.      32.3607
Station Long.     131.4643
Station Height(m) 100
Record Time       2025/01/13 21:19:42
Sampling Freq(Hz) 100Hz
Duration Time(s)  193
Dir.              5
Scale Factor      7845(gal)/8223790
Max. Acc. (gal)   49.846
Last Correction   2025/01/13 21:19:42
Memo.             
[...]
   -8170    -8171    -8170    -8171    -8174    -8171    -8170    -8172 
   -8172    -8172    -8172    -8171    -8171    -8172    -8170    -8170 
   -8171    -8172    -8171    -8170    -8170    -8171    -8171    -8171 
   -8171    -8170    -8170    -8171    -8172    -8171    -8171    -8171 
   -8170    -8170    -8174    -8174    -8171    -8171    -8171    -8170 
   -8171    -8171    -8170    -8172    -8172    -8168    -8170    -8172 
   -8172    -8172    -8171    -8171    -8174    -8174    -8171    -8171 
   -8172    -8172    -8171    -8172    -8172    -8170    -8172    -8172 
   -8170    -8170    -8171    -8171    -8171    -8172    -8171    -8171 
   -8172    -8172    -8171    -8171    -8174    -8174    -8172    -8172 
   -8171    -8172    -8171    -8168    -8170    -8171    -8172    -8172 
   -8171    -8171    -8172    -8172    -8172    -8174    -8170    -8168 
   -8171    -8174    -8171    -8172    -8174    -8174    -8171    -8171 
   -8171    -8170    -8171    -8172    -8171    -8171    -8172    -8170 
   -8170    -8171    -8170    -8170    -8172    -8168    -8168    -8172 
   -8171    -8171    -8172    -8170    -8168    -8168    -8171    -8175 
   -8175    -8171    -8171    -8171    -8171    -8172    -8172    -8172 
   -8172    -8172    -8172    -8170    -8171    -8172    -8171    -8170 
   -8171    -8172    -8174    -8174    -8172    -8172    -8171    -8170 
   -8171    -8171    -8171    -8168    -8167    -8171    -8174    -8171 
   -8170    -8170    -8168    -8168    -8172    -8171    -8167    -8170 
   -8171    -8168    -8168    -8171    -8172    -8170    -8170    -8171 
   -8171    -8171    -8171    -8170    -8168    -8171    -8172    -8171 
   -8170    -8168    -8170    -8171    -8171    -8171    -8171    -8171 
   -8170    -8170    -8170    -8171    -8171    -8171    -8171    -8171 
   -8172    -8172    -8172    -8172    -8171    -8171    -8171    -8171 
   -8172    -8171    -8168    -8172    -8174    -8170    -8170    -8174 
   -8174    -8171    -8172    -8172    -8171    -8171    -8171    -8171 
   -8172    -8171    -8171    -8172    -8172    -8171    -8170    -8171 
   -8171    -8170    -8171    -8172    -8174    -8172    -8171    -8172 
   -8174    -8174    -8171    -8171    -8172    -8171    -8168    -8170 
   -8171    -8171    -8170    -8171    -8172    -8167    -8167    -8171 
   -8171    -8172    -8172    -8171    -8170    -8168    -8170    -8171 
   -8170    -8170    -8171    -8172    -8171    -8170    -8171    -8171 
   -8171    -8172    -8174    -8172    -8170    -8170    -8168    -8167 
   -8167    -8167    -8164    -8166    -8167    -8166    -8164    -8163 
   -8166    -8168    -8168    -8168    -8168    -8167    -8167    -8168 
   -8167    -8166    -8167    -8166    -8160    -8155    -8148    -8140 
   -8131    -8127    -8129    -8139    -8144    -8139    -8135    -8135 
   -8135    -8141    -8159    -8191    -8233    -8266    -8267    -8243 
   -8206    -8158    -8112    -8105    -8124    -8116    -8081    -8055 
   -8048    -8043    -8044    -8062    -8090    -8145    -8259    -8407 
   -8515    -8507    -8384    -8241    -8164    -8164    -8230    -8295 
   -8240    -8059    -7913    -7893    -7936    -8014    -8116    -8160 
   -8139    -8125    -8187    -8332    -8438    -8382    -8313    -8382 
   -8424    -8302    -8144    -8008    -7862    -7813    -7929    -8108 
   -8233    -8233    -8114    -8008    -8052    -8298    -8613    -8645 
   -8256    -7820    -7716    -7847    -7970    -8036    -8109    -8183 
   -8197    -8178    -8193    -8102    -7812    -7665    -8020    -8648 
   -8974    -8703    -8063    -7565    -7510    -7786    -8144    -8409 
   -8471    -8313    -8071    -7898    -7866    -7940    -8056    -8187 
   -8259    -8166    -8021    -8039    -8205    -8287    -8106    -7703 
   -7257    -6959    -7015    -7545    -8248    -8581    -8432    -8093 
   -7669    -7292    -7422    -8143    -8955    -9409    -9335    -8883 
   -8429    -8122    -8055    -8468    -9101    -9229    -8699    -7971 
   -7365    -7080    -7317    -7820    -8110    -8151    -8149    -8122 
   -8073    -8160    -8417    -8607    -8587    -8415    -8145    -7912 
   -7992    -8433    -8888    -8927    -8368    -7447    -6810    -7053 
   -8159    -9543   -10397   -10081    -8656    -6956    -5952    -6138 
   -7443    -9319   -10839   -11126    -9927    -7873    -6143    -5582 
   -6297    -7819    -9117    -9320    -8449    -7110    -6158    -6372 
   -7638    -9024    -9747    -9501    -8337    -6875    -6166    -6716 
   -7960    -8905    -8968    -8302    -7443    -6917    -7145    -8085 
   -9128    -9753    -9861    -9578    -9242    -9258    -9656   -10200 
  -10589   -10160    -8496    -6458    -5394    -5714    -7007    -8718 
   -9879    -9564    -8271    -7204    -6816    -7236    -8398    -9390 
   -9375    -8700    -8082    -7726    -7605    -7555    -7321    -6975 
   -6701    -6478    -6601    -7554    -8959    -9871    -9933    -9142 
   -7358    -5131    -3917    -4787    -7418   -10444   -12388   -12283 
  -10212    -7456    -5428    -4963    -6430    -9049   -11113   -11938 
  -11915   -10905    -9019    -7591    -7472    -8203    -9119    -9687 
   -9532    -8673    -7366    -6112    -5551    -5821    -6465    -7130 
   -7797    -8191    -7847    -7121    -6952    -7508    -8255    -8907 
   -9664   -10559   -10916   -10119    -8347    -6174    -4558    -4757 
   -6894    -9378   -10625   -10341    -8907    -6667    -4166    -2477 
   -2659    -4784    -7960   -10867   -11784    -9941    -6868    -4729 
   -4723    -6897    -9566   -10913   -11267   -11434   -10891    -9566 
   -8378    -7543    -7195    -8135   -10201   -12285   -13659   -13420 
  -10648    -6462    -3541    -2918    -3504    -4878    -7624   -10835 
  -12491   -11929    -9730    -6963    -5314    -5657    -7017    -8131 
   -8654    -8721    -8702    -8931    -8777    -7709    -6744    -6617 
   -6893    -7649    -8854    -9170    -8052    -7121    -7549    -8433 
   -9092   -10064   -11249   -11722   -11010    -9209    -6706    -4187 
   -2721    -3275    -5796    -9027   -11183   -10999    -8587    -5674 
   -4469    -5530    -7584    -9429   -10488   -10265    -9053    -8118 
   -7977    -8191    -8853   -10139   -11542   -12523   -12472   -10731 
   -7909    -5568    -4095    -3242    -3811    -6008    -8438   -10027 
  -10388    -9147    -6574    -3840    -2465    -3618    -7018   -10638 
  -12421   -11809    -9385    -6242    -3871    -3748    -6397   -10486 
  -13512   -14006   -12190    -8631    -4131     -662     -103    -2392 
   -6542   -11520   -15357   -16375   -14995   -12465    -9409    -6409 
   -4476    -4218    -5360    -7441   -10201   -13174   -15223   -14720 
  -10995    -5752    -2170    -2184    -5255    -9582   -12870   -13108 
  -10220    -5752    -1729      -31    -1147    -4484    -9130   -13049 
  -13899   -11500    -8162    -6301    -6660    -8611   -10632   -11300 
  -10895   -10469    -9845    -8888    -8745    -9850   -11419   -12565 
  -12086    -9541    -6319    -3804    -2450    -2764    -4866    -7483 
   -9312   -10497   -10968    -9779    -7538    -5994    -5402    -5503 
   -6771    -9065   -11236   -11892   -10354    -7641    -5653    -5148 
   -5597    -6617    -7717    -7956    -7678    -7963    -8363    -8105 
   -7757    -7947    -8425    -9104   -10462   -12025   -12147   -10503 
   -8391    -6520    -5265    -5391    -6651    -8201   -10015   -11655 
  -11766   -10110    -7911    -6146    -5422    -6188    -7508    -7947 
   -7322    -6029    -4799    -4774    -6058    -7704    -9312   -10979 
  -12004   -11547   -10041    -8270    -6481    -5147    -4858    -5653 
   -7137    -9103   -11524   -13273   -12445    -9153    -5814    -4171 
   -3954    -4639    -6647    -9876   -12825   -14121   -13431   -10984 
   -7452    -4382    -4051    -7188   -11433   -13815   -13402   -10925 
   -7646    -4842    -3757    -5227    -8463   -11161   -11650   -10058 
   -7377    -4536    -2421    -1941    -3974    -8548   -13352   -15098 
  -13143    -9293    -5174    -2504    -2856    -5582    -8745   -11222 
  -12403   -11859   -10026    -7809    -5555    -3478    -2488    -3461 
   -6030    -8587    -9582    -8753    -6786    -4379    -2457    -2367 
   -4783    -8549   -11425   -12402   -12052   -10592    -8295    -6733 
   -6970    -8252    -9594   -10944   -12424   -13219   -12291    -9853 
   -7003    -4901    -4320    -4874    -5508    -6012    -7375   -10068 
  -12681   -13525   -12680   -11457   -10683   -10223    -9921    -9749 
   -9115    -7480    -5393    -4232    -4847    -6813    -9157   -10752 
  -10345    -7554    -3682    -1062    -1460    -4966    -9903   -13674 
  -14453   -11925    -6917    -1890     -276    -3198    -8982   -15664 
  -20430   -19824   -13602    -5098     1586     3480      550    -5178 
  -11553   -15861   -16222   -13655   -10708    -8907    -7866    -6763 
   -5944    -6116    -6983    -7897    -9027   -10264   -10444    -9279 
   -7987    -7219    -6782    -7229    -9300   -11940   -13088   -12109 
   -9564    -6382    -4336    -4726    -7045    -9842   -11585   -11028 
   -7925    -3689     -488      -29    -3208    -8627   -12513   -12318 
   -8789    -4368    -1312    -1354    -5329   -11799   -17128   -18021 
  -13940    -7187     -973     2320     1358    -3844   -10440   -13950 
  -12895    -9593    -6108    -3146    -2189    -4602    -9653   -14756 
  -16664   -14751   -12148   -10821    -9779    -8695    -8318    -8175 
   -7627    -7956   -10312   -13497   -16013   -16846   -14085    -7180 
     969     6291     5809     -774   -10277   -18210   -21266   -18392 
  -11410    -4347     -643     -816    -3796    -8757   -13992   -16432 
  -14354    -9275    -4355    -1900    -2077    -4194    -8158   -11889 
  -11751    -7793    -3032      422     1236    -1453    -7149   -13626 
  -17887   -17857   -13632    -7800    -3397    -2276    -5325   -10883 
  -14697   -13814    -8874    -2587     2670     4622      896    -7317 
  -14445   -16079   -12568    -6733    -1444      197    -3674   -11001 
  -17448   -20032   -17821   -12071    -5810    -1466     -595    -3839 
   -8598   -11437   -11867    -9931    -5979    -2416     -643     -657 
   -2224    -4117    -6178    -8691   -10598   -12116   -13891   -15028 
  -14442   -11759    -8413    -5935    -4546    -5578    -9005   -12147 
  -13482   -11952    -7720    -4031    -2748    -3431    -6608   -12039 
  -16424   -16374   -11658    -4374     1783     2925     -818    -6582 
  -12748   -16976   -16460   -12102    -6913    -2263      344    -1630 
   -7412   -12752   -14945   -13730   -10459    -7951    -7412    -7747 
   -8648   -10339   -11618   -11233    -9541    -7219    -4553    -2185 
    -915    -2019    -6243   -11538   -14709   -14342   -10930    -5863 
   -1368      180    -1310    -4648    -9282   -13572   -15484   -14342 
   -9934    -3507     1487     2062    -1814    -7738   -12829   -14574 
  -12426    -8540    -4934    -2419    -1559    -1933    -2641    -3640 
   -4930    -6143    -7402    -8912   -10183   -10616    -9424    -5374 
    1173     7290     9890     7560      648    -8326   -14955   -15682 
  -10434    -1983     5674     8600     5290    -2432   -11515   -18481 
  -19340   -12989    -3137     4789     6632     1221    -9375   -20984 
  -28513   -28902   -22291   -10615     2123    10955    12384     5802 
   -5690   -17361   -25432   -27376   -22464   -13274    -5391    -3387 
   -7620   -14839   -20447   -21088   -15662    -6606      560     2636 
    -193    -6488   -12480   -14801   -12987    -7722    -1775     1197 
     141    -4270    -9408   -11234    -9123    -6085    -4912    -6373 
   -9637   -13290   -15242   -13879    -9687    -5059    -3748    -7518 
  -13802   -19134   -22179   -22755   -19819   -14114    -9625    -7773 
   -7410    -8866   -11728   -14419   -15724   -14546   -11497    -9317 
  -10100   -12393   -12806   -10974    -8484    -5321    -2837    -4676 
  -11176   -18796   -24378   -25465   -20163   -10174     -911     3280 
    1385    -5856   -14748   -18937   -15464    -6084     6790    19603 
   26644    23703    11473    -5178   -20586   -29789   -29620   -21024 
   -7977     4845    12490    11622     3018    -8490   -17655   -21933 
  -20277   -12097      934    13188    18450    15483     6762    -4861 
  -15935   -22281   -21108   -14652    -7317      -49     6691    10804 
   10902     6683      126    -5328    -8837   -12055   -14462   -12680 
   -7855    -5201    -4415    -2895    -1881    -1842    -2038    -3186 
   -5144    -6621    -6893    -5305    -1728      712    -1846    -7869 
  -12599   -13447   -11072    -6997     -707     5741     7025     1863 
   -7577   -18017   -27333   -35382   -38996   -36475   -31062   -25926 
  -25195   -31380   -41220   -50144   -56489   -59768   -56660   -45931 
  -32494   -19440    -7516      517     3438     1969    -3199    -9877 
  -14569   -16071   -16209   -15214   -12117    -8804    -7369    -7940 
   -9556   -10740   -11503   -11595    -9170    -4104     1969     6481 
    6905     2759    -4984   -13571   -19467   -20563   -15851    -6905 
    2200     7647     7904     5286     2704     1447     3053     7213 
   11325    13263    12152     8955     5884     5690     9902    16438 
   21851    23110    17925     6779    -7334   -20224   -27523   -26001 
  -15356     -332    12073    16784    11658     -714   -13851   -21644 
  -20359    -9991     4820    17475    22952    19275     8036    -5877 
  -16703   -22156   -24304   -24792   -24331   -25323   -28501   -32938 
  -39731   -48547   -56196   -60423   -60332   -55444   -45184   -30539 
  -16101    -6103    -2575    -6782   -16182   -25309   -29839   -27409 
  -18828    -7034     4294    11481    14504    15627    15489    14314 
   12351     8700     2371    -5709   -12893   -16727   -15832   -10741 
   -3829     2319     5374     3927    -1576    -8491   -13459   -16039 
  -17388   -17343   -16470   -16083   -16139   -15211   -11830    -6038 
     558     5231     5752     2400    -3640   -10538   -14936   -15097 
  -11911    -7103    -3105    -2196    -5449   -11840   -17770   -18692 
  -11947     -317     9161    11445     5695    -5382   -16333   -21463 
  -17300    -4947     9333    17416    14235      989   -16270   -30622 
  -37411   -34747   -22769    -6184     6023     7931      168   -13034 
  -25533   -30973   -28084   -20663   -12634    -8217    -9356   -13116 
  -16538   -17332   -13790    -7684    -2982    -2490    -4237    -4201 
   -1784     2864     9711    16345    19747    18158    12579     6357 
    1868       89     1182     3844     5289     2398    -5182   -14534 
  -22077   -24606   -20960   -13231    -5039       95     -103    -5799 
  -14566   -22023   -23723   -16995    -3264    12015    22384    23279 
   14463     -865   -17653   -29810   -33790   -29771   -20947   -12671 
   -9142   -12249   -20839   -29802   -33891   -30759   -21362    -9709 
     922     8991    12498    11117     5499    -4128   -14150   -19635 
  -18366    -9301     5641    20594    30434    31703    22329     5408 
  -11210   -21340   -23616   -18468    -7761     3003     8519     6370 
   -3495   -16548   -26314   -29488   -25855   -18530   -12569   -10720 
  -13302   -18532   -22292   -20939   -13545    -2857     6943    13267 
   14359     9819     1251    -9032   -17377   -20150   -17875   -13851 
   -9570    -6261    -6451    -9755   -12561   -12719   -10687    -7226 
   -3163     -754    -1998    -7496   -16984   -27163   -34014   -36729 
  -34002   -24676   -12075     -637     6862     8715     4363    -4070 
  -10991   -12348    -7757     1544    11155    16553    16222     8858 
   -4135   -17316   -26106   -28290   -23618   -13921    -3416     2917 
    3358    -1313    -9502   -17325   -20025   -15646    -6972     1606 
    7385     8294     4086    -3605   -12937   -20364   -22746   -20200 
  -14570    -7480     -122     5209     7196     7177     5113     -129 
   -7524   -14507   -19113   -21641   -22485   -20547   -15484    -8850 
   -4156    -3167    -4221    -7330   -11790   -13984   -13406   -11011 
   -7223    -4222    -3360    -4653    -7213    -9356    -9953    -7352 
   -1972     2820     4874     3419     -905    -6539   -12507   -16852 
  -18090   -16432   -12127    -6139      422     5856     6590      869 
   -9595   -21683   -32296   -38831   -39048   -33385   -24887   -14904 
   -3847     5366     8756     5605    -1339    -9801   -17680   -22366 
  -23133   -19950   -13672    -7404    -3561    -3385    -7543   -14455 
  -20749   -23460   -21363   -14431    -4413     4935    11106    12916 
    9055      749    -7597   -11834   -10648    -5359     1324     6354 
    7965     6181     2003    -3001    -7306    -9810    -9817    -8000 
   -6663    -8127   -12916   -19210   -24187   -25533   -21694   -13151 
   -3562     3073     5417     3831     -479    -4978    -7234    -6583 
   -4253    -2754    -4075    -8132   -12991   -16432   -17122   -13983 
   -7915    -3491    -4230    -9737   -18447   -27622   -32300   -28281 
  -15372     2142    17082    23503    20224     9346    -5395   -18320 
  -24753   -24309   -19477   -12615    -5324      984     5444     7391 
    6099     1399    -6895   -17614   -26690   -30356   -28008   -21739 
  -14038    -7373    -4718    -6390   -10458   -15518   -18696   -17617 
  -12970    -5675     2378     7523     7782     3977    -2131    -9109 
  -14557   -15646   -12718    -8492    -5194    -4202    -5595    -8468 
  -11171   -11111    -7283    -1660     2485     2157    -4185   -15884 
  -28972   -37404   -37299   -28227   -13570       20     7032     5594 
   -2080   -10646   -15201   -13032    -4725     5178    11064     9521 
    1254    -9421   -18019   -21331   -17074    -6334     5913    14976 
   18200    14812     6748    -2600   -10320   -14949   -16464   -15753 
  -14378   -13471   -13979   -16818   -20495   -22701   -23082   -21212 
  -17281   -13208    -9655    -6957    -5918    -5665    -5250    -4401 
   -2380      718     3225     3316      286    -5192   -10947   -14396 
  -14218   -10585    -5425    -1915    -2266    -6403   -12083   -16626 
  -18584   -17502   -14382   -11871   -12270   -15579   -19315   -20920 
  -19425   -14675    -7807    -1223     2685     2589     -307    -3125 
   -3647    -1575     1274     2694     1379    -3063    -9563   -16114 
  -20540   -20650   -15302    -5529     4986    11495    11426     4870 
   -6798   -20097   -29073   -28964   -19392    -3576    12611    22331 
   21600    10709    -6134   -21678   -28625   -23350    -8326     9436 
   22350    24798    15534    -1586   -19452   -30372   -30516   -21714 
   -9401      -83     1914    -4052   -14554   -23577   -27457   -25452 
  -19487   -14361   -11844   -10679   -10207    -8445    -4662     -133 
    4141     6096     5593     3889      703    -3068    -7597   -13737 
  -20000   -25952   -29968   -28647   -21784   -10540     2459    12614 
   16664    11842    -2498   -22243   -40108   -48200   -43150   -27260 
   -5671    13921    24437    23182    12128    -3545   -18045   -25708 
  -23893   -15442    -5524      -67    -2566   -11527   -23463   -32998 
  -34940   -28305   -15601    -1753     8900    13760    11182     3237 
   -6662   -15734   -19221   -15109    -6346     3582    10933    12977 
    9410     1011    -9410   -17329   -19376   -15619    -9001    -2851 
     240     -615    -4980   -11843   -18611   -23182   -25743   -26518 
