Origin Time       2025/01/13 21:19:00
Lat.              31.8
Long.             131.6
Depth. (km)       30
Mag.              6.9
Station Code      MYZH11
Station Lat.      32.0208
Station Long.     131.4700
Station Height(m) -200.3
Record Time       2025/01/13 21:19:38
Sampling Freq(Hz) 100Hz
Duration Time(s)  300
Dir.              2
Scale Factor      3923(gal)/8224838
Max. Acc. (gal)   29.221
Last Correction   2025/01/13 21:19:38
Memo.             
[...]
   17815    17822    17822    17815    17815    17820    17818    17820 
   17822    17822    17820    17817    17818    17818    17815    17817 
   17818    17817    17814    17818    17820    17817    17817    17818 
   17817    17818    17818    17815    17815    17818    17818    17818 
   17821    17822    17818    17817    17820    17821    17817    17815 
   17820    17822    17817    17815    17817    17817    17818    17817 
   17815    17817    17818    17820    17818    17817    17821    17818 
   17814    17817    17817    17818    17820    17817    17815    17818 
   17817    17818    17821    17820    17820    17822    17820    17818 
   17820    17815    17814    17820    17824    17822    17820    17820 
   17822    17817    17814    17820    17820    17817    17820    17820 
   17817    17818    17820    17818    17818    17818    17820    17818 
   17818    17820    17821    17820    17817    17817    17821    17821 
   17817    17817    17822    17822    17818    17817    17818    17818 
   17818    17817    17815    17820    17822    17817    17815    17821 
   17822    17820    17818    17818    17818    17818    17818    17818 
   17821    17824    17825    17821    17814    17814    17820    17818 
   17821    17822    17820    17818    17820    17818    17820    17821 
   17820    17820    17824    17825    17821    17817    17821    17822 
   17818    17817    17821    17821    17820    17821    17820    17817 
   17817    17820    17821    17818    17817    17821    17818    17815 
   17817    17818    17818    17820    17820    17818    17817    17821 
   17822    17820    17817    17820    17822    17822    17818    17817 
   17817    17818    17821    17820    17820    17821    17818    17818 
   17821    17821    17818    17818    17820    17818    17815    17820 
   17822    17818    17818    17821    17820    17820    17820    17820 
   17817    17814    17817    17820    17818    17820    17821    17820 
   17820    17817    17817    17820    17820    17820    17820    17820 
   17817    17818    17822    17822    17820    17818    17817    17818 
   17818    17818    17817    17818    17822    17824    17820    17820 
   17821    17818    17817    17818    17817    17817    17820    17820 
   17817    17817    17818    17820    17818    17818    17820    17820 
   17821    17822    17820    17817    17818    17820    17818    17817 
   17820    17821    17818    17815    17815    17818    17818    17815 
   17818    17820    17821    17822    17820    17818    17821    17822 
   17818    17814    17815    17820    17820    17817    17817    17820 
   17818    17818    17818    17817    17815    17820    17820    17820 
   17822    17820    17817    17822    17822    17815    17818    17822 
   17818    17817    17818    17821    17820    17818    17818    17820 
   17822    17821    17817    17817    17822    17820    17817    17818 
   17820    17817    17815    17820    17821    17818    17820    17821 
   17821    17820    17818    17820    17820    17818    17820    17820 
   17818    17817    17820    17821    17817    17814    17821    17821 
   17817    17817    17817    17818    17821    17820    17818    17822 
   17822    17817    17814    17818    17820    17817    17815    17820 
   17821    17821    17820    17818    17818    17820    17818    17818 
   17818    17821    17822    17818    17818    17824    17822    17817 
   17820    17820    17818    17818    17818    17818    17820    17817 
   17815    17820    17824    17821    17815    17817    17824    17820 
   17815    17820    17821    17818    17818    17820    17820    17820 
   17818    17818    17817    17818    17820    17818    17820    17820 
   17820    17820    17818    17818    17821    17820    17814    17815 
   17818    17817    17818    17817    17817    17821    17820    17817 
   17820    17820    17817    17817    17817    17818    17818    17814 
   17820    17821    17815    17815    17822    17820    17815    17818 
   17821    17820    17815    17817    17820    17818    17818    17822 
   17818    17817    17820    17817    17815    17820    17821    17818 
   17818    17820    17820    17820    17818    17818    17817    17817 
   17820    17822    17818    17820    17822    17818    17814    17818 
   17821    17818    17815    17818    17821    17817    17813    17818 
   17824    17820    17815    17818    17824    17821    17818    17822 
   17824    17818    17815    17818    17821    17815    17813    17822 
   17825    17821    17826    17834    17840    17849    17863    17872 
   17879    17884    17890    17891    17882    17878    17872    17836 
   17788    17755    17725    17705    17710    17748    17810    17868 
   17894    17890    17878    17867    17871    17910    17994    18083 
   18088    18000    17909    17818    17716    17682    17730    17810 
   17880    17837    17678    17559    17545    17550    17539    17568 
   17663    17757    17782    17763    17813    17933    17964    17868 
   17906    18166    18269    18045    17861    17952    18098    18077 
   17979    17940    17895    17813    17856    18067    18185    17999 
   17691    17579    17659    17724    17744    17834    18041    18279 
   18366    18199    17914    17714    17682    17848    18162    18376 
   18264    17973    17794    17716    17602    17504    17498    17624 
   17898    18087    17896    17505    17293    17223    17131    17134 
   17320    17605    17917    18069    17871    17675    17936    18238 
   18169    18272    18790    19149    19037    18592    18045    17609 
   17319    17204    17469    18183    18906    18901    18099    17421 
   17383    17394    17170    17257    17770    18176    18152    17784 
   17308    16922    16810    17207    18134    19095    19394    18762 
   17629    16903    17142    17814    17961    17533    17270    17443 
   17703    17956    18316    18449    18015    17558    17874    18588 
   18581    18031    18339    19488    19846    19039    18439    18831 
   19506    19600    19168    18700    18374    18114    17699    17128 
   16999    17477    17756    17618    17635    17683    17410    17324 
   17741    18027    17933    18052    18416    18451    18258    18165 
   17932    17676    17964    18592    19021    19354    19689    19556 
   18770    17903    17543    17745    18102    18216    18293    18522 
   18428    17759    17016    16864    17316    17680    17520    17238 
   17277    17292    16671    15801    15957    17531    19391    20451 
   20776    20665    19867    18609    18130    18941    19785    19414 
   18235    17435    17197    16773    16241    16676    17991    18675 
   18422    18468    19080    19338    19001    18418    17506    16325 
   15589    15799    16826    18273    19542    19951    19179    17747 
   16714    16656    17533    18883    19572    18882    17903    18019 
   18752    18971    18905    19307    20178    21091    21346    20173 
   18067    16853    17294    17986    17724    17271    17498    17809 
   17778    18017    18585    18630    17874    17136    17208    17807 
   18322    19136    20733    21898    20819    17747    15121    14909 
   16478    17984    18978    19669    19121    17007    15508    16274 
   17541    17139    16001    16405    18512    20808    22408    22960 
   22027    19863    17606    16229    15974    16730    17852    18141 
   17478    17263    18131    18659    17682    16872    18376    20740 
   20929    18987    16843    15051    14061    15156    17836    19872 
   20418    20285    20305    21068    22223    22099    20183    18472 
   18516    19286    19172    18400    18067    17953    17459    17055 
   16750    15974    15561    16579    17903    17547    15734    14509 
   14658    15445    16575    18121    19564    20718    22356    23980 
   23241    19919    17290    17566    19307    20277    19980    18952 
   17520    16047    15269    15792    17787    20214    20880    19434 
   17814    16321    14000    12738    14967    18252    18670    17614 
   18504    20340    20884    21325    22735    23126    21589    20186 
   19795    19037    17620    16571    16187    16008    15592    14863 
   14355    14778    16704    20196    23199    22806    19441    16929 
   18027    21182    22739    21760    19683    17342    15610    15790 
   17289    17419    15638    15021    16325    16740    16976    19695 
   22230    21427    20082    21099    22792    23126    22254    21060 
   20073    18488    15379    12294    11325    12258    14072    16341 
   18767    21178    23105    23318    21384    19373    19885    21942 
   21554    17543    14013    14601    16409    14639    11522    11917 
   13575    12511    11500    14165    18122    19683    19442    18962 
   17012    14436    15518    19884    23282    25402    26920    25245 
   19930    15850    16325    18017    17645    16781    15978    13593 
   10943    10611    12777    17173    22675    25130    22516    18836 
   17269    15691    13313    13147    14975    16008    16680    17663 
   17628    16713    16600    17857    19542    20985    22203    21670 
   17505    12403    11115    11982    10230     8259    10903    15095 
   16005    16507    20110    22613    20383    17995    19014    19203 
   16056    13986    15039    16317    17340    19194    20607    21435 
   23652    26896    27480    23032    16706    12912    11163    10264 
   11967    15427    16919    17078    19724    22827    20564    15013 
   13630    16586    18199    16332    13374    12422    14013    16066 
   17172    17655    18516    20422    22380    22681    20726    16005 
    8422      762    -3387    -2884     2052     9514    15670    19329 
   22106    23727    22584    19468    17554    18690    21668    23895 
   22759    18331    15241    17379    21844    22777    20171    19179 
   21705    24872    25691    23747    21024    18400    14233     9709 
    9320    12868    14612    12407    10932    12812    13517    10895 
    9749    11087    10656     8954     8640     7425     2593    -3242 
   -4426      652     8226    16047    24358    31198    33883    32513 
   29089    25212    21813    19916    19236    17589    14068     9751 
    5547     3254     4982     9315    12640    13355    12777    12974 
   13389    12455    12195    15403    20468    24108    26088    27986 
   30095    31777    32206    30061    25745    22044    18920    13335 
    7646     7979    13853    21431    30318    38789    42990    41987 
   37701    33558    33361    38047    43487    44428    41143    37201 
   33292    30754    33790    40845    44145    40049    30335    17698 
    5671    -1192      415     8699    17200    21705    23788    26572 
   29890    31905    34199    40475    49693    55826    56241    54445 
   52856    50542    47374    42314    32952    21632    13633     9553 
    6899     4634     2110     -849    -2058     1173     8438    15645 
   19313    20194    20017    19124    19612    24028    30146    33238 
   32352    29578    25324    19012    13016    10987    12760    16081 
   21510    29751    37347    40637    40055    36913    30711    22175 
   14955    12478    15249    21628    28831    34059    37359    40522 
   42689    42142    40347    39550    39700    39957    38823    33193 
   22874    13228     8699     8649    10598    11955    10131     5224 
    1028     1136     5474    11664    17972    24227    29902    32799 
   32323    30762    29592    28588    27650    27774    30580    36059 
   41909    44640    41075    30805    16675     2484    -9667   -19631 
  -26037   -26875   -23282   -17165    -9228    -2478     -912    -4531 
   -9802   -13323   -13263    -8808     -784     7183    11637    12889 
   12820    11794     9810     8432     9532    11989    12086     8904 
    5896     4345      523    -6683   -12110   -12329   -10579    -9748 
   -7695    -2972     2793     9003    15290    18943    18122    14455 
    9478     2471    -5455   -10192    -9007    -2177     7294    14270 
   15693    12862     7454     -653    -9381   -12799    -7068     4657 
   15645    22088    24329    23693    21860    21042    21321    21298 
   21979    25381    30788    35324    35905    31099    23240    16110 
   10940     7983     8375    11508    15180    19218    24439    28111 
   25461    17216    10162     8117     8446     7670     4556    -1132 
   -8972   -17556   -24474   -26096   -18998    -3866    13396    26890 
   34939    38465    38568    36934    37106    42277    51314    59490 
   62263    58287    50058    40416    30568    22250    17336    15001 
   11770     4966    -3893   -10309   -11403    -8094    -3210     1769 
    7739    15153    20623    19359    11997     4806     2620     5236 
   10048    16625    26865    39282    48262    50519    48521    48151 
   52594    59247    64436    65884    61516    51787    39108    24451 
    9505    -1459    -6191    -7010    -5293     1532    12594    21308 
   25050    25809    24120    22381    23647    26536    29717    32460 
   31209    24661    16148     9121     5506     4738     3888     2957 
    6384    15647    23768    21579    10401     2092     2822     5815 
    4282     1297     2905     9821    20019    33504    49721    63543 
   68725    64716    57349    51413    44737    34943    26318    21042 
   14222     4364    -4990   -13609   -22040   -26226   -22469   -13373 
   -5539    -2774    -2069     2592    11009    14990     8162    -7161 
  -24360   -37986   -43447   -38211   -25994   -14993   -10531   -11264 
  -12822   -12465    -7707     3445    17624    28728    33674    31537 
   23735    15584    11716    10656     7824     3005      -64     -594 
   -1868    -4968    -5389     1088    11880    21235    28278    34869 
   38149    34915    28610    22874    16131     8145     3923     7642 
   17027    26157    31764    35564    39325    38890    31352    22508 
   17329    14481    12325     9495     3871    -3785    -9425   -10295 
   -7653    -5296    -6959   -13375   -21024   -25699   -25667   -20823 
  -12679    -3473     6142    14910    20325    23865    30429    38915 
   40447    31807    20753    11619      982    -9517   -13852   -11878 
   -6343     1597    10898    22115    35179    45497    48971    47359 
   46417    49967    55777    59364    59594    57549    54237    50407 
   46197    42066    38796    36904    36396    33532    23569     9182 
   -3025   -11064   -15500   -16178   -14461   -12721   -11007    -7395 
   -1151     5298     9182    12843    20410    27761    26725    20322 
   18792    22104    23058    21535    22584    26902    30195    30570 
   31923    36552    40683    40666    37112    31888    26219    22161 
   20818    19778    17842    17698    19939    22079    24012    27255 
   30028    29029    25177    21718    18642    14091     7865     1701 
   -1807    -1466     2141     8689    18060    29465    41666    52161 
   57048    53516    42596    30331    24009    24472    26755    28233 
   30033    33910    39903    43386    40061    33952    29736    24503 
   17104    12364    12298    14716    18192    23421    31413    39893 
   42762    37683    32281    33933    37066    33123    26315    25215 
   27436    26400    23225    20358    15450     9806     9738    14300 
   15044    11988    15615    28112    38090    40536    44501    53134 
   57082    53075    47132    41991    37249    34020    32799    31554 
   28710    25864    24021    21161    16717    14129    15286    15770 
   12353     9837    11776    12722     7948     2323     2393     5783 
    5219      456    -1385     2110     5042     4168     4637    10512 
   17429    20341    20606    21007    21790    22395    22581    21918 
   19068    14095     9617     7381     6914     6809     6435     7508 
   12150    18939    22584    19990    14994    11854     8969     4595 
    2042     5414    13486    20136    21982    23143    28755    35621 
   35689    28682    22779    22504    24506    26261    30686    39012 
   47209    52223    54430    54097    49520    39588    28350    21577 
   18655    15429    12008    12166    16389    18581    13774     6039 
    2185     1417    -2128    -8915   -12746    -9564    -1764     6023 
   11361    14268    15799    15435    10570     2533    -3022    -5243 
   -7546    -9512    -9418    -9143    -8318    -2020     9741    19174 
   20277    15830    13400    15728    19425    22106    23607    23456 
   21046    15588     8025     1821     -510     2095    10150    20645 
   27633    29532    29949    29331    24007    14746     7981     6662 
    7002     5389     2498     2065     8031    18963    27858    31114 
   32194    34784    36645    32926    25309    20275    18296    15417 
   11025     6786     4162     3653     4260     6149    10859    17520 
   23359    27085    28721    27876    23938    18742    16958    19781 
   22678    22943    22734    23738    24001    20718    15171    12411 
   14175    16237    14968    11286     7468     4464     2573     2579 
    4715     8020    12806    20729    31162    41365    50043    56643 
   58776    55579    50485    44186    32332    17217     9158    10936 
   14096    12154     7194     4206     4176     3842     2474     3396 
    7690    13744    20795    28798    36926    42944    45777    47517 
   48975    47324    42334    38624    37611    35168    30373    26443 
   23082    19376    18945    22535    24695    22187    16587     9833 
    3299    -1453    -2857     -494     2982     4330     4337     5767 
    9602    16198    24264    28567    25583    19556    17566    20920 
   24360    22476    16204    11470     9879     6282     -909    -5644 
   -3981     1123     6601    13468    22601    30159    31353    28325 
   28082    32517    37231    39012    38106    35214    31518    29259 
   28144    25047    20441    18655    19975    20529    19880    20703 
   22123    19923    13231     6519     3010      496    -3036    -5578 
   -5656    -4573    -3024       83     5078    10395    15444    22142 
   30319    36418    40054    43490    44216    38772    30734    26515 
   27005    27156    23544    18505    14681    12494    12491    13636 
   13416    12098    12598    16136    20413    22877    24586    27634 
   30315    30811    32665    38934    45493    46672    42290    35657 
   28807    22549    19456    21246    24673    26411    26991    26145 
   21257    12108     2459    -4344    -8588   -12047   -15552   -19183 
  -23026   -27091   -30095   -30289   -28377   -26184   -22939   -16434 
   -6295     5741    16393    22675    25219    26334    25516    21672 
   17512    16595    17352    15574    11026     6582     4345     4839 
    7344    10894    15037    19298    22221    22142    20320    21335 
   27739    36170    41382    42159    40842    39005    36768    34843 
   32525    26461    15701     3353    -7323   -13841   -14871   -11780 
   -6485      661     8878    15715    20034    23928    28262    30221 
   29867    31617    35376    35988    32150    26846    21593    16706 
   13290    10975     8036     5057     3306     1231    -2740    -6924 
   -8287    -5892    -1583     2498     5613     8070    10910    14323 
   16216    15367    15133    19197    25429    29446    30188    29123 
   28921    31055    32383    29415    23583    18046    14409    13089 
