Origin Time       2025/01/13 21:19:00
Lat.              31.8
Long.             131.6
Depth. (km)       30
Mag.              6.9
Station Code      MYZH16
Station Lat.      32.5060
Station Long.     131.6958
Station Height(m) 2
Record Time       2025/01/13 21:19:45
Sampling Freq(Hz) 100Hz
Duration Time(s)  165
Dir.              4
Scale Factor      3920(gal)/6170801
Max. Acc. (gal)   24.914
Last Correction   2025/01/13 21:19:30
Memo.             
[...]
   12802     8367     3304     1117     2710     6248     9232     9963 
    8966     8329     8435     7571     5011     2790     4088     8967 
   13072    12794     9359     6612     6670     7890     7134     4314 
    2991     5863    11232    14779    14077    10351     6101     2949 
    2051     4284     9122    13857    14608     9915     3290        0 
    1629     5208     7017     7006     8797    13732    17723    16673 
   11402     5879     3759     6028     9569    10033     7583     5847 
    5439     4248     2467     2611     6385    12485    16496    14922 
    9236     4723     5506     9802    11665     8946     5501     5031 
    6945     8146     7240     6529     8574    11986    13159    11024 
    7834     6013     5949     6678     7021     5903     3689     2962 
    5194     8166     9474     9389     8294     6081     5088     7697 
   11505    12648    11302     9788     8947     8327     7385     5923 
    4440     3928     5015     7338     9266     9128     7336     5594 
    4576     4153     4744     7053    10458    12710    12410    10190 
    6909     3845     3380     5476     6878     6661     7285     9375 
   10966    10923     9279     6684     5265     6935    10030    10399 
    6679     2474     2063     5639     9935    11572     9567     6402 
    5003     4978     4927     5553     7848    11243    13396    11154 
    4732     -549      127     5887    11579    12934    10712     8802 
    8516     8490     8065     7016     5733     5911     7344     7517 
    6269     5928     6703     6372     4307     2751     4051     8136 
   12937    15881    14764     9844     5106     4100     6038     8582 
   10286     9398     6263     4842     6770     9563    11604    12201 
   10883     9263     7869     5495     4315     6931    10279     9750 
    5482     1931     3893    11822    19981    21258    14410     5279 
     556     1595     5259     9242    13340    15907    13599     6564 
     402      119     4857    10221    12534    11113     9309    10785 
   13466    11941     5932      939     1408     6943    12759    13767 
   10103     5802     3593     3947     5725     6927     6716     6374 
    7801    10581    11847    10250     7609     5707     4721     5218 
    7677    10208    10658     9453     6916     1691    -4149    -4344 
    3511    14321    21089    20484    13320     3253    -3866    -3006 
    5161    14500    19195    17480    11308     4979     2264     3049 
    4060     3346     2820     5557    11451    16603    16623    10472 
    1502    -5115    -5498      750     9477    15425    17060    14903 
    8938     1440    -2798     -520     8048    18075    21926    17048 
    8944     3793     3053     5199     7776     9034     9585    10169 
    9378     6260     2737     1504     2628     3966     4780     6623 
   10294    13626    13071     7667     1315     -979     1321     5656 
   10465    14839    17348    16240    10964     4956     3359     6620 
   10705    12448    11154     8595     8065     9275     8621     6751 
    7489    10291    11724    10538     7356     4026     2823     3942 
    6394     9263     9973     6719     2305      591     2294     5791 
    8657    10172    11816    13194    12467    10003     6110      634 
   -2753     -308     5287     9651    12587    14204    12136     6350 
     978     -507     2722     9876    17122    19791    17514    12614 
    7484     5628     8168    11703    14256    15510    12506     5318 
      65      143     3072     4889     2064    -4321    -6343      759 
   11354    17470    16439     9782     2493     1122     6730    13163 
   14964    12686     9825     8938    10264    11777    11143     7535 
    3519     4385    10251    14947    16626    17469    15928    10988 
    5457     2234     4073    10262    14239    12027     6253      863 
    -379     4931    12804    15435    10651     3573       11     1472 
    5435     8852    10619    11129    10684     8845     5872     3728 
    4240     7127     9829    10252     9876     9834     7656     3160 
    -466    -1530     1220     7617    13455    16034    16382    14869 
   11845     8703     5914     5009     8050    12198    12241     7806 
    2637     -117      598     4353     9299    12673    13325    12809 
   13249    14694    14733    11930     7979     5402     6207    10439 
   14301    14512    12764    11974    12009    10493     5568     -414 
   -1444     4197    11517    15848    15496    10691     5211     2591 
     723    -2466    -3159     1897     9470    14662    16108    14980 
   13933    15700    18764    19297    17994    17252    15309    10026 
    3026    -2015    -1440     5430    13756    16741    12310     4852 
     761     3373    10669    16668    16822    11844     5966     3214 
    4215     5301     2928    -1592    -5077    -7232    -8564    -8590 
   -8210    -7771    -5665    -2986    -1512     1899     9685    17647 
   20329    16824    10955     8829    13168    19982    23836    23861 
   22782    22806    23536    23167    20923    17472    13310     7954 
    1412    -4042    -4831      538     9191    15540    15746    10316 
    3117    -1239     -714     2434     4363     3062    -1573    -7527 
  -10985   -10479    -7813    -3725     1762     5850     6082     4219 
    2978     3626     7148    12209    14347    10693     3453    -1420 
     496     7663    15907    23037    27235    26872    23607    20581 
   18718    18301    20574    24583    26904    26153    23168    18208 
   12040     5928    -1365   -11647   -21885   -25557   -19696    -7785 
    2954     6398     2580    -2550    -3496      489     6422    11138 
   14244    16634    17358    15236    12240    13057    20405    30098 
   33920    28908    20615    17086    21475    30362    36739    33787 
   20564     3747    -9598   -16383   -15251    -7261     1587     4280 
     267    -5159    -6963    -2395     7729    18303    23442    19789 
    8236    -6120   -17789   -23685   -22887   -16960    -8972     -982 
    5564     9110     9434     7674     5610     5327     7264     9431 
   10135     9625     8471     7251     7699    10796    15189    18735 
   18435    12050     3269     -955     1632     8837    17297    22443 
   22016    19440    18275    17389    15386    13564    12957    14017 
   16566    16413     9480       28    -4182    -1079     6903    15434 
   19197    17004    13558    13358    16385    20447    24004    25637 
   23460    16550     6797    -1491    -5206    -5169    -3760    -1301 
    2985     8398    12585    11958     3825    -9475   -21210   -26030 
  -23791   -19042   -16675   -16957   -15811    -9421     1860    13219 
   20428    24107    26239    25938    21859    15414     9423     5296 
    2423      165     -139     3877    12337    21231    24506    19030 
    8058    -1137    -4233    -3673    -3893    -5391    -6388    -5978 
   -3796      131     5786    13200    20756    25927    28445    30980 
   36094    42263    44104    38032    26382    15524    10737    11846 
   14275    14556    11772     5763    -1280    -5178    -4295      274 
    6728    11685    12052     8603     4124      330    -1393     -723 
    -602    -3812    -8206    -9707    -8353    -7388    -8160    -9188 
   -8884    -7463    -6613    -7547    -9231    -8467    -2649     7187 
   16798    21855    20714    15623    11547    12345    17251    21766 
   22210    18526    13247     9708    10582    15782    21842    24869 
   24129    21378    18070    15694    16155    19231    22287    22821 
   19384    12418     5415     1341    -1266    -4700    -7689    -6962 
    -464    10221    19668    23334    21679    17717    12708     5970 
   -2577   -10842   -15784   -16558   -15032   -12192    -6935      586 
    7982    13227    15288    13758    10267     7465     6104     6651 
   10794    17438    21702    20053    13292     5292      494      250 
    1556     1666     1953     5360    12548    20914    25959    24910 
   19275    12408     6141     1373     -423     1855     7109    11634 
   11732     7763     4087     4173     6690     7183     4366     2709 
    6360    14018    21299    24098    20949    15132    11934    13146 
   16409    18816    18677    15439    10503     6143     3491     3233 
    5410     8646    11685    13560    13600    12787    11991    10323 
    7194     3449      713      230     1259     1699      376    -2241 
   -4430    -4302    -2189     -948    -2472    -5530    -7033    -3863 
    4283    12410    13893     7480    -1950    -8731    -9875    -4858 
    4581    14295    19940    20314    17182    12959    10381    11464 
   14790    16529    15035    12296    10456     9577     8927     7778 
    5535     2670      545       18     1339     4282     7150     7632 
    5094     1121    -1504     -757     3174     8406    12327    13040 
   11207     8870     7129     7105     9914    13792    15307    13383 
    9262     5434     5114     8660    12543    13855    11945     7202 
    2167      414     2757     7703    13409    17019    16111    11765 
    7805     6797     7789     8525     8006     6223     4399     4924 
    8348    12064    13382    11950     8913     6391     6996    11247 
   16841    20584    19454    12590     3478    -2645    -3604    -1885 
   -2083    -6100   -10680   -10040    -1116    12966    24619    27363 
   20053     7162    -4415    -9976    -9130    -4494     -150      494 
   -2368    -5718    -7052    -5363    -1130     3396     5948     6278 
    5463     4953     6823    12574    20991    28651    32750    32746 
   30148    27035    24417    22504    21116    18970    15236    11716 
   10947    13377    17651    21533    22299    18865    13632    10139 
    9818    12068    14745    14358     9227     1921    -3187    -2724 
    4019    12602    15917    11306     2623    -3275    -2019     3629 
    6829     4107    -2957   -10200   -13595   -12881   -11425   -10845 
   -9423    -6503    -3949    -2481        8     4896     9966    12436 
   11987     9980     9724    14470    21529    24213    20192    12631 
    5953     3077     3370     3977     4239     5952     9890    14316 
   16784    17033    17540    20669    25587    28698    27293    21978 
   16067    13305    14496    16550    16562    15167    14630    15296 
   14749    10610     3581    -3400    -7811    -8820    -7978    -7587 
   -6952    -3372     3613    11611    16471    14548     6777    -1998 
   -7831    -9619    -8373    -5192      461     8488    16354    21774 
   24031    22899    19163    14661    10741     8525     9767    14691 
   19891    20721    15206     5482    -3393    -7205    -5687    -1043 
    4306     7512     6344     1646    -3187    -4457      318    10019 
   19972    26028    26289    20899    13185     8245     9111    14841 
   21004    22424    17265     8314      580    -1784     1710     7565 
   11423    10705     5761     -431    -5037    -7258    -7564    -6269 
   -2871     2205     6069     6511     4802     3949     6502    12342 
   17625    18537    15206    11462    11833    17237    23370    24016 
   15827     1125   -13069   -19369   -15014    -3904     6967    13252 
   14754    13460    12303    13157    14558    13926    11185     8307 
    7205     8117     9352     9692     9688    10003    10630    11038 
    9682     5698     1643     1109     3656     5773     5998     5666 
    6320     8554    10790     9525     3982    -1816    -3431      126 
    6113     9499     6923      438    -4856    -6219    -4576    -2746 
   -2839    -3672    -2496     1552     8270    16650    23336    26115 
   26867    27458    27630    27579    27316    25640    22520    19276 
   16852    16204    17709    19208    17420    11292     3079    -3128 
   -4436    -1199     3888     8165    11112    13925    16418    16526 
   13244     7456      594    -5596    -9822   -12554   -14069   -12884 
   -8859    -4386    -1203     1014     3114     4621     3961     1251 
    -444     1726     6879    11839    14766    15584    14996    13739 
   10826     4919    -1783    -5252    -4221     -665     1955     1483 
    -547    -1394    -1013    -1276    -2998    -4653    -3097     3194 
   11186    15892    16321    16319    19257    24526    29202    30738 
   29055    27283    28217    30787    32045    30097    24454    15909 
    6674     -280    -2915    -1237     2696     5644     5567     2923 
    -743    -4085    -6486    -8471   -10689   -12731   -13762   -13248 
  -10432    -4720     3187    11747    18793    21814    20627    18000 
   16601    17101    18181    17630    13916     6911    -1711    -9014 
  -12782   -12279    -7913    -1628     3886     7097     8137     8463 
    9536    11399    13497    15552    17902    21991    27885    31801 
   29263    20043     8968     2145     1985     5720     8759     8911 
    7263     6285     8187    13490    19755    23443    23605    21656 
   18497    14852    12404    11690    11719    11998    11864    10391 
    8108     5815     3035     -613    -3947    -5008    -2856     1683 
    5799     6043     2144    -1969    -2014     2345     6537     5120 
   -3136   -14077   -20685   -18188    -7826     4810    13883    16783 
   15998    16871    22277    29610    33255    29783    20839    12033 
    9063    12806    17922    18559    14208     8238     3997     2881 
    3863     5291     6506     7478     8412     9720    12030    15589 
   19071    20052    16742     8964    -1555   -12148   -21090   -27783 
  -31359   -30496   -24550   -14765    -5418    -2513    -8321   -17861 
  -23021   -19051    -6766     8401    18896    19929    13497     6413 
    4463     8842    16276    21745    22602    20595    19359    20761 
   24694    30235    35258    37193    35050    30103    25619    24810 
   27468    29829    28370    22962    16449    12060    10431     8695 
    4085    -2405    -7464    -8646    -5800    -1178     2248     3428 
    3580     3676     2635    -1393    -8034   -13058   -11188    -1612 
   10486    18267    18578    13809     9309     8652    11177    13755 
   14027    12044    10037    10171    11622    11663     9732     7353 
    5178     3209     2384     3688     6668     9662    11341    12000 
   12706    13456    13255    10929     5684    -1207    -5863    -4457 
    3656    15093    23950    25035    17764     7326      986     2999 
   11817    21088    25083    23335    18981    14564    10134     4292 
   -2473    -7202    -8256    -6324    -2559     1297     3363     3303 
    1792     -379    -1714     -666     2412     5013     4697     1995 
    -110     -264      643     2709     6947    12578    16972    17627 
   13761     7443     3232     4469     9422    13148    13001    10332 
    7829     6914     6943     6264     3954      318    -3305    -5032 
   -3778     -331     2987     3784     1627     -523     1774     9486 
   18488    23590    22816    18470    15053    15171    17480    18956 
   18119    16147    15772    18335    21849    23031    20600    16155 
   12715    12016    12810    12659    10635     7311     3562      435 
    -650     1644     7337    13829    16806    13947     7519     2136 
    -145    -1365    -3858    -6637    -6615    -1815     6926    15739 
   19847    17294    10035     1711    -4058    -4103     2559    12607 
   19696    19165    11986     3853      107     2057     7202    11220 
   10880     6656     2022       69     1433     5125     9914    14276 
   16374    15221    11433     6713     2894     1280     2441     5473 
    7755     7483     5292     2709     1343     2511     6321    11811 
   16748    18133    15012     9754     6234     7698    14889    24268 
   29911    29045    23789    17297    11575     8160     7312     7494 
    7039     4787      243    -4812    -6889    -4439      523     4474 
    5169     3383     2577     5475    10702    14097    12944     7963 
    1747    -3410    -6046    -5470    -1957     2575     4408      811 
   -6436   -11610    -9648     -967     8328    12466    12273    13694 
   20029    28099    32051    28583    19288     9429     3560     2110 
    2674     3476     4117     3951     2138     -840    -3195    -2455 
    3373    13017    21685    25120    23090    18489    13534     8207 
    1970    -4471    -8576    -7514    -1540     4950     7195     4847 
    1763     1892     6519    13579    19341    21755    21232    19225 
   17578    17605    18760    18915    16110    10489     5003     2886 
    4286     6422     6346     3473      -71    -1709     -399     2920 
    5861     6731     5943     4800     4535     6185     9652    13453 
   16089    17002    16426    15236    14676    15247    15673    13803 
    9311     4957     4213     7736    12671    15236    13717     9698 
    6726     6906     9017    10461    10169     9189     9097    10471 
   12600    13751    11872     5791    -3728   -13469   -18820   -16511 
   -7185     3955    10633    10887     8071     7291    11040    17273 
   21721    21466    16760    10676     6701     6188     7573     7882 
    5750     2581      473      453     2355     4982     7550    10821 
   15064    18718    20541    20910    20635    19912    18192    15082 
   11353     7993     4825      989    -3756    -8454   -11391   -11412 
   -8895    -5022     -683     3470     6699     8621     9849    11495 
   13931    16386    17274    15174    10544     5803     2796     1178 
    -331    -2284    -4020    -3863     -460     5443    11088    13899 
   13604    12307    12546    14981    18038    19889    19787    17712 
   14289    10920     9084     9167     9799     8788     5070      -77 
   -3536    -2989      673     4090     4300     1339    -1830    -2166 
    1268     7065    12459    15438    15873    14522    12313    10406 
    9745    10631    12488    13924    13749    11883     9434     7785 
    6957     5705     3219     -310    -3686    -4676    -1561     4828 
   11362    14760    13636     9381     5194     3894     6322    10944 
   14586    14771    12016     9189     8628    10073    11292    10788 
    8992     6841     4939     3845     3942     5008     6116     6255 
    5591     5929     8945    13923    18000    18479    14925     9557 
    5462     4239     5324     7080     7912     6980     5003     3516 
    3012     3029     3430     4623     6670     8443     8595     7379 
    6266     6228     7074     7571     6417     4051     2722     3974 
    6632     8163     7364     4731     1548     -382      529     4568 
   10515    16219    19618    19819    17744    15488    14204    13020 
   10696     7320     4113     2624     3750     6864    10372    12981 
   13935    12987    11029     9683     9277     8513     6712     4813 
    4114     5044     6673     7143     5360     2371      444      683 
    2172     3473     3947     3966     4652     6738     9536    11102 
    9812     6630     4987     7147    11347    13580    11771     7580 
    4596     5182     8486    11294    11334     9314     7568     7926 
   10655    13904    14963    13025     9756     7168     5927     5397 
    4588     3383     3041     4724     7706    10275    11638    11911 
   11798    12343    13446    13533    11412     7820     4952     4391 
    5906     7756     7689     5167     2602     2955     6566    10888 
   12751    10996     7599     6045     7971    11587    13661    12377 
