Origin Time       2025/01/13 21:19:00
Lat.              31.8
Long.             131.6
Depth. (km)       30
Mag.              6.9
Station Code      MYZH13
Station Lat.      31.7301
Station Long.     131.0791
Station Height(m) 35
Record Time       2025/01/13 21:19:42
Sampling Freq(Hz) 100Hz
Duration Time(s)  280
Dir.              3
Scale Factor      2942(gal)/8224139
Max. Acc. (gal)   10.184
Last Correction   2025/01/13 21:19:42
Memo.             
[...]
  325826   325603   325513   325521   325551   325583   325652   325782 
  325975   326177   326289   326258   326116   325961   325873   325831 
  325728   325566   325541   325860   326471   327095   327501   327636 
  327545   327391   327364   327381   327175   326685   326112   325703 
  325649   326008   326658   327348   327757   327753   327545   327231 
  326594   325599   324507   323497   322652   322108   322003   322289 
  322670   322861   322883   322847   322704   322334   321748   321219 
  321119   321565   322419   323416   324159   324400   324284   324067 
  323932   324000   324178   324324   324581   325258   326398   327611 
  328349   328415   328010   327526   327437   327966   328806   329495 
  329751   329557   329431   330060   331358   332513   332916   332509 
  331703   331273   331624   332337   332812   332846   332630   332569 
  332965   333572   333717   333089   332117   331385   330948   330505 
  329961   329490   329267   329205   329120   329148   329364   329404 
  329109   328704   328209   327478   326478   325358   324535   324272 
  324430   324900   325544   326015   326123   325844   325236   324723 
  324700   324882   324801   324380   323778   323329   323333   323801 
  324716   325830   326393   326110   325637   325499   325475   325105 
  324024   322246   320464   319713   320710   323184   325829   327168 
  326667   325038   323455   322623   322417   322111   321175   319990 
  319603   320598   322257   323362   323566   323287   322903   322687 
  322805   323185   323823   324816   326061   327265   328054   328116 
  327541   326785   326231   325869   325471   325224   325638   326592 
  327370   327682   327811   328074   328437   328452   327807   326874 
  326209   325880   325701   325429   324699   323461   322200   321374 
  321088   321362   322188   323339   324618   326058   327553   328762 
  329405   329246   328314   327354   327204   327850   328754   329589 
  330301   331098   332232   333526   334459   334647   334093   333228 
  332603   332375   332199   331746   331134   330663   330435   330390 
  330303   329821   328878   327863   327086   326440   325799   325281 
  324915   324487   323970   323658   323751   324214   324865   325308 
  325271   324877   324135   322887   321497   320498   319797   319080 
  318558   318695   319613   321088   322818   324405   325260   325030 
  324122   323380   323218   323472   323850   324311   325131   326571 
  328480   330300   331387   331512   331118   330849   330990   331447 
  331939   332195   332363   332791   333549   334399   334790   334257 
  333058   331866   331042   330767   330991   331002   330127   328649 
  327288   326504   326394   326694   327061   327433   327950   328575 
  328970   328738   327673   325904   323881   322191   321291   321328 
  322159   323376   324545   325586   326459   326816   326432   325448 
  324074   322767   322192   322436   322980   323329   323123   322347 
  321511   321051   321059   321486   322089   322550   322716   322621 
  322428   322290   322238   322182   322014   321840   322134   323323 
  325286   327377   328788   328968   328016   326612   325502   325035 
  325250   326131   327559   329277   331015   332464   333155   332675 
  331064   328828   326589   324903   324211   324712   326095   327554 
  328457   328722   328295   327073   325480   324162   323265   322690 
  322562   323052   323986   324828   325084   324731   324051   323179 
  322168   321247   320843   321328   322702   324568   326297   327292 
  327310   326597   325601   324715   324342   324715   325462   326033 
  326782   328623   331412   333807   334845   334577   333408   331915 
  330825   330465   330646   330933   330876   330675   331048   331892 
  332194   331429   329979   328455   327273   326494   325840   325019 
  323994   322834   321760   321354   321889   322624   322791   322667 
  322978   323986   325318   326231   326211   325358   324189   323524 
  324213   326141   328104   329159   329408   329467   329778   330215 
  330381   330129   329269   327655   325954   325196   325684   326988 
  328342   328932   328565   327726   326825   326012   325251   324341 
  323381   322988   323527   324421   324868   324976   325325   326025 
  326713   326872   326361   325715   325425   325529   326139   327246 
  328310   328868   329026   329097   329233   329493   329873   330046 
  329568   328685   328363   329200   330790   332143   332353   331296 
  329684   328202   327316   327368   327838   327662   326722   325868 
  325748   326350   327191   327778   327963   327546   326488   325682 
  325826   326056   325375   324106   322864   321688   320674   320260 
  320804   322159   323561   324342   324475   324024   322974   321629 
  320430   319697   319612   320259   321597   323192   324325   324741 
  324677   324162   323025   321436   320016   319469   319978   321187 
  322833   324812   326812   328442   329544   330031   329574   327886 
  325460   323458   322731   323225   324153   324691   324724   324804 
  325387   326485   327731   328599   328914   328947   328882   328658 
  328243   327655   327060   326902   327505   328781   330439   331997 
  332833   332672   331757   330554   329474   328806   328739   329238 
  330103   331273   332607   333583   333714   333112   332418   332050 
  331800   331242   330188   328824   327638   326990   326776   326666 
  326539   326602   327107   328039   329132   330011   330204   329374 
  327619   325325   323073   321553   321140   321856   323445   325066 
  325817   325676   325254   325020   325005   324756   323916   322990 
  322890   323987   325917   327800   328822   328811   327909   326246 
  324363   322894   321933   321437   321553   322261   323343   324515 
  325386   325722   325611   325062   323995   322705   321572   320757 
  320614   321557   323373   325312   326686   327119   326664   325871 
  325333   325205   325368   325864   326872   328303   329552   330122 
  330336   330721   331010   330643   329813   329178   328830   328379 
  327785   327437   327456   327465   327213   326952   326825   326304 
  325008   323615   323068   323318   323619   323636   323470   323195 
  323090   323434   323817   323473   322069   320017   318352   317875 
  318629   320440   322986   325602   327828   329498   330486   330963 
  331063   330565   329448   327975   326535   325925   326844   329012 
  331465   333275   333822   333157   332041   331321   331465   332395 
  333333   333464   332760   331740   331080   331221   331668   331375 
  330093   328419   326987   326223   326168   326334   326251   326050 
  326065   326370   327072   328282   329746   331130   332124   332347 
  331780   330683   329081   327069   325271   324407   324837   326493 
  328715   330405   330936   330586   329809   328498   326486   324329 
  322760   321783   320990   320398   320376   321061   322062   322594 
  321992   320256   318078   316550   316480   317461   318127   317746 
  317123   317594   319343   321235   322228   322254   321780   321285 
  321240   321876   322720   323019   322732   322454   322440   322319 
  321700   320731   320107   320463   321706   323296   324853   326076 
  326717   327049   327709   328814   329958   331060   332372   333917 
  335357   336096   335596   333952   331755   329494   327809   327508 
  328548   330259   332441   335079   337447   338335   337115   334115 
  330176   326207   322812   320291   318986   319068   320157   321557 
  322816   323894   324886   325896   326945   327701   327735   327153 
  326500   326205   326397   326911   327439   327848   328386   329475 
  331365   333803   336023   337350   337728   337491   337155   337232 
  337662   337767   337169   336089   334916   334185   334233   334362 
  333512   331522   328943   326434   324521   323163   321675   319542 
  317104   315276   314837   315858   317567   318965   319561   319396 
  318712   317656   316237   314720   313694   313672   314867   317031 
  319708   322839   326312   329238   330519   329756   327372   324302 
  321588   320120   320404   321943   323492   324596   325806   327391 
  329039   330311   330654   329667   327599   325275   323731   323642 
  324615   325632   326258   326725   327319   328159   329174   330247 
  331122   331323   330671   329611   328864   328853   329448   330397 
  331619   332876   333865   334447   334473   334072   333737   333617 
  333605   333749   333652   332710   331329   330512   330675   331646 
  332900   333640   333265   331781   329629   327284   325000   322791 
  320615   318477   316444   314737   313611   313069   312915   312962 
  313124   313397   313669   313667   313225   312318   310879   309089 
  307728   307563   308400   309285   309452   308767   307689   307053 
  307524   309066   310996   312615   313976   315827   318713   322420 
  326200   329243   331011   331411   330999   330899   331827   333406 
  334737   335249   335180   335389   336360   337937   339797   341253 
  341390   340205   338704   337730   337390   337204   336411   334573 
  331900   328968   326419   324627   323478   322620   321898   321522 
  321772   322421   322790   322524   321781   320838   320125   320184 
  321173   322863   325004   327303   329444   331325   333030   334488 
  335403   335628   335335   334843   334596   335009   336118   337571 
  338852   339670   340251   340868   341136   340519   339120   337347 
  335637   334552   334395   335049   336083   336673   336310   335473 
  334821   334328   333691   332961   332526   332645   333036   333186 
  332796   331771   330394   329347   329061   329379   329875   330258 
  330569   330848   330767   329995   328654   327063   325449   324006 
  322744   321544   320506   319685   318744   317510   316334   315604 
  315349   315331   315223   314905   314674   314901   315631   316611 
  317482   318136   318780   319639   320842   322219   323342   324083 
  324585   324707   324126   322895   321559   320893   321344   322506 
  323547   324085   324251   324488   325324   326683   327869   328495 
  328880   329498   330465   331508   332297   332785   333077   332991 
  332294   331346   330806   330858   331438   332492   333481   333593 
  332600   330959   329287   327973   326960   325973   324915   323886 
  323154   323019   323299   323298   322492   320805   318357   315465 
  312819   311133   310485   310439   310871   312087   314004   315825 
  316795   316772   315967   314725   313563   313056   313526   314899 
  316890   319010   320685   321570   321564   320853   319894   319072 
  318717   319311   321065   323703   326961   330363   332800   333509 
  332965   332033   331140   330658   331030   332144   333405   334646 
  336172   337738   338459   337880   336347   334447   332594   331048 
  330095   329850   329884   329548   328698   327603   326380   325020 
  323713   322709   322097   321842   321871   321989   321871   321503 
  321331   321455   321290   320337   318853   317599   317256   317907 
  319022   320229   321641   323323   325228   327404   329690   331497 
  332276   332067   331488   331195   331430   332094   333089   334346 
  335576   336453   337069   337689   338292   338594   338272   337297 
  336110   335122   334455   334231   334288   333882   332583   330885 
  329379   328089   326840   325679   324838   324562   325016   326238 
  328000   329726   330878   331418   331809   332532   333566   334532 
  335264   336112   337626   339898   342455   344633   345697   345093 
  342945   340011   337138   334831   333143   331881   330949   330457 
  330465   331007   332189   333676   334516   333790   331327   328272 
  326304   325707   325420   324729   323609   322253   321102   320672 
  321009   321453   321096   319858   318721   318402   318514   318439 
  318012   317271   316437   315999   316369   317621   319342   320595 
  320710   320170   320028   320533   320863   320074   318015   315409 
  313249   312415   313368   315763   318631   321046   322691   323860 
  324677   324783   323924   322096   319404   316454   314446   314513 
  316720   319871   322743   324889   326199   326905   327609   328230 
  327915   326474   324737   323566   323287   323709   324564   325755 
  326944   327564   327451   326902   326195   325514   324996   324598 
  324295   324537   325915   328228   330470   331672   331523   330631 
  329881   329599   329697   329999   330392   331092   332302   333882 
  335662   337508   339090   340050   340244   339660   338447   337068 
  336091   335664   335234   334247   333182   333111   334127   335507 
  337107   338933   340023   339299   336930   334058   331522   329282 
  327102   325209   323921   323165   322834   323141   324044   324595 
  323628   321021   317502   313771   310552   308773   308851   309997 
  310726   310209   309023   308522   309456   311388   313465   315065 
  315927   316507   317715   319697   321445   321873   320847   319026 
  317233   315974   315188   314443   313486   312622   312708   314379 
  316953   318836   319277   318751   318020   317783   318343   319079 
  319003   317881   316492   316020   317243   319916   322983   325638 
  327758   329391   330698   332036   333336   333953   333470   332156 
  330891   330714   332093   335014   339156   343375   346310   347738 
  348317   348402   347701   345828   342941   340039   338440   338762 
  340906   344533   348759   352240   354229   354890   354473   352769 
  349635   345516   341174   337379   334856   333994   334324   334685 
  334152   332581   330411   328302   326745   325683   324683   323478 
  322054   320425   318697   317062   315623   314520   314082   314396 
  315107   316013   317386   319501   322097   324525   326373   327667 
  328587   329475   330747   332468   334349   335943   336748   336582 
  335584   333639   330512   326648   323045   320326   318473   317349 
  316993   317322   317821   317866   317241   316024   314334   312515 
  311119   310429   310354   310760   311539   312560   313823   315341 
  316953   318550   320143   321618   322856   323924   324826   325443 
  325769   325786   325385   324684   324037   323779   324288   325850 
  328132   330358   332013   332935   333062   332536   331889   331551 
  331240   330307   328409   325806   323381   322068   322108   323246 
  325124   326870   327373   326417   324639   322724   321050   319669 
  318632   318262   318864   320430   322710   325147   326955   327701 
  327564   326891   325822   324518   323534   323723   325679   328997 
  332398   334806   335902   335850   334978   333566   331854   330373 
  329787   330169   330844   331051   330403   328932   326951   324792 
  322567   320249   318109   316874   317174   319029   321744   324083 
  325015   324249   321879   318450   315442   314382   315435   317717 
  320418   322987   325251   327586   330131   332298   333321   332679 
  330490   327924   326484   326887   328870   331422   333019   332580 
  330463   328070   326570   326150   326405   327051   327882   328649 
  329495   330633   331439   331168   330169   329085   328143   327774 
  328469   330060   332063   334314   336703   338720   339813   339993 
  339695   339233   338512   337377   336312   336086   336602   337027 
  336711   335464   333377   330481   327007   323964   322363   322101 
  322382   322639   322699   322488   321885   320884   319497   317503 
  314875   312348   310824   310576   311508   313518   316363   319538 
  322394   324372   325146   324784   323966   323626   324238   325521 
  326685   327188   327219   327152   327105   327407   328402   329645 
  330474   331128   332276   334033   336100   338054   339091   338326 
  335708   332414   330019   329017   328804   328999   329667   330619 
  331507   332425   333801   335543   336966   337791   338431   339117 
  339400   338728   337019   334579   331879   329525   328182   328170 
  329136   330548   332095   333414   334061   333664   331927   328985 
  325694   322964   321062   320059   320152   320967   321694   322080 
  322131   321287   319098   315882   312349   309584   308712   309699 
  311474   313216   314554   315227   315318   315169   314725   313463 
  311272   308838   307004   306266   306607   307557   308561   309422 
  310405   311841   313761   315747   317255   318357   319426   320377 
  321266   322713   324916   327372   329881   332675   335546   338002 
  339928   341475   342605   342920   341950   339874   337711   336313 
  335497   334717   333861   332928   331766   330527   329630   329433 
  330064   331051   331678   332047   332594   332919   332367   331040 
  329386   327711   326554   326608   327933   329925   331985   333745 
  335113   336186   336792   336507   335281   333472   331465   329663 
  328359   327483   326883   326586   326400   325864   324924   323940 
  323052   322425   322632   324037   326362   328928   331018   332016 
  331323   328677   324780   320861   317634   315373   314369   314689 
  316194   318658   321437   323688   324807   324661   323777   322767 
  321582   319995   318420   317538   317618   318454   319543   320391 
  320835   320930   320815   320704   320538   320184   320068   320662 
  321652   322398   322732   322979   323636   324993   326934   329157 
  331182   332413   332685   332510   332453   332402   331747   330269 
  328509   327342   327196   327770   328564   329352   330228   331353 
  332563   333393   333382   332241   330184   328124   326840   326193 
  325888   326141   326938   327820   328519   329008   329278   329308 
  328918   328048   326909   325517   323991   323028   323107   323981 
  325179   326209   326721   326948   327415   328226   328990   329263 
  328986   328565   328225   327684   326662   325020   322655   319933 
  317568   315858   314867   315009   316546   319019   321806   324629 
  327033   328226   327703   325501   322235   319056   316807   315543 
  315165   315642   316745   318147   319551   320564   320755   320021 
  318820   317865   317586   317927   318625   319538   320751   322420 
  324568   327069   329643   331805   333163   333891   334593   335674 
  337109   338696   340299   341801   342890   343441   343842   344368 
  344754   344723   344345   343769   342994   342071   341154   340344 
  339562   338497   336896   334813   332429   330083   328004   325837 
  323230   320538   318228   316296   314666   313424   312654   312541 
  313218   314408   315775   317236   318578   319612   320390   320672 
  320166   319127   318027   317155   316645   316573   317020   317914 
  318971   319917   320557   320788   320743   320616   320572   320838 
  321564   322779   324454   326469   328513   330131   330980   330953 
  330106   328765   327541   327049   327569   328858   330466   331973 
  332864   332891   332371   331507   330060   328032   325958   324471 
  324113   325290   327889   331252   334600   337165   338380   338260 
  337135   335269   332984   330685   328765   327636   327591   328500 
  329918   331334   332154   331823   330218   327785   325264   323250 
  321915   321250   321378   322191   323100   323680   324116   324773 
  325715   326732   327505   327993   328761   330285   332183   333782 
