Origin Time       2025/01/13 21:19:00
Lat.              31.8
Long.             131.6
Depth. (km)       30
Mag.              6.9
Station Code      MYZH08
Station Lat.      32.2132
Station Long.     131.5309
Station Height(m) -145.9
Record Time       2025/01/13 21:19:40
Sampling Freq(Hz) 100Hz
Duration Time(s)  222
Dir.              1
Scale Factor      2940(gal)/6170270
Max. Acc. (gal)   20.596
Last Correction   2025/01/13 21:19:25
Memo.             
[...]
  207701   207702   207704   207705   207702   207700   207702   207703 
  207701   207701   207701   207701   207702   207701   207701   207704 
  207705   207703   207702   207703   207703   207704   207703   207702 
  207701   207701   207702   207703   207701   207701   207706   207706 
  207703   207703   207701   207701   207702   207702   207703   207702 
  207700   207701   207703   207701   207701   207703   207703   207701 
  207701   207703   207704   207703   207703   207702   207702   207703 
  207704   207704   207703   207701   207701   207703   207702   207701 
  207700   207702   207704   207704   207702   207702   207702   207702 
  207703   207702   207702   207701   207700   207702   207705   207703 
  207701   207703   207702   207701   207703   207703   207703   207704 
  207704   207699   207700   207703   207702   207700   207702   207701 
  207699   207701   207702   207701   207699   207701   207701   207699 
  207696   207695   207694   207693   207689   207686   207682   207680 
  207679   207676   207673   207672   207670   207666   207660   207653 
  207646   207637   207623   207609   207597   207590   207593   207610 
  207643   207677   207685   207668   207632   207570   207512   207502 
  207532   207571   207601   207621   207641   207653   207652   207633 
  207572   207500   207498   207582   207703   207778   207728   207558 
  207357   207232   207276   207475   207697   207850   207916   207909 
  207909   207953   207918   207749   207583   207550   207670   207874 
  208002   207928   207683   207451   207466   207723   207958   208024 
  207950   207803   207702   207637   207490   207349   207352   207472 
  207577   207553   207450   207301   207084   206982   207170   207484 
  207698   207801   207868   207885   207800   207692   207659   207578 
  207399   207316   207436   207689   207975   208134   207962   207505 
  207163   207184   207385   207586   207739   207718   207477   207278 
  207327   207382   207213   206952   206771   206751   206916   207174 
  207395   207475   207430   207312   207049   206747   206700   206815 
  206804   206752   206838   206970   207062   207130   207160   207156 
  207101   207047   207128   207197   207038   206740   206512   206487 
  206613   206717   206705   206577   206486   206569   206692   206673 
  206528   206382   206313   206337   206456   206648   206870   207009 
  206952   206815   206834   207041   207338   207605   207654   207549 
  207531   207499   207201   206639   206101   205928   206138   206519 
  206973   207460   207896   208182   208188   207937   207677   207489 
  207386   207585   207883   207727   207163   206747   206790   207066 
  207171   207118   207146   207159   207022   206849   206626   206418 
  206569   207068   207567   207950   208091   207778   207266   206880 
  206602   206482   206452   206415   206623   207057   207423   207573 
  207352   206945   206835   206994   207024   207037   207416   207916 
  208078   208034   208102   208236   208186   208115   208366   208406 
  207713   207013   206919   207136   207491   208147   208724   208419 
  207667   207702   208416   208922   208996   208993   209188   209374 
  209375   209166   208536   207693   207286   207493   208020   208600 
  208894   208712   208351   208141   208038   207577   206572   205976 
  206482   207263   207479   207221   206893   206799   207017   207496 
  207946   207965   207710   207486   207216   207016   207212   207832 
  208684   209473   209793   209580   209225   208628   207486   206646 
  206914   207708   208294   208291   207671   207030   206558   206443 
  207307   208259   208158   207645   207129   206466   205931   205452 
  205188   205658   206412   206820   207331   208174   208640   208646 
  208747   208993   209113   208649   207506   206656   206787   207454 
  208029   207997   207384   206837   206542   206629   207296   207814 
  207725   207278   206364   205419   205103   204854   204050   202942 
  202099   202142   203047   204146   205393   206868   207815   208143 
  208604   208846   208215   207264   206718   206753   206963   206700 
  206261   206347   206979   208017   208943   208782   207591   206435 
  205884   205851   205950   206188   207397   209217   209584   207885 
  205837   205232   206373   207822   208409   208902   209719   210242 
  210755   210970   209635   207758   207108   206941   206473   206204 
  206086   206307   207227   208241   208964   208967   207736   206446 
  206240   206426   206333   206018   205825   206223   206943   207198 
  206891   206367   205337   203913   203651   204854   205412   204546 
  204061   205014   206487   207794   209206   210514   211045   210853 
  210505   210000   209111   208673   209537   210549   210051   208482 
  207326   206870   206777   206957   207080   207459   208728   209613 
  208753   207130   206107   206061   206721   207216   207368   208190 
  209857   211460   212201   211400   209738   208944   209349   210454 
  211244   210325   208396   207202   206897   206617   205651   205045 
  206767   209842   211736   212147   211627   210189   208479   207116 
  206195   206276   206994   206886   205908   204929   204340   204136 
  204286   205233   206388   206342   205662   205420   205268   205163 
  205388   205941   207693   210861   213105   212598   210870   210322 
  211007   211401   210986   210566   210340   209953   210236   211325 
  211470   210588   210314   210464   209503   207308   205508   205108 
  205573   206953   209349   211222   211687   211799   212506   213239 
  212423   209675   206558   204560   204224   204894   204989   204901 
  206360   208171   208811   209961   211603   211146   209106   207578 
  206789   206726   207108   207382   207858   208289   207812   206655 
  205596   204624   203579   203259   204152   205629   207505   209352 
  208899   205647   203367   204319   205928   205733   204547   204726 
  207306   210340   211687   211964   211791   210598   209099   208404 
  208948   210464   211500   211665   211371   209962   208318   207931 
  208025   208268   209024   209574   209615   209323   209320   210215 
  210448   209189   208197   207791   206906   205174   202985   202677 
  205366   207900   208244   207812   207503   207358   207524   207306 
  206276   205680   206147   206054   204628   203584   204141   205217 
  205639   206079   207055   207690   207527   206350   203612   200144 
  198221   198763   200061   201414   203833   205939   206146   205911 
  206492   207900   210194   212841   215137   216019   213871   209604 
  206176   204670   204940   206354   207346   207815   208303   208331 
  208417   208544   207723   206917   206371   205313   204916   205205 
  205374   206319   207249   207220   207919   208815   207722   205837 
  205068   205319   206153   206947   207793   209726   211973   212931 
  212644   212095   211780   210503   207769   206085   206764   208593 
  210780   211459   209120   206525   205633   204828   203896   203525 
  203636   204165   203549   201593   201635   204365   207050   209076 
  210337   209271   206412   203697   201835   201946   204946   209031 
  211776   212861   214102   216947   219194   218559   216288   213402 
  211025   211142   212489   213064   212795   210949   208375   207581 
  208059   208013   207077   205657   204696   204831   205934   207130 
  207642   207506   206748   205514   204475   204763   206600   208136 
  208226   207916   207967   208181   208401   208713   209484   209839 
  208325   206471   205945   205052   202979   201624   202070   203630 
  205713   208140   209980   209902   207844   205933   206334   207312 
  206242   205020   204973   203860   203029   205903   210179   211722 
  211062   210276   209698   208993   207975   207646   209515   212973 
  215774   217319   218244   217042   212595   207421   204395   204367 
  206435   209093   211505   212464   211161   208846   206989   205887 
  205529   206120   207291   207842   207995   209117   210146   210078 
  211078   213636   215736   216804   216305   214478   214088   215426 
  215559   213610   210984   208149   205019   203323   204575   207186 
  208466   207370   205736   205952   206787   206345   205402   204271 
  203063   203247   204754   206155   206673   206774   208402   211032 
  211605   210458   209674   209455   209674   210052   210366   211129 
  212272   213774   216490   219613   220933   220043   217877   215515 
  213689   212042   210860   210312   208500   205522   204244   204559 
  203955   203098   205016   209454   212788   214290   216233   217727 
  216989   215700   214545   212697   211539   211936   212568   212177 
  210667   209360   209465   210316   209763   206465   202379   200291 
  200038   200537   201666   202762   203187   203949   205596   205952 
  203538   200178   197957   197148   196618   195852   196477   198893 
  200610   200371   199535   199947   202595   206224   208320   208014 
  206757   206920   208384   208774   208079   207564   207451   209037 
  213457   219776   226891   233444   237637   239264   238847   236822 
  234215   231003   226536   221232   215594   210346   206222   203237 
  201592   200437   197626   192795   188018   185135   183687   182339 
  180677   178828   177491   177184   177608   179044   181677   184479 
  186915   189219   191188   192883   195097   197900   200135   201296 
  202286   203890   206458   210046   214511   219570   223304   223883 
  222647   221369   220199   219942   220983   221409   220028   218176 
  217805   219109   219352   216275   211326   206494   202046   197893 
  194050   190844   188711   187743   187699   187926   188383   188982 
  188359   186824   186646   188444   192410   199981   210804   221810 
  229964   233851   233724   231149   228011   226389   228120   231553 
  231990   228004   221897   215355   210564   209860   211416   211099 
  207701   204086   203571   204931   204170   201415   200823   204318 
  209424   212757   213356   211748   208157   204312   203783   207072 
  210201   211233   211987   212658   212299   211263   209933   209079 
  209459   210730   212455   213978   214160   212437   209570   207922 
  209788   214742   220126   222981   220634   213222   205725   202654 
  202913   203620   203791   202553   200083   198831   199444   199868 
  199342   199404   201320   205260   212238   221725   228917   230787 
  229052   225212   219821   214224   210072   208743   209447   209058 
  206574   204614   205579   210012   216379   221683   225359   227873 
  227953   226292   223810   219331   214240   210266   206986   205332 
  204660   202183   197658   191762   185959   183115   183624   186695 
  191152   193770   194650   197840   203114   206431   207434   209308 
  214419   221684   226110   225319   222840   219887   215310   212778 
  213879   213624   210097   205326   200130   194728   187949   179660 
  174510   175810   181570   188621   193527   196063   200241   204450 
  204650   203273   202665   201742   199153   194656   190090   186109 
  181272   176130   173173   173680   177037   182936   191996   202993 
  212595   217886   219071   220197   221997   219930   214954   211894 
  209705   207893   209891   214335   217515   219089   217994   213241 
  207691   205802   210132   217913   223975   226457   225203   222362 
  221375   221672   223140   227160   230797   231492   229757   225606 
  221079   218706   216403   212856   211300   211631   209878   206576 
  204106   201944   200170   200245   202990   206499   207816   208524 
  210348   210412   208771   208685   209482   209929   210332   208461 
  203317   197690   194545   195810   199074   198939   195578   192226 
  189699   189251   191010   193856   198578   202919   203402   203532 
  207745   213416   216083   216841   220426   227460   233975   236749 
  234508   228749   222962   218484   215308   213812   213552   215011 
  219802   226941   232668   234098   231407   226599   221778   219015 
  218567   217401   213602   209451   206372   203120   200859   201968 
  204325   204390   202925   201148   197861   194242   193276   194648 
  195054   192931   190333   187852   183953   180226   178548   178700 
  181313   185217   187530   188718   190366   191662   192734   195455 
  198231   197584   195018   193781   193688   194252   194881   193832 
  192044   192212   195154   200246   205242   208071   209415   209735 
  209283   209858   211603   213687   216529   219142   219764   219868 
  222387   227123   231644   234243   234806   235233   236826   237946 
  237082   234439   230326   225174   219592   214898   213009   213350 
  213625   212874   210780   208582   208781   211403   214618   216909 
  217539   216899   215079   211633   206860   201451   196398   192467 
  189557   188444   189921   192526   195142   198155   201048   203242 
  205044   206219   207141   209742   213669   215430   213347   208457 
  202570   198661   198503   200111   200779   200271   200169   201183 
  202337   203649   205680   206776   205480   202612   198855   194315 
  190086   187982   189471   193885   199721   207737   216736   222161 
  222316   218279   212497   209568   211529   216571   223083   229289 
  233116   233853   231217   226122   221274   218599   218029   218314 
  219202   221205   222804   222349   220175   216708   212412   207727 
  201544   193481   185927   180578   176732   173568   170252   166593 
  164477   165100   167773   172003   176368   178705   179768   182844 
  189158   195356   198595   201603   206565   210806   212062   210936 
  210623   214699   221760   228521   235107   241380   245844   247263 
  243630   235013   225327   218885   217594   219820   222714   225293 
  226524   224281   218541   212815   211162   213874   217924   220863 
  220958   217897   214644   213205   212875   212527   209123   201859 
  196575   197241   201194   204881   206318   205121   202960   201499 
  200964   200411   198860   197285   197388   198795   199934   200041 
  199589   199465   199874   199994   198860   198253   200744   203772 
  204184   204164   205213   205629   205215   204512   203029   200179 
  195280   189391   185239   183661   183635   183644   183120   183716 
  186065   188723   190931   192231   192975   195446   200296   205285 
  208787   211036   213400   216657   219570   222773   229001   235987 
  239452   240292   239288   234549   227322   221065   217425   215415 
  212371   207906   204299   203058   205083   210642   218023   224656 
  229323   232710   235075   235889   236291   237415   238202   237666 
  235533   231151   224678   217554   211198   206723   204973   205014 
  204332   202426   201441   202842   206399   211416   216425   218623 
  216351   211423   206802   204046   203310   203093   202054   201449 
  202110   202629   202527   201402   198051   193923   191380   190317 
  190010   190223   190750   191743   193171   194537   195953   198219 
  200419   200000   196753   192236   187305   184435   186250   191077 
  195485   197763   197681   196379   195349   195787   198853   204003 
  208924   212346   214890   217081   218393   218692   218556   218248 
  218135   218652   218504   214642   206520   198636   194857   193748 
  193121   193236   193947   194490   195248   196757   198972   202087 
  206450   211703   216557   219791   221810   224273   227662   230864 
  233215   234453   233533   230349   226570   222499   216853   210255 
  204824   202060   203426   209234   216607   221954   223759   221723 
  217676   216048   218636   223197   227880   231384   232183   230015 
  225510   220183   215494   210988   206292   202425   200069   199192 
  199492   201120   204428   207736   209217   210721   214618   219258 
  221139   219475   216533   213865   210945   208108   206697   206226 
  205346   204089   202422   199686   196301   192157   186368   181458 
  181605   186836   193645   198502   199914   199276   198400   197865 
  198827   201620   204395   206488   207691   205754   200560   195856 
  194172   194886   197408   201666   205212   205373   203519   202387 
  202476   203326   205703   210695   216724   221306   224583   226949 
  226662   221571   212025   201859   194782   191607   192149   195977 
  201320   206125   209502   211235   211156   209232   205870   202346 
  200483   201640   205594   210185   213423   214702   213277   209443 
  206372   207091   210978   214706   215594   213415   210163   208410 
  208535   208849   208622   208511   209035   210023   210436   209070 
  205884   202290   200957   203868   209144   212781   213068   210895 
  208546   207834   207554   205434   201284   196482   192875   192038 
  194278   198318   202016   204504   207042   210424   213401   215006 
  215867   215829   213415   209106   205226   202178   198802   194975 
  191915   191600   195082   200837   206042   208751   208472   206399 
  205062   205682   206665   206688   206878   207966   208780   208612 
  208256   208982   211192   213993   216711   219389   221388   221699 
  220270   218096   216548   215893   214687   211839   208214   205334 
  203884   203687   203670   203044   202721   203655   205966   209419 
  211826   210229   205092   200102   197379   195423   192730   189813 
  187149   185347   185805   188634   192686   197465   202674   207655 
  212035   215640   218384   219912   219236   216168   212846   211989 
  213471   214846   214868   214071   213246   212775   212591   212295 
  211116   208768   206280   204526   203568   203619   204267   204433 
  204187   204408   205632   208342   212604   217256   220432   221216 
  220188   218259   216501   215849   215580   214264   211802   208873 
  205770   202571   199596   197609   197327   198283   199170   199814 
  201482   204793   208809   212349   214883   216455   217006   216139 
  214539   213365   211819   209044   206198   203806   201038   197693 
  194039   190440   187688   186418   186963   189503   193385   197372 
  200871   203420   203804   201778   198863   196062   193211   190177 
  187269   185466   185754   188228   192693   199041   206758   214460 
  220025   222004   220895   218609   216989   216660   217189   217970 
  218351   218131   218207   219214   220450   220902   220046   217757 
  214129   209344   203768   198273   194247   192758   193830   197221 
  202726   209193   215100   219698   222965   225518   228126   230717 
  232387   232635   232187   231961   232260   233328   234930   236101 
  236192   234597   230448   224078   217156   211432   208169   207099 
  206527   205847   205567   205411   205005   204247   202419   199784 
  198339   199034   200992   203296   204855   204102   200360   194778 
  190061   188412   189465   191747   194878   198490   201120   201867 
  201510   201278   201570   202364   203966   206614   209955   213007 
  214519   213864   211383   207885   204375   201561   199274   197100 
  195497   195597   197852   201450   205549   210062   214785   219189 
  222909   225730   227603   228814   229886   230815   231165   231034 
  230551   229485   227784   225227   221473   216667   211153   205241 
  199447   194524   191072   188993   187686   186582   185111   183294 
  182326   183128   185366   188499   192133   195531   197795   198514 
