Origin Time       2025/01/13 21:19:00
Lat.              31.8
Long.             131.6
Depth. (km)       30
Mag.              6.9
Station Code      MYZH10
Station Lat.      32.0215
Station Long.     131.2900
Station Height(m) -20
Record Time       2025/01/13 21:19:39
Sampling Freq(Hz) 100Hz
Duration Time(s)  214
Dir.              3
Scale Factor      2940(gal)/6170270
Max. Acc. (gal)   11.529
Last Correction   2025/01/13 21:19:24
Memo.             
[...]
   42610    42612    42610    42607    42607    42608    42608    42612 
   42613    42606    42607    42612    42609    42609    42609    42606 
   42607    42611    42610    42608    42608    42615    42616    42609 
   42609    42610    42605    42604    42609    42614    42614    42608 
   42606    42612    42612    42607    42608    42610    42609    42609 
   42609    42609    42612    42611    42608    42611    42612    42607 
   42605    42607    42608    42608    42609    42610    42611    42610 
   42607    42605    42609    42613    42610    42609    42610    42610 
   42613    42613    42609    42610    42612    42611    42608    42607 
   42608    42606    42603    42600    42591    42577    42560    42541 
   42518    42488    42456    42424    42390    42355    42312    42241 
   42138    42017    41924    41924    42070    42327    42533    42540 
   42366    42135    41953    41901    42032    42292    42537    42622 
   42444    42017    41559    41348    41456    41741    42015    42102 
   41916    41607    41458    41599    41923    42233    42424    42504 
   42490    42414    42363    42437    42694    43101    43478    43602 
   43460    43223    43035    42961    43039    43273    43595    43804 
   43703    43372    43108    43081    43205    43336    43422    43447 
   43317    42978    42584    42350    42364    42621    43019    43284 
   43087    42421    41799    41668    41910    42295    42721    42971 
   43056    43237    43351    42974    42174    41460    41165    41207 
   41353    41476    41472    41218    40692    40007    39250    38363 
   37515    37191    37386    37534    37482    37434    37369    37193 
   36966    36854    36923    36973    36929    36953    36886    36448 
   35819    35380    35303    35428    35454    35457    35820    36611 
   37420    37760    37752    38125    39053    39898    40401    40865 
   41167    40906    40375    40270    40683    41288    42097    43264 
   44628    45798    46369    46431    46787    48014    49739    51096 
   51399    50686    49817    49579    49952    50683    51756    52999 
   53955    54154    53340    51820    50293    48965    47661    46904 
   47241    48040    48672    49232    49402    48970    48624    48678 
   48692    48475    48252    48302    48525    48263    46959    45046 
   43882    44281    45840    48020    50148    51005    50427    49625 
   48931    47572    46064    46295    48673    51356    52659    52495 
   51530    50168    48467    46476    44444    42835    42005    41571 
   40561    38661    36348    33909    31715    30374    29928    30213 
   31213    32167    32014    30874    29525    28162    26914    26357 
   26458    26419    26321    27063    28373    29022    28636    27634 
   26381    25287    24700    24590    25050    26597    29186    31434 
   31917    30963    30069    30285    31966    34866    38175    41240 
   43757    45255    45428    44892    45037    46779    49633    52719 
   55603    57711    58707    58782    58082    57331    57572    58617 
   59802    61208    62746    63625    63150    61318    58847    56733 
   55615    55568    56185    56658    56296    54954    52812    50526 
   48973    48130    47591    47450    47194    45683    43213    41499 
   41342    41795    41814    41625    41795    42066    41808    40481 
   38040    35524    34158    34272    35268    35846    35183    33821 
   32602    31873    31728    31852    31557    30794    30387    30708 
   31400    32287    33312    34624    36596    38846    40461    40932 
   40326    39371    38955    39470    40765    42203    43387    44556 
   45755    46561    46735    46620    46833    47506    48289    48773 
   48293    46546    44661    44025    44467    44977    45281    45583 
   45515    44544    42901    41177    39739    38966    38942    39005 
   38621    38176    38110    38156    38232    38616    38898    38640 
   38151    37705    37760    38920    40624    41854    42431    42384 
   41643    40392    38956    38098    38640    40502    43151    45617 
   46438    45701    44878    44512    44677    45754    47758    50130 
   51888    52709    53237    53316    52077    49670    47336    46102 
   45518    44767    44505    45267    46015    45674    43849    40847 
   37959    36007    34352    32353    30813    31240    33737    36755 
   38975    39995    40238    40658    41233    41355    41491    41920 
   42014    41635    40766    39644    39664    41193    42685    43105 
   42394    40715    38559    36681    35923    36457    37715    39606 
   42064    44242    45536    45835    45042    43473    41867    40741 
   40002    39367    39012    39189    40183    42668    46184    49077 
   51152    52541    51547    48164    45669    46232    49312    53507 
   57324    59902    61385    62424    63365    63339    61810    60294 
   60359    61413    61153    58201    54291    51674    49762    47003 
   43515    40532    38852    37918    36411    34026    32012    31787 
   33199    34751    35702    36183    35578    33288    30073    27337 
   26378    27749    30312    32260    33029    33168    33106    32918 
   33169    34624    36940    39292    41121    41518    40094    38071 
   37144    37534    37669    36781    36637    38460    40395    40483 
   39182    37566    35954    34600    33732    33222    33298    34910 
   38277    41654    43297    44107    45763    47662    48588    48789 
   48926    49509    50637    51467    51268    50034    48163    46806 
   47083    48774    50744    51928    51501    48903    44895    41918 
   41525    43089    45858    49128    51255    51192    49070    45253 
   41084    38559    38215    38982    39596    39822    40440    41817 
   43356    44067    43665    43450    44771    47140    49077    49854 
   50081    50613    51205    51261    51150    51805    53354    54482 
   53561    50162    45459    41322    38749    37872    38798    40894 
   42506    42659    41893    40728    38719    35891    33717    33400 
   34310    35480    37076    39335    41696    43305    43848    43732 
   43137    42387    42446    42540    40730    37815    35872    34931 
   34222    33643    33711    35179    37902    40801    42360    41167 
   37726    34247    31920    30518    30008    30834    32937    35303 
   37006    38014    38634    39159    39518    39391    39464    40335 
   40780    40033    39238    39289    40331    42645    45903    49128 
   51657    52944    52693    51436    49693    47556    45744    45417 
   47008    49976    52745    53402    51660    49095    47323    46924 
   47472    48217    48642    48189    46687    44707    42823    41933 
   43134    45612    47008    46530    45354    44356    43430    42553 
   42161    42328    42249    41337    40315    40021    40266    40742 
   41325    41641    41507    41016    40586    41153    42795    43935 
   43182    41020    39136    38637    39341    40498    41711    43050 
   44252    44635    44203    43536    42987    42813    43060    43188 
   42715    41923    41277    40724    40286    40256    40636    41476 
   42740    43674    43927    44030    44069    43941    44223    45246 
   46436    46946    46309    44891    43695    43272    43455    44289 
   45892    47061    46065    43530    41836    41824    42767    43768 
   43814    42698    41511    41122    41715    43247    45454    48347 
   51287    52578    52270    51894    51411    50166    48453    46923 
   46640    48196    50273    51381    51533    50745    48637    45739 
   43158    41744    41842    42882    43794    44033    43217    40741 
   37350    35144    35119    36826    39440    41869    43406    44068 
   43767    42814    42153    41874    42237    44602    48218    50185 
   49606    47634    44897    41713    39148    38107    38119    38275 
   38729    40044    41539    41668    40261    38876    38791    40413 
   43905    48498    51869    52260    50872    49628    48384    46847 
   45831    45867    47043    48441    47678    43792    39106    36527 
   36727    38008    38125    37023    36472    36546    35667    33680 
   31996    31872    33310    35029    36124    36551    35748    33284 
   30407    29209    30682    34067    38066    41663    43259    41640 
   37932    34353    32512    33068    35094    37327    39927    42917 
   44860    44638    42896    41301    40997    41932    43436    44876 
   46140    47325    47804    47306    46955    47421    47952    47550 
   45851    43407    40911    38747    37770    38540    40135    41186 
   41164    40411    39508    38798    38776    40016    42345    45363 
   48887    51672    51977    49949    47007    44177    42715    43511 
   45195    45675    44761    43228    41326    39433    38429    38964 
   40614    42096    42658    42409    41588    40385    39297    39138 
   40155    41751    43340    44295    44048    42928    41713    40983 
   40952    41174    41305    41797    42984    44169    44292    43460 
   42778    42525    42172    41835    41783    41294    39739    38119 
   38069    39717    41725    43140    43927    43855    42399    40055 
   38358    38284    39495    40811    41156    40599    39776    38596 
   37137    36361    36454    36518    36338    36480    37254    38871 
   41332    44060    46532    48488    49608    49887    49775    49679 
   49667    49380    48477    47251    45843    43587    40638    38377 
   37144    36250    35867    36490    37854    39335    40036    39366 
   38251    38107    39105    40726    42593    44375    45646    45762 
   44903    44730    46488    49691    52659    53806    53341    52499 
   51537    50305    49192    48819    49506    50782    52025    53017 
   53342    52898    52428    52281    52003    51196    50104    49390 
   49223    49617    51174    53878    56438    57658    57530    56763 
   55663    54197    52539    50903    49791    49583    49460    48340 
   46074    43034    39757    36700    34317    33527    34517    35525 
   34912    33258    31813    30966    31198    32799    34925    36962 
   38851    39752    38786    36277    33791    33237    34821    37122 
   39656    42696    45614    47681    48806    49139    49222    49625 
   50358    51225    52072    52950    54033    54792    54169    51489 
   46706    41059    36816    35141    35583    37485    40123    42363 
   43427    43183    41855    39848    37334    34562    31973    29548 
   27521    26568    26547    27185    28651    30030    30008    28865 
   27752    27741    29647    32820    35262    35638    34157    31798 
   29245    27394    27885    30881    34333    37000    39390    41712 
   43340    43578    42193    39960    37934    36225    34970    35012 
   36667    39524    42695    44630    44220    42135    40547    41183 
   44005    48076    52620    56855    59527    59604    57477    54477 
   51865    50842    52014    54443    56410    57248    57292    56442 
   54531    52428    50993    49916    48556    46489    43639    40718 
   38515    37275    36886    36693    36142    35551    35294    35327 
   35677    36089    36179    36809    39049    41793    42757    41206 
   38949    38487    39750    40508    40336    40999    42965    44888 
   46011    46666    47467    48759    50346    52092    53998    55562 
   56126    55646    54754    53974    53329    52824    52626    52917 
   53311    52609    50250    47163    44648    43237    42312    40746 
   38112    34778    31514    29374    28610    28050    26810    25483 
   24748    24331    24286    26162    31530    39393    46123    48530 
   46396    41535    35501    29323    24506    22819    25260    31669 
   40480    48509    52124    49692    43327    37508    34990    35471 
   38515    44399    51724    57714    60560    59716    56536    54577 
   55802    58545    60780    61827    61568    60454    59148    58156 
   57506    56096    53411    50990    49752    48220    44873    40656 
   38460    39408    40887    40913    40916    41235    40422    40194 
   42796    45267    43352    37714    32115    29243    30535    35357 
   39519    40295    40818    43895    45893    42043    34805    32134 
   37111    44272    48359    49799    49915    48792    47282    45890 
   44223    41866    38450    35464    35615    38233    40201    41093 
   42419    44106    44912    43932    41289    38929    39143    41805 
   45241    48259    49798    49817    50006    51296    53442    56108 
   58069    58156    56336    53704    53157    56012    59232    59882 
   57531    52543    46185    40135    35850    34699    36154    37819 
   38071    36010    31464    26702    24010    22601    21092    20375 
   21815    24233    25516    26022    26509    26127    25126    24777 
   25558    28453    34093    40090    43220    43195    42718    44753 
   49143    53063    55410    57102    57607    55102    49150    41793 
   37030    37864    42928    48125    51080    51783    50082    45378 
   38956    33859    31927    33399    38472    46503    55041    61376 
   63998    63120    60563    58060    55784    52674    48393    44994 
   44593    46403    48235    48369    46110    42632    39087    35053 
   31422    30753    33544    37541    39867    39488    38210    37086 
   34765    31502    29304    28926    30460    33297    35439    36163 
   36586    36419    34664    33053    34294    38172    41935    43669 
   44062    44466    45019    45980    48817    54497    61489    66450 
   66811    62658    56699    51750    48519    47021    47685    49745 
   51190    50442    47282    43330    40905    40613    41410    42056 
   41379    39276    37215    36066    35379    35412    37084    39366 
   39785    38169    36353    35146    35318    37991    41821    44166 
   44142    41811    37674    34192    34035    36671    39763    42186 
   43532    43498    42089    39445    37024    36836    38678    41089 
   42959    42551    39076    35165    33711    34100    34432    34664 
   35755    37890    40364    42137    42850    43706    45636    47477 
   48122    48158    48443    49243    50426    51509    51982    51867 
   51474    50651    49298    47746    45721    43079    40737    38622 
   35659    32611    31159    31130    31855    33902    37434    41333 
   44445    46553    48337    50080    51096    50717    48916    46563 
   44636    43050    41699    40965    40218    38434    35989    34084 
   33427    33798    34617    36056    38641    42231    46285    50176 
   53353    55768    57170    56805    54957    52690    50273    47794 
   45342    42598    40081    38635    37632    36174    34598    33379 
   32604    32675    33790    35511    37531    39900    42673    45394 
   46929    46616    44854    42376    40197    39264    39501    40127 
   40274    39646    38695    36896    33182    28909    26990    28607 
   32667    37278    41043    43332    43995    43429    42541    42075 
   42115    42616    43773    45306    46523    47312    47885    48493 
   49927    52257    53792    53254    51139    48553    46103    44035 
   43475    45174    47036    47010    46276    46242    46129    44981 
   42871    40324    37974    35672    32838    30517    30517    32888 
   36522    41027    46412    51381    53553    52512    50619    49691 
   49928    51732    54888    57504    58249    57665    56410    54453 
   52487    51846    52144    51374    48882    45825    42951    40119 
   37512    35920    35956    37101    37932    38286    39605    41845 
   43062    42409    40805    39794    39997    39749    37295    33574 
   30696    29446    28998    28290    27594    27722    28593    30032 
   31953    33665    35065    37100    39962    42899    45381    46877 
   47448    48378    50397    53446    57435    61156    63609    65153 
   64739    60753    54423    48013    42573    38755    36665    35564 
   34551    32974    31232    30697    32238    35785    40346    43963 
   45380    45002    43246    39894    35456    31804    30760    32098 
   34069    35367    35340    34013    32424    31470    31178    31566 
   32838    34830    36828    37806    37407    36460    36047    36615 
   38092    40530    44210    48890    53636    57553    60226    61574 
   61795    61210    59648    56870    53717    51513    50578    49960 
   48372    45510    42024    38398    35168    33354    33443    34734 
   35971    36551    36707    36374    35374    34295    33966    35114 
   38112    41804    44282    45240    45643    46106    47051    48875 
   51429    53948    55311    54585    51706    48055    45725    45339 
   46096    47579    49315    50098    49194    46688    43002    39268 
   36699    35077    33241    30718    28227    26802    26517    26603 
   26609    26749    27282    27908    28256    28710    29891    31900 
   34516    37477    40578    43575    46123    48254    50575    53531 
   56669    59020    60031    59790    58769    57538    56231    54546 
   52576    51039    50398    50285    49842    48476    46491    44713 
   43696    43805    45185    47123    48523    49119    49142    48536 
   47496    46365    45157    44378    44663    45381    45527    45048 
   44204    43386    43417    44425    45663    46779    47838    48636 
   48485    46697    43702    40863    39263    39467    41248    43097 
   43358    41833    39220    35723    31549    27944    26302    26674 
   28102    30085    32456    34354    34935    34463    33703    33013 
   32314    31498    30645    29842    29291    29274    29421    29284 
   29271    29641    30236    31265    32691    33971    34855    35746 
   37316    39604    41994    44042    45430    46034    46458    47368 
   48930    50979    52665    53233    53374    53963    54439    53820 
   52218    50316    48479    47101    46600    46882    47521    48071 
   48364    48610    48858    48842    48265    46870    44892    42978 
   41280    39890    39503    40253    41510    43130    45063    46669 
   47499    47746    47666    46978    45412    43657    42839    43384 
   44978    47191    49765    52440    54630    55673    55606    55142 
   54954    55383    56235    57058    57748    57987    56863    54064 
   50306    46321    42412    38759    35694    33591    32657    32981 
   34039    34626    34054    32169    28810    24660    21204    19455 
   19423    20515    22472    25387    28769    31628    33331    34256 
   35318    36346    36288    35030    33504    32603    32640    33593 
   35484    37594    38523    38172    37639    37410    37774    39380 
   41999    44570    46477    47386    46880    44989    42160    39101 
   37123    37403    39600    42352    44787    46660    47920    48665 
   49111    49754    51231    53267    54621    54755    54174    53137 
   51802    50818    50566    50907    51687    52800    54085    55012 
   54977    54200    53205    51862    49956    47780    45679    43900 
   42601    41559    40899    41398    42759    43592    43383    42362 
   40640    38739    37322    36577    36678    37574    38680    39815 
   41227    42623    43461    43813    44273    45470    47443    49392 
   50695    51511    51811    51243    50003    48598    47284    46142 
   45085    43927    42743    42068    42507    43903    45412    46563 
   47449    48051    48079    47334    46064    44833    43751    42462 
