Origin Time       2025/01/13 21:19:00
Lat.              31.8
Long.             131.6
Depth. (km)       30
Mag.              6.9
Station Code      MYZH11
Station Lat.      32.0208
Station Long.     131.4700
Station Height(m) -200.3
Record Time       2025/01/13 21:19:38
Sampling Freq(Hz) 100Hz
Duration Time(s)  300
Dir.              1
Scale Factor      3923(gal)/8224838
Max. Acc. (gal)   32.449
Last Correction   2025/01/13 21:19:38
Memo.             
[...]
   -4793    -4792    -4793    -4793    -4792    -4793    -4796    -4793 
   -4789    -4792    -4795    -4791    -4788    -4793    -4797    -4796 
   -4795    -4792    -4792    -4792    -4791    -4792    -4796    -4793 
   -4789    -4792    -4795    -4791    -4789    -4792    -4793    -4793 
   -4791    -4792    -4796    -4793    -4792    -4795    -4792    -4788 
   -4792    -4793    -4792    -4791    -4792    -4792    -4792    -4793 
   -4793    -4789    -4791    -4795    -4793    -4791    -4792    -4791 
   -4791    -4793    -4793    -4792    -4792    -4795    -4796    -4792 
   -4789    -4789    -4792    -4793    -4792    -4789    -4792    -4793 
   -4792    -4793    -4795    -4793    -4791    -4791    -4793    -4793 
   -4789    -4791    -4793    -4792    -4792    -4791    -4787    -4789 
   -4795    -4795    -4792    -4791    -4792    -4793    -4789    -4787 
   -4792    -4795    -4792    -4791    -4791    -4793    -4793    -4793 
   -4796    -4795    -4791    -4792    -4792    -4791    -4792    -4791 
   -4791    -4792    -4792    -4792    -4793    -4792    -4791    -4791 
   -4792    -4792    -4791    -4792    -4795    -4793    -4792    -4793 
   -4795    -4793    -4792    -4792    -4795    -4791    -4789    -4795 
   -4793    -4791    -4792    -4792    -4796    -4796    -4791    -4791 
   -4793    -4791    -4791    -4795    -4796    -4791    -4791    -4795 
   -4792    -4789    -4791    -4791    -4792    -4796    -4795    -4792 
   -4792    -4792    -4795    -4795    -4791    -4788    -4792    -4797 
   -4793    -4789    -4792    -4795    -4793    -4791    -4792    -4795 
   -4792    -4789    -4792    -4793    -4792    -4795    -4792    -4792 
   -4796    -4793    -4791    -4793    -4795    -4793    -4793    -4791 
   -4788    -4791    -4795    -4793    -4791    -4792    -4792    -4792 
   -4789    -4791    -4796    -4793    -4788    -4791    -4793    -4791 
   -4792    -4793    -4793    -4796    -4793    -4791    -4795    -4795 
   -4791    -4791    -4791    -4791    -4793    -4792    -4789    -4791 
   -4792    -4792    -4793    -4792    -4792    -4792    -4795    -4796 
   -4791    -4788    -4792    -4792    -4789    -4792    -4792    -4787 
   -4787    -4792    -4793    -4792    -4792    -4791    -4788    -4789 
   -4792    -4792    -4795    -4795    -4791    -4791    -4791    -4789 
   -4791    -4793    -4796    -4796    -4789    -4792    -4796    -4792 
   -4792    -4795    -4791    -4788    -4792    -4792    -4795    -4793 
   -4788    -4788    -4795    -4795    -4791    -4791    -4793    -4792 
   -4791    -4793    -4796    -4792    -4791    -4793    -4791    -4792 
   -4795    -4791    -4792    -4795    -4792    -4792    -4793    -4789 
   -4791    -4793    -4792    -4791    -4792    -4795    -4793    -4792 
   -4792    -4795    -4793    -4791    -4792    -4797    -4795    -4789 
   -4791    -4793    -4792    -4793    -4796    -4797    -4793    -4792 
   -4793    -4795    -4793    -4795    -4795    -4795    -4793    -4792 
   -4793    -4796    -4792    -4789    -4792    -4795    -4792    -4789 
   -4791    -4796    -4793    -4789    -4792    -4795    -4791    -4791 
   -4793    -4793    -4792    -4795    -4795    -4793    -4792    -4792 
   -4789    -4791    -4795    -4793    -4791    -4792    -4791    -4792 
   -4793    -4792    -4791    -4792    -4795    -4797    -4795    -4793 
   -4795    -4793    -4791    -4791    -4793    -4795    -4793    -4791 
   -4793    -4795    -4789    -4789    -4793    -4792    -4791    -4793 
   -4795    -4795    -4792    -4791    -4792    -4792    -4793    -4796 
   -4795    -4792    -4791    -4795    -4797    -4795    -4792    -4795 
   -4793    -4791    -4791    -4792    -4793    -4792    -4792    -4795 
   -4795    -4792    -4795    -4796    -4795    -4793    -4795    -4793 
   -4791    -4792    -4795    -4795    -4795    -4793    -4792    -4791 
   -4789    -4791    -4795    -4796    -4793    -4792    -4793    -4793 
   -4793    -4792    -4792    -4795    -4795    -4791    -4789    -4789 
   -4791    -4796    -4796    -4792    -4793    -4796    -4793    -4792 
   -4792    -4793    -4793    -4793    -4793    -4795    -4796    -4793 
   -4792    -4795    -4796    -4793    -4789    -4791    -4793    -4792 
   -4791    -4792    -4792    -4789    -4792    -4795    -4791    -4788 
   -4793    -4797    -4793    -4792    -4797    -4795    -4789    -4793 
   -4795    -4789    -4791    -4796    -4795    -4791    -4791    -4793 
   -4793    -4795    -4795    -4795    -4792    -4789    -4792    -4795 
   -4792    -4792    -4793    -4791    -4795    -4799    -4793    -4789 
   -4789    -4791    -4793    -4792    -4792    -4795    -4793    -4793 
   -4795    -4791    -4789    -4791    -4793    -4793    -4789    -4791 
   -4795    -4789    -4787    -4789    -4792    -4791    -4791    -4791 
   -4792    -4793    -4788    -4788    -4795    -4793    -4789    -4792 
   -4795    -4796    -4793    -4791    -4793    -4795    -4791    -4789 
   -4789    -4789    -4789    -4792    -4793    -4792    -4795    -4803 
   -4812    -4835    -4877    -4939    -5015    -5097    -5177    -5224 
   -5209    -5131    -5016    -4899    -4792    -4700    -4637    -4614 
   -4629    -4656    -4673    -4689    -4756    -4884    -5017    -5127 
   -5235    -5292    -5206    -4990    -4796    -4762    -4862    -4999 
   -5148    -5304    -5379    -5282    -5003    -4637    -4382    -4391 
   -4577    -4729    -4752    -4599    -4252    -3817    -3484    -3385 
   -3546    -3883    -4249    -4538    -4712    -4733    -4668    -4758 
   -5155    -5692    -6052    -6160    -6200    -6118    -5773    -5526 
   -5725    -6025    -5988    -5768    -5686    -5632    -5347    -4905 
   -4561    -4382    -4280    -4218    -4213    -4337    -4606    -4857 
   -4932    -4882    -4753    -4499    -4182    -3928    -3828    -4009 
   -4442    -4860    -5136    -5325    -5302    -5030    -4938    -5352 
   -5871    -5999    -5821    -5545    -5148    -4722    -4531    -4752 
   -5375    -6147    -6671    -6876    -6941    -6731    -6161    -5637 
   -5356    -5269    -5544    -5995    -6116    -6003    -6142    -6546 
   -6732    -6438    -5958    -5586    -5135    -4438    -3829    -3618 
   -3510    -3291    -3423    -4190    -5139    -5746    -5958    -5938 
   -5668    -5178    -4795    -4639    -4495    -4364    -4541    -5208 
   -6143    -6733    -6651    -6297    -6093    -5817    -5271    -5070 
   -5805    -6870    -7207    -6810    -6370    -5899    -5023    -4195 
   -4082    -4398    -4576    -4758    -5217    -5636    -5833    -6259 
   -7006    -7483    -7485    -7361    -6870    -5452    -3862    -3584 
   -4523    -5310    -5597    -6011    -6380    -5985    -4980    -4226 
   -4384    -5406    -6534    -7204    -7550    -7396    -6174    -4403 
   -3566    -4031    -4611    -4608    -4618    -5096    -5879    -6864 
   -7662    -7503    -6438    -5400    -4872    -4772    -5274    -6559 
   -8005    -8521    -7705    -6280    -5382    -5417    -5848    -6097 
   -5961    -5316    -4114    -2643    -1613    -1818    -3400    -5572 
   -7141    -7461    -6752    -5368    -3539    -1976    -1568    -2586 
   -4588    -6520    -7441    -7565    -7782    -8364    -8779    -8478 
   -7415    -5940    -4692    -4199    -4284    -4533    -4827    -4861 
   -4438    -4201    -4486    -4455    -3881    -4062    -5553    -6880 
   -6648    -5495    -4909    -5104    -5367    -5836    -7109    -8573 
   -8845    -7520    -5659    -4873    -5674    -6727    -6438    -4823 
   -3310    -2816    -2809    -2857    -3342    -4171    -4896    -5594 
   -6447    -7385    -7996    -7368    -5216    -2917    -1934    -2115 
   -3114    -5593    -9104   -11437   -11408    -9721    -7319    -4768 
   -2628    -1796    -2547    -3812    -4926    -5938    -5792    -3732 
   -1471     -631     -475     -297     -864    -2450    -4237    -5944 
   -7780    -8930    -8491    -7555    -7709    -8359    -8415    -8634 
   -9713   -10679   -10473    -9120    -7159    -4942    -3176    -2997 
   -4024    -4302    -3458    -3019    -3173    -2631    -1691    -1753 
   -2124    -1545    -1290    -2230    -2616    -1988    -2242    -4347 
   -7479   -10154   -11448   -11821   -12033   -11329    -8438    -4349 
   -1892    -2253    -3781    -4986    -6770    -9661   -11153    -9274 
   -6427    -5883    -6778    -5968    -3168    -1080     -927    -1243 
   -1381    -2308    -3883    -4972    -5175    -4583    -3852    -4349 
   -6158    -7607    -7770    -7385    -7186    -7381    -8136    -9034 
   -9136    -8176    -6708    -5304    -4673    -5751    -7816    -8364 
   -7229    -7044    -7916    -7234    -4977    -2990     -934     1661 
    2731      480    -3676    -6762    -7817    -8264    -8985    -8561 
   -5769    -2889    -2787    -4430    -5641    -6724    -7843    -7307 
   -5250    -4715    -6863    -8850    -8229    -6102    -4220    -2273 
    -178       90    -2128    -3700    -2756    -2659    -5560    -8145 
   -7846    -6220    -5296    -5016    -3746    -1104      297    -1819 
   -6238    -9927   -10687    -8480    -5815    -5408    -6988    -8217 
   -8351    -9032   -10234    -8561    -3033     1935     2929     2524 
    4021     4453     -149    -5898    -7194    -5915    -6076    -7547 
   -8866    -8542    -5022     -625      -51    -2479    -2749    -1493 
   -4752   -11367   -13304   -10604    -9728    -9751    -6251    -1312 
     939      561     -503    -1350    -2006    -2986    -5046    -7226 
   -6467    -3277    -2423    -4256    -4652    -3264    -2484    -2045 
   -1507    -2493    -4147    -3913    -3161    -3388    -2474     -723 
   -1651    -4557    -4752    -1814     -525    -2964    -5814    -6033 
   -5119    -5509    -5390    -2679     -207     -291    -1186    -2452 
   -4814    -5547    -2721       33     -452    -1960    -2462    -3707 
   -5892    -6378    -5198    -4067    -2408     -372     -236    -2401 
   -4673    -5697    -6529    -7492    -6458    -3397    -2029    -3751 
   -4904    -3060    -1024    -1065    -1243     -637     -619       -2 
    3018     5773     5463     4617     6535     9940    11452    10254 
    7534     3244    -2660    -8170   -11861   -14499   -16301   -15901 
  -12792    -8224    -3878     -676     1255     1169    -1271    -3414 
   -2775    -1522    -3203    -6504    -7130    -5162    -4179    -4637 
   -4310    -2168      260     -754    -5802    -8874    -5921    -1892 
   -2284    -4981    -6230    -6590    -7823    -9532    -9541    -6448 
   -1156     4321     7144     5665     3226     3202     2432    -2242 
   -8091   -12438   -14632   -12877    -7443    -2230      446     2292 
    4718     5100     1711    -2177    -4226    -5162    -3983      369 
    5039     6667     6025     5548     3931    -1435    -7618    -9783 
   -9256   -10197   -12926   -15095   -15896   -17666   -22401   -27538 
  -28772   -24090   -13905    -1950     6056     8502     9454    12120 
   14523    14862    15433    15921    11676     1966    -9620   -20467 
  -28128   -30726   -28578   -21231    -9425      465     3214     2633 
    5417     9894     9304     5381     5536     9099    10584     9227 
    6633     4099     2974     1779    -1871    -5983    -7564    -7533 
   -8201   -10008   -11607   -12202   -12941   -14489   -15433   -14222 
  -11017    -6953    -2000     4266     9431    10173     7620     5387 
    3019    -2315   -10003   -18895   -30728   -44398   -53959   -54868 
  -46932   -33772   -22380   -18847   -22152   -25111   -23483   -20025 
  -16761   -10524     -562     8158    13620    19727    27379    31706 
   30098    25269    19957    14234     8518     4873     3906     3936 
    3967     3720     2112     -646    -2616    -3434    -4199    -4598 
   -3588    -1725      247     4159    11870    20663    25764    25151 
   19236    10532     2601    -4429   -12849   -21716   -27814   -30319 
  -30021   -27299   -24003   -23053   -24777   -27595   -31607   -37058 
  -40942   -40282   -37077   -34844   -32152   -25735   -18015   -14559 
  -16208   -19592   -23176   -28031   -33307   -34789   -29338   -18640 
   -7037     2818    10435    15234    16181    13470     8826     4270 
    2070     3731     8174    14137    21600    28711    32397    32188 
   30179    28104    26480    26323    28094    29258    27544    23961 
   19194    11091    -1981   -17032   -27769   -30646   -27445   -21774 
  -15539    -9381    -5358    -6319   -11307   -16675   -21876   -27727 
  -32761   -36498   -40178   -42700   -40986   -33280   -20587    -7260 
     298    -1306    -8499   -14704   -17733   -19384   -19539   -15842 
   -8124      387     6585    11153    16835    22944    24568    18218 
    6496    -3562    -6012     -230     8650    13563    11952     8999 
   11766    19701    25767    27086    27232    28314    27812    23527 
   17219    11344     4970    -3825   -13491   -20210   -22847   -24239 
  -27103   -30260   -30423   -26551   -19857   -11566    -3554     1548 
    2138    -1817    -9004   -18400   -29948   -40670   -43653   -34588 
  -17284     -792     9396    15196    19438    21070    19152    14625 
    8206     1324    -4387    -8383    -8812    -3715     4537    10008 
    7809    -2103   -14343   -21998   -21181   -12946    -3626    -1559 
   -8703   -16862   -17766   -13348    -8397    -2027     4837     5718 
   -2508   -14539   -21806   -21825   -18825   -15638   -12771   -11875 
  -14860   -22906   -34300   -42595   -40855   -26507    -3863    16279 
   25038    23970    21157    20046    18198    15994    16741    21161 
   28291    32508    23646      723   -26887   -52587   -70984   -72820 
  -55424   -28769    -6280     5410     8330     7842     9281    15655 
   23448    27051    25936    22210    16565     9034      540    -8687 
  -20164   -33165   -42928   -45274   -40805   -33581   -26476   -19982 
  -15638   -16147   -19421   -19448   -16877   -18665   -24899   -27583 
  -23414   -16908   -10966    -4141     4212    13096    21492    28090 
   31283    29505    22939    16214    15079    18928    22037    21455 
   17818    12475     8243     7576     9288    10211     8738     6631 
    7029    10643    16258    20885    18652     7736    -4893   -11892 
  -12523    -9882    -6702    -4491    -3743    -3349    -1545     1453 
    3917     6457    12226    20517    23383    14107    -3357   -20038 
  -32289   -38198   -33705   -21770   -13076   -12233   -14466   -15323 
  -14465   -12833   -11653   -10439    -6673     -619     5205     9744 
   11462     8521     1166    -9593   -21852   -30732   -31888   -27128 
  -21138   -15495    -9926    -4461      770     5921    12046    18384 
   20133    14844     8182     6762     8731     8950     9339    15072 
   25251    35125    41608    42223    35869    25963    16810    10377 
    8662    11342    13574    11470     5347    -1603    -5979    -8171 
  -11597   -17713   -24408   -28601   -30404   -33052   -37135   -39954 
  -40891   -41958   -44562   -47692   -48674   -47563   -47495   -48378 
  -46762   -41774   -34375   -24050   -11311      724     9089    13032 
   14384    15178    14879    12838     9385     2440    -9413   -21494 
  -28082   -28856   -26007   -20938   -15363   -10720    -6285     -638 
    5100     7823     6343     3149     1644     2176     3933     8453 
   15259    20008    21374    22023    22096    18763    12455     7483 
    5309     3208     -826    -6787   -12303   -12949    -8964    -7537 
  -12830   -19564   -21262   -20089   -22999   -31328   -39730   -43641 
  -43453   -41405   -37396   -29920   -19969   -10966    -4309     1744 
    7265     8403     3850     -607     -811     -715    -2790    -2928 
     765     5004     6575     4587       54    -4895    -8236    -9795 
  -10990   -10804    -6482     -820     -820    -6334    -9279    -7358 
   -8212   -14864   -18223   -11712    -2504      351      368     6473 
   15403    14345     2104    -8403   -10261    -8827    -9323   -10624 
  -10223    -9144   -10139   -13174   -15730   -15979   -14065   -11607 
   -9089    -4175     3977    10874    11460     6795     2498      846 
   -1306    -5364    -8819   -11292   -14512   -17763   -19344   -18617 
  -15535   -12933   -14933   -19232   -18593   -12210    -8002   -10781 
  -14301   -10747    -2069     4197     3543    -2721    -8706   -10687 
  -10956   -12019   -14092   -17356   -19354   -16348    -9842    -3939 
    -187     1559     3053     5096     4504      -20    -4270    -4822 
   -2759    -1020    -1479    -3434    -4700    -3784    -1316     -471 
   -2474    -4284    -5120    -7878   -12694   -16668   -19213   -23349 
  -29965   -33154   -27143   -15179    -3935     5802    14833    19708 
   18636    15441    12564     7142    -1890    -9551   -12363   -13081 
  -14357   -15079   -14260   -12198    -7882     -438     7107     9693 
    6165     1765     2490     6728     9066    11250    18195    26462 
   29006    27025    26087    26256    25413    24621    23568    18049 
    6450    -5976   -13987   -18979   -22554   -21112   -13401    -5094 
   -2473    -5935    -9427    -8297    -6208    -6822    -6334    -3069 
   -2033    -4536    -5451    -1615     4818    10773    14841    14782 
    8526    -1077    -8569   -12841   -17045   -22901   -29633   -37212 
  -46172   -54356   -57114   -51502   -39216   -25816   -15834    -8800 
   -3087      -40     -554    -2207    -2686    -3589    -8178   -15128 
  -18355   -14450    -5679     3720     9603    10126     7165     1119 
   -9130   -18469   -19388   -13938   -12009   -17054   -20251   -13734 
   -4294    -3083    -7622    -8054    -3377      190      174      604 
    4326     6610     2983    -1544    -1131     1155     1656     2732 
    6427    11411    14794    13104     5726    -3045    -8228    -9610 
  -10760   -13139   -15009   -14881   -13451   -12754   -12564   -10417 
   -6500    -3686    -2484       -5     4545     7047     3843    -3686 
  -11989   -19165   -23642   -23322   -19462   -16083   -13513    -9013 
   -2805     3233     9263    14401    15286    11826     8617     8090 
    7519     4530     1270      545      827    -1324    -5036    -5487 
    -928     4847     7524     5985     2435     1470     5707    12569 
   18549    22515    23839    22041    17984    14445    13822    13203 
    7214    -2349    -8093    -8067    -6813    -8625   -14412   -20345 
  -22245   -22356   -23538   -23369   -21244   -20952   -22945   -22127 
  -15256    -6407    -1749    -1605    -2054    -2351    -5506   -11338 
  -15966   -19040   -22790   -26114   -26500   -23242   -17293   -10899 
   -5923    -2373      915     5040     9904    13621    13790     9483 
    1617    -7126   -12822   -13513   -10571    -5730     -496     2733 
    1795    -3785   -10901   -15093   -16933   -19701   -22331   -21948 
  -19272   -16595   -13487    -7334     2012    10440    14177    13400 
    9425     3138    -2201    -2787      850     5752    10238    12540 
   10034     2238    -7303   -14397   -18411   -20575   -21174   -20726 
  -20042   -19043   -18253   -18809   -19577   -17867   -13556    -9362 
   -6872    -4953    -2280      777     3395     6073    10183    16032 
   22513    27947    30256    28746    25357    21502    16020     8019 
    -334    -5783    -7366    -4977     1351     7545     7372      -95 
   -9477   -15542   -18354   -20999   -24050   -24653   -20796   -14496 
   -9501    -7514    -7184    -6054    -4556    -4958    -5370    -1876 
