Origin Time       2025/01/13 21:19:00
Lat.              31.8
Long.             131.6
Depth. (km)       30
Mag.              6.9
Station Code      MYZH11
Station Lat.      32.0208
Station Long.     131.4700
Station Height(m) -200.3
Record Time       2025/01/13 21:19:38
Sampling Freq(Hz) 100Hz
Duration Time(s)  300
Dir.              3
Scale Factor      3923(gal)/8224838
Max. Acc. (gal)   19.833
Last Correction   2025/01/13 21:19:38
Memo.             
[...]
  -53725   -53719   -53724   -53730   -53725   -53724   -53728   -53725 
  -53725   -53728   -53730   -53728   -53725   -53725   -53727   -53728 
  -53725   -53723   -53725   -53727   -53725   -53728   -53727   -53724 
  -53724   -53727   -53728   -53727   -53725   -53725   -53727   -53730 
  -53725   -53721   -53727   -53730   -53724   -53723   -53725   -53727 
  -53724   -53725   -53725   -53721   -53721   -53728   -53728   -53725 
  -53728   -53730   -53728   -53728   -53728   -53724   -53725   -53727 
  -53725   -53727   -53731   -53728   -53723   -53725   -53730   -53727 
  -53730   -53730   -53725   -53724   -53724   -53727   -53730   -53728 
  -53725   -53727   -53730   -53730   -53725   -53725   -53730   -53731 
  -53727   -53727   -53727   -53728   -53728   -53727   -53728   -53728 
  -53728   -53730   -53728   -53727   -53728   -53728   -53724   -53724 
  -53727   -53725   -53723   -53724   -53728   -53727   -53724   -53724 
  -53725   -53727   -53725   -53724   -53727   -53728   -53727   -53724 
  -53723   -53725   -53728   -53727   -53724   -53724   -53723   -53724 
  -53725   -53724   -53728   -53731   -53727   -53721   -53724   -53727 
  -53725   -53725   -53730   -53728   -53725   -53725   -53727   -53727 
  -53725   -53728   -53728   -53725   -53727   -53727   -53727   -53730 
  -53725   -53725   -53728   -53724   -53723   -53727   -53724   -53724 
  -53725   -53724   -53723   -53725   -53728   -53730   -53725   -53723 
  -53728   -53732   -53727   -53723   -53727   -53730   -53725   -53721 
  -53724   -53724   -53721   -53723   -53725   -53730   -53728   -53724 
  -53725   -53728   -53727   -53727   -53730   -53727   -53724   -53724 
  -53723   -53725   -53725   -53725   -53727   -53725   -53724   -53725 
  -53724   -53725   -53725   -53725   -53727   -53725   -53725   -53725 
  -53721   -53723   -53728   -53727   -53725   -53730   -53728   -53724 
  -53724   -53725   -53724   -53724   -53727   -53731   -53730   -53727 
  -53727   -53724   -53723   -53727   -53730   -53728   -53727   -53727 
  -53728   -53728   -53724   -53723   -53727   -53730   -53727   -53724 
  -53721   -53721   -53725   -53728   -53727   -53725   -53727   -53725 
  -53725   -53728   -53728   -53727   -53728   -53725   -53725   -53730 
  -53730   -53728   -53728   -53727   -53724   -53725   -53728   -53727 
  -53728   -53727   -53725   -53730   -53731   -53731   -53740   -53770 
  -53839   -53966   -54172   -54479   -54869   -55281   -55606   -55707 
  -55460   -54842   -54027   -53349   -53072   -53184   -53454   -53636 
  -53609   -53384   -53095   -52992   -53320   -54099   -55090   -55987 
  -56616   -56976   -57037   -56752   -56355   -56209   -56304   -56274 
  -55831   -54930   -53763   -52762   -52228   -51995   -51746   -51552 
  -51632   -51875   -51950   -51660   -51084   -50654   -50949   -51989 
  -53113   -53817   -54183   -54399   -54508   -54575   -54687   -54849 
  -54919   -54626   -53998   -53569   -53680   -53998   -54051   -53789 
  -53472   -53138   -52524   -51688   -51136   -51170   -51652   -52259 
  -52604   -52432   -52050   -52092   -52718   -53666   -54664   -55374 
  -55707   -55948   -56061   -55749   -55092   -54414   -53979   -54016 
  -54481   -54977   -55271   -55541   -55822   -55742   -55244   -54935 
  -55225   -55759   -55996   -56018   -56254   -56697   -57075   -57370 
  -57792   -58523   -59259   -59309   -58645   -57757   -56733   -55757 
  -55408   -55996   -57445   -59098   -60169   -60883   -61560   -61531 
  -60313   -58449   -56841   -55983   -55737   -55713   -55769   -56073 
  -56559   -56786   -56640   -56451   -56481   -56913   -57906   -59275 
  -60642   -61948   -63219   -64111   -64196   -63004   -60245   -56668 
  -53518   -50926   -48405   -46484   -46348   -48193   -50854   -52994 
  -53946   -53314   -51046   -48169   -46314   -46687   -49480   -53184 
  -55806   -56666   -55653   -53387   -51561   -50888   -51023   -51686 
  -52112   -51548   -50116   -48246   -46445   -45659   -46569   -48411 
  -49532   -48953   -47262   -46353   -47574   -50321   -53215   -55251 
  -55714   -54681   -53126   -51958   -51480   -51322   -50764   -49650 
  -48324   -47019   -46515   -48266   -52434   -56829   -58897   -58002 
  -55331   -52651   -51328   -51696   -53770   -57244   -60257   -60944 
  -59286   -56403   -53789   -52110   -50928   -50075   -49553   -48963 
  -48375   -49342   -53322   -58872   -62964   -64008   -61950   -58209 
  -55210   -54213   -55109   -57445   -59690   -59432   -56482   -53906 
  -53894   -55175   -55944   -55880   -54804   -52693   -50812   -50727 
  -52999   -56795   -60023   -60806   -58835   -55131   -51444   -49554 
  -50163   -52170   -53987   -55467   -57057   -58365   -58806   -58193 
  -56609   -54591   -53009   -52346   -52863   -55339   -59944   -64624 
  -66746   -65462   -60741   -52909   -44849   -40502   -40792   -44286 
  -49140   -53269   -56033   -57357   -55564   -51156   -48051   -48186 
  -50718   -54788   -59188   -62409   -63886   -63664   -61956   -59188 
  -55702   -52162   -49696   -48514   -47857   -47413   -47059   -46549 
  -46238   -46086   -44636   -41103   -37336   -36012   -38110   -42746 
  -48185   -53192   -57321   -60029   -60623   -58938   -56415   -55518 
  -56578   -57488   -57138   -56417   -56347   -57434   -59373   -60160 
  -58028   -53774   -49181   -45667   -44304   -44748   -46175   -48613 
  -51445   -53514   -54529   -54533   -53738   -52748   -52095   -51902 
  -51872   -52589   -55702   -61333   -67599   -72422   -74486   -74013 
  -72211   -69770   -67030   -64612   -62934   -61604   -59929   -57832 
  -56042   -55782   -57280   -58310   -56570   -53121   -51030   -51456 
  -52926   -54191   -56158   -59800   -63537   -65029   -64245   -62271 
  -59513   -56628   -54594   -53829   -54241   -56030   -59852   -64791 
  -68107   -68052   -64422   -57716   -49802   -43785   -42176   -45239 
  -51123   -57291   -61538   -62559   -61245   -61271   -65248   -70781 
  -73184   -70537   -64925   -59082   -53150   -47402   -43927   -42595 
  -41482   -41326   -44132   -48007   -47926   -43999   -42024   -44212 
  -48290   -51702   -52203   -50410   -50453   -55324   -62321   -64395 
  -59277   -52559   -48051   -44228   -40740   -39533   -40763   -41665 
  -39992   -37999   -39507   -42923   -43349   -42030   -44817   -51700 
  -57172   -57840   -53855   -48321   -46121   -48278   -50221   -47899 
  -42206   -36872   -35283   -39301   -47205   -54132   -56547   -53939 
  -49022   -45742   -44014   -41704   -39729   -40113   -44122   -51804 
  -59302   -61869   -61177   -61801   -62808   -61542   -58935   -56474 
  -54803   -52523   -47290   -43154   -45947   -53107   -59341   -62608 
  -62765   -62402   -62988   -61955   -58648   -55597   -53493   -51293 
  -50178   -52428   -56961   -60133   -60123   -58279   -56400   -54533 
  -52473   -51092   -51046   -51733   -52548   -53669   -54989   -56619 
  -58500   -58500   -55846   -53825   -54116   -54094   -51781   -48405 
  -46404   -46319   -46076   -44486   -43217   -43819   -45139   -45013 
  -43779   -44359   -47700   -52027   -56290   -58947   -58511   -56947 
  -56192   -55371   -53165   -49461   -45370   -41440   -38173   -37521 
  -38935   -38982   -37547   -37457   -38772   -39594   -40643   -44536 
  -50934   -55671   -56366   -55243   -54481   -53790   -53053   -52982 
  -53879   -55486   -57267   -58904   -60014   -59784   -58005   -54949 
  -51077   -48143   -47954   -50175   -52853   -54830   -57096   -60276 
  -62683   -62849   -61246   -58885   -56473   -54781   -54463   -55641 
  -57627   -59287   -60041   -60114   -60075   -59448   -56871   -52519 
  -47885   -45343   -48112   -55067   -60234   -61074   -60417   -61333 
  -64273   -67077   -66663   -61630   -54210   -49121   -49651   -55209 
  -61638   -63879   -60266   -53211   -45732   -40586   -39946   -43294 
  -48378   -52897   -54923   -53643   -49766   -46170   -45819   -48222 
  -50526   -51300   -52504   -56118   -60111   -61566   -60226   -57699 
  -54897   -50938   -46818   -45751   -48639   -53657   -57866   -59063 
  -57708   -55093   -51933   -49816   -50052   -51517   -52126   -51383 
  -50445   -50531   -52563   -56941   -62085   -65097   -64319   -60566 
  -56546   -54594   -54889   -56046   -56938   -57851   -59506   -61839 
  -64393   -66201   -65495   -61865   -57037   -52004   -46936   -43363 
  -42959   -45819   -49732   -51556   -50803   -49094   -48300   -50526 
  -55364   -59529   -61156   -60847   -59794   -59329   -59950   -59977 
  -57501   -52986   -47985   -43356   -39482   -36285   -33720   -32166 
  -31974   -33582   -37147   -41615   -45428   -48251   -50949   -54332 
  -58314   -61657   -62841   -61700   -59582   -57392   -55017   -52726 
  -51147   -50561   -50330   -49148   -46996   -44435   -41119   -38203 
  -37314   -36802   -35456   -36053   -40624   -47721   -55340   -61955 
  -65959   -67182   -67556   -68631   -69145   -66441   -60484   -54414 
  -50872   -50083   -50958   -51831   -50886   -48159   -46512   -47823 
  -50611   -53896   -58533   -63907   -67117   -65333   -58345   -48226 
  -38408   -33690   -36173   -42458   -48185   -51655   -52579   -51781 
  -51349   -51933   -52785   -53956   -54758   -54560   -54963   -57038 
  -59205   -58788   -54572   -48196   -42871   -41758   -46637   -55497 
  -63054   -65959   -64597   -60731   -57558   -57493   -58936   -59821 
  -60361   -61200   -62399   -63757   -65140   -65589   -64044   -61254 
  -58033   -53578   -48401   -45890   -48147   -53670   -60025   -65137 
  -67732   -68100   -66841   -64041   -60741   -59371   -60918   -63265 
  -63860   -61631   -56731   -50542   -44725   -40178   -37527   -37072 
  -37856   -38946   -41519   -46558   -52281   -57219   -60588   -59954 
  -55965   -53262   -53130   -53136   -52384   -52331   -54276   -58368 
  -64064   -68647   -68484   -64201   -59698   -57033   -56328   -57186 
  -58098   -57246   -55107   -53908   -53671   -52810   -51212   -49555 
  -49235   -51904   -56222   -59080   -59848   -59451   -58382   -57447 
  -57271   -58195   -60729   -63618   -64152   -61651   -57696   -54025 
  -52127   -51347   -48429   -43384   -40397   -40427   -41370   -43320 
  -45986   -46977   -45728   -43850   -42786   -43579   -46627   -50103 
  -51011   -48907   -46098   -44485   -43802   -41924   -37845   -33836 
  -32387   -34049   -38010   -41825   -43387   -43652   -45306   -49441 
  -54380   -57565   -58248   -58162   -58591   -58718   -58499   -59032 
  -60342   -61950   -62567   -60667   -57443   -54272   -49999   -45449 
  -44741   -49492   -57107   -64843   -70781   -73012   -71807   -69487 
  -67419   -66953   -69354   -71932   -71226   -68180   -63927   -57187 
  -48901   -42769   -41301   -44284   -50184   -57680   -64308   -66766 
  -65443   -64044   -64566   -66105   -66382   -64143   -60832   -58244 
  -56644   -55734   -55629   -56663   -57015   -54392   -50259   -46900 
  -45863   -47876   -49682   -48695   -45740   -41771   -39891   -42365 
  -46800   -51844   -57921   -63829   -67726   -67497   -62279   -55058 
  -50361   -49600   -50404   -49723   -45985   -40108   -35024   -33342 
  -36350   -43243   -51101   -57176   -59705   -59381   -58961   -58511 
  -57419   -56587   -55113   -52412   -49003   -45796   -44450   -43132 
  -40344   -39598   -42183   -46477   -51568   -55013   -55134   -53530 
  -51954   -51186   -52139   -55722   -61057   -65271   -66113   -62900 
  -57010   -52485   -52205   -55156   -59391   -63513   -65838   -65857 
  -64584   -62891   -61211   -58406   -52209   -43924   -36838   -32076 
  -31313   -34958   -39769   -43949   -48138   -52861   -56717   -56560 
  -52878   -50398   -52312   -59414   -69669   -77218   -78201   -74127 
  -68092   -62345   -58965   -59175   -60435   -58548   -53541   -48496 
  -44994   -43167   -42921   -44078   -46626   -50697   -55304   -57780 
  -57362   -55607   -53487   -52771   -54738   -58434   -62657   -65686 
  -66729   -67149   -67466   -66987   -66560   -67617   -67837   -62739 
  -52396   -41422   -33205   -28611   -27957   -30157   -32678   -34832 
  -37835   -42126   -48120   -56234   -63992   -66841   -62962   -55624 
  -49742   -47590   -48926   -52250   -54812   -54360   -51776   -49318 
  -46863   -44223   -44323   -48676   -53198   -53817   -52940   -54175 
  -54919   -51547   -46147   -43171   -44968   -49912   -53404   -53596 
  -53508   -56150   -59741   -59944   -56104   -50760   -46661   -46203 
  -47865   -47984   -46896   -47275   -50249   -54022   -56925   -62179 
  -71302   -78381   -78911   -73890   -65263   -56045   -50218   -48880 
  -49879   -51255   -52301   -51952   -48856   -42924   -36418   -32462 
  -31839   -33276   -34601   -34122   -33751   -36882   -44832   -56995 
  -69250   -75965   -76686   -76034   -77099   -77900   -76156   -73990 
  -73276   -72459   -71428   -72033   -72333   -68103   -60308   -52875 
  -46710   -42431   -41380   -43779   -50179   -57576   -60241   -58828 
  -56482   -53222   -50853   -52832   -60366   -70185   -75768   -75689 
  -75791   -78707   -78970   -73219   -66366   -60818   -50828   -37004 
  -29979   -31334   -33555   -35953   -39457   -40181   -35526   -26257 
  -19059   -22410   -34130   -45184   -51582   -55275   -58405   -58315 
  -53779   -50059   -47923   -44274   -42915   -45646   -48131   -51374 
  -56632   -58938   -57353   -55552   -53168   -46241   -34300   -25205 
  -25308   -28655   -29763   -30910   -30510   -26912   -24005   -22848 
  -24289   -30566   -37413   -39067   -36914   -38192   -48795   -65503 
  -80011   -89619   -95308   -94424   -85025   -70193   -51881   -33997 
  -26914   -32892   -42514   -50845   -60133   -70896   -78895   -79933 
  -75011   -66402   -56569   -51177   -51609   -53862   -56471   -59551 
  -64327   -70933   -72810   -66463   -58571   -54491   -52485   -49469 
  -45823   -45033   -48550   -54719   -62093   -68833   -72389   -72037 
  -68881   -64257   -59250   -55023   -53854   -57510   -63612   -68152 
  -70075   -69768   -68851   -70399   -72481   -69453   -62986   -59850 
  -61488   -65155   -68322   -68508   -64967   -60142   -56562   -54842 
  -55174   -56589   -56971   -57373   -60555   -65115   -67614   -66847 
  -63232   -57550   -50021   -41690   -36412   -37731   -44998   -53046 
  -55584   -52030   -47434   -44575   -44755   -50832   -61225   -70067 
  -72650   -66433   -54631   -46049   -45017   -47491   -49389   -50568 
  -49897   -46032   -41494   -39390   -40819   -44923   -47578   -45276 
  -39650   -34619   -32919   -35249   -40460   -47100   -53528   -58889 
  -63676   -65978   -63423   -58776   -56196   -55503   -54476   -53160 
  -51305   -46542   -40767   -39187   -41148   -42261   -42772   -45584 
  -48853   -47375   -41173   -36231   -35887   -38368   -42159   -47082 
  -52566   -58411   -63582   -65129   -62340   -58816   -57940   -59606 
  -61992   -63914   -65132   -65554   -66282   -69862   -75277   -77333 
  -73927   -67932   -62819   -59572   -57072   -54885   -53516   -52359 
  -50099   -47622   -46696   -45812   -43837   -43503   -46309   -50406 
  -53519   -54426   -53692   -52937   -52731   -53445   -55799   -58068 
  -57327   -53989   -51853   -53570   -57087   -59603   -61582   -62167 
  -59294   -55386   -53083   -50990   -49581   -50770   -53339   -57291 
  -62958   -67680   -70544   -72044   -72632   -73818   -75697   -77248 
  -77492   -75820   -73710   -72681   -71834   -70020   -67382   -64492 
  -61738   -59422   -57790   -56367   -54234   -51610   -49658   -48957 
  -49385   -49954   -48683   -45068   -40828   -37162   -35410   -37524 
  -42141   -46560   -50499   -53199   -54491   -56575   -59296   -60170 
  -58653   -56145   -53514   -50070   -45266   -39838   -35116   -32516 
  -32260   -33015   -34349   -36427   -37554   -36894   -36733   -38246 
  -38966   -36591   -32572   -30576   -33034   -38963   -44406   -46676 
  -46275   -44244   -42076   -41385   -41404   -40776   -40049   -40749 
  -43744   -49067   -55752   -60704   -61979   -62112   -63593   -64662 
  -62711   -59019   -56600   -55962   -56813   -59155   -61738   -63413 
  -63536   -61484   -57839   -53584   -49079   -44884   -42106   -41712 
  -43626   -46683   -49770   -52334   -53676   -53530   -52594   -51506 
  -51467   -53716   -56975   -59759   -62748   -66178   -69431   -72030 
  -73299   -73905   -75400   -77241   -77653   -76338   -74235   -72235 
  -70680   -68563   -64270   -57505   -49077   -40564   -34774   -34121 
  -38875   -47001   -54680   -57892   -54761   -47375   -39803   -34789 
  -33937   -37349   -43210   -49509   -54263   -55857   -55146   -54662 
  -54757   -54176   -53514   -54373   -57231   -61298   -65453   -68107 
  -67227   -63227   -58904   -55613   -53403   -52991   -54589   -57424 
  -60828   -63676   -64532   -63598   -62870   -63906   -65693   -66181 
  -65740   -65962   -66380   -65448   -63123   -60058   -55539   -49067 
  -42156   -37243   -36751   -41170   -47308   -51425   -53388   -55333 
  -58114   -61025   -63007   -63252   -61938   -60251   -58947   -57547 
  -55651   -53387   -50265   -45657   -39996   -35243   -34312   -37625 
  -42075   -45399   -47320   -47487   -45553   -41750   -37380   -34685 
  -35266   -38466   -42349   -46097   -49099   -50344   -50608   -51224 
  -51902   -52300   -52848   -53786   -54492   -53616   -51112   -48540 
  -46813   -46734   -48887   -51401   -52678   -54372   -57905   -62294 
  -66511   -70036   -71520   -69969   -65909   -60658   -56481   -54807 
  -54703   -55275   -55579   -54253   -51956   -50777   -51533   -53763 
  -57572   -62811   -68499   -73777   -76524   -75092   -70783   -65353 
  -60500   -57103   -53750   -51216   -51850   -54097   -56080   -57545 
  -57330   -55660   -53127   -49430   -46464   -45646   -46017   -47645 
  -49624   -49292   -47563   -47015   -47649   -49813   -53335   -55664 
  -56775   -58465   -59293   -57410   -54078   -51700   -52014   -54441 
  -56373   -57562   -60108   -63919   -66930   -68204   -67374   -63514 
  -57663   -52551   -48843   -46588   -46637   -47835   -48401   -48249 
  -47744   -47121   -45987   -44413   -44788   -48355   -53087   -57281 
  -60173   -60411   -57653   -52853   -47436   -43650   -42593   -43289 
  -44899   -46197   -45098   -42048   -39958   -40009   -41300   -42650 
  -43021   -42718   -42944   -44196   -46413   -48455   -49650   -51019 
  -52639   -54577   -57146   -59684   -61906   -62522   -59562   -52735 
  -44734   -39698   -38151   -38348   -39862   -42222   -44786   -47844 
  -51884   -56745   -61632   -65090   -65959   -64540   -62028   -59989 
  -59287   -58833   -57049   -53470   -48937   -44874   -41990   -40495 
  -40105   -40239   -41277   -43671   -46107   -46643   -45752   -45034 
  -45176   -47237   -50701   -53264   -53577   -51590   -49168   -48014 
  -47729   -48055   -48749   -48334   -46148   -44080   -44610   -47838 
  -50994   -51509   -50090   -48683   -47464   -46364   -46137   -47083 
  -49177   -51912   -53570   -52845   -50841   -49458   -49160   -50534 
  -52747   -52327   -49832   -49007   -50984   -55911   -62793   -68839 
  -72144   -72304   -70074   -67489   -66838   -68719   -71459   -72855 
  -71883   -68874   -64993   -61480   -59186   -58419   -58934   -59888 
  -59876   -58406   -56520   -55221   -55225   -57002   -60037   -63282 
  -65271   -65304   -65219   -66434   -68058   -68958   -68214   -65695 
  -61777   -56593   -51201   -46912   -44184   -42707   -42006   -42750 
