Origin Time       2025/01/13 21:19:00
Lat.              31.8
Long.             131.6
Depth. (km)       30
Mag.              6.9
Station Code      MYZH13
Station Lat.      31.7301
Station Long.     131.0791
Station Height(m) 35
Record Time       2025/01/13 21:19:42
Sampling Freq(Hz) 100Hz
Duration Time(s)  280
Dir.              2
Scale Factor      2942(gal)/8224139
Max. Acc. (gal)   16.266
Last Correction   2025/01/13 21:19:42
Memo.             
[...]
  -10662    -8649    -6650    -5254    -4379    -3474    -2241     -572 
    1637     4314     7110     9470    10836    10986    10193     8868 
    7180     5182     3019      837    -1364    -3472    -4951    -5289 
   -4726    -4120    -3842    -3364    -2289    -1008      130     1302 
    2598     3913     5283     6652     7898     9343    11551    14346 
   16646    17710    17817    17501    16897    15932    14592    12965 
   11264     9815     8892     8791     9657    10870    11543    11658 
   11549    11009     9877     8590     7597     6879     6238     5703 
    5460     5594     5879     5875     5528     5084     4290     2521 
    -454    -4303    -8344   -11966   -15074   -17891   -20333   -22005 
  -22809   -23010   -22592   -21208   -18955   -16474   -14191   -12101 
  -10084    -7776    -4653     -548     4167     8781    12667    15503 
   17217    18153    19074    20571    22527    24308    25548    26478 
   27475    28771    30316    31747    32665    32807    32017    30419 
   28668    27637    27666    28471    29643    30766    31383    31255 
   30327    28800    27260    25859    24075    21710    19116    16843 
   15357    14526    13880    13096    11831     9779     6934     3719 
     831    -1255    -2280    -2049     -600     1918     5105     8403 
   11723    15156    18399    21034    22839    23639    23549    23021 
   22171    20800    18993    16780    13888    10513     7399     4915 
    2971     1534      554     -209     -977    -1903    -3105    -4588 
   -6258    -7935    -9487   -11129   -13081   -15029   -16578   -17670 
  -18184   -17930   -17185   -16362   -15273   -13562   -11430    -9348 
   -7539    -6006    -4600    -3229    -2054    -1312    -1057    -1123 
   -1239    -1179     -823     -252      217      332      251      315 
     665     1340     2451     3985     5568     6589     6735     6376 
    6246     6831     8036     9269     9940     9981     9462     8208 
    6386     4644     3312     2170      799    -1066    -3334    -5710 
   -7913    -9629   -10535   -10570   -10120    -9659    -9117    -8068 
   -6216    -3358      454     4618     8498    11996    15114    17807 
   20540    23996    28081    31887    34452    35248    34308    32090 
   28957    25145    21297    18003    15001    11751     8240     4811 
    1838     -306    -1443    -1614     -865      432     1360     1220 
     326     -267      140     1406     3038     4733     6389     7817 
    8791     9482    10284    11263    12136    12486    11892    10112 
    7310     4241     2077     1688     2982     4974     6554     7186 
    6933     6016     4639     3202     2203     1711     1263      579 
      44      178     1065     2478     3962     4877     4974     4614 
    4085     3214     2115     1377     1094      747      -66    -1370 
   -2759    -3564    -3578    -3314    -3163    -2933    -2502    -2074 
   -1553     -607      616     1626     2218     2543     2816     3119 
    3604     4556     5830     6866     7314     6979     5813     3979 
    1609     -837    -2640    -3693    -4286    -4328    -3577    -2208 
    -527     1443     3572     5364     6312     6114     4959     3728 
    3299     3640     4167     4796     5968     7681     9177     9742 
    9502     9135     8873     8222     6917     5444     4357     3707 
    3346     3277     3620     4492     5771     6928     7379     7167 
    6921     7067     7558     8176     8619     8726     8730     8931 
    9549    10906    13144    16011    19091    21841    23747    24852 
   25542    25938    26068    26167    26265    25778    24012    20925 
   17227    13976    11867    10798    10527    10951    11492    11430 
   10646     9460     8328     7551     6983     6315     5553     4851 
    4359     4419     5236     6403     7263     7581     7450     6870 
    5896     4892     4168     3647     3111     2550     2012     1414 
     700        1     -421     -448     -383     -660    -1291    -2079 
   -3001    -3805    -4108    -4278    -5097    -6527    -7898    -8711 
   -8757    -8301    -7904    -7597    -6905    -5760    -4584    -3461 
   -2157     -776      487     1711     3029     4592     6304     7562 
    7871     7365     6451     5340     4075     2759     1771     1576 
    2076     2635     2938     3369     4367     5752     6928     7542 
    7727     7863     8264     9039    10172    11628    13254    14661 
   15471    15664    15435    14823    13813    12529    10999     9140 
    6956     4580     2297      513     -487     -739     -507     -149 
     106      319      487      557      997     2363     4283     5973 
    7338     8529     9304     9666    10041    10377    10075     8733 
    6205     2635    -1240    -4577    -6968    -8181    -8145    -7344 
   -6501    -5926    -5610    -5560    -5632    -5713    -6039    -6628 
   -6907    -6463    -5352    -3501     -746     2673     6145     8974 
   10755    11595    11730    11076     9549     7461     5289     3375 
    2015     1363     1300     1779     2882     4328     5540     6161 
    5992     4846     2860      564    -1518    -3033    -3788    -3858 
   -3370    -2173      -67     2624     5117     6812     7603     7723 
    7387     6596     5549     4847     4766     5009     5408     6107 
    7133     8220     9117     9798    10260    10376     9981     9066 
    7979     7225     7022     7362     8102     8978     9857    10638 
   11067    10790     9679     8155     6926     6304     5929     5382 
    4877     4853     5220     5643     6002     6108     5652     4554 
    3084     1786     1011      558      265      419     1193     2416 
    4098     6457     9513    13132    17012    20398    22508    23244 
   23068    22576    22191    21934    21647    21242    20488    19218 
   17809    16858    16433    15950    14858    13203    11410     9898 
    8938     8498     8256     7842     7079     6135     5271     4441 
    3653     3275     3451     3879     4361     4903     5482     6129 
    6905     7684     8263     8646     8896     8912     8569     7923 
    7074     5967     4588     3105     1664      333     -931    -2443 
   -4468    -6662    -8249    -8808    -8561    -7959    -7281    -6543 
   -5667    -4614    -3345    -1958     -784     -103      -87     -891 
   -2288    -3439    -3542    -2602    -1362     -642     -789    -1557 
   -2593    -3798    -5031    -6076    -7011    -7933    -8490    -8176 
   -6801    -4384    -1159     2317     5493     8128    10227    11797 
   12887    13761    14542    14879    14396    13150    11469     9734 
    8314     7342     6608     5971     5598     5548     5684     6076 
    6883     8066     9533    11178    12683    13716    14237    14458 
   14490    14176    13350    12129    10870     9802     8965     8375 
    7811     6771     5011     2690       95    -2328    -3950    -4456 
   -4194    -3816    -3739    -3906    -3978    -3723    -3221    -2714 
   -2401    -2438    -2917    -3721    -4531    -4885    -4379    -3100 
   -1659     -490      557     1782     3184     4615     5995     7202 
    7996     8183     7680     6569     5244     4226     3874     4190 
    4831     5490     6162     6997     8037     9213    10478    11785 
   12908    13463    13377    13104    13078    13251    13378    13346 
   13047    12415    11446    10196     9117     8834     9292     9861 
   10149    10164    10065    10007    10066    10214    10366    10567 
   10910    11292    11546    11589    11400    11136    10903    10366 
    9167     7604     6365     5795     5649     5437     4860     3904 
    2745     1652      904      789     1394     2362     3280     4048 
    4590     4796     4826     4918     5117     5472     6157     7069 
    7905     8750     9941    11491    13084    14374    15156    15398 
   15226    14750    13929    12752    11319     9649     7707     5634 
    3769     2430     1772     1656     1691     1620     1448     1267 
    1140     1024      811      606      715     1255     2164     3423 
    4942     6426     7477     7796     7466     6828     6029     5119 
    4284     3605     2998     2571     2612     3226     4216     5188 
    5645     5304     4495     3846     3721     4197     5158     6339 
    7425     8154     8330     7844     6831     5645     4553     3510 
    2377     1269      515      402      939     1772     2481     2903 
    3080     3188     3437     3950     4780     5873     7002     7973 
    8773     9408     9890    10349    10825    11107    10957    10305 
    9066     7087     4542     1918     -569    -2991    -5194    -6798 
   -7480    -7130    -5979    -4403    -2705    -1175     -156      172 
      22     -178     -176       -2      271      757     1474     2003 
    1898     1132     -120    -1721    -3477    -5186    -6721    -7927 
   -8648    -8961    -9126    -9216    -9147    -8924    -8603    -8118 
   -7368    -6353    -5151    -3959    -2928    -1927     -756      718 
    2511     4383     6218     8208    10388    12617    14975    17525 
   19882    21551    22373    22407    21801    20904    20069    19300 
   18387    17193    15808    14396    12880    11061     9009     6979 
    5123     3504     2145     1067      288     -162     -244       -8 
     309      418      203     -265     -908    -1680    -2392    -2741 
   -2582    -1902     -622     1219     3218     4926     6173     6957 
    7350     7395     7006     6193     5115     3805     2245      622 
    -751    -1723    -2300    -2521    -2376    -1823     -926      198 
    1524     3122     5059     7281     9491    11410    13212    15248 
   17443    19418    21023    22396    23647    24730    25601    26273 
   26612    26261    24960    22800    20073    17043    13909    10781 
    7773     5071     2736      527    -1779    -4051    -5877    -6906 
   -7083    -6664    -5944    -4954    -3493    -1418     1201     4207 
    7406    10443    12933    14727    15951    16816    17460    17938 
   18304    18524    18387    17675    16425    14878    13258    11653 
   10015     8245     6316     4279     2293      727     -124     -260 
     253     1266     2492     3769     5027     6191     7225     8037 
    8441     8364     7875     6980     5679     4189     2786     1475 
      49    -1614    -3434    -5104    -6195    -6538    -6498    -6681 
   -7481    -9007   -11218   -14096   -17545   -21163   -24362   -26734 
  -28161   -28661   -28212   -26744   -24360   -21439   -18372   -15326 
  -12429    -9873    -7726    -5832    -3920    -1750      703     3191 
    5454     7439     9224    10933    12533    13640    13886    13297 
   12066    10262     7954     5412     3011     1063     -179     -568 
    -105     1223     3564     6837    10525    14062    17101    19431 
   20999    21852    22063    21876    21672    21618    21536    21234 
   20769    20298    19823    19161    18239    17265    16428    15662 
   14885    14256    13942    13882    13986    14203    14408    14535 
   14644    14832    15277    16193    17535    18944    20051    20602 
   20375    19327    17720    15865    14010    12482    11556    11296 
   11619    12283    12973    13605    14222    14739    15028    14939 
   14349    13439    12549    11823    11232    10739    10237     9535 
    8537     7322     6060     4981     4336     4299     4849     5638 
    6253     6687     7213     7970     8961    10085    11126    11970 
   12683    13181    13176    12646    11913    11183    10463     9790 
    9153     8442     7757     7240     6791     6336     5913     5489 
    4992     4372     3651     2905     2191     1497      716     -317 
   -1725    -3574    -5861    -8434   -10994   -13286   -15228   -16757 
  -17778   -18218   -17994   -17115   -15809   -14319   -12687   -10913 
   -9012    -6930    -4768    -2833    -1231      108     1000     1139 
     558     -469    -1838    -3588    -5663    -7878    -9949   -11645 
  -13019   -14277   -15360   -16016   -16212   -16078   -15684   -15036 
  -13977   -12290   -10026    -7477    -4820    -2196       27     1420 
    1836     1383      333     -951    -2149    -3040    -3474    -3406 
   -2899    -2095    -1119      -39     1057     1983     2544     2683 
    2543     2362     2350     2721     3682     5320     7595    10292 
   13036    15511    17564    19068    19813    19664    18689    17072 
   15056    13016    11288     9948     8986     8568     8783     9391 
   10035    10474    10574    10239     9475     8469     7506     6822 
    6546     6710     7268     8095     9051     9965    10689    11253 
   11815    12429    13061    13741    14526    15357    16155    16889 
   17504    17891    17969    17728    17216    16538    15942    15677 
   15726    15934    16305    17000    18108    19487    20931    22380 
   23765    24910    25551    25436    24538    23029    21014    18500 
   15606    12692    10080     7730     5508     3553     2092     1148 
     623      418      423      560      882     1524     2498     3705 
    5076     6528     7932     9244    10407    11245    11595    11303 
   10176     8197     5671     3036      711     -969    -1935    -2335 
   -2263    -1698     -630      751     2191     3705     5451     7314 
    9019    10485    11836    13154    14453    15770    17055    18112 
   18823    19191    19170    18666    17608    15889    13417    10195 
    6328     2072    -2250    -6515   -10828   -15275   -19785   -24169 
  -28252   -31961   -35160   -37586   -39171   -40082   -40328   -39972 
  -39239   -38020   -36081   -33358   -29875   -25834   -21400   -16633 
  -11747    -6983    -2423     1871     5574     8212     9552     9697 
    8953     7750     6593     5896     5705     5904     6490     7423 
    8599     9902    11198    12407    13467    14300    14913    15526 
   16437    17767    19457    21438    23700    26279    29012    31560 
   33762    35684    37251    38105    37922    36640    34326    31139 
   27382    23367    19271    15234    11384     7682     3981      279 
   -3199    -6238    -8772   -10810   -12391   -13518   -14126   -14184 
  -13560   -12037    -9666    -6694    -3308      287     3836     7106 
    9840    11786    12873    13209    12930    12151    11067     9917 
    8799     7672     6512     5297     3973     2637     1487      626 
      67     -218     -249       18      627     1583     2874     4356 
    5784     7071     8228     9161     9774    10050     9961     9517 
    8792     7862     6824     5868     5174     4784     4684     4907 
    5418     6043     6573     6874     6944     6878     6747     6660 
    6802     7229     7875     8648     9362     9921    10368    10696 
   10810    10648    10112     8957     7047     4598     2016     -341 
   -2309    -4012    -5721    -7523    -9301   -10910   -12244   -13251 
  -13961   -14438   -14782   -15091   -15302   -15183   -14561   -13455 
  -11982   -10211    -8174    -5894    -3295     -252     3198     6868 
   10542    13964    16897    19257    21091    22519    23634    24462 
   25045    25411    25508    25351    24937    24131    22894    21324 
   19402    17043    14439    11909     9559     7496     5910     4855 
    4255     3959     3874     3973     4210     4549     4951     5328 
    5629     5877     6106     6393     6901     7770     8997    10342 
   11458    12148    12459    12499    12321    12039    11821    11712 
   11610    11402    11061    10705    10534    10615    10821    10971 
   11043    11132    11097    10741    10108     9294     8398     7439 
    6385     5344     4467     3893     3743     3897     3994     3711 
    2894     1593       41    -1409    -2446    -2930    -2816    -2084 
    -889      577     2259     4029     5710     7218     8322     8646 
    8032     6647     4843     3046     1584      552     -135     -639 
   -1143    -1717    -2243    -2571    -2675    -2573    -2228    -1695 
   -1097     -353      795     2427     4364     6415     8479    10504 
   12433    14170    15587    16611    17273    17620    17597    17147 
   16360    15346    14112    12613    10831     8788     6520     4077 
    1507    -1125    -3669    -5875    -7549    -8679    -9282    -9273 
   -8654    -7547    -6038    -4332    -2624     -962      502     1695 
    2794     3920     5036     6065     6960     7692     8160     8218 
    7835     7153     6307     5301     4195     3144     2173     1135 
     -87    -1443    -2816    -4071    -5020    -5529    -5591    -5286 
   -4695    -3820    -2647    -1188      491     2228     3794     5040 
    6026     6930     7898     8982    10127    11187    11993    12478 
   12744    12907    12980    12945    12699    11982    10654     8914 
    7103     5458     4060     2911     1958     1096      333     -141 
    -237       -9      508     1275     2182     3127     4125     5310 
    6781     8441    10038    11300    12091    12441    12429    12098 
   11481    10644     9613     8328     6779     5032     3092      909 
   -1462    -3813    -5877    -7435    -8360    -8638    -8284    -7314 
   -5830    -3906    -1605      828     3115     5124     6876     8440 
    9879    11298    12775    14265    15697    16962    17890    18391 
   18513    18311    17784    16926    15708    14218    12719    11464 
   10505     9779     9235     8839     8536     8266     7973     7585 
    7040     6320     5516     4788     4244     3978     4136     4742 
    5601     6511     7414     8283     9105     9844    10419    10781 
   10864    10651    10207     9517     8567     7487     6378     5205 
    3951     2698     1456      122    -1316    -2772    -4194    -5514 
   -6585    -7258    -7531    -7522    -7337    -6994    -6466    -5819 
   -5196    -4680    -4288    -3985    -3686    -3318    -2801    -2058 
   -1074      102     1348     2556     3720     4909     6154     7391 
    8527     9539    10415    11140    11738    12248    12739    13270 
   13772    14177    14482    14669    14759    14820    14879    14939 
   15003    15110    15290    15556    15967    16580    17343    18104 
   18731    19167    19390    19387    19187    18801    18173    17273 
   16189    14980    13591    12032    10393     8707     6991     5254 
    3462     1572     -418    -2459    -4469    -6281    -7720    -8808 
   -9688   -10357   -10720   -10755   -10489   -10007    -9416    -8742 
   -8032    -7381    -6808    -6205    -5557    -5005    -4549    -4133 
   -3894    -3816    -3693    -3478    -3156    -2705    -2178    -1607 
    -982     -292      494     1437     2575     3801     4888     5728 
    6369     6833     7140     7372     7555     7580     7383     7074 
    6775     6519     6308     6124     5964     5836     5692     5463 
    5165     4941     4881     4895     4895     4919     5065     5413 
    5984     6731     7591     8498     9416    10332    11161    11765 
   12035    11900    11427    10851    10314     9779     9209     8623 
    8041     7464     6852     6177     5456     4653     3685     2593 
    1486      422     -503    -1144    -1401    -1310     -959     -388 
     371     1282     2349     3546     4706     5584     6061     6204 
    6176     6118     6079     5988     5756     5387     4931     4399 
    3874     3504     3330     3254     3122     2863     2560     2320 
