Origin Time       2025/01/13 21:19:00
Lat.              31.8
Long.             131.6
Depth. (km)       30
Mag.              6.9
Station Code      MYZH03
Station Lat.      32.4754
Station Long.     131.1043
Station Height(m) 319
Record Time       2025/01/13 21:19:47
Sampling Freq(Hz) 100Hz
Duration Time(s)  160
Dir.              2
Scale Factor      2942(gal)/8224139
Max. Acc. (gal)   5.792
Last Correction   2025/01/13 21:19:47
Memo.             
[...]
   81251    81194    81209    80947    80275    79770    79832    79833 
   79331    79115    79679    80175    80103    80084    80299    80280 
   80148    80195    80230    80376    80879    81172    80963    81103 
   81865    82327    82102    81657    81193    80802    80682    80584 
   80312    80303    80701    81027    81094    81136    81160    81006 
   80705    80439    80281    80138    79980    79883    79618    78957 
   78549    79124    80181    80991    81606    81874    81442    80913 
   80859    80713    80335    80504    81055    81139    80887    80739 
   80520    80230    80114    80019    79890    80110    80797    81594 
   82084    81932    81256    80770    80758    80682    80441    80649 
   81259    81498    81324    81336    81361    80744    79770    79324 
   79591    80211    81068    81842    81850    81403    81637    82363 
   82362    81606    80842    79967    78888    78375    78858    79910 
   81207    82660    83872    84171    83157    81291    79682    78973 
   78980    79465    80416    81684    83119    84578    85434    85197 
   84429    83728    82910    82177    82266    82996    83539    83884 
   84343    84414    83722    83025    82998    83239    83292    83479 
   84088    84754    85166    85279    84840    83868    83099    83027 
   83309    83560    83872    84352    84681    84284    83079    81899 
   81400    80939    79847    78957    79203    79920    80072    79886 
   80013    80325    80430    80392    80256    79767    79081    78773 
   78734    78071    76497    74871    74027    73866    74058    74895 
   76445    77587    77390    76680    76719    77376    77911    78316 
   78710    78686    78096    77419    76944    76396    75589    75046 
   75321    76019    76621    77422    78368    78429    77434    76708 
   76852    77128    77525    78680    80050    80852    81565    82456 
   82559    81714    80993    80480    79724    79498    80180    80744 
   81282    82771    83798    82240    79612    78881    79675    79917 
   79839    80788    82034    81768    80222    79092    78787    78883 
   79636    80681    80865    80446    80410    80218    79016    77255 
   75566    74287    74054    74578    74363    73294    72709    72449 
   71621    71383    72868    74671    75547    76270    77188    77487 
   77121    76646    76127    75875    76222    76570    76796    77710 
   78696    78351    77599    78183    79369    79933    80797    82379 
   83077    82737    83029    83852    84138    84553    85504    85711 
   85054    84928    85284    85356    85935    87285    87971    88064 
   89203    90896    91231    90495    90026    89407    87930    86301 
   85248    84719    84784    85648    86746    86981    86051    84977 
   84626    84202    82717    81160    80767    80663    79978    79816 
   80638    81040    80692    80626    80487    79305    77769    76608 
   75004    72832    71782    72906    75294    77371    78154    77831 
   77454    77545    77707    77920    78804    80258    81409    81783 
   81325    80370    79986    80685    81646    82418    83543    84986 
   86154    87292    88811    90124    90783    91264    91600    91174 
   90215    89465    88786    87899    87488    87899    88206    88024 
   88267    88797    88084    86116    84546    83758    82763    81467 
   80501    79794    79041    78389    77687    76438    74857    73661 
   72766    71587    70599    70976    72469    73449    73462    73600 
   74056    73998    73623    73615    73684    73633    73813    73742 
   72836    72060    72349    73076    73812    74946    76019    76446 
   76977    77907    78082    77453    77350    77645    77141    76292 
   76424    77511    78745    79763    80346    80424    80489    80778 
   80705    80025    79524    79920    81226    83185    85070    85969 
   85830    84951    83281    81507    80805    80754    79917    78266 
   76669    75217    73904    73207    73021    72897    73238    74461 
   75930    77209    78682    80033    80211    79270    78108    76986 
   76106    76014    76411    76620    77194    78813    80723    82069 
   82944    83350    83249    83251    83502    83363    83292    84526 
   86625    88133    88959    89706    90031    89289    87771    86533 
   85990    85419    84388    83520    83278    83247    83234    83871 
   85429    87073    88053    88592    89023    89114    88807    88456 
   87851    86410    84721    84005    84011    83556    82579    81630 
   80455    78777    77126    75814    74605    73715    73492    73484 
   73055    72296    71655    71167    70641    70482    71562    73997 
   76740    79039    81288    83471    84551    84404    83978    83446 
   82699    82390    82474    82082    81700    82408    83330    83200 
   82860    83000    82516    81272    80352    79463    78340    78132 
   78549    77958    76863    76573    76360    75593    75070    74748 
   74191    74353    75578    76450    76322    75867    75282    74850 
   75506    76789    77206    77170    77954    78756    78204    76975 
   76214    75339    73800    72810    73251    74123    74336    73908 
   73244    72765    72605    72361    72042    72412    73789    75818 
   78150    80397    82054    82949    83394    83664    83722    83655 
   83731    83722    82910    81259    79906    79650    79870    79979 
   80519    81618    82321    82629    83608    84820    84762    83938 
   84159    85371    86420    87536    89255    90671    90721    89625 
   88261    87162    86192    84889    83273    81945    81210    80824 
   80643    80825    81504    82705    84117    84859    84277    82983 
   82044    81442    80635    80136    80724    81745    82012    81654 
   81561    81900    82462    83420    84555    84901    84249    83697 
   83778    83650    82888    82090    81297    80077    78954    78533 
   78148    77291    76709    76987    77924    79231    80496    81306 
   81720    81758    81279    81031    82001    83527    84379    84947 
   86013    87134    87875    88473    88844    88761    88457    87887 
   86718    85353    84291    83273    82394    82281    82615    82622 
   82621    82902    82590    81768    81891    82717    82728    82408 
   82849    83058    82177    81295    81001    80674    80613    81610 
   83079    84048    84569    84580    83527    81770    79921    77468 
   74542    72843    72747    72631    71921    71442    71205    70819 
   70785    71332    71717    71813    72423    73697    74920    75793 
   76500    76909    76901    76916    77116    76945    76280    75736 
   75342    74563    73712    73553    74235    75668    77580    79122 
   79934    80746    81716    81874    81220    81153    82086    82945 
   83475    84685    86598    88061    89037    90317    91312    90954 
   89772    88740    87755    86807    86539    86609    85818    84130 
   82494    81075    79447    77701    76108    74729    74098    74926 
   76650    77881    78308    78487    78472    78314    78552    78902 
   78306    77005    76357    76520    76782    77298    78252    79091 
   79947    81507    83266    84288    84879    85428    85506    85432 
   85962    86439    86073    85533    85066    83870    82381    81684 
   81013    79278    77457    76793    76837    76912    77114    77309 
   77118    76720    76335    75787    75069    74287    73176    71706 
   70605    70476    71271    73049    75955    79039    80816    81440 
   82279    83328    83585    83365    83501    83432    82456    81240 
   80473    79982    79874    80557    81587    82242    82684    83180 
   83137    82150    80902    80086    79593    79336    79654    80523 
   81480    82366    83241    83984    84612    85217    85666    86001 
   86408    86726    86863    87133    87494    87359    86564    85644 
   84936    84215    83332    82541    82077    81854    81691    81660 
   81963    82426    82564    82259    81772    81209    80674    80458 
   80485    80176    79311    78428    77982    77708    77390    77463 
   78059    78336    77606    76308    75394    75384    76042    76659 
   76835    76810    76786    76694    76756    77238    77778    77973 
   78197    78884    79759    80539    81265    81631    81490    81672 
   82691    83629    83689    83304    83004    82850    83049    83586 
   83793    83285    82449    81688    81229    81376    82082    82925 
   83701    84233    84138    83666    83624    83948    83880    83529 
   83376    82896    81449    79535    78001    77260    77495    78263 
   78524    77981    77256    76596    75895    75512    75536    75328 
   74943    75178    75718    75628    75255    75251    75238    75213 
   75878    76879    77475    78062    78894    79114    78443    77641 
   77022    76513    76584    77348    77957    77851    77232    76364 
   75566    75232    75327    75737    76847    78713    80569    81916 
   82867    83231    82822    82301    82255    82273    81950    81565 
   81379    81549    82464    84057    85480    86186    86381    86066 
   85129    84283    84102    83870    83114    82715    83196    83894 
   84534    85452    86227    86059    85179    84393    83967    83775 
   83586    82895    81522    80192    79591    79594    79861    80192 
   80400    80550    80773    80743    80169    79458    79042    78763 
   78682    79357    80643    81650    82134    82555    82992    83165 
   83025    82517    81541    80443    79624    78962    78435    78348 
   78551    78626    78730    79037    79155    79057    79215    79505 
   79527    79601    79968    80271    80723    81989    83654    84785 
   85502    86248    86751    86950    87346    87825    87763    87120 
   86216    85106    83988    83296    82890    82273    81653    81517 
   81492    81016    80389    79971    79369    78444    77830    77737 
   77720    77826    78487    79489    80372    81292    82372    83054 
   82871    82032    80998    80029    79068    77873    76551    75702 
   75583    75748    75987    76669    77760    78644    79181    79776 
   80289    80231    79905    79994    80342    80397    80261    80140 
   79602    78462    77376    76905    76851    76835    76862    77240 
   78193    79640    81270    82768    83968    84910    85731    86374 
   86559    86239    85756    85183    84194    82800    81461    80342 
   79234    78210    77699    77788    78123    78526    79116    79821 
   80356    80686    81052    81519    81924    82215    82489    82605 
   82229    81346    80238    79064    78043    77541    77561    77857 
   78401    79134    79826    80416    80852    80932    80708    80408 
   79979    79489    79424    79891    80460    80986    81433    81271 
   80296    79232    78598    78100    77565    77161    76813    76623 
   77051    77977    78853    79736    80794    81584    81905    82127 
   82182    81757    81291    81372    81865    82455    82938    82907 
   82166    81195    80566    80337    80121    79489    78586    78101 
   78255    78564    78799    79000    78865    78439    78549    79407 
   80144    80442    80827    81313    81567    81900    82553    82983 
   83046    83389    84064    84342    84088    83870    83839    83686 
   83465    83577    84095    84693    85131    85374    85307    84820 
   84200    83964    84199    84546    84766    84805    84519    83914 
   83311    82895    82479    81870    81147    80365    79339    78023 
   76751    75780    75011    74374    73965    73792    73754    73739 
   73602    73371    73287    73419    73718    74250    74902    75412 
   75925    76754    77743    78653    79618    80522    80886    80806 
   80808    80970    81205    81707    82452    82971    82895    82339 
   81723    81375    81224    81008    80794    80804    80784    80354 
   79686    79172    78861    78622    78354    78046    77996    78529 
   79434    80364    81332    82228    82830    83343    83857    83843 
   83165    82505    82059    81395    80727    80457    80134    79537 
   79347    79668    79758    79469    79196    78899    78607    78763 
   79397    80183    81064    81787    81695    80757    79664    78710 
   77656    76572    75809    75352    74970    74761    74988    75624 
   76358    76935    77456    78260    79316    80179    80782    81515 
   82389    83070    83704    84672    85733    86405    86690    86571 
   85774    84615    83847    83594    83567    83779    84018    83589 
   82397    81031    79536    77685    75853    74317    72874    71712 
   71131    70761    70426    70735    71818    73006    74128    75535 
   77089    78337    79174    79690    79890    79806    79574    79286 
   78993    78864    79093    79689    80527    81457    82308    82968 
   83455    83872    84389    85158    86132    87191    88353    89587 
   90651    91432    92049    92352    91936    90699    88828    86344 
   83392    80673    78686    77205    76279    76086    75837    74872 
   73899    73618    73758    74259    75543    77326    78884    80250 
   81712    82837    83234    83257    83162    82772    82228    81834 
   81442    80995    80898    81284    81858    82335    82443    82080 
   81490    80925    80458    80183    80157    80303    80599    81043 
   81372    81328    81114    81021    80835    80291    79596    78957 
   78308    77704    77283    77005    76970    77473    78385    79123 
   79465    79687    80076    80821    81973    83223    84303    85587 
   87513    89727    91613    93198    94722    95995    96696    96747 
   96269    95563    94903    94244    93390    92226    90737    89121 
   87685    86439    85081    83519    82082    80767    79058    77062 
   75458    74272    73214    72559    72439    72419    72530    73252 
   74256    74706    74553    74287    73996    73681    73599    73689 
   73807    74313    75351    76327    76871    77272    77683    77957 
   78223    78723    79424    80395    81943    84042    86204    87940 
   88970    89185    88624    87417    85774    84044    82528    81272 
   80160    79085    77971    76792    75625    74610    73943    73923 
   74633    75685    76611    77255    77603    77733    77862    78048 
   78084    77923    77730    77514    77218    76977    76874    76877 
   77035    77275    77391    77526    78003    78761    79726    81095 
   82768    84150    84816    84807    84250    83251    82179    81317 
   80491    79631    79057    78884    78989    79527    80634    81857 
   82603    82775    82452    81581    80350    79208    78305    77485 
   76827    76599    76869    77519    78453    79554    80670    81796 
   82957    84001    84811    85428    85887    86202    86404    86383 
   86015    85436    84885    84356    83806    83382    83151    83026 
   82988    82918    82385    81189    79780    78582    77629    77067 
   76939    76752    76238    75760    75494    75231    75027    75022 
   74997    74907    75155    75863    76704    77639    78845    80125 
   81241    82335    83415    84110    84244    83974    83396    82480 
   81382    80466    79901    79505    79254    79417    80060    80883 
   81619    82051    81945    81382    80801    80464    80234    79928 
   79531    78983    78160    77233    76554    76207    76052    76075 
   76335    76734    77036    77145    77130    76929    76450    75968 
   75859    76072    76426    77055    78075    79289    80534    81815 
   83079    84300    85587    86891    87899    88381    88376    88051 
   87643    87376    87203    86899    86486    86154    85895    85656 
   85633    85984    86524    87057    87577    87875    87528    86476 
   85125    83806    82572    81400    80265    79207    78451    78086 
   77851    77635    77552    77369    76859    76418    76451    76813 
   77360    78109    78740    78939    79006    79207    79259    79038 
   78837    78714    78547    78540    78864    79292    79675    80049 
   80280    80343    80577    81105    81676    82131    82371    82147 
   81441    80573    79747    78999    78441    78075    77691    77248 
   76910    76680    76482    76449    76627    76779    76773    76740 
   76728    76673    76677    76810    76901    76924    77206    77874 
   78705    79662    80887    82142    82919    83074    82826    82339 
   81687    81021    80492    80119    79843    79591    79358    79146 
   78846    78379    77932    77704    77589    77449    77349    77296 
   77211    77276    77762    78540    79282    79895    80337    80474 
   80415    80430    80514    80514    80554    80858    81355    81873 
   82356    82642    82520    82036    81338    80496    79782    79529 
   79627    79748    79960    80453    81032    81496    82150    83320 
   84734    85860    86485    86566    86086    85274    84360    83312 
   82247    81519    81240    81270    81584    82142    82737    83245 
   83546    83404    82884    82428    82186    81931    81610    81357 
   81178    81059    81074    81162    81195    81216    81329    81527 
   81746    81913    82024    82193    82462    82719    82921    83106 
   83201    83079    82734    82227    81546    80604    79326    77823 
   76416    75363    74692    74302    74071    73946    73992    74233 
   74551    74871    75335    76046    76898    77835    78892    79907 
   80693    81434    82381    83397    84181    84543    84300    83427 
   82275    81175    80096    79107    78513    78320    78189    78011 
   77963    78089    78347    78914    79890    80973    81909    82777 
   83508    83918    84256    84839    85444    85707    85639    85348 
   84871    84383    83961    83439    82876    82629    82833    83332 
   84003    84640    84924    84798    84469    83951    83204    82490 
   82009    81554    80901    80091    79216    78376    77785    77580 
   77635    77700    77626    77404    77053    76543    75960    75559 
   75465    75521    75573    75662    75821    76026    76405    77021 
   77537    77699    77727    77765    77639    77450    77616    78187 
   78894    79828    81298    83177    85005    86489    87519    88055 
   88160    87886    87288    86595    86036    85558    85070    84708 
   84551    84410    84222    84122    84060    83952    84038    84485 
   84951    85037    84763    84254    83521    82625    81615    80468 
   79330    78466    77907    77485    77145    76898    76673    76404 
   76063    75554    74881    74210    73661    73353    73511    74191 
   75189    76308    77502    78796    80161    81429    82416    83077 
   83408    83301    82803    82270    81865    81365    80731    80242 
   80015    79974    80163    80539    80735    80555    80254    79978 
   79532    78907    78394    78101    77980    78128    78529    78872 
   79041    79211    79398    79458    79363    79235    79297    79803 
   80788    82004    83250    84474    85521    86125    86181    85837 
   85383    85006    84685    84354    84025    83690    83320    82988 
   82764    82551    82277    82107    82161    82240    82166    82100 
   82254    82660    83326    84179    84908    85230    85174    84817 
   84103    83089    81985    80836    79579    78378    77480    76873 
   76454    76285    76405    76752    77322    78044    78726    79324 
   79894    80208    79992    79486    79123    78942    78842    78915 
