Origin Time       2025/01/13 21:19:00
Lat.              31.8
Long.             131.6
Depth. (km)       30
Mag.              6.9
Station Code      MYZH02
Station Lat.      32.6972
Station Long.     131.6829
Station Height(m) 20
Record Time       2025/01/13 21:19:49
Sampling Freq(Hz) 100Hz
Duration Time(s)  172
Dir.              4
Scale Factor      7845(gal)/8223790
Max. Acc. (gal)   11.169
Last Correction   2025/01/13 21:19:49
Memo.             
[...]
  -17355   -17452   -17606   -17672   -17652   -17563   -17424   -17370 
  -17487   -17666   -17733   -17658   -17574   -17613   -17703   -17683 
  -17523   -17296   -17108   -17070   -17227   -17505   -17730   -17741 
  -17527   -17281   -17189   -17242   -17331   -17408   -17496   -17609 
  -17671   -17583   -17381   -17190   -17159   -17363   -17690   -17964 
  -18080   -18004   -17795   -17558   -17378   -17294   -17324   -17491 
  -17790   -18184   -18569   -18738   -18507   -17907   -17259   -16912 
  -16875   -16943   -17081   -17332   -17577   -17689   -17729   -17755 
  -17658   -17408   -17212   -17265   -17531   -17815   -17968   -18058 
  -18193   -18187   -17751   -16983   -16448   -16684   -17550   -18264 
  -18314   -17984   -17724   -17547   -17307   -17115   -17247   -17675 
  -17942   -17764   -17443   -17413   -17691   -17967   -17979   -17759 
  -17583   -17667   -17967   -18330   -18519   -18220   -17458   -16749 
  -16555   -16888   -17413   -17722   -17766   -17863   -18181   -18486 
  -18392   -17724   -16827   -16366   -16788   -18007   -19202   -19402 
  -18677   -17918   -17668   -17829   -17909   -17491   -16873   -16808 
  -17554   -18569   -19130   -18976   -18370   -17788   -17520   -17469 
  -17446   -17409   -17358   -17342   -17458   -17730   -18009   -17949 
  -17334   -16559   -16376   -17020   -17836   -17949   -17292   -16579 
  -16345   -16560   -17007   -17558   -18133   -18612   -18887   -19066 
  -19273   -19218   -18557   -17590   -17038   -17315   -18138   -18792 
  -18831   -18211   -17080   -15988   -15556   -15766   -16239   -16664 
  -16845   -17095   -17982   -19106   -19346   -18454   -17294   -16750 
  -16918   -17262   -17358   -17190   -16954   -16918   -17239   -17729 
  -17844   -17239   -16460   -16528   -17610   -18694   -18747   -17869 
  -17132   -17254   -17788   -17886   -17463   -17140   -17038   -16479 
  -15425   -14913   -15569   -16976   -18476   -19622   -20123   -19751 
  -18350   -16285   -14584   -14127   -15033   -16649   -17948   -18465 
  -18585   -18721   -18752   -18262   -17099   -15790   -15423   -16768 
  -19317   -21455   -21778   -20275   -18427   -17780   -18168   -18234 
  -17547   -16839   -16699   -16957   -17080   -16972   -17196   -18231 
  -19685   -20491   -20119   -18941   -17328   -15654   -14814   -15446 
  -17103   -18700   -19494   -19469   -18867   -17821   -16742   -16449 
  -17302   -18655   -19494   -19407   -18967   -18778   -18423   -17408 
  -16247   -15796   -16337   -17367   -18188   -18824   -19465   -19360 
  -17895   -16069   -15427   -16395   -17995   -18760   -18121   -16607 
  -15014   -14241   -14997   -17097   -19554   -21035   -20916   -20039 
  -19202   -18169   -17011   -16664   -17726   -19356   -19954   -19045 
  -17582   -16569   -16263   -16163   -15646   -14839   -14353   -14501 
  -15263   -16432   -17633   -18432   -18593   -18411   -18350   -18315 
  -17807   -16668   -15639   -16033   -18033   -19940   -20009   -18300 
  -16299   -15356   -15788   -17089   -18243   -18280   -17277   -16297 
  -16232   -16960   -17583   -17485   -16587   -15206   -14547   -15853 
  -18561   -20768   -21124   -19661   -17741   -16958   -17513   -18415 
  -18952   -18924   -18279   -17342   -16731   -16800   -17273   -17564 
  -17496   -17406   -17447   -17266   -16699   -16244   -16478   -17348 
  -18185   -18384   -17983   -17599   -17880   -18731   -19242   -18866 
  -18063   -17451   -17089   -16810   -16702   -16954   -17544   -18146 
  -18365   -18072   -17381   -16556   -16067   -16352   -17429   -18665 
  -19033   -18225   -17064   -16449   -16798   -18030   -19252   -19469 
  -18932   -18515   -18358   -18145   -17918   -17847   -17714   -17103 
  -16247   -16058   -16745   -17392   -17197   -16405   -16120   -16968 
  -18052   -18342   -18048   -17733   -17587   -17686   -17918   -17972 
  -17633   -17007   -16663   -17228   -18523   -19557   -19581   -18771 
  -17799   -17180   -17032   -17220   -17420   -17352   -17167   -17066 
  -17035   -17398   -18391   -19113   -18431   -16717   -15493   -15630 
  -16618   -17459   -17747   -17834   -18009   -17976   -17547   -17176 
  -17209   -17227   -16789   -16291   -16443   -17185   -17616   -17317 
  -17057   -17409   -17747   -17313   -16483   -16459   -17568   -18462 
  -17949   -16860   -16922   -18396   -19826   -19985   -19263   -18693 
  -18315   -17583   -16885   -17159   -18127   -18280   -16900   -15196 
  -14917   -16359   -18206   -19044   -18856   -18662   -18607   -17763 
  -16094   -14759   -14528   -15202   -16120   -16846   -17432   -17794 
  -17536   -16837   -16632   -17505   -18848   -19498   -19148   -18530 
  -18274   -18258   -18011   -17412   -16995   -17365   -18291   -18997 
  -19225   -19182   -18816   -17913   -16633   -15700   -15838   -16854 
  -17868   -18423   -18667   -18743   -18299   -16981   -15553   -15232 
  -15795   -15977   -15619   -15930   -17567   -19348   -19491   -17998 
  -16723   -16843   -17501   -17491   -17120   -17517   -18769   -19665 
  -19460   -18925   -18867   -18805   -17960   -16621   -16108   -17182 
  -18678   -18720   -17101   -15614   -15973   -17734   -18897   -18366 
  -16980   -16322   -17108   -18590   -19572   -19705   -19265   -18395 
  -17344   -16677   -16897   -17775   -18135   -17251   -15924   -15337 
  -15761   -16792   -17776   -18141   -18057   -18183   -18682   -19017 
  -18569   -17628   -17267   -17635   -17856   -17744   -17864   -18422 
  -19075   -19242   -18555   -17331   -16414   -16594   -17851   -18912 
  -18253   -15977   -13933   -13738   -15337   -17286   -18225   -18204 
  -17980   -17568   -16893   -16599   -17130   -18092   -18692   -18476 
  -17880   -17698   -18048   -18273   -17793   -16915   -16480   -16865 
  -17821   -18967   -19957   -20233   -19299   -17550   -16320   -16588 
  -17814   -18634   -18474   -17923   -17860   -18419   -18727   -17992 
  -16684   -15901   -15948   -16298   -16663   -17163   -17481   -16956 
  -15658   -14527   -14355   -14987   -15654   -15855   -15828   -16108 
  -16767   -17641   -18816   -20166   -21196   -21400   -20363   -18457 
  -17216   -17599   -18769   -19522   -19786   -20229   -20876   -20767 
  -19344   -17169   -15381   -15044   -16146   -17450   -17956   -17749 
  -17217   -16376   -15346   -14802   -15468   -17289   -19056   -19388 
  -18241   -16671   -15672   -15738   -16596   -17383   -17703   -18044 
  -18848   -19758   -20183   -20115   -19899   -19703   -19330   -18675 
  -18153   -17948   -17844   -18057   -18738   -19392   -19638   -19273 
  -18150   -16849   -16378   -16740   -16861   -16262   -15600   -15313 
  -15144   -15045   -15417   -16529   -17811   -18088   -17181   -16513 
  -17348   -19141   -20083   -19144   -17359   -16667   -17605   -19002 
  -19562   -18966   -17822   -16978   -16822   -17335   -18234   -18836 
  -18536   -17493   -16605   -16668   -17533   -18226   -17841   -16525 
  -15377   -15141   -15695   -16522   -16781   -16046   -15272   -15851 
  -17938   -20152   -20771   -19419   -17275   -15676   -15187   -15585 
  -16395   -17432   -18478   -18982   -18613   -17564   -16224   -15041 
  -14492   -14879   -16267   -18539   -21008   -22199   -21101   -18415 
  -15905   -14980   -15592   -16586   -17343   -17950   -18349   -18453 
  -18486   -18854   -19550   -19982   -19761   -19047   -18369   -18358 
  -18906   -19089   -18330   -16912   -15430   -14507   -14732   -16202 
  -18166   -19326   -18750   -16945   -15734   -16591   -18859   -20110 
  -19198   -17560   -16590   -16243   -16526   -17740   -19589   -20999 
  -20768   -19066   -17448   -16802   -16700   -16656   -16723   -17118 
  -17680   -17992   -17953   -17757   -17513   -17192   -16803   -16586 
  -16818   -17498   -18454   -19336   -19600   -18952   -17514   -15831 
  -14994   -15799   -17554   -18648   -18343   -17381   -16966   -17496 
  -18276   -18414   -17672   -16378   -15307   -15344   -16218   -16610 
  -16120   -15946   -17154   -19126   -20402   -20529   -20083   -19475 
  -18590   -17439   -16559   -16679   -17847   -18503   -16947   -14341 
  -13549   -15475   -18558   -20325   -19395   -17115   -15769   -15876 
  -16630   -17482   -18320   -18998   -19194   -18767   -18323   -18711 
  -19905   -21131   -21320   -19654   -16831   -14694   -14347   -15695 
  -17652   -18422   -16976   -14111   -11853   -11897   -13872   -15959 
  -17293   -17984   -18046   -17739   -17367   -17007   -17181   -18243 
  -19431   -20054   -20353   -20286   -19222   -17363   -15835   -15523 
  -16594   -18365   -19514   -19521   -19431   -19842   -19469   -17435 
  -15148   -14536   -15984   -18154   -19137   -18303   -16699   -15423 
  -14812   -15078   -16474   -18484   -19688   -19261   -18481   -19619 
  -22601   -24266   -22137   -17698   -14932   -15785   -17915   -17915 
  -15685   -13826   -14114   -16143   -18312   -19672   -20370   -20191 
  -19016   -17890   -17219   -16177   -14678   -13721   -14526   -17352 
  -20272   -21104   -20170   -18742   -16914   -14706   -13069   -13170 
  -15294   -17886   -18665   -17722   -17128   -17311   -17216   -16599 
  -15877   -15607   -16256   -17868   -20100   -21863   -21907   -20457 
  -19006   -18704   -19441   -20166   -20146   -19417   -18157   -16482 
  -14754   -13776   -14104   -14916   -14812   -14079   -14585   -17135 
  -20295   -21752   -20380   -17501   -15750   -16208   -17464   -17699 
  -16575   -15340   -15674   -17976   -20490   -20792   -18280   -14717 
  -12823   -14389   -18528   -22207   -23379   -22439   -20538   -18339 
  -16330   -15091   -15022   -15861   -16561   -16159   -14999   -14524 
  -15653   -17874   -19778   -20291   -19653   -18746   -17641   -16081 
  -14986   -15651   -17593   -18936   -18773   -17740   -16680   -15950 
  -15857   -16806   -18576   -20046   -20271   -19556   -19014   -19151 
  -19325   -18682   -17192   -16035   -16406   -17633   -18137   -17514 
  -16325   -15408   -15468   -16355   -17574   -18962   -20159   -20505 
  -19908   -18991   -18354   -18233   -18405   -18216   -17271   -16097 
  -15495   -15574   -16255   -17473   -18281   -17599   -15770   -14443 
  -15110   -17086   -18091   -17506   -16880   -17635   -19507   -20614 
  -19691   -17618   -16046   -15990   -17413   -19437   -20950   -21055 
  -19789   -17901   -16116   -15407   -16405   -18285   -19414   -19149 
  -18299   -17568   -16703   -15612   -15210   -16430   -18694   -20314 
  -20376   -19126   -17223   -15480   -14720   -15583   -17907   -20089 
  -20434   -19456   -19111   -19899   -20186   -18408   -15437   -14276 
  -16433   -19202   -18804   -15534   -13005   -13541   -16406   -19005 
  -19161   -17185   -15238   -14797   -15641   -16603   -16812   -16271 
  -15376   -14933   -15955   -17998   -19113   -18441   -17209   -16829 
  -17352   -17729   -17088   -16174   -16607   -18272   -19294   -18708 
  -17523   -17163   -17659   -17999   -17828   -17591   -17601   -17744 
  -17820   -17967   -18287   -18045   -16478   -14396   -13759   -15692 
  -19106   -21093   -19558   -15484   -12079   -11898   -14524   -17415 
  -18829   -18725   -18014   -18085   -19487   -20979   -21008   -19580 
  -17959   -17351   -18189   -19724   -20533   -20061   -19028   -18395 
  -18621   -19434   -19996   -19870   -19495   -19201   -18836   -18503 
  -18495   -18821   -19148   -19170   -19175   -19317   -19005   -18337 
  -18382   -19398   -20328   -19932   -18067   -16002   -15061   -15256 
  -15711   -16044   -16830   -18566   -20661   -21959   -21863   -20417 
  -17991   -15550   -14598   -16162   -19795   -23291   -23993   -21562 
  -18368   -16474   -16239   -17173   -18423   -19469   -20227   -20201 
  -19059   -17535   -16748   -17119   -17959   -18253   -17861   -16993 
  -15688   -14554   -14237   -14472   -14948   -15898   -17253   -18459 
  -19087   -18941   -17987   -16525   -15188   -14415   -14162   -14393 
  -15059   -15373   -14462   -12602   -10666    -9393    -9472   -11011 
  -13340   -15519   -16447   -15595   -13863   -12649   -12548   -13157 
  -13686   -14060   -14777   -15595   -15890   -15905   -16301   -17026 
  -17410   -17217   -17227   -18414   -20480   -21829   -21219   -19026 
  -16776   -15862   -16866   -19411   -22048   -23205   -22599   -21000 
  -19422   -18495   -17980   -17496   -17139   -17039   -17392   -18616 
  -20571   -22202   -22439   -21034   -18855   -17363   -17248   -18135 
  -19357   -20186   -20174   -19565   -18748   -17795   -16897   -16459 
  -16586   -17232   -18488   -20089   -21296   -21641   -21402   -21298 
  -21762   -22601   -23137   -22443   -20113   -17104   -15182   -15056 
  -15857   -16686   -17275   -17460   -17523   -17932   -18366   -18295 
  -17594   -16205   -14605   -13716   -13720   -13853   -13236   -12087 
  -11685   -12459   -13721   -15191   -16533   -16602   -15003   -12918 
  -12079   -13698   -16945   -18759   -17097   -13186    -9613    -7821 
   -7824    -9192   -11543   -14180   -16449   -18567   -21070   -23781 
  -25860   -26364   -24964   -22690   -21251   -21386   -22624   -24059 
  -24787   -24108   -21878   -18986   -16935   -16441   -17058   -17905 
  -18180   -17647   -16775   -16074   -15693   -15850   -16661   -17609 
  -18438   -19684   -21224   -21991   -21541   -20675   -20650   -21988 
  -23789   -24526   -23607   -21937   -20957   -21276   -22362   -23284 
  -23345   -22252   -20186   -17775   -15507   -13301   -11095    -9332 
   -8529    -8760    -9589   -10382   -11055   -12046   -13092   -13261 
  -12406   -11080    -9721    -8981    -9432   -10586   -11389   -11331 
  -10570    -9583    -8761    -7956    -6812    -5881    -6430    -8897 
  -12553   -15876   -17321   -17085   -16893   -17639   -18814   -19697 
  -20164   -20679   -21533   -22397   -23052   -23885   -25164   -26657 
  -27862   -28100   -27398   -26704   -26225   -25145   -23234   -21388 
  -20672   -21041   -21331   -20815   -19692   -18647   -18636   -19921 
  -21417   -21821   -20888   -19399   -18415   -18624   -19877   -21153 
  -21251   -19568   -16526   -13798   -13163   -14775   -17309   -19192 
  -19491   -18503   -17192   -16025   -14856   -13266   -10970    -8599 
   -7600    -9066   -12949   -17713   -20852   -21173   -19920   -18786 
  -18397   -18677   -19176   -19683   -20632   -21976   -22536   -21240 
  -18310   -15134   -13323   -13699   -15957   -18940   -21242   -22172 
  -22200   -22050   -21996   -21992   -21523   -20286   -19191   -19171 
  -19884   -20148   -18893   -16293   -14008   -13435   -14337   -15402 
  -15423   -14339   -13486   -14142   -15985   -17331   -16669   -14176 
  -11584   -10359   -10501   -11233   -12001   -12583   -13086   -13871 
  -14817   -15087   -14104   -12478   -11655   -12615   -15111   -17953 
  -19712   -19765   -18900   -18465   -19128   -20544   -21648   -21671 
  -21159   -21035   -21115   -20830   -20345   -20201   -20745   -21915 
  -23233   -24167   -24406   -23927   -23384   -23822   -25199   -26076 
  -25259   -22937   -20329   -18567   -17716   -17022   -15932   -14612 
  -13860   -14116   -14598   -14462   -14048   -14046   -14451   -14959 
  -15685   -16758   -17645   -17632   -16600   -14941   -13369   -12788 
  -13540   -14958   -16128   -16737   -16974   -16915   -16416   -15734 
  -15475   -16046   -17586   -19773   -21594   -21987   -20636   -18130 
  -15695   -14575   -15268   -17065   -18461   -18565   -17805   -17032 
  -16700   -16810   -17361   -18698   -20815   -22824   -23641   -23040 
  -22318   -22959   -24598   -25770   -25610   -24138   -22168   -20696 
  -19975   -19604   -19157   -18624   -18256   -17875   -17046   -15911 
  -15013   -14681   -14864   -15132   -15060   -14581   -13732   -12517 
  -11043    -9823    -9556   -10301   -11655   -13479   -15500   -17000 
  -17635   -17653   -17547   -18195   -20077   -22189   -23064   -22206 
  -20016   -17396   -15404   -14617   -14935   -15944   -17181   -18245 
  -18987   -19495   -19888   -20204   -20430   -20424   -19908   -18967 
  -18025   -17169   -16322   -15885   -16394   -17703   -18964   -19209 
  -18006   -16062   -14866   -15271   -16627   -17536   -17444   -17320 
  -18374   -20483   -22270   -22206   -19890   -16723   -14577   -14266 
  -15533   -17259   -18084   -17828   -17328   -16803   -15989   -15229 
  -15052   -15620   -16907   -18628   -20181   -20838   -20139   -18357 
  -16420   -15506   -16491   -18733   -20128   -19421   -17425   -15668 
  -14974   -15241   -15881   -16584   -17398   -18054   -18234   -18090 
  -17663   -16687   -15353   -14175   -13263   -12557   -12148   -12044 
  -12054   -12067   -12125   -11944   -11264   -10858   -11785   -13949 
  -16386   -18094   -18666   -18752   -19199   -19943   -20483   -20622 
  -20433   -20317   -20780   -21821   -22995   -24024   -24943   -25597 
  -25470   -24313   -22453   -20367   -18496   -17466   -17760   -19037 
  -20335   -21000   -20891   -20027   -18700   -17235   -15484   -13387 
  -11565   -10652   -10511   -10403    -9872    -9339    -9668   -11124 
  -12974   -14327   -15045   -15496   -15691   -15438   -15109   -15526 
  -17186   -19772   -22171   -23086   -22084   -20135   -18775   -18793 
  -20070   -22127   -24204   -25393   -25168   -23579   -21143   -18615 
  -16653   -15642   -15550   -15809   -15587   -14461   -12943   -12295 
  -13517   -16309   -19237   -20772   -20102   -17695   -15187   -14044 
  -14399   -15376   -15997   -16011   -16355   -18103   -20792   -22809 
  -23116   -21895   -20344   -19809   -20279   -20634   -20526   -20602 
  -21104   -21099   -19375   -16281   -13707   -12799   -13041   -13647 
  -14459   -15674   -17278   -18828   -19963   -20744   -21317   -21560 
  -20857   -18782   -15993   -13645   -12384   -12349   -13541   -15658 
  -17865   -19408   -20332   -21153   -22214   -23454   -24332   -24048 
  -22554   -20907   -19940   -19368   -18619   -17586   -16519   -15861 
  -15947   -16544   -16927   -16789   -16665   -17138   -18257   -19803 
  -21323   -22122   -21589   -19492   -16391   -13501   -11692   -11361 
  -12658   -14797   -16514   -17410   -17813   -18141   -18659   -19348 
  -20096   -20615   -20513   -19988   -19527   -19003   -18152   -17097 
  -15928   -15072   -15333   -16399   -17003   -16729   -16321   -16592 
  -17473   -18071   -17670   -16380   -15017   -14496   -14974   -15566 
  -15310   -14161   -12756   -11746   -11587   -12228   -13224   -14470 
  -16185   -18096   -19456   -19961   -20000   -20090   -20540   -21267 
  -21832   -21907   -21500   -20413   -18330   -15896   -14467   -14682 
  -16255   -18469   -20464   -21806   -22419   -21894   -20004   -17784 
  -16829   -17458   -18372   -18029   -16039   -13328   -11037    -9859 
  -10403   -12853   -16117   -18233   -18029   -16140   -14135   -13271 
  -13927   -15277   -16235   -16906   -17844   -18771   -19207   -19120 
  -18659   -18316   -18782   -20069   -21440   -22291   -22727   -23353 
  -24447   -25428   -25448   -24321   -22770   -21810   -21612   -21348 
  -20478   -19360   -18561   -18218   -17991   -17401   -16267   -14720 
  -13063   -11959   -11726   -11578   -10944   -10156    -9629    -9742 
  -10219   -10218   -10068   -10982   -13112   -15102   -15530   -14520 
  -13498   -13706   -15176   -16958   -18188   -18717   -18914   -19147 
  -19506   -19773   -19585   -19138   -19360   -20796   -22686   -23685 
  -23317   -22113   -20807   -19971   -19738   -19722   -19660   -19641 
  -19521   -18949   -18134   -17748   -18130   -19033   -19824   -19930 
