Origin Time       2025/01/13 21:19:00
Lat.              31.8
Long.             131.6
Depth. (km)       30
Mag.              6.9
Station Code      MYZH13
Station Lat.      31.7301
Station Long.     131.0791
Station Height(m) 152
Record Time       2025/01/13 21:19:42
Sampling Freq(Hz) 100Hz
Duration Time(s)  280
Dir.              4
Scale Factor      7845(gal)/8223790
Max. Acc. (gal)   36.583
Last Correction   2025/01/13 21:19:42
Memo.             
[...]
    6579     6066     5467     5212     5787     7118     8796    10659 
   12376    13149    12549    10829     8248     5057     1787    -1017 
   -3095    -4506    -5555    -6621    -8052   -10077   -12534   -14928 
  -17003   -18854   -20452   -21570   -22302   -22978   -23523   -23620 
  -23242   -22693   -22420   -22843   -24198   -26326   -28547   -30001 
  -30073   -28487   -25200   -20461   -14879    -9239    -4364    -1035 
     425      249    -1142    -3308    -5741    -7943    -9576   -10334 
   -9788    -7809    -4801    -1386     1800     4144     5188     4681 
    2532    -1017    -5321    -9512   -12577   -13894   -13803   -13185 
  -12657   -12382   -12526   -13331   -14712   -16499   -18627   -20769 
  -22330   -22752   -21853   -19899   -17336   -14578   -11894    -9539 
   -7809    -6782    -6413    -6714    -7479    -8174    -8279    -7705 
   -6804    -5807    -4521    -2828    -1177      -91      232     -467 
   -2420    -5422    -9088   -13000   -16584   -19286   -20953   -21829 
  -22118   -22030   -21995   -22184   -22393   -22403   -22104   -21635 
  -21118   -20335   -19138   -17791   -16561   -15429   -14293   -13018 
  -11461    -9749    -8191    -6831    -5487    -4152    -2928    -1696 
    -112     1996     4290     6296     7844     8927     9463     9273 
    8391     7200     6084     5316     5062     5063     4900     4484 
    3681     2178      141    -1895    -3754    -5395    -6428    -6693 
   -6589    -6376    -5960    -5323    -4635    -3958    -3102    -2068 
   -1300    -1139    -1364    -1475    -1163     -384      869     2519 
    4213     5559     6227     5973     4908     3379     1714      180 
   -1212    -2533    -3618    -4337    -4789    -5022    -4993    -4749 
   -4361    -3850    -3377    -3215    -3500    -4191    -5169    -6369 
   -7832    -9512   -11113   -12249   -12733   -12679   -12278   -11561 
  -10467    -8985    -7140    -5158    -3527    -2628    -2502    -2990 
   -3939    -5175    -6309    -6948    -6872    -6075    -4954    -4118 
   -3990    -4799    -6581    -9126   -12029   -14521   -15601   -14814 
  -12425    -8864    -4648     -550     2536     3920     3333      924 
   -2901    -7545   -12181   -15859   -17838   -17887   -16285   -13559 
  -10415    -7701    -6062    -5786    -6860    -8799   -10867   -12556 
  -13500   -13450   -12491   -11056    -9863    -9563   -10370   -12168 
  -14755   -17860   -21003   -23457   -24528   -23998   -22100   -19165 
  -15736   -12613   -10498    -9891   -10891   -12984   -15495   -17867 
  -19591   -20537   -20866   -20549   -19365   -17177   -14303   -11619 
   -9846    -8946    -8592    -8664    -9050    -9478    -9684    -9725 
   -9792    -9663    -8924    -7789    -6922    -6529    -6361    -6257 
   -6270    -6444    -6511    -6110    -5297    -4500    -3962    -3512 
   -3117    -3082    -3331    -3384    -3036    -2439    -1890    -1568 
   -1345    -1273    -1725    -2636    -3383    -3504    -2903    -1516 
     508     2686     4617     5960     6305     5649     4353     2610 
     723     -710    -1501    -1969    -2384    -2826    -3269    -3666 
   -4050    -4379    -4463    -4220    -3870    -3750    -4122    -5300 
   -7520   -10490   -13532   -16260   -18428   -19568   -19442   -18364 
  -16972   -15927   -15608   -16008   -16857   -17752   -18231   -17899 
  -16507   -13984   -10574    -7014    -4163    -2435    -1803    -2083 
   -3080    -4522    -5954    -6868    -6925    -6119    -4658    -2824 
   -1016      463     1651     2731     3815     5023     6438     7942 
    9267     9961     9463     7558     4517      912    -2550    -5317 
   -7186    -8122    -8117    -7381    -6293    -5171    -4436    -4630 
   -6049    -8554   -11704   -14916   -17702   -19772   -21087   -21919 
  -22484   -22744   -22665   -22233   -21362   -19935   -18021   -16011 
  -14335   -13185   -12572   -12344   -12210   -11761   -10565    -8560 
   -6011    -3265     -900      438      553     -176    -1209    -2238 
   -3044    -3375    -3218    -2868    -2563    -2407    -2668    -3604 
   -5113    -6885    -8753   -10683   -12409   -13414   -13475   -12815 
  -11745   -10716   -10516   -11564   -13505   -15743   -17648   -18527 
  -18004   -16069   -12815    -8707    -4656    -1409      695     1480 
     958     -573    -2643    -4760    -6469    -7357    -7280    -6413 
   -5046    -3581    -2394    -1552    -1085    -1212    -2054    -3476 
   -5124    -6616    -7735    -8368    -8672    -9167    -9921   -10334 
  -10176    -9656    -8847    -7847    -6849    -5972    -5354    -4990 
   -4712    -4460    -4094    -3275    -2042     -938     -334     -213 
    -535    -1301    -2295    -3091    -3379    -3333    -3481    -4071 
   -4896    -5690    -6369    -6920    -7129    -6716    -5699    -4318 
   -2791    -1331     -133      583      645      236     -279     -747 
   -1080    -1067     -589      179      911     1281      962     -295 
   -2448    -5146    -7965   -10539   -12607   -14138   -15321   -16321 
  -17042   -17425   -17764   -18362   -19229   -20136   -20821   -21216 
  -21362   -21234   -20854   -20270   -19413   -18171   -16499   -14443 
  -12016    -9108    -5746    -2380      321     1954     2586     2461 
    1807     1000      588      992     2299     4429     7179     9971 
   11946    12517    11647     9742     7334     4823     2636     1146 
     311      -76     -209     -291     -392     -634    -1229    -2120 
   -3044    -3898    -4819    -5921    -7238    -8877   -10947   -13552 
  -16654   -19930   -22924   -25076   -25882   -25281   -23546   -21093 
  -18585   -16891   -16646   -17779   -19834   -22480   -25159   -26921 
  -27018   -25446   -22750   -19444   -15921   -12723   -10536    -9834 
  -10604   -12519   -15110   -17686   -19430   -19692   -18169   -14997 
  -10721    -6023    -1628     1777     3878     4617     4013     2277 
    -222    -2929    -5128    -6412    -6794    -6313    -4947    -2857 
    -442     1764     3238     3701     3125     1615     -545    -2843 
   -4585    -5163    -4387    -2521      -49     2529     4650     5674 
    5236     3258     -226    -4837    -9910   -14827   -18929   -21756 
  -23355   -23827   -23140   -21641   -20001   -18624   -17543   -16726 
  -16325   -16480   -17016   -17783   -18943   -20491   -22138   -23620 
  -24757   -25678   -26674   -27519   -27588   -26470   -24092   -20677 
  -16684   -12515    -8492    -5073    -2679    -1360     -888     -932 
   -1085    -1024     -592      348     1966     4294     7038     9687 
   11684    12479    11731     9518     6315     2787     -544    -3423 
   -5638    -6863    -6916    -5884    -3958    -1526      905     3041 
    4526     4800     3519      788    -2870    -6750   -10335   -13366 
  -15612   -16842   -17030   -16274   -14694   -12746   -11114   -10212 
  -10133   -10789   -11992   -13311   -14044   -13730   -12366   -10095 
   -7268    -4336    -1444     1344     3694     5431     6812     8095 
    9343    10569    11715    12694    13539    14285    14945    15595 
   16414    17574    18855    19762    20044    19634    18484    16652 
   14401    12117     9931     7663     5278     2932      764    -1181 
   -3103    -5051    -6646    -7657    -8140    -8203    -8036    -7857 
   -7813    -8037    -8629    -9612   -10898   -12295   -13637   -14898 
  -16005   -16764   -17192   -17479   -17610   -17444   -16881   -15805 
  -14283   -12711   -11583   -11237   -11877   -13456   -15502   -17381 
  -18732   -19417   -19261   -18158   -16330   -14462   -13398   -13491 
  -14536   -16298   -18505   -20695   -22492   -23673   -24117   -24007 
  -23738   -23616   -23808   -24429   -25544   -26936   -28123   -28729 
  -28563   -27526   -25650   -23118   -20355   -17973   -16509   -16259 
  -17112   -18526   -19894   -20676   -20351   -18652   -15560   -11277 
   -6273    -1104     3483     6702     8168     7920     6245     3573 
     589    -1642    -2241    -1016     1721     5374     9184    12436 
   14589    15256    14274    11873     8546     5027     2181      603 
     534     1904     4210     6631     8471     9390     9127     7642 
    5310     2455     -653    -3620    -6214    -8417   -10241   -11793 
  -13347   -14972   -16594   -18373   -20414   -22628   -24939   -27102 
  -28985   -30784   -32385   -33359   -33512   -32853   -31433   -29427 
  -27124   -24745   -22316   -19762   -17047   -14245   -11388    -8433 
   -5518    -3007    -1220     -260      122      321      637     1410 
    2787     4565     6600     8772    10764    12322    13350    13775 
   13495    12433    10732     8665     6403     4036     1611     -652 
   -2482    -3954    -5271    -6392    -6968    -6783    -6118    -5293 
   -4387    -3477    -2681    -2058    -1637    -1572    -2070    -3069 
   -4259    -5186    -5370    -4710    -3416    -1517      938     3519 
    5584     6612     6359     4946     2675     -233    -3501    -6660 
   -9459   -11886   -13693   -14548   -14450   -13710   -12788   -12093 
  -11958   -12752   -14702   -17640   -21096   -24630   -27859   -30383 
  -31936   -32401   -31860   -30823   -29817   -28929   -28151   -27623 
  -27182   -26329   -24888   -23020   -20757   -18084   -15094   -11970 
   -8941    -6147    -3561    -1003     1634     4275     6822     9255 
   11461    13186    14192    14323    13622    12325    10681     8954 
    7506     6694     6723     7574     9051    10883    12820    14543 
   15510    15358    14129    11821     8451     4441      307    -3605 
   -6932    -9618   -12105   -14563   -16706   -18585   -20835   -23855 
  -27411   -31286   -35239   -38619   -40968   -42383   -43000   -42701 
  -41427   -39418   -36937   -34091   -30973   -27764   -24702   -21897 
  -19377   -17219   -15348   -13537   -11487    -8904    -5823    -2461 
    1012     4349     7276     9656    11500    12850    13662    13871 
   13506    12588    11210     9605     7847     5875     3966     2662 
    2145     2187     2640     3379     4105     4580     4660     4329 
    3623     2417      687    -1243    -3046    -4573    -5697    -6432 
   -7072    -7794    -8537    -9217    -9765   -10168   -10524   -10986 
  -11574   -12037   -12306   -12811   -13780   -14782   -15373   -15498 
  -15103   -14106   -12584   -10594    -8363    -6390    -4927    -3910 
   -3356    -3449    -4299    -5651    -7095    -8417    -9610   -10794 
  -12002   -13250   -14611   -15982   -17253   -18486   -19592   -20264 
  -20337   -19888   -19120   -18166   -16954   -15433   -13717   -11827 
   -9832    -8098    -6860    -5972    -5216    -4483    -3747    -2971 
   -2037     -954       44      780     1237     1451     1518     1648 
    2020     2701     3820     5607     8067    10813    13298    15013 
   15715    15484    14314    12093     9131     6119     3503     1408 
     -48     -857    -1128     -912     -279      679     1794     2740 
    3302     3397     2941     1930      396    -1548    -3574    -5454 
   -7330    -9437   -11672   -13684   -15326   -16664   -17712   -18284 
  -18245   -17703   -16848   -15897   -15072   -14540   -14451   -14751 
  -15194   -15720   -16401   -17130   -17747   -18234   -18593   -18725 
  -18603   -18322   -17833   -16911   -15338   -12946    -9864    -6616 
   -3753    -1599     -318      -93    -1093    -3161    -5814    -8549 
  -10910   -12523   -13238   -13020   -11948   -10336    -8506    -6654 
   -5042    -3863    -3121    -2845    -3057    -3574    -4170    -4739 
   -5223    -5540    -5746    -6043    -6527    -7222    -8302    -9782 
  -11377   -12972   -14554   -15882   -16652   -16688   -16144   -15398 
  -14548   -13587   -12739   -12108   -11568   -11183   -11176   -11604 
  -12469   -13815   -15515   -17361   -19253   -21054   -22512   -23511 
  -24183   -24557   -24398   -23620   -22364   -20617   -18350   -15773 
  -13167   -10764    -8699    -6975    -5616    -4610    -3758    -2817 
   -1628      -76     1907     4197     6453     8355     9710    10389 
   10358     9634     8283     6666     5242     4162     3491     3244 
    3169     2987     2513     1605      253    -1470    -3387    -5177 
   -6623    -7700    -8446    -8896    -9213    -9660   -10385   -11269 
  -12032   -12490   -12646   -12626   -12595   -12607   -12498   -11923 
  -10628    -8691    -6307    -3646    -1050     1078     2493     3172 
    3322     3176     2938     2887     3192     3852     4773     5753 
    6562     7010     6883     6156     5097     3917     2656     1462 
     492     -260     -908    -1694    -2876    -4560    -6789    -9474 
  -12278   -14814   -16799   -18056   -18439   -17934   -16758   -15180 
  -13528   -12225   -11454   -11155   -11322   -11913   -12640   -13047 
  -12798   -11904   -10606    -9073    -7495    -6245    -5601    -5633 
   -6359    -7696    -9348   -10929   -12102   -12540   -12023   -10592 
   -8460    -5921    -3383    -1305      -39      225     -488    -1933 
   -3828    -5899    -7851    -9451   -10555   -11132   -11308   -11249 
  -11102   -11061   -11223   -11493   -11746   -11851   -11773   -11632 
  -11543   -11534   -11523   -11423   -11358   -11441   -11535   -11592 
  -11754   -12116   -12733   -13678   -15018   -16804   -18960   -21261 
  -23440   -25354   -26920   -27999   -28560   -28709   -28660   -28761 
  -29065   -29265   -29123   -28444   -27001   -24745   -21789   -18369 
  -14859   -11597    -8868    -6864    -5509    -4479    -3489    -2369 
    -950      801     2751     4819     7025     9405    12005    14843 
   17872    20953    23908    26596    28854    30447    31179    31029 
   30172    28962    27784    26840    26133    25529    24887    23990 
   22462    20042    16772    12833     8525     4244      306    -3090 
   -5877    -8087    -9891   -11692   -13868   -16537   -19724   -23426 
  -27445   -31442   -35054   -37957   -39957   -41038   -41323   -41010 
  -40389   -39718   -39058   -38377   -37662   -36892   -36019   -34921 
  -33494   -31765   -29759   -27452   -24869   -22133   -19282   -16189 
  -12866    -9532    -6277    -3072       55     3037     5753     8137 
   10326    12468    14569    16613    18643    20650    22485    24036 
   25239    25891    25882    25240    24003    22377    20557    18744 
   17070    15110    12734    10453     8222     5664     2749     -426 
   -3732    -6928    -9618   -11677   -13339   -14634   -15495   -16079 
  -16704   -17628   -18875   -20518   -22650   -24845   -26466   -27461 
  -28121   -28471   -28475   -28243   -27854   -27379   -26937   -26530 
  -26001   -25235   -24290   -23275   -22221   -21136   -20110   -19256 
  -18589   -18056   -17620   -17332   -17230   -17162   -16962   -16627 
  -16175   -15545   -14733   -13868   -13078   -12324   -11503   -10741 
  -10273   -10129   -10156   -10180   -10096    -9934    -9741    -9400 
   -8846    -8139    -7183    -5975    -4785    -3730    -2747    -1848 
    -978       -6     1171     2650     4415     6342     8286    10085 
   11620    12949    14134    15067    15670    15970    15916    15408 
   14465    13142    11425     9401     7352     5470     3740     2088 
     425    -1297    -3106    -5061    -7168    -9360   -11515   -13454 
  -15174   -16772   -18158   -19265   -20240   -21185   -22052   -22754 
  -23195   -23333   -23160   -22713   -22046   -21107   -19849   -18431 
  -17078   -15846   -14698   -13667   -12746   -11846   -10901    -9877 
   -8730    -7410    -5987    -4638    -3466    -2519    -1810    -1247 
    -700      -17      935     2097     3291     4326     5008     5294 
    5227     4788     4033     3200     2678     2763     3383     4275 
    5298     6285     6966     7155     6816     6014     4843     3392 
    1763      129    -1368    -2790    -4261    -5799    -7377    -8957 
  -10446   -11794   -12915   -13602   -13784   -13671   -13464   -13254 
  -13177   -13437   -14156   -15250   -16517   -17732   -18671   -19187 
  -19261   -18991   -18578   -18195   -17925   -17807   -17878   -18137 
  -18539   -19039   -19561   -20007   -20356   -20537   -20426   -20040 
  -19422   -18601   -17691   -16730   -15693   -14632   -13518   -12260 
  -10852    -9367    -7912    -6426    -4779    -3113    -1684     -507 
     542     1530     2430     3226     3951     4600     5206     5842 
    6463     7010     7493     7897     8176     8305     8255     8024 
    7601     6982     6189     5152     3694     1746     -615    -3300 
   -6231    -9229   -11974   -14196   -15800   -16783   -17161   -16980 
  -16366   -15541   -14702   -13977   -13437   -13066   -12783   -12457 
  -11974   -11242   -10189    -8843    -7354    -5856    -4459    -3265 
   -2293    -1505     -886     -440      -94      272      708     1183 
    1707     2293     2833     3184     3283     3057     2467     1620 
     588     -670    -2173    -3850    -5574    -7238    -8884   -10559 
  -12187   -13698   -15088   -16347   -17509   -18634   -19712   -20718 
  -21655   -22532   -23317   -23942   -24348   -24445   -24121   -23407 
  -22434   -21270   -20007   -18821   -17836   -17065   -16440   -15803 
  -15002   -14029   -12964   -11888   -10890   -10014    -9204    -8460 
   -7847    -7352    -6903    -6474    -6076    -5674    -5242    -4884 
   -4638    -4369    -4035    -3717    -3491    -3400    -3427    -3504 
   -3634    -3789    -3858    -3820    -3746    -3588    -3279    -2928 
   -2681    -2590    -2682    -3045    -3727    -4638    -5595    -6400 
   -6940    -7157    -7028    -6625    -6131    -5778    -5688    -5867 
   -6264    -6737    -7114    -7263    -7128    -6778    -6311    -5846 
   -5540    -5429    -5424    -5460    -5489    -5471    -5398    -5220 
   -4932    -4645    -4396    -4171    -4014    -3979    -4066    -4163 
   -4081    -3802    -3466    -3084    -2598    -2065    -1570    -1146 
    -789     -468     -170       75      249      346      390      433 
     498      599      787     1081     1453     1854     2223     2451 
    2385     1984     1358      630      -81     -700    -1312    -2026 
   -2829    -3692    -4612    -5566    -6517    -7435    -8267    -8958 
   -9493    -9917   -10335   -10856   -11483   -12104   -12630   -13019 
  -13189   -13041   -12586   -11981   -11403   -10998   -10875   -11106 
  -11758   -12841   -14189   -15576   -16838   -17853   -18499   -18700 
  -18443   -17798   -16950   -16086   -15379   -14995   -15014   -15417 
  -16085   -16845   -17558   -18054   -18195   -17959   -17365   -16541 
  -15720   -15055   -14580   -14291   -14197   -14297   -14517   -14739 
  -14841   -14781   -14650   -14436   -13979   -13261   -12459   -11719 
  -10972   -10049    -9109    -8532    -8253    -7908    -7406    -6862 
   -6269    -5574    -4828    -4143    -3538    -3011    -2655    -2497 
   -2423    -2301    -2057    -1667    -1131     -434      459     1545 
    2762     4020     5192     6137     6774     7098     7123     6868 
    6417     5903     5347     4693     3967     3260     2569     1872 
    1190      500     -243    -1038    -1888    -2799    -3758    -4784 
   -5976    -7308    -8608    -9778   -10750   -11468   -11979   -12314 
  -12534   -12723   -12831   -12873   -13007   -13207   -13289   -13166 
  -12847   -12329   -11591   -10698    -9744    -8779    -7935    -7375 
   -7141    -7200    -7446    -7696    -7776    -7589    -7176    -6633 
   -6033    -5462    -5019    -4745    -4625    -4595    -4569    -4472 
