Origin Time       2025/01/13 21:19:00
Lat.              31.8
Long.             131.6
Depth. (km)       30
Mag.              6.9
Station Code      MYZH08
Station Lat.      32.2132
Station Long.     131.5309
Station Height(m) 68
Record Time       2025/01/13 21:19:40
Sampling Freq(Hz) 100Hz
Duration Time(s)  222
Dir.              4
Scale Factor      3920(gal)/6170801
Max. Acc. (gal)   113.522
Last Correction   2025/01/13 21:19:25
Memo.             
[...]
    -264     -264     -264     -262     -260     -258     -257     -258 
    -259     -261     -264     -265     -264     -263     -263     -262 
    -259     -258     -259     -261     -262     -263     -266     -266 
    -262     -260     -259     -257     -259     -263     -263     -264 
    -265     -263     -259     -258     -259     -260     -262     -265 
    -266     -263     -262     -261     -256     -255     -258     -258 
    -260     -267     -268     -266     -264     -260     -257     -256 
    -256     -256     -259     -263     -266     -267     -265     -263 
    -263     -259     -256     -255     -256     -260     -263     -263 
    -263     -264     -259     -256     -258     -258     -257     -260 
    -260     -259     -262     -264     -262     -261     -260     -258 
    -257     -257     -257     -259     -262     -263     -263     -262 
    -260     -257     -258     -258     -256     -258     -262     -264 
    -261     -259     -259     -259     -262     -264     -262     -261 
    -261     -258     -256     -258     -261     -262     -263     -267 
    -266     -261     -259     -259     -258     -258     -260     -261 
    -261     -265     -267     -266     -264     -262     -259     -256 
    -256     -259     -263     -264     -262     -263     -264     -261 
    -261     -262     -261     -260     -261     -259     -258     -261 
    -262     -262     -262     -262     -260     -258     -258     -259 
    -259     -256     -255     -258     -263     -266     -264     -260 
    -258     -257     -256     -256     -258     -260     -261     -261 
    -261     -263     -264     -262     -259     -257     -260     -261 
    -261     -263     -263     -261     -257     -254     -257     -260 
    -259     -258     -261     -265     -265     -262     -259     -258 
    -257     -257     -258     -259     -260     -262     -264     -263 
    -261     -258     -255     -255     -258     -262     -266     -266 
    -262     -260     -259     -254     -253     -260     -265     -266 
    -267     -268     -266     -262     -257     -256     -256     -257 
    -261     -264     -264     -261     -260     -260     -262     -264 
    -264     -266     -266     -261     -258     -258     -257     -258 
    -260     -262     -265     -267     -264     -260     -257     -256 
    -258     -262     -266     -267     -267     -264     -260     -257 
    -253     -254     -261     -269     -268     -262     -259     -257 
    -254     -257     -260     -261     -264     -265     -262     -260 
    -259     -257     -257     -258     -260     -260     -260     -259 
    -260     -263     -264     -262     -261     -262     -260     -256 
    -256     -259     -260     -261     -264     -263     -260     -260 
    -259     -258     -257     -257     -258     -260     -261     -262 
    -258     -255     -259     -263     -261     -261     -263     -262 
    -258     -253     -253     -257     -262     -265     -266     -265 
    -261     -257     -258     -260     -260     -259     -260     -263 
    -266     -266     -264     -260     -258     -259     -257     -256 
    -257     -258     -261     -262     -264     -268     -267     -263 
    -262     -260     -258     -260     -263     -265     -265     -264 
    -263     -261     -259     -258     -259     -264     -267     -263 
    -260     -263     -264     -259     -256     -258     -259     -258 
    -261     -264     -264     -264     -264     -262     -258     -258 
    -259     -260     -261     -262     -264     -266     -263     -259 
    -259     -255     -251     -254     -260     -264     -266     -264 
    -260     -259     -258     -255     -256     -260     -260     -260 
    -264     -267     -264     -260     -259     -258     -257     -259 
    -262     -266     -267     -265     -262     -261     -257     -254 
    -255     -258     -260     -262     -265     -265     -261     -258 
    -259     -258     -258     -259     -262     -265     -265     -263 
    -262     -259     -256     -257     -261     -263     -261     -261 
    -261     -260     -257     -258     -260     -260     -259     -263 
    -265     -261     -258     -258     -259     -262     -263     -262 
    -263     -262     -258     -257     -258     -259     -260     -262 
    -264     -262     -261     -261     -261     -260     -258     -257 
    -258     -262     -262     -262     -265     -266     -263     -261 
    -260     -261     -262     -262     -263     -264     -265     -269 
    -272     -273     -271     -271     -273     -273     -274     -278 
    -282     -283     -284     -285     -283     -283     -289     -294 
    -296     -301     -310     -313     -306     -288     -265     -250 
    -258     -284     -326     -369     -384     -371     -360     -353 
    -347     -361     -388     -383     -380     -447     -535     -552 
    -505     -424     -295     -189     -227     -385     -501     -502 
    -434     -359     -364     -511     -677     -624     -270      177 
     403      237     -262     -799     -992     -772     -519     -521 
    -600     -528     -313       12      256      -34     -916    -1715 
   -1730     -830      639     1901     2075     1042     -379    -1353 
   -1692    -1508     -939     -277      336     1091     1850     1960 
    1145      -92    -1149    -1664    -1377     -452      344      381 
     -84     -415     -501     -579     -720    -1033    -1663    -2250 
   -2133    -1265     -240      481      795      694      296     -121 
    -543    -1310    -2366    -2930    -2396     -972      816     2308 
    2605     1442     -308    -1702    -2508    -2714    -2279    -1560 
    -887       90     1470     2275     1602     -319    -2681    -4756 
   -5633    -4510    -1853      718     2022     1937      796     -900 
   -2511    -3722    -4639    -5087    -4428    -2390      259     2233 
    2789     1888     -111    -2358    -3903    -4499    -4405    -3627 
   -2204     -596      895     2047     2069      377    -2369    -4750 
   -5582    -4547    -2337     -120     1238     1530     1051      261 
    -579    -1546    -2511    -2785    -1937     -299     1427     2432 
    2268     1254      -64    -1343    -2115    -2157    -2108    -2403 
   -2332    -1270      286     1681     2723     2960     2118     1157 
    1075     1506     1764     1766     1197     -330    -1857    -2036 
   -1256     -588       77      891     1240     1235     1486     1307 
    -300    -2401    -3143    -2290     -877      740     2577     3578 
    2674      713    -1073    -3185    -5916    -7589    -6851    -4233 
    -244     4874     8986     9343     5873      609    -4624    -8327 
   -9056    -6527    -1935     3233     7663     9958     9298     5910 
     429    -5871   -10420   -10999    -7805    -2779     2408     6803 
    9223     8652     5709     1784    -3062    -8532   -11366    -8486 
   -1517     5775    11411    13783    11061     4367    -2626    -7894 
  -11152   -11086    -6559      871     8231    13113    13674     9119 
     869    -7733   -13673   -15899   -14070    -8137     -331     5943 
    9044     8592     4419    -2252    -8380   -10985    -9334    -5021 
     151     5110     8270     8126     5590     2657     -808    -5081 
   -7490    -6162    -3134     -173     3065     5604     5610     3655 
    1462     -920    -4056    -6658    -6831    -4892    -2186      746 
    2689     1856    -1378    -5030    -8055    -9628    -8713    -5905 
   -2249     2540     7392     8892     5885      958    -3640    -6948 
   -7371    -4208      522     4263     6232     6216     3833       71 
   -3627    -7109    -9452    -8137    -2907     2753     5698     5700 
    2648    -3953   -10997   -14027   -13236   -10606    -5254     2782 
    9867    13298    12848     7518    -2462   -11950   -15587   -13336 
   -7644       98     7404    10464     8851     5542     1826    -2904 
   -7289    -8700    -7355    -5056    -1308     4390     9368    10714 
    8365     3808    -1281    -5260    -7532    -8065    -6283    -2023 
    4321    11765    17246    17423    12652     5706    -2200   -10044 
  -14622   -13639    -8203     -728     6385    10789    11713     9395 
    3724    -3213    -7667    -8827    -7838    -4820    -1036      736 
     289     -548    -1715    -3366    -3514    -1448     -489    -3696 
   -9352   -13605   -14566   -11847    -5078     4804    14036    18160 
   15749     9257     1938    -5161   -10595   -10291    -3411     4758 
   10470    14570    15653    10633     2319    -4336    -9503   -13544 
  -13168    -7956    -1682     4305    10656    14892    14134     9578 
    3638    -2794    -8340   -11091   -11281   -10239    -7111     -875 
    5452     7792     6613     4686     2235     -789    -2417    -2969 
   -4389    -4369     -266     5200     9367    12597    12812     7129 
   -1562    -8355   -12209   -12813    -8446      -63     7377     9989 
    8511     4562    -2529   -11453   -16583   -14724    -9282    -4266 
    -251     2190     1771      -81       76     2926     5447     5900 
    5943     6517     6276     4458     1741     -948    -2523    -1960 
     425     3239     5606     7249     7928     7334     5013     1062 
   -3473    -7482    -9827    -8666    -2679     7122    17397    23766 
   23101    15778     4438    -9318   -23641   -32919   -31976   -22880 
  -10826     2866    16980    26585    27546    19022     3532   -11556 
  -18564   -16239    -7597     4767    16895    22259    17342     5251 
   -8558   -20920   -30039   -32812   -26642   -12575     5482    22167 
   30942    26321     8971   -13041   -31073   -40293   -38172   -25588 
   -7481    11128    26654    35657    35767    25829     6664   -15162 
  -29907   -32821   -25174    -9560    10096    26636    33595    29566 
   17134       -9   -17523   -29171   -29168   -16594     3738    22676 
   31411    27903    15722    -1439   -19120   -30740   -32659   -26168 
  -12480     7105    26235    36414    33961    20179    -1244   -23290 
  -36595   -36151   -24357    -6743    10898    23537    28628    25825 
   16547     3142   -12098   -24551   -28952   -25578   -18097    -7610 
    4500    12748    12378     4145    -7162   -16633   -22399   -24084 
  -19956   -10012     1839    12123    19881    23530    20776    12462 
    2783    -4712    -8864    -9016    -4781     1780     7162     9975 
   11105    10660     6822     -345    -5915    -5830    -2735    -1011 
    -874    -1485    -3741    -6636    -7240    -5759    -4177    -2519 
   -1785    -4389    -9056   -11154    -8777    -4232      987     7714 
   14974    19545    20337    18961    15483     8761      357    -7302 
  -12676   -11820    -1933    10984    17946    17516    12406     2888 
   -9795   -20764   -25276   -21876   -13208    -2785     7866    16369 
   19881    16952     6220    -9885   -23515   -28772   -24838   -12935 
    3436    18527    27952    30318    26109    16924     5358    -5465 
  -12031   -11425    -3826     7212    16859    21033    17922     8981 
   -1485    -9314   -12983   -12915   -11041    -9753    -8713    -7033 
   -6987   -10198   -14858   -18599   -19673   -15986    -6730     5295 
   16338    24188    25531    17143     2623    -9459   -16074   -19004 
  -15652    -3049    13790    27296    33446    28690    11699   -11978 
  -33704   -45803   -42596   -24275     1693    25192    38588    38456 
   24482    -1184   -31537   -54013   -58322   -44473   -18796    11455 
   35517    42807    33137    14159    -8932   -30984   -40708   -31370 
  -10341    13388    37196    54192    53301    33225     3204   -25856 
  -43584   -43182   -26736    -2657    21069    39786    49074    43439 
   23928     -186   -20818   -32752   -29884   -10939    15388    37620 
   48964    47090    34438    16780    -2211   -19368   -29022   -27532 
  -14565     7330    28709    38253    32973    16604    -5280   -24951 
  -34366   -30117   -15349     4200    22768    32402    27464    11990 
   -6407   -24826   -38993   -39824   -24959    -2161    22033    43539 
   53656    45484    23709    -1781   -25586   -42570   -44096   -28108 
   -3881    19868    40900    54526    52589    34936    10318   -14982 
  -37274   -47809   -40608   -22298    -2964    12922    22200    21353 
   10612    -6159   -24021   -37827   -42534   -33961   -11304    19435 
   45701    55336    45035    21236    -6433   -29916   -42117   -38331 
  -20948     2556    25891    43367    47430    33154     3711   -31714 
  -63129   -80664   -77225   -55154   -24987     3077    22459    28527 
   18970    -4215   -34444   -62089   -77802   -76884   -60599   -33999 
   -3970    22104    38136    40860    31206    14995      105    -8346 
   -9469    -4588     4941    17315    27681    30667    26440    18851 
   10435     4222     5545    18069    40117    65838    88785   103390 
  104527    90149    64190    32163    -2986   -36209   -58401   -65060 
  -61383   -53955   -43883   -32533   -25292   -25237   -30229   -37750 
  -46555   -53206   -53452   -47301   -37407   -25305   -13436    -5911 
   -2994       27     5286    10679    15934    22438    29692    36459 
   41247    41109    34511    24186    13395     3411    -2843    -2409 
    2497     7755    11924    13632     9327    -2910   -20262   -37764 
  -50379   -53043   -44022   -27480    -9758     4363    10586     5166 
  -11159   -33657   -58155   -79507   -89802   -84833   -68853   -49934 
  -33842   -24143   -23412   -29992   -37412   -40625   -37422   -22260 
   10577    57142   106858   150054   176750   178446   155608   116709 
   70666    25274   -10806   -30538   -33054   -23326    -6734    12404 
   27435    31232    23217    10732       40    -9304   -16582   -17363 
  -12789    -8396    -5615    -4668    -6947    -9437    -7247      455 
   13277    29375    41963    46086    43836    37698    28372    20242 
   18136    19574    19359    17735    16618    14122     8780     3144 
     201     1688     8923    20930    33041    39045    35313    22658 
    5256   -11907   -26088   -36494   -42977   -47267   -51076   -51424 
  -44833   -34731   -25308   -15759    -8403    -9320   -17083   -25022 
  -33023   -42768   -49059   -46943   -38388   -28300   -19097   -11544 
   -8825   -12545   -17394   -18388   -17012   -14038    -6006     7056 
   19645    29628    39502    46047    42215    28710    11166    -6270 
  -20009   -29232   -35244   -36419   -33249   -33302   -40696   -51206 
  -62148   -71208   -71259   -59988   -41829   -16426    19148    57763 
   86310    99976   101065    89339    63477    29149     -554   -15271 
  -15683    -9176     -604     8479    13822     9682    -3453   -19726 
  -34815   -45413   -47545   -41575   -32064   -21230    -9806    -1591 
     -23    -2183    -1635     3524    12719    27120    40691    42876 
   34483    20944     1226   -23065   -44030   -56789   -61926   -57965 
  -39645    -8518    22899    42242    45477    34437    13316   -10690 
  -28362   -33887   -26236    -6650    23264    60560    94882   113196 
  114013   102136    76294    37867     -263   -25054   -34315   -31731 
  -19243      260    19402    31969    37092    34801    24457     8142 
  -10008   -27226   -42714   -52577   -49180   -32629   -12596     5495 
   23088    37018    38608    26184     6508   -15864   -37558   -48653 
  -39860   -16306     6713    21844    30873    30652    17186    -2710 
  -21133   -37559   -48604   -45793   -27451    -1204    22481    33943 
   28410     6979   -25843   -61214   -87685   -96950   -86100   -56892 
  -17467    18270    39851    45277    34405     8669   -20708   -39163 
  -42750   -34594   -15065    13720    40892    55656    56548    44299 
   19663    -6077   -15920    -4381    22085    54438    83642   101549 
  101102    78325    37784    -8270   -46541   -67141   -66659   -49249 
  -22942     3042    19000    19886     7554   -14548   -42065   -66685 
  -80569   -80388   -65511   -39329    -8911    18238    34109    34403 
   21863     2689   -14421   -20579   -12990     2945    16891    21221 
   16980     9655     2166    -3896    -5602    -2584     1144     2959 
    3000    -1112   -12473   -29413   -47583   -63232   -71286   -66162 
  -47937   -22077     6604    32810    48462    49018    36754    15643 
   -7258   -18792   -11315     9959    37374    65691    87025    94154 
   87237    69276    41368     8647   -19906   -38798   -44598   -34880 
  -13711     9815    29770    44654    52406    51389    44340    35449 
   26718    20007    17718    19465    21046    17820     9254     -811 
   -8583   -12953   -15586   -19573   -27320   -39909   -54530   -64776 
  -67719   -65478   -59800   -50342   -38273   -27167   -18604   -12683 
  -12284   -19293   -29179   -35393   -36081   -31682   -20649    -4418 
    9045    13716    10608     2418    -8421   -17973   -22581   -21570 
  -17326   -13193   -11757   -13514   -16035   -15599    -8665     7238 
   30233    53880    71980    80696    77662    62007    37439    13975 
     651     -229    10484    29683    49391    59730    55371    37009 
    7736   -27486   -59239   -76739   -76303   -60188   -28918    12667 
   50054    70470    70671    53330    24072    -7749   -30934   -39261 
  -33601   -19074    -3132     9050    15922    15504     6667    -7352 
  -20011   -26160   -25995   -21392   -13229    -5835    -4826   -10524 
  -19372   -28055   -32241   -26608   -12027     4231    17678    27003 
   29632    24098    11895    -5589   -27518   -48918   -61712   -62065 
  -50709   -29597    -3273    20742    35339    37406    28372    12100 
   -6937   -25619   -41645   -51092   -50811   -40808   -24275    -8080 
    1888     5131     4636     4969     9699    18054    26634    32523 
   33601    30758    29040    32008    38003    44299    50835    57221 
   60297    57115    46052    26981     3018   -21125   -40414   -48429 
  -41256   -23750    -5544     7544    11683     3367   -14529   -33985 
  -49539   -58060   -54294   -35019    -5571    24446    47444    56671 
   47339    22227    -8828   -36011   -53468   -56575   -42359   -15813 
   11893    32475    42395    41098    32131    21028    12081    10041 
   18589    34029    47940    55604    54450    40679    16024    -9887 
  -28787   -38612   -39657   -31847   -16463     1188    14097    19685 
   19725    15345     8282     3540     3647     4962     5209     7561 
   12676    16309    16914    14470     4521   -15484   -38786   -56405 
  -66042   -67936   -59354   -40065   -15717     8782    32363    51910 
   59661    51792    33606    10602   -16585   -43985   -61757   -64781 
  -57014   -42785   -23793    -5468     3493     -834   -15021   -32859 
  -48835   -58319   -57444   -45226   -25723    -5061    13490    29099 
   39015    39459    30745    15648    -4080   -24806   -40205   -46536 
  -44746   -36454   -23318   -10327    -2017     3265     8740    13578 
   17000    20476    23762    26232    28982    32536    37699    45859 
   55213    61013    60847    56680    50716    42894    32944    20800 
    6824    -5725   -11628    -7933     4389    22094    42176    61454 
   73541    71557    55003    28648    -3509   -36051   -57541   -58036 
  -38003    -3141    41250    84692   111190   111764    89134    48657 
   -3895   -57368   -99020  -121924  -125035  -109140   -77239   -38847 
   -6255    14376    21516    13436    -7177   -30455   -47277   -55363 
