Origin Time       2025/01/13 21:19:00
Lat.              31.8
Long.             131.6
Depth. (km)       30
Mag.              6.9
Station Code      MYZH06
Station Lat.      32.3607
Station Long.     131.4643
Station Height(m) 0
Record Time       2025/01/13 21:19:42
Sampling Freq(Hz) 100Hz
Duration Time(s)  193
Dir.              2
Scale Factor      2942(gal)/8224139
Max. Acc. (gal)   21.994
Last Correction   2025/01/13 21:19:42
Memo.             
[...]
  187602   187608   187606   187604   187608   187609   187606   187605 
  187609   187609   187602   187601   187604   187606   187609   187605 
  187601   187606   187610   187605   187601   187605   187608   187605 
  187606   187606   187602   187606   187609   187605   187605   187609 
  187608   187605   187606   187608   187608   187606   187606   187605 
  187604   187608   187610   187606   187604   187606   187609   187606 
  187606   187610   187609   187608   187604   187602   187608   187610 
  187605   187605   187608   187608   187608   187608   187606   187605 
  187606   187608   187608   187608   187608   187605   187604   187604 
  187606   187605   187605   187606   187605   187602   187604   187605 
  187606   187609   187609   187602   187602   187609   187610   187605 
  187602   187604   187606   187608   187608   187606   187606   187606 
  187605   187609   187610   187606   187606   187605   187605   187609 
  187606   187604   187608   187609   187609   187606   187606   187609 
  187609   187606   187604   187605   187608   187608   187608   187608 
  187608   187605   187604   187608   187610   187609   187608   187605 
  187606   187606   187602   187605   187609   187609   187606   187606 
  187606   187605   187606   187608   187605   187605   187610   187610 
  187608   187606   187608   187606   187604   187606   187610   187608 
  187602   187608   187609   187605   187606   187608   187605   187602 
  187606   187609   187609   187608   187606   187605   187606   187608 
  187608   187604   187604   187608   187610   187608   187608   187610 
  187609   187609   187609   187605   187605   187609   187610   187608 
  187606   187606   187606   187604   187604   187604   187601   187604 
  187608   187608   187606   187605   187604   187606   187608   187608 
  187606   187602   187605   187608   187606   187606   187608   187605 
  187605   187608   187609   187606   187606   187608   187606   187608 
  187608   187608   187608   187606   187606   187608   187606   187606 
  187606   187604   187608   187613   187610   187605   187608   187606 
  187602   187604   187606   187605   187602   187606   187610   187609 
  187604   187606   187610   187605   187604   187609   187606   187601 
  187608   187612   187605   187606   187610   187609   187606   187605 
  187608   187608   187604   187606   187610   187609   187608   187608 
  187608   187608   187608   187608   187608   187605   187605   187608 
  187606   187604   187606   187610   187609   187605   187606   187609 
  187606   187608   187606   187606   187609   187608   187608   187609 
  187606   187605   187608   187610   187606   187608   187610   187606 
  187606   187608   187608   187605   187606   187610   187606   187605 
  187609   187608   187605   187609   187609   187606   187606   187609 
  187608   187604   187604   187610   187612   187606   187608   187610 
  187609   187605   187604   187606   187608   187608   187610   187610 
  187608   187608   187609   187606   187604   187609   187610   187605 
  187605   187609   187609   187606   187605   187608   187608   187609 
  187608   187604   187605   187608   187606   187605   187606   187608 
  187608   187606   187605   187608   187609   187606   187605   187606 
  187608   187608   187606   187604   187608   187613   187608   187601 
  187606   187606   187602   187602   187605   187605   187609   187610 
  187609   187612   187614   187612   187612   187616   187618   187621 
  187623   187617   187614   187618   187614   187609   187610   187608 
  187602   187604   187606   187606   187608   187609   187616   187636 
  187655   187674   187705   187731   187745   187753   187739   187706 
  187667   187624   187587   187552   187512   187485   187483   187501 
  187528   187555   187577   187621   187717   187843   187942   187979 
  187942   187852   187745   187654   187579   187528   187463   187354 
  187240   187208   187282   187390   187446   187466   187525   187655 
  187820   187933   187937   187857   187758   187675   187648   187695 
  187763   187735   187525   187238   187085   187141   187290   187411 
  187481   187570   187710   187812   187799   187709   187614   187575 
  187636   187752   187803   187722   187562   187473   187548   187720 
  187830   187807   187744   187762   187855   187911   187868   187791 
  187736   187659   187532   187424   187390   187408   187425   187423 
  187407   187397   187416   187479   187551   187598   187660   187759 
  187864   187976   188103   188221   188260   188161   187971   187798 
  187714   187732   187848   188011   188111   188129   188181   188329 
  188504   188647   188727   188728   188622   188397   188146   187960 
  187844   187763   187635   187382   187051   186776   186657   186694 
  186829   186999   187177   187355   187462   187455   187470   187597 
  187779   188002   188239   188342   188306   188320   188418   188470 
  188428   188241   187833   187305   186877   186672   186700   186916 
  187226   187466   187469   187258   187068   187039   187087   187137 
  187257   187461   187579   187477   187189   186829   186495   186295 
  186275   186413   186710   187170   187732   188289   188781   189155 
  189271   189031   188613   188304   188161   188073   187944   187748 
  187474   187195   187141   187357   187613   187909   188339   188693 
  188767   188670   188582   188543   188396   188041   187589   187039 
  186300   185557   185068   184908   185163   185762   186310   186561 
  186655   186741   186915   187239   187625   187902   188050   188192 
  188338   188311   188036   187713   187551   187467   187335   187313 
  187533   187770   187878   188181   188827   189301   189233   188936 
  188762   188717   188742   188774   188674   188420   188156   187956 
  187807   187691   187585   187423   187251   187332   187671   187972 
  188210   188338   187955   186970   185774   184704   184048   184017 
  184403   184800   185071   185379   185832   186250   186489   186749 
  187301   188131   188863   189091   188858   188497   188246   188299 
  188657   188958   188997   188843   188601   188415   188303   188156 
  187914   187556   187409   187779   188242   188410   188669   189421 
  190395   191039   191097   190599   189801   189248   189317   189866 
  190518   190898   190763   190210   189611   189203   188751   187917 
  186956   186340   185973   185529   185064   184719   184381   183955 
  183392   182623   182007   182106   182875   183961   185133   186039 
  186796   187972   189346   190125   190248   189977   189247   188622 
  188973   189874   190223   189754   188860   187930   187335   187186 
  187054   186722   186723   187250   187748   187893   187732   187384 
  187000   186609   186205   185951   186008   186287   186614   186957 
  187374   187952   188600   188927   188904   189022   189353   189421 
  189068   188689   188754   189352   190134   190625   190474   189743 
  188836   187899   186989   186235   185345   184284   183725   183814 
  184137   184549   184719   184424   184351   185021   185943   186667 
  187245   187762   188449   189603   191119   192565   193438   193459 
  192757   191691   190927   190985   191358   191315   191020   190632 
  189731   188365   187042   186071   185722   186009   186451   186710 
  186808   186779   186359   185278   184218   184054   184374   184611 
  184993   185731   186935   188514   189687   189693   188570   187155 
  186497   186624   186710   186584   186645   186885   187212   187523 
  187361   186825   186842   187768   188808   188956   188138   187280 
  187135   187537   187821   187601   187195   187139   187474   187760 
  187515   186682   185662   184924   184743   184828   184697   184630 
  184905   185140   185087   184897   185039   185967   187245   188126 
  188604   188939   189099   188973   188704   188754   189351   190032 
  190231   189801   188870   187786   186885   186240   185998   186071 
  185892   185625   186158   187558   189189   190567   191247   190993 
  190169   189319   188698   188202   187513   186602   185990   186021 
  186610   187613   188543   188940   189037   188933   188323   187411 
  186610   185943   185437   185288   185340   185157   184815   184639 
  184580   184570   184751   185469   186989   188738   189855   190201 
  190194   190186   190054   189774   189735   189799   189487   188831 
  188102   187668   187717   187999   188482   189244   189874   190085 
  190031   189672   188802   187612   186572   186020   185807   185375 
  184678   184457   185044   185788   185981   185591   184998   184570 
  184635   185376   186370   186848   186645   186259   186108   186088 
  186027   186190   186861   187941   189052   189549   189085   188142 
  187398   187208   187726   188713   189653   190223   190335   190004 
  189198   188007   187033   186817   187123   187444   187597   187732 
  188122   188840   189638   190039   189734   189056   188898   189783 
  191070   191960   192796   194003   194911   194602   193029   191069 
  189515   188350   187304   186448   185907   185449   184777   184023 
  183479   183170   183095   183255   183591   184269   185373   186543 
  187373   187571   187169   186641   186239   185831   185326   185070 
  185661   186856   187955   188820   189172   188599   187211   185468 
  184315   184593   185857   187193   188372   189283   189778   189864 
  189479   189094   189160   189129   188819   188758   188858   188731 
  188277   187479   186651   186390   186767   187348   187986   188551 
  188693   188258   187303   186155   185369   185068   184806   184378 
  184320   185156   186614   188087   189024   188788   187377   185904 
  185419   185976   187015   187614   187078   185866   184809   184250 
  184276   184578   184975   185672   185857   184736   183702   184287 
  186020   188001   189772   190827   191193   191224   190695   189538 
  188439   188292   189564   191435   192497   192562   192361   192245 
  192005   191315   190151   188939   188169   187899   188073   188775 
  189712   190340   190325   189450   187787   185951   184944   185719 
  187964   189805   190070   189433   188659   187793   186911   186058 
  184812   183043   181462   180504   179783   179055   178707   179396 
  181350   184061   186637   188180   188306   187285   185758   184763 
  184929   185784   186780   187752   188464   188838   189093   189260 
  189145   188701   188009   187506   187863   188740   189207   189213 
  188819   187589   186119   185947   187559   190097   192167   192686 
  192010   191263   190921   190998   191378   191693   191405   190061 
  187903   185727   184019   183259   183941   185349   186174   186277 
  186279   186714   187866   189099   189515   189492   190021   191046 
  191616   191388   191068   191085   190908   190035   188732   187824 
  187809   188325   188987   189672   189714   188823   188003   188123 
  189009   190154   191185   191794   191662   190845   189722   188069 
  185851   184318   184102   184334   184605   185310   186765   188770 
  190198   190055   188563   186777   186136   187077   188215   188190 
  187007   185665   185001   184790   184781   185399   186636   188061 
  189419   190258   190258   189858   189819   190339   190755   190466 
  189477   187895   186133   185037   184828   184665   183737   182320 
  181703   183062   185874   188092   188469   187432   186155   185923 
  186957   188117   188823   189216   188909   188028   187644   188176 
  189276   190800   192747   194621   195403   194475   192114   189230 
  187097   186483   187064   188096   189072   189738   189993   189716 
  188928   188148   188090   189094   190899   192805   194340   195575 
  196452   196418   195269   193463   191259   188970   187593   187802 
  189689   193504   198774   203887   207183   207567   204958   200317 
  195084   190838   189386   191716   196491   201283   204260   204205 
  201376   197606   194769   194148   195737   197838   198526   197027 
  193897   190568   187845   185541   184091   184308   185888   187957 
  189549   189334   187016   183887   181210   179869   180233   181492 
  183008   184561   185137   184196   182345   180357   179112   179101 
  180304   182857   186027   187752   186749   183817   180600   178266 
  177510   178611   181315   185346   190123   194185   196466   196889 
  195597   193282   190950   189338   189309   190455   190757   189514 
  187232   184059   181102   179574   178773   177952   177329   176693 
  176026   176351   178298   180905   182738   183222   181980   178937 
  175356   172525   170637   169894   170418   171775   174017   177130 
  180135   181969   181889   179837   176812   174325   174243   177552 
  182672   187038   189224   189056   187704   186682   186309   186300 
  186682   187921   190533   193939   196612   197575   196874   195091 
  193236   193187   196051   200179   204390   209618   214392   215388 
  211898   205282   197761   192061   189476   188871   188442   188522 
  190491   193943   197108   198499   198751   200009   202838   206574 
  210525   213587   214898   213869   210041   204169   197877   192013 
  187061   184636   185639   188077   190350   193679   198292   202485 
  205930   208491   209031   207701   205673   203885   202319   199783 
  196184   192601   189355   187419   188545   191740   193525   192295 
  188987   184728   180700   177951   175892   173276   170588   168353 
  164754   158661   151158   142800   134407   128487   126189   126123 
  127344   129925   133107   136308   139858   143044   144444   143753 
  142254   141853   142751   144370   147765   153285   159258   164781 
  170171   175406   180455   185355   189199   190686   190020   189052 
  188597   187544   185677   184165   183406   183165   183184   182966 
  182976   184963   189707   196118   202971   209425   214382   217132 
  218012   218146   218416   218701   219175   220743   223310   225894 
  228078   229323   228629   226454   224550   223469   222693   222453 
  223222   224172   223847   222139   220207   218668   216707   213181 
  208145   202566   197625   194567   193664   194049   194908   195536 
  195444   195313   195736   195713   194340   191451   186609   179782 
  171636   163146   155684   149808   144872   140599   136664   132324 
  128359   126574   126958   127757   127921   127565   127179   128198 
  132316   139275   147723   157302   167698   177588   185552   191100 
  194690   196500   196238   194634   193334   193367   195041   198161 
  201522   203511   203611   202433   200599   198277   195558   193388 
  193090   194108   194807   194915   194910   194651   193777   192450 
  190984   189446   188022   187046   186876   187726   189045   189641 
  188811   186703   184037   182113   181791   182574   183843   185332 
  186478   187023   187361   187834   188665   189997   191508   192902 
  194327   195567   196067   195693   194556   192638   189718   185913 
  182545   181283   182602   185728   189432   192727   195030   195660 
  193756   189355   184121   179929   177550   177165   178310   179712 
  180843   181992   182761   182704   182105   181561   181901   183834 
  187405   191737   195604   198540   200483   201490   202123   202525 
  202516   202860   204429   207025   209569   210332   208350   205033 
  202583   201806   202034   202198   201960   201074   198510   194012 
  188859   184407   181796   182290   186025   191241   195874   198949 
  199967   198787   195959   192137   188500   186636   186520   186757 
  186375   184864   182432   179597   176176   172647   170475   170201 
  171077   171844   171873   172049   173576   176413   179514   181955 
  183679   185573   188890   194328   201366   208292   213405   216336 
  217480   217109   216018   215586   216193   216858   216819   215721 
  212870   208157   202423   196186   189491   182625   176096   170514 
  166498   164525   164974   167805   172458   177812   182127   184538 
  186147   188114   189737   189970   189406   188752   187739   186787 
  186520   186178   185479   185723   187316   189279   191320   193660 
  195836   196813   195376   191093   184994   178691   173566   170283 
  168529   167728   167445   167389   167940   169812   172917   176504 
  179917   182995   186524   191511   197338   202022   204390   204716 
  203435   200608   196986   194084   192591   192246   192834   193510 
  192964   191471   190109   188998   188303   188211   188057   187371 
  186540   186223   186487   186476   185562   184401   184142   185283 
  187920   191855   196153   200037   203308   205437   205996   205031 
  202343   197426   190031   181340   173902   169869   170190   174091 
  179450   184690   188632   190138   189584   188311   186413   183439 
  180850   180543   182133   184628   187801   190833   192609   192947 
  192510   192048   191874   192060   192238   191614   190424   189696 
  189649   190266   192011   194586   196504   196591   194745   191303 
  186844   182298   178240   174879   172845   172592   173846   176354 
  179479   181715   181993   180754   179354   178305   176921   175004 
  173472   173643   176042   179300   181715   182893   182429   180129 
  177495   175859   174854   174118   174079   175270   177984   181406 
  183933   185199   185873   186472   187753   190318   193746   197303 
  200785   203926   206270   208030   209718   211027   210789   208179 
  204009   199781   195868   192225   189483   187597   185963   185271 
  186007   187120   187911   188353   188484   188709   189226   189997 
  190849   190744   189209   187613   187022   187164   187544   187535 
  186748   185458   183710   181580   180107   180370   182259   184655 
  186667   188607   191084   193764   195485   195089   192620   189164 
  185556   182740   181892   183197   186221   190575   195133   198258 
  199220   198132   195124   191012   187170   184040   181553   180185 
  180185   180924   181395   180889   179439   177718   176380   175711 
  175883   176985   178788   181014   183709   186838   189772   191724 
  192438   192238   191305   189309   186489   184284   184137   186333 
  190124   194383   197915   199585   199077   196749   192597   186931 
  181137   176624   174046   173551   174796   176628   177904   178619 
  179146   179228   178806   178920   180787   184127   187294   188963 
  189182   189062   189838   192090   195380   198706   201253   202707 
  203493   204064   203982   202906   201275   199463   197671   196163 
  194840   193229   190952   188168   185517   183382   181966   181935 
  183560   185773   187154   186931   184850   181292   177438   174727 
  174178   175865   178714   181251   182785   183309   182916   182487 
  183492   186304   190119   194084   197689   200766   203069   203840 
  202402   198726   193118   186393   180166   175691   173043   171921 
  172102   173242   174982   177002   178812   179680   179402   178960 
  179591   181745   184975   188262   190783   192323   192869   192435 
  191251   190225   191020   194094   197734   200411   201598   200797 
  198207   194680   190931   187934   186829   187976   190613   193395 
  195331   196231   196634   197422   199143   201280   202833   203670 
  204014   203763   203347   203170   202510   200565   197591   194498 
