Origin Time       2025/01/13 21:19:00
Lat.              31.8
Long.             131.6
Depth. (km)       30
Mag.              6.9
Station Code      MYZH15
Station Lat.      32.3654
Station Long.     131.5893
Station Height(m) 170
Record Time       2025/01/13 21:19:43
Sampling Freq(Hz) 100Hz
Duration Time(s)  183
Dir.              4
Scale Factor      7845(gal)/8223790
Max. Acc. (gal)   89.515
Last Correction   2025/01/13 21:19:43
Memo.             
[...]
    -792     -793     -796     -797     -796     -796     -800     -801 
    -801     -804     -807     -811     -811     -808     -810     -812 
    -816     -823     -827     -831     -832     -832     -834     -839 
    -841     -839     -845     -847     -843     -841     -842     -841 
    -835     -830     -832     -839     -847     -855     -858     -846 
    -826     -811     -804     -805     -816     -828     -820     -789 
    -762     -761     -789     -831     -854     -857     -847     -816 
    -774     -751     -741     -707     -646     -576     -538     -579 
    -672     -727     -700     -615     -558     -618     -781     -943 
   -1023     -967     -764     -530     -473     -670     -988    -1208 
   -1170     -888     -565     -438     -545     -750     -938    -1020 
    -958     -841     -768     -807     -953    -1040     -970     -854 
    -839     -940    -1051    -1059     -891     -595     -456     -606 
    -845    -1090    -1318    -1312    -1063     -800     -580     -467 
    -600     -878    -1111    -1329    -1529    -1540    -1294     -826 
    -292     -110     -494    -1148    -1705    -1917    -1674    -1117 
    -556     -379     -800    -1506    -2041    -2234    -2131    -1919 
   -1606    -1023     -387     -241     -814    -1806    -2554    -2458 
   -1551     -464      183      126     -571    -1470    -1983    -1973 
   -1787    -1640    -1503    -1445    -1389    -1055     -612     -415 
    -484     -942    -1701    -2052    -1641     -739      272      758 
     317     -533    -1075    -1113     -810     -619     -751     -707 
    -166      508      859      545     -340    -1047    -1044     -409 
     599     1352     1046     -210    -1368    -1522     -584      751 
    1475      861     -911    -2616    -3133    -2461    -1117      268 
     916      588     -403    -1702    -2517    -2216    -1312     -710 
    -946    -1794    -2095    -1378     -645     -750    -1534    -2305 
   -2328    -1394     -209      210     -252     -807     -947     -855 
    -922    -1441    -2305    -2776    -1965        2     1603     1490 
    -103    -1884    -2551    -1729     -400      256      144      -82 
      31      292      270      -87     -456     -741    -1364    -2135 
   -1892     -391     1359     2344     1696     -338    -1938    -2174 
   -1844    -1328     -534     -186     -608     -957    -1039    -1161 
    -792     -306    -1129    -3098    -4818    -5116    -3304     -388 
    1266      753     -780    -2076    -2381    -1378      -20      688 
    1182     1559     1549     1455      345    -2164    -3867    -3439 
   -1544      193     -214    -2042    -2812    -2259    -1080      256 
     859      931     1024      311    -1185    -2027    -2095    -2199 
   -2475    -2720    -2602    -2127    -1614    -1364    -2101    -3519 
   -3897    -2795     -946      992     1730      808     -314     -892 
   -1300    -1129     -333      515     1803     2621      445    -3848 
   -6690    -6856    -4966    -2114     -259      -95     -315     -152 
     -76     -267     -427     -765    -1275    -1318     -827      297 
    2263     3851     3686     1813     -824    -3024    -4338    -4881 
   -4156    -2034      604     2791     3582     2816     1640      445 
    -986    -1611     -916      140      369    -1197    -2631     -423 
    3746     4819     1483    -3180    -5709    -5489    -3886    -2146 
    -768      795     2146     1512     -591    -2143    -2702    -1890 
     206     1251      -62    -2486    -4660    -5020    -2624      926 
    3065     1788    -2770    -7245    -8235    -5486    -1420     1468 
    2358     2010     1514      521    -1597    -3325    -2894    -1372 
   -1308    -3194    -5094    -4618    -1062     3323     5868     6134 
    4382     1093    -1996    -3816    -4878    -4596    -1764     1791 
    3354     2978     1791     1498     2947     3240      129    -4707 
   -8746    -9798    -6525      598     9128    14251    12012     3311 
   -7461   -14702   -13986    -6710     1154     5826     6559     3672 
    -511    -3928    -6655    -7086    -3341     1487     3908     4542 
    3607     1059    -1062    -2407    -3268    -2316     -642     -936 
   -2373    -1875      334      830    -1169    -3396    -4288    -3028 
     187     3429     4974     4163     1239    -1993    -3289    -2176 
    -297      407     -691    -3173    -4907    -2616     2500     5028 
    3557      696    -2362    -5024    -5934    -4999    -3241     -448 
    3140     4661     3127     1024     -627    -2058    -2598    -3038 
   -4230    -3936     -865     2354     3686     3649     2045    -1834 
   -6377    -8617    -6930    -1983     3565     6860     6440     2519 
   -1987    -3651    -3288    -3273    -2951    -2073    -2097    -2304 
   -1104     1111     2893     2613     -611    -5686   -10012   -10525 
   -5414     2397     6785     5906     2543     -697    -1028     2435 
    5348     3744     -982    -5329    -7196    -6089    -3056     -249 
    1621     3623     5200     4519     1552    -3042    -8345   -10439 
   -5701     3132     9614     9734     3964    -2847    -5537    -3843 
   -1224     -596    -1728    -2407    -2357    -2543    -2619    -2474 
   -2722    -3469    -4680    -6250    -6712    -3670     2362     7927 
   10335     7884     1414    -4882    -7507    -5539    -1181     2195 
    3168      950    -3248    -5393    -3424     1306     5162     4687 
     205    -5117    -8014    -6863    -2316     2871     5387     4600 
    1745    -1648    -3618    -3947    -3642    -2336      785     3738 
    3550     1340    -1135    -4422    -7250    -6837    -2859     1405 
    3256     3126      888    -2115    -1911      122     -484    -2702 
   -4075    -4710    -3979    -1645     1009     3420     4969     5084 
    4332     2344    -1657    -5948    -7939    -6424    -1463     3726 
    4769     1703    -2764    -6215    -6228    -2675     1748     3886 
    2118    -1962    -5279    -5490     -357     9190    16052    14062 
    4789    -6831   -16244   -18072   -10296     1522     9805    11219 
    5991    -3408   -11885   -14999   -12135    -4710     3781     8650 
    8606     4573    -1019    -2560     1630     5602     3900    -3125 
  -10285   -11510    -6548    -1020     1302      264    -3570    -7361 
   -6966    -2010     5495    14000    18558    12718    -1536   -13977 
  -16352    -8087     4282    12251    11680     3751    -6218   -11545 
  -10624    -6459     -550     6123     9288     5640    -1429    -6049 
   -6027    -2767      901     1975     -884    -4669    -4773     -892 
    3534     5643     4541     -116    -6918   -11227    -9902    -4133 
    2899     7998     9594     7530     2614    -2695    -5656    -4866 
   -1869     -513    -1853    -3689    -4494    -3252     -768     -904 
   -4828    -8891    -8850    -3291     4233     8590     8688     6300 
    2666    -1665    -5003    -5583    -5254    -5881    -6268    -6434 
   -5676    -2151      676    -1888    -8208   -12587   -11558    -6574 
     -29     7207    12270    10990     4425     -781     -950     1521 
    3433     2988      276    -1719       99     5046     8046     4342 
   -4492   -12613   -16200   -14123    -6852     3167    12226    16530 
   13842     4779    -5535    -9486    -6822    -5054    -6458    -6521 
   -3468      830     3562     2137    -1485    -3262    -3399    -3337 
   -3767    -5904    -5794     2744    13667    15481     8993      984 
   -5528    -8032    -5725     -445     6212     9813     5171    -5120 
  -14307   -17980   -12677     -245    10158    12201     6471    -2826 
   -9756   -10679    -6300      367     4492     2043    -4746    -9250 
   -7804     -810     8047    11448     5337    -5761   -14346   -16189 
   -9907     3990    18789    23537    15071     -660   -15290   -19585 
  -11369      891     9896    11963     4488    -7026   -13738   -14224 
   -9976    -2513     4691     9641    10754     7464     3071     -583 
   -3370    -3256      148     3256     2729      101    -2029    -4437 
   -7155    -8603    -9201    -9703    -9300    -8033    -6714    -3674 
    3377    12502    18688    17629     7569    -7447   -18346   -19519 
  -11711     1050    11466    14501    12144     6824     -394    -6569 
   -9324    -8077    -4434    -2020     -716     2666     7223     9404 
    6326    -1620    -9271   -13879   -14353    -7152     5620    15727 
   17050     9499    -1343    -9193   -10710    -6060     1363     6666 
    5910      850    -1127     3191     8883     9730     2967    -9028 
  -19878   -23955   -19240    -9512    -1098     2601      -44    -5135 
   -4135     3032    10523    15950    16492    10990     2478    -6679 
  -11749    -8488      670    10737    14509     6917    -6500   -15546 
  -14453    -3303    11483    19946    17570     8330    -1212    -5940 
   -5231    -3588    -3762    -4909    -7283   -11786   -17983   -20873 
  -13599      795    12916    16239     5898   -14817   -31579   -31229 
  -12478    11356    24255    22669    10991    -3356    -9123    -4519 
     973     2952     2158    -2361    -8093    -8904    -5184    -1873 
     -75    -2721   -13153   -25463   -29031   -16299     8532    28089 
   30917    19222     -603   -16414   -15449     -282    17990    30898 
   31841    21552     5815   -10813   -20196   -15033      193    13995 
   18199     9545    -6292   -16065   -13666    -2042    12351    19384 
   15593     8866     5871     7835    13120    14925     7600    -5211 
  -18944   -30218   -30721   -20772   -10660    -4334    -6790   -23481 
  -41725   -42673   -24193     3326    29108    45279    48087    39650 
   27691    18852    14034    12804    13302    10655     1902   -10629 
  -19958   -21740   -20256   -23113   -31995   -40004   -40792   -33381 
  -19647    -5483     5005    12556    17496    21250    26119    29795 
   26850    17343     7075    -1682   -10296   -20093   -31958   -39852 
  -35761   -24484   -14814    -7587    -3094      650    11380    27041 
   34446    30592    24065    19483    17865    18349    14689     5738 
    -905    -3435    -6737   -12565   -19103   -21489   -16791    -9803 
   -4986    -1501     1165     2308     4264    10939    22168    35158 
   46649    50552    43218    29285    14465      738    -8657   -12671 
  -16992   -25029   -34797   -44259   -49003   -44189   -32902   -21651 
  -12360    -5526      472    11110    24976    33594    34246    28877 
   20034    12259     8264     7299     4823    -3105   -13319   -23980 
  -35754   -42781   -41381   -36555   -30107   -18625    -4185     8495 
   19398    26882    26439    19835    14704    16286    22455    25243 
   18743     3477   -16394   -35984   -49580   -51143   -39860   -22762 
   -7723     1352     1977    -3639    -5287     3719    18324    28755 
   29292    21867    12236     6116     8055    14361    15415     9884 
    2292    -7419   -20071   -31530   -35000   -26474    -7569    16117 
   36558    45925    40809    23170     -352   -21674   -36190   -40593 
  -32884   -19610    -9450    -2961      785     1530     2578     5765 
    9472    12858    14933    16177    19105    21884    19911    10415 
   -8160   -32190   -53176   -64062   -60601   -44612   -24729    -9452 
   -4110    -7751    -9450      499    19873    42657    63220    73063 
   67763    51737    31361    10737    -5356   -14941   -21350   -25147 
  -28583   -38946   -53437   -61686   -56574   -33841      330    32328 
   53519    57581    45168    28541    16707    11985    15109    20930 
   23970    22052     9744   -13049   -36522   -53254   -56592   -40009 
  -11758     9860    15997    10044    -1379   -11638   -13112    -1868 
   16483    30786    33952    24606     5972   -12807   -22692   -20864 
  -11268    -3242    -4050   -13035   -23032   -25664   -19768    -9967 
     623     8002     9786     8685     4067    -5881   -14948   -14904 
   -3738    15466    34577    41640    31897    12760    -5293   -16416 
  -21903   -26777   -32131   -35777   -34916   -27078   -15534    -6088 
     548     6297    12143    16821    18526    17926    16023    14391 
   14443    13543    10134     7006     5817     6359     5967     -731 
  -12800   -21633   -20648   -10200     2338     9693    11407     9877 
    8063     8023     8579     9437    10134     6492    -3215   -16366 
  -30638   -41855   -43349   -32489   -14872     -351     6918     9967 
   11874    15250    22072    29465    32822    30630    22192     7700 
   -7766   -17350   -18659   -12444    -1466     5352     -595   -15452 
  -28096   -30936   -21784    -5464     9146    16690    16630    12904 
   11529    12965    11727     4928    -4278   -12168   -17601   -18966 
  -15834   -11165    -7761    -9066   -17685   -28089   -30233   -19479 
    1719    25564    41376    43663    36142    26152    18982    14847 
    8337    -5298   -20965   -29135   -28880   -25312   -23565   -27294 
  -34375   -37825   -32395   -19499    -3393    14895    33270    47468 
   56182    58546    54264    46888    36958    21671     2724   -17158 
  -35788   -48309   -52834   -51545   -46615   -41261   -37732   -33469 
  -23496    -5472    17490    39132    56120    67236    68107    56219 
   37062    18405     3967    -7312   -19468   -33787   -47082   -54324 
  -49893   -34929   -20849   -16321   -17501   -17209   -12811      113 
   24942    53677    74524    82513    77253    62077    42745    21305 
    -828   -16996   -23143   -26356   -35934   -53481   -75521   -92848 
  -94625   -80261   -55358   -25629     1367    21618    35681    43870 
   48829    54749    60957    61345    48143    20218   -13177   -40782 
  -53199   -45755   -26476   -11335   -10855   -23345   -37723   -42156 
  -30580    -8066    13158    28620    40054    44477    39714    30119 
   20572    12652     6862     2592    -3130   -11603   -21298   -31239 
  -38993   -41229   -37206   -25829    -9200     4849    12748    15880 
   16775    19053    23487    30211    39795    48865    52309    45223 
   27152     7828    -2685    -4988    -6126   -12888   -26665   -40165 
  -44018   -37590   -28485   -22127   -19375   -19953   -20197   -15746 
   -6808     6292    22316    34195    36926    31847    20248     5054 
   -6987   -12735   -14150   -13042   -11238   -10189    -7974    -3562 
     346     2245     2151     1463     5444    17668    33123    42375 
   41480    32684    18586     2620   -12266   -27014   -40948   -51344 
  -58509   -62051   -59967   -50476   -30038      770    32660    55628 
   63991    57260    43664    33212    27722    24412    19597     9639 
   -4889   -20628   -34869   -46201   -53948   -55833   -50404   -39988 
  -26720   -11507     3215    15110    23664    28580    30041    30358 
   32445    37497    43491    43769    31989     9810   -15695   -37309 
  -49335   -51008   -45484   -36215   -25948   -15469    -6146    -1239 
      43     3657    12965    24761    34114    37525    31681    16999 
     255   -12105   -18682   -19951   -18068   -17815   -19800   -19413 
  -14652    -4757    11205    28360    39109    39698    30103    12822 
   -7546   -24196   -31901   -31974   -28156   -22329   -15310    -6351 
    3758    11294    14092    11356     4851      958     2421     5247 
    6810     7342     6280     2643    -4407   -14806   -25370   -30408 
  -25758   -11179     9788    30393    44780    50298    44088    25562 
    1104   -19728   -30078   -28555   -17957    -3478     6420     5802 
   -2033   -10054   -14169   -13383    -8550    -1709     3848     5717 
    4405     1120    -3717    -9404   -15048   -19742   -21141   -16922 
   -7487     5950    21643    35260    42021    39888    30511    16708 
     980   -13189   -23598   -30076   -33535   -36050   -36701   -32930 
  -25741   -15508    -1509    12745    22786    27480    27044    21230 
   12064     5071     3300     4405     5458     7943    14602    21736 
   22275    13158    -2978   -17963   -25655   -27965   -28803   -31070 
  -37281   -46268   -54858   -59497   -53576   -34813   -10415    11587 
   26669    35603    45114    58714    71740    75473    64462    43100 
   20775     3684    -6220   -11299   -14979   -18624   -23668   -29926 
  -34611   -35567   -30399   -18176    -4563     3985     6700     3655 
   -1678    -1865     2355     6197     8907     8253     2347    -6181 
  -13246   -16443   -15606   -12214    -8515    -5117    -1642      414 
   -1258    -7415   -15326   -19178   -14524    -1755    13362    23361 
   25942    24003    21251    21744    27155    32134    28266    13093 
   -7973   -27510   -41233   -46938   -42955   -31513   -18299    -7704 
   -1344     1210     2369     7777    21469    38843    50367    48689 
   33841    13629    -3740   -13378   -14165   -10272    -7574    -9389 
  -16976   -28767   -39938   -46978   -47255   -37422   -18985     2797 
   23764    39006    43677    38047    27396    17373    12287    13590 
   18044    20756    18193     9813    -1649   -13687   -25554   -36069 
  -44045   -50353   -55044   -55540   -50083   -37453   -17550     4193 
   20826    30715    36628    42819    51783    61770    69030    70502 
   63857    47443    22636    -4742   -27723   -41358   -45462   -45979 
  -49492   -55853   -59023   -55966   -48477   -37851   -25097    -9954 
    9185    29513    45480    54238    55726    52123    45307    34622 
   20282     4369   -10417   -21637   -30078   -36690   -39953   -39055 
  -33301   -23512   -12518    -1302     9034    15700    16588    11923 
    4679    -1080    -1788     3225     9900    12965    10598     4143 
   -3370    -7294    -5907    -2718     -433      248     -762     -897 
    1513     4835     7491     8646     7076     2371    -2693    -5008 
   -4887    -2610     2506     8484    12318    11820     4862    -7585 
  -21061   -30805   -31949   -22740    -8108     5227    13801    16629 
   15269    14451    17118    20918    22597    21394    17598    10933 
     560   -13761   -29853   -42238   -46151   -41808   -32574   -22038 
  -12438    -3989     3307     8888    12582    14099    14247    16044 
   21050    27571    32266    32417    28543    21520     9850    -5814 
  -21610   -34411   -42063   -43329   -40093   -35571   -30546   -24016 
  -15120    -3906     8272    19618    28483    34096    37112    38323 
   37768    34635    27720    16988     3410   -12097   -27436   -39719 
  -48317   -53685   -55117   -52411   -45311   -32053   -12356     9509 
   27432    38649    43706    44045    41435    37174    31801    24745 
   15769     6428    -3681   -16048   -28772   -39251   -45652   -45725 
  -38794   -27159   -14756    -3615     6409    14586    21042    27885 
   35185    40231    40277    33805    21142     4487   -12906   -28008 
  -38751   -43676   -41798   -32135   -15834      977    11735    14535 
   11597     7217     4850     6089    11352    19001    26212    30129 
   27603    17139      222   -19218   -35757   -44888   -44319   -35039 
  -23045   -15024   -12101   -12114   -13027   -11531    -5286     4243 
   14719    24547    31689    34643    33207    28251    21427    13998 
    7041     1165    -4433   -10026   -15361   -20243   -22728   -21504 
  -17706   -13104    -9552    -6890    -3449      295     3061     4961 
    7076    10162    13513    15815    15592    11553     4460    -3356 
   -9756   -13552   -15537   -17030   -17540   -15780   -11029    -3842 
