Origin Time       2025/01/13 21:19:00
Lat.              31.8
Long.             131.6
Depth. (km)       30
Mag.              6.9
Station Code      MYZH03
Station Lat.      32.4754
Station Long.     131.1043
Station Height(m) 319
Record Time       2025/01/13 21:19:47
Sampling Freq(Hz) 100Hz
Duration Time(s)  160
Dir.              1
Scale Factor      2942(gal)/8224139
Max. Acc. (gal)   4.562
Last Correction   2025/01/13 21:19:47
Memo.             
[...]
  141654   141724   141505   141284   141214   141062   140688   140598 
  141200   141921   142113   142060   142206   142341   142210   142075 
  142128   142028   141523   140992   140867   140975   140919   140745 
  140707   140733   140665   140721   141095   141432   141315   140887 
  140447   139928   139266   138784   138707   138654   138208   137663 
  137619   138196   139136   140221   141226   141754   141525   140788 
  140135   139864   139792   139816   140354   141610   142793   143010 
  142572   142389   142592   142596   142142   141575   141361   141586 
  141897   142145   142717   143781   144848   145345   145150   144606 
  144200   144174   144436   144760   144995   144957   144367   143384 
  142701   142543   142366   141983   141945   142379   142601   142249 
  141724   141272   140686   140100   140086   140688   141174   141099 
  140845   140790   140795   140848   141339   142341   143140   143081 
  142403   141678   141151   140919   140880   140782   140701   140887 
  141064   140665   139986   140043   140806   141118   140613   140024 
  139758   139656   139741   140104   140293   139747   138786   138366 
  138819   139618   140304   140798   140992   140823   140607   140572 
  140364   139726   139155   139066   138950   138515   138673   139931 
  141161   141232   140483   139838   139591   139513   139585   139878 
  139895   139214   138578   138892   139804   140495   140922   141278 
  141114   140181   139425   139685   140370   140404   139442   137957 
  136819   136679   137681   139579   141860   143860   144969   144806 
  143352   141133   139051   137772   137407   137539   137539   137413 
  137812   138681   139141   139010   138971   139087   138898   138933 
  140113   141891   142886   142717   141995   141440   141458   141913 
  142362   142608   142520   141828   140813   140391   140601   140343 
  139463   139050   139241   139090   138576   138410   138395   138017 
  137866   138870   140873   142906   144135   144247   143565   142778 
  142389   142650   143509   144354   144626   144620   144775   144694 
  143978   143075   142263   141280   140395   140227   140738   141651 
  142749   143201   142326   141038   140725   141289   141964   142769 
  143626   143793   143152   142375   141617   140594   139575   138928 
  138476   138126   138084   138211   138169   138064   138456   139707 
  141507   143364   145114   146461   146866   146437   146082   146406 
  147135   147887   148495   148436   147455   146473   146299   146416 
  146242   146172   146421   146080   144572   143028   142815   143596 
  144090   143783   143086   142537   142353   142506   142809   142967 
  143027   143397   143903   143652   142221   140117   138053   136429 
  135430   135014   134740   134161   133463   133089   133066   133326 
  133822   134122   133859   133431   133417   133473   132861   131992 
  131884   132490   133137   133787   134653   135571   136495   137775 
  139463   140840   141308   141269   141122   140405   139162   138518 
  138802   139017   138824   138920   139222   139035   138829   139417 
  140117   140124   140186   140968   141489   140683   138979   137184 
  135330   133655   133060   133856   135417   137166   138869   140169 
  140694   140671   140833   141311   141426   141012   140749   141030 
  141644   142366   142915   142732   141864   141358   141714   142188 
  142533   143390   144401   144259   142846   141397   140510   139635 
  138680   138343   138689   139185   139889   140994   142051   142593 
  142641   142452   142279   142223   142275   142358   142283   142017 
  141867   142024   142271   142541   143112   143799   143846   143208 
  142695   142434   141783   140861   140252   139627   138484   137513 
  137714   138782   139720   140432   141359   142296   142839   143110 
  143140   142501   141158   139789   138856   138161   137484   136977 
  136896   137393   138424   139687   140864   141836   142649   143324 
  143743   143868   143991   144408   145027   145675   146341   146765 
  146637   146434   146812   147182   146445   144791   143251   142156 
  141401   141372   142276   143294   143556   143324   143162   142622 
  140956   138655   136884   135706   134504   133809   134600   136124 
  136818   136934   137597   138177   137635   136925   136976   136665 
  135461   134842   135437   136075   136175   136325   136827   137384 
  137754   138007   138269   138342   137903   137317   137386   137740 
  137042   135267   133708   132688   131495   130211   129772   130503 
  131971   134044   136856   139942   142419   144000   145187   146491 
  147695   148107   147523   146449   145327   144282   143414   142749 
  142037   141050   140155   140042   140621   140991   140607   139606 
  138272   136937   136151   136270   136906   137315   137219   136887 
  136699   136983   137959   139446   140811   141621   141934   142015 
  142227   142649   142817   142539   142291   142319   142334   142551 
  143688   145503   146732   146819   146418   146377   147260   149243 
  151551   152768   152265   150599   148559   146669   145420   144953 
  144616   143819   143108   143279   143991   144633   145505   146743 
  147421   146839   145519   144120   142589   140929   139635   138802 
  137987   137334   137596   138798   140061   140737   140877   140574 
  139603   138122   137066   137050   137637   138343   139390   140881 
  142221   143039   143781   144795   145756   146434   146983   147337 
  147205   146492   145300   143870   142415   140892   139422   138693 
  139261   140690   142056   142923   143036   141994   140146   138584 
  137651   136837   136084   135672   135221   134144   132718   131730 
  131215   130550   129898   130512   132952   135893   137849   139313 
  141458   143694   144715   144840   145019   144956   144248   143719 
  143654   142828   141068   140252   141269   142703   143452   143943 
  144313   143888   142928   142781   143810   144856   145044   144684 
  144167   143222   141629   139764   138183   137216   136929   137214 
  137841   138500   138944   139028   138619   137744   136787   136304 
  136475   137002   137525   137828   137763   137416   137108   136966 
  136814   136641   136822   137467   137986   138021   138194   138985 
  139857   140167   139953   139720   140012   140906   141775   142002 
  141870   142086   142585   142857   143074   143625   144009   143563 
  142747   142520   142986   143634   144084   144005   143202   142063 
  141174   140624   140387   140701   141350   141619   141629   142457 
  144246   145912   147004   147942   148620   148666   148420   148312 
  148050   147187   145818   144408   143386   142812   142167   141097 
  140169   139908   139806   139275   138429   137331   135938   134763 
  134229   133776   132754   131434   130258   129089   128058   128042 
  129323   130945   132224   133488   134855   135900   136817   138443 
  140830   142870   143621   143289   142665   142296   142539   143499 
  144610   144968   144151   142468   140464   138538   137162   136865 
  137598   138886   140607   142641   144100   144288   144069   144724 
  145829   146026   145370   144868   144421   143337   142028   141355 
  141210   141188   141548   142323   142735   142492   142362   142929 
  143870   144757   145694   146672   147128   146844   146241   145374 
  143847   141957   140817   140935   141651   142269   142757   143058 
  142913   142385   141683   140787   139738   138667   137419   135903 
  134693   134326   134447   134732   135729   137470   138632   138530 
  138376   139139   140063   140429   140698   141049   140756   139687 
  138798   138543   138132   137061   136113   136097   136715   137328 
  137774   137783   136872   135560   135195   135958   136737   137236 
  138241   139714   140737   141284   141953   142308   141590   140363 
  139629   139351   139163   139364   140197   140984   140837   139881 
  139027   138742   138761   138721   138391   137505   136174   135248 
  135379   135974   136183   136270   136840   137517   137604   137330 
  137419   137933   138430   138690   138817   139128   139846   140586 
  140846   140867   141120   141550   142037   142674   143237   143521 
  143908   144566   144864   144466   143897   143553   143144   142476 
  141898   141679   141570   141250   140768   140390   140314   140591 
  141027   141242   140952   140346   139945   139861   139702   139515 
  139961   141123   142246   142986   143803   144803   145420   145492 
  145404   145045   144003   142666   141772   141335   141131   141450 
  142357   143054   142855   142069   141197   140132   138742   137496 
  136926   136950   137126   137269   137463   137643   137648   137654 
  138044   138792   139511   140115   140834   141585   141916   141642 
  141143   140968   141208   141484   141577   141652   141686   141245 
  140221   139298   138982   138819   138331   137825   137505   137122 
  136950   137463   138037   137837   137462   137944   138966   139665 
  140227   141142   141898   141903   141675   141937   142485   142815 
  143144   143943   144948   145540   145588   145293   144702   143993 
  143708   143891   143685   142659   141625   141421   141778   141876 
  141370   140413   139314   138510   138422   138962   139421   139143 
  138179   137178   136752   137030   137798   138848   139972   140856 
  141278   141405   141659   142095   142429   142717   143230   143712 
  143644   143085   142477   141832   140832   139634   138793   138516 
  138742   139557   140823   141805   141893   141340   140786   140449 
  140184   139815   139083   137706   135908   134458   133898   134011 
  134353   134995   136262   137936   139418   140530   141511   142354 
  142796   142897   143140   143764   144452   144963   145446   145836 
  145648   144883   144328   144477   144937   145261   145490   145581 
  145142   144108   142848   141489   139985   138785   138388   138527 
  138646   138812   139419   140289   140902   141189   141272   140919 
  140049   139189   138807   138622   138353   138442   139207   140071 
  140279   139722   138865   138291   138237   138420   138491   138550 
  138885   139365   139654   139769   139938   140109   140040   139777 
  139608   139608   139653   139761   140005   140116   139725   139044 
  138689   138739   138798   138898   139279   139642   139673   139649 
  139706   139579   139429   139619   139754   139230   138368   137825 
  137551   137205   136939   137106   137690   138470   139326   140115 
  140663   141137   141930   143021   143969   144693   145590   146691 
  147351   147194   146664   146283   146110   146036   145859   145206 
  144111   143301   143256   143572   143776   143997   144362   144525 
  144130   143235   142138   141134   140570   140647   141038   141149 
  140688   139723   138435   137146   136279   135976   135857   135421 
  134613   133821   133348   133258   133586   134211   134724   134951 
  135297   136156   137357   138514   139522   140368   140969   141432 
  141941   142420   142742   142952   143109   143174   143208   143556 
  144498   145665   146340   146346   146047   145628   145091   144666 
  144514   144329   143812   143170   142654   142102   141377   140625 
  139984   139571   139561   139869   140154   140366   140756   141354 
  142022   142885   144101   145303   145758   145207   144174   143189 
  142234   141289   140688   140503   140285   139808   139306   138796 
  138148   137745   138092   139012   140142   141527   142944   143649 
  143424   142782   141982   140938   139899   139120   138308   137203 
  136175   135680   135594   135483   135157   134670   134095   133547 
  133239   133240   133355   133408   133501   133909   134816   136243 
  138072   139976   141457   142261   142557   142580   142372   142017 
  141698   141326   140587   139540   138616   138156   138281   138805 
  139226   139274   139176   139054   138611   137766   136933   136312 
  135598   134743   134192   134119   134254   134505   135114   136221 
  137668   139187   140628   141961   143027   143494   143260   142649 
  142117   141928   142148   142804   143845   144981   145835   146213 
  146119   145625   144836   143955   143272   142923   142763   142539 
  142123   141567   141077   140930   141205   141662   142084   142379 
  142265   141401   139995   138738   137936   137231   136485   136084 
  136173   136431   136636   136911   137535   138750   140611   142901 
  145154   146955   148275   149381   150311   150781   150664   150311 
  150157   150263   150641   151448   152348   152541   151833   150724 
  149413   147669   145625   143788   142296   140948   139853   139349 
  139387   139537   139511   139209   138478   137247   135776   134449 
  133315   132158   130985   130095   129693   129763   130277   131171 
  132173   133085   134164   135811   138018   140441   142823   145046 
  146886   147972   148047   147193   145613   143284   140270   137212 
  134859   133327   132490   132498   133365   134758   136412   138222 
  139877   140949   141434   141704   141858   141563   140653   139430 
  138314   137577   137332   137601   138481   140031   142001   144086 
  146238   148393   150264   151687   152680   153011   152446   151364 
  150376   149478   148252   146740   145455   144652   144198   143980 
  143877   143613   143090   142622   142431   142165   141347   140085 
  138786   137430   135719   133691   131673   129897   128515   127835 
  128204   129672   131966   134723   137521   139789   140995   141000 
  139985   138111   135642   133157   131305   130403   130464   131539 
  133674   136479   139212   141376   142900   143789   144053   143880 
  143598   143540   143846   144255   144483   144652   144909   145160 
  145457   145962   146496   146635   146304   145777   145039   143816 
  142165   140476   138991   137728   136734   136051   135507   134833 
  133911   132825   131727   130729   129995   129837   130465   131724 
  133247   134797   136316   137751   139052   140270   141408   142271 
  142701   142844   142847   142707   142576   142809   143532   144404 
  145058   145527   145936   146171   146188   146252   146542   146831 
  146850   146699   146572   146384   145982   145439   144801   143889 
  142793   142026   141812   141837   141966   142400   143067   143560 
  143695   143596   143328   142809   142002   141023   140200   139872 
  140013   140256   140332   140296   140367   140707   141253   141740 
  141988   142121   142423   142981   143596   144140   144786   145535 
  145844   145226   143922   142588   141565   140832   140398   140287 
  140235   139851   139117   138385   137872   137465   137079   136931 
  137223   137797   138338   138746   139086   139291   139241   139054 
  138959   138985   139004   138971   138960   139039   139301   139955 
  141100   142403   143388   143942   144146   143926   143194   142146 
  141122   140281   139660   139348   139383   139666   140013   140197 
  140069   139707   139315   138935   138450   137910   137531   137424 
  137582   138007   138620   139145   139274   138856   138026   137165 
  136679   136664   136910   137257   137663   137990   138102   138069 
  137967   137729   137454   137446   137751   138006   137928   137670 
  137515   137376   136908   136119   135436   135091   134947   135022 
  135471   135982   136067   135889   136020   136524   137076   137659 
  138370   138985   139283   139434   139652   139854   139923   139889 
  139831   139891   140248   140883   141550   142075   142483   142832 
  143163   143573   144094   144585   144946   145324   145872   146433 
  146728   146793   146874   147054   147229   147378   147580   147795 
  147850   147744   147646   147598   147486   147235   146801   146172 
  145505   144976   144472   143769   142873   141852   140630   139321 
  138321   137756   137280   136641   135988   135500   135166   135021 
  135237   135773   136281   136543   136663   136777   136865   136942 
  137228   137891   138755   139479   139939   140238   140412   140410 
  140371   140513   140742   140763   140525   140317   140448   140983 
  141748   142547   143303   143981   144382   144248   143625   142824 
  142042   141362   140995   141081   141392   141662   141991   142492 
  142940   143086   142893   142307   141257   139915   138647   137621 
  136694   135774   135032   134638   134572   134832   135503   136513 
  137590   138591   139675   140949   142195   143160   143806   144135 
  144096   143743   143333   143155   143290   143594   143941   144292 
  144628   144925   145135   145160   144891   144293   143483   142722 
  142200   141863   141532   141215   141095   141239   141493   141694 
  141806   141828   141809   141895   142115   142240   142026   141435 
  140520   139264   137724   136177   134921   133999   133278   132780 
  132714   133127   133745   134260   134595   134750   134669   134531 
  134786   135592   136626   137643   138746   139935   140987   141901 
  142844   143723   144373   144964   145771   146761   147691   148352 
  148633   148621   148544   148460   148190   147609   146811   145966 
  145126   144234   143244   142253   141500   141145   141147   141388 
  141783   142256   142695   142989   143071   142942   142696   142439 
  142155   141752   141235   140715   140259   139824   139306   138608 
  137666   136522   135400   134515   133845   133307   133060   133361 
  134168   135171   136140   136985   137577   137918   138283   138846 
  139476   140001   140373   140526   140377   139904   139144   138196 
  137299   136656   136183   135747   135558   135922   136771   137840 
  138983   140058   140849   141373   141855   142354   142828   143430 
  144258   144976   145183   144975   144736   144529   144173   143726 
  143411   143193   142808   142203   141620   141253   141103   141118 
  141199   141154   140888   140509   140157   139896   139719   139541 
  139321   139218   139421   139826   140193   140466   140655   140660 
  140444   140169   139953   139788   139727   139843   140038   140213 
  140466   140872   141304   141632   141879   142132   142454   142838 
  143155   143291   143283   143148   142758   142028   141080   140085 
  139044   137897   136846   136289   136406   136992   137752   138565 
  139442   140404   141447   142488   143386   144113   144720   145169 
  145336   145170   144682   143874   142924   142137   141558   141033 
  140665   140740   141255   141902   142375   142547   142456   142192 
  141798   141293   140799   140455   140182   139800   139359   138994 
  138507   137587   136336   135029   133691   132358   131333   130781 
  130528   130491   130765   131263   131830   132684   134179   136262 
  138578   140848   142807   144124   144713   144779   144495   143982 
  143433   142932   142450   142096   142025   142196   142453   142695 
  142936   143272   143765   144358   144952   145409   145571   145376 
  144930   144383   143785   143208   142832   142750   142908   143264 
  143676   143754   143237   142338   141435   140694   140193   140070 
  140340   140809   141282   141745   142280   142777   142919   142608 
  142138   141745   141345   140845   140401   140105   139758   139186 
