Origin Time       2025/01/13 21:19:00
Lat.              31.8
Long.             131.6
Depth. (km)       30
Mag.              6.9
Station Code      MYZH09
Station Lat.      32.0421
Station Long.     131.0618
Station Height(m) 335
Record Time       2025/01/13 21:19:42
Sampling Freq(Hz) 100Hz
Duration Time(s)  120
Dir.              4
Scale Factor      7845(gal)/8223790
Max. Acc. (gal)   7.523
Last Correction   2025/01/13 21:19:42
Memo.             
[...]
    -317      -54      160      166       83       99      174      303 
     529      783     1000     1113     1116     1116     1098     1007 
     889      722      511      356      136     -337     -943    -1420 
   -1680    -1757    -1621    -1317    -1023     -707     -244      157 
     301      324      378      513      777     1081     1301     1475 
    1583     1463     1134      816      615      484      340       74 
    -329     -708     -958    -1105    -1148    -1102    -1036     -923 
    -729     -521     -319     -101       99      263      411      553 
     676      734      714      677      650      607      507      321 
     171      171      256      407      643      822      819      693 
     580      596      738      847      843      761      606      421 
     225     -113     -650    -1231    -1742    -2239    -2771    -3264 
   -3599    -3743    -3713    -3424    -2884    -2338    -1826    -1104 
    -226      556     1227     1757     2066     2201     2222     2224 
    2208     1969     1588     1381     1336     1360     1566     1960 
    2459     3048     3620     4060     4388     4548     4472     4271 
    3933     3338     2662     2172     1763     1179      506       24 
    -264     -484     -572     -607     -820    -1170    -1567    -2091 
   -2627    -2978    -3163    -3249    -3218    -3069    -2845    -2587 
   -2334    -2174    -2215    -2385    -2520    -2552    -2524    -2554 
   -2724    -2970    -3183    -3323    -3426    -3547    -3659    -3681 
   -3634    -3551    -3375    -3114    -2880    -2708    -2475    -2089 
   -1678    -1466    -1472    -1466    -1290    -1075     -939     -861 
    -901    -1021     -946     -592     -137      256      510      707 
     988     1324     1709     2108     2296     2195     1981     1729 
    1439     1138      760      306      -59     -268     -452     -739 
   -1112    -1471    -1726    -1848    -1899    -1925    -1872    -1690 
   -1368     -900     -337      206      623      846      912      969 
    1135     1431     1764     1954     1890     1694     1609     1652 
    1713     1876     2209     2573     2893     3195     3427     3524 
    3476     3334     3223     3240     3396     3586     3620     3451 
    3206     2982     2770     2547     2346     2242     2258     2346 
    2398     2323     2116     1960     2097     2498     2951     3376 
    3730     3882     3827     3686     3457     3055     2439     1579 
     535     -526    -1486    -2309    -2952    -3334    -3438    -3364 
   -3141    -2731    -2212    -1687    -1092     -437      135      591 
     895      827      328     -318     -876    -1301    -1583    -1706 
   -1615    -1301     -992     -919    -1027    -1193    -1397    -1633 
   -1888    -2139    -2354    -2502    -2500    -2285    -1939    -1516 
    -945     -268      392     1040     1699     2319     2798     2961 
    2682     2023     1194      387     -399    -1202    -1890    -2413 
   -2868    -3211    -3341    -3265    -2990    -2528    -2006    -1514 
   -1046     -658     -507     -699    -1171    -1723    -2203    -2598 
   -2882    -2999    -3002    -2886    -2535    -1992    -1366     -704 
    -117      353      849     1367     1711     1861     1980     2151 
    2452     2916     3375     3703     3966     4198     4290     4197 
    4068     4018     3952     3813     3666     3445     3068     2655 
    2335     2165     2134     2042     1684     1143      552      -66 
    -645    -1105    -1466    -1836    -2336    -2920    -3453    -4039 
   -4787    -5532    -6112    -6450    -6529    -6550    -6670    -6767 
   -6725    -6578    -6338    -5998    -5579    -5089    -4487    -3767 
   -3042    -2440    -2010    -1736    -1510    -1166     -658      -17 
     749     1447     1857     2052     2138     2111     2138     2455 
    3061     3794     4463     4889     5105     5294     5471     5529 
    5513     5472     5286     4904     4453     4021     3607     3204 
    2897     2862     3152     3607     3989     4047     3693     3068 
    2230     1138      -43    -1131    -2182    -3235    -4136    -4808 
   -5319    -5628    -5624    -5385    -5096    -4758    -4260    -3662 
   -3100    -2562    -2018    -1536    -1115     -610      101      905 
    1595     2218     2882     3511     4018     4345     4426     4261 
    3897     3408     2862     2334     1933     1702     1620     1706 
    1942     2169     2238     2173     2101     2016     1803     1499 
    1182      801      319     -222     -781    -1306    -1763    -2104 
   -2290    -2334    -2168    -1659     -947     -336      113      399 
     432      317      261      271      180      -63     -301     -440 
    -594     -778     -886    -1000    -1208    -1343    -1294    -1270 
   -1474    -1860    -2357    -2961    -3510    -3735    -3632    -3407 
   -3145    -2832    -2520    -2227    -1903    -1580    -1316    -1109 
    -967     -803     -540     -318     -209      -49      225      588 
     969     1097      772      164     -525    -1278    -1942    -2326 
   -2559    -2817    -3030    -3145    -3129    -2956    -2691    -2296 
   -1734    -1085     -203     1030     2307     3339     4098     4492 
    4469     4144     3628     3076     2682     2494     2454     2475 
    2408     2166     1798     1385     1084      982      996     1055 
    1093     1000      810      518      -18     -700    -1205    -1381 
   -1219     -793     -263      329      985     1583     2046     2466 
    2940     3422     3754     3893     3962     4048     4149     4274 
    4345     4178     3680     2933     2107     1345      726      286 
       8     -232     -598    -1151    -1833    -2567    -3275    -3817 
   -3991    -3727    -3346    -3115    -2786    -2120    -1267     -387 
     375      789      818      692      638      660      533      126 
    -461    -1210    -2137    -3129    -4182    -5247    -5968    -6099 
   -5818    -5362    -4789    -4178    -3593    -3029    -2489    -1880 
   -1212     -734     -280      483     1269     1841     2411     2848 
    2897     2848     3078     3553     4020     4294     4317     4105 
    3802     3514     3099     2575     2249     2227     2332     2381 
    2254     1852     1197      437     -361    -1224    -2118    -2921 
   -3466    -3775    -3955    -3917    -3595    -3051    -2326    -1518 
    -791     -333     -298     -529     -764    -1040    -1458    -1938 
   -2398    -2716    -2843    -2959    -3130    -3233    -3350    -3574 
   -3692    -3545    -3184    -2671    -2149    -1790    -1584    -1379 
   -1008     -461      108      751     1649     2651     3435     3920 
    4174     4221     4091     3873     3682     3635     3774     4068 
    4434     4758     4963     5049     5063     5088     5109     5090 
    5074     4990     4646     3996     3075     1956      762     -342 
   -1171    -1688    -2088    -2442    -2646    -2704    -2689    -2632 
   -2536    -2350    -2085    -1935    -1976    -2045    -2184    -2565 
   -2978    -3172    -3237    -3214    -3048    -2872    -2886    -3064 
   -3064    -2651    -2081    -1660    -1387    -1189    -1023     -796 
    -492     -213       27      305      580      727      772      859 
     996     1059     1055     1058     1031      934      756      436 
      21     -286     -364     -299     -256     -205      -25       91 
     -66     -282     -247       20      306      441      411      324 
     194      -76     -457     -773     -907     -838     -529       81 
     954     1937     2874     3611     4037     4245     4383     4334 
    3902     3260     2662     2069     1510     1069      580       60 
    -251     -433     -652     -789     -864    -1034    -1208    -1422 
   -1954    -2725    -3495    -4213    -4707    -4846    -4754    -4480 
   -3969    -3250    -2308    -1088      349     1776     2876     3477 
    3663     3624     3438     3007     2251     1325      434     -436 
   -1263    -1817    -2002    -1867    -1468     -936     -310      437 
    1109     1486     1609     1628     1609     1483     1235      966 
     696      336     -106     -476     -646     -677     -687     -720 
    -951    -1529    -2269    -2968    -3561    -3910    -3973    -3804 
   -3441    -3099    -2971    -3048    -3343    -3811    -4287    -4691 
   -4926    -4882    -4595    -4178    -3739    -3402    -3192    -2975 
   -2612    -2146    -1657    -1111     -561     -166       59      147 
      43     -220     -465     -544     -461     -324      -86      402 
    1057     1706     2404     3144     3705     4067     4324     4386 
    4249     4039     3717     3257     2771     2258     1634      972 
     384       -6      -85       68      299      633     1067     1382 
    1293      765      147     -203     -294     -314     -423     -676 
    -923    -1084    -1206    -1146     -765     -187      499     1264 
    2074     2932     3684     4180     4511     4660     4592     4563 
    4569     4344     4040     3823     3361     2517     1602      978 
     891     1105     1159     1092     1043      884      726      761 
     896      982      919      673      297     -194     -726    -1182 
   -1609    -1976    -2122    -2164    -2304    -2501    -2678    -2799 
   -2840    -2816    -2608    -2099    -1455     -881     -383       18 
     232      234      121       29      -39     -214     -503     -746 
    -896     -992     -895     -580     -324     -248     -305     -639 
   -1335    -2120    -2685    -2887    -2767    -2524    -2301    -2074 
   -1763    -1262     -571      197      949     1655     2239     2525 
    2524     2305     1750     1080      754      712      657      538 
     333       29     -263     -515     -885    -1418    -1894    -2207 
   -2471    -2648    -2685    -2710    -2779    -2867    -2998    -3068 
   -2986    -2832    -2562    -2068    -1499     -999     -414      234 
     633      807     1039     1344     1792     2538     3321     3823 
    4175     4626     5076     5293     5371     5460     5431     5239 
    5067     4984     4947     4869     4556     3964     3319     2821 
    2504     2268     1919     1447     1031      656      122     -510 
   -1065    -1582    -2042    -2257    -2214    -2101    -2180    -2523 
   -2802    -2744    -2462    -2146    -1854    -1520    -1154     -870 
    -684     -579     -612     -841    -1206    -1553    -1753    -1715 
   -1509    -1323    -1173    -1016     -935     -905     -855     -827 
    -756     -499     -186      -90     -228     -438     -681     -970 
   -1298    -1622    -1790    -1783    -1830    -1915    -1813    -1533 
   -1246    -1066     -997     -888     -666     -473     -356     -252 
    -305     -637    -1046    -1325    -1522    -1692    -1769    -1748 
   -1701    -1544    -1155     -658     -315     -271     -461     -673 
    -723     -588     -360      -97      143      214       75     -145 
    -271     -125      314      889     1453     1930     2243     2335 
    2243     2107     2065     2142     2227     2161     1948     1710 
    1471     1248     1040      702      282       93       95      -62 
    -469     -958    -1363    -1665    -1867    -1831    -1568    -1228 
    -793     -282      172      630     1109     1409     1543     1663 
    1711     1620     1390     1017      675      522      446      398 
     540      900     1354     1811     2135     2211     2137     2019 
    1852     1610     1271      787       62     -918    -1871    -2454 
   -2654    -2579    -2280    -1973    -1898    -1929    -1892    -1861 
   -1829    -1626    -1285    -1044     -976     -838     -488      -55 
     432      996     1491     1846     2089     2191     2184     2106 
    1894     1599     1383     1325     1354     1247      872      400 
      49      -90        6      234      409      433      224     -278 
    -958    -1605    -2042    -2184    -2120    -2115    -2331    -2617 
   -2755    -2717    -2450    -1827     -988     -240      248      494 
     571      552      534      568      575      565      691      935 
    1111     1183     1204     1188     1246     1431     1620     1771 
    1989     2284     2479     2444     2230     1942     1702     1621 
    1632     1601     1399      945      382     -180     -892    -1698 
   -2353    -2795    -3079    -3289    -3541    -3785    -3923    -4012 
   -4044    -3889    -3604    -3277    -2840    -2257    -1557     -861 
    -361      -31      310      639      931     1310     1703     1945 
    2151     2370     2446     2434     2400     2268     2199     2335 
    2377     2083     1533      830       81     -598    -1171    -1629 
   -2018    -2436    -2914    -3388    -3696    -3765    -3766    -3786 
   -3726    -3674    -3785    -4028    -4425    -4958    -5351    -5406 
   -5205    -4876    -4476    -4021    -3523    -2972    -2390    -1918 
   -1679    -1578    -1499    -1458    -1355    -1028     -537       32 
     758     1626     2455     3150     3688     3977     4031     4032 
    4108     4233     4247     4063     3855     3693     3447     3113 
    2803     2598     2490     2405     2403     2523     2585     2477 
    2239     1838     1283      699       91     -607    -1381    -2165 
   -2868    -3392    -3740    -3969    -4060    -3896    -3407    -2677 
   -1799     -858       64     1023     2054     3063     3952     4619 
    5040     5405     5838     6304     6772     7210     7527     7699 
    7808     7857     7732     7415     6971     6378     5549     4434 
    3092     1740      557     -436    -1223    -1842    -2447    -3006 
   -3389    -3591    -3562    -3319    -3044    -2754    -2392    -2114 
   -1969    -1853    -1879    -2114    -2361    -2531    -2659    -2708 
   -2727    -2829    -3061    -3431    -3851    -4135    -4216    -4156 
   -3969    -3647    -3276    -2905    -2458    -1863    -1217     -734 
    -500     -384     -195      132      541     1004     1522     1991 
    2330     2523     2521     2397     2344     2444     2681     2965 
    3071     2826     2263     1474      565     -299    -1069    -1769 
   -2334    -2658    -2725    -2643    -2505    -2273    -1907    -1494 
   -1144     -950    -1009    -1313    -1696    -2011    -2254    -2492 
   -2766    -2967    -2987    -2922    -2820    -2627    -2451    -2370 
   -2289    -2208    -2166    -2066    -1876    -1713    -1609    -1490 
   -1308    -1102     -988     -936     -769     -414       41      531 
    1043     1582     2147     2623     2862     2889     2806     2652 
    2481     2249     1803     1220      684      171     -315     -627 
    -764     -908    -1155    -1391    -1462    -1370    -1206     -946 
    -469      224      950     1549     2019     2419     2748     2982 
    3148     3276     3300     3109     2668     2103     1533      936 
     325     -180     -558     -889    -1196    -1422    -1539    -1559 
   -1431    -1061     -467      287     1143     1983     2739     3427 
    3997     4374     4557     4506     4180     3639     2910     2008 
    1058      244     -315     -654     -951    -1318    -1656    -1846 
   -1869    -1740    -1501    -1181     -778     -317      206      841 
    1632     2477     3080     3316     3335     3233     3028     2762 
    2408     1925     1336      635     -241    -1301    -2401    -3396 
   -4205    -4706    -4818    -4596    -4175    -3685    -3175    -2690 
   -2308    -2054    -1969    -2084    -2334    -2681    -3052    -3316 
   -3545    -3848    -4087    -4180    -4195    -4039    -3570    -2832 
   -1841     -561      832     2087     3103     3843     4251     4333 
    4202     4014     3809     3554     3318     3121     2886     2691 
    2593     2478     2336     2223     2108     1993     1911     1854 
    1826     1838     1833     1732     1574     1436     1304     1194 
    1166     1177     1178     1151     1026      801      598      445 
     244      -83     -588    -1260    -1975    -2589    -3046    -3354 
   -3510    -3473    -3308    -3175    -3109    -3078    -3091    -3100 
   -3036    -2906    -2759    -2675    -2720    -2839    -2880    -2698 
   -2236    -1620    -1015     -460       31      380      618      955 
    1468     1966     2258     2304     2166     1906     1529     1046 
     483     -139     -777    -1368    -1912    -2428    -2825    -3036 
   -3109    -3065    -2860    -2488    -1950    -1267     -571       -2 
     460      895     1300     1605     1768     1810     1755     1645 
    1594     1687     1926     2297     2813     3403     3925     4363 
    4758     5031     5104     4950     4556     3979     3261     2423 
    1518      549     -481    -1466    -2304    -2975    -3500    -3919 
   -4311    -4788    -5316    -5690    -5760    -5544    -5140    -4629 
   -4074    -3570    -3107    -2609    -2064    -1408     -554      399 
    1332     2222     2951     3397     3622     3719     3784     3904 
    4006     3967     3827     3704     3559     3283     2891     2439 
    1931     1364      700      -98    -1008    -1961    -2891    -3748 
   -4521    -5144    -5478    -5452    -5135    -4596    -3869    -3001 
   -2004     -853      359     1432     2300     3040     3653     4041 
    4175     4072     3755     3298     2752     2114     1374      572 
    -209     -872    -1362    -1652    -1725    -1624    -1429    -1221 
   -1055     -957     -936     -955     -970    -1046    -1240    -1455 
   -1556    -1505    -1235     -683       51      834     1642     2435 
    3107     3615     3964     4112     3983     3562     2907     2110 
    1232      341     -488    -1192    -1726    -2112    -2417    -2721 
   -3073    -3422    -3658    -3724    -3632    -3395    -3024    -2628 
   -2335    -2137    -1976    -1810    -1584    -1289     -972     -646 
    -297       32      267      372      345      205       -2     -264 
    -567     -858    -1097    -1250    -1289    -1189     -868     -253 
     611     1614     2585     3358     3915     4320     4587     4749 
    4847     4830     4629     4290     3871     3300     2559     1760 
     963      159     -633    -1412    -2185    -2916    -3526    -3944 
   -4148    -4160    -4009    -3766    -3503    -3188    -2778    -2353 
   -1972    -1606    -1252     -928     -634     -388     -164       72 
     302      510      716      885      981     1067     1192     1290 
    1344     1409     1472     1487     1493     1537     1598     1621 
    1545     1325      973      581      290      170      249      581 
    1098     1621     2079     2488     2829     3100     3314     3407 
    3322     3100     2809     2444     1956     1324      591     -190 
    -958    -1672    -2303    -2849    -3356    -3828    -4257    -4669 
   -5057    -5360    -5525    -5535    -5425    -5221    -4908    -4498 
   -4023    -3470    -2772    -1946    -1093     -229      673     1574 
    2444     3292     4101     4827     5416     5769     5842     5717 
    5487     5188     4853     4514     4166     3811     3460     3127 
    2801     2409     1922     1360      758      184     -313     -738 
   -1089    -1405    -1756    -2120    -2451    -2747    -2976    -3059 
   -2964    -2720    -2362    -1941    -1494    -1016     -527      -60 
     390      795     1055     1086      903      581      207     -175 
