Origin Time       2025/01/13 21:19:00
Lat.              31.8
Long.             131.6
Depth. (km)       30
Mag.              6.9
Station Code      MYZH03
Station Lat.      32.4754
Station Long.     131.1043
Station Height(m) 519
Record Time       2025/01/13 21:19:47
Sampling Freq(Hz) 100Hz
Duration Time(s)  160
Dir.              4
Scale Factor      7845(gal)/8223790
Max. Acc. (gal)   17.131
Last Correction   2025/01/13 21:19:47
Memo.             
[...]
  -11805   -10478    -9474    -8807    -8293    -7705    -7217    -7335 
   -8378    -9873   -10933   -11516   -12260   -13230   -13815   -13400 
  -12154   -11140   -11065   -11496   -11627   -11246   -10864   -11161 
  -12058   -12480   -11897   -11354   -11592   -11855   -11537   -10831 
  -10255   -10524   -11411   -11780   -11574   -11480   -11372   -10976 
  -10201    -8914    -8085    -8951   -10813   -12171   -12498   -11855 
  -10781   -10123   -10249   -11029   -12156   -13227   -14010   -14350 
  -13913   -12384    -9931    -7516    -6361    -6858    -8274    -9510 
  -10049   -10127   -10122   -10093   -10162   -10863   -12167   -12996 
  -12862   -12220   -11414   -10999   -11377   -11898   -11801   -11063 
  -10093    -9432    -9644   -11024   -12931   -13857   -12982   -11407 
  -10998   -12116   -13598   -14565   -14715   -13676   -11624    -9580 
   -8338    -7966    -8699   -10669   -12440   -12144    -9616    -6428 
   -5011    -6547    -9470   -11322   -11203   -10158    -9836   -10739 
  -11797   -11788   -10928   -10247   -10022   -10157   -10890   -12032 
  -12858   -12887   -11904   -10235    -8901    -8167    -7268    -6412 
   -6561    -7541    -8877   -10594   -12047   -12452   -11844   -10584 
   -9605    -9850   -10746   -11556   -12576   -13311   -12636   -10667 
   -8444    -7543    -9391   -12900   -15171   -14941   -12838    -9720 
   -6947    -6093    -7098    -8849   -10875   -12565   -13273   -13543 
  -13883   -14079   -13994   -13093   -11045    -8779    -7068    -6353 
   -7407    -9991   -13072   -15381   -15422   -13900   -13231   -13999 
  -14898   -14355   -11986    -9198    -7495    -7434    -8683   -10069 
  -10933   -11564   -11878   -11722   -11908   -12987   -14162   -14435 
  -13022    -9602    -6110    -5354    -7327   -10293   -13203   -14908 
  -14867   -14220   -13875   -13783   -13505   -12565   -11677   -11485 
  -10806    -9536   -10088   -13170   -16155   -16725   -14701   -11389 
   -8745    -7634    -8002    -9802   -11812   -12152    -9616    -4590 
    -648    -1395    -6239   -12490   -17254   -18203   -16627   -15796 
  -16082   -16070   -15862   -16147   -16567   -16063   -14305   -12745 
  -11946    -9814    -5333     -777      576    -2304    -6883    -9666 
   -9879    -9684   -11092   -13699   -15742   -15839   -13424    -9621 
   -7304    -7807    -9562   -10925   -11196   -10731   -11245   -13231 
  -15037   -15400   -14139   -11715    -9826   -10125   -11500   -11603 
  -10054    -7643    -5238    -3635    -3003    -3692    -5806    -7866 
   -8706    -9038    -9622   -10579   -12328   -14926   -17504   -18963 
  -18675   -16831   -14114   -11269    -9363    -9100    -9348    -8507 
   -7226    -6779    -6880    -7322    -8334   -10015   -12845   -16244 
  -18387   -18385   -16641   -14142   -12083   -11484   -12307   -13135 
  -12927   -11599    -8986    -5379    -1956       -4     -391    -2641 
   -5008    -6226    -5800    -4283    -3674    -5306    -8818   -12806 
  -15213   -14905   -12622   -10571   -11043   -13541   -15195   -14528 
  -11809    -8027    -5659    -6305    -8451   -10790   -13464   -15488 
  -15811   -14970   -13255   -10372    -7369    -6250    -7780   -10883 
  -13752   -15157   -15176   -14945   -15595   -17439   -20034   -22104 
  -22149   -19900   -16706   -14550   -14164   -14193   -13235   -11847 
  -11647   -13460   -16212   -16996   -14053    -9130    -5439    -4939 
   -6598    -7442    -6758    -5532    -4091    -3805    -5907    -9173 
  -11797   -13055   -13306   -13452   -13886   -14355   -14189   -12830 
  -11362   -11556   -13157   -14316   -13543   -11122    -9401   -10071 
  -12060   -13795   -15036   -15491   -14897   -14085   -13705   -13593 
  -13544   -13238   -12487   -11514   -10212    -8510    -7079    -6394 
   -6399    -7087    -7975    -8322    -8509    -9432   -11163   -13327 
  -15206   -15549   -13470    -9273    -4962    -3136    -4361    -7395 
  -10836   -13018   -13247   -13170   -14239   -16047   -17879   -18631 
  -17131   -14400   -12410   -11341   -10206    -7933    -4072     -568 
     121    -1613    -4361    -7358    -9921   -12114   -13975   -15048 
  -15642   -16236   -15975   -13414    -9756    -8206    -9321   -11414 
  -13103   -13539   -13429   -14230   -15456   -15206   -12491    -8322 
   -4841    -3501    -4747    -8228   -12000   -13316   -11692    -9713 
  -10281   -14042   -18535   -20071   -17998   -15277   -13818   -12383 
   -9649    -6362    -3890    -2712    -2874    -4056    -5699    -7722 
   -9545   -10197   -10004    -9995   -10629   -11299   -10720    -8992 
   -7973    -8688   -10177   -10859   -10378   -10280   -11564   -12996 
  -13629   -13914   -13965   -13458   -12569   -11905   -12212   -13770 
  -15556   -16349   -16078   -15269   -14642   -14296   -13589   -12696 
  -12293   -12700   -13567   -13366   -11638   -10226    -9949    -9779 
   -9863   -11025   -12654   -14008   -14644   -13976   -12641   -11288 
   -9406    -7492    -6754    -7450    -9548   -12946   -16659   -19138 
  -19745   -19039   -17643   -15519   -12382    -9153    -7371    -6345 
   -3828      504     4364     5227     2550    -2362    -7438   -11084 
  -13509   -15885   -18839   -22123   -24744   -25699   -24476   -21390 
  -17740   -14758   -12876   -11769   -10515    -8684    -7523    -8218 
   -9676   -10511   -10521    -9258    -7425    -7354    -9300   -11294 
  -11916   -10442    -7302    -4432    -3195    -3673    -5791    -9215 
  -12714   -14447   -13408   -10540    -8218    -8608   -11250   -13404 
  -13188   -10131    -4576     1009     2817     -280    -5668   -10027 
  -11863   -12480   -14129   -16557   -17820   -17680   -17120   -16351 
  -15333   -13490    -9686    -4706    -1366    -1517    -4310    -7589 
   -9963   -10843   -10743   -11553   -13976   -16518   -17593   -15925 
  -11722    -8503    -8915   -11129   -12206   -11302    -9718    -9032 
   -9151    -8856    -7291    -5155    -4433    -5964    -8529   -10311 
   -9987    -7971    -6397    -6420    -7877   -10612   -13535   -15357 
  -16320   -17092   -17884   -18108   -16051   -11627    -7939    -7380 
   -9428   -12734   -15246   -14756   -12185   -10627   -11762   -15110 
  -18435   -19742   -19523   -19502   -20321   -20806   -18862   -13705 
   -7134    -2150     -411    -1406    -3430    -4725    -4915    -5201 
   -6102    -6855    -7580    -9452   -12248   -14185   -14428   -13211 
  -10636    -7789    -6516    -7002    -8191    -8981    -8124    -6305 
   -5934    -7264    -9030   -10903   -12807   -14882   -17732   -21012 
  -23315   -24030   -23047   -19456   -13818    -9093    -7261    -8266 
  -10999   -13397   -14189   -13894   -12829   -10935    -9532   -10218 
  -12588   -14808   -14953   -12032    -7558    -4364    -3730    -5375 
   -8043   -10231   -12023   -14037   -15927   -17485   -18395   -17892 
  -15862   -13026   -10782   -10111   -10318    -9937    -8106    -5248 
   -2916    -2647    -4922    -8664   -11288   -10714    -8174    -6739 
   -7618   -10197   -13038   -13886   -11739    -8429    -6532    -6659 
   -7403    -7234    -5738    -3913    -3804    -6199    -9456   -11851 
  -12460   -11101    -9954   -11259   -13863   -15564   -15503   -14100 
  -13223   -13846   -14457   -13976   -12784   -11429   -10980   -12118 
  -13784   -14848   -15634   -16636   -17566   -18779   -21019   -23006 
  -22744   -20156   -16193   -11973    -8932    -8194    -9344   -10463 
  -10223    -8299    -5143    -2673    -2663    -5337    -9306   -11539 
  -10147    -6566    -3489    -2843    -4806    -7751   -10412   -12866 
  -15280   -17474   -18522   -16883   -12931    -9351    -8191    -9428 
  -11462   -12501   -11978   -10336    -8147    -6049    -5197    -6578 
   -9551   -12600   -14593   -14647   -12941   -11215   -10926   -11797 
  -12626   -12368   -10561    -7753    -5078    -3090    -1840    -1545 
   -2349    -4418    -7846   -11853   -15021   -16185   -15273   -13516 
  -12348   -12415   -13398   -14565   -15469   -15735   -14833   -12965 
  -11673   -12833   -16710   -21097   -22739   -20183   -15292   -11034 
   -8557    -7218    -6153    -5174    -4540    -4419    -4922    -6161 
   -7888    -9309   -10022   -10697   -12279   -14808   -17136   -18015 
  -17358   -16141   -15145   -14408   -14022   -14022   -14138   -14401 
  -14538   -14130   -13670   -13181   -11638    -9065    -6750    -5695 
   -6284    -7938    -9404   -10161   -10265    -9923    -9976   -11029 
  -12619   -14222   -15685   -16267   -15160   -12931   -10947   -10261 
  -11254   -13030   -14046   -13655   -12243   -10774   -10328   -11151 
  -12479   -13090   -12174   -10542    -9838   -10663   -12496   -13988 
  -13625   -11404    -8884    -7597    -8014    -9298   -10107   -10044 
   -9371    -8224    -7092    -6389    -6061    -6593    -8028    -9320 
  -10193   -11003   -11820   -13224   -15381   -17115   -17344   -15815 
  -13255   -11317   -10736   -10701   -10334    -9502    -8941    -9616 
  -11179   -12048   -11182    -8842    -6215    -4669    -4914    -6488 
   -8135    -8996    -9005    -8641    -8829   -10031   -11728   -13104 
  -13495   -12826   -11704   -10812   -10644   -11229   -12148   -13401 
  -15269   -17254   -18296   -17901   -16449   -14854   -13918   -13651 
  -13489   -12987   -12040   -10859    -9506    -7882    -6451    -5778 
   -5923    -6918    -8563   -10200   -11280   -11399   -10219    -8352 
   -7587    -8937   -11637   -14432   -16123   -16079   -15187   -14677 
  -14723   -14890   -14821   -14438   -13963   -13586   -13239   -12702 
  -11751   -10245    -8341    -6555    -5283    -4479    -3908    -3519 
   -3743    -4941    -6507    -7512    -7603    -7175    -7425    -9209 
  -11789   -13648   -13938   -13150   -12734   -13414   -14364   -14754 
  -14665   -14328   -14260   -15076   -16249   -16823   -16591   -15514 
  -13729   -11966   -10825   -10250    -9877    -9346    -8270    -6685 
   -5385    -5112    -5925    -7361    -8681    -9524   -10212   -10964 
  -11647   -12097   -11889   -10870   -10106   -10635   -12017   -13400 
  -14538   -15427   -16062   -16302   -15711   -14041   -11819   -10058 
   -9459    -9783    -9765    -8391    -6338    -5462    -7056   -10563 
  -13898   -15479   -15547   -15353   -15777   -16565   -16488   -14646 
  -11406    -8052    -6227    -6660    -8020    -8403    -7365    -5626 
   -4267    -4301    -5783    -7646    -8900    -9676   -10663   -11788 
  -12270   -11747   -10802   -10470   -11326   -13105   -14913   -15692 
  -15180   -14303   -13981   -14110   -14149   -13575   -11917    -9513 
   -7396    -6376    -6806    -8353   -10181   -11576   -12357   -12997 
  -13647   -13825   -13649   -13643   -13830   -14230   -14823   -14806 
  -13414   -10998    -8564    -7038    -6841    -7442    -8021    -8487 
   -8961    -9321    -9690   -10089   -10350   -10953   -12321   -13965 
  -15498   -16858   -17514   -16991   -15637   -14112   -12881   -12283 
  -12260   -12226   -11809   -11124   -10396    -9787    -9418    -9552 
  -10570   -12272   -13576   -13703   -12862   -11574   -10477    -9942 
   -9671    -9424    -9251    -9188    -9200    -9059    -8568    -7739 
   -6713    -5911    -5845    -6497    -7294    -7754    -7824    -7836 
   -8280    -9258   -10438   -11431   -12032   -12378   -12577   -12245 
  -11214   -10287   -10266   -11146   -12712   -14193   -14384   -13263 
  -11773   -10890   -11314   -12607   -13738   -14346   -14440   -14153 
  -13706   -12946   -12015   -11811   -12630   -13840   -14751   -14569 
  -13127   -11635   -11091   -11318   -11811   -12002   -11439   -10467 
   -9622    -8758    -7780    -7132    -7198    -7896    -8873    -9872 
  -10659   -10916   -10485    -9351    -7851    -7007    -7464    -8752 
  -10004   -10401    -9756    -8923    -8685    -9138   -10164   -11485 
  -12729   -13585   -13779   -13338   -12502   -11485   -10782   -10820 
  -11129   -10995   -10296    -9099    -7601    -6265    -5458    -5308 
   -5724    -6655    -8149    -9995   -11799   -13265   -14234   -14655 
  -14575   -14227   -14098   -14779   -16174   -16996   -15977   -13258 
  -10199    -8137    -7597    -8437   -10048   -11489   -12116   -12199 
  -12652   -13944   -15503   -16414   -16241   -15075   -13614   -12861 
  -13032   -13482   -13733   -13775   -13764   -14006   -14574   -15006 
  -15032   -14540   -13050   -10515    -7612    -5188    -4056    -4322 
   -5200    -6164    -7249    -8507   -10177   -12442   -14675   -16109 
  -16776   -17053   -17104   -16947   -16359   -15047   -13201   -11622 
  -11088   -11577   -12491   -13365   -13882   -14027   -14154   -14295 
  -14196   -13845   -13223   -12185   -10700    -8842    -6940    -5553 
   -5011    -5179    -5694    -6137    -6312    -6345    -6292    -6305 
   -6860    -8137    -9915   -11735   -12795   -12537   -11364   -10349 
  -10272   -11168   -12567   -13815   -14690   -15375   -15908   -16376 
  -16605   -15938   -14326   -12229   -10080    -8507    -7446    -6432 
   -6093    -6909    -8260    -9744   -11119   -11932   -12329   -12653 
  -12217   -10180    -7431    -5448    -4541    -4322    -4025    -3267 
   -2610    -2528    -3168    -4376    -5634    -6574    -6975    -7182 
   -8140    -9949   -11844   -13467   -14570   -14891   -14925   -15178 
  -15531   -15917   -16093   -15773   -15493   -15786   -16425   -17101 
  -17560   -17396   -16567   -15730   -15514   -15773   -15853   -15298 
  -14220   -12938   -11588   -10343    -9386    -8546    -7360    -5435 
   -2895     -477     1098     1686     1475      387    -2027    -5958 
  -10775   -15530   -19961   -24177   -27569   -29069   -28224   -25436 
  -21351   -16725   -12667    -9686    -7241    -5148    -3956    -3912 
   -4931    -6995    -9726   -12480   -14746   -15931   -15638   -13918 
  -11157    -8232    -5860    -3898    -1782      535     2313     3048 
    2670     1120    -1059    -3242    -5760    -9097   -13001   -16742 
  -19565   -20875   -20336   -18308   -15870   -13873   -12486   -11591 
  -11232   -11674   -13178   -15770   -18787   -21338   -23415   -25196 
  -26562   -27307   -26266   -22630   -17537   -12093    -6597    -1885 
    1298     3122     3539     2042    -1227    -5560   -10065   -13914 
  -17070   -19645   -20970   -20306   -17572   -13404    -8969    -5493 
   -3379    -2045    -1594    -2829    -5085    -7291    -9444   -11349 
  -12904   -14409   -15418   -15353   -14239   -12482   -10989   -10390 
  -10399   -10439   -10165    -9869   -10242   -11383   -12811   -13973 
  -14578   -15230   -16918   -19379   -21420   -22503   -22518   -21072 
  -18069   -14022    -9794    -6166    -3262     -913      928     2154 
    2041       54    -3161    -6434    -8984   -11322   -14206   -16487 
  -16684   -15121   -13019   -11583   -11290   -11187   -10180    -8554 
   -7461    -7491    -8448    -9983   -11688   -13104   -14104   -14944 
  -15766   -16150   -15511   -13787   -11476    -9378    -7750    -6081 
   -4390    -3069    -2022    -1358    -1332    -2018    -3723    -6399 
   -9373   -12108   -14218   -15350   -15668   -15786   -15954   -16009 
  -16063   -16032   -15338   -13841   -12106   -10646    -9435    -8360 
   -7533    -7049    -7279    -8715   -10910   -12793   -13930   -14304 
  -13849   -12738   -11376   -10338   -10102   -10434   -10717   -10728 
  -10615   -10543   -10589   -10775   -11014   -11195   -11323   -11272 
  -10791   -10007    -9290    -8949    -9105    -9498   -10018   -10882 
  -11886   -12587   -12730   -12272   -11797   -11915   -12366   -12694 
  -12671   -12133   -11396   -10980   -10960   -11210   -11718   -12384 
  -12903   -12776   -11763   -10427    -9533    -9466   -10366   -11917 
  -13514   -14935   -16058   -16461   -15804   -14152   -12228   -11075 
  -10957   -11388   -11884   -12087   -12064   -12186   -12451   -12754 
  -13212   -13716   -13969   -13999   -13806   -13109   -12143   -11450 
  -11026   -10665   -10320   -10098   -10303   -10983   -11796   -12607 
  -13400   -13960   -14195   -14246   -14323   -14497   -14515   -14220 
  -13792   -13289   -12688   -12063   -11416   -10881   -10586   -10361 
  -10006    -9475    -8961    -8773    -8912    -9051    -8839    -8248 
   -7568    -6953    -6454    -6243    -6413    -6879    -7411    -7603 
   -7399    -7236    -7105    -6655    -6146    -6072    -6575    -7549 
   -8568    -9197    -9640   -10393   -11279   -11713   -11718   -11688 
  -11897   -12546   -13408   -13996   -14214   -14251   -14304   -14476 
  -14589   -14331   -13755   -13049   -12204   -11392   -10862   -10770 
  -11385   -12629   -13815   -14234   -13693   -12658   -11862   -11739 
  -12225   -12775   -12799   -12241   -11403   -10459    -9494    -8692 
   -8164    -7820    -7488    -7069    -6708    -6600    -6743    -7327 
   -8494    -9728   -10469   -10708   -10613   -10299   -10120   -10540 
  -11372   -12074   -12506   -12646   -12525   -12359   -12349   -12679 
  -13281   -13771   -13756   -13116   -12244   -11749   -11804   -11979 
  -11842   -11585   -11672   -12407   -13890   -15676   -16992   -17275 
  -16283   -14347   -12313   -10816   -10000    -9562    -8891    -7801 
   -6729    -5992    -5599    -5632    -6168    -7167    -8533    -9919 
  -10829   -11155   -11233   -11318   -11209   -10516    -9182    -7596 
   -6426    -6245    -7118    -8758   -10754   -12320   -12864   -12835 
  -12951   -13414   -14393   -15634   -16179   -15735   -14832   -13678 
  -12360   -11290   -10959   -11477   -12387   -13277   -14010   -14404 
  -14331   -13799   -13034   -12517   -12305   -11978   -11377   -10659 
   -9981    -9535    -9456    -9505    -9234    -8653    -8147    -7989 
   -8271    -8731    -8947    -8926    -8966    -9117    -9143    -8764 
   -7812    -6451    -5282    -4977    -5767    -7384    -9413   -11542 
  -13432   -14692   -15222   -15284   -15279   -15530   -15849   -15719 
  -14955   -13695   -12241   -10827    -9431    -8195    -7377    -7037 
   -7258    -7881    -8405    -8542    -8357    -8311    -8993   -10389 
  -11826   -12788   -13284   -13690   -14500   -15589   -16305   -16437 
  -16278   -16025   -15538   -14588   -13239   -11855   -10862   -10346 
  -10134   -10185   -10431   -10836   -11360   -11692   -11765   -11800 
  -11720   -11535   -11707   -12474   -13525   -14462   -14948   -14752 
  -13996   -13045   -12039   -10821    -9381    -7854    -6404    -5483 
   -5440    -5876    -6203    -6180    -5840    -5638    -6247    -7807 
   -9782   -11583   -12965   -13919   -14454   -14551   -14177   -13402 
  -12526   -11766   -10975   -10104    -9578    -9917   -11006   -12276 
  -13512   -14652   -15458   -15840   -15788   -15176   -13980   -12532 
  -11229   -10224    -9513    -8885    -8232    -7900    -8247    -9200 
  -10204   -10785   -11211   -11838   -12399   -12474   -11847   -10608 
   -9163    -7944    -7160    -6771    -6855    -7669    -9138   -10810 
  -12241   -13294   -14229   -15178   -15979   -16615   -16974   -16654 
  -15560   -13999   -12195   -10374    -8702    -7028    -5421    -4291 
   -3763    -3715    -3954    -4276    -4928    -6473    -8887   -11423 
  -13350   -14300   -14305   -13729   -12976   -12409   -12337   -12746 
  -13316   -13744   -13990   -14173   -14292   -14145   -13562   -12807 
  -12394   -12329   -12210   -11954   -11746   -11897   -12757   -14038 
  -15053   -15750   -16301   -16580   -16734   -16980   -16918   -15816 
  -13292    -9833    -6453    -3630    -1381      118      603     -110 
