Origin Time       2025/01/13 21:19:00
Lat.              31.8
Long.             131.6
Depth. (km)       30
Mag.              6.9
Station Code      MYZH01
Station Lat.      32.6536
Station Long.     131.2257
Station Height(m) 605
Record Time       2025/01/13 21:19:49
Sampling Freq(Hz) 100Hz
Duration Time(s)  162
Dir.              4
Scale Factor      7845(gal)/8223790
Max. Acc. (gal)   28.760
Last Correction   2025/01/13 21:19:49
Memo.             
[...]
    2238     1108       20     -733    -1302    -1840    -2257    -2369 
   -2116    -1595     -966     -438     -176      -82      226      954 
    1815     2428     2874     3496     4052     3862     3022     2189 
    1340      272     -650    -1233    -1606    -1664    -1436    -1147 
    -727     -232       28      178      585     1193     1707     2003 
    2115     2073     1863     1493      908       40     -816    -1296 
   -1560    -1942    -2421    -2778    -2731    -2095     -931      540 
    1930     2901     3429     3447     2755     1420     -156    -1530 
   -2428    -2640    -2181    -1539    -1012     -465      108      649 
    1067     1183     1270     1701     2018     1775     1366     1127 
     936      712      467      260      211      139     -261     -774 
   -1074    -1333    -1795    -2289    -2386    -1860    -1046     -498 
    -194      387     1391     2362     2918     3288     3769     4040 
    3734     3159     2907     3057     3211     3392     4144     5393 
    6205     5923     4788     3350     1733     -175    -2161    -3666 
   -4468    -5062    -5694    -5921    -5738    -5745    -6022    -5999 
   -5329    -4186    -3009    -2169    -1487     -693     -145      -62 
      -2      475     1436     2601     3568     4183     4444     4201 
    3396     2431     1857     1738     1826     2012     2200     2416 
    2880     3480     3862     3985     3977     3819     3400     2654 
    1657      587     -537    -1850    -3184    -4070    -4378    -4392 
   -4445    -4710    -5144    -5618    -5895    -5589    -4568    -3159 
   -1722     -436      611     1395     1813     1768     1489     1291 
    1236     1236     1058      556       98       29       -8     -442 
    -992    -1071     -521      396     1314     1952     2157     1782 
     845     -222     -963    -1460    -2137    -3068    -3994    -4777 
   -5524    -6401    -7285    -7684    -7388    -6849    -6355    -5536 
   -4224    -2673     -990      723     2490     4764     7634    10428 
   12523    13714    13996    13571    12582    10959     8903     6798 
    4710     2594      760     -321     -645     -716     -942    -1188 
   -1183    -1286    -2166    -3785    -5421    -6586    -7364    -8109 
   -8976    -9715   -10161   -10474   -10767   -10899   -10704   -10246 
   -9698    -9000    -7952    -6532    -5042    -3873    -2893    -1476 
     658     3261     5902     8178    10012    11549    12735    13458 
   13852    14179    14358    13933    12818    11605    10905    10719 
   10677    10536    10268     9926     9406     8453     7029     5308 
    3450     1491     -650    -2809    -4571    -5948    -7338    -8991 
  -10987   -13117   -14864   -16021   -16650   -16564   -15527   -13595 
  -11153    -8842    -7022    -5472    -3979    -2488     -841     1020 
    2980     4747     5996     6709     7002     6932     6575     6034 
    5628     5670     5864     5695     5179     4648     4259     3727 
    2550      911     -430    -1256    -1904    -2662    -3564    -4321 
   -4542    -4163    -3264    -1710      415     2424     3692     4371 
    4828     5047     5049     4812     4079     2975     1834      588 
   -1081    -3177    -5231    -6951    -8433    -9628   -10258   -10173 
   -9501    -8633    -8023    -7526    -6515    -4881    -2999    -1246 
     244     1784     3607     5286     6473     7353     7848     7554 
    6461     4938     3532     2686     2336     2168     2200     2620 
    3161     3458     3520     3388     3148     2791     1925      422 
   -1291    -2965    -4766    -6732    -8482    -9613   -10083   -10079 
   -9709    -8891    -7439    -5390    -3272    -1590      -75     1929 
    4541     7214     9552    11658    13462    14438    14106    12565 
   10551     8575     6502     4430     3022     2795     3593     4658 
    5221     5235     5143     4946     4302     3416     2875     3060 
    4036     5441     6642     7303     7642     7879     7626     6389 
    4361     1966     -841    -4305    -8336   -12334   -15635   -18330 
  -20845   -23048   -24603   -25458   -25816   -25774   -25099   -23584 
  -21215   -18265   -15053   -11503    -7576    -3531      396     4005 
    7022     9135    10320    10964    11541    12359    13313    14322 
   15792    17953    20704    23799    26473    28017    28501    28071 
   26499    23805    20455    16729    12645     8302     3738    -1026 
   -5787   -10538   -15380   -20081   -24098   -26879   -28235   -28409 
  -27795   -26590   -24742   -22351   -19623   -16578   -13200    -9547 
   -5857    -2598     -122     1691     2968     3487     3168     2322 
    1641     1908     3180     4827     6318     7506     8448     9140 
    9451     9375     9019     8390     7649     7078     6534     5724 
    4828     4194     3966     4124     4337     4137     3316     1911 
     187    -1372    -2400    -2859    -2793    -2000     -376     1657 
    3499     4815     5495     5676     5701     5570     5188     4885 
    4687     4226     3532     2677     1528      197    -1143    -2500 
   -3904    -5383    -7036    -8904   -10859   -12607   -13849   -14381 
  -13963   -12425    -9926    -6755    -3132      625     4093     6940 
    8930     9914    10035     9722     9252     8649     7959     7084 
    5918     4919     4550     4681     5209     6034     6778     7349 
    7758     7843     7399     6326     5165     4432     4098     4045 
    3712     2539      846     -820    -2431    -4237    -6401    -8950 
  -11448   -13235   -14212   -14636   -14689   -14262   -12943   -10751 
   -8289    -5848    -3183     -274     2380     4341     5741     6983 
    8251     9404    10048    10127    10250    10687    11115    11261 
   10872    10014     9066     7817     5869     3402      612    -2443 
   -5733    -9400   -13379   -17190   -20374   -22615   -23633   -23375 
  -22063   -19889   -17081   -13964   -10696    -7369    -4054     -714 
    2666     5991     8950    11335    13324    14982    16191    16876 
   16892    16303    15465    14685    14037    13468    12877    12086 
   10998     9643     8002     6168     4378     2701     1113     -209 
   -1078    -1556    -2042    -3126    -4927    -7133    -9829   -13176 
  -16827   -20332   -23186   -25010   -26099   -26682   -26144   -24024 
  -20884   -17323   -13394    -8920    -3730     1667     6625    11502 
   16474    20826    24065    26053    26666    26295    25478    24127 
   22331    20439    18166    15310    11917     7939     3582     -909 
   -5278    -9142   -12270   -14621   -16333   -17350   -17504   -17073 
  -16515   -15955   -15091   -13477   -11165    -8680    -6234    -3612 
    -730     2153     4711     6836     8731    10450    11576    11932 
   11947    11921    11754    11375    10729     9760     8550     6978 
    4864     2339     -332    -2710    -4525    -6030    -7489    -8884 
   -9975   -10447   -10276    -9582    -8337    -6642    -4780    -2999 
   -1385       47     1193     1953     2218     1941     1428      965 
     484      114      225      896     1898     2914     3700     4245 
    4557     4541     4153     3362     2193      857     -589    -2272 
   -4067    -5811    -7435    -8637    -9135    -9034    -8637    -8162 
   -7414    -6070    -4218    -2043      186     1926     3022     3657 
    3832     3597     2976     2023     1048       66    -1237    -2790 
   -4187    -5337    -6241    -6677    -6532    -5651    -3952    -1817 
     440     2759     4949     6894     8735    10311    11167    11079 
   10108     8783     7803     7226     6712     6002     5104     4255 
    3434     2508     1728     1189      450     -766    -2309    -3946 
   -5401    -6592    -7705    -8706    -9343    -9643    -9821    -9884 
   -9644    -9050    -8365    -7850    -7493    -7044    -6296    -5427 
   -4599    -3577    -2135     -307     1765     3979     6245     8405 
   10276    11796    13103    14365    15468    16025    15878    15225 
   14021    12125    10102     8392     6771     5391     4275     2964 
    1742      777     -514    -2141    -3690    -5020    -6127    -7134 
   -7888    -8058    -7717    -7042    -6110    -5082    -4117    -3329 
   -2759    -2270    -1732    -1310    -1190    -1227    -1188    -1024 
    -870     -774     -486      318     1599     3014     4414     5868 
    7299     8507     9296     9529     9134     8023     6230     3975 
    1462    -1090    -3219    -4460    -4963    -5111    -4885    -4368 
   -3711    -3010    -2727    -2967    -3283    -3585    -4010    -4556 
   -5107    -5551    -5987    -6547    -7221    -7932    -8560    -9027 
   -9396    -9657    -9580    -9001    -8039    -6864    -5435    -3640 
   -1595      498     2625     4911     7312     9539    11229    12255 
   12780    12850    12310    11214     9737     7935     6008     4266 
    2694     1109     -525    -2070    -3435    -4629    -5594    -6262 
   -6500    -6107    -5116    -3769    -2259     -696      772     1861 
    2436     2667     2768     2783     2651     2521     2629     2805 
    2733     2490     2407     2648     3068     3535     4203     5294 
    6816     8492     9933    10959    11647    11966    11632    10508 
    8788     6768     4598     2149     -781    -4004    -7060    -9772 
  -12052   -13716   -14751   -15167   -14825   -13738   -12029    -9703 
   -7026    -4576    -2462     -375     1607     3273     4498     4834 
    4275     3342     1998      170    -1833    -3732    -5162    -6138 
   -7094    -7913    -8212    -7978    -7244    -6069    -4537    -2556 
    -313     1667     3163     4259     4936     5119     4880     4411 
    3877     3257     2428     1424      429     -481    -1367    -2138 
   -2446    -2091    -1263     -172     1035     2149     3011     3538 
    3780     3913     3915     3515     2651     1622      688     -148 
    -834    -1178    -1078     -641      -81      550     1422     2465 
    3252     3636     3892     4217     4662     5188     5686     6135 
    6559     6860     6945     6825     6474     5799     4745     3343 
    1705     -129    -2097    -4000    -5721    -7215    -8344    -8986 
   -9058    -8587    -7817    -6982    -6176    -5547    -5202    -5009 
   -4784    -4430    -3996    -3573    -3088    -2419    -1547     -549 
     346      972     1439     1942     2548     3198     3840     4507 
    5182     5763     6188     6478     6666     6752     6724     6519 
    6038     5339     4604     3861     3042     2222     1426      643 
     -47     -654    -1289    -1937    -2516    -2998    -3376    -3732 
   -4248    -4935    -5553    -5958    -6269    -6612    -7049    -7657 
   -8414    -9148    -9748   -10162   -10219    -9799    -9040    -8068 
   -6849    -5466    -4093    -2700    -1178      446     2006     3206 
    3890     4145     4112     3933     3665     3265     2809     2416 
    2177     2155     2286     2438     2527     2552     2517     2357 
    2014     1476      865      437      271      217      236      513 
    1233     2292     3338     4274     5319     6505     7546     8141 
    8268     8160     7873     7210     6201     5130     4158     3333 
    2660     2058     1386      515     -652    -2231    -4179    -6208 
   -8195   -10193   -11992   -13127   -13188   -12075   -10069    -7624 
   -4985    -2137      791     3543     5968     7931     9304    10088 
   10412    10268     9533     8332     6855     5185     3466     1985 
    1057      707      664      881     1522     2519     3612     4415 
    4704     4800     4946     4784     4013     2778     1248     -496 
   -2436    -4554    -6600    -8264    -9599   -10808   -11778   -12247 
  -12151   -11557   -10486    -8905    -6882    -4691    -2536     -507 
    1247     2598     3488     3959     4279     4606     4689     4382 
    3835     3036     1800      137    -1572    -2880    -3796    -4685 
   -5726    -6697    -7304    -7597    -7812    -7878    -7528    -6702 
   -5566    -4244    -2689     -839     1147     2972     4590     6273 
    8174    10076    11670    12879    13745    14251    14345    13867 
   12762    11434    10160     8692     6897     4914     2953     1348 
     221     -658    -1517    -2400    -3217    -3900    -4569    -5325 
   -6097    -6824    -7500    -8060    -8388    -8451    -8365    -8209 
   -7871    -7195    -6112    -4857    -3863    -3210    -2546    -1656 
    -851     -407        0      606     1196     1691     2228     3006 
    4106     5309     6424     7491     8669    10026    11296    12205 
   12702    12665    11897    10447     8641     6787     4939     2975 
     918     -942    -2370    -3496    -4500    -5393    -6183    -6947 
   -7789    -8716    -9579   -10170   -10366   -10282    -9944    -9074 
   -7569    -5479    -2853       66     2960     5680     8206    10477 
   12314    13463    13724    13166    11982    10091     7435     4445 
    1485    -1512    -4587    -7589   -10211   -12168   -13617   -14770 
  -15492   -15618   -15075   -13981   -12654   -11368   -10297    -9624 
   -9451    -9616    -9832    -9863    -9572    -9045    -8441    -7746 
   -6853    -5721    -4347    -2745    -1027      700     2848     5880 
    9348    12706    15792    18081    19402    20079    20117    19651 
   18812    17462    15739    13771    11638     9745     8428     7707 
    7383     7213     7191     7272     7234     7047     6575     5499 
    3843     1618    -1332    -4830    -8694   -12995   -17556   -21941 
  -25759   -28609   -30069   -29872   -28117   -25357   -21918   -17529 
  -12086    -5985      -87     4698     8803    13117    17014    19780 
   21608    22462    22551    22148    20787    18528    16052    13444 
   10554     7506     4641     2409      738     -846    -2209    -3014 
   -3522    -4174    -5178    -6424    -7589    -8502    -9251    -9844 
  -10083    -9957    -9651    -9278    -8746    -7840    -6513    -4942 
   -3358    -1935     -797      -58      279      429      618      986 
    1676     2606     3667     4974     6552     8282     9936    11092 
   11484    11148    10137     8375     5867     2953       60    -2754 
   -5505    -7885    -9622   -10686   -11065   -10762    -9755    -7916 
   -5355    -2457      514     3423     6237     8850    10982    12496 
   13392    13736    13587    12816    11472     9725     7595     5204 
    2802      503    -1545    -3129    -4341    -5344    -6099    -6754 
   -7622    -8787   -10143   -11588   -13086   -14674   -16308   -17905 
  -19299   -20186   -20474   -20100   -18766   -16402   -13302    -9865 
   -6354    -2705     1134     4972     8700    12225    15286    17921 
   20386    22519    24036    24925    25205    24910    24055    22621 
   20626    17968    14551    10508     6188     2026    -1887    -5679 
   -9178   -12002   -13964   -15367   -16515   -17167   -17130   -16725 
  -16289   -15750   -14968   -14183   -13722   -13392   -12645   -11160 
   -8972    -6466    -3986    -1478     1113     3574     5726     7614 
    9387    11028    12285    13126    13767    14297    14724    15016 
   15183    15156    14704    13822    12607    11005     9138     7298 
    5624     4062     2589     1283      201     -749    -1682    -2628 
   -3620    -4590    -5553    -6663    -7794    -8811    -9830   -10812 
  -11615   -12178   -12298   -11809   -10908    -9796    -8329    -6415 
   -4360    -2484     -625     1449     3596     5636     7300     8307 
    8864     9131     9022     8561     7655     6215     4232     1687 
   -1208    -4126    -6839    -9161   -10889   -11846   -11983   -11485 
  -10804   -10228    -9580    -8610    -7372    -6108    -4928    -3794 
   -2686    -1462     -105     1094     2023     2813     3580     4326 
    4942     5431     5954     6430     6633     6683     6833     7123 
    7422     7511     7287     6903     6558     6238     5773     5132 
    4598     4194     3489     2565     1788     1031      348       62 
     110      274      546      903     1032      741      295      130 
     453     1281     2444     3608     4618     5406     5587     4797 
    3288     1533     -292    -2038    -3549    -4754    -5468    -5759 
   -5977    -6261    -6590    -6972    -7376    -7797    -8185    -8388 
   -8459    -8621    -8796    -8729    -8311    -7528    -6480    -5266 
   -3728    -1740      522     2875     5216     7368     9225    10754 
   11871    12557    12827    12691    12216    11454    10430     9162 
    7676     6079     4475     2960     1694      684     -357    -1593 
   -2832    -4045    -5466    -7164    -8943   -10476   -11499   -11974 
  -11978   -11495   -10525    -9305    -8056    -6669    -4928    -2976 
   -1286     -172      434      841     1318     1803     2112     2336 
    2515     2432     2058     1748     1857     2322     2833     3326 
    3974     4869     5779     6264     6130     5528     4565     3198 
    1507     -238    -1902    -3445    -4750    -5647    -5918    -5458 
   -4434    -3159    -1841     -459     1047     2624     4176     5567 
    6724     7680     8409     8768     8656     8174     7442     6411 
    5023     3285     1313     -577    -2280    -4043    -5945    -7720 
   -9094   -10120   -10947   -11429   -11497   -11327   -10995   -10471 
   -9668    -8499    -7048    -5421    -3581    -1579      338     2011 
    3418     4526     5256     5499     5385     5373     5877     6960 
    8365     9772    11052    12217    13130    13603    13761    13902 
   13984    13617    12625    11176     9339     7072     4411     1489 
   -1335    -3897    -6382    -8741   -10816   -12569   -13950   -15071 
  -15874   -16027   -15525   -14588   -13205   -11394    -9536    -7882 
   -6228    -4363    -2261     -153     1610     3044     4365     5493 
    6099     6083     5757     5437     5120     4834     4843     5243 
    5786     6021     5595     4568     3192     1588     -132    -1784 
   -3206    -4347    -5236    -5946    -6551    -7056    -7434    -7619 
   -7385    -6509    -5022    -3221    -1537      -98     1379     2924 
    4253     5405     6502     7435     8266     9042     9460     9517 
    9535     9494     9234     8873     8596     8417     8128     7387 
    6052     4264     2218       56    -2100    -4105    -5771    -6990 
   -7750    -8105    -8166    -8041    -7755    -7268    -6507    -5324 
   -3719    -2034     -758     -133       49      110       62      -97 
    -112      166      648     1186     1659     2116     2786     3688 
    4490     5032     5530     6019     6235     6008     5287     4101 
    2647     1167     -211    -1456    -2529    -3384    -4001    -4347 
   -4399    -4186    -3711    -2871    -1584       -4     1610     3075 
    4186     4699     4552     3883     2836     1439     -336    -2442 
   -4723    -7015    -9216   -11306   -13184   -14544   -15211   -15326 
  -14999   -14169   -12788   -10935    -8889    -6901    -5019    -3245 
   -1441      552     2570     4494     6459     8344     9891    11045 
   11770    12144    12301    12213    11884    11377    10635     9536 
    8079     6419     4837     3462     2122      751     -535    -1752 
   -2914    -3964    -4908    -5779    -6561    -7323    -8068    -8603 
   -8814    -8765    -8607    -8463    -8244    -7836    -7280    -6575 
   -5589    -4156    -2231        5     2301     4548     6720     8716 
