Origin Time       2025/01/13 21:19:00
Lat.              31.8
Long.             131.6
Depth. (km)       30
Mag.              6.9
Station Code      MYZH10
Station Lat.      32.0215
Station Long.     131.2900
Station Height(m) -20
Record Time       2025/01/13 21:19:39
Sampling Freq(Hz) 100Hz
Duration Time(s)  214
Dir.              1
Scale Factor      2940(gal)/6170270
Max. Acc. (gal)   14.216
Last Correction   2025/01/13 21:19:24
Memo.             
[...]
  128973   129564   129873   129932   129877   129724   129546   129429 
  129346   129225   129073   129043   129227   129526   129834   129995 
  129943   129924   130082   130346   130676   130849   130746   130816 
  131265   131604   131545   131264   130879   130537   130489   130627 
  130598   130317   129940   129601   129270   128897   128590   128380 
  128120   127818   127576   127389   127342   127456   127558   127612 
  127612   127355   126786   126243   125987   125674   124995   124380 
  124260   124402   124474   124506   124505   124407   124267   124000 
  123578   123216   122855   122261   121676   121712   122515   123622 
  124490   124663   124015   123003   122343   122382   122744   122958 
  123032   123084   123153   123454   124110   124812   125301   125712 
  126135   126345   126051   125214   124175   123405   123128   123273 
  123690   124375   125412   126597   127511   128048   128237   127977 
  127515   127236   127078   127086   127660   128668   129480   130076 
  130664   130858   130582   130336   130105   129550   129006   129022 
  129412   129729   129846   129659   129345   129495   130192   130776 
  130777   130360   129862   129540   129537   129450   128714   127605 
  126827   126623   126927   127476   127710   127364   126880   126698 
  126764   126795   126455   125781   125225   124924   124652   124234 
  123579   122992   123022   123544   124041   124314   124141   123588 
  123265   123336   123461   123499   123506   123630   124065   124804 
  125496   125713   125497   125301   125390   125799   126579   127399 
  127604   127164   126606   126235   126300   126947   127686   127872 
  127575   127417   127886   128931   130065   130853   131050   130575 
  129719   128960   128586   128709   129154   129399   129123   128648 
  128401   128322   128106   127629   127012   126444   126169   126256 
  126298   126012   125652   125549   125900   126660   127430   127795 
  127619   127151   126944   127171   127472   127686   127813   127721 
  127343   126594   125587   124829   124719   125421   126646   127525 
  127615   127302   126962   126661   126636   127327   128677   129840 
  129953   128874   127147   125525   124259   123197   122576   122724 
  123473   124512   125634   126615   127317   127662   127602   127501 
  127715   127930   127667   126741   125313   123962   123388   123988 
  125315   126298   126511   126082   125176   124542   124639   124829 
  124820   124914   124940   124766   124802   125286   125898   126071 
  125702   125427   125688   126205   126708   127294   128039   128631 
  128639   128419   128735   129431   129822   129429   128118   126850 
  126596   126774   126571   125916   125324   125704   127219   129018 
  130155   130282   129837   129267   128304   127008   126243   126305 
  126669   126796   126671   126750   127089   127396   127553   127485 
  127444   127955   128784   129002   128346   127301   125972   124406 
  123364   123384   124086   124977   125802   126299   126604   127141 
  127906   128658   129396   130092   130496   130455   129876   128715 
  127402   126651   126671   126920   126930   126872   127210   128364 
  130285   132201   133293   133475   132989   131769   130221   129174 
  128648   128406   128664   129451   130467   131462   132276   132778 
  132966   133106   133258   132753   130997   128341   125617   123578 
  122571   122441   123130   124514   125765   126174   125777   124706 
  123278   122221   121896   122144   122580   122736   122701   122804 
  122997   123387   124137   125009   125523   125143   123814   122244 
  121182   120811   120822   120903   121353   122621   124232   125165 
  125064   124190   122733   121126   120290   120918   122778   124757 
  125939   126407   126818   127626   128674   129524   129982   130092 
  129876   129319   128470   127415   126421   125949   126257   127112 
  128150   129334   130418   130683   130095   129608   129622   129615 
  129242   128343   126845   125366   124599   124673   125605   127272 
  129187   130769   131701   132101   132043   131434   130520   129659 
  128933   128529   128561   128659   128653   128869   129493   130259 
  130779   131022   131145   131194   131134   130869   130231   129171 
  128022   127178   126700   126563   126778   127296   128019   128735 
  129265   129621   129746   129526   129188   129035   128833   128115 
  127062   126476   126720   127309   127757   128148   128801   129804 
  130767   130930   129832   127951   126222   125005   124119   123588 
  123483   123647   124041   124417   124269   123738   123515   123910 
  124487   124633   124158   123143   121942   121234   121407   122419 
  123996   125426   126141   126212   125613   124368   123224   122766 
  122657   122338   121707   121089   120739   120509   120404   120663 
  121133   121432   121265   120622   120293   121204   123126   125161 
  126858   128150   128946   129185   128939   128262   127173   125969 
  125196   125078   125414   125964   126580   127051   127095   126822 
  126794   127345   128312   129381   130324   130958   131235   131359 
  131516   131843   132698   134197   135757   136764   137039   136715 
  136092   135343   134779   134945   135860   137100   138139   138441 
  138171   137876   137592   137352   137378   137486   136858   134664 
  131230   127653   124598   122574   122048   122777   124265   126264 
  128167   129241   129517   129436   129221   129303   130348   132288 
  134213   135388   135757   135498   134957   134684   134391   133095 
  130798   128261   125899   124072   123132   122803   122504   122280 
  122711   123920   125243   125868   125524   124540   123376   122191 
  120898   119502   118074   116686   115699   115296   115079   114854 
  114711   114689   115191   116343   117338   117641   117494   117223 
  117346   117994   118310   117887   117206   116642   116642   117976 
  120681   123530   125354   125864   125095   123374   121709   121264 
  122390   124649   127468   130259   132460   133974   134920   134997 
  133844   131466   128212   125012   123153   123122   124357   126308 
  128824   131705   134336   135945   136256   135309   133192   130496 
  128268   127253   127574   128978   131057   133119   134392   134601 
  133904   132665   131333   130008   128609   127422   126803   126918 
  127893   129519   131282   132882   134343   135725   136830   137496 
  137872   137842   137076   135787   134642   134115   134383   135435 
  136793   137981   139205   140632   142005   143116   143737   143529 
  142230   139821   136622   133055   129580   126581   123841   121095 
  118589   116186   113549   111041   109181   108198   108239   109082 
  110020   110699   111462   112603   113945   115120   116066   116976 
  117822   118287   118055   117358   116754   116275   115813   115607 
  115728   116046   116449   116653   116360   115484   114058   112220 
  110161   108064   106477   106446   108527   112018   115730   119196 
  122515   125609   128284   130319   131380   131495   131173   130790 
  130366   129810   129191   128785   128769   129305   130531   132086 
  133294   133751   133314   132021   130247   128554   127500   127568 
  128854   131049   133770   136622   139076   140755   141887   142681 
  142866   142299   141238   140209   139791   140456   142213   144404 
  146422   148028   149017   149262   148684   147121   144626   141613 
  138696   136572   135614   135608   136130   136817   137249   137128 
  136435   135188   133460   131296   128652   125687   122600   119763 
  117931   117488   118268   119974   122001   123711   124623   124201 
  122489   120059   117486   115578   115105   116202   118051   119592 
  120147   119376   117979   117205   117419   118204   118904   119022 
  118523   117627   116567   115578   115049   115388   116340   117213 
  117906   118551   118686   118013   117251   117345   118430   120062 
  121674   122573   122616   122627   123397   125055   127394   130007 
  132239   133396   133135   131883   130532   129541   128793   128234 
  127769   127000   125972   125047   124385   124498   125895   128426 
  131600   134945   138101   140916   143538   146144   148509   149869 
  149545   147587   144609   141384   138491   135609   131704   126549 
  120728   115176   111311   109463   108846   109284   110727   112956 
  115968   119463   122885   125851   128124   129461   129782   129490 
  129132   128774   128163   127357   126708   126430   126178   125196 
  123365   121170   118719   115860   112770   110095   108537   108734 
  111448   116919   124332   132244   139197   144207   147297   149267 
  150690   151481   151256   149885   147606   144828   142090   139666 
  137656   136673   137268   138893   140196   140160   138731   136445 
  133986   132162   131520   131586   131132   129709   127940   126349 
  125162   124442   123926   123631   123867   124405   124430   123242 
  121001   118642   117038   116471   116798   118048   120419   123676 
  127073   129941   132170   133887   134723   133840   130869   126531 
  121970   117723   113841   110656   108751   108518   109832   111839 
  113731   115604   117351   117832   116785   115105   113024   110659 
  108591   107316   107537   109707   113130   116408   118850   120777 
  122268   122907   122884   122976   123629   124876   126540   128412 
  130539   133183   136455   139933   142925   145251   147288   149261 
  150801   151121   149775   147111   143880   140967   138999   137895 
  137352   137295   137565   137969   138559   138839   137917   136166 
  134504   132724   130469   127982   125377   122642   119896   117447 
  115925   115615   115754   115350   114475   114225   115328   117395 
  119830   122128   123574   123972   123616   122833   122574   123684 
  125355   126622   127972   129402   129812   129002   127767   126547 
  125100   123373   121949   120975   119601   117173   114361   113098 
  114756   118248   121265   122444   121845   120844   120908   121548 
  121283   120442   120379   120993   121375   121503   121890   122992 
  125131   127990   130917   133600   135583   136431   136744   137219 
  137403   136833   135555   133314   130112   126718   123373   119632 
  115808   112476   109919   108711   109140   111049   114302   118476 
  122392   124793   125817   126449   127249   128811   131679   135533 
  139499   142244   142470   140967   139547   138400   137153   135513 
  133002   129849   126345   122255   117755   113850   111367   110299 
  110691   112748   116266   120775   125372   128734   130487   131991 
  134397   137021   138860   139796   139889   139198   138028   136557 
  134839   133306   132409   131998   131791   131638   130787   128173 
  123968   119285   115171   112861   112846   114090   115594   117617 
  120295   122554   123920   125276   127006   128208   127852   126189 
  124400   123109   121977   120504   118642   116945   116627   118381 
  121431   124587   127419   130178   132478   133462   133094   131714 
  130169   130082   132190   135671   139425   142642   144798   146217 
  147566   148907   149815   149437   146800   142267   137754   134501 
  132313   130829   129752   128919   128720   129347   130300   130965 
  130709   129022   126421   124312   123189   122222   121236   121065 
  121695   122281   122754   123496   124409   125244   125559   124582 
  121702   116809   110705   105002   100881    98488    97766    98831 
  101655   105926   111094   116496   121578   126146   130028   132667 
  134064   135041   135859   136283   136658   137275   137574   137020 
  135948   134615   132621   130152   128003   126534   125958   126559 
  127972   129258   129950   130092   129763   129508   129908   130826 
  132149   133817   135166   135856   136494   137604   138934   140137 
  141106   141158   139629   137283   135514   134907   135347   136473 
  137572   137925   137296   135921   133867   130254   124277   116693 
  109521   104696   102993   103703   105320   106683   107391   108057 
  109715   112418   115525   118872   122521   125875   128333   130224 
  131894   132964   133080   132213   130408   127857   124257   119241 
  114178   110762   109481   110745   114038   117649   120766   123568 
  125894   127256   127638   127427   127181   127603   128962   130898 
  132514   132806   131791   130410   129283   128509   127909   127117 
  125918   124119   121709   119256   117412   116637   117325   119339 
  122087   125147   128095   130362   131592   131982   132206   132592 
  133007   133467   134030   134751   135799   137208   138652   139804 
  140978   142605   144336   145415   145303   143893   141573   138906 
  136348   134064   131983   130079   128390   126991   126042   125707 
  125828   126124   126846   127967   128628   128533   127923   126379 
  123560   120247   117629   116319   116257   116980   117913   118605 
  118723   118347   118275   119079   120420   121771   123117   124904 
  127280   129875   132469   134693   135793   135677   134953   134085 
  133480   133372   133161   132278   131446   131513   131938   131751 
  131091   130875   131549   132766   133905   134397   133954   132809 
  131614   131118   131724   133272   135035   136172   136512   136405 
  136274   136369   136341   135398   133305   130592   127666   124926 
  122679   120548   118311   116382   115247   115055   115476   115408 
  113220   108528   103122    99092    97095    97187    99119   101540 
  103696   106510   110309   114056   116801   118133   118430   118591 
  119061   120236   122575   125846   129595   133490   137057   139742 
  140946   140264   137897   134631   131266   128401   126520   125686 
  125522   125745   126685   129129   133104   137345   140807   143262 
  144301   143877   142690   141262   140366   140660   141079   140324 
  138877   137818   137258   136355   134475   131824   128649   125038 
  121500   118579   116311   114764   114363   115338   117153   118728 
  119539   119993   120548   121077   121203   120772   119955   119158 
  118647   118131   117407   117003   117347   118431   120121   121837 
  122752   122619   122126   122146   122825   123837   125077   126523 
  127773   128587   129408   130643   132321   134658   137711   140724 
  142786   143534   143031   141690   140172   139223   139151   139489 
  139797   139810   138967   137143   134996   133366   132959   133963 
  135880   137943   139527   140238   140019   139181   138143   137287 
  136659   135846   134750   133594   132332   130915   129378   127719 
  126101   124944   124462   124031   122906   120927   118133   114794 
  111733   109902   109636   110733   112843   115288   117219   118239 
  118531   118489   118436   118458   118439   118460   118908   119738 
  120066   119059   116750   113880   111296   109394   108120   107409 
  107200   107340   107854   108888   110508   112828   115766   118855 
  121644   123943   125520   125856   124881   123614   123245   124064 
  125391   126055   125288   123434   121548   120482   120454   120983 
  121269   121122   121210   122153   123797   125472   126529   126672 
  126356   126478   127240   128235   129235   130043   130562   131214 
  132327   133574   134638   135533   135982   135545   134435   133383 
  132937   133207   133903   134675   135447   136556   138568   141307 
  143484   143876   142326   139567   136761   135018   134667   135191 
  136066   137257   138761   140431   142078   143064   142740   141105 
  138201   134119   129734   126117   123741   122732   122977   123985 
  125248   126510   127520   128000   128004   128007   128207   128203 
  127841   127508   127496   127766   128029   127865   127003   125785 
  125223   125878   127446   129544   131572   132564   131887   129534 
  125843   121339   116883   113482   111750   111432   111676   111937 
  112100   112141   112145   112200   112368   112814   113620   114907 
  117161   120839   125874   131401   136121   139238   140559   140337 
  139230   137601   135322   132479   129595   126940   124194   121420 
  119721   119930   121605   124220   127615   130953   133085   133480 
  132276   130371   129102   129297   130779   132698   134100   134049 
  132157   129180   126150   123449   121272   120179   120682   122577 
  125224   128229   131286   133938   135572   135555   134028   131839 
  129382   126640   123756   120813   117894   115397   113759   112957 
  112697   112902   113367   113652   113623   113446   113247   113266 
  114125   116376   119912   124159   128281   131447   133579   135170 
  136433   137436   138566   140038   141324   141549   140208   137635 
  134898   132869   131505   130150   128302   126006   123580   121317 
  119459   118149   117580   118145   120062   123014   126316   129320 
  131723   133593   135288   137415   140427   144277   148437   151935 
  153942   154255   152950   150256   146428   141699   136658   131950 
  127658   123637   120194   117990   117280   117783   119182   120806 
  121608   121451   121196   121397   122078   123495   126150   130228 
  135478   141259   146486   150116   151698   151085   148338   144041 
  138893   133155   126925   120695   115161   110770   107698   105852 
  104940   104679   104870   105412   106458   108439   111488   115068 
  118333   120598   121735   121941   121214   119616   117731   116237 
  115370   115197   115777   116830   117760   118078   117824   117466 
  117366   117655   118318   119145   120013   121070   122533   124393 
  126315   128029   129520   130791   131632   131516   129970   127165 
  123862   120769   118242   116553   116141   117351   120078   123934 
  128375   132728   136380   138648   139006   137720   135657   133491 
  131494   130018   129388   129474   129968   130615   131393   132621 
  134379   136404   138408   139839   140103   139089   136932   133842 
  130363   127233   124881   123343   122563   122274   122069   121970 
  122226   122823   123754   125138   126843   128532   129960   130819 
  130878   130548   130577   131353   132842   134562   135736   135871 
  134893   132971   130452   127862   125775   124481   123968   124196 
  124996   125896   126407   126218   125134   123189   120751   118275 
  115986   114054   112707   112072   112241   113375   115674   119188 
  123583   128073   131685   133955   135129   135570   135377   134623 
  133586   132593   131835   131277   130762   130188   129445   128232 
  126456   124649   123461   123034   123106   123438   123908   124470 
  125334   126899   129097   131160   132573   133638   134795   136110 
  137543   139128   140624   141502   141433   140578   139379   137992 
  136186   133781   130860   127788   125155   123419   122680   122755 
  123145   123210   122666   121789   121031   120668   120924   121760 
  122801   124126   126214   128921   131375   132956   133736   133743 
  132743   130985   128828   126140   123092   120138   117196   114067 
  111123   108916   107717   107809   109479   112388   115683   118828 
  121682   124107   126043   127689   129358   131137   132916   134733 
  136540   137808   137947   136711   134033   129985   125112   120361 
  116222   112735   110088   108317   107466   107726   109031   111327 
