Origin Time       2025/01/13 21:19:00
Lat.              31.8
Long.             131.6
Depth. (km)       30
Mag.              6.9
Station Code      MYZH09
Station Lat.      32.0421
Station Long.     131.0618
Station Height(m) 335
Record Time       2025/01/13 21:19:42
Sampling Freq(Hz) 100Hz
Duration Time(s)  120
Dir.              5
Scale Factor      7845(gal)/8223790
Max. Acc. (gal)   9.023
Last Correction   2025/01/13 21:19:42
Memo.             
[...]
    4743     4742     4743     4745     4746     4745     4743     4743 
    4745     4745     4743     4742     4742     4745     4746     4745 
    4743     4745     4742     4742     4746     4745     4742     4745 
    4746     4745     4745     4745     4743     4743     4745     4742 
    4742     4743     4742     4743     4746     4743     4743     4745 
    4746     4746     4745     4745     4743     4742     4745     4747 
    4745     4745     4743     4745     4746     4746     4745     4745 
    4746     4746     4745     4746     4746     4746     4745     4743 
    4745     4743     4745     4746     4745     4742     4743     4746 
    4746     4745     4745     4747     4749     4746     4743     4745 
    4743     4743     4745     4747     4745     4742     4742     4742 
    4745     4743     4743     4746     4746     4745     4743     4745 
    4747     4745     4743     4745     4745     4743     4745     4746 
    4745     4746     4745     4743     4745     4745     4742     4745 
    4745     4743     4745     4747     4746     4745     4745     4745 
    4746     4746     4745     4745     4746     4745     4745     4747 
    4747     4743     4745     4746     4745     4743     4745     4745 
    4745     4745     4743     4742     4743     4746     4747     4747 
    4749     4749     4749     4752     4753     4754     4756     4757 
    4760     4762     4764     4768     4774     4779     4781     4777 
    4762     4753     4753     4762     4772     4776     4768     4757 
    4754     4762     4783     4808     4823     4819     4800     4777 
    4754     4743     4756     4787     4815     4818     4799     4780 
    4780     4804     4837     4855     4842     4801     4760     4734 
    4726     4727     4719     4699     4692     4707     4743     4785 
    4804     4792     4770     4761     4773     4803     4822     4831 
    4847     4853     4815     4753     4730     4768     4816     4851 
    4897     4954     4990     5008     5017     5008     4977     4972 
    5043     5163     5236     5211     5098     4936     4823     4865 
    5026     5155     5139     4995     4851     4850     5044     5351 
    5559     5508     5316     5184     5150     5189     5289     5343 
    5259     5131     5100     5151     5202     5216     5151     4955 
    4684     4515     4567     4783     5031     5182     5150     4996 
    4868     4815     4785     4720     4614     4537     4545     4603 
    4629     4661     4887     5285     5593     5641     5383     4953 
    4669     4641     4762     4949     5108     5177     5135     4908 
    4541     4263     4270     4534     4801     4843     4723     4675 
    4841     5115     5243     5119     4858     4588     4425     4376 
    4272     4136     4201     4442     4600     4500     4247     4113 
    4120     4029     3773     3519     3454     3740     4347     4903 
    5132     5136     5093     5092     5080     4924     4718     4631 
    4683     4824     4905     4846     4807     4896     5042     5030 
    4672     4163     3856     3896     4243     4626     4795     4803 
    4788     4876     5094     5260     5260     5159     5036     4932 
    4908     5080     5401     5637     5698     5644     5568     5518 
    5440     5301     5082     4796     4579     4473     4477     4641 
    4823     4827     4635     4295     3920     3685     3650     3823 
    4202     4698     5178     5509     5632     5630     5556     5391 
    5152     4888     4696     4641     4669     4746     4820     4830 
    4861     4934     4946     4862     4726     4631     4696     4953 
    5300     5564     5668     5644     5516     5337     5177     5120 
    5258     5421     5378     5267     5270     5341     5463     5590 
    5564     5364     5147     5008     4827     4510     4162     3935 
    3920     4018     4018     3943     3874     3736     3570     3519 
    3581     3701     3780     3670     3422     3264     3356     3690 
    4040     4212     4345     4621     4901     4989     4939     4908 
    5040     5420     5838     5907     5603     5263     5113     5189 
    5370     5497     5468     5242     5019     5044     5252     5412 
    5359     5152     4985     4907     4858     4783     4704     4681 
    4653     4519     4286     3998     3820     3966     4333     4657 
    4845     4830     4660     4527     4506     4617     4766     4727 
    4552     4428     4352     4421     4761     5238     5606     5661 
    5393     5078     4984     5184     5533     5711     5628     5505 
    5506     5583     5599     5494     5319     5067     4746     4456 
    4256     4195     4351     4699     5016     4999     4600     4098 
    3784     3743     3855     3842     3595     3461     3751     4236 
    4487     4342     3983     3693     3624     3844     4257     4530 
    4507     4438     4583     4980     5514     5938     6076     6026 
    5994     6080     6274     6450     6467     6366     6320     6399 
    6490     6453     6300     6220     6295     6358     6304     6176 
    5989     5780     5602     5422     5196     4893     4572     4322 
    4171     4171     4195     3951     3504     3238     3454     4056 
    4413     4109     3507     3065     2959     3129     3272     3335 
    3551     3892     4222     4488     4529     4341     4209     4245 
    4239     4109     4083     4311     4757     5263     5583     5691 
    5725     5715     5724     5749     5773     5922     6050     5879 
    5548     5356     5475     5886     6305     6426     6119     5518 
    5047     5009     5206     5305     5229     5046     4864     4695 
    4467     4241     4090     3983     3929     3898     3778     3608 
    3605     3811     4024     4063     3859     3504     3298     3387 
    3588     3677     3643     3630     3658     3685     3883     4322 
    4761     5015     5074     5093     5266     5521     5652     5644 
    5597     5530     5489     5651     6014     6251     6151     5826 
    5443     5031     4587     4270     4232     4363     4506     4594 
    4490     4194     3927     3842     3960     4190     4415     4634 
    4810     4881     4953     5130     5387     5597     5568     5319 
    5031     4757     4538     4499     4661     4950     5178     5186 
    5034     4812     4534     4198     3888     3797     3952     4128 
    4164     4054     3888     3794     3820     4005     4303     4515 
    4579     4603     4653     4687     4631     4545     4627     4900 
    5131     5169     5082     4993     4953     4962     5073     5239 
    5312     5379     5562     5717     5713     5576     5408     5317 
    5265     5109     4915     4819     4797     4777     4791     4941 
    5215     5463     5613     5680     5672     5617     5514     5387 
    5375     5529     5714     5817     5775     5487     4981     4482 
    4194     4193     4310     4263     4104     4036     4066     4195 
    4347     4341     4303     4418     4527     4552     4599     4629 
    4580     4465     4259     4005     3762     3500     3283     3245 
    3400     3676     3983     4197     4257     4274     4357     4457 
    4471     4436     4453     4561     4752     4989     5212     5381 
    5418     5275     5067     4912     4868     5024     5296     5458 
    5448     5366     5340     5389     5355     5117     4754     4486 
    4483     4733     5097     5337     5231     4860     4503     4299 
    4202     4139     4120     4164     4205     4207     4236     4306 
    4372     4360     4191     3896     3646     3631     3861     4205 
    4595     4905     5015     5074     5286     5629     5946     6064 
    5968     5798     5571     5217     4768     4291     3865     3584 
    3476     3495     3511     3430     3377     3515     3820     4185 
    4504     4723     4858     4988     5192     5412     5508     5513 
    5629     5953     6318     6504     6442     6200     5960     5850 
    5814     5715     5472     5132     4830     4665     4684     4826 
    4946     4999     5013     5027     5092     5211     5308     5340 
    5346     5386     5433     5381     5186     4926     4741     4720 
    4765     4706     4552     4407     4310     4244     4168     4117 
    4097     3912     3501     3146     3134     3438     3716     3672 
    3424     3249     3265     3453     3655     3747     3835     4047 
    4384     4754     5013     5089     5032     4942     4923     4942 
    4864     4725     4587     4386     4140     3946     3882     3981 
    4106     4064     3807     3483     3280     3254     3388     3721 
    4224     4735     5121     5341     5391     5319     5283     5449 
    5773     6038     6089     5941     5721     5556     5459     5406 
    5374     5267     5065     4915     4919     5036     5212     5395 
    5495     5466     5362     5332     5462     5651     5810     5981 
    6172     6323     6350     6187     5908     5648     5412     5157 
    4862     4563     4394     4449     4610     4726     4747     4635 
    4441     4297     4245     4267     4299     4234     4110     4168 
    4510     4972     5391     5655     5724     5745     5836     5914 
    5865     5726     5695     5911     6238     6426     6374     6138 
    5887     5795     5836     5859     5787     5659     5584     5571 
    5491     5356     5286     5236     5084     4849     4576     4295 
    4097     4036     4070     4040     3835     3618     3619     3754 
    3771     3608     3402     3312     3427     3701     3991     4216 
    4444     4777     5184     5605     6080     6555     6856     6849 
    6524     6102     5864     5811     5738     5535     5213     4862 
    4635     4654     4842     4907     4680     4295     3929     3620 
    3389     3271     3186     2986     2652     2335     2150     2073 
    1996     1830     1584     1343     1188     1196     1432     1850 
    2289     2556     2516     2158     1691     1452     1583     1872 
    2060     2100     2130     2439     3234     4359     5463     6303 
    6805     7059     7156     7145     7117     7101     7036     6955 
    6987     7175     7371     7376     7145     6779     6385     6029 
    5719     5433     5135     4772     4378     4087     3892     3626 
    3196     2600     1922     1321      950      903     1129     1398 
    1464     1304     1104      951      743      403      -24     -372 
    -441     -211      163      495      669      742      851     1051 
    1347     1786     2412     3204     4133     5171     6215     7155 
    8014     8904     9834    10598    10984    11037    10994    11072 
   11308    11569    11722    11726    11565    11256    10859    10427 
   10030     9778     9687     9664     9606     9474     9250     8918 
    8445     7797     7002     6195     5529     5047     4683     4347 
    3958     3476     2940     2432     1966     1516     1156      957 
     859      828      865      931     1048     1274     1501     1621 
    1761     2079     2577     3144     3651     4104     4556     4977 
    5335     5633     5891     6139     6347     6428     6355     6185 
    6053     6069     6192     6257     6180     6018     5860     5741 
    5625     5459     5277     5136     5013     4795     4351     3688 
    3009     2515     2257     2212     2304     2369     2247     1911 
    1439      959      604      373      216      155      226      479 
     966     1594     2168     2562     2755     2817     2839     2801 
    2656     2455     2297     2338     2636     2891     2755     2288 
    1840     1691     1881     2281     2803     3483     4329     5231 
    6023     6570     6804     6793     6724     6802     7091     7438 
    7641     7654     7566     7443     7265     7003     6705     6413 
    6111     5836     5695     5688     5719     5783     5995     6412 
    6860     7086     7024     6812     6640     6617     6682     6670 
    6509     6305     6214     6231     6164     5860     5433     5144 
    5154     5344     5429     5302     5063     4762     4411     4087 
    3861     3738     3717     3816     4044     4371     4679     4923 
    5186     5506     5834     6131     6338     6367     6189     5908 
    5703     5713     5950     6231     6346     6307     6247     6226 
    6222     6153     5994     5819     5644     5437     5217     5001 
    4824     4658     4396     3996     3555     3229     3056     2920 
    2668     2265     1803     1386     1057      793      541      355 
     336      450      554      571      546      596      781     1073 
    1385     1675     2033     2567     3245     3913     4448     4847 
    5159     5427     5724     6081     6405     6596     6601     6432 
    6246     6187     6207     6170     6018     5853     5836     5949 
    6080     6222     6376     6463     6481     6524     6681     7024 
    7520     7948     8095     7956     7658     7304     6940     6605 
    6295     5930     5512     5107     4737     4429     4260     4286 
    4536     5026     5692     6369     6874     7146     7271     7354 
    7447     7555     7564     7267     6673     6091     5818     5925 
    6253     6554     6697     6652     6385     6003     5709     5463 
    5136     4795     4558     4472     4513     4550     4409     4028 
    3492     2972     2652     2543     2444     2214     1869     1570 
    1503     1572     1414      861       10     -951    -1755    -2270 
   -2663    -3118    -3643    -4129    -4453    -4606    -4685    -4715 
   -4621    -4444    -4315    -4272    -4218    -3991    -3553    -3034 
   -2504    -1906    -1273     -729     -328      -44      206      494 
     818     1192     1688     2466     3626     4950     6077     6841 
    7287     7599     7985     8495     9051     9576     9996    10278 
   10438    10524    10652    10855    10990    10916    10538     9902 
    9300     8958     8815     8800     8953     9205     9342     9201 
    8822     8397     8075     7877     7789     7705     7456     7142 
    7068     7287     7628     7834     7593     6956     6404     6235 
    6327     6380     6097     5441     4711     4222     4051     4037 
    4059     4264     4785     5458     5988     6214     6129     5859 
    5719     6012     6717     7582     8293     8615     8653     8692 
    8784     8820     8683     8233     7564     6988     6736     6848 
    7109     7221     7132     6957     6791     6681     6651     6770 
    7078     7480     7824     7962     7838     7619     7512     7434 
    7200     6880     6644     6586     6755     7013     7083     6926 
    6760     6805     7067     7342     7473     7443     7244     7020 
    7003     7150     7245     7156     6845     6458     6191     6060 
    6002     5941     5753     5386     4878     4322     3889     3727 
    3769     3782     3574     3173     2768     2474     2285     2178 
    2106     1948     1601     1066      456      -54     -363     -531 
    -612     -589     -488     -415     -510     -810    -1104    -1148 
    -949     -638     -288      160      764     1309     1547     1520 
    1397     1277     1250     1366     1611     1950     2241     2289 
    2108     1825     1578     1570     1883     2351     2762     3049 
    3271     3484     3676     3866     4124     4394     4627     4927 
    5339     5790     6276     6791     7269     7658     7946     8187 
    8445     8766     9138     9408     9439     9246     8932     8598 
    8257     7840     7326     6764     6215     5719     5286     4908 
    4592     4378     4217     3982     3677     3429     3296     3208 
    3002     2569     1976     1356      849      648      858     1382 
    1991     2470     2803     3150     3572     4031     4499     4965 
    5455     6008     6643     7395     8160     8652     8673     8343 
    8004     7861     7809     7680     7481     7406     7596     7998 
    8383     8509     8414     8357     8398     8378     8249     8093 
    7936     7784     7616     7246     6546     5678     4866     4256 
    3933     3840     3909     4147     4415     4545     4571     4592 
    4641     4631     4329     3595     2694     2076     1941     2052 
    2016     1757     1495     1379     1413     1579     1829     2080 
    2285     2527     3019     3827     4723     5532     6312     7129 
    7866     8348     8494     8280     7732     6970     6139     5360 
    4818     4623     4664     4810     4972     5085     5179     5231 
    5198     5178     5128     4907     4500     3861     2988     2061 
    1256      654      248      -58     -330     -514     -523     -367 
     -95      270      714     1242     1788     2205     2451     2609 
    2729     2821     2909     3011     3307     4035     5040     5896 
    6421     6648     6644     6528     6419     6426     6629     6988 
    7400     7785     7956     7816     7593     7533     7604     7686 
    7696     7609     7558     7704     7992     8222     8272     8052 
    7515     6798     6084     5422     4733     3877     2929     2204 
    1819     1613     1475     1475     1641     1846     2070     2454 
    2984     3531     4077     4584     4962     5193     5337     5470 
    5640     5783     5817     5788     5717     5645     5814     6303 
    6906     7491     7990     8388     8822     9281     9526     9393 
    8856     8082     7388     6886     6458     6043     5630     5200 
    4823     4617     4637     4893     5373     6043     6752     7252 
    7429     7342     7102     6733     6169     5445     4720     4139 
    3763     3557     3453     3358     3141     2789     2473     2347 
    2357     2299     2103     1898     1771     1711     1760     1948 
    2203     2420     2473     2315     2147     2191     2465     2851 
    3056     2844     2349     1933     1907     2258     2689     3002 
    3177     3296     3491     3793     4201     4695     5165     5609 
    6199     6986     7740     8082     7912     7609     7492     7449 
    7329     7144     6922     6733     6581     6307     5879     5475 
    5232     5170     5223     5219     5065     4865     4688     4398 
    3881     3249     2668     2173     1787     1580     1576     1784 
    2110     2259     2042     1661     1468     1636     2073     2517 
    2810     3076     3458     3870     4071     3943     3672     3539 
    3612     3807     4062     4372     4737     5038     5111     5078 
    5269     5732     6228     6617     6870     7018     7163     7348 
    7527     7611     7557     7512     7690     8105     8518     8684 
    8581     8271     7797     7277     6778     6291     5868     5541 
    5343     5270     5196     5115     5178     5368     5566     5690 
    5647     5435     5147     4801     4437     4120     3773     3277 
    2698     2203     1887     1730     1663     1709     2016     2523 
    2938     3184     3316     3241     2978     2758     2752     2994 
    3365     3674     3874     3925     3697     3260     2883     2744 
    2897     3296     3790     4266     4702     5115     5514     5841 
    6023     6077     6093     6173     6305     6361     6262     6102 
    6023     6019     5957     5876     5931     6145     6520     7029 
    7460     7600     7373     6822     6129     5514     5081     4826 
