Origin Time       2025/01/13 21:19:00
Lat.              31.8
Long.             131.6
Depth. (km)       30
Mag.              6.9
Station Code      MYZH06
Station Lat.      32.3607
Station Long.     131.4643
Station Height(m) 100
Record Time       2025/01/13 21:19:42
Sampling Freq(Hz) 100Hz
Duration Time(s)  193
Dir.              4
Scale Factor      7845(gal)/8223790
Max. Acc. (gal)   47.533
Last Correction   2025/01/13 21:19:42
Memo.             
[...]
   -1092    -1092    -1090    -1093    -1093    -1089    -1089    -1090 
   -1093    -1093    -1092    -1092    -1093    -1092    -1090    -1090 
   -1092    -1092    -1090    -1090    -1092    -1092    -1090    -1090 
   -1093    -1092    -1092    -1092    -1090    -1092    -1093    -1092 
   -1090    -1089    -1090    -1090    -1089    -1092    -1092    -1089 
   -1090    -1093    -1092    -1092    -1092    -1092    -1093    -1093 
   -1089    -1089    -1092    -1090    -1088    -1090    -1090    -1093 
   -1093    -1090    -1090    -1093    -1092    -1090    -1090    -1093 
   -1092    -1090    -1092    -1090    -1090    -1090    -1090    -1093 
   -1093    -1090    -1092    -1092    -1090    -1090    -1090    -1090 
   -1090    -1092    -1093    -1093    -1093    -1090    -1090    -1093 
   -1093    -1092    -1093    -1092    -1092    -1094    -1093    -1089 
   -1090    -1092    -1093    -1090    -1088    -1092    -1096    -1092 
   -1088    -1089    -1090    -1093    -1092    -1090    -1089    -1089 
   -1090    -1092    -1090    -1090    -1092    -1092    -1090    -1092 
   -1093    -1090    -1089    -1092    -1090    -1088    -1089    -1090 
   -1089    -1092    -1093    -1092    -1093    -1093    -1092    -1090 
   -1088    -1093    -1094    -1090    -1089    -1090    -1090    -1090 
   -1090    -1090    -1090    -1092    -1092    -1090    -1090    -1090 
   -1092    -1093    -1089    -1089    -1090    -1090    -1090    -1090 
   -1092    -1092    -1092    -1092    -1092    -1089    -1090    -1093 
   -1092    -1092    -1094    -1094    -1090    -1092    -1092    -1092 
   -1092    -1090    -1089    -1090    -1093    -1092    -1090    -1090 
   -1090    -1090    -1090    -1092    -1093    -1088    -1088    -1090 
   -1092    -1092    -1092    -1090    -1092    -1092    -1089    -1092 
   -1094    -1093    -1090    -1090    -1092    -1092    -1093    -1092 
   -1092    -1093    -1093    -1092    -1092    -1093    -1092    -1090 
   -1092    -1090    -1092    -1096    -1093    -1090    -1090    -1092 
   -1092    -1090    -1090    -1092    -1093    -1093    -1092    -1090 
   -1092    -1092    -1093    -1093    -1092    -1093    -1093    -1092 
   -1092    -1093    -1092    -1092    -1090    -1090    -1092    -1092 
   -1092    -1092    -1093    -1092    -1092    -1093    -1093    -1093 
   -1092    -1092    -1093    -1093    -1093    -1093    -1092    -1090 
   -1093    -1093    -1090    -1092    -1093    -1092    -1093    -1092 
   -1090    -1092    -1093    -1090    -1089    -1092    -1093    -1093 
   -1092    -1089    -1089    -1090    -1094    -1093    -1092    -1093 
   -1094    -1093    -1092    -1090    -1092    -1093    -1092    -1093 
   -1094    -1092    -1090    -1093    -1090    -1089    -1092    -1092 
   -1090    -1092    -1093    -1092    -1092    -1090    -1089    -1090 
   -1093    -1092    -1092    -1092    -1093    -1094    -1090    -1088 
   -1089    -1090    -1090    -1090    -1090    -1092    -1092    -1092 
   -1092    -1092    -1089    -1089    -1092    -1092    -1090    -1092 
   -1090    -1089    -1092    -1092    -1092    -1092    -1092    -1090 
   -1090    -1089    -1090    -1092    -1092    -1094    -1093    -1090 
   -1092    -1093    -1093    -1093    -1093    -1090    -1093    -1093 
   -1092    -1090    -1090    -1090    -1092    -1092    -1090    -1090 
   -1092    -1090    -1092    -1090    -1089    -1092    -1092    -1092 
   -1089    -1090    -1093    -1090    -1088    -1090    -1094    -1094 
   -1092    -1090    -1093    -1092    -1089    -1092    -1092    -1089 
   -1088    -1089    -1092    -1093    -1093    -1093    -1090    -1088 
   -1092    -1096    -1092    -1088    -1092    -1092    -1092    -1092 
   -1090    -1090    -1093    -1092    -1089    -1092    -1094    -1092 
   -1092    -1092    -1090    -1093    -1094    -1093    -1096    -1098 
   -1101    -1102    -1105    -1111    -1112    -1115    -1119    -1121 
   -1124    -1127    -1124    -1120    -1120    -1116    -1112    -1111 
   -1112    -1113    -1117    -1120    -1120    -1123    -1128    -1136 
   -1148    -1159    -1175    -1201    -1244    -1306    -1375    -1425 
   -1432    -1360    -1209    -1012     -815     -685     -683     -805 
   -1000    -1181    -1277    -1250    -1128    -1016    -1036    -1233 
   -1533    -1779    -1834    -1660    -1294     -831     -386      -56 
      56     -147     -699    -1443    -2035    -2151    -1719     -990 
    -402     -329     -803    -1441    -1715    -1351     -546      149 
     230     -369    -1217    -1803    -1918    -1653    -1302    -1080 
    -945     -822     -714     -693     -996    -1742    -2574    -2813 
   -2080     -727      329      330     -573    -1548    -1972    -1763 
   -1231     -866     -943    -1402    -2007    -2366    -2147    -1459 
    -749     -355     -311     -479     -765    -1194    -1664    -1927 
   -1939    -1908    -1960    -1993    -1844    -1580    -1512    -1690 
   -1814    -1772    -1911    -2477    -3096    -3211    -2743    -2095 
   -1605    -1170     -610      -68      193       -9     -730    -1838 
   -3005    -3645    -3237    -1926     -602     -241    -1084    -2376 
   -3042    -2540    -1112      487     1364      918     -610    -2263 
   -3223    -3198    -2450    -1570     -816     -205      118      187 
     232      371      519      417     -103     -893    -1549    -1879 
   -2088    -2124    -1611     -545      702     1710     2261     2373 
    2038     1256      124    -1279    -2839    -4245    -4804    -3734 
   -1027     2208     4310     4063     1435    -2390    -5494    -6227 
   -4174     -361     3046     3951     1802    -2246    -6200    -8240 
   -7700    -5306    -2439     -224      811      731      -33    -1038 
   -1809    -2173    -2376    -2423    -2322    -2434    -2955    -3690 
   -4259    -4444    -4162    -3269    -1699      271     1806     2066 
    1058     -553    -1914    -2305    -1510      132     1919     3051 
    2975     1710     -222    -2120    -3068    -2249      145     2857 
    4374     3807     1509    -1252    -3005    -2847    -1090      877 
    1341     -206    -2400    -3669    -3520    -2439    -1445    -1150 
   -1493    -2376    -3547    -4145    -3296    -1244      904     2303 
    2312      411    -2867    -5881    -6930    -5254    -1705     1489 
    2276       99    -4202    -8777   -11416   -10554    -5778     1495 
    8245    11623    10370     5282    -1482    -7673   -11323   -11002 
   -6569      357     6887    10035     8263     2783    -3156    -6502 
   -5869    -2311     1316     2662     1124    -2478    -6689    -9792 
   -9954    -6565    -1005     4279     6678     5027      514    -4592 
   -8070    -8806    -7078    -3465     1135     5219     7368     6862 
    4237     1063    -1337    -2732    -3645    -4523    -5385    -5773 
   -5057    -3152     -378     2361     3515     2940     1790      357 
   -1715    -4572    -7446    -8307    -5431      737     7415    10886 
    8521      751    -8280   -13799   -13983    -9549    -2249     5227 
    9601     8766     3892     -923    -2270     -751      228    -1287 
   -4005    -5559    -5151    -3456    -1417       44      513      228 
    -303     -391      267      472    -1626    -5320    -7400    -5989 
   -2029     1787     3122     1867     -452    -2006    -1884     -429 
    1412     1946      334    -1571    -1520      368     1926     1368 
    -685    -2317    -2791    -2803    -2624    -1499      303     1201 
     616     -716    -2162    -3454    -4382    -4671    -4081    -2583 
    -548     1229     1790      467    -2351    -4941    -5510    -3692 
    -949       43    -2376    -6430    -8325    -5911      265     7339 
   11101     9340     3420    -3804    -9328   -10663    -7458    -1732 
    3877     7207     6862     3167    -1868    -5784    -6497    -3461 
    1367     4719     4480      666    -5103   -10242   -12868   -12366 
   -8105     -888     5637     7898     5803     2648     1298     1165 
     -29    -2594    -3982    -2196     1266     3493     3172     1023 
   -1617    -4136    -5803    -5235    -1787     2949     5228     2675 
   -3399    -9929   -13363   -11317    -4768     2790     7350     7078 
    3901     1021       59      133     -372     -897      -74     1661 
    3071     3100     1401    -1073    -3412    -4901    -3811      542 
    5648     7938     6019     1378    -3335    -6014    -5744    -3380 
    -812      380     -907    -4141    -6802    -7192    -5499    -2673 
    -221      776      549     -318    -1193    -1003     1143     4737 
    7337     6096      287    -7192   -11200    -8945    -2695     2864 
    5136     5088     4618     4114     2932      522    -2716    -5360 
   -6439    -5896    -3761     -781      881     -544    -4376    -8058 
   -9186    -7017    -2952      446     1181    -1240    -5108    -6874 
   -4826    -1521      -81     -417     -795     -545     -294     -810 
   -2157    -3694    -4359    -3395    -1003     2031     4725     6033 
    4765      344    -5205    -8070    -6312    -1510     3225     5972 
    6160     3580    -1177    -5829    -7117    -4174      -76     1910 
    1718     1352     1964     2775     3057     3136     2810     1437 
    -421    -1190     -473     -184    -1748    -3423    -2650      190 
    2030     1071    -1552    -4428    -6920    -7843    -6038    -1925 
    2199     3407      814    -3322    -6000    -5865    -3177      762 
    3886     4148      884    -4325    -8619   -10357   -10417   -10046 
   -8498    -4529      859     4776     5379     3433      945    -1027 
   -2570    -3345    -2617     -510     1837     3194     3275     2092 
    -762    -4710    -7812    -8401    -6345    -2716     1796     6632 
    9682     8463     2721    -4916   -10709   -12393    -9699    -3669 
    3487     8953    10543     8283     4571     1999     1435     1521 
     126    -3119    -6505    -7757    -5343      477     7288    11502 
   10413     4105    -4324   -10771   -12660    -9811    -4236      868 
    3028     1394    -3433    -9170   -12696   -12282    -7865     -268 
    8229    14196    14484     7870    -2999   -12478   -15801   -11950 
   -3809     4338     9472    10169     6820     1687    -2764    -5008 
   -4757    -3288    -1842     -202     1922     3720     3619      760 
   -3380    -6347    -7129    -5864    -2797     1152     3778     2774 
   -1890    -6847    -8068    -4764      488     4172     4217     1039 
   -3518    -7411    -9005    -7693    -3601     2346     7632     8860 
    4159    -4310   -10809   -11033    -6012      472     5799     8148 
    5883     -395    -7191   -10759    -9861    -5818     -818     2890 
    3642     2223     1944     4878     8353     7577     2127    -3643 
   -6312    -5967    -4472    -3106    -1448     1344     4429     5583 
    4108     1490    -1561    -5609    -9826   -12256   -11839    -8515 
   -3665      344     2687     3572     2673      541     -988     -919 
    -102      305      211      217      611      349    -1624    -3808 
   -4271    -4259    -5695    -7298    -6293    -2131     2970     6439 
    7346     5169     -777    -8004   -11002    -7152      942     8302 
   10494     5900    -2980   -11009   -14300   -12123    -5864     1115 
    4371     1386    -6139   -12479   -12607    -7311    -1664      668 
     621      847     1404     1005      198      174     -356    -3519 
   -7411    -8172    -5032      685     6515     9597     8972     4621 
   -1393    -3920     -757     5057     9342     9067     4082    -2392 
   -6628    -7161    -5653    -4468    -3823    -2855     -970     1726 
    4378     6909     8846     7666     2494    -3649    -6793    -4581 
    1884     7106     6018     -475    -7591   -10732    -8236    -3304 
     263     2114     3009     3051     2419     1688      688    -1772 
   -5664    -9528   -11504    -9755    -4957     -240     2824     4116 
    2695    -1148    -4580    -4876    -1125     5140     9836     9578 
    4677    -1945    -6682    -7200    -4899    -3476    -4298    -5576 
   -5398    -3495     -868     1190     1809      974     -685    -2536 
   -3896    -4830    -6057    -6731    -5472    -2585      946     3651 
    3919     2077        6     -869      399     4980    12326    18682 
   20421    17143    10836     4194    -1204    -5525    -8766    -9960 
   -8444    -3973     3850    14220    23784    27943    23325     9440 
  -10447   -29490   -39762   -37000   -23236    -4422    12727    22326 
   20981     8689   -10523   -28890   -38326   -33821   -15970     7835 
   26685    32065    21976     1332   -19927   -30923   -27166   -13109 
    4005    17258    20460    12534    -2893   -19818   -29278   -25018 
   -9082    10925    26194    29571    19240       52   -19642   -31020 
  -28719   -14185     6160    23322    30086    24815     9772    -9134 
  -24035   -29320   -23068    -8722     6871    18423    22866    19060 
    8245    -5428   -15739   -18833   -15641    -9123    -1459     5782 
   10388     9386     2219    -6617   -12617   -15163   -14426   -11128 
   -7542    -5417    -4726    -3638      -47     5926    11607    14042 
   11955     6137    -1402    -8873   -13984   -13960    -8421      814 
   11007    17998    18674    13225     3491    -7803   -16754   -19749 
  -15396    -5080     7350    15904    15240     5246    -8721   -19697 
  -22320   -15273    -2111    11570    21192    23907    19149     8668 
   -4739   -17705   -25205   -21578    -6853    11240    25176    32552 
   33408    26119     7765   -18751   -42211   -50920   -42163   -22958 
   -1651    15060    21016    14710      939   -11425   -15163   -10640 
   -2114     8117    19230    28952    32965    29037    19525     7344 
   -5746   -16028   -20244   -18843   -12978    -4887     1129     2524 
    -301    -4719    -7014    -4855      324     4378     7253    11199 
   12744     7757    -2821   -15030   -23912   -25610   -16626     3478 
   26677    41584    41656    28352    10459    -2925    -8812    -8615 
   -4988     -176     4500     5764     1127    -5243    -8306    -8567 
   -7809    -5888    -3180    -1124    -1732    -6443   -11647   -11734 
   -7654    -4149    -2049      810     3342     2231    -1679    -4698 
   -3627     2285     8810    11607    11070     9463     7688     4734 
     804    -1208      438     4831     9340    10839     7585    -1372 
  -15468   -30298   -40250   -42306   -36315   -24444   -10885     -556 
    3071      295    -4885    -8785   -10565   -10579   -10098   -11254 
  -14418   -18334   -21685   -22657   -20016   -13945    -6305     -851 
      28    -3010    -7773   -10677    -8193      864    14034    25193 
   28699    23807    14516     6797     4818     8688    15321    19882 
   17871     8333    -4248   -11807    -9159     1372    12889    18802 
   16536     8889     -114    -7657   -10224    -5694     3284    10775 
   11877     5648    -5622   -17365   -23908   -22276   -13370     -616 
   10986    17343    16486     8745    -2326   -11956   -16529   -15030 
  -10773    -7722    -5944    -3477     1088     8154    16521    23620 
   26545    23319    14415     3006    -6718   -11576   -10754    -5940 
    -318     1818    -2628   -11929   -20750   -24611   -22527   -16499 
   -9717    -5641    -6265   -10501   -15117   -15855   -10214    -1004 
    6735    10485     9693     4974    -1964    -8302    -9999    -5310 
    2304     7021     5958     1201    -3497    -5907    -5744    -3632 
     108     3526     3069    -1845    -8104   -12432   -14347   -15072 
  -13838    -9225    -3064      583     -433    -4356    -7669    -8102 
   -5031     1385     9846    17219    20075    16866     9174      789 
   -5805    -9239    -8541    -5663    -2127     2783     7631    10249 
   10578     9900     9067     7920     7086     6644     5832     4621 
    2344     -726    -2774    -3566    -4162    -4272    -2571      240 
    1655       86    -3400    -5073    -2496     3638    11620    18922 
   22119    18029     5863   -10773   -24663   -28684   -21114    -6998 
    6550    13779    11186      608   -10694   -15782   -11859    -1849 
    6550     7199       79    -9840   -16769   -17790   -13460    -7122 
   -2637    -1678    -3886    -7886   -11724   -12595    -7090     4645 
   17189    24486    21759     6903   -14902   -33565   -40845   -33465 
  -15280     4789    19280    24089    18497     6280    -6712   -15167 
  -15030    -5167    10638    25096    33291    34677    29573    18574 
    4781    -6188    -9760    -6115      251     4442     3932    -1491 
   -9890   -18154   -22958   -20530    -9875     4175    14373    15660 
    7252    -6754   -19545   -25282   -22484   -14289    -4564     3665 
    7766     6889     2694    -1155     -826     4904    12827    17832 
   18249    15608    11488     7406     4249     1782     -363    -2081 
   -2292       67     3987     5946     2354    -5848   -13466   -16584 
  -14354    -8464    -2880     -525    -1225    -4032    -8136   -11368 
  -11627    -9128    -5393    -1919      306     1425     2297     2457 
    -305    -6704   -13598   -16202   -13049    -7389    -3835    -5123 
   -9775   -13111   -11491    -4252     6593    17041    22666    21517 
   14844     5680    -1482    -3407     -969     2118     2754     1865 
    2382     5390     9540    11234     8195     1707    -6188   -13626 
  -19211   -21784   -18895   -10426    -1356     3717     4475     2479 
   -1568    -7821   -14824   -19060   -17061    -7732     5520    17042 
   22782    20981    13028     2974    -5351    -9535    -8808    -3973 
    2674     7890     9980     9333     7535     7140     9571    13223 
   13703     7119    -5293   -18586   -28764   -33454   -31743   -24846 
  -15325    -6759    -2957    -4892    -9946   -14588   -16619   -15109 
   -9414     -267     9610    17493    22103    23950    24682    24776 
   23043    19299    14486     8171     -429   -10115   -17724   -19689 
  -14569    -4455     5574    10277     8596     3643    -1672    -6662 
  -11454   -15392   -16962   -15244   -10833    -4834     1844     7577 
   10096     7884     1061    -7900   -15076   -18077   -16943   -12692 
   -6570      -17     5853    10308    12599    13153    13109    12075 
    9556     6524     4082     2473      892    -1788    -6019   -10662 
  -13150   -12128    -9059    -6758    -7512   -11736   -16937   -18997 
  -15608    -8068     -434     3164     1204    -5093   -12560   -16899 
  -14872    -6502     4866    15086    21867    24783    23807    19556 
   14170     9591     5144     -729    -7069   -10516    -8220     -795 
    8035    14110    14202     7349    -4642   -17454   -24949   -22604 
  -11214     2542    11489    13756    10627     3703    -4880   -13036 
  -18218   -18218   -13460    -6266      770     5771     7797     6184 
    1449    -3855    -6103    -2497     5717    13495    16441    12523 
    2269   -10314   -19329   -20146   -12141      525    11913    17366 
   14656     5090    -7200   -17255   -20839   -16494    -5822     7680 
   19062    24428    23318    17359     9279     1957    -3655    -7573 
   -9228    -8525    -6338    -3535     -302     2407     2662      367 
   -2956    -5961    -7385    -6428    -3311      637     3831     5715 
    6535     6006     4032     2093      702    -1132    -3111    -4935 
   -7456   -10451   -12264   -11276    -6575     1094     8141     9921 
