Origin Time       2025/01/13 21:19:00
Lat.              31.8
Long.             131.6
Depth. (km)       30
Mag.              6.9
Station Code      MYZH14
Station Lat.      31.5649
Station Long.     131.3510
Station Height(m) 5
Record Time       2025/01/13 21:19:39
Sampling Freq(Hz) 100Hz
Duration Time(s)  193
Dir.              4
Scale Factor      3920(gal)/6170801
Max. Acc. (gal)   96.194
Last Correction   2025/01/13 21:19:24
Memo.             
[...]
   33146    23983    14266     4207    -5646   -14955   -23655   -31299 
  -37093   -40478   -41407   -40290   -37980   -35420   -32857   -29726 
  -25596   -20487   -14307    -6942     1464    10741    20481    29587 
   36505    40066    40018    36472    29109    17728     3347   -12048 
  -26583   -38840   -47558   -52009   -52174   -47708   -37990   -23455 
   -5873    12219    28248    40530    48764    53645    55950    55871 
   53104    46744    35863    21790     7303    -6756   -20358   -31979 
  -40455   -46143   -49195   -49160   -46094   -40667   -33274   -23395 
  -10760     3732    19434    35698    50893    63980    74405    80945 
   82872    80133    72617    60485    43963    23717     1585   -20415 
  -40750   -58332   -72570   -82435   -86852   -86168   -81798   -75291 
  -67640   -59172   -50524   -42084   -32231   -18976    -2906    13932 
   30026    44610    57411    67085    71931    72436    69179    61925 
   52864    44802    38377    34116    32216    31845    32925    35217 
   37723    39804    40627    38972    33956    25475    14564     2752 
   -8960   -19741   -28805   -36249   -42145   -45585   -45834   -43081 
  -38079   -31722   -24773   -17584   -10047    -2574     3692     8175 
   10927    11666     9940     6051     1171    -3804    -8589   -12518 
  -14784   -15457   -15135   -13986   -11522    -7368    -2223     2491 
    5941     7929     8234     6955     4513     1090    -3260    -8159 
  -12663   -15717   -16600   -14989   -11410    -7070    -2871     1048 
    5142     9898    15264    20772    25934    30230    33348    35629 
   37745    40083    42670    45570    48979    52689    56076    58616 
   59887    59473    56929    51809    44145    34495    23457    11641 
    -287   -11803   -22534   -32393   -41613   -50216   -57723   -63567 
  -67214   -67922   -65357   -60126   -53392   -46534   -40481   -35134 
  -30169   -25775   -22135   -19158   -16653   -14212   -11309    -7422 
   -2118     4788    13089    22166    31331    40033    47809    54460 
   59969    64029    65951    65086    61102    54083    44680    34026 
   23377    13915     6771     2773     1981     3922     8025    13510 
   19465    25124    30009    34136    37602    39893    40197    38179 
   33947    27712    20028    11695     2952    -6714   -18033   -31158 
  -45262   -59085   -71474   -81580   -88903   -92999   -93556   -90704 
  -84454   -74219   -59783   -42303   -23639    -5218    12002    27516 
   41479    53964    64471    72475    77348    78195    74668    67147 
   56240    43068    29298    16310     4848    -4720   -12442   -18654 
  -23258   -25941   -26912   -26425   -24278   -19978   -13125    -4017 
    6509    17785    29261    40333    50763    60185    67511    72011 
   74156    74871    74026    70375    63319    52846    38722    21593 
    3044   -15736   -33861   -49773   -61852   -69773   -74199   -75931 
  -75801   -74476   -71927   -67584   -61111   -52574   -42544   -32179 
  -22562   -14065    -6428      550     7090    13626    19904    25305 
   29607    32259    32601    30941    28058    24229    19931    16227 
   13523    11287     9155     7316     5932     5340     6397     9449 
   14217    20722    28617    36577    43260    47907    50363    51000 
   50133    47526    42394    33913    22066     7879    -7264   -22328 
  -36542   -48819   -57969   -63751   -66694   -67422   -66810   -65129 
  -61780   -56643   -49989   -42294   -34660   -27909   -22289   -17779 
  -13690    -9377    -4938     -667     2815     4531     4060     1883 
    -508     -798     2919    11241    23340    37437    52108    66684 
   80593    93284   104279   112883   118321   120164   118259   112573 
  103761    93045    80806    66359    49022    28733     6412   -16201 
  -37392   -55702   -70148   -80915   -88631   -93387   -94979   -92998 
  -87298   -78227   -65987   -51242   -35669   -21064    -8825       49 
    5056     6461     5349     2757    -1011    -5803   -11245   -17174 
  -23402   -29089   -33200   -35219   -34943   -32131   -26889   -19852 
  -11441    -1707     9199    20988    33498    47027    61576    75779 
   87723    96012    99718    98499    92892    84104    73418    61766 
   49668    37307    24510    10715    -4448   -20696   -37428   -53521 
  -67317   -77340   -82438   -82059   -76636   -67494   -56601   -45499 
  -34578   -24348   -15934    -9812    -5814    -3732    -2888    -2419 
   -1760     -325     1907     4281     7313    12471    19920    28595 
   37273    44672    49593    51678    51775    51053    50211    49212 
   46994    42340    35238    26698    18407    12376     9303     8322 
    8330     8442     8181     7344     5950     4883     5208     7106 
   10365    14311    17475    18472    16588    11634     3535    -7466 
  -20050   -32574   -44409   -55499   -65524   -74092   -80578   -83787 
  -81983   -73194   -56759   -34414    -9504    14497    34996    50526 
   60991    67440    71547    75052    78326    80495    80547    77403 
   70910    62303    52892    43614    35281    27720    19501     9488 
   -2585   -16556   -31681   -46551   -59404   -69026   -74907   -76668 
  -74455   -69194   -61968   -53559   -45040   -37798   -31742   -25672 
  -19276   -12266    -4179     4581    14438    26356    39411    52268 
   64528    74773    80958    82668    80667    76264    70975    64977 
   57338    47017    33526    17929     1611   -14344   -27510   -35575 
  -38453   -36973   -31955   -24412   -15355    -5538     4861    16127 
   28394    40947    52626    62174    68302    70624    69117    63605 
   54195    41161    25519     8430    -9426   -26735   -42377   -56933 
  -70756   -81832   -88463   -91157   -89854   -83597   -72024   -55278 
  -35188   -14467     5973    25540    42820    56534    64822    66855 
   63963    56741    45251    30059    11398    -9117   -29338   -48994 
  -67002   -80377   -87346   -87872   -81968   -70196   -54694   -37401 
  -18555     1759    22506    42468    60871    77453    91730   101913 
  105926   103738    96611    84645    67533    46478    23595      603 
  -20715   -37911   -49368   -55231   -56264   -53410   -47814   -40577 
  -32601   -24354   -16370    -9632    -4882    -2187    -1246    -1428 
   -1904    -2250    -2349    -2114    -1358      203     2146     3531 
    4153     4360     4484     5288     7639    12008    18834    27601 
   36657    44757    50610    52495    49893    43410    33646    21729 
    9454    -1651   -10290   -15403   -17040   -16464   -15106   -13454 
  -11252    -8599    -5712    -2682      -56     1751     3016     4393 
    6703    10210    14045    16723    16641    12309     3310    -8983 
  -22163   -33679   -41526   -45349   -46219   -44919   -41016   -33608 
  -22759    -9685     4168    17491    29386    39616    48404    56010 
   62034    65417    65244    61040    53295    44034    35688    29313 
   24095    18333    10592      379   -11129   -21545   -29560   -35726 
  -40663   -44372   -47413   -50428   -52473   -51800   -47748   -40738 
  -31132   -18756    -3516    13999    32380    49593    63815    74194 
   80406    81746    77296    66580    50105    29820     8417   -11735 
  -28590   -40744   -48357   -52351   -52835   -49799   -44273   -37330 
  -29027   -19290    -8584     2643    13854    24201    33348    41606 
   48793    53901    55883    53980    47881    38692    29403    22535 
   17788    13574     8824     2693    -5099   -13828   -22387   -29450 
  -33604   -33990   -30461   -24116   -16871    -9921    -4081      535 
    4609     8123    11580    15826    20342    24621    28218    30154 
   29841    26781    20847    13085     4435    -4900   -14327   -23187 
  -31264   -38048   -43158   -46868   -49708   -52353   -55207   -57789 
  -58645   -55707   -47260   -32943   -14290     5818    24919    41847 
   56074    67276    75505    81223    84949    86546    85412    81485 
   74646    64200    49766    31777    11625    -9082   -29050   -46923 
  -62297   -75843   -87642   -97003  -103053  -104824  -101050   -89925 
  -70623   -44963   -15996    13839    42528    67932    88054   101856 
  108937   108846   102109    90912    77673    63521    49011    35184 
   22410    10642      986    -5877   -10312   -11910   -10350    -6631 
   -1723     4410    11834    19735    26905    31902    32898    28661 
   19857     8751    -2854   -14559   -26400   -38482   -51362   -64954 
  -77096   -85341   -88909   -87437   -80699   -69743   -55920   -40018 
  -23177    -6797     8007    20371    30102    37041    40834    42254 
   42542    41910    39619    35075    29178    23357    17818    12455 
    7661     3828     1717     2150     4974     9402    14591    19860 
   24655    28213    30368    31980    33324    33599    32226    29526 
   26377    23457    21315    20647    21384    22625    23748    24474 
   24572    24018    22969    21421    18777    14486     8740     1648 
   -6986   -16800   -26838   -35948   -43191   -47984   -49754   -48476 
  -45144   -40982   -37185   -34564   -32631   -30602   -28740   -27123 
  -24989   -22218   -19477   -17359   -16051   -15112   -14015   -12523 
  -10492    -7963    -4921    -1142     3198     7657    12475    18182 
   24949    32989    42275    52145    61795    70500    77803    83928 
   89106    92631    93151    89230    79633    63944    43257    20214 
   -2117   -21481   -36605   -47081   -53199   -55497   -54738   -51760 
  -47058   -40920   -33567   -25019   -15498    -5988     2326     8756 
   12627    13381    11563     8427     5158     2818     1637      659 
   -1384    -5412   -11542   -18614   -24641   -27769   -26999   -22681 
  -16059    -8051     1025    10920    21369    32269    43412    53989 
   62589    67770    68344    63238    52000    35688    16597    -3057 
  -21781   -38382   -51996   -62668   -70933   -77143   -81573   -84288 
  -85110   -83778   -79312   -70296   -56444   -38568   -17517     5823 
   30271    54393    77215    98897   119164   135971   147186   151705 
  149063   139658   124617   106112    87239    69111    50246    29668 
    7832   -14205   -34878   -52605   -66381   -75469   -78911   -76051 
  -67723   -55761   -41065   -24164    -6991     8583    22147    32917 
   39423    41223    38508    31289    19931     5524   -10334   -26294 
  -41606   -55532   -67568   -77966   -86617   -92343   -94229   -92175 
  -86173   -76675   -65013   -52366   -38972   -24550    -8858     8013 
   25469    42335    57246    69412    78432    83881    85638    83627 
   77980    69710    59909    49534    39612    29952    19610     8554 
   -2581   -13037   -22006   -28742   -32794   -34202   -33172   -29788 
  -24206   -16860    -8208     1301    10994    20166    28258    34830 
   39640    42664    43648    42071    37644    30038    18944     4904 
  -10549   -25522   -38581   -49009   -56563   -61190   -62814   -61503 
  -57491   -50992   -42489   -32398   -20290    -5567    11676    30723 
   50009    67739    83017    95081   102583   104453   100227    89851 
   74264    55595    35869    16185    -2179   -17280   -28049   -34733 
  -37678   -37475   -35336   -31947   -27567   -22986   -18850   -15123 
  -11427    -7235    -2122     3628     8747    11904    12382     9818 
    4353    -3275   -12049   -20531   -27015   -30493   -30799   -28132 
  -23020   -15914    -7113     2705    12634    21889    29885    36227 
   40483    42349    42165    40598    38123    35174    32229    29291 
   25637    20512    13783     5950    -2189   -10024   -17165   -23471 
  -29444   -35559   -41606   -47230   -51839   -54311   -53579   -49210 
  -41545   -31551   -20730   -10719    -2505     3791     8527    11985 
   14306    16009    17707    19267    20625    22502    25143    28081 
   30949    33252    34712    35770    36796    37945    39493    41419 
   43640    46016    47811    48480    48049    46298    42747    37071 
   29289    19743     8852    -2832   -14607   -26034   -36999   -47323 
  -56628   -64470   -70424   -74221   -75815   -75444   -73698   -71004 
  -67086   -61384   -53516   -42891   -28923   -12011     7037    27520 
   47678    65643    80844    92645   100033   102318    98884    90006 
   77168    62220    47496    34975    25297    18740    14844    11963 
    9338     7288     5309     2920      946       70       42      381 
     715      862      524     -856    -3719    -8300   -14634   -22325 
  -30705   -39318   -48042   -56706   -64800   -71988   -78392   -83909 
  -87989   -89955   -88985   -84251   -75423   -62944   -47695   -30295 
  -11014     9543    30415    51181    71868    91982   110398   126048 
  138341   146696   149656   145988   137013   124889   109123    88601 
   64753    39437    13395   -12091   -35498   -55808   -72123   -84187 
  -91625   -93872   -91907   -86243   -75984   -62648   -49126   -36234 
  -24326   -14183    -6571    -2477    -1405    -1938    -3824    -6490 
   -8633    -9588    -9037    -7051    -4315    -1541     1066     4067 
    7695    11570    16206    22205    28907    35526    41531    45888 
   46891    42659    32486    17514      257   -16404   -30612   -41454 
  -48145   -50513   -49097   -44506   -37525   -29132   -19783    -9257 
    2436    14772    27339    40041    52647    64520    75224    84577 
   91822    95799    95490    90296    80517    67188    51373    33670 
   14445    -5615   -25570   -44377   -60998   -74656   -84627   -90155 
  -90769   -86224   -76582   -62485   -44616   -23380      547    26148 
   52258    77494   100639   120892   137537   149598   155199   152258 
  140528   121217    95766    66721    37168     8630   -18218   -42631 
  -64703   -84790  -102931  -118407  -129125  -133891  -133489  -128474 
 -118454  -103443   -84716   -63630   -40734   -17234     4402    22239 
   35469    42972    43751    38228    27649    13838     -804   -14028 
  -24096   -30702   -34681   -35551   -32013   -24621   -15466    -6312 
    2262    10854    20606    31966    44034    55707    66359    74985 
   81318    87203    93911   100494   106032   109660   109249   102646 
   88626    67256    40828    12553   -15089   -40044   -61329   -78761 
  -91462   -99169  -102542  -101863   -97549   -89549   -77453   -62392 
  -45682   -28133   -11945     1257    12256    21566    28980    35011 
   40013    43926    46669    48207    49016    48658    45115    37700 
   27475    15048     1502   -10970   -21181   -29159   -34848   -38229 
  -40029   -41299   -41569   -39002   -32875   -23574   -11534     1851 
   14579    25498    33792    38896    41510    42226    40216    34643 
   24990    10662    -7016   -24811   -41082   -55493   -66000   -71059 
  -71700   -68072   -59155   -45325   -27102    -4774    19998    44330 
   65671    83547    97956   106978   109108   104796    94581    78595 
   57574    33461     8956   -13968   -34379   -51120   -63302   -71314 
  -75638   -76026   -72153   -63926   -51244   -34590   -15316     5298 
   25695    43752    57901    67436    72191    72366    68488    61799 
   54072    46185    38095    30350    23487    17047    10866     5671 
    2002      281     1242     4892    10317    16538    22857    28723 
   33210    35267    34348    30192    22826    12717      770   -11703 
  -23583   -34293   -43399   -50724   -56555   -60995   -63717   -63902 
  -60200   -52018   -40179   -25854   -10323     4821    18278    29006 
   36001    38887    38032    34064    27774    19972    11237     2438 
   -5206   -10846   -13636   -12581    -7617      347    10235    20702 
   30186    37733    43190    46724    48538    48916    47961    45194 
   39818    31296    19855     6417    -8146   -23111   -37528   -50482 
  -61273   -69269   -74102   -75695   -74007   -69136   -61550   -52298 
  -42669   -33352   -24474   -16110    -8281     -862     6494    14142 
   22258    30809    38742    44312    46870    46629    43566    38202 
   32115    26820    22764    19483    16386    13178     9864     6819 
    4636     3633     3978     6033     9806    14669    19967    25318 
   30508    35446    40110    44400    47933    49854    48648    42417 
   30301    13608    -5201   -23787   -39854   -51522   -58296   -60567 
  -58470   -52017   -41615   -28142   -13064     1913    15520    26840 
   35114    40076    41848    40939    38101    33326    26529    18628 
   10235     1240    -7759   -15420   -20682   -22962   -22156   -18518 
  -12295    -4075     5013    13259    18439    19283    15851     8497 
   -1915   -14104   -27052   -39872   -51907   -62599   -70935   -75729 
  -75949   -71053   -61400   -47508   -29792    -9393    11809    31913 
   49698    64562    75787    82777    85788    85739    83622    80358 
   76568    72005    65781    57255    46216    32674    17167      938 
  -14650   -28370   -38860   -45149   -47418   -46487   -42982   -37317 
  -29558   -19443    -7204     6003    18328    27970    34182    37333 
   38441    38785    39238    39989    40519    39415    35170    27837 
   19115    10776     3801    -1475    -5176    -7507    -8367    -7609 
   -5181     -913     5133    12337    19832    26732    32172    35440 
   36044    33880    29304    22700    14391     4965    -4691   -13737 
  -21879   -29292   -36216   -42964   -49713   -56252   -62460   -68717 
  -75395   -82303   -88709   -93676   -96358   -96052   -92202   -84493 
  -73144   -58878   -42373   -24415    -6207    11304    27855    43417 
   57796    70848    82633    93106   102008   108846   113033   114363 
  112942   108849   102146    92921    81616    69222    56535    43718 
   30638    17239     3763    -9292   -21307   -31707   -40168   -46438 
  -50173   -51228   -49686   -45609   -39368   -31765   -23630   -15739 
   -8722    -2951     1579     5128     7617     9040     9769     9765 
    8820     7222     5583     4266     2911      772    -2600    -7071 
  -11906   -16343   -20058   -22929   -25000   -26677   -28349   -29785 
  -30207   -28913   -25659   -20510   -13686    -5873     2063     9635 
   16371    21835    26100    29541    32434    34841    36573    37284 
   36675    34672    31578    28275    25954    25250    26006    27754 
   29754    31179    31572    30613    28167    24538    20092    15167 
   10097     5003       99    -4168    -7518   -10002   -11871   -13569 
  -15657   -18314   -21037   -23183   -24515   -25069   -24800   -23574 
  -21210   -17498   -12564    -7092    -2003     2044     4830     6453 
    7272     7756     8292     9186    10486    11888    13202    14494 
   15815    17238    18858    20671    22647    24859    27384    30173 
   33106    36048    38676    40318    40237    37782    32342    23731 
   12629      407   -11555   -22349   -31570   -39278   -45807   -51376 
  -55898   -59107   -60784   -60701   -58508   -53926   -46971   -38004 
  -27580   -16080    -3676     9125    21476    32681    42121    49142 
   53329    54663    53588    50926    47441    43558    39407    34943 
   30126    25061    20128    15986    13255    12143    12426    13671 
   15179    15996    15561    14051    11815     8979     5574     1456 
   -3629    -9651   -16249   -22835   -28556   -32607   -34724   -35199 
  -34715   -34206   -34322   -35106   -36182   -36855   -36378   -34359 
  -30674   -25249   -18155    -9611       75    10396    20753    30829 
   40590    49806    57849    64078    68051    69399    67903    63673 
