Origin Time       2025/01/13 21:19:00
Lat.              31.8
Long.             131.6
Depth. (km)       30
Mag.              6.9
Station Code      MYZH01
Station Lat.      32.6536
Station Long.     131.2257
Station Height(m) 502.4
Record Time       2025/01/13 21:19:49
Sampling Freq(Hz) 100Hz
Duration Time(s)  162
Dir.              3
Scale Factor      3923(gal)/8224838
Max. Acc. (gal)   5.158
Last Correction   2025/01/13 21:19:49
Memo.             
[...]
  -12687   -12494   -12486   -12451   -12217   -11846   -11589   -11553 
  -11496   -11265   -11110   -11222   -11439   -11658   -11919   -12102 
  -12156   -12237   -12383   -12542   -12764   -12997   -13142   -13323 
  -13587   -13656   -13455   -13333   -13487   -13684   -13636   -13356 
  -13034   -12672   -12127   -11364   -10714   -10671   -11210   -11750 
  -11801   -11387   -10999   -10995   -11151   -11146   -11094   -11229 
  -11448   -11531   -11610   -11907   -12247   -12344   -12326   -12453 
  -12600   -12572   -12459   -12387   -12405   -12360   -11932   -11188 
  -10693   -10810   -11341   -11815   -11923   -11703   -11533   -11740 
  -12012   -11832   -11376   -11206   -11608   -12387   -12893   -12726 
  -12324   -12127   -12002   -11884   -11870   -11847   -11754   -11700 
  -11726   -11751   -11659   -11626   -11979   -12426   -12334   -11762 
  -11290   -11164   -11329   -11604   -11673   -11619   -11840   -12231 
  -12559   -12930   -13311   -13571   -13672   -13525   -13203   -12937 
  -12758   -12599   -12484   -12405   -12388   -12587   -12892   -12950 
  -12814   -12811   -12833   -12668   -12506   -12383   -12168   -12129 
  -12376   -12471   -12395   -12621   -13069   -13378   -13693   -14170 
  -14559   -14652   -14474   -14160   -13857   -13586   -13258   -12869 
  -12523   -12228   -11877   -11534   -11325   -11269   -11403   -11639 
  -11769   -11812   -11839   -11749   -11580   -11470   -11383   -11226 
  -11024   -10816   -10651   -10567   -10454   -10228   -10066   -10173 
  -10550   -10982   -11134   -10917   -10683   -10643   -10594   -10567 
  -10779   -11063   -11271   -11574   -11929   -12079   -12081   -12214 
  -12494   -12769   -12969   -12992   -12915   -12988   -13100   -12954 
  -12544   -11977   -11371   -10962   -10839   -10849   -10848   -10795 
  -10839   -11110   -11367   -11439   -11589   -11977   -12510   -13065 
  -13356   -13194   -12938   -13030   -13436   -13984   -14581   -14978 
  -15040   -14925   -14671   -14362   -14280   -14342   -14203   -13844 
  -13427   -12974   -12442   -11842   -11165   -10432    -9825    -9559 
   -9617    -9717    -9694    -9805   -10231   -10764   -11210   -11479 
  -11488   -11371   -11398   -11716   -12297   -12888   -13209   -13300 
  -13370   -13435   -13450   -13462   -13483   -13522   -13621   -13752 
  -13851   -13863   -13817   -13745   -13443   -12829   -12226   -11892 
  -11847   -12010   -12090   -11916   -11674   -11468   -11284   -11209 
  -11160   -11061   -11214   -11701   -12183   -12503   -12549   -12131 
  -11564   -11371   -11534   -11789   -12086   -12363   -12352   -11929 
  -11535   -11705   -12217   -12410   -12183   -12012   -12066   -12058 
  -11992   -12141   -12341   -12205   -11789   -11497   -11587   -11888 
  -12104   -12349   -12869   -13408   -13576   -13537   -13771   -14295 
  -14683   -14694   -14260   -13367   -12448   -12015   -11884   -11574 
  -11153   -11030   -11358   -12009   -12657   -12903   -12715   -12491 
  -12532   -12899   -13568   -14395   -15049   -15194   -14894   -14702 
  -14909   -15172   -15252   -15199   -14758   -13868   -13101   -12668 
  -12199   -11565   -10987   -10694   -10555   -10303   -10071    -9981 
   -9883    -9840    -9909    -9865    -9779    -9848    -9953   -10025 
  -10007    -9772    -9660   -10030   -10604   -11026   -11299   -11600 
  -12005   -12235   -11970   -11492   -11452   -11988   -12623   -12987 
  -13113   -13197   -13408   -13614   -13429   -12935   -12748   -13099 
  -13609   -13837   -13633   -13132   -12533   -11951   -11394   -10732 
   -9898    -9072    -8669    -9086   -10168   -11210   -11766   -11909 
  -11896   -12029   -12328   -12498   -12571   -12816   -13201   -13521 
  -13575   -13350   -13196   -13316   -13594   -14052   -14590   -14808 
  -14631   -14258   -13652   -12849   -12112   -11542   -11129   -10905 
  -10929   -11330   -11985   -12451   -12438   -11997   -11508   -11456 
  -11788   -12006   -12039   -12175   -12326   -12348   -12467   -12619 
  -12511   -12328   -12305   -12329   -12405   -12636   -12785   -12538 
  -12005   -11554   -11287   -11144   -11196   -11484   -11834   -11969 
  -11838   -11716   -11789   -11948   -12135   -12430   -12663   -12565 
  -12378   -12490   -12718   -12665   -12403   -12348   -12575   -12700 
  -12548   -12312   -12220   -12374   -12606   -12546   -12077   -11472 
  -11091   -11134   -11481   -11732   -11718   -11713   -11853   -11932 
  -11831   -11572   -11253   -11083   -11186   -11514   -11862   -12036 
  -12214   -12614   -12919   -12819   -12494   -12197   -12059   -12098 
  -12129   -12040   -12009   -12139   -12301   -12379   -12263   -12015 
  -11963   -12116   -12231   -12388   -12671   -12989   -13396   -13822 
  -14034   -13953   -13602   -13089   -12757   -12930   -13554   -14376 
  -15074   -15194   -14717   -14246   -14056   -13841   -13360   -12649 
  -11928   -11500   -11377   -11179   -10558    -9715    -9244    -9423 
   -9992   -10525   -10779   -10886   -11173   -11574   -11678   -11422 
  -11102   -10847   -10642   -10503   -10577   -11117   -11961   -12474 
  -12394   -12116   -12123   -12488   -12814   -12719   -12306   -11938 
  -11859   -12100   -12488   -12947   -13563   -14164   -14401   -14269 
  -13983   -13711   -13617   -13602   -13333   -12721   -11893   -11130 
  -10866   -11153   -11573   -11847   -11940   -11840   -11682   -11740 
  -12012   -12191   -12216   -12247   -12336   -12595   -13020   -13216 
  -13169   -13360   -13780   -14045   -14054   -13730   -13177   -12976 
  -13139   -12842   -11959   -11223   -10962   -11074   -11453   -11786 
  -11839   -11811   -11929   -12100   -12199   -12278   -12287   -12102 
  -11793   -11580   -11533   -11427   -11165   -10901   -10615   -10300 
  -10269   -10798   -11728   -12371   -12177   -11380   -10546   -10122 
  -10270   -10480   -10181    -9809   -10103   -11034   -12156   -13144 
  -13759   -13918   -13821   -13659   -13378   -13015   -12880   -13043 
  -13144   -13015   -12931   -13146   -13423   -13329   -12942   -12691 
  -12768   -13266   -13964   -14237   -14000   -13666   -13319   -12870 
  -12355   -11978   -11954   -12109   -12101   -11840   -11319   -10652 
  -10324   -10557   -10728   -10403   -10138   -10494   -11142   -11507 
  -11584   -11616   -11661   -11873   -12444   -13061   -13265   -13155 
  -13014   -12830   -12734   -12857   -12835   -12653   -12900   -13313 
  -13271   -13305   -13680   -13630   -13100   -12606   -12074   -11483 
  -11252   -11514   -11969   -12414   -12837   -13041   -12748   -12081 
  -11558   -11438   -11419   -11182   -10702   -10192    -9952    -9915 
   -9926   -10104   -10327   -10440   -10706   -11136   -11402   -11411 
  -11425   -11820   -12494   -12934   -13136   -13466   -13873   -14089 
  -14158   -14265   -14249   -13953   -13617   -13309   -12916   -12559 
  -12096   -11311   -10535    -9994    -9497    -9166    -9239    -9460 
   -9728   -10288   -10918   -11299   -11558   -11770   -12004   -12372 
  -12638   -12714   -13014   -13714   -14517   -15068   -15168   -15067 
  -15245   -15589   -15539   -14931   -14197   -13824   -13689   -13528 
  -13500   -13639   -13837   -14218   -14677   -14878   -14608   -13792 
  -12935   -12650   -12586   -12264   -11925   -11630   -11155   -10669 
  -10297    -9818    -9273    -8939    -8792    -8719    -8677    -8634 
   -8812    -9265    -9798   -10683   -11961   -13117   -14131   -15273 
  -16329   -16958   -17157   -16934   -16263   -15441   -14771   -14304 
  -13971   -13644   -13312   -12937   -12434   -12086   -12139   -12340 
  -12390   -12214   -11962   -12017   -12549   -13140   -13356   -13369 
  -13644   -14238   -14843   -15253   -15406   -15394   -15500   -15723 
  -15643   -15133   -14600   -14446   -14677   -14902   -14727   -14245 
  -13818   -13662   -13895   -14233   -14046   -13452   -13135   -13124 
  -12982   -12546   -11966   -11545   -11491   -11612   -11630   -11796 
  -12445   -13065   -13031   -12690   -12488   -12372   -12410   -12565 
  -12482   -12077   -11500   -10868   -10412   -10308   -10482   -10778 
  -11075   -11400   -11979   -12911   -13786   -14099   -14176   -14619 
  -15093   -15032   -14607   -14152   -13792   -13463   -12795   -11724 
  -10806   -10439   -10540   -10743   -10604   -10407   -10929   -11923 
  -12679   -13362   -14022   -14123   -13680   -13090   -12502   -11909 
  -11163   -10322    -9814    -9782    -9967   -10134   -10162   -10068 
  -10143   -10617   -11097   -10937   -10264    -9848    -9958   -10174 
  -10187    -9971    -9655    -9556    -9771   -10068   -10440   -10941 
  -11322   -11476   -11523   -11504   -11551   -11678   -11677   -11730 
  -12047   -12370   -12602   -12977   -13641   -14484   -15088   -15072 
  -14516   -13863   -13506   -13351   -12999   -12352   -11564   -10899 
  -10651   -10571   -10332   -10312   -10604   -10642   -10390   -10336 
  -10773   -11753   -12802   -13217   -13092   -12982   -13008   -12996 
  -12846   -12672   -12860   -13405   -13626   -13207   -12602   -12216 
  -12062   -11878   -11465   -11084   -10991   -11122   -11493   -12054 
  -12572   -12927   -13185   -13454   -13598   -13377   -12857   -12247 
  -11871   -12051   -12353   -12198   -12027   -12383   -13014   -13707 
  -14459   -15105   -15734   -16534   -17278   -17567   -17305   -16834 
  -16502   -16152   -15508   -14717   -14075   -13629   -13223   -12699 
  -12116   -11789   -11770   -11580   -10854    -9795    -8780    -7915 
   -7168    -6785    -7007    -7527    -7886    -8062    -8241    -8500 
   -8935    -9531    -9884    -9848    -9876   -10176   -10589   -11178 
  -11963   -12815   -13671   -14368   -14746   -14863   -14774   -14485 
  -14180   -14042   -13869   -13405   -12779   -12154   -11551   -11222 
  -11406   -11742   -11641   -11279   -11430   -12186   -12887   -13258 
  -13409   -13327   -13176   -13028   -12795   -12874   -13606   -14563 
  -14947   -14362   -13270   -12401   -11885   -11358   -10654    -9969 
   -9420    -8982    -8810    -9130    -9813   -10438   -10891   -11423 
  -12259   -13470   -14798   -15859   -16654   -17334   -17933   -18346 
  -18273   -17717   -17100   -16629   -16101   -15255   -14243   -13406 
  -12649   -11855   -11218   -10717   -10326   -10203    -9964    -9092 
   -8013    -7300    -6813    -6316    -5703    -4973    -4421    -4314 
   -4725    -5593    -6745    -8095    -9491   -10621   -11437   -12263 
  -13360   -14555   -15496   -16029   -15981   -15291   -14385   -13710 
  -13234   -12665   -11874   -10903    -9906    -9238    -9090    -9090 
   -9022    -9306   -10130   -11140   -12066   -12718   -13063   -13474 
  -13968   -14065   -13595   -12765   -11963   -11506   -11192   -10822 
  -10810   -11402   -12048   -12262   -12212   -12197   -12391   -12846 
  -13182   -12953   -12293   -11616   -11219   -11362   -11958   -12502 
  -12756   -12937   -13090   -12954   -12506   -12131   -12059   -12024 
  -11703   -11217   -10845   -10741   -11001   -11364   -11456   -11639 
  -12340   -13146   -13659   -13965   -14129   -14300   -14557   -14550 
  -14095   -13452   -12897   -12434   -11921   -11373   -10883   -10524 
  -10551   -11118   -11935   -12587   -12854   -12869   -12981   -13142 
  -13068   -12945   -13084   -13414   -13815   -14195   -14357   -14160 
  -13671   -13216   -13088   -13163   -13144   -12976   -12671   -12264 
  -12132   -12363   -12394   -12104   -11859   -11684   -11497   -11313 
  -11138   -11173   -11437   -11507   -11221   -10964   -10951   -11001 
  -11244   -11989   -12910   -13385   -13356   -13136   -12865   -12619 
  -12436   -12141   -11707   -11349   -11183   -11124   -11052   -11007 
  -10989   -10652    -9787    -8708    -7695    -6627    -5494    -4530 
   -3859    -3488    -3434    -3630    -3979    -4517    -5250    -5935 
   -6482    -7250    -8429    -9683   -10806   -11900   -12912   -13716 
  -14173   -14258   -14412   -14840   -14993   -14727   -14563   -14669 
  -14814   -14774   -14343   -13598   -12897   -12275   -11485   -10647 
  -10054    -9736    -9717   -10053   -10670   -11468   -12293   -12953 
  -13497   -14131   -14901   -15745   -16551   -17077   -17343   -17624 
  -17801   -17639   -17392   -17404   -17570   -17606   -17459   -17084 
  -16495   -16044   -15766   -15246   -14512   -13892   -13393   -12896 
  -12480   -12402   -12823   -13528   -14107   -14466   -14760   -15095 
  -15414   -15481   -15273   -15055   -14985   -15051   -15006   -14698 
  -14446   -14453   -14562   -14523   -14202   -13833   -13614   -13248 
  -12621   -12056   -11600   -11098   -10731   -10646   -10596   -10245 
   -9597    -9004    -8654    -8556    -8816    -9346    -9886   -10420 
  -10986   -11408   -11658   -11866   -11826   -11344   -10789   -10496 
  -10363   -10199    -9936    -9668    -9531    -9524    -9518    -9468 
   -9648   -10293   -11205   -12128   -12937   -13452   -13603   -13529 
  -13409   -13207   -12717   -12089   -11618   -11229   -10952   -10960 
  -10970   -10863   -10982   -11088   -10644    -9836    -9101    -8556 
   -8286    -8387    -8716    -8916    -8843    -8854    -9383   -10459 
  -11757   -12927   -13818   -14413   -14704   -14717   -14625   -14706 
  -15083   -15452   -15435   -15167   -14860   -14500   -14139   -13729 
  -13335   -13428   -13791   -13645   -13159   -12942   -12862   -12613 
  -12291   -11996   -11686   -11511   -11722   -12210   -12729   -13342 
  -14129   -14895   -15438   -15607   -15280   -14631   -13971   -13296 
  -12405   -11259    -9954    -8471    -6662    -4712    -3110    -2066 
   -1530    -1404    -1452    -1687    -2286    -3042    -3836    -4824 
   -5873    -6993    -8419    -9830   -10852   -11709   -12594   -13456 
  -14268   -14959   -15512   -15974   -16286   -16387   -16328   -16229 
  -16260   -16417   -16366   -15928   -15323   -14592   -13655   -12776 
  -12151   -11691   -11398   -11242   -11192   -11461   -12077   -12798 
  -13466   -13859   -13990   -14291   -14752   -14959   -14935   -14955 
  -15066   -15241   -15371   -15241   -14890   -14481   -14027   -13690 
  -13632   -13698   -13699   -13590   -13379   -13122   -12922   -12942 
  -13165   -13367   -13536   -13690   -13660   -13506   -13468   -13535 
  -13572   -13664   -13949   -14262   -14312   -14177   -14087   -13988 
  -13721   -13375   -13185   -13113   -12993   -12872   -12783   -12660 
  -12406   -11943   -11470   -11118   -10669   -10116    -9630    -9202 
   -8926    -8893    -8891    -8837    -8938    -9202    -9508    -9946 
  -10592   -11406   -12336   -13108   -13599   -14149   -14843   -15417 
  -15924   -16420   -16708   -16870   -17023   -16969   -16576   -15880 
  -15164   -14797   -14473   -13721   -12810   -12129   -11537   -10714 
   -9621    -8455    -7361    -6489    -6029    -5788    -5474    -5255 
   -5352    -5728    -6428    -7366    -8218    -8959    -9768   -10573 
  -11354   -12353   -13539   -14555   -15381   -16202   -16920   -17427 
  -17853   -18176   -18177   -17898   -17578   -17189   -16528   -15653 
  -14709   -13626   -12429   -11275   -10183    -9165    -8217    -7331 
   -6628    -6112    -5744    -5660    -5957    -6567    -7404    -8426 
   -9536   -10567   -11414   -12135   -12865   -13489   -13891   -14411 
  -15238   -16102   -16822   -17440   -17995   -18411   -18573   -18558 
  -18526   -18477   -18347   -18125   -17803   -17355   -16744   -15974 
  -15088   -14184   -13369   -12645   -11897   -11094   -10407    -9996 
   -9787    -9639    -9499    -9323    -9117    -8941    -8823    -8862 
   -9174    -9699   -10211   -10559   -10874   -11265   -11599   -11772 
  -11838   -11863   -11889   -11897   -11801   -11610   -11460   -11443 
  -11448   -11250   -10791   -10281    -9979    -9931   -10073   -10358 
  -10700   -11072   -11550   -11993   -12137   -11985   -11734   -11452 
  -11119   -10858   -10778   -10835   -10998   -11261   -11556   -11816 
  -12033   -12225   -12279   -12059   -11680   -11319   -10966   -10569 
  -10057    -9366    -8723    -8434    -8433    -8590    -8897    -9248 
   -9652   -10156   -10589   -10917   -11254   -11512   -11618   -11774 
  -12193   -12835   -13548   -14295   -15098   -15873   -16515   -17054 
  -17504   -17802   -17863   -17663   -17436   -17347   -17204   -16980 
  -16807   -16518   -15950   -15207   -14462   -13805   -13230   -12725 
  -12320   -12036   -11844   -11597   -11217   -10848   -10710   -10862 
  -11064   -11142   -11200   -11249   -11227   -11191   -11148   -11133 
  -11217   -11353   -11537   -11735   -11805   -11786   -11869   -12105 
  -12440   -12784   -13059   -13246   -13328   -13338   -13367   -13459 
  -13633   -13918   -14288   -14744   -15272   -15749   -16092   -16281 
  -16378   -16545   -16722   -16713   -16556   -16299   -15901   -15388 
  -14748   -13968   -13185   -12494   -11807   -11079   -10428    -9911 
   -9467    -9120    -8888    -8608    -8198    -7865    -7735    -7592 
   -7291    -7015    -6951    -7084    -7317    -7538    -7704    -7896 
   -8164    -8456    -8715    -8818    -8680    -8492    -8459    -8513 
   -8498    -8468    -8572    -8576    -8233    -7889    -7855    -7931 
   -7955    -7938    -7869    -7852    -7989    -8214    -8421    -8456 
   -8272    -8179    -8441    -8891    -9292    -9645   -10069   -10569 
  -10887   -10864   -10813   -11001   -11265   -11443   -11519   -11511 
  -11616   -11994   -12474   -12860   -13124   -13228   -13216   -13138 
  -12883   -12518   -12255   -12128   -12113   -12187   -12318   -12602 
  -13151   -13927   -14804   -15568   -16048   -16332   -16545   -16665 
  -16754   -16938   -17072   -16908   -16490   -15998   -15500   -15024 
  -14570   -14076   -13558   -13146   -12845   -12503   -12183   -12179 
  -12356   -12348   -12375   -12777   -13413   -14181   -15083   -16036 
  -17051   -17983   -18500   -18616   -18550   -18358   -18111   -17891 
  -17620   -17186   -16656   -16236   -16089   -16264   -16723   -17251 
  -17594   -17811   -18060   -18207   -18025   -17478   -16691   -15898 
  -15256   -14670   -14019   -13354   -12768   -12312   -12050   -11974 
  -11873   -11665   -11624   -11892   -12226   -12360   -12240   -12048 
  -11947   -11836   -11534   -11020   -10405    -9869    -9526    -9367 
   -9296    -9240    -9178    -8992    -8513    -7950    -7794    -8075 
   -8341    -8415    -8495    -8729    -9105    -9537    -9846    -9927 
   -9931    -9969    -9876    -9659    -9668   -10115   -10854   -11645 
  -12282   -12640   -12787   -12984   -13386   -13786   -13879   -13636 
  -13162   -12526   -11850   -11246   -10717   -10270    -9963    -9850 
   -9979   -10335   -10793   -11199   -11427   -11431   -11364   -11443 
  -11686   -11994   -12361   -12833   -13408   -14064   -14716   -15133 
  -15165   -14943   -14613   -14220   -13824   -13402   -12964   -12738 
  -12789   -12870   -12904   -13009   -13112   -12980   -12537   -11956 
  -11450   -11003   -10397    -9574    -8715    -7960    -7412    -7226 
   -7406    -7804    -8368    -9174   -10219   -11290   -12297   -13370 
  -14446   -15367   -16124   -16515   -16341   -15813   -15105   -14118 
  -12808   -11313    -9868    -8657    -7688    -6863    -6065    -5255 
   -4518    -3956    -3572    -3326    -3225    -3249    -3338    -3527 
   -3890    -4355    -4888    -5632    -6588    -7638    -8784   -10073 
  -11437   -12588   -13360   -13953   -14480   -14839   -15022   -15070 
  -14887   -14409   -13822   -13315   -12922   -12756   -12896   -13281 
