Origin Time       2025/01/13 21:19:00
Lat.              31.8
Long.             131.6
Depth. (km)       30
Mag.              6.9
Station Code      MYZH11
Station Lat.      32.0208
Station Long.     131.4700
Station Height(m) 12
Record Time       2025/01/13 21:19:38
Sampling Freq(Hz) 100Hz
Duration Time(s)  300
Dir.              5
Scale Factor      7845(gal)/8223790
Max. Acc. (gal)   180.912
Last Correction   2025/01/13 21:19:38
Memo.             
[...]
    4430     2610      722    -1024    -2656    -3230    -2146     -313 
    1756     4770     8259    10525    10868     9136     5537     1942 
     662     2199     5117     7541     8803     8904     7379     5143 
    4591     6025     7985     9872    11250    11593    11175    10596 
   10276     9578     6997     2371    -2889    -7026    -8311    -6453 
   -3075      286     3099     5227     6470     6327     4970     4006 
    4306     4869     5134     5456     5844     6357     6924     6770 
    5714     4549     3476     2169     1158     1620     4243     8482 
   12522    14530    14312    13525    13309    12114     8387     4302 
    3258     5290     7893     9205     8753     6949     4607     2547 
    1741     2887     4889     4885     1393    -3780    -7682    -8143 
   -4222     2563     8000     8394     4637     1651     3593     9998 
   16989    21331    20821    14867     6691     -183    -4256    -3955 
     103     5094     9921    13450    13660    11172     8968     9325 
   11032    10427     6685     2038    -2253    -5521    -6096    -3372 
     810     3820     3897     1113    -2439    -4425    -4064    -1687 
    1908     5954    10237    13250    13262    13011    16748    22914 
   25702    22427    15475     8284     3159     1908     4369     7245 
    7388     4499     -126    -4302    -5005    -1691     2162     3717 
    3609     2797      553    -3458    -7084    -7086    -3230      978 
    3254     5159     7803     9489     9606     9601    10524    12819 
   14561    12172     6189      189    -3524    -3460     -241     3910 
    8511    11867    10438     4849     -571    -3731    -5556    -6677 
   -6558    -5294    -3547    -1389     1035     3735     7028     9516 
    9933    10220    11862    13562    14918    16684    18023    17658 
   16117    14866    14304    13875    13035    10995     7425     3392 
    -371    -3788    -6061    -6980    -6377    -3326      -83     -780 
   -5347   -10500   -13355   -12908    -9420    -1995     8433    16676 
   19872    19742    17278    12800     8276     4792     1937      291 
     110      -58     -660      -17     3298     8503    13390    16744 
   18933    20169    19419    15903    10902     6632     4139     3827 
    6016     9594    12361    12676     9869     5089     1278     -387 
   -2249    -6158   -10496   -13103   -13540   -10759    -3924     3492 
    6554     5344     4399     7041    11977    15573    16511    15676 
   12978     7840     2110     -213     2370     5840     4780    -1462 
   -8329   -10330    -5697     1981     7105     6833     2428    -3076 
   -7227    -8048    -4695      351     3265     3129     1260     -913 
   -1676        4     3678     8098    11161    10978     8004     5756 
    8865    17824    26994    31139    30091    25380    18625    13035 
   11681    15203    21740    27688    28555    21524     8446    -6332 
  -20232   -31905   -39549   -42137   -40761   -37381   -32880   -27360 
  -21631   -17829   -18266   -22315   -25598   -24115   -16777    -3793 
   13024    28894    38963    41967    39645    35106    31587    29860 
   28849    28525    28460    27287    25559    24540    23608    21631 
   17718    11400     4421     -367    -1260     1507     4612     4603 
    1771    -2717    -8424   -13251   -15055   -14170   -12498   -12393 
  -14920   -17778   -17317   -12062    -3037     7434    17505    27306 
   37362    46707    54309    59826    62386    61576    58610    54778 
   50668    47428    46276    46313    45345    42404    38277    34857 
   33527    33378    31140    23009     8264    -9251   -24013   -31423 
  -29268   -19653    -9007    -4299    -7312   -13467   -17007   -14760 
   -6311     5610    16789    25693    33164    38677    40612    37513 
   27535    10727    -8160   -22302   -27496   -23666   -15454    -9899 
   -9772   -12386   -12980    -7570     2666    12305    16780    14234 
    8860     9028    15952    24070    29826    28823    16229    -4963 
  -27615   -46948   -57520   -55260   -43785   -28543   -11897      980 
    6532     8058     5886     -873    -6774    -9497   -11344   -10918 
   -6697      -68     7519    14979    21872    27452    30292    29782 
   27093    25830    27992    32040    35540    34778    28420    19210 
    9220     -121    -7599   -13918   -20596   -26639   -27730   -20320 
   -3727    17840    33636    34755    22284     3531   -14149   -23535 
  -18782     -916    22397    42866    55190    58688    56662    50641 
   38037    18976    -2246   -22098   -35850   -38938   -32503   -20181 
   -7088     -159    -1228    -6831   -13741   -18723   -18177   -12784 
   -7215    -3908    -4687   -11569   -22302   -34668   -47862   -57370 
  -58626   -52388   -43235   -34643   -26665   -19402   -13440    -7006 
     517     6683    11226    16256    20583    21616    21217    23326 
   29359    36443    38828    33174    19082    -1422   -22459   -38888 
  -47911   -46109   -32933   -15095    -2979    -2475   -12023   -26269 
  -39467   -47621   -50252   -48874   -43348   -34750   -27989   -21867 
  -12317    -3815     4537    17242    28447    38407    49860    56235 
   58461    58676    53353    47213    44041    41636    40517    40482 
   42012    46386    51611    56245    59328    60049    58548    54823 
   50491    46203    39576    28764    12976    -7574   -29512   -47992 
  -59941   -61989   -50566   -28495    -3468    19643    36813    44415 
   45279    45087    46911    52512    59881    64665    66285    61869 
   49419    37010    27267    19013    15608     7751    -9347   -25450 
  -41883   -56508   -57368   -47911   -33208   -12825     5162    16150 
   23051    23780    13714    -6223   -27618   -39278   -36084   -21357 
   -3083     7958     5321    -5983   -16275   -16981    -4240    17551 
   42564    64476    73529    66664    53743    43424    35565    30316 
   25289    19525    17518    15604    10169    -2532   -29103   -59341 
  -84353  -102767  -104606   -92769   -77022   -61090   -56299   -64913 
  -77647   -89186   -91990   -82671   -66264   -48628   -33952   -22451 
  -15464   -10470    -2826     1880     6338    18069    32571    52103 
   78077   105605   138095   167198   181039   186750   184296   167913 
  145773   117490    76688    34200     -832   -30456   -52177   -63167 
  -68199   -74725   -85999   -99377  -109910  -113651  -107585   -90474 
  -67803   -46396   -28452   -17250   -14143   -17208   -26280   -39530 
  -53397   -65886   -75497   -79261   -72712   -54089   -27606    -1242 
   18997    31866    38720    43578    50504    61105    78418   100188 
  116402   123298   121467   109070    88879    67317    48702    32692 
   14808    -3755   -15264   -16141    -7986     6725    23811    34951 
   33509    20953     2376   -15653   -27857   -34568   -36050   -32715 
  -29700   -29835   -31174   -32910   -33324   -32271   -35371   -42484 
  -48188   -52153   -52554   -44377   -27392    -4842    18750    35757 
   42012    41013    34442    21814     7165    -3553    -5078      332 
    6111    14365    20780    17234    13018    10608     2354    -7565 
  -17745   -30241   -39268   -38867   -28343   -11965     5580    20305 
   29332    32472    30925    29172    31124    38048    48875    56506 
   58594    60504    61020    55984    47256    36486    22657     7659 
   -5591   -16880   -24278   -26577   -27302   -26981   -23677   -17771 
   -9529    -1185     3694     3905     1089     -129     3584    11195 
   19695    27450    34225    38389    38194    33663    25887    16117 
    5625    -2451    -4828    -2255     2369     7541    13043    18932 
   25123    32128    40441    48153    52305    51121    43241    29268 
   14200     4249     2482     9130    21419    33073    38803    37887 
   31892    21973     8915    -5633   -17228   -19882   -12885    -3148 
    2731     3855      382    -8128   -17666   -22206   -21471   -20795 
  -24525   -32111   -42030   -53808   -62073   -59687   -46095   -25375 
   -4607     9117    15261    16563    15111    13498    13583    16345 
   22320    31252    41486    50350    55058    52407    44578    36448 
   26156    15006     8144     2766    -3771    -7387    -6366    -5032 
   -4322    -1728      261     -981    -5552   -11770   -16163   -17756 
  -14490    -3801    11946    27600    36869    36366    27260    11946 
   -3942   -13439   -14161    -7940       -1     4051     3469     -113 
   -5148    -7750    -3397     9034    24907    37022    42893    42778 
   37551    31757    26275    17813     9761     6447     5255     4145 
    4518     7638    15040    26443    37546    44325    45500    39553 
   24854     4129   -16152   -30924   -38098   -38314   -34141   -28212 
  -23850   -24732   -30728   -37179   -39090   -34551   -24976   -12491 
     221    10053    17365    23151    26916    29817    30345    28183 
   30159    36933    42689    48303    53424    52184    44280    32644 
   20132    11597     8648    10227    14324    18115    19934    15385 
    2064   -15531   -33158   -48730   -61449   -70992   -76410   -79374 
  -81607   -80225   -72404   -59829   -46488   -35245   -25606   -15620 
   -6203      770     6006    11095    16332    20271    24817    35433 
   50538    66193    79253    79737    66650    47524    22837     2812 
    -508     5270    13312    21096    20096    12325     6636     5229 
   11615    24120    32864    33910    24921     5301   -13563   -24435 
  -31615   -34196   -34005   -38981   -47075   -53488   -55891   -52994 
  -44717   -29174   -14089    -7801    -3653     3786    13825    28827 
   48019    63933    74599    80323    75961    64936    53229    39231 
   26291    16727     7426      202    -4692    -9217   -11045    -9975 
   -7794    -5274    -2155     4118    14693    28163    41512    51214 
   52423    40296    18558    -4284   -22013   -30154   -29053   -22302 
  -13736    -7234    -4197    -5015    -9409   -13845   -15025   -12363 
   -6054     2103     7947     8109     4691     3673     8160    17257 
   28638    39537    47714    53041    56629    57264    53383    47703 
   42901    36450    25995    13479      958   -10705   -19438   -22432 
  -19572   -14980   -12464   -12247   -14324   -19160   -24366   -26628 
  -25493   -21856   -15970    -8920    -3542    -1763    -2432    -3942 
   -6394    -9062   -10629   -11180    -9522    -4689     1568     8903 
   16908    22796    25056    23445    19565    16155    14029    14841 
   18631    22842    28447    35118    39167    39785    37324    31897 
   24428    15425     5310    -6014   -18399   -29304   -37616   -45515 
  -52689   -56655   -58099   -59030   -59097   -55555   -44898   -27426 
   -9409     3011     9077    11130    12055    15475    24017    36875 
   50872    63806    74071    79755    83161    85707    83496    78139 
   71038    60612    51853    43737    32964    22835    12652     3607 
   -4680   -15373   -23315   -27380   -31579   -37571   -46076   -54328 
  -60594   -63977   -63869   -62218   -59157   -54747   -48587   -39267 
  -28510   -18779   -11184    -6083    -2802      985     8343    18975 
   29570    38087    43467    46124    50473    59254    68597    74131 
   74657    70424    62560    51124    38195    29976    28742    31961 
   37519    43745    47721    44305    31126    12355    -5710   -18513 
  -23890   -20829   -11188    -1667     2578      672    -7885   -20907 
  -33242   -41856   -45979   -47425   -50174   -56332   -67292   -82536 
  -96541  -104585  -104589   -95312   -79299   -60755   -42801   -27882 
  -16244    -7438    -1777     3377    11214    18831    25497    36228 
   46994    50056    48367    44948    39194    35860    37650    43536 
   53131    60799    63709    63441    59058    54513    52161    49897 
   47310    41378    32760    24985    16453     6515    -3898   -16588 
  -32736   -49369   -61535   -65341   -59656   -46194   -27695    -8060 
    9356    23652    34523    42012    45864    45335    40617    31079 
   18230     7415    -2443   -13657   -20952   -25907   -30564   -29656 
  -29043   -30750   -26260   -19213   -10091     6034    22667    37130 
   50741    59907    63933    63760    59086    50121    38250    25706 
   14955     7946     3403     -572    -3735    -5732    -7167    -9740 
  -12604   -13344   -12910   -11550    -8567    -6836    -9944   -19068 
  -32058   -45604   -57375   -63386   -60636   -50545   -37160   -25442 
  -16923    -9142     -634     8829    18790    26935    31178    31880 
   31592    32772    34314    33586    31216    27325    19159     6555 
   -7823   -20942   -30237   -35050   -34053   -25691   -12761       48 
   10812    19275    24359    25359    23431    19421    12764     3385 
   -6340   -13027   -16956   -19565   -19597   -17019   -12382    -5860 
     777     6907    13601    22686    34480    46746    58032    66102 
   68835    67887    66042    65075    64663    63564    62804    63328 
   63493    61222    56328    50141    44473    41234    39752    36926 
   30294    16920    -4002   -28734   -53495   -73292   -82603   -81738 
  -75030   -68661   -68156   -72199   -76289   -77476   -72107   -58460 
  -39247   -19070    -2297    10135    20258    29583    40239    52766 
   61879    61218    50720    36602    24603    16703    12630    10658 
    9806     7364      727    -5674    -9652   -12326   -11992   -14119 
  -25550   -45617   -72334   -99438  -119394  -129147  -126628  -113861 
  -96115   -77315   -60771   -47009   -33115   -15853     5844    32275 
   63922    98616   133799   165246   186100   194733   192141   180153 
  164928   149755   134480   118944   100893    80389    60671    44356 
   34290    30025    26130    17300       78   -25625   -55374   -83567 
 -106138  -121238  -128433  -127935  -121795  -114781  -110693  -105543 
  -93590   -77464   -58082   -33241    -9972     8010    25425    39654 
   48049    54935    61044    65136    69475    75708    80812    81807 
   80181    74638    66140    62723    63271    65686    74142    82883 
   86744    86683    80617    68785    51861    30412     7458   -14540 
  -32576   -45468   -54388   -59968   -63741   -67767   -72171   -74864 
  -74268   -70139   -62796   -55125   -50638   -50089   -52343   -55239 
  -57149   -56485   -51359   -43544   -36612   -31395   -26546   -19500 
   -8773     4750    20050    34384    44382    49536    48486    41804 
   33075    22106    10781     3060    -1917    -4170    -2501     3555 
   15669    33161    52942    71589    84123    85931    79489    72550 
   66764    61526    60089    59526    53433    43680    35156    27793 
   19668    11614     5138     -735    -7042   -12066   -11994    -5522 
    3434    10963    14492     9964    -3526   -22291   -43059   -61466 
  -71701   -73214   -69115   -60231   -48127   -36255   -24983   -12938 
   -2042     5328    10335    14864    20822    30036    41038    52014 
   62873    70495    72755    73137    71248    65038    59981    57485 
   52861    46967    41308    34847    29242    25481    21517    16002 
    7951    -3631   -16533   -27477   -36548   -44614   -50581   -54232 
  -56716   -59518   -64616   -71743   -78345   -81213   -77201   -67207 
  -54719   -40919   -26306   -11059     5940    23741    38763    48197 
   51175    47179    37201    27155    21236    16745    13554    12976 
   12685    13825    16665    19807    25907    33986    40733    44109 
   42637    38022    30820    22570    16351    11330     7190     5071 
    5782     9448    14021    17347    16923    10731      180   -11813 
  -22134   -27862   -28471   -25605   -21698   -19168   -19637   -23731 
  -29909   -35054   -37567   -37579   -35661   -32779   -29706   -25416 
  -17163    -3689    13423    31729    47515    55760    54386    45307 
   31868    17748     5373    -4878   -13614   -21720   -29353   -35518 
  -39337   -40828   -39954   -37156   -34472   -32941   -31326   -28514 
  -24160   -18711   -12727    -5710     1664     8514    16166    24792 
   33848    43515    52625    60829    67653    71244    71936    70094 
   65248    57735    47695    37458    29529    22916    16698    11643 
    8390     6399     5154     5248     6239     6420     4480        0 
   -7125   -16934   -27799   -37674   -45827   -50750   -51116   -47623 
  -41523   -34325   -27654   -22535   -18966   -14798    -7750     1957 
   13250    24601    33141    37102    37602    36026    32085    25924 
   18954    13304    10573     9568     8409     6126     2454     -545 
    -884      841     3476     6987    10979    13370    13396    12534 
   11712    11240    12561    17644    24618    27751    24317    15808 
    3846    -9825   -22412   -31661   -36771   -38002   -36514   -34473 
  -33648   -33809   -33671   -32821   -32526   -33910   -35965   -36933 
  -35610   -31025   -22076    -8213     8982    26500    41805    53788 
   62696    68769    72068    72643    70808    69093    67533    61176 
   49574    34242    15283     -661   -10898   -18459   -21061   -20737 
  -21226   -21217   -22424   -26142   -30596   -33770   -33745   -29806 
  -22468   -13753    -4714     4159    11250    16873    22117    27259 
   32390    36817    39648    38989    33944    27792    23238    20555 
   20059    20758    21590    22253    21971    20344    17103    12334 
    6297     -869    -7924   -13734   -17887   -19445   -18013   -14682 
  -10382    -5327     -718     1580     1066    -1267    -3079    -1215 
    5718    16684    29231    39803    45921    47838    47306    46384 
   46450    47079    46172    40941    29517    12969    -4882   -20094 
  -31426   -40926   -51189   -62714   -73942   -82397   -85530   -82096 
  -73093   -60308   -45231   -29621   -15153    -3059     5715    11272 
   14970    17995    20447    22064    24062    28362    32794    35186 
   39283    44481    47625    52870    59024    61155    61946    61442 
   58926    58862    59238    54733    46930    37026    24580    12776 
    3825    -2031    -5532    -9431   -15529   -24750   -36844   -48482 
  -56998   -61599   -61481   -58183   -54710   -51154   -45979   -37825 
  -24945    -7973     9441    24462    35028    39568    38940    35847 
   33824    33708    34203    36335    39036    39868    38516    33466 
   26030    19124    11134     1898    -5787   -10879   -13242   -12667 
   -9512    -5198    -1540     1327     4086     6222     7371     7896 
    7673     7408     8055     8770    10346    14386    18571    21739 
   24189    22866    19259    18233    18943    21089    24902    27064 
   26538    23140    16389     7884     -872    -8459   -14150   -17228 
  -16479   -12775    -6889      638     7514    11989    13562    12691 
   10743     9247     8969     9063     9703    12521    17146    22181 
   26635    29644    31226    31496    30969    30902    31673    33301 
   35700    37901    38863    37349    32185    23882    13899     2928 
   -8745   -20208   -30211   -38140   -43664   -46480   -47451   -48066 
  -49029   -50517   -52060   -52404   -50272   -44971   -37076   -27938 
  -18620    -9657     -905     7658    15475    22273    28007    32027 
   33575    32868    30211    25810    21116    17506    15164    13613 
   11956    10326     9587     9575     9714     9846     9895     9158 
    6978     3842       54    -4494    -9084   -12465   -13308   -11103 
   -6628     -822     5098     9616    12116    13192    14508    17521 
