Origin Time       2025/01/13 21:19:00
Lat.              31.8
Long.             131.6
Depth. (km)       30
Mag.              6.9
Station Code      MYZH06
Station Lat.      32.3607
Station Long.     131.4643
Station Height(m) 100
Record Time       2025/01/13 21:19:42
Sampling Freq(Hz) 100Hz
Duration Time(s)  193
Dir.              6
Scale Factor      7845(gal)/8223790
Max. Acc. (gal)   25.277
Last Correction   2025/01/13 21:19:42
Memo.             
[...]
  -28053   -28055   -28057   -28054   -28051   -28054   -28058   -28055 
  -28053   -28053   -28055   -28057   -28054   -28054   -28057   -28054 
  -28053   -28055   -28054   -28054   -28057   -28054   -28050   -28054 
  -28055   -28054   -28054   -28055   -28054   -28054   -28055   -28057 
  -28057   -28055   -28055   -28057   -28055   -28053   -28054   -28055 
  -28054   -28054   -28055   -28055   -28051   -28051   -28054   -28055 
  -28054   -28054   -28055   -28055   -28054   -28054   -28054   -28054 
  -28057   -28057   -28054   -28054   -28055   -28055   -28055   -28053 
  -28051   -28055   -28055   -28053   -28053   -28055   -28054   -28054 
  -28055   -28057   -28057   -28054   -28053   -28054   -28057   -28055 
  -28054   -28057   -28055   -28054   -28054   -28053   -28054   -28057 
  -28054   -28057   -28058   -28054   -28054   -28058   -28055   -28051 
  -28055   -28058   -28053   -28050   -28055   -28058   -28054   -28054 
  -28057   -28055   -28054   -28055   -28055   -28055   -28054   -28054 
  -28057   -28055   -28054   -28054   -28053   -28054   -28055   -28055 
  -28053   -28053   -28054   -28054   -28054   -28055   -28055   -28055 
  -28055   -28054   -28054   -28053   -28054   -28055   -28057   -28057 
  -28054   -28053   -28051   -28053   -28054   -28055   -28057   -28057 
  -28055   -28053   -28053   -28054   -28055   -28054   -28053   -28055 
  -28054   -28054   -28057   -28057   -28054   -28055   -28054   -28053 
  -28055   -28055   -28053   -28054   -28055   -28055   -28054   -28055 
  -28055   -28055   -28054   -28055   -28055   -28053   -28054   -28055 
  -28054   -28054   -28055   -28055   -28055   -28055   -28055   -28057 
  -28057   -28055   -28055   -28055   -28054   -28054   -28054   -28054 
  -28055   -28058   -28055   -28057   -28058   -28055   -28054   -28055 
  -28055   -28057   -28058   -28057   -28057   -28055   -28054   -28054 
  -28053   -28051   -28055   -28057   -28055   -28055   -28055   -28053 
  -28055   -28057   -28054   -28055   -28055   -28054   -28055   -28055 
  -28054   -28055   -28055   -28055   -28055   -28055   -28054   -28054 
  -28054   -28055   -28057   -28055   -28054   -28054   -28054   -28054 
  -28057   -28055   -28054   -28055   -28055   -28055   -28054   -28053 
  -28054   -28055   -28054   -28054   -28055   -28055   -28057   -28057 
  -28053   -28053   -28055   -28058   -28057   -28054   -28055   -28057 
  -28057   -28055   -28055   -28055   -28055   -28055   -28054   -28055 
  -28055   -28054   -28053   -28055   -28053   -28054   -28057   -28055 
  -28054   -28054   -28054   -28054   -28057   -28055   -28057   -28058 
  -28055   -28053   -28054   -28055   -28053   -28053   -28055   -28057 
  -28055   -28051   -28050   -28055   -28057   -28053   -28051   -28054 
  -28055   -28054   -28053   -28054   -28054   -28053   -28054   -28055 
  -28054   -28054   -28054   -28055   -28055   -28054   -28053   -28054 
  -28055   -28054   -28054   -28055   -28054   -28054   -28055   -28054 
  -28053   -28054   -28055   -28055   -28057   -28054   -28054   -28057 
  -28055   -28054   -28055   -28053   -28054   -28057   -28055   -28055 
  -28054   -28055   -28058   -28055   -28051   -28053   -28054   -28053 
  -28055   -28055   -28054   -28054   -28055   -28054   -28053   -28053 
  -28054   -28055   -28054   -28051   -28054   -28058   -28058   -28055 
  -28054   -28053   -28054   -28054   -28054   -28054   -28053   -28053 
  -28053   -28053   -28055   -28057   -28054   -28054   -28054   -28053 
  -28054   -28054   -28054   -28055   -28054   -28053   -28054   -28055 
  -28057   -28055   -28053   -28051   -28051   -28055   -28055   -28054 
  -28055   -28055   -28054   -28057   -28057   -28054   -28054   -28054 
  -28055   -28057   -28054   -28053   -28054   -28053   -28051   -28054 
  -28055   -28054   -28054   -28055   -28055   -28053   -28054   -28055 
  -28055   -28057   -28055   -28054   -28055   -28054   -28053   -28055 
  -28057   -28055   -28055   -28055   -28057   -28058   -28061   -28062 
  -28065   -28070   -28074   -28078   -28082   -28086   -28089   -28092 
  -28093   -28092   -28089   -28085   -28082   -28080   -28074   -28074 
  -28074   -28073   -28071   -28074   -28082   -28094   -28102   -28108 
  -28121   -28154   -28204   -28270   -28341   -28398   -28401   -28336 
  -28220   -28088   -27957   -27850   -27785   -27776   -27822   -27872 
  -27846   -27761   -27734   -27854   -28111   -28417   -28641   -28679 
  -28586   -28530   -28518   -28355   -27936   -27440   -27156   -27249 
  -27660   -28102   -28220   -27885   -27380   -27225   -27692   -28498 
  -29022   -28803   -27936   -27113   -27058   -27750   -28394   -28386 
  -27940   -27588   -27637   -28102   -28684   -28921   -28444   -27349 
  -26586   -27224   -28910   -30022   -29478   -27789   -26558   -27040 
  -28811   -30111   -29740   -28134   -26761   -26727   -27838   -29027 
  -29404   -28713   -27603   -27351   -28341   -29354   -29056   -27712 
  -26840   -27332   -28390   -28691   -28104   -27530   -27616   -28279 
  -28977   -29232   -29077   -28800   -28578   -28613   -28995   -29447 
  -29590   -29416   -29322   -29605   -30025   -30095   -29674   -28937 
  -28062   -27345   -27087   -27218   -27557   -27992   -28239   -28017 
  -27511   -27372   -28112   -29411   -30368   -30406   -29469   -27918 
  -26707   -26732   -27564   -27935   -27571   -27198   -27259   -27712 
  -28194   -28328   -28243   -28071   -27615   -27006   -26580   -26472 
  -26747   -27257   -27534   -27396   -27291   -27643   -28304   -28852 
  -28937   -28264   -26867   -25520   -25089   -25149   -24640   -23803 
  -23846   -25350   -27865   -30138   -30717   -29180   -26705   -25107 
  -25427   -27309   -29365   -30240   -29536   -27837   -26237   -25735 
  -26624   -28395   -30073   -30889   -30948   -30928   -31159   -31430 
  -31428   -30785   -29458   -28320   -28134   -28555   -28923   -28777 
  -28115   -27706   -28039   -28510   -28590   -28717   -29398   -30414 
  -31001   -30468   -28875   -26968   -25863   -26516   -28244   -29022 
  -28046   -26245   -24796   -24378   -24925   -25664   -26015   -26318 
  -26989   -27699   -27988   -27646   -26651   -25660   -25956   -28023 
  -30346   -30766   -28923   -26504   -25894   -28057   -30646   -30530 
  -27986   -25690   -25409   -27175   -29610   -30863   -30169   -28453 
  -27589   -28632   -30262   -29984   -27340   -24811   -25050   -27878 
  -30638   -31045   -29052   -26555   -25718   -26952   -28817   -30024 
  -30906   -32401   -33905   -33683   -31121   -27230   -23971   -22909 
  -23472   -24246   -25311   -26974   -28097   -27648   -26049   -24453 
  -24020   -25323   -27723   -29404   -28525   -25934   -24881   -26445 
  -28618   -29574   -29407   -29894   -32127   -34439   -34298   -31137 
  -27129   -25465   -27041   -29754   -31117   -30591   -29953   -30967 
  -32852   -33546   -32098   -29134   -26572   -26129   -27155   -27333 
  -25690   -23758   -23804   -26194   -29146   -30943   -30558   -28333 
  -27228   -28759   -30067   -28525   -24402   -20268   -20733   -27240 
  -33906   -33867   -27193   -20309   -19516   -24702   -29917   -31145 
  -30222   -30129   -30473   -29247   -27190   -27395   -29891   -31153 
  -29490   -25957   -22238   -21099   -24025   -28127   -29860   -28647 
  -25712   -23550   -24904   -29735   -34327   -34217   -28661   -22345 
  -21469   -26894   -33011   -34632   -31631   -27121   -24659   -26576 
  -31806   -35144   -32686   -27118   -23862   -25164   -29340   -32015 
  -29408   -23202   -19719   -22777   -29276   -33010   -31868   -28995 
  -27743   -28849   -30869   -30612   -26306   -21621   -21934   -26867 
  -31515   -32764   -30416   -26146   -23386   -24368   -27372   -29523 
  -30226   -30163   -29837   -29848   -30129   -29654   -29101   -31159 
  -35777   -38892   -37096   -31052   -24849   -22187   -23336   -26501 
  -29353   -29463   -27018   -25234   -25660   -26424   -25650   -23487 
  -22009   -23342   -26226   -27121   -25321   -23373   -22770   -22708 
  -22821   -24228   -28390   -34771   -38670   -35884   -29617   -27313 
  -31166   -35208   -33056   -26312   -22245   -25176   -31919   -35402 
  -32495   -26415   -22446   -23269   -27183   -30210   -29799   -26801 
  -23843   -22210   -22025   -22918   -24071   -26215   -29609   -31295 
  -29482   -26202   -24491   -25963   -28872   -29401   -26705   -23857 
  -23689   -25845   -28516   -30793   -30886   -27294   -23604   -24733 
  -30419   -36589   -38794   -35548   -29952   -25651   -23828   -24263 
  -25907   -27191   -27183   -26443   -25848   -24938   -23757   -24034 
  -25957   -27660   -28394   -28547   -28605   -29299   -30447   -31239 
  -31949   -32794   -32433   -29350   -23885   -19500   -21393   -30038 
  -37343   -35445   -27288   -22657   -26099   -32961   -36363   -34087 
  -28115   -22667   -22019   -25567   -28696   -29249   -27635   -24464 
  -22326   -23974   -27795   -30329   -31140   -31436   -30987   -29444 
  -28605   -30381   -33241   -33600   -30812   -28016   -27727   -29220 
  -30330   -29666   -27834   -27267   -29261   -31984   -32688   -30947 
  -28786   -27697   -27098   -26184   -25647   -26526   -27853   -27761 
  -26758   -26812   -27666   -27083   -25042   -24534   -26946   -29886 
  -30256   -27531   -24256   -23392   -25587   -29037   -30854   -29336 
  -25324   -21618   -21774   -26499   -30838   -29415   -23811   -20695 
  -23479   -28648   -30550   -28075   -24954   -24376   -26527   -30613 
  -34573   -34971   -31557   -27974   -26634   -27297   -28678   -29000 
  -27963   -27365   -27881   -28021   -26985   -26365   -27769   -29331 
  -28117   -25867   -27076   -32213   -37524   -39540   -37428   -33183 
  -29843   -29151   -30666   -31811   -30361   -27326   -25593   -26269 
  -27372   -26140   -22238   -18658   -19201   -24074   -29189   -31018 
  -30280   -30080   -31260   -31392   -29299   -26809   -25402   -25319 
  -26847   -29550   -31619   -31120   -28194   -25548   -25326   -26666 
  -27351   -26023   -22692   -19107   -18181   -21618   -28274   -34373 
  -36126   -33324   -29079   -26218   -25520   -26111   -26441   -25871 
  -24984   -24293   -24260   -25454   -27395   -28881   -29612   -29924 
  -29959   -30630   -32838   -34807   -33702   -29304   -24622   -23507 
  -26084   -28875   -29754   -28806   -27645   -28487   -30356   -30192 
  -27473   -23953   -21861   -22320   -24152   -26341   -28864   -29593 
  -26113   -20775   -18910   -22686   -28605   -31372   -30491   -29559 
  -29712   -29610   -29209   -29546   -31477   -34554   -36483   -35159 
  -31081   -27720   -28466   -31927   -32787   -29089   -25423   -27106 
  -32956   -35772   -31172   -23170   -18559   -19743   -24453   -28819 
  -30061   -28048   -25473   -25528   -27765   -28262   -25872   -24819 
  -27870   -31446   -31599   -30273   -31801   -35688   -36302   -30265 
  -21805   -18655   -22836   -28568   -29974   -26632   -22145   -21192 
  -25435   -31032   -33340   -32097   -29705   -27340   -25401   -25161 
  -25720   -24256   -22303   -24112   -29253   -33060   -32668   -29544 
  -26991   -26790   -28594   -31145   -32229   -29789   -25242   -22445 
  -23746   -28553   -32861   -32120   -27363   -24517   -26312   -30172 
  -34244   -38435   -40342   -36999   -29554   -22852   -21114   -24479 
  -29172   -30109   -25207   -18427   -15813   -18431   -22072   -24069 
  -26603   -31002   -33940   -32563   -29359   -29521   -34199   -38734 
  -39221   -36892   -34457   -33405   -34561   -36394   -35465   -31128 
  -26136   -23033   -22890   -25516   -28853   -30226   -29018   -26196 
  -23103   -21602   -22480   -25833   -31446   -35032   -32053   -24447 
  -16837   -13725   -17605   -23502   -24721   -21450   -18470   -20672 
  -28420   -35640   -36555   -32148   -28773   -29952   -31305   -28966 
  -26512   -28159   -32729   -34380   -28617   -20223   -17842   -22312 
  -28335   -31218   -29455   -25801   -24395   -25909   -28270   -29655 
  -27707   -22221   -18635   -21297   -27540   -32367   -33412   -30859 
  -27761   -28827   -33735   -36049   -32440   -27162   -26272   -31284 
  -37150   -36076   -27182   -19805   -22721   -33882   -42523   -39815 
  -28309   -18702   -18594   -27461   -37810   -40417   -32914   -22958 
  -19981   -24765   -30673   -31861   -27234   -21471   -21628   -27970 
  -32971   -31808   -27160   -23976   -24949   -29423   -34210   -36373 
  -35455   -33033   -30713   -29065   -27670   -25394   -21880   -18809 
  -18704   -22461   -28174   -33196   -36718   -39004   -40053   -39877 
  -37602   -31318   -22100   -16105   -18731   -28271   -37802   -41716 
  -39679   -35646   -33498   -32956   -30491   -25743   -23414   -26492 
  -32579   -37102   -36520   -30686   -23382   -18970   -19749   -25531 
  -32680   -35986   -34276   -31315   -30727   -32506   -32969   -28046 
  -20447   -19604   -28610   -39179   -42314   -35077   -21478   -10922 
  -10065   -18245   -29528   -36655   -37342   -34960   -32907   -31938 
  -30380   -25407   -18334   -16197   -21744   -30105   -36108   -37098 
  -34407   -30207   -24949   -22599   -25396   -28413   -27855   -25546 
  -24680   -24736   -22933   -19014   -14964   -13533   -15661   -19580 
  -24074   -27499   -26333   -20641   -17451   -22466   -31776   -37011 
  -33705   -23811   -13392    -7840    -8739   -12320   -13887   -14526 
  -17116   -21401   -26785   -31585   -31623   -27334   -24802   -25625 
  -27279   -30512   -35797   -40370   -41862   -39167   -32255   -23328 
  -17402   -18004   -22713   -28908   -35329   -36671   -31160   -26709 
  -29810   -35525   -33246   -22975   -18254   -27774   -44274   -54552 
  -52992   -44498   -37339   -33345   -26715   -14994    -5275    -5038 
  -13821   -26966   -39814   -46214   -42485   -35002   -34870   -42681 
  -47927   -45339   -38730   -32221   -28782   -29326   -30672   -27855 
  -19028    -9175    -6351   -14153   -26032   -30954   -27380   -22744 
  -23932   -30577   -35542   -35576   -33048   -29965   -27029   -23641 
  -20868   -20772   -21012   -17948   -12973    -9339    -7233    -9020 
  -18873   -33951   -45578   -44767   -32065   -21982   -24680   -35375 
  -42697   -39324   -30402   -24726   -23735   -27125   -34011   -39442 
  -38437   -31234   -26009   -31893   -43024   -42849   -29937   -19639 
  -20980   -29932   -37604   -36942   -29824   -24267   -22381   -22931 
  -28209   -36348   -40694   -39482   -35441   -30638   -26743   -25339 
  -26072   -27980   -28941   -26657   -25251   -28287   -31351   -31733 
  -31472   -32691   -36139   -39455   -39255   -35348   -31276   -31044 
  -34183   -35537   -32312   -27974   -24641   -20009   -16058   -17339 
  -21415   -23309   -24023   -26119   -27378   -26515   -27253   -31048 
  -34763   -35951   -34464   -30045   -21733   -12274    -8298   -12380 
  -20353   -25528   -23599   -16583   -10277    -7974    -8837   -11169 
  -15257   -20345   -22935   -21933   -21168   -25226   -32601   -35810 
  -30659   -20810   -14897   -18778   -27865   -32194   -28756   -24224 
  -24116   -26519   -29304   -31382   -30655   -28200   -27334   -29112 
  -30677   -30107   -30322   -32560   -35252   -37461   -37413   -35452 
  -34180   -33976   -33421   -30824   -26577   -23403   -21527   -19921 
  -20835   -25528   -31097   -34835   -35914   -34749   -33493   -34214 
  -37740   -43746   -48940   -49374   -44913   -38273   -32536   -28723 
  -26037   -25132   -25932   -25581   -22302   -18220   -17315   -19700 
  -21803   -21888   -20888   -21666   -24833   -25209   -20561   -16839 
  -20032   -28980   -36184   -35370   -28591   -23539   -24765   -30538 
  -37295   -42097   -42599   -39147   -34878   -33747   -37037   -39515 
  -34581   -23819   -16074   -17421   -24678   -29598   -28089   -23268 
  -20619   -22939   -29170   -35068   -35820   -30581   -23753   -20364 
  -22072   -27978   -35031   -38065   -34404   -27584   -23075   -22374 
  -22562   -19388   -13189    -9281   -10409   -15896   -22837   -25980 
  -23985   -21128   -23554   -33860   -45534   -49014   -41544   -29824 
  -23214   -23572   -27768   -32104   -32984   -31480   -30272   -28586 
  -25227   -21136   -18272   -16534   -14116   -12495   -15449   -21770 
  -26555   -28567   -29737   -31001   -31530   -31297   -31468   -31596 
  -31753   -32962   -32942   -28998   -22964   -19626   -22149   -28703 
  -33582   -32269   -26256   -23445   -29579   -39220   -43407   -41781 
  -39451   -39476   -40952   -41048   -37218   -28588   -20475   -21281 
  -31129   -41542   -44331   -36586   -22979   -14585   -17845   -26878 
  -32012   -29668   -23282   -19449   -20791   -23458   -23685   -20957 
  -15442    -8387    -3642    -4857   -10909   -16910   -19213   -18689 
  -19485   -23627   -29151   -32360   -31392   -29474   -31999   -39769 
  -45995   -42893   -31604   -21435   -20622   -28899   -37903   -39843 
  -35538   -31757   -31286   -31571   -31831   -32611   -32675   -31965 
  -31191   -30564   -30825   -31252   -29817   -26360   -23801   -23450 
  -22858   -22256   -23402   -25883   -28571   -28021   -22519   -16457 
  -16001   -23284   -32744   -37785   -38159   -36104   -34909   -36591 
  -37951   -36431   -33330   -30631   -29739   -30159   -29947   -28412 
  -27888   -30310   -32151   -29153   -23394   -20367   -21622   -23507 
  -23398   -22071   -20892   -22059   -26150   -29643   -30680   -30797 
  -30770   -31082   -31132   -28225   -22950   -19951   -19789   -17652 
  -13123   -12441   -20349   -34335   -45029   -45535   -39263   -34601 
  -35752   -38623   -37968   -35398   -34492   -35727   -35473   -30362 
  -24903   -24552   -27184   -27891   -25807   -24884   -27159   -30545 
  -32667   -30889   -25494   -21919   -23611   -28026   -30163   -27450 
  -22763   -20556   -22376   -27654   -33281   -34534   -30281   -25609 
  -26059   -29768   -30666   -27440   -24494   -24553   -24850   -24071 
  -24871   -26596   -25794   -23225   -22508   -24394   -27130   -29660 
  -31696   -33249   -34308   -34092   -31889   -28216   -25343   -25375 
  -26014   -22700   -15998   -12282   -15974   -23079   -25907   -22555 
  -17410   -16295   -22721   -33872   -41411   -40273   -34747   -32825 
  -36703   -41453   -40660   -32798   -23870   -21618   -26869   -33924 
  -37274   -34989   -28904   -23147   -20896   -23571   -30634   -37022 
  -36698   -30458   -25285   -26430   -31010   -31615   -27140   -23332 
  -23789   -26963   -29447   -29161   -26931   -25458   -26569   -30164 
  -33997   -34480   -30936   -26920   -25556   -25802   -24948   -23406 
  -22955   -23344   -24270   -25728   -26828   -26689   -24435   -20934 
  -19799   -22609   -26406   -28223   -28908   -30234   -31151   -29882 
  -26287   -22597   -23063   -27747   -30990   -29882   -26697   -23673 
  -22311   -24516   -29189   -32529   -32976   -29916   -23571   -19132 
  -21377   -28921   -36506   -37492   -31006   -25307   -26689   -31870 
  -33469   -29070   -23251   -21663   -25870   -31958   -34673   -33142 
  -29644   -26897   -26501   -27144   -27511   -27729   -26987   -25420 
  -25582   -28467   -31183   -31234   -30179   -30601   -32721   -34597 
  -34152   -31125   -27051   -24300   -24441   -26659   -28669   -28883 
  -27218   -24491   -22104   -21393   -22486   -24756   -27049   -28468 
  -29232   -28815   -27337   -26944   -27812   -29155   -31087   -32000 
  -30969   -29246   -27823   -27621   -28840   -30164   -29735   -27399 
  -25213   -23919   -23760   -25678   -28939   -32594   -34888   -33312 
