Origin Time       2025/01/13 21:19:00
Lat.              31.8
Long.             131.6
Depth. (km)       30
Mag.              6.9
Station Code      MYZH01
Station Lat.      32.6536
Station Long.     131.2257
Station Height(m) 605
Record Time       2025/01/13 21:19:49
Sampling Freq(Hz) 100Hz
Duration Time(s)  162
Dir.              5
Scale Factor      7845(gal)/8223790
Max. Acc. (gal)   19.544
Last Correction   2025/01/13 21:19:49
Memo.             
[...]
    -949     -918     -900     -892     -901     -923     -922     -916 
    -928     -949     -978    -1007    -1007     -980     -942     -901 
    -872     -862     -876     -884     -854     -811     -785     -777 
    -804     -842     -843     -832     -845     -873     -895     -881 
    -850     -845     -859     -880     -892     -873     -820     -777 
    -768     -800     -869     -949    -1035    -1125    -1200    -1247 
   -1266    -1273    -1300    -1331    -1298    -1148     -912     -735 
    -718     -793     -880     -959    -1007    -1030    -1081    -1154 
   -1181    -1108     -949     -774     -633     -573     -608     -676 
    -764     -912    -1088    -1232    -1298    -1275    -1225    -1208 
   -1231    -1291    -1360    -1413    -1471    -1528    -1555    -1543 
   -1480    -1345    -1154     -965     -876     -931    -1047    -1117 
   -1112    -1043     -896     -622     -243      101      248      157 
     -28     -141     -194     -294     -471     -664     -789     -812 
    -784     -780     -850    -1021    -1248    -1426    -1471    -1371 
   -1227    -1142    -1111    -1092    -1104    -1197    -1381    -1575 
   -1676    -1632    -1436    -1165     -932     -733     -533     -400 
    -369     -427     -569     -716     -762     -650     -461     -376 
    -434     -549     -696     -866    -1061    -1316    -1576    -1736 
   -1771    -1721    -1648    -1570    -1505    -1534    -1676    -1833 
   -1925    -1927    -1858    -1799    -1784    -1749    -1638    -1439 
   -1154     -808     -429      -70      226      436      486      392 
     307      259      149       17      -24       41      149      209 
     182       51     -186     -446     -720    -1100    -1567    -1988 
   -2231    -2201    -1985    -1850    -1945    -2137    -2200    -2056 
   -1806    -1557    -1351    -1188    -1032     -878     -756     -687 
    -687     -677     -504     -172      118      218      162      112 
     121      101       24     -113     -403     -901    -1470    -1815 
   -1821    -1713    -1736    -1907    -2112    -2164    -1969    -1763 
   -1791    -1981    -2111    -2056    -1826    -1545    -1375    -1378 
   -1428    -1333    -1086     -792     -526     -382     -380     -337 
     -48      400      665      565      338      329      646     1113 
    1273      919      503      464      653      643      145     -761 
   -1723    -2442    -2839    -3125    -3522    -3908    -4016    -3723 
   -3107    -2469    -2153    -2150    -2118    -1914    -1736    -1652 
   -1533    -1370    -1193     -930     -594     -388     -442     -529 
    -352       81      611     1026     1151     1107     1167     1395 
    1540     1300      681      -58     -711    -1201    -1661    -2208 
   -2682    -2866    -2628    -2023    -1445    -1285    -1534    -1971 
   -2416    -2767    -2970    -3083    -3213    -3246    -2936    -2243 
   -1386     -648      -95      450      976     1213     1077      673 
     216      -59     -184     -290     -395     -492     -496     -338 
     -98      120      209       35     -346     -723     -970    -1142 
   -1385    -1637    -1649    -1441    -1248    -1152    -1135    -1190 
   -1256    -1210    -1048     -994    -1174    -1316    -1213     -985 
    -708     -468     -450     -569     -530     -282       -1      135 
     -13     -461     -924    -1034     -828     -719     -874    -1082 
   -1236    -1466    -1842    -2289    -2613    -2632    -2404    -2243 
   -2405    -2806    -3203    -3415    -3318    -3007    -2744    -2516 
   -2016    -1119      -82      692     1062     1297     1626     1894 
    1858     1497     1013      729      719      710      467       36 
    -326     -418     -297     -157     -148     -363     -761    -1198 
   -1665    -2281    -3011    -3657    -4078    -4287    -4344    -4259 
   -4016    -3653    -3219    -2652    -1849     -862      103      866 
    1377     1690     1826     1741     1501     1269     1062      820 
     553      270      -67     -496     -943    -1201    -1182    -1078 
   -1167    -1458    -1668    -1642    -1593    -1813    -2293    -2712 
   -2764    -2378    -1761    -1335    -1244    -1167     -889     -523 
    -252     -201     -425     -878    -1352    -1637    -1745    -1768 
   -1659    -1269     -592      133      594      568      118     -460 
    -924    -1205    -1300    -1179     -811     -287      118      187 
      10     -135     -110     -133     -558    -1383    -2231    -2736 
   -2857    -2829    -2747    -2519    -2083    -1444     -731     -175 
      27     -135     -476     -877    -1362    -1863    -2197    -2196 
   -1802    -1246     -864     -702     -623     -604     -676     -801 
    -923    -1097    -1404    -1717    -1868    -1934    -2050    -2138 
   -2046    -1686    -1107     -625     -580     -904    -1128     -866 
    -203      472      920     1102     1075     1044     1102     1073 
     934      862      818      675      492      344      160     -137 
    -525     -896    -1119    -1119    -1019    -1113    -1561    -2184 
   -2727    -3109    -3335    -3353    -3159    -2902    -2654    -2277 
   -1779    -1355    -1094    -1009    -1127    -1389    -1707    -2018 
   -2232    -2277    -2097    -1691    -1108     -453       63      195 
    -133     -639     -931     -949     -886     -916    -1154    -1575 
   -1934    -2073    -2126    -2212    -2201    -1884    -1217     -472 
      31      267      383      527      706      677      299     -263 
    -751    -1007    -1077    -1115    -1186    -1247    -1181     -982 
    -797     -635     -400     -128      109      232       99     -233 
    -494     -589     -714    -1047    -1551    -2023    -2350    -2532 
   -2535    -2366    -2162    -2031    -1977    -1957    -1927    -1864 
   -1767    -1632    -1424    -1132     -838     -635     -607     -714 
    -665     -240      398      895     1012      762      360       32 
    -170     -326     -480     -604     -653     -594     -390     -152 
    -152     -444     -807    -1216    -1764    -2246    -2455    -2519 
   -2590    -2681    -2743    -2673    -2396    -2023    -1768    -1721 
   -1787    -1818    -1718    -1476    -1166     -881     -707     -648 
    -558     -372     -205     -193     -383     -649     -670     -278 
     333      845     1040      880      553      409      598      886 
     895      487     -113     -581     -849    -1040    -1296    -1726 
   -2208    -2457    -2420    -2251    -2099    -2087    -2170    -2135 
   -1869    -1534    -1364    -1371    -1405    -1406    -1463    -1614 
   -1744    -1680    -1375    -1003     -881    -1088    -1310    -1197 
    -702     -122      147       -5     -346     -550     -519     -534 
    -826    -1213    -1510    -1691    -1543     -938     -222      175 
     160     -112     -383     -382      -93      160       39     -440 
    -947    -1309    -1568    -1729    -1803    -1742    -1368     -639 
     180      658      645      494      533      666      661      422 
     -20     -553    -1073    -1547    -1998    -2404    -2697    -2951 
   -3256    -3527    -3616    -3500    -3315    -3164    -2968    -2640 
   -2227    -1890    -1734    -1701    -1607    -1385    -1215    -1243 
   -1387    -1445    -1205     -734     -364     -368     -758    -1169 
   -1200     -815     -191      365      550      472      419      406 
     471      749     1185     1730     2343     2810     2975     2797 
    2274     1591      940      325     -243     -700    -1015    -1213 
   -1366    -1464    -1566    -1911    -2587    -3370    -3970    -4307 
   -4538    -4776    -4927    -4819    -4309    -3470    -2768    -2544 
   -2509    -2309    -1968    -1595    -1364    -1382    -1474    -1389 
   -1008     -433      201      905     1574     2007     2168     2095 
    1854     1459      884      224     -453    -1101    -1510    -1555 
   -1395    -1233    -1148    -1188    -1429    -1867    -2349    -2774 
   -3157    -3491    -3674    -3659    -3532    -3358    -3055    -2489 
   -1594     -457      606     1224     1293     1090      940      934 
    1036     1186     1302     1370     1408     1382     1219      850 
     345     -121     -541     -996    -1459    -1876    -2214    -2439 
   -2520    -2428    -2214    -1980    -1814    -1734    -1706    -1711 
   -1746    -1858    -2116    -2430    -2590    -2444    -2006    -1418 
    -770      -10      903     1875     2697     3133     3111     2787 
    2266     1521      703       59     -382     -766    -1262    -1852 
   -2192    -2080    -1800    -1771    -2135    -2632    -2879    -2857 
   -2822    -2974    -3329    -3612    -3530    -3233    -3113    -3348 
   -3693    -3616    -2824    -1583     -506       13      194      371 
     575      793     1038     1219     1185      876      495      360 
     535      803      877      589      145      -74      -39     -128 
    -693    -1648    -2629    -3460    -4121    -4560    -4752    -4634 
   -4005    -2868    -1607     -662     -179       18       87      -94 
    -584    -1142    -1506    -1534    -1078     -168      760     1339 
    1655     1910     2122     2162     1786      999      268      -43 
     -49      -20     -168     -569     -885     -838     -835    -1333 
   -2259    -3283    -4078    -4594    -5024    -5505    -5983    -6073 
   -5428    -4310    -3194    -2211    -1324     -488      328     1078 
    1645     1807     1534     1129      826      722      908     1252 
    1486     1528     1513     1544     1605     1579     1263      553 
    -251     -685     -685     -642     -973    -1711    -2531    -3115 
   -3276    -3115    -3071    -3291    -3477    -3441    -3288    -3207 
   -3215    -3241    -3354    -3487    -3315    -2658    -1606     -440 
     517     1074     1269     1328     1340     1142      745      352 
      60      -97     -140     -145      -63      240      741     1139 
    1024      348     -402     -870    -1316    -1995    -2741    -3353 
   -3624    -3311    -2651    -2234    -2165    -2092    -1826    -1398 
    -922     -623     -649     -819     -789     -469       93      893 
    1686     2052     1872     1345      749      195     -437    -1167 
   -1838    -2350    -2597    -2666    -2913    -3285    -3352    -3132 
   -3013    -3105    -3233    -3130    -2517    -1520     -641     -121 
     166      399      591      526      122     -259     -174      363 
     911     1125     1051      841      535      183     -112     -260 
    -287     -189      114      502      751      835      854      796 
     503       47     -367     -781    -1185    -1406    -1401    -1200 
    -865     -610     -623     -781     -865     -966    -1260    -1634 
   -1848    -1798    -1655    -1734    -1960    -1899    -1467    -1058 
    -972    -1048     -920     -540     -193      -94     -190     -244 
    -109      155      375      380      238      280      606      982 
    1193     1143      958      931     1262     1941     2628     2979 
    3109     3118     2941     2762     2740     2727     2546     2216 
    1912     1580      872     -297    -1548    -2500    -3191    -3789 
   -4180    -4264    -4139    -3850    -3505    -3404    -3723    -4317 
   -4996    -5744    -6531    -7254    -7807    -8135    -8352    -8451 
   -8159    -7318    -6008    -4484    -3157    -2157    -1179     -109 
     765     1181     1318     1741     2712     3874     4671     4827 
    4610     4488     4484     4229     3624     2913     2261     1763 
    1459     1121      544      -63     -348     -280     -240     -575 
   -1182    -1753    -2232    -2694    -3091    -3342    -3484    -3588 
   -3666    -3757    -3885    -4031    -4230    -4496    -4772    -5046 
   -5262    -5354    -5428    -5570    -5760    -5971    -6119    -6081 
   -5730    -5084    -4496    -4183    -3885    -3499    -3369    -3790 
   -4671    -5655    -6446    -6974    -7281    -7315    -6879    -5842 
   -4293    -2521     -708     1397     3925     6427     8424     9811 
   10686    11192    11470    11581    11479    11007    10100     8966 
    7796     6628     5502     4279     2797     1167     -419    -1787 
   -2965    -4205    -5366    -6049    -6259    -6384    -6747    -7387 
   -8166    -8839    -9108    -8939    -8587    -8104    -7246    -5999 
   -4730    -3748    -3149    -2928    -2938    -3059    -3227    -3257 
   -2951    -2223    -1080      249     1513     2641     3709     4841 
    5896     6413     6153     5308     4336     3708     3493     3446 
    3574     4035     4742     5575     6610     7885     9213    10308 
   10902    10864    10336     9501     8194     6137     3457      635 
   -1811    -3532    -4558    -5152    -5476    -5564    -5494    -5547 
   -6023    -7024    -8402    -9660   -10385   -10655   -10770   -11064 
  -11635   -12218   -12626   -12893   -13103   -13224   -12945   -11975 
  -10546    -9198    -8264    -7628    -6952    -6114    -5259    -4498 
   -3685    -2443     -645     1378     3176     4411     5316     6381 
    7474     8375     9252     9976    10215    10018     9655     9301 
    8800     7800     6363     4729     2928     1278       86     -994 
   -2398    -4021    -5516    -6619    -7036    -6679    -5891    -5115 
   -4606    -4170    -3446    -2718    -2628    -3412    -4803    -6277 
   -7442    -8132    -8386    -8378    -8037    -7295    -6351    -5444 
   -4881    -4611    -4217    -3599    -2631    -1039      958     3007 
    5140     7576    10417    13336    15857    17782    18991    19521 
   19499    18817    17394    15272    12440     8999     5238     1590 
   -1364    -3362    -4727    -5849    -6747    -7183    -7101    -6847 
   -6791    -7090    -7798    -8760    -9633   -10304   -10906   -11560 
  -12329   -13180   -13998   -14601   -14881   -15055   -15434   -16027 
  -16445   -16303   -15547   -14115   -12023    -9568    -6717    -3426 
    -337     2116     4218     6077     7632     8997    10062    10832 
   11547    11880    11597    11248    11001    10701    10542    10314 
    9647     8845     8293     7992     7834     7655     7159     6282 
    5471     4872     4054     2803     1237     -426    -1999    -3478 
   -4841    -6133    -7446    -8617    -9555   -10345   -11088   -12001 
  -12988   -13752   -14434   -15164   -15712   -15951   -15897   -15491 
  -14697   -13583   -12040    -9738    -6724    -3530     -491     2212 
    4251     5533     6436     7389     8307     8835     8699     7674 
    6081     4753     4133     4167     4468     4552     4425     4482 
    4918     5437     5572     5165     4187     2745     1159     -560 
   -2501    -4441    -6153    -7442    -8124    -8256    -8046    -7666 
   -7196    -6664    -6043    -5285    -4483    -3792    -3204    -2650 
   -2026    -1094      195     1393     2025     2285     2776     3811 
    5188     6423     7177     7545     7723     7488     6376     4255 
    1213    -2322    -5485    -8024   -10385   -12569   -14115   -14689 
  -14295   -13309   -12077   -10613    -8937    -7041    -4774    -2301 
     -98     1548     2709     3562     4106     4368     4689     5239 
    5771     6142     6280     5888     4869     3403     1757      216 
   -1321    -2959    -4411    -5491    -5996    -5838    -5424    -4997 
   -4440    -3612    -2392     -992       71      594      712      450 
    -105     -583     -899    -1175    -1200     -616      747     2523 
    4114     5433     6505     7398     8295     9000     9360     9485 
    9433     9371     9358     9088     8347     7326     6311     5441 
    4677     3748     2494     1040     -560    -2393    -4513    -6983 
   -9675   -12137   -14096   -15650   -16804   -17437   -17505   -16745 
  -14939   -12247    -8826    -4981    -1217     2236     5314     8010 
   10461    12598    14183    14972    14710    13614    12193    10544 
    8464     5825     2820     -233    -3191    -5811    -7851    -9266 
   -9903    -9671    -8768    -7553    -6415    -5445    -4541    -3677 
   -2911    -2462    -2423    -2544    -2569    -2479    -2307    -1935 
   -1574    -1794    -2650    -3889    -5494    -7260    -8745    -9670 
   -9918    -9574    -8707    -7294    -5607    -3910    -2145     -349 
    1287     2523     3449     4675     5886     6087     5520     4922 
    4383     4074     4028     3512     2255     1116      495      -87 
    -811    -1705    -2832    -3616    -3410    -2473    -1452     -342 
     963     2058     3038     4074     4604     4336     3468     2365 
    1150     -413    -2200    -3971    -5607    -6971    -8189    -9147 
   -9410    -8916    -8027    -7163    -6305    -5262    -4137    -2883 
   -1452     -359      253     1020     2093     2999     3458     3399 
    3048     2882     2982     3195     3704     4546     5177     5109 
    4596     4163     3790     3211     2401     1485      757      426 
     378      427      399      248      170      186       39     -442 
   -1309    -2533    -3825    -4919    -5911    -7003    -8243    -9593 
  -10936   -12077   -12920   -13467   -13625   -13223   -12272   -11051 
   -9748    -8383    -7011    -5665    -4464    -3510    -2579    -1533 
    -417      943     2616     4364     6007     7500     8768     9587 
    9799     9571     9003     7974     6790     5910     5174     4355 
    3572     2782     1960     1324      862      373     -133     -592 
    -947    -1128    -1325    -1782    -2384    -2879    -3109    -3123 
   -3223    -3642    -4276    -4761    -4826    -4401    -3613    -2722 
   -1803     -864      -13      792     1690     2636     3427     3948 
    4067     3519     2339      762    -1096    -3119    -5231    -7314 
   -9236   -11016   -12532   -13663   -14481   -14856   -14588   -13767 
  -12611   -11287    -9923    -8488    -6806    -4807    -2636     -479 
    1605     3613     5512     7229     8660     9844    10978    12079 
   12900    13159    12710    11713    10616     9559     8255     6804 
    5541     4317     3051     1933      872     -224    -1377    -2752 
   -4326    -5834    -7213    -8569    -9815   -10866   -11708   -12171 
  -12231   -11898   -10957    -9451    -7711    -5925    -4121    -2216 
    -283     1341     2573     3557     4321     4923     5422     5849 
    6339     6895     7410     7881     8236     8387     8349     8059 
    7429     6507     5508     4567     3584     2525     1394       52 
   -1304    -2313    -3202    -4294    -5525    -6718    -7508    -7612 
   -7221    -6616    -5895    -5067    -4140    -3121    -1937     -530 
     951     2170     2975     3477     3659     3495     3098     2512 
    1772     1038      378     -251     -855    -1416    -1957    -2389 
   -2589    -2671    -2664    -2420    -1956    -1285     -411      484 
    1316     2093     2705     3114     3404     3624     3746     3747 
    3689     3564     3203     2550     1823     1274      870      342 
    -456    -1328    -2081    -2826    -3681    -4629    -5707    -6894 
   -7908    -8483    -8554    -8245    -7790    -7240    -6543    -5837 
   -5255    -4876    -4823    -5117    -5510    -5633    -5459    -5269 
   -5213    -5308    -5459    -5586    -5647    -5525    -5286    -5038 
   -4742    -4506    -4402    -4179    -3534    -2562    -1436        9 
    1505     2647     3773     4927     5755     6497     7164     7285 
