Origin Time       2025/01/13 21:19:00
Lat.              31.8
Long.             131.6
Depth. (km)       30
Mag.              6.9
Station Code      MYZH03
Station Lat.      32.4754
Station Long.     131.1043
Station Height(m) 519
Record Time       2025/01/13 21:19:47
Sampling Freq(Hz) 100Hz
Duration Time(s)  160
Dir.              5
Scale Factor      7845(gal)/8223790
Max. Acc. (gal)   18.681
Last Correction   2025/01/13 21:19:47
Memo.             
[...]
    4595     7483     9583     9792     8946     9231    11079    12646 
   12793    12089    11244    10689    10770    10851     9747     7931 
    6944     6704     6656     7636     9553    10319     8858     6956 
    6808     8081     9225     9394     8329     7003     6968     8301 
   10126    11583    11585     9628     6736     5027     5922     8364 
   10134    10355     9524     8762     8718     8915     9078     9324 
    9279     8665     7744     6883     6366     6451     7299     8645 
   10000    11203    11861    11623    11348    11634    11487    10173 
    8453     7177     6292     5780     6056     6808     7234     7291 
    6960     6119     5825     6708     7715     8633    10172    11626 
   11870    11090    10137     9698    10029    10839    11535    11593 
   11047    10501    10023     8824     6941     5539     5123     5593 
    7024     8770     9833    10176     9995     9076     7835     7172 
    7152     7272     7249     6898     6610     7407     9301    11078 
   11927    11812    10947     9807     9112     9315    10119    10673 
   10280     8938     7303     6034     5252     4924     5466     7132 
    9066    10157    10305    10042     9647     9134     8850     9173 
    9594     9629     9652     9629     9254     9016     8996     8475 
    7618     7041     6386     5541     5879     8426    11674    13146 
   12595    11362    10378    10145    10390    10428    10062     9007 
    7391     6139     5809     6621     8537    10752    12006    11296 
    8957     6226     4140     4070     6347     8783     9641     9391 
    9178    10050    12027    13869    14964    15491    15268    14558 
   14056    13302    11446     9147     7508     6492     6049     6311 
    6758     7404     8838    10670    11919    12248    11732    10033 
    7341     5489     5837     7373     8750     9883    10766    11061 
   10704     9587     7801     6694     7541     9211     9745     9196 
    8515     7491     6073     5641     6731     8121     9355    10751 
   11464    10469     8077     5468     3503     2056      972      525 
     683     1740     4205     7453    10530    13027    13988    12501 
   10000     8845     9262    10021    10077     8999     7283     5833 
    4988     4523     4342     4538     4980     5728     6968     8032 
    8306     8344     8189     7107     6068     6863     9107    11732 
   14605    16569    16166    13917    11334     9255     7638     6922 
    8357    10773    11013     9331     8680     9436     9360     7543 
    5788     5513     6084     7009     7940     8047     7723     7365 
    5544     2180      383     2288     6826    12074    15855    16020 
   13131    10027     8144     6983     6473     7006     7537     6509 
    4488     3130     2389     1189      -74      148     2895     8028 
   13076    14604    12758    10504     8792     7241     6259     5443 
    3788     1714     1088     3165     6469     8568     8710     7597 
    7106     8692    11843    15738    19282    20596    19650    18103 
   16659    15016    12753    10246     8070     5818     4336     5429 
    8145     9979    10431    11014    12636    14665    16591    17805 
   17265    15562    14207    12973    10528     7011     4434     4249 
    5466     6161     5796     4885     3933     3920     5597     7892 
    9640    11383    12949    12579    10087     7199     5456     5628 
    7157     8850    10206    10323     8268     5000     2335     1854 
    4399     8510    11600    11938     9482     7136     7551     9846 
   13203    17435    20001    18511    13189     6467     2111     1734 
    4074     7959    11584    12984    13317    14548    16563    18593 
   19731    19496    18065    15511    12415     8804     4368     1248 
    1715     4251     6019     6763     7411     8020     8783    10353 
   12603    13942    12426     8041     3534     1663     2115     2933 
    2932     1721      526     1459     4191     6308     6450     5304 
    4506     4905     5913     6527     6330     5447     4541     4857 
    6808     9139    10422    10235     8827     6694     5367     6689 
    9288    10073     9435     9235     9413     9790    10125     9495 
    8286     7840     8137     7939     7051     6774     7852     9806 
   11624    12240    11437     9996     8758     8155     8303     9128 
   10262    11021    11252    11433    11380    10962    10719     9817 
    7398     5035     3485     1236    -2436    -6787   -10123   -10515 
   -7414    -1443     5408    10127    13178    17559    22195    24597 
   25338    23984    19622    14233     9994     7570     5508     2303 
    -325     -913      858     5422    10417    13363    15288    17726 
   19940    20476    19759    18316    15422    11593     8479     6893 
    6714     7555     8625     9034     8881     8548     8318     8101 
    6986     5157     3809     4090     7323    12405    15723    15387 
   12298     9077     8633    11664    15911    18227    17234    14061 
   10778     8098     5193     1826    -1086    -2538    -1868      970 
    4877     7884     9072     9235     8727     7202     5208     2913 
     171    -1405     -184     3901     9463    13701    15592    17124 
   19016    19629    18328    15823    12654     9686     7790     6664 
    5363     4167     4406     5703     6543     6876     7319     7603 
    7223     6755     6937     7785     9046     9258     7219     4263 
    1881      843     2289     5935     9597    11439    11465    10833 
    9510     7044     5012     4849     6251     8507    10558    11653 
   11472     9513     6772     5117     4671     4588     3923     2033 
      39    -1197    -2639    -4224    -4627    -3091      553     5115 
    8540    10605    12781    15639    18806    22030    24096    23259 
   19508    14829    11680    10754    10891    11013     9996     7322 
    5046     5076     6447     8289     9971     9566     7534     6759 
    7587     8095     7403     6226     5958     7403    10095    13290 
   16648    20012    22908    23880    21643    16889    11855     8411 
    6494     4872     3561     2870     1186    -1275     -386     5282 
   11952    16268    18318    19575    20449    20538    19002    15102 
   10461     7272     4881     1733    -2369    -6928    -9833    -7501 
      35     8060    12853    14407    14778    15375    16065    16266 
   14612    10716     6895     4722     3389     2030     1317     2535 
    5633     9310    11770    12201    11882    11867    12306    13872 
   16425    18118    17277    14037    10444     8765     9332    10748 
   11824    12008    11047     9652     8779     7959     6181     3636 
    1323      363     2074     6527    11130    12885    11977    10800 
   10454    11109    12638    13313    12147    10949    11591    13664 
   15180    14806    13055    11137     9736     8924     8137     6384 
    3909     2300     1414     -337    -2309    -2863    -2435    -1864 
    -800      603     1017      263      207     1610     3588     6050 
    8544    10260    12208    15144    17923    19435    19467    18415 
   16769    14511    11595     8475     5563     2633       31     -673 
    1323     4997     8590    11051    12690    14234    15630    16002 
   15034    13338    11298     9468     8444     7516     6019     5058 
    6363     9913    13482    15565    16799    17354    17039    17045 
   17018    14797    10642     6041     1237    -2898    -5013    -5125 
   -4496    -4021    -2623     1078     6342    11080    13518    13365 
   11732    10183    10293    11974    13211    12459     9845     7608 
    8073    10277    11896    11989    10293     8139     8260    10858 
   13811    15857    15916    13223     9915     9240    11059    12168 
   10675     7790     5337     3655     2088     -491    -4388    -7339 
   -6543    -1885     4245     8870    10656    10922    10920    10544 
   10550    10816     9578     7848     7371     6708     5575     6421 
    9348    11673    12186    11817    11616    12071    13564    15934 
   17200    15452    11195     5684      218    -3026    -2605      487 
    3777     6097     8540    12050    15645    17335    16530    15157 
   15018    15799    16457    16171    14548    12151     9925     8202 
    7263     8037    10303    12232    12988    12703    11334     9845 
    9451     9670     9606     9159     8280     7207     6508     6208 
    5879     5192     4163     3157     2748     3408     4891     6068 
    5979     5143     5009     6315     8888    11882    13980    14457 
   13637    12240    10908    10330    11057    12424    12549    10362 
    6552     2666      500      720     1838     2224     2010     2563 
    4745     7757    10149    11236    11092    10336    10278    11862 
   13980    14767    13996    12665    11940    12317    12826    12224 
   10368     8194     7526     9659    13474    16133    15691    12672 
    8842     5620     3954     3713     4283     5574     6804     6984 
    6528     6450     7260     8691     9950    10147     8515     5410 
    2542     1287     1861     3825     5910     6420     5328     4525 
    5242     7219     9910    12249    13113    12721    11803    10689 
    9526     8229     6957     6008     5154     4511     4633     5074 
    5046     4749     4715     5063     5578     5844     5926     6470 
    7557     8714     9556     9688     9286     9059     9278     9779 
   10149    10440    11438    13068    14351    14800    14285    13028 
   11878    11740    12748    13775    13597    12363    10735     9217 
    8584     8920     9053     7911     5618     3554     3335     5135 
    7596     9304     9844     9823    10123    11221    12692    13450 
   12991    11700    10390     9760     9753     9701     8943     7604 
    6635     6706     7731     9038     9767     9672     8874     7612 
    6662     6278     5956     5984     6951     8514    10004    10912 
   10812     9872     9073     9080     9659    10372    10482     9417 
    7894     6929     6818     7395     8043     8237     8056     7992 
    8472     9077     9051     8347     7263     6326     6115     6509 
    7288     8738    10970    13602    16006    17563    17616    15946 
   13720    12461    12337    12264    11034     8667     6326     4726 
    4175     4989     6392     7026     6890     6828     6778     6335 
    5833     5367     4676     4360     5047     6347     7697     8941 
   10110    11246    12514    13965    14850    14243    12293     9894 
    7858     6362     4850     2909      796     -742     -506     2114 
    5956     9508    12483    15037    16686    16761    15585    13755 
   11407     9398     8289     6994     4765     1931    -1044    -2635 
   -1128     2702     6856    10119    12237    13981    15719    16964 
   17589    17463    16511    15218    14096    13428    12629    10627 
    7634     4700     2442     1242     1252     1923     2376     2691 
    3809     5799     7788     9304    10262    10527    10714    11985 
   14149    15692    15574    13774    10999     8249     6069     4243 
    2390     1023     1138     2755     5082     7485     9423    10602 
   11394    12179    12715    12515    11539    10432     9706     9202 
    8851     8563     7584     5640     3669     2679     3092     4868 
    7264     9045     9691     9934    10566    11639    13058    14567 
   15531    15766    15623    15026    13387    10550     7554     5714 
    5096     5223     6022     6664     6030     4745     4047     4048 
    4484     5296     6124     6420     6370     6694     7346     7792 
    8051     8460     9047     9828    11028    12398    13294    13844 
   14665    15620    16108    15948    15361    14605    13794    12923 
   11844    10446     9142     8402     8004     7510     6786     6049 
    5695     5539     5084     4526     4276     4688     6311     8665 
   10328    10608     9759     8640     8100     8181     8581     8872 
    8548     7695     6459     4807     3364     2867     3399     4768 
    6640     8365     9250     9265     9024     8708     8000     7025 
    6226     5610     5047     4893     5536     6791     8155     8985 
    9188     9618    10741    12104    13011    12698    11404    10609 
   10754    10636     9343     7404     6039     5800     6450     7399 
    7902     7844     7612     7141     6566     6644     7514     8677 
   10058    11526    12486    12957    13485    13694    12850    11400 
   10228     9270     8144     7009     5948     4811     3804     3231 
    2913     2498     2177     2344     3306     5618     9089    12301 
   14133    14277    13142    11885    11236    11356    12189    12779 
   12222    10800     9217     7863     6396     4545     2866     1478 
     387      495     1917     3824     5952     8064     9911    11878 
   14035    15938    17483    18503    18436    17123    15111    13161 
   11628    10511     9707     8953     8299     8164     8559     9217 
    9846     9923     9053     7371     5482     3886     2467      826 
   -1135    -2910    -3767    -3577    -2485     -510     2038     4977 
    8545    12499    15993    18343    19102    18288    16590    14586 
   12826    11902    11322    10395     9613     9454     9761    10376 
   10844    10488     9003     6654     4290     2810     2682     3998 
    6393     9119    11491    13417    15466    17892    20262    22053 
   22592    21276    17788    12256     6412     1792    -2965    -8143 
  -10870   -10550    -8784    -5771    -1957     1406     3788     6367 
   10759    15963    20324    23261    23792    22185    19684    16571 
   13752    12056    10844     9995     9902    10023     9780     8989 
    7488     5861     4793     3844     2768     2207     2538     3495 
    4544     5470     6427     7292     7901     8276     8290     8078 
    8102     8311     8241     7744     7103     6928     7761     9378 
   11105    12725    14219    15302    15942    16363    16657    16864 
   16803    16186    15034    13586    12191    11234    10702    10297 
   10170    10687    11469    12156    13230    14546    15329    15557 
   15176    13726    11473     9282     7499     5552     3426     1980 
    1202      552     -180     -963    -1169     -687     -179      349 
     976     1526     2493     4309     6588     8633    10039    10957 
   11477    11511    11681    12650    13959    14958    15700    16326 
   16576    15870    13819    10573     6616     2997      893      545 
    1539     3707     6947    10459    13446    16114    18135    17971 
   15543    12572    10292     9236     9084     8185     5552     1764 
   -2308    -5314    -5890    -4253     -897     3942     8640    12083 
   15604    19812    22747    23033    21131    17433    12410     7195 
    2115    -3672    -8991   -10633    -8311    -3788     1934     7222 
   11429    15894    20599    23738    24520    23058    19075    13575 
    8432     3871     -486    -3781    -4872    -3784     -993     3122 
    7668    11722    15076    17817    19514    19678    18619    16862 
   14716    12357    10127     8411     6463     3746     1489      544 
    1232     3997     7643    10457    11858    12150    12559    13348 
   13513    13220    12804    11790    10320     8600     6525     4472 
    2936     2305     2847     4410     6658     9165    11268    12429 
   12482    11696    10594     9364     8244     7604     6669     4768 
    2874     1422      271      224     1364     2889     4506     6174 
    8002    10103    12391    14847    17446    19715    20822    20563 
   19225    16771    13563    10574     8241     6255     4322     2582 
    1291      714     1227     2651     4272     5570     6048     5756 
    5506     5529     5525     5389     4951     4190     3296     2594 
    2874     4507     6836     9085    10886    12348    13614    14272 
   13946    12704    10928     9377     8452     8048     8355     9472 
   10816    11799    12591    13632    14870    16113    17262    17922 
   17562    15975    13374    10492     8244     6916     6528     7022 
    7641     7685     7145     6192     5283     4982     5601     7419 
   10253    13207    15477    16698    16727    15471    12930     9670 
    6650     4255     2226      754      471     1159     2277     3790 
    5123     5746     6469     8075    10334    12919    15466    16961 
   16609    14428    11011     7503     4810     3044     2218     2598 
    4129     6118     7794     8602     8569     8580     9255    10586 
   12472    14432    15807    16113    14895    12152     8592     5034 
    1903     -384    -1159     -576      302     1004     1709     2536 
    3607     4942     6362     7780     9175    10534    11982    13460 
   14408    14477    13875    12904    11924    11362    11361    11716 
   12131    12305    11940    10974     9724     8479     7198     5907 
    4831     3983     3194     2408     1722     1256     1065     1417 
    2621     4291     5730     6866     7982     9135    10373    11817 
   13377    14847    16124    17116    17545    16947    15333    13439 
   11817    10536     9580     8877     8355     7944     7449     6571 
    5155     3740     3045     2937     2982     3254     3956     4819 
    5517     6151     6907     8110    10172    12738    14864    15916 
   15724    14519    12694    10596     8910     8187     8213     8754 
    9923    11611    13239    13988    13360    11655     9667     8060 
    7258     7260     7622     8083     8576     8770     8563     8372 
    8401     8430     8378     8451     8872     9575    10272    10670 
   10539    10053     9780     9902    10149    10407    10712    10951 
   10949    10497     9135     6686     3915     1588     -409    -2176 
   -3343    -3588    -2716     -684     2347     5601     8040    10011 
   12171    13938    15313    16741    17682    17761    16841    15025 
   13246    11653     9668     7461     5385     3570     2199     1655 
    2209     3429     4662     5584     6249     7146     8505    10008 
   11483    12896    14150    15302    16568    17933    18966    19294 
   18870    17636    15716    13714    12059    10714     9583     8405 
    6829     4905     3130     2074     2042     3036     4608     5958 
    6690     6898     6729     6412     6012     5444     4916     4568 
    4363     4436     5007     6129     7296     7954     8351     8858 
    9439    10166    11155    12089    12417    11753    10015     7820 
    6280     5644     5385     5421     5698     5887     6149     6629 
    7215     8202     9783    11745    13806    15550    16841    17833 
   18446    18477    17682    16044    14050    12089    10150     7969 
    5520     3376     1860      999     1239     2581     4387     6216 
    7722     8881    10060    11344    12611    13504    13369    12128 
   10449     9192     8861     8972     8726     7921     6646     5373 
    4743     4965     6016     7350     8149     8201     7335     5622 
    3989     3172     3246     4004     5211     6833     8550     9790 
   10609    11642    13270    15034    16241    16560    15642    13552 
   11133     9111     7596     6145     4653     3865     3944     4541 
    5722     6940     7344     7091     6756     6467     5934     5278 
    5221     5894     6681     7268     7673     7896     8283     9335 
