Origin Time       2025/01/13 21:19:00
Lat.              31.8
Long.             131.6
Depth. (km)       30
Mag.              6.9
Station Code      MYZH09
Station Lat.      32.0421
Station Long.     131.0618
Station Height(m) 235
Record Time       2025/01/13 21:19:42
Sampling Freq(Hz) 100Hz
Duration Time(s)  120
Dir.              1
Scale Factor      2942(gal)/8224139
Max. Acc. (gal)   6.237
Last Correction   2025/01/13 21:19:42
Memo.             
[...]
  294742   294746   294749   294742   294740   294744   294748   294749 
  294749   294746   294744   294745   294745   294744   294741   294740 
  294741   294742   294741   294742   294748   294745   294745   294748 
  294749   294748   294748   294746   294752   294759   294754   294750 
  294750   294752   294756   294757   294754   294756   294754   294750 
  294750   294750   294749   294749   294745   294744   294745   294744 
  294744   294745   294750   294756   294756   294752   294754   294756 
  294753   294753   294754   294753   294750   294754   294764   294764 
  294753   294754   294759   294748   294744   294748   294745   294745 
  294750   294750   294746   294752   294754   294748   294742   294742 
  294744   294749   294745   294744   294752   294753   294750   294754 
  294753   294746   294745   294748   294749   294746   294745   294744 
  294742   294746   294748   294745   294749   294756   294754   294754 
  294752   294748   294750   294749   294744   294745   294745   294741 
  294741   294741   294737   294740   294742   294741   294738   294736 
  294737   294744   294744   294741   294750   294754   294746   294742 
  294744   294742   294742   294742   294740   294737   294740   294744 
  294738   294740   294742   294734   294730   294734   294730   294726 
  294725   294718   294710   294703   294699   294695   294694   294691 
  294682   294669   294665   294669   294690   294726   294757   294772 
  294767   294737   294707   294694   294688   294680   294661   294628 
  294578   294517   294474   294479   294543   294656   294769   294813 
  294783   294727   294664   294606   294568   294541   294517   294503 
  294495   294517   294595   294703   294807   294899   294979   295029 
  295029   294949   294800   294651   294526   294408   294294   294235 
  294248   294295   294356   294470   294640   294776   294814   294826 
  294846   294790   294657   294580   294547   294420   294216   294063 
  293977   293913   293905   293973   294020   293942   293782   293695 
  293776   294036   294447   294835   294957   294850   294775   294734 
  294561   294295   293996   293534   292912   292465   292432   292608 
  292758   292962   293211   293295   293282   293444   293728   293954 
  294219   294617   295003   295245   295369   295458   295440   295110 
  294516   293963   293518   293008   292497   292292   292538   293112 
  293738   294113   294227   294440   294856   295180   295304   295189 
  294710   294073   293608   293383   293467   293922   294507   294985 
  295273   295245   294954   294690   294605   294656   294664   294449 
  294120   293961   294067   294258   294355   294521   295027   295739 
  296208   296284   296285   296395   296441   296331   295976   295297 
  294610   294368   294552   294737   294817   295080   295616   296156 
  296319   296055   295623   295164   294721   294309   293842   293367 
  293113   293255   293719   294366   295209   296100   296752   297261 
  297784   298078   297830   297017   296071   295417   294898   294314 
  293889   293812   293947   294032   294111   294317   294381   294058 
  293538   293055   292585   292150   292049   292316   292670   293187 
  293967   294781   295461   295870   295866   295506   294968   294367 
  293753   293323   293330   293800   294468   294887   294993   295128 
  295363   295663   296040   296257   296065   295540   294868   294046 
  293148   292500   292234   292129   292013   291978   292199   292611 
  292985   293384   293962   294586   295123   295496   295543   295362 
  295203   295041   294950   295201   295533   295436   294999   294453 
  293778   293179   292936   292983   293171   293502   293899   294155 
  294155   293881   293545   293656   294175   294375   294133   293998 
  294088   294235   294476   294854   295393   296052   296562   296717 
  296607   296520   296717   297031   296981   296438   295690   295072 
  294780   294723   294680   294742   295138   295689   295899   295492 
  294757   294344   294451   294709   294910   295011   294881   294718 
  294916   295486   296145   296581   296624   296374   295884   295277 
  294961   294931   294729   294277   293892   293716   293660   293718 
  293971   294491   295240   295871   296090   295995   295748   295500 
  295415   295278   294622   293619   292813   292184   291687   291709 
  292287   293052   293774   294405   294937   295439   295949   296273 
  296129   295529   294800   294179   293679   293259   292931   292771 
  292843   293091   293473   294003   294528   294807   295019   295423 
  295656   295321   294688   294246   294375   295168   296034   296316 
  296194   296158   296011   295380   294668   294289   293966   293569 
  293417   293627   293944   294058   293930   293755   293714   293905 
  294329   294826   295154   295184   295078   295176   295490   295590 
  295270   294834   294486   294177   293976   293839   293612   293433 
  293438   293357   292956   292404   291973   291824   291971   292230 
  292366   292383   292449   292462   292245   292126   292509   293153 
  293556   293819   294572   295683   296258   296160   295949   295853 
  295762   295567   295448   295523   295415   295081   295061   295377 
  295462   295209   294995   294957   295108   295471   295859   296077 
  296145   296161   296094   295822   295452   295085   294548   293939 
  293683   293742   293719   293558   293527   293949   294908   295976 
  296689   296846   296310   295461   295057   295151   295212   295029 
  294695   294155   293345   292534   292156   292393   293002   293673 
  294287   294661   294736   294713   294665   294667   294969   295439 
  295567   295392   295402   295525   295338   294960   294811   294976 
  295231   295394   295508   295710   295917   295849   295527   295227 
  294987   294686   294436   294436   294572   294584   294505   294463 
  294433   294391   294390   294538   294833   295114   295328   295428 
  295340   295338   295708   296102   295901   295116   294517   294575 
  294779   294565   294144   293917   293832   293596   293286   293267 
  293409   293255   292947   292923   293198   293634   294193   294706 
  295061   295416   295693   295543   295076   294698   294433   294093 
  293722   293592   293855   294366   295022   295905   296975   297934 
  298505   298769   298914   298796   298258   297375   296234   294957 
  293778   292831   292088   291613   291616   292150   292985   293899 
  294976   296272   297351   297676   297341   296869   296464   295894 
  294969   293868   293028   292677   292565   292465   292551   292937 
  293444   294055   294784   295255   295185   294756   294154   293463 
  292875   292554   292563   292873   293255   293560   293816   293916 
  293851   293896   294100   294327   294686   295204   295551   295482 
  295073   294561   294248   294133   293901   293607   293549   293711 
  294040   294494   294852   295047   295083   294907   294656   294426 
  294229   294290   294675   295103   295501   295996   296472   296730 
  296867   297128   297421   297369   296860   296175   295515   294803 
  294116   293720   293562   293337   293055   292979   293083   293226 
  293618   294402   295265   295937   296438   296744   296808   296644 
  296307   295967   295718   295467   295246   295168   295111   294914 
  294629   294421   294448   294727   295008   295105   295126   295130 
  295096   295065   294980   294787   294564   294386   294290   294262 
  294273   294417   294792   295281   295587   295550   295254   294788 
  294304   294074   294100   294117   294028   293920   293973   294321 
  294904   295564   296221   296860   297334   297475   297369   297101 
  296611   295999   295552   295454   295558   295483   295046   294574 
  294444   294453   294282   294070   293923   293731   293534   293352 
  293059   292678   292446   292551   292871   293070   293098   293244 
  293606   294075   294638   295180   295416   295246   294808   294252 
  293722   293379   293296   293390   293492   293525   293583   293646 
  293519   293329   293473   293940   294336   294489   294541   294532 
  294313   293853   293301   292883   292774   292894   292977   292943 
  293045   293500   294189   294908   295633   296346   296962   297432 
  297673   297612   297352   297083   296920   296877   296836   296603 
  296203   295909   295801   295641   295272   294852   294615   294648 
  294884   295216   295524   295732   295899   296114   296385   296735 
  297189   297711   298212   298553   298614   298416   298038   297419 
  296485   295401   294480   293928   293722   293614   293380   293101 
  293024   293251   293685   294102   294297   294275   294236   294316 
  294484   294661   294813   294948   295020   294973   294895   294842 
  294702   294439   294144   293827   293467   293141   292852   292495 
  292094   291818   291766   291870   292048   292327   292774   293350 
  293950   294510   294938   295104   294966   294680   294447   294201 
  293808   293475   293390   293377   293377   293566   293881   294020 
  293885   293699   293701   293804   293770   293683   293743   293807 
  293618   293128   292391   291586   291042   290964   291284   291762 
  292152   292496   293071   293962   295016   296007   296613   296677 
  296422   296099   295690   295143   294696   294713   295101   295357 
  295353   295475   295932   296462   296692   296476   295947   295343 
  294794   294173   293278   292273   291589   291381   291566   292100 
  292850   293584   294178   294571   294877   295362   295951   296315 
  296384   296153   295578   294910   294517   294375   294106   293560 
  292986   292620   292397   292200   292162   292435   292858   293207 
  293475   293828   294463   295280   295952   296356   296650   296997 
  297411   297793   298089   298370   298641   298698   298368   297801 
  297307   297041   296989   297056   297078   296991   296981   297260 
  297808   298432   298848   298717   297947   296757   295420   294281 
  293584   293153   292769   292555   292661   293033   293643   294451 
  295290   296106   296914   297527   297726   297465   296883   296234 
  295664   295095   294486   294025   293782   293630   293685   294231 
  295226   296368   297380   298183   298933   299679   300246   300547 
  300632   300460   300064   299771   299856   300258   300839   301484 
  302094   302671   303156   303362   303161   302545   301575   300323 
  298957   297799   297012   296360   295577   294825   294443   294378 
  294308   294151   294154   294553   295219   295759   295949   295839 
  295542   295107   294576   293944   293139   292227   291301   290197 
  288831   287443   286370   285762   285526   285591   286046   286756 
  287402   287953   288584   289291   289911   290355   290754   291284 
  291936   292615   293176   293558   293872   294050   293899   293565 
  293205   292663   291853   290941   290181   289872   290171   290827 
  291514   292253   293118   294111   295209   296214   297010   297801 
  298620   299185   299343   299196   298846   298347   297777   297098 
  296249   295408   294804   294451   294229   294067   294034   294237 
  294632   295015   295290   295562   295914   296242   296509   296889 
  297380   297668   297562   297247   297122   297383   297702   297676 
  297261   296546   295690   294988   294613   294583   294810   295077 
  295327   295689   296260   297075   298050   299047   300092   301202 
  302130   302611   302709   302557   302154   301661   301328   301153 
  300946   300620   300325   300138   299868   299346   298615   297822 
  297090   296500   296002   295516   295164   295006   294883   294869 
  295199   295755   296203   296435   296549   296604   296507   296079 
  295332   294548   293900   293215   292246   291019   289749   288563 
  287589   287034   286897   286865   286711   286556   286553   286676 
  286889   287196   287647   288360   289336   290398   291304   291806 
  291865   291794   291918   292198   292450   292723   293120   293514 
  293769   293943   294206   294695   295313   295805   296091   296212 
  296077   295605   294968   294529   294502   294746   294980   295066 
  295053   295062   295172   295309   295255   294896   294349   293715 
  293004   292339   291911   291722   291671   291720   291859   292145 
  292711   293461   294094   294534   294948   295485   296227   297184 
  298250   299276   300213   301074   301787   302312   302640   302580 
  302011   301159   300335   299554   298640   297638   296788   296222 
  295897   295749   295848   296219   296667   297035   297368   297766 
  298135   298210   297849   297178   296505   296041   295698   295316 
  294943   294794   294929   295205   295559   295961   296261   296326 
  296261   296244   296202   296009   295741   295432   294958   294336 
  293828   293542   293202   292594   291838   291127   290538   290106 
  289915   290021   290245   290278   290061   289742   289348   288836 
  288295   287869   287651   287621   287682   287729   287662   287496 
  287450   287764   288547   289681   290804   291564   291868   291940 
  292208   292817   293396   293654   293669   293438   292896   292189 
  291548   291215   291267   291435   291610   292011   292631   293321 
  294117   294919   295577   296320   297379   298452   299119   299251 
  299062   299085   299648   300450   301060   301413   301706   302142 
  302749   303475   304377   305499   306678   307685   308450   309019 
  309507   310008   310439   310805   311326   311918   312176   311998 
  311592   311022   310304   309600   309035   308535   308013   307481 
  306927   306273   305491   304638   303787   303022   302298   301473 
  300492   299313   297889   296401   295111   294151   293625   293527 
  293769   294255   294775   295193   295608   296017   296285   296198 
  295396   293781   291737   289653   287687   286008   284902   284570 
  284747   284902   284949   285099   285385   285928   286735   287316 
  287263   286750   286390   286699   287361   287587   287293   286950 
  286746   286752   287099   287614   288073   288581   289175   289611 
  289822   289981   290078   290112   290368   290862   291134   290817 
  290039   289122   288094   287092   286744   287180   287612   287528 
  287297   287401   287840   288323   288620   288850   289306   290015 
  290884   291879   292809   293390   293413   292905   292017   290785 
  289386   288241   287554   287134   286756   286410   286240   286375 
  286879   287703   288557   289120   289475   289836   290132   290229 
  290142   289917   289660   289510   289444   289269   288917   288492 
  288088   287799   287757   288021   288381   288461   288176   287875 
  287851   288103   288522   288995   289529   290160   290819   291514 
  292327   293206   294124   295042   295825   296474   297122   297808 
  298489   299258   300262   301334   302155   302664   302948   302967 
  302691   302350   302292   302638   303242   303944   304670   305399 
  306207   307122   307945   308315   308007   307281   306683   306350 
  305938   305336   304931   305021   305337   305499   305540   305498 
  305046   303980   302502   300915   299473   298301   297411   296833 
  296557   296581   297022   297792   298549   299187   299744   300057 
  299990   299560   298703   297382   295874   294529   293418   292339 
  291064   289688   288580   287952   287810   287991   288308   288891 
  289896   290983   291662   292040   292547   293016   293029   292810 
  292852   293144   293284   293134   292916   292648   292208   291856 
  292011   292701   293593   294347   294771   294831   294734   294772 
  294925   294954   294833   294664   294475   294248   294013   293750 
  293368   292900   292403   291882   291601   291820   292324   292796 
  293184   293615   294310   295350   296364   296954   297307   297691 
  297792   297257   296285   295222   294075   292794   291458   290044 
  288593   287294   286379   286159   286703   287636   288632   289622 
  290551   291339   292019   292686   293290   293553   293193   292327 
  291462   290991   290887   290910   291011   291359   292011   292829 
  293781   294965   296299   297427   298048   298225   298239   298227 
  298096   297665   296940   296217   295737   295332   294671   293750 
  292970   292790   293286   294104   295050   296172   297176   297618 
  297529   297245   296889   296395   295876   295424   294908   294287 
  293541   292678   292038   291829   291951   292443   293303   294247 
  295123   296121   297463   299092   300744   302192   303264   303770 
  303558   302710   301402   299683   297724   295828   294044   292422 
  291381   291228   291664   292171   292634   293317   294401   295748 
  297031   297935   298260   298084   297654   296975   296017   295097 
  294511   294162   293828   293526   293525   293923   294462   295038 
  295830   296731   297197   296763   295466   293912   292740   291986 
  291354   290752   290236   289845   289492   289099   288955   289394 
  290224   291132   292099   293013   293764   294564   295412   295964 
  296268   296661   297152   297517   297735   297969   298135   297943 
  297464   297137   297074   296893   296352   295629   295085   295030 
  295366   295662   295701   295461   294962   294412   293895   293268 
  292434   291444   290397   289386   288727   288767   289298   289842 
  290314   290866   291429   291838   292126   292362   292419   292235 
  291987   291860   291894   291995   291964   291689   291311   290999 
  290835   290904   291235   291767   292508   293631   295100   296453 
  297415   298117   298529   298468   297999   297282   296354   295240 
  294146   293515   293714   294563   295510   296354   297324   298540 
  299878   301041   301664   301625   301082   300233   299404   299011 
  298999   298938   298798   298692   298405   297810   296923   295698 
  294344   293229   292389   291629   291033   290872   291161   291780 
  292671   293569   294074   294240   294417   294490   294179   293695 
  293348   293153   293009   292832   292727   292820   292960   293058 
  293368   294044   294911   295820   296603   296893   296671   296535 
  296951   297743   298513   299039   299317   299577   300011   300427 
  300543   300450   300257   299664   298576   297552   297051   296937 
  296784   296293   295744   295739   296246   296694   296894   297031 
  297087   296991   296878   296716   296235   295351   294398   293884 
  293835   293819   293673   293534   293384   293137   292850   292609 
  292504   292636   292941   293295   293591   293629   293396   292985 
  292203   290918   289368   287973   287011   286452   286233   286510 
  287435   288755   289912   290723   291489   292424   293467   294385 
  295085   295689   296154   296357   296354   296233   296045   295833 
  295627   295494   295366   295077   294803   294862   295127   295290 
  295492   295965   296518   296928   297268   297533   297507   297120 
  296603   296354   296559   296892   296905   296572   296146   295793 
  295471   295101   294764   294540   294287   293939   293743   293877 
  294223   294602   294872   294910   294663   294148   293523   293039 
  292779   292751   293045   293641   294329   294895   295320   295756 
  296171   296275   295956   295447   294964   294475   293853   293106 
