Origin Time       2025/01/13 21:19:00
Lat.              31.8
Long.             131.6
Depth. (km)       30
Mag.              6.9
Station Code      MYZH04
Station Lat.      32.5181
Station Long.     131.3349
Station Height(m) 150
Record Time       2025/01/13 21:19:46
Sampling Freq(Hz) 100Hz
Duration Time(s)  175
Dir.              1
Scale Factor      3923(gal)/8224838
Max. Acc. (gal)   7.802
Last Correction   2025/01/13 21:19:47
Memo.             
[...]
  -69415   -69832   -69936   -69596   -69047   -68647   -68462   -68450 
  -68756   -69126   -68986   -68434   -67873   -67296   -66819   -66622 
  -66409   -66005   -65624   -65291   -64937   -64605   -64316   -64246 
  -64543   -64974   -65344   -65677   -65817   -65674   -65597   -65761 
  -65884   -65877   -65939   -66025   -66021   -66147   -66474   -66667 
  -66617   -66587   -66748   -67069   -67459   -67900   -68323   -68364 
  -67930   -67644   -67810   -67898   -67562   -67053   -66684   -66565 
  -66502   -66347   -66316   -66326   -66015   -65767   -66201   -66961 
  -67336   -67224   -66965   -66946   -67170   -67254   -67201   -67293 
  -67257   -66784   -66287   -66232   -66453   -66634   -66754   -66914 
  -67097   -67201   -67189   -67184   -67362   -67680   -67917   -67992 
  -67917   -67765   -67883   -68323   -68477   -68165   -67944   -67898 
  -67689   -67463   -67397   -67274   -67066   -66873   -66633   -66429 
  -66352   -66172   -65813   -65524   -65318   -65078   -65152   -65801 
  -66476   -66715   -66845   -67147   -67473   -67799   -68212   -68596 
  -68786   -68747   -68604   -68461   -68170   -67783   -67574   -67255 
  -66429   -65534   -65020   -64744   -64717   -64979   -65256   -65576 
  -66140   -66752   -67261   -67664   -67672   -67351   -67371   -67689 
  -67454   -66533   -65520   -64719   -64303   -64416   -64736   -65005 
  -65304   -65364   -65032   -64920   -65298   -65707   -66004   -66298 
  -66557   -66955   -67598   -68162   -68361   -68278   -68100   -67936 
  -67973   -68305   -68693   -68967   -69102   -69068   -69021   -68874 
  -68288   -67690   -67585   -67435   -67078   -67208   -67593   -67585 
  -67597   -67861   -67942   -68137   -68689   -68725   -68044   -67632 
  -67676   -67563   -67200   -66565   -65612   -64794   -64247   -63668 
  -63246   -63186   -63308   -63643   -64095   -64291   -64474   -65001 
  -65591   -66236   -67184   -67933   -68052   -67883   -67482   -66877 
  -66761   -66968   -66587   -66025   -65900   -65572   -64964   -64697 
  -64347   -63752   -63759   -64189   -64380   -64848   -65785   -66359 
  -66280   -65861   -65546   -65912   -66573   -66405   -65438   -64477 
  -63678   -63174   -63340   -63913   -64303   -64322   -64284   -64899 
  -66218   -67143   -67194   -67101   -67065   -66784   -66633   -66777 
  -66685   -66407   -66594   -67259   -67825   -68096   -68345   -68455 
  -68114   -67822   -68052   -68023   -67219   -66440   -66005   -65415 
  -64901   -64755   -64370   -63563   -62877   -62490   -62491   -62993 
  -63332   -62972   -62513   -62415   -62496   -62954   -63894   -64778 
  -65561   -66710   -68095   -69358   -70592   -71753   -72125   -71082 
  -69282   -68237   -68146   -67674   -66571   -65936   -65782   -65583 
  -65851   -66582   -66897   -67020   -67662   -68530   -69186   -69527 
  -69547   -69903   -71034   -71780   -71292   -70557   -70137   -69580 
  -69466   -70279   -70691   -69920   -68835   -67490   -65473   -63907 
  -63464   -62949   -62056   -61882   -62388   -62737   -63120   -64058 
  -65205   -65952   -66316   -66595   -66744   -66675   -66690   -66815 
  -66406   -65388   -64805   -65045   -65290   -65425   -66079   -66908 
  -67412   -68069   -68821   -68993   -69048   -69526   -69685   -69344 
  -69246   -69229   -69103   -69496   -69963   -69554   -68980   -68993 
  -68843   -68183   -67482   -66606   -65349   -64138   -63178   -62448 
  -62268   -62573   -62430   -61585   -61435   -62988   -65051   -66121 
  -66507   -67123   -67813   -67976   -67703   -67397   -66880   -65917 
  -65151   -65194   -65520   -65562   -65577   -65665   -65618   -65712 
  -66164   -66599   -66745   -66717   -66704   -66818   -66725   -66056 
  -65229   -64446   -63053   -61346   -60548   -60556   -60554   -60806 
  -61747   -63004   -64287   -65902   -67886   -69479   -70259   -70798 
  -71293   -71099   -70258   -69477   -68601   -67174   -65740   -64818 
  -64056   -63244   -62588   -62203   -62289   -62977   -64131   -65529 
  -66681   -67254   -67770   -68679   -69527   -69948   -70129   -70195 
  -70171   -69838   -68806   -67587   -67127   -67086   -66637   -66051 
  -65854   -65965   -66258   -66571   -66924   -68013   -70047   -72157 
  -73913   -75548   -76798   -77426   -77738   -77476   -76293   -74941 
  -73789   -72095   -70036   -68544   -67331   -65865   -64714   -64179 
  -63668   -62916   -62361   -62432   -62910   -63254   -63659   -64578 
  -65346   -65263   -65059   -65573   -66482   -67149   -67367   -67317 
  -67309   -67269   -66776   -65778   -64627   -63590   -62745   -61990 
  -61361   -61323   -62098   -63143   -63801   -63842   -63397   -62851 
  -62494   -62078   -61547   -61408   -61511   -61256   -61187   -61963 
  -62702   -62664   -62718   -63632   -65192   -67282   -69796   -72099 
  -73884   -75537   -77010   -77701   -77820   -78128   -78376   -77872 
  -76770   -75438   -74019   -72940   -72242   -71321   -70214   -69449 
  -68847   -68246   -68108   -68403   -68611   -68802   -69148   -69314 
  -69230   -69125   -68762   -67927   -67003   -66133   -64964   -63618 
  -62822   -62928   -63590   -64327   -64905   -65281   -65627   -66171 
  -66954   -68041   -69425   -70455   -70441   -69861   -69593   -69377 
  -68647   -67725   -66804   -65489   -63791   -62102   -60728   -60081 
  -60485   -61751   -63231   -64465   -65772   -67332   -68396   -68693 
  -69007   -69466   -69592   -69541   -69025   -67221   -64955   -63765 
  -63385   -63024   -62937   -63148   -63410   -64145   -65303   -65885 
  -65664   -65480   -65655   -65718   -65398   -64692   -63612   -62536 
  -61970   -61931   -62378   -63598   -65423   -67054   -68088   -68844 
  -69600   -70248   -70652   -70868   -71035   -71254   -71485   -71605 
  -71594   -71652   -71826   -71502   -70050   -67995   -66137   -64085 
  -61460   -59042   -57503   -56748   -56609   -56887   -57342   -58014 
  -58996   -60231   -61734   -63409   -64760   -65331   -65412   -65746 
  -66556   -67587   -68805   -70055   -70799   -71041   -71273   -71377 
  -71028   -70337   -69151   -67279   -65477   -64431   -63705   -63030 
  -62996   -63771   -65041   -66738   -68442   -69561   -70282   -70843 
  -70769   -69726   -68052   -66170   -64307   -62640   -61271   -60396 
  -60161   -60227   -60426   -61141   -62143   -62469   -62117   -62093 
  -62704   -63408   -63998   -64723   -65669   -66746   -67871   -68874 
  -69477   -69637   -69558   -69203   -68393   -67464   -67135   -67470 
  -67753   -67749   -68027   -68825   -69647   -70019   -69944   -69709 
  -69498   -69169   -68567   -68023   -67892   -67660   -66722   -65676 
  -65248   -64990   -64656   -64924   -65773   -66537   -67197   -67753 
  -67971   -68203   -68476   -68152   -67647   -67894   -68526   -68972 
  -69296   -69141   -68376   -67481   -66163   -64269   -63128   -63340 
  -63805   -64287   -65758   -68150   -70505   -72400   -73782   -74760 
  -75595   -76022   -75643   -74861   -74227   -73774   -73295   -72378 
  -70969   -69900   -69453   -68654   -67250   -66159   -65516   -64665 
  -63551   -62544   -61825   -61303   -60561   -59578   -59146   -59687 
  -60664   -61597   -62660   -64162   -66032   -67971   -69790   -71312 
  -72243   -72430   -72022   -71297   -70422   -69503   -68778   -68431 
  -68404   -68679   -69225   -69651   -69715   -69731   -69836   -69682 
  -69078   -68103   -66852   -65526   -64309   -63252   -62523   -62225 
  -62113   -62046   -62093   -62085   -61836   -61662   -61993   -62615 
  -62887   -62700   -62671   -63146   -63703   -63921   -63805   -63373 
  -62818   -62517   -62330   -62021   -62079   -62883   -64023   -65304 
  -66947   -68732   -70177   -71113   -71454   -71157   -70614   -70374 
  -70474   -70549   -70368   -69857   -69155   -68737   -68725   -68643 
  -68304   -67905   -67309   -66406   -65654   -65280   -64828   -64133 
  -63597   -63378   -63266   -63208   -63389   -63956   -64694   -65095 
  -64982   -64743   -64835   -65264   -65600   -65577   -65500   -65781 
  -66370   -66969   -67375   -67440   -67182   -66820   -66472   -66197 
  -66237   -66561   -66563   -65970   -65539   -65944   -66744   -67486 
  -68422   -69411   -70108   -70640   -70830   -70524   -70326   -70596 
  -71019   -71523   -72296   -73237   -74092   -74749   -75236   -75590 
  -75737   -75697   -75645   -75448   -74815   -73990   -73302   -72562 
  -71779   -71132   -70071   -68345   -66864   -66059   -65473   -65134 
  -65195   -65287   -65311   -65367   -65105   -64349   -63450   -62498 
  -61399   -60525   -60149   -59976   -59875   -60029   -60451   -61138 
  -62082   -62995   -63664   -64188   -64624   -64793   -64559   -64089 
  -63548   -62961   -62448   -62112   -61936   -62012   -62425   -63015 
  -63558   -64093   -64773   -65419   -65759   -66029   -66528   -66914 
  -66938   -67061   -67517   -67886   -68102   -68688   -69670   -70590 
  -71513   -72661   -73639   -74240   -74777   -75136   -74779   -73678 
  -72253   -70812   -69595   -68767   -68216   -67648   -66915   -66278 
  -66159   -66526   -67038   -67662   -68332   -68536   -68050   -67240 
  -66409   -65612   -64916   -64422   -64172   -63983   -63634   -63277 
  -63248   -63580   -63988   -64204   -64184   -64145   -64362   -64813 
  -65229   -65495   -65681   -65773   -65686   -65352   -64643   -63664 
  -62881   -62440   -62179   -62340   -63107   -64042   -64822   -65565 
  -66334   -67147   -68081   -68948   -69282   -68943   -68351   -67903 
  -67691   -67774   -67922   -67589   -66806   -66276   -66306   -66571 
  -66776   -66841   -66880   -67266   -68161   -69060   -69427   -69542 
  -69994   -70553   -70555   -70123   -69735   -69284   -68727   -68446 
  -68389   -68075   -67408   -66621   -65772   -64794   -63749   -62775 
  -61928   -61225   -60717   -60498   -60654   -61136   -61794   -62519 
  -63333   -64512   -66090   -67444   -68231   -68966   -69861   -70355 
  -70181   -69653   -68959   -68214   -67671   -67348   -67194   -67447 
  -68084   -68717   -69380   -70420   -71653   -72634   -73290   -73596 
  -73422   -72863   -72017   -70856   -69685   -68953   -68520   -67873 
  -67046   -66553   -66460   -66337   -66056   -65850   -65728   -65638 
  -65819   -66243   -66433   -66334   -66285   -66085   -65272   -64226 
  -63761   -63838   -63799   -63551   -63528   -63940   -64659   -65337 
  -65614   -65647   -65896   -66252   -66456   -66912   -67702   -68064 
  -67873   -67613   -67246   -66864   -66941   -67240   -67220   -67100 
  -67205   -67321   -67402   -67601   -67653   -67286   -66501   -65236 
  -63749   -62762   -62473   -62419   -62538   -63055   -63637   -64018 
  -64754   -66181   -67745   -69126   -70507   -71682   -72423   -72971 
  -73299   -73210   -72998   -72808   -72295   -71520   -70906   -70370 
  -69541   -68300   -66723   -65059   -63636   -62445   -61385   -60740 
  -60759   -61330   -62298   -63455   -64624   -65901   -67096   -67765 
  -68077   -68415   -68590   -68453   -68287   -68219   -68170   -68199 
  -68293   -68359   -68418   -68426   -68283   -67922   -67225   -66243 
  -65252   -64388   -63682   -63144   -62560   -61778   -60968   -60299 
  -59913   -59929   -60189   -60571   -61218   -62094   -62919   -63620 
  -64235   -64658   -64920   -65211   -65589   -66078   -66729   -67360 
  -67757   -68139   -68740   -69179   -69223   -69345   -69611   -69431 
  -68932   -68817   -68935   -68731   -68391   -68115   -67540   -66640 
  -65722   -64625   -63269   -62195   -61797   -61850   -62081   -62492 
  -63088   -63610   -63830   -63925   -64164   -64520   -64983   -65572 
  -65998   -66248   -66784   -67540   -68048   -68559   -69430   -70183 
  -70542   -70997   -71833   -72941   -74362   -75986   -77396   -78344 
  -78771   -78684   -78313   -78003   -77899   -77877   -77762   -77491 
  -77064   -76437   -75574   -74574   -73604   -72689   -71668   -70386 
  -68885   -67490   -66501   -65793   -65013   -64035   -63013   -62117 
  -61477   -61236   -61462   -62008   -62621   -63177   -63768   -64561 
  -65527   -66414   -67041   -67405   -67516   -67431   -67317   -67188 
  -66950   -66700   -66448   -65986   -65377   -64975   -65033   -65596 
  -66546   -67729   -68970   -69990   -70551   -70548   -69927   -68692 
  -66942   -64836   -62580   -60293   -57978   -55809   -54136   -53049 
  -52427   -52319   -52836   -53875   -55248   -56868   -58653   -60496 
  -62266   -63761   -64878   -65614   -65792   -65385   -64748   -64081 
  -63394   -62961   -63101   -63752   -64801   -66390   -68299   -69993 
  -71506   -73001   -74181   -74922   -75238   -74903   -74055   -73213 
  -72490   -71703   -70804   -69738   -68720   -68243   -68130   -67748 
  -67111   -66503   -65746   -64759   -63900   -63386   -63096   -62904 
  -62770   -62702   -62873   -63526   -64650   -65950   -67244   -68565 
  -69898   -71262   -72779   -74293   -75481   -76470   -77338   -77733 
  -77697   -77576   -77251   -76574   -75694   -74646   -73430   -72252 
  -71177   -69873   -68208   -66537   -65117   -63954   -63209   -63062 
  -63462   -64318   -65443   -66379   -66811   -66972   -67208   -67431 
  -67420   -67289   -67216   -67119   -66943   -66835   -66833   -66729 
  -66270   -65322   -64072   -63088   -62764   -62842   -62993   -63288 
  -63715   -64172   -64687   -65165   -65439   -65584   -65804   -66213 
  -66850   -67733   -68733   -69624   -70298   -70704   -70788   -70629 
  -70326   -69811   -69029   -68092   -67095   -66060   -65134   -64520 
  -64181   -63890   -63556   -63215   -62770   -62019   -61007   -59883 
  -58479   -56782   -55120   -53593   -52207   -51142   -50514   -50427 
  -51012   -52253   -53997   -56012   -58108   -60231   -62283   -64037 
  -65518   -66895   -68029   -68805   -69484   -70212   -70870   -71559 
  -72519   -73602   -74513   -75479   -76885   -78456   -79502   -79644 
  -78964   -77735   -76162   -74364   -72603   -71100   -69827   -68913 
  -68584   -68778   -69472   -70727   -72265   -73629   -74584   -75053 
  -75012   -74619   -73974   -72943   -71616   -70464   -69772   -69454 
  -69422   -69681   -70233   -71049   -71869   -72229   -71957   -71246 
  -70133   -68573   -66733   -64789   -62826   -60986   -59491   -58588 
  -58365   -58650   -59154   -59629   -59992   -60274   -60478   -60617 
  -60771   -60955   -61096   -61303   -61696   -62031   -62013   -61734 
  -61303   -60656   -59900   -59254   -58741   -58442   -58650   -59417 
  -60567   -62187   -64338   -66633   -68778   -70802   -72472   -73476 
  -73978   -74143   -73862   -73307   -72836   -72361   -71674   -70999 
  -70540   -70135   -69769   -69608   -69479   -68918   -67757   -66387 
  -65124   -63864   -62804   -62174   -61592   -61034   -61040   -61588 
  -62311   -63182   -64100   -64724   -65025   -65272   -65434   -65348 
  -65267   -65426   -65626   -65778   -66059   -66359   -66298   -65794 
  -65146   -64535   -63886   -63512   -63864   -64459   -64913   -65838 
  -67143   -68160   -69169   -70337   -70965   -70897   -70698   -70394 
  -69780   -69303   -69188   -68966   -68608   -68512   -68528   -68423 
  -68476   -68773   -68995   -69071   -69097   -69028   -68945   -69021 
  -69160   -69206   -69103   -68746   -68170   -67655   -67201   -66487 
  -65475   -64420   -63532   -63011   -62945   -63208   -63834   -64957 
  -66464   -68243   -70174   -71919   -73267   -74163   -74511   -74359 
  -73915   -73272   -72373   -71263   -70170   -69277   -68670   -68493 
  -68881   -69782   -70962   -72156   -73232   -74260   -75319   -76162 
  -76385   -76029   -75419   -74402   -72767   -71000   -69403   -67798 
  -66515   -65715   -64867   -64062   -63734   -63605   -63401   -63223 
  -62931   -62364   -61723   -61071   -60157   -59013   -57975   -57063 
  -56053   -55023   -54174   -53446   -52693   -51996   -51595   -51553 
  -51634   -51607   -51521   -51669   -52246   -53142   -54211   -55458 
  -56878   -58421   -60137   -62090   -64230   -66495   -68782   -70834 
  -72459   -73737   -74794   -75571   -75980   -76122   -76204   -76362 
  -76663   -77155   -77745   -78263   -78696   -79076   -79189   -78794 
  -78090   -77530   -77168   -76704   -76000   -75166   -74324   -73499 
  -72723   -72060   -71536   -71174   -70891   -70459   -69847   -69203 
  -68575   -68013   -67664   -67560   -67560   -67525   -67396   -67250 
  -67177   -66982   -66421   -65643   -64783   -63672   -62430   -61422 
  -60644   -59979   -59630   -59784   -60228   -60642   -61040   -61595 
  -62326   -63207   -64214   -65144   -65811   -66368   -66918   -67212 
  -67147   -66996   -66919   -66780   -66540   -66372   -66383   -66582 
  -67003   -67675   -68557   -69450   -70108   -70582   -71091   -71524 
  -71674   -71618   -71436   -71092   -70784   -70698   -70598   -70316 
  -70047   -69738   -69064   -68114   -67184   -66148   -64814   -63437 
  -62283   -61287   -60520   -60181   -60050   -59833   -59663   -59657 
  -59757   -60012   -60342   -60513   -60502   -60420   -60291   -60123 
  -59988   -59863   -59648   -59421   -59382   -59564   -59926   -60517 
  -61319   -62152   -62897   -63590   -64311   -65146   -66139   -67130 
  -67806   -68026   -67945   -67656   -67134   -66586   -66167   -65712 
  -65298   -65236   -65550   -66127   -66928   -67886   -68905   -69881 
  -70648   -71097   -71281   -71309   -71300   -71356   -71486   -71667 
  -71923   -72121   -72019   -71736   -71604   -71641   -71682   -71770 
  -71984   -72235   -72454   -72619   -72689   -72763   -72921   -73018 
  -73026   -73159   -73406   -73569   -73587   -73462   -73179   -72732 
  -72100   -71284   -70321   -69214   -67896   -66347   -64774   -63521 
  -62737   -62378   -62437   -62854   -63447   -64099   -64740   -65267 
  -65638   -65805   -65653   -65207   -64593   -63846   -63051   -62364 
  -61713   -61080   -60832   -60963   -61005   -61037   -61303   -61561 
  -61763   -62031   -62128   -62060   -62176   -62359   -62353   -62406 
  -62695   -63019   -63374   -63846   -64238   -64511   -64878   -65290 
  -65581   -65758   -65712   -65360   -64962   -64698   -64450   -64222 
  -64108   -64023   -64007   -64233   -64611   -65055   -65746   -66587 
  -67235   -67784   -68523   -69371   -70191   -71097   -72076   -72910 
  -73546   -74070   -74475   -74761   -74989   -75147   -75162   -75023 
  -74777   -74437   -73967   -73377   -72686   -71899   -71085   -70335 
  -69680   -69103   -68561   -68002   -67504   -67212   -67070   -66850 
  -66521   -66194   -65835   -65400   -64959   -64505   -64026   -63636 
  -63352   -63096   -62970   -63072   -63289   -63528   -63742   -63892 
  -64021   -64091   -63914   -63490   -63038   -62723   -62687   -63051 
  -63726   -64536   -65402   -66275   -67128   -68048   -69130   -70297 
  -71415   -72463   -73377   -74073   -74621   -75000   -74977   -74464 
  -73615   -72538   -71277   -69928   -68543   -67185   -66132   -65592 
  -65429   -65477   -65691   -65875   -65859   -65807   -65851   -65830 
  -65631   -65340   -64960   -64463   -63931   -63467   -63111   -62856 
  -62623   -62314   -61960   -61711   -61636   -61720   -61928   -62209 
  -62541   -62995   -63612   -64291   -64839   -65173   -65323   -65318 
  -65198   -65034   -64949   -65110   -65470   -65809   -66145   -66696 
  -67471   -68312   -69147   -69861   -70260   -70371   -70375   -70240 
  -69838   -69213   -68492   -67772   -67158   -66687   -66309   -66033 
  -65935   -66056   -66330   -66627   -66942   -67374   -67957   -68652 
