Origin Time       2025/01/13 21:19:00
Lat.              31.8
Long.             131.6
Depth. (km)       30
Mag.              6.9
Station Code      MYZH04
Station Lat.      32.5181
Station Long.     131.3349
Station Height(m) 250
Record Time       2025/01/13 21:19:46
Sampling Freq(Hz) 100Hz
Duration Time(s)  175
Dir.              5
Scale Factor      7845(gal)/8223790
Max. Acc. (gal)   31.655
Last Correction   2025/01/13 21:19:47
Memo.             
[...]
   -3244    -2492    -1104     -310     -810    -2153    -3237    -3372 
   -2712    -1822    -1395    -1441     -922      627     2269     2862 
    2111      579    -1151    -2691    -3380    -2891    -1891    -1161 
    -918    -1339    -2567    -4056    -4909    -4738    -3613    -1823 
    -106      546     -508    -3038    -5845    -7327    -6396    -3354 
      16     1822     1536     -275    -2810    -5105    -6349    -6466 
   -6061    -5798    -5698    -5248    -3996    -1980      216     2041 
    3223     3582     3225     2654     2446     2663     2708     2131 
    1075     -270    -1765    -3127    -4191    -5094    -6052    -6870 
   -6922    -5826    -3727    -1090     1350     2821     2956     1991 
     342    -1522    -2821    -2875    -1482     1063     3461     4060 
    2434     -993    -5622   -10041   -12371   -11823    -9440    -7042 
   -5572    -4874    -4480    -3906    -2520     -221     1807     2454 
    2157     1960     2278     3001     3753     4067     3484     1749 
    -567    -2376    -3235    -3603    -4040    -4573    -4889    -4916 
   -4656    -3959    -3161    -2608    -1633      118     1559     1792 
    1182      409      -72      207     1364     2616     2840     1570 
    -688    -3069    -5147    -6656    -7113    -6610    -5913    -5327 
   -4669    -3987    -3511    -3368    -3298    -2837    -2394    -2847 
   -3761    -3960    -3357    -2277     -437     1752     3060     3188 
    2272     -189    -3842    -7169    -9355    -9963    -8160    -4446 
   -1043      379     -139    -1485    -2139     -969     1903     5319 
    7943     9054     8927     8029     6274     3508     -186    -4699 
   -9543   -13379   -14688   -13000    -9418    -5891    -3385    -1444 
     276     1688     2851     3700     3962     3454     2262      677 
    -855    -1644    -1478    -1011     -932    -1622    -2998    -4189 
   -4521    -4495    -4579    -4430    -3998    -3176    -1108     2330 
    5721     7101     5294      932    -4251    -8739   -11099   -10620 
   -8179    -4712     -691     2812     4826     5287     4522     2625 
    -305    -3195    -4888    -5474    -5117    -3564    -1004     2286 
    5845     8214     8016     5474     1715    -2061    -4530    -5161 
   -4499    -3127    -1678     -630      511     2220     3626     3445 
    1707     -310    -1711    -2631    -3385    -3979    -4287    -3946 
   -2253      788     3586     4271     2316    -1417    -5192    -7327 
   -7234    -5385    -2991    -1495    -1822    -3769    -5838    -6671 
   -6380    -5499    -4113    -2602    -1534     -773      159     1092 
    1610     1977     2045      911     -900    -2046    -2660    -3069 
   -2949    -2901    -3357    -3415    -2825    -2405    -2812    -4342 
   -6594    -8600    -9310    -7734    -3962      430     3708     4818 
    3584      765    -2812    -6728   -10284   -12528   -13181   -12237 
   -9360    -5595    -3372    -3376    -4482    -6066    -7346    -6490 
   -2929     1543     5329     8307     9976     9107     5807     1741 
   -1674    -3588    -3927    -4739    -7717   -11279   -13643   -14404 
  -12742    -8932    -4957    -1880      125      272    -1285    -2245 
   -1031     1047     1988     1437      222     -754     -157     3180 
    7750    10342     9720     6481     1584    -3445    -7511   -10966 
  -14493   -17886   -20299   -20383   -16193    -7407     3022    11387 
   15761    15661    11896     6934     3585     2517     2114     1476 
     733     -926    -3557    -5634    -6546    -6898    -6729    -4914 
   -1247     1923     2593     1564      245    -1186    -2550    -3196 
   -3160    -3034    -3346    -4565    -6274    -6997    -5502    -1710 
    3168     7998    12877    17356    19984    20297    18473    14806 
   10350     5821     1417    -2290    -5235    -7987   -10385   -11585 
  -11010    -8537    -5055    -2625    -2998    -6492   -11731   -16456 
  -19521   -20826   -19894   -16587   -11743    -6284     -934     3373 
    5702     6062     5867     6878     9616    13197    16429    18019 
   16827    13074     7815     1949    -3285    -7522   -11666   -15595 
  -19018   -22688   -25957   -27056   -25774   -22902   -18646   -13185 
   -7354    -2138     1858     4887     8068    12131    16411    19738 
   21226    19859    15219     8518     1143    -6133   -12387   -17467 
  -22029   -25764   -27641   -27260   -24615   -19417   -11686    -2691 
    5665    11859    14890    14655    12174     9111     6932     6459 
    8472    12525    15734    15955    13489     8815     2035    -6355 
  -14685   -20372   -22194   -20906   -18239   -16025   -14567   -12375 
   -8059    -2107     2999     5459     5751     3923    -1061    -8291 
  -15118   -19595   -20965   -19395   -15576   -10554    -5788    -2396 
    -751     -862    -2231    -3828    -4407    -2890      857     5814 
   10782    15121    18006    18063    15500    12735    10415     6559 
    1224    -3202    -5829    -7288    -8295    -9462   -10485   -10948 
  -11367   -11099    -8476    -3658     1622     5304     5652     3032 
    -429    -3458    -5676    -5946    -3639      -68     3171     5697 
    8334    11651    14372    14918    13142     9309     3161    -5270 
  -14544   -22203   -26703   -28786   -29407   -27211   -21177   -13296 
   -6079     -357     4054     7381     9308     9653     9207     8613 
    7962     8197    10111    12225    12299     9896     5682     -125 
   -7102   -13945   -19583   -23897   -26470   -25829   -21011   -12584 
   -1830     8986    16106    17520    14995    10781     6204     2602 
     232    -1362    -2029    -2224    -3585    -6481    -8757    -8818 
   -8028    -8287    -9634   -11453   -13643   -15847   -17069   -16048 
  -11892    -5767    -1317    -1134    -3782    -6219    -6670    -3878 
    2432    10049    16062    18856    18134    15242    12519    10953 
    9934     8827     6967     3264    -2882   -10616   -17811   -22420 
  -23153   -19542   -12931    -6041     -506     3084     4028     3067 
    2810     4877     8062     9734     8762     6567     5004     4361 
    4199     4449     4919     4477     1622    -3283    -8017   -11047 
  -11797    -9904    -5543      475     6484    10307    10625     7705 
    2933    -2243    -7020   -11117   -14733   -18558   -22484   -24615 
  -22770   -16229    -6501     3654    12529    18307    19300    17905 
   17574    18231    18414    16788    12676     6598     -816    -8380 
  -13888   -16048   -15518   -13636   -11391    -9535    -8249    -7258 
   -6440    -5368    -3136      371     3568     5092     5724     6444 
    6546     5177     2739     -255    -4171    -8891   -12711   -13632 
  -10928    -5456      827     5913     8386     7385     3375    -1649 
   -6146    -9521   -11229   -11098    -9067    -5590    -2297      338 
    3318     5665     4723     -291    -7742   -14931   -19678   -21922 
  -22090   -18966   -11599     -958    10442    18806    21331    18933 
   14249     8694     3213    -1593    -5985    -9661   -12280   -14023 
  -14133   -11978    -8648    -5798    -4071    -2965    -1761      -64 
    2123     4206     5090     4359     3148     2485     1895      935 
      86     -252     -251     -434    -1213    -2930    -6210   -10710 
  -15078   -18671   -21092   -21367   -18729   -13595    -7622    -2085 
    2400     5030     5601     5003     4712     5965     8662    11950 
   15373    18184    19099    17649    14407     9806     3743    -3522 
  -10998   -17849   -23561   -27328   -27932   -24518   -17108    -6232 
    6215    16788    23307    25882    25282    22133    16748     9521 
    1584    -5163    -9504   -11884   -12117    -8785    -2300     4386 
    7759     5879     -352    -8109   -14786   -18848   -19657   -17540 
  -13193    -7439    -1557     3844     9059    13965    17590    18489 
   16051    10974     4077    -3304    -8827   -11267   -11215    -9409 
   -6597    -3838    -2003    -1759    -2999    -4496    -4978    -4121 
   -2444     -608      518       -2    -1707    -2779    -2187     -452 
    1489     2501      963    -3422    -8748   -12920   -14875   -14638 
  -13176   -11191    -8692    -5952    -3300     -402     2736     4845 
    5105     4715     4488     3160      546    -1503    -2053    -1198 
    1092     4232     6912     8097     7429     5100     1935    -1005 
   -3538    -6467   -10324   -14615   -18459   -21293   -22635   -21906 
  -19252   -15877   -12896   -10465    -7955    -4452      130     4631 
    7816     9107     8391     6056     3009      128    -2149    -3370 
   -3381    -2972    -2736    -2355    -1647    -1059     -764       90 
    1987     4168     6284     8478    10164    10827    10741    10277 
    9433     7950     5509     2004    -1876    -4707    -5773    -5775 
   -5757    -6322    -7414    -8216    -8243    -8004    -7697    -6767 
   -5082    -3300    -2245    -2281    -3186    -4723    -6729    -8660 
   -9992   -10562   -10162    -8787    -7094    -6065    -6473    -8270 
  -10424   -12094   -13320   -13903   -12735    -8864    -2454     5568 
   13965    20960    25101    26624    26271    23527    17651     9344 
     156    -8968   -17370   -23541   -25974   -24637   -20591   -14797 
   -7511      687     8117    13520    15977    14798    11685     8554 
    4826        9    -4828    -8391   -10546   -11948   -12522   -12175 
  -10964    -8194    -3937      367     3456     5225     6558     8159 
    9810    10933    11518    11664    10363     6721     1983    -1792 
   -4027    -5336    -6160    -6120    -4700    -2366       33     1949 
    2870     3362     4530     5593     4947     2592     -565    -3991 
   -7074    -8683    -8141    -5664    -1645     2992     6764     8891 
    9216     7732     4826      805    -4149    -9481   -14235   -17107 
  -17270   -15502   -13158   -10608    -7614    -4120     -371     3117 
    5598     6091     4191     1085    -1694    -4000    -5917    -6787 
   -6778    -6978    -7707    -8648    -9653   -10314   -10207   -10006 
  -10439   -10972   -10872    -9836    -7570    -3867      931     5401 
    8016     8495     7418     5668     4010     2451      812     -610 
   -1826    -3477    -5786    -7985    -9112    -8888    -7555    -5317 
   -2284     1117     4132     6488     8476    10042    10640    10045 
    8644     6471     2975    -1683    -6330    -9969   -12263   -12972 
  -11967    -9940    -8208    -7867    -9200   -11414   -13138   -13405 
  -12074    -9479    -5999    -2219     1143     4166     7603    11506 
   14577    14994    12213     7634     2983    -1016    -4041    -5811 
   -6605    -6922    -6924    -6502    -5351    -3326    -1159       72 
     278       41     -183     -193     -427    -1599    -3767    -6284 
   -8363    -9917   -11157   -11894   -12484   -13890   -16073   -17628 
  -17431   -15712   -12996    -9420    -5482    -1880     1367     4727 
    8178    10978    12514    12607    10982     7568     3408      256 
   -1043     -874      122     1478     3002     4482     5246     4847 
    3743     2943     3172     3990     4174     3094      990    -1702 
   -4457    -6554    -7653    -7992    -7501    -5819    -3366    -1094 
     553     1687     2316     2513     2909     3738     4237     3527 
     777    -4347   -10825   -17312   -22851   -25813   -24408   -18792 
  -11163    -3613     2976     7708     9887    10798    11834    12631 
   12826    11965     8991     4047    -1381    -5609    -7361    -6829 
   -5661    -5055    -4874    -4853    -5097    -5556    -6007    -6124 
   -5485    -3940    -1695     1050     3888     5833     6022     4349 
    1426    -1194    -1979    -1086       67      140    -1444    -4002 
   -6385    -8230    -9849   -11867   -14843   -18594   -22200   -24491 
  -24629   -22248   -17127    -9576     -828     7545    14292    18720 
   20709    20466    18287    14469     9486     4218     -546    -4569 
   -7740    -9849   -10727   -10442    -9336    -7746    -6174    -5306 
   -5212    -5459    -5528    -4607    -2268     1008     4440     6930 
    7284     5674     3663     2276      897    -1518    -4456    -6685 
   -8538   -10619   -12143   -12603   -12506   -12120   -11584   -10933 
   -9223    -5748    -1161     3569     7199     8332     6785     3739 
     700    -1480    -2778    -3358    -3391    -2944    -1710      816 
    4783     9413    13728    17678    21051    22558    21324    17725 
   12266     4968    -3279   -10370   -15492   -19306   -21649   -21979 
  -20448   -17763   -14789   -11221    -6301     -683     4907     9674 
   11618     9944     5501    -1256    -9626   -17302   -21411   -20636 
  -14926    -5204     4885    11896    16545    20309    22364    22689 
   23110    23692    22401    18590    13571     8298     2721    -2529 
   -6412    -9472   -12217   -13602   -13470   -12977   -12819   -13177 
  -13725   -13574   -12040    -9189    -6245    -4842    -5503    -7630 
   -9903   -11388   -12757   -14025   -13771   -12066    -9636    -6072 
   -1709     2184     5000     6481     6048     3410     -510    -4311 
   -7226    -8652    -8010    -5382    -1397     3002     6567     8019 
    6565     2528    -2647    -7597   -11870   -15340   -17575   -17644 
  -14885   -10156    -4357     2748    10592    17460    21964    23631 
   23012    20632    16120     9190      616    -8198   -15826   -20992 
  -23256   -23082   -20764   -16276   -10231    -4526    -1586    -2436 
   -6103   -10609   -14338   -17139   -19021   -18486   -14604    -8010 
     739    10577    19742    26994    31132    31329    28134    22748 
   16278    10025     5279     2382     1084     1432     3144     5170 
    6177     5274     2520    -1490    -5738    -9080   -11156   -12344 
  -13478   -15082   -16686   -17953   -18931   -19484   -19646   -19446 
  -18472   -15988   -11277    -4437     3041     9382    13845    16100 
   15606    12529     7792     1725    -5640   -12972   -18596   -21713 
  -21215   -16564    -9539    -2544     2803     5306     4727     1983 
   -1750    -5270    -7541    -7939    -6277    -3240      357     4240 
    7894    10763    12631    13713    14188    13123     9980     6104 
    3010     1055       55      419     2411     4625     5563     5225 
    4151     2999     2501     2712     3504     5062     6617     6756 
    5331     3115      548    -2312    -5513    -8884   -11782   -13656 
  -14694   -15580   -16776   -17648   -16839   -13923    -9321    -3542 
    2354     7042     9620     9751     7959     5336     2884     1279 
     639      656      781      326     -928    -2519    -4109    -5628 
   -6442    -5967    -4912    -4306    -4058    -3767    -3713    -3943 
   -3952    -3909    -4353    -5043    -5663    -6612    -8236   -10180 
  -11975   -13051   -12271    -9522    -6471    -4580    -4135    -4421 
   -4023    -2265      226     2529     3754     3225     1375     -325 
    -598      703     3025     5869     8424     9718     9487     8101 
    6057     3418       27    -3770    -7518   -10843   -13107   -14013 
  -14180   -14538   -15187   -15094   -13215    -9531    -4811       -6 
    4210     7638    10424    12911    15268    17158    17744    16244 
   12916     8430     2762    -3649    -9593   -14778   -19510   -23483 
  -26145   -26785   -24752   -20339   -14509    -8144    -2034     3098 
    6729     8492     8303     6791     4792     2339     -618    -3190 
   -4876    -6218    -7013    -6477    -4575    -1495     2214     5275 
    6569     5841     4256     3109     1900       75    -1011      114 
    2566     3769     2790     1236      183    -1012    -2619    -3913 
   -4445    -4526    -4588    -4668    -4621    -4032    -2610    -1119 
    -658    -1894    -4895    -8838   -12690   -15452   -16178   -14750 
  -11611    -7371    -2817     1354     5150     9161    12677    14602 
   16040    17498    16915    13351     8104     2197    -3913    -9533 
  -14172   -17215   -17678   -15646   -12125    -7557    -2471     1555 
    3399     3805     3939     3715     2501      515    -1267    -2304 
   -2839    -3202    -3203    -2574    -1948    -2227    -3430    -5225 
   -7296    -8966    -9572    -9097    -8181    -7265    -6174    -4815 
   -3149     -838     1983     4445     5622     5225     3978     2920 
    2447     2598     3522     4873     5782     5899     5255     3721 
    1698      195      -94      623     1328     1073     -365    -2751 
   -5432    -7518    -8538    -8677    -8301    -7485    -6184    -4509 
   -2632     -773      880     2180     2767     2315      859    -1215 
   -3376    -5476    -7674    -9732   -11273   -12217   -12494   -11905 
  -10436    -8652    -7284    -6411    -5606    -4560    -3393    -2767 
   -3021    -3497    -3747    -4383    -5679    -6836    -7148    -6505 
   -5038    -3307    -2089    -1614    -1748    -2174    -2011     -407 
    2513     5784     8185     9040     8671     7835     7240     7562 
    9008    10763    11601    11159    10023     8752     7464     6120 
    4573     2670      676     -878    -1865    -2434    -2538    -2074 
   -1483    -1485    -2161    -3099    -4093    -5066    -5879    -6608 
   -7439    -8191    -8649    -8901    -8970    -8773    -8278    -7524 
   -6805    -6534    -6852    -7418    -7630    -7354    -7009    -6801 
   -6740    -7144    -8121    -9005    -9109    -8515    -7678    -6802 
   -5740    -4198    -1917     1428     5953    11070    15670    18439 
   18327    15395    10812     5825     1053    -3246    -6937   -10089 
  -12513   -13408   -12010    -8530    -4114      287     4033     6133 
    6110     4255     1038    -2431    -5182    -7441    -9339   -10264 
   -9875    -8321    -5823    -2876       45     2959     5641     7078 
    6000     2122    -2947    -7088    -9977   -12393   -14234   -14962 
  -14463   -12910   -10947    -9162    -7329    -5009    -2334      144 
    2039     3516     5084     7141     9659    12241    14592    16465 
   17177    15988    12738     7819     2154    -3014    -6775    -8750 
   -9130    -8718    -8301    -8185    -8592    -9621   -10638   -10363 
   -7997    -4052      186     3631     5641     6218     6021     5572 
    4945     4201     3360     2165      286    -2425    -5810    -9266 
  -12056   -13802   -14432   -14116   -13073   -11288    -9211    -7688 
   -6655    -5260    -2889      473     4102     7183     9524    10909 
   10920     9709     7744     5305     2641     -124    -2917    -5381 
   -7263    -8773   -10012   -10619   -10318    -9346    -8260    -7480 
   -6974    -6465    -5532    -3703    -1032     1696     3493     3798 
    2655      496    -1973    -4054    -5197    -4989    -3705    -2370 
   -1598     -967      276     2243     4429     6481     8118     8845 
    8413     7047     5252     3549     2015      441    -1080    -2338 
   -3574    -5132    -6897    -8571    -9872   -10389    -9733    -7904 
   -5428    -2762       67     3014     5995     8816    10747    10944 
    9262     6349     3033     -310    -3478    -5956    -7357    -7668 
   -6991    -5827    -4916    -4519    -4622    -5327    -6484    -7740 
   -8920    -9906   -10868   -12186   -13533   -14195   -14058   -13370 
  -12297   -10953    -9278    -6988    -3805       76     3855     6860 
    8991    10261    10552     9868     8305     5620     1582    -3204 
   -7728   -11497   -14150   -14983   -13633   -10461    -6119    -1440 
