Origin Time       2025/01/13 21:19:00
Lat.              31.8
Long.             131.6
Depth. (km)       30
Mag.              6.9
Station Code      MYZH14
Station Lat.      31.5649
Station Long.     131.3510
Station Height(m) -196
Record Time       2025/01/13 21:19:39
Sampling Freq(Hz) 100Hz
Duration Time(s)  193
Dir.              3
Scale Factor      2940(gal)/6170270
Max. Acc. (gal)   9.151
Last Correction   2025/01/13 21:19:24
Memo.             
[...]
   45714    47465    49110    50852    52862    54713    55630    55566 
   55288    55452    55916    56086    55853    55749    56317    57545 
   58915    60012    60712    60996    61071    61223    61280    60720 
   59267    57272    55405    53958    52865    52097    51606    51214 
   50899    50917    51135    51056    50687    50237    49640    48891 
   48235    47995    48215    48669    49111    49319    49131    48368 
   47115    46082    45829    46026    46019    45487    44470    43267 
   42274    41768    42003    42994    44223    45321    46527    48124 
   50106    52135    53668    54583    55307    56330    57837    59436 
   60489    60998    61401    61612    61304    60713    60291    60213 
   60392    60596    60622    60306    59574    58495    57190    55968 
   55022    54036    52776    51474    50466    50131    50681    51857 
   53381    55048    56421    57112    56865    55601    53821    52337 
   51591    51327    50981    50317    49371    48288    47259    46208 
   44965    43586    42345    41732    42156    43681    45918    48021 
   49312    49783    49745    49541    49411    49277    48924    48350 
   48029    48496    49562    50694    51691    52546    53270    53853 
   54286    54393    53837    52827    52196    52570    53798    55118 
   55892    56143    56236    56341    56385    56275    56003    55547 
   54988    54630    54461    54115    53681    53465    53388    53283 
   53087    52821    52670    52641    52398    51631    50283    48667 
   47338    46592    46268    45838    44728    42997    41451    40876 
   41360    42534    44072    45615    46780    47424    47600    47513 
   47241    46517    45377    44558    44698    45557    46491    47465 
   48980    51210    53686    55727    57111    58176    59145    59852 
   60312    60728    61061    61235    61179    60764    60276    60171 
   60331    60473    60651    60942    61258    61349    61005    60202 
   58898    57230    55794    55010    54639    54281    53776    53095 
   52233    51221    50090    48771    47184    45503    44146    43417 
   43237    43353    43702    44310    44979    45376    45252    44658 
   44173    44486    45738    47737    50367    53306    55989    58069 
   59371    59710    59154    58149    57210    56604    56395    56601 
   57168    58089    59292    60383    60816    60324    59119    57630 
   56154    54799    53534    52263    50936    49538    48102    46921 
   46318    46235    46544    47152    47709    47855    47528    46965 
   46364    45581    44537    43472    42705    42710    43881    45813 
   47485    48214    48155    48118    48807    49943    50551    50108 
   48831    47253    46026    45780    46872    49043    51313    52834 
   53717    54536    55563    56642    57370    57473    56898    55738 
   54486    53855    53941    54039    53628    53076    52854    52763 
   52515    52178    51791    51253    50472    49273    47674    46287 
   45823    46433    47926    50005    52262    54356    55989    57089 
   58098    59251    60150    60398    59796    58555    57285    56316 
   55700    55332    54810    53965    53133    52649    52506    52575 
   52948    53683    54703    56069    57510    58194    57638    56163 
   54431    52958    51993    51744    52252    52949    53120    52731 
   52191    51580    50506    48845    47270    46342    45836    45476 
   45367    45515    45601    45427    45110    44734    44407    44341 
   44495    44700    44930    45132    45193    45339    46154    47680 
   49249    50514    51869    53734    55720    56893    56790    55760 
   54462    53368    52808    53075    54128    55519    56699    57220 
   56880    55884    54627    53387    52446    52134    52464    53092 
   53738    54213    54176    53407    52341    51745    51530    50762 
   49165    47553    46799    47066    47905    48818    49543    50062 
   50643    51416    52226    53096    54107    55089    55617    55162 
   53858    52644    52118    51940    51419    50514    50078    50803 
   52440    54384    56145    57289    57590    57099    56175    55248 
   54384    53524    52795    52372    52161    51634    50601    49637 
   48955    47931    46319    44852    44194    44128    44256    44762 
   45876    47304    48625    49574    50133    50628    51120    51064 
   50448    50003    49718    49081    48455    48655    49852    51471 
   52915    54180    55457    56654    57735    58711    59362    59518 
   59165    58285    56962    55571    54807    55325    56942    58610 
   59530    59663    59214    58332    57191    55940    54424    52486 
   50691    49871    50131    50636    50206    48640    47075    46726 
   47904    50109    52760    55456    57326    57498    56286    54600 
   52813    51039    49698    49242    49370    49214    48890    49335 
   50600    52140    53755    55567    58095    61464    64504    65956 
   65853    64668    62238    58465    54466    51932    51399    52259 
   53838    55579    56973    57594    57244    56070    54304    52349 
   50879    50347    50713    51600    52551    53237    53326    52452 
   50756    48960    47619    46782    46262    45764    45142    44533 
   44175    44564    45948    47416    47789    47050    45982    45008 
   44155    43468    42830    42159    42064    43656    47190    51073 
   53241    53194    51902    50815    51047    52649    54979    57469 
   59708    61353    62059    61434    59450    56990    55438    55412 
   56270    56977    57030    56496    55648    54673    53726    53065 
   52750    52692    52832    52809    52283    51348    50179    49042 
   48458    48696    49415    49934    49790    49305    49355    50208 
   51187    51586    51196    50313    49577    49130    48623    48496 
   49387    50705    51569    51717    51132    50304    49898    49734 
   49199    48278    47640    47832    48560    49023    48754    48035 
   47612    47674    47547    46869    45994    45186    44489    44048 
   44042    44492    45208    45970    46725    47769    49439    51314 
   52615    53262    53601    53731    53602    53380    53435    53730 
   53671    53093    52726    53262    54419    55035    54204    52385 
   50811    50134    50460    51696    53084    53567    53041    52267 
   51946    52453    53391    53690    52997    52044    51652    52175 
   53582    55535    57501    59204    60566    61357    61693    62032 
   62647    63694    64729    64688    63109    60319    57001    54057 
   51955    50502    49572    49326    49700    50297    50912    51810 
   53192    54598    55309    55206    54709    54275    54113    53827 
   52737    50957    49353    48411    47928    47539    47017    46310 
   45478    44622    44170    44875    46714    48414    48962    48664 
   48419    48955    50480    52537    54459    55726    56107    55902 
   55620    55379    54811    53433    51327    49456    48802    49340 
   50312    51096    51519    51656    51409    50693    49999    49778 
   49659    49184    48550    48195    48481    49614    51227    52581 
   53311    53510    53620    54179    55214    56251    56879    56992 
   56622    55772    54480    52798    50709    48396    46428    45344 
   45024    44752    44185    43746    43985    44983    46130    46647 
   46615    46767    47300    47900    48487    49015    49327    49483 
   49646    50171    51419    52874    53637    53808    54058    54563 
   55131    55392    54992    54021    52829    51890    51716    52294 
   53191    54220    55527    57101    58759    60521    62141    62750 
   61732    59588    57782    57490    58441    59461    60044    60544 
   60865    60483    59340    57596    55678    54214    52952    51269 
   49452    48091    47127    46131    44836    43331    42128    41782 
   42274    43049    43602    43899    44376    45437    46976    48584 
   49980    50953    51334    51454    51860    52535    53312    54319 
   55436    56395    57215    57778    57700    56956    55857    54685 
   53850    53638    53917    54520    55101    55188    54650    53255 
   50939    48474    46613    45692    45792    46380    47009    47869 
   49070    50323    51132    51236    50735    49578    47960    46702 
   46344    46720    47204    47216    46902    46751    46883    47295 
   48025    48978    50154    51524    52745    53748    54938    56297 
   57218    57287    56594    55577    54836    54663    54882    55332 
   55799    55861    55494    55088    54767    54322    53591    52639 
   51706    51036    50507    49735    48681    47624    46809    46290 
   46008    46169    47010    48326    49715    50920    52159    53833 
   55613    56769    57199    57395    57618    57631    57298    56816 
   56394    56207    56277    56243    55646    54394    52673    50730 
   48947    47695    47102    47284    48211    49364    50291    51042 
   51758    52361    52628    52469    52110    51826    51675    51594 
   51450    51111    50557    49757    48684    47559    46691    46079 
   45552    45104    44783    44738    45043    45273    45111    44803 
   44563    44472    44708    45362    46156    46548    46343    45827 
   45260    44708    44291    44264    44836    46038    47619    49090 
   50226    51227    52188    52988    53654    54224    54530    54475 
   54293    54482    55485    57260    59271    61063    62497    63373 
   63574    63539    63857    64668    65696    66561    67100    67324 
   66946    65484    62970    59982    57234    55315    54333    53901 
   53592    53281    52983    52425    51335    49983    48719    47462 
   46247    45524    45532    46083    46971    48099    49412    50742 
   51684    51873    51361    50617    50021    49551    49302    49661 
   50615    51758    52891    54045    55080    55621    55521    55055 
   54471    53695    52472    50914    49835    49904    50865    52079 
   53337    54817    56381    57524    58031    57997    57535    56779 
   55900    55105    54506    53883    52736    50795    48429    46073 
   43823    42129    41588    42112    43181    44152    44631    44903 
   45297    45633    45503    44767    43779    43029    42828    43270 
   44282    45766    47441    48958    50236    51318    52235    52876 
   52951    52381    51375    50228    49275    48722    48783    49878 
   51951    54365    56592    58297    59433    60060    60118    59948 
   60025    60415    60991    61521    61768    61736    61602    61390 
   61000    60528    60176    60054    60290    60893    61321    60800 
   59222    57006    54470    51968    49791    47951    46455    45260 
   44215    43343    42723    42218    41561    40523    39176    37813 
   36532    35424    34869    35166    36294    38053    40337    43322 
   46910    50399    53265    55470    57099    58280    59033    59307 
   59318    59473    60001    60849    61893    63040    64114    64739 
   64572    63740    62660    61388    59607    57305    54950    52743 
   50282    47254    44051    41442    39778    38857    38422    38315 
   38284    38096    37864    37892    38253    38709    38814    38371 
   37914    38174    39323    41110    43091    44519    44832    44273 
   43516    43232    43776    44784    45757    46872    48461    50520 
   52956    55316    56887    57612    57994    58556    59661    61039 
   62137    62826    63147    63226    63306    63440    63675    63991 
   63937    63256    62390    61852    61711    61751    61611    61059 
   60303    59578    58794    57815    56576    55230    54033    52940 
   52040    51727    52010    52526    53036    53420    53622    53722 
   53794    53816    53811    53844    53896    53893    53796    53513 
   52885    51967    51025    50205    49472    48755    48128    47803 
   47773    47737    47488    47019    46407    45757    45069    44449 
   44371    45222    46878    48863    50541    51435    51610    51248 
   50322    49237    48667    48699    49062    49674    50627    51998 
   53719    55486    56818    57465    57744    58153    58911    59898 
   60759    61270    61419    61129    60426    59770    59771    60449 
   61132    61235    60680    59746    58726    57538    55831    53320 
   49973    46219    42664    39813    38318    38355    39077    39660 
   40031    40490    41378    42729    44071    44941    45395    45698 
   45938    46258    46978    48180    49526    50739    51901    53103 
   54334    55564    56442    56646    56487    56132    55499    55111 
   55303    55753    56286    56759    57019    57329    57989    58889 
   59831    60766    61732    62814    63852    64533    64762    64535 
   64010    63407    62662    61661    60349    58722    56884    54865 
   52716    50541    48318    46036    43726    41348    38951    36856 
   35478    34996    35336    36449    38487    41643    45618    49649 
   53172    55886    57577    58236    58090    57637    57430    57657 
   58212    58798    59007    58705    58043    57260    56561    55866 
   55038    54256    53713    53343    53090    52974    52740    52017 
   50925    50025    49652    49635    49570    49327    49136    49025 
   48707    47999    46828    45298    43820    42680    41862    41545 
   41885    42607    43463    44336    45133    45980    46877    47433 
   47436    47108    46733    46632    46931    47532    48729    50689 
   53074    55657    58265    60853    63479    65943    68093    69789 
   70818    71120    70648    69405    67566    65355    62972    60552 
   58165    55814    53751    52493    51964    51672    51495    51246 
   50856    50764    51093    51620    52203    52600    52599    52176 
   51390    50439    49532    48612    47556    46367    45170    44285 
   43854    43698    43708    43760    43682    43661    44152    45187 
   46378    47694    49272    50878    52267    53400    54305    55055 
   55668    56049    56127    55857    55203    54436    53986    53884 
   53918    53918    53789    53701    53893    54301    54561    54308 
   53543    52421    50749    48251    45297    42762    41109    40200 
   39763    39648    39962    40897    42403    44179    45871    47199 
   47974    48228    48360    48661    48851    48626    48169    47765 
   47615    47867    48546    49635    50955    52335    53799    55333 
   56966    58593    59770    60266    60050    58916    56942    54840 
   53181    51864    50817    50234    50098    50269    50595    50930 
   51256    51507    51485    51184    50951    51190    51995    53177 
   54630    56378    58110    59261    59673    59604    59326    59019 
   58782    58546    58105    57406    56635    55957    55544    55571 
   55884    56196    56557    57096    57775    58601    59450    60054 
   60243    59954    59319    58507    57550    56481    55293    53973 
   52692    51656    50717    49381    47387    45032    42888    41436 
   40786    40675    40917    41490    42137    42639    43237    44153 
   45403    46950    48518    49807    50697    51237    51736    52346 
   52890    53305    53586    53673    53768    54228    55215    56677 
   58324    59589    60029    59811    59445    59156    58952    58718 
   58163    57235    56127    54976    53901    52945    52045    51170 
   50340    49562    48877    48400    48111    47824    47428    46921 
   46415    46072    45935    46007    46246    46544    46787    46853 
   46825    46948    47157    47203    47121    47180    47664    48716 
   50151    51541    52582    53270    53606    53578    53470    53532 
   53731    54053    54448    54861    55371    55952    56467    56844 
   57064    57098    56980    56835    56757    56741    56716    56517 
   55963    55155    54446    53988    53611    53135    52489    51751 
   51230    51059    50879    50423    49811    49178    48638    48276 
   48136    48247    48535    48925    49256    49356    49360    49240 
   48698    47653    46189    44558    43146    42169    41525    40934 
   40277    39701    39331    39194    39409    39987    40668    41329 
   42054    42834    43619    44300    44811    45360    46049    46732 
   47461    48387    49538    50907    52359    53651    54638    55316 
   55759    56192    57072    58632    60497    62250    63796    65109 
   66204    66974    67202    66906    66312    65595    64817    64058 
   63372    62665    61959    61332    60689    60040    59513    59151 
   59000    59135    59524    59862    59754    59164    58372    57595 
   56953    56465    55916    55201    54713    54789    55130    55389 
   55560    55493    55101    54577    53914    52993    51887    50707 
   49480    48160    46761    45453    44435    43765    43368    43209 
   43413    44119    45250    46518    47729    48856    49822    50502 
   50870    51025    51161    51450    51913    52495    53209    54109 
   55074    55830    56232    56268    55940    55347    54669    54026 
   53494    53103    52829    52671    52572    52373    52030    51629 
   51120    50415    49651    48985    48361    47733    47166    46677 
   46322    46203    46248    46356    46555    46777    46884    46889 
   46884    46867    46872    47019    47273    47501    47717    47995 
   48319    48698    49111    49434    49666    49880    50053    50155 
   50141    49931    49562    49172    48890    48837    49137    49870 
   50871    51917    52996    54041    54852    55324    55457    55346 
   55088    54763    54545    54577    54855    55221    55398    55215 
   54810    54386    53937    53413    52820    52093    51206    50267 
   49516    49117    48961    48918    48997    49152    49255    49246 
   49240    49450    49950    50510    50830    50899    50887    50903 
   51051    51461    52155    53002    53807    54448    54923    55263 
   55512    55693    55764    55739    55717    55707    55557    55065 
   54232    53356    52615    51873    51113    50469    49986    49790 
   49963    50385    50902    51308    51421    51183    50666    50132 
   49859    49915    50204    50583    50908    51148    51435    51928 
   52571    53145    53553    53723    53613    53439    53377    53440 
   53718    54179    54630    55004    55375    55768    56054    56049 
   55773    55403    55111    55108    55392    55639    55672    55527 
   55226    54857    54504    54084    53511    52932    52565    52393 
   52201    51830    51304    50709    50054    49341    48726    48433 
   48456    48575    48608    48549    48502    48492    48476    48542 
   48784    49148    49586    50033    50349    50561    50772    50934 
   51066    51276    51513    51657    51680    51694    51857    52124 
   52376    52568    52603    52394    51988    51535    51095    50695 
   50474    50388    50272    50250    50434    50637    50688    50574 
   50392    50277    50239    50239    50308    50440    50614    50855 
   51137    51397    51589    51663    51665    51764    52096    52697 
   53472    54167    54604    54810    54836    54744    54685    54750 
   54924    55118    55229    55287    55362    55479    55668    55855 
   55905    55813    55633    55402    55197    55070    54934    54690 
   54378    54065    53759    53450    53138    52887    52783    52787 
   52764    52659    52516    52340    52096    51811    51538    51293 
