Origin Time       2025/01/13 21:19:00
Lat.              31.8
Long.             131.6
Depth. (km)       30
Mag.              6.9
Station Code      MYZH09
Station Lat.      32.0421
Station Long.     131.0618
Station Height(m) 235
Record Time       2025/01/13 21:19:42
Sampling Freq(Hz) 100Hz
Duration Time(s)  120
Dir.              2
Scale Factor      2942(gal)/8224139
Max. Acc. (gal)   3.971
Last Correction   2025/01/13 21:19:42
Memo.             
[...]
  175999   175788   175239   174785   174420   173912   173310   172910 
  172983   173507   174074   174313   174370   174629   175099   175509 
  175738   175761   175543   175070   174343   173537   173013   172960 
  173257   173630   173834   173835   173878   174179   174602   174843 
  174806   174649   174684   175055   175346   175162   174841   174646 
  174379   174147   174239   174525   174780   175059   175390   175571 
  175522   175393   175311   175390   175662   175972   176246   176500 
  176555   176301   175990   175848   175822   175782   175563   175105 
  174665   174486   174494   174548   174571   174537   174507   174552 
  174677   174835   174937   175034   175302   175752   176187   176445 
  176553   176612   176554   176203   175636   175090   174696   174507 
  174494   174492   174349   174043   173630   173252   173149   173334 
  173485   173469   173431   173369   173257   173307   173616   173990 
  174326   174746   175321   175996   176615   176936   176920   176805 
  176762   176728   176662   176638   176689   176823   177040   177298 
  177641   178086   178397   178437   178405   178432   178498   178582 
  178641   178707   178788   178702   178410   178071   177651   177121 
  176659   176281   175919   175732   175755   175711   175470   175262 
  175377   175751   176035   176044   175783   175225   174376   173344 
  172308   171423   170610   169744   168947   168372   168029   167940 
  168139   168540   168945   169198   169277   169207   169083   169114 
  169279   169315   169138   168903   168767   168694   168494   168048 
  167339   166442   165682   165472   165935   166828   167791   168667 
  169541   170409   171124   171763   172539   173294   173765   174081 
  174418   174729   175005   175250   175262   174908   174270   173396 
  172404   171599   171232   171389   172060   173018   173875   174421 
  174695   174766   174644   174263   173662   173079   172674   172488 
  172559   172836   173229   173707   174264   174854   175350   175725 
  176188   176802   177330   177623   177757   177823   177797   177588 
  177233   176975   177024   177201   177111   176759   176557   176682 
  176901   177037   177138   177214   177299   177481   177650   177695 
  177827   178260   178884   179527   180193   180836   181253   181419 
  181614   182027   182556   183077   183564   183998   184280   184233 
  183840   183296   182675   181873   180913   180006   179173   178283 
  177564   177307   177309   177336   177498   177824   178193   178599 
  179109   179757   180513   181230   181731   181905   181664   180874 
  179425   177442   175315   173341   171597   170160   169130   168570 
  168556   168947   169346   169682   170289   171215   172129   172913 
  173646   174289   174799   175103   175130   175054   175085   175127 
  174937   174528   174159   173924   173680   173330   172885   172351 
  171741   171140   170672   170297   169884   169543   169507   169757 
  170124   170557   171154   172003   172939   173639   174013   174150 
  173958   173268   172119   170688   169281   168193   167391   166768 
  166460   166625   167266   168295   169537   170922   172476   174059 
  175483   176701   177547   177770   177462   176943   176345   175687 
  174987   174135   173199   172596   172555   172897   173398   174042 
  174934   176089   177292   178217   178789   179269   179697   179818 
  179636   179361   178927   178158   177182   176260   175414   174523 
  173632   172983   172689   172536   172308   172103   172115   172326 
  172590   172828   173002   173063   172937   172559   172023   171485 
  170911   170259   169566   168879   168353   168007   167539   166904 
  166576   166908   167737   168727   169749   170870   172204   173758 
  175134   175709   175363   174564   173732   173110   172921   173155 
  173583   174097   174741   175605   176760   178082   179383   180666 
  181909   182970   183718   183979   183687   183149   182713   182461 
  182457   182748   182983   182628   181543   180114   178931   178263 
  177823   177300   176804   176470   176119   175537   174795   174208 
  174012   174059   174121   174321   174815   175301   175355   174935 
  174232   173407   172687   172277   172079   171963   172114   172628 
  173261   173929   174752   175624   176264   176554   176553   176322 
  175936   175575   175386   175311   175250   175250   175410   175722 
  176048   176172   176108   176146   176399   176642   176665   176615 
  176779   177032   176932   176341   175583   175045   174731   174429 
  174162   174083   174145   174255   174364   174395   174447   174739 
  175198   175572   175864   176231   176685   177099   177380   177520 
  177502   177290   176904   176318   175518   174631   173773   172953 
  172165   171436   170787   170094   169296   168625   168212   167945 
  167863   168037   168419   169098   170181   171591   173151   174487 
  175279   175630   175674   175375   174996   174919   175046   174992 
  174623   174031   173352   172719   172127   171516   170895   170333 
  170002   170040   170318   170640   170995   171487   172285   173450 
  174673   175578   176095   176234   176003   175589   175062   174306 
  173388   172393   171385   170726   170533   170437   170329   170353 
  170405   170471   170748   171223   171865   172767   173778   174677 
  175394   175744   175593   175165   174730   174347   174168   174518 
  175255   175783   175914   175979   176080   175981   175572   175113 
  175059   175467   176022   176709   177704   178829   179683   180111 
  180283   180218   179597   178378   177155   176322   175663   175300 
  175663   176396   176933   177448   178094   178679   179207   179703 
  180102   180370   180306   179779   178983   178233   177907   178116 
  178519   178860   179105   178947   178140   176985   175587   173628 
  171319   169213   167503   166392   166168   166795   168015   169461 
  170671   171401   171782   172118   172484   172609   172426   172373 
  172756   173381   173971   174321   174353   174372   174766   175572 
  176536   177309   177728   178131   178908   179902   180769   181287 
  181191   180534   179709   178934   178451   178494   178683   178511 
  178040   177476   176854   176149   175367   174808   174773   175014 
  175167   175296   175616   176291   177191   177749   177724   177549 
  177427   177118   176538   175724   174652   173304   171787   170463 
  169599   168971   168308   167752   167682   168272   169302   170500 
  171734   172805   173650   174388   174850   174914   174958   175119 
  175051   174734   174457   174294   174287   174540   174904   175178 
  175481   175848   175983   175810   175645   175620   175597   175648 
  175949   176438   177002   177708   178657   179810   180914   181678 
  182023   181953   181445   180463   178900   176775   174456   172397 
  170901   170078   169793   169901   170429   171283   172143   172908 
  173661   174276   174633   174775   174677   174343   173923   173546 
  173237   172983   172725   172386   171910   171244   170445   169832 
  169761   170162   170598   170873   171305   172135   172994   173373 
  173344   173310   173448   173681   173865   173834   173608   173431 
  173292   172814   171983   171240   170665   170037   169528   169533 
  170208   171262   172129   172582   172860   173173   173506   173684 
  173727   174098   175019   176002   176737   177489   178227   178561 
  178314   177547   176662   176192   176110   176062   176192   176818 
  177795   178915   180181   181350   182008   182039   181592   180962 
  180476   180115   179564   178641   177322   175825   174700   174162 
  173871   173762   174100   174823   175613   176283   176662   176559 
  176077   175444   174626   173650   172770   172273   172477   173384 
  174479   175439   176432   177519   178479   179051   179037   178528 
  177877   177113   175875   174125   172451   171360   170707   170068 
  169565   169839   171011   172471   173857   175223   176509   177421 
  177703   177515   177211   176694   175747   174645   173703   172972 
  172489   172064   171451   170865   170604   170538   170476   170506 
  170683   170876   170961   170958   171005   171065   170923   170672 
  170564   170445   170095   169843   170081   170563   170826   170793 
  170571   170217   169736   169006   168107   167414   167016   166768 
  166747   167028   167435   167833   168239   168650   169099   169713 
  170425   170949   171285   171752   172419   173052   173534   173940 
  174333   174680   174953   175281   175784   176195   176273   176316 
  176521   176693   176831   177003   177056   176933   176728   176405 
  175984   175787   176094   176708   177232   177572   177839   177916 
  177592   177187   177259   177668   177834   177757   177896   178290 
  178572   178748   179232   179938   180287   180293   180462   180848 
  181140   181132   180782   180166   179413   178675   177981   177218 
  176607   176638   177244   177790   177942   177998   178395   179235 
  180171   180590   180293   179813   179518   179080   178325   177670 
  177422   177388   177310   177259   177304   177086   176384   175643 
  175319   175257   175167   175127   175285   175549   175791   176027 
  176364   176874   177433   177803   177948   177967   177832   177460 
  176904   176285   175655   175041   174375   173477   172420   171537 
  170904   170407   170048   169751   169423   169152   168960   168797 
  168752   168898   169295   170058   170969   171613   171954   172091 
  171944   171698   171742   172214   172878   173345   173412   173078 
  172436   171784   171506   171814   172530   173200   173533   173601 
  173726   174106   174567   174756   174742   174969   175405   175594 
  175435   175081   174690   174515   174468   173948   172804   171670 
  171032   170843   170955   171166   171236   171175   171117   171027 
  170797   170563   170656   171217   172169   173392   174735   176091 
  177450   178875   180349   181676   182731   183547   183990   183841 
  183290   182862   182646   182028   180651   179057   177850   177076 
  176644   176366   175984   175767   176106   176661   176982   177282 
  177788   178251   178498   178564   178325   177695   176763   175844 
  175371   175390   175630   175906   176072   176067   175886   175440 
  174737   174036   173631   173511   173429   173423   173723   174170 
  174491   174696   174787   174685   174452   174178   173952   173955 
  174264   174586   174413   173719   173025   172511   171846   170903 
  169965   169335   168913   168388   168002   168238   168899   169538 
  170095   170619   171146   171779   172449   172955   173296   173545 
  173543   173117   172378   171558   170772   170085   169630   169599 
  170158   171225   172417   173349   173934   174301   174517   174483 
  174170   173728   173356   173275   173415   173303   172948   172901 
  173207   173520   173804   174067   174220   174390   174748   175138 
  175435   175896   176727   177639   178225   178437   178494   178486 
  178321   177936   177411   176933   176698   176573   176284   175922 
  175601   175255   175047   175070   175134   175290   175705   176183 
  176353   176127   175846   175729   175567   175323   175247   175320 
  175344   175282   175092   174820   174737   174939   175248   175594 
  176060   176621   177117   177441   177646   177731   177565   177232 
  177022   176867   176391   175581   174721   174012   173593   173600 
  174079   174781   175336   175787   176359   176924   177279   177508 
  177780   178104   178313   178210   177878   177599   177406   177265 
  177280   177369   177360   177234   177003   176758   176554   176211 
  175605   174981   174630   174515   174464   174303   173894   173488 
  173403   173524   173781   174326   174903   174945   174339   173503 
  172886   172636   172579   172562   172530   172309   171967   171864 
  171995   172218   172771   173603   174232   174521   174557   174306 
  173907   173596   173353   173083   172948   173168   173576   173901 
  174291   174991   175788   176270   176284   175921   175404   175024 
  174847   174680   174430   174201   174177   174583   175387   176152 
  176478   176312   175728   174853   173782   172559   171454   170818 
  170649   170804   171223   171759   172251   172735   173213   173546 
  173749   173921   174089   174393   174973   175666   176084   175980 
  175574   175294   175157   174884   174429   173898   173376   173063 
  173064   173259   173649   174295   175130   176081   176894   177260 
  177186   176740   175875   174753   173685   172710   171768   171034 
  170602   170263   169865   169450   169028   168511   167976   167719 
  167896   168361   168859   169153   169184   169203   169371   169437 
  169179   168762   168436   168158   167807   167479   167263   167081 
  166922   166815   166735   166822   167306   168173   169256   170571 
  172161   173832   175363   176596   177333   177573   177634   177697 
  177697   177572   177211   176639   176177   175882   175456   175038 
  175097   175621   176222   176813   177487   178105   178487   178586 
  178440   178147   177727   177106   176355   175728   175360   175128 
  174960   175078   175689   176689   177822   178945   180030   180951 
  181550   181957   182403   182822   182933   182636   182129   181633 
  181121   180538   180050   179811   179768   179898   180301   180978 
  181811   182692   183559   184410   185224   185781   185773   185161 
  184231   183246   182245   181141   179934   178768   177800   177018 
  176214   175454   175123   175228   175431   175554   175541   175366 
  175045   174630   174240   173988   173924   174087   174448   174831 
  174980   174735   174179   173523   172962   172519   172099   171815 
  171969   172490   172984   173279   173506   173745   173808   173469 
  172862   172285   171806   171373   171046   170934   171049   171285 
  171495   171556   171474   171433   171578   171855   172093   172210 
  172335   172551   172681   172623   172538   172612   172881   173318 
  173835   174298   174642   174857   175034   175328   175629   175659 
  175298   174640   173912   173272   172675   172056   171417   170758 
  170206   169963   169932   169842   169577   169206   168960   168963 
  169026   169068   169302   169809   170387   170905   171377   171736 
  171895   171825   171624   171559   171728   171953   172183   172517 
  172986   173565   174064   174183   174025   173962   173994   173948 
  173821   173583   173256   173098   173217   173435   173619   173769 
  173832   173780   173788   174058   174630   175387   176153   176890 
  177708   178627   179481   180072   180303   180176   179832   179413 
  178808   177822   176507   175009   173385   171775   170387   169353 
  168829   168929   169533   170425   171541   172925   174569   176419 
  178380   180218   181681   182726   183375   183605   183438   182830 
  181633   179926   178079   176328   174645   172974   171448   170310 
  169704   169681   170214   171109   172122   173172   174298   175516 
  176808   178058   179042   179644   179910   179950   179955   179917 
  179563   178811   177861   176864   175887   174968   174082   173222 
  172463   171941   171694   171575   171522   171684   172127   172779 
  173601   174638   175930   177333   178595   179547   179982   179760 
  179049   178048   176760   175190   173460   171738   170152   168714 
  167422   166290   165334   164698   164581   165036   166056   167657 
  169677   171722   173497   174879   175745   176130   176229   176085 
  175736   175396   175155   174914   174644   174533   174861   175659 
  176723   177948   179316   180675   181894   182962   183798   184265 
  184296   183825   182896   181785   180704   179695   178922   178553 
  178532   178754   179153   179555   179728   179577   179216   178700 
  177858   176589   175074   173616   172393   171424   170781   170592 
  170842   171420   172154   172767   173173   173570   174027   174422 
  174750   175058   175266   175250   175011   174738   174636   174660 
  174592   174320   173934   173518   173020   172450   171963   171620 
  171340   171054   170737   170534   170653   170972   171242   171521 
  172026   172752   173476   174074   174576   174933   175120   175246 
  175312   175216   174965   174610   174205   173813   173406   172975 
  172648   172463   172285   172025   171788   171687   171659   171702 
  171946   172404   172997   173709   174507   175275   175964   176616 
  177199   177674   178113   178515   178822   179081   179211   178935 
  178186   177149   176004   174934   174168   173777   173553   173265 
  172863   172368   171821   171324   170915   170511   170060   169572 
  169136   168885   168875   169165   169885   170977   172143   173169 
  174050   174722   175020   174943   174630   174177   173666   173206 
  172897   172902   173296   173884   174546   175367   176258   177036 
  177697   178154   178244   178065   177749   177232   176544   175875 
  175294   174777   174313   173835   173288   172790   172466   172262 
  172135   172158   172328   172600   173003   173499   173981   174414 
  174765   174931   174857   174556   174077   173554   173141   172864 
  172697   172725   173115   173902   174949   176094   177213   178163 
  178795   179072   179068   178765   178127   177237   176168   175054 
  174236   173894   173861   173952   174205   174696   175386   176185 
  177014   177738   178239   178463   178347   177916   177338   176793 
  176346   175996   175806   175815   175932   176067   176229   176382 
  176443   176422   176409   176384   176276   176111   175863   175383 
  174642   173826   173173   172801   172678   172746   172986   173340 
  173665   173866   173959   173931   173731   173435   173213   173129 
  173079   172953   172777   172569   172351   172386   172918   173805 
  174808   175849   176858   177786   178567   179042   179199   179128 
  178810   178197   177336   176350   175420   174694   174175   173788 
  173439   173033   172555   172130   171876   171809   171888   172056 
  172258   172496   172779   173082   173373   173615   173755   173793 
  173816   173861   173890   173867   173699   173364   173028   172781 
  172528   172278   172174   172235   172380   172573   172835   173234 
  173815   174487   175143   175857   176705   177538   178163   178490 
  178443   178028   177398   176685   176002   175468   175117   174888 
  174711   174533   174368   174298   174384   174613   174918   175231 
  175531   175824   176069   176177   176058   175678   175032   174159 
  173168   172215   171445   170910   170506   170135   169798   169543 
  169399   169334   169315   169345   169415   169541   169750   170051 
  170505   171211   172150   173168   174081   174735   175101   175296 
  175397   175443   175545   175753   175979   176172   176374   176592 
  176773   176937   177202   177654   178258   178911   179501   179946 
  180256   180459   180505   180408   180324   180319   180269   180056 
  179676   179157   178518   177816   177036   176135   175235   174488 
  173894   173396   173021   172812   172805   172989   173280   173639 
  174087   174567   174970   175274   175485   175587   175582   175446 
