Origin Time       2025/01/13 21:19:00
Lat.              31.8
Long.             131.6
Depth. (km)       30
Mag.              6.9
Station Code      MYZH13
Station Lat.      31.7301
Station Long.     131.0791
Station Height(m) 152
Record Time       2025/01/13 21:19:42
Sampling Freq(Hz) 100Hz
Duration Time(s)  280
Dir.              6
Scale Factor      7845(gal)/8223790
Max. Acc. (gal)   21.454
Last Correction   2025/01/13 21:19:42
Memo.             
[...]
   -5572    -5568    -5570    -5574    -5576    -5575    -5572    -5572 
   -5572    -5572    -5572    -5571    -5572    -5575    -5576    -5574 
   -5574    -5574    -5572    -5575    -5574    -5572    -5575    -5576 
   -5575    -5575    -5574    -5571    -5572    -5575    -5576    -5574 
   -5572    -5571    -5567    -5563    -5567    -5576    -5579    -5578 
   -5578    -5574    -5568    -5568    -5574    -5578    -5580    -5579 
   -5576    -5572    -5570    -5571    -5575    -5574    -5572    -5575 
   -5576    -5575    -5576    -5576    -5572    -5570    -5568    -5572 
   -5575    -5574    -5575    -5576    -5575    -5574    -5575    -5575 
   -5574    -5575    -5575    -5576    -5579    -5576    -5571    -5568 
   -5567    -5570    -5576    -5579    -5576    -5575    -5574    -5571 
   -5572    -5574    -5574    -5575    -5576    -5574    -5571    -5570 
   -5570    -5571    -5574    -5574    -5576    -5582    -5582    -5574 
   -5570    -5572    -5572    -5574    -5578    -5578    -5574    -5570 
   -5568    -5568    -5572    -5576    -5580    -5579    -5576    -5574 
   -5571    -5567    -5566    -5571    -5576    -5579    -5582    -5578 
   -5570    -5564    -5563    -5566    -5575    -5582    -5583    -5582 
   -5576    -5570    -5566    -5567    -5572    -5579    -5582    -5580 
   -5575    -5568    -5564    -5567    -5574    -5580    -5580    -5576 
   -5571    -5567    -5566    -5570    -5578    -5586    -5584    -5579 
   -5575    -5570    -5563    -5563    -5574    -5582    -5583    -5579 
   -5574    -5570    -5568    -5568    -5571    -5574    -5579    -5580 
   -5578    -5576    -5572    -5570    -5571    -5574    -5579    -5582 
   -5578    -5574    -5574    -5571    -5567    -5567    -5572    -5576 
   -5578    -5579    -5579    -5572    -5568    -5568    -5572    -5575 
   -5578    -5583    -5584    -5579    -5570    -5568    -5571    -5570 
   -5574    -5576    -5575    -5572    -5571    -5570    -5571    -5574 
   -5579    -5582    -5580    -5575    -5572    -5572    -5571    -5571 
   -5576    -5579    -5578    -5579    -5580    -5576    -5572    -5571 
   -5571    -5572    -5575    -5579    -5578    -5572    -5571    -5574 
   -5575    -5575    -5572    -5574    -5576    -5571    -5571    -5575 
   -5572    -5571    -5572    -5576    -5579    -5579    -5576    -5575 
   -5575    -5576    -5576    -5572    -5571    -5574    -5574    -5571 
   -5571    -5572    -5574    -5576    -5576    -5576    -5572    -5568 
   -5570    -5570    -5574    -5580    -5580    -5576    -5574    -5568 
   -5564    -5571    -5579    -5580    -5579    -5580    -5579    -5571 
   -5563    -5563    -5567    -5574    -5579    -5580    -5575    -5567 
   -5563    -5567    -5572    -5574    -5576    -5579    -5582    -5582 
   -5579    -5579    -5575    -5563    -5562    -5571    -5576    -5579 
   -5583    -5578    -5568    -5560    -5559    -5567    -5578    -5582 
   -5580    -5575    -5568    -5566    -5568    -5574    -5578    -5579 
   -5575    -5570    -5566    -5568    -5571    -5576    -5580    -5579 
   -5570    -5564    -5571    -5576    -5579    -5587    -5583    -5570 
   -5566    -5571    -5571    -5574    -5579    -5580    -5574    -5568 
   -5566    -5564    -5568    -5575    -5579    -5580    -5576    -5572 
   -5570    -5567    -5570    -5574    -5578    -5580    -5579    -5572 
   -5570    -5570    -5572    -5576    -5579    -5580    -5580    -5576 
   -5571    -5567    -5566    -5567    -5572    -5576    -5578    -5578 
   -5575    -5574    -5574    -5572    -5571    -5574    -5578    -5575 
   -5571    -5570    -5568    -5574    -5579    -5578    -5572    -5568 
   -5568    -5575    -5575    -5575    -5579    -5576    -5571    -5568 
   -5566    -5566    -5572    -5579    -5580    -5580    -5579    -5578 
   -5572    -5572    -5575    -5575    -5580    -5583    -5576    -5568 
   -5566    -5566    -5567    -5570    -5572    -5575    -5578    -5575 
   -5574    -5574    -5574    -5575    -5576    -5575    -5576    -5578 
   -5575    -5574    -5575    -5576    -5576    -5572    -5570    -5568 
   -5570    -5578    -5582    -5580    -5574    -5568    -5567    -5568 
   -5572    -5575    -5574    -5574    -5574    -5571    -5571    -5571 
   -5571    -5574    -5574    -5574    -5576    -5574    -5571    -5571 
   -5572    -5574    -5572    -5572    -5572    -5571    -5570    -5571 
   -5572    -5572    -5574    -5576    -5578    -5575    -5574    -5576 
   -5578    -5576    -5578    -5576    -5571    -5567    -5567    -5567 
   -5570    -5575    -5579    -5578    -5574    -5568    -5568    -5570 
   -5574    -5579    -5580    -5576    -5575    -5571    -5566    -5568 
   -5574    -5576    -5578    -5579    -5576    -5572    -5570    -5567 
   -5568    -5572    -5574    -5576    -5576    -5571    -5567    -5568 
   -5567    -5564    -5570    -5579    -5580    -5580    -5579    -5575 
   -5570    -5571    -5576    -5578    -5580    -5582    -5578    -5572 
   -5570    -5567    -5567    -5572    -5578    -5574    -5568    -5567 
   -5571    -5572    -5571    -5572    -5576    -5576    -5575    -5576 
   -5575    -5571    -5571    -5575    -5574    -5572    -5576    -5576 
   -5571    -5568    -5568    -5571    -5575    -5576    -5578    -5576 
   -5572    -5572    -5574    -5572    -5572    -5575    -5579    -5578 
   -5574    -5574    -5571    -5571    -5572    -5574    -5575    -5578 
   -5576    -5574    -5574    -5574    -5572    -5571    -5572    -5574 
   -5575    -5576    -5572    -5570    -5568    -5570    -5572    -5575 
   -5575    -5574    -5576    -5578    -5575    -5571    -5571    -5571 
   -5574    -5578    -5582    -5586    -5595    -5611    -5637    -5667 
   -5691    -5701    -5688    -5651    -5597    -5548    -5520    -5518 
   -5543    -5586    -5632    -5675    -5706    -5710    -5679    -5626 
   -5576    -5563    -5599    -5657    -5688    -5644    -5540    -5448 
   -5421    -5471    -5576    -5680    -5719    -5684    -5611    -5544 
   -5530    -5594    -5702    -5782    -5778    -5686    -5516    -5292 
   -5112    -5107    -5337    -5767    -6251    -6581    -6625    -6405 
   -6034    -5652    -5400    -5344    -5456    -5660    -5892    -6126 
   -6308    -6338    -6135    -5744    -5374    -5267    -5470    -5786 
   -5956    -5845    -5529    -5229    -5131    -5269    -5556    -5890 
   -6234    -6555    -6664    -6269    -5244    -3916    -2960    -2943 
   -3927    -5373    -6382    -6365    -5576    -4826    -4754    -5475 
   -6577    -7342    -7221    -6205    -4868    -3983    -3977    -4830 
   -6381    -8278    -9884   -10629   -10345    -9246    -7820    -6698 
   -6436    -7188    -8498    -9536    -9625    -8619    -7091    -5937 
   -5497    -5356    -4955    -4140    -3343    -3237    -4027    -5269 
   -6289    -6571    -6050    -5131    -4332    -3893    -3747    -3838 
   -4369    -5539    -7067    -8125    -7728    -5518    -2361       83 
     425    -1583    -4639    -6463    -5451    -2012     1703     3338 
    1842    -1833    -5439    -7103    -6494    -4527    -2409    -1030 
    -737    -1452    -3157    -5850    -8680    -9977    -8731    -5637 
   -2608    -1476    -2794    -5563    -8051    -8775    -7200    -4202 
   -1551     -660    -1973    -4958    -8316   -10662   -11140    -9580 
   -6646    -3677    -2149    -2911    -5528    -8565   -10669   -10989 
   -9142    -5697    -2397    -1236    -3059    -6783   -10071   -10982 
   -8953    -4919    -1069      415    -1048    -4407    -8101   -10843 
  -12042   -12037   -11475   -10345    -8071    -4716    -1718     -972 
   -3338    -7905   -12178   -13452   -10851    -6161    -2493    -1961 
   -4309    -7446    -9406    -9849    -9535    -8955    -7986    -6292 
   -4036    -2284    -2060    -3179    -4482    -4855    -3975    -2498 
   -1574    -2002    -3743    -6038    -7986    -8873    -8203    -6270 
   -4477    -4302    -6023    -8544   -10204    -9958    -8127    -6011 
   -4749    -4687    -5580    -6913    -8201    -9151    -9474    -8872 
   -7483    -5944    -4914    -4687    -4922    -4602    -2938     -498 
    1102      646    -1786    -4880    -6687    -5948    -3199     -245 
    1275      834     -842    -2505    -3412    -3577    -3400    -3242 
   -3257    -3597    -4391    -5541    -6889    -8229    -9018    -8496 
   -6453    -3898    -2641    -3689    -6293    -8742    -9738    -9023 
   -7371    -6150    -6272    -7452    -8696    -9053    -7947    -5724 
   -3677    -3026    -4218    -6960   -10165   -12333   -12526   -10948 
   -8679    -6790    -5692    -5229    -4951    -4448    -3921    -4071 
   -5071    -6195    -6573    -5899    -4464    -2841    -1544     -719 
    -191       13     -621    -2330    -4214    -4845    -3700    -1570 
     139      133    -2014    -5348    -8059    -8652    -6916    -4239 
   -2631    -3173    -5413    -7801    -8721    -7812    -6241    -5377 
   -5724    -7006    -8452    -9115    -8440    -6521    -3855    -1088 
     886      985    -1348    -5616   -10300   -13279   -12947    -9441 
   -4617     -912     -112    -2328    -5952    -8957   -10208    -9730 
   -8349    -7015    -6119    -5626    -5799    -7080    -9370   -11904 
  -13606   -13502   -11221    -7335    -3195     -376      -41    -2328 
   -6083    -9405   -10845   -10119    -7873    -5078    -2473     -464 
     567      349    -1058    -3391    -6010    -7871    -8201    -7052 
   -5246    -3796    -3192    -3256    -3435    -3350    -3358    -4259 
   -6354    -9035   -11092   -11464    -9931    -7040    -3782    -1493 
   -1325    -3342    -6462    -9325   -10798   -10226    -8027    -5537 
   -4013    -4070    -5672    -8220   -10725   -12171   -11974   -10309 
   -7978    -5987    -5071    -5200    -5513    -5049    -3589    -1883 
   -1066    -1757    -3731    -6228    -8189    -8483    -6693    -3774 
   -1148      792     2421     3599     3596     1985     -895    -4020 
   -6037    -6188    -5081    -3989    -3754    -4561    -5929    -6951 
   -7242    -7346    -7928    -8873    -9244    -8266    -6407    -5262 
   -6195    -9008   -12027   -13293   -11647    -7619    -3424    -1258 
   -1602    -3235    -4434    -4276    -3172    -2384    -2878    -4272 
   -5090    -4225    -2038     -152     -213    -2555    -5849    -8226 
   -8739    -7700    -6255    -5711    -6490    -7781    -8509    -8264 
   -7383    -6625    -6505    -6717    -6604    -5987    -5317    -5231 
   -5899    -6594    -6234    -4696    -3169    -2814    -3643    -4847 
   -5539    -5359    -4854    -4842    -5483    -6374    -6928    -6627 
   -5524    -4422    -4158    -4772    -5625    -6102    -5868    -4984 
   -4082    -3739    -3657    -3075    -1854     -764     -896    -2938 
   -6426    -9680   -10897    -9275    -5661    -2477    -2128    -4978 
   -9136   -11952   -11832    -9228    -5837    -3194    -2116    -2459 
   -3474    -4996    -7350   -10046   -11718   -11425    -9333    -6392 
   -3919    -3204    -4672    -7411    -9900   -11063   -10617    -8981 
   -7161    -6130    -5931    -5796    -5005    -3576    -2481    -2735 
   -4341    -6590    -8625    -9610    -9159    -7564    -5545    -3982 
   -3483    -3954    -4766    -5054    -4025    -1815       10     -527 
   -4059    -9058   -12748   -12943    -9668    -5339    -3044    -4203 
   -7674   -10835   -11496    -9239    -5325    -1591      454       56 
   -2466    -5846    -8544    -9209    -6983    -2212     3311     7233 
    7692     4171    -2014    -8289   -12124   -12133    -8556    -3161 
    1328     2614      314    -4121    -8615   -11211   -10517    -6539 
   -1125     2949     3465     -202    -6489   -12151   -14316   -12306 
   -7661    -2840      187      591    -1254    -4002    -6322    -7807 
   -8694    -9262    -9678    -9729    -8959    -7275    -5055    -3069 
   -2424    -3834    -6763    -9606   -10697    -9481    -7083    -5229 
   -4617    -4891    -5476    -5991    -6470    -7060    -7491    -7402 
   -6790    -6012    -5737    -6339    -7248    -7443    -6467    -4741 
   -3337    -3462    -5556    -8699   -11280   -12129   -10949    -8306 
   -5266    -2808    -1706    -2317    -4129    -6080    -7267    -7165 
   -5817    -3862    -2115    -1181    -1233    -1900    -2682    -3437 
   -4098    -4380    -4279    -4313    -4795    -5390    -5717    -5937 
   -6451    -7296    -8033    -8159    -7561    -6660    -6258    -7292 
  -10230   -14099   -16551   -15670   -11527    -5996    -1620     -313 
   -2065    -4804    -6463    -6809    -6675    -6667    -6997    -7457 
   -7514    -6644    -4761    -2481     -625      309      -25    -1525 
   -3322    -4514    -4764    -4240    -3474    -2944    -2577    -1999 
   -1147     -430     -446    -1640    -3878    -6107    -6844    -5421 
   -2702     -541     -484    -2729    -5934    -8094    -8029    -6230 
   -4295    -3701    -4900    -7250    -9614   -10989   -10867    -9312 
   -6802    -4085    -1840     -251      657      666      -28     -530 
    -125      882     1204     -557    -4486    -8870   -11381   -10671 
   -7327    -3751    -2717    -5387   -10621   -16069   -19504   -19489 
  -15890   -10420    -6085    -5179    -7669   -11406   -13544   -12303 
   -8170    -3445     -560     -634    -3106    -6500    -9616   -11919 
  -12941   -11862    -8478    -4324    -2008    -3368    -8102   -13563 
  -16324   -14619    -9448    -3689     -298     -498    -3296    -7203 
  -11296   -14389   -15083   -12511    -6669      650     6139     7248 
    3572    -3040    -8958   -10646    -6870      869     9482    15654 
   16916    12542     3933    -6027   -14017   -17259   -14881    -8623 
   -1946     1775      990    -3408    -9070   -13640   -15415   -13667 
   -9342    -4899    -2718    -3848    -7697   -12043   -14242   -13196 
   -9655    -5024     -704     2268     3456     2652      -83    -3843 
   -6901    -7750    -6062    -2749      379     1323     -588    -3824 
   -5827    -4941    -1383     2911     5621     5540     3113       41 
   -2083    -3029    -3584    -4579    -6372    -8536    -9948    -9987 
   -9510    -9792   -11140   -12631   -12776   -11097    -8972    -8492 
  -10584   -13975   -16062   -14980   -10917    -5906    -2444    -2058 
   -4595    -8457   -11728   -13078   -11969    -8684    -4149      222 
    2835     3090     1755     -167    -1733    -2385    -2945    -4332 
   -6396    -8908   -10990   -11126    -9819    -9077    -9336    -9693 
   -9501    -8461    -6926    -5968    -6214    -7290    -8414    -8702 
   -7357    -4572    -1695     -279    -1086    -3283    -4900    -4588 
   -2450      271     2091     2243      885    -1088    -2581    -3046 
   -2494    -1378     -418      -56     -623    -2413    -4977    -7303 
   -8509    -8187    -6970    -6413    -7700   -10439   -12880   -13327 
  -11211    -7265    -3353    -1544    -2781    -6544   -11308   -15126 
  -16517   -15291   -12642   -10446   -10285   -12571   -16317   -19800 
  -21188   -19201   -14137    -7943    -3113    -1684    -4386    -9965 
  -15360   -17057   -13417    -6358     -371      569    -4456   -12787 
  -19607   -20872   -15977    -7851     -602     2835     1962    -1177 
   -3620    -3561    -1264     1331     2342     1595      232     -816 
   -1474    -2166    -3199    -4233    -4479    -3667    -2293     -942 
    -324    -1179    -3129    -4626    -4692    -3766    -3086    -4031 
   -7229   -11281   -13679   -13293   -10656    -7153    -4621    -3821 
   -3877    -3897    -3596    -2884    -2339    -2790    -3863    -4379 
   -3638    -1463     1476     3584     3798     2403      550     -317 
     334     1618     2601     2995     2559     1431      360     -257 
    -562     -710     -864    -1119    -1571    -2650    -4920    -8260 
  -11394   -12521   -10569    -6045    -1023     1876     1175    -2465 
   -6635    -8634    -7387    -3996     -336     2250     3105     2043 
    -855    -5104    -9273   -11396   -10469    -7009    -2621      423 
     276    -3199    -8617   -13984   -17317   -17624   -15446   -12024 
   -8696    -6745    -6764    -8356   -10434   -11634   -10925    -8167 
   -4174     -452     1356      434    -2569    -6011    -8128    -7925 
   -5829    -3210    -1501    -1684    -3558    -5869    -7723    -9042 
   -9892   -10538   -11601   -13213   -14586   -14604   -12434    -8220 
   -3580     -664     -611    -2972    -5964    -7616    -7273    -5694 
   -4041    -3119    -3126    -3820    -4881    -6054    -6934    -7210 
   -7155    -7180    -7287    -7423    -7626    -7628    -7118    -6432 
   -6289    -7098    -8745   -10523   -11487   -11049    -9309    -7051 
   -5103    -3750    -3088    -3564    -5583    -8781   -12198   -14852 
  -16033   -15699   -14496   -13317   -12792   -12744   -12306   -10914 
   -9028    -7813    -8144   -10034   -12511   -13849   -12609    -8625 
   -3055     1987     4260     2839    -1281    -5976    -8985    -8814 
   -5463     -217     5070     8463     8872     6866     3676       -4 
   -3519    -5886    -6485    -5448    -3569    -1980    -1861    -3866 
   -7184   -10122   -11732   -11907   -10828    -9182    -7908    -7335 
   -7211    -7281    -7460    -7769    -8155    -8306    -7966    -7344 
   -6858    -6716    -6829    -6855    -6461    -5476    -3960    -2327 
    -831      599     1767     2030      822    -1264    -2436    -1682 
     364     2632     4303     4904     4557     3689     2685     1911 
    1273      129    -1869    -4388    -6588    -7744    -7977    -7985 
   -8245    -8872    -9892   -11126   -11927   -11736   -10798    -9795 
   -9275    -9414    -9707    -9512    -8884    -8245    -8002    -8302 
   -8590    -8421    -8110    -7790    -7173    -6297    -5325    -4105 
   -2508    -1024     -820    -2552    -5263    -7407    -8062    -7060 
   -5166    -3331    -1572      413     2670     5271     7696     8569 
    6964     3433     -234    -1933     -453     3341     6945     8394 
    7403     4816     2151      982     1717     3086     2717     -824 
   -6008    -9871   -11263   -11352   -11897   -13614   -15634   -16557 
  -16001   -14704   -13676   -13689   -14516   -14754   -13370   -10821 
   -8606    -8340   -10438   -13300   -14277   -11712    -6440    -1339 
     673    -1362    -5683    -9184   -10093    -9104    -8205    -9080 
  -11896   -15072   -16525   -15326   -12214    -8654    -5846    -4368 
   -3967    -4089    -4737    -6366    -9293   -12951   -15510   -15016 
  -11178    -5883    -1838     -726    -2505    -5584    -7569    -6960 
   -4464    -2212    -1707    -2752    -4043    -4286    -2920     -414 
    1896     2612     1332    -1129    -3685    -5475    -5848    -4962 
   -3684    -2357     -730      994     1849      870    -1985    -5611 
   -8310    -8874    -7326    -4770    -2759    -2435    -3925    -6297 
   -7798    -7028    -4448    -1896     -789    -1432    -3330    -5626 
   -7442    -8033    -7192    -5729    -4851    -4869    -5098    -4789 
   -3535    -1503      249      136    -2897    -8282   -13774   -16903 
  -16545   -13412    -9516    -6951    -6678    -8062    -9467    -9432 
   -7510    -4440    -1675     -560    -1455    -3160    -3705    -2420 
    -687     -510    -2906    -7303   -11836   -14358   -13926   -11573 
   -9216    -8043    -7932    -8087    -8365    -9520   -11979   -15094 
  -17552   -18219   -16818   -14470   -13458   -15277   -18883   -21384 
  -20511   -16660   -12467   -10405   -11167   -13632   -15500   -14737 
