Origin Time       2025/01/13 21:19:00
Lat.              31.8
Long.             131.6
Depth. (km)       30
Mag.              6.9
Station Code      MYZH01
Station Lat.      32.6536
Station Long.     131.2257
Station Height(m) 605
Record Time       2025/01/13 21:19:49
Sampling Freq(Hz) 100Hz
Duration Time(s)  162
Dir.              6
Scale Factor      7845(gal)/8223790
Max. Acc. (gal)   17.160
Last Correction   2025/01/13 21:19:49
Memo.             
[...]
  -17910   -17829   -17763   -17641   -17477   -17331   -17297   -17400 
  -17550   -17725   -17984   -18283   -18508   -18640   -18747   -18854 
  -18908   -18883   -18819   -18785   -18843   -18933   -18976   -18993 
  -18981   -18877   -18688   -18493   -18395   -18430   -18496   -18481 
  -18377   -18245   -18162   -18166   -18206   -18254   -18315   -18330 
  -18241   -18095   -18021   -18122   -18342   -18547   -18747   -19018 
  -19321   -19534   -19584   -19560   -19620   -19822   -20075   -20264 
  -20380   -20494   -20586   -20540   -20272   -19777   -19151   -18566 
  -18095   -17714   -17512   -17555   -17741   -17928   -18063   -18196 
  -18392   -18635   -18944   -19373   -19850   -20155   -20140   -19857 
  -19444   -18939   -18322   -17664   -17108   -16758   -16659   -16845 
  -17302   -17921   -18531   -19002   -19306   -19502   -19664   -19777 
  -19762   -19581   -19299   -19036   -18870   -18758   -18652   -18592 
  -18551   -18389   -18080   -17826   -17838   -18042   -18203   -18283 
  -18373   -18420   -18392   -18389   -18482   -18643   -18773   -18755 
  -18612   -18540   -18670   -18939   -19271   -19639   -19958   -20112 
  -20124   -20120   -20132   -20063   -19826   -19475   -19140   -18874 
  -18712   -18723   -18879   -19110   -19330   -19415   -19333   -19110 
  -18701   -18187   -17842   -17806   -17933   -18108   -18434   -18868 
  -19091   -18947   -18573   -18112   -17694   -17397   -17136   -16889 
  -16729   -16629   -16672   -17047   -17707   -18401   -18990   -19543 
  -20120   -20618   -20962   -21197   -21317   -21153   -20580   -19791 
  -19195   -18981   -18943   -18875   -18763   -18630   -18554   -18547 
  -18397   -17984   -17469   -17095   -16924   -16891   -17062   -17550 
  -18287   -19178   -20132   -20969   -21504   -21531   -20933   -19876 
  -18643   -17401   -16202   -15076   -14192   -13855   -14283   -15426 
  -16908   -18349   -19622   -20838   -22130   -23118   -23249   -22609 
  -21524   -20147   -18789   -17678   -16738   -15965   -15487   -15352 
  -15643   -16529   -17905   -19288   -20332   -21069   -21514   -21520 
  -20984   -19998   -18914   -18127   -17760   -17680   -17755   -17957 
  -18268   -18651   -19099   -19469   -19452   -18906   -18130   -17613 
  -17470   -17523   -17725   -18038   -18488   -19211   -19993   -20464 
  -20478   -20056   -19441   -18831   -18210   -17632   -17307   -17444 
  -17955   -18531   -19159   -19961   -20679   -20960   -20808   -20413 
  -19838   -19110   -18342   -17756   -17689   -18231   -18959   -19387 
  -19554   -19816   -20209   -20484   -20567   -20468   -20092   -19325 
  -18225   -17140   -16398   -15979   -15777   -15851   -16372   -17344 
  -18428   -19305   -19997   -20671   -21288   -21645   -21625   -21346 
  -20972   -20453   -19705   -18717   -17482   -16212   -15282   -14824 
  -14832   -15414   -16455   -17552   -18477   -19261   -19885   -20202 
  -20154   -19741   -18995   -18279   -18042   -18202   -18451   -18779 
  -19269   -19897   -20459   -20641   -20405   -19950   -19435   -18902 
  -18092   -16792   -15399   -14532   -14484   -15171   -16204   -17150 
  -17855   -18430   -19017   -19606   -20167   -20721   -21189   -21606 
  -21955   -21770   -20954   -20247   -19978   -19711   -19187   -18501 
  -17825   -17352   -17154   -17103   -17058   -17000   -17005   -17209 
  -17791   -18663   -19438   -19969   -20395   -20663   -20561   -20058 
  -19306   -18485   -17787   -17332   -17070   -16991   -17232   -17918 
  -19072   -20468   -21640   -22287   -22415   -22154   -21660   -20949 
  -19915   -18723   -17732   -17038   -16534   -16170   -15969   -16031 
  -16266   -16345   -16266   -16464   -17259   -18416   -19359   -19778 
  -19934   -20190   -20468   -20507   -20302   -19942   -19526   -19099 
  -18550   -18049   -17987   -18306   -18607   -18740   -18870   -19026 
  -18924   -18450   -17930   -17689   -17749   -17949   -18196   -18585 
  -19071   -19336   -19175   -18593   -17705   -16841   -16366   -16285 
  -16499   -17145   -18253   -19473   -20379   -20765   -20696   -20449 
  -20229   -19909   -19305   -18590   -18064   -17745   -17540   -17346 
  -17035   -16768   -17004   -17953   -19201   -20043   -20178   -19832 
  -19273   -18679   -18227   -17898   -17753   -18090   -18832   -19662 
  -20445   -21026   -21374   -21509   -21228   -20524   -19711   -19049 
  -18531   -17944   -17298   -16899   -16889   -17181   -17624   -18099 
  -18580   -18978   -19224   -19467   -19742   -19874   -19863   -19797 
  -19656   -19521   -19561   -19726   -19836   -19901   -19934   -19773 
  -19477   -19272   -19117   -18918   -18678   -18253   -17566   -16845 
  -16312   -15955   -15808   -16121   -17014   -18227   -19406   -20318 
  -20953   -21362   -21452   -21169   -20617   -19899   -19032   -18036 
  -16954   -15878   -14980   -14431   -14304   -14658   -15557   -16865 
  -18207   -19207   -19780   -20101   -20236   -20062   -19677   -19381 
  -19278   -19302   -19399   -19492   -19554   -19620   -19680   -19587 
  -19175   -18504   -17756   -17092   -16750   -16723   -16715   -16814 
  -17230   -17707   -18017   -18195   -18266   -18320   -18530   -18968 
  -19498   -19846   -19959   -20071   -20320   -20598   -20742   -20661 
  -20414   -20224   -20201   -20201   -20100   -19969   -19897   -19863 
  -19850   -19800   -19585   -19272   -18955   -18486   -17883   -17351 
  -16877   -16368   -15942   -15742   -15687   -15593   -15487   -15626 
  -16189   -17051   -18009   -19048   -20231   -21454   -22469   -23086 
  -23259   -22977   -22237   -21064   -19545   -17963   -16773   -16306 
  -16476   -16919   -17558   -18550   -19678   -20472   -20707   -20494 
  -20120   -19765   -19383   -18904   -18357   -17803   -17274   -16811 
  -16541   -16575   -16931   -17564   -18322   -18997   -19511   -19882 
  -20075   -20142   -20220   -20285   -20223   -19947   -19400   -18713 
  -18088   -17500   -16880   -16455   -16382   -16398   -16308   -16411 
  -17041   -18091   -19268   -20355   -21189   -21609   -21424   -20686 
  -19857   -19249   -18709   -18099   -17531   -17130   -16930   -17010 
  -17577   -18688   -19950   -20912   -21597   -22258   -22858   -22993 
  -22391   -21142   -19508   -17855   -16465   -15228   -14018   -13255 
  -13429   -14519   -16168   -17922   -19506   -21116   -22843   -24219 
  -24965   -25300   -25245   -24544   -23193   -21520   -19954   -18725 
  -17725   -16869   -16247   -15657   -14840   -14129   -13876   -14037 
  -14700   -15905   -17292   -18473   -19251   -19653   -19854   -19835 
  -19515   -19009   -18531   -18231   -17995   -17633   -17188   -16711 
  -16190   -15876   -16089   -16798   -17753   -18731   -19552   -20110 
  -20395   -20599   -21043   -21756   -22377   -22443   -21778   -20741 
  -19808   -19035   -18249   -17478   -17014   -17047   -17352   -17604 
  -17782   -18037   -18408   -18782   -19022   -18966   -18436   -17537 
  -16622   -15998   -15934   -16457   -17189   -17919   -18771   -19749 
  -20684   -21325   -21462   -21281   -21109   -20818   -20100   -19039 
  -18075   -17714   -18150   -18947   -19604   -20011   -20081   -19795 
  -19236   -18372   -17383   -16646   -16254   -16213   -16575   -17165 
  -17772   -18358   -18832   -19068   -19188   -19462   -20009   -20683 
  -21170   -21289   -21097   -20722   -20343   -20117   -19897   -19454 
  -18928   -18523   -18014   -17176   -16268   -15611   -15272   -15248 
  -15589   -16360   -17412   -18424   -19245   -19839   -20092   -19953 
  -19577   -19302   -19421   -19889   -20488   -21096   -21450   -21240 
  -20526   -19575   -18661   -18014   -17655   -17463   -17308   -17046 
  -16737   -16700   -17103   -17695   -18126   -18391   -18720   -19095 
  -19299   -19275   -19089   -18825   -18650   -18582   -18401   -18037 
  -17734   -17721   -18011   -18409   -18651   -18638   -18532   -18573 
  -18874   -19332   -19741   -20047   -20372   -20746   -20929   -20614 
  -19873   -19190   -18875   -18682   -18308   -17825   -17474   -17431 
  -17595   -17651   -17608   -17794   -18411   -19380   -20470   -21442 
  -22099   -22297   -22023   -21382   -20556   -19688   -18825   -18087 
  -17520   -17092   -16965   -17130   -17208   -17023   -16737   -16510 
  -16406   -16399   -16407   -16471   -16900   -17965   -19419   -20760 
  -21710   -22154   -22154   -21932   -21440   -20422   -18941   -17383 
  -16035   -14997   -14446   -14535   -15213   -16281   -17325   -18158 
  -19124   -20293   -21226   -21605   -21489   -21135   -20668   -20100 
  -19543   -19128   -19107   -19701   -20588   -21242   -21384   -20888 
  -19853   -18558   -17165   -15711   -14382   -13505   -13405   -14354 
  -16258   -18457   -20183   -21219   -21844   -22158   -22100   -21906 
  -21683   -21273   -20694   -20002   -19192   -18387   -17701   -17223 
  -17115   -17278   -17317   -17151   -17074   -17251   -17636   -18003 
  -18037   -17926   -18300   -19209   -20166   -20819   -21007   -20802 
  -20437   -20043   -19674   -19435   -19353   -19152   -18601   -17906 
  -17307   -16803   -16328   -15866   -15543   -15510   -15827   -16626 
  -17911   -19333   -20459   -21011   -20952   -20429   -19645   -18773 
  -17736   -16513   -15583   -15321   -15612   -16352   -17483   -18878 
  -20387   -21757   -22670   -22912   -22573   -22011   -21350   -20518 
  -19720   -19179   -18917   -18886   -18881   -18816   -18812   -18729 
  -18457   -18216   -18076   -18094   -18355   -18569   -18582   -18688 
  -19036   -19465   -19602   -19066   -17861   -16398   -15245   -14797 
  -14990   -15429   -15931   -16640   -17556   -18593   -19707   -20586 
  -20969   -21173   -21624   -22279   -22864   -23087   -22643   -21617 
  -20444   -19298   -18037   -16611   -15338   -14663   -14543   -14578 
  -14916   -15924   -17284   -18663   -20148   -21415   -22014   -22133 
  -22027   -21571   -20823   -20056   -19191   -18208   -17554   -17323 
  -17147   -16864   -16353   -15526   -14696   -14266   -14315   -14882 
  -16218   -18304   -20599   -22590   -23974   -24479   -24055   -22914 
  -21482   -20159   -19057   -18315   -18034   -18014   -18064   -18033 
  -17844   -17587   -17257   -16993   -17038   -17108   -16914   -16614 
  -16282   -15973   -15738   -15458   -15390   -15869   -16548   -17147 
  -18010   -19170   -20247   -21311   -22536   -23630   -24331   -24568 
  -24312   -23835   -23350   -22628   -21581   -20499   -19693   -19222 
  -18779   -18080   -17258   -16614   -16309   -16228   -16224   -16526 
  -17365   -18625   -20106   -21575   -22796   -23588   -23765   -23365 
  -22584   -21189   -18874   -15977   -13095   -10592    -8671    -7438 
   -7142    -8093   -10153   -12862   -15928   -19164   -22216   -24676 
  -26512   -28001   -29058   -29313   -28669   -27302   -25546   -23588 
  -21312   -18787   -16353   -14330   -12874   -11979   -11682   -12063 
  -12970   -14223   -15827   -17856   -20247   -22670   -24710   -26060 
  -26572   -26327   -25419   -23830   -21748   -19754   -18581   -18476 
  -18972   -19511   -19816   -19774   -19371   -18651   -17783   -17032 
  -16671   -16973   -17895   -18917   -19580   -19808   -19812   -19866 
  -19998   -20029   -19788   -19260   -18697   -18296   -17907   -17369 
  -16862   -16698   -16972   -17536   -18065   -18401   -18918   -19967 
  -21217   -22107   -22491   -22410   -21810   -20787   -19604   -18462 
  -17452   -16440   -15261   -14215   -13849   -14303   -15223   -16278 
  -17463   -18886   -20420   -21732   -22631   -23282   -23792   -24007 
  -23954   -23670   -23240   -23080   -22952   -22079   -20459   -18639 
  -17041   -15715   -14481   -13435   -12982   -13363   -14369   -15619 
  -17070   -18793   -20394   -21373   -21690   -21466   -20706   -19354 
  -17490   -15510   -13639   -11920   -10685   -10200   -10496   -11623 
  -13416   -15479   -17525   -19323   -20663   -21386   -21406   -21070 
  -20934   -21078   -21274   -21415   -21524   -21737   -22081   -22288 
  -22211   -22126   -22087   -21753   -20914   -19554   -17940   -16532 
  -15410   -14497   -14142   -14777   -16368   -18296   -19813   -20915 
  -22022   -23033   -23557   -23350   -22381   -20853   -18963   -16903 
  -14979   -13389   -12340   -12012   -12117   -12409   -13138   -14418 
  -16146   -18100   -19731   -20819   -21671   -22350   -22594   -22300 
  -21706   -21004   -19934   -18264   -16362   -14844   -14042   -14042 
  -14690   -15727   -17155   -18939   -20638   -21859   -22611   -23178 
  -23792   -24297   -24416   -24189   -23581   -22388   -20669   -18669 
  -16710   -15191   -14274   -14218   -15641   -18663   -22418   -25890 
  -28629   -30515   -31406   -31050   -29197   -26183   -22864   -19529 
  -16005   -12683   -10017    -7993    -6740    -6139    -5769    -5921 
   -7057    -8961   -11106   -13277   -15691   -18333   -20910   -23334 
  -25421   -26897   -27557   -27068   -25332   -22693   -19749   -17242 
  -15457   -14069   -13146   -13348   -14818   -16960   -19449   -22300 
  -25034   -26956   -27928   -28024   -27135   -25450   -23333   -20911 
  -18553   -16684   -15240   -14121   -13483   -13374   -13640   -14091 
  -14408   -14382   -14455   -15138   -16083   -16575   -16492   -16167 
  -15790   -15503   -15430   -15646   -16451   -17887   -19291   -20081 
  -20391   -20644   -20765   -20366   -19521   -18634   -18002   -17869 
  -18180   -18632   -19202   -19851   -20217   -20270   -20433   -20895 
  -21701   -22927   -24354   -25887   -27853   -30180   -32213   -33424 
  -33570   -32416   -29925   -26293   -21720   -16424   -10955    -6292 
   -3059    -1212     -758    -1590    -3119    -4946    -7025    -9246 
  -11554   -13956   -16154   -18048   -20113   -22334   -24297   -26071 
  -27587   -28453   -28485   -27567   -25585   -22682   -19259   -15699 
  -12475   -10173    -8934    -8618    -9281   -10835   -12950   -15294 
  -17581   -19523   -20803   -21355   -21398   -21124   -20753   -20482 
  -20309   -20220   -20430   -21200   -22303   -23264   -23877   -24119 
  -24019   -23529   -22559   -21216   -19722   -18312   -17078   -16200 
  -16194   -17124   -18397   -19750   -21274   -22663   -23228   -22582 
  -20737   -18022   -15120   -12343    -9826    -8174    -7784    -8603 
  -10443   -12988   -16048   -19437   -22651   -25031   -25999   -25550 
  -24304   -22739   -20922   -18958   -17131   -15780   -15302   -15732 
  -16463   -17269   -18617   -20517   -22518   -24250   -25338   -25849 
  -26218   -26292   -25664   -24237   -22114   -19693   -17194   -14547 
  -12251   -10818   -10022    -9674    -9826   -10440   -11662   -13633 
  -16210   -19029   -21614   -23799   -25542   -26276   -25577   -23967 
  -22185   -20598   -19498   -18987   -18881   -19047   -19503   -20228 
  -21020   -21610   -21903   -21888   -21379   -20146   -18239   -15896 
  -13360   -11036    -9474    -9008    -9709   -11731   -15063   -19172 
  -23241   -26553   -28738   -29627   -29203   -27753   -25408   -22248 
  -18800   -15715   -13404   -11853   -10764   -10077    -9891   -10336 
  -11659   -13585   -15147   -15971   -16302   -16077   -15502   -14878 
  -14111   -13535   -13539   -14152   -15430   -17236   -19291   -21316 
  -23107   -24567   -25280   -25029   -24262   -23136   -21452   -19487 
  -17635   -16079   -15190   -15074   -15206   -15279   -15534   -16209 
  -17265   -18384   -19357   -20317   -21190   -21608   -21330   -20399 
  -19192   -17994   -16864   -16127   -16214   -17239   -18920   -20733 
  -22202   -23122   -23650   -24077   -24483   -24698   -24614   -24287 
  -23781   -23380   -23380   -23399   -22815   -21644   -20282   -18999 
  -17932   -17046   -16225   -15477   -14964   -14692   -14450   -14299 
  -14501   -15059   -16032   -17571   -19472   -21331   -22675   -23202 
  -23197   -23039   -22843   -22797   -22962   -23029   -22817   -22588 
  -22504   -22319   -21795   -20848   -19728   -18944   -18327   -17429 
  -16702   -16614   -16690   -16557   -16649   -17219   -17833   -17926 
  -17186   -15815   -14536   -14056   -14364   -14818   -15128   -15300 
  -15433   -15986   -17055   -18049   -18424   -18292   -18127   -17852 
  -17146   -16077   -14809   -13772   -13443   -13884   -14995   -16702 
  -19125   -22014   -24483   -26320   -27788   -28710   -28996   -28510 
  -26932   -24372   -21481   -19040   -17051   -15061   -13444   -12393 
  -11407   -10975   -11700   -12889   -13979   -14951   -15678   -16154 
  -16359   -16237   -15911   -15574   -15606   -16309   -17552   -19118 
  -20907   -22751   -24420   -25863   -27039   -27704   -27611   -26464 
  -24132   -21010   -17716   -14847   -12796   -11704   -11707   -12715 
  -14372   -16340   -18114   -19267   -20024   -20711   -21190   -21412 
  -21556   -21679   -21909   -22312   -22542   -22482   -22542   -22891 
  -23234   -23195   -22626   -21660   -20313   -18399   -15984   -13427 
  -11024    -9024    -7600    -6590    -5813    -5435    -5728    -6797 
   -8587   -10955   -13605   -16214   -18593   -20659   -22507   -24190 
  -25523   -26546   -27450   -28007   -27972   -27407   -26231   -24343 
  -22056   -19838   -17925   -16303   -14920   -13934   -13554   -13736 
  -14478   -15742   -17104   -18310   -19427   -20263   -20671   -20796 
  -20584   -19894   -18889   -17847   -17015   -16592   -16641   -17208 
  -18374   -19953   -21635   -23195   -24277   -24709   -24709   -24344 
  -23521   -22266   -20692   -18994   -17498   -16559   -16383   -17034 
  -18469   -20389   -22358   -24078   -25370   -26041   -25921   -25095 
  -23666   -21627   -19218   -16756   -14428   -12546   -11230   -10447 
  -10546   -11692   -13302   -14914   -16529   -17869   -18516   -18729 
  -18964   -19086   -19063   -19148   -19217   -19184   -19153   -19035 
  -18758   -18477   -18404   -18550   -18754   -19026   -19446   -19938 
  -20402   -20795   -21066   -21278   -21632   -22084   -22470   -22933 
  -23506   -23868   -23834   -23371   -22577   -21752   -21031   -20286 
  -19373   -18188   -16745   -15159   -13567   -12245   -11512   -11431 
  -11846   -12461   -12949   -13373   -14011   -14783   -15545   -16301 
  -16935   -17427   -17871   -18272   -18716   -19318   -20032   -20692 
  -21037   -20906   -20459   -19954   -19610   -19710   -20395   -21382 
  -22218   -22773   -23052   -23017   -22963   -23153   -23329   -23190 
  -22728   -22034   -21186   -20243   -19102   -17574   -15804   -14157 
  -12663   -11242   -10169    -9734    -9896   -10563   -11628   -12802 
  -13953   -15217   -16659   -18181   -19689   -21259   -22794   -23923 
  -24630   -25043   -24949   -24274   -23245   -21999   -20714   -19701 
  -19129   -19001   -19276   -19921   -20893   -21980   -22924   -23630 
  -24015   -23890   -23202   -22238   -21316   -20367   -19144   -17670 
  -16260   -15195   -14540   -14243   -14145   -14065   -14041   -14193 
  -14461   -14806   -15435   -16511   -17915   -19446   -20957   -22319 
  -23512   -24489   -25092   -25245   -24927   -24111   -22702   -20817 
  -19035   -17572   -15994   -14250   -12694   -11433   -10648   -10679 
  -11283   -11954   -12820   -14119   -15646   -17127   -18480   -19851 
  -21235   -22276   -22792   -22812   -22377   -21720   -21064   -20410 
  -19708   -18954   -18202   -17579   -17197   -17132   -17371   -17767 
  -18184   -18526   -18686   -18625   -18360   -17909   -17331   -16714 
  -16228   -16191   -16848   -17956   -19106   -20236   -21188   -21496 
  -20956   -19726   -18181   -16781   -15765   -15214   -15277   -15989 
