Origin Time       2025/01/13 21:19:00
Lat.              31.8
Long.             131.6
Depth. (km)       30
Mag.              6.9
Station Code      MYZH10
Station Lat.      32.0215
Station Long.     131.2900
Station Height(m) 80
Record Time       2025/01/13 21:19:39
Sampling Freq(Hz) 100Hz
Duration Time(s)  214
Dir.              6
Scale Factor      3920(gal)/6170801
Max. Acc. (gal)   31.389
Last Correction   2025/01/13 21:19:24
Memo.             
[...]
  -23922   -23930   -23929   -23922   -23917   -23922   -23930   -23930 
  -23922   -23922   -23927   -23925   -23923   -23925   -23924   -23922 
  -23926   -23929   -23925   -23922   -23925   -23927   -23927   -23925 
  -23923   -23926   -23927   -23924   -23923   -23923   -23922   -23924 
  -23927   -23925   -23923   -23925   -23927   -23925   -23921   -23923 
  -23927   -23928   -23925   -23922   -23926   -23930   -23927   -23922 
  -23921   -23925   -23928   -23924   -23921   -23924   -23928   -23927 
  -23923   -23922   -23926   -23929   -23928   -23921   -23917   -23925 
  -23932   -23929   -23921   -23919   -23926   -23930   -23924   -23923 
  -23927   -23929   -23929   -23925   -23920   -23922   -23926   -23927 
  -23929   -23930   -23925   -23920   -23923   -23929   -23928   -23924 
  -23923   -23923   -23925   -23926   -23924   -23922   -23924   -23929 
  -23930   -23924   -23923   -23926   -23928   -23926   -23922   -23921 
  -23926   -23930   -23925   -23920   -23923   -23927   -23926   -23925 
  -23925   -23923   -23925   -23929   -23927   -23920   -23922   -23930 
  -23928   -23919   -23917   -23927   -23936   -23929   -23915   -23916 
  -23926   -23925   -23921   -23926   -23932   -23929   -23922   -23919 
  -23920   -23921   -23926   -23931   -23930   -23929   -23924   -23916 
  -23917   -23933   -23934   -23913   -23909   -23934   -23946   -23926 
  -23906   -23915   -23935   -23934   -23920   -23915   -23923   -23937 
  -23936   -23912   -23905   -23930   -23945   -23933   -23919   -23917 
  -23923   -23932   -23932   -23918   -23915   -23925   -23932   -23930 
  -23924   -23921   -23924   -23926   -23920   -23917   -23926   -23937 
  -23932   -23917   -23915   -23925   -23928   -23923   -23922   -23928 
  -23934   -23933   -23922   -23913   -23919   -23930   -23931   -23925 
  -23924   -23927   -23922   -23917   -23922   -23931   -23932   -23925 
  -23920   -23920   -23925   -23931   -23925   -23914   -23921   -23933 
  -23927   -23920   -23922   -23925   -23927   -23928   -23925   -23922 
  -23925   -23928   -23925   -23922   -23921   -23925   -23930   -23930 
  -23924   -23921   -23923   -23929   -23929   -23923   -23920   -23923 
  -23927   -23927   -23921   -23920   -23926   -23928   -23927   -23923 
  -23920   -23925   -23928   -23925   -23922   -23923   -23926   -23926 
  -23922   -23922   -23924   -23927   -23927   -23924   -23921   -23922 
  -23926   -23926   -23923   -23925   -23928   -23927   -23922   -23919 
  -23926   -23933   -23924   -23918   -23925   -23933   -23934   -23931 
  -23935   -23954   -23980   -24005   -24028   -24061   -24127   -24204 
  -24237   -24244   -24280   -24343   -24421   -24538   -24723   -24926 
  -24976   -24664   -23941   -23153   -22942   -23610   -24582   -24936 
  -24512   -23985   -23848   -23925   -23981   -24238   -25003   -25990 
  -26347   -25597   -24357   -23705   -24001   -24739   -25283   -25215 
  -24324   -22927   -22038   -22507   -23834   -24554   -24131   -23579 
  -23791   -24213   -23834   -22799   -22252   -22807   -23751   -24000 
  -23437   -22829   -22628   -22503   -22164   -22164   -23199   -24638 
  -24861   -23512   -22292   -22797   -24358   -25056   -24535   -24283 
  -24962   -25308   -24306   -22837   -22328   -22950   -24158   -25607 
  -26339   -25155   -22914   -22046   -23268   -24826   -24755   -22968 
  -21537   -22599   -25672   -27939   -27516   -25682   -25066   -26064 
  -26809   -26563   -26704   -27961   -29188   -29722   -30238   -30493 
  -29545   -28325   -28462   -29369   -29334   -28370   -27919   -28165 
  -27785   -26940   -27423   -29144   -30196   -30307   -30810   -31812 
  -31836   -30434   -29339   -29536   -28997   -25826   -22182   -21942 
  -24575   -24929   -20983   -17827   -20141   -24921   -26790   -26404 
  -27582   -29402   -27936   -24094   -22623   -23389   -20861   -14070 
   -9899   -12296   -15048   -11451    -5254    -5478   -13968   -23334 
  -26459   -24161   -21789   -21189   -20040   -17547   -15680   -15352 
  -15310   -14490   -13744   -15262   -19740   -23939   -23744   -20298 
  -18810   -21107   -24079   -24402   -21687   -18372   -17251   -18612 
  -20282   -20155   -18701   -19124   -23588   -28981   -29019   -22240 
  -14654   -11886   -13082   -14735   -15296   -14766   -14485   -17384 
  -23646   -27062   -22033   -13681   -12996   -20802   -25861   -22142 
  -17896   -22338   -31843   -35751   -31667   -28423   -32988   -40703 
  -43010   -39863   -37976   -39560   -39727   -34911   -28617   -26976 
  -30920   -35250   -35550   -33711   -34659   -39129   -43289   -44476 
  -42713   -38330   -33032   -30494   -31975   -34399   -34791   -33838 
  -33860   -35046   -35316   -33114   -29035   -25859   -26719   -30916 
  -33462   -30819   -24606   -19029   -16117   -14192   -11882   -11401 
  -14653   -18692   -18310   -12619    -7305    -7864   -11925   -12831 
   -8936    -5421    -7327   -12057   -12317    -7400    -4069    -5333 
   -7006    -6068    -6002   -11353   -19592   -23239   -20091   -15735 
  -15496   -19067   -23193   -25812   -26929   -26586   -24239   -21368 
  -20759   -22337   -24297   -27006   -30813   -31952   -26848   -20342 
  -21570   -29403   -31705   -23262   -14987   -19625   -34093   -42770 
  -37936   -28719   -26870   -33203   -40809   -43473   -39956   -33861 
  -29775   -30128   -34393   -38664   -38243   -32802   -26459   -22852 
  -22672   -23821   -22851   -18973   -15727   -17205   -23341   -29159 
  -29797   -25628   -21316   -21064   -24100   -25241   -21600   -15870 
  -12230   -11850   -12440   -11661   -10410   -11801   -17770   -26599 
  -33058   -32581   -26697   -22478   -24222   -28274   -29246   -27602 
  -26956   -27373   -26174   -23250   -21622   -23505   -27549   -29957 
  -28954   -27395   -28408   -30826   -32473   -33771   -35436   -35957 
  -32238   -23580   -15020   -12298   -14495   -16569   -16666   -17636 
  -22775   -30358   -34061   -30673   -24036   -21009   -25170   -31374 
  -29943   -20336   -12378   -11941   -13843   -10806    -5007    -4482 
   -9543   -13464   -15488   -21851   -33431   -41410   -39771   -34409 
  -32218   -30467   -24904   -18922   -18529   -23242   -26297   -24550 
  -24305   -31966   -41852   -42318   -32980   -25649   -27716   -33226 
  -32167   -23514   -15621   -14319   -15934   -15536   -15278   -19071 
  -25506   -29662   -28131   -23187   -22037   -28026   -35249   -36119 
  -31462   -28281   -29164   -29762   -26032   -19314   -13574   -10287 
   -9019   -10441   -14901   -21170   -28106   -34634   -39244   -41412 
  -42086   -41699   -37748   -26625   -11013     -478     1416     1529 
    2827     -262    -7534    -9607    -3483       41    -9149   -24155 
  -28779   -19274    -7696    -5933   -13044   -17479   -11283     -629 
     102   -14005   -28598   -27281   -17282   -20926   -41857   -58860 
  -55790   -43481   -43649   -56904   -61984   -46509   -22951   -12012 
  -17133   -22375   -18229   -15317   -24453   -37931   -40025   -29694 
  -23558   -33442   -49117   -51510   -38026   -23581   -18482   -18036 
  -14634    -9159    -7491   -12210   -20379   -26985   -29135   -28250 
  -30044   -37752   -43648   -37594   -25189   -23228   -34424   -42120 
  -35029   -22577   -19268   -24301   -25699   -19801   -14579   -16072 
  -21973   -25395   -22294   -17486   -18449   -24352   -27438   -22743 
  -14332   -11524   -16894   -23151   -23771   -18692   -10377    -2091 
    1268    -4007   -16643   -30371   -37740   -35414   -26588   -18396 
  -16234   -19455   -23360   -24699   -24660   -27462   -33388   -36400 
  -33432   -28757   -27782   -30638   -30919   -24377   -16684   -15664 
  -19664   -19277   -10215     -459     -957   -11595   -20720   -19472 
  -13261   -13379   -20382   -23751   -18208   -13098   -19361   -34128 
  -43973   -40040   -29179   -24557   -27334   -29259   -26875   -23698 
  -22964   -23569   -24752   -28559   -33551   -34902   -33068   -33225 
  -35719   -35147   -29224   -22196   -17575   -13586    -9910    -9844 
  -13474   -19260   -27792   -37166   -43103   -44512   -43564   -42461 
  -40254   -32980   -20392    -9223    -7467   -17013   -29307   -32089 
  -25290   -21965   -29856   -40633   -41914   -34754   -30825   -33674 
  -33938   -25518   -15876   -14159   -17467   -16885   -12612   -13852 
  -22169   -27239   -23413   -16888   -14888   -17310   -19261   -18839 
  -18644   -19455   -20122   -22328   -26595   -27374   -19908    -8886 
   -4983   -12539   -23634   -27328   -22172   -16084   -16176   -21346 
  -25613   -27191   -29181   -32654   -35185   -33401   -25383   -15658 
  -13565   -20691   -26714   -22855   -13971   -12281   -20578   -28539 
  -28919   -27585   -31090   -35531   -34811   -31040   -30318   -32322 
  -30633   -23495   -16572   -13633   -13161   -15086   -21908   -31176 
  -34346   -27886   -20433   -22175   -30415   -32925   -25371   -17640 
  -18895   -24483   -24208   -17224   -11698   -12937   -18163   -22002 
  -23242   -24934   -28033   -29261   -27311   -25133   -25132   -27482 
  -30805   -31746   -28438   -23309   -19246   -16786   -15049   -13466 
  -13534   -16568   -20247   -21876   -23040   -25736   -27425   -26640 
  -27865   -33206   -35972   -29632   -18785   -15223   -22744   -31460 
  -30679   -21553   -12663    -8560    -7423    -6394    -5780    -8402 
  -13805   -17081   -16848   -17506   -22590   -29693   -31380   -24656 
  -17451   -18562   -25252   -27924   -24961   -23933   -27638   -30192 
  -27366   -22280   -21349   -26139   -30352   -29841   -29233   -31143 
  -30587   -25122   -19612   -19487   -23556   -24787   -20464   -16633 
  -17668   -21296   -24044   -22057   -15760   -14187   -21534   -28770 
  -28036   -23453   -22229   -24610   -27253   -29486   -31917   -32586 
  -28825   -24219   -25884   -31317   -30050   -19125    -6244     -378 
   -4955   -16148   -23963   -20293   -10423    -9037   -20755   -33010 
  -33075   -26273   -29817   -47851   -60369   -47907   -21273    -8485 
  -18904   -35899   -38129   -23964   -13813   -20822   -31238   -27312 
  -14112    -9738   -20970   -37078   -43775   -41932   -43151   -46840 
  -40733   -23239    -8483    -7614   -17226   -27438   -31790   -31050 
  -29235   -28085   -29336   -33036   -33097   -25757   -18847   -22263 
  -32220   -34306   -22892   -10374   -11143   -21556   -25994   -19649 
  -14096   -18669   -25877   -23976   -16847   -18233   -30489   -41187 
  -40748   -34130   -30178   -28164   -23307   -17720   -17538   -22892 
  -26955   -25393   -21088   -17167   -12436    -7078    -4277    -4912 
   -9014   -16951   -25194   -29827   -29951   -25727   -21393   -23089 
  -29775   -34326   -32894   -29282   -29324   -31959   -31443   -28198 
  -28341   -32618   -34854   -31776   -27482   -26412   -26819   -23897 
  -16910   -10255    -8257   -11438   -17078   -22033   -24954   -27182 
  -31292   -36022   -36366   -31948   -28617   -28569   -25985   -17185 
   -8980    -9956   -17734   -23233   -24578   -26977   -30461   -29144 
  -22830   -18612   -20156   -23683   -25532   -26634   -27411   -25582 
  -22141   -22899   -29745   -35139   -32194   -26393   -27383   -32635 
  -31518   -24112   -21560   -27002   -30956   -26166   -16415   -10224 
   -9480    -8714    -6088    -6484   -12959   -21921   -27729   -29704 
  -31409   -33552   -34158   -34635   -37197   -39177   -37177   -32459 
  -28028   -23899   -18430   -14050   -16793   -26993   -34858   -30858 
  -19215   -13349   -17781   -23590   -22911   -19603   -20188   -20978 
  -14295    -2948     1074    -7636   -19508   -22950   -20572   -23024 
  -31235   -35116   -29152   -20670   -18565   -20837   -20109   -15128 
  -10269    -8329    -8837   -11429   -15995   -20300   -22037   -21190 
  -17699   -10831    -3015     -120    -3908    -8462    -9690   -12554 
  -23421   -39285   -48435   -43341   -30871   -24815   -29776   -37353 
  -37541   -30865   -26021   -26278   -26592   -24161   -22482   -24124 
  -25853   -23927   -20834   -22331   -28762   -34097   -33497   -28570 
  -26021   -30008   -35201   -32538   -22501   -15738   -18097   -22484 
  -19219    -9172    -2357    -4219    -9188   -10646   -10206   -13140 
  -19591   -23461   -20033   -13237   -12632   -23254   -39657   -50895 
  -51306   -44697   -39658   -40916   -43456   -38713   -26127   -14443 
  -11796   -16573   -21312   -23556   -27582   -35864   -43509   -45287 
  -43387   -41765   -39446   -34776   -29994   -28128   -28726   -28165 
  -23283   -16268   -14510   -21649   -32086   -37739   -37575   -36849 
  -37517   -36717   -34662   -34051   -31746   -21125    -5253     1702 
   -7551   -21873   -25502   -18210   -13788   -19612   -27692   -28206 
  -22643   -20710   -27581   -37019   -39165   -31972   -22632   -19187 
  -21104   -21148   -16742   -12309   -12238   -17106   -22662   -24524 
  -24649   -25909   -26266   -22787   -16187   -11477   -12407   -16293 
  -18291   -17585   -17585   -21385   -26830   -27628   -21737   -15102 
  -14155   -19159   -25128   -26684   -23715   -20700   -20276   -21761 
  -24453   -26966   -25595   -20394   -19682   -29706   -42194   -41545 
  -26781   -16714   -24247   -35985   -32672   -19195   -15240   -23656 
  -27210   -16398    -3751    -3638   -11674   -14990   -12646   -12753 
  -16033   -16462   -13869   -13757   -17695   -21707   -23467   -26456 
  -33346   -38627   -35409   -27234   -24859   -32305   -42352   -45984 
  -42216   -36468   -32655   -31916   -34967   -39470   -40294   -36694 
  -32980   -29622   -20646    -4315     8544     5637    -8700   -19301 
  -23828   -34736   -56326   -73337   -67886   -41523   -13055     1620 
     -70   -11411   -21775   -21539   -11219    -4277   -10290   -19464 
  -16964    -5330     -886   -12293   -28063   -29479   -15774    -5081 
   -9251   -20674   -25290   -19965   -13366   -11608   -11862   -12964 
  -19309   -29987   -36608   -35415   -33467   -38311   -44469   -40641 
  -30484   -27278   -30017   -28379   -23339   -20918   -16928    -6963 
   -2762   -18360   -42198   -45177   -20439     2645    -6041   -35408 
  -43429   -14237    14928      862   -44073   -62948   -29742    12177 
    7519   -34666   -57024   -35486    -5315    -5272   -28058   -41263 
  -38047   -37751   -44177   -40486   -24966   -15510   -17964   -19409 
  -12168    -5869   -12139   -25663   -32025   -29501   -26355   -23818 
  -19296   -16188   -16041   -12338    -1281     9285     7142    -9352 
  -27002   -29793   -13680     7681    12391    -7262   -34548   -47890 
  -45561   -43710   -52699   -63245   -61008   -46758   -32725   -27616 
  -30964   -34644   -30741   -22955   -23714   -34521   -40981   -35423 
  -28618   -31795   -42499   -49902   -46373   -36887   -31675   -27982 
  -14613     5880    15097     3112   -14426   -14490     1637     8831 
   -6455   -26568   -30002   -23032   -27869   -48045   -61311   -50745 
  -29519   -22358   -31479   -34454   -18005    -1264    -7618   -28246 
  -37060   -25475    -8750    -4716   -10948   -12618    -6289       10 
    1482     -726    -6233   -18119   -36340   -49391   -44628   -27655 
  -16463   -19340   -29207   -34382   -30462   -25737   -29538   -36488 
  -36317   -30447   -27577   -30480   -31303   -25438   -23712   -34040 
  -45232   -42052   -24692   -11948   -20110   -37370   -39599   -27600 
  -23267   -32741   -36698   -21879    -5308   -10576   -29970   -35596 
  -21934    -9235    -7678    -4173    11151    23794    13492   -13211 
  -27819   -18619    -4744    -6593   -21377   -34132   -38475   -40310 
  -45082   -47087   -38590   -25282   -20023   -26541   -37859   -42516 
  -34793   -22476   -16488   -19152   -24665   -26074   -25620   -30287 
  -36730   -36151   -27811   -17807   -12712   -15061   -21653   -29283 
  -37339   -41982   -37414   -26022   -18723   -21230   -26539   -25426 
  -19404   -18735   -27433   -35564   -32969   -23487   -18182   -22782 
  -33667   -39620   -32814   -20419   -16497   -23430   -29450   -24031 
  -11311    -5044    -9548   -13681    -9093    -3067    -6798   -20590 
  -33443   -35574   -29344   -23301   -22698   -25853   -25266   -20201 
  -19028   -24750   -32969   -37480   -32927   -23871   -23483   -33074 
  -37653   -28697   -16117   -12790   -17348   -18704   -14556   -14122 
  -20972   -26447   -24303   -21759   -28219   -39400   -43249   -38184 
  -34237   -36763   -40513   -40000   -35035   -26927   -17149    -9187 
   -6919    -9976   -12677   -10295    -6242    -8112   -16195   -21766 
  -18406   -11499   -10602   -15075   -18870   -22945   -30554   -39970 
  -46113   -43932   -35808   -31466   -33339   -33752   -29044   -23481 
  -20823   -20793   -20641   -17933   -13679   -11454   -14257   -22129 
  -31452   -37654   -38964   -37344   -35962   -36613   -39268   -41856 
  -41094   -36873   -33586   -32359   -27012   -13575      307     1923 
   -8766   -17388   -15682   -11933   -17190   -28761   -34522   -31523 
  -28007   -28621   -28683   -22284   -10993    -1555     3495     6480 
    6498    -1089   -16118   -31797   -43273   -51385   -55146   -50641 
  -41639   -37506   -37451   -30772   -15007    -3082    -6519   -18192 
  -22464   -18795   -21222   -33597   -40938   -32136   -17041   -10352 
   -9760    -4645     1000    -6150   -23448   -32333   -24117   -10672 
   -7465   -15155   -21918   -19183   -10351    -4531    -4853    -6672 
   -6914    -9454   -17812   -27644   -33193   -37066   -45231   -55125 
  -57682   -50659   -42342   -39009   -35182   -25333   -17010   -18829 
  -25503   -25487   -17219   -13777   -27620   -50314   -59959   -49923 
  -36871   -37810   -46952   -44362   -25158    -5448      147    -4932 
   -6532      526     6186     1142   -10053   -18203   -22539   -27300 
  -32184   -31821   -23503   -13576   -10486   -12731   -13758   -13219 
  -14124   -16470   -19085   -23407   -31254   -39780   -44547   -46388 
  -48236   -47758   -38778   -20656    -4134    -2523   -16306   -31564 
  -36527   -35442   -39485   -47961   -48889   -37902   -25886   -24728 
  -32396   -36367   -30639   -22898   -22297   -27282   -29248   -24873 
  -20039   -21248   -27547   -32164   -30115   -23103   -17076   -14687 
  -11579    -3497     5650     8200     2854    -4842   -10892   -16909 
  -25297   -34456   -40020   -39369   -34789   -31063   -30755   -32734 
  -33815   -33045   -32952   -33758   -30978   -22586   -14277   -12535 
  -15479   -17113   -16820   -17368   -18199   -16519   -12557   -11046 
  -15783   -23137   -25285   -20007   -12934   -10316   -13068   -18629 
  -25033   -31563   -38425   -43698   -41367   -30680   -20409   -15816 
  -14223   -13860   -15428   -20476   -29499   -36909   -36304   -32072 
  -35053   -46122   -54343   -52512   -45769   -43507   -46675   -46026 
  -35428   -21826   -15540   -16506   -17105   -13540    -9949   -12633 
  -20258   -23795   -18526    -9975    -5205    -3405       49     3796 
    1679    -7090   -14886   -14969   -10022    -8917   -16499   -27816 
  -35034   -37407   -39353   -43037   -45022   -40489   -30373   -19308 
  -10868    -7047    -8216   -13816   -20513   -23186   -21468   -19226 
  -19306   -20820   -19893   -16491   -16485   -22846   -30837   -33532 
  -28830   -20587   -13462    -8055    -3157     -758    -5819   -20193 
  -37041   -46459   -46455   -42107   -38133   -36894   -38335   -39566 
  -38246   -35912   -35364   -36325   -35140   -29795   -23919   -21619 
  -21748   -21983   -23945   -30080   -37736   -40744   -38319   -36841 
