Origin Time       2025/01/13 21:19:00
Lat.              31.8
Long.             131.6
Depth. (km)       30
Mag.              6.9
Station Code      MYZH04
Station Lat.      32.5181
Station Long.     131.3349
Station Height(m) 250
Record Time       2025/01/13 21:19:46
Sampling Freq(Hz) 100Hz
Duration Time(s)  175
Dir.              4
Scale Factor      7845(gal)/8223790
Max. Acc. (gal)   26.974
Last Correction   2025/01/13 21:19:47
Memo.             
[...]
   -7946    -7946    -7946    -7947    -7947    -7944    -7946    -7946 
   -7943    -7946    -7948    -7947    -7946    -7944    -7942    -7943 
   -7944    -7946    -7946    -7944    -7943    -7944    -7944    -7944 
   -7946    -7946    -7946    -7944    -7943    -7944    -7944    -7943 
   -7943    -7944    -7946    -7946    -7944    -7946    -7947    -7946 
   -7944    -7946    -7946    -7944    -7947    -7947    -7946    -7946 
   -7947    -7946    -7944    -7944    -7946    -7944    -7946    -7948 
   -7947    -7946    -7947    -7947    -7946    -7946    -7946    -7943 
   -7944    -7944    -7943    -7943    -7944    -7944    -7946    -7946 
   -7944    -7943    -7946    -7947    -7944    -7944    -7946    -7944 
   -7946    -7946    -7946    -7946    -7946    -7946    -7946    -7947 
   -7947    -7948    -7950    -7950    -7951    -7952    -7952    -7954 
   -7955    -7958    -7963    -7965    -7967    -7974    -7978    -7985 
   -7992    -7996    -8002    -8010    -8013    -8014    -8012    -8005 
   -7996    -7981    -7962    -7943    -7924    -7904    -7886    -7878 
   -7875    -7879    -7892    -7913    -7943    -7979    -8021    -8062 
   -8100    -8132    -8151    -8148    -8133    -8104    -8055    -7994 
   -7928    -7861    -7798    -7742    -7690    -7651    -7632    -7636 
   -7659    -7697    -7746    -7805    -7873    -7935    -7990    -8037 
   -8078    -8125    -8175    -8195    -8179    -8145    -8105    -8054 
   -8001    -7969    -7963    -7965    -7955    -7942    -7927    -7893 
   -7846    -7819    -7854    -7958    -8082    -8189    -8255    -8270 
   -8252    -8218    -8163    -8089    -7996    -7881    -7761    -7676 
   -7666    -7709    -7735    -7743    -7794    -7878    -7942    -7989 
   -8066    -8195    -8357    -8505    -8627    -8743    -8816    -8788 
   -8681    -8580    -8514    -8433    -8329    -8263    -8267    -8301 
   -8305    -8252    -8155    -8056    -7987    -7986    -8098    -8283 
   -8399    -8347    -8164    -7998    -7992    -8163    -8388    -8537 
   -8553    -8432    -8225    -8039    -7950    -7948    -7958    -7938 
   -7931    -7983    -8075    -8117    -7985    -7662    -7315    -7146 
   -7253    -7551    -7871    -8085    -8109    -7982    -7904    -8006 
   -8166    -8202    -8078    -7830    -7561    -7381    -7264    -7149 
   -7056    -6940    -6666    -6231    -5925    -6037    -6478    -6995 
   -7573    -8264    -8841    -9049    -8972    -8851    -8780    -8756 
   -8753    -8653    -8402    -8121    -7974    -7998    -8102    -8151 
   -8090    -7952    -7759    -7546    -7477    -7788    -8502    -9239 
   -9578    -9521    -9266    -8838    -8301    -7943    -7931    -8104 
   -8257    -8397    -8544    -8529    -8214    -7716    -7223    -6759 
   -6327    -6177    -6542    -7260    -7960    -8355    -8333    -8056 
   -7828    -7838    -7973    -7960    -7771    -7507    -7144    -6957 
   -7474    -8549    -9227    -8841    -7757    -6754    -6158    -6060 
   -6637    -7724    -8722    -9400   -10088   -10710   -10584    -9558 
   -8338    -7493    -6978    -6694    -6696    -6895    -7253    -7912 
   -8799    -9459    -9585    -9396    -9117    -8660    -8202    -8178 
   -8513    -8787    -8935    -9103    -9081    -8484    -7537    -7010 
   -7087    -7155    -6859    -6482    -6338    -6448    -6772    -7307 
   -7828    -7974    -7763    -7566    -7685    -8197    -8904    -9315 
   -9007    -8224    -7620    -7368    -7218    -7279    -7955    -8997 
   -9593    -9516    -9034    -8171    -7126    -6610    -7029    -7928 
   -8617    -8982    -9225    -9204    -8814    -8284    -7627    -6816 
   -6280    -6334    -6728    -7213    -7885    -8748    -9416    -9563 
   -9439    -9621   -10149   -10328    -9730    -8656    -7358    -5935 
   -4924    -4866    -5607    -6667    -7738    -8634    -9248    -9626 
   -9757    -9417    -8588    -7634    -6700    -5709    -5009    -5057 
   -5668    -6394    -7106    -7711    -8044    -8259    -8509    -8549 
   -8263    -8020    -8220    -8951   -10092   -11499   -12823   -13200 
  -12027    -9911    -7824    -6041    -4791    -4611    -5474    -6670 
   -7620    -8159    -8244    -7935    -7587    -7408    -6984    -6049 
   -5144    -4769    -5049    -6316    -8486   -10461   -11248   -10909 
   -9956    -8541    -6844    -5609    -5263    -5485    -6301    -8102 
  -10272   -11454   -11169    -9799    -7655    -5348    -3815    -3257 
   -3323    -4045    -5756    -8289   -10698   -12229   -12879   -12611 
  -11348    -9599    -8101    -7354    -7514    -7943    -7680    -6868 
   -6542    -7075    -8140    -9455   -10530   -10530    -9270    -7765 
   -7273    -8158    -9661   -10663   -10540    -9174    -7153    -5782 
   -5580    -6223    -7665    -9109    -9046    -7555    -5985    -5008 
   -4712    -5270    -6602    -7992    -8741    -8988    -9196    -9355 
   -9270    -9175    -9591   -10442   -11007   -10979   -10385    -8953 
   -6586    -4051    -2983    -4228    -6399    -7828    -8552    -9151 
   -9574    -9474    -8938    -8683    -8950    -8931    -8081    -6655 
   -4972    -3442    -2829    -3736    -6057    -8814   -10519   -10089 
   -7921    -5778    -5179    -6296    -8284   -10157   -11161   -10762 
   -8995    -6860    -5719    -6114    -7585    -9532   -11034   -10839 
   -9236    -8171    -8522    -9022    -8386    -7052    -5656    -3963 
   -2740    -3591    -6396    -9431   -11379   -11948   -11398   -10450 
  -10079   -10169    -9360    -7038    -4248    -2355    -1818    -2654 
   -5027    -8185   -10272   -10570   -10185   -10233   -10968   -12001 
  -12303   -10868    -7753    -4280    -2351    -3122    -6104    -9671 
  -11896   -11368    -8360    -5004    -3542    -4364    -6300    -8337 
   -9756    -9671    -8291    -7584    -8916   -11207   -12465   -11870 
  -10088    -8110    -6455    -6041    -7476    -9321    -9976    -9664 
   -8857    -7663    -6889    -7167    -8028    -8748    -9099    -9352 
   -9651    -9483    -8579    -7620    -7217    -7233    -7603    -8428 
   -9099    -8850    -7821    -6428    -4729    -2922    -1682    -1814 
   -3505    -6108    -8853   -11335   -13142   -13574   -12449   -10586 
   -8760    -6889    -5013    -4131    -4874    -6574    -8316    -9424 
   -9159    -7392    -5300    -4683    -6210    -8735   -10798   -11581 
  -10652    -8525    -6824    -6710    -7619    -8100    -7641    -6632 
   -5275    -4125    -4326    -6133    -8596   -10540   -10843    -8949 
   -5768    -2988    -1695    -2343    -4943    -8579   -11944   -14223 
  -14931   -14292   -13198   -11978   -10606    -9378    -8486    -8073 
   -8306    -8915    -9327    -9046    -7858    -6288    -5174    -4712 
   -4908    -5883    -7105    -7627    -7128    -6189    -5690    -5879 
   -6367    -6975    -7776    -8379    -8613    -9424   -11306   -13092 
  -13705   -13279   -11896    -9050    -5016    -1399      415      453 
    -886    -3869    -8168   -12139   -14463   -15055   -14157   -12194 
  -10007    -7994    -6076    -4584    -3773    -3569    -4557    -7187 
  -10123   -11461   -10914    -9331    -7245    -4899    -2897    -2257 
   -3006    -3942    -4961    -6860    -8984   -10157   -10508   -10565 
  -10296    -9823    -9675    -9937   -10162   -10246   -10289   -10066 
   -9572    -8989    -7982    -5935    -2875       31     1464     1034 
   -1248    -5107    -9310   -12360   -13855   -14219   -13575   -12129 
  -10817   -10235    -9930    -9151    -7565    -5616    -4108    -3341 
   -3480    -4826    -6770    -8137    -8792    -9119    -9078    -8883 
   -8986    -9347    -9834   -10754   -12069   -13063   -13390   -13194 
  -12127    -9795    -6949    -4996    -4573    -5194    -6210    -7357 
   -8260    -8411    -7642    -6281    -5003    -4125    -3580    -3628 
   -4710    -6889    -9591   -11603   -11951   -10804    -9058    -7650 
   -7114    -7279    -7812    -8409    -8565    -8595    -9317   -10254 
  -10439    -9882    -8819    -7322    -5755    -4432    -3547    -3927 
   -6111    -8992   -11059   -11646   -10602    -8243    -5402    -3458 
   -3735    -6212    -9755   -13533   -16954   -18580   -17161   -13603 
  -10023    -7534    -6477    -7322    -9374   -10384    -9188    -6683 
   -3800    -1159       44     -221     -333      -70     -731    -2513 
   -4958    -8014   -11128   -13130   -13227   -11719    -9931    -8868 
   -8365    -8149    -8414    -8959    -9263    -9505    -9946    -9795 
   -8364    -6470    -5108    -4344    -4722    -6871    -9320   -10238 
  -10003    -9636    -9560   -10377   -12175   -13846   -14297   -13383 
  -11754   -10303    -9566    -9508    -9649    -9306    -7892    -5456 
   -3100    -1856    -1410    -1289    -1802    -2678    -3082    -3318 
   -4333    -6075    -7938    -9737   -11187   -11839   -11537   -10242 
   -8245    -6069    -4212    -3843    -5501    -7431    -8299    -9100 
  -10341   -10859   -10185    -9147    -8414    -8176    -8437    -9157 
  -10141   -10612   -10312   -10181   -10409   -10017    -8860    -7746 
   -6914    -6396    -6890    -8413    -9655    -9923    -9803    -9626 
   -9012    -7956    -7133    -6859    -6787    -6812    -7126    -7415 
   -7083    -6326    -5977    -6110    -6021    -5495    -4737    -3871 
   -3564    -4901    -7947   -11159   -12796   -12438   -10566    -7800 
   -5400    -4734    -5818    -7632    -9158    -9602    -8654    -6887 
   -5502    -5448    -6860    -9236   -11618   -12869   -12600   -11408 
   -9906    -8496    -7875    -8347    -9227    -9606    -8922    -7203 
   -5194    -3672    -3030    -3472    -4622    -5629    -6254    -6918 
   -7904    -9220   -10619   -11556   -11600   -10681    -9205    -8102 
   -8162    -9104    -9819    -9574    -8272    -6274    -4691    -4608 
   -5935    -7711    -8837    -8964    -8775    -8753    -8851    -9213 
   -9821   -10239   -10396   -10667   -11071   -11074   -10296    -9003 
   -7674    -6516    -5670    -5182    -4564    -3519    -2848    -3431 
   -5038    -7006    -8959   -10377   -10782   -10430    -9898    -9570 
   -9574    -9531    -9022    -8257    -7635    -7229    -7163    -7738 
   -8893   -10135   -10924   -10739    -9288    -6943    -4700    -3577 
   -3944    -5260    -6636    -7842    -8954    -9603    -9711    -9651 
   -9435    -9028    -8673    -8448    -8147    -7438    -6195    -4899 
   -4207    -4153    -4245    -4210    -4255    -4394    -4390    -4688 
   -6016    -8224   -10581   -12442   -13456   -13605   -12982   -11847 
  -10752   -10157   -10146   -10187    -9508    -8220    -6971    -5871 
   -5082    -5159    -6367    -8633   -11307   -12974   -12876   -11816 
  -10667    -9333    -7938    -7307    -7441    -7119    -5998    -5304 
   -5668    -6652    -8033    -9306    -9529    -8441    -6377    -4029 
   -2628    -3167    -5333    -7812    -9531   -10227   -10235    -9895 
   -9196    -8143    -6918    -5601    -4367    -3693    -3960    -5000 
   -6114    -6821    -7573    -9111   -11290   -13081   -13416   -11850 
   -8984    -6135    -4182    -3476    -4553    -7277    -9926   -10832 
   -9981    -8093    -5752    -3676    -2463    -2262    -3173    -5302 
   -7942    -9879   -10814   -11241   -11380   -11119   -10447    -9443 
   -7913    -5497    -2519     -337     -265    -2307    -5316    -8347 
  -11122   -13169   -13944   -13616   -12663   -11431    -9969    -8066 
   -6151    -5269    -5686    -6705    -7838    -9039    -9973   -10241 
   -9882    -8876    -6925    -4367    -2272    -1058     -513    -1264 
   -3510    -5448    -6081    -6735    -8024    -9151   -10104   -11157 
  -11070    -8499    -4590    -2172    -2567    -4757    -7489   -10305 
  -12856   -14696   -15741   -16449   -17103   -17104   -15881   -13751 
  -10754    -6489    -2120      604     2223     3762     3975     1944 
    -963    -4176    -8515   -12911   -15041   -14837   -13981   -13077 
  -11620   -10029    -9992   -11871   -13647   -14062   -13940   -13749 
  -12827   -10893    -8861    -7311    -5103    -1644     1836     4743 
    6932     6929     4066     -114    -4614    -9809   -14840   -17798 
  -18268   -17119   -15070   -12465    -9778    -8110    -7888    -7688 
   -6353    -4371    -2336     -510      148    -1343    -4496    -8229 
  -11776   -13707   -13459   -12985   -14073   -16329   -18156   -17902 
  -14944   -10204    -5512    -2910    -3885    -7676   -11180   -11824 
   -9413    -5510    -2115     -128      869     1653     2671     3136 
    1385    -3028    -8712   -13755   -16675   -16997   -15655   -13868 
  -12208   -11442   -12145   -13038   -11921    -8278    -3477      872 
    3542     3527      565    -4140    -8459   -11273   -13267   -14850 
  -15229   -14423   -13448   -12733   -11967   -10681    -8862    -6413 
   -2701     1105     2393     1425      419     -434    -1864    -3276 
   -4004    -4731    -5979    -6941    -7543    -8968   -11457   -13991 
  -15695   -16237   -15037   -11431    -6589    -3264    -2871    -4588 
   -6925    -9062   -10964   -12312   -12391   -11588   -10762    -9358 
   -6867    -4696    -4436    -6142    -9138   -12669   -15259   -15171 
  -12343    -8371    -4361     -662     1564      885    -2236    -5682 
   -8082    -9531    -9826    -8270    -5548    -3199    -1980    -2523 
   -5435   -10350   -16340   -22389   -27228   -29704   -29596   -27683 
  -24840   -21404   -17255   -12510    -7776    -3005     2484     8237 
   12874    15608    15935    13265     8495     4473     3014     2605 
     831    -2790    -7673   -13593   -20386   -27317   -32973   -35995 
  -36221   -34387   -30576   -24381   -15970    -6361     2845    10534 
   16104    18477    17340    14461    12002    10450     9011     7460 
    5783     2722    -2446    -8457   -13953   -17963   -19369   -18690 
  -17756   -16808   -15777   -16263   -18350   -19411   -18176   -15626 
  -12253    -8378    -5528    -4934    -6431    -9628   -14478   -20236 
  -25068   -27155   -25462   -20038   -12106    -3200     4768     8851 
    7697     3435    -1435    -5810    -8441    -8618    -7713    -7624 
   -8843   -10970   -13267   -14501   -13805   -11674    -9348    -7407 
   -6122    -6165    -7134    -7966    -8761    -9244    -8344    -5894 
   -2185     1374     2000     -772    -4791    -9085   -13500   -16619 
  -17115   -15259   -12073    -8209    -4430    -1902    -1399    -3003 
   -5875    -8534   -10432   -11955   -12684   -12109   -11265   -11071 
  -11133   -11044   -10773   -10095    -8903    -7695    -6658    -4961 
   -1919     2097     6147     9105     9374     5763     -973    -8537 
  -14445   -17284   -17250   -15215   -12275    -9832    -8735    -8598 
   -8488    -8212    -8248    -8592    -8964    -9859   -11631   -12892 
  -11666    -8121    -4310    -1876    -1792    -4548    -9525   -15265 
  -19673   -20933   -19132   -15502   -10878    -5964    -1900      724 
    3256     7175    11256    13146    12170     8792     3632    -2651 
   -9250   -14557   -17209   -17637   -16818   -14760   -11277    -7265 
   -4648    -4606    -6448    -9285   -13076   -17178   -20578   -22983 
  -23611   -21667   -17907   -13157    -7722    -2625     1008     2913 
    3424     2986     1979     1016      453     -283    -1598    -3222 
   -5131    -6970    -8083    -8577    -8496    -7950    -7715    -7657 
   -7446    -8375   -11164   -14347   -16798   -18531   -18592   -16114 
  -11902    -6278      864     7975    12873    13926    10214     2536 
   -6999   -16474   -23722   -27039   -27491   -26952   -24958   -20800 
  -15916   -11646    -7603    -3591     -475     1236     1879     1980 
    1665      760     -452    -1606    -3576    -7211   -11049   -13296 
  -14580   -16162   -17570   -17572   -16235   -14609   -12586    -9448 
   -5913    -2716      448     2971     3267      664    -3662    -7538 
  -10050   -11430   -11206    -9320    -7284    -6039    -4919    -3559 
   -2697    -3024    -5108    -9547   -15475   -20866   -25015   -27812 
  -28618   -27876   -26167   -22933   -18145   -12168    -5046     2138 
    7701    10902    11190     8046     2731    -2255    -5782    -8062 
   -8575    -6534    -3041     -527     -229    -1657    -4112    -7265 
  -10623   -13131   -13776   -12988   -12295   -12584   -13628   -14677 
  -15508   -16340   -16830   -16310   -14172   -10277    -5478    -1080 
    1707     1950     -729    -5838   -11352   -14627   -15013   -13525 
  -10858    -7951    -5989    -4862    -3765    -2633    -1799    -1285 
   -1524    -3547    -7180   -10349   -11110    -9485    -6886    -4399 
   -2293     -993    -1324    -3333    -6355    -9818   -12487   -12970 
  -11183    -7732    -3699     -723      284     -888    -4018    -7815 
  -11357   -14847   -17838   -19785   -21112   -21420   -19372   -14868 
   -9128    -3507      654     2170     1155     -660    -2081    -3850 
   -6750   -10084   -12815   -14291   -13701   -10746    -6474    -2570 
    -494     -864    -3011    -5483    -6840    -6567    -5775    -5547 
   -5269    -4486    -4032    -4433    -5501    -6968    -8569   -10227 
  -11865   -12879   -12927   -12826   -13146   -13271   -12887   -12222 
  -10928    -8503    -5570    -3505    -2421    -1417     -738     -870 
   -1466    -3150    -7099   -12469   -16791   -18423   -17362   -14423 
  -10783    -7946    -7391    -9818   -14094   -17859   -20171   -21633 
  -22229   -21516   -19685   -16929   -13128    -8541    -3996     -526 
    1256     1420      120    -2268    -4737    -6539    -7445    -6970 
   -5081    -2924    -1703    -1830    -3015    -4436    -5310    -5314 
   -4429    -3156    -2706    -3750    -5498    -7014    -8120    -8938 
  -10129   -12210   -14127   -14644   -13635   -10976    -6993    -2926 
     481     2833     3466     2182     -625    -4237    -7944   -11290 
  -13886   -15407   -15697   -14935   -13528   -11510    -8911    -6617 
   -5421    -4970    -4972    -5834    -7322    -8702   -10191   -12226 
  -14160   -15430   -16330   -16899   -17012   -16896   -16459   -15306 
  -13194    -9844    -5231     -272     3661     5517     4693     1831 
    -978    -2494    -3673    -5499    -7609    -9779   -12155   -13748 
  -13432   -12232   -11632   -11194   -10721   -11036   -11407   -10751 
   -9633    -8253    -5665    -2089      751     2101     2218      893 
   -1231    -2624    -3144    -3705    -4916    -7148    -9995   -12097 
  -13301   -14825   -16384   -16602   -15433   -13477   -10813    -8009 
   -6297    -5784    -5263    -4255    -3515    -3435    -3801    -5051 
   -7225    -8753    -8910    -9077   -10424   -12621   -14589   -15445 
  -14628   -11651    -7068    -2986    -1065    -1105    -2407    -4799 
   -8013   -11391   -14191   -15533   -14894   -12765    -9864    -6741 
   -4579    -4515    -6311    -8309    -8818    -7920    -6658    -4770 
   -1807     1090     2859     3501     2701      -39    -4021    -7792 
  -10628   -12731   -14061   -14118   -13131   -11951   -10967   -10484 
  -10818   -11615   -12518   -13404   -13575   -12528   -10732    -8845 
   -7327    -6490    -6273    -6450    -6948    -7738    -8679    -9543 
  -10270   -10959   -11481   -11418   -10457    -8830    -7176    -5931 
   -5290    -5652    -7155    -9065   -10604   -11410   -11187   -10035 
   -8415    -6698    -5351    -4815    -4939    -5046    -4679    -3954 
   -3195    -2731    -2729    -2983    -3316    -3912    -4985    -6571 
   -8521   -10816   -13603   -16302   -17756   -17733   -17038   -15928 
