Origin Time       2025/01/13 21:19:00
Lat.              31.8
Long.             131.6
Depth. (km)       30
Mag.              6.9
Station Code      MYZH02
Station Lat.      32.6972
Station Long.     131.6829
Station Height(m) -190.3
Record Time       2025/01/13 21:19:49
Sampling Freq(Hz) 100Hz
Duration Time(s)  172
Dir.              1
Scale Factor      3923(gal)/8224838
Max. Acc. (gal)   7.655
Last Correction   2025/01/13 21:19:49
Memo.             
[...]
  -77577   -77593   -77596   -77622   -77630   -77560   -77433   -77291 
  -77151   -77068   -77087   -77109   -77043   -76995   -77079   -77222 
  -77314   -77337   -77334   -77311   -77225   -77118   -77113   -77198 
  -77221   -77122   -76997   -76933   -76925   -76963   -77039   -77093 
  -77059   -76987   -76940   -76891   -76823   -76770   -76765   -76810 
  -76878   -76955   -77095   -77307   -77488   -77542   -77421   -77170 
  -76951   -76881   -76908   -77002   -77228   -77517   -77656   -77584 
  -77449   -77359   -77256   -77091   -76955   -76940   -77013   -77109 
  -77253   -77441   -77538   -77483   -77403   -77379   -77361   -77306 
  -77272   -77369   -77541   -77525   -77215   -76835   -76653   -76712 
  -76856   -76977   -77166   -77403   -77460   -77315   -77176   -77170 
  -77296   -77399   -77260   -76975   -76862   -76927   -76964   -77009 
  -77124   -77176   -77179   -77263   -77457   -77731   -77903   -77762 
  -77418   -77126   -76993   -77053   -77232   -77279   -77186   -77241 
  -77521   -77849   -78067   -78011   -77689   -77391   -77322   -77494 
  -77739   -77760   -77557   -77445   -77434   -77344   -77218   -77190 
  -77257   -77404   -77691   -78024   -78197   -78204   -78155   -78089 
  -78063   -78048   -77853   -77442   -77059   -76840   -76727   -76781 
  -77005   -77064   -76802   -76553   -76661   -77129   -77620   -77822 
  -77836   -77845   -77796   -77762   -77892   -78012   -77832   -77457 
  -77209   -77106   -77035   -76990   -76874   -76692   -76642   -76708 
  -76817   -77160   -77668   -77842   -77587   -77376   -77434   -77556 
  -77565   -77325   -76860   -76585   -76681   -76806   -76821   -76921 
  -77141   -77329   -77386   -77365   -77382   -77369   -77263   -77230 
  -77280   -77171   -76840   -76435   -76181   -76293   -76658   -76842 
  -76824   -77006   -77294   -77287   -77163   -77218   -77214   -76929 
  -76563   -76261   -75884   -75370   -75033   -75278   -76113   -77079 
  -77742   -78088   -78227   -77997   -77346   -76613   -76072   -75713 
  -75562   -75766   -76302   -76968   -77490   -77467   -76725   -75774 
  -75363   -75813   -76840   -77722   -78000   -78069   -78393   -78694 
  -78621   -78385   -78267   -78152   -77819   -77198   -76536   -76474 
  -77275   -78241   -78661   -78676   -78725   -78814   -78732   -78522 
  -78316   -78104   -77958   -77934   -77822   -77456   -76916   -76404 
  -76302   -76755   -77282   -77522   -77800   -78413   -79227   -79878 
  -79884   -79195   -78363   -77641   -76875   -76248   -76081   -76383 
  -76923   -77334   -77371   -77274   -77457   -77884   -78113   -78012 
  -77710   -77106   -76430   -76393   -76985   -77463   -77647   -77878 
  -78208   -78552   -78846   -78772   -78151   -77375   -76913   -76770 
  -76779   -76956   -77171   -77074   -76719   -76500   -76450   -76283 
  -75965   -75882   -76312   -77002   -77510   -77700   -77638   -77508 
  -77544   -77550   -77129   -76437   -75932   -75890   -76354   -76983 
  -77240   -76924   -76204   -75469   -75250   -75622   -75986   -76054 
  -76144   -76293   -76338   -76445   -76819   -77313   -77476   -77060 
  -76527   -76491   -76874   -77234   -77345   -77225   -77053   -76932 
  -76797   -76758   -76971   -77236   -77307   -77309   -77395   -77454 
  -77391   -77348   -77388   -77291   -76997   -76739   -76573   -76450 
  -76561   -76987   -77406   -77517   -77377   -77238   -77313   -77598 
  -77814   -77755   -77544   -77332   -77197   -77263   -77403   -77282 
  -76921   -76659   -76794   -77309   -77743   -77874   -77976   -78067 
  -77980   -77747   -77375   -76999   -76910   -77012   -76917   -76590 
  -76385   -76454   -76707   -77126   -77519   -77677   -77792   -77931 
  -77884   -77704   -77626   -77716   -77901   -78003   -77836   -77475 
  -77187   -77139   -77298   -77388   -77018   -76250   -75631   -75509 
  -75926   -76702   -77286   -77322   -77225   -77544   -78150   -78560 
  -78567   -78196   -77558   -76956   -76566   -76307   -76269   -76543 
  -76770   -76670   -76567   -76917   -77792   -78748   -79081   -78744 
  -78317   -77838   -77035   -76202   -75710   -75524   -75506   -75627 
  -75933   -76370   -76770   -77040   -77220   -77344   -77337   -77199 
  -77122   -77168   -77240   -77317   -77279   -77025   -76881   -77047 
  -77112   -76864   -76620   -76484   -76283   -76063   -76015   -76296 
  -76929   -77573   -77727   -77380   -77126   -77434   -77976   -78071 
  -77641   -77124   -76802   -76685   -76743   -76987   -77376   -77764 
  -77888   -77522   -76901   -76522   -76410   -76349   -76312   -76225 
  -76053   -75917   -75836   -75774   -75882   -76396   -77178   -77776 
  -78052   -78174   -78132   -77899   -77606   -77263   -76878   -76640 
  -76553   -76507   -76661   -77110   -77623   -77857   -77735   -77575 
  -77507   -77282   -77018   -77031   -77039   -76742   -76501   -76697 
  -77160   -77467   -77328   -76746   -76187   -76331   -77183   -78009 
  -78439   -78638   -78637   -78283   -77535   -76696   -76233   -76126 
  -76002   -75821   -75833   -76160   -76620   -76960   -77187   -77449 
  -77863   -78393   -78507   -77747   -76658   -76181   -76511   -77053 
  -77225   -77103   -77139   -77464   -77865   -78175   -78422   -78615 
  -78588   -78214   -77616   -77031   -76717   -76891   -77280   -77202 
  -76627   -76279   -76536   -77112   -77584   -77801   -77971   -78189 
  -78123   -77701   -77429   -77542   -77627   -77228   -76520   -76322 
  -77014   -77850   -78163   -78236   -78298   -78077   -77581   -77183 
  -77041   -76987   -76752   -76243   -75720   -75456   -75469   -75828 
  -76665   -77666   -78155   -77872   -77352   -77211   -77346   -77323 
  -77107   -76774   -76311   -76162   -76785   -77751   -78387   -78493 
  -78024   -77247   -76809   -76925   -77294   -77604   -77514   -76985 
  -76577   -76673   -76971   -77182   -77521   -78007   -78121   -77670 
  -77194   -77245   -77782   -78189   -77924   -77151   -76435   -76110 
  -76210   -76570   -76940   -77174   -77198   -76916   -76369   -75898 
  -75867   -76138   -76162   -75895   -75934   -76535   -77431   -78317 
  -78767   -78462   -77742   -77091   -76534   -76108   -76017   -76249 
  -76719   -77242   -77542   -77593   -77510   -77409   -77521   -77966 
  -78587   -79155   -79448   -79280   -78780   -78302   -78123   -78260 
  -78324   -77957   -77309   -76555   -75786   -75493   -75911   -76388 
  -76493   -76624   -76994   -77417   -77876   -78435   -79080   -79590 
  -79517   -78848   -78073   -77365   -76684   -76369   -76739   -77355 
  -77507   -77237   -77091   -77330   -77919   -78576   -78819   -78595 
  -78320   -78039   -77657   -77544   -77716   -77623   -77251   -76959 
  -76715   -76499   -76592   -77090   -77637   -77730   -77321   -76862 
  -76781   -77141   -77583   -77627   -77187   -76639   -76481   -76813 
  -77201   -77257   -77124   -77191   -77585   -77989   -78023   -77696 
  -77063   -76029   -74985   -74611   -74952   -75543   -76053   -76302 
  -76331   -76576   -77233   -77932   -78538   -79045   -78857   -77665 
  -76171   -75271   -75348   -76027   -76512   -76488   -76090   -75531 
  -75213   -75357   -75782   -76370   -77102   -77889   -78464   -78440 
  -77980   -77688   -77533   -77098   -76482   -76013   -75830   -75929 
  -76094   -76188   -76554   -77452   -78402   -78806   -78719   -78451 
  -78223   -78198   -78254   -78150   -77797   -77257   -76779   -76540 
  -76534   -76921   -77669   -78084   -77904   -77901   -78390   -78763 
  -78840   -78869   -78690   -77986   -76821   -75799   -75547   -76088 
  -76968   -77584   -77596   -77284   -77029   -76874   -76883   -77197 
  -77664   -77923   -77922   -78020   -78366   -78659   -78618   -78255 
  -77809   -77494   -77328   -77298   -77400   -77680   -78038   -78007 
  -77456   -77032   -77109   -77317   -77436   -77499   -77346   -77128 
  -77274   -77610   -77615   -77234   -76736   -76419   -76492   -76742 
  -76559   -75813   -75111   -74900   -75239   -76071   -77195   -78406 
  -79288   -79297   -78575   -77697   -76862   -76295   -76245   -75998 
  -74854   -73777   -73953   -75068   -76345   -77502   -78314   -78788 
  -79176   -79193   -78597   -78082   -78036   -77950   -77681   -77537 
  -77506   -77413   -77292   -77346   -77450   -77205   -76827   -76806 
  -76959   -77214   -77765   -77915   -77091   -76077   -75652   -75670 
  -75762   -75654   -75304   -74853   -74497   -74875   -76262   -77561 
  -77815   -77460   -77110   -76931   -77226   -77896   -78138   -77854 
  -77808   -78016   -77780   -77118   -76601   -76445   -76783   -77352 
  -77193   -76343   -75955   -76366   -77080   -77502   -77194   -76681 
  -76713   -76901   -76882   -77337   -78383   -78856   -78185   -77306 
  -77269   -78084   -78842   -78869   -78516   -78339   -78475   -78673 
  -78347   -77468   -76499   -75496   -74799   -74833   -75289   -76285 
  -78027   -79332   -79506   -79478   -79361   -78509   -77662   -77620 
  -77750   -77637   -77679   -77770   -77572   -77431   -77417   -76964 
  -76329   -75994   -75543   -74993   -74822   -74748   -74750   -75446 
  -76690   -77453   -77201   -76478   -76077   -76418   -77214   -77553 
  -77390   -77603   -78177   -78418   -78243   -77990   -77774   -77404 
  -76786   -76221   -76194   -76893   -77723   -77757   -77155   -76947 
  -77328   -77841   -78417   -78815   -78574   -77946   -77467   -77091 
  -76505   -75681   -74838   -74259   -74263   -74974   -76157   -77360 
  -78067   -78096   -77876   -77923   -78135   -78151   -78328   -78979 
  -79200   -78339   -76979   -75787   -75065   -74865   -74814   -74521 
  -74295   -74872   -76241   -77676   -78775   -79504   -79687   -79099 
  -77982   -76977   -76511   -76545   -76549   -76354   -76608   -77313 
  -77681   -77602   -77503   -77549   -77726   -77958   -77853   -77345 
  -77144   -77387   -77404   -77130   -76904   -76705   -76596   -76902 
  -77483   -77679   -77367   -77161   -77477   -78171   -78857   -79150 
  -78912   -78244   -77249   -76280   -75971   -76404   -77145   -77963 
  -78637   -78811   -78507   -78113   -78059   -78379   -78471   -77904 
  -77056   -76563   -76499   -76420   -76198   -75984   -75724   -75524 
  -75753   -76319   -76640   -76558   -76524   -76766   -76999   -77112 
  -77475   -78251   -78918   -78972   -78553   -77982   -77456   -77278 
  -77526   -77795   -77753   -77529   -77376   -77525   -78081   -78567 
  -78460   -78074   -77737   -77191   -76430   -75897   -75928   -76526 
  -77365   -77850   -77734   -77566   -77823   -78282   -78606   -78529 
  -78050   -77782   -78061   -78133   -77361   -76357   -75929   -76045 
  -76343   -76455   -76231   -76030   -76106   -76192   -76142   -76304 
  -76739   -76829   -76501   -76443   -76723   -76761   -76419   -76104 
  -76195   -76531   -76566   -76191   -75884   -75964   -76299   -76685 
  -76939   -76854   -76481   -76119   -75941   -75957   -76104   -76202 
  -76067   -75856   -76038   -76657   -77033   -76642   -75660   -74598 
  -73962   -74092   -75045   -76461   -77529   -77834   -77908   -78125 
  -78116   -77762   -77468   -77399   -77422   -77544   -77862   -78135 
  -78005   -77700   -77556   -77400   -77205   -77283   -77467   -77376 
  -77407   -77939   -78555   -79041   -79624   -80316   -80908   -81191 
  -81099   -80689   -80095   -79591   -79436   -79748   -80411   -80843 
  -80519   -79945   -80023   -80546   -80700   -80446   -80146   -79690 
  -78962   -78219   -77630   -77336   -77541   -78196   -79096   -79928 
  -80177   -79790   -79371   -79207   -79002   -78703   -78568   -78449 
  -78075   -77938   -78455   -78960   -79057   -79344   -79948   -80258 
  -80107   -79826   -79664   -79698   -79798   -79762   -79463   -78807 
  -77832   -76734   -75798   -75199   -74920   -75116   -75751   -76252 
  -76370   -76435   -76642   -76864   -76761   -76052   -74968   -73904 
  -72897   -71961   -71280   -70849   -70733   -71107   -71625   -71691 
  -71242   -70885   -71120   -71520   -71520   -71381   -71517   -71635 
  -71150   -70152   -69267   -68864   -69006   -69661   -70827   -72364 
  -73645   -74109   -73963   -73782   -73873   -74289   -75034   -75806 
  -76009   -75695   -75710   -76364   -77228   -78073   -78861   -79390 
  -79517   -79423   -79439   -79506   -79398   -79250   -79050   -78657 
  -78428   -78722   -79381   -80010   -80121   -79566   -78895   -78568 
  -78399   -78219   -78309   -78811   -79411   -79998   -80563   -80838 
  -80994   -81407   -81808   -81837   -81592   -81422   -81606   -81980 
  -82030   -81715   -81430   -81217   -81016   -80913   -80697   -80315 
  -80345   -80889   -81195   -80983   -80550   -79729   -78308   -76974 
  -76447   -76215   -75539   -74713   -74289   -74359   -74745   -75058 
  -74871   -74187   -73477   -72985   -72693   -72836   -73302   -73338 
  -72678   -71697   -70546   -69354   -68503   -68060   -67900   -68246 
  -69151   -70340   -71919   -73931   -75764   -77037   -78043   -79010 
  -79778   -80179   -80223   -79883   -79247   -78703   -78309   -77666 
  -76827   -76287   -76295   -76921   -78069   -79138   -79517   -79371 
  -79236   -79051   -78534   -77989   -77988   -78831   -80180   -81144 
  -81328   -81147   -81059   -81249   -81641   -82070   -82534   -82941 
  -83089   -83020   -82864   -82661   -82447   -82165   -81792   -81507 
  -81411   -81257   -80674   -79548   -78190   -77079   -76265   -75687 
  -75852   -76755   -77292   -76962   -76254   -75392   -74217   -72725 
  -71200   -70001   -69199   -68580   -67986   -67408   -66658   -65396 
  -63713   -62168   -61264   -61145   -61681   -62691   -63882   -64947 
  -65877   -66646   -67045   -67182   -67545   -68455   -69801   -71286 
  -72781   -74266   -75672   -77017   -78190   -78887   -79334   -80114 
  -81218   -82128   -82529   -82590   -82730   -83258   -84327   -85909 
  -87627   -89062   -90216   -91114   -91493   -91203   -90159   -88341 
  -86321   -84828   -83826   -82757   -81441   -80206   -79354   -78954 
  -78814   -78781   -79111   -79933   -81009   -82107   -82903   -83089 
  -82657   -81598   -79824   -77572   -75443   -73897   -73040   -72889 
  -73326   -74005   -74714   -75563   -76658   -77714   -78486   -79270 
  -80299   -81360   -82166   -82225   -81124   -79292   -77415   -75829 
  -74987   -75054   -75296   -75257   -75359   -75797   -76330   -76856 
  -77263   -77414   -77356   -77230   -77252   -77508   -77746   -77851 
  -78031   -78246   -78259   -77977   -77296   -76297   -75450   -75089 
  -74933   -74474   -73772   -73246   -72921   -72497   -71751   -70669 
  -69668   -69300   -69615   -70314   -71166   -71942   -72532   -73010 
  -73234   -73084   -72847   -72740   -72774   -72978   -73080   -72708 
  -72222   -72403   -73450   -74945   -76484   -77850   -78875   -79520 
  -79695   -79357   -78872   -78586   -78544   -78835   -79384   -79897 
  -80368   -80991   -81702   -82271   -82576   -82682   -82809   -83178 
  -83755   -84161   -84037   -83539   -83297   -83606   -83899   -83710 
  -83440   -83380   -83169   -82641   -82104   -81683   -81236   -80775 
  -80272   -79564   -78749   -77973   -77251   -76748   -76469   -76130 
  -75705   -75280   -74856   -74542   -74316   -74104   -74224   -75027 
  -76169   -76875   -76909   -76555   -75891   -74907   -73866   -73118 
  -72866   -73111   -73676   -74340   -75101   -76069   -77041   -77845 
  -78659   -79417   -79743   -79504   -78881   -78208   -77861   -78138 
  -78911   -79706   -80424   -81232   -81966   -82405   -82539   -82468 
  -82417   -82482   -82490   -82366   -82212   -82013   -81702   -81368 
  -81060   -80532   -79540   -78187   -76715   -75278   -74173   -73708 
  -73805   -74175   -74544   -74653   -74563   -74502   -74421   -74328 
  -74329   -74275   -74074   -73815   -73543   -73427   -73597   -73865 
  -74047   -74136   -74058   -73720   -73322   -73321   -73861   -74628 
  -75392   -76076   -76443   -76377   -76227   -76419   -76836   -77051 
  -77110   -77333   -77684   -77978   -78228   -78549   -78969   -79444 
  -79926   -80208   -80136   -80036   -80366   -81157   -82090   -82645 
  -82344   -81294   -80032   -78903   -78071   -77575   -77299   -77159 
  -77072   -76914   -76644   -76289   -75932   -75756   -75905   -76202 
  -76481   -76832   -77160   -77323   -77448   -77583   -77634   -77441 
  -76833   -76068   -75705   -75878   -76260   -76522   -76640   -76836 
  -77079   -77171   -77315   -77746   -78097   -77989   -77589   -76933 
  -75760   -74281   -72972   -71929   -71184   -71000   -71307   -71460 
  -71174   -71038   -71544   -72513   -73742   -75012   -75888   -76364 
  -76754   -76991   -76956   -76792   -76551   -76149   -75633   -75305 
  -75375   -75784   -76426   -77190   -77865   -78186   -78032   -77606 
  -77306   -77386   -77701   -77938   -78154   -78618   -79255   -79914 
  -80698   -81468   -81704   -81259   -80465   -79512   -78322   -76846 
  -75162   -73633   -72790   -72736   -73039   -73271   -73399   -73719 
  -74290   -74649   -74548   -74426   -74695   -75267   -75946   -76626 
  -77166   -77413   -77329   -76948   -76329   -75730   -75485   -75568 
  -75714   -75837   -76033   -76268   -76464   -76708   -77141   -77853 
  -78740   -79312   -79068   -78162   -77396   -77261   -77503   -77822 
  -78138   -78366   -78468   -78483   -78516   -78617   -78626   -78476 
  -78456   -78817   -79411   -79968   -80339   -80503   -80551   -80562 
  -80542   -80497   -80400   -80296   -80262   -80141   -79790   -79467 
  -79542   -79879   -79933   -79489   -78803   -78123   -77515   -76894 
  -76195   -75644   -75532   -75732   -75870   -75840   -75752   -75712 
  -75794   -75965   -76262   -76728   -76998   -76758   -76426   -76651 
  -77521   -78656   -79694   -80415   -80792   -80952   -80950   -80763 
  -80347   -79682   -79035   -78745   -78772   -78858   -78781   -78486 
  -78189   -78247   -78787   -79583   -80369   -81014   -81349   -81211 
  -80654   -79876   -79077   -78297   -77418   -76532   -75955   -75703 
  -75546   -75425   -75332   -75149   -74899   -74721   -74727   -75122 
  -75848   -76376   -76455   -76223   -75625   -74844   -74374   -74277 
  -74328   -74432   -74544   -74722   -75136   -75797   -76496   -77014 
  -77210   -77136   -77041   -77095   -77306   -77526   -77577   -77433 
  -77060   -76437   -75814   -75540   -75762   -76380   -77071   -77433 
  -77226   -76623   -76081   -75836   -75794   -76033   -76707   -77348 
  -77209   -76341   -75331   -74507   -74144   -74414   -75116   -76150 
  -77545   -78930   -79786   -79953   -79600   -79050   -78494   -77754 
  -76843   -76187   -75757   -75242   -74960   -75296   -75953   -76515 
  -76835   -76755   -76202   -75416   -74637   -73839   -73114   -72841 
  -73060   -73346   -73503   -73662   -73854   -74109   -74587   -75251 
  -75918   -76536   -77068   -77550   -78162   -78903   -79652   -80353 
  -81028   -81891   -82945   -83660   -83809   -83770   -83737   -83702 
  -83743   -83714   -83407   -82829   -82004   -80970   -79883   -78884 
  -78133   -77618   -76960   -75905   -74569   -73248   -72489   -72789 
  -73843   -74842   -75327   -75273   -74845   -74316   -73969   -73959 
  -74258   -74623   -74803   -74834   -74854   -74727   -74259   -73639 
  -73353   -73715   -74650   -75832   -76869   -77460   -77596   -77566 
  -77530   -77319   -76971   -76770   -76747   -76854   -77224   -77792 
  -78231   -78435   -78595   -78888   -79334   -79755   -79906   -79737 
