Origin Time       2025/01/13 21:19:00
Lat.              31.8
Long.             131.6
Depth. (km)       30
Mag.              6.9
Station Code      MYZH02
Station Lat.      32.6972
Station Long.     131.6829
Station Height(m) 20
Record Time       2025/01/13 21:19:49
Sampling Freq(Hz) 100Hz
Duration Time(s)  172
Dir.              6
Scale Factor      7845(gal)/8223790
Max. Acc. (gal)   8.663
Last Correction   2025/01/13 21:19:49
Memo.             
[...]
  -23004   -22065   -21629   -22805   -24925   -26079   -25490   -24425 
  -24449   -25334   -25816   -25501   -24135   -22280   -22626   -25419 
  -26761   -25201   -23157   -22003   -21633   -22203   -23711   -25411 
  -25479   -23157   -21321   -22720   -25741   -27333   -26549   -24699 
  -23631   -23240   -22850   -23355   -24732   -25428   -25045   -24336 
  -23716   -23190   -23071   -23718   -24468   -24410   -23781   -23498 
  -24190   -25641   -26821   -26570   -24398   -21589   -20461   -21705 
  -23858   -25208   -25398   -24972   -23936   -22743   -22887   -24131 
  -24370   -23180   -21918   -21120   -21003   -22392   -24683   -25741 
  -24745   -22611   -20996   -21884   -25053   -26823   -25080   -22594 
  -22311   -23668   -25186   -26816   -28533   -28807   -26435   -23024 
  -21446   -22343   -24152   -25429   -24678   -21400   -19126   -21024 
  -24397   -25717   -24981   -23053   -21255   -21555   -23589   -24918 
  -24910   -25023   -25687   -25925   -25591   -25594   -25859   -25739 
  -25776   -25606   -23377   -20201   -19446   -21506   -24416   -26503 
  -26057   -22913   -20075   -20244   -22385   -23661   -23071   -21783 
  -20933   -20891   -21736   -23014   -24094   -24846   -25191   -24804 
  -24044   -24393   -26082   -26523   -24428   -22671   -23746   -25932 
  -26347   -25108   -24140   -24281   -25061   -24931   -23082   -21670 
  -22858   -25312   -26102   -24509   -22785   -22747   -23355   -23406 
  -24150   -26346   -27276   -24733   -21375   -21521   -25455   -28784 
  -28458   -26673   -25902   -25975   -26547   -26280   -24051   -22154 
  -22021   -22027   -21906   -22264   -22998   -24668   -26095   -25100 
  -23454   -22673   -20472   -18202   -20032   -23652   -24521   -24399 
  -25748   -26119   -24089   -21729   -19872   -18900   -20717   -24201 
  -25290   -23519   -22149   -23049   -25049   -26056   -25299   -23241 
  -21103   -21243   -24927   -28919   -28513   -24813   -23376   -25254 
  -26516   -25574   -24263   -23939   -24422   -24663   -23853   -22813 
  -22990   -23997   -23870   -22403   -22096   -24058   -26501   -27957 
  -27797   -25768   -23521   -23130   -24116   -24287   -22812   -20946 
  -20579   -22981   -26480   -26643   -22689   -19171   -19017   -21060 
  -23714   -25610   -25490   -24892   -26164   -27594   -26673   -24745 
  -23693   -23727   -24835   -25343   -23024   -20364   -21787   -25675 
  -27368   -26989   -26534   -25170   -22713   -21095   -20780   -21373 
  -23230   -24733   -24293   -24136   -24691   -23375   -21987   -23296 
  -24561   -23746   -23170   -23402   -23091   -23465   -25267   -26160 
  -25483   -24687   -23531   -21901   -21539   -22897   -24098   -23892 
  -23240   -23502   -24834   -26451   -26975   -25672   -23561   -22060 
  -21960   -23695   -26090   -26496   -24621   -23218   -23456   -23414 
  -22343   -22512   -24522   -25330   -23657   -21837   -21855   -23749 
  -25841   -26179   -25031   -23706   -22816   -23107   -24318   -24499 
  -23001   -21620   -22211   -24428   -26003   -25963   -25744   -25805 
  -24939   -23754   -24170   -25299   -24640   -23056   -23122   -24101 
  -24057   -23315   -22754   -23205   -24889   -25601   -24503   -24370 
  -25469   -24717   -22686   -22970   -25344   -26588   -25479   -23822 
  -24656   -27719   -28590   -25694   -22188   -20794   -22423   -25967 
  -27276   -24251   -21010   -21080   -22665   -24312   -25587   -24289 
  -21544   -21054   -21821   -21882   -22446   -23305   -23260   -23133 
  -23600   -24304   -24717   -24233   -23463   -23938   -25145   -25050 
  -23571   -22658   -23831   -26353   -27776   -27280   -26287   -25519 
  -24921   -24833   -25404   -26100   -26219   -26117   -26441   -26613 
  -26403   -25999   -24524   -22239   -20925   -21107   -23174   -27216 
  -29574   -26954   -22504   -20868   -22179   -24381   -25373   -23766 
  -21736   -22707   -25720   -27746   -28516   -28444   -27117   -25829 
  -26033   -26620   -26658   -26794   -26643   -25671   -25089   -25315 
  -25382   -25558   -26266   -26214   -24672   -23148   -23228   -24636 
  -25668   -24907   -23519   -23967   -25299   -24849   -23495   -23153 
  -23329   -23473   -23581   -22890   -21412   -20714   -21752   -23269 
  -23431   -22542   -22947   -25832   -28651   -28028   -24671   -21891 
  -21373   -22947   -25208   -26196   -25262   -23348   -22574   -24239 
  -25571   -23905   -21934   -22079   -22613   -22705   -23078   -23139 
  -22677   -22540   -22546   -22176   -21917   -21768   -21178   -21089 
  -22011   -22088   -21046   -21118   -22469   -23377   -23608   -23496 
  -22410   -20557   -19363   -19024   -18968   -19911   -22327   -24601 
  -24669   -23090   -22678   -23788   -24043   -23458   -23728   -24530 
  -24991   -25131   -25186   -25546   -26067   -26161   -25924   -25866 
  -26492   -27675   -28260   -28429   -29783   -31256   -29772   -25466 
  -21956   -21856   -24397   -27190   -28293   -26312   -21841   -18580 
  -18863   -20472   -20920   -20534   -20295   -20451   -20827   -20966 
  -20640   -20769   -22080   -22999   -22485   -22596   -24487   -26509 
  -27580   -27595   -26158   -24487   -24887   -26536   -27045   -27253 
  -28575   -29461   -28783   -27584   -26562   -25864   -25726   -25566 
  -24803   -24096   -23992   -24264   -24804   -25119   -24651   -24016 
  -23716   -23363   -23102   -23048   -22607   -22119   -21806   -20351 
  -18454   -18597   -19592   -19076   -18648   -19916   -21541   -22364 
  -22396   -22477   -23622   -24915   -24580   -22852   -21558   -21801 
  -22805   -23527   -24655   -26507   -27265   -26289   -25072   -24205 
  -23741   -24264   -25509   -26692   -27276   -26744   -25737   -25681 
  -26414   -26331   -24517   -22327   -22353   -24460   -25722   -24912 
  -23122   -21686   -21915   -23857   -25490   -25504   -24753   -23823 
  -22798   -22997   -24710   -25644   -24414   -22424   -21406   -21612 
  -22696   -24321   -25583   -25481   -24063   -22345   -21312   -21463 
  -22734   -24277   -25404   -26190   -26064   -24601   -23141   -22640 
  -22617   -22848   -23013   -22257   -21172   -21709   -23689   -24462 
  -23188   -22030   -22570   -23822   -24310   -24602   -25543   -25623 
  -23858   -22364   -22615   -23409   -23958   -24462   -24364   -23477 
  -22771   -22805   -23591   -25006   -25741   -24494   -22761   -23047 
  -24792   -25849   -26183   -26519   -26555   -26384   -26393   -26266 
  -25737   -24952   -24470   -24736   -24889   -24062   -23129   -23068 
  -23436   -23228   -21979   -20618   -20767   -22621   -24957   -26131 
  -25132   -23332   -22800   -23260   -23583   -23336   -22260   -21132 
  -20903   -20533   -19367   -19125   -20634   -22366   -22987   -22385 
  -21271   -20775   -21158   -21871   -23168   -25247   -26755   -26750 
  -26122   -25974   -26831   -28208   -28294   -26468   -24339   -23126 
  -22752   -22806   -22389   -20848   -19402   -19695   -20827   -20815 
  -20387   -21450   -23040   -23226   -22925   -23517   -24125   -24337 
  -24742   -24653   -23917   -23695   -23618   -22913   -22428   -22423 
  -22133   -21564   -21010   -20949   -22415   -24879   -26028   -24977 
  -23255   -22781   -23641   -23839   -22620   -21901   -22867   -24742 
  -26350   -26343   -24850   -24760   -27375   -29443   -28455   -26727 
  -26850   -27822   -27885   -27028   -26048   -25749   -26626   -28208 
  -29177   -28952   -28506   -28632   -28675   -27720   -25863   -24192 
  -23529   -23556   -23731   -23583   -22584   -21690   -22519   -24081 
  -24090   -23101   -23290   -24333   -24310   -23058   -21838   -21564 
  -22219   -23026   -23488   -23449   -22736   -22162   -22711   -23681 
  -24193   -24472   -24532   -24561   -25438   -26515   -26352   -25717 
  -25930   -26732   -27530   -27650   -26549   -25110   -24490   -24094 
  -22729   -21081   -20621   -21041   -21398   -21660   -21672   -21574 
  -22171   -22960   -22893   -22439   -22184   -21949   -22196   -23375 
  -24563   -24783   -24358   -24035   -24316   -25212   -25690   -25029 
  -24277   -24298   -24587   -25127   -25988   -25851   -24132   -22472 
  -22434   -23807   -24991   -24300   -22100   -20768   -21184   -21745 
  -21577   -21285   -21041   -20835   -21147   -21767   -21975   -22257 
  -23236   -24019   -23993   -23534   -22769   -22393   -23396   -24852 
  -24875   -23553   -22828   -23499   -24467   -25038   -24964   -23830 
  -22981   -24078   -25874   -26461   -25766   -24112   -22048   -20943 
  -21446   -22489   -22941   -23033   -23220   -23144   -22794   -22886 
  -23369   -23517   -23661   -24629   -25731   -25840   -25498   -25647 
  -25821   -25424   -25230   -25922   -26738   -26952   -26716   -26169 
  -25640   -25539   -25864   -26824   -28242   -28948   -28652   -28343 
  -28277   -28020   -27962   -28659   -29354   -28803   -26933   -25000 
  -24543   -25839   -27446   -27943   -27147   -25596   -24302   -24111 
  -24652   -25122   -25284   -25151   -24880   -24673   -24615   -24795 
  -24641   -23368   -21768   -21049   -20756   -20271   -20012   -20132 
  -20143   -19634   -18706   -18126   -18355   -18500   -17952   -17933 
  -19271   -20780   -21154   -20555   -20028   -20137   -20480   -20696 
  -20791   -20514   -20152   -20725   -22053   -22843   -23005   -23631 
  -24661   -24884   -24651   -25575   -27216   -27909   -27913   -28178 
  -28485   -28582   -28401   -27400   -25434   -23353   -22410   -23045 
  -23895   -23257   -21316   -19415   -18634   -19311   -20480   -20988 
  -21053   -21266   -21425   -21130   -20595   -20814   -22650   -25485 
  -27437   -27411   -26370   -25930   -26473   -27449   -28458   -29068 
  -28649   -27453   -26933   -27718   -28530   -28516   -28378   -28328 
  -27877   -27345   -27255   -27527   -27913   -28134   -28179   -28264 
  -28046   -27033   -25489   -23936   -22661   -21914   -21552   -20871 
  -19620   -18450   -18049   -18480   -19290   -19927   -20220   -20605 
  -21595   -22852   -23584   -24034   -25091   -26682   -27920   -28158 
  -27737   -28023   -29544   -31116   -31838   -31990   -31924   -31585 
  -30948   -30423   -30342   -30033   -28856   -27810   -27695   -27386 
  -26288   -25164   -23834   -21811   -20040   -19465   -19387   -18739 
  -17967   -17950   -18006   -17035   -15836   -16024   -17296   -18192 
  -18535   -18642   -18307   -18021   -18488   -19237   -19839   -20719 
  -21620   -21829   -22129   -23252   -24047   -24205   -25054   -26202 
  -26072   -25057   -24418   -24273   -24503   -25134   -25524   -25261 
  -24795   -24293   -23676   -23249   -22832   -21901   -21011   -21122 
  -21833   -22177   -22246   -22401   -22266   -21811   -21717   -22018 
  -22091   -21998   -22185   -22073   -20961   -19842   -20119   -21778 
  -24019   -25338   -24251   -22180   -22068   -23969   -25949   -26747 
  -25689   -23639   -22940   -24316   -26357   -27585   -27280   -25894 
  -24679   -24219   -24587   -25864   -27329   -28171   -28359   -27557 
  -25818   -24640   -24786   -25280   -25373   -25423   -25951   -26704 
  -26958   -26562   -25903   -25307   -25002   -24835   -24182   -22955 
  -22223   -22927   -24497   -25571   -25439   -24339   -23151   -22882 
  -23422   -23303   -22210   -21986   -23230   -24020   -23386   -22307 
  -21500   -21431   -22368   -23134   -22819   -22461   -22752   -23004 
  -22843   -22303   -21539   -21224   -21465   -21602   -21655   -21741 
  -21471   -21111   -21240   -21898   -23033   -24343   -25080   -25006 
  -24829   -25415   -26748   -27997   -28505   -28109   -27244   -26940 
  -27579   -28339   -28487   -28128   -27703   -27128   -25830   -24021 
  -22782   -22438   -22320   -22168   -22300   -22794   -23693   -25037 
  -26029   -25836   -24881   -23924   -23296   -23314   -23881   -24437 
  -24580   -24119   -23421   -23346   -23877   -24223   -24217   -24112 
  -23980   -23900   -24071   -24740   -25795   -26987   -27958   -27715 
  -26133   -24410   -23036   -22084   -22065   -22750   -23074   -22443 
  -21284   -20497   -20513   -20908   -21038   -20652   -20100   -20206 
  -21119   -21876   -21830   -21378   -21340   -22141   -23272   -23986 
  -24489   -25251   -25816   -25852   -25807   -25774   -25488   -24888 
  -23992   -23176   -23130   -24001   -25020   -25272   -24687   -23841 
  -23190   -22985   -23056   -22783   -22183   -22046   -22523   -23076 
  -23526   -23751   -23496   -23033   -22626   -21847   -20852   -20676 
  -21385   -21991   -21915   -21447   -21482   -22376   -23476   -24364 
  -24977   -25288   -25629   -25860   -25677   -25876   -26758   -27260 
  -27413   -28327   -29521   -29625   -28651   -27529   -26809   -26160 
  -24912   -23615   -23535   -24576   -25490   -25429   -24726   -24524 
  -25185   -25894   -25952   -25401   -24808   -24844   -25532   -26092 
  -25870   -25181   -24885   -25157   -25300   -25073   -24833   -24449 
  -23909   -23739   -23637   -22858   -21753   -21169   -21219   -21433 
  -21455   -21489   -22094   -23143   -23745   -23711   -23650   -23819 
  -23953   -23616   -22917   -22690   -23159   -23791   -24521   -25374 
  -25682   -24993   -23865   -23245   -23629   -24455   -24370   -22864 
  -21007   -19986   -19746   -19561   -19228   -18994   -19080   -19650 
  -20453   -20864   -20669   -20318   -20360   -20764   -21085   -21505 
  -22468   -23431   -23897   -24603   -25805   -26412   -26017   -25631 
  -25955   -26568   -27014   -27232   -27124   -27078   -27882   -29416 
  -30663   -30748   -29478   -27742   -26869   -27047   -27411   -27373 
  -26820   -25791   -24474   -22833   -20713   -18721   -17787   -17635 
  -17150   -16020   -14982   -14908   -16052   -17834   -19468   -20879 
  -22426   -23785   -24287   -24194   -24306   -24760   -25270   -25737 
  -26029   -25928   -25411   -24722   -24368   -24629   -25000   -24960 
  -24633   -24318   -24318   -24771   -25207   -25162   -24911   -24919 
  -25092   -25141   -25451   -26470   -27332   -27031   -26372   -26414 
  -26568   -26260   -25974   -25579   -24665   -24024   -23974   -23623 
  -23179   -23306   -23368   -23363   -24266   -25346   -25249   -24610 
  -24324   -24063   -23733   -23490   -23233   -23076   -23002   -22740 
  -22225   -21505   -21176   -22021   -23321   -23912   -24063   -23976 
  -23552   -23812   -25022   -25907   -26257   -26905   -27868   -28507 
  -28402   -27649   -26877   -26770   -27133   -26847   -25448   -23868 
  -22991   -22504   -21637   -20467   -19672   -19363   -19147   -18910 
  -18972   -19689   -20969   -22450   -23785   -24370   -23973   -23606 
  -24173   -25104   -25654   -26048   -26639   -27311   -27785   -27961 
  -28188   -28706   -28907   -28283   -27361   -26586   -25756   -25073 
  -24721   -23994   -22779   -22185   -22585   -23226   -23801   -24516 
  -24980   -24655   -23958   -23431   -22998   -23013   -23807   -24435 
  -24223   -23922   -23816   -23149   -22079   -21789   -22542   -23583 
  -24673   -26064   -27445   -28229   -28258   -27700   -26862   -26073 
  -25564   -25455   -25882   -26765   -27286   -26754   -25647   -24618 
  -23815   -23348   -23001   -22253   -21316   -20999   -21138   -20804 
  -19989   -19290   -19097   -19773   -20868   -21081   -20390   -20277 
  -21288   -22446   -22968   -22929   -22913   -23550   -24576   -24769 
  -23641   -22540   -22728   -23336   -23311   -23321   -24078   -25265 
  -26211   -26076   -24609   -22943   -22219   -22181   -21922   -21240 
  -20768   -21124   -22235   -23067   -22459   -20775   -19701   -20108 
  -21230   -22083   -22430   -22473   -22604   -23093   -23776   -24482 
  -25309   -26010   -26073   -25677   -25362   -25536   -26623   -28070 
  -28464   -27846   -27403   -27164   -26551   -25721   -24993   -24721 
  -25178   -25650   -25632   -25843   -26342   -26387   -26053   -25632 
  -25002   -24393   -24182   -24244   -24197   -23707   -22723   -21668 
  -20976   -20684   -20898   -21724   -22603   -23074   -23566   -24231 
  -24537   -24335   -24102   -24331   -24881   -25347   -25737   -25988 
  -25899   -25941   -26454   -26707   -26144   -25348   -24929   -24759 
  -24818   -25373   -25968   -25798   -25162   -24954   -25193   -25359 
  -25151   -24464   -23607   -23136   -23265   -23888   -24605   -24795 
  -24328   -23772   -23523   -23448   -23577   -24115   -24636   -24614 
  -24328   -24243   -24435   -24634   -24349   -23508   -22513   -21735 
  -21514   -21637   -21324   -20588   -20129   -20293   -21050   -21820 
  -21748   -21177   -21163   -21583   -21739   -21724   -21868   -22243 
  -22792   -23222   -23472   -23900   -24671   -25573   -26254   -26457 
  -26272   -26184   -26678   -27487   -27846   -27610   -27157   -26624 
  -26173   -26194   -26461   -26063   -24788   -23498   -22873   -22864 
  -23176   -23549   -23799   -23872   -23812   -23595   -23298   -23276 
  -23691   -24250   -24570   -24376   -23649   -22924   -22817   -23166 
  -23544   -24025   -24700   -25249   -25331   -25150   -25195   -25297 
  -25124   -25056   -25258   -25263   -24931   -24381   -23618   -22981 
  -22859   -23002   -23129   -23442   -23812   -23716   -23232   -23033 
  -23611   -24723   -25586   -25925   -26268   -26778   -27051   -27049 
  -27013   -27071   -27349   -27733   -27832   -27463   -26836   -26160 
  -25471   -25050   -25045   -24800   -23888   -22935   -22519   -22531 
  -22832   -23444   -24146   -24615   -24823   -24800   -24405   -23765 
  -23244   -23002   -23107   -23296   -22921   -22154   -21979   -22445 
  -22758   -22727   -22657   -22596   -22407   -22009   -21371   -20800 
  -20830   -21439   -22184   -22666   -22491   -21748   -21018   -20533 
  -20248   -20232   -20316   -20082   -19531   -19109   -19066   -19453 
  -20290   -21127   -21555   -22025   -22675   -22981   -23444   -24750 
  -26034   -26500   -26445   -26104   -25686   -25562   -25640   -25543 
  -25348   -25436   -25674   -25637   -25351   -24865   -24167   -23943 
  -24576   -25065   -24842   -24565   -24409   -24086   -23735   -23477 
  -23476   -23966   -24563   -24598   -23924   -23107   -22893   -23211 
  -23403   -23275   -23086   -23175   -23571   -23847   -23869   -24028 
  -24590   -25528   -26496   -26889   -26692   -26684   -27054   -27025 
  -26435   -26140   -26504   -26848   -26655   -26249   -25898   -25394 
  -24818   -24283   -23473   -22497   -22064   -22268   -22372   -21932 
  -21384   -21320   -21645   -21899   -22013   -22160   -22249   -22264 
  -22472   -22783   -22866   -22844   -22906   -22837   -22599   -22495 
  -22723   -23306   -24004   -24302   -24165   -24089   -24169   -24227 
  -24472   -24948   -25254   -25174   -24736   -24125   -23909   -24345 
  -24854   -25007   -24975   -24864   -24734   -24821   -25124   -25394 
  -25525   -25601   -25748   -26007   -26176   -25933   -25348   -24900 
  -24702   -24472   -24178   -23842   -23406   -23086   -23099   -23503 
  -24221   -24827   -24869   -24472   -24119   -24098   -24421   -24884 
  -25137   -25004   -24570   -24086   -24005   -24367   -24529   -24255 
  -24085   -24351   -24753   -24710   -24097   -23506   -23197   -22750 
  -22113   -21559   -21131   -20976   -21097   -21085   -20829   -20590 
  -20617   -21080   -21656   -21897   -21969   -22050   -22202   -22708 
  -23198   -23145   -23249   -24102   -24991   -25274   -25215   -25320 
  -25911   -26896   -27627   -27572   -27068   -26869   -27035   -26929 
  -26281   -25571   -25192   -24853   -24225   -23649   -23608   -23981 
  -24364   -24538   -24409   -24035   -23766   -23854   -23872   -23282 
