Origin Time       2025/01/13 21:19:00
Lat.              31.8
Long.             131.6
Depth. (km)       30
Mag.              6.9
Station Code      MYZH16
Station Lat.      32.5060
Station Long.     131.6958
Station Height(m) -98
Record Time       2025/01/13 21:19:45
Sampling Freq(Hz) 100Hz
Duration Time(s)  165
Dir.              2
Scale Factor      2940(gal)/6170270
Max. Acc. (gal)   9.455
Last Correction   2025/01/13 21:19:30
Memo.             
[...]
 -235082  -234977  -234566  -234460  -234903  -235391  -235271  -234610 
 -234134  -234294  -234832  -235325  -235666  -235818  -235700  -235494 
 -235451  -235474  -235274  -234917  -234976  -235580  -235839  -235168 
 -234213  -233837  -234136  -234599  -234751  -234596  -234537  -234887 
 -235393  -235553  -235401  -235239  -234896  -234150  -233439  -233499 
 -234349  -235145  -235376  -235464  -235750  -235855  -235493  -234951 
 -234557  -234406  -234345  -234073  -233711  -233840  -234601  -235422 
 -235715  -235439  -235126  -235293  -235759  -235936  -235537  -234688 
 -233863  -233553  -233698  -233850  -233932  -234245  -234781  -235138 
 -235144  -235025  -234895  -234666  -234450  -234418  -234379  -234028 
 -233496  -233160  -233106  -233295  -233786  -234411  -234809  -234828 
 -234671  -234646  -234709  -234580  -234322  -234251  -234551  -235122 
 -235473  -235426  -235566  -236099  -236392  -236049  -235448  -235199 
 -235491  -236046  -236539  -236779  -236660  -236154  -235393  -234700 
 -234303  -234163  -234194  -234308  -234422  -234559  -234686  -234802 
 -235099  -235494  -235547  -235092  -234507  -234251  -234400  -234663 
 -234673  -234320  -233780  -233279  -233049  -233309  -234051  -234800 
 -235016  -234879  -235034  -235517  -235719  -235431  -235054  -234754 
 -234479  -234478  -234705  -234564  -234027  -233744  -233927  -234272 
 -234659  -235051  -235187  -235031  -235019  -235348  -235494  -235168 
 -235079  -235603  -235854  -235173  -234111  -233483  -233452  -233665 
 -233936  -234376  -234778  -234797  -234816  -235355  -235931  -235826 
 -235216  -234672  -234393  -234293  -234348  -234523  -234584  -234444 
 -234353  -234363  -234293  -234366  -234940  -235678  -236078  -236264 
 -236343  -236090  -235560  -235064  -234757  -234569  -234470  -234691 
 -235221  -235580  -235514  -235240  -235028  -234893  -234579  -234018 
 -233640  -233798  -234313  -234749  -234944  -235132  -235305  -235038 
 -234357  -233872  -233891  -234233  -234724  -235189  -235346  -235288 
 -235380  -235458  -235006  -234126  -233532  -233550  -233862  -234169 
 -234450  -234808  -235337  -235840  -235997  -235860  -235575  -235113 
 -234539  -233907  -233422  -233616  -234270  -234267  -233519  -233322 
 -234267  -235350  -235467  -234810  -234326  -234398  -234727  -235030 
 -235191  -235252  -235594  -236327  -236520  -235459  -234238  -234226 
 -234873  -234983  -234773  -234989  -235148  -234361  -233235  -233051 
 -233756  -234746  -235957  -236966  -237017  -236188  -235413  -235171 
 -234753  -233681  -232827  -233057  -233815  -233934  -233406  -233197 
 -233634  -234319  -235038  -235734  -236127  -235975  -235301  -234384 
 -233820  -234059  -234897  -235592  -235546  -235122  -235154  -235686 
 -235908  -235355  -234660  -234540  -234857  -235215  -235475  -235636 
 -235534  -234880  -233959  -233690  -234359  -235083  -235218  -235192 
 -235230  -234816  -234140  -234195  -234790  -234755  -234179  -233911 
 -233856  -233810  -234215  -234857  -234764  -234029  -233879  -234644 
 -235357  -235475  -235540  -236005  -236391  -236054  -235202  -234302 
 -233379  -232698  -232731  -233243  -233705  -234225  -234847  -234813 
 -234041  -233741  -234373  -234969  -234868  -234541  -234540  -234640 
 -234459  -234239  -234344  -234587  -234823  -235369  -236087  -236186 
 -235568  -235155  -235510  -236161  -236190  -235272  -234288  -234235 
 -234942  -235431  -235092  -234376  -233935  -233605  -233282  -233319 
 -233469  -233323  -233311  -233836  -234332  -233971  -233213  -233579 
 -235045  -235633  -234822  -234696  -236396  -238252  -238442  -237374 
 -236583  -236198  -234951  -233057  -232508  -233734  -235204  -236215 
 -236922  -236907  -236064  -235195  -234688  -234268  -234075  -234365 
 -234681  -234650  -234571  -234403  -233707  -232569  -231402  -230594 
 -230565  -231342  -232382  -233188  -233521  -233179  -232569  -232657 
 -233448  -234056  -234267  -234300  -234044  -233630  -233436  -233525 
 -233944  -234756  -235708  -236625  -237243  -236785  -235268  -234157 
 -234132  -234065  -233337  -232935  -233405  -233813  -233691  -234134 
 -235418  -235698  -234118  -232327  -231250  -229860  -228007  -227264 
 -228497  -230587  -231880  -231857  -231205  -230762  -230402  -229489 
 -228267  -227475  -227263  -227465  -227862  -227941  -227512  -227096 
 -226926  -226581  -225947  -225622  -226264  -227736  -229203  -230390 
 -231682  -232588  -232256  -231234  -230575  -230548  -231148  -232359 
 -234021  -235681  -236393  -235843  -235257  -235482  -235483  -234514 
 -233651  -233730  -234010  -233741  -233436  -234138  -235824  -236880 
 -236057  -234320  -233259  -232827  -232160  -231330  -230974  -230895 
 -230314  -229538  -229633  -230374  -230953  -231737  -233155  -234593 
 -235551  -236197  -236640  -236830  -236986  -237554  -238713  -239956 
 -240550  -240567  -240746  -241259  -241668  -242030  -242653  -243192 
 -243319  -243319  -243160  -242401  -241108  -239625  -238083  -236928 
 -236745  -237236  -237584  -237342  -236177  -233987  -231624  -230366 
 -230463  -230963  -231192  -231513  -232381  -233610  -234884  -236222 
 -237831  -239592  -240595  -240172  -239017  -238247  -238325  -238998 
 -239733  -240459  -241465  -242455  -242741  -242186  -241129  -240104 
 -239766  -240170  -240696  -241167  -241880  -242370  -241920  -241004 
 -240554  -240628  -240775  -240961  -241335  -241576  -241372  -240882 
 -240366  -239806  -238874  -237562  -236384  -235356  -234046  -232534 
 -230950  -229252  -227720  -226315  -224814  -223787  -223761  -224389 
 -225282  -226432  -227581  -228203  -228248  -228047  -227572  -226741 
 -226257  -227131  -229471  -232343  -234663  -236355  -238187  -240014 
 -240753  -240532  -240886  -242655  -245151  -247224  -248364  -248963 
 -249752  -250966  -251863  -251620  -250734  -249902  -248570  -246339 
 -243922  -241762  -239555  -237760  -237630  -239265  -241237  -241929 
 -240850  -239336  -239336  -241099  -242928  -243263  -242289  -241253 
 -241024  -241593  -242126  -241713  -240501  -239358  -238606  -237914 
 -236970  -235939  -235553  -236235  -237197  -237339  -236898  -237046 
 -237803  -237856  -236573  -234682  -233223  -232661  -232656  -232760 
 -233164  -234039  -235020  -235823  -236142  -235456  -233903  -232436 
 -231687  -231461  -231425  -231292  -230421  -228564  -226568  -225192 
 -224017  -222463  -221157  -221337  -223197  -225623  -227678  -229554 
 -231766  -234041  -235451  -235697  -235483  -235448  -235722  -236357 
 -237319  -238474  -239931  -241578  -242541  -242323  -241420  -240244 
 -238869  -237300  -235604  -234284  -233623  -233189  -232723  -232465 
 -232395  -231834  -230235  -228116  -226440  -225582  -225567  -226168 
 -226457  -225946  -225735  -226852  -228955  -231690  -234994  -237838 
 -239320  -240448  -242312  -244112  -244758  -244240  -242844  -240615 
 -237882  -235644  -234610  -234326  -234113  -234274  -235308  -236449 
 -236558  -235643  -234319  -232880  -231532  -230831  -231139  -231853 
 -232260  -232663  -233414  -233844  -233279  -232059  -230971  -230416 
 -230058  -229280  -228064  -226977  -226241  -225397  -224052  -222401 
 -221048  -220515  -220555  -220326  -219494  -218624  -218337  -218706 
 -219694  -221416  -223870  -226861  -229812  -231843  -232681  -232972 
 -233236  -233411  -233862  -235481  -238078  -240231  -241089  -240887 
 -240057  -239001  -238176  -237917  -238144  -238130  -237344  -236232 
 -235127  -233664  -232053  -231127  -230936  -231194  -232374  -234638 
 -236949  -238524  -239776  -241293  -243181  -245337  -247356  -248568 
 -248953  -249434  -250289  -250353  -248998  -247215  -245868  -244415 
 -241945  -238668  -235546  -232914  -230591  -228762  -227841  -227873 
 -228463  -229219  -229989  -230484  -230102  -228558  -226673  -225581 
 -225211  -224988  -225112  -226018  -227874  -230255  -231953  -232337 
 -231879  -231300  -231508  -233089  -235444  -237682  -239916  -242496 
 -244446  -244404  -242884  -241659  -241411  -241369  -240569  -238758 
 -236269  -233635  -231589  -230826  -231548  -233410  -235755  -237907 
 -239429  -240154  -240206  -240421  -241591  -242780  -242276  -239904 
 -236585  -232645  -228174  -224365  -222579  -222463  -222824  -223240 
 -223825  -224614  -225409  -225977  -226215  -226097  -225790  -225578 
 -225663  -226166  -226979  -227925  -229111  -230736  -232714  -234588 
 -235841  -236515  -237170  -237960  -238545  -238816  -239023  -239575 
 -240555  -241275  -241002  -239738  -238173  -237062  -236341  -235496 
 -234731  -234724  -235522  -236541  -237421  -237991  -237827  -236830 
 -235659  -234927  -234655  -234780  -235574  -237056  -238491  -239098 
 -238734  -237513  -235753  -234386  -234386  -235835  -237951  -239843 
 -241156  -241974  -242306  -242145  -241789  -241608  -241500  -240959 
 -240022  -239202  -238240  -236563  -234503  -232704  -231372  -230649 
 -230674  -231244  -231807  -231797  -231206  -230634  -230492  -230706 
 -231167  -231689  -231771  -231139  -230105  -229166  -228710  -228967 
 -230058  -232013  -234388  -236136  -236593  -236395  -236432  -236572 
 -236349  -235757  -234859  -233479  -231358  -228493  -225563  -223824 
 -223926  -225046  -225949  -226268  -226260  -226290  -226824  -228136 
 -229819  -231169  -232042  -232769  -233518  -234326  -235442  -236866 
 -238043  -238766  -239492  -240336  -240709  -240270  -239797  -240374 
 -241771  -242860  -243329  -243422  -242828  -241582  -240861  -241398 
 -242206  -241960  -240684  -239059  -236942  -234006  -231133  -229433 
 -228684  -228042  -227255  -226604  -226469  -226971  -227867  -228847 
 -229585  -229816  -229723  -229837  -230512  -231855  -233829  -235996 
 -237665  -238697  -239475  -240080  -240262  -240026  -239707  -239639 
 -239959  -240503  -240899  -241006  -241119  -241559  -242155  -242394 
 -242019  -241096  -239727  -238137  -236616  -235196  -233871  -232819 
 -231879  -230463  -228396  -226294  -224981  -224815  -225496  -226648 
 -228284  -230434  -232832  -234904  -236005  -236261  -236712  -237736 
 -238542  -238821  -239074  -239431  -239666  -239853  -240330  -241206 
 -242093  -242566  -242560  -242120  -241226  -240080  -239371  -239876 
 -241683  -244162  -246459  -247895  -248330  -248170  -247833  -247297 
 -246407  -245416  -244659  -243914  -242515  -240068  -236920  -233601 
 -230179  -226764  -224009  -222289  -221115  -220054  -219534  -220019 
 -221392  -223604  -226602  -229737  -232404  -234598  -236134  -236433 
 -235555  -234302  -233223  -232419  -231949  -231806  -231804  -231961 
 -232776  -234623  -236778  -237570  -236093  -233267  -230800  -229718 
 -229991  -231204  -233187  -235549  -237183  -237199  -236068  -234972 
 -234365  -233876  -233247  -232734  -232499  -232357  -232553  -233595 
 -235182  -236679  -238082  -239475  -240496  -240839  -240694  -240379 
 -239840  -238934  -237922  -236913  -235390  -233203  -231203  -230113 
 -229674  -229426  -229431  -229826  -230439  -231003  -231285  -231302 
 -231544  -232444  -233976  -236111  -238832  -241680  -243900  -245052 
 -245291  -245007  -244366  -243293  -241923  -240905  -240666  -240792 
 -240729  -240444  -240134  -239666  -238618  -237000  -235301  -233684 
 -232005  -230404  -229124  -228197  -227500  -226846  -226254  -225948 
 -226010  -226294  -226584  -227039  -228229  -230255  -232573  -234828 
 -237112  -239406  -241394  -243031  -244783  -246919  -248854  -249470 
 -248235  -245997  -244241  -243377  -242564  -241432  -240509  -239771 
 -238388  -236026  -233320  -230880  -228884  -227675  -227392  -227628 
 -228128  -228794  -229261  -229254  -228926  -228511  -227861  -226559 
 -224694  -223553  -224517  -227013  -229204  -230445  -231313  -232072 
 -232632  -233257  -234092  -234685  -234978  -235646  -236611  -236704 
 -235423  -233846  -233222  -233491  -233870  -234345  -235501  -236952 
 -237420  -236536  -235087  -233681  -232477  -231721  -231522  -231656 
 -231998  -232553  -233220  -233986  -234819  -235472  -235889  -236257 
 -236556  -236699  -236857  -237250  -237969  -239020  -240048  -240257 
 -239186  -237221  -235099  -233508  -232798  -232731  -232968  -233322 
 -233641  -234010  -234351  -234038  -232754  -231290  -230698  -230995 
 -231584  -232408  -233707  -235121  -235896  -235983  -236166  -236676 
 -236658  -235643  -234287  -233159  -232062  -230853  -229951  -229759 
 -230206  -231097  -232425  -234103  -235790  -236903  -236835  -235743 
 -234537  -233495  -231872  -229426  -227053  -225449  -224531  -224284 
 -224993  -226694  -228893  -231071  -233118  -234706  -235179  -234598 
 -233899  -233900  -234602  -235564  -236705  -238322  -240427  -242581 
 -244377  -245643  -246239  -246092  -245212  -243433  -240420  -236185 
 -231467  -227375  -224696  -223546  -223790  -225549  -228558  -231627 
 -233804  -235145  -235867  -236186  -236841  -238411  -240526  -242255 
 -242904  -242515  -241561  -240386  -239498  -239543  -240294  -240582 
 -239538  -237255  -234275  -230999  -227850  -225455  -223899  -222480 
 -220930  -219883  -219905  -220900  -222273  -223439  -224269  -224899 
 -225600  -226714  -228146  -229741  -232115  -235528  -238625  -239960 
 -239772  -239170  -238677  -238202  -237660  -237168  -236880  -236968 
 -237699  -239099  -240329  -239960  -237382  -233504  -229893  -227621 
 -226873  -227418  -229131  -231839  -234687  -236092  -235163  -233101 
 -232324  -233950  -237070  -240653  -244510  -248398  -251723  -253900 
 -254638  -254188  -253240  -252491  -252234  -252323  -252386  -251795 
 -250031  -247488  -245250  -243895  -243136  -242541  -241786  -240212 
 -237232  -233320  -229633  -226701  -224372  -222780  -222340  -223072 
 -224368  -225199  -225066  -224636  -224589  -224628  -224385  -224362 
 -225303  -227254  -229630  -231880  -233773  -235458  -237132  -238274 
 -238157  -237187  -236548  -236714  -237165  -237200  -236417  -234721 
 -232379  -229946  -228026  -227017  -226916  -227511  -228677  -230229 
 -231852  -233426  -235092  -237018  -239092  -240727  -241502  -241751 
 -241822  -241348  -240047  -238631  -238036  -238292  -238848  -239480 
 -240313  -241208  -241745  -241929  -242164  -242505  -242494  -241539 
 -239621  -237689  -236785  -237056  -237794  -238021  -237500  -236928 
 -236527  -235574  -233810  -231907  -230357  -229143  -228233  -227664 
 -227615  -228448  -230237  -232524  -234662  -236179  -236976  -237287 
 -237260  -236792  -235911  -234727  -233240  -231850  -231198  -231030 
 -230331  -228787  -227191  -226502  -227174  -229026  -231355  -233499 
 -235208  -236381  -236997  -237358  -237878  -238454  -238470  -237617 
 -236273  -234991  -234059  -233660  -234006  -234802  -235148  -234934 
 -235292  -236663  -237895  -238032  -237431  -236822  -236330  -235584 
 -234625  -234203  -234665  -235368  -235556  -234999  -233982  -233246 
 -233435  -234338  -235160  -235497  -235635  -235705  -235108  -233543 
 -232068  -232056  -233359  -234453  -234245  -233110  -232129  -231769 
 -231736  -231773  -232056  -232900  -234223  -235582  -236724  -237659 
 -238315  -238441  -237816  -236501  -235004  -234113  -234274  -235214 
 -236158  -236377  -235849  -235207  -234957  -235061  -235042  -234444 
 -233560  -233230  -233754  -234695  -235574  -236059  -235982  -235562 
 -235248  -235343  -235763  -236108  -236228  -236481  -237058  -237611 
 -237854  -237947  -238142  -238461  -238701  -238558  -237908  -237028 
 -236207  -235327  -234296  -233332  -232601  -232335  -232970  -234431 
 -235925  -236953  -237826  -238920  -240141  -241174  -241771  -241866 
 -241687  -241621  -241763  -241597  -240496  -238505  -236219  -234189 
 -232671  -231535  -230450  -229297  -228316  -227825  -227702  -227227 
 -225856  -224095  -223006  -223019  -223819  -224913  -225843  -226502 
 -227189  -228116  -229323  -230759  -232101  -232925  -233041  -232564 
 -231979  -232054  -233153  -234598  -235415  -235522  -235394  -235119 
 -234602  -234122  -234246  -235223  -236584  -237782  -238728  -239303 
 -239178  -238257  -236744  -235006  -233545  -232818  -232828  -233184 
 -233786  -234940  -236510  -237723  -238018  -237282  -235545  -233243 
 -231159  -229940  -230004  -231282  -233068  -234558  -235267  -235043 
 -234166  -233391  -233240  -233348  -233179  -232889  -232894  -233155 
 -233275  -233147  -233266  -234097  -235389  -236467  -236977  -236988 
 -236637  -236152  -235892  -236025  -236532  -237466  -238727  -239941 
 -240833  -241369  -241605  -241585  -241205  -240370  -239365  -238714 
 -238499  -238073  -236864  -235106  -233398  -231960  -230572  -229118 
 -228015  -227634  -227645  -227583  -227476  -227626  -228181  -228853 
 -229203  -229317  -229658  -230374  -231346  -232549  -233895  -235097 
 -236057  -237003  -238089  -239139  -239830  -239972  -239708  -239445 
 -239373  -239409  -239731  -240625  -241784  -242442  -242254  -241580 
 -240772  -239794  -238753  -238054  -237711  -237074  -235614  -233671 
 -232223  -232108  -233445  -235540  -237345  -238273  -238615  -238809 
 -238536  -237322  -235605  -234157  -233045  -232024  -231254  -231096 
 -231623  -232522  -233539  -234865  -236582  -238014  -238330  -237334 
 -235375  -233121  -231356  -230439  -230104  -230028  -230355  -231426 
 -233084  -234602  -235323  -235253  -234953  -234861  -235008  -235389 
 -235904  -236005  -235256  -234068  -233117  -232513  -232119  -232015 
 -232308  -232901  -233526  -233977  -234198  -234063  -233470  -232698 
 -232096  -231699  -231569  -231941  -232608  -232836  -232315  -231661 
 -231617  -232105  -232488  -232631  -233018  -233880  -234902  -235826 
 -236754  -237709  -238354  -238281  -237460  -236426  -235958  -236401 
 -237322  -237834  -237394  -236406  -235717  -235531  -235329  -234785 
 -234240  -234199  -234681  -235087  -234766  -233808  -232829  -232108 
 -231577  -231224  -231124  -231442  -232277  -233493  -234749  -235492 
 -235271  -234315  -233389  -232957  -232929  -233298  -234405  -236314 
 -238446  -240112  -241098  -241527  -241349  -240335  -238733  -237316 
 -236515  -236143  -236019  -236233  -236731  -237065  -236896  -236469 
 -236205  -236144  -236138  -236215  -236347  -236225  -235717  -235155 
 -234816  -234602  -234342  -234075  -234025  -234374  -234988  -235511 
 -235819  -236062  -236290  -236425  -236448  -236418  -236487  -236868 
 -237679  -238720  -239326  -238820  -237377  -235942  -235180  -235015 
 -235211  -235761  -236520  -236942  -236596  -235768  -235045  -234482 
 -233782  -232934  -232124  -231435  -230971  -230801  -230751  -230737 
 -230870  -231030  -230939  -230655  -230603  -231039  -231609  -231755 
 -231446  -231124  -231109  -231257  -231219  -231120  -231613  -232948 
 -234496  -235576  -236103  -236065  -235141  -233314  -231440  -230613 
 -230966  -231810  -232769  -234019  -235639  -237273  -238394  -238810 
 -238765  -238334  -237162  -235222  -233242  -231948  -231409  -231182 
 -230855  -230465  -230272  -230321  -230460  -230662  -231168  -232173 
 -233358  -234073  -234136  -234039  -234211  -234616  -235011  -235233 
 -235205  -234835  -234253  -234002  -234452  -235338  -236117  -236425 
 -236271  -235977  -235812  -235764  -235695  -235631  -235840  -236441 
 -237076  -237341  -237223  -236860  -236274  -235499  -234707  -234203 
 -234260  -234744  -235254  -235648  -236170  -237001  -237764  -237893 
