Origin Time       2025/01/13 21:19:00
Lat.              31.8
Long.             131.6
Depth. (km)       30
Mag.              6.9
Station Code      MYZH04
Station Lat.      32.5181
Station Long.     131.3349
Station Height(m) 150
Record Time       2025/01/13 21:19:46
Sampling Freq(Hz) 100Hz
Duration Time(s)  175
Dir.              3
Scale Factor      3923(gal)/8224838
Max. Acc. (gal)   7.250
Last Correction   2025/01/13 21:19:47
Memo.             
[...]
   28917    28038    27552    26870    25872    25228    25249    25524 
   25752    26091    26647    27272    27889    28578    29296    29983 
   30655    31081    30956    30384    29829    29647    29705    29570 
   29041    28429    28228    28449    28657    28593    28382    28333 
   28609    28953    29069    29111    29208    29110    28764    28445 
   28188    27653    26616    25393    24478    23850    23376    23310 
   23716    24309    24899    25234    25137    24935    24904    24873 
   24818    25008    25687    26805    27938    28910    29926    30790 
   31241    31536    31722    31625    31553    31773    32024    32066 
   31791    31121    30276    29465    28456    26970    25126    23618 
   23237    23896    24908    25936    26824    27299    27233    26848 
   26725    27259    28004    28462    28980    29824    30564    30959 
   31037    30555    29320    27459    25386    23647    22578    22312 
   22677    23156    23469    23639    23693    23926    24594    25293 
   25641    26157    27500    29569    31770    33536    34595    34994 
   34749    33909    32907    32127    31464    30751    29963    29054 
   28169    27525    26963    26202    25269    24487    24160    24219 
   24528    25293    26495    27692    28676    29524    30177    30558 
   30804    31009    30829    29898    28606    27519    26551    25697 
   25308    25273    25162    24888    24657    24682    24853    24926 
   25084    25628    26497    27436    28183    28790    29637    30717 
   31526    31857    31932    32086    32513    32903    32807    32413 
   32267    32351    32065    31245    30441    29945    29427    28637 
   27719    26909    26353    26187    26379    26349    25650    24779 
   24233    24074    24557    25640    26775    27642    28290    28888 
   29388    29635    29866    30160    30015    29376    28779    28344 
   27855    27391    27094    26924    26778    26612    26437    26231 
   26100    26326    26847    27267    27561    27885    28090    28190 
   28372    28609    28817    28956    28987    29023    29137    29361 
   29941    30770    31326    31557    31626    31402    30989    30781 
   30928    31143    31029    30593    30026    29263    28350    27616 
   27230    27068    26812    26410    26388    27021    27796    28275 
   28458    28281    27734    27232    27213    27495    27438    26906 
   26509    26523    26460    25910    25043    24267    23788    23660 
   24047    24976    26063    26877    27325    27660    28181    28930 
   29833    30843    31749    32250    32279    32046    31596    30862 
   30100    29438    28647    27865    27380    27006    26555    26244 
   26181    26183    26210    26443    26914    27553    28339    29020 
   29323    29417    29419    29157    28750    28251    27363    26292 
   25551    25139    24800    24310    23670    23232    23178    23409 
   23955    24811    25805    26986    28366    29479    30210    31029 
   32032    32934    33588    33928    33983    33862    33582    33057 
   32125    30724    29103    27826    27417    27712    27980    28089 
   28497    29218    29941    30339    30064    29220    28289    27507 
   27097    27453    28460    29431    29809    29457    28675    28013 
   27733    27595    27259    26658    25888    25072    24310    23696 
   23284    22891    22237    21578    21525    22102    22752    23229 
   23638    23928    24146    24653    25505    26383    27203    28027 
   28773    29376    29701    29504    28884    28479    28738    29409 
   30102    30815    31727    32724    33324    33259    32713    31918 
   30923    29795    28853    28470    28591    28645    28250    27708 
   27363    27078    26765    26615    26743    27167    27805    28287 
   28395    28534    28995    29482    29898    30325    30495    30322 
   29975    29363    28464    27648    27056    26319    25262    24320 
   24042    24497    25162    25416    25185    25070    25682    26728 
   27390    27417    26852    25691    24721    25019    26254    27099 
   27144    27032    27102    27126    27081    26997    26449    25254 
   24098    23658    23807    24147    24595    25073    25559    26485 
   27845    28711    28717    28529    28541    28547    28513    28688 
   29147    29787    30661    31941    33531    34728    34824    34107 
   33363    32691    31669    30130    28220    26149    24138    22480 
   21367    20452    19444    18877    18877    18862    19375    21199 
   23060    23445    23074    23224    23970    25180    26724    27885 
   28516    29479    31158    33046    34447    34825    34474    34379 
   34488    33597    31567    29728    28783    28341    28255    28483 
   28453    28127    28317    29137    30210    31820    33685    34595 
   34389    33979    33821    33737    33532    33335    33181    32733 
   31997    31398    31037    30666    30082    29128    27679    26144 
   25411    25718    26565    27710    29262    31014    32493    33551 
   34117    34074    33826    33565    32803    31595    30585    30064 
   29836    29349    28116    26487    25446    25400    25805    26103 
   26275    26428    26515    26504    26380    25972    25276    24449 
   23237    21716    21115    22013    23136    23503    23747    24845 
   26721    28196    28640    28699    28636    28075    27405    27072 
   26504    25444    24466    23665    23022    22958    23406    23841 
   24034    24000    23992    24374    24813    24634    24152    23896 
   23541    23195    23680    25029    26599    28209    30018    31537 
   32046    32038    32355    32628    32470    32405    32563    32316 
   31483    30619    30096    29647    28891    27853    26677    25258 
   23642    22334    21625    21158    20719    20461    20228    20093 
   20619    21876    23576    25451    27054    28252    29083    29112 
   28339    27666    27603    27826    27994    27954    27687    27325 
   26844    26204    25721    25752    26148    26404    26588    27429 
   29265    31816    34587    36807    37913    37990    37219    35727 
   33886    31847    29529    27203    25118    23329    22125    21655 
   21932    22998    24312    25494    27201    29647    31951    33524 
   34665    36073    37854    39009    38909    38157    37234    36004 
   34443    32564    30531    28819    27265    25262    23116    21587 
   20668    19989    19545    19449    19782    20776    22418    24290 
   26034    27307    27789    27874    28259    28823    29164    29455 
   30115    31317    32830    34192    34986    35077    34884    35041 
   35653    36433    37530    39078    40189    40065    39075    37670 
   36105    34778    33521    32065    30966    30765    31311    32275 
   33399    34349    34749    34420    33612    32748    32120    31820 
   31596    31201    30821    30511    29882    28664    26898    24741 
   22415    20197    18424    17344    16962    17242    18297    20347 
   23221    26063    28348    30442    32574    34373    35473    35905 
   35765    34936    33438    31461    29189    27021    25317    23957 
   22725    21794    21510    21756    22064    22411    22871    23008 
   22616    22107    21803    21725    22032    22931    24021    24499 
   24336    24166    24030    23606    23090    22682    22262    22005 
   22188    22626    23025    23226    23247    23542    24391    25378 
   26281    27232    28111    28944    29925    30869    31506    31734 
   31612    31356    30993    30496    29921    29164    28462    28343 
   28566    28467    28100    27994    28283    28609    28684    28624 
   28726    29052    29408    29733    30113    30620    31229    31672 
   31847    32080    32599    33241    33953    34997    36242    37262 
   38082    38642    38437    37463    36278    35163    34053    32688 
   30874    29011    27542    26163    24443    22538    21030    20555 
   21201    22364    23620    25089    26874    28954    31361    33941 
   36421    38684    40381    40884    40015    38248    36030    33273 
   30069    27176    24876    22694    20733    19575    19175    19155 
   19400    19890    20731    22212    24287    26816    29963    33501 
   36717    38827    39171    37978    36175    34180    31799    28962 
   26168    24231    23436    23211    23059    23276    24034    24673 
   24702    24435    24224    23816    23089    22801    23492    24483 
   25022    25324    25828    26600    27581    28526    29255    29945 
   30500    30553    30213    29776    29359    29180    29315    29713 
   30553    31650    32340    32822    33925    35445    36597    37154 
   37211    37030    36737    35989    34944    34376    34249    33770 
   32664    31198    29751    28642    27648    26248    24680    23706 
   23492    23666    24017    24629    25501    26136    26001    25373 
   24881    24479    23819    23178    22970    23028    23187    23703 
   24733    26146    27680    28992    29984    30848    31492    31585 
   31287    30993    30755    30635    30773    30896    30773    30630 
   30568    30379    29995    29417    28518    27232    25586    23812 
   22536    22207    22534    22921    23155    23291    23210    22786 
   22145    21492    21051    21026    21440    21956    21952    21433 
   21250    21671    22054    22145    22265    22491    22659    22886 
   23386    24025    24711    25504    26235    26821    27390    28031 
   28804    29619    30330    30931    31349    31333    30676    29551 
   28316    27078    26014    25490    25531    25887    26507    27410 
   28331    28925    29304    29702    29839    29501    28946    28300 
   27549    26997    27151    28134    29436    30526    31414    32390 
   33474    34295    34479    34003    32987    31456    29651    28143 
   27341    27124    27229    27654    28370    29180    30051    30851 
   31099    30600    29870    29459    29146    28424    27442    26650 
   26123    25928    26337    27348    28545    29448    29722    29324 
   28606    27838    27035    26423    26206    26269    26611    27336 
   28381    29481    30245    30531    30549    30503    30585    30855 
   31063    31160    31449    32077    32891    33430    33327    32969 
   32887    32973    33110    33382    33620    33731    33808    33747 
   33359    32661    31868    31102    30373    29934    29852    29640 
   29204    28975    28888    28668    28362    27959    27488    27086 
   26692    26125    25385    24817    24727    24953    25169    25304 
   25515    25817    26013    26165    26412    26445    26177    26164 
   26596    26936    26997    27225    27777    28445    29095    29398 
   29093    28559    28174    27765    27124    26481    26211    26245 
   26314    26391    26516    26653    26694    26565    26454    26600 
   26960    27429    28085    28962    29868    30636    31218    31525 
   31378    30643    29340    27453    24980    22415    20457    19288 
   18650    18366    18462    18935    19633    20391    21159    21911 
   22594    23248    23778    23963    24044    24532    25278    25748 
   25937    26245    26852    27575    28030    28042    27768    27473 
   27328    27097    26419    25625    25342    25574    26227    27380 
   28574    29247    29513    29721    30073    30480    30555    30269 
   29959    29860    30176    30789    31201    31351    31577    31878 
   31977    31846    31564    30982    30164    29536    29212    28952 
   28636    28387    28406    28606    28885    29424    30026    30249 
   30091    29695    29276    29188    29326    29323    29334    29695 
   30306    30886    31465    32301    33343    34094    34265    34118 
   33936    33794    33705    33507    33139    32957    33023    32973 
   32826    32814    32737    32298    31583    30862    30208    29544 
   28822    28016    27216    26709    26595    26611    26653    26951 
   27540    28125    28586    29041    29451    29598    29394    28961 
   28370    27764    27540    27707    27776    27656    27554    27337 
   26932    26630    26592    26647    26573    26287    25860    25533 
   25502    25681    25928    26226    26418    26254    25864    25604 
   25508    25435    25323    25008    24314    23342    22353    21536 
   20942    20443    19924    19484    19249    19167    19152    19306 
   19747    20474    21602    23188    24885    26505    28212    29783 
   30921    32009    33397    34700    35641    36478    37255    37777 
   37966    37613    36570    35094    33515    31897    30123    28318 
   27054    26632    26725    27017    27268    27118    26642    26212 
   25906    25845    26314    27282    28453    29592    30568    31280 
   31577    31409    30908    30126    29014    27815    26809    25780 
   24660    23853    23287    22530    21640    20877    20299    19973 
   19965    20227    20599    21061    21876    23070    24251    25199 
   25914    26435    26951    27513    27946    28309    28757    29196 
   29597    30083    30678    31333    31926    32233    32144    31895 
   31935    32287    32586    32730    32760    32576    32190    31653 
   30915    30022    29188    28617    28370    28436    28827    29376 
   29751    29848    29725    29250    28416    27587    26975    26493 
   26215    26268    26603    27193    27880    28354    28588    28711 
   28636    28181    27310    26194    25068    24139    23573    23481 
   23944    24922    26320    28097    30094    32093    34061    36024 
   37930    39680    41118    42061    42533    42817    43124    43335 
   43249    42934    42674    42604    42500    41997    40888    39266 
   37266    34947    32516    30191    28048    26264    25003    24300 
   24131    24273    24592    25327    26474    27810    29313    30861 
   32185    33161    33687    33604    32833    31480    29718    27693 
   25612    23669    22023    20825    20069    19718    19894    20613 
   21616    22740    23997    25330    26601    27639    28273    28424 
   28035    27021    25431    23502    21523    19670    18000    16513 
   15228    14250    13733    13686    13990    14663    15839    17412 
   19090    20704    22187    23368    24096    24387    24209    23556 
   22648    21735    21000    20638    20699    21165    22104    23549 
   25498    27959    30655    33203    35537    37544    38858    39421 
   39414    38854    37975    37115    36131    34878    33583    32247 
   30716    29116    27666    26492    25681    25226    24988    24895 
   25068    25577    26276    27005    27781    28620    29482    30403 
   31441    32611    33948    35503    37181    38659    39856    40871 
   41392    41181    40463    39240    37431    35299    33041    30650 
   28174    25832    23880    22342    21170    20447    20196    20302 
   20636    21154    21864    22644    23292    23664    23750    23799 
   24067    24503    24954    25434    26061    26827    27413    27490 
   27140    26545    25628    24185    22241    20248    18634    17566 
   17285    17879    19178    21141    23710    26554    29270    31545 
   33242    34423    35128    35355    35275    35062    34668    34015 
   33173    32229    31212    30221    29463    28904    28194    27232 
   26289    25525    24926    24490    24278    24429    24900    25466 
   25986    26393    26636    26607    26204    25547    24738    23870 
   23194    22740    22484    22635    23139    23768    24619    25797 
   27129    28453    29732    30863    31703    32263    32648    32827 
   32675    32262    31828    31368    30694    29817    28906    28165 
   27777    27656    27486    27193    26923    26705    26604    26781 
   27298    28154    29234    30380    31689    33378    35360    37246 
   38747    39793    40263    40000    39097    37791    36202    34358 
   32394    30605    29203    28181    27526    27243    27263    27523 
   27931    28264    28335    28105    27660    27252    27124    27336 
   27828    28487    29307    30349    31449    32412    33110    33215 
   32576    31538    30420    29339    28437    27702    26950    26149 
   25338    24429    23284    21867    20291    18797    17621    16985 
   17091    17968    19379    20985    22617    24241    25749    26958 
   27726    27922    27490    26609    25515    24278    22891    21433 
   20113    19021    18052    17167    16413    15851    15596    15674 
   16011    16530    17223    18265    19936    22195    24784    27576 
   30478    33301    35868    38144    40053    41391    42161    42554 
   42546    41997    41026    39857    38476    36760    34740    32495 
   30103    27738    25492    23407    21709    20606    20170    20510 
   21752    23818    26358    29030    31649    33976    35708    36682 
   36894    36455    35575    34426    32984    31193    29282    27491 
   25778    24082    22434    20925    19764    19101    18947    19269 
   19909    20744    21959    23677    25612    27469    29205    30735 
   31835    32385    32495    32289    31819    31280    30831    30503 
   30496    31039    32062    33370    34743    35903    36703    37141 
   37092    36410    35185    33667    32130    30828    29863    29250 
   29087    29416    30177    31229    32281    33072    33513    33540 
   33133    32368    31255    29794    28221    26754    25354    23911 
   22408    21054    20147    19680    19557    19842    20487    21388 
   22527    23792    25087    26393    27549    28366    28814    28872 
   28539    27849    26842    25714    24695    23722    22585    21348 
   20298    19591    19213    19118    19303    19874    20912    22180 
   23342    24406    25542    26817    28258    29806    31413    33073 
   34618    35880    36805    37349    37588    37620    37400    36911 
   36265    35652    35314    35384    35711    35892    35716    35440 
   35194    34731    33982    33064    32070    31059    29903    28544 
   27079    25501    23893    22449    21223    20231    19489    18979 
   18689    18557    18585    18931    19645    20656    21821    22890 
   23733    24426    25019    25498    25895    26149    26123    25949 
   25968    26306    26813    27383    28075    28907    29687    30206 
   30362    30181    29903    29724    29481    29020    28582    28452 
   28630    28976    29362    29782    30361    31133    31993    32872 
   33728    34426    34789    34850    34769    34601    34408    34267 
   34064    33627    33099    32745    32466    31989    31356    30727 
   30015    29130    28225    27398    26469    25315    23953    22476 
   21112    20004    18978    17867    16931    16486    16438    16638 
   17043    17543    18158    19020    20120    21425    22966    24700 
   26468    28098    29470    30484    31180    31757    32254    32553 
   32698    32709    32541    32331    32058    31465    30576    29655 
   28864    28244    27729    27333    27156    27143    27179    27248 
   27386    27643    28102    28749    29423    30049    30719    31492 
   32347    33191    33902    34430    34742    34800    34653    34380 
   33961    33393    32809    32277    31687    30982    30240    29515 
   28827    28250    27897    27815    27928    28181    28482    28653 
   28632    28426    27981    27344    26643    25878    25015    24165 
   23556    23279    23180    23160    23306    23593    23828    23928 
