Origin Time       2025/01/13 21:19:00
Lat.              31.8
Long.             131.6
Depth. (km)       30
Mag.              6.9
Station Code      MYZH02
Station Lat.      32.6972
Station Long.     131.6829
Station Height(m) 20
Record Time       2025/01/13 21:19:49
Sampling Freq(Hz) 100Hz
Duration Time(s)  172
Dir.              5
Scale Factor      7845(gal)/8223790
Max. Acc. (gal)   9.128
Last Correction   2025/01/13 21:19:49
Memo.             
[...]
   -2902    -3262    -3369    -3636    -4290    -4337    -3427    -2851 
   -3395    -4407    -5174    -5475    -4966    -3238     -997      -67 
   -1221    -3211    -4588    -4978    -4536    -3716    -3082    -2466 
   -1598    -1186    -1696    -2490    -3113    -3345    -2664    -1503 
   -1341    -2508    -3781    -4479    -4955    -5136    -4598    -3690 
   -2952    -2284    -1733    -1819    -2720    -4172    -5333    -5034 
   -3565    -2631    -2972    -3878    -4548    -4680    -4336    -3800 
   -3285    -2749    -2293    -2250    -2508    -2640    -2590    -2533 
   -2656    -3001    -3235    -3154    -3129    -3582    -4075    -3709 
   -2826    -2578    -2934    -3300    -3661    -3858    -3801    -3789 
   -3613    -3057    -2602    -2597    -2871    -2970    -2574    -2172 
   -2266    -2683    -3387    -4195    -4371    -3778    -3048    -2658 
   -2840    -3721    -4914    -5363    -4456    -2930    -2034    -2361 
   -3592    -4563    -4229    -2956    -1856    -1263    -1053    -1255 
   -1760    -2570    -3534    -3892    -3615    -3588    -3962    -4284 
   -4234    -3618    -2833    -2631    -2982    -3225    -3223    -3466 
   -3904    -3947    -3538    -3084    -3079    -3638    -4037    -3967 
   -4095    -4430    -4313    -3902    -3765    -3834    -3580    -2610 
   -1158     -209     -823    -2901    -4855    -5065    -3597    -1925 
   -1296    -2045    -3591    -4648    -4364    -3102    -1987    -1850 
   -2627    -3750    -4564    -4504    -3520    -2255    -1837    -2921 
   -4556    -5216    -4645    -3558    -2867    -3200    -4117    -4633 
   -4298    -3225    -1813     -558     -244    -1574    -3789    -5159 
   -5012    -3979    -2909    -2330    -2596    -3666    -4619    -4504 
   -3385    -2046    -1462    -1938    -2975    -4392    -5701    -5711 
   -4332    -2535    -1275    -1304    -2324    -3248    -3619    -3680 
   -3869    -4189    -4106    -3635    -3041    -2529    -2921    -4074 
   -4604    -4563    -4855    -5209    -5127    -4503    -3159    -1453 
    -371     -761    -2643    -4438    -4232    -2338     -766     -637 
   -1514    -2488    -3276    -3811    -3527    -2597    -2187    -2529 
   -2826    -2860    -3136    -3735    -3956    -3618    -3535    -3996 
   -4376    -4226    -3759    -3627    -4074    -4564    -4590    -4029 
   -2910    -1840    -1796    -2546    -2837    -2651    -2884    -3295 
   -3109    -2496    -2220    -2693    -3480    -3867    -3651    -3002 
   -2435    -2555    -3248    -3987    -4247    -3595    -2840    -3387 
   -4725    -5267    -4896    -4309    -3416    -2107    -1260    -1775 
   -3503    -5225    -5541    -4320    -2344     -666     -954    -2933 
   -3802    -3010    -2421    -2701    -3713    -4882    -5008    -4121 
   -3310    -2916    -2578    -2197    -2177    -2531    -2423    -1823 
   -1849    -2521    -3125    -3894    -4661    -4588    -4108    -3933 
   -3589    -3007    -3118    -4051    -4617    -4093    -3325    -3272 
   -3789    -4513    -4988    -4267    -2524    -1632    -2479    -3699 
   -3769    -2686    -1370     -697    -1393    -3600    -5894    -6191 
   -4411    -2447    -1628    -2007    -2851    -3022    -2577    -2798 
   -3554    -3442    -2490    -2255    -3862    -6334    -7249    -5904 
   -3913    -2342     -849      110    -1012    -3766    -5038    -3284 
    -756      -33     -841    -1736    -2390    -2830    -3164    -3901 
   -4649    -4626    -4236    -3925    -3690    -3786    -4151    -4885 
   -6330    -7353    -6879    -6015    -5301    -3450     -881      103 
    -548    -1248    -2188    -3537    -3935    -3295    -2600    -1837 
   -1062    -1074    -2295    -4058    -5244    -5481    -4700    -3346 
   -3246    -4922    -6120    -5039    -2435     -818    -1740    -3528 
   -4013    -3395    -2227     -696      186     -263    -1664    -3337 
   -4274    -3740    -2586    -2482    -3623    -4479    -4270    -3824 
   -3650    -3865    -5007    -6427    -6278    -4374    -2295    -1208 
   -1534    -3068    -4529    -4754    -4303    -4318    -4488    -3947 
   -2791    -1215      507     1046     -209    -1996    -3373    -4353 
   -4680    -4326    -3658    -2398     -560       54    -1750    -4116 
   -5443    -6463    -6874    -5675    -4183    -3878    -4325    -4853 
   -4932    -4068    -3067    -2978    -3049    -2570    -2508    -3082 
   -3037    -2355    -2222    -2435    -2095    -1868    -2367    -2604 
   -2296    -2157    -2270    -2752    -3581    -3946    -3615    -3380 
   -3568    -3349    -2049     -486      -74    -1250    -3303    -5181 
   -6156    -5794    -3937    -1447       37     -346    -1962    -3487 
   -4463    -5157    -4884    -3267    -1996    -2313    -3433    -4429 
   -4658    -3942    -3392    -3555    -3774    -3870    -3825    -3769 
   -4126    -4567    -4653    -4120    -2717    -1420    -1382    -2187 
   -2929    -3422    -3604    -3002    -2084    -2466    -3800    -3954 
   -3079    -2717    -2666    -2582    -2879    -3157    -3372    -4166 
   -4603    -3758    -3082    -3689    -4482    -4456    -3786    -2872 
   -2236    -2238    -2529    -2859    -3545    -4463    -4769    -3739 
   -1533       58     -939    -3431    -4635    -4162    -2760     -841 
    -390    -2234    -3721    -3696    -3474    -2999    -2101    -2023 
   -2929    -3696    -3912    -3839    -3736    -3697    -3331    -2436 
   -1881    -2378    -3095    -2727    -1165      191     -140    -1730 
   -2905    -3071    -2802    -2311    -1530    -1082    -1237    -1259 
   -1036    -1213    -1973    -3190    -4233    -3894    -2220     -359 
    1435     2376      594    -3199    -5861    -6022    -4413    -2087 
    -588    -1112    -2712    -3657    -3709    -3289    -2574    -2357 
   -3088    -3646    -3184    -2266    -1687    -2031    -3113    -3757 
   -3526    -3146    -3121    -3366    -3596    -3655    -3615    -3504 
   -3304    -3001    -2786    -2983    -3094    -2803    -3254    -4434 
   -4650    -4121    -4298    -4946    -5350    -5609    -5726    -5424 
   -4725    -3989    -3561    -3476    -3500    -3581    -3862    -4000 
   -3663    -3229    -2728    -2034    -1846    -2731    -4735    -6963 
   -7385    -5872    -4612    -4545    -5094    -5817    -6212    -5917 
   -5418    -5649    -6783    -8037    -8775    -8611    -7317    -5944 
   -5493    -5113    -4459    -4299    -3932    -2717    -2116    -2821 
   -3669    -4229    -4997    -5756    -5981    -5813    -5179    -3662 
   -1917    -1374    -2342    -3511    -3723    -3233    -2443    -1244 
    -220     -259    -1190    -2207    -2586    -2057    -1318    -1385 
   -2255    -2902    -2654    -1921    -1177     -369      178     -301 
   -1786    -3036    -2856    -1570     -337      216     -615    -3422 
   -6736    -8021    -6573    -3622     -994     -120    -1121    -2971 
   -4491    -5238    -5321    -4571    -3358    -2824    -2940    -2884 
   -2830    -3087    -3277    -3400    -3565    -2965    -1555    -1075 
   -2208    -3676    -4837    -5698    -5934    -5888    -6218    -6733 
   -7034    -6984    -6255    -4720    -2921    -1501     -832    -1057 
   -1744    -2031    -1563     -626      118     -280    -1791    -3264 
   -4584    -6111    -6790    -6237    -5567    -4653    -3032    -1929 
   -2344    -3998    -6092    -7516    -7616    -6590    -5086    -4051 
   -3994    -4584    -5170    -4860    -3584    -2905    -3712    -4961 
   -5227    -3831    -1273     1013     1971     1618      643     -209 
    -445       78      880     1116      600       49      -51      -24 
    -152     -267     -340     -423     -414     -743    -1960    -3636 
   -5166    -6381    -6844    -6439    -6203    -7068    -8629    -9706 
   -9508    -8081    -6100    -4664    -4812    -6511    -8317    -8437 
   -6273    -3080     -955     -957    -2585    -5008    -7393    -8537 
   -7940    -6504    -5297    -4386    -3385    -2597    -2538    -3195 
   -4449    -5772    -6084    -5131    -3974    -3607    -3680    -3257 
   -2648    -2901    -3721    -4162    -4345    -4587    -4540    -4108 
   -3522    -2829    -2290    -2312    -2914    -4197    -6289    -8274 
   -8702    -7489    -5944    -4930    -4456    -4353    -3947    -2685 
   -1216     -349     -126     -221     -149      137       99     -549 
   -1777    -3302    -4347    -4465    -3789    -2353     -351     1656 
    3068     3465     2957     2106     1499     1679     2667     3678 
    4136     4113     3346     1416    -1075    -3014    -4167    -5093 
   -6268    -7993    -9983   -10962   -10112    -7770    -4418    -1152 
     313     -199     -999     -442     1738     4194     5179     4372 
    2629      696     -780    -1297    -1269    -1289    -1051     -425 
    -136     -372     -476     -481     -766     -355     1768     4448 
    5753     5077     2918      315    -1598    -2686    -3744    -4989 
   -6223    -7793    -9560   -10631   -10770   -10242    -9062    -7696 
   -7298    -8363    -9942   -10743   -10343    -8795    -6284    -3909 
   -3339    -5031    -7871   -10355   -11175    -9969    -8313    -8152 
   -9252    -9975    -9753    -9024    -8033    -7118    -6552    -5786 
   -4228    -2296    -1019     -978    -1842    -2917    -3649    -3792 
   -3866    -4773    -6376    -7499    -7740    -8021    -8941    -9715 
   -9401    -8168    -6349    -3852    -1548     -865    -1684    -2590 
   -2401     -884      899     1641     1339      642      -78     -541 
    -812    -1086    -1009     -337      630     1636     2324     2265 
    1775     1625     2173     3399     4737     5003     3585     1209 
    -913    -2087    -2068     -985      244      741      845      935 
     573      -83     -303     -243     -567    -1316    -2052    -2451 
   -2430    -2251    -2578    -3809    -5539    -7230    -8743    -9944 
  -10551   -10184    -8911    -7655    -6843    -5800    -4415    -3248 
   -2104     -600      918     1975     1973      544    -1260    -2060 
   -1845    -1131     -236      298      274      230      622     1282 
    1825     1840      754    -1244    -2855    -3480    -3888    -4788 
   -6454    -8876   -11315   -12588   -12252   -11018    -9452    -7402 
   -5386    -4210    -3582    -3349    -3928    -4851    -5414    -5741 
   -5944    -5713    -4932    -3924    -3196    -3140    -3912    -5138 
   -5844    -5545    -4877    -4425    -3762    -2502    -1316     -816 
    -710     -949    -1814    -2793    -3368    -3916    -4634    -5152 
   -5395    -5503    -5294    -4569    -3356    -1750     -172      764 
     905      473     -259     -932    -1360    -1741    -2269    -2835 
   -3164    -2968    -2269    -1840    -2575    -4409    -6500    -7915 
   -7927    -6663    -5181    -4469    -4849    -5873    -6639    -6663 
   -6154    -5691    -5787    -6016    -5471    -4310    -3353    -3021 
   -3393    -4059    -4349    -4298    -4276    -4000    -2992    -1425 
     153     1267     1588     1082      257       -4      653     1541 
    2037     2335     2466     2097     1406      608     -604    -2207 
   -3443    -3825    -3709    -3739    -4158    -4828    -5525    -5861 
   -5672    -5616    -6528    -8386   -10191   -10717    -9630    -7782 
   -6131    -5024    -4465    -4272    -4178    -3947    -3130    -1493 
     333     1426     1161     -656    -3175    -4953    -5351    -4550 
   -2898     -994      333      618       35    -1004    -2095    -2555 
   -1838     -542       14     -641    -2034    -3802    -5736    -7288 
   -8108    -8405    -8365    -7951    -7198    -6129    -4769    -3261 
   -1655      -31     1163     1584     1514     1320      972      373 
    -481    -1539    -2458    -2907    -2943    -2778    -2687    -2951 
   -3287    -3036    -2191    -1545    -1769    -2683    -3505    -3715 
   -3680    -4195    -5319    -6525    -7663    -8455    -8289    -7381 
   -6642    -6451    -6407    -6006    -5412    -4986    -4349    -3159 
   -2300    -2828    -4436    -6100    -7140    -7002    -5591    -3867 
   -2870    -2647    -2610    -2466    -2508    -2870    -3038    -2835 
   -2901    -3522    -4194    -4564    -4522    -3923    -3041    -2268 
   -1447     -567     -135     -125      -39     -180    -1005    -1779 
   -1950    -2293    -3173    -3747    -3456    -2536    -1371     -472 
    -253     -681    -1830    -3789    -5813    -6783    -6392    -5096 
   -3574    -2694    -3190    -4841    -6644    -7902    -8322    -7686 
   -6249    -4800    -4077    -4105    -4271    -4321    -4433    -4496 
   -4446    -4330    -3854    -3168    -2907    -3042    -3449    -4460 
   -5906    -7132    -7415    -6149    -3874    -2047    -1317    -1294 
   -1325    -1044     -699     -615     -727    -1066    -1771    -2733 
   -3946    -5270    -6033    -5904    -5432    -5263    -5447    -5486 
   -5101    -4495    -3869    -3395    -3295    -3523    -3744    -3681 
   -3327    -2637    -1555     -711     -758    -1198    -1340    -1146 
    -515      557     1466     1740     1480      646    -1250    -4137 
   -6882    -8451    -8534    -7180    -5162    -3624    -2951    -3133 
   -3963    -4592    -4430    -3773    -3385    -3996    -5286    -6127 
   -6390    -6849    -7628    -8301    -8626    -8351    -7227    -5694 
   -4880    -5429    -6700    -7569    -7095    -4661     -864     2806 
    5273     5764     3888      504    -2683    -4297    -3915    -2416 
   -1363    -1455    -2242    -3103    -3466    -2635     -490     2007 
    3491     3110     1078    -1161    -1972     -965     1169     3631 
    5630     6312     5520     4102     2952     2085     1055      -49 
    -801    -1290    -1937    -2629    -2752    -1985     -718      -86 
   -1335    -4209    -6890    -8089    -7812    -6475    -4796    -3716 
   -3838    -5175    -7034    -8743   -10264   -11190   -10848    -9490 
   -7832    -6524    -6014    -6083    -6266    -6284    -5819    -4766 
   -3539    -2671    -2351    -2470    -2768    -2818    -2135     -585 
    1344     2764     2987     1968      388     -822    -1204     -824 
    -126      178     -149     -577     -680     -738    -1174    -2000 
   -3030    -4054    -4882    -5633    -6330    -6508    -6062    -5491 
   -5058    -4966    -5653    -6777    -7083    -5894    -3867    -2343 
   -2164    -2864    -3277    -2960    -2606    -2975    -3701    -3811 
   -3222    -2589    -2019    -1385     -931     -619     -136      383 
     556      206     -380     -460      189      733      305    -1005 
   -2309    -2893    -2841    -2721    -3061    -4032    -5479    -7229 
   -8973   -10218   -10783   -10717    -9933    -8559    -7063    -5906 
   -5336    -5302    -5574    -5991    -6492    -6943    -7096    -6733 
   -5815    -4639    -3766    -3481    -3651    -4249    -5246    -6203 
   -6574    -6099    -4995    -3842    -2947    -2303    -1849    -1161 
     152     1614     2340     1853      276    -1776    -3746    -5501 
   -6879    -7500    -7422    -7146    -6870    -6512    -6247    -6066 
   -5321    -3642    -1737     -594     -634    -1678    -2906    -3269 
   -2405     -946       41      118     -126      -20      369      508 
     -12    -1121    -2052    -1580      657     3327     4665     3909 
    1408    -1692    -4212    -5721    -6280    -6247    -6022    -5455 
   -4553    -3915    -3555    -2735    -1188      449     1269      756 
    -924    -3142    -5004    -5738    -5508    -5085    -4864    -4907 
   -5165    -5358    -5313    -5188    -5117    -5089    -5297    -5949 
   -6598    -6567    -5945    -5470    -5644    -6077    -5832    -4719 
   -3559    -3049    -3465    -4930    -6944    -8409    -8588    -7614 
   -6172    -4947    -4187    -3578    -2720    -1763    -1294    -1470 
   -1730    -1506     -722      211      545     -213    -1602    -2749 
   -3326    -3257    -2547    -1868    -1842    -2018    -2141    -3071 
   -4919    -6197    -5846    -4396    -3034    -2631    -3291    -4409 
   -5077    -4513    -2843    -1063      159      661      508      351 
     643      905      839      774      554     -309    -1590    -2436 
   -2091     -486     1347     1937      820    -1027    -2320    -2524 
   -1991    -1629    -2272    -3971    -6034    -7749    -8645    -8282 
   -6554    -4055    -1788     -626     -866    -2115    -3712    -5205 
   -6243    -6539    -6409    -6685    -7695    -8868    -9342    -8572 
   -6663    -4341    -2349    -1151    -1171    -2408    -4380    -6679 
   -8564    -9166    -8676    -7688    -6286    -5135    -5552    -7684 
   -9954   -10697    -9410    -6497    -3019     -303     1354     2540 
    3207     2856     1579     -249    -2623    -5432    -7716    -8203 
   -6485    -3098      800     3593     4031     1992    -1360    -3990 
   -4469    -3207    -1769    -1331    -1983    -3167    -4334    -4939 
   -4558    -3447    -2211    -1088     -348     -276     -418     -444 
    -855    -1633    -1873    -1044      616     2236     2404      237 
   -3588    -7503   -10146   -10577    -8660    -5548    -2883    -1444 
   -1212    -2228    -3894    -4646    -3951    -2736    -1625     -891 
   -1035    -2155    -3680    -4671    -4391    -2902     -895      711 
    1271     1016      645      483      349     -170    -1301    -2767 
   -4017    -4716    -4827    -4550    -4378    -4849    -6118    -7797 
   -9202    -9802    -9713    -9585    -9640    -9483    -8884    -7821 
   -6474    -5661    -5967    -6766    -7361    -7797    -8070    -7970 
   -7272    -5594    -3125     -962      110       31    -1128    -2793 
   -3678    -2926     -907     1151     2019     1429       67    -1260 
   -1830    -1182      413     2208     3295     2781      710    -1645 
   -3168    -3879    -4353    -5032    -5968    -6783    -7190    -7276 
   -7408    -8091    -9018    -8937    -7541    -5849    -4554    -3726 
   -3403    -3352    -3107    -2659    -2269    -1871    -1312     -716 
    -337     -383     -785    -1101    -1053     -885    -1007    -1570 
   -2367    -2945    -2914    -2296    -1474     -957    -1108    -1879 
   -2760    -2976    -2100     -661      275      153     -625    -1321 
   -1696    -1921    -2046    -1964    -1741    -1732    -2101    -2436 
   -2208    -1360     -189      874     1318      889      -93    -1048 
   -1696    -2126    -2547    -3129    -3878    -4739    -5848    -7182 
   -8043    -7771    -6690    -5622    -5182    -5597    -6565    -7415 
   -7578    -6930    -5935    -5494    -6266    -7901    -8928    -7969 
   -5255    -2377     -603      -51     -186     -538     -885    -1000 
    -675      -68      259     -329    -2058    -4452    -6556    -7419 
   -6781    -5516    -4793    -4804    -4955    -4846    -4218    -2659 
    -378     1533     2293     1865      305    -2060    -4328    -5715 
   -5964    -5273    -4382    -4023    -4232    -4600    -4756    -4419 
   -3322    -1408      847     2547     2932     1971      292    -1314 
   -2112    -1790     -820      178      926     1089      402     -778 
   -1861    -2820    -3973    -5346    -6714    -7665    -7615    -6496 
   -5082    -4178    -4001    -4525    -5597    -6488    -6340    -5360 
   -4499    -4105    -3909    -3639    -3229    -3123    -3844    -5109 
   -6289    -7214    -7870    -8060    -7855    -7670    -7636    -7491 
   -6802    -5312    -3501    -2297    -2185    -3030    -4137    -4540 
   -3871    -2594    -1489    -1352    -2496    -4201    -5387    -5756 
