Origin Time       2025/01/13 21:19:00
Lat.              31.8
Long.             131.6
Depth. (km)       30
Mag.              6.9
Station Code      MYZH10
Station Lat.      32.0215
Station Long.     131.2900
Station Height(m) 80
Record Time       2025/01/13 21:19:39
Sampling Freq(Hz) 100Hz
Duration Time(s)  214
Dir.              4
Scale Factor      3920(gal)/6170801
Max. Acc. (gal)   42.113
Last Correction   2025/01/13 21:19:24
Memo.             
[...]
  -25060   -18269    -9353    -4459    -6520   -12147   -15990   -17167 
  -16492   -12860    -6697    -2253    -3128    -8501   -15768   -22149 
  -24658   -22412   -16547    -9785    -6113    -7105   -11072   -15698 
  -19252   -20265   -16995    -9184      446     8032     9987     4587 
   -4665   -10850   -10973    -7556    -3961    -1684     -888    -2968 
  -10142   -20497   -28412   -30313   -26309   -17903    -7510      858 
    4392     3209    -1523    -6931    -9258    -8171    -6655    -7926 
  -13673   -22269   -28941   -30284   -26803   -19374    -8458     2819 
   10196    12308    11212     8140     2376    -4025    -8556   -12187 
  -15039   -15578   -14271   -13245   -13142   -11860    -8697    -6548 
   -6625    -6345    -4346    -2967    -4713    -9368   -15547   -21879 
  -25908   -24896   -18377    -9322    -2673    -1256    -2883    -3434 
   -2783    -4224    -7781   -10094   -10366   -10563   -12544   -16596 
  -19730   -18752   -14997   -11788   -10710   -11801   -13265   -12752 
  -10879   -10367   -11724   -12365   -10082    -6051    -3131    -2261 
   -2881    -5241    -9635   -14756   -18440   -19874   -19968   -19636 
  -19497   -20101   -20687   -19097   -14293    -8653    -6072    -7744 
  -11209   -13269   -13576   -14394   -16315   -17498   -17453   -17768 
  -19452   -21411   -21492   -19347   -16618   -14279   -12909   -13559 
  -16314   -20087   -22544   -20414   -12579    -2021     5953     7866 
    4677      -79    -3214    -4101    -4439    -4643    -3883    -3303 
   -4682    -6706    -5900    -2595    -1525    -3712    -5493    -6048 
   -7389    -9141    -8669    -4786      110     1588    -2693   -10565 
  -17292   -19166   -15169    -6524     3735    10046     7135    -3538 
  -14367   -18930   -15556    -5982     6620    17300    20021    12620 
   -1425   -15485   -22629   -19920   -10118      -13     2935    -4123 
  -18300   -33515   -41442   -35418   -17135     4447    20379    24862 
   17054     2309   -12989   -23446   -23528   -13231     1538    13821 
   17197    11125      580   -10572   -18751   -21122   -19174   -17809 
  -21376   -28822   -35521   -39144   -38814   -33997   -25866   -16828 
  -10905   -10840   -15218   -22076   -28183   -27989   -21286   -14396 
  -12278   -16678   -27325   -39769   -48571   -51070   -44097   -28203 
  -11928     -892     5059     3319    -7522   -19949   -24161   -18181 
   -7154     1575     3197     -698    -6230   -11766   -14515   -10924 
   -3293     2687     4914     2842    -3834   -11823   -16238   -14443 
   -6469     4131    10290     6962    -3880   -17469   -30737   -40051 
  -42346   -38361   -31180   -24350   -19512   -14876    -9187    -4574 
   -2763    -1925       22     1594      202    -3795    -7409    -7684 
   -4252     1003     6954    12866    16588    16190    11271     3751 
   -2012    -4158    -4552    -3537     -469     4092     9284    12119 
   10186     6428     3251    -1367    -7092   -10199   -10221    -9687 
   -8848    -6843    -4942    -4362    -4786    -5909    -7303    -8998 
  -11109   -10769    -6296    -1604     1071     3430     5303     4858 
     186    -8582   -17975   -25750   -32148   -37780   -43181   -48056 
  -51890   -54444   -55498   -55805   -56183   -55804   -53394   -48546 
  -41577   -33494   -25481   -18355   -12821    -9251    -6930    -4598 
   -2012      418     3052     6222     9146    10953    11631    11394 
    9879     6894     2779    -2865   -10518   -19344   -27883   -33954 
  -35378   -32584   -28134   -24014   -20298   -17316   -17823   -22481 
  -27198   -28616   -26951   -23861   -20294   -16063   -12669   -13083 
  -16672   -18956   -16170    -7462     5411    19098    29968    34693 
   30885    19834     7201    -1874    -5653    -3777     2235     7730 
    8697     5706     2993     4682    11160    18991    23985    23597 
   17685     8032    -2331    -9548   -11141    -8358    -4728    -2780 
   -3127    -5721   -10496   -15954   -18264   -14382    -6406     -675 
   -1934    -9558   -19284   -26853   -29545   -26559   -19556   -11749 
   -6010    -3843    -4802    -7247   -10807   -16306   -22491   -26174 
  -26468   -24851   -21465   -16199   -11482    -9430    -9576   -11477 
  -15353   -19988   -21726   -16876    -6618     2772     4708    -3010 
  -16684   -30294   -38346   -36208   -23433    -7067     3036     3029 
   -4802   -15161   -21684   -25241   -30346   -33709   -33103   -32786 
  -34378   -36836   -36940   -29803   -16547    -3537     3283      191 
  -11219   -23613   -28248   -19997     -552    22873    41033    47315 
   40761    23187     -570   -20256   -26699   -19100    -4722     6987 
   11056     7636     -193    -7585   -10924    -9284    -3047     5642 
   12849    15935    14784    10422     4430    -2011    -8753   -16005 
  -24493   -34303   -42626   -45918   -44202   -41358   -42012   -47833 
  -56123   -62615   -64402   -60291   -51045   -39840   -30588   -23826 
  -17481   -12770   -11674   -11925   -11142    -8121    -1400     6922 
   12471    14667    16766    21241    26172    26958    21618    11908 
     568    -9389   -14907   -15843   -13695    -7106     3910    15688 
   26800    36036    39860    37099    29255    18361     6264    -5506 
  -15060   -21619   -25920   -28679   -30949   -34100   -38091   -40689 
  -39409   -33221   -22375    -9651      356     5021     4768     2428 
    1071      755     -242    -2943    -7542   -12701   -16210   -17158 
  -15955   -12578    -5765     4510    14137    16742     9364    -4220 
  -17816   -29196   -38982   -46684   -50499   -48876   -42619   -34012 
  -23834   -13295    -6159    -5034    -8145   -11748   -14952   -20052 
  -27554   -34570   -39671   -44412   -48041   -47041   -41080   -31996 
  -19731    -5232     8183    16945    18711    15073    10652     8068 
    6868     6826     8779    11966    13721    12288     8451     4573 
    1693    -1630    -5858   -10157   -15869   -22899   -26466   -22558 
  -11871      467     7215     3864    -8410   -23390   -32913   -31477 
  -19619    -3490     9671    16677    18484    15358     5759    -8545 
  -20497   -23818   -19316   -13335   -11151   -13222   -16489   -17592 
  -15254   -10489    -5995    -5820   -11884   -20208   -25321   -26748 
  -26913   -27634   -29760   -30747   -27334   -21209   -14787    -6973 
    2260     9751    13488    13187     6347    -7990   -22823   -28901 
  -25120   -19014   -16916   -17379   -17196   -17023   -18972   -24256 
  -29726   -27578   -14755     1762    12523    16343    19697    24479 
   25688    21326    13060      881   -13953   -25750   -29415   -26616 
  -25104   -30939   -41231   -47212   -45554   -41510   -39067   -35164 
  -25867   -12466     -125     7063     9106     8390     6744     5064 
    3500      389    -7517   -19482   -27248   -23804   -12966    -5707 
   -8859   -18031   -22029   -14919    -1357    10119    14245     9383 
   -2707   -17965   -33619   -46940   -52567   -45320   -25550    -2584 
   12221    16471    13394     6768     2790     3964     6565     6334 
    -410   -13138   -25362   -31275   -30020   -24573   -17878   -10293 
    -835     9858    17719    19685    19446    20941    20505    14792 
    5296    -7151   -20191   -30550   -38257   -42747   -44346   -46200 
  -48065   -48471   -48207   -44948   -35377   -22495   -12448    -7639 
   -6640    -8111   -11893   -15924   -16413   -13246   -11235   -13010 
  -15158   -14643    -9972      568    10273     9673     2980    -1498 
   -3966    -5668    -4538      536     6429    10413    14781    18752 
   17184    10786     4324      770     2123     6452     7418     2102 
   -4238    -3822     3815    11523    13261     9447     4378       30 
   -5424   -12454   -17771   -20141   -23745   -31834   -42185   -50894 
  -56557   -59621   -58551   -50216   -36255   -22828   -13757    -9948 
  -10366   -12171   -13812   -13563   -10442    -7875    -7210    -6851 
   -7075    -5338     1947    12769    21915    24613    19004     6036 
  -12550   -32218   -46234   -50742   -46938   -40051   -35921   -35765 
  -35729   -32733   -26771   -17882    -6037     6423    15763    20549 
   21364    18755    14843    11407     6471    -1924   -12193   -20643 
  -24249   -22283   -15044    -3464     9223    18668    22862    22433 
   18392    12445     7268     4143     2276    -1501   -10383   -20747 
  -25215   -22810   -18246   -14009    -8131    -1669     -516    -5023 
   -9222   -10535   -12653   -18189   -23842   -27554   -29828   -28477 
  -23566   -19181   -18268   -23174   -34288   -47543   -58517   -62834 
  -55615   -38097   -18386    -4565     -173    -3074    -8651   -12945 
  -12086    -3086    13342    30722    40078    37702    26355    11127 
   -1864    -7900    -7377    -5853   -10722   -24392   -40651   -51493 
  -53937   -46896   -30731   -13482    -4114    -1958    -3991   -11402 
  -23167   -33147   -34822   -25869   -10706     1278     3510    -2199 
   -8699   -10680    -7293      246     9381    16960    21026    19867 
   12259      378   -10971   -17235   -15061    -5043     7136    15087 
   14568     4556   -11004   -24667   -30174   -27463   -21351   -14766 
   -8951    -6418    -8312   -12225   -13534   -10086    -4201     1644 
    6089     8369     9670    10261     8277     3642    -2098    -8956 
  -17887   -28136   -36919   -40958   -37926   -28379   -16574    -7756 
   -5198    -9331   -17011   -23212   -25823   -26028   -24480   -21279 
  -17468   -13953   -11402    -9852    -8122    -6925    -8603   -12607 
  -16181   -17494   -16189   -12631    -6675      910     6241     6045 
    2628      787      630    -2144    -7936   -10615    -5590     4553 
   13676    17331    14425     6676    -2860   -11352   -16378   -15674 
   -8499     2801    13512    19131    16694     4964   -13208   -31128 
  -43064   -45649   -38203   -24761   -11515    -2289      830    -5167 
  -19727   -34342   -40552   -37995   -31971   -27699   -27095   -30353 
  -37594   -45928   -48982   -42653   -29101   -14186    -3594     -927 
   -5804   -14428   -22986   -27969   -25298   -14255    -1507     3739 
    -347    -8821   -18685   -27832   -30887   -24225   -10807     2507 
   11695    17033    19525    20358    19554    15642    10013     5803 
    2046    -3942    -9594    -9699    -3930     2719     5294     3156 
   -1157    -4963    -5587     -659     9066    18355    21446    16212 
    3793   -11964   -24962   -29941   -25757   -16495    -9877   -11955 
  -20673   -28241   -31408   -33080   -35692   -38642   -39561   -36633 
  -30577   -24698   -20851   -16285    -9041    -1638     2235      182 
   -6602   -12354   -12050    -7696    -5992   -10700   -19777   -28352 
  -33843   -36469   -35129   -28477   -18457    -8794    -2629    -1776 
   -5138    -8037    -5956      751     7739    11255    10101     4882 
   -2699   -10294   -14140    -9697     2749    17121    28587    34242 
   30927    20530     9076      167    -2866     2608    12392    18638 
   17774     9766    -5618   -24379   -37914   -41814   -35933   -21967 
   -8038    -3959    -9549   -18469   -28258   -35788   -36442   -31889 
  -25770   -19844   -16789   -16678   -15620   -12121    -8417    -4065 
    1684     3197    -4310   -19028   -36366   -48675   -49947   -43697 
  -35988   -27971   -20293   -15258   -12496    -7464      274     3097 
   -2075    -9254   -14420   -18378   -21211   -21336   -18995   -16858 
  -17078   -20152   -25185   -30489   -34089   -33507   -27455   -18406 
  -11625   -10272   -12498   -13975   -11670    -5499     2190     7937 
    8416     2313    -8326   -18642   -23664   -21757   -15818   -11206 
  -12036   -18806   -28636   -36157   -35199   -22797    -2979    14754 
   23242    22390    14795     2943    -8623   -14943   -13497    -4424 
    8321    17880    18629     8466    -8853   -23792   -29101   -25140 
  -16429    -8041    -3165    -1848    -3210    -6100    -8048    -6724 
   -1485     5953    11887    13186     8707     -500   -10551   -16444 
  -15900   -10990    -5958    -3586    -3207    -2568     -744     2596 
    6916     8955     7958     7462     5709    -2188   -13301   -22410 
  -28450   -30581   -27897   -20742   -11625    -4793    -2056    -2039 
   -2886    -4729    -8345   -11677   -12866   -13333   -15185   -20132 
  -28660   -38055   -44699   -47542   -47091   -43117   -34925   -23093 
  -10086     1946    12682    21359    25940    24939    17056     1376 
  -19836   -40788   -54987   -58495   -51903   -39694   -27670   -19699 
  -16815   -18172   -20417   -20174   -17544   -13536    -8076     -554 
    9234    18554    22924    20535    14352     7402    -2046   -12674 
  -17164   -12082      211    14102    22559    21639    10457    -8279 
  -26838   -37851   -36374   -18574     9212    28360    31267    26127 
   12171   -12280   -33754   -43372   -42589   -34994   -29705   -32827 
  -39742   -46648   -54170   -57050   -47585   -27178    -5305     8762 
   13500    12929     8838     2157    -4548    -9554   -12421   -13401 
  -14167   -17009   -22143   -26444   -25681   -18395    -7085     3244 
    7902     5810    -1046    -9530   -15965   -18953   -20076   -20154 
  -18526   -15738   -13225   -10393    -4867     4175    15083    25739 
   34081    37788    35893    29305    19111     6332    -7125   -19304 
  -29724   -39139   -47780   -54339   -56291   -50735   -37704   -22882 
  -12428    -7689    -7855   -11110   -13458   -11930    -6229     2363 
   10146    13210    12178    11296    14161    22120    34257    47182 
   55747    55003    41828    17473   -10036   -31384   -43926   -48133 
  -43013   -33628   -29391   -27674   -21935   -20093   -27074   -34584 
  -39610   -43494   -44458   -42378   -38060   -31023   -21066   -10262 
   -1137     5258     7265     5005     2553     2905     4611     4424 
     521    -6737   -15552   -24114   -30930   -34742   -35003   -32247 
  -28841   -26709   -24239   -18712    -9435     2401    14294    22302 
   21855    11128    -7307   -28658   -47947   -60801   -63856   -56910 
  -44481   -31505   -20578   -14847   -15276   -16240   -13258    -8689 
   -4036     1307     4620     4444     3658     3314     2609     2382 
    2607     3501     6828    11297    13729    13330    10468     5112 
   -2469   -11540   -20613   -26781   -27483   -22519   -14023    -5628 
    -260       57    -6870   -19426   -30925   -36544   -35370   -27453 
  -15474    -3483     6080     9257     3822    -4224    -8390    -9055 
   -7368    -2409     3955     7286     5893     1054    -6475   -15796 
  -25026   -32259   -34693   -30245   -21380   -13299    -7499    -1752 
    3305     5085     4023      760    -5219   -12016   -16858   -18973 
  -18199   -15406   -14141   -16505   -20187   -23209   -25526   -25770 
  -22183   -14596    -4290     5656    10936     8676      439    -8198 
  -12495   -11591    -7490    -4260    -6105   -13807   -24935   -36284 
  -44482   -46788   -41947   -30262   -14897     -809     9625    16230 
   18517    17353    14555    10697     6227     1407    -4297   -10013 
  -13543   -14625   -15033   -15373   -14340   -10998    -6430    -3107 
   -2768    -5039    -8307   -11498   -14332   -16551   -18162   -19565 
  -20766   -21402   -21205   -20087   -17779   -13234    -5211     6245 
   18771    28426    32542    31249    26212    18844     9285    -2226 
  -13317   -20956   -23859   -22680   -19779   -18365   -20433   -25451 
  -31123   -35772   -39215   -40069   -35998   -28909   -23514   -21775 
  -23471   -26740   -28437   -26822   -21569   -13816    -6366    -1335 
     932      953     -652    -3656    -8211   -13772   -18571   -21048 
  -20804   -17813   -12261    -5190     1700     6551     7852     5468 
     740    -4558    -8825   -11160   -12053   -12853   -14317   -16219 
  -17971   -19356   -21149   -24613   -30321   -37769   -45627   -51640 
  -53022   -48495   -39660   -29455   -20035   -12429    -6314      313 
    9535    21707    34184    41790    41249    33681    22276    11005 
    3664     1802     4864     9921    12101     8769      -54   -13846 
  -29427   -41105   -45086   -41659   -34665   -28286   -23678   -19933 
  -15624    -9158     -502     8534    15657    18385    15103     6765 
   -3376   -11564   -15260   -14047    -9895    -6512    -7092   -11842 
  -17897   -21504   -19701   -10924     3647    19095    28957    29390 
   20927     7084    -7395   -18229   -23185   -22802   -20448   -20064 
  -22792   -26659   -28424   -25398   -17575    -8032     -556     2131 
    -942    -8303   -16859   -23570   -26720   -27094   -27372   -29831 
  -34985   -41243   -45245   -43609   -34926   -20893    -5637     6394 
   11925    10347     4360    -2236    -7185   -10380   -12670   -14550 
  -15944   -16536   -15916   -13625    -9995    -6676    -5651    -8354 
  -14377   -20401   -22246   -16856    -2762    16995    34339    42827 
   41563    32553    19157     5801    -3202    -5440    -2693     -238 
   -2683   -11453   -24993   -39257   -49586   -52745   -47166   -35101 
  -23541   -18063   -19191   -26174   -36329   -43312   -42834   -34892 
  -21651    -7583     3022     8956    11085    11299    11947    13764 
   15043    13670     8613      452    -8399   -14970   -17152   -14456 
   -8414    -1854     2430     2812     -409    -5292    -9233   -10202 
   -8129    -5144    -4502    -8058   -14137   -19570   -22573   -22642 
  -20305   -17444   -16165   -17206   -19822   -22485   -23548   -22214 
  -18995   -15057   -11683   -10322   -11956   -16127   -21073   -24439 
  -24367   -20800   -15408   -10354    -7475    -7822   -11211   -16556 
  -22600   -27505   -28889   -25813   -20051   -14991   -13083   -14348 
  -17339   -20016   -20142   -16483    -9507    -1193     6061    10908 
   13413    14674    15962    17579    18493    17063    12129     3593 
   -7218   -17886   -26286   -31211   -32389   -30624   -26930   -22106 
  -17601   -14868   -13640   -12375   -10002    -6558    -3167    -1396 
   -2029    -5108   -10770   -18435   -25592   -29033   -27248   -21131 
  -12978    -5373     -613      920     1131      930      -18     -854 
   -1661    -4477    -9711   -15150   -18093   -16996   -11838    -3684 
    5288    11806    12991     8184     -614   -10306   -18856   -25520 
  -30455   -34945   -39904   -44403   -46992   -46638   -42481   -35011 
  -26817   -20554   -16499   -13190    -9311    -3876     3122    10394 
   16917    21917    24478    25086    25357    26080    27093    27825 
   26844    22267    13616     2295    -9435   -18763   -23333   -22990 
  -19209   -14012    -9693    -7174    -6059    -6689    -8964   -11241 
  -12932   -14967   -17428   -19803   -22138   -24060   -24892   -24828 
  -24212   -23222   -22650   -23012   -23557   -23452   -22700   -21372 
  -19414   -17149   -15010   -13275   -12052   -11053    -9825    -8542 
   -8288    -9950   -12734   -15039   -16763   -18764   -20890   -22583 
  -23837   -24615   -24988   -25460   -26070   -26264   -25524   -23276 
  -19375   -14664   -10322    -7507    -6706    -6852    -6596    -5746 
   -4501    -2639        2     3019     5635     7173     7252     5581 
    2072    -2741    -7795   -12076   -15238   -17445   -18146   -16025 
  -10904    -4605      170     1293    -1532    -6613   -11896   -16183 
  -18585   -18501   -16481   -13792   -11112    -8029    -3784     2004 
    9488    17807    24590    28271    29347    28842    27428    25082 
