Origin Time       2025/01/13 21:19:00
Lat.              31.8
Long.             131.6
Depth. (km)       30
Mag.              6.9
Station Code      MYZH03
Station Lat.      32.4754
Station Long.     131.1043
Station Height(m) 319
Record Time       2025/01/13 21:19:47
Sampling Freq(Hz) 100Hz
Duration Time(s)  160
Dir.              3
Scale Factor      2942(gal)/8224139
Max. Acc. (gal)   4.860
Last Correction   2025/01/13 21:19:47
Memo.             
[...]
   63467    64598    65188    65499    65689    65839    66175    66664 
   66982    66843    66387    66032    65720    65268    64814    64172 
   63443    63634    64955    66456    67531    67954    67950    68224 
   68821    69365    70005    70788    71423    71852    72063    71944 
   71464    70722    69952    69016    67493    65793    64808    64494 
   64141    63568    62931    61994    60671    59432    58540    58193 
   59101    61203    63228    64542    65574    66714    67792    68284 
   68258    68512    69198    69722    69797    69527    69333    69506 
   69471    68893    68517    68551    68050    66577    64920    64012 
   64099    64872    65732    66248    66604    67039    67093    66299 
   65325    65279    66060    66471    65898    64993    64381    63759 
   62831    61828    60966    60497    60764    61685    62607    62623 
   61530    60392    60339    61420    63057    64817    66347    67315 
   67871    68362    68543    67937    66861    66226    66322    66421 
   65881    64955    64069    63093    61773    60208    58626    56995 
   55243    53731    52855    52504    52709    53779    55351    56979 
   59044    61641    63988    65539    66339    66777    67435    68288 
   68793    69102    69805    70623    70552    69417    68068    66837 
   65411    63883    62459    61078    59944    59335    59004    58598 
   58224    58355    59454    61310    63097    64654    66526    68374 
   69263    69373    69358    69186    68906    68999    69657    70487 
   70930    71135    71670    72289    72377    72053    71766    71413 
   70584    69353    68041    66555    64746    63178    63104    64816 
   66617    67100    66941    67147    67691    68423    69341    70098 
   70491    70602    70372    70050    69942    69770    69539    69781 
   70314    70367    69993    69789    69530    68762    67945    67670 
   67694    67563    67313    66984    66415    66109    66804    68096 
   69195    70117    70827    70690    69284    67047    65284    65048 
   65788    66039    65060    63329    61946    61555    61902    62569 
   63389    63779    62868    60847    59028    58386    58758    59265 
   59447    59764    60708    61890    62303    61700    61229    61792 
   62714    63132    63175    63059    62872    63088    63775    64021 
   63109    61557    60189    59296    58961    58974    58976    59046 
   59258    59352    59147    58552    57645    57003    57249    58380 
   59994    61685    62981    63594    63841    64216    64833    65654 
   66442    66765    66874    67336    67892    68312    68893    69606 
   70433    71568    72748    73369    72909    71524    70260    69844 
   70202    71205    72584    73599    73777    73545    73560    73747 
   73535    72760    71820    71184    71066    71145    70735    69618 
   68250    67243    67035    67693    68775    69588    69805    69709 
   69350    68377    67312    67431    68831    70004    69842    68810 
   67532    65979    64669    64389    64773    65064    65291    65634 
   66114    66680    66746    65790    64311    63162    62642    62692 
   63140    63815    64839    65936    66052    64995    63886    63298 
   62996    62969    63377    64180    64905    64748    63702    62905 
   62964    63290    63520    63813    64000    63945    64066    64481 
   64584    64071    63517    63521    63840    63849    63394    62641 
   61726    60791    60048    59790    60031    60369    60448    60173 
   59853    59992    60523    60961    60902    60166    59301    59084 
   59455    60068    60829    61518    62033    62664    63690    65017 
   66150    66764    67113    67578    68436    69668    70660    71059 
   71057    70443    69317    68706    68762    68393    67159    65649 
   64632    64546    65022    65346    65611    66287    66945    66853 
   66085    64939    63486    62079    61210    61167    62125    64007 
   66198    67884    68744    68724    67745    66513    66209    66638 
   66673    66164    65601    65317    65738    67146    69279    71469 
   72975    73400    72832    71678    70279    68732    67293    66530 
   66891    68168    69363    69496    68598    67473    66600    65820 
   65010    64434    64201    63898    63153    62068    60929    60154 
   59999    60053    59891    59463    58557    57157    56014    55802 
   56316    57119    58098    59013    59586    59869    59888    59741 
   59873    60539    61649    63016    64373    65475    66187    66582 
   66853    67009    67020    67031    67286    67942    68666    68750 
   68060    67267    66935    66960    66773    65881    64485    63324 
   62707    62426    62438    62776    63231    63690    64299    65005 
   65472    65554    65460    65592    66181    66999    67691    68061 
   68068    67861    67497    66903    66276    65832    65412    64840 
   64300    64177    64685    65514    66051    66059    65857    65786 
   65911    66275    66946    67768    68416    68605    68438    68420 
   68782    69236    69580    69904    70121    69940    69403    68910 
   68661    68408    67837    66999    66195    65645    65462    65543 
   65473    64999    64180    63285    62729    62584    62640    62831 
   62885    62510    61959    61464    60972    60594    60370    60164 
   59938    59513    58746    58055    57956    58710    60178    61477 
   61956    62091    62469    63211    64366    65777    67122    68272 
   69263    70267    71265    71832    71863    71763    71798    71899 
   71983    72040    71906    71394    70642    69796    68825    67905 
   67167    66395    65473    64613    63994    63532    63018    62527 
   62392    62505    62457    62283    62174    62067    62052    62460 
   63371    64482    65372    65786    65765    65445    64979    64567 
   64265    64064    64019    64077    64156    64216    64123    63680 
   62745    61627    61015    61021    61200    61312    61233    60953 
   60799    60921    61110    61284    61368    61241    61111    61146 
   61214    61283    61326    61210    61099    61218    61329    61219 
   61167    61418    61928    62618    63356    63977    64459    64848 
   65233    65738    66206    66297    65985    65468    64889    64473 
   64457    64774    65064    65173    65457    65985    66141    65778 
   65551    65711    65870    66017    66503    67185    67649    67917 
   68278    68866    69541    70046    70197    70040    69751    69431 
   69294    69543    69842    69676    69021    68196    67554    67248 
   67244    67571    68091    68254    67807    67192    66649    66009 
   65529    65530    65616    65330    64805    64440    64486    64839 
   65311    65931    66532    66746    66610    66579    66966    67541 
   67837    67840    67986    68400    68763    68868    68666    67927 
   66613    65163    64061    63564    63687    64156    64693    65226 
   65611    65607    65280    64952    64586    64014    63576    63551 
   63705    63848    63998    64265    64791    65466    65946    66002 
   65684    65245    64910    64700    64547    64424    64338    64237 
   63979    63558    63034    62317    61601    61434    61909    62584 
   63100    63263    63061    62708    62380    62181    62347    62911 
   63470    63710    63738    63688    63578    63610    63915    64331 
   64759    65106    65159    64917    64557    64237    64162    64401 
   64878    65468    65893    65962    65858    65805    65732    65534 
   65323    65161    64944    64604    64146    63539    62791    62036 
   61447    61194    61299    61539    61744    61852    61804    61713 
   61755    61962    62353    62954    63591    63960    64053    64228 
   64597    64930    65101    65102    64956    64770    64639    64493 
   64214    63849    63536    63400    63510    63867    64492    65257 
   65731    65777    65762    65830    65796    65645    65360    64928 
   64584    64532    64802    65260    65561    65558    65450    65373 
   65275    65080    64840    64727    64770    64704    64331    63818 
   63362    63009    62839    62849    62888    62949    63208    63624 
   63836    63724    63605    63783    64239    64705    64953    65094 
   65327    65538    65557    65588    65847    66212    66509    66521 
   66104    65655    65647    65916    65963    65595    65145    65045 
   65299    65604    65813    66079    66510    66950    67370    67937 
   68553    68882    68975    69230    69731    70362    71235    72331 
   73372    74248    75012    75585    75865    76003    76239    76531 
   76574    76123    75207    74182    73434    72802    71782    70353 
   68990    68079    67626    67421    67425    67589    67562    67158 
   66577    65966    65306    64669    64357    64554    64980    65329 
   65581    65626    65273    64586    63729    62758    61711    60764 
   60262    60396    60766    60795    60594    60650    60998    61383 
   61708    61943    61981    61896    61931    62048    62005    61765 
   61458    61290    61391    61538    61350    60775    60095    59651 
   59684    60200    60852    61352    61855    62523    63124    63367 
   63177    62631    61755    60525    59305    58656    58579    58642 
   58646    58567    58421    58355    58417    58554    58789    58999 
   59093    59355    59968    60829    61950    63315    64706    66010 
   67181    68058    68596    68881    68847    68364    67594    66961 
   66730    66766    66783    66634    66195    65437    64710    64323 
   64077    63778    63501    63200    62689    62063    61607    61337 
   61096    60960    61152    61699    62452    63207    63769    64100 
   64251    64187    63961    63760    63632    63633    63805    64038 
   64423    65060    65705    66316    67155    68083    68669    68913 
   69175    69596    69893    69703    69082    68465    68118    67969 
   67876    67801    67737    67682    67637    67486    67020    66249 
   65383    64554    63728    62856    62106    61824    62091    62623 
   63285    64285    65732    67455    69186    70753    72283    73974 
   75600    76724    77237    77230    76702    75717    74552    73445 
   72427    71535    70916    70609    70514    70552    70615    70487 
   69952    69044    68085    67389    66988    66638    66094    65423 
   64897    64562    64251    63937    63657    63427    63402    63622 
   63892    64133    64269    64123    63772    63459    63248    63116 
   63212    63745    64654    65639    66484    67150    67689    68106 
   68253    68018    67520    66823    65769    64297    62573    60894 
   59578    58679    57943    57068    56004    55065    54552    54508 
   54923    55683    56532    57364    58110    58540    58646    58733 
   58923    59148    59521    60258    61345    62572    63809    64964 
   65927    66626    67026    67068    66696    66037    65429    65098 
   65084    65317    65601    65870    66231    66604    66856    67159 
   67676    68251    68739    69138    69473    69749    69959    70066 
   69997    69730    69244    68443    67273    65877    64554    63483 
   62584    61777    61074    60421    59854    59520    59412    59409 
   59464    59576    59755    60006    60268    60488    60759    61040 
   61007    60642    60319    60281    60574    61134    61746    62197 
   62433    62592    62834    63094    63136    62788    62198    61886 
   62206    62958    63828    64713    65481    66024    66376    66569 
   66699    66955    67350    67806    68451    69438    70609    71577 
   72083    72083    71578    70563    69111    67440    65765    64075 
   62344    60820    59829    59385    59181    59030    58990    58981 
   58781    58384    57989    57794    57927    58356    59040    60053 
   61348    62776    64268    65689    66896    67873    68663    69337 
   69921    70367    70621    70587    70214    69712    69336    69161 
   69267    69700    70256    70596    70677    70830    71246    71752 
   72099    72177    72015    71660    71220    71014    71300    71925 
   72486    72750    72812    72847    72732    72327    71888    71660 
   71478    71136    70595    69880    69109    68409    67770    67019 
   66008    64967    64288    63988    63877    63826    63730    63594 
   63412    62972    62236    61458    60764    60173    59718    59300 
   58931    58788    58800    58842    59067    59597    60332    61132 
   61913    62608    63153    63652    64322    65106    65715    65935 
   65689    65101    64528    64307    64449    64682    64728    64584 
   64505    64565    64530    64347    64179    63980    63636    63228 
   62854    62560    62401    62313    62155    61931    61742    61641 
   61655    61804    62113    62587    63135    63606    63868    63976 
   64185    64646    65187    65468    65429    65304    65125    64818 
   64559    64480    64493    64496    64435    64207    63725    63076 
   62378    61724    61194    60706    60191    59819    59744    59913 
   60249    60743    61435    62303    63140    63721    64042    64203 
   64293    64396    64519    64628    64751    64957    65230    65391 
   65341    65164    64886    64516    64196    63995    63871    63913 
   64242    64667    64851    64746    64563    64438    64235    63848 
   63566    63675    64076    64590    65048    65365    65727    66291 
   67032    67949    69041    70249    71455    72505    73345    74066 
   74785    75448    75929    76368    76951    77554    78031    78385 
   78607    78656    78385    77545    76152    74582    73149    71861 
   70627    69410    68181    66883    65488    64029    62560    61200 
   60127    59350    58649    57902    57227    56659    56069    55425 
   54720    53875    53041    52571    52583    52911    53420    54056 
   54662    55097    55444    55949    56801    57998    59383    60804 
   62141    63393    64666    65961    67117    68058    68883    69677 
   70353    70852    71266    71663    72033    72395    72756    72922 
   72527    71490    70167    68975    68125    67633    67436    67437 
   67419    67149    66688    66309    66139    66085    66058    65954 
   65620    65029    64258    63486    63032    63011    63165    63270 
   63335    63374    63324    63154    62876    62475    61994    61653 
   61663    62024    62572    63109    63505    63792    64019    64134 
   64203    64374    64562    64558    64328    64004    63729    63614 
   63772    64245    64860    65361    65669    65902    66181    66546 
   66935    67126    66958    66506    65931    65352    64867    64544 
   64440    64554    64696    64706    64678    64733    64825    64843 
   64713    64413    63975    63520    63189    63034    63111    63502 
   64091    64598    64899    65048    65068    64994    64944    64921 
   64843    64824    65021    65416    65971    66672    67452    68187 
   68790    69221    69439    69506    69552    69573    69411    68939 
   68188    67313    66457    65707    65079    64489    63826    63151 
   62656    62380    62154    61927    61771    61578    61221    60806 
   60550    60581    60825    61171    61653    62306    63035    63714 
   64295    64833    65357    65735    65846    65781    65726    65693 
   65642    65668    65843    66089    66290    66393    66447    66583 
   66788    66885    66838    66779    66754    66756    66831    66964 
   67089    67181    67189    67038    66664    66062    65292    64444 
   63663    63074    62638    62216    61767    61380    61119    60968 
   60844    60669    60494    60405    60453    60714    61146    61620 
   62247    63142    64053    64731    65334    66101    66988    67810 
   68477    68951    69201    69296    69246    68893    68219    67483 
   67003    66847    66806    66765    66904    67282    67724    68083 
   68270    68293    68314    68386    68436    68500    68665    68879 
   69029    69176    69379    69388    69087    68827    68943    69352 
   69777    70042    70070    69819    69369    68852    68274    67659 
   67080    66523    66005    65603    65294    64998    64693    64324 
   63817    63207    62618    62118    61677    61292    61017    60835 
   60710    60656    60616    60536    60471    60505    60748    61263 
   61943    62656    63348    63981    64562    65155    65765    66333 
   66868    67441    68060    68675    69273    69874    70413    70775 
   70951    70997    70888    70568    70071    69411    68613    67783 
   66985    66247    65646    65263    65091    64975    64689    64120 
   63283    62271    61217    60237    59455    58972    58727    58561 
   58353    58105    57920    57954    58347    59085    59861    60331 
   60531    60717    60934    61118    61257    61333    61384    61480 
   61603    61782    62140    62691    63286    63829    64358    64855 
   65249    65560    65862    66276    66906    67636    68266    68774 
   69190    69450    69552    69600    69624    69526    69291    68979 
   68509    67828    67126    66591    66172    65786    65477    65215 
   64843    64353    63909    63590    63324    63043    62824    62814 
   62978    63167    63379    63721    64253    64912    65489    65842 
   66079    66391    66769    67063    67230    67365    67574    67883 
   68199    68388    68400    68269    68065    67787    67447    67169 
   67000    66883    66812    66754    66706    66703    66668    66560 
   66437    66225    65831    65367    64979    64633    64276    63980 
   63728    63423    63096    62733    62268    61792    61389    60968 
   60442    59883    59456    59254    59255    59514    60116    60941 
   61746    62403    62900    63261    63475    63467    63329    63325 
   63559    63964    64474    64962    65277    65391    65421    65547 
   65826    66144    66432    66731    67055    67360    67617    67838 
   68053    68222    68310    68351    68391    68413    68370    68181 
   67859    67566    67382    67230    67066    66877    66598    66240 
   65901    65642    65465    65357    65302    65238    65079    64828 
   64577    64411    64292    64021    63595    63242    62943    62475 
   61796    61044    60331    59628    58895    58212    57716    57510 
   57588    57859    58209    58521    58841    59316    59953    60686 
   61480    62351    63306    64303    65327    66348    67169    67609 
   67753    67772    67684    67518    67360    67198    67019    66810 
   66580    66506    66664    66881    67099    67301    67348    67273 
   67265    67382    67566    67753    67886    67946    67952    67871 
   67710    67594    67636    67797    67964    68042    68007    67875 
   67629    67301    67007    66787    66583    66322    65943    65437 
   64829    64170    63582    63139    62795    62505    62290    62163 
   62039    61824    61554    61314    61099    60890    60718    60635 
   60701    60948    61242    61427    61542    61715    62074    62644 
   63265    63807    64284    64682    65022    65396    65778    66082 
   66352    66649    66974    67325    67659    67898    68008    68075 
   68214    68386    68486    68494    68393    68183    67944    67744 
   67597    67428    67167    66885    66573    66118    65610    65229 
   65018    64952    64917    64820    64766    64752    64604    64377 
   64262    64316    64579    65051    65568    65988    66310    66532 
