Origin Time       2025/01/13 21:19:00
Lat.              31.8
Long.             131.6
Depth. (km)       30
Mag.              6.9
Station Code      MYZH15
Station Lat.      32.3654
Station Long.     131.5893
Station Height(m) 170
Record Time       2025/01/13 21:19:43
Sampling Freq(Hz) 100Hz
Duration Time(s)  183
Dir.              5
Scale Factor      7845(gal)/8223790
Max. Acc. (gal)   51.074
Last Correction   2025/01/13 21:19:43
Memo.             
[...]
    2538      781     -446     -375     -679     -791      -87       95 
    -446     -633     -255       76      272      826      857     -197 
    -164     1066     1360     1745     2667     1804      -94     -432 
     464     1383     1939     1104     -850    -1445     -197      815 
     471     -835    -1987    -1626        9      827       60     -611 
    -133      567      751      675      410      290      931     1686 
    1368       -9    -1243    -1148       90     1368     1644      635 
    -199      198      751     1094     1620     1418       95    -1262 
   -1705    -1350    -1166    -1522    -1381       76     2042     3015 
    1919     -409    -1229     -359      259      901     1655     1559 
    1047      622      764     1696     2512     2956     2230    -1225 
   -5135    -5198    -1584     2278     4129     3720     2581     1804 
     876     -411    -1799    -2355    -1759    -1665    -1431      270 
    1306     1755     3264     3906     2818     1404     -270    -2073 
   -2817    -1479     1617     4496     5211     3007     -595    -2042 
    -997    -1011    -2704    -3836    -3758    -2481      245     3477 
    5321     5591     5337     3393     -820    -4388    -5298    -4112 
   -1613     1471     3892     4368     3053     1111     -841    -2145 
   -2189    -1526    -1127    -1638    -2639    -1848     1823     6207 
    9521    10539     6663    -1121    -7642   -10104    -8120    -2000 
    4536     6901     5586     3694     1772     -359    -2307    -4153 
   -4904    -4033    -2632     -611     1792     3254     3843     3958 
    3381     1190    -2712    -5670    -6534    -6180    -2968     3566 
    8527     7449     2887      541      710      276     -500     -916 
   -1786    -1811     -268     1532     3037     3828     3622     2070 
    -638    -2593    -3408    -4195    -4280    -2182     1598     4985 
    7287     7959     5607     1634     -881    -1719    -2976    -4595 
   -3657       72     3402     5096     5121     2736      396     1215 
    2543     1059    -1435    -2473    -2151    -1726    -1648     -602 
    1871     4256     4599     1182    -4714    -8830    -8518    -3985 
    1777     4249     2991     1667     1171      288      422     1786 
    1868     1237     1501     1208      540     1316     1777       29 
   -2305    -3781    -3900    -1953      599     1042     -549    -1687 
      90     4513     7215     5636     2682     1417     2033     2975 
    2259     -966    -5806    -9275    -8334    -3458     1791     4135 
    3653     3030     3639     5637     8039     6563     -645    -8132 
  -10152    -6396      197     6409     9655     8090     2396    -3627 
   -6380    -5030    -1173     2814     4918     3801     -243    -4615 
   -5722    -2732     1123     3275     3281      565    -3273    -4698 
   -2744      864     4031     5090     3396      378    -1416    -1404 
   -1035    -1312    -1487     -280     1860     3792     4716     3765 
    2019     1611     2038     1499      288     -716    -2297    -3750 
   -2967    -1194     -405     -230     -845    -2116    -2600    -1713 
     664     3739     5508     5113     2718     -479    -1771     -754 
    -217    -1416    -3113    -4232    -3757    -1422      527     1084 
    2440     5181     7159     7021     5324     2952       99    -2635 
   -3774    -3350    -3925    -5714    -5314    -3100    -2191    -1000 
    2319     4841     4600     3264     2049     1059      668      749 
     768      486      762     3267     6496     6493     3307     -521 
   -3607    -4187    -3109    -2832    -2039     -880    -1227     -207 
    3334     5042     3419      754    -1717    -1309     4828    11480 
   10377     2193    -6208   -10535   -10354    -7020    -3323    -1715 
    -943     1271     3761     4056     3030     4743     9274    11180 
    7678      379    -7801   -13077   -12513    -6498      557     4847 
    6739     6928     4924      803    -3927    -6871    -8047    -7628 
   -2987     5256    11267    11464     9024     7388     4580     -637 
   -6243   -11009   -13289   -10882    -4014     3792     8070     7356 
    3519      307       41      616      247     -465     -912      388 
    3516     6897     9355     8392     3666    -1738    -5665    -7385 
   -8679   -10401    -8430    -1436     5668     8522     6997     3645 
     218    -2646    -4522    -6057    -6070    -2204     3285     6486 
    6066     2474      356     4198     9533     8716     1048    -6849 
   -8135    -3496     2312     7082     8773     6373     2041    -2945 
   -7295    -8760    -8764    -9532    -9022    -5483      129     6903 
   11657    11164     7909     4626     1332     -333     -183    -1078 
   -3449    -5486    -6272    -5013     -564     6922    13508    13080 
    4650    -4978    -9188    -8421    -6029    -4062    -3003     -210 
    5672    10739    11040     5363    -3927   -10154    -9818    -6197 
   -2382      584     1360      722      429     -307     -841     1408 
    5412     8491     9269     6675     1188    -4730    -7226    -3611 
    3318     8309     9023     5508        2    -3721    -4548    -4305 
   -3709    -2361    -1197     -596      693     3422     6743     7234 
    3242    -2922   -10188   -14230   -10129    -3326     2308     8650 
   11790    10206     8000     6072     4153     1339    -2860    -5601 
   -5277    -2288     1711     4226     5563     5081      442    -4869 
   -5757    -3913    -3345    -3588    -2327     -558      619     3086 
    6058     6534     5116     3639     2959     3917     5522     4241 
   -2569   -10727   -12279    -6069     3032     9621     9620     4236 
   -1833    -6246    -8279    -7955    -6986    -4506     1607     7507 
    9594     9042     6810     6243     8546     7703      585    -9772 
  -16974   -14297    -2651     9922    16542    15770    10220     3851 
     117     -765    -1783    -5452   -10327   -11530    -6245     2864 
   10558    14017    13730    11902     9016     3713     -351     -837 
   -1648    -1240     1702     3627     6322     9385     9177     5861 
   -3654   -16506   -20078   -12029     1532    15068    22272    21934 
   17227    11797     8097     3358    -3987    -9065    -8041    -3715 
     109     4503     9433    13181    16771    17419    10741    -1097 
  -11086   -11889    -5321      568     5032    10058    16283    23085 
   23279    12307    -4623   -18755   -20557    -8564     4656     7878 
    2320    -6107   -11207    -7204     1664     3377    -3572    -9865 
  -10243    -4899     4029    11643    13324     7677     -916    -6473 
  -11722   -18516   -18854   -11712    -4464     1367     5292     4487 
    -922    -7616   -10041    -6844    -2523     -430    -2655    -9437 
  -14829   -11249     -724     8293    12717     9674    -1136    -8245 
   -6370    -1749     4866    13111    17070    15736    11973     5038 
   -3981    -9999   -11950   -10269    -4923     -446     1394     6030 
   17362    29668    29884    16266      796   -10868   -16182   -11052 
   -3404    -3052    -6166    -6635    -6582   -10003   -14802   -17078 
  -16588   -11808    -1725     8760    15815    21514    27337    29493 
   24996    16776     7576    -2687   -11708   -16075   -16922   -17275 
  -15996   -11048    -4203     1972     5744     5987     3996     1771 
    1737     7138    14284    15107    10767     6687     2994       60 
   -1680    -5196    -8125    -5340    -1686    -2003    -2351    -1086 
     598      959    -2079    -2868     3418    10793    15789    20649 
   22353    18130    12825     9159     3109    -7223   -18469   -27083 
  -31596   -30588   -23835   -14982    -5829     4764    11610     9950 
    6388     7260    11372    17613    22981    19735     5553   -12316 
  -25492   -30142   -27761   -22928   -19290   -19840   -25209   -30975 
  -33505   -32459   -28678   -24922   -21610   -17435   -12351    -2135 
   13149    22889    22464    15948     7222     2833     7264    15098 
   17591    10130    -3564   -13420   -17131   -21012   -24590   -23928 
  -21091   -15518    -3788    11518    23696    26667    21594    17046 
   17281    20233    22360    17443     1783   -19427   -38375   -48938 
  -46315   -31603   -11011     9043    23319    31444    36352    37990 
   35903    30620    21840    12112     4935     -421    -6054   -10936 
  -12672   -12190   -10068    -2863     7335    11867     8144        0 
   -9512   -18285   -25330   -30684   -31635   -25049   -13979    -4607 
     423     1486     -247    -2876    -2679     3051    10363    15040 
   19853    26238    31729    34180    29212    15066    -3306   -19330 
  -24818   -15826     -627    11026    16907    16580    11179     7113 
    9873    16993    23263    26060    21766    10935      526    -8437 
  -16317   -18247   -14100    -5140     7705    17813    21377    17096 
    4047    -9078   -15099   -16646   -14933   -13424   -15603   -15614 
  -12505   -10430    -8937   -11975   -19124   -19593   -11468    -1543 
    5522     6952     3230    -1553    -3067     -648     1941       32 
   -7654   -17327   -25131   -29057   -26466   -17892    -7503     3267 
   13833    20263    22642    23900    19913     9093    -1691    -8436 
   -6797     9004    30256    41700    42136    36200    23576     7059 
   -5668   -12510   -19018   -26096   -26806   -19178    -9200    -1123 
    5323     8228     5701     5341    11360    14291    10363     4703 
    -195     -573     6644    17058    22360    18883    11925     6007 
   -1148    -7870    -8872    -5454     -422     5536     8445     4461 
   -4294   -10299    -8884    -4900    -4023    -7338   -13051   -15126 
  -11484    -6615    -2926     -615     2450     7809    10273     6305 
    -931    -6829    -5740     4225    16509    24039    25393    22323 
   16672    10108     4878     1156    -3314    -7789    -9622    -9490 
   -8750    -6516    -2452     1525     3699     4341     3897     4218 
    7875    10724     8482     6228     6072     4723     5440     8704 
    5734    -5310   -16464   -23004   -24761   -20468   -10152     1125 
    7840     8788     6200     4896     8969    15955    18870    14204 
    2844   -12861   -26740   -31315   -24498    -8854     9832    23171 
   24366    14026     1177    -7823   -13761   -14485    -8220      275 
   10345    21991    26253    20231    10710      495    -6138    -4017 
     251    -1537    -8688   -16879   -20247   -17282   -12228    -6458 
      54     8341    19842    28884    31679    31579    28714    23340 
   17467     7724    -7607   -22704   -32080   -36552   -40278   -43151 
  -40864   -33048   -21421    -5301    11962    23248    26812    25151 
   17946     4718    -9043   -16218   -13959    -2781    10650    14195 
    3392   -14319   -28842   -31833   -21070    -4588     8646    16120 
   17369    12849     6597     4595     7987    12530    15747    15387 
   10856     6343      930    -6397    -9216    -6327     -768     5616 
    7584     2803    -7204   -20322   -29100   -29851   -27108   -20236 
   -6898     6631    14706    19678    25029    32275    42677    52014 
   48609    26813    -4029   -29741   -41096   -36154   -22372   -10702 
   -5580    -3859      579     9655    16756    14000     1788   -12955 
  -25342   -30379   -21544    -4654     8147    15689    19792    21288 
   23708    26307    25477    20598    13626     6832     -174    -6951 
  -11365   -13880   -13463   -10342    -9599    -9691    -5522      823 
    6421     9675     8969     6400     6258    11241    18198    20811 
   16437     4465   -11682   -24100   -28999   -27240   -21374   -14384 
   -6386     1728     5475     3881     1229     -699    -3570    -6616 
   -7851    -5952      504     8270    12320    12719     9676     3813 
     878     5007    12158    14863    12253     7990     1725    -4977 
   -7322    -5707     -923     7449    14891    18403    18828    14305 
    5521    -1250    -4302    -7595   -12731   -17664   -19183   -16051 
   -8932     2284    14771    23758    27982    25786    16734     6116 
   -2589    -8511    -8711    -3600     2605     6886     7055     4255 
    2656     2083     -608    -5560   -11365   -16706   -19637   -20692 
  -22982   -25563   -24096   -16798    -4329     8499    13306     8853 
    2338    -1096     -198     3742     4869    -1374   -12212   -20927 
  -22315   -16771    -8783    -1021     5969    11358    13675    13059 
   11664     8438     3233     1669     4062     5624     5460     1085 
   -8842   -18038   -21004   -16501    -6600     3414    10926    15844 
   16802    13872     9666     6779     6523     8656    10836     9113 
    2218    -7087   -16240   -22248   -21236   -13896    -4958     2639 
    8221     8741     2151    -3927    -2049     4842    14264    25178 
   31602    30929    26705    22794    20297    17157    14011    12773 
   10180     3973    -5179   -17317   -28009   -30674   -25844   -19485 
  -16220   -16559   -19201   -22886   -22279   -11018     8293    27600 
   40554    41744    31526    18181     8293     2278    -2173    -8411 
  -19140   -31734   -39690   -41489   -37062   -22307     -973    16011 
   23323    17166    -2277   -23087   -35526   -38719   -33199   -22489 
  -10430     3462    18025    30161    39449    44362    40934    27830 
    5737   -21066   -42002   -50610   -47437   -33683   -15271     1016 
   13809    21928    25551    24277    16941    11303    11853    11830 
    9332     4251    -4410    -8085      112    16795    34605    43380 
   36289    14547   -15309   -41474   -53172   -47448   -27896    -4519 
   13201    24881    31588    31611    27529    21922    13636     4313 
   -4789   -13807   -19057   -20371   -20186   -16236   -10389    -6720 
   -2447     2160     1680    -3199    -7042    -6640    -1674     5482 
    9555     6461    -1332    -8424   -12314   -11009    -4465     2830 
    9675    18223    25263    25578    18311     5289    -9175   -17253 
  -14081    -5209      522     2543     4151     6772    13869    26334 
   36042    35190    25602    13151      437   -11807   -21976   -27939 
  -27900   -21286   -10219    -2070    -4658   -15228   -24480   -27338 
  -20749    -5509     9549    19408    26229    28713    25948    21315 
   15321     8027     2384     -854    -2808    -3036     -958     2540 
    4580     2814     -330    -2737    -5863    -8459    -8999    -9350 
   -8972    -5275      503     4351     4773     2484    -3600   -13444 
  -21762   -23117   -17717    -8521     1699     8411     7939     1923 
   -4654    -7873    -7530    -5119    -1543      461     -784    -1957 
     619     8220    20083    32186    38287    33450    18434     -361 
  -16143   -25335   -28505   -27298   -21235   -10462     1861    10242 
   10847     6230      122    -6166    -9418    -8430    -4320     3632 
   11708    16885    22238    24464    18779     9582     1590    -3019 
   -2273     3246    10058    12727     9759     5409     2484     1213 
     540    -1931    -6049   -10303   -14357   -16298   -15086   -12549 
   -9417    -5211      -93     4702     7565     8853     9046     6428 
     295    -7352   -12754   -13203   -10141    -4411     4766    14034 
   20749    25138    24520    17535     7901     -683    -7092   -10592 
  -10463    -9143   -10721   -15534   -20914   -24333   -23766   -19596 
  -14131    -6794     3056    11325    16031    19327    19799    15581 
    9414     3433    -1347    -4301    -8550   -15194   -19661   -18594 
  -12286    -3608     3821     9177    13514    18009    23109    26962 
   27035    22596    15739    10407     8343     8542     9491     8911 
    5292     -198    -6187   -13335   -21886   -29235   -33232   -34106 
  -30969   -22754   -10444     4739    20034    31741    38358    38524 
   32387    23240    12650     1516    -7434   -12793   -14274   -11655 
   -6262     -459     4067     7003     7951     4741    -3161   -11299 
  -15728   -16752   -13987    -7037     1659    11097    20584    26465 
   26115    19275     7948    -2679    -9208   -12079   -12295   -12093 
  -13590   -15719   -17691   -20501   -23620   -24881   -22351   -15044 
   -4278     6879    17053    24719    27356    26203    22707    16067 
    8017       68    -7512   -13379   -17617   -20023   -19785   -17045 
  -10284     -268     8421    13657    14713    10334     2073    -5718 
   -8406    -3956     5674    16993    26472    30511    27140    17440 
    4144   -10282   -23251   -32341   -36752   -36377   -30986   -22430 
  -14149    -6112     2758     9713    14416    19199    23240    27386 
   32621    35506    35163    32761    27579    21070    15187     8515 
    -442    -9571   -15485   -17986   -18150   -15943   -13004   -10984 
   -7830    -1439     5794     9184     6804     -614   -12166   -24271 
  -30769   -29081   -21031    -9058     4239    15745    22815    24750 
   23441    20503    15942    10467     4253    -3501   -11504   -17841 
  -21419   -21020   -16989   -11470    -7387    -7092    -9400   -11325 
  -11335    -7901     -156     9221    16190    19179    18611    15493 
   12397    11780    12226    10872     7072      263    -9470   -18673 
  -23635   -23186   -17556    -8464      211     4591     3411    -1848 
   -8001   -11886   -11812    -7986    -2781     1371     4282     6984 
   10763    16310    21860    24225    21698    14229     2864    -9528 
  -19388   -24817   -25974   -23707   -18465   -10941    -2308     6609 
   14686    20218    23067    24012    21567    14794     5314    -6178 
  -17317   -23755   -25632   -24381   -18912   -10559    -3136     1337 
    3275     3954     4826     7956    14062    20935    25515    25560 
   21114    14455     7827     3315     2165     2944     3520     3488 
    3203     2772     1942      332     -889     -463     -730    -4253 
  -10177   -17258   -23552   -25143   -19939    -9471     1586     8687 
   10936     8023     1358    -3395    -3480     -432     4342     8857 
   11533    11936    10146     8384     8775    10874    13531    14625 
   11090     2868    -6573   -14111   -18090   -18135   -15735   -12174 
   -8172    -5818    -5981    -7065    -8317    -9274    -8163    -3600 
    3901    11340    15342    15252    12960    11759    13848    17051 
   17217    13107     6162     -973    -5327    -6442    -5587    -4298 
   -6014   -11365   -16580   -20722   -24179   -24796   -21174   -13205 
   -1910     9806    19299    25888    30163    31785    29903    24618 
   16194     5942    -3653   -10813   -14420   -14624   -13238   -11454 
   -9622    -8641    -8715    -8515    -7558    -6583    -4995    -2774 
   -1742     -928     1580     3902     3769      415    -6511   -15130 
  -21451   -22088   -16576    -7388     2605    10944    15485    16410 
   16762    19014    22725    26616    29540    29477    24653    15039 
    2974    -7568   -13500   -13599    -8590    -1786     2072     -535 
   -9547   -21114   -30052   -32687   -28995   -21367   -11314      -28 
   10130    16430    17228    13647     8982     6455     6828     8378 
   10192    11642    11483    10386     9396     8068     5624     1256 
   -4544   -10625   -16996   -22361   -23869   -19917   -10731      915 
   11507    19346    22719    20445    13767     4791    -3987   -10160 
  -12752   -11847    -8009    -2107     4159     8584     9836     6871 
    -282    -8737   -15587   -19618   -18339   -10230     1177    12441 
