Origin Time       2025/01/13 21:19:00
Lat.              31.8
Long.             131.6
Depth. (km)       30
Mag.              6.9
Station Code      MYZH14
Station Lat.      31.5649
Station Long.     131.3510
Station Height(m) 5
Record Time       2025/01/13 21:19:39
Sampling Freq(Hz) 100Hz
Duration Time(s)  193
Dir.              5
Scale Factor      3920(gal)/6170801
Max. Acc. (gal)   69.992
Last Correction   2025/01/13 21:19:24
Memo.             
[...]
    3573     3575     3574     3572     3571     3570     3568     3565 
    3567     3570     3570     3570     3566     3563     3565     3565 
    3565     3567     3566     3568     3572     3570     3567     3564 
    3562     3564     3568     3569     3569     3571     3571     3567 
    3565     3566     3567     3568     3569     3571     3569     3564 
    3562     3566     3568     3570     3570     3570     3567     3561 
    3557     3558     3560     3563     3565     3565     3566     3566 
    3563     3562     3563     3566     3572     3578     3581     3578 
    3573     3571     3570     3571     3574     3577     3579     3577 
    3571     3569     3565     3560     3560     3562     3559     3562 
    3567     3564     3559     3561     3563     3561     3561     3564 
    3567     3568     3567     3569     3570     3571     3572     3571 
    3568     3567     3569     3569     3566     3564     3566     3569 
    3570     3573     3571     3564     3561     3563     3564     3566 
    3571     3574     3573     3573     3570     3564     3562     3565 
    3568     3570     3574     3576     3573     3568     3566     3562 
    3558     3560     3565     3566     3567     3570     3570     3569 
    3567     3563     3560     3560     3562     3562     3564     3567 
    3569     3568     3563     3560     3563     3565     3563     3564 
    3567     3567     3567     3572     3575     3571     3569     3569 
    3568     3568     3570     3574     3578     3577     3574     3572 
    3568     3566     3565     3562     3562     3565     3565     3562 
    3560     3559     3561     3561     3560     3565     3568     3566 
    3565     3564     3563     3563     3565     3568     3571     3570 
    3570     3570     3567     3565     3565     3566     3568     3571 
    3572     3572     3570     3565     3562     3564     3565     3568 
    3574     3575     3575     3577     3574     3569     3566     3565 
    3563     3565     3566     3565     3567     3569     3567     3564 
    3564     3563     3562     3563     3563     3563     3565     3566 
    3568     3570     3570     3568     3565     3563     3563     3565 
    3566     3567     3566     3567     3569     3572     3571     3569 
    3568     3568     3568     3569     3571     3573     3572     3573 
    3575     3576     3576     3576     3571     3568     3570     3571 
    3569     3567     3567     3566     3564     3563     3562     3559 
    3558     3561     3563     3565     3568     3567     3562     3558 
    3559     3561     3561     3564     3570     3572     3572     3572 
    3570     3568     3568     3566     3565     3568     3569     3569 
    3572     3572     3572     3571     3568     3567     3569     3569 
    3567     3568     3569     3568     3566     3566     3567     3565 
    3564     3564     3564     3563     3564     3564     3563     3562 
    3562     3563     3561     3562     3563     3562     3565     3571 
    3573     3573     3573     3571     3565     3558     3554     3557 
    3559     3559     3563     3569     3569     3567     3563     3554 
    3548     3545     3536     3523     3518     3537     3579     3624 
    3650     3650     3633     3606     3571     3541     3536     3550 
    3558     3557     3560     3576     3592     3592     3579     3572 
    3562     3515     3423     3326     3281     3329     3463     3616 
    3687     3609     3388     3136     3018     3129     3417     3722 
    3907     3938     3830     3629     3463     3443     3532     3617 
    3671     3799     4034     4181     4069     3776     3541     3516 
    3553     3423     3259     3309     3523     3697     3718     3626 
    3549     3495     3379     3279     3344     3496     3498     3281 
    3063     3178     3704     4286     4533     4365     3888     3357 
    3099     3131     3258     3501     3905     4109     3655     2667 
    1790     1480     1683     2074     2411     2698     2928     2917 
    2743     2791     3149     3533     3613     3122     2302     2046 
    2882     4274     5208     5118     4123     2631     1132      268 
     639     2444     4950     6611     6336     4446     2380     1630 
    2524     4177     5578     6185     5813     4575     3067     2432 
    3536     5689     6984     6340     4492     2900     2396     2840 
    3652     4559     5589     6438     6446     5381     3902     2842 
    2428     2522     2918     3525     4503     5620     6030     5145 
    3134      685    -1357    -2203    -1582      -66     1630     3115 
    3847     3393     2007      288     -997     -892      888     3454 
    5761     7385     8195     8511     9204    10575    11928    12330 
   10851     6937     1470    -3113    -4469    -2445      814     3060 
    3563     2638      946     -571    -1062     -202     1910     4673 
    6969     8069     8155     7598     6572     5373     4336     3525 
    2871     2100      604    -1677    -3725    -4322    -2842      295 
    3622     5860     6901     7406     7997     8535     8261     7086 
    5851     5080     4598     4258     4044     3571     2276      440 
    -617       39     1964     4004     5193     5378     5292     5483 
    5612     5339     5062     5067     4944     4513     3801     2446 
     686     -633    -1595    -2804    -4008    -4388    -3390    -1231 
    1041     2582     3708     5181     6923     8119     8209     7231 
    5684     4196     2974     2227     2933     5642     8993    10970 
   10987     9827     8448     7418     6752     6232     6168     6890 
    7725     7871     7430     6715     5751     4465     2581      -91 
   -3026    -5271    -6360    -6235    -4815    -2649     -924     -257 
    -532    -1367    -2026    -1791     -688      763     2318     4109 
    6395     9229    11900    13256    12898    11345     9258     7008 
    4706     2637     1511     1771     2813     3399     2896     1762 
     793      446     1112     3055     5531     7109     7172     6292 
    5600     5887     6698     6738     5339     2944      421    -1537 
   -2404    -1782       42     1756     2019      660    -1531    -3578 
   -4517    -3807    -1628     1472     4575     6583     7243     7384 
    7887     8643     8792     7957     6774     6277     6960     8264 
    9148     9132     8416     7312     5926     4143     1973     -110 
   -1479    -1793    -1232     -309      811     2136     3076     3082 
    2690     2995     4375     5995     6602     5894     4589     3148 
    1488     -254    -1590    -2224    -2293    -2137    -1909    -1269 
     209     2139     3529     3977     3916     4002     4768     6312 
    8075     9477    10565    11460    11724    10944     9435     7854 
    6521     5209     3569     1950     1206     1444     1932     2185 
    2403     2868     3108     2148     -226    -3105    -5175    -5536 
   -4250    -2011      532     2742     4161     4967     5685     6844 
    8768    10756    11387    10442     8889     6982     4447     1949 
     711     1189     2665     3896     3961     2723      908     -694 
   -1950    -2563    -1923     -223     1867     4047     5988     7188 
    7399     6740     5749     5173     5178     4976     3824     2243 
    1495     2250     4390     7291     9857    11073    10707     9257 
    7356     5453     3847     2746     2289     2237     1929     1162 
     282     -700    -1862    -2798    -3115    -2723    -1497      601 
    3184     5446     6757     7363     7717     7591     6973     6637 
    6929     7238     6874     5737     4335     3188     2058      392 
   -1578    -2971    -3354    -3069    -2532    -1654     -183     1742 
    3640     5216     6759     8645    10603    12015    12450    11630 
    9690     7310     5256     4241     4535     5190     4823     3134 
     810    -1521    -3463    -4365    -3736    -2024     -165      981 
     987      303     -422    -1002    -1373    -1271     -113     2249 
    4802     6452     7181     7680     8229     8185     7068     5727 
    5600     7155     9472    11023    10851     9135     6429     3134 
       5    -2243    -3625    -4416    -4979    -5717    -6226    -5294 
   -2418     1306     4378     6309     7541     8789    10115    10615 
    9889     8939     8904     9626     9809     8581     6398     4087 
    1937      141     -734     -249     1334     3084     3889     3374 
    2075      282    -2377    -5695    -8269    -8595    -6092    -1245 
    4451     9540    13975    17906    19977    19035    15932    12260 
    9096     6924     5284     3304      825    -1884    -4431    -5833 
   -5489    -4340    -3874    -4916    -7409   -10217   -11845   -11764 
  -10313    -7937    -5030    -1763     1973     6103    10066    13136 
   14876    15113    14150    13291    13938    16331    19973    23931 
   26715    27490    26633    24485    20859    15791     9963     4542 
     515    -1932    -3209    -3966    -5019    -6901    -9510   -12281 
  -14345   -15046   -14597   -13603   -12194   -10200    -7461    -3873 
     279     4366     7854    10339    11564    11763    11427    10453 
    8474     5907     3615     2190     1768     1842     1780     1403 
     549    -1068    -3325    -5418    -6216    -5206    -2773      444 
    3816     6572     7873     7223     4921     1645    -1999    -5250 
   -7566    -9093   -10130   -10902   -11539   -11550   -10282    -7984 
   -5504    -3137     -481     2718     6414    10880    16432    22642 
   28427    32755    35341    37027    39157    42140    45149    47335 
   48167    46735    42498    36693    31266    26889    23268    20180 
   17492    15131    13142    11290     9021     6141     2683    -1350 
   -5177    -7945   -10298   -13322   -17250   -21748   -25572   -26884 
  -24988   -20496   -14447    -8325    -3351      506     3433     4811 
    4109     1471    -2255    -5701    -8106    -9743   -10882   -11036 
   -9629    -7143    -4559    -2181      144     2753     5793     8554 
   10314    10765     9077     4967      119    -3411    -4849    -4552 
   -3562    -2773    -2401    -2486    -2925    -2954    -1471     1902 
    6585    12147    18601    24964    28963    29041    25745    21035 
   16970    14418    12710    11025     9265     7276     4584     1103 
   -2733    -6586   -10643   -15256   -20259   -24939   -28736   -31750 
  -34503   -37162   -38848   -38237   -35022   -29714   -22369   -13041 
   -2883     6659    15355    23736    31557    37734    41382    42421 
   41829    41162    41425    42679    43988    43518    39633    31960 
   21366     9480    -2061   -12518   -22055   -30737   -38018   -43352 
  -46430   -46607   -43176   -36125   -26051   -13980    -1318    10372 
   19507    24839    26394    25820    24881    24280    24153    24017 
   22878    20507    17296    13203     8036     2191    -3600    -9206 
  -15100   -21357   -27714   -34056   -39715   -43546   -44970   -43496 
  -38013   -27857   -13806     2281    18308    32365    42801    48572 
   49502    46129    39865    32933    27349    24143    23287    24065 
   25607    27069    27719    26946    24098    18592    10308     -200 
  -12156   -24887   -37064   -46723   -52650   -54598   -52500   -46030 
  -34696   -18989    -1063    16509    31678    42680    48246    48564 
   45447    40870    35900    31320    28080    26955    28548    33015 
   39088    44028    44729    39179    27460    10992    -8666   -29829 
  -50681   -68847   -81070   -85608   -83685   -76896   -65987   -51900 
  -35279   -16101     5171    27143    48214    66720    80865    89542 
   92641    90447    83378    72056    57305    40277    22538     5525 
  -10054   -24204   -37100   -47933   -54610   -55407   -51052   -44836 
  -39559   -35314   -31307   -27168   -21941   -14485    -4707     6811 
   19290    30871    38754    41492    39664    34264    26604    18762 
   12307     7906     5920     5935     6858     7984     9048    10001 
   11315    13457    15852    17020    15770    11743     5178    -3046 
  -11569   -18643   -22308   -21365   -15612    -5661     6359    17524 
   26249    32137    34771    34057    30385    24438    17319    10150 
    3803     -839    -2405      417     7205    16251    25929    34226 
   39497    41829    41661    39050    34925    30474    25631    19899 
   13401     6387     -788    -7460   -13346   -18685   -23504   -27523 
  -30483   -31941   -31287   -28194   -22905   -16448   -10185    -5115 
   -2126    -1949    -4394    -8474   -12958   -17117   -21489   -26530 
  -31293   -34695   -36037   -34428   -29459   -21554   -11822    -2462 
    4006     6208     3982    -1819    -9466   -17190   -23298   -26081 
  -24998   -20984   -15172    -8211     -419     8233    18155    29607 
   42031    54413    66113    76794    85802    92079    94350    91531 
   83512    71432    57129    42128    27406    14165     3444    -4894 
  -11782   -18497   -26576   -36699   -48029   -58937   -67767   -73328 
  -74729   -71262   -63342   -52732   -41292   -30062   -19609   -10388 
   -2399     4669    10840    15829    19046    19792    18111    14697 
    9858     3539    -3879   -11043   -15815   -16678   -13848    -8736 
   -3223      615     1431     -646    -4302    -7631    -9148    -8175 
   -4042     3532    13328    23497    33013    41615    49223    55616 
   60190    62154    61312    58429    54692    51139    48544    47116 
   46226    44734    41346    35051    25793    14143      709   -13751 
  -28900   -45023   -61662   -77601   -91692  -102128  -106619  -103889 
  -93789   -76978   -55504   -32481   -10076    11101    30257    46167 
   58729    68652    76135    81132    83757    83557    79715    72511 
   63086    51740    37991    21925     3999   -15413   -34681   -51082 
  -62887   -69618   -71568   -69570   -64465   -57120   -48165   -37927 
  -27093   -15989    -3684    10429    25373    40073    54311    67807 
   79851    90005    97898   102398   102635    98352    88404    71961 
   50550    26437      638   -25580   -49412   -69142   -85003   -96305 
 -101891  -102530   -99162   -91450   -80513   -69047   -57644   -45137 
  -31489   -17278    -2684    11737    25637    39701    53850    66364 
   75983    82059    83015    78035    68326    55202    39747    23489 
    7791    -6216   -17063   -23258   -24549   -22063   -16936   -10615 
   -5563    -3230    -2953    -3318    -2788      -70     5048    11824 
   19277    26029    30411    31515    29308    24467    18426    12295 
    6500     1558    -1999    -3852    -3719    -1564     1961     5631 
    8698    11369    13765    15614    16839    17360    17346    17448 
   17491    16421    13534     8424     1408    -6045   -12955   -19477 
  -25943   -32426   -38217   -42021   -43056   -40989   -35369   -26068 
  -13998     -840    11870    23037    31492    35883    35287    29482 
   19242     6989    -3927   -10803   -12129    -7575     1654    12777 
   22403    27738    27277    21120    10732    -1506   -12669   -20163 
  -22647   -20204   -13762    -4332     7272    20115    32408    41807 
   46886    47229    42940    34702    23310    10095    -2512   -12781 
  -21141   -28999   -37046   -44934   -51729   -56527   -59026   -58626 
  -53494   -41954   -24151    -2170    20878    41858    58428    69859 
   76763    80132    80818    78787    73054    62403    46058    25489 
    4522   -13815   -28478   -39243   -46920   -53268   -58686   -61602 
  -60925   -57268   -51720   -44663   -35967   -25853   -14765    -2734 
   10318    24241    38809    53496    66986    77350    83119    83658 
   78312    66724    50313    31483    11696    -7543   -23856   -36278 
  -46037   -54417   -61838   -68488   -74114   -77797   -78667   -76559 
  -71994   -65338   -56623   -46122   -34153   -20805    -5806    11473 
   31013    51081    68985    82926    92276    96776    96640    92758 
   86244    77797    67560    56035    44304    32998    22636    14179 
    7229     -285    -9764   -21670   -36121   -52322   -68478   -81813 
  -89559   -90611   -84978   -72351   -53054   -29573    -4578    20430 
   43313    62247    76855    86455    90368    88243    79183    63415 
   42929    19692    -4494   -27648   -48230   -64447   -74042   -76473 
  -72623   -63195   -50087   -36257   -23618   -12499    -1771     9991 
   23009    36020    46861    53990    57078    55845    50327    41620 
   30576    17998     6034    -4062   -13564   -22653   -29386   -33639 
  -35987   -34720   -28501   -18008    -5121     6985    15091    17584 
   14898     9492     3850    -1204    -4758    -5482    -3247     1822 
    9690    18876    27172    33136    36449    37754    37397    35622 
   33564    31194    26976    20532    12761     4693    -2631    -8141 
  -11118   -12213   -12882   -13338   -13395   -13990   -14577   -12784 
   -8343    -2457     4482    11752    18576    24996    30844    35521 
   38562    39785    39208    36604    31576    24972    19002    14426 
   10064     5499      678    -5046   -11242   -17347   -23963   -30764 
  -36407   -40259   -41568   -39539   -34985   -28933   -21056   -10975 
     931    14006    27333    39674    49942    57126    59400    54881 
   43856    28394    10166    -9498   -28644   -44929   -56740   -63748 
  -65794   -62661   -55230   -44825   -32087   -17648    -2800    10561 
   20864    27567    30022    27644    21884    15809    12145    12779 
   18323    27238    36967    45661    52204    56174    57369    54607 
   46446    33006    16496      332   -12750   -21549   -25251   -23316 
  -16651    -7426     2507    12526    22043    29801    35030    37173 
   35330    30090    24120    19652    16741    14427    12248     9739 
    5660     -973    -9880   -19985   -30266   -40086   -48751   -54736 
  -56472   -54172   -49315   -42722   -34437   -24561   -13507    -1793 
    9801    19529    25333    26513    23863    19082    14343    10752 
    7792     5193     3646     3314     3476     3377     2410      408 
   -1575    -1728      632     4050     5898     4064    -2138   -12006 
  -23718   -34644   -41715   -41493   -31255   -11715    12203    34610 
   52209    64711    73169    78756    82247    83659    81951    75071 
   61502    41846    18141    -7076   -30218   -47359   -56576   -58644 
  -55941   -51257   -47066   -45078   -45699   -47977   -50718   -52996 
  -53135   -49114   -39917   -25634    -7822    10955    28977    45395 
   58589    66265    68166    66896    64861    62657    60015    56100 
   49496    39242    26082    11712    -2178   -13798   -22323   -28312 
  -32562   -35642   -38053   -40115   -41515   -41396   -38981   -33974 
  -26517   -16477    -3398    12481    29940    46979    61383    71932 
   78235    79618    75555    66941    55864    43757    30786    17201 
    4166    -6777   -14306   -17841   -18141   -16971   -16128   -16359 
  -17093   -17953   -19320   -21417   -24411   -28747   -34731   -41596 
  -47495   -51597   -54464   -55954   -55336   -52328   -46322   -36709 
  -24286   -10984     1643    13376    24788    36176    47353    58019 
   67941    76275    81541    82801    79926    73148    63020    50669 
   37345    23612    10375     -486    -8129   -13230   -16034   -16798 
  -16961   -17516   -18558   -20299   -22591   -25367   -29440   -35051 
  -40860   -45165   -46647   -43923   -36670   -26703   -16142    -6383 
