Origin Time       2025/01/13 21:19:00
Lat.              31.8
Long.             131.6
Depth. (km)       30
Mag.              6.9
Station Code      MYZH15
Station Lat.      32.3654
Station Long.     131.5893
Station Height(m) -30
Record Time       2025/01/13 21:19:43
Sampling Freq(Hz) 100Hz
Duration Time(s)  183
Dir.              1
Scale Factor      2942(gal)/8224139
Max. Acc. (gal)   10.309
Last Correction   2025/01/13 21:19:43
Memo.             
[...]
   90524    90497    90643    90760    90788    90597    90335    90356 
   90277    90136    90437    90728    90796    91003    91126    90985 
   90702    90343    90192    90420    90875    91253    91150    90736 
   90396    89942    89565    89569    89494    89457    89876    90204 
   90356    90718    90830    90452    90066    89981    90026    89769 
   89279    89139    89645    90423    90705    90543    90667    90880 
   90598    89808    88747    88194    88788    89792    90454    90911 
   91069    90686    90116    89768    89587    89573    89876    90328 
   90845    91450    91779    91687    91246    90489    90028    90271 
   90653    90849    90972    90985    91039    91201    91125    90810 
   90688    90857    91003    90821    90445    90363    90780    91404 
   91755    91650    91427    91488    91782    91863    91538    91281 
   91407    91638    91835    91755    91061    90350    90296    90786 
   91662    92354    92191    91439    90452    89731    89810    89928 
   89883    90513    91087    90852    90413    89803    89222    89311 
   89780    90360    90936    90996    90715    90562    90485    90609 
   90759    90336    89515    88908    88832    89321    90093    90859 
   91687    92410    92344    91507    90639    90300    90582    90666 
   90208    90221    91135    92286    92727    92053    91123    90841 
   91081    91372    91440    91270    91165    91651    92573    93066 
   92877    92078    90636    89257    88901    89675    90683    91038 
   91107    91385    91338    90846    90637    90725    90518    90269 
   90432    90614    90792    91207    91185    90563    90053    89769 
   89642    89808    89941    89927    90180    90363    90111    89937 
   89854    89634    89680    90148    90782    91494    92009    91779 
   90907    90039    89757    90296    91149    91841    92327    92476 
   92163    91428    90802    90676    90876    91389    91840    91879 
   91881    91833    91839    92156    92168    91677    91227    90919 
   90779    91064    91550    91820    92072    92604    92908    92179 
   90787    89827    89725    90439    91342    91521    91308    91592 
   92153    92167    91439    90544    90058    90016    90228    90377 
   90032    89433    89090    88921    88831    88990    89321    89526 
   89722    90032    89900    89426    89456    89851    90069    90088 
   89973    89808    89807    90109    90358    90197    89969    90310 
   91342    92074    91962    91928    92203    92460    92742    92545 
   91706    90907    90602    90706    90911    91270    91652    91454 
   90936    90965    91430    91625    91690    91964    91856    90942 
   89954    89718    90024    90192    90213    90474    90823    90938 
   90756    90347    90053    90032    89972    89710    89703    90459 
   91319    91289    90748    90544    90629    90501    90348    90540 
   90636    90540    90698    90744    90223    89842    90192    90454 
   90073    89754    89931    90251    90439    90603    90873    91276 
   91710    91841    91690    91616    91474    91039    90471    89814 
   89202    89047    89275    89413    89522    90117    91019    91585 
   91825    91849    91629    91354    90701    89436    88430    88387 
   88877    89240    89371    89893    90995    91692    91822    91941 
   91801    91675    91817    91432    90734    90622    90733    90400 
   89907    90015    90844    91411    91049    90424    90290    90914 
   92192    93055    92654    91741    91079    90599    90180    89719 
   89455    89837    90571    90944    90922    90703    90053    89356 
   89371    89907    90501    90786    90587    90448    90972    92352 
   93865    94130    93114    91998    91770    92700    93672    93351 
   91963    90857    90761    90902    90633    90391    90351    90543 
   90998    91088    90832    90877    91019    90774    90151    89479 
   89056    89168    89995    91004    91430    91341    91342    91376 
   91012    90271    89464    89176    89488    89775    90054    90640 
   91239    91588    91901    92307    92550    92348    91763    91057 
   90504    90454    90564    90096    89387    89056    89243    89970 
   90648    90421    89606    89365    89677    89849    90400    91543 
   92321    92476    92356    91847    90999    90618    90972    91008 
   90289    89577    89483    89962    89988    89006    88365    88913 
   89627    89407    88371    87440    87354    87948    88287    88098 
   87978    88391    89540    90958    91597    91004    90262    90763 
   91984    92677    92627    92125    91652    91524    91423    90988 
   90663    90975    91330    91083    90745    91154    92307    93028 
   92263    90857    90208    89965    89494    89286    89727    90603 
   91219    91088    90747    90614    90558    90571    90477    90421 
   90890    91497    91751    91767    91651    91542    91432    91039 
   90178    89282    89338    90109    90319    90132    90351    90543 
   90285    90055    90184    90431    90328    89779    89417    89656 
   90082    90398    90666    90937    91085    90980    91104    91503 
   91176    90197    89874    90603    91681    92483    92843    92859 
   92846    92896    92519    91620    90999    91039    91207    91044 
   90378    89380    88881    89302    90132    90856    91031    90412 
   89475    88893    89014    89914    91220    92125    92199    92230 
   92886    93526    93430    92570    91596    91338    91454    91223 
   90863    90799    91000    90975    90624    90651    90960    90722 
   90202    90159    90501    90747    90703    90568    90471    90161 
   89793    90051    90786    91261    91674    92441    93044    92886 
   92252    91752    91606    91752    92171    92715    92407    91307 
   91106    91705    91920    91659    91314    91496    92280    93312 
   94501    95334    95326    94925    94807    95054    95237    94863 
   94205    94042    94493    95486    96778    97378    97056    96473 
   95496    94130    93174    92736    92538    93063    94617    96209 
   96454    95246    94304    95199    96668    96645    95550    94687 
   94751    96163    97806    98271    98244    98493    98926    99584 
  100075   100207   100132    99638    99237    99731   100526   100546 
   99621    98227    97063    96641    96715    96831    97329    98613 
   99948    99840    97852    95513    94352    94833    96217    96464 
   95207    94648    96148    98273    98829    97483    94788    91870 
   90628    90940    90964    89877    87975    86046    84920    84886 
   85240    85036    84632    85060    85783    85788    85762    85687 
   85072    85156    85440    84721    84591    85093    84597    84017 
   83781    82861    81776    81166    81396    83060    85426    88002 
   91270    94351    96187    97094    97159    96660    96445    96221 
   95246    94032    93167    91818    90184    89367    88375    87300 
   87485    88202    89428    91061    91407    91320    92736    94548 
   95033    94055    92168    91390    93187    95615    96456    95338 
   92758    90221    89181    88553    87008    86630    88724    91665 
   94171    94790    93086    91231    90136    88350    85827    84543 
   84500    83668    82244    81596    81364    81984    84689    88067 
   90702    92758    93521    93459    93773    93464    92308    92091 
   93290    94883    96290    97525    99150   101120   101218    98248 
   94520    92136    91123    90844    90840    91543    93258    95567 
   97617    98226    98084    98651    99535   100831   102969   104714 
  105555   105952   105621   104942   104819   104692   103567   101611 
   99546    98635    99812   101360   101008    98544    93969    88241 
   83921    80738    76540    71712    67321    64111    63007    63333 
   64108    65071    65581    66147    67815    69701    71201    72407 
   72339    71895    71925    70418    68185    67142    66104    65261 
   65477    65620    65148    64454    63922    64157    65302    66486 
   67244    68300    69797    70760    70433    69078    68061    68949 
   72274    77500    83547    89122    93318    95640    95875    94790 
   93405    91640    89723    88990    89554    90652    92410    93958 
   94413    94965    95816    96271    97009    97672    97538    97949 
   99218   100473   102166   103856   104411   103894   101987    98918 
   96319    94440    92700    91594    91291    91226    90906    90533 
   90799    90949    90499    90695    91477    92183    92697    92121 
   90652    89197    87251    85264    84407    83957    83392    83538 
   84061    83867    83230    82871    82375    81548    81711    83767 
   86857    90139    93652    97247   100743   104302   107616   110305 
  112945   115758   117505   117373   115989   114241   112583   111181 
  109966   108533   106766   105052   102928    99501    95661    92986 
   91432    90907    91849    92659    91388    88754    86344    84986 
   84681    84784    84809    84342    83292    81990    79999    76840 
   73180    70117    68878    69896    72017    74362    76870    79150 
   80788    81716    81850    81043    79882    79060    78044    76797 
   76306    76850    78672    81611    84235    86047    87844    90157 
   92897    95237    96485    97158    98123    99835   102108   103540 
  103450   103156   103199   102945   102733   102595   101282    99172 
   97806    96954    96546    96897    97244    97908    99551   101522 
  102960   103254   101991    98937    95729    95214    96885    98014 
   97939    97156    95854    94323    92738    91937    92808    94138 
   94628    94532    93943    93544    94497    96094    97282    98043 
   97738    95760    92951    90510    88727    87151    85696    85000 
   85618    87563    90229    92699    94189    94698    95291    96121 
   95891    94867    94995    96611    97798    97384    96712    97052 
   97730    98142    98275    97842    97551    98928   102018   104755 
  105023   102851    99461    95669    92055    88707    85698    84109 
   84920    87759    91601    94888    95820    94636    92992    91440 
   90084    89097    88393    88299    88811    88808    87454    85603 
   84832    85360    86331    87304    87862    87613    87497    88534 
   89924    91093    92242    92554    91440    89068    86171    84323 
   83636    82976    82597    83917    88118    94101    98350    99308 
   98651    97563    96743    97713    99796   100591   100759   102240 
  103644   103063   101183    98809    96222    94257    92934    91363 
   88978    85949    83890    83979    84292    83097    81885    81761 
   81673    80878    79710    79207    80013    81522    82912    83971 
   85263    87092    88700    89438    88673    86030    82914    81091 
   80408    79829    79242    79026    79443    80385    81244    81977 
   83106    84765    86746    88576    89942    91396    93394    95116 
   96134    97758   100429   102478   102253    99450    95224    90555 
   85322    80153    76395    74846    75857    78908    82497    85388 
   87188    87867    87988    88649    90609    93316    94834    94394 
   93376    93094    94128    96408    98983   100623   100681    99752 
   98776    97005    92973    87428    82761    80570    81157    83990 
   87735    90593    92242    93544    94333    94678    96075    99515 
  103952   107704   110432   111739   110835   108688   106111   102667 
   98784    95027    91689    89500    89113    90436    92036    93093 
   94246    95563    97283    99512   100845   100719    99970    98941 
   97229    94470    90898    86937    83614    82289    82424    82613 
   82429    81847    81396    81508    81884    82803    84686    87725 
   92394    97518   100944   102424   102385   100893    98686    96294 
   93198    89295    85590    82783    81221    81891    84858    88322 
   91532    95351    99072   101321   102294   102378   101949   101437 
  100791   100562   101054   101434   101136    99727    97186    94705 
   93044    91764    90687    90088    89896    89916    89748    88647 
   86594    84388    83295    84464    87403    90637    93225    94787 
   95346    94756    93016    91046    89567    88628    88277    88377 
   88701    88890    88346    86876    84858    83201    82694    82536 
   81672    80234    78156    75797    74170    72918    71713    71595 
   72643    74092    76150    78750    81398    84061    86162    87717 
   89722    92055    94130    95442    95370    93974    91683    89068 
   86647    84694    83582    83319    83899    85583    87959    90494 
   93093    94971    95058    93827    92423    91058    90217    90551 
   91374    92165    93206    94278    95388    97132    99180   100472 
  100823   100676   100009    98965    98289    98609    99643   100232 
  100098    99975    99733    99303    99760   101235   102768   104550 
  106662   107871   107547   105232   100499    94567    88754    83763 
   80997    81016    82881    86223    90940    95828    99490   101027 
  100028    97164    93448    89016    84134    80233    78509    78761 
   80060    80430    77750    73049    69192    67223    67073    68353 
   69975    71375    72789    74048    74879    76179    79371    84708 
   90999    96029    97411    94705    89442    82899    76944    74120 
   74359    75625    76755    77044    76026    74316    73105    73062 
   73091    71487    69674    70968    75934    83317    92354   101555 
  109287   115157   118762   119587   118004   114897   110847   106583 
  103499   101810   100481    99609    99392    98869    97918    97590 
   98325    99624   100565   100300    98930    97221    95368    93201 
   90732    87563    83616    80528    79760    80485    81292    81683 
   81623    81325    81102    80921    80392    79578    78898    78744 
   80005    83376    88284    93305    97170    99252    99503    98167 
   95409    92087    89968    89563    89923    90625    91999    94567 
   98020   101055   103203   104538   104647   103646   102207   100813 
   99697    98802    98061    97521    96876    95777    94871    95172 
   96138    96198    95497    95366    95434    94424    92110    89175 
   87027    87141    89267    91463    92078    90995    89608    89360 
   90348    91983    93710    94544    93756    92102    90725    89380 
   87308    85194    84508    85563    87404    88723    88975    88608 
   87610    85402    82089    78964    77796    79246    82678    86840 
   89853    90701    90301    89294    87531    85919    85442    85947 
   86595    86549    86525    87804    89576    90256    89453    87735 
   86267    85895    86626    87964    89209    90319    91694    93117 
   93964    93883    93248    92701    92321    92182    92414    92580 
   92547    92853    93798    94892    95247    94771    93798    92267 
   90486    88807    87517    87627    89438    91778    94185    97330 
  100696   102764   103230   102597   101106    99180    97212    95260 
   93474    91948    90525    89257    88304    87740    87889    88924 
   90409    91821    92853    93249    93245    93263    93330    93749 
   94521    94737    94367    93946    93209    92264    91372    90085 
   88373    86815    86148    86872    88403    89731    90319    90069 
   89580    89249    88701    88184    88163    88333    88815    89949 
   90991    90860    89320    86964    84693    83007    81526    79959 
   79115    79774    81437    83161    84767    86350    87534    88110 
   88372    88615    88948    89206    89172    89129    89611    91088 
   93561    96333    98782   100480   101267   101520   101113    99778 
   98232    97056    96453    96792    97321    96849    95735    94894 
   94678    95226    96114    96579    96033    93911    90720    88292 
   87604    88462    90586    93106    95143    96820    98064    98176 
   96962    94544    91025    87411    85205    85151    87002    89583 
   91768    93303    94504    95863    96886    96866    96718    97083 
   97522    97750    96701    93519    89378    85664    82799    81043 
   80435    80792    81880    83077    83870    84728    86148    87316 
   87482    87274    87177    86714    85449    83357    80998    79353 
   78838    79342    80746    82443    83581    84181    84659    84919 
   85267    86505    88516    90799    93441    96111    98014    99231 
  100349   101164   100934    99253    96352    93226    90671    88514 
   86921    86283    86007    85523    84846    83928    83149    83146 
   83868    85170    87334    90255    93391    96290    98556    99975 
  100580   100380    99512    98771    99306   101310   103680   105210 
  105383   104253   102548   101248   100548    99775    98338    96469 
   94794    93197    91150    88956    87556    87786    89749    92250 
   94061    95142    95472    94751    93232    90845    87311    83525 
   80696    79172    78800    79085    79516    79948    80153    80067 
   80389    81554    83228    85261    87670    90045    91369    91166 
   90509    90455    91327    93451    96408    98717    99081    97213 
   93410    88457    83891    81025    80126    80713    82139    84176 
   86470    88024    87959    86238    83814    81739    80397    80346 
   81783    83407    84473    85359    85842    86404    88333    91161 
   93231    93563    92153    89830    87405    85411    84688    85422 
   86678    87855    89037    90162    90988    91675    92684    93852 
   94446    94139    93052    91513    90061    89086    88469    87806 
   86763    85549    84987    85116    85441    86460    88461    90732 
   92684    94055    95034    96219    97702    99134   100377   101374 
  101989   102159   102153   102285   102297   101903   101244   100622 
  100203    99465    98158    97023    96120    94771    92842    90358 
   87403    84708    82903    81915    81746    82566    84148    86067 
   87960    89428    90247    90548    90641    90599    90309    90410 
   91681    93445    94531    94421    92863    90358    88354    88037 
   89544    91959    94124    95553    96072    95685    94882    94166 
   93757    93590    93332    92830    92141    91439    90873    90346 
   89781    88975    87602    85980    85004    85353    86768    88335 
   89716    90973    91659    91318    90105    88527    87070    86247 
   86605    88249    90872    93930    96484    97891    98146    97619 
   97065    96754    96337    95936    95905    95885    95084    93195 
   90664    88275    86575    85550    85202    85800    87231    89094 
   90765    91505    91199    90238    89463    89753    90558    90541 
   89218    86934    84493    82730    81737    81004    80470    80383 
   80419    80379    80609    81176    81834    82449    83234    84618 
   86390    87974    89295    90335    91139    92318    94356    97024 
   99638   101530   102362   102195   101339   100124    98905    98005 
   97461    97137    96908    96229    94485    91955    89496    87818 
   87242    87574    88246    88778    89313    90286    91675    93019 
   93924    94170    93424    91446    88705    86093    84187    83467 
   84304    86255    88329    89984    91305    92288    92773    93154 
   93723    94004    93992    94217    94296    93679    92803    91882 
   90482    88676    87019    86019    85841    85989    86302    87420 
