Origin Time       2025/01/13 21:19:00
Lat.              31.8
Long.             131.6
Depth. (km)       30
Mag.              6.9
Station Code      MYZH08
Station Lat.      32.2132
Station Long.     131.5309
Station Height(m) 68
Record Time       2025/01/13 21:19:40
Sampling Freq(Hz) 100Hz
Duration Time(s)  222
Dir.              5
Scale Factor      3920(gal)/6170801
Max. Acc. (gal)   91.456
Last Correction   2025/01/13 21:19:25
Memo.             
[...]
    8701     8704     8707     8704     8698     8694     8696     8701 
    8701     8702     8704     8703     8698     8695     8696     8699 
    8701     8703     8704     8703     8700     8700     8700     8698 
    8698     8699     8697     8698     8703     8701     8695     8695 
    8698     8701     8704     8706     8702     8695     8691     8692 
    8696     8699     8702     8704     8702     8698     8698     8696 
    8694     8695     8698     8702     8701     8698     8698     8698 
    8697     8696     8697     8699     8700     8701     8704     8703 
    8696     8692     8691     8692     8694     8701     8704     8702 
    8698     8696     8694     8694     8701     8705     8703     8701 
    8700     8698     8696     8697     8700     8703     8704     8704 
    8705     8703     8701     8701     8701     8700     8700     8701 
    8700     8699     8702     8706     8706     8703     8701     8700 
    8699     8697     8697     8699     8701     8702     8704     8705 
    8703     8702     8702     8700     8698     8699     8703     8705 
    8706     8706     8702     8695     8694     8695     8697     8703 
    8707     8708     8707     8702     8698     8696     8695     8696 
    8699     8700     8698     8696     8699     8705     8707     8705 
    8703     8702     8699     8695     8694     8696     8698     8700 
    8700     8701     8703     8702     8697     8696     8697     8695 
    8696     8699     8700     8700     8699     8699     8699     8698 
    8698     8702     8704     8701     8698     8698     8697     8695 
    8696     8700     8702     8701     8699     8700     8699     8696 
    8695     8695     8698     8700     8700     8703     8706     8704 
    8703     8701     8696     8693     8693     8695     8698     8699 
    8702     8704     8704     8704     8699     8694     8696     8697 
    8697     8699     8698     8698     8702     8704     8702     8701 
    8700     8702     8703     8700     8699     8700     8700     8701 
    8703     8701     8699     8701     8702     8702     8702     8702 
    8702     8702     8699     8698     8701     8703     8702     8701 
    8701     8702     8701     8703     8705     8704     8702     8702 
    8702     8701     8697     8696     8699     8702     8703     8705 
    8704     8700     8699     8701     8698     8696     8697     8701 
    8703     8704     8702     8702     8702     8699     8697     8700 
    8703     8702     8701     8700     8697     8693     8693     8695 
    8697     8698     8698     8698     8693     8686     8683     8685 
    8687     8689     8689     8690     8692     8691     8691     8691 
    8688     8686     8689     8698     8713     8735     8750     8737 
    8705     8666     8616     8583     8611     8682     8733     8750 
    8771     8786     8751     8679     8611     8556     8514     8542 
    8685     8897     9082     9126     8940     8581     8251     8174 
    8421     8855     9227     9333     9171     8946     8795     8647 
    8406     8136     7970     8000     8326     8993     9736     9968 
    9355     8250     7419     7459     8269     9164     9585     9488 
    9150     8842     8677     8582     8348     7913     7585     7755 
    8436     9274     9904    10149     9950     9315     8408     7553 
    7107     7309     8030     8843     9365     9449     9246     8994 
    8730     8419     8138     8011     8085     8373     8909     9562 
    9965     9846     9304     8629     8072     7864     8047     8320 
    8403     8416     8647     9121     9580     9783     9571     8852 
    7796     6922     6830     7684     9025    10196    10705    10347 
    9373     8322     7580     7276     7377     7746     8147     8472 
    8918     9446     9554     8989     8090     7401     7182     7315 
    7755     8732    10247    11503    11431    10131     8805     8040 
    7467     6864     6501     6758     7841     9499    10853    11001 
    9956     8667     7957     7743     7684     7879     8419     9145 
    9827    10122     9601     8236     6826     6291     6709     7648 
    8835    10242    11690    12360    11446     9230     6864     5424 
    5299     6278     7943     9639    10626    10635     9951     9080 
    8382     7992     7993     8458     9413    10532    11147    10924 
   10028     8665     6993     5532     5047     5713     7309     9709 
   12075    12928    11958    10297     8609     6708     5073     4813 
    6206     8527    10933    12918    14003    13446    11076     8039 
    5799     5105     6117     8371    10598    11591    11532    11381 
   11114    10274     9244     8389     7495     6924     7491     9078 
   10922    12390    12565    10670     7400     4590     3444     3906 
    5404     7288     9008    10258    10958    11087    10192     7890 
    5348     4695     6440     8950    10807    11799    11791    10810 
    9423     7790     5798     4308     4507     6183     8071     9449 
   10477    11255    11458    10801     8869     5555     2445     1741 
    3969     7937    11859    14222    14115    11757     8862     6914 
    5800     4853     4200     4873     7311    10669    13936    15764 
   14483    10371     6006     3419     2968     4742     8243    11395 
   12590    12199    10908     8863     6630     5352     5730     7541 
   10404    13713    15779    15060    11959     7816     3436       44 
    -550     2128     7068    12803    17216    18411    16259    11836 
    6190      674    -2614    -2434      654     5850    12385    18809 
   23512    24589    20371    11659     1926    -4843    -6095    -1881 
    5221    11938    16054    17022    15630    12475     7626     2456 
    -127     1985     8126    15073    19536    20320    17772    12921 
    7595     3282      398     -495     1282     5012     8837    11937 
   14810    16991    16907    14015     9376     4959     3084     5099 
    9173    11200     9638     7169     6503     7340     8465     9937 
   11698    12753    12893    12315    10346     7910     7569     8448 
    6778     2350    -1359    -2401     -588     4193    10162    14651 
   17351    18725    18298    16202    12547     6478     -773    -4904 
   -3562     1032     6629    13384    19551    21107    17757    12803 
    7609     2555      741     4111     8945    11625    14127    17640 
   18235    13970     8505     5231     4232     4776     6252     7385 
    6872     5111     4487     6693    10473    13376    14511    14143 
   12281     8673     3555     -624       34     5950    12330    14038 
   10806     6375     4042     5033     8191    10251    10007    10132 
   12188    13956    13174    10176     6466     3431     2214     2454 
    2167     1001     1547     5407    10245    12822    12955    12601 
   12447    11116     7940     4940     4486     6685    10522    15264 
   18902    18225    13303     7875     3767      905     1669     8070 
   16441    21170    20938    16606     8627       65    -4508    -4795 
   -3674     -715     7423    20070    30949    34482    29598    17787 
    2531   -11039   -19068   -19711   -12650     -519    11738    20829 
   26269    27160    22006    12440     2745    -4330    -8553   -10066 
   -7785     -472    10275    20100    25603    26044    22230    15113 
    4760    -7957   -18159   -19537   -10894     3799    19770    32876 
   40015    39216    29241    11580    -7456   -20086   -23572   -19697 
   -8451    10547    31222    43368    41867    29135    10669    -7121 
  -16844   -13832     -975    14200    26252    32683    32324    25060 
   11975    -3187   -13922   -14785    -5521     9136    23575    34031 
   37094    29185    10775   -11157   -26442   -28583   -19595    -4877 
   13127    31268    42982    42645    29497     8251   -12852   -25106 
  -23580   -10968     6033    23574    38637    45168    38567    20520 
   -2490   -22892   -33566   -29882   -13932     6721    24911    35627 
   36559    28918    15337       -6   -10604   -12254    -6018     4161 
   14318    22448    27470    27467    21681    11670      229    -8278 
   -9253    -2685     6311    13428    17300    17627    15902    13479 
    9323     4521     3103     5985    10456    14917    19874    24771 
   26854    24129    16429     4536    -7843   -14847   -14369    -9416 
   -2736     5980    16146    23765    25685    22824    18169    13597 
    8956     4940     3883     5582     6806     6070     5060     4422 
    2383     -623    -1362     1827     8182    15326    19714    19316 
   15952    13403    12255    10157     8077     9139    11896    11885 
    8812     5974     3726     1094     -504     -128     2528     6915 
   10560    13376    17031    21006    23453    21847    15733     9078 
    5770     6194     8448    10674    12237    12358    10431     7837 
    6658     6770     5900     4058     4047     6467     9542    11142 
    8811     2932    -2407    -4909    -4645     -255     8339    16301 
   17720    12793     8502     9743    13536    14393    10515     4022 
   -1583    -4535    -4764    -1237     6497    15027    19789    20249 
   18856    17326    15849    12812     6096    -3614   -11756   -13767 
   -9865    -2478     7941    19107    25470    25702    23695    21676 
   19262    15658    10889     6416     2691    -1046    -3620    -2410 
    3107    10076    14477    14192    10483     6809     5487     6592 
    9291    11655    11751     9967     7937     7001     7847     9163 
    8207     3756    -1849    -3150     2148     8561    10808     9943 
    8139     6152     4637     3986     4572     6893    12062    20422 
   29275    35045    36545    34746    29991    22007    13680     9451 
    9607    10967    11916    13425    15954    18707    21436    23035 
   20391    13712     8560     7986     9011     9373    10989    14969 
   19354    22388    22347    17141     8112     -177    -3760     -783 
    7701    17246    21694    17697     7120    -6924   -20970   -27796 
  -21619    -4859    16315    37062    51815    54994    47491    36338 
   25179    12515     -302    -6746    -1818    11685    26237    36297 
   39087    34554    26247    18892    15124    14842    17718    24046 
   32676    41160    46972    48503    45259    35921    20375     4281 
   -3797     -461     9541    19099    24191    23265    17576    11042 
    5417    -1219    -9776   -16816   -17370   -10353      412     9364 
   11520     5198    -6118   -18122   -29021   -35998   -34267   -21782 
   -2064    17016    27437    26761    19449    11199     3360    -5235 
  -12784   -15192   -11619    -5430    -1375    -2773    -7859   -11751 
  -13312   -14239   -13633    -8772      663    11497    19360    21056 
   16893    11856    10744    12385    13089    13163    14356    15119 
   13845    11931    11668    14255    18308    20029    16482     8028 
   -1948    -8706    -8380     -328    11243    19343    19297    10512 
   -5551   -27346   -53187   -78285   -94347   -95182   -80461   -53633 
  -19649    14934    42726    58605    61458    52919    36978    19900 
    7845     4831    11020    23343    39721    57917    73253    82771 
   85128    77436    58947    34675    11236    -9110   -26538   -38586 
  -43230   -42841   -38511   -26690    -7086    14386    33417    48716 
   57507    58369    53994    45837    31453    10646   -10207   -22946 
  -23716   -13906     2056    19676    35534    46933    51609    47797 
   36079    19670     3385    -6434    -5570     5638    23943    42445 
   52209    47376    27135    -3855   -35672   -57027   -60938   -46207 
  -17616    12632    31139    31531    13938   -17082   -54751   -91346 
 -114622  -112829   -86149   -44456     1397    39377    57653    54274 
   37934    18028      379   -12806   -22215   -27897   -29934   -30396 
  -30170   -28593   -26259   -23636   -18438    -7697     7767    24706 
   41128    54494    62160    63110    55439    38821    17656    -3068 
  -21776   -38066   -46692   -41204   -24286    -4119    14574    28226 
   32076    25625    13551     -617   -15137   -27369   -35740   -38783 
  -33625   -20430    -3428    13743    30785    47562    59888    64126 
   61945    56130    47534    35646    21388     9852     4738     2568 
   -1158    -3513      724     8926    15710    22378    31130    39178 
   45203    51154    54811    48321    29179     7810    -5444   -10763 
   -8581     4133    26134    49757    62397    55436    32805     -225 
  -44346   -90708  -118322  -114904   -85229   -40933     7970    53237 
   83472    87172    65276    31491      413   -17126   -14731     7035 
   42329    81247   109945   119783   112545    89266    48234    -1797 
  -43584   -65319   -64257   -43873   -11225    23158    44759    43158 
   20252   -13658   -45270   -60036   -47830   -10595    35893    71661 
   85672    76035    44199    -2320   -49607   -85242  -102217   -97304 
  -68952   -20883    32810    75922    99414    98812    77036    47615 
   22862     8422     9123    24107    42075    52458    53473    45213 
   25218    -3997   -29838   -39271   -31112   -13045     8022    26680 
   35009    24553    -3697   -35109   -54058   -55359   -39909   -12363 
   15763    34430    41380    35345    15922   -10857   -35516   -50305 
  -51065   -36784    -8873    25850    55608    71748    71897    57041 
   34060    14578     3974      844     4891    15647    29817    41456 
   42533    29505     7008   -16592   -31821   -31362   -15212     9751 
   35012    53756    57797    37976    -5576   -59735  -107478  -135267 
 -133954  -101739   -47854    12593    67494   107430   121709   103710 
   57755    -2215   -56499   -86064   -82744   -53068   -11352    29163 
   58290    66649    49026    11456   -29489   -55826   -57820   -35035 
    8530    62146   108636   133580   129553    98244    50421      553 
  -34617   -41857   -22655    10563    46707    77948    96279    95242 
   75760    45872    14383    -9648   -17613    -8703     9590    29274 
   45270    52706    48365    35969    21876     8861      636     1646 
    8900    14423    15447    15580    17377    20228    24900    32658 
   40899    46235    49154    50879    49585    41886    26528     7340 
  -10008   -22867   -29518   -28769   -24202   -21830   -23011   -24102 
  -21992   -15100    -1009    19668    39908    53018    58578    57697 
   47619    25407    -5909   -38004   -62415   -74197   -73009   -62511 
  -48444   -36279   -30073   -31717   -39829   -50398   -58629   -60384 
  -53466   -37497   -13278    15489    42634    62920    70507    59564 
   32420    -1298   -33392   -57130   -66406   -60728   -43753   -17451 
   15949    49707    76175    93246   102181   100776    86733    64181 
   38357    10600   -16082   -33833   -36333   -25405    -8407     8354 
   21061    27155    24405    10692   -12637   -37855   -54105   -53272 
  -34322    -4093    27877    55744    77720    91351    91982    78759 
   56926    30612      973   -27334   -46165   -52235   -49935   -44439 
  -37675   -30508   -24100   -19863   -18691   -20820   -26565   -34704 
  -41246   -43145   -42058   -41423   -41364   -38430   -29741   -16690 
   -2022    14008    29892    41075    43856    38297    28887    20518 
   15690    16588    23844    34165    42234    45747    46837    47203 
   48040    52137    59987    69100    76160    78050    74443    66199 
   53583    39886    31022    30407    36499    45887    55857    61383 
   56598    39592    12613   -18057   -45120   -63585   -68279   -54538 
  -23114    17223    51086    65320    57789    35582     8344   -16148 
  -32242   -36206   -30430   -22776   -18444   -17175   -17478   -19851 
  -25272   -31911   -35958   -34856   -27508   -14174     2457    18460 
   29651    33930    35701    41252    50144    58448    65203    69944 
   70270    64861    54349    40413    26358    15478     9730    10836 
   17629    23839    24239    20447    17239    15378    11526     5261 
     591     -492     1298     6997    17739    31208    42816    48814 
   47518    38777    24560     8997    -2369    -3822     3745    10530 
    9586     3278    -4546   -13520   -23837   -32688   -34564   -26241 
  -10513     6076    18041    21952    15674     2765    -7011    -8600 
   -5908     -767    10728    26426    36366    35293    23864     1709 
  -28432   -57099   -76757   -87209   -89276   -81237   -64551   -45587 
  -29505   -17978   -12167   -11768   -11963    -7447     2129    15510 
   33012    50937    59481    51798    31534     8373   -10690   -22709 
  -25503   -18178    -4043    12002    28630    44477    53316    49843 
   36388    21264    10915     5180     2755     4049     6230     6229 
    6374     8416     9129     5699    -1064    -8741   -16369   -23849 
  -28049   -25051   -14882     -705    13609    24957    32056    36020 
   38436    38852    36555    31478    22915    11640     2147     -651 
    3188     9597    14013    11503       71   -15888   -29223   -34424 
  -29263   -15821      807    15498    23434    21261    11220    -1099 
  -12758   -21563   -22964   -14393      986    17422    31095    39729 
   41280    37142    31997    28914    29310    34842    46617    63181 
   78404    84132    75902    54481    24473    -7902   -37090   -56325 
  -57181   -37464    -4583    31671    62762    81104    83651    72406 
   50886    24256      470   -11612    -6758    12547    38210    61868 
   75825    72528    47824     5006   -43913   -81238   -92174   -73166 
  -31844    17926    58980    75147    58911    16127   -37114   -82759 
 -104304   -88503   -36582    31279    90980   125941   126355    92083 
   34448   -31133   -87710  -116397  -106810   -65171    -8082    46806 
   83975    91604    66549    17368   -39963   -89386  -118383  -120025 
  -95908   -54013    -5709    33448    50028    42513    19996    -5437 
  -22868   -25129   -11564    13346    43043    68361    79065    70616 
   47336    17881    -8372   -21159   -13466    11573    41850    64843 
   72013    58672    26660   -14012   -48948   -65289   -57108   -28563 
    8027    39002    55030    52460    32815     1373   -33516   -60779 
  -70788   -60512   -33203     4076    40283    63168    66193    50744 
   23033    -8201   -32282   -40095   -31959   -17589    -5750     -856 
   -5842   -19892   -37081   -50359   -54575   -46661   -26309     2414 
   32932    60300    81693    95110    99631    96174    87761    77305 
   65192    52200    42240    37156    32729    24177    10681    -6139 
  -22914   -35145   -39063   -32309   -16524     1686    16961    28029 
   32883    29172    20208    14266    17423    29775    47579    66147 
   80864    87292    81379    62608    36499    10136   -10538   -19232 
  -13802      816    16909    27556    29586    22989     6763   -18771 
  -48270   -74134   -89619   -89728   -72059   -38669     3084    44197 
   76812    94008    92623    74954    45761    11309   -19792   -39269 
  -42473   -28342      701    37066    68813    84527    78763    54104 
   18205   -20312   -52760   -70579   -68240   -46694   -13396    21738 
   49735    62809    57079    36702    10949   -12349   -28612   -35135 
  -31469   -20729    -8406      205     2162    -1467    -6043    -5784 
    3162    19621    37744    51590    57529    52713    35700     9362 
  -20128   -46573   -64487   -70425   -64643   -48453   -22832     8343 
