Origin Time       2025/01/13 21:19:00
Lat.              31.8
Long.             131.6
Depth. (km)       30
Mag.              6.9
Station Code      MYZH13
Station Lat.      31.7301
Station Long.     131.0791
Station Height(m) 35
Record Time       2025/01/13 21:19:42
Sampling Freq(Hz) 100Hz
Duration Time(s)  280
Dir.              1
Scale Factor      2942(gal)/8224139
Max. Acc. (gal)   14.194
Last Correction   2025/01/13 21:19:42
Memo.             
[...]
 -228950  -229035  -229217  -229382  -229410  -229308  -229158  -229015 
 -228895  -228841  -228862  -228883  -228853  -228812  -228829  -228892 
 -228924  -228865  -228708  -228511  -228361  -228259  -228102  -227869 
 -227650  -227546  -227603  -227781  -227998  -228167  -228197  -228096 
 -227951  -227858  -227898  -228031  -228116  -228201  -228453  -228829 
 -229176  -229459  -229620  -229606  -229583  -229713  -229898  -229945 
 -229763  -229424  -229134  -229031  -229059  -229131  -229239  -229352 
 -229424  -229483  -229539  -229582  -229575  -229404  -229113  -228997 
 -229217  -229597  -229864  -229926  -229868  -229774  -229684  -229695 
 -229821  -229892  -229734  -229402  -229120  -228972  -228775  -228390 
 -227992  -227824  -227908  -228056  -228087  -227981  -227858  -227828 
 -227919  -228079  -228267  -228561  -228938  -229132  -229095  -229092 
 -229193  -229251  -229248  -229211  -229147  -229135  -229188  -229204 
 -229092  -228874  -228703  -228703  -228896  -229285  -229792  -230257 
 -230577  -230731  -230755  -230683  -230517  -230323  -230253  -230361 
 -230404  -230030  -229182  -228181  -227460  -227244  -227345  -227429 
 -227408  -227323  -227111  -226875  -226889  -227146  -227358  -227427 
 -227553  -227824  -228044  -228060  -227939  -227780  -227701  -227820 
 -228036  -228105  -227978  -227740  -227508  -227530  -227923  -228441 
 -228812  -229030  -229170  -229284  -229485  -229822  -230045  -229865 
 -229379  -228889  -228561  -228441  -228437  -228368  -228286  -228465 
 -229000  -229651  -230075  -230106  -229883  -229618  -229362  -229084 
 -228685  -228081  -227551  -227516  -227838  -228001  -227875  -227745 
 -227870  -228266  -228725  -229041  -229205  -229346  -229558  -229784 
 -229876  -229876  -230002  -230308  -230674  -230997  -231202  -231252 
 -231199  -231088  -230895  -230634  -230359  -230073  -229733  -229363 
 -228989  -228617  -228340  -228231  -228236  -228347  -228610  -228951 
 -229177  -229147  -228935  -228781  -228825  -228976  -229076  -229074 
 -229058  -229059  -229034  -229078  -229271  -229417  -229329  -229028 
 -228545  -227932  -227399  -227186  -227350  -227750  -228206  -228685 
 -229211  -229660  -229918  -230146  -230543  -231025  -231444  -231709 
 -231672  -231310  -230947  -230887  -231129  -231522  -231823  -231723 
 -231113  -230133  -229012  -228101  -227718  -227817  -228082  -228286 
 -228352  -228228  -227931  -227496  -226876  -226127  -225517  -225213 
 -225157  -225227  -225364  -225545  -225738  -225963  -226326  -226889 
 -227496  -227816  -227751  -227595  -227655  -228032  -228614  -229107 
 -229265  -229074  -228641  -228123  -227695  -227435  -227346  -227419 
 -227670  -228162  -228907  -229730  -230346  -230559  -230373  -230008 
 -229768  -229699  -229582  -229335  -229080  -228883  -228758  -228738 
 -228769  -228829  -229035  -229429  -229857  -230145  -230211  -230095 
 -229949  -229896  -229995  -230274  -230635  -230825  -230704  -230370 
 -229933  -229435  -228991  -228703  -228565  -228556  -228680  -228961 
 -229385  -229807  -230018  -229957  -229728  -229458  -229166  -228772 
 -228329  -228140  -228297  -228480  -228525  -228644  -228951  -229333 
 -229629  -229651  -229328  -228946  -228800  -228775  -228706  -228714 
 -228784  -228722  -228679  -228911  -229240  -229247  -228729  -227874 
 -227152  -226901  -227074  -227583  -228519  -229730  -230713  -231176 
 -231253  -231159  -230943  -230577  -230118  -229778  -229760  -229965 
 -230049  -229879  -229616  -229342  -229009  -228665  -228391  -228114 
 -227762  -227461  -227442  -227747  -228102  -228170  -227923  -227556 
 -227142  -226683  -226253  -225900  -225632  -225470  -225474  -225741 
 -226203  -226590  -226820  -226874  -226579  -226111  -225990  -226330 
 -226875  -227438  -227948  -228594  -229651  -230868  -231692  -232032 
 -232281  -232681  -233088  -233308  -233302  -233039  -232475  -231728 
 -231084  -230732  -230554  -230339  -230073  -229759  -229273  -228734 
 -228496  -228621  -228808  -228771  -228453  -228019  -227630  -227308 
 -227036  -226814  -226635  -226453  -226278  -226280  -226562  -227056 
 -227782  -228807  -229844  -230391  -230291  -229824  -229354  -228997 
 -228540  -227844  -227175  -226737  -226396  -226119  -226098  -226423 
 -227049  -227913  -228910  -229807  -230365  -230607  -230782  -230933 
 -230848  -230582  -230511  -230808  -231327  -231847  -232245  -232610 
 -233123  -233745  -234239  -234372  -234021  -233173  -231854  -230165 
 -228390  -226903  -225931  -225439  -225202  -224955  -224596  -224243 
 -224070  -224247  -224928  -226064  -227214  -227877  -227996  -227836 
 -227708  -227869  -228330  -228897  -229554  -230373  -231202  -231723 
 -231676  -231169  -230724  -230559  -230362  -229986  -229620  -229335 
 -229089  -229062  -229474  -230158  -230696  -230782  -230399  -229848 
 -229475  -229273  -228945  -228190  -227026  -225948  -225445  -225506 
 -225927  -226678  -227568  -228225  -228668  -229288  -230170  -230916 
 -231195  -231126  -230993  -230862  -230704  -230575  -230484  -230274 
 -229829  -229265  -228789  -228352  -227732  -226983  -226426  -226269 
 -226498  -226937  -227410  -227846  -228172  -228418  -228854  -229579 
 -230318  -230917  -231454  -231846  -231961  -231967  -232055  -232146 
 -232089  -231803  -231263  -230652  -230185  -229757  -229139  -228340 
 -227657  -227500  -228019  -228892  -229680  -230095  -229919  -229234 
 -228534  -228236  -228441  -229140  -230092  -230839  -231118  -230943 
 -230445  -229944  -229732  -229640  -229251  -228545  -227901  -227508 
 -227134  -226570  -226050  -225917  -226075  -226197  -226243  -226368 
 -226600  -226933  -227448  -228225  -229244  -230204  -230632  -230439 
 -229980  -229498  -228943  -228287  -227705  -227369  -227173  -226899 
 -226569  -226401  -226543  -226998  -227681  -228421  -228988  -229211 
 -229117  -228951  -228895  -228901  -228901  -228947  -229099  -229385 
 -229749  -230022  -230157  -230230  -230180  -229971  -229744  -229614 
 -229689  -229992  -230183  -229867  -229041  -227943  -226890  -226314 
 -226512  -227434  -228657  -229568  -229907  -230008  -230234  -230608 
 -231010  -231277  -231336  -231275  -231057  -230570  -230006  -229709 
 -229844  -230386  -231106  -231620  -231746  -231653  -231611  -231677 
 -231662  -231295  -230388  -229100  -227993  -227510  -227562  -227821 
 -228114  -228460  -228810  -228864  -228451  -227858  -227416  -227156 
 -227003  -226947  -227022  -227223  -227470  -227811  -228445  -229508 
 -230918  -232399  -233622  -234476  -235082  -235539  -235878  -236124 
 -236112  -235566  -234594  -233690  -233095  -232587  -231978  -231385 
 -230843  -230145  -229227  -228382  -228019  -228289  -228980  -229884 
 -230901  -231867  -232731  -233726  -235103  -236804  -238446  -239658 
 -240399  -240732  -240514  -239751  -238936  -238539  -238488  -238368 
 -237895  -237151  -236397  -235853  -235647  -235796  -236262  -236848 
 -237184  -236991  -236140  -234739  -233361  -232679  -232934  -233976 
 -235461  -236985  -238237  -239009  -239247  -239090  -238770  -238450 
 -238142  -237605  -236530  -234925  -233015  -230879  -228575  -226465 
 -224942  -223923  -222930  -221633  -220078  -218440  -216922  -215782 
 -215107  -214713  -214435  -214339  -214564  -215127  -215947  -216858 
 -217611  -218122  -218517  -218844  -219090  -219306  -219346  -218909 
 -217984  -216834  -215638  -214497  -213679  -213409  -213572  -214076 
 -215009  -216268  -217696  -219140  -220475  -222007  -224145  -226822 
 -229504  -231646  -233118  -234126  -235018  -236019  -236925  -237284 
 -236849  -235670  -233925  -231808  -229409  -226563  -223114  -219341 
 -215740  -212476  -209420  -206548  -203967  -201780  -200017  -198640 
 -197816  -197800  -198435  -199515  -201110  -203254  -205893  -208977 
 -212372  -215879  -219284  -222312  -224791  -226862  -228634  -229799 
 -230119  -229919  -229643  -229385  -229077  -228681  -228266  -228052 
 -228221  -228726  -229344  -229802  -229942  -229907  -230057  -230750 
 -232182  -234048  -235842  -237649  -239769  -242180  -244714  -247110 
 -249156  -250731  -251868  -252572  -252555  -251658  -250134  -248358 
 -246703  -245501  -244922  -244869  -244977  -244868  -244524  -244333 
 -244660  -245350  -245852  -245808  -245219  -244251  -243238  -242669 
 -242762  -243334  -244086  -244609  -244371  -243174  -241384  -239383 
 -237170  -234717  -232168  -229643  -227183  -224810  -222586  -220656 
 -219225  -218531  -218695  -219631  -221098  -222816  -224598  -226494 
 -228614  -230877  -233068  -234978  -236441  -237463  -238279  -239121 
 -240097  -241242  -242478  -243716  -244944  -245991  -246512  -246230 
 -244980  -242811  -240142  -237524  -235307  -233608  -232275  -230972 
 -229524  -228131  -227183  -226855  -226949  -227159  -227325  -227392 
 -227381  -227535  -228077  -228918  -229932  -231179  -232642  -234052 
 -235116  -235695  -235728  -235252  -234364  -233105  -231572  -229964 
 -228401  -226871  -225255  -223312  -220858  -217957  -214902  -212116 
 -210010  -208691  -207914  -207493  -207527  -208152  -209281  -210575 
 -211732  -212855  -214326  -216180  -218130  -220033  -221850  -223460 
 -224785  -225822  -226579  -227113  -227452  -227561  -227468  -227292 
 -227063  -226574  -225648  -224560  -223830  -223500  -223187  -222643 
 -221817  -220785  -219844  -219370  -219585  -220464  -221814  -223385 
 -224992  -226509  -227889  -229159  -230359  -231449  -232313  -232823 
 -232895  -232455  -231556  -230563  -229887  -229548  -229293  -228845 
 -227948  -226527  -224815  -223078  -221269  -219161  -216749  -214226 
 -211761  -209563  -207987  -207364  -207742  -208813  -210127  -211416 
 -212650  -213960  -215651  -217944  -220695  -223665  -226685  -229574 
 -232224  -234551  -236395  -237811  -239172  -240717  -242362  -244040 
 -245748  -247398  -248891  -250199  -251248  -251831  -251791  -251232 
 -250449  -249660  -248853  -247873  -246731  -245610  -244609  -243703 
 -242734  -241293  -239017  -236052  -232850  -229741  -226890  -224392 
 -222409  -220865  -219516  -218506  -218076  -218158  -218628  -219424 
 -220522  -221887  -223434  -225023  -226490  -227786  -228860  -229531 
 -229846  -230154  -230623  -231048  -231192  -230987  -230480  -229795 
 -229123  -228684  -228704  -229289  -230289  -231429  -232528  -233491 
 -234233  -234844  -235724  -237157  -238929  -240626  -241995  -242966 
 -243668  -244476  -245749  -247476  -249327  -250997  -252282  -253064 
 -253447  -253744  -254145  -254421  -254230  -253470  -252131  -250310 
 -248252  -246063  -243621  -240726  -237227  -233203  -229165  -225721 
 -222967  -220610  -218346  -215967  -213514  -211239  -209228  -207412 
 -205829  -204561  -203675  -203308  -203590  -204435  -205626  -207091 
 -208899  -211052  -213418  -215796  -218104  -220483  -222944  -225216 
 -227037  -228253  -228872  -229050  -228935  -228771  -228772  -228795 
 -228528  -227950  -227236  -226345  -225135  -223759  -222461  -221290 
 -220368  -219974  -220253  -221077  -222166  -223280  -224291  -225207 
 -226107  -226972  -227703  -228256  -228679  -229053  -229474  -230183 
 -231503  -233424  -235588  -237662  -239399  -240579  -241147  -241247 
 -240952  -240119  -238538  -236225  -233672  -231553  -230014  -228563 
 -226656  -224252  -221734  -219389  -217325  -215809  -214955  -214378 
 -213711  -212997  -212464  -212182  -211994  -211793  -211762  -212276 
 -213478  -215140  -217071  -219215  -221395  -223484  -225603  -227846 
 -229972  -231604  -232567  -232929  -232876  -232665  -232518  -232528 
 -232579  -232266  -231168  -229271  -226930  -224496  -222016  -219342 
 -216454  -213584  -211138  -209603  -209247  -209763  -210492  -211108 
 -211854  -213104  -214890  -217132  -219863  -222940  -226066  -229124 
 -232089  -234844  -237161  -238852  -239950  -240556  -240646  -240171 
 -239040  -237132  -234586  -231651  -228518  -225606  -223327  -221676 
 -220514  -219758  -219258  -218856  -218640  -218957  -219959  -221479 
 -223445  -225795  -228244  -230598  -233019  -235681  -238445  -241088 
 -243623  -246134  -248491  -250410  -251662  -252297  -252778  -253534 
 -254476  -255434  -256474  -257557  -258439  -258870  -258858  -258626 
 -258222  -257507  -256531  -255432  -254040  -252166  -250014  -247864 
 -245759  -243618  -241332  -238870  -236405  -234258  -232646  -231484 
 -230521  -229547  -228317  -226808  -225578  -225223  -225732  -226770 
 -228232  -230081  -231992  -233570  -234655  -235311  -235735  -235882 
 -235580  -235018  -234459  -233768  -232789  -231815  -231107  -230372 
 -229365  -228198  -226806  -225181  -223781  -222902  -222330  -221740 
 -220919  -219939  -219221  -219024  -219204  -219719  -220811  -222579 
 -224716  -226743  -228297  -229301  -229765  -229498  -228348  -226577 
 -224667  -222905  -221371  -220276  -219858  -220009  -220507  -221070 
 -221175  -220564  -219269  -217378  -215303  -213417  -211840  -210708 
 -209973  -209355  -208751  -208282  -207881  -207354  -206656  -205803 
 -204844  -203967  -203364  -203188  -203561  -204327  -205056  -205532 
 -205983  -206701  -207798  -209344  -211276  -213247  -214883  -216102 
 -217030  -217717  -218022  -217846  -217386  -216997  -216955  -217360 
 -218177  -219404  -221085  -223098  -225130  -226895  -228305  -229394 
 -230168  -230584  -230640  -230477  -230482  -231087  -232409  -234292 
 -236560  -239017  -241363  -243406  -245390  -247692  -250303  -253110 
 -256230  -259684  -263152  -266082  -267958  -268650  -268425  -267572 
 -266143  -264154  -261756  -259185  -256776  -254776  -253083  -251461 
 -249743  -247793  -245481  -242601  -239110  -235483  -232330  -229788 
 -227724  -226022  -224492  -223148  -222214  -221688  -221520  -222012 
 -223407  -225383  -227464  -229494  -231560  -233675  -235822  -238138 
 -240699  -243144  -244958  -246029  -246705  -247309  -247622  -247176 
 -246025  -244570  -242974  -241222  -239377  -237632  -235951  -233987 
 -231585  -228858  -226019  -223275  -220680  -218259  -216118  -214347 
 -213065  -212498  -212712  -213440  -214474  -215879  -217699  -219882 
 -222265  -224338  -225637  -226200  -226208  -225656  -224595  -223334 
 -222354  -221938  -221914  -221810  -221266  -220249  -218910  -217366 
 -215709  -214087  -212596  -211229  -210000  -208997  -208353  -208167 
 -208364  -208737  -209155  -209655  -210320  -211330  -212920  -214976 
 -217196  -219516  -221979  -224619  -227457  -230288  -232726  -234412 
 -235182  -235090  -234459  -233712  -232980  -232243  -231542  -230805 
 -229867  -228548  -226729  -224699  -223002  -221826  -221012  -220378 
 -219645  -218556  -217362  -216669  -216953  -218346  -220348  -222064 
 -222986  -223115  -222883  -222880  -223341  -224047  -224569  -224762 
 -224802  -224783  -224730  -224606  -224276  -223844  -223591  -223484 
 -223213  -222731  -222331  -222149  -221981  -221780  -221948  -222856 
 -224256  -225487  -226197  -226590  -227080  -227970  -229428  -231577 
 -234312  -237115  -239392  -240980  -242033  -242455  -241899  -240316 
 -238037  -235442  -232811  -230253  -227716  -225146  -222606  -220357 
 -218581  -217151  -215890  -214623  -213183  -211829  -211057  -210991 
 -211515  -212730  -214790  -217563  -220826  -224391  -227885  -230901 
 -233263  -234891  -235977  -237099  -238644  -240571  -242677  -244817 
 -247018  -249369  -251702  -253613  -254846  -255356  -255222  -254790 
 -254481  -254300  -253903  -253075  -251958  -250811  -249642  -248359 
 -247095  -246063  -245369  -245142  -245484  -246279  -247210  -247922 
 -248344  -248718  -249220  -249735  -249961  -249617  -248524  -246699 
 -244429  -242091  -239946  -238087  -236495  -235121  -233987  -233174 
 -232640  -232299  -232139  -232147  -232389  -232946  -233763  -234576 
 -235016  -234914  -234304  -233447  -232839  -232584  -232281  -231593 
 -230592  -229659  -229072  -228773  -228631  -228703  -229194  -230197 
 -231569  -232965  -233971  -234391  -234373  -234106  -233641  -233105 
 -232683  -232438  -232317  -232193  -231813  -230847  -229258  -227450 
 -225771  -224270  -222979  -221933  -220973  -219929  -218776  -217525 
 -216303  -215335  -214627  -213981  -213312  -212538  -211411  -209825 
 -208079  -206616  -205621  -204766  -203511  -201799  -200194  -199210 
 -198720  -198379  -198240  -198363  -198559  -198900  -199627  -200705 
 -202022  -203488  -205016  -206705  -208772  -211203  -213656  -215917 
 -218327  -221314  -224823  -228363  -231392  -233613  -234819  -234782 
 -233778  -232533  -231356  -230069  -228730  -227762  -227452  -227772 
 -228630  -229915  -231327  -232456  -232946  -232610  -231522  -229986 
 -228398  -227078  -226149  -225607  -225482  -225740  -226106  -226274 
 -226322  -226528  -226920  -227272  -227403  -227361  -227362  -227514 
 -227784  -228125  -228476  -228744  -228823  -228772  -228889  -229460 
 -230435  -231562  -232780  -234206  -235858  -237539  -238990  -240094 
 -240895  -241725  -243048  -244903  -246901  -248543  -249519  -249941 
 -249929  -249478  -248746  -247791  -246619  -245388  -244335  -243851 
 -244134  -244872  -245674  -246422  -247140  -247772  -248084  -247803 
 -246915  -245728  -244634  -243904  -243550  -243427  -243348  -243093 
 -242554  -241725  -240513  -238879  -236883  -234473  -231597  -228399 
 -225251  -222697  -221125  -220556  -220756  -221360  -222106  -222983 
 -223967  -224938  -225865  -226740  -227479  -228046  -228486  -228789 
 -228883  -228826  -228887  -229296  -230137  -231415  -232949  -234297 
 -234882  -234373  -233026  -231398  -229807  -228241  -226694  -225364 
 -224441  -223865  -223520  -223411  -223500  -223587  -223446  -223015 
 -222434  -221981  -221886  -222081  -222355  -222687  -223144  -223612 
 -223956  -224187  -224384  -224746  -225452  -226386  -227383  -228467 
 -229641  -230696  -231387  -231773  -232128  -232498  -232578  -232009 
 -230775  -229161  -227350  -225223  -222561  -219485  -216398  -213694 
 -211725  -210654  -210330  -210546  -211222  -212373  -213916  -215574 
 -217196  -218735  -219897  -220356  -220147  -219696  -219476  -219642 
 -220136  -220822  -221489  -222035  -222401  -222523  -222474  -222394 
 -222386  -222419  -222288  -221879  -221367  -220901  -220329  -219465 
 -218265  -216704  -214868  -212905  -210955  -209371  -208607  -208838 
 -209991  -211937  -214577  -217756  -221204  -224553  -227375  -229386 
 -230725  -231682  -232239  -232191  -231647  -230943  -230231  -229585 
 -229228  -229348  -229832  -230318  -230534  -230423  -230015  -229563 
 -229406  -229676  -230405  -231616  -233192  -234910  -236555  -237976 
 -239155  -240223  -241304  -242381  -243444  -244483  -245313  -245713 
 -245695  -245439  -245056  -244572  -243981  -243217  -242244  -241213 
 -240308  -239515  -238774  -238095  -237550  -237243  -237101  -236871 
 -236502  -236200  -236139  -236355  -236807  -237332  -237721  -237878 
 -237784  -237568  -237521  -237805  -238304  -238742  -238916  -238967 
 -239180  -239576  -240016  -240399  -240626  -240606  -240310  -239847 
 -239315  -238604  -237639  -236501  -235153  -233459  -231516  -229651 
 -228059  -226665  -225298  -223870  -222417  -221069  -219929  -219088 
 -218679  -218868  -219838  -221659  -224079  -226633  -228906  -230717 
 -232221  -233672  -235017  -235982  -236449  -236518  -236443  -236528 
