Origin Time       2025/01/13 21:19:00
Lat.              31.8
Long.             131.6
Depth. (km)       30
Mag.              6.9
Station Code      MYZH06
Station Lat.      32.3607
Station Long.     131.4643
Station Height(m) 0
Record Time       2025/01/13 21:19:42
Sampling Freq(Hz) 100Hz
Duration Time(s)  193
Dir.              3
Scale Factor      2942(gal)/8224139
Max. Acc. (gal)   12.298
Last Correction   2025/01/13 21:19:42
Memo.             
[...]
  -17332   -17335   -17331   -17329   -17332   -17332   -17332   -17334 
  -17334   -17335   -17332   -17331   -17334   -17332   -17332   -17334 
  -17332   -17331   -17332   -17329   -17329   -17332   -17332   -17331 
  -17332   -17334   -17334   -17334   -17334   -17334   -17332   -17332 
  -17331   -17331   -17329   -17331   -17335   -17335   -17331   -17329 
  -17329   -17329   -17331   -17331   -17331   -17332   -17332   -17329 
  -17331   -17334   -17332   -17331   -17329   -17331   -17332   -17334 
  -17334   -17332   -17332   -17335   -17334   -17329   -17329   -17331 
  -17331   -17332   -17336   -17336   -17334   -17334   -17332   -17332 
  -17334   -17334   -17334   -17335   -17332   -17331   -17332   -17331 
  -17327   -17328   -17334   -17332   -17329   -17331   -17334   -17328 
  -17327   -17331   -17334   -17331   -17329   -17331   -17331   -17329 
  -17332   -17338   -17339   -17339   -17343   -17348   -17352   -17361 
  -17369   -17375   -17382   -17392   -17400   -17402   -17406   -17412 
  -17410   -17410   -17412   -17410   -17404   -17400   -17397   -17393 
  -17394   -17400   -17402   -17409   -17427   -17456   -17502   -17562 
  -17635   -17714   -17779   -17813   -17815   -17790   -17732   -17644 
  -17536   -17425   -17331   -17227   -17072   -16906   -16807   -16808 
  -16912   -17104   -17313   -17483   -17632   -17810   -17983   -18038 
  -17936   -17748   -17554   -17378   -17243   -17135   -16977   -16695 
  -16374   -16231   -16379   -16718   -17076   -17274   -17224   -17053 
  -16978   -17073   -17205   -17259   -17247   -17145   -16930   -16779 
  -16884   -17178   -17319   -17093   -16837   -17022   -17527   -17855 
  -17815   -17585   -17454   -17652   -18087   -18380   -18300   -17972 
  -17698   -17651   -17756   -17903   -18027   -17949   -17644   -17513 
  -17805   -18065   -17855   -17483   -17498   -17855   -17984   -17616 
  -17178   -17080   -17205   -17350   -17494   -17706   -18010   -18257 
  -18381   -18573   -18943   -19380   -19728   -19988   -20305   -20687 
  -20946   -20985   -20931   -20842   -20563   -20062   -19477   -18905 
  -18422   -18054   -17706   -17238   -16668   -16372   -16680   -17352 
  -17996   -18535   -18829   -18635   -18192   -18053   -18129   -17928 
  -17575   -17405   -17267   -16937   -16399   -15965   -16038   -16457 
  -16734   -16718   -16573   -16453   -16332   -16139   -15892   -15633 
  -15452   -15431   -15556   -15762   -15989   -16094   -15873   -15448 
  -15079   -14511   -13462   -12298   -11577   -11593   -12258   -13053 
  -13414   -13278   -13042   -13161   -13960   -15345   -16688   -17523 
  -17774   -17338   -16411   -15728   -15844   -16640   -17639   -18505 
  -19149   -19680   -20275   -21057   -22098   -23064   -23472   -23449 
  -23172   -22647   -22011   -21082   -19917   -19149   -18825   -18397 
  -17832   -17647   -18073   -18871   -19693   -20277   -20394   -19954 
  -19419   -19299   -19225   -18667   -17694   -16609   -15682   -14867 
  -13891   -12946   -12528   -12776   -13315   -13614   -13622   -13571 
  -13494   -13617   -14469   -15942   -16995   -17057   -16613   -16155 
  -16197   -17012   -17707   -17606   -17216   -16915   -16660   -16579 
  -16843   -17362   -17722   -17771   -17991   -18642   -19089   -18667 
  -17685   -17109   -17564   -18567   -19036   -18507   -17248   -15911 
  -15396   -16004   -17111   -18265   -19630   -21224   -22526   -23044 
  -22678   -21703   -20838   -20358   -19481   -17930   -16538   -15573 
  -14474   -13059   -11518   -10366   -10359   -11362   -12630   -13516 
  -13448   -13027   -13365   -14165   -14608   -14659   -15102   -16671 
  -18843   -20502   -21058   -20754   -20800   -21933   -23295   -23892 
  -23587   -22904   -22835   -23661   -24474   -24594   -24225   -23765 
  -23403   -23058   -22264   -20618   -18331   -16281   -15460   -15454 
  -14881   -13844   -13198   -13409   -14943   -16787   -17262   -16459 
  -15118   -14089   -14721   -16669   -17400   -15568   -12825   -11487 
  -12090   -13335   -13668   -13524   -14709   -17096   -18326   -17270 
  -16286   -17977   -20860   -22015   -21126   -18889   -16008   -14004 
  -13382   -13261   -13370   -13219   -11967   -10563   -10781   -12938 
  -15682   -17026   -15978   -14370   -15402   -18555   -20391   -20185 
  -19488   -18905   -18446   -19070   -21308   -23188   -22974   -21685 
  -20899   -21042   -21419   -20798   -18748   -16248   -15003   -15591 
  -16401   -16086   -15587   -15801   -16002   -15985   -16456   -16821 
  -15984   -15020   -15472   -16406   -16515   -16420   -16421   -15882 
  -15434   -15747   -15977   -16178   -17466   -19273   -20309   -20592 
  -20274   -19495   -19677   -21874   -25068   -27446   -27795   -26327 
  -24607   -23487   -22805   -22617   -22289   -20628   -17903   -15461 
  -13853   -12629   -11308   -10353   -10783   -11977   -11784    -9747 
   -7576    -6540    -6289    -6134    -6367    -7857   -11102   -15109 
  -17297   -17007   -17321   -20831   -25633   -27650   -26061   -23799 
  -23406   -24698   -25358   -23846   -21270   -19144   -17763   -17118 
  -17030   -16812   -16075   -15442   -14899   -13421   -11198    -9046 
   -7838    -8883   -11192   -12066   -11165   -10293   -10991   -13043 
  -14721   -15184   -15215   -15828   -16880   -17124   -16723   -16934 
  -16956   -15907   -15148   -15857   -18203   -21222   -22638   -22203 
  -21712   -21462   -21131   -20979   -20621   -19731   -18615   -17286 
  -15277   -12329    -9648    -8811    -9188    -9459    -9983   -11456 
  -13606   -15608   -16873   -17972   -19907   -22102   -22819   -21470 
  -18893   -16893   -17884   -21282   -22713   -20498   -17828   -17555 
  -19376   -21324   -22383   -22954   -22665   -21076   -19522   -18684 
  -17674   -16349   -15125   -13795   -12275   -11260   -11362   -12447 
  -14293   -16376   -17288   -16794   -17026   -19240   -21797   -22910 
  -22932   -23055   -23521   -23932   -23954   -23085   -21735   -21601 
  -22781   -23159   -21843   -20540   -20776   -21536   -21072   -19689 
  -19111   -19591   -19334   -17451   -15601   -15454   -15858   -14839 
  -13454   -13873   -15391   -15894   -14783   -13230   -12826   -13689 
  -14899   -15912   -16160   -15460   -14358   -13479   -13659   -14519 
  -14054   -12127   -10881   -11281   -12170   -12128   -11265   -10925 
  -11790   -12957   -13672   -14746   -16244   -16945   -17143   -17886 
  -18871   -19560   -19774   -19479   -19484   -20440   -21192   -20183 
  -17880   -16545   -16985   -17113   -15788   -15114   -17022   -20518 
  -23386   -24827   -25705   -26761   -27656   -28131   -28541   -28827 
  -28235   -26493   -24578   -22945   -20613   -17307   -14095   -11993 
  -11091   -10608   -10073    -9852   -10813   -13285   -15550   -16146 
  -16362   -17282   -18088   -18451   -18968   -19688   -19948   -19192 
  -17801   -16891   -16926   -17153   -16830   -15855   -13990   -11384 
   -9306    -8795    -9706   -11421   -13073   -13571   -12988   -12648 
  -13163   -14326   -15655   -16422   -16406   -15623   -14355   -13432 
  -12788   -12262   -13011   -14871   -16247   -17814   -20887   -23768 
  -24282   -22989   -22018   -22345   -22732   -21910   -20274   -18763 
  -18087   -18095   -17783   -16818   -15670   -14762   -14175   -13460 
  -12313   -11487   -11496   -11219    -9918    -8665    -8567    -9510 
  -10354   -10619   -11861   -14673   -16654   -16626   -16522   -17767 
  -20282   -23728   -26889   -28274   -28071   -27580   -27433   -27290 
  -26312   -24614   -23841   -24865   -26046   -24884   -21331   -17791 
  -15394   -13761   -13505   -14531   -14710   -13161   -11427   -10863 
  -11207   -11495   -12029   -14258   -17521   -18539   -16798   -16802 
  -21062   -25924   -27187   -24742   -21467   -19746   -19013   -17766 
  -16001   -14197   -12711   -12205   -12996   -14369   -15121   -15134 
  -15160   -14659   -13451   -13478   -14509   -14010   -12637   -12942 
  -14469   -14601   -13315   -13562   -15904   -17929   -18760   -19548 
  -21158   -22721   -22469   -20401   -18408   -17575   -16989   -15870 
  -15264   -16150   -17660   -18850   -20908   -24902   -28250   -27884 
  -24806   -21633   -19866   -20520   -22612   -22554   -18459   -13014 
   -9659    -7946    -5842    -4580    -6486    -9990   -11391   -10249 
   -9987   -13389   -18905   -23422   -27194   -31257   -33902   -34597 
  -35224   -35893   -35214   -33350   -31476   -29543   -27156   -25024 
  -23114   -20831   -18990   -17957   -16769   -14875   -12729   -11978 
  -13423   -14516   -12872    -9579    -6659    -5582    -6631    -7261 
   -5367    -2717    -1842    -3231    -6153    -8819   -10039   -11496 
  -14638   -18021   -19961   -20646   -21744   -24305   -26844   -26133 
  -21023   -15776   -14515   -15195   -15132   -14486   -13371   -12175 
  -11195   -10251   -10201   -10947   -10847   -10030   -10062   -11109 
  -12283   -13153   -13686   -14100   -15223   -17649   -20038   -20721 
  -20758   -22307   -25780   -29805   -31660   -29490   -25520   -23643 
  -24564   -26206   -26361   -24247   -21509   -20490   -21280   -22725 
  -24355   -24528   -21533   -18090   -17660   -18540   -17976   -16371 
  -14247   -12155   -12310   -14436   -15232   -14404   -14616   -16406 
  -18324   -20233   -22662   -24706   -25787   -26465   -26646   -26017 
  -24698   -22979   -21249   -19440   -17451   -15680   -14440   -14137 
  -15653   -19051   -22948   -26169   -27751   -26426   -23176   -21547 
  -23009   -25108   -25537   -24756   -23847   -23379   -24138   -25736 
  -26285   -25334   -24679   -25562   -27132   -27958   -27155   -24179 
  -19835   -16556   -15940   -17460   -19410   -20362   -20927   -22648 
  -24637   -24557   -22090   -19024   -17909   -20217   -23936   -25581 
  -24610   -22218   -18561   -14586   -12451   -12943   -14831   -16120 
  -16366   -16687   -17100   -16906   -16221   -15471   -15234   -16148 
  -17928   -19183   -19148   -18601   -17961   -16908   -16206   -17038 
  -18621   -18567   -16387   -14717   -15051   -15063   -12629    -8893 
   -5364    -2050     1302     4263     5209     3913     3277     4274 
    3639       95    -3303    -4868    -5493    -4783    -2142      409 
    1332     2511     4482     5030     4850     5035     3620     1482 
    1119      136    -3888    -8673   -12410   -16110   -20430   -23851 
  -25022   -25076   -23985   -21128   -19637   -21001   -22646   -23769 
  -24312   -22918   -20223   -19137   -21095   -22878   -21180   -19271 
  -21385   -25936   -29265   -30437   -31968   -35823   -39610   -39187 
  -33095   -25483   -21671   -20074   -17126   -15148   -16640   -18002 
  -15878   -14512   -18974   -26185   -31406   -35665   -39808   -41994 
  -42726   -43229   -42628   -39375   -32715   -24444   -17799   -13744 
  -10454    -7145    -5706    -6793    -8727    -9778    -9863   -11388 
  -14256   -14759   -12760   -11292   -12140   -13948   -12168    -6469 
   -1594     2300     7713    11360     8114      -68    -6034    -7053 
   -7283   -10806   -16972   -22866   -26470   -28354   -30184   -30522 
  -28482   -27653   -28890   -28491   -25716   -23097   -23237   -27923 
  -32989   -31760   -27341   -26470   -27712   -27382   -25281   -22180 
  -19912   -20378   -21124   -20123   -21276   -25481   -28290   -28038 
  -25629   -22997   -21698   -20777   -20671   -22246   -22632   -20834 
  -20044   -20127   -18800   -18207   -20455   -23110   -24062   -24182 
  -24440   -24732   -25188   -26653   -28404   -27415   -23747   -21212 
  -19973   -17367   -13871   -10832    -7952    -5431    -4052    -3693 
   -3553    -3605    -5074    -8398   -11670   -13359   -14218   -14330 
  -12831   -11067   -11577   -14208   -15697   -13514    -8097    -1718 
    2767     4310     4394     3443      974    -1134     -572     1914 
    1995    -3358    -9663   -11314    -9560    -7666    -7496    -9659 
  -11974   -12177   -10520    -8372    -6316    -4279    -3080    -3292 
   -3958    -4822    -7244   -10800   -13088   -14374   -16776   -20336 
  -23291   -24638   -25955   -28204   -29644   -29614   -28449   -25848 
  -23026   -21697   -21223   -20714   -21007   -22005   -22906   -24511 
  -26774   -28147   -28819   -30655   -34701   -40088   -44618   -46067 
  -43969   -40738   -38620   -36414   -32188   -26457   -20887   -15688 
  -10116    -4806     -832     1437     1541      720      469    -1065 
   -3703    -3835    -2268    -3103    -7133   -11182   -12150   -11356 
  -12471   -16525   -21546   -26073   -31075   -36157   -38759   -39212 
  -40068   -41673   -42283   -39900   -34306   -28638   -25951   -25122 
  -23282   -19978   -17188   -16055   -15263   -14150   -14065   -14894 
  -14823   -14458   -16355   -19481   -21170   -22584   -23711   -21240 
  -15600   -10444    -7528    -5875    -3019     1456     5309     7989 
   10400    11718    10805     8392     6457     4966      873    -6679 
  -14349   -19340   -22438   -25895   -29872   -32814   -33932   -33539 
  -32404   -30708   -27984   -24729   -22442   -21582   -20757   -18081 
  -13209    -7850    -3759    -1692    -1544    -2137    -2641    -2852 
   -2614    -3001    -4990    -8257   -12469   -16195   -17194   -15588 
  -13470   -12611   -13231   -13876   -13714   -13319   -13390   -15564 
  -20456   -25282   -28676   -32518   -37320   -42136   -46543   -49522 
  -49613   -46873   -43704   -42766   -43241   -41982   -37366   -29991 
  -22987   -19379   -18108   -17008   -15622   -13686   -11294    -8841 
   -6323    -3732    -1267      372     1942     5937    11557    15005 
   15589    15986    17045    16632    14222    11967    10139     6759 
    1892    -3234    -9580   -17062   -22738   -25390   -26320   -26767 
  -28178   -30894   -32015   -29924   -28003   -28740   -29650   -29147 
  -29641   -32065   -34172   -34881   -35122   -35317   -34731   -32919 
  -30613   -28684   -26424   -22198   -16726   -12648   -10694   -10122 
   -9830    -7892    -4263    -1671    -2349    -5737    -9421   -12210 
  -14409   -16487   -19380   -22825   -25444   -27723   -30022   -30785 
  -29733   -28031   -26306   -25425   -26420   -27876   -26482   -22322 
  -19149   -18372   -17486   -14199    -9829    -7372    -7385    -8453 
   -9097    -8981    -9481   -10797   -12020   -14042   -16804   -17845 
  -17134   -17001   -16586   -13464    -9263    -7705    -9759   -13092 
  -14899   -15190   -16220   -19125   -22796   -25623   -27580   -29929 
  -33238   -36290   -36680   -33891   -30601   -28791   -27180   -24224 
  -20795   -17520   -13975   -11859   -12050   -12164   -11649   -12298 
  -14709   -17803   -19226   -18530   -18088   -18719   -20127   -22604 
  -25047   -25731   -24646   -23989   -25132   -25666   -23287   -19662 
  -17031   -14553   -10758    -6813    -4379    -2990    -1603     -356 
    -294    -1960    -4388    -6525    -8834   -11992   -15219   -17541 
  -19080   -19955   -20684   -22017   -22218   -19488   -15827   -13932 
  -13360   -11508    -7284    -2604      306      321    -3013    -7929 
  -11095   -12177   -14359   -19030   -23552   -25208   -24516   -23822 
  -24507   -26179   -27756   -28806   -29459   -29586   -28651   -26585 
  -24769   -24629   -25211   -24112   -20995   -18050   -17305   -18621 
  -19361   -18094   -17258   -18733   -21217   -22630   -22099   -21018 
  -21323   -22813   -23841   -23349   -21487   -18981   -17174   -17460 
  -18652   -17988   -15492   -13023   -11017    -9540    -8830    -8849 
   -9759   -10204    -8472    -6050    -5150    -5459    -5969    -7048 
   -9057   -10689   -11380   -12328   -13560   -15195   -18424   -21585 
  -22033   -20596   -18778   -16630   -14805   -13814   -13203   -13478 
  -14831   -14787   -11971    -9231    -9404   -12120   -15078   -15534 
  -13799   -13992   -17255   -19924   -19854   -18538   -18185   -19120 
  -20128   -21109   -21996   -21532   -20019   -18659   -17159   -15445 
  -14813   -15874   -17489   -18941   -20891   -22592   -22327   -20957 
  -20344   -20588   -21602   -23615   -26067   -27950   -28290   -27378 
  -26545   -25350   -22446   -18679   -15839   -14188   -13027   -11973 
  -11205   -10609    -9591    -8478    -8012    -8222    -8842    -9458 
  -10461   -12276   -13408   -13443   -14251   -15854   -16646   -16767 
  -17424   -18409   -18620   -18072   -17521   -17315   -17871   -19900 
  -22928   -25363   -26333   -25598   -23730   -22275   -21396   -20367 
  -19819   -20374   -21601   -22391   -21411   -18999   -17016   -16479 
  -16974   -17412   -17270   -17415   -19001   -22125   -25988   -29343 
  -31004   -30963   -30202   -29235   -28048   -26638   -24956   -23210 
  -21888   -21550   -22435   -23715   -24420   -24526   -24409   -24753 
  -25852   -27004   -27661   -27144   -24773   -21386   -18094   -14675 
  -10405    -5620    -2054    -1088    -2277    -4128    -6251    -9389 
  -13363   -16939   -18549   -17759   -17203   -19192   -21760   -22648 
  -22588   -22661   -23001   -22985   -21667   -18832   -15223   -12664 
  -12264   -12891   -13563   -14337   -14902   -15226   -15959   -17038 
  -17288   -16198   -14843   -14058   -13933   -14894   -16902   -18993 
  -20634   -22092   -23549   -24734   -25498   -26284   -27993   -30843 
  -33454   -34102   -32398   -29317   -25473   -20250   -14108    -8955 
   -5250    -2346     -297      997     1578      729    -1429    -4091 
   -6976    -9549   -11368   -12082   -10473    -6766    -3368    -1958 
   -3029    -6277    -9806   -11882   -13247   -15259   -17263   -18150 
  -18524   -19610   -21587   -23252   -22912   -20715   -19091   -19548 
  -21332   -23549   -25624   -26968   -27630   -27870   -28269   -29864 
  -32217   -33114   -30974   -26680   -22651   -19935   -17743   -15773 
  -14710   -14794   -15315   -15365   -14638   -13558   -12776   -12692 
  -13504   -14925   -15654   -14661   -12660   -10885    -9726    -8860 
   -7450    -5526    -4666    -5702    -7816   -10100   -12082   -13571 
  -14542   -15033   -15658   -17301   -20043   -22842   -23938   -22176 
  -18314   -14507   -12140   -10683    -9285    -8052    -7395    -7291 
   -6943    -6137    -6299    -8363   -11593   -14972   -18242   -21691 
  -24962   -27016   -27639   -27598   -27441   -27456   -28215   -29813 
  -31340   -31918   -31611   -31072   -30422   -28910   -25717   -20845 
  -15685   -11749    -8752    -5606    -2134     1247     3773     4583 
    4558     5719     7828     8608     6431     1306    -4907    -9952 
  -13595   -17126   -21000   -24632   -27299   -28906   -30753   -33122 
  -33853   -32505   -30769   -29016   -27191   -26013   -25853   -26156 
  -25736   -23980   -21724   -20634   -21217   -22165   -22860   -24046 
  -25876   -27626   -28597   -28921   -29112   -28714   -27122   -24925 
  -22937   -21226   -19298   -16569   -13209    -9988    -7248    -4996 
   -3453    -2417     -715     2093     4666     6066     6891     7659 
    7782     6664     4776     2386    -1212    -6210   -11604   -16063 
  -19094   -21466   -24013   -26929   -30080   -32713   -34110   -34407 
  -33511   -31386   -29394   -28804   -29158   -29226   -28622   -28124 
  -28323   -28607   -27885   -25856   -23438   -21779   -20819   -19329 
  -16752   -14130   -12361   -10968    -9436    -7751    -5620    -2870 
     278     3419     5408     5236     3666     1842      -72    -1806 
   -3484    -5960    -8911   -11504   -13779   -15749   -17783   -20707 
  -24027   -26755   -29168   -31484   -33131   -33794   -33432   -32265 
