Origin Time       2025/01/13 21:19:00
Lat.              31.8
Long.             131.6
Depth. (km)       30
Mag.              6.9
Station Code      MYZH15
Station Lat.      32.3654
Station Long.     131.5893
Station Height(m) -30
Record Time       2025/01/13 21:19:43
Sampling Freq(Hz) 100Hz
Duration Time(s)  183
Dir.              3
Scale Factor      2942(gal)/8224139
Max. Acc. (gal)   10.104
Last Correction   2025/01/13 21:19:43
Memo.             
[...]
   28934    28937    28938    28934    28934    28937    28935    28935 
   28935    28935    28939    28938    28937    28941    28942    28939 
   28938    28938    28939    28939    28935    28934    28939    28944 
   28935    28930    28937    28941    28942    28942    28938    28937 
   28939    28935    28930    28934    28937    28937    28937    28938 
   28939    28938    28937    28939    28941    28937    28937    28941 
   28938    28935    28939    28938    28935    28938    28937    28938 
   28938    28935    28939    28939    28935    28938    28938    28937 
   28941    28938    28937    28939    28938    28938    28938    28935 
   28937    28941    28935    28934    28938    28941    28941    28938 
   28937    28938    28935    28933    28934    28937    28938    28938 
   28939    28938    28937    28935    28935    28937    28938    28937 
   28941    28939    28931    28934    28941    28935    28937    28945 
   28939    28934    28937    28937    28939    28938    28935    28938 
   28938    28937    28939    28942    28941    28935    28934    28937 
   28937    28935    28937    28939    28938    28933    28931    28938 
   28937    28933    28934    28934    28937    28944    28937    28931 
   28939    28937    28934    28939    28937    28933    28937    28934 
   28935    28945    28942    28935    28941    28942    28939    28937 
   28935    28938    28937    28934    28937    28935    28934    28939 
   28941    28935    28939    28939    28934    28935    28934    28937 
   28944    28938    28933    28934    28935    28934    28937    28944 
   28937    28933    28937    28935    28934    28938    28939    28938 
   28937    28934    28935    28942    28938    28934    28939    28937 
   28931    28938    28944    28938    28934    28937    28937    28938 
   28942    28935    28931    28935    28939    28938    28938    28941 
   28938    28934    28934    28935    28934    28935    28937    28937 
   28938    28937    28937    28937    28937    28935    28937    28939 
   28937    28934    28935    28935    28935    28938    28939    28939 
   28941    28935    28930    28935    28939    28937    28937    28939 
   28938    28934    28937    28937    28933    28938    28942    28938 
   28938    28937    28934    28935    28938    28937    28937    28939 
   28941    28937    28934    28939    28945    28938    28934    28937 
   28938    28938    28941    28942    28938    28934    28934    28934 
   28935    28939    28939    28935    28937    28938    28937    28937 
   28937    28937    28934    28938    28939    28931    28935    28938 
   28934    28934    28937    28937    28939    28942    28942    28937 
   28939    28939    28935    28931    28930    28938    28942    28935 
   28934    28938    28938    28939    28938    28934    28938    28938 
   28931    28933    28944    28942    28934    28937    28939    28937 
   28937    28937    28933    28937    28942    28937    28933    28937 
   28937    28935    28938    28937    28934    28938    28942    28938 
   28938    28937    28933    28939    28944    28937    28933    28937 
   28937    28934    28937    28938    28935    28938    28942    28937 
   28937    28942    28939    28933    28933    28937    28937    28938 
   28942    28939    28937    28937    28933    28938    28941    28934 
   28937    28938    28935    28942    28939    28933    28939    28941 
   28931    28935    28942    28938    28934    28935    28938    28935 
   28937    28941    28939    28934    28933    28934    28935    28937 
   28938    28935    28933    28935    28938    28935    28930    28927 
   28931    28931    28923    28926    28931    28925    28918    28919 
   28919    28917    28915    28914    28912    28908    28899    28896 
   28895    28890    28888    28883    28871    28868    28867    28863 
   28860    28853    28845    28846    28850    28846    28845    28846 
   28842    28848    28853    28841    28837    28837    28834    28840 
   28857    28872    28867    28853    28860    28875    28885    28899 
   28911    28917    28915    28896    28881    28894    28904    28900 
   28898    28910    28948    29003    29069    29111    29103    29088 
   29101    29145    29200    29227    29216    29172    29069    28954 
   28948    29042    29091    29041    28953    28858    28782    28782 
   28841    28888    28926    28965    28984    29015    29068    29089 
   29050    28961    28879    28872    28911    28898    28813    28713 
   28638    28560    28526    28679    28921    28987    28895    28799 
   28736    28760    28825    28826    28814    28841    28872    28930 
   29026    29006    28760    28447    28294    28375    28556    28630 
   28621    28642    28644    28547    28381    28240    28212    28243 
   28225    28243    28350    28289    27911    27518    27429    27615 
   27877    28070    28162    28155    27965    27621    27437    27610 
   27953    28213    28287    28263    28332    28514    28584    28422 
   28192    28020    27922    27982    28231    28570    28823    28709 
   28308    28102    28147    28223    28359    28458    28445    28570 
   28880    29265    29573    29466    29068    28958    29222    29602 
   30025    30300    30233    30069    30024    29916    29866    30195 
   30572    30584    30412    30200    29992    30115    30573    30793 
   30554    30269    29995    29552    29331    29479    29562    29598 
   29683    29505    29336    29430    29196    28601    28204    28152 
   28441    28760    28715    28579    28526    28398    28351    28493 
   28703    28838    28753    28675    28923    29230    29251    29042 
   28590    28067    28046    28551    28962    28984    28868    28877 
   29000    29087    28931    28539    28260    28378    28813    29393 
   30021    30384    30242    29925    29511    28802    28370    28532 
   28783    29223    29925    30141    29736    29191    28759    28715 
   29010    29208    29335    29542    29498    29220    29127    28992 
   28572    28186    27841    27463    27398    27745    28158    28413 
   28615    28792    28784    28884    29319    29543    29565    29991 
   30604    30924    30824    30439    30141    29961    29922    30121 
   30007    29605    29299    28340    27129    27280    28108    28092 
   27731    27869    28121    27950    27826    28120    27927    27028 
   26400    26280    26604    27216    27170    26592    26503    26481 
   26406    26947    27211    26811    27040    27854    28058    27449 
   26898    27369    28844    30346    31079    31159    30933    30129 
   28846    27972    27796    27903    27955    27935    28479    29860 
   30458    28948    27014    26581    27081    27810    28633    28952 
   29355    30558    31531    31976    32217    31434    29990    29398 
   29590    30010    30700    31401    31573    30798    29925    30348 
   31278    31087    29844    28906    29400    30246    29898    29559 
   30420    31410    31461    30642    30130    30723    31074    30326 
   29767    29849    29843    29706    29876    30715    31513    31320 
   30817    30183    28813    27454    26778    27305    29143    29975 
   28887    27878    26931    25375    24417    24073    23949    24565 
   25199    25722    26962    27738    27650    28073    28564    28416 
   28350    28594    28845    28837    28659    29066    30284    31714 
   32863    33068    31869    30144    28914    27993    27098    26862 
   27880    29602    31193    32760    34047    33176    29569    26052 
   25390    27220    29596    31386    32476    32622    31527    29868 
   28352    26866    26253    27526    29436    30724    31083    29785 
   27985    27318    26646    26064    27630    30439    31652    30915 
   30387    30893    30839    29538    27889    27112    28286    30384 
   31530    32224    32468    30743    28306    27189    26828    27036 
   28023    28624    28908    29933    30662    30019    29635    30578 
   30958    30167    30234    31072    30998    30541    30604    30620 
   30100    29297    28611    28036    27741    28125    28389    28104 
   28422    29322    30090    31144    31588    29743    27297    26873 
   27592    28351    29910    31326    31232    30755    29968    27546 
   25168    24582    24827    25780    27357    28220    28296    28364 
   28884    29867    30626    30819    30284    28404    26264    26258 
   27800    28665    28927    28899    28394    28485    29131    28815 
   27913    27508    27072    26905    27943    29138    30138    31689 
   32112    30469    29350    29737    29455    28152    27816    29178 
   31148    32213    31946    30963    29562    28593    29107    30510 
   31741    32255    31774    30701    29363    28035    27553    27702 
   27683    27884    28503    28965    28630    27341    26424    26512 
   26221    25586    25801    26458    27159    28401    29585    29405 
   28163    27072    26469    26774    28494    30469    31476    31999 
   32007    30800    29547    29864    30978    31220    30785    30528 
   29754    27877    26001    25114    25034    25509    26916    28872 
   29297    27764    26839    26902    26204    26077    28048    30348 
   31503    31444    30516    29980    29890    28822    27403    27091 
   27369    28000    28973    29115    28892    29457    30279    31121 
   31540    30700    29631    29241    29069    29748    31719    33029 
   32039    29972    28860    28935    29003    28576    29038    30686 
   31415    31324    32022    32578    32472    32598    32185    30410 
   28294    26808    26104    26505    28139    30168    31355    30827 
   28425    25396    24021    25130    27190    29026    30904    31793 
   30203    27796    26878    27180    28266    29970    30559    29516 
   28782    28795    29219    30825    32235    31407    29725    29281 
   29895    30905    31978    32013    30618    28526    26195    24879 
   25632    27288    28641    29381    28779    26850    25450    25942 
   27544    29390    31302    32567    32800    31936    29501    26418 
   24671    24849    26210    27664    28621    29261    29309    28363 
   27349    27108    27087    26947    26866    27014    28475    31893 
   35083    35502    33843    32948    34133    35137    33637    31423 
   30549    29585    27953    27526    28348    28478    26790    24376 
   24021    25914    27548    28953    30469    29947    27869    26831 
   27217    28783    31139    33151    34080    33739    32208    29863 
   28692    29403    28436    25011    22600    22148    22881    23904 
   23985    23588    22947    20984    18607    18108    20254    23896 
   26515    27392    28782    30651    30819    30118    30396    30474 
   28647    26497    27260    31310    35047    35584    34659    34276 
   32991    29990    27483    27421    28416    28420    28887    30784 
   31606    30770    30025    29574    29494    29597    29123    29481 
   30653    30132    29097    29841    30982    30538    28379    26842 
   28077    29710    29118    28084    28047    27357    25635    25432 
   28040    32062    35784    37249    36251    35001    33029    29563 
   27703    28679    30418    31203    29851    27220    24884    22071 
   19745    20806    24196    26435    25731    23032    21876    24069 
   27754    31434    34857    36798    35851    32814    30096    28826 
   28567    29243    30472    30705    29586    27708    25029    23112 
   23363    24063    24520    25343    25504    25744    27637    28872 
   28440    29767    33235    36730    40451    41963    38254    32429 
   27967    25547    25787    27372    28463    29164    29324    28849 
   28413    27627    26055    24409    22878    22214    24648    30048 
   35083    36489    33729    29902    27525    26025    25593    26673 
   28355    30825    32888    31984    29623    28375    27523    26318 
   25246    24376    24119    24745    25936    28375    31955    34651 
   34400    30888    27406    26352    26049    25986    26067    25205 
   24548    24468    24052    24564    25616    24034    19962    17123 
   17752    20875    24035    26505    28607    28321    25050    22235 
   21685    22743    24900    25951    23544    18777    14489    12775 
   13593    14882    16818    21354    25713    25879    23846    21965 
   19728    19224    22149    25627    26632    25095    22534    20039 
   17824    16830    18085    20383    22424    24287    25313    25434 
   25600    26331    28123    29582    28651    26994    27646    31348 
   36613    39618    37709    32595    26759    22981    24773    31752 
   39417    42557    39888    37029    38176    40224    40876    42093 
   43515    42511    39704    37439    37305    39440    40722    40103 
   40080    39476    36852    35143    34912    35031    37828    42078 
   43969    44805    43605    39499    39220    43738    46233    44887 
   41910    38338    33828    29380    28385    30726    31882    29980 
   27618    26765    26723    27734    29376    28493    25517    23364 
   21925    21882    23360    22593    19712    17562    13436     7389 
    5829     9474    15012    21213    23846    20869    17937    17964 
   18337    17992    19194    23947    29527    32954    34886    34565 
   32090    29938    27561    25327    25933    28773    32890    36435 
   35077    30628    27827    25813    24621    26877    31849    36649 
   38848    38084    36024    34119    34342    38256    44055    49203 
   53774    57183    56910    54020    52141    50846    48070    46153 
   47606    49119    47245    43324    39128    34820    30653    27378 
   25930    26982    29107    28919    27639    29209    30580    28657 
   26850    27072    29293    32331    32552    30850    31218    31985 
   29631    24659    18087    10659     5043     3858     6844     9757 
    9394     7033     4113     3087     6705    12239    15612    16603 
   16343    15388    14650    15480    17192    17196    14516    11223 
    9911     9795     9629    11677    15799    17780    18009    20578 
   25292    29866    32710    33647    35718    39067    40419    40139 
   39962    39202    36288    31529    28287    29481    33453    35930 
   35653    33967    31128    28522    29555    34622    40857    46141 
   48244    46533    44525    42522    38148    34759    34446    33933 
   33404    34642    36688    38734    38581    34913    31475    30827 
   31082    30106    27568    25389    25906    27561    26936    25269 
   25045    24829    23980    23603    23903    26165    30474    34024 
   36285    38426    40042    41158    41048    37937    32714    27148 
   22717    20506    18719    17136    18094    20271    21631    22295 
   21733    20632    20846    23097    27414    31477    32413    30447 
   26391    21945    20656    23461    28740    34223    36965    36424 
   33677    28526    23588    23390    27051    31224    35201    37381 
   36178    33539    30963    29531    32013    36875    39361    39779 
   39773    37068    31324    25776    22671    23071    25988    28386 
   29249    29083    27081    22492    17238    15815    20304    26784 
   31837    36251    37814    33648    28092    25203    24413    27032 
   33164    38396    39869    38032    34322    30735    28648    27845 
   28382    31604    36882    40277    39395    36194    33354    31401 
   30119    30493    32950    35091    35194    34854    34649    33440 
   33088    35067    36709    36995    36379    33154    28317    25951 
   26684    27635    27838    28773    30238    30661    29952    28695 
   26343    22084    18103    18090    20582    20713    18516    17266 
   17262    17863    19010    20575    23585    26870    26806    23581 
   20819    20930    24366    29502    33161    34064    33188    31406 
   30283    31591    34716    37822    40034    40593    39110    37193 
   35637    33562    32510    34268    37033    38078    36748    34553 
   32177    28625    25462    25886    29214    32329    34202    35016 
   35390    36969    39576    41486    42122    40366    35622    30350 
   26794    24605    22883    22125    21982    19379    14467    11830 
   12359    13987    16279    18800    22426    28803    35141    37764 
   37921    37168    34294    29662    26014    25465    27261    28748 
   29049    28401    26584    24241    21667    19479    19916    21853 
   21420    19399    18632    18993    20505    23056    24881    25821 
   26674    27565    28818    30746    33224    34075    31423    27336 
   23407    19953    19268    21751    25515    30717    36656    40161 
   41524    43889    47310    50515    53190    54028    51979    47556 
   42272    37937    34102    29668    26288    24421    21400    16000 
   10260     7592     9036    11735    13387    15219    19151    24344 
   28085    29902    31931    35394    38693    39220    37142    35399 
   35488    34807    30447    24991    21836    18615    13435     9597 
    9626    12251    15083    17379    20413    24143    27129    29392 
   31985    36182    40741    42390    41516    40018    38263    37157 
   37409    39096    41073    41547    40795    39577    38086    37003 
   37023    38223    39245    37971    33366    27367    24759    26879 
   29235    29756    30569    31772    32593    32819    31004    27859 
   25794    24086    21671    20961    23330    26100    27361    27391 
   26667    26728    27815    27537    26005    25594    25058    22432 
   20499    21753    24609    28305    33435    37524    37794    36051 
   34920    34769    35479    35417    33150    29995    26676    23047 
   20046    18902    19878    21234    22114    23109    22869    21982 
   23646    26681    27996    28170    28555    29635    32139    34658 
   34375    32429    31877    32192    32806    35105    38260    40668 
   42034    41469    38491    34420    30867    28607    27257    25663 
   23922    23148    22871    22308    22050    21583    19672    17304 
   15643    14439    14782    17560    19518    17500    13328     9567 
    6656     4758     3821     5042     9958    16252    21093    25176 
   28807    30820    31521    32251    34068    36462    37304    36205 
   34695    33732    33866    34399    33943    33492    33758    33654 
   34518    36832    37183    35001    33099    33176    35500    38342 
   40576    43494    46395    46973    45513    43569    40660    35584 
   29961    26603    25710    25585    24757    23094    21450    20029 
   19259    20777    24370    27610    29852    31351    31170    29664 
   27958    25752    23311    21821    20652    18480    16552    16116 
   15697    15489    17491    20702    23510    25678    26144    24607 
   22508    21249    21394    22211    22690    23602    25470    25505 
   22561    20965    22164    22480    22241    24151    26981    29830 
   33169    34769    33565    32143    31279    30298    30916    33563 
   35868    36968    37446    36871    34875    32784    31949    31757 
   31232    30597    30003    28786    27287    27141    28111    27862 
   26145    25918    28267    30099    29914    30087    32656    37731 
   43432    45850    42765    37308    33466    30468    27349    25745 
   24894    24318    26856    31101    32282    30667    29247    29612 
   32174    35036    35899    35056    33110    29313    24472    21591 
