Origin Time       2025/01/13 21:19:00
Lat.              31.8
Long.             131.6
Depth. (km)       30
Mag.              6.9
Station Code      MYZH08
Station Lat.      32.2132
Station Long.     131.5309
Station Height(m) -145.9
Record Time       2025/01/13 21:19:40
Sampling Freq(Hz) 100Hz
Duration Time(s)  222
Dir.              2
Scale Factor      2940(gal)/6170270
Max. Acc. (gal)   20.269
Last Correction   2025/01/13 21:19:25
Memo.             
[...]
  238586   238584   238585   238587   238587   238585   238584   238584 
  238584   238585   238586   238584   238582   238583   238584   238585 
  238585   238585   238585   238585   238585   238585   238586   238585 
  238583   238585   238584   238582   238585   238587   238583   238582 
  238583   238584   238585   238586   238585   238583   238582   238582 
  238581   238583   238586   238586   238583   238581   238582   238584 
  238583   238585   238587   238585   238584   238585   238584   238582 
  238582   238584   238585   238584   238584   238582   238582   238584 
  238582   238582   238584   238584   238584   238583   238581   238583 
  238582   238581   238584   238585   238583   238585   238585   238585 
  238585   238584   238581   238583   238584   238584   238586   238587 
  238583   238583   238586   238585   238583   238584   238584   238584 
  238585   238585   238583   238584   238584   238584   238584   238585 
  238584   238584   238584   238583   238583   238585   238585   238582 
  238581   238584   238585   238584   238583   238585   238585   238584 
  238584   238583   238582   238583   238582   238582   238584   238584 
  238585   238585   238584   238585   238585   238586   238587   238585 
  238584   238584   238584   238585   238586   238585   238585   238585 
  238583   238583   238586   238585   238584   238586   238586   238584 
  238583   238582   238581   238583   238582   238580   238580   238581 
  238581   238579   238581   238580   238578   238579   238578   238579 
  238585   238587   238586   238589   238591   238592   238594   238596 
  238599   238598   238590   238580   238573   238564   238561   238576 
  238599   238613   238611   238604   238605   238595   238571   238542 
  238512   238508   238529   238573   238648   238688   238650   238596 
  238566   238569   238615   238675   238706   238704   238671   238626 
  238581   238534   238478   238403   238345   238390   238555   238736 
  238801   238730   238593   238461   238386   238403   238496   238594 
  238623   238601   238565   238505   238445   238452   238533   238623 
  238670   238710   238766   238786   238764   238727   238662   238619 
  238636   238642   238620   238616   238591   238510   238445   238435 
  238468   238559   238683   238734   238670   238600   238584   238548 
  238510   238512   238490   238444   238463   238579   238733   238803 
  238713   238536   238418   238411   238456   238515   238581   238659 
  238776   238854   238707   238368   238104   238073   238261   238615 
  239024   239287   239178   238780   238472   238342   238300   238347 
  238343   238244   238222   238251   238239   238215   238223   238243 
  238221   238288   238556   238825   238959   238956   238781   238555 
  238432   238434   238533   238685   238736   238541   238343   238510 
  238872   239090   239097   238809   238369   238247   238508   238822 
  238958   238756   238269   237932   238130   238751   239240   239225 
  238987   238907   238967   238948   238619   238130   237867   237751 
  237736   238080   238579   238793   238618   238342   238323   238479 
  238700   239055   239280   239164   238827   238437   238346   238683 
  238910   238752   238625   238690   238792   238992   239155   238964 
  238650   238626   238803   238982   239175   239322   239208   238852 
  238517   238293   238330   238704   238909   238895   239166   239468 
  239322   238888   238513   238244   237949   237945   238512   238997 
  238895   238607   238466   238391   238321   238340   238512   238749 
  238884   238850   238973   239432   239605   239224   238780   238224 
  237458   237181   237556   237854   237879   238161   238716   238899 
  238739   238600   238101   237500   237748   238410   238643   238814 
  239371   239885   239724   239233   239204   239221   238726   238369 
  238522   238752   238693   238362   238462   239189   239549   239317 
  239110   238856   238433   238262   238578   238914   238708   238317 
  238333   238486   238250   237819   237885   238503   239093   239360 
  239144   238459   237913   237929   238347   238846   238917   238514 
  238376   238644   238851   238977   238881   238318   237817   237734 
  237561   237204   237271   237823   238074   237834   238016   238807 
  239340   239220   238476   237488   236978   237185   237887   238175 
  237293   236417   236829   237957   238810   238961   238655   238656 
  239255   240095   240875   241623   242094   241705   240363   238436 
  236804   236574   237502   238292   238530   238571   238411   238184 
  238537   239513   240331   240486   240296   240037   239164   237967 
  237782   238366   238861   239492   239759   239213   238702   238338 
  238063   238619   239410   239211   238709   239079   239582   239016 
  237795   236869   236672   237239   238131   239169   240397   241320 
  241539   240821   239398   238747   239091   238832   238112   238131 
  238603   238897   238767   238142   237424   236986   236985   237481 
  238316   239074   239576   240261   241159   241939   242247   241483 
  240086   238803   237620   236895   236881   237148   237106   236824 
  237548   239219   239943   239652   239597   239524   239048   238621 
  238008   236996   236452   236885   238066   239548   240485   240241 
  238964   237635   237380   237911   238232   238293   238313   238613 
  239119   238697   237522   236858   236554   236186   235956   236010 
  236139   235920   236103   237573   238946   238881   238659   239642 
  240730   240360   238883   237766   237705   238212   238796   239095 
  238991   239293   239947   240112   240124   240052   239694   240111 
  241216   241064   240041   240201   240547   239613   238384   237524 
  237888   240468   243316   243795   241761   238557   235809   234514 
  234642   235837   237066   237067   236380   236302   236711   237287 
  238218   238847   238374   237574   237423   237368   237548   238637 
  238892   237845   237926   238556   237657   236109   234499   232604 
  231772   232843   235347   238570   241269   242422   241898   240367 
  238992   238088   237186   236597   236963   237577   237569   237785 
  238832   239861   240406   240694   240928   240798   240155   240091 
  240687   240638   240392   240755   240225   238047   236525   237047 
  238002   238195   238068   238279   239041   239680   239317   237974 
  236731   236586   236744   236220   235844   235738   234990   234726 
  235984   237337   238099   238780   238992   238769   238885   239094 
  238950   238830   239083   239689   239933   239292   238332   236972 
  235435   235032   235385   235931   237376   238931   239190   238887 
  239770   241334   241241   239655   238882   239075   239239   240011 
  241480   242154   241415   239804   238051   236809   236475   236961 
  237455   237697   238539   240014   241303   241952   241810   241086 
  239956   238619   238119   239254   241424   243086   242720   241015 
  240192   239773   237994   235329   232904   231976   233437   235456 
  236295   236887   237462   237711   239166   241548   242234   241292 
  240484   239932   239334   238383   237146   236757   236775   236034 
  235483   235564   235668   236219   237130   237780   238336   238805 
  238920   238602   238300   238138   237377   236660   236806   236882 
  236787   237215   238024   239413   241569   243264   243290   242213 
  241260   240885   241189   241795   242178   242631   242671   241325 
  239234   237655   237598   239073   240777   241567   240895   239839 
  240122   240793   240535   240504   241480   241867   240293   237744 
  234932   232407   232540   234609   235637   236482   238147   239864 
  241495   242433   242474   241449   238775   235943   234344   233521 
  233580   234668   236124   237736   239358   240686   241458   241138 
  240259   239509   237707   234705   232415   231955   233680   237082 
  239917   240971   241243   241322   240925   240004   238772   238421 
  240090   241935   241542   239847   238871   239210   240341   241058 
  240846   240679   241115   240954   239508   237468   235308   233673 
  233297   234143   235585   236723   236919   236097   234764   233315 
  232310   233131   235360   236427   235882   235595   235757   235216 
  234726   235559   237100   239042   241520   242765   242132   241784 
  243014   245226   246390   245153   243855   244344   245345   246101 
  245922   244625   243959   243907   243889   244784   245227   243911 
  242390   241611   241589   241795   241300   241060   242130   243765 
  244932   245684   246951   247386   244843   240840   237695   236167 
  235860   235163   234213   233997   233949   234304   235443   237188 
  239786   242512   244655   245727   245018   244005   244110   244619 
  245219   245765   246517   247585   247084   245558   245437   245825 
  246383   248421   251160   253282   254157   254178   254689   256153 
  258099   259184   258543   257098   254561   249911   245438   244245 
  245215   245660   246441   248739   250535   250254   248158   245053 
  241963   239407   238275   238817   239265   238583   236810   234472 
  232926   231920   230886   230838   231514   232605   235225   238487 
  239942   239045   237621   237233   237243   236751   235543   233662 
  232443   232525   232787   233343   234705   235681   235558   235353 
  235846   236465   236513   236335   236954   239076   242755   247069 
  250413   252445   253239   251735   249000   247868   248305   248812 
  249401   249710   248252   245043   241488   238585   237560   238375 
  238649   237585   236176   234378   232416   230585   227590   222507 
  215989   209207   203963   202790   206904   214334   221416   225874 
  227798   228759   230759   234840   239289   241031   240068   239049 
  239338   240611   241892   242879   244516   247055   249781   251637 
  250815   246365   239416   231859   225699   222129   220433   220060 
  221305   223709   226808   230250   233765   237728   241389   244339 
  247841   250458   249579   246270   242447   238914   236448   235352 
  236391   239617   242563   243680   243501   242324   241130   241076 
  241671   242329   242412   241196   239609   237807   234428   229858 
  225380   222379   222337   224443   226575   226868   224627   221251 
  217166   212490   209801   210158   211982   215118   220336   225853 
  229109   230994   233799   238739   247055   257719   266710   270471 
  267458   259136   249163   240045   231952   223813   215582   209173 
  206596   208276   213068   219715   227256   234659   242155   249976 
  256114   258844   257782   252653   245365   239148   234647   231154 
  228732   227342   227065   228774   232754   237893   242853   246462 
  247757   246017   240582   233033   227099   225008   226879   231188 
  235681   239446   242508   244617   244745   242546   239572   237059 
  236087   236913   236614   233695   229105   222270   214465   208867 
  205973   205475   207523   211163   215514   221365   228438   233054 
  234235   235738   239633   245188   249412   249256   246593   243522 
  238958   235070   234415   233604   229864   225137   221313   219070 
  220067   226029   234203   238546   237957   236622   237247   238610 
  238585   237930   239082   242502   246098   248865   252283   254619 
  253230   250364   246545   241609   239080   238455   237590   237522 
  238236   239696   240020   236464   233464   235673   240087   244980 
  252628   260544   264233   265317   265797   264002   259754   254618 
  249637   244189   237416   231827   230761   233518   236285   238413 
  243341   249714   251711   249291   247027   246320   244451   239132 
  233832   234219   238583   240983   241196   241409   240325   238534 
  239264   241024   240191   237903   235934   232869   230062   231504 
  237045   243554   247869   248974   249905   251527   251546   251793 
  253487   252996   251129   251638   252565   251225   248084   244009 
  240249   237324   234851   232812   231054   230487   232725   237824 
  245071   252964   258606   260681   259260   252755   242571   235116 
  232171   230463   229498   228939   228025   228173   228011   225369 
  221670   216643   209711   205606   207951   214851   223877   231931 
  236193   239201   243131   244356   241050   237077   236416   239714 
  244292   246459   245342   242471   238646   233905   228579   222419 
  215858   212388   213953   217562   222105   228961   235961   240974 
  244203   245891   247738   249059   246472   242380   240775   239592 
  237405   236595   237760   239804   242845   247799   253854   257090 
  255903   253830   252505   251677   253253   256521   259081   261511 
  263667   263393   259856   255230   252469   251207   250156   249467 
  248660   247724   247101   246804   247092   246601   243734   240195 
  239006   241119   244086   244648   243924   244887   246549   247257 
  246696   242475   234519   228116   226502   227407   228616   232108 
  239333   246130   248379   248142   249037   249896   247822   244485 
  243416   244645   246256   246786   245283   241626   237800   236848 
  238450   239783   239562   237726   235229   233495   232753   233862 
  238163   243995   248623   251472   252232   250848   249092   247885 
  246405   244042   240622   237906   238434   240947   243010   244224 
  244145   244001   246345   249648   250211   247595   243578   239790 
  237843   238430   239995   239120   233053   223094   213045   204905 
  199197   196251   196048   198535   203168   209379   216614   222581 
  225235   226137   228386   232316   235530   236795   236968   236119 
  232932   227475   222539   220424   219972   219238   219200   222147 
  227380   231804   234770   237367   238617   237961   237601   239204 
  241600   243053   244406   247194   250229   251178   248730   243817 
  239062   233942   225984   216694   208509   201658   198085   200450 
  207481   215763   223888   232704   243134   253897   262283   267132 
  268562   267099   264800   263125   261103   259093   259181   261031 
  262677   262494   258981   252057   243572   236597   233027   230673 
  227065   224038   224329   228363   235085   242462   249172   254892 
  258751   260234   259136   255073   248363   239707   230768   223840 
  219422   216459   213847   210841   207284   204276   204187   207591 
  212282   217715   225070   232926   239122   243809   247433   250645 
  255004   259881   262587   262913   263546   265396   266238   264792 
  261527   256824   252021   248511   246128   244938   245453   247084 
  248884   251144   254809   259224   262368   263640   264254   264931 
  265165   264373   263408   264196   266004   266426   266851   269078 
  269941   266485   260274   253906   249000   245980   243379   239804 
  235050   229464   224438   221178   219388   218495   217635   215848 
  213944   213180   213662   215665   218663   221178   223537   226853 
  231033   235513   239460   241858   242620   243426   245740   247799 
  247178   244484   240896   236384   232462   231882   234555   237392 
  238907   240927   244156   245945   244346   240329   235916   232077 
  228530   225767   224593   224048   223126   222326   222122   222667 
  224683   228161   231757   234692   236448   236044   234284   233528 
  234773   237125   238616   238057   237481   238953   240422   240245 
  239526   237209   231463   223919   217420   213862   213815   216061 
  219840   225392   231479   236193   239055   240563   241551   243474 
  246968   249279   247391   243099   239401   236333   233134   229056 
  224161   220204   217879   216315   215235   215719   218572   222276 
  225384   228077   229936   230621   230701   230815   231995   234456 
  236619   237372   237886   239924   243419   247280   250819   253076 
  252960   250163   245108   239455   236327   237042   238680   238151 
  235667   232296   228161   223701   220909   222422   228478   236513 
  244606   251885   255437   252801   246776   241631   239071   240774 
  246959   253928   257946   257832   254859   251904   249541   245934 
  241509   238946   240375   246118   253348   257282   255471   249848 
  244472   241762   241052   240789   240781   241147   241324   241178 
  241052   240862   240200   239304   238895   238501   237677   237868 
  239323   240045   239602   238795   237448   236169   235982   236198 
  236223   235821   233901   231319   230760   232841   236677   241452 
  245716   248252   248753   247293   245043   243411   241473   237509 
  232720   230364   231984   236213   240622   243394   243430   241317 
  239751   240593   243242   246006   246909   244887   240868   236529 
  233036   231027   231243   234464   238922   240473   237936   233766 
  229430   225078   221369   218737   217204   216639   216439   216711 
  218301   220659   222906   225748   229502   233106   235750   237015 
  236170   233189   229611   226122   220943   213321   205976   202507 
  205000   213219   223747   231904   235510   235750   234700   233553 
  233538   235561   239073   243540   248592   252824   254884   254600 
  253024   251537   250217   248780   248588   250443   252283   252239 
  250940   249254   247255   245708   245916   247864   249696   249831 
  248879   248219   247636   246023   243585   241705   241504   243458 
  247152   251172   254191   256075   257068   256191   252215   246267 
  241667   240308   240774   240832   239548   237236   235329   235210 
  237075   240083   242793   244818   247242   249574   249547   246932 
  243457   239918   236348   233136   231299   231993   234753   237808 
  240318   241879   242180   242685   244906   247674   248897   247955 
  244988   239817   232823   225484   219466   216114   215811   217459 
  220096   223929   228646   232925   236008   237967   239264   240551 
  241844   243006   244975   249259   256680   265748   272937   276592 
  278050   277936   274847   268308   259950   251152   242158   233319 
  225812   221496   221268   224103   228326   232289   234805   236085 
  236889   236657   234157   230011   226553   225437   227336   233148 
  242455   252043   259103   262959   262914   259078   253707   248584 
  243757   239081   235092   233159   234170   236881   239423   240845 
  240063   236057   229575   222647   216726   212341   209382   207842 
  208929   213429   219738   225866   231102   234740   236216   236201 
  235422   234262   234044   235770   238584   241256   242829   242643 
  241722   241890   243431   245301   246389   246112   244386   241421 
  238212   235934   234497   233380   232612   231994   231491   232069 
  234353   237362   239589   240362   240182   240291   241184   242219 
  243146   244162   244915   244889   243787   241585   239013   237068 
  235876   234808   233381   231871   231159   231490   231835   231450 
  230751   229835   228378   227112   227003   227888   229382   231260 
  232835   233741   234654   236332   238691   240968   242402   242891 
  242807   241981   239326   234073   227568   222753   221443   223587 
  228426   234641   240587   245089   247349   246947   244041   239355 
  234665   232003   232152   234569   237802   240678   243037   244999 
  246966   249412   252007   253851   254318   253568   251926   249373 
  246551   244875   244956   246113   247634   249488   251627   253692 
