Origin Time       2025/01/13 21:19:00
Lat.              31.8
Long.             131.6
Depth. (km)       30
Mag.              6.9
Station Code      MYZH09
Station Lat.      32.0421
Station Long.     131.0618
Station Height(m) 335
Record Time       2025/01/13 21:19:42
Sampling Freq(Hz) 100Hz
Duration Time(s)  120
Dir.              6
Scale Factor      7845(gal)/8223790
Max. Acc. (gal)   7.510
Last Correction   2025/01/13 21:19:42
Memo.             
[...]
  -12376   -12141   -12136   -12243   -12307   -12075   -11654   -11381 
  -11411   -11836   -12575   -13392   -14135   -14571   -14494   -13991 
  -13215   -12289   -11426   -10843   -10511   -10247   -10080   -10153 
  -10458   -11040   -12042   -13313   -14536   -15554   -16248   -16457 
  -16143   -15493   -14804   -14176   -13521   -12862   -12302   -11788 
  -11226   -10692   -10265    -9923    -9798   -10046   -10466   -10995 
  -11813   -12730   -13601   -14596   -15480   -15857   -15786   -15411 
  -14723   -13845   -12985   -12312   -12048   -12132   -12178   -12037 
  -11827   -11580   -11310   -11168   -11205   -11187   -10997   -10747 
  -10489   -10281   -10301   -10677   -11260   -11682   -11861   -11989 
  -12071   -12193   -12536   -12847   -12941   -13061   -13205   -12991 
  -12353   -11767   -11674   -12118   -12892   -13616   -13929   -13790 
  -13494   -13373   -13424   -13385   -13069   -12447   -11655   -11028 
  -10841   -11118   -11574   -11858   -11956   -12054   -12206   -12403 
  -12621   -12927   -13382   -13834   -14022   -13775   -13176   -12447 
  -11767   -11279   -11049   -11025   -11306   -12204   -13535   -14840 
  -16067   -16896   -16846   -16129   -14968   -13425   -11884   -10652 
   -9857    -9498    -9439    -9791   -10597   -11514   -12303   -12838 
  -12977   -12907   -12992   -13456   -14220   -14724   -14532   -13861 
  -13030   -12131   -11205   -10368    -9915    -9998   -10354   -10581 
  -10463   -10187   -10126   -10374   -10832   -11524   -12388   -13197 
  -13867   -14492   -15072   -15340   -15075   -14547   -14215   -14165 
  -14187   -14219   -14343   -14419   -14196   -13726   -13286   -12939 
  -12509   -12024   -11720   -11659   -11782   -12073   -12420   -12731 
  -13127   -13603   -13876   -13860   -13744   -13682   -13714   -13774 
  -13765   -13512   -12849   -11998   -11233   -10492    -9969    -9992 
  -10336   -10808   -11658   -12814   -13587   -13454   -12711   -12020 
  -11619   -11566   -11790   -11970   -12183   -12604   -12924   -13050 
  -13042   -12688   -12106   -11739   -11738   -12106   -12757   -13355 
  -13736   -13911   -13780   -13347   -12820   -12461   -12386   -12418 
  -12459   -12754   -13386   -13965   -14355   -14748   -14955   -14766 
  -14284   -13420   -12141   -10771    -9749    -9483    -9780   -10095 
  -10443   -10804   -10918   -11090   -11637   -12414   -13254   -13956 
  -14181   -13832   -13074   -12083   -11038   -10133    -9652    -9848 
  -10497   -11010   -11138   -11225   -11445   -11562   -11659   -12074 
  -12766   -13491   -14179   -14731   -14929   -14751   -14339   -13826 
  -13432   -13207   -12823   -12243   -11952   -12222   -12897   -13707 
  -14353   -14697   -14705   -14327   -13660   -12796   -11819   -10864 
   -9922    -9120    -8893    -9435   -10258   -10700   -10747   -10787 
  -10975   -11252   -11484   -11708   -12175   -12815   -13370   -13764 
  -13864   -13586   -12957   -12093   -11484   -11449   -11735   -12094 
  -12349   -12386   -12260   -12006   -11855   -12159   -12792   -13439 
  -13968   -14335   -14638   -14886   -14885   -14642   -14272   -13738 
  -13030   -12232   -11387   -10480    -9678    -9262    -9217    -9483 
  -10230   -11433   -12872   -14459   -16020   -17221   -17820   -17712 
  -16987   -15889   -14600   -13123   -11530   -10160    -9370    -9186 
   -9451   -10102   -10889   -11523   -12094   -12595   -12908   -13212 
  -13613   -14058   -14536   -14960   -15176   -14987   -14243   -13100 
  -12012   -11395   -11383   -11786   -12286   -12668   -12737   -12402 
  -11902   -11491   -11277   -11377   -11699   -12056   -12307   -12237 
  -11935   -11835   -12117   -12738   -13610   -14353   -14663   -14685 
  -14503   -14148   -13826   -13470   -12943   -12371   -11632   -10654 
   -9890    -9614    -9744   -10366   -11398   -12483   -13481   -14183 
  -14323   -14011   -13456   -12702   -11786   -10909   -10339   -10147 
  -10324   -10894   -11715   -12518   -13104   -13428   -13670   -14002 
  -14382   -14712   -14868   -14719   -14335   -13888   -13363   -12726 
  -12025   -11311   -10758   -10552   -10751   -11307   -11950   -12356 
  -12491   -12467   -12456   -12576   -12617   -12344   -11881   -11427 
  -11032   -10716   -10590   -10655   -10791   -11007   -11257   -11423 
  -11618   -11983   -12459   -12916   -13301   -13551   -13564   -13378 
  -13130   -12914   -12831   -12915   -13009   -12946   -12753   -12526 
  -12291   -12059   -11850   -11711   -11704   -11840   -12077   -12422 
  -12937   -13568   -14007   -14068   -13956   -13784   -13456   -13080 
  -12885   -12918   -13039   -13130   -13203   -13215   -12977   -12519 
  -12171   -12151   -12395   -12791   -13246   -13591   -13695   -13609 
  -13455   -13370   -13508   -13860   -14157   -14129   -13736   -13063 
  -12279   -11661   -11345   -11311   -11507   -11793   -12106   -12492 
  -12850   -13009   -13007   -13049   -13180   -13173   -12928   -12586 
  -12247   -11924   -11591   -11322   -11480   -12222   -13143   -13872 
  -14362   -14528   -14307   -13711   -12846   -12000   -11362   -10883 
  -10432    -9841    -9216    -8935    -9121    -9695   -10523   -11326 
  -11954   -12476   -12927   -13301   -13567   -13764   -14041   -14364 
  -14501   -14415   -14200   -13861   -13370   -12785   -12217   -11705 
  -11271   -10966   -10737   -10578   -10623   -10793   -10916   -11111 
  -11488   -11928   -12420   -13062   -13776   -14389   -14848   -15151 
  -15319   -15446   -15541   -15442   -15029   -14331   -13468   -12629 
  -11983   -11588   -11402   -11292   -11109   -10876   -10732   -10764 
  -11016   -11439   -11971   -12649   -13467   -14293   -14970   -15379 
  -15499   -15408   -15151   -14756   -14256   -13613   -12912   -12316 
  -11766   -11173   -10605   -10125    -9786    -9676    -9794   -10111 
  -10663   -11396   -12267   -13336   -14484   -15439   -16083   -16325 
  -16023   -15229   -14211   -13169   -12167   -11315   -10768   -10608 
  -10794   -11241   -11915   -12696   -13513   -14589   -15942   -17134 
  -17821   -17942   -17612   -16957   -15948   -14694   -13486   -12329 
  -11141   -10152    -9545    -9278    -9363    -9860   -10762   -11909 
  -12869   -13308   -13365   -13200   -12787   -12274   -11863   -11599 
  -11569   -11803   -12114   -12312   -12437   -12799   -13478   -14212 
  -14855   -15205   -14882   -13917   -12698   -11461   -10427    -9841 
   -9690    -9814   -10104   -10507   -11063   -11790   -12538   -13076 
  -13321   -13514   -13913   -14420   -14881   -15304   -15554   -15369 
  -14705   -13794   -12887   -11996   -10987    -9865    -8827    -8166 
   -8091    -8631    -9701   -11068   -12398   -13522   -14416   -14964 
  -15075   -14905   -14705   -14415   -13859   -13154   -12522   -12139 
  -12151   -12394   -12521   -12368   -11870   -11110   -10386    -9927 
   -9852   -10197   -10781   -11427   -12154   -12857   -13332   -13462 
  -13144   -12395   -11426   -10443    -9597    -8993    -8662    -8614 
   -8883    -9513   -10435   -11433   -12344   -13123   -13776   -14320 
  -14705   -14824   -14617   -14100   -13375   -12622   -11992   -11531 
  -11232   -11067   -10953   -10952   -11387   -12359   -13482   -14332 
  -14686   -14490   -13984   -13371   -12619   -11893   -11462   -11385 
  -11641   -12197   -13027   -14011   -14770   -15040   -14904   -14449 
  -13722   -12946   -12492   -12621   -13201   -13825   -14145   -14025 
  -13427   -12453   -11465   -10795   -10565   -10905   -11865   -13208 
  -14629   -15870   -16632   -16730   -16194   -15167   -13914   -12746 
  -11865   -11329   -11079   -11070   -11260   -11506   -11728   -12071 
  -12594   -13084   -13432   -13733   -13954   -14013   -13954   -13722 
  -13220   -12623   -12113   -11691   -11410   -11346   -11554   -12110 
  -12930   -13713   -14177   -14223   -13903   -13342   -12700   -12186 
  -11990   -12079   -12189   -12077   -11672   -11114   -10655   -10416 
  -10443   -10862   -11743   -12988   -14297   -15300   -15776   -15614 
  -14864   -13803   -12640   -11499   -10687   -10396   -10490   -10875 
  -11499   -12125   -12510   -12587   -12363   -11877   -11222   -10532 
   -9957    -9598    -9525    -9852   -10675   -11924   -13265   -14233 
  -14503   -14160   -13636   -13180   -12800   -12598   -12641   -12852 
  -13138   -13373   -13385   -13207   -13024   -12892   -12904   -13198 
  -13552   -13639   -13508   -13440   -13522   -13537   -13302   -12980 
  -12834   -12960   -13273   -13560   -13690   -13726   -13639   -13335 
  -13000   -12849   -12775   -12611   -12394   -12258   -12239   -12170 
  -11942   -11731   -11695   -11777   -11830   -11681   -11358   -11101 
  -10974   -10963   -11200   -11553   -11635   -11368   -10978   -10659 
  -10446   -10293   -10246   -10485   -11122   -11974   -12634   -12868 
  -12835   -12796   -12888   -13171   -13506   -13653   -13594   -13369 
  -12978   -12550   -12224   -12094   -12330   -12884   -13425   -13751 
  -13806   -13520   -13076   -12915   -13255   -13950   -14712   -15248 
  -15394   -15213   -14874   -14550   -14463   -14690   -15056   -15434 
  -15824   -16205   -16483   -16482   -16170   -15774   -15417   -15020 
  -14671   -14582   -14688   -14729   -14542   -14126   -13652   -13358 
  -13402   -13697   -13883   -13736   -13437   -13217   -13073   -12996 
  -12962   -12842   -12657   -12603   -12800   -13193   -13675   -14266 
  -14932   -15403   -15430   -14959   -14119   -13081   -11925   -10790 
   -9845    -9180    -8861    -8912    -9278    -9914   -10743   -11524 
  -12021   -12279   -12591   -13096   -13574   -13778   -13657   -13176 
  -12329   -11250   -10050    -8799    -7665    -6902    -6617    -6735 
   -7284    -8337    -9648   -10827   -11708   -12225   -12303   -12098 
  -11928   -11929   -11996   -11966   -11801   -11520   -11057   -10435 
   -9906    -9625    -9537    -9666   -10006   -10300   -10268    -9944 
   -9612    -9541    -9925   -10822   -11958   -12834   -13149   -12933 
  -12403   -11799   -11227   -10642   -10004    -9375    -8799    -8401 
   -8426    -8953    -9872   -11009   -12052   -12792   -13240   -13298 
  -12831   -12056   -11331   -10820   -10638   -10854   -11207   -11384 
  -11344   -11178   -11105   -11286   -11569   -11935   -12577   -13460 
  -14497   -15627   -16528   -16984   -17014   -16518   -15519   -14310 
  -13180   -12388   -12079   -12120   -12363   -12667   -12640   -12005 
  -10944    -9821    -8984    -8680    -8981    -9940   -11456   -13123 
  -14628   -15862   -16561   -16480   -15763   -14813   -14073   -13738 
  -13613   -13513   -13536   -13830   -14407   -15130   -15855   -16457 
  -16727   -16515   -15903   -15064   -14170   -13428   -12934   -12576 
  -12190   -11691   -11256   -11210   -11670   -12528   -13564   -14539 
  -15263   -15537   -15195   -14392   -13482   -12591   -11850   -11588 
  -11722   -11881   -12244   -13038   -13869   -14285   -14126   -13474 
  -12753   -12422   -12580   -13016   -13408   -13624   -13736   -13552 
  -12843   -11765   -10498    -9242    -8495    -8646    -9518   -10612 
  -11616   -12474   -13171   -13644   -13842   -14037   -14455   -14674 
  -14508   -14432   -14530   -14521   -14346   -13829   -12904   -12054 
  -11662   -11608   -11685   -11800   -11911   -11913   -11843   -12013 
  -12523   -13174   -13956   -14855   -15562   -15886   -15881   -15542 
  -15022   -14631   -14320   -13837   -13115   -12291   -11630   -11132 
  -10579   -10088    -9888   -10049   -10567   -11184   -11627   -11893 
  -11965   -11888   -11916   -12100   -12268   -12233   -11784   -11034 
  -10397    -9841    -9094    -8272    -7441    -6513    -5742    -5420 
   -5545    -6095    -7037    -8191    -9296   -10110   -10623   -10913 
  -10952   -10925   -11095   -11326   -11319   -10936   -10146    -9086 
   -8091    -7462    -7344    -7830    -8804    -9953   -11064   -12027 
  -12741   -13223   -13635   -14137   -14625   -14878   -14997   -15169 
  -15186   -14766   -13960   -13026   -12206   -11557   -11067   -10825 
  -10891   -11165   -11491   -11907   -12604   -13590   -14577   -15273 
  -15623   -15635   -15311   -14893   -14575   -14238   -13894   -13612 
  -13163   -12507   -11924   -11595   -11492   -11510   -11745   -12383 
  -13208   -13818   -14188   -14536   -15010   -15639   -16216   -16438 
  -16318   -16000   -15394   -14388   -13178   -12154   -11502   -11165 
  -11113   -11321   -11597   -11734   -11597   -11084   -10346    -9810 
   -9817   -10451   -11527   -12711   -13757   -14439   -14581   -14359 
  -14173   -14223   -14430   -14617   -14708   -14743   -14686   -14431 
  -13980   -13385   -12671   -12075   -11981   -12561   -13716   -15109 
  -16255   -16854   -16958   -16762   -16406   -15859   -15072   -14308 
  -13836   -13500   -13215   -13139   -13217   -13375   -13689   -13969 
  -13927   -13655   -13392   -13220   -13212   -13267   -13063   -12559 
  -11946   -11321   -10831   -10593   -10520   -10512   -10427   -10100 
   -9726    -9736   -10312   -11323   -12486   -13609   -14647   -15538 
  -16163   -16402   -16168   -15515   -14639   -13672   -12762   -12127 
  -11691   -11253   -10813   -10397   -10127   -10173   -10424   -10666 
  -10801   -10818   -10841   -10941   -11037   -11091   -11072   -10798 
  -10154    -9443    -9123    -9246    -9656   -10299   -10876   -10956 
  -10629   -10374   -10498   -11153   -12345   -13863   -15353   -16330 
  -16432   -15673   -14272   -12577   -10968    -9545    -8264    -7231 
   -6563    -6246    -6207    -6409    -6906    -7831    -9221   -10887 
  -12695   -14774   -16996   -18841   -19994   -20429   -20152   -19295 
  -18141   -16999   -16051   -15253   -14540   -14042   -13851   -13917 
  -14260   -14778   -15007   -14685   -14068   -13429   -12924   -12664 
  -12486   -12159   -11678   -11006   -10103    -9205    -8640    -8552 
   -8819    -9130    -9402    -9811   -10363   -10930   -11492   -12106 
  -12841   -13678   -14366   -14582   -14158   -13051   -11508   -10058 
   -9088    -8731    -8943    -9425    -9845   -10075   -10231   -10584 
  -11163   -11934   -13212   -15045   -16954   -18651   -19927   -20352 
  -19913   -18971   -17506   -15483   -13297   -11404   -10246   -10004 
  -10355   -10995   -11746   -12371   -12999   -13945   -15114   -16105 
  -16645   -16794   -16733   -16397   -15630   -14474   -13041   -11433 
   -9771    -8132    -6737    -5980    -6006    -6751    -8079    -9628 
  -11148   -12648   -14014   -15079   -15813   -16236   -16299   -15877 
  -15028   -14008   -12915   -11719   -10577    -9830    -9652    -9910 
  -10459   -11128   -11618   -11828   -11812   -11568   -11287   -11356 
  -11901   -12711   -13473   -13898   -13849   -13396   -12787   -12452 
  -12633   -13170   -13748   -14098   -14085   -13643   -12842   -11888 
  -10929   -10401   -10844   -12097   -13551   -14831   -15755   -16217 
  -16245   -15940   -15256   -14150   -13000   -12280   -12032   -12159 
  -12552   -12918   -13012   -12785   -12293   -11740   -11356   -11259 
  -11507   -11983   -12424   -12648   -12634   -12384   -11826   -11145 
  -10760   -10791   -11168   -11776   -12314   -12563   -12580   -12545 
  -12447   -12101   -11662   -11469   -11454   -11441   -11529   -11797 
  -12178   -12567   -12825   -12877   -12834   -12869   -13151   -13717 
  -14295   -14593   -14629   -14566   -14393   -14040   -13601   -13197 
  -12887   -12607   -12158   -11592   -11083   -10662   -10543   -10922 
  -11658   -12420   -12895   -12999   -12789   -12372   -11942   -11592 
  -11372   -11384   -11610   -12033   -12618   -13204   -13589   -13532 
  -13018   -12309   -11556   -10779   -10135    -9868   -10102   -10754 
  -11547   -12199   -12606   -12776   -12690   -12494   -12413   -12468 
  -12753   -13475   -14482   -15390   -15959   -16079   -15716   -14824 
  -13386   -11796   -10731   -10416   -10598   -11114   -11827   -12460 
  -12834   -12926   -12818   -12710   -12702   -12707   -12725   -12891 
  -13189   -13443   -13483   -13211   -12664   -11974   -11335   -11040 
  -11200   -11661   -12218   -12649   -12780   -12565   -12102   -11674 
  -11515   -11610   -11853   -12172   -12564   -12969   -13259   -13433 
  -13529   -13500   -13277   -12754   -12020   -11497   -11414   -11701 
  -12306   -13043   -13709   -14299   -14631   -14407   -13674   -12712 
  -11827   -11246   -11095   -11469   -12135   -12622   -12879   -13157 
  -13514   -13957   -14554   -15232   -15880   -16348   -16362   -15861 
  -15013   -14034   -13263   -12841   -12556   -12340   -12295   -12303 
  -12289   -12420   -12663   -12853   -12984   -12950   -12691   -12367 
  -12082   -11827   -11529   -11101   -10813   -11074   -11718   -12225 
  -12380   -12081   -11194    -9922    -8677    -7707    -7184    -7257 
   -7901    -8968   -10300   -11770   -13170   -14211   -14840   -15138 
  -15061   -14710   -14266   -13717   -13132   -12657   -12276   -12016 
  -11947   -12019   -12120   -12048   -11661   -11286   -11388   -12013 
  -12928   -13828   -14438   -14771   -14916   -14844   -14736   -14854 
  -15103   -15257   -15256   -14997   -14354   -13490   -12741   -12233 
  -11970   -11983   -12225   -12557   -12881   -13294   -14014   -14985 
  -15882   -16486   -16691   -16474   -15934   -15169   -14264   -13385 
  -12684   -12159   -11878   -11993   -12407   -12818   -13150   -13583 
  -14116   -14462   -14432   -14091   -13675   -13362   -13043   -12696 
  -12480   -12356   -12299   -12329   -12241   -11859   -11138   -10102 
   -9035    -8311    -8073    -8268    -8824    -9580   -10346   -11016 
  -11453   -11585   -11460   -11057   -10455    -9840    -9220    -8637 
   -8370    -8584    -9184    -9998   -10755   -11253   -11685   -12197 
  -12625   -13059   -13744   -14624   -15627   -16654   -17313   -17363 
  -16884   -15931   -14671   -13446   -12457   -11772   -11395   -11263 
  -11288   -11383   -11510   -11674   -11734   -11565   -11326   -11195 
  -11214   -11437   -11800   -12195   -12671   -13216   -13633   -13761 
  -13647   -13471   -13346   -13234   -13144   -13132   -13108   -12992 
  -12856   -12725   -12653   -12780   -13089   -13439   -13794   -14160 
  -14457   -14652   -14854   -15129   -15448   -15742   -15919   -15951 
  -15817   -15441   -14910   -14381   -13942   -13693   -13626   -13689 
  -13855   -14003   -14143   -14419   -14731   -14918   -15016   -15097 
  -15214   -15369   -15415   -15176   -14615   -13778   -12811   -11919 
  -11183   -10531    -9869    -9285    -9008    -9073    -9406    -9996 
  -10763   -11578   -12272   -12654   -12691   -12440   -12010   -11565 
  -11175   -10882   -10806   -10982   -11308   -11681   -12108   -12637 
  -13182   -13582   -13771   -13783   -13622   -13209   -12474   -11649 
  -11109   -10872   -10777   -10708   -10480   -10092    -9752    -9544 
   -9547    -9759    -9967   -10133   -10469   -10999   -11600   -12225 
  -12758   -13041   -13024   -12645   -11979   -11356   -10975   -10814 
  -10835   -10935   -10956   -10928   -10997   -11232   -11612   -12044 
  -12476   -12974   -13620   -14447   -15379   -16201   -16733   -16866 
  -16595   -16069   -15360   -14447   -13414   -12368   -11439   -10786 
  -10409   -10293   -10517   -11107   -11982   -12919   -13582   -13848 
  -13888   -13807   -13578   -13176   -12556   -11761   -10914   -10095 
   -9397    -8861    -8430    -8145    -8131    -8468    -9151   -10046 
  -10979   -11789   -12332   -12538   -12463   -12144   -11562   -10855 
