Origin Time       2025/01/13 21:19:00
Lat.              31.8
Long.             131.6
Depth. (km)       30
Mag.              6.9
Station Code      MYZH04
Station Lat.      32.5181
Station Long.     131.3349
Station Height(m) 150
Record Time       2025/01/13 21:19:46
Sampling Freq(Hz) 100Hz
Duration Time(s)  175
Dir.              2
Scale Factor      3923(gal)/8224838
Max. Acc. (gal)   8.379
Last Correction   2025/01/13 21:19:47
Memo.             
[...]
   75747    76090    76623    76885    77311    78406    79471    79851 
   79897    79721    78950    78093    78001    78208    77886    77554 
   77799    77899    77530    77585    78140    78127    77502    77226 
   77376    77386    77301    77240    76831    76140    75779    75714 
   75358    74830    74731    74935    74822    74335    73957    73940 
   74083    74159    74285    74632    75093    75446    75602    75737 
   76243    77170    77965    78285    78424    78578    78538    78229 
   77954    77940    78089    78290    78482    78516    78475    78618 
   78741    78513    78208    78120    77949    77576    77436    77607 
   77647    77468    77342    77310    77333    77553    77971    78298 
   78286    77974    77588    77221    76742    76094    75443    74893 
   74343    73858    73777    74065    74213    74159    74409    75030 
   75496    75694    76053    76597    76993    77371    77939    78339 
   78318    78219    78213    78119    78102    78444    78744    78526 
   78052    77643    77175    76724    76567    76577    76605    76835 
   77221    77649    78371    79267    79635    79448    79424    79633 
   79559    79270    79093    78773    78129    77542    77002    76054 
   74952    74324    74004    73676    73762    74409    74926    75007 
   75159    75571    75906    76160    76477    76621    76519    76388 
   76075    75378    74606    73931    73252    72916    73348    74272 
   75254    76245    77206    78015    78700    79273    79668    80001 
   80338    80395    80013    79461    78927    78309    77631    77156 
   76971    76856    76788    77026    77565    78070    78301    78204 
   77936    77854    77936    77693    77186    77098    77418    77445 
   77237    77429    77843    77931    77859    77881    77966    78467 
   79424    79967    79752    79355    78831    77903    77053    76762 
   76688    76592    76659    76678    76403    76384    76985    77440 
   77261    77220    77730    77957    77535    77244    77298    77180 
   77056    77294    77550    77720    78025    78069    77857    78412 
   79627    80179    80161    80492    80717    80400    80396    80825 
   80774    80522    80904    81359    81278    81217    81234    80754 
   80183    80079    80069    80104    80453    80356    79417    78904 
   79304    79250    78486    78397    78825    78260    77064    76650 
   76627    76095    75716    75945    75911    75475    75463    75546 
   74895    74252    74549    74985    74822    74822    75204    75077 
   74722    75201    75932    75874    75884    76809    77484    77031 
   76311    75843    75197    74548    74425    74660    74933    75150 
   75070    74872    75238    76026    76443    76509    76508    76007 
   75118    74723    74343    72702    70715    70032    69742    68764 
   68721    70321    71271    70883    71388    73118    73953    73751 
   74144    74915    75028    75209    76110    76674    76322    75901 
   75983    76365    76678    76446    75577    74586    73656    72590 
   71702    71400    71497    71863    72551    73070    73128    73471 
   74445    75277    75841    76893    78201    78968    79535    80445 
   81121    81120    80935    80596    79554    78151    77112    76156 
   74907    73966    73741    73788    74085    75030    76219    77117 
   77978    78888    79494    79959    80528    80736    80298    79737 
   79346    78902    78509    78162    77290    76194    76196    77203 
   77757    77911    78848    80153    80728    80836    80794    80098 
   79008    78175    77095    75556    74790    75253    75911    76771 
   79054    82408    85099    86934    88793    90167    90301    90132 
   90451    90312    88969    87052    85059    82918    80979    79816 
   79436    79328    78853    77834    76797    76033    74984    73364 
   71753    70282    68413    66679    66339    67057    67587    68345 
   70289    72419    73537    74893    77874    81109    82995    84420 
   86065    86553    85486    84200    82669    79787    76260    73396 
   70619    67320    64635    63188    62166    61511    62062    63783 
   65904    68133    70687    73561    76206    78216    79766    80881 
   81113    80233    78630    76881    75344    74389    74208    74278 
   73958    73310    72715    72326    72115    72071    72253    72588 
   72728    72619    72774    73533    74715    76307    78387    80387 
   81769    82919    84204    85047    84824    83851    82772    81530 
   79803    77944    76559    75708    75217    75190    75698    76372 
   76569    75987    75018    74023    72713    70838    68688    66537 
   64427    62448    60777    59718    59732    60940    62695    64226 
   65568    67167    68960    70615    72204    74034    76157    78201 
   79767    81052    82557    84180    85329    85905    86420    87115 
   87589    87322    86238    84639    82798    80786    78665    76800 
   75671    75192    74898    74900    75531    76465    77336    78281 
   79340    80215    80744    81114    81560    82185    83007    83899 
   84613    84955    84649    83353    81141    78497    75706    72995 
   70964    69969    69660    69732    70320    71284    72069    72571 
   73259    74164    74772    75055    75438    75763    75547    75053 
   74987    75317    75444    75373    75691    76446    77132    77785 
   78756    79431    78915    77818    77299    76968    75887    74607 
   74040    73726    73180    73151    73894    74329    74142    74409 
   75340    75971    76270    76856    77224    76750    76117    75870 
   75375    74372    73457    72513    70849    68804    67297    66401 
   65788    65751    66610    67813    68665    69481    71101    73525 
   75891    77724    79382    81144    82603    83317    83407    83126 
   82559    81895    81351    81004    81093    81700    82098    81715 
   81325    81697    81947    81047    79697    78941    78501    77967 
   77874    78449    79039    79357    79776    80360    80950    81668 
   82289    82336    82294    83043    84107    84362    83940    83605 
   83231    82522    81916    81618    81167    80383    79350    77800 
   75668    73603    72246    71633    71479    71486    71405    71327 
   71811    73161    74906    76626    78420    80018    80867    81349 
   82215    83016    83030    82841    82956    82575    81488    80717 
   80347    79691    79285    79864    80671    80940    81143    81558 
   81595    81097    80559    79929    78804    77373    75951    74642 
   74005    74402    75072    75388    75836    76694    77425    77839 
   78201    78294    77823    77174    76584    75575    74201    73356 
   73111    72705    72366    72785    73415    73723    74341    75266 
   75355    74530    73892    73575    72983    72436    72334    72181 
   71845    71946    72532    73078    73575    74380    75328    75934 
   76195    76418    76509    76177    75632    75363    75417    75417 
   75131    74784    74744    74916    74857    74592    74723    75466 
   76275    76797    77391    78312    79234    79799    79859    79308 
   78281    77256    76455    75504    74183    73001    72397    71933 
   71065    70256    70283    70956    71645    72339    73238    74094 
   74672    75176    75843    76581    77211    77807    78565    79466 
   80404    81337    82042    82281    82259    82436    82787    82775 
   82155    81156    79996    78910    78320    78379    78746    79154 
   79732    80604    81594    82390    82775    82819    82898    83158 
   83232    82929    82534    82066    81396    81033    81333    81530 
   80896    79944    79289    78482    77164    76018    75523    75288 
   75180    75635    76549    77232    77656    78366    79201    79552 
   79502    79517    79543    79285    78935    78943    79284    79519 
   79477    79338    79151    78661    77761    76755    75878    75080 
   74571    74704    75330    76042    76870    77990    79120    79791 
   79866    79390    78283    76555    74622    72972    71635    70472 
   69668    69296    69018    68796    69199    70492    72049    73183 
   74013    74908    75740    76364    76970    77558    77917    78279 
   79174    80410    81039    80863    80717    80785    80296    79230 
   78398    77782    76553    74582    72454    70525    69040    68268 
   67895    67378    66811    66525    66414    66413    66710    67208 
   67749    68682    70152    71401    71790    71795    72126    72732 
   73302    73889    74613    75439    76539    78127    79797    81024 
   82096    83540    85155    86455    87430    88195    88628    88796 
   88970    88940    88267    87129    85877    84426    82852    81456 
   80227    79191    78637    78475    78250    77932    77784    77571 
   76945    76102    75136    73647    71663    69900    68704    67690 
   66680    66112    66167    66301    66097    65853    65854    65982 
   66262    66911    67822    68785    70047    71930    74148    76098 
   77599    78845    79902    80759    81507    82125    82370    82073 
   81471    80993    80804    80774    80736    80549    80164    79794 
   79706    79853    79987    79967    79905    80061    80419    80651 
   80608    80316    79672    78703    77754    76983    76275    75743 
   75544    75470    75497    76103    77302    78432    79490    81095 
   82873    83855    84229    84701    84937    84512    83992    83698 
   83185    82591    82597    83060    83359    83498    83614    83380 
   82823    82570    82651    82429    81877    81378    80759    79953 
   79598    80006    80673    81291    82019    82711    83066    83178 
   83016    82159    80630    79002    77495    75857    74187    72917 
   72075    71487    71382    71929    72711    73298    73831    74434 
   74711    74474    74106    73637    72701    71509    70545    69774 
   69045    68494    68157    67892    67753    67906    68222    68486 
   68891    69627    70353    70845    71568    72756    73809    74341 
   74713    75097    75226    75130    75104    75093    74941    74865 
   74962    74839    74502    74669    75593    76770    77954    79257 
   80562    81708    82748    83671    84285    84389    83871    82819 
   81580    80446    79338    78159    77215    76667    76142    75490 
   75055    74839    74394    73689    73089    72582    71950    71370 
   71158    71228    71335    71594    72141    72762    73441    74445 
   75632    76630    77368    77930    78360    78619    78718    78852 
   79092    79212    79101    78983    79010    79030    78899    78599 
   78040    77303    76705    76260    75737    75169    74629    73977 
   73151    72262    71389    70591    69975    69461    68809    67977 
   67035    66060    65371    65225    65499    66189    67595    69649 
   71763    73611    75394    77052    78090    78537    78999    79552 
   79871    80288    81301    82560    83563    84385    85008    85198 
   85209    85372    85342    84897    84551    84454    83961    82880 
   81707    80604    79543    78926    78822    78652    78327    78370 
   78738    78829    78659    78787    79038    78590    77383    76054 
   74760    73365    72125    71284    70798    70772    71331    72241 
   73315    74626    75942    76751    77063    77480    78243    78911 
   79164    79154    78996    78618    78094    77700    77550    77441 
   77356    77571    78023    78355    78592    79039    79606    79925 
   79845    79353    78467    77491    76746    76137    75636    75654 
   76264    76917    77452    78258    79056    78953    77841    76349 
   74655    72701    70848    69191    67354    65551    64434    64002 
   64084    65064    67047    69342    71500    73815    76268    78158 
   79235    79971    80468    80307    79539    78629    77647    76585 
   75856    75621    75536    75590    76096    76863    77542    78314 
   79126    79253    78551    77888    77765    77757    77510    77156 
   76740    76211    75853    75960    76395    76898    77317    77418 
   77062    76462    75789    74877    73781    72951    72478    72014 
   71575    71532    71852    72152    72295    72378    72457    72597 
   72948    73568    74322    75089    75849    76612    77510    78814 
   80578    82416    83967    85329    86663    87802    88542    88875 
   88788    88217    87242    86067    84847    83621    82428    81326 
   80342    79412    78324    76968    75628    74606    73701    72592 
   71420    70459    69682    69098    69012    69755    71394    73781 
   76729    79928    82891    85368    87420    89014    90008    90510 
   90715    90505    89780    88893    88164    87561    87037    86614 
   86233    85814    85421    85153    84871    84358    83512    82256 
   80661    78949    77071    74713    71890    69053    66626    64928 
   64211    64315    64708    65221    66209    67711    69167    70171 
   70860    71385    71491    70895    69900    69040    68304    67531 
   67031    67116    67643    68440    69510    70668    71648    72497 
   73269    73654    73464    72968    72447    71937    71662    72095 
   73279    74795    76626    79107    82042    84731    86807    88334 
   89163    88905    87593    85703    83609    81521    79554    77695 
   75963    74507    73468    72643    71581    70299    69182    68126 
   66818    65485    64611    64400    64885    66118    68075    70478 
   73010    75620    78312    80808    82786    84285    85622    86998 
   88312    89419    90406    91408    92391    93324    94096    94393 
   94061    93221    91948    90190    88013    85680    83241    80419 
   77252    74235    71682    69514    67791    66856    66722    67005 
   67566    68539    69726    70613    71039    71085    70544    69326 
   67954    66992    66530    66484    66833    67393    67945    68659 
   69785    71028    71864    72320    72713    72975    72972    72897 
   72974    73303    73936    74930    76172    77449    78784    80261 
   81737    83092    84385    85553    86393    86891    87210    87493 
   87922    88626    89440    90139    90703    91108    91277    91195 
   90825    90022    88809    87570    86692    86197    85927    85815 
   85757    85530    85083    84570    83764    82201    80130    78117 
   76084    73911    71945    70444    69438    68912    68697    68577 
   68636    69184    70177    71180    72013    72943    74065    75088 
   75902    76697    77454    77935    78123    78192    78147    77897 
   77553    77287    77102    76959    76831    76626    76308    75938 
   75537    74945    74002    72813    71439    69790    68122    66858 
   66004    65315    64813    64720    65083    65816    66920    68353 
   69993    71836    73839    75693    77085    78101    78995    79786 
   80530    81518    82703    83543    83801    83810    83627    82829 
   81484    80168    78715    76670    74773    73695    72750    71747 
   71319    71281    71155    71197    71751    72651    73662    74925 
   76427    77750    78818    79948    81025    81634    81897    82206 
   82391    82034    81194    80061    78575    76886    75393    74197 
   73219    72576    72280    72181    72360    72900    73410    73464 
   73171    72743    72049    71169    70679    70853    71300    71782 
   72593    73823    75153    76464    77754    78714    79134    79327 
   79527    79542    79343    79211    79259    79448    79965    80979 
   82202    83224    83980    84511    84744    84663    84252    83316 
   81753    79816    77836    75952    74243    72809    71663    70760 
   70069    69514    68960    68407    68056    68073    68472    69248 
   70317    71405    72435    73672    75193    76728    78098    79353 
   80549    81612    82417    82875    82915    82633    82368    82312 
   82264    82139    82127    82185    82092    81880    81558    80885 
   79813    78611    77445    76302    75270    74518    74132    74128 
   74407    74776    75105    75389    75640    75828    75957    76022 
   75933    75694    75451    75185    74765    74309    74075    74098 
   74132    74092    74245    74688    75273    76014    76833    77587 
   78405    79363    80198    80686    80974    81306    81726    82179 
   82541    82588    82258    81649    80815    79915    79265    78931 
   78660    78297    77939    77687    77643    77932    78456    78966 
   79357    79620    79762    79849    79913    79686    78808    77315 
   75567    73842    72262    70907    69751    68702    67757    67038 
   66661    66638    66931    67533    68311    68967    69340    69502 
   69511    69346    69061    68729    68320    67867    67612    67705 
   68057    68658    69627    70866    72169    73629    75382    77260 
   79126    81090    83022    84468    85329    85965    86524    86904 
   87222    87610    87875    87914    88032    88345    88564    88673 
   88897    89179    89413    89591    89586    89307    88936    88562 
   87913    86787    85356    83760    81982    80181    78580    77163 
   75868    74767    73903    73198    72592    72036    71382    70528 
   69618    68886    68353    67852    67293    66687    66016    65315 
   64692    64212    63910    63863    64161    64852    65919    67339 
   69115    71123    73145    75096    77002    78819    80383    81548 
   82328    82825    83047    82999    82807    82559    82289    82165 
   82328    82625    82853    82979    82961    82679    82028    80978 
   79577    77892    76038    74228    72696    71636    71208    71455 
   72277    73467    74717    75801    76636    77141    77194    76707 
   75753    74588    73433    72350    71373    70594    70140    70083 
   70329    70753    71343    72126    73079    74081    74979    75698 
   76281    76873    77554    78312    79219    80341    81562    82786 
   83929    84716    84929    84750    84384    83739    82815    81912 
   81143    80365    79655    79220    78926    78559    78294    78417 
   78860    79357    79753    79979    79999    79866    79713    79671 
   79717    79695    79528    79220    78729    77959    76898    75679 
   74430    73234    72239    71506    70900    70382    70168    70448 
   71138    72022    72928    73746    74413    74961    75440    75764 
   75838    75752    75659    75649    75806    76154    76603    77012 
   77342    77708    78217    78709    78884    78648    78156    77581 
   76986    76411    75891    75344    74698    74035    73414    72801 
   72351    72351    72798    73426    74144    75053    76017    76747 
   77249    77751    78293    78761    79161    79593    80123    80838 
   81758    82671    83319    83681    83789    83559    83012    82329 
   81584    80697    79654    78597    77706    77110    76852    76852 
   77013    77349    77903    78622    79405    80161    80742    81008 
   81062    81147    81298    81330    81108    80634    79996    79282 
   78563    77938    77438    76917    76245    75443    74565    73597 
   72503    71259    69876    68450    67135    65997    65024    64309 
   64081    64450    65249    66280    67556    69071    70611    72031 
   73383    74569    75339    75679    75767    75639    75331    75003 
   74698    74336    74074    74218    74779    75541    76388    77228 
   77901    78417    78919    79382    79681    79879    80067    80079 
