Origin Time       2025/01/13 21:19:00
Lat.              31.8
Long.             131.6
Depth. (km)       30
Mag.              6.9
Station Code      MYZH02
Station Lat.      32.6972
Station Long.     131.6829
Station Height(m) -190.3
Record Time       2025/01/13 21:19:49
Sampling Freq(Hz) 100Hz
Duration Time(s)  172
Dir.              2
Scale Factor      3923(gal)/8224838
Max. Acc. (gal)   5.033
Last Correction   2025/01/13 21:19:49
Memo.             
[...]
   14030    14008    14196    14505    14750    14837    14883    14995 
   15084    15064    14976    14906    14891    14885    14856    14870 
   14933    15016    15093    15138    15156    15132    15053    14970 
   14899    14902    15005    15025    14890    14785    14786    14809 
   14781    14735    14864    15248    15638    15793    15755    15666 
   15504    15207    14909    14750    14677    14593    14505    14516 
   14644    14796    14879    14852    14767    14725    14736    14781 
   14785    14634    14428    14408    14625    14898    15029    14971 
   14794    14593    14424    14318    14283    14305    14427    14706 
   15030    15307    15695    16181    16376    16002    15245    14550 
   14204    14172    14266    14431    14735    15121    15380    15438 
   15464    15503    15390    15147    15009    15005    14916    14627 
   14311    14238    14412    14636    14825    14995    15136    15196 
   15207    15379    15780    16048    15854    15294    14701    14382 
   14296    14139    13987    14111    14419    14701    14848    14825 
   14801    14845    14727    14458    14393    14615    14902    15159 
   15372    15518    15635    15757    15781    15541    15097    14754 
   14648    14656    14669    14658    14617    14627    14755    14922 
   15024    15057    15017    14832    14647    14750    15110    15585 
   16120    16449    16309    15793    15151    14690    14635    14740 
   14632    14293    13956    13886    14034    14137    14253    14481 
   14661    14670    14497    14287    14403    14944    15464    15525 
   15268    15091    15075    15074    15014    14953    14943    14953 
   14899    14709    14472    14422    14604    14778    14783    14747 
   14836    15024    15161    15176    15141    15072    14904    14670 
   14455    14373    14535    14805    14859    14756    14905    15326 
   15714    15928    15900    15685    15502    15326    15007    14634 
   14419    14494    14762    14941    14895    14770    14823    15156 
   15526    15527    15129    14760    14652    14592    14508    14605 
   14779    14828    14848    14783    14499    14227    14148    14218 
   14486    14895    15221    15439    15556    15383    14964    14611 
   14388    14299    14451    14692    14793    14771    14683    14571 
   14513    14594    14833    15014    14916    14712    14669    14774 
   14960    15230    15453    15414    15157    14979    15025    15141 
   15171    15056    14820    14596    14557    14747    15061    15357 
   15485    15367    15125    14912    14731    14669    14825    15029 
   15048    14841    14555    14455    14666    14966    15142    15205 
   15163    15107    15242    15496    15607    15626    15742    15930 
   16067    15884    15253    14577    14270    14251    14214    14115 
   14254    14683    14995    15006    14924    14895    14935    14999 
   14985    14839    14643    14488    14438    14596    14912    15148 
   15178    15115    15074    14993    14862    14887    15114    15319 
   15363    15225    15010    14909    14901    14809    14713    14828 
   15084    15225    15226    15257    15256    15066    14863    14845 
   14837    14713    14634    14607    14511    14409    14408    14423 
   14262    13960    13788    13792    13859    14099    14432    14519 
   14492    14735    15148    15464    15639    15623    15462    15404 
   15518    15633    15574    15300    15047    15055    15155    15086 
   14883    14746    14848    15124    15288    15268    15144    14881 
   14574    14416    14311    14065    13817    13863    14212    14581 
   14767    14783    14634    14436    14534    14928    15206    15217 
   15171    15169    15125    15063    15155    15408    15627    15651 
   15431    15045    14767    14874    15244    15530    15637    15623 
   15574    15587    15595    15615    15757    15754    15317    14701 
   14311    14219    14191    14014    13829    13838    13865    13765 
   13784    14037    14239    14322    14496    14725    14823    14825 
   14867    14962    15028    15075    15222    15369    15311    15202 
   15313    15615    15893    15979    15965    15977    15816    15338 
   14905    14837    14917    14958    15210    15670    15850    15558 
   15107    14731    14434    14215    14022    13869    13964    14258 
   14458    14611    14926    15375    15708    15566    14890    14179 
   13880    13953    14193    14500    14766    14885    14909    14940 
   15106    15560    16089    16295    16168    15911    15678    15642 
   15888    16297    16510    16119    15268    14589    14280    14170 
   14253    14420    14480    14424    14197    13716    13231    13200 
   13660    14133    14343    14499    14744    15039    15381    15650 
   15650    15435    15132    14743    14372    14220    14366    14793 
   15327    15520    15192    14797    14797    15265    15950    16364 
   16274    15920    15616    15541    15628    15600    15331    14928 
   14600    14528    14670    14878    15024    14972    14675    14188 
   13687    13475    13629    13884    14075    14289    14544    14686 
   14666    14662    14746    14775    14801    14947    15136    15333 
   15495    15477    15364    15341    15353    15326    15310    15269 
   15175    15201    15485    15838    15957    15800    15560    15361 
   15157    14885    14490    14023    13794    14011    14395    14640 
   14806    14868    14662    14395    14450    14794    15097    15064 
   14620    14129    14134    14719    15472    15878    15684    15134 
   14665    14511    14689    14943    14991    14936    14995    15126 
   15241    15384    15593    15766    15718    15488    15342    15264 
   15101    14964    14850    14571    14227    13994    13937    14000 
   13869    13564    13689    14372    14928    14922    14669    14548 
   14558    14628    14782    14913    14949    14943    14912    15025 
   15350    15543    15493    15479    15535    15471    15226    15016 
   15086    15195    14959    14557    14358    14411    14640    14871 
   14926    14804    14575    14430    14523    14619    14598    14844 
   15377    15700    15753    15790    15762    15677    15633    15476 
   15198    15034    15045    15186    15279    15172    15163    15388 
   15514    15543    15633    15643    15620    15583    15273    14864 
   14655    14382    13976    13778    13630    13269    13090    13556 
   14516    15396    15786    15854    15936    15888    15399    14573 
   13720    13020    12680    12884    13454    14072    14689    15385 
   16096    16614    16808    16827    16922    17010    16765    16216 
   15773    15546    15201    14554    13722    13012    12830    13150 
   13568    14006    14555    15044    15304    15390    15542    15943 
   16166    15749    14979    14138    13447    13539    14261    14797 
   15138    15385    15313    15248    15337    15321    15449    15682 
   15472    15070    14978    14870    14482    14166    14127    14164 
   14042    13765    13440    13231    13502    14226    14889    15458 
   16025    16124    15682    15373    15576    15996    16127    15842 
   15483    15175    14752    14392    14310    14319    14350    14588 
   15016    15453    15766    15719    15080    14030    13120    12803 
   13059    13663    14508    15340    15815    15927    15749    15407 
   15376    15746    15940    15811    15688    15545    15263    15018 
   14767    14172    13463    13158    13082    13054    13346    13790 
   14042    14258    14566    14889    15250    15655    16098    16464 
   16549    16459    16389    16287    16147    16065    15916    15364 
   14316    13269    12870    13170    13707    14160    14322    14122 
   13961    14257    14964    15795    16371    16357    15865    15425 
   15350    15484    15573    15515    15223    14702    14301    14357 
   14789    15245    15376    15277    15248    15182    15111    15372 
   15807    16013    15965    15849    15624    15053    14307    13743 
   13270    12919    12924    13209    13684    14277    14647    14655 
   14569    14551    14651    14971    15344    15435    15186    14947 
   15115    15493    15570    15282    14777    14164    13744    13747 
   14018    14536    15354    16087    16464    16634    16681    16669 
   16644    16403    15720    14786    14256    14547    15272    15801 
   16054    16154    15994    15718    15514    15249    15084    15273 
   15530    15573    15441    15300    15349    15449    15261    14885 
   14581    14320    14202    14419    14845    15202    15336    15321 
   15348    15423    15458    15412    15283    15198    15179    15017 
   14688    14351    14069    13902    13927    14085    14276    14535 
   14798    14851    14689    14501    14312    14160    14278    14551 
   14538    14226    13995    14052    14239    14385    14604    15002 
   15381    15499    15403    15290    15201    15138    15043    14805 
   14661    14841    15156    15466    15684    15699    15697    15820 
   15988    16208    16463    16598    16580    16594    16710    16748 
   16726    16665    16163    15218    14455    14285    14789    15732 
   16479    16623    16403    16237    16374    16794    17099    17051 
   16937    16879    16738    16592    16541    16590    16702    16622 
   16259    15990    16113    16552    17069    17365    17263    16950 
   16633    16402    16513    16953    17307    17398    17307    17236 
   17397    17622    17694    17575    17243    16988    17169    17610 
   17941    18063    18010    17745    17230    16514    15724    14993 
   14323    13563    12874    12746    13180    13757    14229    14427 
   14493    14789    15141    15321    15576    15874    15859    15452 
   14708    13790    13055    12690    12577    12664    12981    13416 
   13841    14215    14467    14501    14264    13929    13859    13956 
   13741    13227    12712    12332    12290    12518    12630    12526 
   12272    12008    11907    11859    11720    11585    11527    11453 
   11126    10567    10318    10562    10678    10458    10278    10196 
   10261    10620    11121    11603    11855    11631    11199    10964 
   10829    10633    10582    10970    11797    12652    13228    13814 
   14719    15736    16530    17026    17201    16964    16456    16044 
   15869    15844    15898    15838    15504    15141    15142    15584 
   16279    16992    17510    17682    17458    17132    17181    17533 
   17747    17663    17227    16470    15827    15647    15768    16009 
   16258    16212    15792    15434    15407    15472    15543    15824 
   16147    16093    15705    15481    15692    16058    16235    16202 
   16104    16117    16274    16245    15865    15464    15218    15033 
   14889    14654    14129    13379    12734    12425    12199    11961 
   12171    12877    13568    14088    14605    15171    15616    15701 
   15441    15034    14608    14310    14215    14135    13967    13882 
   13944    14035    14087    13952    13493    12787    11911    10957 
   10183     9896    10177    10660    11153    11921    12937    13825 
   14312    14269    13841    13261    12684    12572    13078    13676 
   14197    14894    15749    16587    17408    18284    19044    19377 
   19248    18885    18590    18593    18905    19357    19687    19762 
   19842    20048    20115    20017    19955    19853    19548    19049 
   18403    17498    16333    15202    14181    13273    12784    12695 
   12560    12199    11700    11254    11119    11153    10920    10459 
   10060     9691     9418     9271     8896     8322     8071     8413 
    9289    10390    11335    12083    12637    12837    12906    13150 
   13293    13028    12637    12517    12804    13473    14191    14453 
   14122    13423    12637    11974    11504    11246    11218    11340 
   11456    11489    11534    11596    11658    12020    12943    14254 
   15537    16506    17150    17555    17685    17483    17085    16825 
   16916    17166    17234    16933    16204    15265    14469    13865 
   13471    13512    14025    14875    16071    17470    18605    19222 
   19504    19726    20104    20850    21967    23082    23707    23656 
   23051    22079    20887    19603    18354    17099    15715    14419 
   13598    13397    13605    13776    13745    13814    14293    15385 
   17126    18987    20218    20517    19938    18781    17632    16857 
   16305    15896    15808    16063    16687    17726    18802    19521 
   20133    21050    22175    23244    24140    24657    24649    24283 
   23772    23228    22698    22234    21951    21687    20984    19905 
   18998    18338    17729    17068    15974    14305    12471    10762 
    9409     8664     8374     8248     8106     7785     7300     6791 
    6380     6097     5769     5252     4706     4376     4369     4634 
    4989     5316     5710     6250     6855     7564     8571     9832 
   10980    11712    12093    12428    12795    12943    12803    12629 
   12534    12295    11658    10778    10145     9927    10003    10428 
   11133    11834    12506    13251    14025    14712    15129    15199 
   15045    14750    14370    14019    13622    13139    12904    13211 
   13926    14790    15687    16534    17140    17371    17520    18085 
   19035    19799    20074    19985    19629    19147    18793    18597 
   18391    18157    18054    18131    18364    18970    20177    21762 
   23207    24235    24889    25286    25469    25455    25170    24360 
   22898    21024    19090    17290    15747    14607    13934    13593 
   13379    13329    13666    14418    15334    16043    16330    16420 
   16536    16545    16430    16425    16613    16906    17197    17469 
   17702    17828    17909    18103    18391    18527    18291    17672 
   16765    15728    14720    13721    12681    11626    10608     9780 
    9201     8820     8806     9238     9871    10656    11794    13101 
   14018    14303    14277    14284    14368    14467    14403    13990 
   13381    12820    12368    12106    12113    12225    12235    12186 
   12305    12731    13312    13954    14794    15657    16144    16248 
   16070    15597    14940    14207    13443    12722    12140    11832 
   11682    11480    11499    11951    12610    13382    14295    15137 
   15588    15477    14926    14332    14053    14076    14166    14260 
   14507    14956    15408    15666    15774    15898    16108    16297 
   16271    16050    16029    16416    16858    17027    16938    16590 
   15954    15244    14621    13933    13116    12337    11688    11129 
   10525     9813     9239     9175     9674    10369    10989    11677 
   12625    13772    14899    15894    16888    18022    19141    19896 
   20256    20439    20309    19691    18910    18357    18004    17643 
   17209    16915    17126    17899    18789    19184    18750    17751 
   16714    15695    14574    13606    12918    12367    12058    12035 
   12046    12209    12885    13922    14945    15741    16092    15950 
   15554    15037    14413    13936    13786    13856    14210    14987 
   15917    16503    16551    16360    16313    16411    16471    16382 
   16098    15730    15336    14702    13774    12845    12240    11974 
   11890    11963    12258    12951    13998    14929    15623    16349 
   17092    17616    17847    17821    17612    17448    17528    17809 
   18198    18569    18769    18825    18881    18928    18937    18891 
   18613    17901    16784    15588    14671    14112    13652    12916 
   11851    10802    10022     9690     9880    10257    10503    10584 
   10525    10503    10800    11533    12534    13410    13725    13373 
   12776    12387    12182    11939    11749    11865    12206    12523 
   12850    13323    13907    14386    14542    14399    14148    13938 
   13841    13818    13798    13711    13545    13556    14002    14617 
   15030    15264    15303    15037    14638    14223    13849    13807 
   14206    14935    16059    17547    19018    20105    20601    20326 
   19260    17737    16410    15770    15676    15607    15244    14638 
   14033    13571    13240    13058    13008    13055    13274    13645 
   13998    14130    13868    13267    12560    11977    11784    12024 
   12371    12610    12731    12552    11921    11209    10999    11433 
   12209    12957    13437    13689    13875    13999    14010    13950 
   13736    13316    12920    12827    13223    13963    14508    14598 
   14424    14193    13883    13536    13566    14125    14724    14898 
   14705    14377    13945    13518    13323    13413    13648    13755 
   13679    13760    14210    14912    15745    16646    17570    18434 
   19117    19549    19626    19102    17923    16498    15326    14636 
   14493    14910    15669    16452    17211    17936    18419    18513 
   18199    17477    16413    15240    14139    12953    11477     9896 
    8642     7983     7900     8225     8708     9136     9391     9385 
    9198     9239     9906    11199    12776    14195    15115    15464 
   15439    15391    15618    16163    16869    17487    17818    17880 
   17805    17770    17996    18488    18983    19226    19159    18935 
   18817    18949    19272    19738    20324    20965    21663    22393 
   22925    22950    22428    21712    21118    20665    20270    19965 
   19905    20085    20297    20386    20177    19545    18616    17628 
   16846    16522    16565    16667    16781    16912    16816    16341 
   15624    14935    14538    14509    14694    15020    15481    15788 
   15705    15400    14935    14148    13131    12185    11416    10755 
   10196     9871     9927    10442    11410    12650    13771    14470 
   14791    14947    15009    14964    14912    14943    15010    15075 
   15257    15742    16478    17146    17550    17662    17421    16953 
   16514    16204    16083    16098    15865    15083    13921    12841 
   12199    12052    12245    12475    12490    12453    12789    13512 
   14035    13902    13316    12876    12891    13113    13313    13672 
   14443    15658    17138    18654    19912    20669    21057    21308 
   21494    21558    21308    20704    19917    19167    18639    18249 
   17826    17482    17212    16683    15799    14742    13581    12459 
   11477    10476     9448     8676     8383     8571     9069     9618 
    9919     9799     9385     9018     8924     9024     9090     9121 
    9351     9828    10365    10882    11327    11676    12129    12776 
   13327    13568    13647    13815    14203    14820    15561    16231 
   16706    16954    16958    16699    16113    15140    13994    13080 
   12409    11712    10955    10193     9544     9267     9478    10050 
   10755    11430    12001    12460    12911    13456    14110    14970 
   16094    17259    18188    18727    18720    18138    17361    16969 
   17181    17764    18395    18887    19361    19975    20418    20275 
   19658    18932    18265    17683    17194    16785    16618    17019 
   17930    18889    19603    20029    20133    19877    19354    18850 
   18511    18157    17583    16796    16000    15404    15016    14643 
   14037    13089    12010    11024    10110     9270     8598     8059 
    7632     7522     7974     8973    10116    10921    11348    11556 
