Origin Time       2025/01/13 21:19:00
Lat.              31.8
Long.             131.6
Depth. (km)       30
Mag.              6.9
Station Code      MYZH14
Station Lat.      31.5649
Station Long.     131.3510
Station Height(m) -196
Record Time       2025/01/13 21:19:39
Sampling Freq(Hz) 100Hz
Duration Time(s)  193
Dir.              1
Scale Factor      2940(gal)/6170270
Max. Acc. (gal)   12.010
Last Correction   2025/01/13 21:19:24
Memo.             
[...]
   17762    20475    23434    26479    29404    32117    34638    36565 
   37498    37640    37306    36798    36407    36149    35997    35845 
   35433    34467    32802    30772    28945    27637    26719    25794 
   24766    23978    23762    24136    24902    25801    26594    27361 
   28359    29603    30978    32269    33229    33934    34631    35394 
   36032    36382    36581    36675    36515    36014    34967    33310 
   31362    29504    28076    27166    26479    25748    25030    24547 
   24342    24289    24293    24234    23970    23320    22145    20736 
   19683    19336    19529    19783    19833    19783    20001    20944 
   22602    24454    26021    27096    27730    28042    28093    27906 
   27387    26510    25496    24584    23987    23779    23885    24422 
   25563    27351    29844    32814    35597    37578    38557    38636 
   38088    37189    36030    34688    33296    31832    30246    28608 
   26961    25377    24123    23543    23874    25085    26759    28328 
   29474    30252    30849    31244    31240    30667    29560    28158 
   26708    25498    24983    25497    26937    28905    30981    32856 
   34311    35132    35265    34839    33963    32731    31086    28927 
   26549    24447    22959    22239    22296    23104    24540    26246 
   27807    28998    29756    30239    30772    31489    32375    33405 
   34272    34702    34954    35248    35346    35234    35285    35617 
   35843    35329    33724    31317    28659    26090    23798    21960 
   20608    19614    18970    18946    19873    21759    24120    26348 
   28191    29702    30976    32133    33278    34442    35698    37079 
   38438    39427    39501    38299    36146    33795    31722    30029 
   28699    27580    26493    25371    24159    22942    21970    21281 
   20663    20008    19483    19401    19911    20973    22484    24230 
   26018    27743    29326    30966    33087    35771    38507    40492 
   41149    40349    38305    35276    31498    27587    24298    21978 
   20762    20603    21103    21778    22348    22853    23499    24458 
   25802    27378    28887    30170    31262    32238    33239    34449 
   35783    36952    37893    38681    39032    38470    36935    34818 
   32501    30105    27705    25528    23761    22442    21699    21787 
   22663    23848    24915    25806    26558    27163    27732    28227 
   28458    28710    29351    30005    30049    29269    27775    25840 
   23767    21762    19937    18215    16456    14771    13445    12676 
   12493    12742    13191    13647    14031    14402    14879    15646 
   16794    18178    19556    20803    22070    23626    25383    26939 
   28100    28958    29605    29966    29902    29463    28861    28287 
   27884    27739    27895    28469    29511    30833    32244    33660 
   34945    35823    36073    35915    35983    36680    37751    38564 
   38598    37843    36680    35386    34108    32972    31919    30765 
   29413    27917    26513    25551    25335    26005    27363    29011 
   30722    32333    33538    34211    34522    34634    34567    34289 
   33758    32982    32036    30980    29862    28843    28162    27809 
   27373    26462    25313    24746    25258    26439    27629    28535 
   28923    28679    28029    27115    26073    25391    25495    26464 
   28081    29847    31315    32202    32214    31308    29531    26773 
   23221    19285    15366    12162    10379    10187    11321    13342 
   15672    17812    19601    20995    21851    22422    23277    24479 
   25622    26233    26006    25187    24328    23909    24197    25087 
   26554    28625    30802    32514    33555    33935    33889    33618 
   33235    33001    32983    32846    32284    31356    30401    29739 
   29550    29813    30335    31009    31779    32553    33266    33786 
   33972    33894    33826    34121    34916    35906    36601    36718 
   36230    35155    33366    30790    27741    24716    22036    19866 
   18339    17704    18282    20138    23148    27157    31833    36584 
   40621    43134    43683    42370    39693    36494    33519    30987 
   29127    28300    28425    29177    30295    31459    32535    33544 
   34200    34176    33486    32178    30252    28054    26231    25183 
   24875    25098    25547    25796    25580    24982    24191    23219 
   21979    20634    19660    19371    19562    19957    20709    22029 
   23718    25354    26743    28026    29333    30527    31310    31480 
   31096    30503    30179    30408    31039    31649    31765    31106 
   30020    29220    29002    29224    29763    30599    31483    32007 
   32045    31659    31023    30641    31079    32636    35283    38502 
   41376    43223    43939    43646    42507    40900    39292    38027 
   37198    36551    35792    34984    34313    33820    33544    33558 
   33738    33721    33347    33058    33417    34476    35843    37047 
   37804    38088    37917    37152    35743    33951    32141    30407 
   28439    25901    22855    19664    16790    14558    12986    12200 
   12549    13980    15976    18084    19945    21278    22212    22908 
   23146    22851    22190    21235    20064    18894    17993    17469 
   17290    17394    17718    18316    19257    20562    22333    24416 
   26099    26795    26554    25516    23680    21389    19358    18097 
   17546    17406    17704    18668    20259    22236    24438    26794 
   29152    31034    31873    31615    30687    29608    28849    28655 
   29048    30021    31456    33028    34335    35046    34885    33764 
   32041    30328    29187    28934    29321    29782    30060    30171 
   30042    29470    28334    26791    25265    24110    23304    22791 
   22947    23940    25188    26462    28264    30493    32493    33912 
   34578    34317    32807    30222    27692    26052    25404    25530 
   26009    26803    28027    29358    30462    31185    31316    30746 
   29773    28987    28775    29173    29904    30323    29914    28854 
   27855    27714    28767    30673    32707    34124    34526    33825 
   32105    29889    27935    26576    25423    23861    21811    19852 
   18758    18660    18993    19575    20739    22477    24571    27035 
   29604    31537    32295    31982    31137    30237    29489    28940 
   28380    27538    26753    26710    27284    27580    27195    26633 
   26327    26212    26250    26290    26096    25783    25446    25199 
   25407    26284    27958    30541    33784    36863    38737    39142 
   38621    37877    37580    37886    38440    38996    39345    39272 
   38805    38290    38154    38395    38642    38519    37457    34950 
   31242    27047    22941    19485    17152    15976    15709    16161 
   17315    19088    21041    22703    23931    24780    25317    25501 
   25261    24879    25039    26127    27788    29419    30610    31194 
   31224    30604    28980    26369    23470    21273    20463    21129 
   22766    24399    25201    25110    24589    24242    24572    25603 
   26842    27756    28337    29061    29990    30481    30058    28807 
   27066    25230    23558    22062    20678    19327    17899    16408 
   15243    15148    16556    18991    21544    23554    24691    25061 
   25072    25110    25518    26459    27759    29060    30072    30688 
   31027    31438    31968    32217    32076    31725    31275    31042 
   31435    32444    33741    35176    36745    38225    39366    40017 
   39933    39079    37782    36389    35053    33722    32257    30562 
   28718    27069    25936    25323    25180    25631    26679    28065 
   29447    30485    31128    31704    32238    32446    32348    31952 
   31104    29897    28668    27882    27740    27667    26746    24778 
   22478    20548    18979    17369    15605    14237    14142    15610 
   17988    20426    22421    23695    24357    24928    25719    26576 
   27222    27497    27451    27339    27476    27988    28691    29332 
   29903    30580    31439    32386    33213    33647    33648    33538 
   33650    34183    35117    35991    36216    35569    34304    33045 
   32431    32689    33548    34411    34691    34141    32862    31192 
   29623    28511    27897    27644    27397    26620    24979    22509 
   19654    17344    16342    16501    17345    18749    20644    22826 
   25060    27115    28803    30023    30892    31642    32381    33171 
   33952    34439    34472    34265    34085    33853    33198    31718 
   29286    26201    22931    19829    17083    14963    13937    14220 
   15583    17648    19963    22107    24040    25977    27983    30093 
   32329    34512    36379    37590    38030    38241    38814    39597 
   40059    40042    39742    39161    38121    36525    34440    32329 
   30798    29994    29678    29622    29776    30175    30708    31078 
   31217    31436    31771    31885    31754    31636    31680    31771 
   31468    30478    29169    28164    27522    26711    25369    23544 
   21329    18985    16880    14843    12552    10411     9171     9286 
   10839    13339    16080    18804    21442    23951    26497    29045 
   31357    33341    34797    35562    35874    36171    36782    37688 
   38792    40126    41281    41662    41348    40657    39565    38026 
   36154    34070    32027    30495    29819    30017    31007    32606 
   34342    35687    36627    37614    38805    39912    40642    40787 
   40320    39386    37981    36128    34213    32553    31127    29979 
   29317    29224    29467    29446    28533    26582    23941    21191 
   18932    17538    17112    17481    18242    19154    20268    21599 
   22996    24336    25535    26299    26408    26069    25444    24403 
   23009    21645    20481    19314    18062    16825    15532    14088 
   12702    11628    10866    10374    10316    10892    12066    13643 
   15418    17180    18765    20194    21559    22883    24211    25526 
   26612    27315    27697    27794    27681    27583    27608    27699 
   27756    27684    27592    27648    27670    27323    26614    25946 
   25873    26677    28208    30286    32759    35203    37167    38506 
   39305    39723    39908    40025    40194    40366    40382    40056 
   39162    37540    35424    33485    32334    32131    32530    32921 
   32867    32197    30872    29114    27349    25869    24949    24901 
   25671    26846    27951    28627    28933    29243    29794    30659 
   31995    33786    35470    36335    36195    35356    34207    33024 
   31864    30681    29612    28854    28453    28363    28437    28545 
   28708    28899    29020    29101    29238    29467    29714    29811 
   29652    29217    28573    27846    27075    26263    25444    24664 
   24067    23750    23479    22896    22005    21062    20243    19619 
   19201    19056    19254    19632    19996    20281    20439    20441 
   20251    20006    20062    20553    21336    22207    22995    23762 
   24687    25775    26880    27961    29109    30266    31312    32358 
   33513    34634    35477    35944    36146    36163    35848    34936 
   33401    31514    29416    27126    24896    23001    21642    20896 
   20328    19357    17885    16283    15089    14604    14926    16106 
   18056    20762    24268    28430    32968    37418    41213    43992 
   45639    46186    45730    44506    43017    41795    41039    40629 
   40352    40158    40053    39676    38582    36729    34295    31492 
   28568    25853    23779    22658    22366    22384    22204    21555 
   20394    18991    17789    17175    17414    18471    20006    21686 
   23381    25030    26450    27458    28040    28227    28085    27782 
   27411    26964    26539    26257    26166    26423    27123    28054 
   28959    29807    30692    31632    32466    32925    32809    32055 
   30708    28959    27145    25524    24182    23095    22149    21264 
   20504    19877    19318    18996    19212    20075    21607    23835 
   26464    28793    30214    30603    30161    29184    27964    26685 
   25518    24678    24161    23738    23284    22878    22648    22659 
   23006    23887    25404    27306    29225    31087    32929    34651 
   36126    37253    37902    37933    37218    35693    33669    31724 
   30046    28482    26886    25063    22974    20874    19063    17832 
   17353    17415    17670    18056    18622    19217    19516    19305 
   18856    18781    19514    21123    23312    25636    27779    29477 
   30631    31478    32295    33253    34406    35569    36427    36753 
   36480    35541    33943    32039    30193    28527    27178    26383 
   26451    27586    29694    32630    36290    40383    44464    48049 
   50690    52213    52757    52559    51825    50753    49601    48551 
   47502    46268    44827    43160    41201    38890    36113    33004 
   30039    27709    26383    26114    26628    27501    28233    28669 
   28972    29246    29613    30136    30703    31086    30905    29805 
   27749    25115    22397    19956    18091    17019    16806    17202 
   17864    18623    19142    19159    18790    18143    17495    17246 
   17452    17990    18793    19998    21785    23949    26136    28168 
   29950    31409    32421    32846    32590    31518    29560    26844 
   23682    20529    17810    15794    14550    13822    13295    13095 
   13559    14807    16804    19425    22494    25799    29059    32092 
   34880    37569    40391    43358    46304    49112    51490    52979 
   53364    52721    51171    48823    45756    41997    37781    33514 
   29324    25165    21154    17534    14576    12473    11250    10738 
   10755    11272    12279    13698    15392    17297    19464    21723 
   23774    25473    26679    27296    27248    26376    24762    22739 
   20620    18572    16678    15138    14262    14271    15183    16803 
   18904    21358    24000    26551    28725    30312    31205    31369 
   30811    29626    27986    26218    24682    23448    22469    21778 
   21421    21349    21421    21591    21849    22066    22080    21825 
   21442    21109    20942    21213    22199    23873    25989    28230 
   30286    32023    33533    35041    36831    38994    41248    43233 
   44578    44931    44371    43264    41982    40857    39954    39181 
   38438    37689    37134    36864    36725    36606    36290    35513 
   34316    32870    31352    30109    29343    29034    29244    29930 
   30881    31949    32980    33883    34668    35343    36004    36783 
   37705    38634    39328    39573    39193    38111    36558    34929 
   33441    32079    30873    29967    29270    28528    27844    27519 
   27678    28311    29245    30107    30630    30782    30605    30239 
   29784    29167    28412    27505    26222    24492    22479    20422 
   18532    17031    16113    15579    15081    14629    14373    14235 
   14014    13719    13551    13682    14323    15562    17195    18916 
   20453    21763    23039    24276    25245    25877    26204    26255 
   26194    26205    26404    26871    27622    28547    29375    29857 
   29906    29483    28580    27249    25753    24546    23948    24107 
   24944    26218    27737    29181    30315    31141    31612    31650 
   31050    29630    27534    24979    22201    19585    17538    16286 
   15803    15955    16691    18141    20467    23642    27388    31343 
   35231    38734    41461    43215    44062    44149    43576    42451 
   40880    39045    37364    36194    35556    35392    35606    36074 
   36775    37613    38370    38903    39113    38840    38033    36814 
   35228    33231    30931    28492    26025    23703    21638    19976 
   18864    18061    17310    16633    16002    15405    14925    14537 
   14139    13747    13541    13498    13379    13244    13364    14027 
   15556    18037    21199    24507    27436    29732    31341    32411 
   33227    33919    34421    34656    34583    34194    33534    32783 
   32206    31889    31770    31801    31756    31345    30549    29462 
   28267    27287    26712    26656    27301    28700    30702    33009 
   35285    37330    39054    40330    41115    41514    41607    41435 
   40986    40157    38987    37769    36745    35955    35375    34903 
   34387    33872    33489    33208    32868    32305    31433    30346 
   29331    28622    28309    28444    28958    29698    30526    31233 
   31632    31684    31430    31007    30551    30005    29243    28318 
   27369    26509    25859    25440    25176    24975    24686    24170 
   23339    22081    20425    18653    17132    16173    15921    16166 
   16555    16967    17346    17560    17543    17297    16907    16554 
   16411    16584    17048    17638    18193    18665    19094    19524 
   19931    20322    20815    21574    22726    24284    26115    28025 
   29917    31798    33606    35222    36516    37346    37787    38115 
   38472    38821    39187    39650    40051    40124    39788    39042 
   37939    36595    35129    33666    32348    31307    30418    29434 
   28372    27279    26080    24819    23754    23183    23197    23776 
   24910    26465    28129    29493    30288    30552    30389    29865 
   29127    28310    27495    26729    26076    25709    25745    26152 
   26819    27609    28496    29362    29895    30060    30031    29781 
   29310    28728    28041    27241    26415    25699    25245    25174 
   25335    25282    24775    23977    23150    22526    22311    22577 
   23225    24176    25413    26792    28160    29495    30754    31971 
   33250    34536    35696    36638    37378    37988    38402    38611 
   38722    38724    38707    38805    38894    38786    38315    37339 
   35901    34290    32868    31788    31004    30469    30075    29678 
   29224    28668    27981    27216    26415    25633    25019    24698 
   24614    24592    24504    24307    24000    23662    23402    23148 
   22686    22014    21411    21047    20907    21083    21696    22718 
   24009    25333    26429    27138    27380    27139    26592    26044 
   25671    25486    25438    25443    25458    25479    25543    25705 
   26045    26683    27590    28640    29822    31115    32472    33867 
   35112    35884    36043    35717    35114    34400    33715    33106 
   32506    31871    31083    29923    28412    26774    25206    23906 
   22900    22016    21185    20420    19700    19107    18831    19020 
   19635    20548    21748    23220    24899    26739    28604    30313 
   31774    33006    34074    35030    35888    36626    37125    37165 
   36683    35865    34896    33946    33180    32577    32015    31397 
   30610    29540    28202    26764    25318    23837    22376    21056 
   19928    19016    18409    18181    18355    18910    19654    20372 
   21029    21695    22446    23295    24201    25139    26094    27073 
   28166    29487    31058    32728    34216    35288    35801    35689 
   35078    34227    33282    32293    31389    30643    30001    29512 
   29213    28951    28545    27871    26916    25823    24812    24089 
   23714    23589    23648    23924    24443    25143    25921    26683 
   27295    27708    28055    28407    28731    29034    29330    29688 
   30266    31076    31955    32790    33506    33934    33967    33694 
   33284    32819    32261    31604    30901    30117    29215    28243 
