Origin Time       2025/01/13 21:19:00
Lat.              31.8
Long.             131.6
Depth. (km)       30
Mag.              6.9
Station Code      MYZH13
Station Lat.      31.7301
Station Long.     131.0791
Station Height(m) 152
Record Time       2025/01/13 21:19:42
Sampling Freq(Hz) 100Hz
Duration Time(s)  280
Dir.              5
Scale Factor      7845(gal)/8223790
Max. Acc. (gal)   36.542
Last Correction   2025/01/13 21:19:42
Memo.             
[...]
    -170     -172     -172     -175     -174     -166     -163     -163 
    -162     -157     -157     -166     -176     -179     -176     -175 
    -175     -170     -162     -157     -159     -159     -160     -163 
    -163     -164     -168     -175     -183     -184     -178     -171 
    -166     -153     -139     -128     -128     -141     -151     -151 
    -156     -170     -172     -167     -168     -174     -176     -175 
    -171     -166     -152     -130     -110     -106     -124     -160 
    -193     -199     -178     -137      -99      -93     -122     -170 
    -211     -220     -178     -110      -55      -28      -27      -49 
     -79     -113     -155     -180     -157     -109      -85      -81 
     -70      -58      -54      -40       -9       24       39       10 
     -60     -122     -140     -151     -195     -233     -191      -44 
     144      257      218       24     -252     -490     -572     -475 
    -275      -68      118      286      368      283       55     -193 
    -317     -234      -47       -6     -240     -596     -784     -573 
      44      788     1269     1262      791      116     -378     -479 
    -283       -5      245      469      646      724      724      739 
     730      531      156     -148     -257     -317     -411     -369 
     -52      432      869     1070      913      463      -71     -521 
    -818     -969    -1039    -1071     -976     -573      179     1078 
    1815     2130     1946     1413      679     -251    -1285    -2077 
   -2228    -1525      -52     1701     2932     3011     1891      139 
   -1304    -1725    -1228     -529     -198     -305     -525     -284 
     773     2170     2953     2724     1865      908       44     -820 
   -1676    -2162    -1907    -1030       16      892     1344     1067 
     -33    -1553    -2767    -3207    -3009    -2540    -1975    -1456 
   -1269    -1529    -1942    -2077    -1807    -1443    -1352    -1634 
   -2150    -2674    -3072    -3314    -3211    -2446    -1123       75 
     504       66     -961    -2168    -3084    -3414    -3199    -2662 
   -1987    -1236     -336      714     1686     2208     1929      791 
    -669    -1548    -1387     -579       64       16     -630    -1167 
    -615     1323     3541     4405     3310      980    -1363    -2764 
   -2901    -2049     -673      922     2496     3719     4264     3890 
    2516      529    -1285    -2405    -2772    -2419    -1418      -78 
    1244     2423     3522     4541     5157     4792     3238     1065 
    -807    -1755    -1610     -615      741     2064     3150     3854 
    4070     3728     2758     1281     -193    -1140    -1443    -1202 
    -486      553     1705     2805     3514     3349     2208      534 
   -1012    -1854    -1717     -876       14      481      442       -5 
    -673    -1237    -1345     -916     -314      -48     -222     -553 
    -888    -1390    -2128    -2774    -2883    -2390    -1621     -799 
     108     1021     1571     1443      774     -118    -1286    -2818 
   -4153    -4456    -3480    -1552      731     2509     2988     2022 
     162    -1814    -3331    -4197    -4494    -4347    -3820    -2940 
   -1760     -486      491      719      -99    -1806    -3684    -4914 
   -5125    -4488    -3445    -2475    -1912    -1725    -1582    -1332 
   -1092     -793     -201      699     1776     2821     3265     2543 
    1026     -144     -222      587     1528     1952     1798     1552 
    1861     3049     4714     5802     5373     3456      899    -1351 
   -2586    -2594    -1796     -638      826     2473     3742     3993 
    2936      783    -1718    -3597    -4344    -4135    -3331    -2185 
    -935      241     1163     1522     1188      337     -812    -1984 
   -2747    -2880    -2585    -2145    -1740    -1439    -1053     -265 
     958     2280     3267     3573     3011     1730      241     -885 
   -1362    -1236     -777     -284      205      946     2068     3268 
    4017     3902     2824     1104     -603    -1765    -2339    -2563 
   -2452    -1701     -140     1829     3420     4052     3608     2328 
     747     -472     -974     -932     -807     -850     -965     -922 
    -564      121      992     1799     2214     1985     1232      326 
    -503    -1183    -1567    -1402     -510      953     2434     3358 
    3523     3017     1844      -21    -2220    -4124    -5287    -5536 
   -4745    -2799       -1     2729     4402     4627     3744     2342 
     633    -1344    -3067    -3935    -3937    -3156    -1444      855 
    2698     3064     1703     -699    -3057    -4645    -5329    -5134 
   -3871    -1505     1458     4075     5366     4806     2635     -278 
   -2847    -4253    -4410    -3991    -3723    -3658    -3450    -2934 
   -2209    -1582    -1556    -2470    -3798    -4336    -3546    -2204 
   -1432    -1622    -2381    -2890    -2390     -726     1624     3836 
    4922     4210     2039     -436    -2301    -3379    -3893    -3997 
   -3403    -1651      961     3334     4649     4787     3875     2222 
     318    -1494    -2772    -2859    -1692      106     1965     3446 
    4139     3904     2913     1418     -319    -1895    -2929    -3368 
   -3211    -2203     -276     2046     4078     5359     5751     5390 
    4301     2444      359    -1086    -1641    -1615     -989      765 
    3778     6937     8541     7732     4842      862    -2937    -5424 
   -6102    -5229    -3412    -1135     1242     3215     4128     3508 
    1591     -808    -3063    -4756    -5310    -4484    -2789     -989 
     457     1482     2284     3109     3906     4224     3588     2069 
     359     -916    -1765    -2448    -2907    -3005    -2853    -2475 
   -1574     -102     1189     1233     -340    -2906    -5455    -7152 
   -7508    -6438    -4303    -2008     -625     -360     -311      406 
    1802     3198     3636     2440      -29    -2405    -3345    -2467 
    -271     2555     5422     7686     8673     7958     5593     2006 
   -2181    -6023    -8262    -8101    -5782    -2150     1773     4943 
    6824     7562     7375     6201     3879      515    -3172    -6127 
   -7578    -7310    -5552    -2816      203     2671     3716     2920 
     765    -1780    -3789    -4527    -4032    -3141    -2512    -2151 
   -1877    -1543     -861      211     1086     1111      214    -1089 
   -2153    -2678    -2678    -2188    -1513    -1260    -1524    -1545 
    -467     1775     4097     4880     3326       31    -3713    -6655 
   -7858    -7136    -5113    -2528       89     2285     3813     4553 
    4261     2856      639    -1880    -4097    -5437    -5660    -4827 
   -3006     -390     2404     4672     6010     6156     4922     2353 
   -1090    -4461    -6764    -7398    -6118    -3041     1125     5283 
    8428     9744     8700     5494     1200    -2756    -5391    -6361 
   -5599    -3233      108     3200     4914     5123     4445     3177 
    1327     -545    -1513    -1344     -665      -67      503     1525 
    3177     4943     5967     5707     4328     2612     1458     1148 
    1152      847      286      -18      241     1039     2327     3790 
    4475     3599     1408    -1332    -3935    -5676    -6052    -5263 
   -3963    -2602    -1252       76     1154     1668     1340      -51 
   -2357    -4788    -6120    -5362    -2579      959     3636     4440 
    3416     1406     -615    -1880    -1984    -1255     -469       68 
     499      934     1489     1983     1771      373    -2162    -5270 
   -7960    -9463    -9614    -8425    -5895    -2425     1065     3573 
    4421     3469     1231    -1289    -3149    -4071    -4398    -4490 
   -4380    -3913    -2852    -1170      679     2076     2296      706 
   -2238    -5032    -6378    -5618    -2600     1934     6326     9109 
   10062     9934     9328     8235     6604     4815     3504     3211 
    4094     5806     7585     8548     8237     6970     5494     4202 
    2839     1119     -751    -2393    -3711    -4676    -4785    -3307 
     -49     4483     9390    13270    14598    12834     8653     3402 
   -1449    -4853    -6212    -5242    -2430      940     3685     5321 
    5821     5386     4459     3272     1441    -1418    -5147    -9321 
  -13235   -15955   -16835   -15471   -11817    -6818    -1968     1796 
    4001     4050     1672    -2517    -7330   -11585   -14524   -15782 
  -15088   -12387    -8164    -3192     1841     6289     9678    11955 
   13011    12276     9306     4411    -1183    -5606    -7419    -6544 
   -3848     -222     3514     6444     7935     7755     5880     2677 
    -969    -4021    -5714    -5663    -4079    -1830      247     1786 
    2598     2708     2421     1721       67    -2826    -6428    -9560 
  -11192   -11254   -10575   -10174   -10570   -11484   -12163   -12083 
  -11356   -10611   -10467   -11075   -12382   -14370   -16524   -17840 
  -17772   -16387   -13873   -10775    -8093    -6462    -5790    -5844 
   -6619    -8097   -10039   -11867   -12649   -11541    -8290    -3322 
    2359     7500    11101    12864    13176    12449    10721     8137 
    5220     2640     1188     1729     4642     9390    14913    19889 
   22859    22904    19751    13520     4978    -4518   -13335   -19695 
  -22327   -21084   -16687   -10278    -3177     3289     7709     8856 
    6524     1537    -4741   -10238   -12664   -10891    -5395     2297 
   10122    16135    19522    20660    20106    18453    16591    15006 
   13578    12356    11610    11402    11850    13311    15812    18611 
   20611    20966    19229    15385    10018     4399       44    -2203 
   -2567    -1964    -1335    -1011     -666      207     1852     3634 
    4155     2403    -1514    -6393   -10282   -11499    -9479    -4827 
     909     6108    10242    13579    16023    17055    16432    14311 
   11160     7956     5957     5792     7025     8769    10346    11381 
   11834    11735    10890     9016     5869     1636    -2747    -6076 
   -7429    -6610    -4226    -1129     1938     4384     5883     6326 
    5567     3358     -334    -5015    -9539   -12510   -13286   -12457 
  -11079    -9906    -9262    -9132    -9381    -9761    -9946    -9877 
   -9763    -9705    -9709    -9898   -10395   -11218   -12286   -13400 
  -14265   -14539   -14041   -12849   -11169    -9342    -7651    -6075 
   -4726    -4203    -4988    -6799    -8748    -9784    -9059    -6292 
   -1946     2937     7156     9832    10511     9316     7034     4677 
    3337     3947     6586    10507    14688    17976    19288    18048 
   14266     8510     1861    -4437    -9215   -11637   -11592    -9690 
   -6997    -4679    -3504    -3677    -5206    -8176   -12550   -17977 
  -23800   -29095   -32876   -34437   -33655   -31194   -28279   -26095 
  -25239   -25625   -26865   -28439   -29683   -30113   -29556   -28116 
  -26050   -23445   -20283   -16665   -12702    -8687    -5175    -2488 
    -403     1638     4185     7371    10943    14526    17760    20356 
   22307    24079    26123    28374    30607    32563    33829    34134 
   33454    31866    29563    26981    24638    22667    20749    18688 
   16777    15412    14523    13707    12587    10883     8626     6149 
    3751     1611     -211    -1930    -3843    -6019    -8424   -11105 
  -14007   -16746   -18671   -19143   -17859   -15118   -11772    -8775 
   -6809    -6035    -6026    -6053    -5482    -3951    -1359     2205 
    6458    10929    15144    18879    22133    24638    25644    24688 
   22229    19144    16168    14060    13482    14285    15633    16983 
   18091    18450    17559    15198    11241     5933      260    -4641 
   -8235   -10494   -11554   -11561   -10596    -8869    -6750    -4657 
   -3183    -2709    -3036    -3801    -4766    -5933    -7335    -8428 
   -8484    -7430    -5567    -3258    -1152      101       74    -1652 
   -5115    -9834   -15152   -20146   -23900   -26063   -26596   -25517 
  -23448   -21577   -20433   -19246   -16945   -13702   -10748    -8513 
   -6390    -4002    -1318     1497     3824     5184     5771     6173 
    6856     7877     9283    11169    13035    14107    14017    12974 
   11599    10377     9640     9799    10913    12560    14312    15777 
   16357    15533    13323    10291     7199     4653     3026     2567 
    3330     5184     7740    10220    11793    11840     9992     6413 
    1939    -2181    -4781    -5390    -4510    -3053    -1490      298 
    2344     4050     4661     3948     1595    -2605    -7450   -11655 
  -14766   -15635   -14062   -12031   -10789    -9890    -8611    -7003 
   -5674    -4594    -3867    -3942    -4418    -4793    -4803    -4374 
   -4352    -5483    -7469    -9774   -11956   -13728   -15219   -16799 
  -18489   -19411   -18476   -16114   -13984   -12926   -12699   -12804 
  -12432   -10798    -7912    -4494    -1383      764     1661     1746 
    1957     2762     3809     4572     4877     5139     6185     8457 
   11452    14125    15699    16086    15691    15091    14781    14786 
   14713    14261    13539    12891    12398    11707    10332     7960 
    4621      626    -3630    -7593   -10426   -11389   -10543    -8849 
   -7333    -6349    -5956    -6500    -8453   -12113   -17450   -23788 
  -29876   -34651   -37579   -38267   -36489   -32566   -27124   -20817 
  -14607    -9729    -7029    -6420    -6968    -7361    -6399    -3445 
    1275     7044    13221    19299    25029    30376    34835    37536 
   38138    36860    33932    29521    24312    19654    16568    14967 
   14125    13593    13567    14349    15516    16050    15148    12291 
    7200      526    -6295   -11966   -15449   -16074   -14176   -11061 
   -8059    -5863    -4698    -4530    -5175    -6380    -7732    -8791 
   -9269    -9045    -8112    -6131    -3173     -936     -804    -2207 
   -4332    -6775    -8980   -10447   -10948   -10735    -9828    -7759 
   -5005    -2729    -1480    -1101     -839      -76      834     1317 
    1271      770      197      511     2667     6739    11850    16945 
   21265    24119    24853    23269    19897    15782    11888     8937 
    7747     8916    12141    16272    19927    21953    21513    18210 
   12491     5566    -1283    -7281   -11924   -14234   -13188    -8949 
   -2751     3825     8992    11236    10096     6409     1771    -2494 
   -5616    -6926    -5975    -2749     2222     7776    12430    14941 
   14941    12911     9525     5732     2394     -388    -2502    -3674 
   -4232    -4255    -3447    -2602    -3262    -6273   -11454   -17988 
  -24915   -31054   -35093   -36675   -36694   -36288   -36148   -36493 
  -37089   -37501   -37372   -36364   -34280   -31436   -28417   -25366 
  -21859   -17560   -12703    -7676    -2577     2585     7678    12511 
   16893    20555    23186    24702    25343    25597    25956    26535 
   27009    27085    26893    26650    26238    25377    23922    21832 
   18931    15202    11241     7890     5822     5471     6678     8451 
    9598     9614     8560     6378     3079     -911    -5005    -8599 
  -11385   -13508   -14710   -14450   -13018   -11241    -9682    -8688 
   -8349    -8506    -8862    -8916    -8253    -6737    -4720    -3032 
   -1971    -1059      121     1950     4908     8951    13100    15827 
   15974    13419     9242     5211     2458      870     -167    -1077 
   -2172    -3742    -5614    -7121    -7695    -7063    -5356    -3242 
   -1529     -816    -1271    -2338    -2932    -2228     -230     2403 
    4831     6516     7526     8367     9514    11129    13099    15033 
   16060    15246    12545     8712     4534      750    -1944    -3348 
   -3897    -4290    -4914    -5583    -6031    -6615    -8168   -11006 
  -14551   -18063   -21092   -23274   -24216   -23868   -22702   -21230 
  -19626   -17898   -15992   -14053   -12731   -12637   -13736   -15418 
  -16642   -16303   -13963   -10145    -6053    -2851     -801      762 
    2593     4907     7411     9661    11385    12334    12394    11944 
   11304    10184     8459     6863     6315     7022     8488    10084 
   11462    12429    12731    12154    10673     8637     6490     4189 
    1571     -892    -2303    -2033      -86     2957     6223     8760 
    9768     8976     6983     5032     4064     4108     4618     5107 
    5522     6200     7383     8888    10215    10750     9984     7754 
    4432      880    -1912    -3171    -2674     -981     1015     2531 
    2986     2165      145    -2625    -5341    -7484    -9104   -10600 
  -12241   -13747   -14535   -14049   -12028    -8897    -5611    -3065 
   -1590     -935     -796     -954    -1043     -799       -1     1895 
    5038     8729    12174    14665    15460    14407    12270     9990 
    7938     6224     5298     5679     7411     9988    12474    13846 
   13513    11183     6732      885    -4889    -9605   -13101   -15400 
  -16330   -15939   -14802   -13458   -12174   -11489   -11981   -13481 
  -15493   -17907   -20237   -21394   -20707   -18045   -13535    -8044 
   -2789     1655     5094     7303     8402     8931     9243     9200 
    8630     7784     7188     7364     8594    10723    13159    15369 
   17104    17923    17177    14627    10693     6139     1742    -1777 
   -3782    -3982    -2859    -1532     -935    -1366    -2701    -4784 
   -7678   -11337   -15238   -18686   -21004   -21544   -19785   -15545 
   -9587    -3612      842     3230     3705     2621      679    -1170 
   -2289    -2528    -1926     -130     3426     8464    13805    18171 
   20289    19253    15435    10023     3986    -1707    -5917    -8083 
   -8397    -7210    -5065    -2992    -2073    -2744    -4627    -6899 
   -9054   -11242   -13522   -15314   -15955   -15165   -12880    -9159 
   -4401      426     3996     5329     4305     1491    -2286    -6238 
   -9639   -11781   -12191   -10955    -8617    -5772    -2884     -276 
    2015     3991     5283     5421     4303     2255      -79    -1964 
   -2903    -2666    -1135     1455     4464     7111     8621     8491 
    6777     3929      649    -2211    -3975    -4357    -3338    -1036 
    2232     5908     9369    12070    13532    13355    11234     7144 
    1680    -3946    -8459   -10960   -11040    -8900    -5324    -1201 
    2710     5715     7230     6637     3496    -1638    -7254   -11877 
  -14593   -14983   -13095    -9477    -4955     -357     3388     5242 
    4625     1803    -2343    -6736   -10358   -12268   -11824    -9067 
   -4525     1101     7028    12518    16912    19769    21132    21406 
   20803    19248    17123    15472    15236    16545    18733    21027 
   22937    23971    23610    21771    18874    15429    11939     9035 
    7248     6539     6405     6340     5981     5159     4040     3010 
    2161     1054     -815    -3753    -7863   -12722   -17443   -21412 
  -24349   -25821   -25436   -23309   -20019   -16344   -13217   -11603 
  -11939   -13884   -16839   -20239   -23228   -24744   -24155   -21537 
  -17432   -12596    -7874    -3986    -1439     -387     -371     -650 
    -819     -696      -45     1367     3681     6714     9826    12163 
   12960    11801     8961     5449     2427      623      490     2116 
    4878     7755     9744    10143     8986     6832     4267     1794 
    -162    -1188     -996      257     2054     3870     5344     6342 
