Origin Time       2025/01/13 21:19:00
Lat.              31.8
Long.             131.6
Depth. (km)       30
Mag.              6.9
Station Code      MYZH09
Station Lat.      32.0421
Station Long.     131.0618
Station Height(m) 235
Record Time       2025/01/13 21:19:42
Sampling Freq(Hz) 100Hz
Duration Time(s)  120
Dir.              3
Scale Factor      2942(gal)/8224139
Max. Acc. (gal)   4.227
Last Correction   2025/01/13 21:19:42
Memo.             
[...]
 -412659  -412848  -412280  -411016  -409708  -408910  -408577  -408541 
 -408720  -408739  -408373  -408123  -408335  -408742  -409338  -410312 
 -411318  -411993  -412291  -412123  -411592  -411131  -411191  -411936 
 -412989  -413766  -414011  -413694  -412878  -411772  -410579  -409384 
 -408375  -407983  -408161  -408264  -408299  -408615  -408947  -409484 
 -410649  -411625  -411770  -411705  -411751  -411655  -411513  -411446 
 -411459  -411868  -412634  -413001  -412605  -411736  -410657  -409696 
 -409191  -408858  -408184  -407284  -406524  -406015  -405870  -406273 
 -407146  -407910  -407867  -407058  -406109  -405635  -406228  -407779 
 -409190  -409833  -410038  -409966  -409399  -408659  -408643  -409752 
 -411632  -413459  -414096  -413118  -411409  -410290  -410343  -410941 
 -411129  -410595  -409552  -408555  -408159  -408485  -409430  -410439 
 -410713  -410190  -409326  -408732  -408905  -409641  -410476  -411119 
 -411343  -411104  -410475  -409776  -409536  -409793  -410113  -410201 
 -409928  -409733  -410478  -411855  -413014  -413986  -414416  -413792 
 -412699  -411575  -410458  -409841  -410096  -410830  -411224  -411027 
 -410807  -410782  -410632  -410193  -409239  -407826  -406799  -406944 
 -408391  -410439  -411706  -411544  -410586  -409666  -409164  -408970 
 -408921  -409155  -409598  -409702  -408869  -407066  -405324  -404893 
 -405776  -407002  -408002  -408753  -409240  -409661  -410309  -410914 
 -410918  -410513  -410521  -411297  -412489  -413567  -414270  -414691 
 -414805  -414427  -413827  -413553  -413618  -413538  -413090  -412472 
 -411917  -411575  -411513  -411478  -411201  -410946  -410940  -410960 
 -410865  -410699  -410699  -411181  -411926  -412333  -411970  -410904 
 -409834  -409198  -408736  -408619  -409054  -409387  -409448  -409893 
 -410570  -410466  -409255  -407830  -407042  -407016  -407740  -408689 
 -409190  -409627  -410132  -410190  -410116  -410082  -409567  -408855 
 -408740  -409302  -410236  -411227  -411821  -411778  -411291  -410563 
 -409796  -409544  -410216  -411339  -412005  -411893  -411609  -411706 
 -411986  -412385  -412967  -413235  -413017  -412516  -411474  -409946 
 -408678  -408458  -409446  -410535  -410575  -409650  -408173  -406696 
 -406020  -406225  -406969  -408099  -409152  -409499  -409058  -408210 
 -407384  -406891  -406879  -407417  -408345  -409033  -408816  -407779 
 -406800  -406386  -406370  -406880  -408037  -409359  -410518  -411571 
 -412258  -412265  -411880  -411490  -411296  -411658  -412376  -412547 
 -412156  -412052  -412364  -412727  -413110  -413418  -413318  -412654 
 -411643  -410683  -409988  -409584  -409298  -408801  -408132  -407882 
 -408391  -408917  -408466  -407153  -405805  -405016  -404940  -405265 
 -405788  -406678  -407763  -408663  -409241  -409394  -409126  -408603 
 -408244  -408642  -409644  -410579  -411172  -411195  -410535  -409594 
 -408947  -409122  -410165  -411354  -412040  -412160  -411995  -411943 
 -412149  -412474  -412785  -412969  -412938  -412618  -411925  -410921 
 -409797  -408846  -408277  -408002  -408057  -408619  -409374  -410008 
 -410703  -411467  -412052  -412391  -412433  -412126  -411691  -411466 
 -411504  -411659  -411917  -412250  -412472  -412480  -412207  -411358 
 -410061  -408981  -408249  -407802  -407938  -408657  -409774  -411154 
 -412333  -412847  -412582  -411694  -410653  -410080  -410374  -411397 
 -412492  -413021  -412713  -411565  -410008  -408794  -408337  -408651 
 -409467  -410255  -410641  -410439  -409595  -408640  -408366  -409023 
 -410333  -411710  -412365  -412118  -411529  -410899  -410452  -410537 
 -410813  -410911  -410923  -410495  -409526  -408811  -408704  -409017 
 -409812  -410684  -410922  -410553  -409846  -408989  -408424  -408308 
 -408186  -407729  -407311  -407376  -407826  -408478  -409194  -409665 
 -409747  -409548  -409274  -409303  -409877  -410840  -411906  -412697 
 -412851  -412584  -412385  -412353  -412375  -412326  -412052  -411663 
 -411378  -411184  -410998  -410598  -409754  -408665  -407825  -407705 
 -408321  -408939  -408852  -408133  -407281  -406675  -406516  -406818 
 -407204  -407374  -407448  -407378  -407137  -407164  -407718  -408523 
 -409185  -409503  -409450  -409193  -409118  -409440  -409988  -410652 
 -411288  -411548  -411400  -411068  -410555  -409980  -409660  -409619 
 -409777  -410192  -410737  -411207  -411664  -412188  -412531  -412361 
 -411832  -411396  -411079  -410818  -410925  -411467  -412053  -412352 
 -412312  -412060  -411629  -410940  -410240  -410058  -410580  -411502 
 -412400  -412874  -412603  -411709  -410795  -410398  -410729  -411729 
 -412908  -413471  -413063  -412007  -410795  -409953  -409865  -410355 
 -410965  -411309  -411091  -410495  -410015  -409769  -409602  -409571 
 -409926  -410553  -410938  -410814  -410347  -409823  -409428  -409149 
 -409058  -409506  -410459  -411277  -411605  -411454  -410822  -410000 
 -409390  -409099  -409156  -409433  -409569  -409266  -408435  -407439 
 -406833  -406818  -407303  -407874  -407909  -407350  -406771  -406688 
 -407166  -407843  -408542  -409452  -410455  -411241  -411852  -412327 
 -412526  -412457  -412218  -411802  -411258  -410883  -410791  -410630 
 -410229  -409692  -408935  -408163  -407983  -408407  -408852  -409047 
 -409166  -409414  -409907  -410599  -411272  -411862  -412592  -413491 
 -414252  -414603  -414470  -414070  -413812  -413760  -413586  -413067 
 -412161  -410954  -409752  -408839  -408362  -408370  -408632  -408844 
 -409032  -409383  -409936  -410591  -411129  -411342  -411303  -411258 
 -411384  -411679  -411952  -412079  -412036  -411700  -411076  -410401 
 -409772  -409213  -408825  -408542  -408269  -408092  -408046  -408258 
 -408956  -409900  -410568  -410836  -410809  -410575  -410456  -410799 
 -411443  -412003  -412369  -412530  -412495  -412392  -412377  -412485 
 -412570  -412746  -413491  -414799  -416061  -416784  -416813  -416338 
 -415689  -415031  -414601  -414483  -414150  -413255  -412155  -411146 
 -410355  -410031  -410174  -410503  -410609  -409982  -408720  -407610 
 -407004  -406718  -406795  -407232  -407847  -408680  -409614  -410098 
 -409847  -409386  -409572  -410543  -411687  -412431  -412299  -411160 
 -409710  -408657  -408118  -408157  -408723  -409382  -409754  -409731 
 -409388  -409059  -409031  -409156  -409039  -408673  -408720  -409637 
 -411076  -412555  -413793  -414423  -414234  -413557  -412983  -412738 
 -412500  -411778  -410312  -408399  -406822  -406314  -407061  -408578 
 -409912  -410381  -410173  -409810  -409496  -409352  -409633  -410238 
 -410618  -410590  -410541  -410799  -411496  -412524  -413172  -412696 
 -411172  -409203  -407481  -406555  -406406  -406688  -407112  -407347 
 -407313  -407246  -407207  -407162  -407081  -406773  -406225  -405683 
 -405299  -405137  -405236  -405549  -405934  -406317  -406783  -407353 
 -407874  -408206  -408357  -408487  -408812  -409434  -410217  -410849 
 -411111  -411046  -410848  -410670  -410576  -410580  -410575  -410294 
 -409833  -409891  -410786  -411890  -412472  -412213  -411281  -410389 
 -410016  -410019  -410293  -410822  -411431  -412041  -412636  -413089 
 -413136  -412585  -411667  -410813  -410161  -409743  -409784  -410516 
 -411790  -413052  -413714  -413479  -412472  -411083  -409819  -409144 
 -409131  -409622  -410628  -411974  -413136  -413730  -413689  -413100 
 -412219  -411374  -410713  -410341  -410350  -410634  -410965  -411192 
 -411300  -411324  -411308  -411385  -411694  -412047  -412032  -411710 
 -411512  -411544  -411789  -412277  -412681  -412735  -412628  -412415 
 -411995  -411459  -410891  -410443  -410397  -410672  -410802  -410460 
 -409716  -408919  -408464  -408539  -409145  -410181  -411307  -411995 
 -411826  -410779  -409419  -408516  -408370  -408800  -409504  -410254 
 -410883  -411173  -410923  -410213  -409313  -408523  -408127  -408118 
 -408361  -408971  -409828  -410436  -410657  -410630  -410278  -409645 
 -409024  -408493  -407949  -407370  -406786  -406247  -405916  -405973 
 -406512  -407554  -408848  -409725  -409603  -408546  -407392  -407182 
 -408150  -409788  -411565  -413044  -413950  -414319  -414259  -413860 
 -413530  -413729  -414292  -414871  -415266  -415057  -414077  -412832 
 -411905  -411320  -410680  -409866  -409221  -409095  -409591  -410454 
 -411165  -411434  -411386  -411141  -410737  -410466  -410548  -410799 
 -410992  -411058  -410954  -410660  -410158  -409506  -408925  -408616 
 -408613  -408673  -408314  -407469  -406563  -405857  -405572  -405920 
 -406433  -406449  -406038  -405672  -405638  -405915  -406350  -406907 
 -407690  -408701  -409612  -409943  -409634  -409182  -409081  -409614 
 -410819  -412206  -413152  -413465  -413174  -412493  -411852  -411471 
 -411412  -411745  -412196  -412319  -412091  -411678  -411112  -410678 
 -410845  -411598  -412541  -413371  -413765  -413461  -412780  -412434 
 -412932  -414362  -416250  -417825  -418711  -418992  -418883  -418601 
 -418182  -417630  -417089  -416543  -415936  -415608  -415800  -416145 
 -416187  -415770  -414979  -414212  -414092  -414894  -416053  -416595 
 -416168  -415368  -414890  -414910  -415218  -415358  -414971  -414221 
 -413553  -413170  -412905  -412684  -412761  -413087  -413152  -412601 
 -411486  -410242  -409360  -408978  -408920  -408897  -408713  -408335 
 -407867  -407473  -407219  -407010  -406671  -406088  -405449  -405247 
 -405670  -406301  -406722  -406776  -406324  -405530  -404754  -404017 
 -403151  -402293  -401832  -401889  -402258  -402875  -403699  -404350 
 -404457  -404061  -403409  -402784  -402651  -403361  -404681  -405985 
 -406809  -407074  -406819  -406053  -405121  -404565  -404530  -404874 
 -405477  -406005  -405942  -405234  -404420  -404099  -404620  -406066 
 -408033  -409531  -409702  -408627  -407077  -405849  -405503  -406036 
 -406730  -406911  -406509  -405770  -405133  -405036  -405427  -406040 
 -406684  -406985  -406817  -406547  -406293  -405938  -405724  -405820 
 -406061  -406609  -407687  -408731  -409004  -408489  -407725  -407467 
 -408044  -408952  -409738  -410409  -411118  -412248  -413949  -415624 
 -416643  -416820  -416219  -415332  -414869  -415149  -416033  -417032 
 -417452  -416965  -415702  -413800  -411451  -409072  -407072  -405747 
 -405313  -405838  -407142  -408627  -409650  -410181  -410463  -410503 
 -410448  -410663  -411343  -412538  -413982  -415081  -415557  -415678 
 -415863  -416319  -416908  -417287  -417135  -416311  -415068  -413853 
 -412977  -412704  -413104  -413723  -413973  -413540  -412461  -411297 
 -410738  -410918  -411457  -411783  -411513  -410757  -409828  -408928 
 -408353  -408411  -409002  -409970  -411253  -412176  -412292  -412307 
 -412677  -413000  -412858  -411906  -410266  -408989  -409067  -410413 
 -412040  -412821  -412412  -411319  -409980  -408557  -407131  -405693 
 -404700  -405017  -406773  -408950  -410339  -410505  -409772  -408831 
 -408188  -407982  -408601  -410049  -411265  -411867  -412447  -413043 
 -413592  -414186  -414062  -412746  -411326  -410861  -411270  -411978 
 -412295  -411782  -410737  -410044  -410304  -411222  -412348  -413511 
 -414099  -413479  -412146  -411107  -410805  -411367  -412612  -413688 
 -413884  -413230  -412231  -411459  -410883  -410093  -409153  -408279 
 -407627  -407431  -407485  -407332  -406842  -406107  -405490  -405495 
 -406242  -407475  -408612  -408889  -408230  -407282  -406367  -405522 
 -404859  -403930  -402241  -400419  -399429  -399547  -400584  -401971 
 -402892  -402948  -402351  -401665  -401410  -401814  -402884  -404250 
 -405162  -405166  -404345  -403072  -401904  -401359  -401561  -402313 
 -403380  -404418  -405075  -405275  -405105  -404732  -404532  -404991 
 -406262  -407878  -409349  -410863  -412641  -414121  -414560  -413853 
 -412557  -411423  -410792  -410551  -410482  -410385  -410104  -409718 
 -409625  -410103  -410946  -411727  -412145  -412130  -411781  -411520 
 -411980  -413132  -414252  -414964  -415137  -414558  -413576  -412854 
 -412636  -412777  -412923  -412928  -412861  -412539  -411864  -411197 
 -410975  -411386  -412285  -413183  -413595  -413587  -413564  -413541 
 -413248  -412827  -412788  -413268  -413846  -414069  -413645  -412515 
 -411057  -409617  -408206  -407030  -406489  -406733  -407604  -408686 
 -409486  -409703  -409280  -408496  -408071  -408674  -410246  -412065 
 -413451  -414166  -414371  -414356  -414340  -414391  -414309  -413888 
 -413402  -413326  -413872  -414949  -416079  -416570  -416178  -415381 
 -414996  -415454  -416330  -416853  -416898  -416762  -416504  -416283 
 -416183  -415922  -415561  -415324  -414815  -413588  -412011  -410760 
 -410116  -410124  -410381  -410233  -409804  -409402  -408867  -408339 
 -408022  -407763  -407546  -407216  -406406  -405508  -405496  -406714 
 -408569  -410192  -411139  -411538  -411806  -412260  -412782  -413094 
 -413201  -413203  -413117  -413144  -413359  -413298  -412659  -411654 
 -410526  -409580  -409043  -408643  -407999  -407042  -405978  -405247 
 -405132  -405378  -405471  -405049  -404036  -402781  -402109  -402506 
 -403506  -404522  -405291  -405297  -404210  -402838  -402382  -403331 
 -405535  -408287  -410566  -411783  -411887  -411258  -410505  -409989 
 -409819  -409903  -409857  -409368  -408426  -407153  -405739  -404435 
 -403434  -402831  -402807  -403524  -404832  -406593  -408819  -411025 
 -412433  -412975  -413141  -413392  -414275  -416121  -418576  -420828 
 -422054  -422014  -421286  -420480  -419766  -419224  -418620  -417343 
 -415393  -413464  -412051  -411420  -411554  -411717  -411203  -410046 
 -408464  -406657  -405182  -404543  -404635  -404905  -404789  -404127 
 -403338  -402968  -403253  -404192  -405716  -407681  -409718  -411212 
 -411669  -410968  -409423  -407876  -407049  -406880  -406991  -407150 
 -407116  -406624  -405646  -404763  -404707  -405463  -406888  -409180 
 -411898  -414223  -415980  -417097  -417411  -417464  -417779  -417918 
 -417505  -416793  -416087  -415719  -415643  -415309  -414556  -413451 
 -412053  -411011  -411004  -411916  -413113  -414015  -414433  -414479 
 -414290  -414089  -414026  -413860  -413203  -411816  -409708  -407407 
 -405685  -404940  -405093  -405573  -405765  -405822  -406332  -407439 
 -408759  -409868  -410610  -411035  -411262  -411413  -411430  -411177 
 -410707  -410297  -410235  -410320  -410053  -409433  -408651  -407675 
 -406740  -406048  -405464  -405247  -406013  -407832  -410054  -411710 
 -412056  -411172  -409827  -408952  -409193  -410422  -411841  -412584 
 -412319  -411363  -410143  -409085  -408495  -408414  -409187  -410965 
 -412889  -414077  -414324  -413803  -413020  -412541  -412410  -412195 
 -411782  -411705  -412362  -413476  -414583  -415335  -415484  -415002 
 -413923  -412491  -411372  -410984  -411130  -411405  -411278  -410437 
 -409256  -408353  -407848  -407421  -407068  -407108  -407628  -408434 
 -408935  -408477  -407219  -406084  -405849  -406378  -406946  -407361 
 -407787  -407990  -407971  -408179  -408667  -409276  -409908  -410171 
 -409864  -409460  -409486  -410084  -410983  -411558  -411555  -411466 
 -411812  -412406  -412703  -412622  -412569  -412915  -413334  -413027 
 -411912  -410582  -409617  -409467  -409941  -410289  -410066  -409368 
 -408640  -408222  -408110  -408177  -408389  -408838  -409413  -409810 
 -409953  -409950  -409962  -409915  -409440  -408535  -407547  -406641 
 -405928  -405669  -406132  -407312  -408792  -409928  -410301  -410047 
 -409588  -409247  -409334  -409882  -410598  -411621  -413166  -414691 
 -415515  -415419  -414612  -413567  -412429  -411065  -409950  -409749 
 -410346  -411278  -412273  -412862  -412607  -411770  -410859  -410059 
 -409552  -409503  -409770  -410209  -410811  -411372  -411566  -411255 
 -410530  -409558  -408445  -407381  -406771  -406865  -407540  -408419 
 -408970  -408858  -408250  -407731  -407914  -408840  -409887  -410382 
 -410152  -409504  -408800  -408327  -408464  -409324  -410458  -411188 
 -411064  -410287  -409525  -409160  -409307  -409959  -410683  -411147 
 -411521  -411652  -411139  -410243  -409611  -409596  -410177  -411170 
 -412350  -413249  -413455  -413236  -413162  -413515  -414366  -415439 
 -416191  -416362  -415947  -415029  -413984  -413156  -412720  -412858 
 -413375  -413707  -413580  -413014  -412095  -411231  -410918  -411116 
 -411512  -411924  -411984  -411331  -410239  -409340  -408909  -408659 
 -408245  -407930  -408203  -408848  -409129  -408577  -407114  -405031 
 -403097  -401988  -401712  -402065  -402885  -403772  -404288  -404410 
 -404539  -404989  -405747  -406756  -407782  -408604  -409461  -410472 
 -411320  -411837  -412076  -412138  -412194  -412280  -412294  -412030 
 -411041  -409349  -408019  -407971  -409036  -410425  -411307  -411323 
 -410865  -410589  -410961  -412177  -414046  -415936  -417226  -417723 
 -417433  -416572  -415818  -415604  -415596  -415480  -415280  -414925 
 -414342  -413711  -413438  -413837  -414630  -415143  -414963  -414178 
 -413343  -413024  -413235  -413614  -413973  -414200  -414207  -414247 
 -414603  -414968  -414795  -414105  -413429  -413047  -412798  -412469 
 -411983  -411426  -410948  -410614  -410516  -410593  -410547  -410314 
 -409922  -409166  -408034  -406744  -405446  -404395  -403910  -404019 
 -404554  -405305  -405834  -405769  -405143  -404207  -403334  -402822 
 -402634  -402644  -402748  -402825  -403010  -403578  -404497  -405545 
 -406512  -406975  -406764  -406445  -406483  -406842  -407689  -409183 
 -410977  -412727  -414207  -415007  -415034  -414648  -414143  -413735 
 -413596  -413650  -413741  -413811  -413819  -413561  -412859  -411936 
 -411030  -410026  -408942  -408049  -407502  -407452  -407953  -408634 
 -409212  -409888  -410674  -411143  -411030  -410594  -410424  -410837 
 -411578  -412271  -412659  -412576  -412217  -411906  -411690  -411651 
 -411951  -412499  -413071  -413530  -413762  -413696  -413486  -413397 
 -413569  -414067  -414775  -415389  -415770  -415836  -415611  -415430 
 -415404  -415405  -415511  -415687  -415778  -415708  -415349  -414875 
 -414683  -414745  -414817  -414828  -414802  -414849  -415025  -415123 
 -414856  -414069  -412889  -411736  -410942  -410445  -409923  -409117 
 -408167  -407349  -406715  -406347  -406331  -406540  -406833  -407000 
 -406788  -406270  -405793  -405750  -406263  -406980  -407457  -407663 
 -407959  -408488  -408942  -409131  -409085  -408813  -408508  -408350 
 -408246  -408095  -407907  -407758  -407943  -408600  -409326  -409749 
 -409725  -409094  -408051  -407027  -406248  -405816  -405600  -405248 
 -404789  -404558  -404545  -404626  -404889  -405221  -405390  -405429 
 -405379  -405344  -405649  -406472  -407667  -408901  -409730  -409835 
 -409438  -409141  -409263  -409725  -410312  -410787  -411149  -411755 
 -412844  -414132  -415108  -415477  -415193  -414558  -414049  -413818 
 -413796  -413922  -414001  -413923  -413748  -413428  -412944  -412472 
 -412144  -411882  -411426  -410495  -409228  -408122  -407427  -407107 
 -407020  -406868  -406501  -406094  -405869  -405834  -405711  -405270 
 -404681  -404262  -404144  -404307  -404662  -405097  -405510  -405846 
 -406088  -406246  -406333  -406356  -406374  -406343  -405997  -405340 
 -404638  -403884  -403110  -402633  -402544  -402776  -403401  -404292 
