Origin Time       2025/01/13 21:19:00
Lat.              31.8
Long.             131.6
Depth. (km)       30
Mag.              6.9
Station Code      MYZH03
Station Lat.      32.4754
Station Long.     131.1043
Station Height(m) 519
Record Time       2025/01/13 21:19:47
Sampling Freq(Hz) 100Hz
Duration Time(s)  160
Dir.              6
Scale Factor      7845(gal)/8223790
Max. Acc. (gal)   11.243
Last Correction   2025/01/13 21:19:47
Memo.             
[...]
  -37953   -37972   -37947   -37953   -37945   -37939   -37968   -37959 
  -37952   -37955   -37936   -37960   -37967   -37943   -37956   -37947 
  -37945   -37972   -37948   -37945   -37967   -37945   -37953   -37962 
  -37943   -37959   -37957   -37947   -37960   -37943   -37948   -37970 
  -37951   -37953   -37948   -37937   -37971   -37962   -37940   -37956 
  -37947   -37952   -37968   -37948   -37949   -37952   -37949   -37967 
  -37952   -37944   -37957   -37948   -37957   -37964   -37939   -37947 
  -37959   -37955   -37955   -37944   -37949   -37960   -37952   -37957 
  -37951   -37941   -37963   -37959   -37947   -37956   -37949   -37953 
  -37964   -37949   -37948   -37952   -37951   -37963   -37956   -37944 
  -37951   -37951   -37959   -37960   -37944   -37949   -37956   -37952 
  -37957   -37956   -37945   -37947   -37962   -37966   -37944   -37940 
  -37962   -37960   -37948   -37953   -37953   -37947   -37957   -37964 
  -37949   -37940   -37952   -37968   -37959   -37941   -37951   -37959 
  -37957   -37960   -37953   -37939   -37947   -37967   -37967   -37943 
  -37937   -37953   -37955   -37956   -37963   -37947   -37949   -37959 
  -37947   -37956   -37960   -37947   -37952   -37948   -37948   -37962 
  -37956   -37957   -37951   -37936   -37952   -37963   -37956   -37959 
  -37947   -37943   -37953   -37960   -37968   -37949   -37935   -37951 
  -37957   -37963   -37960   -37936   -37945   -37962   -37956   -37963 
  -37952   -37941   -37957   -37957   -37962   -37964   -37939   -37947 
  -37962   -37952   -37959   -37953   -37945   -37957   -37952   -37951 
  -37959   -37951   -37952   -37955   -37945   -37952   -37956   -37956 
  -37959   -37945   -37949   -37963   -37952   -37953   -37951   -37943 
  -37963   -37957   -37945   -37957   -37947   -37949   -37970   -37951 
  -37944   -37955   -37949   -37963   -37959   -37941   -37956   -37951 
  -37951   -37968   -37944   -37943   -37966   -37952   -37955   -37956 
  -37939   -37955   -37964   -37952   -37955   -37944   -37948   -37970 
  -37949   -37947   -37957   -37941   -37960   -37967   -37937   -37947 
  -37952   -37952   -37972   -37952   -37941   -37952   -37948   -37963 
  -37957   -37940   -37962   -37953   -37949   -37968   -37943   -37944 
  -37970   -37948   -37949   -37953   -37947   -37962   -37952   -37952 
  -37967   -37949   -37966   -37986   -37964   -37974   -37991   -37987 
  -37999   -37998   -37970   -37945   -37932   -37935   -37935   -37930 
  -37955   -37971   -37963   -37962   -37972   -37998   -38032   -38044 
  -38041   -38038   -38040   -38032   -38003   -37962   -37917   -37881 
  -37875   -37918   -37976   -37993   -37982   -37997   -38040   -38092 
  -38102   -38022   -37920   -37885   -37921   -37957   -37937   -37895 
  -37897   -37939   -37957   -37933   -37891   -37817   -37712   -37651 
  -37739   -37949   -38065   -38006   -37948   -38024   -38152   -38153 
  -38036   -38009   -38084   -38067   -37895   -37698   -37659   -37787 
  -37920   -38002   -38026   -37997   -37998   -38007   -38016   -38091 
  -38213   -38354   -38415   -38271   -38067   -37959   -37882   -37806 
  -37760   -37829   -38068   -38298   -38335   -38190   -37980   -37976 
  -38279   -38576   -38620   -38493   -38448   -38649   -38873   -38788 
  -38395   -37905   -37627   -37701   -37845   -37789   -37631   -37669 
  -38133   -38805   -39155   -38950   -38346   -37782   -37731   -38187 
  -38703   -38819   -38508   -38187   -38079   -38040   -37885   -37585 
  -37498   -37955   -38622   -38780   -38043   -36923   -36481   -37015 
  -37814   -38179   -38119   -38173   -38515   -38678   -38408   -38043 
  -37906   -37939   -37836   -37423   -36786   -36316   -36603   -37575 
  -38232   -37825   -36828   -36435   -37065   -37899   -38184   -38198 
  -38572   -39029   -38685   -37705   -37023   -36594   -36004   -35754 
  -36458   -37767   -38558   -38192   -37326   -36887   -37145   -37764 
  -38159   -38219   -38215   -38330   -38628   -38862   -38730   -38194 
  -37312   -36580   -36861   -38290   -39874   -40483   -39879   -38715 
  -37655   -36856   -36436   -36718   -37602   -38439   -38705   -38465 
  -38180   -38048   -37751   -37170   -36806   -36991   -37419   -37851 
  -38460   -39163   -39440   -39258   -39271   -39599   -39528   -38751 
  -38072   -38441   -39405   -39534   -38499   -37450   -37353   -37619 
  -37324   -37065   -37574   -38136   -37998   -37508   -37584   -38607 
  -39668   -39486   -38055   -36661   -36201   -36217   -36097   -36154 
  -36729   -37314   -37358   -36953   -36364   -35937   -36185   -37235 
  -38361   -38599   -38129   -38061   -38367   -37795   -36297   -35490 
  -36369   -38090   -39337   -39970   -40610   -41017   -40227   -38481 
  -37419   -37864   -38875   -39378   -39677   -40316   -40439   -39073 
  -36976   -35629   -35359   -35565   -36047   -37081   -38514   -39687 
  -39989   -39260   -38072   -37343   -37536   -38449   -39557   -40432 
  -40837   -40644   -39675   -37895   -36040   -35224   -35785   -37146 
  -38338   -38707   -38349   -37563   -36647   -36252   -36580   -36811 
  -36493   -36337   -36983   -37925   -38168   -37608   -37019   -36875 
  -36953   -36996   -37145   -37345   -37303   -37454   -38353   -39490 
  -40084   -40352   -40996   -41609   -40971   -39344   -38607   -39437 
  -40274   -39931   -39193   -38781   -37922   -36397   -35765   -36832 
  -37886   -37142   -35446   -34990   -36116   -36792   -35569   -33858 
  -34013   -36193   -38425   -38915   -37849   -36822   -36641   -36919 
  -36960   -36375   -36069   -37133   -38862   -40228   -40934   -40640 
  -39718   -39064   -39100   -39857   -40385   -39895   -39629   -40500 
  -41025   -39656   -37134   -35773   -36531   -37835   -38373   -38632 
  -38877   -38322   -36767   -35633   -36101   -36915   -36405   -35419 
  -36174   -38863   -40605   -39232   -36479   -35008   -35135   -35843 
  -36441   -37008   -37851   -38551   -38704   -38489   -37812   -36803 
  -36347   -37018   -38472   -39685   -40192   -40709   -41342   -40961 
  -39464   -38400   -38445   -38507   -37760   -36574   -35637   -35073 
  -34489   -34206   -34989   -36502   -38109   -39912   -41805   -43058 
  -42708   -40255   -36699   -34219   -34250   -35885   -37184   -37652 
  -37528   -36405   -34630   -33855   -34920   -36818   -37867   -37481 
  -37282   -38935   -41008   -40882   -39031   -38484   -40539   -43444 
  -44521   -42803   -40000   -37990   -36895   -36045   -35317   -35540 
  -36728   -37768   -38249   -38067   -37407   -37254   -37854   -38280 
  -37980   -37689   -38144   -38565   -37800   -36433   -36551   -38673 
  -40635   -40956   -40454   -40053   -39418   -37732   -35476   -34445 
  -35191   -36533   -37656   -38415   -38662   -38354   -37542   -36995 
  -37577   -38225   -37269   -35482   -35351   -37638   -40528   -42217 
  -42275   -41011   -39228   -37770   -37102   -37204   -37226   -36483 
  -35607   -35333   -35289   -34931   -34820   -35760   -37393   -39037 
  -40072   -39536   -37513   -35437   -34870   -36802   -40086   -41864 
  -41023   -39048   -37633   -37154   -37073   -36904   -36568   -36346 
  -36969   -38720   -39887   -38821   -36969   -36674   -38362   -40417 
  -40259   -38022   -37110   -38750   -40599   -40632   -38684   -36259 
  -35505   -36628   -38142   -39152   -39083   -37636   -35630   -34172 
  -34060   -35451   -37243   -38518   -39766   -41357   -42252   -41312 
  -39364   -38550   -39634   -41029   -40797   -39106   -37485   -36364 
  -35307   -34816   -35708   -37131   -37530   -36842   -36157   -36327 
  -36909   -36732   -36371   -37616   -40174   -41783   -41188   -39415 
  -38286   -38206   -38083   -37196   -36238   -36423   -37891   -39310 
  -39568   -39144   -38732   -38087   -37049   -35915   -35483   -36936 
  -39459   -40034   -37636   -35052   -35124   -37332   -39123   -38896 
  -37322   -36127   -35749   -35484   -35251   -35887   -37998   -40495 
  -41391   -40382   -38869   -37979   -37643   -37076   -36440   -36923 
  -38445   -39565   -39657   -39252   -38859   -38672   -38677   -38499 
  -37991   -37423   -36748   -36086   -35992   -36369   -36836   -37341 
  -37606   -37562   -37515   -37154   -36282   -35791   -36482   -38317 
  -40178   -40417   -39609   -39663   -39991   -39252   -38322   -38372 
  -39222   -40041   -40126   -39634   -39027   -37968   -36516   -35981 
  -36917   -38352   -39252   -39074   -38254   -37989   -38275   -38323 
  -38161   -37840   -37308   -37191   -37609   -37586   -36720   -35892 
  -36081   -37257   -38052   -37161   -35457   -34978   -36174   -37701 
  -38410   -38731   -39572   -40478   -40207   -38758   -37593   -37551 
  -37704   -37214   -36845   -37558   -38882   -39433   -38842   -38230 
  -38275   -38597   -38969   -39112   -38834   -38709   -38963   -39163 
  -39075   -38454   -37363   -36485   -36177   -36285   -36504   -36487 
  -36221   -36209   -36805   -37419   -37324   -36985   -37413   -38580 
  -39139   -38049   -36298   -36018   -37751   -39749   -40470   -40259 
  -39938   -39549   -38738   -37465   -36332   -35976   -36520   -37443 
  -37700   -36914   -35784   -35063   -35264   -36487   -38041   -39210 
  -39738   -39406   -38358   -37416   -37319   -38079   -39155   -40000 
  -40266   -39536   -37894   -36643   -36784   -37530   -37609   -37034 
  -36859   -37694   -38773   -38896   -38057   -37188   -37079   -37810 
  -38460   -38516   -38596   -38708   -38398   -37721   -36605   -35387 
  -35029   -35880   -37683   -39752   -41034   -41234   -40830   -39970 
  -38846   -38140   -38010   -38175   -38873   -39982   -40394   -39523 
  -37949   -36509   -35726   -35545   -35862   -37042   -38970   -40616 
  -40876   -39758   -38634   -38442   -38464   -37885   -37413   -38121 
  -39409   -39363   -36837   -33342   -32227   -34398   -37308   -38657 
  -38470   -38522   -39598   -40107   -39326   -38611   -38911   -40034 
  -40927   -40486   -38766   -36417   -34184   -33095   -33615   -35353 
  -37836   -40323   -41405   -40089   -37166   -34777   -34543   -36238 
  -38292   -39911   -41586   -42867   -42346   -40375   -38591   -37674 
  -37658   -38441   -39622   -40575   -40404   -39128   -38172   -38045 
  -37693   -36556   -35347   -35179   -36325   -37693   -38164   -37890 
  -37358   -36495   -35849   -36413   -38030   -39680   -40004   -38747 
  -37856   -38288   -38704   -38507   -38365   -38727   -39239   -38897 
  -37878   -37778   -38531   -38381   -37142   -36225   -36124   -35760 
  -34578   -34172   -35471   -36587   -36381   -36300   -37276   -38435 
  -38789   -38537   -38908   -40274   -41075   -40244   -38624   -37092 
  -36221   -36512   -37555   -38639   -39353   -39469   -39237   -38796 
  -37929   -37057   -36651   -36346   -35897   -35733   -36701   -39101 
  -41111   -40500   -37937   -35985   -36201   -38080   -39425   -39064 
  -38701   -40035   -41922   -41985   -39490   -35588   -32431   -32225 
  -34277   -35178   -34207   -34088   -36234   -38738   -39017   -37447 
  -36740   -37706   -38547   -38442   -38709   -39938   -40759   -40238 
  -39514   -39776   -40065   -39059   -37531   -37150   -37945   -37983 
  -36097   -34435   -35706   -38654   -39827   -38487   -37056   -37675 
  -39744   -41050   -40452   -38821   -37519   -36707   -36313   -37231 
  -39494   -41235   -40921   -39096   -37606   -37350   -37106   -35887 
  -35051   -36116   -37970   -37979   -35716   -33694   -33648   -34858 
  -36440   -38419   -40570   -41843   -41497   -40053   -38857   -39028 
  -40151   -40594   -39946   -39243   -38834   -38396   -38051   -37808 
  -37235   -36171   -34906   -34153   -34609   -35893   -36899   -37301 
  -37647   -38298   -38781   -38692   -38827   -39914   -41185   -41598 
  -41099   -40348   -39807   -39117   -37839   -36364   -35575   -35958 
  -37003   -37404   -36490   -35602   -36339   -37986   -39044   -39235 
  -38901   -38624   -38581   -37975   -36632   -35897   -36909   -39199 
  -41154   -41469   -40321   -38840   -37783   -37218   -37085   -37650 
  -39020   -40483   -40986   -40254   -38847   -37241   -35784   -34985 
  -35128   -36231   -37735   -38635   -38836   -38699   -38005   -36813 
  -35769   -35770   -37238   -38958   -39465   -39102   -38666   -37809 
  -36288   -34823   -34164   -34561   -35642   -36722   -37798   -39343 
  -40806   -40771   -39361   -38591   -39405   -40402   -40003   -38654 
  -38087   -38442   -37970   -36377   -36051   -38614   -42240   -43939 
  -42827   -39721   -35833   -32967   -32476   -34001   -36069   -37345 
  -37902   -38942   -40447   -40726   -39132   -37459   -37484   -38584 
  -39070   -38538   -38059   -38587   -39509   -39586   -38673   -37201 
  -35696   -35056   -35696   -37250   -39093   -40522   -40987   -40343 
  -39015   -37362   -35575   -34526   -34966   -36497   -38053   -38793 
  -38931   -38881   -37999   -36205   -35102   -35950   -38145   -39842 
  -39816   -38815   -38094   -37258   -35395   -33586   -34026   -36733 
  -39352   -40321   -39927   -38850   -37974   -38299   -39779   -40834 
  -39811   -37393   -36009   -36493   -37494   -37890   -37767   -37476 
  -37081   -36841   -37457   -38909   -39602   -38140   -35559   -34155 
  -34059   -33397   -32130   -32267   -34572   -37874   -40441   -41435 
  -41651   -42060   -42353   -41670   -39923   -37660   -35275   -33820 
  -34452   -36346   -38215   -40055   -41526   -41731   -40583   -38649 
  -36992   -37076   -39097   -41601   -43060   -43171   -43564   -45139 
  -45357   -42565   -39584   -39291   -40336   -39291   -35820   -33620 
  -34446   -34593   -30959   -26492   -26167   -31145   -38013   -42357 
  -43977   -45391   -45681   -43116   -39505   -36634   -35370   -37054 
  -40570   -42314   -40694   -37937   -36995   -37584   -37542   -37498 
  -39695   -42885   -43245   -39583   -35017   -33872   -36572   -38917 
  -38523   -38194   -39694   -40363   -39170   -38767   -39719   -39633 
  -38206   -37813   -39179   -39992   -38624   -36976   -37488   -38831 
  -38087   -36263   -36634   -38677   -39306   -38002   -36121   -34754 
  -34423   -34500   -34677   -34682   -33093   -30977   -31619   -34913 
  -37416   -37613   -37524   -38572   -39413   -38900   -37974   -38036 
  -39044   -39873   -39711   -38349   -36494   -35518   -35239   -34438 
  -34165   -36000   -39074   -41681   -42144   -39970   -37590   -37327 
  -38900   -40871   -42105   -42255   -41304   -39668   -37921   -35847 
  -34163   -34970   -38352   -41462   -41589   -38917   -36377   -36317 
  -38295   -40852   -42925   -43852   -43285   -40514   -36548   -35164 
  -37854   -41899   -44073   -42952   -39810   -37045   -35187   -33990 
  -34014   -35554   -38408   -41264   -41551   -38842   -35549   -33293 
  -32894   -35419   -39448   -41261   -39037   -35046   -32960   -33245 
  -33987   -34501   -35673   -38333   -40755   -40373   -38735   -39213 
  -41419   -42390   -41300   -40518   -41731   -43177   -42431   -39646 
  -36927   -36177   -37007   -37112   -35970   -34977   -34838   -35991 
  -37617   -37839   -37609   -38529   -39664   -40346   -40336   -39402 
  -39005   -39730   -40138   -39819   -39050   -37899   -37044   -36084 
  -34187   -32845   -33350   -34360   -34441   -33714   -33577   -35160 
  -36783   -36063   -34020   -33318   -34659   -36698   -38028   -38680 
  -39391   -40377   -41322   -41532   -40686   -39557   -39021   -39048 
  -39307   -39923   -40817   -41523   -42190   -42438   -40744   -37422 
  -34769   -34034   -34820   -35884   -36373   -36485   -35946   -34144 
  -32047   -31288   -32478   -35122   -37424   -38180   -38778   -40300 
  -41652   -42090   -42017   -41661   -41168   -40355   -38507   -36521 
  -35914   -35748   -34722   -33509   -33488   -34966   -36354   -36081 
  -35041   -35812   -39193   -42341   -42747   -41899   -42145   -43066 
  -42666   -40441   -37874   -36221   -35931   -37362   -39834   -41473 
  -40848   -38092   -34897   -33103   -33062   -33712   -34022   -34245 
  -35518   -38033   -40293   -40666   -39067   -37687   -39004   -41824 
  -42745   -41820   -41997   -43818   -45148   -44824   -43413   -41891 
  -40996   -40787   -40803   -40568   -39933   -38884   -37037   -34520 
  -32590   -32004   -32439   -33272   -33947   -35162   -38040   -41095 
  -41816   -40780   -40778   -42573   -43941   -42830   -39818   -36902 
  -35094   -34254   -33988   -34488   -36612   -39710   -41652   -41594 
  -39945   -37470   -35484   -34488   -33822   -33681   -34465   -34997 
  -34392   -33442   -33203   -34123   -35881   -37912   -40038   -41720 
  -42063   -41122   -39575   -37370   -34418   -32097   -31861   -33158 
  -34663   -36143   -38192   -40482   -41123   -39452   -37918   -38815 
  -40616   -40294   -38242   -37122   -37525   -37897   -36489   -33683 
  -32050   -32078   -32243   -32788   -34458   -36409   -37426   -37351 
  -37301   -37891   -38526   -39116   -39573   -39087   -37914   -37039 
  -36582   -36738   -37729   -38290   -37358   -35829   -34570   -33544 
  -33166   -34125   -36726   -40485   -43071   -41868   -37925   -35569 
  -37377   -41473   -44112   -43807   -42086   -40563   -38861   -36634 
  -35731   -37538   -40290   -41358   -40690   -40085   -39595   -37779 
  -35068   -34079   -36683   -41022   -42462   -39178   -34992   -34376 
  -37331   -40923   -42786   -42616   -41424   -40309   -40201   -40490 
  -39889   -39029   -39089   -40204   -41246   -40551   -38827   -38261 
  -39283   -41359   -43306   -42556   -38538   -34419   -32815   -33507 
  -35136   -36409   -37242   -38148   -38491   -37698   -36886   -37504 
  -38881   -39591   -40163   -40937   -40655   -38421   -34479   -30939 
  -29970   -30807   -32297   -34669   -37206   -38881   -39366   -38098 
  -35425   -32962   -31669   -31608   -32618   -34391   -36401   -37357 
  -36382   -34581   -33444   -33718   -35779   -38430   -39621   -39530 
  -39695   -39991   -39249   -37038   -34125   -32429   -33438   -36667 
  -39866   -40126   -36875   -33693   -33604   -35198   -36667   -38446 
  -40436   -41548   -41590   -41122   -40271   -38668   -36282   -34257 
  -34773   -38136   -40953   -40482   -38335   -37351   -37866   -38184 
  -37072   -35861   -37039   -40063   -42064   -42466   -42573   -42194 
  -39984   -35850   -32300   -32563   -36124   -38865   -38893   -38267 
  -38389   -38356   -37671   -36985   -37199   -38716   -40879   -42861 
  -43617   -41872   -38848   -37299   -37397   -37746   -37879   -37922 
  -38592   -40265   -41737   -42248   -42437   -42827   -43194   -42471 
  -40190   -37679   -36202   -35880   -36086   -36138   -36393   -37349 
  -38404   -38981   -39118   -38812   -37874   -36562   -36057   -36679 
  -36944   -36445   -36018   -35529   -34936   -34385   -33775   -34231 
  -36121   -37633   -38263   -39243   -40825   -41980   -41338   -39183 
  -38097   -39291   -40626   -39717   -37007   -34793   -34550   -36031 
  -37505   -37940   -38454   -39282   -38924   -36991   -34761   -34001 
  -35182   -37096   -38780   -39309   -37771   -35642   -35525   -37723 
  -40517   -41885   -41102   -39258   -36832   -33562   -30622   -29435 
  -30646   -33912   -37361   -39937   -41818   -42051   -39853   -36229 
  -33415   -33994   -37652   -40479   -40366   -39197   -38905   -39124 
  -38353   -36363   -35606   -38071   -41914   -44023   -43704   -42228 
  -40641   -39681   -40153   -41504   -42304   -42213   -41590   -40572 
  -39064   -37273   -36139   -36404   -37721   -39347   -41041   -42253 
