Origin Time       2025/01/13 21:19:00
Lat.              31.8
Long.             131.6
Depth. (km)       30
Mag.              6.9
Station Code      MYZH08
Station Lat.      32.2132
Station Long.     131.5309
Station Height(m) -145.9
Record Time       2025/01/13 21:19:40
Sampling Freq(Hz) 100Hz
Duration Time(s)  222
Dir.              3
Scale Factor      2940(gal)/6170270
Max. Acc. (gal)   16.740
Last Correction   2025/01/13 21:19:25
Memo.             
[...]
   94060    94061    94061    94058    94059    94061    94060    94059 
   94059    94058    94058    94060    94060    94058    94059    94063 
   94061    94060    94063    94060    94057    94062    94062    94057 
   94058    94064    94061    94055    94057    94060    94059    94059 
   94060    94059    94059    94060    94058    94058    94061    94058 
   94059    94060    94057    94059    94059    94056    94057    94059 
   94060    94059    94058    94060    94057    94057    94062    94061 
   94059    94058    94057    94058    94059    94060    94062    94062 
   94060    94059    94060    94059    94060    94062    94060    94058 
   94060    94061    94060    94057    94056    94057    94059    94060 
   94061    94062    94061    94056    94056    94061    94060    94057 
   94060    94062    94058    94057    94059    94058    94059    94059 
   94057    94059    94060    94060    94061    94060    94059    94058 
   94058    94059    94060    94059    94059    94059    94057    94056 
   94059    94061    94060    94059    94060    94060    94061    94061 
   94061    94060    94060    94062    94061    94059    94061    94061 
   94058    94059    94061    94059    94058    94060    94063    94062 
   94058    94057    94057    94059    94061    94060    94060    94060 
   94059    94061    94062    94059    94059    94061    94061    94061 
   94061    94060    94060    94060    94059    94059    94060    94061 
   94058    94060    94060    94056    94055    94053    94046    94039 
   94034    94029    94017    94002    93991    93975    93958    93947 
   93936    93929    93931    93933    93935    93941    93943    93939 
   93940    93935    93911    93873    93829    93796    93798    93859 
   93982    94106    94139    94074    93925    93691    93504    93507 
   93670    93823    93826    93726    93612    93561    93669    93804 
   93774    93687    93733    93993    94473    95006    95216    94823 
   93977    93184    92983    93559    94529    95204    95101    94390 
   93826    93933    94465    94890    94927    94617    94272    94193 
   94403    94714    94836    94563    93978    93369    93080    93254 
   93707    94211    94609    94668    94336    94137    94510    95029 
   95101    94760    94274    93849    93734    93876    93917    93738 
   93473    93320    93415    93598    93639    93477    93162    92904 
   92928    93219    93638    94100    94454    94465    94034    93315 
   92633    92302    92419    92942    93751    94382    94298    93529 
   92552    91877    91827    92246    92633    92697    92583    92606 
   92921    93465    94007    94123    93478    92427    91778    91789 
   92240    92979    93506    93254    92376    91387    90875    91227 
   91978    92236    91829    91581    92112    92961    93422    93113 
   92140    91560    92180    93368    94223    94580    94666    94663 
   94605    94435    94087    93780    93781    93902    93754    93249 
   92852    93092    93866    94550    94596    94355    94774    95959 
   97317    98405    98706    98023    97125    96824    96853    96517 
   95817    95231    95189    95576    95689    95575    95720    95664 
   95229    95242    95830    96164    96125    96287    96549    96654 
   96760    96564    95751    94633    93480    92450    91887    91949 
   92255    92704    93835    95126    95185    94114    92951    91934 
   91069    90910    91986    93687    94650    94486    93830    93258 
   92727    91966    91411    91114    90181    89043    89226    90771 
   92334    93300    94118    94532    93841    92845    92902    93920 
   94737    94865    94952    95442    96011    95954    94596    92559 
   91468    91922    93413    95059    96053    96356    95947    95167 
   95479    96233    95098    93048    92344    92828    93687    94536 
   95429    96587    96928    95328    92734    91117    91548    93647 
   96471    99096    99859    97783    95016    94171    94876    95856 
   96659    96406    94819    93307    92851    93051    93480    93632 
   93011    92425    92564    93036    93904    95021    95584    95273 
   94052    92424    91462    91503    92267    93534    94715    95009 
   94506    94230    94736    95426    95128    93626    92411    92254 
   92376    92584    92911    93156    93295    92957    92249    91635 
   91183    91271    92093    93327    94370    94658    94990    95806 
   95402    92786    88766    84640    82204    83224    87343    91532 
   93926    95374    95959    95709    95993    96500    96135    95648 
   95704    95896    95814    94989    93480    91986    90831    90247 
   90483    91432    92707    93655    93889    93744    93525    93008 
   92902    94449    96068    95287    93400    93268    95690    99632 
  102698   102807   100625    98740    99151   101039   101245    98969 
   96585    95085    93900    92958    92318    92802    95027    97338 
   97564    95760    94543    96240   100025   102841   102163    98861 
   96409    95890    95705    94681    92687    91179    90964    90379 
   89525    89434    88228    85930    86112    89116    91138    90578 
   90371    92757    95691    96371    94841    93289    93083    93622 
   94058    93788    92330    90420    89502    89875    90122    88243 
   84471    82562    85500    91242    95676    97744    98982    99758 
   98671    95845    94009    94093    94762    96888   100871   103313 
  102203   100170   100000   100889   100671    98115    94413    93567 
   96137    97552    95617    92471    91330    93447    96428    97999 
   98100    97138    97121    99406   101288   100402    98022    96191 
   95488    95288    94039    90529    87350    89009    94028    95225 
   89933    84287    83854    85946    87321    89963    93999    96845 
   98662    99962    99769    98390    97060    96878    98020    98369 
   96051    92512    91402    94668    98991    99867    98399    96634 
   92934    88738    87552    88146    90249    95841   101984   105400 
  107710   109440   108269   104078    98302    91414    85422    83197 
   84595    88157    93718   100108   103494   101705    98540    97992 
   97822    95030    91270    90068    92696    95866    95582    92776 
   90197    88081    85938    84534    84606    85552    87430    90873 
   94472    96480    96442    94332    90803    87556    86512    87547 
   89336    91423    91956    89311    86148    86077    89249    93079 
   94705    93411    91593    91792    93575    94885    95097    94423 
   91818    87497    83923    83072    86520    93535    99458   101018 
  100736   102907   107141   109522   107583   102828    99104    97990 
   98739    99252    97537    95647    96008    97516    98408    96875 
   92549    88777    88878    92261    95194    95101    94258    95441 
   97462    98779    99076    98393    98232    98873    97253    92234 
   87613    86256    86797    87472    87293    84631    79527    76650 
   80382    86826    89394    88277    87144    89219    95312   100972 
  102830   102736   101391    98700    97142    96148    93332    90827 
   89613    88019    86597    84824    83640    86674    91407    94171 
   96559    98620    99429    99904    99532    98094    97638    98925 
  100294   100939   101156   100314    98680    96984    94135    91191 
   90991    92688    94625    97206   100636   103650   102621    95669 
   86718    80840    79577    81071    83463    86814    90996    95576 
   98495    97194    94554    94177    95583    98162    99738    99237 
   99731   100231    98191    96472    95512    91223    85517    85225 
   90078    95677   100507   101513    99037    98481    99282    99600 
  100496   100539   100402   100981   100038    98386    96593    92902 
   88393    85554    85121    86816    90897    95623    98325    99073 
   95917    88644    85353    90165    97103   100228    98169    93923 
   92119    93689    96671    98125    95894    91448    86993    83455 
   83156    88007    94302    95798    92081    87402    84194    82279 
   81301    82234    85387    88111    89962    94402   101075   106027 
  106448   101717    94972    89328    85922    87089    92254    96958 
  100281   102550   100695    94906    88970    84751    84412    88166 
   91863    94819    99098   102168   102536   103507   104327   100038 
   91577    84835    82112    83161    87653    92750    95571    94961 
   91139    87520    86725    87253    87194    87059    89697    95131 
   97977    96813    96155    96134    93525    89043    85784    86225 
   90002    93073    93020    91952    91523    90539    89580    89793 
   87815    83374    82551    86858    92483    95260    94270    94760 
   96804    94777    91770    91281    89672    87526    88442    91520 
   93715    93889    93604    92980    90737    88640    88388    89911 
   93358    97366    99762   100137   100711   103026   104521   104066 
  101775    95066    87934    88713    95099    99546   100964   100762 
   98153    95287    97054   100751   100042    96981    96777   100113 
  104307   107085   109281   110695   109171   104951    99265    94091 
   92654    95901   101886   106255   106250   104664   103076   100902 
   99464    97021    91742    87814    89115    93768    97194    98413 
   98795    97366    95117    94060    92412    90557    91917    96695 
  101448   102169    98651    94484    92347    92319    91365    85841 
   78838    78349    85216    93050    97543    97309    94509    94866 
   98690    99665    95112    89225    87167    89004    90259    88831 
   86308    84569    84992    85889    83503    78705    77255    81904 
   88658    93358    96307    99217   102135   103561   102983   100462 
   96866    96036    98762   101635   103582   104048   103144   103061 
  102845   100663    97968    96712    98371   102934   107508   109357 
  108807   107347   105211   102778   100729    98922    97245    95875 
   95879    97557    97654    94249    91032    90990    91610    89889 
   86617    84491    84459    85095    87154    91748    94342    92739 
   91251    90517    89206    89985    93051    95242    95894    95542 
   94001    92852    94474    96743    94941    90002    86204    83576 
   81335    81985    85639    88308    88986    90191    92736    96023 
   98544    98652    98117    98462    96640    91578    87641    86044 
   82998    78628    76485    77379    79136    78880    77464    78180 
   81028    84309    87628    91561    95084    94838    91060    87928 
   86163    84181    82732    81654    79710    80558    88426    99639 
  108833   114681   115378   111007   105083    99568    96935    98599 
   99858    97969    96706    96816    95051    92529    90819    86988 
   82441    81632    82860    85593    92524   100444   104524   103618 
   97975    89408    81880    81510    90069    99308   100742    94739 
   87772    84410    83863    84881    86540    88248    91192    94815 
   99081   105156   110036   111296   112286   114570   112771   106590 
  104922   107666   108929   110245   107577    98266    93382    94052 
   91252    86203    83709    84793    86594    85072    83322    86280 
   91601    94276    93555    92474    92456    92259    92816    97324 
  105205   109402   106697   104995   106196   102376    95319    93752 
  100621   108773   107995   105304   110351   111350   102386    96062 
   96552    98267    98196    96545   100120   113475   124561   122025 
  114559   111675   108332   100050    92877    94660    99645    95057 
   87598    89317    91149    85907    81216    80425    83169    87784 
   85858    79088    83762    98311   103114    98073    95208    93395 
   89978    88822    94651   105784   110177   103219    94229    89585 
   91235    97266    98532    93552    89764    86893    84565    87809 
   92105    90258    85235    79908    73337    67357    65247    69584 
   78285    84028    85230    85182    83580    82575    86414    93368 
  100740   105851   103344    96421    94556    96280    94076    87481 
   80706    78138    81780    88162    92405    92867    90104    85893 
   82012    80700    81751    80270    78381    83260    92487   102147 
  112953   121380   122913   118842   112236   105383   102391   104734 
  107493   106512   102299    97631    93756    89004    84883    84595 
   84814    84037    87760    92521    92226    94897   102641   106807 
  107548   105769    99905    96444   100923   108679   112332   111374 
  109822   108630   107388   107863   109192   107262   103458   102681 
  103153   101180    97804    93422    88822    87695    89087    88135 
   85582    86218    90905    97764   103157   101494    95738    95163 
   99067    99988    96101    90379    85203    83057    86157    90835 
   91440    88245    83359    78683    76911    76094    73434    71773 
   73917    78741    82757    85334    90344    95856    96255    94113 
   93186    91779    90829    93605    98531   103018   106963   107513 
  103278   100878   103365   104745   102850    99671    94393    87895 
   83850    84795    89566    93284    93462    91300    87571    82918 
   78784    77532    80232    83285    83098    81397    80424    79822 
   81252    86706    91855    90831    86832    87732    92263    93452 
   92034    92682    95031    96590    96262    95538    97227    99311 
   98316    97202    99668   103528   104583   102507    99838    96515 
   92553    91866    97544   107037   113319   114317   114939   117893 
  123389   128956   129192   124120   115914   103700    91166    84725 
   83400    80596    74043    68241    66777    68470    71866    76885 
   82257    86435    89654    91533    91384    93278   100998   109799 
  113889   112608   106410    99108    97075   100264   102702   101954 
  101225   100459    95801    89125    84069    79410    75296    73603 
   74213    78203    85651    93174    99710   106177   110943   113569 
  116594   120087   121141   117270   107906    96000    85179    76040 
   70280    70968    76712    82244    81947    77007    77853    86800 
   93117    93123    92601    94114    98666   106952   114002   114451 
  109266   102129    96460    95644    99097   100767    97736    94695 
   94692    94559    92122    89049    87476    87666    87410    85225 
   83618    85319    88407    89751    88598    84209    77574    73364 
   75337    82249    87606    85846    79097    74687    77932    86514 
   94288   100824   107856   112944   114773   114149   111598   109008 
  105447    97514    88262    84599    87995    94661   100416   103794 
  105470   105647   106245   110726   117178   119676   116719   112104 
  109609   110471   113447   114920   113353   111429   109986   106752 
  101476    96517    92835    88973    84700    81416    79000    77138 
   77229    79429    81821    82885    83053    85454    91982    99142 
  101965    99243    95052    93695    93027    91017    89612    86776 
   81149    78051    79851    82050    80299    74783    68633    64619 
   64000    66760    72167    78705    85301    92195    97317    98310 
   97558    96978    96300    96574    95509    89624    81684    75431 
   71656    71084    73556    77258    80690    84671    90316    96574 
  102941   109008   113080   114071   110065   101549    95408    95760 
   99048   102141   104809   105826   104260   102645   105186   111957 
  116716   115341   112972   115452   120930   124948   124468   118843 
  111339   103863    96568    92930    93516    93089    89675    85541 
   81245    76696    73084    70466    69139    70205    71192    70875 
   74285    82366    89825    95613   100603   103005   102917   101875 
  100435    98192    93970    88927    85885    85313    86481    89009 
   91333    92623    94234    94711    92004    89895    90786    91441 
   90702    89607    87622    85110    84001    85541    88467    89380 
   87683    85702    84120    83796    85322    86385    86597    87621 
   88827    90957    96247   102462   106396   108848   110690   110981 
  109264   106774   106340   108436   109096   106138   101966    98812 
   97200    96906    96473    93786    88829    85882    88791    95266 
   99893    99058    92946    85102    79055    76807    79023    83998 
   89199    93314    95006    93799    91796    91028    92436    96513 
  100524   100868    99331    99118    99298    98792    98472    98955 
  100703   103291   105383   106344   105159   101177    96740    93927 
   91418    88847    87840    87530    87093    87925    88840    88333 
   88171    88719    89206    90909    95158   102340   110017   112993 
  110267   105738   101891    99138    97620    96615    96040    96899 
   97285    94515    90623    87424    83883    81883    83953    88727 
   93156    95233    96078    97192    96495    93206    89665    86527 
   84642    85819    87941    87566    85495    84695    85693    86728 
   86675    85184    82433    80113    80196    83036    86813    89650 
   92135    95123    97609    98727    99463   102043   107097   112278 
  115235   115495   114198   113301   113223   113556   115096   117782 
  119613   118380   113269   105422    96863    90199    87775    88782 
   90157    90483    90478    90667    90529    89172    86079    82377 
   79922    79078    79748    82914    88607    93615    95345    96155 
   98499   100598   100684    99620    98636    97944    96417    93470 
   91315    91103    89946    85863    80889    77833    78071    82068 
   88694    94983    98370    97638    93300    89305    89958    94132 
   97440    97757    95303    91335    87905    86699    87447    87787 
   86265    84403    84471    86994    90866    94445    96666    98554 
  101129   102181   101082   101579   105118   109256   111605   110943 
  107720   103506   101068   103193   107053   107059   102978    97541 
   92906    90337    88121    85374    85158    87631    89101    89955 
   92572    94808    94554    93750    93822    94051    93412    91099 
   88685    89285    92815    96935   100366   102791   104215   104188 
  102924   102006   101216    99251    96962    95490    94384    93408 
   93602    95472    98057   100035   100118    98617    97755    97816 
   97628    97934    99077    99690    99489    98975    97347    94080 
   91006    89102    86938    84955    85038    87501    91527    94477 
   93701    90694    88560    87135    85259    84711    86997    89545 
   89628    88407    87688    86908    85696    85388    86565    88207 
   89466    90209    90916    92277    93778    94331    94211    94412 
   94503    93529    93150    94954    96673    97006    97588    98685 
  100152   102201   103237   102539   101425    99878    97584    96047 
   95523    94549    93610    93873    94234    93444    92287    91767 
   90960    88779    86550    85901    86608    88000    89313    89944 
   89836    88036    84628    82647    83967    86808    88426    88649 
   89711    91554    91018    87073    82336    79195    77928    77929 
   78164    77801    77887    79858    83130    86399    88566    89138 
   89901    92905    97084   100101   101615   102414   102821   103115 
  102971   101575    99686    98957    99443    99396    97245    93667 
   90486    88662    88628    89492    89774    90650    93476    96907 
  100017   102466   103390   104073   106399   109555   112129   113829 
