Origin Time       2025/01/13 21:19:00
Lat.              31.8
Long.             131.6
Depth. (km)       30
Mag.              6.9
Station Code      MYZH10
Station Lat.      32.0215
Station Long.     131.2900
Station Height(m) -20
Record Time       2025/01/13 21:19:39
Sampling Freq(Hz) 100Hz
Duration Time(s)  214
Dir.              2
Scale Factor      2940(gal)/6170270
Max. Acc. (gal)   20.528
Last Correction   2025/01/13 21:19:24
Memo.             
[...]
   54985    54986    54986    54986    54985    54985    54986    54986 
   54987    54987    54988    54986    54984    54985    54987    54986 
   54985    54987    54987    54985    54986    54987    54987    54987 
   54985    54988    54989    54985    54985    54988    54987    54986 
   54987    54987    54984    54984    54986    54986    54984    54985 
   54985    54984    54986    54987    54986    54985    54985    54987 
   54987    54986    54986    54985    54986    54987    54987    54987 
   54985    54984    54986    54987    54986    54987    54986    54985 
   54987    54987    54986    54986    54986    54988    54987    54984 
   54985    54986    54985    54986    54988    54987    54985    54987 
   54986    54984    54986    54987    54987    54986    54985    54986 
   54986    54987    54986    54985    54986    54986    54986    54985 
   54983    54984    54986    54985    54984    54984    54984    54986 
   54988    54987    54986    54986    54984    54984    54986    54986 
   54985    54986    54986    54985    54986    54987    54985    54985 
   54986    54985    54984    54984    54985    54986    54985    54984 
   54986    54986    54986    54986    54986    54986    54986    54984 
   54984    54986    54987    54985    54985    54984    54983    54985 
   54986    54984    54985    54988    54985    54984    54985    54985 
   54983    54986    54989    54986    54984    54985    54985    54985 
   54987    54988    54986    54986    54986    54986    54985    54984 
   54986    54987    54987    54985    54983    54986    54988    54987 
   54987    54987    54986    54987    54987    54987    54987    54986 
   54987    54988    54987    54985    54986    54989    54989    54987 
   54988    54986    54985    54987    54987    54985    54987    54988 
   54988    54989    54987    54985    54986    54987    54985    54985 
   54987    54987    54986    54986    54987    54987    54986    54985 
   54986    54987    54987    54987    54987    54985    54986    54988 
   54987    54985    54985    54987    54987    54987    54987    54987 
   54985    54985    54986    54986    54985    54986    54987    54988 
   54986    54985    54987    54986    54985    54986    54985    54985 
   54987    54987    54987    54988    54988    54985    54986    54988 
   54986    54985    54987    54987    54987    54987    54985    54984 
   54987    54988    54987    54986    54986    54987    54988    54986 
   54985    54987    54987    54984    54985    54987    54987    54987 
   54987    54986    54985    54985    54986    54986    54986    54987 
   54988    54988    54988    54987    54986    54987    54987    54985 
   54985    54988    54987    54985    54986    54987    54986    54987 
   54987    54986    54986    54987    54986    54986    54987    54987 
   54985    54985    54986    54986    54985    54986    54986    54985 
   54987    54989    54986    54986    54986    54986    54986    54985 
   54986    54988    54989    54988    54987    54987    54985    54985 
   54987    54987    54985    54986    54986    54984    54987    54987 
   54985    54985    54985    54984    54987    54987    54985    54985 
   54985    54985    54987    54986    54985    54988    54989    54986 
   54986    54986    54985    54985    54984    54984    54985    54986 
   54985    54986    54987    54986    54986    54986    54984    54985 
   54987    54988    54988    54988    54988    54988    54986    54984 
   54984    54986    54987    54985    54985    54987    54988    54987 
   54986    54987    54987    54986    54986    54987    54986    54985 
   54986    54987    54987    54986    54985    54986    54987    54988 
   54987    54985    54987    54988    54987    54986    54988    54989 
   54990    54987    54987    54988    54987    54985    54987    54986 
   54984    54986    54988    54986    54987    54987    54986    54986 
   54986    54985    54985    54987    54986    54986    54988    54987 
   54987    54988    54985    54984    54986    54986    54987    54987 
   54986    54986    54987    54989    54987    54986    54988    54988 
   54988    54987    54986    54988    54988    54987    54989    54989 
   54986    54985    54985    54985    54987    54989    54987    54988 
   54987    54985    54988    54988    54986    54988    54988    54986 
   54987    54990    54989    54989    54993    54997    55003    55011 
   55019    55030    55044    55053    55064    55077    55088    55108 
   55138    55172    55197    55190    55134    55038    54957    54946 
   55005    55085    55141    55155    55134    55119    55156    55264 
   55423    55579    55651    55601    55485    55388    55361    55413 
   55510    55561    55477    55261    55029    54915    54959    55099 
   55241    55322    55328    55301    55279    55273    55298    55346 
   55363    55331    55294    55266    55216    55123    55010    54947 
   55004    55122    55154    55053    54899    54774    54717    54737 
   54808    54866    54849    54752    54607    54450    54329    54300 
   54398    54588    54735    54755    54741    54760    54784    54841 
   54937    54964    54939    55022    55246    55466    55566    55578 
   55588    55637    55739    55870    55968    55987    55951    55968 
   56063    56133    56184    56277    56311    56222    56146    56177 
   56271    56351    56396    56538    56890    57335    57748    58157 
   58555    58859    59045    59175    59290    59312    59106    58652 
   58156    57853    57683    57460    57257    57212    57241    57326 
   57657    58223    58695    58830    58634    58265    57981    57877 
   57651    57018    56133    55258    54464    53870    53589    53553 
   53809    54450    55241    55952    56533    56676    56163    55328 
   54542    53949    53452    52758    51874    51120    50761    50902 
   51416    51956    52112    51821    51494    51386    51355    51325 
   51257    51050    50788    50636    50687    51017    51649    52437 
   53053    53275    53127    52665    52123    51879    51833    51673 
   51537    51613    51766    51918    52160    52500    52796    52776 
   52343    51898    51816    52037    52442    52854    53079    53345 
   53964    54799    55469    55704    55517    55174    54803    54254 
   53663    53517    53914    54441    54774    55002    55410    56124 
   57151    58410    59510    60060    60138    60068    60092    60336 
   60740    61197    61805    62514    62921    62756    62238    61757 
   61335    60798    60230    59799    59450    59149    59038    59018 
   58863    58822    59138    59432    59232    58547    57930    58014 
   58738    59477    59731    59466    59003    58463    57726    57036 
   56588    56036    55194    54215    53128    52117    51520    51196 
   50731    50177    49918    49953    49947    49828    49653    49330 
   49038    49133    49569    50111    50681    51190    51503    51696 
   52059    52838    54082    55495    56396    56320    55653    55259 
   55481    55848    55838    55436    54920    54587    54596    54971 
   55520    55844    55893    56028    56446    56960    57141    56802 
   56238    55701    55315    55241    55367    55412    55382    55431 
   55609    56043    56854    57622    57699    57167    56473    55652 
   54748    54048    53465    52586    51402    50355    49740    49595 
   49882    50344    50616    50742    51177    52073    52949    53192 
   52646    51786    51171    50816    50589    50618    50967    51533 
   52210    52954    53954    55299    56540    57489    58582    59845 
   61025    62214    63034    62726    61304    59407    57848    57372 
   57956    58968    60076    61189    62091    62754    63271    63642 
   63934    63857    62960    61657    60636    59841    59041    58346 
   57855    57674    57923    58439    59034    59762    60563    61274 
   61978    62650    62778    62089    61034    59940    58743    57644 
   56839    55968    54923    54287    54165    53900    53264    52574 
   51864    51161    50648    50068    49268    48476    47518    46498 
   46281    47368    49529    51901    53385    53948    54349    54805 
   55291    55869    56272    56097    55258    53992    52485    50889 
   49350    47590    45526    43949    43532    44283    45865    47540 
   48919    50465    52370    54301    56096    57390    57679    57072 
   55950    54853    54711    55759    56980    57363    56914    56486 
   56919    58128    59364    60217    60588    60322    59417    58164 
   56810    55288    53926    53292    53042    52875    53459    55198 
   57619    59972    61746    62829    63289    63263    62852    61725 
   59678    57439    55574    53705    51982    51439    52323    53736 
   54949    56094    57682    59789    61865    63272    63476    62042 
   59139    55810    53130    51298    50193    49836    49780    49539 
   49417    50029    51530    53303    54319    53948    52357    50358 
   48783    47883    47521    47461    47367    46937    45949    44728 
   44346    45417    47443    49424    50568    51040    51740    53048 
   54487    55622    56512    57114    57211    57064    57252    57829 
   58037    57293    56100    55189    54777    55026    55759    56038 
   55199    53818    53093    53651    55019    56063    56120    55524 
   55159    55847    57636    59632    60747    60334    58506    56219 
   54467    53609    53682    54307    54686    54674    55060    56292 
   57805    58928    59582    59626    58670    57060    55817    55387 
   55399    55560    55888    56310    56593    56394    55482    53967 
   52197    50748    50085    50165    50740    51742    53053    54442 
   56128    58335    60348    61271    61132    60607    60079    59156 
   57601    55774    53859    52491    52644    53794    54875    56029 
   57464    58687    59257    58886    57168    54005    50331    47570 
   45982    44894    44362    44752    45539    46025    46234    46577 
   47157    47621    47591    46896    45814    44923    44372    44276 
   45117    46899    49252    52069    54918    56876    57648    57705 
   57508    57562    58188    58886    59067    58897    58632    58099 
   57054    55422    53738    52971    53066    53251    53602    54459 
   55624    56780    57725    58706    60163    61798    62852    63044 
   62739    62727    63543    64631    64977    64362    63238    62080 
   61123    60568    60661    60993    60604    59239    57716    56920 
   57050    57741    58069    57065    54808    52080    49488    47672 
   47068    47112    47011    46799    46904    47749    49698    52449 
   54895    56128    56477    56811    57008    56367    55054    53890 
   53124    52586    52825    54648    57511    59781    60589    60287 
   59470    58410    57185    55987    55048    54345    53780    53314 
   52744    51889    51025    50705    51155    52257    53849    55560 
   56839    57538    57951    58360    59047    60001    60446    59764 
   58501    57418    56289    54637    52905    52100    52590    53649 
   54490    54947    54565    52912    50822    49529    49420    50355 
   52029    53942    55883    57976    60119    62527    65644    68838 
   71089    72146    72009    70497    67902    65340    63664    62963 
   63122    63789    64413    64667    64800    65498    66883    68198 
   68773    68537    67918    67739    68195    68440    68166    67639 
   66520    64789    63039    61106    58498    55663    53432    52110 
   51473    50737    49159    47074    45292    44340    44772    46549 
   48634    50320    51968    53876    55270    55233    54005    52393 
   50995    50245    49969    49450    48192    45978    42725    38776 
   34972    32099    30494    29882    29477    29130    29389    30074 
   30744    31631    32695    33475    34023    34702    35629    36650 
   37273    37089    36555    36535    37108    37739    38054    37332 
   34738    31001    27860    26297    26494    28066    30234    32345 
   34168    35990    38496    41979    45693    48961    52069    55289 
   58165    60262    61675    62347    62298    62284    63082    64919 
   67222    68624    68389    66871    64254    60925    58352    57431 
   57583    58469    60354    62922    65630    68473    71530    74603 
   77266    79109    80137    80587    80868    81511    82146    81698 
   80053    77789    74993    71550    67509    62947    58302    54398 
   51803    50785    51357    52996    55058    57323    59758    62083 
   63822    64850    65410    65657    65915    66774    68381    70470 
   72915    75299    76648    76449    75112    73238    71237    69097 
   66408    63476    61529    60993    60854    60122    58531    56008 
   52701    49252    46510    44915    43939    42618    40850    39083 
   37319    35786    34959    34622    34452    34387    34183    33779 
   33465    33500    34213    36107    39181    42504    45007    46079 
   45645    44447    43233    41766    39723    37367    34778    31908 
   29195    27108    25927    25781    26389    27619    29530    31800 
   34497    37842    40769    42038    41847    41200    41271    42855 
   45495    48204    50547    52726    55397    58885    62569    65551 
   67248    67490    66703    65590    64646    63903    62787    61042 
   59312    58185    57960    59073    61552    64648    67412    69498 
   71265    72980    74569    76109    77931    80424    83698    87349 
   90940    94222    96779    98077    97729    95773    92842    89562 
   86337    83626    81702    80610    79971    78964    77081    74360 
   71439    69246    68071    67369    66364    64995    64053    64321 
   65830    67698    68990    69324    68300    65550    61349    56246 
   50759    45509    41138    38374    37480    37734    38458    39450 
   40083    39920    39537    39384    39478    40136    41809    44831 
   49081    53627    57631    60957    63422    64760    64904    63772 
   61562    58730    55532    52404    50204    49270    49178    49602 
   50064    49736    48337    46185    43867    42005    40595    39379 
   38404    37601    37251    38062    39850    41537    42226    41600 
   40016    38105    36025    33784    31519    29326    27547    26419 
   25838    25588    25227    24480    23706    23308    22867    21727 
   19951    18101    17081    17812    20380    24122    28092    31549 
   34767    38443    42437    46303    50039    53572    56367    58089 
   58839    58512    57132    55300    53705    52707    52143    52133 
   53641    56982    61165    65243    68742    71328    73090    74514 
   76007    77518    78687    79282    79196    78466    77366    75874 
   73708    70899    67575    63982    60811    58594    57259    56666 
   56971    58279    60298    62318    63523    63836    64070    64860 
   66069    67140    67920    68863    69721    69474    67971    65453 
   61563    56562    51588    47385    44209    42391    42444    44963 
   49921    56054    61999    67554    72509    75948    77713    78480 
   78782    79113    79470    79170    77700    74955    71415    68106 
   65588    63392    60543    56523    51786    47390    44312    42966 
   43243    44779    46793    48475    49656    50489    51285    52294 
   53027    52798    51927    51635    52458    53221    52202    48717 
   43292    37182    31916    28492    26328    23764    20316    17387 
   16356    17445    20282    23693    26336    28721    32441    38169 
   45659    53950    61835    68942    75240    80130    83129    84231 
   83421    81476    80137    80096    80404    79975    78534    76206 
   72898    68811    64503    59914    54936    50825    49071    49112 
   49511    50981    55263    61831    68679    74620    78824    81058 
   83210    86854    89857    89352    86085    82371    78906    75676 
   72739    69744    66309    62348    58651    56794    56579    55968 
   54672    54599    57016    60555    62089    60335    56382    50701 
   44174    39507    37271    35611    34934    37057    41642    47205 
   52218    54985    55321    54421    53225    52630    52837    53456 
   55522    60008    65680    70533    72761    71595    68803    66310 
   63777    60748    57146    52292    46809    43082    42605    44247 
   45297    44621    43560    42722    41440    40343    40393    40922 
   40897    40621    41279    43439    46729    50436    53986    57367 
   60459    61871    60623    58389    57511    58174    59038    58780 
   56900    54291    52152    50682    49908    50010    50697    51879 
   53519    54635    54639    54619    55397    56019    55284    52991 
   49771    46563    43764    41588    40839    41845    44113    47407 
   51497    55201    57119    57127    56198    55787    57106    59591 
   61725    63246    65008    67700    70816    72482    71418    68235 
   63466    56993    50173    44987    41730    39841    39125    39688 
   41605    44329    47349    50402    52307    52600    52791    53429 
   53783    54491    56164    57299    56765    55451    54255    52948 
   50851    47978    45198    42822    40618    38875    38018    38500 
   40962    45155    49483    52531    54600    56884    59665    62413 
   64548    65738    66046    65080    62214    58121    54269    51670 
   50549    49999    48899    47400    46213    45587    46156    48709 
   52180    54400    55065    55369    55796    56454    57814    59824 
   61456    61821    61559    62037    63084    63642    63900    64594 
   65274    64580    62243    59347    56076    52329    49567    48629 
   48511    48530    48840    49413    50392    52680    56878    62045 
   66395    68515    67855    65390    63034    61663    60937    60100 
   58403    56159    54328    53117    52252    51295    50214    49786 
   49974    49762    48728    47554    47628    49372    51781    54259 
   57013    59770    61827    63022    63245    62238    60708    59693 
   59247    59211    59685    60214    60346    60531    61410    62861 
   63901    63789    62985    62372    62490    63471    64580    64740 
   63937    63042    62722    62735    62050    60305    58407    57140 
   56351    55649    55121    55028    55030    54784    54939    55815 
   56672    57233    57612    57701    58107    59947    63300    66799 
   68646    68142    66058    63220    59854    56210    52728    50146 
   49306    50157    51612    52766    53540    54159    54876    55900 
   57003    57788    58373    59090    59654    59337    57845    55556 
   53022    50541    48189    45980    44063    43074    43624    45560 
   48647    52412    55299    56185    55163    52350    48354    44502 
   41558    39765    39324    40122    41934    44584    47657    50670 
   53082    54212    53981    52944    51370    49598    48373    47739 
   47133    46622    46706    47694    49419    50870    51181    50816 
   50324    49206    47035    44480    42800    42535    43524    46061 
   50135    54634    59203    64413    69493    72951    74574    74628 
   72904    69794    66987    66026    66372    65940    63496    59406 
   54686    50345    47024    44897    43542    41716    38479    34589 
   31758    31100    32688    35554    38732    42543    47481    53148 
   58866    63574    66279    67417    68088    68200    66799    63614 
