Origin Time       2025/01/13 21:19:00
Lat.              31.8
Long.             131.6
Depth. (km)       30
Mag.              6.9
Station Code      MYZH14
Station Lat.      31.5649
Station Long.     131.3510
Station Height(m) -196
Record Time       2025/01/13 21:19:39
Sampling Freq(Hz) 100Hz
Duration Time(s)  193
Dir.              2
Scale Factor      2940(gal)/6170270
Max. Acc. (gal)   9.094
Last Correction   2025/01/13 21:19:24
Memo.             
[...]
   10338    10235    10576    11159    11828    12390    12664    12611 
   12268    11797    11519    11627    12041    12459    12537    12246 
   11874    11631    11474    11242    10944    10814    10964    11290 
   11720    12221    12712    13134    13437    13530    13427    13318 
   13362    13562    13829    13976    13770    13102    12086    11046 
   10328    10079    10169    10317    10427    10631    10995    11514 
   12171    12873    13589    14336    14895    14948    14434    13503 
   12447    11693    11464    11573    11685    11605    11367    11108 
   10898    10811    10928    11280    11798    12251    12525    12784 
   13201    13807    14515    15104    15333    15146    14749    14380 
   13965    13308    12571    12025    11629    11317    11183    11242 
   11405    11617    11798    11708    11125    10286     9831    10051 
   10596    10985    11053    10982    11052    11301    11591    11877 
   12149    12384    12659    13072    13613    14290    15101    15791 
   16027    15822    15431    15008    14597    14291    14225    14421 
   14728    14993    15122    14973    14421    13482    12342    11384 
   10963    10997    11090    11068    11027    10989    10946    10977 
   11132    11458    12035    12838    13661    14189    14198    13777 
   13262    12943    12878    12967    13168    13518    13869    13889 
   13494    13022    12866    13027    13138    12921    12481    12084 
   11696    11000     9978     9021     8401     8054     7790     7498 
    7205     6962     6731     6523     6488     6616     6640     6474 
    6307     6277     6442     6866     7637     8909    10732    12783 
   14555    15882    17081    18428    19704    20510    20771    20785 
   20882    20998    20878    20674    20779    21340    22295    23277 
   23679    23357    22854    22646    22608    22441    22073    21469 
   20618    19659    18646    17417    15938    14571    13848    14007 
   14951    16434    17893    18640    18659    18508    18518    18659 
   18789    18745    18448    18049    17921    18298    18904    19260 
   19324    19358    19462    19606    19620    19314    18787    18124 
   17088    15428    13217    10881     8944     7691     7002     6593 
    6218     5574     4570     3599     3195     3648     4773     6076 
    7391     8915    10485    11446    11345    10365     9092     8035 
    7409     7205     7272     7489     7852     8398     9153     9996 
   10556    10415     9466     8147     7209     7060     7479     7992 
    8210     8022     7617     7146     6589     5980     5400     4953 
    4944     5709     7212     8982    10406    11265    11886    12440 
   12748    12879    13109    13545    14049    14306    14109    13553 
   12938    12569    12437    12216    11645    10681     9455     8252 
    7411     7156     7425     7928     8370     8698     9078     9569 
    9982    10151    10225    10396    10687    11024    11138    10860 
   10408    10176    10573    11717    13088    13846    13537    12331 
   10762     9344     8336     7914     8191     9068    10310    11564 
   12558    13264    13715    13924    13845    13469    12946    12326 
   11693    11442    11651    11877    11906    11847    11750    11539 
   11102    10372     9404     8398     7428     6310     4933     3424 
    2154     1638     2194     3767     5970     8253    10196    11708 
   13068    14573    16181    17568    18432    18804    18913    18962 
   19194    19726    20473    21456    22641    23654    24128    24010 
   23400    22363    20912    19079    16981    14860    13105    11946 
   11212    10627    10075     9611     9385     9372     9321     9139 
    9014     9252    10104    11490    13018    14416    15667    16693 
   17231    17095    16342    15142    13785    12513    11318    10288 
    9806    10218    11571    13512    15437    16940    17926    18428 
   18553    18313    17816    17481    17415    17134    16203    14719 
   12964    11032     9125     7603     6747     6643     7076     7860 
    8945    10140    11289    12434    13692    14935    15839    16390 
   16818    17285    17755    17870    17212    15802    14165    12878 
   12231    12399    13447    15084    16772    18102    18937    19410 
   19787    20170    20415    20362    20015    19468    18821    18165 
   17544    16976    16479    16099    15867    15702    15528    15399 
   15435    15833    16721    17945    19219    20309    21089    21566 
   21779    21689    21231    20371    19176    17975    17150    16694 
   16500    16796    17832    19545    21530    23151    23874    23529 
   22302    20534    18527    16500    14478    12271     9744     7060 
    4559     2518     1243     1031     1723     2746     3618     4209 
    4554     4575     4165     3283     2064      802     -448    -1870 
   -3357    -4376    -4442    -3572    -2076     -117     2363     5365 
    8548    11445    13985    16455    18940    21075    22351    22582 
   22024    21055    19894    18561    17036    15366    13543    11589 
    9634     7698     5760     4022     2874     2577     3164     4467 
    6114     7764     9167    10068    10378    10110     9425     8774 
    8427     8246     8118     8037     7869     7566     7321     7233 
    7141     6931     6862     7427     8810    10664    12411    13584 
   13950    13511    12549    11608    11156    11303    11925    12784 
   13609    14209    14422    14166    13524    12643    11636    10604 
    9757     9366     9533    10161    11127    12328    13583    14736 
   15716    16326    16470    16373    16191    15769    14929    13708 
   12219    10487     8667     7181     6438     6627     7627     8976 
   10263    11349    12190    12956    14046    15647    17432    18737 
   19023    18266    17017    15921    15321    15388    15957    16450 
   16559    16344    15838    15138    14434    13970    14051    14684 
   15413    15746    15444    14531    13162    11506     9945     8922 
    8487     8436     8757     9537    10659    12067    13838    15720 
   17323    18522    19325    19760    19779    19342    18640    17883 
   17056    16059    14875    13608    12380    11311    10658    10509 
   10621    10897    11201    10997     9988     8479     6882     5517 
    4743     4828     5743     7226     9061    11095    13106    14881 
   16276    17242    17903    18439    19008    19616    19906    19509 
   18431    16924    15275    13690    12301    11095     9748     7865 
    5500     3237     1775     1518     2501     4530     7319    10345 
   12811    14174    14530    14301    13799    13137    12442    12048 
   12400    13740    15897    18390    20825    22932    24337    24798 
   24459    23736    23020    22464    22072    21774    21397    20792 
   19981    19110    18309    17645    17135    16725    16425    16345 
   16464    16546    16443    16294    16192    15937    15348    14446 
   13330    12151    10986     9714     8216     6565     4984     3802 
    3373     3953     5700     8562    12029    15204    17297    18011 
   17532    16388    15062    13717    12477    11608    11327    11777 
   12959    14502    15749    16171    15572    14122    12270    10502 
    9233     8609     8317     8047     7821     7675     7580     7461 
    6982     5840     4188     2386      859      187      785     2647 
    5374     8274    10786    12835    14594    16111    17216    17841 
   18272    18639    18600    17869    16549    15027    13764    13022 
   12773    12786    12659    12003    10764     9260     7993     7443 
    7715     8481     9456    10498    11263    11504    11601    12181 
   13378    14820    16192    17367    18228    18744    19038    19125 
   18743    17590    15618    13065    10302     7686     5436     3608 
    2257     1567     1696     2519     3678     5083     6825     8539 
    9637     9920     9674     9364     9213     9212     9228     9048 
    8713     8406     8001     7247     6292     5771     6267     7661 
    9219    10335    10842    10787    10465    10416    10925    11806 
   12613    12901    12397    11066     9313     7937     7481     7884 
    8818    10071    11576    13186    14761    16375    18162    20091 
   21958    23483    24426    24693    24307    23149    21015    18037 
   14757    11796     9574     8295     7923     8068     8169     7980 
    7732     7667     7572     7123     6558     6579     7564     9298 
   11224    12641    13098    12669    11737    10728    10030     9852 
   10033    10112     9642     8468     6787     5028     3754     3368 
    3877     5043     6581     8173     9403     9943     9985    10090 
   10580    11429    12526    13775    15095    16330    17208    17619 
   17647    17283    16487    15279    13678    11915    10466     9632 
    9426     9776    10534    11558    12797    14091    15106    15717 
   16150    16552    16832    16987    17149    17429    17908    18439 
   18738    18779    18577    18062    17436    17075    16967    16679 
   16003    15328    15207    15853    17260    19519    22542    25671 
   27901    28545    27621    25621    23100    20515    18233    16328 
   14550    12855    11608    11111    11333    12196    13660    15521 
   17442    19028    19923    20010    19182    17281    14518    11398 
    8351     5776     3995     2920     2220     1807     1859     2648 
    4428     7128    10321    13506    16183    17988    18865    18883 
   18003    16044    12985     9364     6110     3853     2541     1959 
    2319     3876     6483     9903    13811    17494    20330    22063 
   22438    21236    18619    15458    12788    10806     9270     8006 
    6863     6196     6688     8589    11577    14941    18032    20617 
   22551    23681    24271    24769    25126    24784    23322    20867 
   17806    14559    11599     9270     7736     7069     7309     8349 
    9841    11410    12873    14202    15375    16315    16941    17294 
   17574    17735    17353    16352    15354    14926    15102    15647 
   15961    15145    12737     9136     5316     2104     -141    -1190 
   -1131     -528      412     1854     3394     4301     4501     4628 
    5320     6809     8954    11085    12298    12437    12314    12737 
   13706    14809    15915    17023    17889    17886    16332    13417 
   10304     8079     7057     6911     7229     7780     8385     8861 
    9091     9184     9300     9338     9191     8985     8932     9158 
    9740    10851    12463    14192    15666    16690    17367    17976 
   18374    18150    17384    16493    15628    14767    13920    12980 
   11908    10947    10365    10331    10898    11839    12801    13758 
   15022    16698    18440    19730    20253    20093    19530    18694 
   17581    16292    15003    13699    12223    10790     9975     9882 
   10028    10110    10269    10799    11714    12640    13320    13895 
   14573    15289    15853    16396    17147    17855    18101    17973 
   18048    18794    19959    20651    20201    18573    16051    13015 
    9839     6907     4578     3063     2488     2830     4014     5901 
    7938     9517    10524    11340    12518    14100    15532    16424 
   16884    16928    16210    14854    13521    12579    12195    12428 
   12926    13312    13546    13825    14299    14764    14737    13838 
   12243    10569     9063     7482     5790     4292     3234     2757 
    2914     3584     4692     6194     7691     8903    10088    11355 
   12535    13589    14362    14635    14565    14476    14518    14753 
   15178    15645    15928    15849    15538    15546    16343    17741 
   19091    20022    20677    21301    21989    22751    23476    23906 
   23750    22800    21087    18973    16909    15076    13342    11576 
    9948     8787     8124     7579     6776     5599     4079     2418 
     993       28     -638    -1270    -1912    -2445    -2672    -2311 
   -1191      460     2063     3146     3691     4126     5001     6578 
    8568    10249    11049    10954    10107     8541     6638     5051 
    4211     4373     5580     7390     9196    10773    12196    13440 
   14308    14740    14903    14802    14306    13625    13131    12872 
   12664    12184    11241    10287     9938    10263    10991    11806 
   12597    13537    14711    15950    16989    17739    18348    18922 
   19525    20274    21266    22537    24010    25442    26562    27388 
   28118    28691    28844    28400    27377    25993    24500    22995 
   21462    19930    18325    16333    13789    10842     7890     5615 
    4533     4626     5563     6982     8752    10915    13210    14998 
   15873    15973    15619    14943    13730    11596     8610     5470 
    2900     1340     1118     2276     4250     6249     7863     9066 
    9930    10723    11957    13859    16166    18537    20760    22748 
   24514    25942    26806    27013    26509    25434    24283    23290 
   22367    21481    20348    18749    16987    15458    14441    13971 
   13816    13807    13723    13364    12984    13069    13799    14809 
   15520    15716    15583    15498    15937    17084    18537    19647 
   19954    19256    17643    15575    13582    11825    10164     8524 
    7016     5856     5067     4325     3391     2426     1686     1265 
    1164     1418     2165     3334     4490     5352     5973     6461 
    6822     6801     6025     4396     2234       64    -1896    -3764 
   -5408    -6373    -6517    -6213    -5867    -5660    -5545    -5271 
   -4645    -3657    -2421    -1114      306     2102     4314     6631 
    8615     9878    10356    10455    10751    11566    12883    14473 
   15950    16975    17398    17146    16273    14813    12707    10226 
    7931     6299     5670     6165     7718    10157    13223    16660 
   20110    23170    25716    27800    29353    30175    30138    29331 
   28058    26675    25280    23812    22289    20734    19222    17805 
   16495    15498    15063    15279    16160    17639    19578    21747 
   23668    24758    24746    23885    22756    21784    21107    20813 
   20819    20768    20386    19736    18982    18083    16903    15472 
   13882    12172    10523     9288     8697     8798     9538    10731 
   12192    13789    15261    16306    16895    17202    17281    17055 
   16457    15521    14427    13284    12038    10651     9135     7632 
    6590     6473     7294     8722    10394    11883    12687    12424 
   11098     9095     6926     4999     3555     2746     2539     2695 
    3067     3648     4294     4750     4964     5081     5293     5792 
    6665     7972     9790    12081    14652    17155    19181    20456 
   20969    21027    21008    20948    20614    19954    19131    18228 
   17375    16797    16419    16047    15785    15810    16170    16842 
   17577    17844    17160    15513    13277    10847     8571     6746 
    5546     5041     5150     5778     6880     8352    10178    12205 
   13944    15187    16201    17340    18752    20185    21364    22219 
   22631    22526    21995    21139    19897    18072    15574    12403 
    8658     4685      926    -2251    -4471    -5420    -5023    -3597 
   -1786      -97     1250     2050     2416     2841     3682     5019 
    6580     7844     8578     9019     9560    10439    11663    13086 
   14428    15411    16072    16683    17375    17937    17906    17029 
   15601    14072    12711    11769    11360    11339    11579    12014 
   12468    12645    12264    11186     9529     7706     6114     4864 
    3819     2717     1383      -70    -1303    -1885    -1459       84 
    2553     5539     8594    11389    13684    15327    16387    17034 
   17257    17040    16600    16230    16069    16028    15877    15392 
   14368    12746    10881     9475     9089     9823    11331    13018 
   14411    15346    15771    15671    15106    14157    13014    12021 
   11488    11564    12277    13471    14797    15969    16843    17285 
   17189    16505    15164    13220    10981     8800     7008     5822 
    5108     4616     4232     3992     4148     5054     6948     9810 
   13257    16610    19455    21935    24259    26468    28441    29882 
   30716    31035    30775    29916    28475    26471    24095    21533 
   19041    17097    15991    15640    15855    16563    17821    19535 
   21200    22127    22001    20989    19355    17381    15390    13554 
   11929    10502     9230     8200     7517     7074     6732     6535 
    6550     6721     7003     7515     8432     9855    11861    14438 
   17273    19723    21047    20809    19288    17357    15839    15157 
   15246    15581    15666    15201    13801    11286     8010     4681 
    1997      433      170     1006     2470     4102     5632     6752 
    7004     6293     4973     3524     2427     2033     2375     3040 
    3558     3781     3678     3319     2866     2385     2031     2125 
    2901     4394     6517     9223    12545    16315    19925    22596 
   23907    23948    23090    21707    20127    18785    18007    17635 
   17249    16600    15706    14891    14546    14542    14482    14380 
   14341    14217    13908    13459    12937    12387    11901    11656 
   11745    12114    12596    12912    12811    12303    11630    11026 
   10650    10651    11038    11695    12599    13731    15038    16577 
   18181    19360    19722    19165    17840    16014    13963    12027 
   10630    10016    10075    10480    10742    10449     9571     8299 
    6893     5630     4755     4503     4810     5302     5819     6498 
    7425     8456     9409    10260    11093    11995    13002    13971 
   14561    14520    13960    13228    12725    12954    14298    16608 
   19331    21768    23215    23434    22768    21764    20830    20048 
   19403    18835    18195    17529    16923    16381    15924    15479 
   14907    14015    12583    10618     8487     6737     5776     5734 
    6421     7372     8223     8905     9477    10070    10819    11777 
   12968    14318    15572    16420    16692    16333    15308    13808 
   12165    10636     9476     8831     8678     8946     9509    10286 
   11355    12752    14336    15963    17476    18662    19397    19479 
   18837    17849    16876    16025    15251    14428    13575    12777 
   12048    11395    10779    10117     9319     8263     6916     5473 
    4176     3160     2694     3142     4462     6320     8529    10880 
   13083    14974    16360    16972    16669    15515    13792    11862 
    9907     8054     6569     5615     5138     4912     4592     3996 
    3215     2591     2473     2891     3705     4865     6462     8506 
   10766    13098    15473    17843    20141    22099    23386    23893 
   23737    23204    22588    22020    21462    20826    19991    18779 
   17126    15167    13158    11288     9601     8189     7137     6396 
    5926     5757     5947     6470     7226     8040     8743     9406 
   10206    11262    12647    14280    16089    18064    20051    21920 
   23541    24606    24871    24359    23275    21945    20667    19575 
   18797    18351    17988    17449    16621    15633    14779    14208 
   13951    13974    14188    14567    15102    15720    16355    17000 
   17557    17878    17961    17774    17260    16553    15760    14875 
