Origin Time       2025/01/13 21:19:00
Lat.              31.8
Long.             131.6
Depth. (km)       30
Mag.              6.9
Station Code      MYZH02
Station Lat.      32.6972
Station Long.     131.6829
Station Height(m) -190.3
Record Time       2025/01/13 21:19:49
Sampling Freq(Hz) 100Hz
Duration Time(s)  172
Dir.              3
Scale Factor      3923(gal)/8224838
Max. Acc. (gal)   6.417
Last Correction   2025/01/13 21:19:49
Memo.             
[...]
  -59953   -60154   -60399   -61063   -61956   -62505   -62463   -62102 
  -61766   -61474   -61300   -61430   -61572   -61338   -60970   -60804 
  -60790   -60743   -60448   -59999   -59849   -59931   -59749   -59417 
  -59475   -60057   -60759   -61065   -60856   -60529   -60470   -60504 
  -60231   -59798   -59726   -59925   -59845   -59625   -59850   -60477 
  -61105   -61693   -62245   -62603   -62857   -63148   -63234   -62881 
  -62229   -61461   -60669   -60070   -59926   -60272   -60882   -61392 
  -61450   -61051   -60609   -60423   -60442   -60509   -60496   -60408 
  -60250   -59876   -59289   -58676   -58279   -58390   -58889   -59269 
  -59389   -59481   -59547   -59482   -59466   -59726   -60285   -60972 
  -61595   -62225   -62978   -63661   -63968   -63630   -62776   -62143 
  -62120   -62338   -62676   -63196   -63435   -63109   -62614   -62290 
  -62079   -61823   -61415   -60895   -60573   -60637   -60793   -60748 
  -60532   -60289   -60046   -59510   -58553   -57704   -57427   -57581 
  -57859   -58133   -58480   -58995   -59470   -59624   -59613   -59906 
  -60831   -62159   -63030   -63034   -62665   -62322   -62118   -62074 
  -61936   -61693   -61724   -62040   -62287   -62541   -63150   -63813 
  -63925   -63580   -63209   -62839   -62459   -62175   -61712   -60836 
  -59988   -59618   -59599   -59783   -60061   -60123   -60143   -60442 
  -60443   -59873   -59467   -59607   -60084   -60508   -60563   -60640 
  -61118   -61561   -61646   -61516   -61230   -60939   -61056   -61716 
  -62410   -62716   -62752   -62538   -62066   -61647   -61510   -61771 
  -62333   -62668   -62492   -62035   -61487   -60922   -60404   -60015 
  -59833   -59729   -59620   -59690   -59857   -59794   -59595   -59487 
  -59279   -58814   -58461   -58779   -59589   -59961   -59624   -59267 
  -59306   -59570   -59792   -60031   -60654   -61497   -61906   -61749 
  -61496   -61506   -61682   -61936   -62365   -62706   -62718   -62753 
  -62874   -62576   -61878   -61368   -61118   -60637   -59818   -59197 
  -59228   -59636   -59737   -59502   -59506   -59814   -60108   -60322 
  -60304   -59971   -59722   -59771   -59850   -59964   -60397   -61258 
  -62275   -62846   -62787   -62410   -62002   -61970   -62395   -62802 
  -63074   -63289   -63211   -62850   -62414   -61989   -61804   -61877 
  -61840   -61609   -61308   -60779   -59985   -59456   -59601   -60091 
  -60546   -60899   -61078   -61236   -61537   -61720   -61742   -61749 
  -61522   -61088   -60758   -60386   -59879   -59788   -60497   -61543 
  -62278   -62523   -62406   -62209   -62210   -62322   -62432   -62750 
  -63115   -62955   -62394   -61998   -61769   -61443   -61071   -60794 
  -60640   -60608   -60693   -60737   -60475   -59938   -59512   -59529 
  -60010   -60656   -61042   -60876   -60156   -59278   -58811   -58893 
  -59140   -59073   -58536   -58031   -58124   -58534   -58870   -59231 
  -59379   -59067   -58799   -58916   -59044   -58999   -59054   -59262 
  -59498   -59834   -60226   -60682   -61515   -62495   -62849   -62495 
  -62148   -62318   -62884   -63452   -63826   -64035   -63848   -63009 
  -61878   -60979   -60470   -60296   -60467   -61161   -62093   -62451 
  -62077   -61426   -60669   -60026   -59826   -60053   -60535   -60828 
  -60532   -60099   -60126   -60392   -60497   -60497   -60390   -60124 
  -60323   -61271   -62082   -62341   -62422   -62352   -62014   -61445 
  -60945   -61080   -61618   -61533   -60860   -60610   -60920   -61230 
  -61360   -61528   -61871   -62002   -61627   -61173   -61165   -61582 
  -61906   -61751   -61339   -60948   -60507   -60043   -59859   -60079 
  -60559   -61160   -61628   -61805   -62032   -62457   -62530   -61951 
  -61118   -60434   -60131   -60295   -60619   -60895   -61149   -61164 
  -60932   -60853   -60868   -60624   -60235   -59842   -59394   -59265 
  -59736   -60346   -60693   -60700   -60196   -59563   -59651   -60281 
  -60444   -60072   -59796   -59648   -59555   -59915   -61028   -62430 
  -62981   -62526   -62097   -61931   -61765   -61815   -61852   -61229 
  -60041   -59136   -59090   -59667   -60421   -60952   -60866   -60612 
  -60887   -61196   -61159   -61384   -61843   -61994   -61966   -61897 
  -61508   -60853   -60565   -60840   -60791   -59896   -59073   -59117 
  -59880   -61226   -62738   -63425   -63057   -62198   -61067   -59869 
  -59038   -58494   -58005   -57300   -56042   -55135   -55768   -57177 
  -58352   -59440   -60332   -61173   -62567   -63466   -62688   -61554 
  -61487   -61808   -61614   -61145   -60826   -60760   -61107   -61636 
  -61676   -61299   -61215   -61408   -61535   -61843   -62390   -62808 
  -62892   -62534   -62174   -62406   -62584   -61839   -60532   -59607 
  -59705   -60490   -61138   -61588   -62174   -62926   -63520   -63479 
  -63059   -62914   -62707   -61987   -61323   -61080   -61053   -61380 
  -61830   -61676   -61244   -60983   -60093   -58645   -58072   -58479 
  -58826   -59165   -60165   -61258   -61333   -60512   -59382   -58338 
  -58202   -58650   -58402   -58079   -58611   -59098   -59062   -59108 
  -59609   -60208   -60065   -59428   -59572   -60639   -61551   -61582 
  -61291   -61577   -61996   -61889   -61827   -62295   -63039   -63644 
  -63640   -63018   -62564   -62615   -62228   -61134   -60620   -61091 
  -61758   -62410   -63011   -63142   -62698   -61969   -61233   -60601 
  -60026   -59305   -58590   -58819   -60219   -61356   -61250   -60563 
  -59934   -59289   -58873   -59015   -59409   -59988   -61026   -61935 
  -62062   -61828   -61489   -60949   -60777   -61082   -60933   -60250 
  -60030   -60451   -60972   -61624   -62507   -63161   -63186   -62518 
  -61391   -60525   -60528   -60974   -61256   -61642   -62075   -61873 
  -61272   -60983   -60818   -60367   -59853   -59580   -59466   -59433 
  -59510   -59575   -59566   -59479   -59324   -59235   -59329   -59857 
  -60763   -61241   -61176   -61334   -61665   -61700   -61506   -61163 
  -60937   -61005   -60804   -60450   -60743   -61376   -61674   -61717 
  -61746   -61623   -61060   -60508   -60777   -61543   -61823   -61426 
  -60879   -60563   -60489   -60517   -60597   -60770   -61040   -61427 
  -61809   -61722   -61146   -60612   -60324   -60299   -60307   -60076 
  -60077   -60470   -60705   -60762   -60747   -60565   -60565   -60890 
  -61199   -61553   -61963   -61836   -61130   -60709   -60929   -61533 
  -62509   -63467   -63714   -63292   -62563   -61792   -61412   -61480 
  -61473   -61395   -61920   -62888   -63313   -62996   -62279   -61369 
  -60967   -61588   -62464   -62630   -61997   -60902   -59907   -59752 
  -60451   -61138   -61317   -61088   -60459   -59787   -59618   -59705 
  -59614   -59448   -59436   -59776   -60407   -60664   -60282   -59991 
  -60303   -60817   -60831   -60386   -60384   -61044   -61761   -62417 
  -63107   -63559   -63509   -62968   -62415   -62469   -63023   -63525 
  -63725   -63756   -64084   -64746   -64962   -64328   -63305   -62537 
  -62473   -63161   -64102   -64423   -63624   -62340   -61350   -60577 
  -59895   -59490   -59530   -60100   -61001   -62052   -63132   -63701 
  -63613   -63487   -63512   -63531   -63759   -64133   -64053   -63556 
  -63552   -64088   -64343   -64567   -65291   -65853   -65739   -65200 
  -64531   -64147   -64050   -63456   -62360   -61794   -61820   -61573 
  -60951   -60585   -60858   -61383   -61465   -60990   -60289   -59594 
  -59042   -58787   -58746   -58533   -58460   -59471   -61226   -62390 
  -62500   -61904   -61055   -60480   -60453   -60797   -61277   -61663 
  -61831   -61997   -61827   -60885   -60045   -60097   -60496   -60597 
  -60286   -59616   -58887   -58484   -58376   -58514   -59080   -59744 
  -59994   -60048   -60092   -59709   -58854   -58045   -57538   -57242 
  -57127   -57126   -56971   -56609   -56249   -55984   -55942   -56319 
  -57188   -58307   -58942   -58773   -58530   -58587   -58456   -58091 
  -58020   -58546   -59481   -60320   -60937   -61650   -62428   -62850 
  -62888   -63072   -63679   -64278   -64341   -64103   -64411   -65280 
  -65543   -64550   -63109   -62262   -62155   -62584   -63458   -64168 
  -63821   -62626   -61511   -60538   -59424   -58607   -58530   -58928 
  -59287   -59422   -59317   -58896   -58122   -56979   -55804   -55314 
  -55672   -56527   -57591   -58556   -59243   -59772   -60191   -60443 
  -60853   -61862   -63282   -64523   -65367   -65847   -65886   -65630 
  -65431   -65323   -65211   -65238   -65503   -65780   -65696   -65047 
  -64230   -63822   -63481   -62934   -62885   -63155   -62741   -61935 
  -61290   -60315   -58973   -57850   -56872   -55726   -54777   -54683 
  -55347   -55784   -55534   -55436   -56118   -56884   -57118   -57187 
  -57360   -57609   -58085   -58630   -59211   -60347   -61755   -62464 
  -62548   -62694   -62927   -63067   -63359   -63927   -64431   -64492 
  -63977   -63089   -62286   -61767   -61202   -60528   -60467   -61298 
  -62240   -62664   -62590   -62176   -61560   -61072   -60976   -61076 
  -61361   -61757   -61465   -60544   -60069   -59948   -59444   -58855 
  -58671   -58789   -59128   -59657   -60100   -60116   -59609   -58916 
  -58465   -58303   -58405   -58712   -59107   -59763   -60521   -60817 
  -60750   -60658   -60357   -59815   -59341   -58986   -58935   -59671 
  -60961   -61975   -62432   -62704   -63077   -63247   -62746   -62012 
  -61911   -62054   -61449   -60399   -59782   -59717   -60122   -60999 
  -61963   -62446   -62201   -61453   -60786   -60768   -61344   -61929 
  -62494   -63315   -63922   -63756   -63055   -62361   -61977   -61839 
  -61724   -61638   -61688   -61862   -62154   -62532   -62788   -62668 
  -62158   -61389   -60427   -59316   -58024   -56771   -56057   -55904 
  -56030   -56304   -56706   -57396   -58093   -58148   -57678   -57056 
  -56309   -55756   -55656   -55580   -55286   -55048   -54839   -54704 
  -55042   -55721   -56386   -57056   -57693   -58317   -59229   -60459 
  -61627   -62453   -62887   -63101   -63516   -64212   -64737   -64874 
  -64895   -65098   -65456   -65622   -65318   -64546   -63439   -62225 
  -61025   -59771   -58735   -58594   -59198   -59359   -58897   -58801 
  -58986   -58880   -58789   -58699   -58378   -58386   -58752   -58803 
  -58577   -58280   -57858   -57468   -57046   -56587   -56569   -57036 
  -57566   -57987   -58324   -58664   -58862   -58500   -57832   -57692 
  -58382   -59751   -61377   -62434   -62806   -63441   -64660   -65601 
  -65627   -65044   -64536   -64457   -64620   -64820   -65140   -65576 
  -66123   -66873   -67500   -67694   -67714   -67730   -67776   -67826 
  -67563   -67062   -66519   -65704   -64891   -64488   -63964   -62974 
  -62046   -61439   -60890   -60374   -60115   -60010   -59794   -59486 
  -59229   -59158   -59255   -59208   -58923   -58650   -58440   -58214 
  -58094   -58233   -58607   -59061   -59320   -59391   -59857   -60891 
  -61925   -62692   -63282   -63730   -64073   -64160   -63811   -63317 
  -63054   -62812   -62189   -61470   -61264   -61522   -61825   -61977 
  -61881   -61616   -61422   -61167   -60689   -60335   -60151   -59711 
  -59135   -58780   -58623   -58753   -59059   -59016   -58804   -58924 
  -59039   -58988   -59292   -59949   -60709   -61763   -62841   -63273 
  -62989   -62318   -61817   -61915   -62133   -61867   -61291   -60801 
  -60353   -59617   -58598   -57534   -56443   -55385   -54633   -54233 
  -54040   -54159   -54706   -55480   -56212   -56671   -56843   -57026 
  -57485   -58283   -59140   -59711   -60262   -61056   -61677   -61983 
  -62341   -62738   -62970   -63089   -63216   -63401   -63512   -63271 
  -62561   -61669   -60988   -60428   -59749   -59108   -58725   -58546 
  -58384   -58129   -57812   -57630   -57915   -58741   -59701   -60442 
  -61024   -61634   -62276   -62687   -62800   -62999   -63464   -64012 
  -64517   -64908   -65011   -64693   -64322   -64605   -65574   -66714 
  -67821   -68825   -69430   -69398   -68951   -68708   -69007   -69476 
  -69610   -69492   -69417   -69380   -69315   -69198   -68862   -68216 
  -67460   -66742   -65958   -65091   -64241   -63325   -62387   -61703 
  -61330   -61206   -61203   -60932   -60135   -59063   -58006   -56803 
  -55413   -54322   -53858   -53886   -54190   -54669   -55121   -55057 
  -54337   -53547   -53242   -53250   -53077   -52666   -52382   -52442 
  -52721   -53003   -53049   -52841   -52762   -53023   -53607   -54656 
  -56112   -57658   -59008   -59883   -60394   -61133   -62256   -63363 
  -64350   -65358   -66123   -66320   -66019   -65268   -64026   -62672 
  -61751   -61295   -61036   -60853   -60565   -59984   -59275   -58719 
  -58328   -57906   -57352   -56799   -56412   -56064   -55566   -55174 
  -55328   -56118   -57252   -58252   -58962   -59568   -60033   -60359 
  -60933   -62024   -63456   -64582   -65294   -66213   -66995   -67367 
  -67988   -68806   -69573   -70106   -70092   -69711   -69125   -68544 
  -68310   -68345   -68373   -68053   -67116   -65610   -63918   -62590 
  -61744   -61113   -60655   -60478   -60486   -60446   -60204   -59730 
  -59032   -58326   -57921   -57794   -57792   -57839   -57963   -58495 
  -59471   -60458   -61481   -62676   -63694   -64411   -65029   -65855 
  -67001   -68141   -69180   -70326   -71564   -72531   -72932   -73149 
  -73399   -73084   -71941   -70285   -68408   -66615   -65013   -63521 
  -62100   -60647   -59316   -58307   -57164   -55409   -53476   -52116 
  -51397   -50943   -50726   -50799   -50793   -50372   -49612   -48752 
  -47960   -47486   -47480   -47795   -48612   -50186   -52057   -53805 
  -55479   -56964   -58050   -58756   -59194   -59530   -59958   -60478 
  -60975   -61433   -61954   -62468   -62796   -63072   -63312   -63292 
  -63074   -62814   -62496   -62063   -61483   -60801   -60166   -59775 
  -59606   -59493   -59220   -58446   -57204   -55931   -54850   -54078 
  -53802   -54151   -55189   -56475   -57288   -57628   -57946   -58303 
  -58729   -59367   -59927   -60122   -60169   -60168   -60031   -60062 
  -60466   -60921   -61346   -61870   -62437   -63409   -64839   -66036 
  -66853   -67140   -66648   -65998   -65668   -65581   -65666   -65884 
  -66258   -66600   -66517   -65873   -64821   -63599   -62653   -62329 
  -62309   -62208   -62058   -61916   -61912   -62144   -62383   -62478 
  -62459   -62353   -62176   -61661   -60633   -59765   -59537   -59516 
  -59571   -59910   -60355   -60643   -60521   -59929   -59124   -58507 
  -58340   -58271   -58087   -58079   -58124   -57950   -57650   -57472 
  -57577   -57812   -57977   -58072   -58099   -58253   -58806   -59579 
  -60185   -60582   -60916   -61276   -61758   -62295   -62766   -63165 
  -63396   -63429   -63450   -63576   -63744   -64080   -64710   -65088 
  -64674   -63713   -62753   -62052   -61527   -61128   -60874   -60713 
  -60637   -60615   -60446   -59983   -59402   -58936   -58626   -58684 
  -59320   -60446   -61819   -62874   -63162   -63001   -62830   -62661 
  -62517   -62495   -62676   -63113   -63552   -63647   -63517   -63448 
  -63386   -63136   -62648   -61921   -60916   -59783   -58904   -58598 
  -58897   -59424   -59744   -59876   -60130   -60646   -61150   -61211 
  -60763   -60169   -59586   -58868   -58137   -57697   -57561   -57562 
  -57619   -57847   -58483   -59428   -60106   -60253   -60274   -60438 
  -60486   -60181   -59555   -58892   -58614   -58870   -59495   -60245 
  -60858   -61152   -61128   -60921   -60575   -60085   -59647   -59410 
  -59197   -58874   -58563   -58341   -58333   -58699   -59124   -59115 
  -58664   -58074   -57655   -57681   -58012   -58301   -58602   -58885 
  -58908   -58915   -59161   -59489   -59817   -60030   -60106   -60428 
  -61047   -61643   -62316   -63170   -64058   -64832   -65205   -65179 
  -65109   -65132   -65134   -65060   -65242   -65943   -66800   -67312 
  -67398   -67360   -67339   -67248   -67171   -67220   -67235   -66939 
  -66351   -65757   -65210   -64627   -64157   -63852   -63366   -62560 
  -61790   -61277   -60937   -60635   -60145   -59313   -58367   -57782 
  -57773   -58041   -58212   -58307   -58621   -58962   -58757   -58056 
  -57372   -56932   -56681   -56531   -56593   -57078   -57998   -59135 
  -60268   -61331   -62240   -62837   -62991   -62591   -61642   -60389 
  -59116   -57770   -56347   -55240   -54573   -54279   -54413   -54847 
  -55351   -55728   -55929   -55966   -55790   -55517   -55289   -55143 
  -54946   -54583   -54334   -54464   -55051   -56192   -57701   -59104 
  -60095   -60851   -61766   -62939   -64179   -65313   -66256   -66935 
  -67375   -67778   -68312   -68867   -69213   -69472   -69809   -69919 
  -69623   -69024   -68195   -67348   -66537   -65585   -64420   -63120 
  -61905   -60812   -59556   -58023   -56628   -55881   -55634   -55359 
  -54899   -54500   -54372   -54265   -53855   -53408   -53331   -53530 
  -53763   -54132   -54849   -55767   -56670   -57651   -58607   -59436 
  -60289   -60909   -61121   -61109   -61074   -61449   -62085   -62449 
  -62626   -62692   -62575   -62406   -62325   -62398   -62473   -62178 
  -61508   -61017   -60939   -61087   -61608   -62483   -63192   -63506 
  -63582   -63456   -63293   -63427   -63753   -63936   -64012   -64080 
  -64030   -63880   -63734   -63572   -63352   -63027   -62486   -61962 
  -61776   -61666   -61472   -61322   -61157   -61065   -61025   -60849 
  -60766   -60867   -60933   -60947   -60822   -60442   -60099   -60210 
  -61010   -62375   -63730   -64521   -64735   -64858   -65049   -65064 
  -65049   -65188   -65186   -64612   -63381   -61803   -60143   -58648 
  -57682   -57333   -57361   -57470   -57369   -57059   -56870   -56963 
  -57161   -57306   -57462   -57694   -57955   -58263   -58804   -59641 
  -60451   -61150   -62158   -63489   -64720   -65688   -66301   -66510 
  -66467   -66172   -65727   -65414   -65237   -65107   -65011   -64782 
  -64227   -63499   -62951   -62577   -62179   -61812   -61623   -61726 
  -62083   -62351   -62295   -62193   -62224   -61996   -61238   -60210 
  -59188   -58233   -57557   -57596   -58272   -59165   -60118   -60990 
  -61798   -62627   -63385   -63940   -64328   -64824   -65315   -65504 
  -65441   -65142   -64640   -64045   -63428   -62876   -62361   -61877 
  -61379   -60696   -59925   -59215   -58568   -58202   -58158   -57878 
  -57036   -56061   -55310   -54750   -54468   -54635   -55289   -56187 
  -56882   -57183   -57276   -57478   -57854   -58194   -58297   -58207 
  -58206   -58374   -58587   -58797   -58969   -58976   -58746   -58482 
  -58315   -58089   -57734   -57381   -57195   -57225   -57341   -57439 
  -57601   -57950   -58342   -58591   -58847   -59116   -59205   -59247 
  -59400   -59690   -60164   -60748   -61399   -62143   -62819   -63351 
  -63977   -64710   -65276   -65727   -66264   -66708   -66742   -66295 
  -65545   -64886   -64654   -64643   -64531   -64335   -64031   -63531 
  -62986   -62569   -62351   -62402   -62613   -62684   -62436   -61896 
  -61214   -60550   -59900   -59305   -59034   -59205   -59682   -60353 
  -61011   -61327   -61145   -60470   -59572   -58947   -58675   -58588 
  -58827   -59427   -60200   -61038   -61816   -62372   -62523   -62407 
  -62475   -62743   -63081   -63647   -64315   -64690   -64733   -64631 
  -64411   -64106   -63786   -63435   -63049   -62581   -62040   -61653 
  -61693   -62105   -62538   -62761   -62671   -62229   -61688   -61379 
