Origin Time       2025/01/13 21:19:00
Lat.              31.8
Long.             131.6
Depth. (km)       30
Mag.              6.9
Station Code      MYZH04
Station Lat.      32.5181
Station Long.     131.3349
Station Height(m) 250
Record Time       2025/01/13 21:19:46
Sampling Freq(Hz) 100Hz
Duration Time(s)  175
Dir.              6
Scale Factor      7845(gal)/8223790
Max. Acc. (gal)   14.814
Last Correction   2025/01/13 21:19:47
Memo.             
[...]
  -14494   -15534   -18207   -22572   -26647   -27712   -25353   -21357 
  -17775   -15358   -13861   -13898   -16587   -20962   -24618   -27214 
  -29664   -30856   -29147   -24976   -20162   -16714   -15917   -17907 
  -22122   -26696   -28286   -25076   -19440   -15338   -13774   -12993 
  -12117   -12406   -15022   -18955   -22329   -24715   -26235   -25613 
  -21763   -16807   -14740   -16873   -20848   -24092   -25909   -26302 
  -25016   -22516   -20522   -20093   -20344   -20360   -20201   -19512 
  -18203   -17714   -18589   -19330   -19400   -19677   -20263   -20934 
  -22046   -23437   -24285   -24273   -23680   -22847   -22187   -22249 
  -22950   -22954   -21078   -18526   -17809   -19153   -20474   -20930 
  -21502   -22175   -21281   -18187   -15039   -14432   -16216   -18343 
  -19637   -19978   -19489   -18843   -18642   -18165   -17080   -17355 
  -20294   -23677   -24838   -24247   -23920   -24109   -23373   -21566 
  -20314   -19959   -19602   -20201   -22995   -25930   -25841   -22584 
  -18522   -15547   -14320   -15169   -17788   -20873   -23265   -24294 
  -23652   -22183   -21227   -20798   -20216   -19930   -20714   -21843 
  -22133   -21929   -21887   -21282   -19970   -19588   -20726   -21790 
  -21779   -21316   -20695   -19464   -17937   -17292   -18357   -20812 
  -23265   -24340   -23514   -20861   -17253   -14540   -13968   -15327 
  -17911   -20528   -21833   -21594   -20193   -18249   -17365   -18805 
  -21768   -24401   -25524   -24945   -23071   -20656   -18867   -18906 
  -20513   -21535   -20568   -19041   -18912   -19970   -21064   -21937 
  -22554   -22276   -20827   -19642   -20763   -23696   -25583   -25353 
  -24560   -23704   -21759   -19492   -19099   -20580   -21739   -21519 
  -20835   -20245   -19120   -17392   -16263   -16537   -17404   -17720 
  -17766   -18630   -20299   -21795   -22802   -23445   -23240   -22144 
  -21340   -21338   -21350   -21296   -21733   -22257   -22181   -21649 
  -20838   -19575   -18061   -17073   -17398   -18944   -20584   -21537 
  -22067   -22481   -22866   -23660   -24891   -25323   -23946   -21730 
  -20727   -21766   -23611   -24628   -24491   -23415   -21141   -17929 
  -14920   -13049   -12847   -14531   -17280   -19529   -20487   -20262 
  -19001   -17425   -17096   -18837   -21762   -24306   -25812   -26384 
  -25184   -20939   -15109   -11776   -12954   -16752   -20686   -23780 
  -25720   -26119   -24526   -21494   -19207   -19041   -19604   -19176 
  -18369   -18596   -19685   -20490   -20522   -20196   -20255   -21034 
  -22191   -23661   -25848   -28283   -29621   -29016   -26800   -24462 
  -23129   -21874   -19637   -17671   -17587   -18698   -19611   -20561 
  -21793   -21994   -20409   -18262   -17452   -18731   -21055   -23220 
  -25077   -25891   -23881   -18986   -14102   -12364   -13655   -15122 
  -15593   -16714   -19059   -20876   -21608   -22862   -24834   -25416 
  -23661   -21312   -20524   -21405   -22104   -21181   -19530   -19174 
  -20459   -21747   -21524   -19851   -18301   -18176   -18557   -18130 
  -17864   -18871   -20050   -20314   -20538   -21875   -23811   -24992 
  -24883   -23836   -22754   -22608   -23043   -22324   -19981   -18108 
  -18539   -20441   -22061   -22648   -22184   -21419   -21568   -22785 
  -24306   -25269   -24027   -19851   -15931   -15993   -18831   -20906 
  -22009   -23946   -26042   -26088   -24408   -23183   -22643   -21600 
  -20672   -21147   -22021   -21357   -19064   -16765   -16156   -17609 
  -19737   -20903   -21112   -21297   -21174   -19641   -16888   -14530 
  -13695   -14075   -15658   -19592   -24665   -26293   -22832   -18844 
  -19140   -23411   -28179   -31171   -32163   -30958   -27607   -24192 
  -22616   -21799   -20335   -18746   -17099   -15736   -17790   -24200 
  -29327   -28162   -23290   -19394   -16931   -14958   -14158   -14922 
  -16121   -16906   -18000   -19333   -18532   -15421   -14665   -19422 
  -25937   -28684   -27364   -24817   -21695   -17992   -15940   -16599 
  -17319   -15709   -12888   -11518   -12712   -15527   -18519   -20983 
  -23110   -25215   -26385   -24881   -21119   -18191   -17257   -16291 
  -15282   -16615   -20293   -24287   -27022   -26698   -22458   -16872 
  -13699   -13647   -14845   -16748   -20174   -23688   -24013   -20339 
  -15711   -13930   -16054   -19963   -22523   -22559   -21818   -22553 
  -25115   -27477   -26865   -23039   -18758   -16410   -16108   -17244 
  -19997   -23764   -26107   -26018   -25605   -26959   -29577   -30415 
  -26909   -21089   -17199   -15381   -13058   -11268   -13578   -19489 
  -23950   -24015   -22842   -23984   -24898   -22821   -21550   -24309 
  -27588   -27610   -25400   -23134   -21155   -19256   -18099   -18519 
  -19962   -21699   -24260   -26711   -26426   -23693   -21644   -21204 
  -20277   -17884   -15778   -15269   -15484   -16073   -17834   -19668 
  -19587   -18412   -18112   -18678   -19800   -22065   -24583   -24892 
  -22426   -19903   -19907   -21473   -22574   -23889   -26342   -28001 
  -27276   -25655   -25049   -25590   -25861   -24128   -20819   -18108 
  -16779   -16438   -17008   -18245   -20245   -23283   -25155   -22655 
  -17050   -13440   -14511   -18526   -23079   -27483   -30809   -31090 
  -27846   -23153   -19560   -17671   -16128   -13872   -11464    -9996 
  -10056   -11735   -14517   -17612   -20667   -23380   -25273   -26299 
  -26511   -25830   -24522   -23110   -22088   -20818   -17977   -15063 
  -15682   -19533   -21929   -20714   -18623   -17500   -15731   -13081 
  -12440   -15214   -18955   -20526   -20056   -20502   -22808   -24121 
  -22511   -20412   -21284   -25049   -28591   -29646   -28883   -27680 
  -25299   -21103   -17334   -16330   -17639   -19502   -21582   -24715 
  -27413   -26145   -20690   -15172   -12883   -12680   -11904   -11016 
  -12472   -16245   -19554   -20833   -20383   -17805   -13832   -11657 
  -11763   -11861   -13161   -18003   -23998   -27290   -26898   -24059 
  -20630   -16993   -12546    -8888    -8635   -12058   -17325   -22300 
  -25629   -26657   -24744   -20177   -15260   -12799   -13679   -16696 
  -20332   -24162   -28296   -31995   -34044   -34011   -32609   -30626 
  -27633   -23437   -19365   -16187   -13251   -10242    -8536    -9849 
  -13101   -15592   -17172   -19120   -20648   -20837   -21505   -24451 
  -27989   -29251   -28683   -28571   -28675   -27684   -25748   -23263 
  -20688   -18748   -17625   -17568   -18985   -21195   -22891   -23575 
  -23696   -23757   -23812   -23938   -24336   -24837   -24553   -22859 
  -21406   -22474   -25124   -26573   -26094   -25006   -24112   -22788 
  -21022   -20029   -19677   -18554   -16865   -16168   -16933   -18503 
  -20225   -21375   -21438   -20626   -19138   -17382   -16737   -17485 
  -18403   -19824   -22813   -26106   -26989   -24263   -20278   -18840 
  -20098   -20942   -20441   -20140   -19552   -16876   -13875   -13913 
  -16471   -18985   -20726   -21884   -22339   -21826   -20016   -16903 
  -13544   -11557   -10999   -11060   -12345   -14867   -16821   -18177 
  -21004   -25290   -28293   -27862   -24742   -21400   -19045   -17408 
  -16806   -18576   -23055   -27496   -28389   -26094   -23834   -22765 
  -21404   -18990   -16286   -13568   -10355    -7207    -6014    -7701 
  -11581   -16744   -21998   -26315   -29702   -32023   -32348   -30046 
  -26705   -25515   -26460   -26288   -24066   -21371   -18924   -16927 
  -15637   -14474   -13205   -12214   -11264   -11163   -13851   -19282 
  -25431   -29871   -30720   -28738   -26592   -24795   -21840   -18007 
  -15815   -16995   -20124   -22110   -22542   -23448   -24447   -23355 
  -21431   -22299   -25604   -26840   -24576   -22492   -22365   -21226 
  -17265   -12928   -11190   -12428   -15456   -19444   -23703   -26770 
  -27407   -26144   -24355   -22052   -18468   -14513   -11719   -10199 
  -10023   -11007   -11724   -12420   -15172   -19641   -23333   -25222 
  -25731   -24846   -22171   -18408   -16005   -16937   -19935   -21934 
  -21837   -21189   -21843   -23646   -24487   -23122   -20895   -19845 
  -20380   -21554   -22962   -24972   -26816   -26646   -24472   -22779 
  -22897   -23062   -21964   -21281   -22056   -22311   -20271   -16722 
  -14013   -13868   -15534   -17298   -19151   -21348   -22551   -21855 
  -20250   -18686   -16958   -14951   -13554   -14208   -17756   -23607 
  -29812   -33997   -34963   -33384   -30546   -26770   -21910   -16942 
  -13714   -13502   -15881   -18819   -21088   -23228   -25556   -27402 
  -27751   -26221   -24232   -23928   -25463   -26746   -26173   -24385 
  -22817   -21736   -20790   -20509   -21501   -23044   -23646   -22788 
  -21571   -20644   -19107   -16667   -14728   -14746   -16102   -16997 
  -17454   -18686   -20559   -22214   -23608   -25126   -26391   -26574 
  -25627   -23859   -21077   -17757   -15741   -15994   -17383   -18671 
  -19970   -21473   -22099   -21030   -19753   -20310   -22389   -23611 
  -21948   -17842   -14122   -13012   -13873   -15201   -17034   -19676 
  -22373   -24467   -26123   -27352   -27097   -24291   -19921   -16609 
  -15518   -15390   -15017   -14997   -16275   -18187   -19789   -21644 
  -23814   -24804   -24294   -23734   -23437   -22536   -21682   -21745 
  -21253   -18912   -16445   -16289   -18341   -20877   -23452   -26311 
  -27904   -26107   -21640   -17799   -16459   -16406   -16231   -16376 
  -17286   -17841   -16827   -14895   -14019   -15232   -17946   -21038 
  -23434   -24390   -23973   -22705   -20633   -17613   -14704   -13586 
  -14338   -15778   -17176   -18183   -18651   -19118   -20244   -21674 
  -22492   -22534   -22000   -20844   -19840   -20082   -20934   -21142 
  -21095   -21598   -22160   -22041   -21431   -20895   -20906   -21905 
  -23764   -25388   -25551   -24162   -22200   -20517   -19538   -19489 
  -19777   -19556   -19475   -20657   -22027   -21645   -20463   -20873 
  -22280   -22319   -21037   -20439   -21350   -22716   -23291   -22825 
  -21779   -20773   -20015   -18954   -17339   -16062   -16127   -17481 
  -19467   -21998   -25180   -27966   -28772   -27216   -24217   -20582 
  -16299   -12337   -11315   -13728   -16794   -19163   -21895   -25037 
  -27990   -30870   -32829   -32154   -28977   -25770   -24030   -22535 
  -20409   -18777   -18554   -19597   -21496   -23341   -24162   -24089 
  -23596   -22740   -21735   -20974   -20785   -20738   -19826   -18254 
  -17587   -18893   -21250   -22856   -23426   -23494   -22956   -22250 
  -22243   -22304   -21153   -18971   -16858   -15453   -15164   -16799 
  -20248   -23109   -23598   -23056   -22604   -21359   -18956   -16167 
  -14319   -14712   -16930   -18948   -19530   -19622   -20660   -22246 
  -23218   -23302   -22253   -20117   -18311   -18177   -19321   -20108 
  -19720   -19191   -19155   -18727   -17982   -18158   -19232   -19874 
  -19651   -20063   -22160   -24016   -22910   -19371   -16725   -16416 
  -16627   -16264   -16494   -17965   -19519   -19788   -19006   -18334 
  -17807   -16795   -15611   -15259   -16384   -18513   -20228   -21103 
  -22253   -23704   -23959   -22882   -21968   -22032   -22724   -23363 
  -23261   -22164   -20421   -18426   -16480   -15222   -15429   -17247 
  -19839   -21903   -22750   -22758   -22503   -22260   -22216   -22049 
  -21323   -20642   -20711   -20976   -20922   -21335   -22724   -23904 
  -23602   -22372   -21712   -21922   -21872   -20896   -19894   -19715 
  -19720   -19354   -19457   -20645   -22083   -22883   -23346   -24067 
  -25020   -26315   -28286   -29982   -29552   -26724   -23353   -21489 
  -21716   -22971   -23969   -24337   -23912   -22594   -21072   -19994 
  -19062   -17998   -17192   -16582   -15942   -16362   -18520   -20513 
  -20391   -18840   -16983   -14461   -11792   -11350   -14337   -19152 
  -23220   -25074   -24822   -23310   -21420   -19846   -18762   -18212 
  -18644   -20236   -22477   -24703   -26311   -26446   -24425   -20802 
  -17262   -15385   -15627   -17053   -18372   -19153   -19727   -20347 
  -20780   -21031   -21876   -23669   -25636   -26835   -26757   -25515 
  -24116   -23610   -23884   -23982   -23463   -22887   -22939   -23436 
  -23522   -22836   -21763   -20767   -20374   -21203   -23103   -24582 
  -24124   -21991   -19332   -16556   -14253   -13745   -15039   -16402 
  -16896   -17263   -18218   -19473   -20228   -19946   -19236   -19113 
  -19394   -19592   -20058   -20883   -21639   -22216   -22495   -22054 
  -21087   -20281   -19577   -18411   -16922   -16239   -17379   -19765 
  -21948   -23627   -24926   -24919   -23224   -21276   -20286   -19849 
  -19480   -19468   -19886   -20451   -21177   -22419   -24406   -26491 
  -27344   -26539   -24858   -22885   -20559   -17913   -15442   -13648 
  -12194   -10454    -9175    -9848   -12105   -13998   -14850   -15445 
  -16046   -16214   -15699   -14740   -13981   -13741   -13738   -13630 
  -13232   -13018   -14291   -17473   -21018   -23097   -23595   -23604 
  -23502   -23140   -23083   -23569   -23670   -22910   -22068   -21721 
  -21168   -19527   -17242   -15425   -14594   -14976   -16845   -20054 
  -23616   -25944   -26404   -26046   -25631   -24703   -23282   -22088 
  -21253   -20785   -21028   -21720   -22445   -23226   -23579   -22621 
  -20478   -18497   -18045   -19611   -22758   -26118   -27949   -27592 
  -25942   -24767   -25664   -28287   -30589   -31793   -32564   -32356 
  -29898   -25856   -22353   -20318   -19070   -18256   -18470   -19553 
  -20399   -20853   -21705   -23136   -24966   -27384   -29771   -30700 
  -29997   -28196   -24630   -18979   -12943    -8087    -5138    -5171 
   -7530   -10143   -13115   -16783   -19828   -21964   -23429   -23116 
  -20946   -19375   -20150   -22138   -23512   -23772   -23251   -22032 
  -20380   -19488   -19672   -19857   -19920   -20313   -20587   -20582 
  -20642   -20295   -19187   -18156   -17748   -17734   -17759   -17163 
  -15545   -13192   -10974   -10200   -11279   -13234   -15226   -17247 
  -19388   -21474   -23107   -24070   -24961   -26370   -27608   -27337 
  -25309   -23132   -22362   -22546   -22889   -23862   -25563   -27045 
  -27554   -26800   -25068   -23091   -21058   -18874   -17038   -16171 
  -16267   -16923   -17663   -18187   -19248   -22065   -26222   -30030 
  -32503   -33666   -33467   -31249   -27206   -22794   -18771   -15353 
  -13302   -12615   -12442   -12897   -14516   -16687   -18549   -19930 
  -20682   -20625   -19953   -19093   -18412   -17872   -17370   -17354 
  -18009   -18585   -18968   -20653   -24476   -28706   -30885   -30268 
  -27758   -24551   -21224   -18318   -17023   -17888   -19742   -20995 
  -21388   -22072   -23704   -25226   -25637   -25429   -25223   -24783 
  -23967   -23089   -22158   -20745   -18526   -16154   -14613   -13724 
  -13243   -13632   -14683   -16069   -18411   -21890   -25095   -26731 
  -26946   -25990   -23928   -21458   -19053   -16707   -15246   -15526 
  -16598   -17685   -19774   -22904   -25443   -26195   -24622   -20958 
  -16749   -13406   -10986    -9325    -9100   -10886   -13744   -16123 
  -18100   -20749   -23643   -25114   -24702   -23858   -23473   -22370 
  -20002   -17980   -17292   -17081   -16632   -16345   -16938   -18777 
  -21460   -23782   -24703   -24209   -22929   -21239   -19581   -18724 
  -18395   -17859   -17609   -18077   -18951   -20214   -21439   -21667 
  -21035   -20528   -20433   -20387   -20398   -21286   -23554   -26492 
  -29390   -31801   -32545   -30836   -27510   -23742   -20154   -17614 
  -17069   -18238   -19876   -21324   -22751   -24109   -24699   -24108 
  -23087   -22785   -23614   -25147   -26561   -27210   -26887   -26090 
  -25794   -26400   -27330   -27349   -25643   -23140   -21622   -21591 
  -21955   -21498   -20051   -18246   -16607   -15261   -14106   -12923 
  -11697   -10596    -9907   -10513   -12927   -15788   -17378   -17869 
  -18196   -18283   -18380   -19920   -23086   -26410   -29074   -30866 
  -31248   -29899   -27099   -23737   -20556   -17366   -14068   -11564 
  -10736   -11435   -12811   -14220   -15689   -17536   -19573   -21105 
  -22115   -23612   -25897   -27549   -27480   -26666   -26495   -26905 
  -27121   -26775   -25944   -24821   -23514   -22013   -20214   -18083 
  -15831   -14002   -13333   -14108   -15759   -17550   -19111   -20254 
  -21087   -22011   -22945   -23160   -22189   -20294   -17745   -14663 
  -11793   -10120   -10183   -12005   -14771   -17605   -20784   -24630 
  -27878   -28564   -26172   -22146   -18241   -15277   -13617   -13336 
  -13809   -14590   -16285   -19095   -21509   -22404   -22777   -23534 
  -24004   -23683   -23120   -23256   -25069   -28223   -30449   -30449 
  -29118   -26862   -23313   -19087   -15496   -13567   -13444   -14704 
  -16897   -19454   -21852   -23642   -24583   -24725   -24479   -24814 
  -26026   -27480   -28783   -29683   -29783   -28478   -25504   -21932 
  -19550   -18837   -18426   -17583   -17309   -18297   -20036   -21477 
  -21671   -20202   -17593   -14925   -12745   -11481   -11846   -13841 
  -16721   -19384   -20877   -21205   -20808   -19742   -18183   -16727 
  -15628   -14725   -14299   -14833   -15938   -16846   -17771   -19213 
  -20753   -21795   -22640   -24131   -26316   -28005   -28216   -27357 
  -26326   -25371   -24448   -23947   -24212   -24561   -24084   -22991 
  -22017   -21412   -21176   -21432   -22181   -22877   -22890   -22366 
  -21832   -21339   -20904   -20942   -21397   -21301   -19878   -17753 
  -16467   -16683   -17705   -18959   -20655   -22341   -22921   -22476 
  -21801   -21235   -21153   -21622   -21897   -21298   -19687   -17517 
  -15919   -15560   -15834   -15966   -15931   -15917   -16087   -16980 
  -18824   -20561   -21081   -20702   -20127   -19276   -18239   -17720 
  -17767   -18072   -19152   -21037   -22338   -22356   -22146   -22623 
  -23298   -23545   -23873   -24911   -25922   -25891   -25335   -25447 
  -26331   -27180   -27388   -26997   -26381   -25726   -25083   -24624 
  -24170   -23014   -20848   -18165   -15853   -14675   -14767   -15801 
  -17496   -19338   -20398   -20163   -19126   -18187   -18081   -19045 
  -20370   -21061   -21124   -21317   -21828   -22254   -22511   -22663 
  -22469   -21686   -20402   -19244   -19002   -19608   -20287   -20524 
  -20301   -19981   -19753   -19147   -17834   -16364   -15481   -15271 
  -15336   -15499   -15886   -16459   -17116   -18077   -19672   -21793 
  -23676   -24595   -24582   -23963   -22858   -21293   -19457   -17822 
  -16667   -16090   -16513   -17960   -19710   -21448   -23413   -25200 
  -25917   -25536   -24826   -24190   -23583   -22883   -21803   -20422 
  -19701   -20112   -20733   -21176   -22485   -24864   -26794   -27209 
  -26447   -24780   -22168   -19145   -16478   -14671   -13853   -13776 
  -14319   -15589   -17496   -19719   -21940   -23792   -25042   -25636 
  -25361   -24213   -22709   -21270   -20164   -19905   -20634   -21627 
  -22127   -22131   -22065   -22090   -21898   -21284   -20661   -20499 
  -20443   -19769   -18557   -17489   -16605   -15431   -14246   -13815 
  -14385   -15824   -17950   -20456   -22721   -23808   -23233   -21686 
  -20351   -19720   -19703   -20290   -21239   -21883   -21810   -21077 
  -19927   -18724   -17751   -16916   -16017   -15240   -15043   -15561 
  -16472   -17482   -18621   -19857   -21018   -22381   -24182   -25712 
  -26188   -25798   -25130   -24208   -22790   -21201   -20147   -19926 
