Origin Time       2025/01/13 21:19:00
Lat.              31.8
Long.             131.6
Depth. (km)       30
Mag.              6.9
Station Code      MYZH16
Station Lat.      32.5060
Station Long.     131.6958
Station Height(m) -98
Record Time       2025/01/13 21:19:45
Sampling Freq(Hz) 100Hz
Duration Time(s)  165
Dir.              1
Scale Factor      2940(gal)/6170270
Max. Acc. (gal)   11.552
Last Correction   2025/01/13 21:19:30
Memo.             
[...]
 -288803  -287874  -287394  -287449  -287965  -288662  -288802  -288153 
 -287454  -287454  -288035  -288544  -288776  -288795  -288374  -287766 
 -287740  -288313  -288808  -288847  -288462  -287839  -287378  -287506 
 -288204  -289154  -290068  -290395  -289545  -287798  -286390  -286459 
 -287787  -289031  -289442  -289324  -289067  -288813  -288444  -287713 
 -286937  -286756  -287197  -287937  -288719  -289112  -288864  -288357 
 -288148  -288237  -288249  -288148  -288013  -287870  -287978  -288195 
 -287893  -287177  -287025  -287929  -289038  -289043  -287898  -286902 
 -287008  -287949  -288753  -288653  -287861  -287188  -287006  -286997 
 -286906  -287048  -287568  -287970  -287981  -287985  -288416  -289190 
 -289800  -289855  -289495  -289321  -289501  -289400  -288868  -288572 
 -288623  -288534  -288141  -287487  -286751  -286593  -287502  -288727 
 -289046  -288614  -288663  -289472  -290014  -289591  -288789  -288588 
 -289010  -289187  -288597  -287837  -287982  -289009  -289683  -289375 
 -288546  -287776  -287681  -288586  -289768  -290230  -289926  -289546 
 -289452  -289340  -288960  -288509  -288250  -288320  -288719  -289036 
 -288674  -287836  -287474  -287999  -288922  -289448  -288937  -287708 
 -287191  -288182  -289856  -291069  -291416  -290896  -289653  -288244 
 -287440  -287500  -288200  -289498  -291041  -291578  -290474  -288839 
 -288045  -288111  -288143  -287710  -287178  -287054  -287652  -288714 
 -289209  -288801  -288756  -289752  -290507  -289969  -288992  -288935 
 -289745  -290375  -290467  -290189  -289461  -288686  -288546  -288810 
 -288804  -288308  -287556  -287041  -287218  -288092  -288733  -287969 
 -286399  -285927  -286626  -286591  -285436  -285172  -286770  -288372 
 -288289  -287614  -288014  -288996  -289456  -289464  -288862  -287063 
 -285193  -285315  -286994  -287852  -287598  -287954  -288750  -287994 
 -285944  -285204  -286497  -288055  -288740  -288644  -288050  -287611 
 -287711  -287199  -285091  -283282  -284454  -288069  -290864  -290652 
 -288761  -287459  -286656  -286002  -286692  -288873  -290268  -289115 
 -287100  -286899  -288302  -289370  -289409  -289088  -288973  -288979 
 -288979  -289384  -290189  -290069  -288481  -287181  -287623  -289029 
 -290326  -291661  -292687  -291916  -289225  -286853  -286652  -287943 
 -289331  -290558  -291077  -289778  -287320  -286001  -286653  -287769 
 -288242  -288724  -289641  -290224  -289995  -289254  -288194  -287240 
 -287192  -287737  -287931  -288367  -289969  -291429  -290988  -289434 
 -288571  -288350  -287788  -287425  -288573  -290587  -291175  -289546 
 -287424  -286684  -287375  -288453  -288820  -287530  -285198  -284426 
 -286519  -289297  -289962  -288606  -287597  -288205  -289496  -290457 
 -290778  -290282  -289456  -289032  -289050  -289481  -290347  -290912 
 -290428  -289439  -289046  -289156  -288671  -287353  -286358  -286552 
 -287195  -287041  -286159  -285598  -285778  -286248  -286660  -287295 
 -288200  -288539  -287723  -286183  -284921  -285186  -287415  -290123 
 -291332  -290939  -290408  -290316  -289836  -288819  -288292  -288667 
 -289242  -289518  -289533  -288998  -287800  -286845  -286799  -287318 
 -288141  -289321  -290569  -291529  -291994  -291540  -289966  -287990 
 -287008  -287801  -289432  -290317  -289876  -288646  -287700  -287665 
 -288276  -289030  -289195  -287730  -284997  -283117  -282751  -282279 
 -281448  -281999  -284564  -287822  -289812  -289586  -288608  -289317 
 -291822  -293758  -293391  -291305  -289492  -289622  -291390  -292645 
 -292005  -290404  -289024  -287797  -287100  -287703  -288331  -286859 
 -284362  -284573  -288071  -290619  -289438  -286756  -285172  -284421 
 -283767  -283708  -284407  -284835  -284363  -283384  -282728  -283320 
 -284946  -286483  -287602  -288181  -287832  -287093  -287209  -288535 
 -290078  -290927  -291119  -290761  -289947  -288953  -287722  -286311 
 -285303  -285265  -286134  -287298  -288515  -289606  -289743  -288994 
 -288862  -290399  -293114  -295190  -294995  -293094  -291262  -289937 
 -288708  -287757  -287300  -287130  -286913  -286415  -285593  -284480 
 -283520  -283566  -284822  -286795  -288899  -290137  -289594  -287722 
 -285899  -284745  -283995  -283768  -284244  -284804  -285216  -286027 
 -286697  -285945  -284423  -283940  -284452  -284552  -283922  -283634 
 -284708  -286826  -288611  -289466  -289946  -290155  -289708  -289072 
 -289303  -290588  -292178  -294027  -296335  -297333  -295237  -291182 
 -287351  -285049  -284559  -284401  -282889  -280544  -279035  -279038 
 -279966  -281233  -282787  -284167  -284764  -284696  -284396  -284334 
 -284836  -285733  -287031  -288825  -290154  -289905  -288619  -287819 
 -287828  -287885  -288192  -289727  -292583  -295785  -298167  -299338 
 -299633  -299506  -299478  -299791  -300303  -301027  -301526  -300439 
 -297228  -293345  -290717  -289910  -289712  -288327  -285215  -281522 
 -279051  -278727  -279467  -279298  -277812  -276168  -274984  -274262 
 -274804  -277199  -280323  -282775  -284430  -285590  -286072  -285611 
 -284362  -283086  -283066  -285003  -287975  -290523  -292407  -294482 
 -297148  -299549  -300466  -299606  -297820  -296359  -295822  -295782 
 -295688  -295791  -296604  -297784  -298123  -296848  -294879  -293873 
 -294364  -295658  -296495  -295944  -294169  -291838  -289549  -287359 
 -284548  -281301  -279100  -278171  -277156  -275518  -273909  -272792 
 -272425  -273242  -275111  -277067  -278474  -279958  -282937  -287983 
 -293288  -295737  -294925  -294501  -297327  -301487  -303267  -302020 
 -300226  -299609  -299098  -297139  -294160  -291393  -288676  -285205 
 -281184  -277079  -273225  -270947  -271152  -272628  -273614  -272779 
 -270001  -268113  -269931  -274574  -280057  -285553  -289976  -292230 
 -292586  -292238  -292251  -292845  -293404  -293619  -293707  -293532 
 -292975  -292425  -292492  -294091  -297447  -300930  -302497  -301416 
 -298500  -295722  -294471  -294245  -294197  -294493  -295168  -295176 
 -294027  -293366  -294682  -296857  -298032  -297941  -297477  -297114 
 -296202  -294232  -291797  -289496  -287476  -286024  -285249  -284640 
 -283492  -281828  -280477  -279876  -279724  -279471  -278457  -276873 
 -275916  -275840  -275713  -275513  -276379  -278385  -280029  -280694 
 -281115  -281136  -280449  -280286  -281237  -282153  -282562  -283173 
 -284265  -285159  -285085  -284523  -284694  -285837  -287261  -288150 
 -288241  -288353  -289370  -291176  -293109  -294579  -295813  -298117 
 -301967  -305760  -307928  -308603  -308486  -307721  -306104  -303501 
 -299962  -295972  -292403  -289580  -287545  -286872  -287233  -287566 
 -288235  -289738  -291332  -292529  -292971  -291839  -289261  -286370 
 -284313  -284269  -286413  -289060  -290675  -291375  -291838  -292344 
 -292621  -292373  -292027  -291656  -290382  -288108  -285691  -283433 
 -281029  -278075  -274426  -271048  -269955  -272180  -275908  -277895 
 -276959  -274656  -272908  -272810  -274685  -277470  -279177  -279102 
 -278759  -279971  -282798  -286174  -289356  -291797  -293287  -294823 
 -297464  -300399  -301775  -301010  -299411  -298672  -299151  -300110 
 -301112  -302106  -302981  -304050  -305730  -307330  -307596  -306295 
 -304083  -301204  -297610  -293978  -291082  -288758  -286696  -285111 
 -283965  -282795  -281626  -280903  -280631  -280671  -281060  -281281 
 -280788  -279776  -278324  -276765  -276158  -276406  -275963  -274006 
 -271603  -270632  -271292  -272153  -273318  -276183  -280505  -284826 
 -288134  -290080  -290823  -290334  -288700  -287303  -287533  -288985 
 -290728  -292906  -295759  -298446  -300030  -300883  -301920  -302902 
 -302620  -300577  -297766  -295615  -294801  -295109  -295387  -294415 
 -292667  -291432  -290419  -288720  -286978  -286319  -286695  -287401 
 -287808  -287621  -286826  -285381  -283493  -281432  -279218  -277466 
 -277214  -278626  -280886  -282753  -283262  -282649  -282304  -283347 
 -285356  -286960  -287776  -288946  -291268  -293807  -295129  -295078 
 -294569  -294102  -293294  -291728  -289624  -287678  -286341  -285064 
 -282789  -279709  -277462  -276921  -277226  -277278  -276995  -277122 
 -278182  -279595  -280409  -280689  -281156  -281891  -282611  -283704 
 -285797  -288499  -290468  -290974  -290588  -290141  -290094  -290746 
 -292062  -293483  -294276  -294350  -294845  -296939  -299796  -301203 
 -300500  -299286  -298948  -299048  -298911  -299084  -299891  -300179 
 -298532  -295271  -292491  -291264  -290538  -289649  -289236  -289652 
 -290258  -290094  -289110  -288134  -287278  -286084  -284928  -284464 
 -284616  -285065  -285699  -286242  -286193  -285450  -284549  -284071 
 -284212  -284885  -285864  -286946  -288200  -289575  -290236  -289712 
 -289244  -289906  -290695  -290539  -290321  -291068  -291908  -291577 
 -290616  -290318  -290579  -290427  -289621  -288562  -287541  -286831 
 -286883  -287650  -288067  -287358  -286392  -286299  -286575  -286112 
 -285184  -284822  -285269  -286247  -287538  -288843  -289889  -290376 
 -289933  -288580  -286977  -286199  -286778  -287754  -287727  -286483 
 -284746  -283170  -281945  -281052  -280606  -280686  -281312  -282603 
 -284672  -287496  -290732  -293854  -296529  -298231  -298259  -296902 
 -295540  -295123  -295445  -296260  -297687  -299077  -299410  -298762 
 -298015  -297974  -298656  -299054  -298732  -298451  -298254  -297189 
 -295198  -293199  -291566  -289970  -288409  -287272  -286261  -284362 
 -281589  -279351  -278255  -277400  -276054  -274200  -272162  -270685 
 -270529  -271862  -273771  -274636  -274111  -273561  -274110  -275903 
 -278255  -279793  -279925  -279493  -279508  -280442  -282173  -284180 
 -286056  -287168  -286857  -285806  -285422  -286085  -287415  -289238 
 -291353  -293138  -294337  -295893  -298650  -301808  -304047  -305214 
 -305987  -306802  -307551  -307863  -307273  -305441  -302853  -300643 
 -299291  -298094  -296062  -293514  -291500  -289586  -287328  -285910 
 -285524  -284908  -283913  -283229  -282874  -282508  -281936  -281236 
 -280834  -280731  -280306  -279520  -279000  -278947  -279017  -278887 
 -278946  -280096  -282067  -283239  -282686  -280971  -279192  -278054 
 -277684  -278063  -279009  -280008  -281076  -283003  -285821  -288437 
 -290328  -291826  -292868  -293026  -292232  -290999  -290208  -290561 
 -292400  -295380  -297918  -298466  -297154  -295132  -293365  -292164 
 -291079  -289558  -287776  -286760  -287205  -287987  -287504  -286024 
 -284888  -284521  -284380  -284253  -284849  -286512  -288422  -289849 
 -290561  -290252  -289318  -288883  -289377  -290329  -290988  -291042 
 -290757  -290011  -288727  -287864  -287999  -288181  -287489  -286366 
 -285583  -285041  -284165  -282866  -281807  -281569  -281854  -282132 
 -282410  -282889  -283818  -285652  -288546  -291923  -294879  -296660 
 -296824  -295568  -293971  -293303  -293739  -294204  -294069  -294139 
 -294947  -295535  -295030  -293808  -292439  -290748  -288511  -286403 
 -285501  -286049  -287330  -288476  -289044  -288942  -288173  -286918 
 -285425  -283801  -282344  -281526  -281602  -282551  -283878  -284884 
 -285474  -285974  -286623  -287662  -288860  -289111  -287979  -286904 
 -287135  -287754  -287619  -287493  -288453  -289982  -291071  -291639 
 -291846  -291399  -290424  -289882  -290439  -291553  -292114  -292031 
 -292219  -292766  -293168  -294010  -295768  -297325  -297664  -297280 
 -296960  -296737  -296549  -296631  -296615  -295479  -293080  -290454 
 -288129  -285532  -282342  -279117  -276440  -274532  -273469  -273132 
 -273174  -273088  -272761  -273055  -274897  -277946  -280902  -283025 
 -284620  -285818  -286312  -286243  -285790  -284835  -283656  -282838 
 -282584  -282727  -283100  -283979  -286142  -289772  -293839  -297328 
 -299813  -300776  -300156  -298982  -298270  -298000  -297586  -296754 
 -295631  -294574  -294349  -295407  -296740  -296868  -295969  -295479 
 -295981  -296764  -296961  -296582  -296243  -296005  -295393  -293922 
 -291360  -288828  -288495  -290854  -294257  -297372  -299716  -300537 
 -299507  -297505  -295245  -292182  -287863  -283264  -279591  -276796 
 -274344  -272375  -271371  -271332  -271616  -271685  -272011  -273581 
 -276393  -279073  -280221  -280143  -280371  -281154  -281785  -282784 
 -284718  -287031  -289702  -293095  -296707  -300028  -302851  -304696 
 -305270  -304484  -302210  -298801  -294766  -290695  -288006  -287484 
 -287777  -287481  -286975  -287281  -288294  -288804  -288826  -289884 
 -292000  -293636  -294205  -294262  -294385  -294570  -294736  -295293 
 -295834  -295184  -293713  -292693  -291841  -289868  -286547  -283012 
 -280495  -279430  -279428  -279596  -279366  -279114  -279481  -280432 
 -281421  -281948  -281790  -281147  -280436  -279976  -279872  -279632 
 -278634  -277321  -276677  -276759  -276853  -276751  -277163  -278577 
 -280448  -282445  -285226  -288904  -292342  -294564  -295414  -295133 
 -294381  -294017  -294276  -294552  -294176  -293315  -292902  -293617 
 -295237  -296989  -298277  -298874  -298762  -298326  -298143  -298166 
 -297819  -296725  -294996  -293228  -291906  -290797  -289345  -287267 
 -284683  -282054  -279758  -277800  -276059  -274429  -272982  -272356 
 -273456  -276041  -278385  -279749  -281464  -284074  -286290  -287429 
 -288124  -289008  -290113  -290928  -291316  -292188  -294242  -297114 
 -300172  -302832  -304590  -305343  -305375  -305584  -307056  -309569 
 -311719  -312575  -312093  -310371  -307543  -304876  -303971  -303797 
 -302151  -299361  -296548  -293724  -291250  -289247  -286936  -284458 
 -282373  -280064  -277230  -274640  -272632  -271272  -270609  -270009 
 -269204  -268594  -268062  -267407  -266875  -266691  -266969  -267896 
 -270041  -273622  -277425  -280293  -282703  -285126  -286847  -287730 
 -288745  -290100  -291272  -292633  -295088  -298462  -301053  -301149 
 -299225  -297304  -295898  -293858  -291095  -288807  -287390  -286300 
 -285417  -285169  -285663  -286365  -286811  -287225  -287993  -289033 
 -289910  -290424  -290803  -290784  -289664  -288055  -287427  -287508 
 -286587  -284466  -282900  -283065  -284384  -285994  -287875  -289897 
 -290950  -290229  -288564  -287451  -287468  -288158  -288829  -288897 
 -287866  -285814  -283540  -281562  -279744  -278222  -277803  -279103 
 -281642  -284254  -286389  -288366  -290298  -291742  -292576  -293285 
 -294214  -295304  -296403  -297318  -297929  -298382  -298888  -299352 
 -299428  -299115  -298690  -297767  -295719  -292958  -290444  -288701 
 -287823  -287492  -287393  -287679  -288208  -288391  -288345  -288617 
 -289049  -289226  -289312  -289863  -291038  -292123  -292496  -292530 
 -292589  -292475  -292425  -293186  -294885  -296497  -296682  -295186 
 -292927  -290793  -288999  -287417  -285852  -284072  -282072  -280233 
 -278934  -278188  -277717  -277183  -276549  -276223  -276422  -276793 
 -277186  -278046  -279618  -281424  -282814  -283772  -284927  -286698 
 -288518  -289184  -288066  -285816  -283898  -283195  -283328  -283741 
 -284584  -286162  -288409  -290953  -293189  -294450  -294399  -293163 
 -291197  -289227  -288036  -287954  -288648  -289434  -289746  -289477 
 -288939  -288555  -288700  -289361  -290005  -290339  -290575  -290890 
 -291241  -291434  -291419  -291401  -291393  -291237  -290774  -289738 
 -288276  -287128  -286606  -286371  -286248  -286344  -286601  -286741 
 -286732  -287002  -287671  -288280  -288773  -289678  -291039  -292134 
 -292343  -291736  -290907  -290351  -289890  -288954  -287344  -285207 
 -282697  -280171  -278337  -277746  -278114  -278660  -279107  -279705 
 -280516  -281392  -282486  -284154  -286208  -287878  -288895  -289923 
 -291547  -293374  -294547  -294797  -294565  -294305  -294118  -293884 
 -293688  -293990  -294919  -295714  -295499  -294335  -293193  -293105 
 -294252  -295762  -296534  -296463  -296474  -296895  -296736  -294989 
 -291823  -288391  -285648  -283598  -282068  -281389  -281714  -282530 
 -283309  -284044  -284940  -285994  -287261  -289051  -291201  -292925 
 -293722  -293582  -292627  -291094  -289301  -287531  -286089  -285375 
 -285689  -286818  -287995  -288486  -288272  -288022  -288450  -289635 
 -290791  -291166  -290934  -290507  -290009  -289689  -289712  -289885 
 -289816  -288994  -287253  -285033  -282958  -281629  -281149  -280860 
 -280510  -280747  -281791  -283051  -284339  -286140  -288366  -290076 
 -290791  -290979  -291117  -291182  -291028  -290615  -289739  -288250 
 -286717  -285914  -285679  -285229  -284353  -283460  -282886  -282792 
 -283227  -283826  -283966  -283544  -283164  -283361  -284092  -285068 
 -286101  -287044  -287799  -288415  -288926  -289145  -288786  -287916 
 -287047  -286471  -286104  -286172  -287245  -289420  -291850  -293333 
 -293534  -293285  -293315  -293323  -292726  -291711  -290900  -290312 
 -289561  -288749  -288291  -288272  -288419  -288528  -288754  -289244 
 -289780  -290099  -290131  -289972  -289842  -289691  -289048  -287711 
 -286115  -284787  -283823  -283000  -282202  -281655  -281702  -282155 
 -282308  -282063  -282315  -283682  -285673  -287591  -289466  -291538 
 -293531  -294946  -295561  -295479  -295046  -294671  -294489  -294215 
 -293457  -292222  -290949  -290035  -289567  -289447  -289562  -289949 
 -290778  -291989  -293147  -293991  -294649  -295004  -294686  -293834 
 -293017  -292377  -291408  -289809  -288085  -286675  -285268  -283723 
 -282565  -282123  -282005  -281586  -280911  -280845  -281900  -283515 
 -285035  -286604  -288472  -290274  -291633  -292761  -293916  -294722 
 -294669  -293987  -293163  -292021  -290133  -287748  -285726  -284657 
 -284352  -284256  -284150  -284232  -284637  -285314  -286248  -287408 
 -288748  -290126  -291228  -292068  -292881  -293399  -293145  -292167 
 -291038  -290236  -289699  -289233  -288952  -288922  -288918  -288765 
 -288529  -288335  -288118  -287596  -286652  -285701  -285313  -285520 
 -285819  -285951  -286282  -287119  -287982  -288176  -287869  -287824 
 -288183  -288374  -288079  -287464  -286674  -285868  -285413  -285502 
 -286064  -286992  -287964  -288557  -288837  -289273  -289886  -290108 
 -289819  -289674  -289961  -290134  -289850  -289566  -289652  -289628 
 -288893  -287697  -286822  -286693  -287111  -287524  -287549  -287405 
 -287602  -288384  -289639  -291046  -292413  -293782  -294944  -295335 
 -294732  -293583  -292354  -291026  -289503  -288071  -287119  -286685 
 -286515  -286373  -286171  -285859  -285353  -284659  -283812  -282870 
 -282184  -282064  -282277  -282519  -282963  -284086  -286020  -288115 
 -289635  -290489  -290891  -291085  -291273  -291439  -291450  -291145 
 -290531  -289977  -289818  -290106  -290667  -291037  -291007  -290976 
 -291290  -291901  -292444  -292298  -291368  -290412  -289911  -289433 
 -288424  -287162  -286441  -286361  -286308  -286169  -286510  -287337 
 -287779  -287516  -287308  -287580  -287742  -287284  -286659  -286584 
 -286998  -287318  -287412  -287681  -288229  -288593  -288563  -288521 
 -288686  -288743  -288328  -287469  -286524  -285858  -285628  -285613 
 -285354  -284908  -285010  -286007  -287359  -288424  -288978  -289048 
 -288860  -288777  -288836  -288656  -288137  -287683  -287502  -287449 
 -287671  -288448  -289290  -289269  -288359  -287501  -287236  -287191 
