Origin Time       2025/01/13 21:19:00
Lat.              31.8
Long.             131.6
Depth. (km)       30
Mag.              6.9
Station Code      MYZH15
Station Lat.      32.3654
Station Long.     131.5893
Station Height(m) -30
Record Time       2025/01/13 21:19:43
Sampling Freq(Hz) 100Hz
Duration Time(s)  183
Dir.              2
Scale Factor      2942(gal)/8224139
Max. Acc. (gal)   11.410
Last Correction   2025/01/13 21:19:43
Memo.             
[...]
  -78337   -78335   -78333   -78336   -78336   -78335   -78335   -78335 
  -78336   -78336   -78335   -78336   -78333   -78332   -78336   -78339 
  -78336   -78335   -78337   -78337   -78335   -78336   -78336   -78336 
  -78336   -78335   -78336   -78337   -78336   -78335   -78336   -78337 
  -78335   -78336   -78337   -78336   -78336   -78336   -78336   -78335 
  -78335   -78336   -78335   -78333   -78336   -78337   -78336   -78336 
  -78337   -78337   -78336   -78336   -78337   -78337   -78336   -78336 
  -78336   -78335   -78333   -78333   -78335   -78335   -78336   -78337 
  -78336   -78336   -78337   -78336   -78335   -78337   -78336   -78335 
  -78337   -78336   -78333   -78333   -78335   -78333   -78335   -78337 
  -78336   -78335   -78336   -78335   -78335   -78336   -78336   -78336 
  -78337   -78337   -78336   -78335   -78336   -78336   -78336   -78337 
  -78337   -78336   -78336   -78336   -78337   -78337   -78336   -78336 
  -78336   -78333   -78335   -78335   -78333   -78336   -78339   -78336 
  -78335   -78336   -78337   -78336   -78336   -78337   -78335   -78333 
  -78337   -78339   -78335   -78335   -78337   -78336   -78335   -78336 
  -78337   -78336   -78335   -78333   -78333   -78336   -78336   -78333 
  -78333   -78335   -78333   -78335   -78336   -78335   -78336   -78336 
  -78333   -78335   -78337   -78336   -78336   -78337   -78336   -78335 
  -78337   -78336   -78335   -78335   -78335   -78335   -78335   -78335 
  -78335   -78333   -78335   -78337   -78336   -78336   -78336   -78335 
  -78336   -78336   -78335   -78335   -78333   -78333   -78335   -78333 
  -78333   -78336   -78336   -78335   -78335   -78336   -78337   -78337 
  -78336   -78337   -78337   -78336   -78336   -78337   -78335   -78333 
  -78333   -78335   -78335   -78335   -78337   -78337   -78337   -78336 
  -78335   -78333   -78333   -78335   -78336   -78336   -78336   -78337 
  -78336   -78333   -78336   -78336   -78333   -78333   -78336   -78335 
  -78336   -78336   -78333   -78336   -78339   -78336   -78332   -78335 
  -78337   -78336   -78335   -78337   -78337   -78335   -78332   -78332 
  -78333   -78335   -78335   -78335   -78335   -78336   -78336   -78336 
  -78336   -78336   -78335   -78332   -78332   -78333   -78333   -78333 
  -78335   -78336   -78336   -78335   -78335   -78335   -78335   -78335 
  -78335   -78335   -78335   -78336   -78336   -78336   -78336   -78336 
  -78336   -78336   -78335   -78336   -78337   -78337   -78336   -78335 
  -78333   -78335   -78339   -78340   -78337   -78335   -78333   -78335 
  -78336   -78337   -78336   -78335   -78336   -78336   -78336   -78336 
  -78336   -78336   -78336   -78333   -78335   -78336   -78335   -78336 
  -78336   -78335   -78337   -78336   -78335   -78337   -78336   -78333 
  -78335   -78336   -78336   -78335   -78335   -78333   -78335   -78336 
  -78336   -78335   -78335   -78336   -78336   -78336   -78336   -78335 
  -78335   -78333   -78333   -78335   -78336   -78335   -78336   -78337 
  -78336   -78335   -78335   -78335   -78335   -78333   -78333   -78333 
  -78332   -78335   -78337   -78336   -78335   -78335   -78333   -78336 
  -78339   -78339   -78336   -78333   -78335   -78336   -78333   -78335 
  -78339   -78335   -78335   -78335   -78331   -78331   -78331   -78329 
  -78329   -78331   -78332   -78332   -78329   -78325   -78322   -78321 
  -78320   -78317   -78316   -78313   -78310   -78308   -78306   -78301 
  -78297   -78294   -78289   -78282   -78279   -78277   -78273   -78268 
  -78263   -78258   -78256   -78254   -78248   -78243   -78240   -78241 
  -78243   -78237   -78229   -78221   -78214   -78209   -78202   -78197 
  -78202   -78214   -78214   -78206   -78213   -78232   -78251   -78260 
  -78254   -78250   -78255   -78247   -78223   -78209   -78216   -78231 
  -78236   -78241   -78278   -78349   -78430   -78470   -78455   -78451 
  -78486   -78520   -78520   -78479   -78430   -78393   -78333   -78258 
  -78256   -78356   -78445   -78463   -78460   -78474   -78528   -78607 
  -78626   -78571   -78509   -78497   -78529   -78561   -78553   -78474 
  -78348   -78244   -78159   -78106   -78116   -78117   -78047   -77971 
  -77969   -78035   -78128   -78291   -78471   -78478   -78362   -78274 
  -78205   -78187   -78173   -78035   -77876   -77843   -77927   -78040 
  -78106   -78097   -78023   -77969   -77963   -77961   -77980   -78015 
  -78013   -77997   -78005   -77998   -77912   -77815   -77809   -77831 
  -77755   -77650   -77629   -77604   -77494   -77356   -77240   -77241 
  -77414   -77600   -77653   -77596   -77480   -77332   -77221   -77180 
  -77120   -77013   -76931   -76905   -76951   -77082   -77187   -77134 
  -77012   -76937   -76867   -76846   -76937   -77080   -77259   -77380 
  -77375   -77442   -77589   -77623   -77575   -77487   -77426   -77629 
  -78040   -78359   -78441   -78248   -78027   -78113   -78331   -78435 
  -78557   -78686   -78726   -78856   -79046   -78984   -78813   -78942 
  -79255   -79443   -79462   -79361   -79316   -79578   -80007   -80107 
  -79783   -79555   -79645   -79724   -79650   -79447   -79132   -79019 
  -79208   -79261   -79180   -79348   -79454   -79122   -78621   -78227 
  -77989   -77885   -77826   -77774   -77714   -77635   -77643   -77758 
  -77784   -77689   -77583   -77518   -77634   -77824   -77714   -77265 
  -76758   -76447   -76404   -76531   -76713   -76929   -77363   -77997 
  -78430   -78642   -78738   -78480   -78112   -78086   -78213   -78287 
  -78462   -78636   -78665   -78872   -79131   -78798   -78165   -78012 
  -78356   -78939   -79520   -79737   -79721   -79851   -79905   -79659 
  -79389   -79188   -78927   -78710   -78426   -78052   -78162   -78570 
  -78405   -77846   -77481   -77290   -77388   -77919   -78273   -78102 
  -78071   -78381   -78410   -78058   -77649   -77187   -76995   -77372 
  -77608   -77409   -77245   -77149   -77060   -76929   -77006   -77548 
  -77689   -77321   -77603   -78143   -78125   -78340   -78922   -79124 
  -79220   -79417   -79375   -79412   -79793   -79806   -78853   -77755 
  -77367   -77024   -76619   -76836   -76901   -76505   -76590   -76644 
  -76384   -76846   -77521   -77542   -77566   -77895   -77846   -76987 
  -75957   -75735   -76411   -77338   -77490   -76720   -76474   -77147 
  -77490   -77049   -76297   -75882   -76208   -76825   -77438   -78366 
  -79142   -78875   -78028   -77778   -78000   -77958   -77703   -77406 
  -77440   -78232   -79209   -79817   -79982   -79454   -78698   -78443 
  -78479   -78499   -78665   -79146   -79718   -79762   -79309   -79470 
  -80323   -80536   -79909   -79235   -78798   -78706   -78821   -78961 
  -79293   -79836   -80299   -80354   -80303   -80530   -80356   -79431 
  -78723   -78796   -78972   -78808   -78613   -78449   -78344   -78634 
  -79180   -79280   -78717   -78044   -77542   -77429   -77912   -77843 
  -76879   -76680   -76981   -76437   -75795   -75741   -75975   -76281 
  -76324   -76353   -76854   -77313   -77315   -77055   -76765   -77145 
  -78086   -78302   -77626   -76770   -75967   -75419   -75512   -76183 
  -77012   -77812   -78058   -77785   -78000   -78328   -78270   -78503 
  -78926   -79461   -80734   -82347   -83064   -82235   -80362   -78962 
  -78879   -79154   -79207   -79617   -80188   -80442   -80809   -81145 
  -80667   -79629   -78760   -78440   -78486   -78455   -78444   -78239 
  -77930   -78275   -78568   -77982   -77588   -78273   -79212   -79759 
  -80528   -81114   -80346   -78948   -77873   -76889   -76330   -76465 
  -76750   -77214   -77992   -78672   -79114   -79150   -78718   -78468 
  -78437   -78046   -77870   -78609   -79223   -79066   -79440   -80438 
  -80599   -79918   -79164   -78668   -78564   -78530   -78408   -78390 
  -78324   -78078   -78094   -78414   -78605   -78892   -79388   -79876 
  -80192   -80103   -80465   -81487   -81348   -79497   -77602   -76882 
  -76555   -75813   -75313   -75439   -76211   -77747   -79049   -78804 
  -77857   -78147   -79384   -80015   -79628   -78595   -77535   -77353 
  -78445   -79475   -79213   -78605   -78393   -77696   -76513   -76040 
  -75872   -75415   -75655   -76362   -76761   -77576   -79146   -80712 
  -81348   -80773   -79598   -78420   -77583   -77330   -77521   -77688 
  -77406   -76855   -76859   -77465   -77338   -76462   -76612   -77874 
  -79350   -80701   -81307   -81328   -81229   -81140   -81020   -80269 
  -79586   -79728   -79589   -78854   -78125   -77588   -77380   -77325 
  -77672   -78879   -79818   -79659   -79631   -80184   -79980   -78530 
  -77134   -76712   -76472   -75861   -75864   -77090   -78219   -77989 
  -77197   -76666   -76157   -76034   -76762   -77521   -77588   -77966 
  -79042   -79195   -78331   -78212   -78630   -77890   -76407   -75987 
  -76650   -77346   -77981   -78637   -79115   -79921   -81380   -82313 
  -81637   -80311   -79870   -79843   -79172   -78340   -77687   -77125 
  -77500   -78848   -79525   -78907   -77986   -77129   -76025   -75151 
  -75278   -76245   -77172   -77460   -77522   -78232   -79536   -80619 
  -80609   -79366   -78329   -78135   -77264   -75710   -75675   -77102 
  -77442   -76594   -76673   -77909   -79132   -79875   -80604   -81338 
  -81611   -82354   -83176   -81940   -79968   -79358   -78576   -76484 
  -74799   -75124   -76843   -78638   -80204   -81205   -81309   -80974 
  -80346   -79382   -78621   -78349   -78393   -78698   -78966   -78896 
  -79103   -79859   -80277   -80122   -79917   -79578   -78649   -77184 
  -75841   -75412   -76426   -78290   -79208   -78248   -76651   -76450 
  -77414   -77449   -76476   -75487   -74368   -73589   -74075   -75640 
  -77357   -78984   -81000   -82486   -81966   -80415   -79666   -79685 
  -79513   -78981   -78884   -79724   -80990   -81650   -81257   -80258 
  -78651   -76894   -75949   -75139   -74507   -75648   -78675   -82285 
  -84703   -84636   -82821   -80642   -78472   -76917   -76746   -77687 
  -78850   -79319   -79123   -79332   -80208   -80099   -77936   -75813 
  -75628   -76472   -77218   -77642   -77430   -77105   -77923   -79003 
  -79178   -79281   -79342   -79143   -78910   -77998   -76905   -77396 
  -79452   -81195   -81785   -81422   -79812   -77811   -76842   -76013 
  -74120   -71555   -69121   -68160   -68936   -70691   -74098   -78537 
  -81891   -83323   -82382   -79485   -76435   -74672   -73831   -72999 
  -72482   -73080   -76032   -80383   -82418   -81714   -80341   -78312 
  -75470   -73013   -72112   -73392   -75938   -77498   -78031   -78926 
  -79841   -80238   -79806   -78540   -77360   -76666   -76966   -78250 
  -78813   -78679   -79374   -80831   -82599   -83708   -83049   -82472 
  -82827   -81531   -79463   -79482   -79797   -78476   -76928   -76138 
  -76229   -77013   -77302   -76927   -77062   -77619   -77888   -78128 
  -78611   -79562   -80993   -81527   -80516   -79326   -78487   -77776 
  -77564   -77598   -77943   -78977   -79335   -78395   -77799   -77922 
  -77911   -78439   -79762   -80419   -79563   -77916   -77242   -77745 
  -77727   -77568   -78497   -79883   -80885   -80662   -78278   -74322 
  -70646   -68724   -68802   -69840   -71132   -73310   -76033   -77955 
  -79250   -80284   -80952   -82428   -84294   -84549   -84040   -82984 
  -80171   -77967   -78052   -78916   -80315   -81928   -81375   -78146 
  -75193   -73622   -71559   -69645   -70414   -73770   -77562   -80458 
  -82316   -82834   -81702   -79300   -76696   -75550   -76546   -78328 
  -79614   -80615   -81534   -81402   -79292   -76052   -73445   -72073 
  -71555   -72049   -73978   -76600   -78858   -80572   -81495   -81184 
  -79551   -76659   -74316   -74842   -77193   -79737   -81746   -82354 
  -83035   -84515   -85557   -85839   -84755   -82449   -79591   -76573 
  -75077   -76179   -78588   -80489   -82645   -85264   -85450   -83664 
  -82453   -81687   -81722   -82630   -82757   -80551   -76133   -72445 
  -71128   -71216   -72601   -74086   -72827   -69871   -70247   -73900 
  -75469   -74453   -74919   -78659   -82995   -83857   -82185   -81122 
  -79790   -78034   -77149   -75319   -72414   -70983   -70876   -70892 
  -71448   -73006   -74256   -74580   -76133   -79766   -83756   -86287 
  -86242   -84079   -81121   -77576   -72577   -66991   -64565   -66519 
  -69687   -71142   -69134   -64736   -61979   -62325   -64071   -65719 
  -67671   -70174   -72199   -74683   -77996   -79805   -78678   -75568 
  -72625   -70159   -67842   -65767   -63552   -63177   -65124   -66795 
  -67949   -69377   -71872   -76694   -82896   -86564   -86611   -86854 
  -87205   -85734   -84044   -82267   -81635   -83589   -84670   -83654 
  -83543   -84627   -85639   -88225   -92373   -95327   -97476   -99555 
 -102209  -106076  -107273  -105583  -103878  -100299   -96489   -95586 
  -94639   -92068   -90960   -91671   -90471   -88403   -87351   -83034 
  -77206   -74898   -73377   -72046   -71394   -68666   -67286   -69846 
  -71284   -69061   -65730   -65819   -71285   -77787   -80615   -79416 
  -77507   -77269   -76273   -72285   -66884   -64003   -66673   -72441 
  -75311   -73588   -71545   -71289   -70641   -69959   -71072   -74023 
  -78880   -83384   -83565   -80354   -76183   -69920   -62213   -55667 
  -51968   -53150   -57349   -60754   -64434   -68212   -69722   -71687 
  -76798   -82221   -84889   -86205   -88885   -91368   -90293   -86387 
  -83374   -83574   -86606   -89622   -90319   -91616   -95601   -97972 
  -95802   -90672   -85554   -82628   -81491   -81341   -81981   -83685 
  -86591   -88838   -88973   -88862   -91960   -97754  -102443  -105421 
 -107393  -108599  -109883  -110232  -108953  -106030   -99743   -91399 
  -84937   -80358   -76539   -73782   -69876   -65327   -64964   -67548 
  -69932   -73336   -76700   -79996   -84873   -87284   -85307   -82181 
  -78017   -73184   -69654   -66803   -65099   -65043   -65472   -66978 
  -68751   -69565   -71120   -73905   -78034   -84802   -92005   -94757 
  -92773   -89244   -84569   -79222   -74742   -70912   -68609   -68266 
  -67664   -65869   -64012   -63558   -64638   -66050   -67892   -71386 
  -76896   -82456   -85151   -84874   -82983   -80136   -77341   -75876 
  -76644   -78721   -80318   -81675   -82915   -82258   -79587   -78929 
  -83084   -89005   -93673   -96749   -97329   -95153   -90610   -84202 
  -78135   -74451   -73117   -73575   -75459   -77600   -79056   -80165 
  -81418   -82850   -83802   -83995   -84007   -83517   -81855   -78790 
  -74526   -70274   -66965   -65317   -65844   -67292   -68808   -70749 
  -71826   -70880   -69715   -70074   -70657   -70181   -69553   -68767 
  -67344   -66486   -66244   -65535   -64679   -64889   -67119   -70187 
  -72547   -75182   -77306   -76156   -73269   -72422   -74097   -78009 
  -84554   -90485   -92538   -92188   -90575   -88408   -87790   -87901 
  -86964   -86128   -86243   -86097   -84681   -82159   -80485   -81372 
  -83381   -85428   -87268   -87683   -87481   -87016   -85560   -85293 
  -87045   -88893   -91488   -95234   -96325   -93098   -88933   -85635 
  -81873   -77878   -75870   -75527   -74545   -73468   -72770   -70532 
  -66927   -64400   -64692   -66834   -68854   -70430   -70600   -68959 
  -68142   -69673   -71181   -71058   -72137   -75865   -79242   -80500 
  -80272   -78131   -74424   -72376   -72172   -70722   -68372   -66482 
  -64889   -64455   -67167   -72609   -76098   -75509   -73538   -71913 
  -71284   -72836   -76249   -78494   -78453   -78892   -80427   -80811 
  -79394   -77950   -77376   -76503   -75817   -76241   -77271   -79546 
  -82568   -84396   -85170   -86032   -87578   -89397   -90242   -89028 
  -84910   -78989   -74456   -72840   -72816   -72673   -72225   -71961 
  -71971   -73051   -76432   -81105   -84395   -85932   -86833   -86062 
  -82911   -79334   -77302   -77056   -77392   -77102   -75941   -74857 
  -75809   -79566   -83998   -85795   -84973   -84588   -85220   -85814 
  -85297   -81494   -76067   -73025   -71770   -71099   -70922   -69098 
  -66008   -64683   -64967   -65122   -65157   -65572   -66348   -67964 
  -70425   -71894   -73376   -78543   -85171   -88952   -91254   -93029 
  -92680   -91331   -90350   -88136   -84003   -79809   -75735   -70189 
  -63796   -58761   -56211   -56236   -58212   -59614   -59559   -62017 
  -68112   -74347   -80212   -86736   -92836   -96890   -97416   -93723 
  -87964   -84179   -83049   -82146   -80893   -79110   -75643   -71919 
  -70661   -70758   -69426   -68646   -72555   -80723   -89545   -95916 
  -98817   -99959  -100583   -99715   -95485   -86097   -74146   -66490 
  -65700   -67887   -69557   -72289   -77005   -79212   -77176   -74970 
  -76383   -82156   -89365   -95180   -98752   -99118   -97498   -96155 
  -95399   -94910   -94200   -93808   -94505   -94520   -92337   -88350 
  -82591   -76212   -70864   -65874   -61618   -59713   -59621   -61204 
  -65516   -72154   -79105   -83895   -84561   -80361   -73651   -68373 
  -65529   -64282   -64558   -66464   -68816   -70009   -70513   -70875 
  -69450   -64910   -59310   -56713   -58338   -61813   -64451   -66316 
  -68993   -71986   -74225   -76702   -80929   -85365   -87706   -89590 
  -91829   -92140   -89379   -83929   -77665   -73147   -70866   -69336 
  -68262   -68245   -68318   -68594   -70042   -71582   -72534   -74263 
  -78173   -83525   -88697   -93357   -97644  -100483  -100013   -97503 
  -96017   -95605   -95686   -95808   -95166   -93866   -90518   -85008 
  -79879   -74819   -70328   -70097   -73457   -76586   -78679   -79990 
  -78694   -74093   -68871   -64304   -60737   -60779   -64339   -68661 
  -72620   -75625   -77110   -77577   -78692   -81043   -83268   -85554 
  -89560   -95175  -100465  -103646  -103765   -99706   -92213   -85005 
  -79704   -75227   -72085   -71051   -71663   -74321   -78846   -82701 
  -84215   -83727   -81260   -77396   -73687   -71019   -69719   -68426 
  -65260   -62140   -61619   -62178   -61906   -60993   -59780   -59836 
  -63325   -69267   -75501   -81106   -85041   -87345   -88508   -87960 
  -86336   -84626   -82682   -80802   -79454   -78871   -78946   -79100 
  -79463   -79357   -77256   -73664   -69854   -66748   -65457   -66510 
  -70340   -76547   -83380   -90026   -96076  -100404  -102298  -100612 
  -95207   -88690   -82844   -78340   -76307   -75158   -72428   -70143 
  -70822   -72662   -74065   -75633   -77183   -78524   -80485   -83238 
  -85232   -85325   -84688   -83798   -82112   -80302   -78895   -78667 
  -80595   -84311   -89102   -93598   -96057   -95696   -91597   -83405 
  -73183   -64048   -56948   -51220   -48073   -48822   -52575   -58876 
  -67088   -73828   -76573   -77758   -80630   -84713   -89229   -93564 
  -94790   -91739   -86067   -79226   -73615   -71820   -73799   -77665 
  -81263   -83477   -84680   -84986   -84383   -83479   -82507   -82197 
  -83231   -84836   -85984   -85032   -80946   -75303   -70009   -66155 
  -64029   -62557   -61589   -63269   -68142   -73059   -76341   -79875 
  -84504   -89812   -95045   -96573   -91864   -84446   -78603   -75027 
  -74240   -76465   -78633   -78655   -78710   -80377   -82746   -85510 
  -88508   -89891   -88056   -83308   -76738   -70409   -67027   -67516 
  -70785   -75123   -78823   -81170   -82613   -82602   -80620   -79060 
  -79825   -81522   -81924   -79820   -75976   -71568   -66807   -63175 
  -62370   -63944   -66067   -66903   -66764   -67223   -67836   -67629 
  -67986   -70444   -74313   -79344   -85720   -90934   -92831   -92506 
