Origin Time       2025/01/13 21:19:00
Lat.              31.8
Long.             131.6
Depth. (km)       30
Mag.              6.9
Station Code      MYZH16
Station Lat.      32.5060
Station Long.     131.6958
Station Height(m) -98
Record Time       2025/01/13 21:19:45
Sampling Freq(Hz) 100Hz
Duration Time(s)  165
Dir.              3
Scale Factor      2940(gal)/6170270
Max. Acc. (gal)   7.805
Last Correction   2025/01/13 21:19:30
Memo.             
[...]
  -54957   -54558   -54651   -54894   -54809   -54404   -53695   -52774 
  -52173   -52245   -52643   -52817   -52764   -52708   -52419   -51993 
  -52267   -53271   -53961   -54026   -54009   -53907   -53615   -53807 
  -54741   -55633   -55850   -55468   -54943   -54873   -55548   -56384 
  -56280   -55197   -54512   -54836   -55180   -55000   -54754   -54548 
  -54303   -54444   -55341   -56501   -57006   -56721   -56105   -55528 
  -55455   -55998   -56480   -56478   -56370   -56135   -55397   -54863 
  -55201   -55729   -55992   -56221   -56207   -55700   -55001   -54406 
  -54080   -54136   -54296   -54287   -54129   -53638   -53114   -53489 
  -54498   -54973   -54962   -55186   -55525   -55634   -55643   -55454 
  -54919   -54593   -54732   -54895   -55045   -55253   -55298   -55217 
  -55138   -55099   -55261   -55768   -56375   -56355   -55646   -55248 
  -55220   -54516   -53322   -52911   -53423   -53731   -53577   -53741 
  -54321   -55271   -56685   -57957   -58716   -58910   -58169   -56711 
  -55786   -56307   -57250   -57108   -56239   -55387   -54538   -54272 
  -54841   -55234   -54889   -54192   -53463   -52847   -52828   -53670 
  -54422   -54314   -54086   -54241   -54181   -53546   -52719   -52349 
  -52665   -53127   -52981   -52216   -51947   -52867   -53970   -54342 
  -54579   -55338   -56258   -56724   -56542   -56047   -55845   -56038 
  -56171   -56201   -56547   -56920   -56700   -56378   -56664   -57118 
  -56900   -55967   -55140   -54782   -54218   -53527   -53722   -54560 
  -54887   -54694   -54770   -55275   -55710   -55795   -55854   -56188 
  -56670   -57041   -56927   -56272   -55585   -55071   -54505   -54076 
  -54092   -53959   -53054   -52187   -52160   -52512   -52980   -53912 
  -54983   -55360   -55277   -55579   -56032   -56135   -55813   -54857 
  -53781   -53556   -53819   -53533   -53030   -53502   -55014   -56659 
  -57647   -57521   -56973   -57197   -57663   -57226   -56170   -55245 
  -54791   -54901   -55360   -55712   -55582   -55311   -55463   -55812 
  -55919   -55673   -55094   -54593   -54587   -54704   -54560   -54694 
  -55493   -56021   -55194   -53837   -53520   -53986   -54220   -54155 
  -53911   -53467   -53203   -53565   -54254   -54683   -54858   -54765 
  -54225   -53813   -54033   -54344   -54468   -54852   -55530   -56222 
  -56896   -57358   -57263   -57093   -57444   -57429   -56333   -55091 
  -54316   -53797   -53769   -54069   -53603   -52440   -52116   -53079 
  -54480   -55910   -57124   -57415   -56610   -55653   -55382   -55641 
  -56034   -56275   -55989   -55174   -54276   -53576   -53215   -53369 
  -53760   -54049   -54399   -54677   -54629   -54741   -55359   -56006 
  -56295   -56473   -56619   -56259   -55469   -54940   -54604   -53999 
  -53637   -54061   -54710   -54999   -54717   -53737   -52736   -52638 
  -53223   -53582   -53338   -52839   -52529   -52588   -53191   -54115 
  -54732   -55105   -55390   -55307   -55311   -55724   -55846   -55535 
  -55497   -55876   -56252   -56697   -57111   -56682   -55804   -55800 
  -56439   -56689   -56553   -56590   -56763   -56647   -56462   -56410 
  -55905   -54888   -54198   -54296   -54631   -54275   -53278   -52696 
  -53035   -53678   -54002   -54136   -54246   -54005   -53445   -53175 
  -53342   -53860   -54814   -55541   -55395   -54917   -54781   -55045 
  -55491   -56107   -57152   -58220   -58438   -57879   -57230   -56668 
  -56069   -55617   -55743   -56335   -56514   -55957   -55303   -54945 
  -55123   -56245   -57725   -58215   -57404   -56249   -55614   -55486 
  -55435   -55066   -54200   -53311   -52941   -52807   -52555   -52223 
  -51974   -52251   -53073   -53768   -54041   -54055   -54146   -54578 
  -54900   -54683   -54680   -55868   -57621   -58260   -57552   -56823 
  -56701   -56895   -57140   -56901   -55920   -54973   -54671   -54646 
  -54451   -54474   -55022   -55403   -55263   -55042   -55100   -55806 
  -57029   -57733   -57436   -56958   -57242   -58103   -58185   -56791 
  -55088   -54090   -53424   -52819   -52425   -52084   -51849   -52271 
  -53334   -54059   -54029   -54187   -55184   -56289   -56651   -56190 
  -55196   -54348   -54419   -55113   -55142   -53946   -52698   -52578 
  -53124   -53512   -53728   -54048   -54478   -54880   -55409   -56081 
  -56370   -55848   -54930   -54634   -55166   -55550   -55013   -54180 
  -54438   -55510   -55599   -54770   -54451   -54371   -53951   -54095 
  -55071   -55646   -55308   -55124   -55729   -56352   -56580   -56832 
  -57025   -56677   -55940   -55677   -56153   -56221   -55247   -54388 
  -54484   -54643   -53864   -52981   -53577   -55022   -55577   -55458 
  -55338   -54956   -54935   -55780   -56233   -55684   -55335   -55834 
  -56290   -55905   -55230   -55087   -55098   -54858   -54887   -55035 
  -54712   -54520   -55153   -56094   -56637   -56746   -56385   -55471 
  -54750   -54739   -54828   -54739   -54778   -55037   -55433   -55740 
  -55712   -55520   -55990   -57458   -58664   -58521   -57885   -57802 
  -57668   -56805   -55860   -55224   -54339   -53225   -52812   -53500 
  -54477   -55153   -56121   -57325   -57550   -56768   -56054   -55456 
  -54553   -53829   -53610   -53252   -52782   -53175   -53918   -53640 
  -52830   -52159   -51107   -50326   -50902   -52145   -53171   -53919 
  -54413   -55018   -55518   -54946   -54261   -55324   -57052   -57072 
  -55729   -55227   -56252   -57434   -57782   -57641   -57063   -55612 
  -53772   -52622   -52325   -52400   -52975   -53855   -53729   -52466 
  -51778   -52428   -53454   -53985   -54185   -54586   -55009   -55262 
  -55752   -55821   -54655   -53543   -53873   -55357   -56639   -56220 
  -54539   -53502   -53830   -55013   -56250   -56920   -56689   -55438 
  -54054   -54149   -55786   -57158   -57191   -56602   -56344   -56552 
  -57066   -57538   -57162   -56281   -56052   -55853   -55011   -54776 
  -55809   -56797   -56621   -55937   -55552   -55236   -54998   -55206 
  -55605   -55373   -54158   -52844   -52372   -52616   -53162   -53720 
  -53883   -53443   -52790   -52641   -53269   -54209   -54667   -54642 
  -54820   -55070   -55065   -55403   -56361   -57262   -57980   -58861 
  -59280   -58515   -57187   -56614   -57005   -57007   -55807   -54297 
  -53684   -54291   -55211   -55409   -55191   -54768   -53861   -53499 
  -54301   -55081   -54928   -54289   -54428   -55794   -57307   -57978 
  -57677   -56738   -55546   -54370   -53616   -53509   -53359   -52524 
  -51992   -53009   -54964   -56034   -55455   -54623   -54981   -55761 
  -55645   -55173   -55439   -56072   -56274   -56181   -56373   -57225 
  -58149   -57656   -55622   -53380   -51699   -51007   -51209   -51425 
  -51775   -53060   -54659   -55350   -55579   -56369   -57178   -57101 
  -56336   -55489   -55038   -54877   -54473   -54385   -55281   -55978 
  -55882   -56493   -57922   -58494   -58485   -59371   -60452   -60132 
  -58900   -58018   -57437   -57049   -56501   -54910   -53546   -53963 
  -54889   -55741   -57215   -57643   -56129   -55164   -55194   -53916 
  -52083   -52596   -55184   -57252   -57746   -57509   -58044   -60026 
  -62044   -62572   -62171   -61596   -60268   -58717   -58746   -59441 
  -58533   -57117   -57040   -57400   -56963   -56042   -55354   -54253 
  -52159   -51333   -52832   -53633   -52648   -52099   -52668   -53447 
  -53808   -53847   -54466   -55719   -56354   -56167   -56788   -58707 
  -60225   -60921   -61734   -61695   -59554   -56842   -55613   -55063 
  -53388   -51533   -51580   -53129   -54299   -54350   -54160   -54500 
  -54892   -55146   -55226   -55022   -55781   -56907   -55583   -52884 
  -52014   -52599   -53006   -53076   -52820   -52280   -51706   -51085 
  -50507   -50165   -49949   -49855   -50579   -52487   -54137   -54251 
  -54123   -55112   -56608   -58257   -60065   -60906   -59903   -57634 
  -55760   -55014   -54191   -52978   -52513   -52915   -53464   -53906 
  -54117   -54222   -55108   -57132   -59369   -60471   -59777   -58443 
  -58330   -59152   -59144   -58387   -57928   -56984   -54839   -52650 
  -50819   -48733   -47566   -48687   -50581   -51008   -50408   -50747 
  -52628   -55223   -57151   -57192   -55928   -55073   -54836   -54368 
  -53932   -54212   -54673   -54849   -55085   -54846   -53460   -51788 
  -50694   -50419   -51442   -53210   -54215   -54064   -53740   -54057 
  -54302   -53683   -52763   -52270   -52219   -51893   -50911   -49701 
  -48233   -46771   -46234   -46054   -45357   -45375   -46834   -47867 
  -47353   -47090   -49055   -52819   -56328   -58198   -58679   -58990 
  -60396   -62664   -63767   -62720   -60812   -59271   -57816   -56126 
  -55130   -55235   -55501   -56351   -59342   -63374   -66333   -68670 
  -70469   -70734   -70617   -70850   -69582   -66286   -63039   -61385 
  -60999   -60741   -59799   -58593   -58032   -57465   -55735   -53475 
  -51523   -49805   -49038   -49838   -50824   -50217   -48322   -47224 
  -48029   -49854   -52284   -55593   -58978   -61777   -64191   -66120 
  -66817   -65775   -63839   -61763   -59189   -56169   -52996   -49905 
  -47896   -47522   -47465   -46080   -44206   -44379   -47036   -50346 
  -52711   -53613   -54037   -55328   -57115   -58243   -57900   -55887 
  -53669   -52552   -51732   -50473   -49380   -49662   -51781   -53850 
  -53849   -52585   -52726   -55625   -59332   -61860   -63506   -63358 
  -60297   -56850   -55457   -54827   -53553   -52424   -51652   -50079 
  -48263   -48341   -50276   -52196   -53938   -56456   -58412   -57695 
  -55495   -54159   -53682   -53477   -53670   -54175   -54535   -54067 
  -52696   -51674   -52051   -53184   -53926   -53908   -53353   -52573 
  -51805   -51507   -51649   -51667   -51961   -52901   -53922   -54658 
  -54365   -52373   -49799   -48235   -47767   -47521   -47372   -47729 
  -48398   -49326   -50533   -51028   -50558   -50584   -51405   -51852 
  -52034   -52330   -51933   -51457   -52761   -55356   -57395   -58702 
  -59572   -59282   -58180   -57775   -57855   -57739   -58434   -60253 
  -61636   -61483   -60818   -61158   -61968   -61914   -61075   -60079 
  -59190   -58561   -57978   -56914   -55126   -52733   -50364   -49023 
  -48495   -47302   -45355   -44268   -44687   -46165   -48488   -50726 
  -52141   -53946   -56291   -57229   -56785   -56615   -56571   -55594 
  -53809   -52600   -52871   -53893   -54665   -54494   -53282   -51823 
  -50677   -50345   -50875   -50900   -50118   -50185   -51588   -53032 
  -54074   -55939   -59324   -62913   -65338   -66754   -67784   -69014 
  -70443   -70635   -68538   -65470   -63458   -62530   -61357   -59345 
  -56978   -55278   -54369   -53292   -52357   -52766   -53839   -53883 
  -53253   -53327   -53710   -53476   -52820   -52049   -51346   -51484 
  -52710   -53607   -53439   -53716   -54674   -54277   -52596   -51818 
  -52010   -51298   -49141   -46790   -45340   -44951   -45330   -46301 
  -47912   -49648   -50691   -50753   -50466   -51266   -53077   -54111 
  -54162   -54413   -55010   -55361   -55891   -58176   -61914   -64083 
  -63753   -62946   -62027   -60345   -59229   -59694   -60391   -60113 
  -59703   -60107   -61018   -62037   -62824   -63229   -63882   -65019 
  -66053   -66360   -65607   -64301   -63489   -63480   -63327   -61844 
  -59189   -56644   -55068   -54055   -52800   -51908   -52832   -54869 
  -55474   -54482   -53972   -53935   -52808   -50434   -47475   -44781 
  -43417   -43104   -42283   -40680   -39690   -40091   -41382   -42985 
  -44414   -45534   -47195   -49863   -52670   -54744   -56000   -56954 
  -58267   -59947   -60878   -59980   -58068   -56852   -56585   -56208 
  -54873   -52927   -51594   -51540   -51757   -50766   -49062   -48600 
  -49766   -50843   -50880   -50676   -50604   -50374   -50208   -50337 
  -50908   -52293   -54275   -56235   -58178   -60040   -61495   -63012 
  -64519   -65026   -64648   -63441   -60732   -57359   -54620   -52621 
  -51196   -50140   -49481   -49506   -49925   -50655   -52170   -54234 
  -55835   -56396   -56385   -56409   -56469   -56262   -55533   -54620 
  -53821   -52559   -50944   -50046   -50219   -51134   -52329   -53557 
  -55110   -56857   -57834   -57703   -57457   -57557   -57377   -57356 
  -58297   -59327   -59412   -58842   -58149   -57243   -56074   -55247 
  -55229   -55618   -56003   -56567   -57613   -59430   -61597   -62852 
  -63197   -63775   -64560   -65067   -65505   -65678   -64765   -62878 
  -61426   -60836   -59904   -58333   -57297   -57270   -57290   -56819 
  -56753   -57736   -59144   -59996   -59925   -59522   -59055   -57790 
  -55931   -54781   -54602   -54720   -55127   -56106   -56977   -57015 
  -57066   -58237   -60056   -61794   -63522   -64931   -65513   -65465 
  -64887   -63456   -61548   -60162   -59177   -57579   -55489   -53909 
  -53194   -52956   -52556   -51625   -50465   -49543   -48874   -48235 
  -47491   -46639   -45891   -45796   -46800   -48580   -50377   -51474 
  -51550   -51092   -50653   -50426   -50498   -50618   -50811   -51292 
  -51736   -52084   -52502   -52786   -53035   -53491   -53792   -53533 
  -53069   -52960   -53204   -53911   -55349   -56787   -56963   -55926 
  -55408   -56289   -57310   -57744   -57961   -57495   -56197   -55583 
  -56483   -57881   -58992   -59712   -59829   -59588   -59916   -61233 
  -62623   -63337   -63584   -63187   -62304   -61895   -62025   -62467 
  -63317   -63743   -63014   -61750   -60742   -60317   -60342   -60092 
  -58952   -56995   -54719   -52608   -50918   -49390   -47351   -44922 
  -43156   -42233   -41064   -39375   -38703   -39854   -41183   -41391 
  -41095   -40794   -40628   -41279   -42780   -44204   -45393   -46932 
  -48746   -50266   -51281   -51970   -52443   -52726   -52785   -52430 
  -51819   -51238   -50669   -50404   -50543   -50660   -50995   -52015 
  -53457   -55140   -57028   -58306   -58210   -57300   -56605   -56403 
  -56298   -55896   -55323   -54763   -54210   -54082   -54708   -55979 
  -58155   -61302   -64334   -66064   -66511   -66297   -65647   -64706 
  -63593   -61917   -59304   -56242   -53915   -52790   -52170   -51871 
  -52340   -53157   -53575   -53812   -54164   -54101   -53916   -54623 
  -55660   -56141   -56487   -56976   -57580   -58484   -59211   -59238 
  -58881   -58239   -57084   -55941   -55400   -55218   -55157   -55212 
  -55116   -54553   -53254   -51357   -49542   -48300   -47874   -48510 
  -49934   -51305   -52237   -53044   -53953   -55095   -56645   -58305 
  -59171   -58682   -57393   -56165   -55433   -55023   -54303   -53439 
  -53271   -53749   -53736   -52551   -51073   -50138   -49573   -49265 
  -48927   -48215   -47508   -47142   -47243   -48192   -49885   -51331 
  -51762   -51393   -50643   -49908   -49828   -50368   -50912   -51638 
  -52979   -54324   -55087   -56009   -57663   -59155   -59605   -59468 
  -59491   -59284   -58288   -57162   -56578   -56111   -55399   -54958 
  -55039   -54881   -54387   -54790   -56070   -56686   -56601   -57111 
  -58330   -59606   -60922   -62378   -63854   -65072   -65450   -65195 
  -64935   -64110   -62302   -60276   -58493   -56785   -55154   -53336 
  -50922   -48912   -48523   -48937   -49301   -50086   -51009   -51403 
  -51794   -52550   -53261   -54051   -55076   -55966   -56973   -58317 
  -59083   -58853   -58445   -58280   -58015   -57290   -55932   -54223 
  -52648   -51127   -49465   -48195   -47846   -48137   -48558   -49106 
  -50088   -51186   -51445   -50810   -50466   -51065   -52039   -52981 
  -53987   -54943   -55899   -57307   -59408   -61548   -62482   -62060 
  -61683   -62518   -64266   -65857   -66788   -67264   -67510   -67371 
  -66108   -63449   -60566   -58326   -56359   -54584   -52963   -50869 
  -48497   -46999   -46813   -46994   -46545   -45699   -45353   -46023 
  -47452   -49063   -50947   -53542   -56556   -59101   -60828   -62224 
  -63321   -63579   -63132   -62554   -62095   -61555   -60514   -59019 
  -57655   -56925   -57033   -58075   -59823   -61432   -62130   -61926 
  -60848   -58692   -56234   -54456   -52931   -51223   -49921   -49560 
  -50239   -51484   -52555   -53202   -53301   -52953   -53028   -53914 
  -54710   -54689   -54225   -54039   -54115   -53763   -53048   -52548 
  -51833   -50457   -49087   -48300   -47869   -47407   -47142   -47668 
  -48661   -49572   -50685   -51814   -52453   -53183   -54657   -56140 
  -56489   -55834   -55109   -54668   -54067   -52905   -51582   -50625 
  -49950   -49320   -49060   -50040   -52074   -53648   -54348   -54969 
  -55590   -56005   -56523   -57248   -58083   -59172   -60284   -60770 
  -60665   -60674   -60847   -60458   -59349   -58154   -57181   -56262 
  -55456   -54983   -54776   -54714   -55051   -55855   -56706   -57183 
  -56741   -55196   -53618   -53201   -53945   -55181   -56264   -56761 
  -56707   -56372   -55959   -55640   -55251   -54459   -53442   -52706 
  -52723   -53678   -54933   -55712   -56144   -56605   -56856   -56445 
  -55468   -54367   -53093   -51512   -50111   -49353   -49569   -51061 
  -53348   -55560   -57070   -57438   -56774   -55583   -54269   -52898 
  -51075   -48869   -47354   -47286   -48211   -49238   -49996   -50711 
  -51524   -52375   -53274   -54000   -54383   -54665   -55071   -55548 
  -56045   -56892   -58288   -59479   -59653   -59180   -58693   -58179 
  -57668   -57352   -56936   -55884   -54266   -52754   -51898   -51580 
  -51351   -51662   -53182   -55122   -56519   -57646   -58872   -59979 
  -60838   -61575   -61999   -61851   -61492   -61163   -60564   -59806 
  -59192   -58555   -57646   -56164   -54034   -52036   -51143   -51377 
  -51848   -51911   -51831   -52133   -52829   -53417   -53649   -53937 
  -54419   -54599   -54624   -55518   -57300   -58910   -60503   -62806 
  -64847   -65480   -65318   -65322   -65561   -65667   -65283   -64311 
  -62864   -61082   -59209   -57536   -56113   -54830   -53756   -52793 
  -51707   -50888   -50608   -50321   -49808   -49503   -49737   -50445 
  -51283   -52081   -52975   -53980   -54958   -55818   -56397   -56417 
  -55813   -54833   -53780   -53013   -52808   -52783   -52501   -52313 
  -52463   -52723   -53184   -53954   -54546   -54473   -53867   -53060 
  -52588   -53040   -53904   -54323   -54476   -54667   -54719   -54556 
  -54253   -53848   -53637   -54201   -55494   -56795   -57953   -59344 
  -60746   -61503   -61506   -61208   -60664   -59303   -57052   -54764 
  -52979   -51315   -49448   -47836   -47085   -47169   -47629   -48138 
  -48849   -49771   -50226   -50045   -49841   -49778   -49806   -50078 
  -50493   -51183   -52702   -54783   -56468   -57596   -58471   -59014 
  -59261   -59407   -59549   -59632   -59404   -58911   -58372   -57961 
  -58146   -58861   -59269   -59105   -58767   -58367   -57873   -57415 
  -57021   -56733   -56812   -57483   -58580   -59712   -60725   -61323 
  -60922   -59490   -57267   -54356   -51320   -48838   -47143   -46580 
  -47324   -48378   -48913   -49532   -50615   -51913   -53331   -54386 
  -54554   -54073   -53698   -53834   -54060   -54204   -54665   -55241 
  -55456   -55337   -54962   -54436   -54127   -54327   -55104   -56301 
  -57427   -58018   -58294   -58805   -59533   -60068   -60333   -60556 
  -60605   -59895   -58368   -56923   -56243   -56221   -56824   -57978 
  -58937   -59178   -59052   -58751   -57920   -56659   -55482   -54411 
  -53186   -51767   -50349   -49190   -48584   -48658   -49027   -49448 
