Origin Time       2025/01/13 21:19:00
Lat.              31.8
Long.             131.6
Depth. (km)       30
Mag.              6.9
Station Code      MYZH11
Station Lat.      32.0208
Station Long.     131.4700
Station Height(m) 12
Record Time       2025/01/13 21:19:38
Sampling Freq(Hz) 100Hz
Duration Time(s)  300
Dir.              4
Scale Factor      7845(gal)/8223790
Max. Acc. (gal)   110.867
Last Correction   2025/01/13 21:19:38
Memo.             
[...]
   11620    11847     8078     1057    -6289   -11477   -11693    -6050 
     488     3015     3123     4170     6289     7709     7049     3758 
   -2250    -8613   -10632    -7225    -2443      -41     -336     -662 
    1753     5873     8334     8122     6682     5803     6548     7816 
    6570     1795    -3412    -5902    -5607    -3442      -64     3264 
    5254     6112     7291     8959     9248     6984     3456      572 
   -1134    -1875    -1996    -2488    -3684    -3797    -1360     2092 
    3639     1937    -1294    -2496     -955      216     -527    -1494 
    -657     2774     6898     8455     7430     5941     4900     5375 
    6691     4882     -122    -2617      580     6326     9115     7218 
    4461     4606     7344    10104    10490     8421     4984       14 
   -5661   -10073   -12661   -13270   -11387    -6844    -1363     1140 
    -329    -2632    -3909    -3927    -2155      534     2415     3129 
    3256     3537     4807     7163     9795    12572    15518    16322 
   12958     7758     3809     1848     3500     8972    13059    11713 
    6743     1663     -581     1240     5560     9601     9810     4274 
   -4082   -10787   -13764   -13136   -10160    -6529    -3399      -97 
    4297     8178     9468     8934     8457     8291     7726     5597 
     938    -4129    -5539    -2188     3626     8541    10061     9184 
    8318     6932     4534     2650      534    -3511    -8233   -11192 
  -11153    -8247    -2808     3559     6266     3707      730      926 
    3260     6413    10714    16617    21945    22941    18906    13130 
   10120    11970    16833    21161    21375    15485     5922    -2124 
   -5471    -5655    -7329   -11402   -13263   -10137    -3828     2601 
    6588     7859     7858     5849      454    -6839   -13633   -17324 
  -15256    -9078    -4446    -5232   -10554   -15303   -14697    -9153 
   -1609     6481    13717    17930    17424    12128     5097      340 
    -540     2431     8017    13535    16546    16177    13718    10976 
    7793     3161    -2978    -9250   -13081   -12811    -8949    -4106 
   -2085    -3601    -5181    -4407    -1595     2350     6019     8437 
   10646    13473    14971    13644    11919    12692    15618    18126 
   17861    14759    10293     4793    -1941    -8392   -12249   -13198 
  -13761   -16923   -23279   -30869   -36113   -34986   -26905   -16428 
   -7647     -760     5003    10822    18137    26223    32985    35965 
   32489    22237     8816    -1425    -2874     6172    22639    37615 
   41076    32125    18210     6342     1259     5367    15846    26223 
   31162    28437    18640     4838    -7909   -14736   -15142   -14708 
  -19984   -32094   -46728   -57457   -58338   -47375   -29546   -14211 
   -7063    -7118   -11400   -15984   -14810    -3936    14817    34624 
   46325    43255    25918     2995   -13959   -19186   -15207    -9050 
   -7615   -12793   -20393   -24746   -23823   -20163   -18038   -20977 
  -30666   -45650   -60061   -65453   -55881   -32355    -3937    19030 
   32811    38481    39167    39475    41629    43893    42745    37042 
   31446    31791    38276    46916    53711    55080    48436    35171 
   20841    10341     5539     6733    12321    19546    26368    30393 
   29502    23287    12159    -1471   -12928   -18586   -18369   -15874 
  -14766   -15561   -18449   -25056   -34446   -42722   -48105   -51360 
  -53361   -55769   -59105   -59618   -52338   -36170   -14870     5379 
   18489    20699    12892     -294   -13598   -23090   -26703   -23475 
  -13834      191    15776    28883    36682    39348    36432    28123 
   18794    12397    11398    20283    38678    57989    70846    73183 
   62387    41554    17698    -2758   -13651   -11875     -828    12505 
   21273    20981    12933     3460    -2983    -6176    -6547    -4943 
   -3515    -3046    -1449     3280     9856    14557    13662     5598 
   -7730   -22411   -34746   -42788   -46896   -48563   -49648   -51486 
  -53450   -53941   -51970   -47433   -42067   -39070   -38832   -37330 
  -30327   -15241     8249    35473    60168    79733    93630   101933 
  105409   104082    98517    90845    82150    72713    63379    53107 
   41949    34898    32718    29916    24846    16941     4861    -7668 
  -16920   -21170   -19408   -15353   -13096   -14335   -19776   -26617 
  -33107   -41254   -52327   -65732   -77620   -82935   -80720   -72133 
  -59212   -47055   -39951   -38133   -40359   -44132   -44976   -39348 
  -25363    -2146    27499    56610    78135    88335    86362    73734 
   56903    44748    40903    43069    47353    49462    46531    41665 
   39684    39918    41463    41112    27292    -3677   -40136   -68921 
  -82185   -81364   -74850   -67352   -61128   -59167   -62572   -70218 
  -76924   -76446   -66016   -46450   -27209   -21339   -28956   -38583 
  -40270   -29555    -7912    15921    30909    31309    19336     5987 
    5744    23284    50749    76350    89787    87581    75077    61516 
   53242    49536    51424    62128    73684    75891    65299    38843 
    2110   -31180   -53325   -60561   -53048   -37343   -19210    -6814 
   -9516   -24468   -41133   -49981   -43497   -22181     5358    24752 
   24754    12156      780    -5977    -9343    -7155      190     8432 
   18046    27410    30300    26293    15546     2307    -1557     3716 
    8237     9212     7083     6079    13146    22644    23113    13216 
   -3538   -19175   -21261   -10274      876     5618     3338    -3940 
   -8299    -7925    -7500    -3881     7335    23596    41112    58037 
   72053    78597    77942    78106    81527    81183    72392    54837 
   28023    -3909   -29999   -42483   -42273   -34503   -26192   -23444 
  -25151   -23406   -14003    -2826     4776    11539    19014    24571 
   25813    20418     8113    -7798   -22423   -33234   -41700   -48061 
  -52519   -60318   -73445   -86101   -95454  -102224  -104139   -99879 
  -88792   -70312   -49372   -30929   -15973    -5142     3339    11361 
   18723    28236    41697    55323    66175    74032    77801    77367 
   75594    75438    76369    73792    65728    56367    47610    40859 
   41312    47116    52184    53257    45620    29671    10818    -8877 
  -27099   -40647   -46951   -43132   -29313   -10503     4733    10103 
    6112    -3397   -13304   -18033   -15643    -9509    -5240    -6385 
  -13845   -26211   -40367   -55520   -71443   -84555   -91859   -92830 
  -88723   -82821   -76210   -65578   -47013   -20942     6130    27360 
   41314    50058    56758    64894    74976    84191    90201    91814 
   87555    76397    59807    41933    27338    20274    22694    30958 
   38202    38223    28530    11951    -6878   -24622   -40833   -57609 
  -74050   -84974   -86293   -77359   -61458   -45385   -34155   -27328 
  -21325   -13379    -4174     2205     1441    -6783   -18604   -29656 
  -36325   -36963   -33860   -30005   -25641   -19349   -11002    -4043 
   -1111      918     6062    13614    20483    26613    34379    43448 
   52934    63940    73858    77656    76659    75752    74866    70598 
   60559    45385    29941    17764     7838     -837    -9252   -18709 
  -28722   -38784   -47046   -51401   -53496   -53450   -50206   -47380 
  -47922   -50754   -52540   -48249   -35754   -17644     2047    19718 
   35684    53342    69749    77701    76056    66047    48917    30701 
   16534     6440     -980    -7985   -15923   -23063   -26312   -23479 
  -15951    -7897    -1370     3547     4506     -110    -6123    -9248 
  -10289    -9930    -6254     1243     9825    15147    13984     5152 
   -8537   -18297   -18837   -14156    -7133     1618     8179    10748 
    9586     2851    -7882   -17591   -24032   -27016   -26742   -24290 
  -23338   -27471   -32044   -31595   -29843   -30064   -31788   -36086 
  -41503   -43141   -36622   -19957     2525    21482    31534    32815 
   27245    19125    12560     9101     9375    10457     8753     5968 
    4522     5798    11419    19619    27751    34588    37596    36884 
   35981    35950    36346    37015    37027    35521    30699    20407 
    5163   -11242   -21816   -21536   -13371    -2841     6802    11615 
   10072     6768     7101    14200    28614    45103    56543    61558 
   61543    56475    48578    40972    33894    27800    23006    19040 
   17371    15130     7042    -2421    -9215   -16441   -20914   -19947 
  -19479   -22005   -27261   -36425   -46579   -53742   -55379   -50070 
  -40645   -29743   -19043   -13455   -14789   -19080   -23463   -26368 
  -23001   -10137     6049    16177    19260    18434    13964     9975 
   12931    21605    30773    36941    36348    27499    15319     5525 
     -99    -2120    -5385   -15165   -30292   -45922   -56149   -57925 
  -54440   -49323   -45652   -46075   -47113   -44614   -39781   -34114 
  -29307   -25959   -19531    -7852     4490    13252    17005    15727 
   13169    14049    17312    20632    25375    30736    34291    35378 
   31303    20075     5081    -7434   -11664    -6678     1533     4860 
      40    -6754    -6988      598    14428    31820    47418    60350 
   72443    82615    90454    95223    94240    89621    85846    78794 
   61843    37012    11406    -7534   -16752   -20714   -25330   -33723 
  -45558   -57273   -64882   -66190   -62810   -58337   -54495   -52425 
  -53072   -55888   -60569   -65885   -67327   -61375   -49405   -35001 
  -21660   -11340    -1777    10156    23994    38460    51991    60647 
   60952    51965    36668    24005    23028    34654    52359    67355 
   72493    65319    49119    31260    19425    16606    19120    20848 
   19305    16734    15817    16193    15350    11620     5829     -476 
   -7587   -16221   -25558   -34400   -40729   -41230   -35187   -26472 
  -20938   -23788   -35966   -50584   -57854   -54311   -42793   -26919 
   -9413     6307    17011    22859    24516    21807    17613    14125 
   10470     5031    -3684   -13675   -22723   -29910   -31249   -25853 
  -17099    -6072     6802    19508    29689    37042    42514    45987 
   48031    48720    46530    40983    31745    18516     4041    -7757 
  -15822   -20711   -22428   -22613   -25444   -33037   -43710   -54797 
  -62259   -62293   -55802   -46877   -39168   -32938   -24498   -11564 
    3693    16787    24025    24941    22442    21801    27529    39193 
   51769    60565    64166    63005    57612    47989    35317    23593 
   16767    15626    17219    16235     8571    -5668   -22235   -34722 
  -37963   -32290   -23305   -15847   -11249   -10362   -12185   -11912 
   -7225     -232     8085    18257    28906    36471    38558    35996 
   30744    24842    21004    20938    23784    28274    34095    39463 
   42159    41143    34230    21027     5131    -9644   -19723   -24082 
  -25577   -26288   -27311   -29046   -30726   -32964   -36817   -42300 
  -48455   -52628   -52184   -47023   -39491   -32672   -29243   -31044 
  -37335   -44351   -48925   -49179   -42161   -27719   -11755     -156 
    6073     8648    11086    18095    30387    43776    54342    60376 
   62035    61275    60966    61838    61846    62415    64407    62370 
   54602    42342    24993     7584    -3959    -9414   -10368   -10424 
  -12681   -16081   -18546   -17548   -12144    -5748    -1243      649 
    -774    -4978   -10368   -14698   -15774   -15057   -17099   -24119 
  -34203   -43386   -47803   -46375   -42005   -39010   -39479   -41958 
  -43110   -39933   -32494   -24683   -18974   -13910    -7878     -571 
    7916    17482    28028    39178    51128    63747    74540    81465 
   85229    86335    85059    83511    82702    80346    74054    64022 
   52330    41210    32003    24408    15781     3036   -14046   -32499 
  -48594   -60257   -67324   -70399   -71296   -72420   -73851   -74182 
  -73175   -69996   -61542   -46095   -27352   -11861    -3177    -1282 
   -5090   -11350   -15516   -16225   -12687    -1652    16958    37984 
   54869    61986    58415    49605    41733    37211    35367    34285 
   32598    30447    28367    24575    16946     7897     1694       17 
     986     -780    -7886   -17177   -25569   -30032   -27672   -22214 
  -21189   -27553   -39687   -53671   -63674   -65985   -61790   -53038 
  -41008   -29812   -24885   -27465   -32206   -31260   -20309       58 
   24642    46098    60076    66706    70615    77471    87832    98138 
  103420   100472    90682    77031    64188    56408    52957    52674 
   54045    52888    47791    39545    28564    16868     6336    -2484 
  -10521   -20825   -34762   -50855   -68057   -84732   -97109  -101952 
  -97922   -86130   -72374   -64674   -66384   -74159   -81823   -83844 
  -75583   -57030   -38688   -30117   -27569   -27743   -31700   -33022 
  -26665   -14872      738    16077    24201    24702    25042    33570 
   53087    78813   100809   109459   102093    86432    76512    79633 
   90165   101544   107848   100199    82547    66680    52652    37959 
   26249    19566    14215     7500     1236    -9076   -27907   -47931 
  -63495   -72056   -69502   -61057   -56814   -61022   -72673   -87488 
 -101387  -110728  -112681  -107948   -96469   -77198   -52303   -23728 
    5298    26593    34265    29411    18509    10575    10393    17431 
   31052    48929    65538    77107    82644    83178    81174    76053 
   67655    61384    58665    54985    49912    43829    34273    21802 
   10141     1968    -3728    -9481   -16870   -27672   -40246   -49901 
  -55020   -56342   -57370   -64485   -79643   -97735  -110979  -114569 
 -109533  -100025   -90036   -81761   -73566   -60417   -39862   -14651 
   11414    35140    55945    73647    82973    82462    77407    69221 
   59298    52439    49850    49882    50155    48627    45085    40251 
   36983    37763    40914    43528    43864    41499    37887    34717 
   32255    29824    25643    17370     5057    -8143   -19109   -26670 
  -31198   -34809   -40144   -48084   -58041   -68497   -77561   -84773 
  -90518   -94127   -95127   -93779   -88275   -76721   -60782   -42719 
  -23677    -4334    15240    33777    49310    60331    65597    66314 
   65226    63821    63246    63327    61118    54008    42067    27253 
   12945     3302      708     4467    12476    21965    28682    29023 
   23058    12947     1144    -8614   -12924   -10976    -3349     8441 
   20977    31253    39641    46890    51574    53269    51345    43290 
   29678    14112     -135   -10161   -15442   -19171   -25105   -34555 
  -47078   -60583   -71132   -76214   -75174   -67603   -54974   -41031 
  -30123   -25321   -26642   -31413   -35756   -36904   -34844   -29377 
  -19101    -5555     7203    16829    23554    29384    36814    47133 
   59377    70653    77467    77174    70025    58762    46415    35511 
   26499    18064     9373      423    -6378    -6882     -799     8500 
   18616    27368    33007    36904    40639    43428    45578    48994 
   53374    56180    54703    46996    32914    14272    -5024   -20521 
  -31274   -39517   -46772   -52848   -57130   -59670   -61110   -62592 
  -65839   -70684   -74124   -74181   -71454   -67948   -66249   -66812 
  -67070   -63157   -52045   -35392   -18727    -5610     4495    14933 
   28707    45350    62748    78807    90639    97486   101605   104230 
  105148   104155   100527    93567    83299    69830    53781    36979 
   21145     7958     -449    -4619    -8102   -14219   -25257   -40346 
  -54708   -64161   -67108   -64665   -61187   -60440   -62849   -67051 
  -69650   -66772   -57593   -43340   -26153    -8865     7377    22631 
   35993    47135    56802    64208    67668    67022    63157    56673 
   48286    39793    32323    25120    17817    11059     5259      778 
   -1493    -1032     1093     3870     7657    12054    15654    17663 
   17084    12498     3703    -8247   -21544   -33053   -39625   -40270 
  -35621   -26991   -16573    -6814       45     1605    -3357   -12569 
  -21485   -26936   -28575   -27371   -24262   -21123   -19326   -17103 
  -12880    -6488     2546    11994    18873    23197    25249    24410 
   20868    16220    11646     7277     3897     2041     2023     4735 
    9975    16156    21172    24112    25207    22963    16818     8618 
   -1363   -11437   -17535   -19109   -18002   -15294   -11385    -5595 
    2890    13576    24136    32279    37530    40000    40446    39825 
   38627    37003    32614    23305    10889    -2407   -15510   -26013 
  -32377   -36736   -40444   -42700   -44717   -46661   -46456   -44401 
  -41581   -38745   -37216   -36713   -36475   -36340   -35359   -32949 
  -28927   -23009   -16108    -9477    -3461     2569    10060    19739 
   31222    43245    53045    57923    57269    52641    46707    41860 
   39360    38537    37111    32832    24197    11699     -789    -8675 
  -10355    -7388    -3562    -2258    -3480    -6536   -10292   -11245 
   -8912    -5671    -2336     -758    -2398    -6255   -11948   -18561 
  -23120   -24028   -23083   -22621   -23085   -25089   -29535   -33960 
  -34819   -31897   -26245   -19197   -13563   -10146    -6318     -186 
    8668    20061    31093    38068    39762    36562    30796    26838 
   28402    36151    46642    55922    62965    67007    67556    65800 
   61847    55749    48635    39772    28919    17821     6721    -4322 
  -14943   -26659   -40701   -56816   -73676   -88311   -98145  -102045 
  -99581   -92290   -82269   -70112   -57437   -46411   -36967   -28614 
  -21853   -17286   -14570   -11948    -8685    -5088      554     8926 
   17598    25972    34254    40875    45693    48489    47650    42832 
   35051    26929    20883    17292    16341    17275    18432    19099 
   18462    15889    11572     5921      507    -2959    -4094    -2952 
      95     4245     8316    10889    11094     8714     4706      627 
   -3366    -7526   -11017   -12789   -11965    -7912    -1455     4403 
    7017     6782     5826     6359     9535    13984    17454    19091 
   19267    18756    18045    17007    14851    10702     4860    -1306 
   -6497    -9879   -10735    -8775    -4914     -722     1811      797 
   -3327    -8289   -12449   -14837   -14701   -12573   -10392    -9424 
   -9389    -9575    -8773    -5671     -577     4895     9300    12154 
   13898    14963    15225    14042    10760     6075     2286     1501 
    4089     8698    12960    15130    15407    14712    13429    11693 
    9235     5979     2986      873    -1102    -4023    -8873   -15859 
  -22962   -26541   -25205   -21254   -17096   -13585   -11072    -8955 
   -5584      -83     6663    13190    18574    22412    24760    25732 
   25023    22102    16692     9620     2774    -2485    -6011    -8365 
  -10497   -12904   -14945   -15514   -13856   -10192    -6123    -3198 
   -1648    -1424    -2434    -3883    -4738    -4237    -2412      -94 
    2234     5042     9142    14750    21389    27974    33033    36126 
   38052    39610    41211    42458    42277    39982    35530    29519 
   23051    17270    12965     9960     7281     4062     -615    -7713 
  -16699   -25401   -32039   -36040   -37540   -37154   -35549   -32949 
  -28902   -22567   -14403    -6212     1310     7835    12730    16745 
   19610    20028    18805    16773    13541     9109     4240      -64 
   -2899    -2731     1264     7562    14358    20271    23897    25520 
