Origin Time       2025/01/13 21:19:00
Lat.              31.8
Long.             131.6
Depth. (km)       30
Mag.              6.9
Station Code      NARH03
Station Lat.      34.2925
Station Long.     136.0022
Station Height(m) 358
Record Time       2025/01/13 21:22:19
Sampling Freq(Hz) 100Hz
Duration Time(s)  120
Dir.              6
Scale Factor      7845(gal)/8223790
Max. Acc. (gal)   0.126
Last Correction   2025/01/13 21:22:21
Memo.             
[...]
    6569     6565     6567     6567     6569     6571     6575     6579 
    6582     6582     6583     6583     6579     6575     6573     6570 
    6570     6571     6567     6562     6562     6562     6559     6556 
    6556     6559     6558     6554     6550     6547     6542     6536 
    6534     6534     6531     6532     6532     6531     6531     6529 
    6527     6524     6523     6525     6527     6523     6524     6525 
    6523     6523     6523     6521     6521     6521     6519     6516 
    6517     6521     6523     6521     6524     6524     6525     6528 
    6527     6527     6531     6534     6536     6539     6540     6540 
    6542     6543     6547     6550     6554     6558     6559     6562 
    6566     6569     6571     6573     6573     6573     6575     6575 
    6577     6578     6581     6585     6589     6594     6597     6593 
    6588     6581     6574     6570     6571     6573     6571     6573 
    6575     6573     6570     6570     6565     6558     6556     6554 
    6554     6555     6555     6555     6555     6552     6550     6548 
    6546     6544     6544     6544     6544     6544     6544     6542 
    6540     6538     6532     6532     6536     6540     6547     6550 
    6547     6551     6556     6559     6561     6563     6562     6556 
    6556     6559     6558     6552     6548     6548     6550     6550 
    6550     6554     6556     6558     6558     6559     6563     6567 
    6571     6577     6579     6578     6575     6574     6574     6571 
    6570     6567     6562     6556     6552     6547     6548     6551 
    6548     6546     6548     6546     6544     6543     6538     6535 
    6538     6536     6532     6529     6531     6534     6536     6539 
    6540     6542     6543     6546     6547     6544     6543     6543 
    6540     6540     6542     6542     6547     6555     6558     6556 
    6563     6570     6570     6573     6574     6571     6571     6573 
    6573     6574     6573     6571     6574     6577     6578     6578 
    6577     6579     6582     6583     6590     6592     6586     6585 
    6583     6579     6579     6583     6581     6574     6573     6574 
    6574     6574     6574     6574     6573     6571     6571     6573 
    6573     6574     6573     6569     6565     6562     6558     6552 
    6548     6547     6543     6544     6550     6554     6556     6554 
    6550     6551     6552     6550     6551     6551     6542     6532 
    6531     6529     6531     6535     6535     6535     6538     6538 
    6534     6535     6536     6535     6535     6534     6531     6532 
    6531     6524     6520     6520     6519     6519     6517     6511 
    6507     6505     6504     6504     6505     6504     6502     6505 
    6509     6512     6515     6517     6517     6519     6523     6527 
    6529     6532     6535     6542     6546     6548     6554     6559 
    6563     6567     6569     6570     6575     6579     6582     6589 
    6596     6604     6615     6621     6625     6628     6631     6637 
    6642     6639     6642     6650     6656     6660     6669     6675 
    6677     6677     6678     6677     6674     6671     6670     6666 
    6664     6666     6664     6660     6656     6655     6648     6640 
    6637     6631     6623     6617     6617     6616     6612     6605 
    6601     6598     6596     6593     6589     6585     6583     6583 
    6581     6578     6581     6578     6574     6573     6569     6562 
    6559     6558     6552     6551     6550     6546     6540     6539 
    6536     6535     6536     6534     6531     6528     6525     6525 
    6527     6527     6525     6525     6534     6539     6538     6539 
    6540     6540     6543     6546     6547     6548     6551     6554 
    6558     6561     6562     6566     6566     6565     6566     6563 
    6558     6556     6555     6548     6547     6550     6546     6540 
    6539     6532     6523     6519     6516     6512     6507     6502 
    6498     6494     6490     6488     6486     6485     6482     6480 
    6478     6474     6473     6473     6475     6477     6480     6480 
    6481     6484     6484     6481     6481     6484     6486     6493 
    6493     6489     6490     6494     6496     6497     6501     6507 
    6511     6515     6520     6527     6528     6531     6536     6538 
    6536     6540     6544     6546     6547     6547     6548     6551 
    6555     6562     6567     6571     6577     6583     6588     6593 
    6596     6596     6598     6604     6601     6597     6597     6596 
    6590     6589     6590     6592     6594     6594     6589     6583 
    6582     6581     6581     6585     6583     6578     6573     6567 
    6565     6563     6561     6556     6556     6554     6548     6546 
    6546     6547     6547     6548     6544     6538     6534     6536 
    6539     6540     6542     6547     6551     6550     6551     6554 
    6556     6558     6555     6551     6551     6552     6554     6559 
    6567     6573     6578     6579     6577     6575     6575     6573 
    6573     6573     6573     6570     6567     6567     6571     6575 
    6577     6577     6573     6570     6567     6569     6570     6570 
    6571     6575     6574     6574     6573     6571     6569     6565 
    6559     6558     6558     6556     6559     6558     6555     6554 
    6556     6559     6556     6556     6559     6558     6555     6555 
    6555     6554     6551     6552     6552     6550     6548     6548 
    6548     6547     6544     6542     6539     6538     6535     6534 
    6534     6529     6528     6528     6527     6529     6531     6528 
    6529     6532     6532     6536     6542     6544     6546     6547 
    6551     6552     6552     6555     6556     6556     6561     6566 
    6571     6574     6573     6579     6583     6583     6589     6596 
    6598     6600     6604     6608     6609     6610     6616     6621 
    6623     6623     6627     6633     6637     6640     6643     6644 
    6644     6647     6651     6655     6656     6655     6655     6658 
    6662     6664     6667     6671     6675     6678     6681     6682 
    6681     6681     6678     6677     6675     6675     6674     6674 
    6673     6669     6666     6663     6662     6662     6662     6658 
    6654     6651     6648     6642     6633     6628     6621     6616 
    6608     6602     6600     6596     6589     6583     6577     6567 
    6562     6554     6547     6543     6539     6531     6521     6516 
    6512     6507     6502     6498     6497     6497     6497     6496 
    6496     6497     6498     6496     6492     6488     6486     6490 
    6493     6494     6496     6494     6494     6496     6498     6498 
    6500     6500     6497     6498     6498     6497     6496     6492 
    6489     6489     6489     6488     6486     6486     6486     6484 
    6477     6471     6467     6463     6458     6459     6461     6459 
    6459     6461     6459     6462     6466     6467     6469     6470 
    6473     6478     6481     6484     6488     6490     6493     6498 
    6502     6505     6511     6516     6523     6527     6532     6534 
    6534     6538     6543     6547     6548     6546     6542     6539 
    6540     6548     6554     6551     6551     6555     6556     6558 
    6559     6559     6558     6558     6555     6554     6551     6548 
    6550     6552     6558     6562     6567     6571     6575     6579 
    6583     6586     6590     6594     6597     6602     6610     6616 
    6620     6620     6620     6623     6627     6629     6635     6640 
    6640     6640     6640     6640     6639     6640     6644     6648 
    6650     6650     6650     6651     6647     6646     6647     6643 
    6637     6635     6632     6629     6624     6620     6615     6609 
    6602     6597     6590     6583     6577     6571     6567     6565 
    6559     6554     6554     6552     6547     6546     6543     6538 
    6531     6528     6525     6523     6521     6521     6523     6523 
    6524     6529     6534     6535     6535     6536     6538     6539 
    6538     6535     6532     6534     6535     6535     6535     6536 
    6539     6543     6543     6540     6536     6538     6542     6543 
    6546     6548     6550     6551     6548     6547     6547     6547 
    6547     6546     6544     6542     6539     6538     6536     6535 
    6534     6534     6534     6532     6534     6534     6532     6529 
    6527     6524     6525     6524     6523     6523     6524     6525 
    6528     6528     6527     6528     6531     6532     6534     6538 
    6540     6543     6550     6555     6559     6563     6567     6574 
    6579     6581     6582     6583     6583     6586     6592     6592 
    6593     6597     6600     6601     6602     6604     6604     6604 
    6604     6608     6610     6608     6606     6613     6617     6616 
    6617     6616     6612     6609     6609     6608     6606     6606 
    6604     6598     6593     6592     6589     6585     6582     6575 
    6567     6562     6559     6555     6552     6550     6547     6547 
    6546     6542     6538     6535     6532     6529     6528     6525 
    6523     6524     6527     6529     6534     6535     6534     6532 
    6531     6531     6531     6534     6538     6542     6542     6543 
    6547     6550     6555     6561     6561     6563     6570     6573 
    6577     6583     6588     6589     6593     6597     6598     6601 
    6601     6600     6604     6604     6602     6605     6609     6609 
    6606     6605     6605     6605     6608     6609     6605     6598 
    6597     6597     6594     6592     6588     6585     6586     6586 
    6583     6583     6583     6582     6579     6577     6573     6569 
    6567     6569     6569     6566     6566     6565     6565     6565 
    6566     6565     6567     6569     6569     6567     6571     6575 
    6578     6577     6575     6574     6570     6566     6566     6565 
    6561     6565     6570     6566     6567     6573     6574     6577 
    6581     6581     6586     6590     6594     6597     6600     6601 
    6602     6601     6602     6604     6601     6597     6598     6604 
    6605     6604     6600     6598     6598     6598     6598     6600 
    6597     6596     6594     6592     6586     6582     6581     6578 
    6574     6570     6566     6562     6556     6550     6544     6539 
    6532     6527     6521     6517     6513     6509     6504     6498 
    6493     6489     6489     6490     6489     6488     6484     6477 
    6473     6473     6470     6467     6467     6465     6462     6459 
    6457     6453     6450     6448     6451     6451     6450     6453 
    6457     6461     6461     6465     6471     6478     6486     6493 
    6498     6501     6505     6512     6516     6521     6531     6535 
    6539     6548     6552     6554     6561     6565     6567     6573 
    6579     6585     6592     6596     6598     6602     6601     6597 
    6597     6600     6600     6601     6601     6602     6605     6604 
    6605     6609     6608     6601     6597     6597     6594     6590 
    6589     6590     6589     6590     6593     6589     6586     6588 
    6588     6588     6589     6588     6583     6582     6583     6582 
    6582     6585     6583     6582     6582     6582     6582     6583 
    6582     6579     6579     6577     6575     6578     6573     6566 
    6565     6563     6559     6559     6563     6565     6563     6563 
    6565     6563     6563     6565     6567     6566     6563     6565 
    6569     6573     6575     6575     6579     6585     6588     6592 
    6598     6602     6605     6609     6612     6616     6624     6629 
    6633     6642     6647     6651     6656     6660     6662     6666 
    6670     6670     6674     6678     6679     6679     6679     6679 
    6679     6679     6678     6675     6674     6671     6666     6664 
    6667     6667     6664     6662     6660     6655     6650     6648 
    6646     6639     6633     6632     6625     6617     6609     6602 
    6594     6590     6583     6575     6569     6561     6551     6543 
    6535     6527     6519     6509     6502     6494     6488     6485 
    6481     6474     6469     6466     6462     6457     6454     6451 
    6450     6450     6448     6446     6447     6447     6446     6448 
    6448     6444     6446     6451     6453     6453     6454     6457 
    6461     6466     6469     6470     6474     6475     6477     6480 
    6481     6481     6484     6486     6492     6497     6504     6511 
    6515     6519     6524     6527     6529     6532     6536     6542 
    6543     6544     6547     6551     6556     6562     6565     6567 
    6571     6575     6575     6577     6578     6581     6582     6583 
    6583     6583     6582     6581     6581     6579     6577     6577 
    6575     6573     6573     6571     6570     6566     6562     6562 
    6561     6555     6551     6550     6548     6548     6546     6543 
    6540     6535     6531     6527     6524     6525     6523     6520 
    6521     6525     6525     6524     6524     6524     6524     6527 
    6531     6534     6535     6539     6544     6547     6548     6551 
    6556     6561     6565     6570     6577     6581     6585     6590 
    6597     6604     6609     6613     6620     6629     6636     6640 
    6646     6651     6656     6664     6669     6670     6674     6678 
    6681     6687     6690     6686     6686     6689     6689     6690 
    6689     6687     6687     6686     6685     6685     6682     6681 
    6678     6677     6675     6675     6673     6669     6666     6662 
    6658     6652     6647     6640     6636     6632     6627     6620 
    6612     6608     6605     6600     6594     6593     6590     6582 
    6582     6582     6575     6571     6570     6566     6562     6558 
    6550     6544     6540     6539     6538     6534     6529     6527 
    6524     6520     6516     6512     6507     6504     6501     6500 
    6500     6500     6494     6493     6494     6492     6488     6489 
    6490     6490     6492     6493     6497     6501     6504     6509 
    6512     6511     6515     6523     6525     6527     6531     6538 
    6542     6543     6546     6550     6554     6554     6556     6558 
    6561     6563     6566     6567     6571     6575     6574     6573 
    6570     6565     6562     6565     6566     6562     6559     6561 
    6558     6552     6548     6547     6546     6543     6539     6538 
    6536     6531     6527     6528     6527     6521     6520     6521 
    6520     6519     6517     6513     6509     6507     6508     6505 
    6498     6497     6498     6497     6493     6490     6489     6488 
    6484     6481     6478     6477     6475     6474     6471     6471 
    6470     6467     6467     6466     6467     6469     6467     6466 
    6466     6469     6471     6474     6475     6480     6485     6488 
    6492     6496     6500     6502     6508     6513     6519     6523 
    6523     6523     6525     6531     6534     6534     6536     6542 
    6542     6540     6543     6548     6550     6551     6554     6556 
    6558     6555     6552     6554     6554     6554     6554     6554 
    6554     6554     6551     6550     6548     6548     6546     6543 
    6543     6544     6544     6544     6544     6544     6548     6548 
    6546     6548     6554     6558     6558     6556     6559     6562 
    6565     6567     6569     6569     6570     6573     6574     6575 
    6579     6582     6583     6586     6594     6597     6598     6602 
    6608     6610     6613     6619     6620     6621     6624     6623 
    6621     6621     6623     6624     6624     6627     6628     6629 
    6631     6632     6632     6631     6629     6627     6627     6625 
    6624     6628     6629     6623     6619     6623     6623     6619 
    6613     6610     6609     6609     6604     6600     6602     6604 
    6604     6604     6601     6598     6600     6596     6594     6593 
    6589     6589     6588     6586     6588     6588     6586     6586 
    6586     6583     6581     6583     6586     6585     6583     6585 
    6583     6581     6578     6574     6573     6573     6570     6566 
    6566     6567     6565     6565     6569     6570     6571     6569 
    6570     6571     6571     6571     6570     6567     6567     6569 
    6565     6563     6569     6567     6566     6570     6570     6566 
    6563     6563     6559     6551     6548     6547     6540     6538 
    6535     6529     6524     6521     6516     6509     6509     6511 
    6505     6501     6500     6496     6492     6488     6484     6488 
    6492     6489     6486     6489     6490     6492     6493     6493 
    6494     6498     6500     6498     6500     6504     6507     6507 
    6505     6505     6505     6507     6508     6508     6508     6511 
    6509     6509     6511     6513     6515     6516     6515     6516 
    6517     6516     6516     6515     6513     6515     6516     6512 
    6512     6515     6515     6516     6516     6516     6516     6515 
    6512     6512     6512     6513     6515     6513     6512     6511 
    6512     6512     6509     6505     6504     6504     6505     6507 
    6507     6511     6511     6508     6507     6507     6505     6507 
    6507     6507     6507     6508     6509     6511     6511     6515 
    6516     6516     6519     6521     6523     6529     6535     6540 
    6542     6543     6547     6551     6556     6565     6569     6573 
    6577     6578     6582     6585     6582     6581     6582     6585 
    6586     6585     6585     6586     6589     6590     6590     6589 
    6588     6588     6588     6589     6590     6593     6593     6594 
    6598     6601     6602     6604     6605     6609     6610     6609 
    6610     6615     6615     6613     6616     6617     6617     6619 
    6617     6617     6623     6623     6623     6628     6631     6631 
    6633     6635     6635     6637     6636     6636     6636     6636 
    6637     6636     6633     6633     6633     6635     6636     6633 
    6631     6625     6621     6619     6617     6615     6610     6604 
    6600     6598     6596     6590     6586     6583     6582     6577 
    6571     6570     6567     6561     6555     6555     6552     6546 
    6542     6539     6535     6532     6531     6527     6523     6520 
    6516     6516     6515     6509     6509     6511     6509     6508 
    6508     6509     6511     6511     6511     6515     6517     6515 
    6516     6520     6523     6524     6527     6528     6528     6527 
    6529     6532     6532     6531     6531     6531     6529     6528 
    6527     6527     6528     6528     6524     6520     6517     6515 
    6515     6513     6507     6502     6502     6500     6496     6492 
    6492     6492     6490     6489     6490     6490     6486     6484 
    6484     6482     6480     6481     6480     6474     6475     6480 
    6481     6477     6475     6482     6489     6492     6494     6496 
    6498     6505     6511     6512     6515     6519     6521     6524 
    6529     6534     6536     6536     6539     6543     6548     6554 
    6556     6556     6559     6562     6565     6566     6567     6569 
