Origin Time       2025/01/13 21:19:00
Lat.              31.8
Long.             131.6
Depth. (km)       30
Mag.              6.9
Station Code      NARH01
Station Lat.      33.9666
Station Long.     135.6489
Station Height(m) 780
Record Time       2025/01/13 21:21:20
Sampling Freq(Hz) 100Hz
Duration Time(s)  120
Dir.              6
Scale Factor      7845(gal)/8223790
Max. Acc. (gal)   0.325
Last Correction   2025/01/13 21:21:20
Memo.             
[...]
    2284     2265     2262     2278     2297     2303     2307     2316 
    2324     2327     2336     2349     2346     2330     2323     2327 
    2328     2326     2328     2331     2336     2350     2362     2363 
    2355     2340     2323     2316     2317     2322     2326     2324 
    2308     2285     2276     2282     2297     2304     2305     2317 
    2328     2330     2330     2335     2336     2327     2313     2304 
    2300     2295     2288     2276     2270     2280     2300     2316 
    2315     2304     2295     2288     2278     2266     2268     2276 
    2274     2268     2266     2270     2292     2320     2339     2344 
    2347     2353     2363     2370     2363     2353     2344     2339 
    2338     2343     2358     2361     2346     2330     2323     2326 
    2340     2351     2339     2322     2319     2328     2324     2288 
    2241     2226     2243     2266     2277     2273     2261     2247 
    2243     2254     2270     2272     2253     2230     2226     2238 
    2246     2251     2263     2282     2304     2322     2342     2365 
    2377     2370     2354     2339     2336     2343     2353     2359 
    2367     2384     2397     2390     2367     2343     2342     2361 
    2373     2359     2328     2301     2292     2295     2295     2282 
    2273     2284     2307     2320     2317     2301     2288     2286 
    2293     2299     2303     2301     2289     2274     2274     2296 
    2317     2326     2330     2338     2344     2344     2338     2320 
    2301     2290     2300     2316     2319     2307     2300     2311 
    2323     2323     2322     2324     2328     2330     2330     2340 
    2357     2365     2361     2344     2331     2334     2347     2353 
    2346     2331     2319     2308     2301     2293     2282     2284 
    2297     2311     2312     2317     2334     2344     2335     2315 
    2311     2319     2320     2305     2282     2268     2262     2262 
    2268     2273     2270     2273     2292     2312     2316     2303 
    2288     2276     2269     2274     2290     2313     2331     2326 
    2319     2335     2359     2366     2355     2340     2332     2332 
    2338     2336     2330     2324     2326     2327     2334     2343 
    2344     2338     2334     2326     2307     2288     2278     2272 
    2259     2246     2243     2262     2293     2311     2312     2308 
    2311     2328     2349     2357     2350     2336     2323     2311 
    2304     2295     2274     2253     2253     2284     2322     2332 
    2320     2303     2295     2296     2303     2309     2312     2305 
    2296     2296     2309     2320     2309     2288     2284     2307 
    2335     2346     2332     2301     2265     2247     2254     2266 
    2274     2276     2274     2277     2285     2296     2303     2304 
    2299     2289     2286     2296     2309     2315     2313     2316 
    2330     2338     2331     2313     2296     2296     2316     2339 
    2349     2339     2322     2320     2336     2357     2377     2392 
    2382     2355     2331     2317     2307     2299     2299     2311 
    2316     2299     2273     2265     2277     2295     2305     2309 
    2311     2315     2316     2309     2301     2303     2305     2300 
    2300     2309     2315     2312     2316     2322     2328     2336 
    2342     2331     2317     2312     2315     2324     2339     2351 
    2355     2347     2339     2347     2370     2394     2397     2376 
    2358     2353     2343     2328     2323     2315     2296     2280 
    2280     2301     2324     2330     2322     2312     2301     2293 
    2299     2309     2304     2284     2268     2257     2245     2236 
    2243     2257     2265     2269     2270     2274     2276     2261 
    2227     2203     2211     2232     2238     2219     2205     2222 
    2253     2268     2263     2262     2276     2297     2308     2308 
    2307     2307     2307     2309     2322     2340     2358     2369 
    2371     2377     2381     2374     2353     2330     2313     2308 
    2322     2342     2347     2332     2307     2289     2295     2308 
    2322     2336     2350     2358     2359     2351     2340     2343 
    2359     2377     2377     2361     2344     2332     2327     2336 
    2346     2335     2312     2295     2295     2303     2301     2290 
    2277     2270     2282     2313     2335     2320     2278     2242 
    2235     2255     2272     2272     2268     2276     2295     2316 
    2334     2353     2382     2407     2413     2409     2405     2398 
    2378     2358     2354     2365     2382     2393     2388     2373 
    2361     2362     2370     2365     2344     2320     2301     2290 
    2293     2307     2311     2289     2265     2269     2299     2319 
    2317     2308     2308     2320     2336     2343     2328     2300 
    2286     2293     2301     2293     2266     2247     2249     2259 
    2274     2289     2288     2272     2251     2238     2235     2230 
    2208     2184     2180     2208     2255     2289     2300     2300 
    2307     2324     2350     2380     2408     2421     2403     2363 
    2344     2358     2373     2373     2363     2353     2346     2342 
    2332     2319     2295     2274     2273     2288     2303     2309 
    2308     2303     2293     2277     2268     2278     2282     2266 
    2250     2250     2258     2259     2262     2277     2304     2326 
    2331     2330     2326     2319     2312     2308     2304     2286 
    2265     2266     2295     2317     2322     2313     2307     2322 
    2346     2355     2349     2342     2342     2334     2317     2303 
    2285     2265     2263     2286     2320     2339     2326     2297 
    2284     2289     2307     2322     2322     2309     2301     2304 
    2312     2316     2305     2292     2293     2309     2323     2322 
    2315     2316     2322     2328     2334     2340     2343     2336 
    2322     2313     2315     2319     2315     2315     2327     2336 
    2328     2313     2312     2332     2358     2378     2392     2390 
    2370     2331     2281     2239     2222     2228     2243     2249 
    2245     2239     2243     2263     2296     2327     2357     2381 
    2389     2370     2342     2328     2330     2319     2293     2281 
    2300     2330     2336     2316     2300     2313     2343     2359 
    2342     2304     2272     2253     2253     2268     2282     2285 
    2273     2259     2259     2270     2277     2272     2268     2280 
    2300     2320     2330     2328     2331     2349     2369     2385 
    2400     2403     2389     2371     2369     2382     2390     2378 
    2358     2358     2366     2353     2324     2307     2303     2312 
    2334     2354     2351     2328     2299     2274     2259     2255 
    2254     2254     2255     2266     2289     2311     2315     2296 
    2270     2250     2239     2239     2251     2263     2265     2269 
    2288     2311     2319     2311     2297     2289     2299     2323 
    2335     2328     2322     2324     2336     2340     2338     2335 
    2330     2312     2288     2276     2289     2316     2336     2347 
    2361     2376     2390     2397     2382     2354     2331     2330 
    2343     2342     2330     2328     2332     2331     2326     2308 
    2282     2268     2277     2299     2299     2280     2276     2296 
    2316     2319     2320     2328     2335     2330     2307     2273 
    2246     2246     2274     2311     2338     2357     2376     2392 
    2403     2396     2373     2349     2330     2312     2307     2311 
    2309     2295     2278     2282     2305     2331     2343     2339 
    2331     2317     2286     2243     2207     2199     2226     2263 
    2276     2257     2231     2226     2241     2265     2285     2289 
    2284     2281     2281     2278     2272     2266     2280     2316 
    2355     2374     2366     2349     2343     2347     2353     2361 
    2371     2367     2340     2308     2290     2284     2281     2282 
    2293     2315     2339     2344     2316     2266     2228     2228 
    2257     2289     2303     2299     2297     2311     2334     2344 
    2339     2342     2366     2388     2380     2344     2307     2297 
    2335     2393     2409     2367     2316     2295     2293     2282 
    2272     2280     2290     2282     2277     2290     2305     2308 
    2301     2286     2276     2280     2295     2307     2305     2307 
    2322     2338     2338     2326     2330     2351     2357     2346 
    2339     2340     2336     2312     2277     2259     2277     2315 
    2342     2339     2311     2281     2274     2303     2344     2366 
    2363     2362     2378     2404     2417     2416     2419     2431 
    2425     2400     2370     2347     2328     2327     2351     2378 
    2385     2378     2362     2327     2284     2251     2232     2215 
    2207     2214     2224     2228     2220     2219     2255     2307 
    2311     2265     2226     2234     2274     2305     2307     2284 
    2266     2286     2323     2340     2344     2354     2361     2350 
    2342     2344     2330     2288     2259     2280     2339     2388 
    2389     2355     2319     2295     2282     2278     2270     2253 
    2230     2201     2173     2160     2169     2201     2250     2304 
    2347     2377     2407     2439     2448     2420     2378     2351 
    2336     2320     2303     2299     2326     2369     2405     2438 
    2466     2467     2435     2390     2346     2293     2228     2181 
    2165     2160     2158     2181     2223     2254     2268     2292 
    2326     2344     2336     2316     2297     2274     2247     2242 
    2278     2331     2361     2367     2393     2447     2490     2496 
    2458     2398     2346     2301     2251     2211     2200     2218 
    2249     2292     2327     2319     2269     2214     2187     2195 
    2212     2211     2197     2197     2230     2277     2307     2309 
    2309     2336     2370     2376     2359     2351     2344     2331 
    2324     2331     2332     2313     2288     2278     2290     2309 
    2327     2354     2393     2415     2384     2323     2270     2241 
    2226     2219     2212     2214     2231     2255     2269     2276 
    2284     2304     2322     2317     2299     2290     2288     2262 
    2231     2247     2301     2335     2320     2272     2231     2224 
    2245     2255     2238     2214     2222     2258     2280     2270 
    2247     2236     2249     2281     2323     2351     2344     2304 
    2266     2281     2357     2440     2486     2489     2462     2420 
    2378     2357     2373     2409     2425     2415     2404     2412 
    2419     2397     2361     2323     2282     2243     2214     2193 
    2189     2212     2245     2268     2292     2317     2331     2335 
    2327     2323     2349     2398     2423     2408     2390     2382 
    2384     2403     2430     2442     2421     2370     2309     2266 
    2261     2289     2323     2331     2307     2276     2273     2311 
    2351     2346     2296     2250     2247     2286     2332     2355 
    2357     2340     2307     2273     2269     2308     2374     2436 
    2451     2394     2301     2251     2266     2301     2311     2286 
    2262     2263     2263     2241     2219     2224     2255     2297 
    2332     2328     2285     2236     2212     2218     2250     2282 
    2278     2242     2211     2215     2261     2334     2396     2430 
    2463     2500     2494     2430     2346     2286     2254     2243 
    2268     2317     2343     2324     2296     2293     2309     2323 
    2331     2334     2319     2293     2282     2288     2288     2273 
    2261     2261     2272     2286     2308     2335     2370     2390 
    2370     2311     2250     2226     2235     2245     2253     2293 
    2373     2452     2477     2443     2390     2350     2312     2266 
    2226     2203     2192     2187     2189     2208     2245     2304 
    2386     2463     2478     2427     2363     2309     2261     2215 
    2174     2160     2185     2251     2330     2394     2431     2438 
    2421     2384     2331     2288     2259     2219     2153     2100 
    2118     2200     2282     2323     2327     2309     2289     2273 
    2254     2230     2224     2262     2311     2335     2351     2384 
    2405     2384     2332     2278     2243     2239     2259     2285 
    2282     2242     2199     2192     2219     2259     2288     2304 
    2320     2342     2369     2390     2381     2344     2319     2313 
    2304     2300     2317     2336     2347     2370     2415     2471 
    2501     2482     2428     2359     2286     2222     2172     2123 
    2077     2072     2149     2269     2340     2324     2241     2139 
    2081     2085     2104     2127     2178     2265     2342     2369 
    2362     2373     2415     2450     2447     2420     2400     2385 
    2385     2409     2435     2439     2416     2362     2286     2215 
    2181     2182     2180     2173     2195     2278     2400     2467 
    2425     2322     2255     2284     2369     2447     2469     2427 
    2369     2344     2349     2386     2473     2559     2567     2488 
    2377     2290     2254     2234     2196     2160     2161     2193 
    2231     2242     2227     2234     2299     2367     2357     2270 
    2173     2111     2100     2134     2193     2282     2404     2538 
    2637     2651     2575     2458     2355     2285     2243     2222 
    2216     2231     2276     2347     2407     2415     2354     2263 
    2214     2231     2280     2301     2281     2247     2224     2211 
    2220     2255     2293     2316     2322     2319     2316     2319 
    2344     2382     2373     2268     2115     2000     1976     2049 
    2180     2300     2388     2455     2509     2525     2484     2397 
    2297     2203     2134     2122     2187     2288     2355     2366 
    2347     2326     2316     2320     2328     2336     2340     2323 
    2281     2236     2232     2280     2328     2332     2315     2334 
    2385     2413     2384     2305     2239     2243     2293     2299 
    2232     2172     2197     2297     2390     2428     2421     2390 
    2338     2277     2239     2241     2262     2289     2311     2320 
    2313     2300     2323     2390     2451     2465     2425     2361 
    2319     2323     2350     2378     2370     2297     2200     2145 
    2134     2124     2111     2112     2126     2146     2185     2236 
    2273     2284     2282     2277     2272     2280     2319     2380 
    2417     2401     2373     2378     2409     2432     2430     2407 
    2390     2389     2392     2382     2362     2353     2373     2397 
    2388     2344     2286     2232     2207     2207     2227     2258 
    2278     2273     2228     2155     2112     2131     2193     2274 
    2366     2447     2478     2462     2443     2454     2486     2505 
    2488     2452     2425     2434     2485     2540     2554     2529 
    2488     2438     2381     2316     2236     2154     2107     2120 
    2154     2172     2196     2263     2338     2340     2262     2162 
    2084     2041     2047     2097     2172     2268     2381     2477 
    2521     2519     2490     2442     2370     2273     2184     2150 
    2173     2234     2312     2359     2350     2308     2269     2261 
    2274     2265     2209     2151     2146     2201     2281     2336 
    2365     2386     2409     2416     2380     2308     2243     2212 
    2197     2176     2147     2145     2182     2230     2249     2251 
    2277     2347     2425     2451     2412     2355     2322     2319 
    2313     2282     2249     2249     2299     2394     2498     2548 
    2512     2423     2344     2307     2285     2243     2200     2199 
    2234     2274     2305     2326     2334     2339     2344     2338 
    2324     2322     2336     2362     2382     2393     2413     2458 
    2492     2481     2428     2370     2344     2344     2338     2312 
    2272     2227     2193     2172     2160     2151     2135     2119 
    2141     2207     2276     2303     2292     2290     2332     2389 
    2423     2438     2446     2438     2417     2415     2434     2443 
    2427     2397     2357     2305     2243     2192     2165     2150 
    2147     2164     2182     2199     2220     2249     2261     2238 
    2195     2160     2145     2158     2181     2197     2228     2277 
    2324     2373     2421     2450     2442     2378     2253     2119 
    2049     2058     2130     2222     2305     2374     2428     2457 
    2455     2435     2411     2381     2357     2350     2358     2373 
    2385     2384     2392     2451     2539     2581     2540     2461 
    2412     2393     2361     2301     2246     2226     2243     2285 
    2334     2359     2343     2309     2278     2258     2253     2243 
    2219     2204     2243     2331     2413     2446     2439     2438 
    2461     2479     2470     2428     2362     2292     2230     2193 
    2200     2231     2254     2265     2284     2308     2324     2343 
    2371     2388     2366     2297     2220     2187     2208     2270 
    2342     2398     2417     2381     2317     2272     2258     2274 
    2293     2281     2243     2209     2214     2249     2282     2300 
    2304     2296     2273     2241     2220     2232     2262     2282 
    2277     2259     2247     2242     2259     2319     2389     2430 
    2439     2425     2392     2347     2309     2280     2272     2307 
    2363     2398     2405     2382     2336     2313     2334     2354 
    2322     2235     2158     2134     2138     2153     2193     2258 
    2316     2339     2338     2343     2357     2342     2286     2230 
    2205     2212     2250     2297     2339     2388     2435     2451 
    2444     2436     2408     2350     2277     2207     2170     2192 
    2243     2288     2315     2313     2295     2282     2280     2293 
    2324     2359     2380     2381     2359     2323     2299     2297 
    2296     2277     2253     2243     2255     2289     2323     2336 
    2311     2249     2191     2180     2208     2246     2263     2250 
    2211     2176     2176     2227     2303     2350     2349     2312 
    2259     2223     2222     2258     2308     2339     2350     2359 
    2370     2367     2346     2324     2323     2343     2389     2457 
    2508     2516     2482     2425     2363     2316     2288     2263 
    2247     2255     2293     2334     2344     2330     2309     2285 
    2250     2207     2161     2135     2149     2182     2212     2241 
    2273     2300     2308     2289     2261     2242     2231     2222 
    2216     2215     2220     2245     2288     2339     2363     2346 
    2315     2295     2282     2276     2289     2317     2342     2362 
    2384     2400     2413     2417     2420     2424     2421     2405 
    2374     2324     2280     2265     2263     2266     2272     2272 
    2278     2316     2370     2401     2396     2374     2357     2336 
    2304     2261     2238     2257     2311     2365     2392     2397 
    2409     2423     2403     2342     2266     2218     2216     2241 
    2265     2280     2290     2300     2308     2311     2323     2353 
