Origin Time       2025/01/13 21:19:00
Lat.              31.8
Long.             131.6
Depth. (km)       30
Mag.              6.9
Station Code      NARH01
Station Lat.      33.9666
Station Long.     135.6489
Station Height(m) 780
Record Time       2025/01/13 21:21:20
Sampling Freq(Hz) 100Hz
Duration Time(s)  120
Dir.              5
Scale Factor      7845(gal)/8223790
Max. Acc. (gal)   1.008
Last Correction   2025/01/13 21:21:20
Memo.             
[...]
    2536     2540     2548     2556     2555     2556     2575     2601 
    2623     2640     2646     2647     2658     2670     2675     2674 
    2652     2609     2573     2550     2532     2509     2485     2463 
    2458     2475     2509     2532     2533     2529     2543     2575 
    2602     2609     2600     2573     2533     2502     2490     2479 
    2470     2465     2461     2475     2506     2531     2539     2527 
    2509     2505     2508     2509     2513     2520     2527     2532 
    2531     2528     2540     2565     2585     2604     2636     2659 
    2655     2640     2628     2621     2620     2613     2594     2581 
    2575     2575     2581     2581     2566     2554     2543     2533 
    2524     2511     2492     2481     2478     2488     2516     2552 
    2573     2571     2565     2566     2579     2587     2581     2573 
    2575     2589     2601     2598     2587     2571     2555     2556 
    2570     2569     2550     2533     2525     2517     2501     2485 
    2475     2477     2496     2528     2556     2570     2582     2598 
    2619     2636     2646     2641     2619     2592     2571     2555 
    2535     2516     2516     2539     2565     2579     2582     2574 
    2562     2556     2548     2531     2517     2535     2577     2601 
    2598     2578     2558     2551     2552     2555     2555     2551 
    2552     2560     2559     2544     2520     2504     2501     2513 
    2544     2583     2605     2605     2590     2574     2563     2551 
    2536     2520     2513     2520     2540     2569     2597     2609 
    2602     2592     2582     2585     2598     2601     2585     2562 
    2546     2546     2565     2587     2596     2587     2578     2571 
    2569     2569     2558     2535     2524     2540     2565     2582 
    2585     2577     2566     2551     2544     2555     2569     2573 
    2570     2565     2559     2550     2533     2520     2520     2531 
    2556     2596     2633     2650     2640     2621     2598     2570 
    2543     2516     2492     2479     2477     2475     2458     2430 
    2420     2444     2490     2539     2570     2578     2578     2577 
    2577     2571     2554     2531     2512     2502     2509     2520 
    2521     2515     2497     2471     2454     2450     2461     2479 
    2494     2505     2517     2524     2529     2535     2543     2567 
    2601     2633     2668     2702     2722     2727     2710     2677 
    2640     2612     2596     2596     2608     2605     2585     2571 
    2566     2562     2566     2575     2574     2571     2577     2587 
    2597     2593     2574     2548     2528     2521     2531     2548 
    2560     2566     2575     2593     2619     2640     2643     2633 
    2625     2614     2597     2579     2556     2521     2489     2473 
    2461     2452     2463     2486     2501     2513     2536     2562 
    2577     2593     2624     2650     2651     2632     2600     2562 
    2527     2501     2496     2508     2524     2542     2560     2573 
    2582     2596     2608     2610     2606     2597     2582     2566 
    2548     2542     2539     2527     2512     2517     2551     2598 
    2643     2677     2681     2654     2627     2602     2565     2513 
    2467     2431     2405     2390     2396     2417     2438     2440 
    2447     2477     2521     2556     2574     2582     2583     2586 
    2589     2582     2563     2543     2527     2513     2500     2482 
    2466     2461     2473     2493     2512     2527     2540     2558 
    2575     2579     2579     2590     2609     2635     2660     2666 
    2654     2636     2617     2597     2571     2547     2533     2528 
    2540     2575     2614     2632     2631     2628     2628     2625 
    2629     2633     2616     2587     2569     2563     2565     2559 
    2536     2517     2515     2511     2501     2492     2482     2477 
    2490     2519     2551     2592     2623     2625     2613     2604 
    2590     2571     2560     2556     2554     2548     2544     2546 
    2546     2547     2560     2582     2592     2583     2583     2604 
    2614     2604     2601     2604     2579     2540     2521     2528 
    2546     2570     2594     2609     2619     2643     2691     2741 
    2768     2756     2705     2637     2573     2516     2465     2408 
    2354     2331     2359     2420     2475     2508     2517     2528 
    2550     2575     2590     2583     2570     2577     2593     2602 
    2606     2610     2613     2613     2619     2636     2655     2659 
    2647     2624     2605     2593     2571     2538     2494     2440 
    2393     2374     2382     2394     2411     2434     2455     2484 
    2525     2563     2589     2609     2614     2612     2612     2598 
    2562     2524     2493     2475     2475     2481     2494     2520 
    2546     2567     2587     2586     2567     2554     2548     2544 
    2532     2515     2492     2477     2479     2493     2509     2519 
    2531     2566     2614     2662     2710     2741     2740     2729 
    2721     2710     2691     2652     2582     2508     2455     2432 
    2438     2455     2471     2497     2531     2566     2600     2620 
    2623     2616     2602     2579     2551     2524     2506     2505 
    2513     2517     2513     2509     2512     2532     2571     2621 
    2650     2646     2625     2610     2601     2577     2528     2481 
    2448     2432     2435     2455     2485     2527     2581     2628 
    2659     2673     2666     2651     2632     2597     2565     2539 
    2502     2474     2463     2442     2425     2444     2484     2529 
    2579     2612     2625     2635     2633     2619     2586     2520 
    2439     2400     2413     2450     2486     2515     2542     2585 
    2632     2659     2668     2670     2647     2609     2577     2563 
    2567     2570     2546     2501     2463     2436     2427     2440 
    2469     2504     2551     2605     2644     2654     2627     2575 
    2531     2511     2504     2506     2516     2529     2555     2585 
    2598     2590     2582     2592     2608     2610     2608     2606 
    2608     2623     2651     2666     2651     2616     2573     2535 
    2512     2512     2528     2535     2523     2523     2550     2583 
    2604     2598     2569     2536     2523     2548     2601     2640 
    2654     2660     2652     2620     2587     2554     2506     2477 
    2471     2469     2477     2489     2497     2513     2529     2532 
    2538     2555     2571     2578     2586     2594     2596     2587 
    2578     2574     2578     2594     2627     2651     2643     2605 
    2556     2511     2467     2435     2424     2435     2455     2477 
    2511     2542     2556     2571     2594     2608     2614     2629 
    2655     2678     2694     2710     2710     2673     2610     2556 
    2531     2524     2527     2536     2551     2567     2594     2628 
    2652     2659     2655     2643     2629     2606     2563     2511 
    2473     2455     2448     2440     2425     2425     2450     2484 
    2521     2554     2571     2579     2578     2573     2575     2579 
    2574     2554     2523     2496     2479     2473     2477     2502 
    2542     2581     2616     2643     2651     2655     2650     2616 
    2555     2490     2443     2436     2466     2497     2506     2498 
    2502     2542     2583     2577     2521     2462     2427     2419 
    2432     2463     2498     2533     2570     2590     2593     2590 
    2586     2582     2573     2544     2512     2493     2490     2520 
    2566     2579     2555     2531     2528     2546     2566     2569 
    2551     2529     2520     2524     2525     2511     2479     2447 
    2430     2435     2471     2525     2551     2556     2589     2636 
    2658     2654     2639     2613     2596     2585     2563     2535 
    2516     2525     2571     2623     2656     2689     2725     2741 
    2735     2701     2635     2562     2524     2516     2512     2496 
    2466     2442     2434     2438     2461     2500     2521     2529 
    2551     2574     2600     2632     2650     2636     2604     2566 
    2531     2502     2473     2458     2471     2484     2489     2517 
    2555     2575     2570     2535     2486     2467     2486     2515 
    2519     2490     2466     2474     2505     2539     2560     2570 
    2597     2666     2747     2790     2770     2697     2613     2548 
    2517     2520     2539     2567     2606     2660     2743     2821 
    2833     2793     2749     2706     2646     2583     2523     2458 
    2398     2358     2330     2299     2262     2249     2286     2362 
    2450     2552     2658     2728     2752     2740     2690     2613 
    2543     2502     2489     2494     2496     2475     2438     2411 
    2416     2450     2474     2462     2448     2475     2525     2579 
    2635     2701     2781     2855     2903     2920     2902     2867 
    2828     2772     2682     2556     2427     2353     2365     2428 
    2505     2583     2648     2716     2809     2883     2884     2817 
    2712     2601     2517     2473     2451     2452     2488     2552 
    2635     2704     2725     2708     2679     2648     2617     2577 
    2492     2366     2250     2189     2180     2181     2192     2235 
    2332     2484     2637     2743     2812     2863     2895     2906 
    2874     2805     2744     2701     2671     2666     2666     2637 
    2582     2533     2513     2493     2457     2432     2424     2411 
    2386     2353     2339     2380     2434     2465     2498     2533 
    2555     2587     2631     2664     2686     2700     2683     2625 
    2554     2498     2454     2412     2386     2389     2431     2488 
    2497     2436     2351     2274     2222     2215     2239     2261 
    2300     2382     2497     2624     2729     2770     2752     2701 
    2643     2608     2578     2501     2381     2263     2187     2174 
    2230     2330     2450     2587     2743     2890     2987     3001 
    2918     2756     2567     2396     2273     2216     2207     2234 
    2299     2382     2486     2650     2851     3042     3180     3237 
    3226     3172     3059     2884     2679     2454     2227     2046 
    1938     1915     1993     2162     2362     2532     2678     2849 
    3045     3188     3203     3083     2867     2624     2419     2263 
    2128     2002     1921     1958     2122     2336     2542     2695 
    2785     2822     2810     2751     2677     2612     2539     2439 
    2319     2207     2137     2130     2174     2261     2397     2559 
    2701     2825     2928     2986     2995     2945     2818     2637 
    2448     2288     2172     2101     2092     2172     2320     2486 
    2646     2787     2894     2959     2997     3018     3007     2976 
    2941     2864     2710     2519     2332     2173     2080     2057 
    2087     2178     2328     2512     2716     2902     3041     3138 
    3187     3145     2997     2768     2520     2322     2215     2195 
    2234     2297     2328     2304     2259     2243     2266     2322 
    2398     2465     2493     2502     2539     2621     2722     2797 
    2822     2810     2785     2760     2744     2727     2690     2636 
    2583     2550     2542     2552     2566     2589     2623     2658 
    2700     2737     2740     2704     2647     2581     2542     2552 
    2600     2673     2748     2794     2825     2856     2848     2762 
    2608     2450     2346     2295     2254     2196     2130     2101 
    2158     2277     2389     2463     2528     2605     2673     2705 
    2717     2737     2764     2791     2818     2829     2814     2799 
    2810     2817     2776     2706     2646     2600     2548     2485 
    2408     2316     2220     2130     2052     2006     2006     2054 
    2160     2299     2409     2462     2484     2506     2547     2612 
    2689     2748     2787     2826     2856     2835     2763     2701 
    2628     2481     2286     2131     2031     1987     2030     2145 
    2274     2400     2544     2712     2856     2920     2893     2781 
    2600     2384     2209     2134     2122     2124     2162     2235 
    2336     2505     2736     2959     3117     3175     3114     2947 
    2721     2500     2322     2189     2068     1977     1992     2141 
    2370     2619     2833     3010     3164     3271     3276     3160 
    2953     2686     2389     2142     2019     2020     2110     2253 
    2403     2517     2616     2752     2937     3099     3157     3073 
    2875     2647     2458     2301     2173     2101     2110     2211 
    2415     2687     2964     3183     3283     3242     3117     2986 
    2859     2693     2443     2147     1937     1904     1995     2116 
    2222     2278     2308     2378     2506     2666     2829     2941 
    2941     2835     2671     2515     2409     2350     2313     2288 
    2301     2407     2608     2820     2955     2976     2890     2752 
    2641     2582     2552     2520     2459     2377     2288     2184 
    2087     2004     1917     1845     1860     2016     2307     2646 
    2916     3067     3115     3095     3032     2943     2810     2647 
    2528     2517     2620     2768     2871     2875     2789     2664 
    2563     2504     2481     2471     2448     2385     2265     2112 
    2015     2038     2176     2398     2690     3017     3311     3522 
    3612     3539     3303     2976     2632     2308     2039     1879 
    1842     1902     2030     2201     2385     2547     2660     2713 
    2702     2631     2543     2501     2508     2500     2436     2380 
    2392     2457     2558     2675     2790     2891     2947     2933 
    2870     2763     2629     2496     2365     2262     2238     2308 
    2427     2505     2497     2458     2457     2527     2636     2705 
    2705     2683     2664     2652     2652     2629     2573     2535 
    2556     2596     2601     2550     2436     2295     2192     2166 
    2199     2227     2207     2170     2169     2207     2269     2353 
    2448     2539     2628     2747     2894     3040     3144     3150 
    3046     2891     2709     2527     2415     2386     2421     2517 
    2633     2698     2668     2566     2455     2423     2482     2555 
    2601     2659     2728     2775     2803     2816     2789     2724 
    2646     2574     2489     2373     2276     2242     2239     2214 
    2160     2107     2093     2123     2165     2216     2308     2463 
    2668     2882     3057     3172     3200     3142     3046     2947 
    2840     2744     2675     2617     2539     2434     2358     2374 
    2434     2455     2440     2438     2471     2525     2578     2614 
    2593     2485     2347     2276     2295     2370     2450     2515 
    2579     2662     2758     2868     2983     3049     3019     2906 
    2755     2600     2469     2363     2276     2200     2150     2172 
    2304     2497     2650     2740     2818     2889     2909     2870 
    2818     2794     2808     2851     2894     2883     2776     2600 
    2420     2272     2135     2002     1908     1883     1906     1957 
    2038     2166     2358     2592     2803     2957     3072     3183 
    3273     3287     3187     3003     2797     2623     2533     2517 
    2493     2401     2281     2218     2223     2247     2280     2342 
    2396     2393     2342     2280     2235     2230     2268     2338 
    2420     2488     2548     2610     2651     2663     2662     2686 
    2785     2938     3049     3048     2960     2872     2839     2833 
    2791     2668     2492     2331     2224     2147     2069     2000 
    1972     2020     2161     2346     2512     2636     2712     2733 
    2731     2725     2739     2794     2867     2922     2956     2957 
    2926     2882     2809     2685     2521     2353     2205     2091 
    2016     2008     2096     2257     2420     2552     2652     2714 
    2766     2849     2944     2978     2913     2801     2698     2608 
    2501     2393     2332     2327     2324     2308     2307     2315 
    2315     2308     2274     2200     2122     2085     2108     2199 
    2351     2524     2690     2845     2982     3083     3103     3017 
    2878     2755     2662     2585     2505     2423     2371     2373 
    2407     2436     2459     2481     2492     2485     2470     2463 
    2488     2544     2604     2637     2636     2616     2613     2633 
    2644     2617     2542     2454     2420     2474     2583     2701 
    2806     2875     2884     2863     2853     2847     2810     2745 
    2655     2544     2436     2358     2324     2334     2380     2451 
    2520     2560     2573     2560     2542     2516     2461     2393 
    2343     2323     2351     2442     2583     2747     2889     2964 
    2964     2893     2766     2609     2462     2365     2322     2309 
    2330     2392     2474     2551     2632     2716     2749     2717 
    2651     2594     2581     2601     2619     2637     2700     2809 
    2917     2959     2914     2806     2663     2517     2393     2289 
    2180     2070     2004     2015     2095     2197     2297     2408 
    2529     2633     2727     2830     2928     2976     2963     2899 
    2803     2682     2538     2384     2257     2173     2150     2231 
    2409     2608     2752     2806     2791     2763     2744     2704 
    2629     2533     2436     2359     2331     2355     2398     2419 
    2423     2431     2450     2493     2547     2586     2612     2637 
    2667     2687     2698     2725     2767     2782     2751     2697 
    2646     2602     2586     2625     2705     2758     2721     2616 
    2519     2489     2517     2559     2594     2627     2663     2695 
    2689     2605     2451     2288     2185     2155     2155     2155 
    2168     2204     2266     2350     2447     2536     2600     2643 
    2691     2755     2810     2821     2745     2601     2466     2381 
    2350     2354     2340     2272     2176     2115     2142     2236 
    2319     2358     2382     2417     2474     2542     2587     2585 
    2552     2536     2583     2679     2763     2805     2808     2787 
    2772     2772     2774     2771     2766     2752     2702     2598 
    2478     2394     2365     2373     2398     2435     2481     2552 
    2647     2724     2751     2728     2693     2683     2686     2660 
    2589     2486     2408     2370     2353     2355     2396     2457 
    2511     2519     2452     2339     2243     2205     2235     2312 
    2421     2556     2694     2802     2874     2924     2956     2968 
    2948     2852     2675     2482     2331     2242     2215     2226 
    2246     2268     2307     2388     2508     2625     2709     2763 
    2782     2763     2731     2700     2659     2598     2504     2400 
    2324     2300     2340     2442     2571     2691     2789     2845 
    2855     2837     2805     2751     2681     2616     2578     2573 
    2577     2571     2574     2589     2600     2602     2602     2598 
    2587     2560     2542     2579     2670     2755     2799     2809 
    2787     2731     2652     2574     2502     2423     2349     2323 
    2358     2417     2470     2516     2559     2585     2575     2540 
