Origin Time       2025/01/13 21:19:00
Lat.              31.8
Long.             131.6
Depth. (km)       30
Mag.              6.9
Station Code      NARH01
Station Lat.      33.9666
Station Long.     135.6489
Station Height(m) 681
Record Time       2025/01/13 21:21:20
Sampling Freq(Hz) 100Hz
Duration Time(s)  120
Dir.              2
Scale Factor      2942(gal)/8224139
Max. Acc. (gal)   0.194
Last Correction   2025/01/13 21:21:20
Memo.             
[...]
  207900   207885   207859   207835   207812   207785   207758   207733 
  207706   207677   207646   207613   207581   207554   207530   207508 
  207490   207470   207449   207434   207424   207419   207418   207416 
  207411   207409   207416   207420   207419   207424   207430   207431 
  207434   207435   207436   207449   207458   207465   207480   207490 
  207495   207508   207519   207524   207532   207539   207539   207540 
  207544   207544   207542   207539   207540   207542   207540   207540 
  207544   207550   207551   207554   207558   207563   207567   207567 
  207570   207580   207581   207580   207585   207593   207601   207615 
  207625   207635   207648   207663   207681   207697   207709   207723 
  207738   207751   207762   207771   207778   207787   207796   207804 
  207809   207812   207817   207825   207831   207837   207847   207854 
  207858   207860   207863   207863   207859   207858   207860   207856 
  207848   207843   207833   207823   207813   207801   207786   207773 
  207759   207743   207728   207716   207701   207688   207681   207673 
  207663   207655   207643   207630   207616   207608   207600   207588 
  207569   207551   207540   207535   207524   207509   207501   207492 
  207480   207476   207473   207461   207454   207451   207446   207436 
  207431   207427   207422   207418   207414   207407   207401   207399 
  207392   207384   207376   207365   207355   207349   207343   207334 
  207322   207307   207291   207279   207268   207260   207250   207238 
  207230   207222   207212   207208   207203   207193   207187   207183 
  207175   207161   207156   207154   207146   207141   207139   207131 
  207125   207123   207121   207114   207112   207117   207118   207121 
  207131   207144   207154   207165   207179   207192   207210   207234 
  207260   207284   207308   207337   207366   207396   207426   207451 
  207476   207503   207531   207555   207577   207598   207623   207643 
  207661   207678   207696   207709   207723   207733   207743   207751 
  207758   207762   207766   207775   207787   207794   207797   207797 
  207792   207785   207781   207778   207773   207765   207758   207756 
  207755   207754   207760   207769   207775   207783   207792   207797 
  207804   207812   207819   207824   207831   207833   207836   207844 
  207851   207851   207855   207860   207856   207854   207855   207852 
  207847   207836   207824   207813   207797   207781   207767   207748 
  207723   207702   207684   207659   207635   207617   207597   207577 
  207559   207542   207524   207509   207497   207482   207468   207459 
  207451   207441   207435   207431   207427   207427   207427   207428 
  207434   207435   207441   207451   207465   207477   207490   207505 
  207517   207527   207536   207547   207561   207571   207582   207589 
  207585   207582   207586   207586   207577   207569   207562   207547 
  207530   207515   207500   207486   207470   207450   207431   207416 
  207403   207391   207381   207372   207357   207341   207331   207324 
  207314   207304   207295   207283   207273   207265   207258   207252 
  207245   207238   207234   207234   207237   207239   207245   207257 
  207268   207274   207287   207301   207311   207327   207351   207374 
  207395   207415   207445   207474   207495   207512   207536   207569 
  207598   207625   207648   207671   207697   207717   207735   207747 
  207758   207771   207786   207798   207814   207835   207850   207860 
  207871   207879   207883   207885   207886   207882   207871   207864 
  207860   207850   207835   207825   207813   207793   207775   207766 
  207752   207738   207724   207709   207693   207673   207651   207634 
  207611   207584   207561   207538   207509   207481   207454   207427 
  207399   207374   207354   207335   207315   207296   207283   207266 
  207249   207238   207231   207223   207218   207219   207223   207227 
  207226   207229   207241   207252   207261   207277   207297   207315 
  207327   207342   207361   207380   207396   207408   207419   207431 
  207447   207459   207468   207476   207488   207499   207501   207500 
  207500   207500   207500   207501   207496   207486   207481   207477 
  207474   207474   207472   207468   207466   207465   207468   207472 
  207474   207482   207497   207507   207511   207516   207526   207538 
  207553   207565   207576   207585   207596   207608   207624   207640 
  207648   207654   207662   207669   207667   207667   207670   207671 
  207671   207666   207659   207647   207631   207619   207609   207590 
  207569   207555   207546   207538   207528   207520   207512   207501 
  207496   207493   207489   207490   207490   207485   207478   207473 
  207469   207463   207463   207468   207462   207455   207455   207453 
  207449   207449   207453   207457   207454   207446   207438   207431 
  207420   207401   207389   207388   207382   207370   207364   207350 
  207338   207335   207328   207315   207308   207303   207303   207307 
  207306   207306   207310   207314   207314   207312   207319   207331 
  207338   207343   207355   207369   207378   207388   207400   207412 
  207424   207439   207461   207481   207496   207513   207531   207549 
  207566   207585   207598   207608   207619   207631   207642   207651 
  207662   207671   207679   207685   207688   207690   207696   207694 
  207689   207692   207696   207688   207677   207669   207652   207636 
  207620   207603   207584   207567   207551   207530   207509   207492 
  207470   207449   207435   207419   207397   207381   207366   207346 
  207327   207315   207308   207301   207292   207285   207285   207287 
  207288   207292   207297   207306   207318   207331   207347   207366 
  207381   207392   207411   207432   207453   207476   207499   207520 
  207542   207563   207585   207605   207621   207636   207652   207669 
  207679   207692   207711   207724   207728   207733   207744   207752 
  207752   207754   207760   207758   207748   207747   207742   207731 
  207724   207720   207711   207705   207698   207686   207671   207665 
  207658   207646   207632   207625   207620   207613   207607   207600 
  207594   207594   207593   207592   207589   207588   207585   207573 
  207557   207551   207544   207531   207515   207501   207489   207477 
  207459   207443   207431   207411   207387   207366   207347   207327 
  207311   207292   207273   207258   207247   207238   207227   207219 
  207215   207211   207207   207204   207210   207220   207227   207231 
  207242   207250   207257   207270   207283   207295   207310   207326 
  207342   207358   207374   207388   207403   207418   207432   207451 
  207461   207466   207474   207480   207486   207493   207500   207505 
  207513   207522   207530   207536   207542   207546   207554   207562 
  207566   207569   207573   207577   207578   207581   207584   207585 
  207585   207585   207584   207585   207593   207603   207604   207607 
  207616   207623   207628   207631   207627   207624   207621   207616 
  207612   207608   207603   207597   207584   207574   207565   207551 
  207543   207534   207520   207507   207496   207485   207477   207462 
  207445   207435   207431   207424   207415   207405   207396   207384 
  207374   207364   207349   207339   207334   207323   207312   207303 
  207293   207292   207292   207287   207284   207284   207284   207285 
  207291   207296   207299   207301   207310   207320   207328   207339 
  207350   207361   207376   207388   207399   207404   207411   207423 
  207427   207428   207441   207458   207465   207470   207480   207490 
  207499   207504   207509   207516   207519   207526   207531   207531 
  207534   207535   207527   207519   207512   207505   207501   207503 
  207500   207496   207495   207496   207497   207497   207499   207503 
  207507   207513   207520   207523   207526   207535   207547   207561 
  207567   207571   207580   207586   207593   207601   207608   207615 
  207619   207620   207623   207624   207625   207631   207634   207634 
  207630   207625   207625   207625   207617   207613   207617   207616 
  207611   207611   207609   207607   207612   207612   207607   207601 
  207600   207601   207597   207588   207581   207578   207577   207573 
  207570   207570   207562   207557   207559   207558   207555   207562 
  207565   207561   207557   207558   207555   207549   207543   207535 
  207527   207520   207509   207497   207485   207468   207453   207443 
  207426   207408   207399   207387   207372   207360   207349   207337 
  207331   207330   207323   207315   207318   207320   207322   207330 
  207338   207342   207351   207364   207373   207382   207396   207405 
  207414   207423   207431   207439   207447   207454   207461   207466 
  207469   207473   207480   207480   207474   207472   207470   207466 
  207459   207453   207447   207439   207428   207423   207420   207419 
  207418   207416   207416   207418   207419   207423   207430   207439 
  207450   207457   207468   207486   207503   207515   207534   207557 
  207576   207593   207612   207631   207650   207670   207688   207702 
  207719   207731   207743   207754   207760   207765   207770   207775 
  207777   207777   207775   207769   207759   207751   207743   207736 
  207729   207717   207700   207684   207670   207652   207636   207623 
  207605   207588   207574   207559   207542   207530   207519   207503 
  207489   207480   207468   207461   207461   207454   207447   207447 
  207449   207451   207454   207450   207450   207453   207453   207453 
  207457   207461   207462   207470   207474   207473   207473   207472 
  207463   207458   207461   207465   207463   207459   207462   207466 
  207468   207469   207472   207473   207472   207476   207484   207490 
  207490   207486   207489   207497   207497   207497   207501   207505 
  207507   207508   207507   207507   207508   207511   207516   207520 
  207522   207527   207534   207536   207540   207547   207553   207555 
  207562   207570   207574   207578   207584   207588   207589   207589 
  207586   207586   207585   207581   207578   207573   207566   207558 
  207553   207549   207543   207531   207516   207507   207501   207492 
  207478   207465   207459   207459   207451   207438   207434   207431 
  207422   207418   207416   207412   207409   207408   207408   207411 
  207414   207412   207414   207415   207407   207397   207396   207396 
  207392   207389   207388   207384   207381   207376   207369   207366 
  207366   207364   207354   207346   207343   207339   207339   207338 
  207334   207331   207334   207335   207335   207334   207334   207335 
  207335   207338   207342   207346   207353   207360   207365   207374 
  207382   207393   207405   207412   207416   207426   207436   207449 
  207458   207468   207480   207495   207505   207513   207532   207549 
  207555   207569   207584   207592   207600   207607   207612   207619 
  207623   207628   207635   207640   207642   207642   207640   207639 
  207640   207643   207644   207639   207634   207630   207624   207619 
  207612   207605   207601   207590   207581   207576   207570   207563 
  207554   207540   207526   207511   207496   207484   207476   207461 
  207446   207435   207422   207403   207387   207376   207362   207345 
  207333   207319   207303   207291   207284   207277   207272   207262 
  207249   207239   207229   207216   207212   207207   207202   207202 
  207199   207198   207204   207208   207216   207227   207237   207249 
  207269   207292   207316   207339   207362   207392   207423   207455 
  207481   207505   207531   207559   207585   207611   207632   207652 
  207671   207693   207715   207736   207758   207775   207787   207802 
  207819   207836   207852   207862   207870   207882   207887   207885 
  207887   207898   207900   207895   207901   207904   207895   207890 
  207890   207879   207868   207862   207848   207829   207816   207802 
  207782   207760   207742   207721   207697   207679   207665   207643 
  207621   207607   207593   207577   207558   207540   207528   207513 
  207493   207476   207461   207445   207434   207430   207426   207419 
  207414   207412   207412   207415   207423   207427   207426   207432 
  207445   207455   207465   207476   207486   207496   207504   207513 
  207524   207535   207546   207555   207569   207585   207594   207605 
  207623   207635   207639   207644   207657   207673   207685   207693 
  207704   207715   207725   207736   207742   207747   207756   207766 
  207778   207786   207789   207789   207787   207785   207778   207773 
  207767   207759   207747   207727   207709   207696   207679   207662 
  207642   207619   207594   207569   207539   207507   207474   207442 
  207408   207378   207350   207319   207287   207254   207226   207198 
  207171   207148   207126   207107   207088   207072   207064   207056 
  207044   207038   207038   207042   207052   207060   207069   207084 
  207098   207112   207129   207145   207164   207184   207200   207215 
  207234   207250   207261   207272   207279   207285   207293   207301 
  207311   207315   207314   207318   207323   207324   207323   207320 
  207322   207319   207315   207316   207320   207322   207323   207331 
  207342   207353   207365   207384   207407   207428   207451   207476 
  207501   207531   207561   207589   207617   207648   207685   207725 
  207759   207792   207829   207866   207895   207924   207954   207979 
  207994   208013   208035   208049   208059   208070   208079   208079 
  208078   208076   208070   208059   208047   208032   208013   207995 
  207972   207944   207917   207889   207858   207824   207794   207770 
  207742   207708   207679   207658   207631   207604   207581   207559 
  207539   207524   207516   207505   207493   207484   207480   207478 
  207478   207481   207485   207488   207485   207488   207495   207499 
  207503   207509   207517   207527   207532   207538   207544   207551 
  207559   207567   207574   207581   207585   207588   207592   207597 
  207600   207600   207603   207604   207608   207613   207616   207619 
  207621   207620   207624   207634   207636   207639   207648   207655 
  207661   207669   207670   207671   207682   207693   207696   207701 
  207711   207717   207721   207724   207731   207733   207728   207724 
  207723   207716   207712   207706   207694   207679   207667   207650 
  207631   207615   207603   207582   207554   207534   207516   207490 
  207463   207436   207404   207376   207351   207324   207296   207272 
  207247   207227   207211   207192   207173   207156   207141   207129 
  207118   207114   207115   207118   207125   207129   207129   207135 
  207149   207160   207169   207179   207193   207210   207227   207239 
  207243   207253   207274   207292   207301   207314   207327   207337 
  207345   207364   207381   207389   207400   207416   207424   207431 
  207441   207450   207458   207468   207478   207486   207495   207508 
  207522   207532   207546   207554   207566   207584   207593   207607 
  207627   207639   207647   207665   207686   207704   207720   207731 
  207740   207752   207767   207781   207793   207804   207817   207827 
  207831   207840   207852   207858   207866   207875   207879   207883 
  207886   207883   207881   207882   207877   207868   207864   207858 
  207850   207843   207835   207824   207813   207806   207796   207774 
  207760   207754   207735   207716   207705   207686   207667   207651 
  207636   207627   207613   207597   207585   207581   207577   207566 
  207555   207555   207550   207540   207539   207536   207531   207527 
  207520   207515   207520   207528   207524   207520   207527   207532 
  207527   207526   207526   207517   207519   207524   207519   207513 
  207513   207508   207499   207490   207482   207474   207466   207457 
  207450   207446   207436   207424   207415   207404   207392   207380 
  207370   207365   207358   207351   207349   207346   207343   207342 
  207343   207347   207355   207362   207370   207387   207400   207412 
  207428   207443   207457   207472   207489   207507   207519   207530 
  207539   207550   207562   207573   207581   207588   207594   207604 
  207611   207615   207619   207621   207623   207625   207628   207628 
  207630   207634   207628   207621   207619   207616   207612   207608 
  207604   207597   207586   207578   207577   207573   207567   207566 
  207565   207563   207563   207563   207565   207563   207565   207573 
  207577   207573   207573   207580   207578   207576   207584   207594 
  207597   207598   207605   207608   207609   207619   207624   207624 
  207632   207644   207646   207650   207666   207677   207682   207688 
  207694   207702   207709   207711   207716   207723   207721   207723 
  207728   207729   207731   207733   207733   207732   207732   207732 
  207729   207725   207719   207715   207715   207709   207700   207689 
  207682   207677   207667   207659   207651   207644   207639   207635 
  207632   207631   207631   207628   207621   207620   207619   207615 
  207609   207607   207603   207598   207594   207586   207581   207578 
  207576   207571   207567   207565   207562   207554   207550   207549 
  207543   207538   207534   207528   207526   207520   207513   207509 
  207505   207500   207496   207490   207482   207480   207481   207477 
  207473   207472   207472   207472   207474   207472   207473   207477 
  207481   207485   207486   207489   207492   207496   207500   207501 
  207500   207499   207501   207505   207508   207512   207516   207524 
  207528   207530   207539   207551   207558   207563   207574   207581 
  207586   207597   207604   207605   207609   207616   207624   207635 
  207635   207630   207636   207646   207644   207640   207639   207639 
  207635   207627   207620   207616   207607   207597   207588   207578 
  207573   207563   207553   207544   207539   207532   207524   207517 
  207511   207504   207496   207489   207490   207493   207490   207492 
  207497   207499   207503   207509   207516   207527   207536   207547 
  207559   207569   207578   207592   207604   207613   207625   207640 
  207654   207663   207674   207685   207697   207711   207723   207735 
  207750   207759   207769   207783   207796   207806   207819   207825 
  207832   207841   207852   207862   207868   207882   207894   207898 
  207901   207906   207910   207916   207916   207916   207921   207920 
  207917   207917   207916   207908   207902   207900   207895   207889 
  207890   207886   207874   207868   207864   207852   207839   207824 
  207810   207798   207779   207758   207740   207724   207704   207679 
  207658   207635   207613   207596   207580   207557   207532   207508 
  207482   207463   207445   207422   207401   207384   207364   207346 
  207330   207314   207299   207284   207270   207260   207247   207235 
  207231   207226   207218   207211   207211   207211   207215   207218 
  207219   207218   207222   207237   207247   207256   207270   207284 
  207295   207312   207327   207334   207349   207368   207380   207389 
  207396   207404   207412   207422   207428   207436   207443   207449 
  207455   207457   207461   207470   207472   207469   207473   207473 
  207469   207470   207474   207476   207474   207473   207472   207470 
