Origin Time       2025/01/13 21:19:00
Lat.              31.8
Long.             131.6
Depth. (km)       30
Mag.              6.9
Station Code      NARH05
Station Lat.      34.4237
Station Long.     136.0294
Station Height(m) 390
Record Time       2025/01/13 21:22:11
Sampling Freq(Hz) 100Hz
Duration Time(s)  120
Dir.              5
Scale Factor      7845(gal)/8223790
Max. Acc. (gal)   0.145
Last Correction   2025/01/13 21:22:12
Memo.             
[...]
   -3191    -3181    -3173    -3172    -3179    -3194    -3211    -3226 
   -3240    -3252    -3264    -3271    -3269    -3265    -3256    -3240 
   -3221    -3200    -3183    -3173    -3172    -3180    -3196    -3219 
   -3248    -3277    -3298    -3314    -3322    -3316    -3302    -3280 
   -3246    -3211    -3184    -3164    -3152    -3148    -3152    -3168 
   -3192    -3215    -3231    -3242    -3248    -3249    -3245    -3231 
   -3211    -3192    -3179    -3173    -3177    -3186    -3192    -3206 
   -3222    -3231    -3231    -3230    -3226    -3225    -3229    -3230 
   -3225    -3219    -3219    -3226    -3233    -3234    -3231    -3226 
   -3221    -3215    -3210    -3208    -3215    -3233    -3249    -3268 
   -3287    -3294    -3289    -3288    -3283    -3269    -3256    -3249 
   -3242    -3238    -3234    -3233    -3233    -3235    -3242    -3249 
   -3253    -3252    -3249    -3244    -3237    -3233    -3230    -3231 
   -3234    -3237    -3240    -3241    -3238    -3233    -3225    -3217 
   -3208    -3198    -3186    -3179    -3183    -3190    -3195    -3203 
   -3215    -3226    -3241    -3254    -3262    -3262    -3249    -3225 
   -3194    -3163    -3138    -3121    -3113    -3119    -3137    -3161 
   -3192    -3219    -3237    -3250    -3256    -3246    -3227    -3203 
   -3172    -3145    -3130    -3125    -3127    -3141    -3163    -3194 
   -3225    -3253    -3276    -3291    -3291    -3279    -3260    -3234 
   -3203    -3180    -3169    -3160    -3152    -3153    -3160    -3169 
   -3184    -3199    -3213    -3226    -3238    -3242    -3241    -3235 
   -3227    -3223    -3223    -3221    -3222    -3222    -3219    -3219 
   -3215    -3204    -3200    -3200    -3202    -3211    -3229    -3244 
   -3253    -3264    -3271    -3268    -3262    -3252    -3240    -3227 
   -3213    -3198    -3188    -3181    -3180    -3190    -3203    -3211 
   -3218    -3227    -3234    -3235    -3235    -3233    -3221    -3202 
   -3184    -3171    -3163    -3164    -3172    -3187    -3202    -3214 
   -3219    -3218    -3221    -3225    -3222    -3211    -3198    -3180 
   -3165    -3154    -3152    -3157    -3164    -3177    -3198    -3218 
   -3238    -3252    -3256    -3252    -3241    -3227    -3213    -3199 
   -3188    -3183    -3180    -3181    -3184    -3190    -3202    -3222 
   -3242    -3262    -3285    -3307    -3318    -3318    -3300    -3277 
   -3254    -3231    -3207    -3190    -3180    -3175    -3175    -3188 
   -3211    -3235    -3261    -3284    -3300    -3310    -3300    -3273 
   -3238    -3208    -3184    -3171    -3167    -3167    -3173    -3190 
   -3208    -3225    -3238    -3245    -3242    -3231    -3217    -3195 
   -3168    -3141    -3123    -3121    -3130    -3149    -3175    -3202 
   -3227    -3248    -3257    -3254    -3240    -3221    -3202    -3191 
   -3186    -3180    -3167    -3156    -3156    -3164    -3175    -3194 
   -3217    -3238    -3257    -3265    -3260    -3244    -3226    -3211 
   -3206    -3202    -3195    -3188    -3184    -3184    -3188    -3196 
   -3207    -3217    -3226    -3235    -3244    -3241    -3230    -3214 
   -3198    -3186    -3183    -3183    -3181    -3183    -3188    -3194 
   -3198    -3203    -3211    -3221    -3233    -3246    -3256    -3258 
   -3250    -3234    -3214    -3194    -3180    -3171    -3161    -3157 
   -3159    -3169    -3187    -3206    -3219    -3227    -3235    -3241 
   -3237    -3225    -3210    -3190    -3171    -3157    -3149    -3145 
   -3149    -3156    -3167    -3179    -3186    -3187    -3183    -3176 
   -3169    -3165    -3159    -3149    -3140    -3132    -3132    -3141 
   -3156    -3171    -3186    -3196    -3202    -3206    -3206    -3199 
   -3191    -3188    -3186    -3184    -3188    -3194    -3202    -3213 
   -3227    -3242    -3250    -3252    -3249    -3242    -3231    -3226 
   -3221    -3215    -3215    -3217    -3215    -3217    -3227    -3246 
   -3269    -3289    -3306    -3314    -3310    -3298    -3277    -3250 
   -3223    -3200    -3190    -3194    -3208    -3226    -3242    -3257 
   -3269    -3281    -3288    -3283    -3273    -3262    -3244    -3222 
   -3203    -3188    -3184    -3195    -3213    -3227    -3240    -3246 
   -3249    -3253    -3257    -3257    -3252    -3242    -3235    -3238 
   -3242    -3244    -3240    -3237    -3242    -3253    -3261    -3262 
   -3258    -3249    -3238    -3233    -3226    -3221    -3225    -3234 
   -3244    -3249    -3244    -3229    -3214    -3203    -3196    -3195 
   -3199    -3210    -3229    -3249    -3264    -3275    -3276    -3272 
   -3262    -3242    -3218    -3198    -3181    -3173    -3173    -3177 
   -3190    -3214    -3245    -3272    -3285    -3283    -3268    -3250 
   -3237    -3226    -3215    -3206    -3198    -3191    -3187    -3183 
   -3177    -3172    -3173    -3184    -3196    -3206    -3210    -3217 
   -3226    -3240    -3253    -3258    -3260    -3256    -3250    -3242 
   -3225    -3198    -3172    -3156    -3150    -3150    -3160    -3179 
   -3200    -3219    -3235    -3249    -3256    -3253    -3235    -3211 
   -3191    -3181    -3175    -3173    -3179    -3184    -3191    -3204 
   -3219    -3227    -3231    -3233    -3227    -3219    -3204    -3187 
   -3173    -3167    -3168    -3180    -3194    -3203    -3211    -3223 
   -3234    -3238    -3234    -3225    -3215    -3207    -3202    -3202 
   -3199    -3192    -3192    -3195    -3196    -3198    -3199    -3203 
   -3206    -3202    -3195    -3192    -3192    -3196    -3200    -3207 
   -3218    -3223    -3227    -3230    -3226    -3219    -3217    -3214 
   -3215    -3219    -3226    -3233    -3238    -3238    -3233    -3225 
   -3213    -3206    -3208    -3215    -3223    -3234    -3248    -3258 
   -3271    -3283    -3284    -3277    -3265    -3249    -3237    -3225 
   -3215    -3210    -3210    -3218    -3227    -3237    -3248    -3253 
   -3253    -3245    -3233    -3219    -3210    -3206    -3202    -3199 
   -3198    -3196    -3196    -3196    -3199    -3203    -3208    -3215 
   -3218    -3214    -3208    -3204    -3196    -3184    -3173    -3164 
   -3157    -3157    -3167    -3180    -3191    -3195    -3198    -3198 
   -3195    -3188    -3179    -3171    -3167    -3164    -3167    -3172 
   -3176    -3181    -3191    -3202    -3207    -3208    -3206    -3200 
   -3196    -3194    -3186    -3179    -3183    -3188    -3194    -3196 
   -3196    -3192    -3188    -3186    -3181    -3180    -3181    -3187 
   -3195    -3203    -3213    -3223    -3235    -3246    -3254    -3254 
   -3246    -3231    -3210    -3190    -3175    -3164    -3160    -3161 
   -3172    -3190    -3207    -3223    -3241    -3254    -3260    -3260 
   -3256    -3248    -3238    -3227    -3218    -3210    -3204    -3206 
   -3211    -3218    -3223    -3223    -3221    -3218    -3214    -3210 
   -3206    -3203    -3207    -3214    -3219    -3226    -3233    -3241 
   -3252    -3261    -3265    -3260    -3246    -3229    -3213    -3196 
   -3180    -3171    -3165    -3165    -3177    -3194    -3210    -3226 
   -3240    -3249    -3248    -3238    -3226    -3208    -3190    -3176 
   -3172    -3175    -3186    -3200    -3217    -3231    -3240    -3240 
   -3231    -3221    -3208    -3196    -3188    -3186    -3188    -3199 
   -3211    -3221    -3226    -3226    -3223    -3222    -3223    -3225 
   -3225    -3225    -3226    -3229    -3227    -3221    -3211    -3203 
   -3199    -3202    -3207    -3214    -3218    -3218    -3218    -3217 
   -3217    -3214    -3213    -3214    -3215    -3217    -3215    -3213 
   -3208    -3204    -3200    -3202    -3206    -3206    -3206    -3206 
   -3207    -3208    -3206    -3203    -3202    -3202    -3199    -3194 
   -3188    -3187    -3190    -3195    -3200    -3211    -3219    -3222 
   -3225    -3223    -3218    -3208    -3195    -3173    -3154    -3148 
   -3150    -3159    -3168    -3179    -3188    -3198    -3202    -3200 
   -3199    -3194    -3187    -3180    -3171    -3163    -3157    -3150 
   -3146    -3149    -3159    -3172    -3187    -3199    -3214    -3227 
   -3231    -3229    -3223    -3211    -3198    -3184    -3172    -3169 
   -3173    -3180    -3196    -3217    -3233    -3241    -3241    -3231 
   -3214    -3196    -3180    -3169    -3167    -3173    -3183    -3191 
   -3200    -3214    -3227    -3237    -3241    -3237    -3230    -3222 
   -3217    -3213    -3204    -3195    -3190    -3188    -3190    -3191 
   -3192    -3194    -3199    -3206    -3211    -3214    -3206    -3192 
   -3181    -3175    -3171    -3165    -3160    -3160    -3168    -3176 
   -3184    -3196    -3207    -3214    -3219    -3221    -3213    -3202 
   -3194    -3187    -3177    -3173    -3177    -3181    -3186    -3192 
   -3199    -3199    -3192    -3181    -3172    -3163    -3153    -3148 
   -3146    -3148    -3154    -3159    -3160    -3165    -3171    -3171 
   -3165    -3159    -3148    -3140    -3134    -3133    -3137    -3142 
   -3148    -3154    -3159    -3163    -3168    -3168    -3163    -3163 
   -3163    -3161    -3161    -3163    -3159    -3159    -3165    -3179 
   -3192    -3203    -3214    -3223    -3229    -3230    -3229    -3227 
   -3227    -3226    -3222    -3221    -3222    -3225    -3229    -3227 
   -3225    -3222    -3219    -3221    -3221    -3218    -3215    -3213 
   -3214    -3222    -3226    -3230    -3231    -3231    -3230    -3226 
   -3221    -3217    -3211    -3208    -3210    -3213    -3217    -3222 
   -3222    -3221    -3221    -3218    -3213    -3211    -3211    -3206 
   -3200    -3199    -3199    -3200    -3200    -3202    -3206    -3214 
   -3219    -3218    -3214    -3213    -3211    -3211    -3211    -3206 
   -3199    -3194    -3184    -3171    -3159    -3149    -3142    -3146 
   -3157    -3171    -3184    -3195    -3199    -3194    -3179    -3161 
   -3149    -3142    -3141    -3144    -3148    -3149    -3150    -3153 
   -3156    -3157    -3154    -3150    -3145    -3141    -3140    -3141 
   -3149    -3160    -3172    -3181    -3191    -3196    -3200    -3198 
   -3186    -3175    -3169    -3164    -3169    -3184    -3200    -3218 
   -3230    -3237    -3240    -3238    -3233    -3227    -3221    -3213 
   -3206    -3200    -3199    -3204    -3221    -3238    -3254    -3275 
   -3292    -3299    -3296    -3287    -3271    -3252    -3231    -3213 
   -3196    -3187    -3187    -3198    -3214    -3233    -3254    -3276 
   -3294    -3307    -3310    -3300    -3277    -3249    -3225    -3206 
   -3192    -3184    -3179    -3181    -3192    -3206    -3219    -3231 
   -3240    -3248    -3252    -3249    -3238    -3222    -3204    -3186 
   -3169    -3163    -3160    -3160    -3164    -3172    -3179    -3180 
   -3183    -3187    -3186    -3183    -3179    -3176    -3171    -3164 
   -3159    -3153    -3148    -3145    -3148    -3152    -3153    -3153 
   -3153    -3152    -3152    -3154    -3153    -3150    -3149    -3149 
   -3146    -3145    -3142    -3138    -3138    -3148    -3159    -3164 
   -3169    -3171    -3169    -3165    -3159    -3150    -3146    -3148 
   -3153    -3154    -3153    -3157    -3161    -3163    -3161    -3160 
   -3160    -3164    -3168    -3171    -3172    -3171    -3175    -3180 
   -3180    -3172    -3169    -3172    -3179    -3186    -3192    -3198 
   -3196    -3188    -3180    -3177    -3180    -3183    -3188    -3191 
   -3191    -3191    -3195    -3195    -3190    -3180    -3169    -3165 
   -3164    -3165    -3176    -3192    -3207    -3222    -3235    -3242 
   -3244    -3242    -3234    -3223    -3213    -3199    -3186    -3176 
   -3173    -3177    -3187    -3198    -3210    -3221    -3227    -3233 
   -3230    -3221    -3211    -3204    -3195    -3187    -3184    -3183 
   -3181    -3184    -3186    -3183    -3183    -3187    -3187    -3183 
   -3183    -3181    -3181    -3186    -3188    -3186    -3186    -3183 
   -3179    -3176    -3172    -3169    -3165    -3159    -3157    -3163 
   -3168    -3175    -3186    -3191    -3191    -3190    -3186    -3181 
   -3179    -3172    -3167    -3168    -3175    -3183    -3191    -3196 
   -3199    -3202    -3204    -3203    -3199    -3195    -3192    -3187 
   -3176    -3168    -3169    -3179    -3191    -3200    -3210    -3214 
   -3215    -3214    -3208    -3203    -3199    -3200    -3200    -3203 
   -3207    -3210    -3207    -3207    -3207    -3208    -3213    -3219 
   -3226    -3235    -3244    -3248    -3245    -3237    -3229    -3222 
   -3213    -3208    -3211    -3215    -3223    -3230    -3230    -3226 
   -3226    -3225    -3223    -3225    -3226    -3225    -3218    -3213 
   -3208    -3204    -3206    -3210    -3213    -3215    -3218    -3213 
   -3204    -3196    -3194    -3195    -3203    -3208    -3208    -3208 
   -3213    -3217    -3214    -3206    -3203    -3203    -3208    -3219 
   -3226    -3233    -3244    -3254    -3265    -3271    -3272    -3269 
   -3264    -3256    -3246    -3231    -3219    -3218    -3223    -3234 
   -3245    -3257    -3269    -3280    -3288    -3289    -3283    -3269 
   -3256    -3242    -3231    -3222    -3214    -3206    -3200    -3200 
   -3202    -3199    -3195    -3190    -3186    -3186    -3188    -3192 
   -3194    -3195    -3198    -3196    -3195    -3194    -3190    -3186 
   -3179    -3171    -3167    -3164    -3161    -3161    -3165    -3168 
   -3167    -3163    -3161    -3161    -3160    -3160    -3154    -3146 
   -3141    -3137    -3134    -3133    -3133    -3127    -3118    -3105 
   -3090    -3080    -3075    -3073    -3075    -3076    -3078    -3076 
   -3069    -3061    -3056    -3053    -3053    -3056    -3061    -3063 
   -3060    -3060    -3065    -3069    -3073    -3079    -3078    -3075 
   -3069    -3063    -3061    -3059    -3057    -3060    -3067    -3080 
   -3096    -3110    -3122    -3132    -3142    -3150    -3152    -3154 
   -3156    -3156    -3154    -3153    -3153    -3152    -3152    -3157 
   -3164    -3168    -3180    -3192    -3199    -3210    -3219    -3225 
   -3226    -3223    -3221    -3221    -3218    -3213    -3207    -3204 
   -3203    -3204    -3208    -3217    -3221    -3227    -3237    -3245 
   -3249    -3253    -3261    -3269    -3271    -3265    -3257    -3245 
   -3233    -3226    -3221    -3215    -3211    -3211    -3219    -3229 
   -3237    -3245    -3248    -3246    -3246    -3242    -3230    -3221 
   -3217    -3206    -3196    -3190    -3180    -3168    -3160    -3154 
   -3150    -3149    -3145    -3142    -3142    -3148    -3150    -3156 
   -3164    -3168    -3168    -3167    -3160    -3157    -3154    -3153 
   -3157    -3159    -3157    -3159    -3160    -3161    -3167    -3175 
   -3180    -3188    -3203    -3218    -3230    -3237    -3237    -3233 
   -3234    -3237    -3235    -3237    -3240    -3238    -3241    -3250 
   -3258    -3265    -3273    -3279    -3281    -3281    -3277    -3276 
   -3280    -3284    -3289    -3292    -3295    -3300    -3303    -3306 
   -3304    -3298    -3291    -3285    -3276    -3269    -3269    -3268 
   -3267    -3268    -3269    -3265    -3264    -3264    -3260    -3256 
   -3250    -3244    -3233    -3221    -3213    -3207    -3207    -3213 
   -3219    -3225    -3234    -3238    -3235    -3230    -3221    -3207 
   -3195    -3186    -3177    -3169    -3167    -3175    -3186    -3196 
   -3206    -3211    -3211    -3200    -3188    -3181    -3173    -3161 
   -3152    -3146    -3146    -3154    -3163    -3167    -3169    -3172 
   -3171    -3168    -3161    -3152    -3148    -3146    -3144    -3141 
   -3140    -3137    -3134    -3133    -3132    -3126    -3122    -3119 
   -3114    -3111    -3114    -3119    -3126    -3140    -3152    -3157 
   -3160    -3157    -3149    -3142    -3134    -3125    -3114    -3106 
   -3107    -3114    -3119    -3130    -3146    -3165    -3184    -3198 
   -3200    -3198    -3190    -3177    -3164    -3154    -3146    -3142 
   -3145    -3156    -3171    -3181    -3188    -3196    -3204    -3208 
   -3210    -3211    -3211    -3208    -3202    -3194    -3183    -3175 
   -3169    -3175    -3184    -3190    -3200    -3215    -3226    -3233 
   -3233    -3231    -3230    -3229    -3227    -3225    -3222    -3221 
   -3215    -3207    -3199    -3196    -3195    -3198    -3206    -3218 
   -3233    -3249    -3260    -3262    -3260    -3260    -3256    -3248 
   -3237    -3223    -3213    -3206    -3203    -3200    -3204    -3211 
   -3217    -3226    -3231    -3230    -3226    -3217    -3203    -3194 
   -3186    -3179    -3179    -3186    -3195    -3202    -3208    -3215 
   -3218    -3219    -3217    -3208    -3199    -3192    -3186    -3177 
   -3168    -3157    -3146    -3140    -3134    -3129    -3125    -3126 
   -3129    -3134    -3140    -3145    -3148    -3148    -3144    -3133 
   -3119    -3105    -3091    -3083    -3084    -3087    -3095    -3107 
   -3115    -3129    -3149    -3167    -3181    -3194    -3198    -3195 
   -3192    -3186    -3172    -3163    -3164    -3173    -3190    -3208 
   -3229    -3248    -3261    -3272    -3277    -3276    -3271    -3264 
   -3256    -3249    -3242    -3238    -3237    -3241    -3248    -3257 
   -3265    -3269    -3268    -3261    -3252    -3240    -3230    -3223 
   -3217    -3214    -3217    -3221    -3229    -3235    -3238    -3240 
   -3231    -3219    -3213    -3206    -3196    -3188    -3184    -3183 
   -3187    -3195    -3204    -3214    -3225    -3234    -3235    -3231 
   -3223    -3214    -3204    -3191    -3184    -3190    -3198    -3207 
   -3223    -3238    -3250    -3258    -3262    -3264    -3260    -3250 
   -3242    -3237    -3231    -3230    -3233    -3237    -3244    -3250 
   -3256    -3257    -3254    -3252    -3248    -3238    -3229    -3223 
   -3218    -3210    -3207    -3203    -3198    -3198    -3200    -3200 
   -3199    -3198    -3195    -3192    -3199    -3207    -3214    -3222 
   -3225    -3221    -3213    -3206    -3196    -3188    -3183    -3184 
   -3188    -3194    -3204    -3214    -3222    -3233    -3245    -3249 
   -3250    -3253    -3249    -3238    -3227    -3213    -3199    -3192 
   -3187    -3187    -3196    -3215    -3234    -3250    -3262    -3264 
   -3260    -3250    -3235    -3218    -3206    -3195    -3183    -3175 
   -3175    -3183    -3195    -3211    -3229    -3245    -3260    -3264 
   -3254    -3240    -3226    -3217    -3206    -3196    -3192    -3194 
   -3198    -3207    -3217    -3222    -3227    -3233    -3237    -3235 
   -3231    -3229    -3227    -3221    -3213    -3206    -3200    -3198 
   -3203    -3207    -3211    -3219    -3225    -3226    -3225    -3225 
   -3227    -3230    -3229    -3223    -3219    -3217    -3214    -3211 
   -3207    -3204    -3206    -3213    -3223    -3231    -3237    -3242 
   -3245    -3244    -3244    -3238    -3233    -3230    -3227    -3225 
   -3221    -3219    -3214    -3211    -3218    -3226    -3233    -3242 
   -3249    -3253    -3256    -3256    -3254    -3250    -3237    -3221 
   -3208    -3195    -3183    -3175    -3173    -3175    -3179    -3192 
   -3206    -3214    -3221    -3222    -3218    -3207    -3190    -3171 
   -3152    -3138    -3133    -3137    -3145    -3156    -3169    -3184 
   -3196    -3204    -3204    -3196    -3192    -3187    -3179    -3176 
   -3179    -3177    -3175    -3177    -3179    -3177    -3177    -3177 
   -3173    -3171    -3167    -3163    -3160    -3164    -3171    -3179 
   -3184    -3187    -3190    -3190    -3187    -3184    -3181    -3180 
