Origin Time       2025/01/13 21:19:00
Lat.              31.8
Long.             131.6
Depth. (km)       30
Mag.              6.9
Station Code      NARH03
Station Lat.      34.2925
Station Long.     136.0022
Station Height(m) 257
Record Time       2025/01/13 21:22:19
Sampling Freq(Hz) 100Hz
Duration Time(s)  120
Dir.              3
Scale Factor      2942(gal)/8224139
Max. Acc. (gal)   0.124
Last Correction   2025/01/13 21:22:21
Memo.             
[...]
  103951   103954   103956   103960   103970   103971   103967   103978 
  103987   103982   103975   103978   103982   103979   103972   103972 
  103970   103967   103963   103958   103955   103950   103944   103947 
  103941   103927   103920   103914   103908   103901   103893   103885 
  103879   103873   103867   103864   103862   103858   103858   103854 
  103848   103851   103847   103840   103839   103832   103833   103840 
  103835   103825   103825   103827   103821   103816   103820   103823 
  103820   103816   103819   103825   103831   103833   103836   103846 
  103852   103851   103852   103863   103870   103875   103881   103886 
  103894   103908   103910   103912   103924   103931   103940   103954 
  103952   103950   103962   103968   103971   103979   103983   103986 
  103987   103991   103998   104004   104005   103998   103994   103990 
  103983   103987   103985   103972   103971   103967   103960   103959 
  103959   103955   103944   103939   103947   103941   103929   103931 
  103931   103920   103913   103912   103906   103908   103910   103897 
  103891   103897   103898   103896   103897   103894   103883   103879 
  103886   103882   103882   103891   103891   103893   103905   103912 
  103910   103917   103924   103925   103929   103932   103929   103932 
  103935   103929   103923   103924   103925   103923   103921   103921 
  103916   103918   103933   103944   103945   103950   103958   103962 
  103959   103963   103966   103960   103962   103960   103951   103954 
  103954   103941   103935   103925   103916   103916   103916   103906 
  103901   103897   103885   103873   103871   103871   103866   103862 
  103862   103860   103863   103864   103863   103863   103871   103877 
  103875   103877   103882   103881   103879   103887   103890   103894 
  103896   103890   103898   103912   103910   103917   103929   103929 
  103933   103943   103947   103954   103956   103955   103954   103954 
  103960   103967   103964   103963   103964   103967   103971   103977 
  103979   103982   103981   103983   103989   103987   103986   103983 
  103982   103986   103989   103986   103982   103975   103975   103972 
  103971   103977   103975   103968   103970   103971   103967   103963 
  103962   103962   103964   103962   103947   103931   103927   103929 
  103923   103916   103921   103925   103920   103916   103914   103914 
  103913   103913   103914   103909   103900   103897   103896   103887 
  103886   103886   103881   103879   103881   103877   103879   103879 
  103871   103869   103874   103877   103871   103862   103855   103855 
  103858   103854   103844   103835   103828   103825   103817   103810 
  103805   103800   103800   103797   103788   103786   103793   103793 
  103794   103806   103808   103805   103816   103827   103833   103844 
  103848   103854   103864   103877   103885   103894   103904   103917 
  103933   103940   103945   103963   103981   103995   104009   104022 
  104045   104063   104068   104082   104095   104105   104121   104137 
  104144   104155   104167   104179   104199   104213   104210   104213 
  104225   104233   104236   104232   104229   104236   104230   104218 
  104215   104211   104197   104187   104182   104170   104155   104143 
  104134   104125   104103   104093   104091   104074   104060   104058 
  104043   104028   104028   104021   104008   104002   103998   103995 
  103991   103974   103967   103971   103956   103940   103936   103931 
  103929   103917   103900   103900   103901   103885   103878   103875 
  103862   103859   103862   103848   103840   103846   103848   103846 
  103844   103840   103842   103852   103852   103851   103860   103863 
  103864   103878   103887   103891   103896   103900   103910   103917 
  103914   103917   103931   103933   103931   103933   103935   103929 
  103923   103917   103913   103908   103906   103898   103885   103875 
  103859   103848   103846   103832   103815   103808   103796   103779 
  103771   103765   103756   103747   103738   103736   103729   103721 
  103721   103717   103711   103717   103720   103716   103719   103725 
  103727   103725   103731   103735   103738   103744   103751   103752 
  103756   103765   103771   103775   103782   103793   103802   103808 
  103821   103840   103846   103848   103862   103867   103874   103885 
  103882   103887   103901   103905   103916   103925   103924   103935 
  103948   103954   103967   103985   103991   104002   104014   104021 
  104024   104025   104028   104031   104031   104029   104031   104032 
  104029   104021   104020   104022   104018   104012   104006   104004 
  104002   103995   103991   103981   103970   103975   103968   103951 
  103950   103951   103935   103928   103931   103923   103914   103909 
  103897   103894   103893   103889   103883   103875   103877   103886 
  103889   103890   103894   103894   103896   103902   103902   103897 
  103905   103917   103920   103921   103925   103928   103932   103940 
  103947   103944   103944   103951   103954   103954   103958   103958 
  103955   103956   103955   103952   103956   103958   103954   103954 
  103955   103952   103951   103956   103954   103950   103952   103954 
  103952   103950   103950   103954   103948   103941   103940   103939 
  103943   103941   103933   103932   103933   103931   103928   103921 
  103918   103924   103928   103925   103921   103916   103914   103921 
  103921   103910   103910   103917   103920   103917   103910   103908 
  103906   103900   103898   103898   103890   103885   103885   103882 
  103874   103870   103870   103870   103870   103867   103870   103873 
  103869   103870   103877   103881   103885   103893   103900   103902 
  103908   103913   103918   103928   103936   103941   103948   103956 
  103963   103963   103966   103979   103994   103999   104002   104012 
  104024   104032   104040   104047   104053   104066   104076   104079 
  104087   104101   104109   104118   104132   104139   104143   104149 
  104157   104163   104167   104174   104180   104186   104188   104198 
  104214   104215   104220   104232   104234   104236   104240   104241 
  104248   104253   104247   104241   104242   104238   104234   104228 
  104222   104222   104221   104217   104213   104203   104193   104188 
  104180   104164   104151   104143   104130   104113   104094   104079 
  104066   104045   104031   104017   103997   103978   103968   103954 
  103933   103913   103894   103877   103864   103852   103837   103820 
  103808   103805   103798   103788   103782   103775   103767   103766 
  103762   103756   103756   103756   103756   103756   103754   103755 
  103759   103758   103761   103765   103765   103766   103769   103765 
  103766   103769   103756   103752   103762   103759   103751   103748 
  103747   103742   103731   103725   103721   103711   103709   103701 
  103685   103681   103677   103667   103665   103657   103647   103650 
  103654   103661   103666   103666   103671   103677   103685   103701 
  103711   103711   103721   103731   103739   103752   103770   103783 
  103792   103801   103816   103825   103840   103859   103863   103867 
  103882   103889   103891   103902   103905   103904   103912   103917 
  103916   103918   103923   103927   103931   103929   103925   103928 
  103931   103929   103928   103935   103935   103927   103931   103939 
  103937   103941   103950   103952   103959   103974   103982   103986 
  103999   104017   104029   104037   104041   104051   104066   104072 
  104076   104086   104102   104110   104112   104117   104121   104125 
  104133   104134   104136   104145   104151   104153   104159   104163 
  104159   104152   104153   104155   104149   104149   104149   104133 
  104120   104121   104116   104094   104082   104076   104060   104044 
  104035   104020   104005   103994   103981   103960   103947   103940 
  103925   103914   103905   103889   103878   103873   103863   103855 
  103848   103843   103836   103831   103831   103832   103831   103833 
  103833   103832   103837   103848   103851   103847   103851   103855 
  103851   103859   103873   103867   103863   103870   103875   103877 
  103879   103885   103886   103891   103900   103897   103898   103912 
  103914   103913   103917   103917   103914   103917   103917   103920 
  103918   103906   103904   103908   103904   103902   103898   103886 
  103886   103889   103881   103877   103874   103869   103870   103866 
  103859   103858   103858   103855   103852   103850   103851   103852 
  103858   103856   103848   103852   103866   103871   103874   103882 
  103893   103905   103910   103909   103918   103935   103944   103947 
  103959   103968   103967   103975   103986   103990   103993   103999 
  104008   104014   104012   104016   104025   104025   104026   104031 
  104036   104041   104047   104056   104056   104053   104063   104066 
  104056   104058   104060   104056   104052   104053   104055   104049 
  104037   104031   104025   104014   104001   103990   103982   103968 
  103962   103959   103941   103927   103918   103906   103904   103897 
  103879   103874   103875   103870   103866   103867   103859   103858 
  103863   103856   103851   103855   103850   103856   103867   103863 
  103870   103875   103870   103874   103881   103886   103896   103902 
  103908   103921   103931   103937   103947   103956   103963   103975 
  103986   103991   103995   104005   104014   104021   104029   104032 
  104035   104045   104044   104043   104051   104051   104047   104048 
  104049   104049   104052   104047   104040   104041   104044   104035 
  104025   104024   104024   104022   104017   104009   104005   104006 
  104002   103993   103982   103981   103978   103977   103977   103967 
  103964   103972   103968   103959   103964   103967   103960   103959 
  103967   103970   103970   103977   103968   103962   103974   103977 
  103963   103960   103967   103967   103962   103959   103959   103963 
  103959   103952   103958   103964   103960   103963   103970   103971 
  103977   103983   103987   103997   104005   104005   104006   104012 
  104013   104014   104017   104020   104018   104013   104017   104022 
  104018   104012   104016   104016   104012   104009   104006   104006 
  104006   104002   103999   103994   103993   103985   103971   103968 
  103964   103951   103937   103928   103920   103909   103891   103874 
  103866   103859   103846   103832   103821   103813   103798   103785 
  103779   103773   103762   103759   103755   103739   103729   103731 
  103723   103708   103701   103696   103690   103688   103678   103665 
  103659   103659   103659   103659   103657   103657   103661   103666 
  103675   103689   103694   103702   103716   103729   103739   103754 
  103775   103789   103798   103820   103836   103843   103855   103871 
  103883   103902   103920   103929   103941   103959   103968   103982 
  103994   103999   104010   104020   104022   104032   104032   104029 
  104039   104044   104049   104052   104044   104043   104049   104047 
  104043   104041   104040   104035   104026   104020   104017   104014 
  104010   104008   104004   104001   104005   104008   104004   103995 
  103995   103997   103990   103989   103994   103990   103986   103991 
  103994   103993   103990   103993   103991   103985   103989   103989 
  103982   103981   103979   103974   103974   103974   103966   103959 
  103958   103954   103959   103958   103948   103947   103950   103952 
  103952   103947   103948   103955   103952   103954   103966   103971 
  103974   103975   103979   103989   103994   103994   104008   104021 
  104025   104037   104058   104075   104082   104087   104109   104126 
  104130   104144   104157   104170   104186   104191   104194   104206 
  104218   104226   104232   104236   104241   104248   104249   104252 
  104255   104249   104240   104238   104238   104234   104229   104220 
  104213   104209   104201   104191   104188   104182   104170   104160 
  104147   104134   104124   104106   104085   104066   104053   104032 
  104006   103995   103982   103955   103937   103918   103889   103870 
  103854   103831   103812   103793   103774   103755   103739   103727 
  103713   103700   103696   103685   103666   103662   103661   103650 
  103643   103639   103631   103628   103631   103627   103624   103631 
  103635   103634   103635   103647   103655   103655   103661   103675 
  103678   103682   103696   103702   103702   103712   103719   103721 
  103731   103738   103744   103758   103769   103778   103792   103802 
  103815   103825   103835   103850   103855   103856   103875   103891 
  103889   103898   103917   103921   103929   103943   103948   103952 
  103963   103968   103970   103974   103978   103983   103989   103991 
  103991   103983   103982   103986   103982   103975   103967   103963 
  103963   103958   103951   103950   103944   103937   103936   103933 
  103920   103906   103909   103912   103896   103882   103882   103879 
  103870   103866   103864   103858   103851   103848   103848   103850 
  103850   103848   103850   103848   103851   103860   103863   103864 
  103874   103881   103885   103893   103902   103916   103924   103931 
  103947   103955   103960   103981   103995   104005   104022   104039 
  104049   104063   104083   104101   104112   104128   104148   104160 
  104166   104180   104202   104215   104220   104232   104245   104248 
  104261   104271   104265   104271   104276   104272   104276   104274 
  104268   104274   104274   104265   104265   104259   104256   104257 
  104248   104234   104229   104228   104220   104207   104202   104193 
  104176   104164   104151   104136   104125   104110   104097   104087 
  104074   104063   104058   104043   104022   104010   104005   103991 
  103981   103977   103963   103945   103937   103931   103918   103909 
  103900   103891   103881   103867   103856   103847   103837   103828 
  103817   103810   103798   103790   103786   103775   103767   103763 
  103761   103756   103751   103750   103754   103750   103748   103752 
  103750   103755   103763   103758   103763   103778   103782   103788 
  103796   103801   103812   103829   103843   103848   103855   103862 
  103871   103885   103896   103901   103909   103916   103921   103929 
  103937   103944   103948   103950   103950   103958   103964   103958 
  103951   103956   103956   103943   103941   103947   103937   103924 
  103918   103916   103916   103910   103896   103891   103891   103881 
  103870   103867   103862   103860   103860   103851   103836   103829 
  103824   103817   103812   103809   103810   103800   103782   103781 
  103782   103771   103765   103761   103755   103748   103739   103734 
  103727   103717   103716   103711   103701   103700   103698   103692 
  103682   103681   103682   103682   103684   103682   103678   103680 
  103686   103694   103701   103709   103717   103723   103731   103742 
  103758   103766   103770   103786   103801   103801   103810   103825 
  103829   103840   103852   103855   103859   103869   103874   103882 
  103889   103889   103894   103901   103901   103904   103910   103910 
  103910   103918   103920   103914   103917   103921   103912   103909 
  103914   103910   103904   103905   103904   103898   103891   103893 
  103897   103894   103889   103890   103894   103893   103897   103906 
  103909   103912   103917   103914   103918   103932   103939   103939 
  103941   103944   103951   103955   103964   103978   103982   103983 
  103995   104008   104016   104026   104037   104045   104052   104059 
  104071   104078   104083   104090   104094   104099   104106   104106 
  104105   104113   104121   104120   104121   104124   104125   104125 
  104124   104124   104122   104121   104124   104124   104121   104113 
  104109   104112   104109   104103   104097   104087   104080   104074 
  104070   104066   104059   104059   104056   104039   104032   104037 
  104035   104025   104022   104021   104018   104010   104002   104004 
  104008   104004   103999   103994   103993   103997   103995   103991 
  103994   103991   103989   103990   103990   103989   103985   103978 
  103967   103966   103974   103970   103959   103963   103966   103960 
  103958   103959   103963   103966   103964   103963   103966   103970 
  103970   103963   103962   103967   103966   103962   103964   103966 
  103964   103959   103962   103963   103954   103952   103952   103941 
  103932   103925   103918   103910   103900   103889   103878   103864 
  103851   103842   103839   103831   103815   103806   103802   103786 
  103778   103778   103770   103763   103761   103754   103748   103752 
  103754   103751   103754   103758   103761   103766   103766   103766 
  103767   103770   103775   103783   103782   103782   103793   103794 
  103789   103797   103804   103800   103801   103809   103808   103804 
  103806   103809   103813   103813   103813   103819   103816   103815 
  103816   103816   103817   103815   103815   103820   103816   103817 
  103820   103815   103820   103824   103820   103819   103819   103815 
  103816   103819   103819   103820   103813   103804   103806   103812 
  103810   103805   103802   103804   103797   103794   103794   103790 
  103790   103793   103792   103788   103788   103792   103789   103782 
  103786   103790   103789   103789   103793   103801   103800   103804 
  103821   103828   103823   103833   103846   103856   103866   103873 
  103883   103900   103906   103914   103929   103941   103954   103964 
  103968   103975   103985   103990   103995   104001   103999   103998 
  104004   104010   104006   104001   104004   104005   104004   104004 
  104005   104008   104009   104008   104014   104024   104022   104021 
  104028   104032   104036   104040   104041   104044   104051   104056 
  104063   104063   104059   104067   104071   104066   104071   104079 
  104079   104080   104089   104097   104095   104097   104102   104106 
  104107   104110   104110   104112   104118   104121   104117   104121 
  104124   104122   104122   104121   104116   104109   104110   104110 
  104098   104094   104093   104078   104072   104074   104062   104047 
  104044   104036   104024   104020   104014   103999   103990   103983 
  103971   103963   103958   103950   103940   103933   103929   103916 
  103893   103883   103886   103878   103860   103852   103848   103837 
  103835   103833   103819   103812   103817   103812   103805   103808 
  103809   103805   103806   103806   103806   103817   103820   103813 
  103819   103827   103821   103827   103839   103837   103835   103839 
  103846   103854   103856   103850   103848   103854   103852   103846 
  103848   103844   103832   103833   103835   103827   103817   103809 
  103808   103801   103793   103792   103781   103771   103773   103765 
  103756   103758   103751   103744   103746   103739   103732   103734 
  103734   103731   103724   103715   103717   103720   103717   103720 
  103724   103725   103728   103732   103743   103752   103759   103766 
  103771   103782   103801   103809   103810   103819   103832   103840 
  103846   103856   103867   103881   103883   103886   103906   103920 
  103917   103925   103937   103943   103945   103944   103950   103959 
