Origin Time       2025/01/13 21:19:00
Lat.              31.8
Long.             131.6
Depth. (km)       30
Mag.              6.9
Station Code      NARH05
Station Lat.      34.4237
Station Long.     136.0294
Station Height(m) 289
Record Time       2025/01/13 21:22:11
Sampling Freq(Hz) 100Hz
Duration Time(s)  120
Dir.              1
Scale Factor      2942(gal)/8224139
Max. Acc. (gal)   0.200
Last Correction   2025/01/13 21:22:12
Memo.             
[...]
 -152597  -152595  -152597  -152598  -152601  -152595  -152587  -152582 
 -152581  -152586  -152594  -152595  -152597  -152605  -152612  -152614 
 -152614  -152613  -152617  -152622  -152628  -152631  -152632  -152633 
 -152633  -152637  -152639  -152636  -152635  -152639  -152640  -152637 
 -152637  -152636  -152632  -152631  -152632  -152632  -152629  -152628 
 -152624  -152621  -152613  -152606  -152602  -152595  -152586  -152581 
 -152578  -152577  -152572  -152564  -152558  -152551  -152545  -152539 
 -152536  -152535  -152531  -152525  -152527  -152528  -152528  -152528 
 -152528  -152531  -152535  -152535  -152533  -152535  -152536  -152539 
 -152541  -152543  -152541  -152545  -152551  -152555  -152559  -152563 
 -152563  -152564  -152567  -152571  -152575  -152582  -152586  -152589 
 -152590  -152587  -152591  -152601  -152605  -152609  -152614  -152618 
 -152620  -152622  -152624  -152621  -152617  -152618  -152622  -152625 
 -152626  -152628  -152628  -152626  -152626  -152629  -152635  -152637 
 -152637  -152635  -152631  -152629  -152629  -152629  -152628  -152625 
 -152622  -152617  -152609  -152601  -152595  -152593  -152593  -152597 
 -152601  -152599  -152591  -152587  -152589  -152590  -152589  -152586 
 -152578  -152572  -152572  -152568  -152564  -152560  -152558  -152560 
 -152566  -152567  -152568  -152567  -152563  -152560  -152563  -152567 
 -152574  -152581  -152583  -152583  -152581  -152571  -152567  -152568 
 -152566  -152564  -152562  -152556  -152551  -152545  -152544  -152544 
 -152540  -152535  -152533  -152531  -152529  -152527  -152520  -152513 
 -152508  -152500  -152491  -152487  -152483  -152479  -152478  -152475 
 -152470  -152467  -152466  -152459  -152454  -152448  -152442  -152442 
 -152450  -152452  -152451  -152455  -152462  -152466  -152466  -152466 
 -152469  -152471  -152474  -152478  -152482  -152483  -152485  -152489 
 -152490  -152490  -152491  -152491  -152490  -152490  -152491  -152491 
 -152486  -152482  -152481  -152478  -152473  -152474  -152477  -152478 
 -152483  -152489  -152490  -152491  -152493  -152494  -152500  -152505 
 -152506  -152504  -152501  -152497  -152493  -152491  -152494  -152496 
 -152493  -152489  -152485  -152483  -152485  -152486  -152486  -152490 
 -152494  -152497  -152502  -152502  -152498  -152496  -152496  -152497 
 -152500  -152502  -152502  -152505  -152509  -152512  -152514  -152521 
 -152525  -152531  -152536  -152535  -152536  -152540  -152541  -152541 
 -152547  -152551  -152555  -152560  -152567  -152570  -152571  -152571 
 -152568  -152563  -152562  -152564  -152564  -152567  -152570  -152571 
 -152571  -152574  -152581  -152587  -152589  -152587  -152587  -152587 
 -152585  -152586  -152585  -152582  -152583  -152583  -152585  -152585 
 -152579  -152571  -152566  -152558  -152550  -152547  -152545  -152540 
 -152535  -152529  -152529  -152533  -152535  -152532  -152529  -152528 
 -152529  -152535  -152533  -152528  -152527  -152525  -152525  -152529 
 -152533  -152532  -152533  -152536  -152536  -152536  -152536  -152536 
 -152537  -152539  -152543  -152545  -152548  -152552  -152558  -152563 
 -152570  -152575  -152578  -152585  -152589  -152589  -152586  -152587 
 -152587  -152589  -152590  -152593  -152593  -152591  -152594  -152595 
 -152594  -152591  -152589  -152589  -152589  -152589  -152591  -152590 
 -152586  -152583  -152585  -152586  -152587  -152589  -152589  -152590 
 -152593  -152594  -152593  -152591  -152585  -152582  -152582  -152578 
 -152571  -152566  -152566  -152568  -152567  -152566  -152567  -152567 
 -152567  -152567  -152564  -152560  -152560  -152566  -152566  -152563 
 -152566  -152570  -152568  -152566  -152564  -152563  -152560  -152556 
 -152554  -152550  -152545  -152540  -152536  -152535  -152528  -152521 
 -152517  -152514  -152509  -152506  -152506  -152505  -152500  -152498 
 -152498  -152497  -152493  -152487  -152482  -152473  -152464  -152470 
 -152475  -152477  -152485  -152491  -152494  -152500  -152506  -152514 
 -152520  -152521  -152521  -152523  -152528  -152536  -152541  -152547 
 -152556  -152562  -152566  -152572  -152577  -152579  -152585  -152590 
 -152591  -152594  -152598  -152601  -152604  -152608  -152612  -152617 
 -152624  -152626  -152629  -152632  -152633  -152633  -152632  -152629 
 -152629  -152632  -152631  -152626  -152625  -152621  -152617  -152614 
 -152614  -152617  -152620  -152621  -152618  -152613  -152608  -152605 
 -152602  -152601  -152604  -152604  -152601  -152601  -152604  -152601 
 -152597  -152594  -152591  -152587  -152585  -152583  -152581  -152581 
 -152578  -152574  -152574  -152574  -152571  -152568  -152566  -152563 
 -152564  -152567  -152570  -152577  -152582  -152581  -152578  -152579 
 -152579  -152577  -152572  -152566  -152560  -152559  -152560  -152560 
 -152558  -152554  -152550  -152545  -152537  -152531  -152528  -152527 
 -152525  -152521  -152514  -152508  -152502  -152502  -152500  -152497 
 -152494  -152496  -152496  -152496  -152494  -152491  -152489  -152490 
 -152493  -152496  -152496  -152497  -152501  -152506  -152513  -152520 
 -152527  -152531  -152532  -152532  -152536  -152543  -152544  -152544 
 -152543  -152544  -152547  -152545  -152547  -152552  -152551  -152548 
 -152548  -152547  -152545  -152544  -152539  -152539  -152537  -152535 
 -152532  -152529  -152524  -152516  -152513  -152516  -152521  -152527 
 -152528  -152524  -152521  -152520  -152517  -152520  -152525  -152527 
 -152527  -152527  -152533  -152540  -152544  -152551  -152560  -152562 
 -152564  -152571  -152578  -152582  -152586  -152593  -152599  -152606 
 -152612  -152614  -152614  -152614  -152620  -152626  -152631  -152635 
 -152641  -152645  -152649  -152658  -152664  -152668  -152676  -152683 
 -152685  -152691  -152698  -152702  -152709  -152712  -152710  -152714 
 -152724  -152726  -152726  -152728  -152730  -152733  -152734  -152736 
 -152737  -152739  -152739  -152736  -152733  -152734  -152732  -152725 
 -152717  -152710  -152706  -152701  -152691  -152683  -152676  -152666 
 -152651  -152639  -152626  -152612  -152601  -152593  -152583  -152571 
 -152560  -152554  -152550  -152547  -152540  -152535  -152528  -152521 
 -152514  -152510  -152506  -152506  -152504  -152498  -152493  -152487 
 -152481  -152475  -152474  -152470  -152466  -152466  -152463  -152459 
 -152460  -152460  -152459  -152463  -152470  -152477  -152482  -152487 
 -152491  -152496  -152500  -152504  -152509  -152512  -152518  -152525 
 -152531  -152539  -152543  -152544  -152547  -152551  -152554  -152556 
 -152560  -152564  -152567  -152571  -152572  -152574  -152575  -152577 
 -152575  -152575  -152578  -152586  -152587  -152585  -152585  -152582 
 -152578  -152571  -152564  -152558  -152552  -152552  -152554  -152548 
 -152540  -152532  -152528  -152524  -152520  -152514  -152512  -152510 
 -152509  -152508  -152505  -152504  -152510  -152517  -152516  -152516 
 -152517  -152516  -152517  -152520  -152524  -152529  -152532  -152532 
 -152533  -152540  -152544  -152547  -152548  -152547  -152543  -152541 
 -152545  -152550  -152548  -152550  -152551  -152552  -152552  -152548 
 -152545  -152547  -152544  -152543  -152543  -152540  -152535  -152537 
 -152541  -152543  -152545  -152548  -152550  -152551  -152551  -152552 
 -152552  -152554  -152559  -152568  -152572  -152578  -152585  -152589 
 -152595  -152606  -152616  -152624  -152629  -152632  -152633  -152637 
 -152645  -152658  -152663  -152667  -152675  -152685  -152689  -152694 
 -152695  -152693  -152691  -152694  -152693  -152686  -152682  -152685 
 -152685  -152686  -152690  -152693  -152691  -152691  -152691  -152694 
 -152690  -152687  -152687  -152686  -152685  -152680  -152676  -152672 
 -152671  -152668  -152666  -152666  -152668  -152667  -152664  -152658 
 -152649  -152643  -152637  -152631  -152628  -152625  -152620  -152613 
 -152602  -152594  -152590  -152589  -152582  -152571  -152562  -152554 
 -152545  -152541  -152535  -152524  -152518  -152516  -152508  -152501 
 -152494  -152483  -152474  -152469  -152460  -152450  -152446  -152442 
 -152437  -152436  -152433  -152429  -152424  -152421  -152421  -152419 
 -152415  -152413  -152415  -152416  -152415  -152413  -152409  -152408 
 -152410  -152413  -152412  -152416  -152420  -152420  -152425  -152427 
 -152425  -152428  -152432  -152433  -152435  -152437  -152442  -152448 
 -152454  -152458  -152462  -152467  -152471  -152478  -152485  -152489 
 -152493  -152498  -152504  -152512  -152518  -152521  -152525  -152533 
 -152541  -152544  -152543  -152540  -152541  -152548  -152555  -152562 
 -152566  -152571  -152578  -152582  -152581  -152579  -152581  -152583 
 -152589  -152593  -152597  -152604  -152608  -152612  -152616  -152614 
 -152617  -152621  -152620  -152624  -152628  -152629  -152636  -152644 
 -152647  -152652  -152659  -152662  -152667  -152672  -152672  -152671 
 -152671  -152671  -152670  -152667  -152670  -152671  -152670  -152671 
 -152672  -152672  -152674  -152674  -152671  -152667  -152663  -152662 
 -152664  -152666  -152668  -152670  -152667  -152667  -152671  -152672 
 -152672  -152675  -152675  -152676  -152679  -152680  -152680  -152683 
 -152685  -152685  -152686  -152687  -152689  -152689  -152690  -152691 
 -152694  -152697  -152697  -152695  -152695  -152695  -152698  -152698 
 -152693  -152689  -152685  -152679  -152676  -152675  -152672  -152672 
 -152668  -152664  -152660  -152660  -152659  -152653  -152643  -152636 
 -152635  -152635  -152631  -152626  -152626  -152625  -152624  -152625 
 -152625  -152621  -152621  -152620  -152612  -152604  -152595  -152591 
 -152590  -152583  -152577  -152577  -152578  -152577  -152574  -152570 
 -152570  -152571  -152577  -152578  -152575  -152578  -152582  -152586 
 -152587  -152585  -152582  -152585  -152589  -152591  -152594  -152598 
 -152602  -152606  -152609  -152610  -152610  -152610  -152614  -152618 
 -152622  -152624  -152618  -152617  -152621  -152618  -152612  -152609 
 -152610  -152610  -152610  -152612  -152610  -152606  -152602  -152599 
 -152594  -152589  -152589  -152589  -152589  -152590  -152591  -152589 
 -152586  -152585  -152582  -152578  -152575  -152570  -152567  -152570 
 -152568  -152562  -152555  -152548  -152543  -152540  -152536  -152532 
 -152529  -152529  -152531  -152532  -152533  -152532  -152528  -152525 
 -152525  -152525  -152520  -152516  -152513  -152513  -152514  -152513 
 -152509  -152506  -152506  -152505  -152504  -152502  -152497  -152491 
 -152489  -152485  -152478  -152473  -152469  -152463  -152458  -152452 
 -152448  -152446  -152437  -152428  -152424  -152421  -152415  -152409 
 -152405  -152400  -152394  -152392  -152390  -152389  -152386  -152385 
 -152388  -152392  -152390  -152389  -152388  -152386  -152388  -152389 
 -152389  -152386  -152383  -152385  -152393  -152396  -152398  -152405 
 -152412  -152416  -152420  -152427  -152433  -152436  -152440  -152444 
 -152450  -152456  -152464  -152469  -152473  -152474  -152475  -152485 
 -152494  -152498  -152501  -152506  -152512  -152517  -152523  -152525 
 -152525  -152528  -152532  -152537  -152543  -152544  -152547  -152558 
 -152568  -152572  -152578  -152586  -152594  -152605  -152617  -152631 
 -152644  -152655  -152666  -152680  -152694  -152706  -152717  -152730 
 -152748  -152761  -152774  -152791  -152807  -152820  -152832  -152847 
 -152860  -152876  -152891  -152903  -152915  -152928  -152938  -152948 
 -152960  -152971  -152977  -152982  -152988  -152996  -153002  -153006 
 -153011  -153018  -153022  -153022  -153021  -153022  -153022  -153021 
 -153021  -153018  -153015  -153014  -153011  -153009  -153010  -153006 
 -152999  -152999  -153000  -152998  -152991  -152986  -152982  -152975 
 -152967  -152960  -152952  -152945  -152937  -152930  -152922  -152914 
 -152906  -152896  -152883  -152868  -152857  -152848  -152836  -152826 
 -152818  -152805  -152790  -152782  -152774  -152760  -152747  -152734 
 -152721  -152713  -152713  -152705  -152691  -152680  -152674  -152668 
 -152664  -152659  -152648  -152640  -152636  -152633  -152628  -152624 
 -152618  -152610  -152608  -152606  -152599  -152589  -152579  -152568 
 -152559  -152550  -152536  -152524  -152516  -152509  -152501  -152490 
 -152478  -152463  -152454  -152447  -152435  -152423  -152412  -152397 
 -152382  -152371  -152361  -152351  -152342  -152332  -152323  -152312 
 -152298  -152289  -152282  -152274  -152266  -152255  -152247  -152240 
 -152230  -152220  -152219  -152215  -152212  -152212  -152209  -152208 
 -152207  -152205  -152205  -152205  -152200  -152199  -152197  -152190 
 -152186  -152186  -152181  -152177  -152178  -152181  -152181  -152178 
 -152180  -152182  -152182  -152185  -152190  -152194  -152196  -152199 
 -152203  -152205  -152207  -152209  -152215  -152220  -152221  -152227 
 -152231  -152236  -152242  -152244  -152247  -152251  -152257  -152269 
 -152274  -152278  -152288  -152296  -152300  -152305  -152313  -152319 
 -152328  -152342  -152350  -152359  -152369  -152378  -152388  -152398 
 -152408  -152417  -152429  -152439  -152448  -152463  -152478  -152491 
 -152505  -152517  -152529  -152545  -152566  -152579  -152591  -152609 
 -152624  -152637  -152652  -152666  -152683  -152699  -152712  -152724 
 -152740  -152756  -152772  -152788  -152805  -152821  -152840  -152856 
 -152872  -152891  -152909  -152926  -152948  -152968  -152983  -152995 
 -153006  -153018  -153029  -153038  -153050  -153065  -153076  -153085 
 -153095  -153103  -153111  -153118  -153123  -153125  -153125  -153125 
 -153126  -153125  -153118  -153115  -153114  -153112  -153111  -153107 
 -153100  -153095  -153087  -153079  -153072  -153060  -153046  -153036 
 -153022  -153009  -153000  -152991  -152979  -152967  -152956  -152944 
 -152932  -152919  -152906  -152891  -152878  -152865  -152855  -152844 
 -152833  -152822  -152809  -152794  -152780  -152766  -152748  -152732 
 -152713  -152695  -152682  -152666  -152644  -152624  -152608  -152589 
 -152567  -152554  -152536  -152518  -152502  -152485  -152466  -152447 
 -152431  -152416  -152401  -152386  -152373  -152356  -152340  -152331 
 -152321  -152308  -152297  -152288  -152280  -152271  -152262  -152258 
 -152257  -152254  -152255  -152259  -152259  -152258  -152259  -152265 
 -152269  -152271  -152280  -152290  -152300  -152309  -152317  -152324 
 -152329  -152335  -152342  -152350  -152359  -152367  -152374  -152379 
 -152388  -152394  -152400  -152405  -152410  -152416  -152423  -152428 
 -152433  -152439  -152443  -152450  -152456  -152455  -152455  -152459 
 -152459  -152462  -152471  -152475  -152478  -152482  -152485  -152487 
 -152489  -152493  -152497  -152497  -152496  -152498  -152500  -152501 
 -152501  -152500  -152497  -152494  -152491  -152490  -152490  -152487 
 -152483  -152482  -152482  -152479  -152479  -152483  -152485  -152485 
 -152485  -152487  -152490  -152489  -152489  -152491  -152493  -152496 
 -152498  -152498  -152497  -152494  -152496  -152498  -152500  -152502 
 -152506  -152506  -152508  -152513  -152518  -152523  -152525  -152529 
 -152533  -152536  -152540  -152547  -152550  -152551  -152558  -152566 
 -152571  -152582  -152589  -152595  -152604  -152608  -152612  -152618 
 -152626  -152637  -152648  -152656  -152666  -152672  -152674  -152682 
 -152693  -152697  -152699  -152706  -152713  -152720  -152726  -152730 
 -152732  -152729  -152730  -152732  -152732  -152729  -152725  -152717 
 -152713  -152713  -152707  -152697  -152689  -152686  -152679  -152670 
 -152663  -152658  -152649  -152640  -152629  -152617  -152609  -152605 
 -152598  -152590  -152585  -152577  -152567  -152560  -152551  -152543 
 -152537  -152531  -152524  -152516  -152508  -152500  -152491  -152485 
 -152478  -152473  -152467  -152463  -152459  -152455  -152450  -152447 
 -152444  -152442  -152443  -152446  -152450  -152456  -152462  -152469 
 -152475  -152479  -152481  -152485  -152491  -152497  -152500  -152505 
 -152513  -152518  -152521  -152527  -152531  -152533  -152541  -152552 
 -152556  -152558  -152560  -152560  -152563  -152567  -152571  -152577 
 -152581  -152585  -152591  -152599  -152602  -152601  -152606  -152610 
 -152610  -152610  -152614  -152617  -152620  -152620  -152622  -152628 
 -152633  -152633  -152633  -152637  -152640  -152643  -152649  -152652 
 -152653  -152653  -152653  -152656  -152662  -152663  -152662  -152659 
 -152658  -152656  -152653  -152649  -152645  -152639  -152633  -152629 
 -152625  -152621  -152614  -152604  -152594  -152589  -152586  -152579 
 -152571  -152563  -152552  -152544  -152540  -152535  -152531  -152525 
 -152517  -152513  -152508  -152504  -152502  -152500  -152496  -152493 
 -152487  -152482  -152479  -152481  -152479  -152477  -152477  -152478 
 -152477  -152477  -152477  -152481  -152485  -152487  -152490  -152493 
 -152491  -152489  -152493  -152493  -152494  -152498  -152498  -152501 
 -152510  -152513  -152513  -152514  -152514  -152513  -152512  -152510 
 -152509  -152512  -152513  -152513  -152513  -152514  -152516  -152518 
 -152521  -152521  -152520  -152523  -152521  -152517  -152516  -152513 
 -152513  -152516  -152518  -152520  -152520  -152524  -152531  -152535 
 -152539  -152541  -152545  -152551  -152556  -152563  -152571  -152578 
 -152589  -152602  -152613  -152622  -152631  -152639  -152648  -152653 
 -152656  -152663  -152668  -152676  -152685  -152690  -152693  -152698 
 -152703  -152702  -152701  -152705  -152707  -152707  -152710  -152709 
 -152699  -152695  -152697  -152690  -152686  -152685  -152680  -152674 
 -152668  -152662  -152656  -152651  -152640  -152632  -152626  -152620 
 -152614  -152609  -152599  -152594  -152590  -152585  -152578  -152574 
 -152570  -152570  -152568  -152566  -152564  -152566  -152567  -152571 
 -152571  -152570  -152575  -152579  -152581  -152586  -152594  -152599 
 -152605  -152610  -152614  -152618  -152625  -152631  -152632  -152632 
 -152631  -152632  -152633  -152637  -152641  -152644  -152648  -152649 
 -152652  -152656  -152652  -152648  -152648  -152645  -152641  -152640 
 -152635  -152624  -152614  -152606  -152597  -152586  -152577  -152567 
 -152558  -152545  -152536  -152527  -152512  -152498  -152487  -152474 
 -152463  -152452  -152439  -152431  -152428  -152421  -152413  -152409 
 -152405  -152400  -152397  -152393  -152383  -152378  -152382  -152382 
 -152378  -152377  -152377  -152377  -152377  -152375  -152375  -152381 
 -152385  -152385  -152386  -152390  -152392  -152394  -152397  -152400 
 -152405  -152413  -152419  -152429  -152439  -152447  -152452  -152459 
 -152467  -152474  -152481  -152489  -152496  -152502  -152512  -152521 
 -152531  -152540  -152550  -152560  -152567  -152575  -152585  -152593 
 -152601  -152609  -152616  -152624  -152632  -152637  -152647  -152659 
 -152667  -152671  -152676  -152686  -152691  -152694  -152699  -152703 
 -152705  -152706  -152710  -152710  -152709  -152710  -152712  -152710 
 -152714  -152716  -152709  -152709  -152707  -152702  -152698  -152693 
 -152687  -152683  -152676  -152671  -152666  -152660  -152652  -152643 
 -152633  -152622  -152616  -152608  -152595  -152585  -152574  -152564 
 -152555  -152543  -152532  -152523  -152517  -152513  -152508  -152502 
 -152497  -152494  -152493  -152491  -152490  -152490  -152491  -152493 
 -152493  -152491  -152496  -152501  -152509  -152513  -152517  -152524 
 -152529  -152532  -152540  -152547  -152551  -152555  -152560  -152564 
