Origin Time       2025/01/13 21:19:00
Lat.              31.8
Long.             131.6
Depth. (km)       30
Mag.              6.9
Station Code      NARH03
Station Lat.      34.2925
Station Long.     136.0022
Station Height(m) 358
Record Time       2025/01/13 21:22:19
Sampling Freq(Hz) 100Hz
Duration Time(s)  120
Dir.              4
Scale Factor      7845(gal)/8223790
Max. Acc. (gal)   0.154
Last Correction   2025/01/13 21:22:21
Memo.             
   -1495    -1499    -1498    -1494    -1491    -1487    -1486    -1483 
   -1476    -1470    -1466    -1462    -1462    -1467    -1471    -1475 
   -1480    -1487    -1493    -1497    -1498    -1501    -1499    -1495 
   -1493    -1490    -1490    -1489    -1486    -1482    -1475    -1467 
   -1464    -1462    -1458    -1449    -1443    -1443    -1441    -1443 
   -1447    -1451    -1455    -1458    -1455    -1452    -1448    -1445 
   -1445    -1452    -1458    -1459    -1464    -1472    -1482    -1489 
   -1494    -1501    -1505    -1505    -1503    -1502    -1502    -1498 
   -1494    -1489    -1482    -1478    -1471    -1466    -1467    -1470 
   -1472    -1479    -1489    -1498    -1507    -1512    -1509    -1507 
   -1509    -1514    -1520    -1520    -1514    -1513    -1510    -1502 
   -1498    -1493    -1490    -1494    -1494    -1497    -1507    -1521 
   -1530    -1537    -1541    -1540    -1533    -1526    -1520    -1509 
   -1499    -1497    -1498    -1498    -1495    -1494    -1499    -1510 
   -1518    -1521    -1525    -1532    -1533    -1525    -1512    -1497 
   -1482    -1471    -1463    -1455    -1451    -1453    -1464    -1472 
   -1475    -1480    -1489    -1498    -1507    -1518    -1524    -1526 
   -1526    -1521    -1514    -1509    -1507    -1509    -1514    -1520 
   -1524    -1525    -1525    -1524    -1526    -1533    -1540    -1544 
   -1545    -1543    -1539    -1533    -1528    -1522    -1525    -1533 
   -1533    -1533    -1540    -1543    -1537    -1534    -1533    -1533 
   -1536    -1534    -1530    -1526    -1525    -1526    -1529    -1533 
   -1537    -1536    -1534    -1528    -1518    -1510    -1503    -1495 
   -1489    -1480    -1476    -1480    -1479    -1476    -1482    -1486 
   -1485    -1486    -1490    -1495    -1493    -1483    -1471    -1460 
   -1452    -1441    -1433    -1431    -1433    -1439    -1447    -1455 
   -1463    -1471    -1479    -1489    -1493    -1489    -1487    -1494 
   -1502    -1506    -1509    -1513    -1514    -1514    -1516    -1520 
   -1524    -1526    -1529    -1536    -1541    -1540    -1539    -1544 
   -1552    -1555    -1556    -1561    -1572    -1584    -1590    -1593 
   -1595    -1595    -1590    -1582    -1574    -1560    -1549    -1545 
   -1540    -1529    -1525    -1529    -1534    -1536    -1539    -1543 
   -1545    -1545    -1552    -1557    -1553    -1543    -1533    -1521 
   -1509    -1499    -1494    -1489    -1486    -1485    -1480    -1474 
   -1472    -1475    -1475    -1478    -1479    -1478    -1475    -1471 
   -1466    -1466    -1467    -1468    -1474    -1479    -1480    -1485 
   -1487    -1486    -1486    -1491    -1489    -1483    -1480    -1474 
   -1464    -1459    -1460    -1463    -1460    -1456    -1458    -1459 
   -1463    -1470    -1476    -1483    -1491    -1498    -1501    -1502 
   -1505    -1506    -1506    -1505    -1505    -1502    -1498    -1497 
   -1495    -1491    -1483    -1480    -1485    -1489    -1491    -1495 
   -1501    -1503    -1506    -1512    -1518    -1521    -1529    -1539 
   -1541    -1540    -1541    -1540    -1539    -1537    -1533    -1528 
   -1526    -1524    -1517    -1512    -1510    -1517    -1526    -1534 
   -1543    -1548    -1548    -1551    -1552    -1545    -1533    -1526 
   -1520    -1513    -1506    -1501    -1495    -1494    -1499    -1502 
   -1501    -1501    -1502    -1505    -1506    -1503    -1499    -1497 
   -1493    -1489    -1487    -1487    -1483    -1482    -1480    -1472 
   -1463    -1460    -1462    -1464    -1463    -1462    -1458    -1455 
   -1455    -1448    -1433    -1426    -1432    -1435    -1435    -1440 
   -1447    -1453    -1462    -1471    -1480    -1487    -1497    -1505 
   -1507    -1513    -1520    -1518    -1512    -1507    -1502    -1497 
   -1497    -1501    -1506    -1514    -1520    -1529    -1540    -1544 
   -1548    -1556    -1563    -1570    -1576    -1578    -1576    -1572 
   -1568    -1570    -1571    -1574    -1578    -1580    -1584    -1590 
   -1593    -1593    -1593    -1590    -1586    -1583    -1580    -1574 
   -1568    -1564    -1559    -1559    -1556    -1552    -1549    -1552 
   -1553    -1553    -1555    -1555    -1553    -1551    -1549    -1549 
   -1544    -1537    -1534    -1533    -1532    -1533    -1532    -1529 
   -1530    -1530    -1530    -1529    -1524    -1516    -1512    -1506 
   -1499    -1495    -1491    -1486    -1479    -1479    -1483    -1487 
   -1490    -1498    -1502    -1498    -1489    -1483    -1482    -1478 
   -1471    -1466    -1463    -1466    -1471    -1472    -1472    -1475 
   -1476    -1476    -1480    -1487    -1490    -1491    -1494    -1495 
   -1493    -1491    -1491    -1493    -1497    -1499    -1498    -1494 
   -1491    -1489    -1487    -1491    -1495    -1494    -1491    -1491 
   -1493    -1493    -1491    -1494    -1501    -1505    -1502    -1501 
   -1503    -1507    -1506    -1501    -1493    -1490    -1494    -1498 
   -1503    -1510    -1516    -1516    -1512    -1510    -1513    -1514 
   -1510    -1506    -1507    -1506    -1503    -1503    -1503    -1506 
   -1514    -1521    -1518    -1514    -1516    -1513    -1513    -1517 
   -1516    -1518    -1526    -1529    -1529    -1530    -1525    -1517 
   -1516    -1514    -1509    -1509    -1512    -1512    -1507    -1503 
   -1499    -1497    -1497    -1497    -1498    -1497    -1489    -1482 
   -1478    -1472    -1470    -1470    -1468    -1466    -1464    -1460 
   -1455    -1452    -1451    -1451    -1453    -1458    -1458    -1458 
   -1458    -1453    -1451    -1451    -1452    -1453    -1456    -1459 
   -1464    -1466    -1463    -1459    -1455    -1449    -1440    -1432 
   -1424    -1420    -1420    -1422    -1424    -1425    -1425    -1425 
   -1426    -1431    -1437    -1448    -1458    -1466    -1472    -1479 
   -1485    -1489    -1495    -1501    -1503    -1507    -1512    -1509 
   -1503    -1501    -1499    -1501    -1503    -1510    -1521    -1530 
   -1536    -1545    -1553    -1559    -1564    -1571    -1576    -1583 
   -1587    -1586    -1580    -1575    -1572    -1564    -1559    -1559 
   -1555    -1545    -1539    -1536    -1540    -1545    -1547    -1547 
   -1552    -1557    -1559    -1560    -1563    -1566    -1567    -1570 
   -1570    -1566    -1557    -1549    -1545    -1545    -1544    -1545 
   -1545    -1541    -1536    -1533    -1530    -1529    -1529    -1528 
   -1529    -1528    -1520    -1514    -1509    -1501    -1501    -1507 
   -1513    -1510    -1506    -1506    -1505    -1499    -1499    -1502 
   -1503    -1507    -1513    -1512    -1507    -1505    -1505    -1509 
   -1512    -1516    -1520    -1525    -1528    -1529    -1536    -1543 
   -1547    -1553    -1560    -1563    -1561    -1563    -1563    -1559 
   -1549    -1545    -1540    -1536    -1536    -1540    -1545    -1544 
   -1541    -1544    -1551    -1557    -1560    -1561    -1561    -1563 
   -1564    -1563    -1559    -1556    -1557    -1563    -1566    -1559 
   -1552    -1551    -1553    -1559    -1566    -1568    -1571    -1574 
   -1578    -1575    -1567    -1560    -1557    -1556    -1555    -1551 
   -1544    -1540    -1539    -1536    -1533    -1533    -1536    -1541 
   -1544    -1543    -1537    -1528    -1521    -1516    -1507    -1497 
   -1489    -1483    -1476    -1471    -1467    -1464    -1467    -1471 
   -1474    -1478    -1480    -1480    -1485    -1486    -1483    -1483 
   -1482    -1480    -1479    -1475    -1468    -1458    -1445    -1436 
   -1428    -1420    -1408    -1398    -1394    -1393    -1387    -1385 
   -1383    -1385    -1393    -1401    -1404    -1408    -1410    -1409 
   -1409    -1404    -1394    -1390    -1389    -1382    -1377    -1377 
   -1377    -1374    -1371    -1372    -1374    -1370    -1366    -1367 
   -1368    -1368    -1364    -1355    -1348    -1345    -1344    -1341 
   -1337    -1337    -1335    -1335    -1337    -1339    -1344    -1351 
   -1354    -1354    -1355    -1358    -1362    -1368    -1375    -1382 
   -1393    -1401    -1405    -1408    -1410    -1409    -1406    -1406 
   -1406    -1406    -1408    -1410    -1414    -1416    -1417    -1424 
   -1431    -1435    -1437    -1443    -1449    -1455    -1460    -1466 
   -1472    -1480    -1489    -1493    -1495    -1497    -1493    -1490 
   -1491    -1493    -1491    -1493    -1495    -1493    -1491    -1491 
   -1495    -1505    -1512    -1514    -1520    -1525    -1526    -1530 
   -1536    -1540    -1545    -1553    -1560    -1564    -1567    -1571 
   -1575    -1580    -1583    -1583    -1584    -1584    -1580    -1578 
   -1578    -1579    -1576    -1572    -1570    -1568    -1564    -1561 
   -1561    -1566    -1568    -1568    -1568    -1568    -1566    -1563 
   -1560    -1555    -1548    -1541    -1537    -1536    -1530    -1525 
   -1520    -1514    -1509    -1507    -1506    -1502    -1497    -1498 
   -1502    -1502    -1497    -1495    -1498    -1501    -1501    -1505 
   -1513    -1518    -1518    -1517    -1521    -1526    -1525    -1525 
   -1532    -1536    -1539    -1544    -1549    -1553    -1559    -1563 
   -1568    -1574    -1578    -1580    -1583    -1583    -1584    -1584 
   -1586    -1587    -1588    -1588    -1583    -1579    -1578    -1576 
   -1571    -1564    -1561    -1557    -1551    -1544    -1539    -1533 
   -1533    -1537    -1539    -1537    -1534    -1532    -1528    -1525 
   -1522    -1521    -1521    -1514    -1509    -1507    -1505    -1502 
   -1499    -1499    -1506    -1509    -1510    -1514    -1521    -1525 
   -1533    -1536    -1533    -1537    -1540    -1536    -1530    -1528 
   -1524    -1521    -1520    -1517    -1514    -1513    -1512    -1510 
   -1509    -1509    -1507    -1505    -1506    -1509    -1509    -1506 
   -1503    -1498    -1493    -1486    -1480    -1479    -1478    -1471 
   -1466    -1464    -1462    -1460    -1463    -1466    -1470    -1478 
   -1483    -1486    -1486    -1483    -1479    -1474    -1467    -1462 
   -1460    -1460    -1460    -1456    -1453    -1455    -1455    -1455 
   -1458    -1460    -1458    -1456    -1451    -1443    -1436    -1433 
   -1429    -1426    -1426    -1429    -1429    -1428    -1432    -1439 
   -1445    -1449    -1449    -1451    -1451    -1447    -1447    -1449 
   -1447    -1447    -1449    -1458    -1468    -1470    -1470    -1475 
   -1475    -1474    -1480    -1490    -1498    -1506    -1510    -1510 
   -1509    -1510    -1513    -1516    -1520    -1529    -1534    -1540 
   -1547    -1551    -1555    -1560    -1563    -1566    -1564    -1561 
   -1560    -1561    -1566    -1567    -1568    -1575    -1582    -1583 
   -1584    -1587    -1588    -1590    -1590    -1587    -1582    -1578 
   -1578    -1578    -1579    -1578    -1571    -1567    -1567    -1563 
   -1557    -1555    -1549    -1543    -1537    -1534    -1530    -1522 
   -1516    -1517    -1521    -1522    -1520    -1518    -1520    -1516 
   -1510    -1505    -1498    -1497    -1497    -1495    -1490    -1482 
   -1476    -1475    -1472    -1468    -1464    -1455    -1447    -1443 
   -1441    -1437    -1432    -1428    -1425    -1425    -1418    -1413 
   -1413    -1410    -1408    -1405    -1398    -1391    -1391    -1394 
   -1393    -1393    -1395    -1397    -1399    -1402    -1409    -1414 
   -1421    -1429    -1436    -1437    -1439    -1445    -1453    -1462 
   -1467    -1472    -1478    -1485    -1487    -1490    -1493    -1501 
   -1509    -1514    -1520    -1521    -1521    -1521    -1521    -1522 
   -1522    -1522    -1525    -1528    -1525    -1522    -1520    -1514 
   -1509    -1505    -1499    -1494    -1495    -1499    -1503    -1507 
   -1509    -1512    -1512    -1512    -1516    -1517    -1514    -1513 
   -1513    -1512    -1512    -1507    -1507    -1513    -1518    -1521 
   -1524    -1528    -1533    -1533    -1536    -1543    -1543    -1540 
   -1541    -1543    -1543    -1544    -1548    -1555    -1559    -1561 
   -1563    -1563    -1563    -1570    -1576    -1574    -1572    -1571 
   -1566    -1560    -1556    -1552    -1549    -1549    -1547    -1544 
   -1540    -1533    -1525    -1517    -1512    -1507    -1502    -1494 
   -1487    -1482    -1479    -1476    -1474    -1472    -1471    -1470 
   -1468    -1464    -1459    -1455    -1452    -1449    -1449    -1449 
   -1449    -1451    -1449    -1445    -1441    -1440    -1440    -1440 
   -1439    -1433    -1425    -1418    -1410    -1406    -1406    -1408 
   -1406    -1404    -1404    -1405    -1405    -1408    -1412    -1414 
   -1414    -1413    -1413    -1409    -1405    -1409    -1417    -1418 
   -1418    -1421    -1428    -1433    -1440    -1447    -1453    -1460 
   -1466    -1472    -1480    -1485    -1486    -1494    -1501    -1503 
   -1510    -1521    -1530    -1540    -1545    -1547    -1552    -1559 
   -1560    -1563    -1570    -1572    -1568    -1568    -1571    -1566 
   -1564    -1564    -1561    -1559    -1553    -1549    -1549    -1552 
   -1551    -1549    -1548    -1544    -1541    -1541    -1540    -1539 
   -1539    -1536    -1530    -1528    -1526    -1526    -1528    -1524 
   -1520    -1521    -1521    -1518    -1513    -1513    -1517    -1520 
   -1520    -1520    -1522    -1520    -1518    -1524    -1525    -1521 
   -1522    -1526    -1526    -1524    -1520    -1513    -1501    -1493 
   -1490    -1487    -1482    -1479    -1478    -1479    -1476    -1471 
   -1468    -1466    -1466    -1463    -1456    -1451    -1449    -1448 
   -1445    -1441    -1439    -1435    -1429    -1422    -1417    -1413 
   -1412    -1412    -1414    -1417    -1416    -1418    -1420    -1416 
   -1410    -1408    -1409    -1412    -1414    -1417    -1418    -1418 
   -1422    -1429    -1433    -1440    -1447    -1449    -1453    -1456 
   -1455    -1455    -1456    -1459    -1460    -1458    -1455    -1460 
   -1470    -1476    -1485    -1494    -1501    -1506    -1512    -1513 
   -1510    -1512    -1512    -1509    -1509    -1510    -1507    -1503 
   -1506    -1507    -1505    -1503    -1503    -1502    -1505    -1507 
   -1506    -1506    -1505    -1498    -1495    -1490    -1482    -1476 
   -1475    -1472    -1464    -1458    -1452    -1449    -1447    -1443 
   -1441    -1441    -1439    -1439    -1440    -1441    -1445    -1449 
   -1455    -1460    -1458    -1458    -1463    -1464    -1462    -1459 
   -1460    -1464    -1464    -1467    -1472    -1475    -1474    -1476 
   -1478    -1478    -1482    -1490    -1494    -1495    -1494    -1494 
   -1497    -1495    -1494    -1498    -1502    -1505    -1512    -1517 
   -1521    -1528    -1537    -1543    -1544    -1545    -1547    -1549 
   -1553    -1555    -1557    -1557    -1553    -1548    -1544    -1541 
   -1540    -1537    -1537    -1534    -1532    -1534    -1537    -1533 
   -1536    -1541    -1537    -1530    -1533    -1537    -1534    -1529 
   -1524    -1522    -1522    -1521    -1521    -1524    -1524    -1524 
   -1526    -1529    -1532    -1533    -1536    -1537    -1537    -1536 
   -1532    -1532    -1534    -1532    -1528    -1526    -1521    -1517 
   -1522    -1525    -1522    -1524    -1524    -1517    -1512    -1512 
   -1509    -1506    -1505    -1505    -1502    -1498    -1499    -1503 
   -1502    -1499    -1498    -1495    -1497    -1495    -1491    -1487 
   -1487    -1487    -1483    -1482    -1480    -1478    -1475    -1475 
   -1472    -1468    -1471    -1474    -1475    -1480    -1486    -1482 
   -1480    -1485    -1487    -1490    -1493    -1498    -1502    -1499 
   -1491    -1487    -1489    -1489    -1490    -1493    -1494    -1497 
   -1501    -1497    -1490    -1491    -1494    -1493    -1493    -1495 
   -1494    -1493    -1491    -1491    -1493    -1494    -1494    -1493 
   -1490    -1483    -1479    -1480    -1483    -1485    -1486    -1489 
   -1494    -1497    -1498    -1501    -1503    -1505    -1506    -1506 
   -1506    -1505    -1499    -1494    -1490    -1485    -1478    -1475 
   -1476    -1476    -1474    -1472    -1471    -1471    -1472    -1474 
   -1472    -1471    -1468    -1464    -1462    -1459    -1453    -1448 
   -1443    -1437    -1433    -1433    -1435    -1435    -1433    -1433 
   -1433    -1431    -1428    -1431    -1431    -1424    -1417    -1413 
   -1410    -1408    -1408    -1410    -1413    -1416    -1416    -1413 
   -1410    -1406    -1402    -1402    -1404    -1405    -1402    -1401 
   -1404    -1408    -1410    -1410    -1413    -1420    -1426    -1431 
   -1435    -1436    -1440    -1444    -1451    -1455    -1459    -1466 
   -1470    -1471    -1476    -1480    -1482    -1480    -1479    -1486 
   -1497    -1499    -1499    -1503    -1506    -1507    -1506    -1503 
   -1502    -1501    -1495    -1490    -1489    -1489    -1485    -1485 
   -1487    -1485    -1483    -1486    -1489    -1489    -1489    -1489 
   -1490    -1493    -1494    -1495    -1494    -1490    -1491    -1497 
   -1498    -1501    -1501    -1499    -1498    -1497    -1494    -1495 
   -1497    -1497    -1499    -1503    -1505    -1510    -1517    -1521 
   -1520    -1522    -1530    -1530    -1525    -1525    -1525    -1520 
   -1516    -1514    -1512    -1509    -1509    -1503    -1499    -1502 
   -1506    -1510    -1512    -1514    -1518    -1522    -1528    -1529 
   -1529    -1529    -1528    -1524    -1520    -1514    -1507    -1501 
   -1497    -1493    -1486    -1479    -1475    -1472    -1466    -1460 
   -1456    -1448    -1439    -1432    -1431    -1429    -1424    -1422 
   -1424    -1418    -1413    -1409    -1404    -1402    -1402    -1395 
   -1391    -1391    -1390    -1386    -1382    -1379    -1381    -1381 
   -1383    -1391    -1398    -1401    -1405    -1410    -1416    -1420 
   -1421    -1422    -1428    -1431    -1428    -1428    -1432    -1437 
   -1443    -1449    -1455    -1463    -1470    -1474    -1482    -1490 
   -1493    -1495    -1501    -1503    -1506    -1509    -1510    -1509 
   -1509    -1513    -1516    -1516    -1521    -1524    -1525    -1526 
   -1526    -1525    -1525    -1525    -1525    -1524    -1518    -1513 
   -1510    -1507    -1507    -1507    -1507    -1512    -1517    -1522 
   -1525    -1524    -1521    -1521    -1522    -1522    -1521    -1520 
   -1520    -1520    -1517    -1510    -1510    -1518    -1526    -1534 
   -1543    -1543    -1541    -1543    -1541    -1543    -1547    -1547 
   -1544    -1541    -1539    -1534    -1533    -1534    -1533    -1529 
   -1526    -1522    -1516    -1516    -1516    -1516    -1514    -1514 
   -1512    -1507    -1505    -1501    -1494    -1489    -1486    -1483 
   -1480    -1476    -1475    -1475    -1474    -1475    -1476    -1478 
   -1480    -1483    -1483    -1483    -1479    -1478    -1480    -1480 
   -1480    -1482    -1480    -1476    -1475    -1476    -1479    -1480 
   -1483    -1482    -1478    -1476    -1476    -1475    -1476    -1476 
   -1476    -1479    -1479    -1479    -1478    -1475    -1472    -1474 
   -1472    -1474    -1472    -1468    -1467    -1467    -1467    -1471 
   -1474    -1471    -1464    -1463    -1463    -1460    -1456    -1456 
   -1455    -1458    -1460    -1458    -1452    -1449    -1451    -1449 
   -1448    -1449    -1452    -1453    -1455    -1453    -1452    -1451 
   -1452    -1456    -1459    -1460    -1463    -1464    -1464    -1463 
   -1464    -1464    -1464    -1466    -1468    -1470    -1471    -1472 
   -1471    -1470    -1472    -1470    -1467    -1467    -1467    -1466 
