Origin Time       2025/01/13 21:19:00
Lat.              31.8
Long.             131.6
Depth. (km)       30
Mag.              6.9
Station Code      NARH05
Station Lat.      34.4237
Station Long.     136.0294
Station Height(m) 390
Record Time       2025/01/13 21:22:11
Sampling Freq(Hz) 100Hz
Duration Time(s)  120
Dir.              6
Scale Factor      7845(gal)/8223790
Max. Acc. (gal)   0.104
Last Correction   2025/01/13 21:22:12
Memo.             
[...]
     838      834      830      832      838      843      851      855 
     853      854      858      855      854      855      859      864 
     862      864      862      858      857      857      857      859 
     861      862      865      862      857      857      857      854 
     854      857      862      865      864      861      858      855 
     853      854      853      851      853      858      859      857 
     855      853      851      854      857      857      857      853 
     851      849      846      849      855      859      861      861 
     855      851      851      850      849      849      847      849 
     849      847      854      858      857      858      859      858 
     862      865      868      870      872      873      874      873 
     868      865      865      866      866      869      870      870 
     873      873      872      870      869      868      868      869 
     869      868      865      859      858      859      864      868 
     866      868      872      872      872      876      877      874 
     872      870      873      877      878      880      884      889 
     891      888      884      884      885      884      881      878 
     877      880      881      881      884      884      881      880 
     878      876      873      865      857      861      868      864 
     859      855      847      845      846      846      845      841 
     832      826      824      828      832      832      828      824 
     820      815      812      814      815      818      820      823 
     823      823      826      830      828      826      823      824 
     826      826      827      831      834      834      832      831 
     831      834      837      839      839      839      841      843 
     846      846      849      854      855      853      853      857 
     857      857      859      862      862      862      865      866 
     866      869      872      870      869      869      869      866 
     862      862      865      866      866      868      864      859 
     859      862      862      862      861      861      861      859 
     861      864      864      865      869      872      873      872 
     868      865      865      868      869      872      873      874 
     878      881      878      874      870      868      862      859 
     859      858      858      861      864      868      869      865 
     862      861      859      864      864      858      854      853 
     854      861      869      873      870      868      869      872 
     874      880      885      886      886      885      885      885 
     884      880      878      876      872      872      873      876 
     877      878      880      874      869      864      855      850 
     849      847      849      850      845      838      835      831 
     828      828      828      827      822      815      815      819 
     818      818      820      819      816      812      810      811 
     811      812      816      819      819      820      824      831 
     835      838      839      841      845      853      861      868 
     874      881      886      893      900      904      912      920 
     923      926      928      927      927      927      928      931 
     938      942      943      943      943      939      935      935 
     938      938      938      938      936      932      930      927 
     926      922      915      909      904      901      900      896 
     886      877      868      858      853      849      845      841 
     834      824      820      816      810      805      801      792 
     785      781      774      770      769      770      770      766 
     760      758      761      761      758      756      756      756 
     757      758      756      753      757      762      769      777 
     781      784      785      784      781      781      787      792 
     797      803      804      803      805      808      807      811 
     819      822      820      823      824      822      822      826 
     830      832      835      834      834      834      831      832 
     838      839      837      841      845      842      839      839 
     839      837      838      839      842      845      849      855 
     859      862      865      865      865      866      869      872 
     877      880      884      891      900      908      912      916 
     920      920      919      916      916      918      916      915 
     916      915      912      912      911      905      903      903 
     899      893      889      888      888      889      888      886 
     889      891      888      886      885      881      878      881 
     884      882      881      882      882      884      885      889 
     892      896      899      897      893      891      886      885 
     886      889      892      891      886      886      888      886 
     886      885      881      881      881      878      880      881 
     878      876      874      872      873      876      877      881 
     882      884      891      893      889      886      886      886 
     885      884      882      880      880      878      877      878 
     878      874      873      876      878      876      873      874 
     877      876      874      874      874      873      868      862 
     861      859      859      862      868      868      866      866 
     862      853      850      850      849      847      847      847 
     849      849      847      847      846      842      842      842 
     842      843      845      843      846      847      847      849 
     850      847      849      849      843      842      843      842 
     841      838      831      832      838      837      835      838 
     839      839      841      846      849      851      857      857 
     851      851      854      857      862      868      868      865 
     865      864      864      866      872      876      878      878 
     878      880      876      874      881      885      886      889 
     888      886      886      882      882      882      881      881 
     885      891      892      888      886      888      885      882 
     881      880      881      882      881      882      885      885 
     888      891      893      893      893      891      888      884 
     881      881      878      873      869      869      870      868 
     864      866      869      868      866      865      861      858 
     861      861      857      858      859      855      857      861 
     859      858      858      858      859      858      855      858 
     861      861      864      866      866      868      866      861 
     862      865      862      864      868      869      870      870 
     868      866      869      872      876      878      880      882 
     885      886      891      892      889      891      895      896 
     900      903      903      900      900      900      897      897 
     899      893      888      884      881      880      877      873 
     870      866      861      861      859      855      851      846 
     839      834      828      824      822      822      820      815 
     810      807      805      805      807      808      807      805 
     807      807      805      808      810      807      804      803 
     797      795      796      801      805      807      808      808 
     804      801      801      801      803      807      811      815 
     819      822      822      823      824      827      831      834 
     835      838      838      842      845      847      849      849 
     849      847      846      846      846      845      845      846 
     849      855      859      858      855      853      849      849 
     851      853      854      855      855      855      854      851 
     855      862      865      868      872      873      874      874 
     874      874      876      878      882      885      888      889 
     886      885      889      891      891      892      893      891 
     888      889      892      891      888      886      886      888 
     891      891      891      891      886      884      881      878 
     874      876      876      874      874      873      869      866 
     866      866      862      857      854      850      845      842 
     846      849      846      842      841      841      841      839 
     839      838      834      830      830      830      830      831 
     831      831      832      832      832      835      837      835 
     835      837      835      837      838      838      838      845 
     851      854      859      862      859      858      859      859 
     861      865      868      869      870      870      873      873 
     872      874      877      876      874      872      870      869 
     869      870      869      865      866      868      870      877 
     880      877      873      869      864      859      861      861 
     862      861      858      858      858      855      854      853 
     851      847      847      847      845      845      847      851 
     850      849      850      850      849      850      850      853 
     857      857      854      859      865      864      864      866 
     866      866      868      868      868      869      872      873 
     876      880      880      880      882      884      882      885 
     888      891      893      896      900      903      900      899 
     897      899      903      905      907      905      907      907 
     903      903      905      908      909      911      909      908 
     905      904      905      905      903      903      901      900 
     901      904      900      897      900      899      895      895 
     895      891      886      882      882      882      884      885 
     882      878      877      874      873      878      882      882 
     882      877      870      869      869      869      872      872 
     869      868      866      864      862      861      861      864 
     865      865      864      864      865      866      868      868 
     869      872      873      877      881      886      892      895 
     893      891      891      892      891      888      891      896 
     897      895      892      889      889      888      886      889 
     893      891      888      885      882      882      881      878 
     877      874      872      872      870      868      866      865 
     862      865      868      868      870      873      869      866 
     865      864      865      865      862      862      865      864 
     864      866      868      869      868      869      872      869 
     866      866      864      862      862      861      858      858 
     858      857      857      859      858      854      853      851 
     851      851      851      850      847      843      843      846 
     847      849      850      847      845      842      839      838 
     841      842      842      842      838      837      835      834 
     835      839      842      841      837      837      838      837 
     834      837      839      837      834      835      835      835 
     838      842      849      849      847      847      849      845 
     846      849      851      854      857      855      858      861 
     861      861      859      858      859      859      862      865 
     862      862      862      859      854      854      857      861 
     864      862      858      857      855      851      850      851 
     849      847      846      841      839      841      839      838 
     842      845      845      842      841      837      835      839 
     841      839      839      842      843      845      847      850 
     850      850      853      855      858      858      861      865 
     864      861      862      865      866      864      859      861 
     864      862      864      866      866      866      869      869 
     868      866      866      868      868      865      868      870 
     869      869      870      870      872      873      872      870 
     872      874      876      874      873      874      876      874 
     874      872      869      866      864      861      862      862 
     866      869      866      864      858      851      849      850 
     850      847      843      843      842      842      839      835 
     835      837      832      832      835      834      830      828 
     831      831      831      831      831      831      830      830 
     827      827      827      826      826      831      835      831 
     828      827      827      828      831      832      832      834 
     835      835      835      831      830      835      834      832 
     839      843      846      849      849      846      849      854 
     855      857      861      864      862      862      864      864 
     865      869      873      877      882      885      884      885 
     888      888      889      895      899      903      909      912 
     911      913      916      919      924      930      934      935 
     938      942      946      949      951      954      955      955 
     954      957      959      959      962      963      963      966 
     967      966      967      966      965      966      963      957 
     955      957      954      949      947      942      934      928 
     924      922      920      918      915      912      905      903 
     903      900      895      892      889      884      880      876 
     873      872      870      868      866      865      864      861 
     859      859      861      861      861      861      859      859 
     861      862      865      866      865      864      864      862 
     862      864      865      862      861      868      872      870 
     869      869      865      864      865      865      861      857 
     857      855      853      850      850      851      854      855 
     854      851      847      845      845      843      843      845 
     842      838      837      835      837      842      845      843 
     846      845      839      838      839      837      837      842 
     845      842      838      835      832      827      827      830 
     828      826      827      827      823      823      823      823 
     820      818      818      818      816      816      818      819 
     820      820      823      828      831      830      831      831 
     826      824      828      830      831      831      828      826 
     826      827      831      832      835      837      835      834 
     835      834      835      838      842      845      849      853 
     850      847      851      851      849      849      849      849 
     851      855      858      861      862      865      869      873 
     876      876      874      876      880      885      886      889 
     893      897      899      901      907      909      911      913 
     913      918      922      923      924      924      924      924 
     923      923      924      924      922      920      919      918 
     918      915      913      916      919      919      915      909 
     905      901      899      897      896      896      897      893 
     888      884      881      878      877      876      874      876 
     874      866      864      861      853      850      853      851 
     849      846      839      834      831      827      823      822 
     820      815      814      811      804      799      796      793 
     791      788      787      787      784      777      772      772 
     772      769      770      772      772      770      768      764 
     761      761      765      770      773      774      776      776 
     774      772      772      776      781      781      783      784 
     784      787      787      788      793      797      799      800 
     800      801      801      801      803      808      816      822 
     827      831      832      835      838      842      849      854 
     855      857      859      858      857      858      859      864 
     868      874      880      881      884      886      886      888 
     891      889      886      889      892      893      896      897 
     897      901      905      908      911      911      909      907 
     905      908      909      908      909      909      904      899 
     896      896      893      892      892      885      881      884 
     884      880      876      869      861      859      857      855 
     855      853      849      846      841      837      832      830 
     826      824      826      824      822      818      816      816 
     814      814      819      823      823      824      827      824 
     822      822      823      826      827      830      831      827 
     827      831      832      832      835      834      832      832 
     832      832      832      835      839      842      839      841 
     839      835      838      841      842      845      847      849 
     849      851      854      855      858      864      866      866 
     866      868      868      870      870      869      868      868 
     869      869      866      868      869      870      872      870 
     868      868      868      868      868      866      868      870 
     868      866      868      868      866      865      864      865 
     866      865      865      862      858      857      854      853 
     851      850      850      850      850      847      845      845 
     845      843      839      835      835      835      832      830 
     831      831      828      828      828      823      818      819 
     820      822      823      823      822      820      818      819 
     822      822      822      822      820      824      828      831 
     835      839      841      842      842      842      845      849 
     849      850      853      855      854      858      864      865 
     866      869      870      872      872      872      873      872 
     873      878      880      880      880      880      880      877 
     876      877      877      878      880      878      880      880 
     874      873      874      872      869      869      868      866 
     866      868      866      864      862      859      857      855 
     855      855      857      858      858      859      859      858 
     857      854      853      854      854      857      858      859 
     857      853      854      857      854      854      855      853 
     851      847      845      846      851      851      847      847 
     845      841      841      841      837      835      839      839 
     834      831      828      827      828      827      824      824 
     823      822      819      815      814      814      812      814 
     814      811      811      810      808      808      808      810 
     811      808      808      811      811      814      818      816 
     818      818      818      819      820      820      823      823 
