Origin Time       2025/01/13 21:19:00
Lat.              31.8
Long.             131.6
Depth. (km)       30
Mag.              6.9
Station Code      NARH05
Station Lat.      34.4237
Station Long.     136.0294
Station Height(m) 289
Record Time       2025/01/13 21:22:11
Sampling Freq(Hz) 100Hz
Duration Time(s)  120
Dir.              2
Scale Factor      2942(gal)/8224139
Max. Acc. (gal)   0.138
Last Correction   2025/01/13 21:22:12
Memo.             
[...]
  -97825   -97830   -97837   -97843   -97849   -97852   -97856   -97860 
  -97865   -97872   -97875   -97877   -97877   -97879   -97879   -97880 
  -97881   -97880   -97880   -97880   -97880   -97880   -97877   -97869 
  -97858   -97849   -97843   -97841   -97838   -97831   -97826   -97818 
  -97815   -97815   -97811   -97800   -97792   -97787   -97785   -97787 
  -97788   -97788   -97792   -97802   -97808   -97812   -97812   -97812 
  -97812   -97815   -97821   -97821   -97816   -97818   -97825   -97827 
  -97833   -97839   -97846   -97856   -97865   -97872   -97872   -97875 
  -97877   -97880   -97885   -97887   -97887   -97893   -97902   -97907 
  -97912   -97912   -97914   -97920   -97924   -97927   -97929   -97926 
  -97920   -97914   -97904   -97903   -97902   -97899   -97900   -97900 
  -97899   -97893   -97892   -97889   -97884   -97880   -97877   -97868 
  -97862   -97858   -97850   -97845   -97843   -97841   -97835   -97835 
  -97841   -97839   -97837   -97835   -97830   -97826   -97823   -97821 
  -97815   -97810   -97804   -97799   -97791   -97785   -97783   -97781 
  -97777   -97773   -97769   -97762   -97754   -97748   -97744   -97741 
  -97738   -97738   -97740   -97744   -97750   -97757   -97762   -97768 
  -97771   -97776   -97781   -97787   -97792   -97796   -97800   -97808 
  -97816   -97816   -97810   -97806   -97802   -97794   -97795   -97799 
  -97799   -97799   -97798   -97795   -97792   -97788   -97783   -97784 
  -97787   -97789   -97791   -97791   -97799   -97808   -97811   -97810 
  -97810   -97812   -97823   -97834   -97842   -97845   -97848   -97856 
  -97864   -97864   -97865   -97866   -97866   -97873   -97875   -97868 
  -97864   -97868   -97873   -97876   -97872   -97864   -97857   -97850 
  -97845   -97839   -97833   -97829   -97821   -97812   -97807   -97802 
  -97798   -97796   -97798   -97799   -97795   -97789   -97787   -97779 
  -97769   -97765   -97768   -97777   -97781   -97780   -97777   -97776 
  -97777   -97779   -97776   -97775   -97773   -97776   -97783   -97789 
  -97792   -97789   -97785   -97784   -97788   -97796   -97799   -97802 
  -97806   -97804   -97800   -97808   -97819   -97822   -97825   -97830 
  -97833   -97838   -97846   -97853   -97854   -97854   -97858   -97868 
  -97875   -97877   -97883   -97881   -97877   -97881   -97888   -97888 
  -97887   -97887   -97884   -97877   -97873   -97868   -97861   -97857 
  -97858   -97862   -97862   -97861   -97857   -97850   -97845   -97846 
  -97846   -97843   -97837   -97827   -97816   -97807   -97799   -97789 
  -97780   -97776   -97777   -97771   -97767   -97767   -97760   -97749 
  -97748   -97749   -97750   -97754   -97756   -97756   -97758   -97760 
  -97757   -97758   -97761   -97764   -97771   -97779   -97785   -97791 
  -97796   -97798   -97798   -97792   -97785   -97788   -97796   -97802 
  -97808   -97814   -97818   -97818   -97812   -97811   -97812   -97807 
  -97804   -97808   -97808   -97811   -97814   -97811   -97807   -97807 
  -97806   -97800   -97796   -97794   -97788   -97787   -97791   -97789 
  -97789   -97792   -97794   -97798   -97802   -97799   -97798   -97796 
  -97792   -97794   -97799   -97802   -97798   -97795   -97794   -97791 
  -97795   -97802   -97800   -97794   -97789   -97789   -97787   -97781 
  -97776   -97776   -97776   -97776   -97776   -97776   -97775   -97773 
  -97772   -97767   -97758   -97750   -97742   -97735   -97730   -97726 
  -97719   -97713   -97704   -97699   -97696   -97695   -97692   -97691 
  -97687   -97686   -97691   -97698   -97704   -97707   -97707   -97707 
  -97711   -97717   -97725   -97735   -97742   -97749   -97758   -97768 
  -97775   -97780   -97784   -97788   -97796   -97803   -97812   -97825 
  -97835   -97838   -97841   -97843   -97850   -97861   -97873   -97881 
  -97889   -97891   -97889   -97891   -97893   -97895   -97896   -97899 
  -97903   -97906   -97911   -97918   -97918   -97916   -97914   -97914 
  -97918   -97920   -97916   -97910   -97904   -97902   -97902   -97897 
  -97896   -97899   -97902   -97903   -97902   -97892   -97884   -97881 
  -97884   -97884   -97883   -97880   -97877   -97880   -97884   -97887 
  -97887   -97883   -97880   -97881   -97888   -97889   -97885   -97884 
  -97888   -97891   -97895   -97895   -97893   -97891   -97885   -97883 
  -97876   -97865   -97864   -97868   -97869   -97872   -97870   -97868 
  -97872   -97876   -97875   -97870   -97869   -97869   -97869   -97865 
  -97857   -97853   -97857   -97865   -97869   -97870   -97872   -97876 
  -97884   -97891   -97885   -97875   -97866   -97864   -97864   -97868 
  -97870   -97868   -97864   -97864   -97864   -97860   -97854   -97846 
  -97835   -97830   -97830   -97827   -97826   -97827   -97822   -97818 
  -97815   -97808   -97804   -97806   -97808   -97808   -97810   -97810 
  -97808   -97810   -97808   -97806   -97804   -97803   -97798   -97792 
  -97789   -97787   -97789   -97789   -97784   -97777   -97775   -97780 
  -97791   -97798   -97795   -97791   -97791   -97794   -97796   -97802 
  -97803   -97802   -97800   -97802   -97800   -97796   -97794   -97792 
  -97792   -97796   -97799   -97796   -97795   -97795   -97795   -97791 
  -97788   -97787   -97785   -97788   -97794   -97796   -97794   -97794 
  -97794   -97794   -97796   -97796   -97795   -97795   -97794   -97791 
  -97785   -97784   -97787   -97788   -97789   -97789   -97787   -97787 
  -97792   -97798   -97800   -97800   -97802   -97807   -97812   -97814 
  -97812   -97808   -97808   -97812   -97816   -97821   -97825   -97827 
  -97838   -97852   -97853   -97850   -97850   -97850   -97850   -97857 
  -97862   -97865   -97869   -97875   -97883   -97888   -97887   -97883 
  -97887   -97887   -97881   -97881   -97883   -97884   -97885   -97883 
  -97877   -97870   -97865   -97864   -97864   -97861   -97854   -97849 
  -97843   -97835   -97831   -97826   -97816   -97811   -97807   -97803 
  -97800   -97794   -97788   -97789   -97791   -97787   -97780   -97775 
  -97775   -97775   -97769   -97764   -97758   -97752   -97752   -97754 
  -97749   -97742   -97740   -97738   -97737   -97737   -97738   -97738 
  -97741   -97744   -97748   -97748   -97748   -97748   -97749   -97748 
  -97749   -97750   -97750   -97754   -97761   -97758   -97754   -97757 
  -97761   -97764   -97768   -97769   -97765   -97764   -97764   -97767 
  -97772   -97779   -97785   -97788   -97789   -97789   -97794   -97799 
  -97800   -97800   -97803   -97806   -97808   -97808   -97804   -97803 
  -97806   -97810   -97812   -97818   -97819   -97814   -97808   -97811 
  -97818   -97821   -97821   -97825   -97833   -97837   -97841   -97841 
  -97842   -97842   -97841   -97838   -97839   -97837   -97834   -97834 
  -97834   -97833   -97833   -97831   -97834   -97835   -97831   -97833 
  -97838   -97833   -97829   -97829   -97823   -97822   -97826   -97827 
  -97829   -97833   -97833   -97831   -97829   -97826   -97825   -97819 
  -97812   -97808   -97803   -97796   -97796   -97796   -97799   -97804 
  -97807   -97804   -97803   -97807   -97810   -97807   -97806   -97802 
  -97800   -97804   -97807   -97806   -97807   -97810   -97814   -97816 
  -97818   -97814   -97811   -97812   -97812   -97812   -97816   -97821 
  -97823   -97829   -97835   -97835   -97831   -97829   -97829   -97830 
  -97833   -97834   -97830   -97823   -97818   -97814   -97811   -97814 
  -97816   -97818   -97819   -97819   -97819   -97818   -97815   -97812 
  -97811   -97811   -97811   -97811   -97811   -97811   -97810   -97807 
  -97806   -97804   -97802   -97798   -97796   -97796   -97795   -97795 
  -97796   -97796   -97795   -97795   -97791   -97785   -97783   -97781 
  -97779   -97779   -97780   -97777   -97775   -97776   -97776   -97773 
  -97771   -97762   -97756   -97758   -97762   -97765   -97767   -97764 
  -97757   -97750   -97748   -97749   -97748   -97745   -97746   -97745 
  -97742   -97741   -97741   -97741   -97741   -97740   -97740   -97741 
  -97745   -97750   -97750   -97749   -97749   -97752   -97756   -97757 
  -97761   -97767   -97768   -97771   -97772   -97771   -97771   -97769 
  -97767   -97765   -97765   -97767   -97769   -97772   -97773   -97771 
  -97769   -97772   -97776   -97773   -97767   -97765   -97769   -97775 
  -97779   -97779   -97777   -97780   -97785   -97787   -97788   -97792 
  -97796   -97799   -97799   -97794   -97785   -97780   -97775   -97769 
  -97767   -97767   -97761   -97754   -97754   -97756   -97756   -97754 
  -97754   -97752   -97750   -97753   -97752   -97749   -97753   -97756 
  -97754   -97756   -97760   -97768   -97771   -97768   -97767   -97767 
  -97760   -97757   -97756   -97749   -97741   -97734   -97730   -97730 
  -97729   -97725   -97722   -97721   -97715   -97708   -97700   -97691 
  -97686   -97684   -97683   -97680   -97679   -97677   -97672   -97665 
  -97663   -97661   -97661   -97663   -97661   -97663   -97668   -97671 
  -97673   -97675   -97675   -97675   -97679   -97686   -97695   -97704 
  -97714   -97721   -97729   -97738   -97748   -97760   -97769   -97772 
  -97781   -97795   -97803   -97806   -97810   -97810   -97807   -97812 
  -97819   -97822   -97825   -97825   -97823   -97825   -97826   -97829 
  -97831   -97829   -97823   -97821   -97819   -97823   -97826   -97825 
  -97825   -97827   -97830   -97833   -97835   -97839   -97839   -97831 
  -97829   -97830   -97834   -97835   -97833   -97831   -97829   -97821 
  -97816   -97818   -97816   -97815   -97818   -97822   -97821   -97818 
  -97816   -97814   -97811   -97812   -97811   -97807   -97804   -97798 
  -97791   -97785   -97776   -97768   -97771   -97773   -97769   -97762 
  -97753   -97745   -97741   -97733   -97719   -97714   -97713   -97708 
  -97710   -97710   -97703   -97694   -97690   -97688   -97690   -97684 
  -97676   -97673   -97671   -97667   -97663   -97664   -97664   -97663 
  -97660   -97661   -97664   -97667   -97671   -97673   -97676   -97677 
  -97680   -97681   -97684   -97687   -97694   -97704   -97713   -97721 
  -97731   -97740   -97744   -97749   -97757   -97765   -97773   -97780 
  -97785   -97795   -97808   -97818   -97825   -97831   -97839   -97849 
  -97858   -97861   -97862   -97870   -97872   -97869   -97873   -97876 
  -97873   -97877   -97885   -97888   -97885   -97887   -97892   -97899 
  -97902   -97899   -97893   -97892   -97889   -97889   -97891   -97891 
  -97889   -97887   -97888   -97891   -97885   -97879   -97877   -97873 
  -97868   -97865   -97857   -97848   -97843   -97839   -97834   -97833 
  -97830   -97825   -97818   -97814   -97806   -97795   -97787   -97781 
  -97777   -97775   -97764   -97753   -97752   -97745   -97734   -97726 
  -97723   -97718   -97713   -97707   -97700   -97688   -97680   -97680 
  -97679   -97673   -97671   -97671   -97669   -97671   -97669   -97665 
  -97665   -97661   -97656   -97653   -97653   -97652   -97652   -97654 
  -97663   -97665   -97665   -97667   -97669   -97671   -97671   -97669 
  -97672   -97675   -97676   -97675   -97673   -97675   -97675   -97675 
  -97683   -97687   -97681   -97680   -97688   -97698   -97700   -97700 
  -97698   -97698   -97703   -97706   -97704   -97710   -97715   -97715 
  -97721   -97727   -97730   -97734   -97737   -97734   -97730   -97729 
  -97730   -97731   -97734   -97735   -97734   -97733   -97733   -97740 
  -97742   -97740   -97738   -97741   -97745   -97750   -97754   -97760 
  -97765   -97771   -97775   -97775   -97775   -97779   -97779   -97777 
  -97779   -97780   -97777   -97777   -97779   -97779   -97777   -97776 
  -97776   -97775   -97772   -97771   -97771   -97767   -97765   -97769 
  -97772   -97768   -97762   -97761   -97760   -97756   -97756   -97757 
  -97754   -97750   -97748   -97749   -97745   -97740   -97734   -97731 
  -97730   -97729   -97726   -97723   -97723   -97725   -97725   -97725 
  -97723   -97719   -97719   -97719   -97714   -97713   -97717   -97715 
  -97715   -97718   -97719   -97721   -97721   -97719   -97721   -97722 
  -97721   -97726   -97733   -97734   -97738   -97745   -97748   -97746 
  -97748   -97749   -97749   -97752   -97750   -97752   -97756   -97761 
  -97764   -97765   -97768   -97772   -97777   -97779   -97781   -97783 
  -97781   -97783   -97785   -97788   -97792   -97800   -97807   -97812 
  -97815   -97812   -97811   -97816   -97823   -97827   -97833   -97837 
  -97839   -97843   -97845   -97842   -97842   -97841   -97841   -97843 
  -97849   -97853   -97850   -97846   -97848   -97845   -97841   -97842 
  -97841   -97834   -97833   -97834   -97833   -97830   -97823   -97818 
  -97815   -97812   -97815   -97814   -97810   -97810   -97811   -97811 
  -97811   -97808   -97803   -97800   -97803   -97808   -97814   -97818 
  -97822   -97827   -97835   -97845   -97848   -97846   -97852   -97862 
  -97870   -97873   -97873   -97876   -97884   -97891   -97896   -97903 
  -97907   -97911   -97918   -97922   -97920   -97920   -97922   -97920 
  -97920   -97922   -97922   -97918   -97911   -97907   -97904   -97899 
  -97892   -97883   -97870   -97860   -97852   -97843   -97834   -97822 
  -97811   -97802   -97792   -97785   -97784   -97780   -97771   -97761 
  -97753   -97753   -97754   -97749   -97746   -97745   -97740   -97733 
  -97730   -97725   -97718   -97714   -97707   -97699   -97694   -97691 
  -97688   -97684   -97677   -97665   -97657   -97646   -97632   -97619 
  -97611   -97603   -97592   -97583   -97573   -97561   -97548   -97538 
  -97525   -97509   -97497   -97486   -97476   -97467   -97459   -97448 
  -97440   -97434   -97432   -97429   -97422   -97414   -97413   -97413 
  -97409   -97410   -97413   -97411   -97416   -97422   -97426   -97432 
  -97437   -97443   -97452   -97461   -97472   -97488   -97505   -97513 
  -97518   -97530   -97545   -97557   -97567   -97580   -97592   -97606 
  -97621   -97636   -97648   -97657   -97668   -97677   -97686   -97695 
  -97703   -97714   -97726   -97734   -97744   -97753   -97757   -97764 
  -97773   -97780   -97785   -97791   -97799   -97807   -97814   -97821 
  -97826   -97831   -97841   -97843   -97839   -97841   -97846   -97852 
  -97854   -97856   -97857   -97857   -97857   -97861   -97866   -97864 
  -97860   -97861   -97860   -97854   -97852   -97843   -97835   -97831 
  -97825   -97818   -97811   -97803   -97796   -97789   -97780   -97772 
  -97761   -97746   -97735   -97727   -97718   -97706   -97698   -97692 
  -97688   -97683   -97676   -97675   -97673   -97671   -97668   -97668 
  -97667   -97664   -97668   -97675   -97676   -97677   -97681   -97686 
  -97694   -97700   -97710   -97719   -97726   -97735   -97749   -97760 
  -97768   -97779   -97791   -97800   -97811   -97826   -97841   -97857 
  -97872   -97887   -97903   -97911   -97916   -97929   -97942   -97950 
  -97958   -97966   -97976   -97985   -97995   -98005   -98012   -98010 
  -98012   -98018   -98019   -98016   -98019   -98022   -98022   -98019 
  -98016   -98012   -98011   -98008   -97999   -97993   -97988   -97978 
  -97969   -97960   -97953   -97945   -97937   -97930   -97926   -97919 
  -97908   -97902   -97899   -97891   -97879   -97868   -97864   -97861 
  -97853   -97846   -97837   -97826   -97821   -97821   -97819   -97812 
  -97804   -97800   -97796   -97791   -97785   -97783   -97777   -97775 
  -97773   -97767   -97761   -97761   -97757   -97752   -97752   -97750 
  -97746   -97742   -97738   -97733   -97730   -97726   -97719   -97713 
  -97707   -97703   -97700   -97694   -97683   -97672   -97665   -97663 
  -97661   -97660   -97652   -97646   -97648   -97645   -97636   -97627 
  -97621   -97615   -97613   -97610   -97605   -97599   -97595   -97600 
  -97602   -97596   -97592   -97594   -97594   -97596   -97599   -97595 
  -97592   -97592   -97591   -97594   -97599   -97602   -97607   -97615 
  -97622   -97629   -97636   -97640   -97641   -97642   -97645   -97649 
  -97657   -97663   -97667   -97672   -97676   -97684   -97690   -97694 
  -97702   -97707   -97710   -97717   -97719   -97725   -97734   -97737 
  -97738   -97744   -97753   -97761   -97765   -97769   -97779   -97785 
  -97788   -97795   -97798   -97800   -97808   -97814   -97816   -97819 
  -97818   -97818   -97823   -97826   -97829   -97833   -97835   -97834 
  -97833   -97837   -97841   -97841   -97841   -97841   -97839   -97837 
  -97833   -97830   -97829   -97827   -97825   -97823   -97821   -97819 
  -97818   -97811   -97810   -97810   -97804   -97803   -97808   -97810 
  -97806   -97806   -97806   -97803   -97804   -97806   -97800   -97795 
  -97792   -97783   -97775   -97769   -97761   -97752   -97746   -97744 
  -97737   -97725   -97714   -97704   -97694   -97677   -97660   -97650 
  -97646   -97640   -97633   -97629   -97622   -97613   -97610   -97613 
  -97615   -97613   -97611   -97615   -97617   -97621   -97626   -97630 
  -97637   -97645   -97653   -97669   -97684   -97694   -97704   -97722 
  -97738   -97753   -97765   -97777   -97791   -97807   -97821   -97831 
  -97846   -97857   -97862   -97873   -97888   -97899   -97906   -97912 
  -97916   -97918   -97920   -97924   -97924   -97919   -97916   -97916 
  -97916   -97916   -97914   -97906   -97900   -97896   -97888   -97880 
  -97879   -97876   -97866   -97860   -97860   -97856   -97850   -97848 
  -97846   -97842   -97837   -97830   -97825   -97822   -97818   -97815 
  -97814   -97811   -97807   -97806   -97808   -97812   -97815   -97816 
  -97818   -97823   -97830   -97829   -97825   -97829   -97831   -97838 
  -97848   -97854   -97857   -97860   -97865   -97870   -97870   -97870 
  -97875   -97876   -97877   -97877   -97872   -97866   -97862   -97857 
  -97858   -97861   -97854   -97846   -97843   -97841   -97837   -97831 
  -97822   -97814   -97808   -97807   -97806   -97803   -97799   -97796 
  -97796   -97800   -97796   -97787   -97783   -97783   -97783   -97785 
  -97789   -97791   -97795   -97802   -97804   -97808   -97815   -97816 
  -97815   -97818   -97821   -97823   -97827   -97831   -97833   -97837 
  -97841   -97845   -97850   -97856   -97858   -97860   -97856   -97852 
  -97848   -97842   -97841   -97839   -97837   -97835   -97838   -97839 
  -97841   -97842   -97843   -97842   -97841   -97841   -97839   -97835 
  -97834   -97835   -97835   -97833   -97830   -97829   -97831   -97835 
  -97838   -97838   -97837   -97834   -97833   -97834   -97835   -97837 
  -97833   -97827   -97827   -97823   -97821   -97822   -97823   -97826 
  -97827   -97826   -97823   -97821   -97819   -97823   -97826   -97827 
  -97829   -97826   -97821   -97821   -97821   -97823   -97827   -97826 
  -97826   -97829   -97830   -97833   -97835   -97831   -97831   -97834 
  -97835   -97834   -97835   -97839   -97839   -97839   -97843   -97848 
  -97846   -97842   -97843   -97848   -97852   -97857   -97860   -97861 
  -97865   -97866   -97865   -97864   -97860   -97857   -97856   -97852 
  -97848   -97848   -97845   -97841   -97839   -97837   -97831   -97829 
  -97827   -97819   -97812   -97808   -97802   -97795   -97789   -97783 
  -97775   -97768   -97768   -97765   -97761   -97760   -97756   -97752 
  -97749   -97749   -97748   -97744   -97744   -97742   -97738   -97737 
  -97740   -97738   -97737   -97738   -97737   -97735   -97731   -97727 
  -97726   -97725   -97721   -97717   -97713   -97714   -97713   -97707 
  -97702   -97699   -97698   -97699   -97702   -97700   -97700   -97703 
  -97702   -97698   -97703   -97714   -97723   -97731   -97735   -97740 
  -97745   -97754   -97764   -97768   -97771   -97777   -97787   -97792 
