Origin Time       2025/01/13 21:19:00
Lat.              31.8
Long.             131.6
Depth. (km)       30
Mag.              6.9
Station Code      NARH01
Station Lat.      33.9666
Station Long.     135.6489
Station Height(m) 780
Record Time       2025/01/13 21:21:20
Sampling Freq(Hz) 100Hz
Duration Time(s)  120
Dir.              4
Scale Factor      7845(gal)/8223790
Max. Acc. (gal)   1.562
Last Correction   2025/01/13 21:21:20
Memo.             
[...]
     407      373      342      325      311      295      274      245 
     220      199      174      160      164      171      183      205 
     233      267      306      346      382      407      421      421 
     414      407      410      423      445      460      464      460 
     452      442      429      411      390      371      352      344 
     348      356      360      364      380      410      434      438 
     422      396      367      322      268      217      172      140 
     125      120      122      129      137      155      187      226 
     267      309      346      380      415      450      480      503 
     519      527      534      540      531      506      473      446 
     419      387      355      321      278      244      236      251 
     282      322      364      400      434      463      473      471 
     471      465      459      464      473      473      459      429 
     387      332      272      228      202      183      171      167 
     171      193      224      252      274      294      313      334 
     353      365      367      359      344      330      314      291 
     268      256      253      255      265      290      321      356 
     390      414      432      445      449      438      427      427 
     436      445      454      453      429      383      326      284 
     257      240      238      253      276      306      336      355 
     371      386      391      388      386      383      373      360 
     351      344      330      305      282      271      270      275 
     291      310      317      315      309      302      299      294 
     291      299      311      334      364      390      409      425 
     445      473      507      530      525      486      427      368 
     326      306      305      324      353      384      409      423 
     432      426      406      372      330      294      272      261 
     257      259      263      257      251      248      244      240 
     241      247      263      287      303      309      310      311 
     317      324      330      346      361      359      352      351 
     355      363      373      384      392      395      405      422 
     445      468      487      491      481      463      444      427 
     407      382      361      342      310      270      244      241 
     245      251      264      283      297      301      303      322 
     359      394      413      422      422      411      396      378 
     346      309      278      261      251      243      247      255 
     261      276      292      313      344      379      407      422 
     434      454      481      499      502      495      486      468 
     445      417      382      336      284      245      226      218 
     220      229      243      259      272      279      278      279 
     294      319      352      395      442      479      494      487 
     460      414      361      315      284      268      263      267 
     283      324      383      437      463      464      454      438 
     422      415      425      445      463      475      477      461 
     426      386      338      280      228      180      143      120 
     113      117      126      133      148      167      189      224 
     261      292      317      337      356      380      411      442 
     471      484      471      438      407      394      395      396 
     392      390      386      383      378      368      361      364 
     379      400      425      445      460      461      453      449 
     444      417      372      332      298      267      245      243 
     251      263      286      317      340      355      361      365 
     379      394      402      402      391      365      334      313 
     291      253      203      151      102       72       75       98 
     124      152      190      234      284      342      402      456 
     510      567      627      685      724      733      719      699 
     675      641      602      568      534      503      475      442 
     400      351      298      243      194      148      101       67 
      49       40       35       37       51       75      112      159 
     213      268      324      382      425      444      452      450 
     445      449      457      460      467      479      487      491 
     496      491      467      429      383      337      307      284 
     268      272      287      297      302      314      337      361 
     368      359      344      336      332      332      338      348 
     355      355      348      337      315      279      241      217 
     206      206      209      209      207      210      222      245 
     267      282      295      317      348      373      391      410 
     441      476      503      518      527      538      544      535 
     522      496      460      417      379      359      351      345 
     340      332      324      318      305      283      263      245 
     224      211      220      228      229      233      236      228 
     226      244      282      333      380      419      456      491 
     519      526      507      473      438      409      384      371 
     363      359      361      371      383      378      349      307 
     265      247      257      279      301      317      325      330 
     338      353      371      382      382      390      422      475 
     530      561      560      538      502      448      394      364 
     359      353      334      310      284      255      226      214 
     216      220      221      230      248      276      310      328 
     322      306      291      276      265      261      270      298 
     349      415      483      542      569      549      507      457 
     400      359      334      313      301      298      301      310 
     314      307      306      309      310      321      341      353 
     352      336      326      330      336      344      360      375 
     379      379      376      364      349      344      349      365 
     391      418      442      450      444      432      406      364 
     332      315      302      287      275      274      280      286 
     294      303      305      309      328      359      396      445 
     500      550      594      618      616      594      560      517 
     469      426      396      373      348      322      305      287 
     261      228      190      155      129      110       94       95 
     128      187      265      355      427      471      479      460 
     427      392      356      337      346      376      411      445 
     476      494      498      490      468      444      429      421 
     422      426      427      425      414      405      405      402 
     382      346      310      284      278      290      315      341 
     360      376      395      415      427      432      432      427 
     430      433      417      379      334      291      245      210 
     205      218      247      284      317      337      349      361 
     371      364      341      314      280      241      217      226 
     253      275      302      353      415      475      518      527 
     500      465      453      467      494      521      535      535 
     521      491      453      410      365      326      305      302 
     317      345      380      410      410      369      298      218 
     151      114      114      145      206      287      364      414 
     434      434      422      402      386      365      325      267 
     222      210      218      236      256      267      270      275 
     292      329      384      429      452      448      409      338 
     264      217      209      232      272      329      388      422 
     423      398      357      336      363      426      498      565 
     604      588      522      430      329      218      124       91 
     113      151      202      265      322      369      417      453 
     481      518      552      572      571      552      521      486 
     460      445      414      340      228      102      -16     -112 
    -166     -157      -85       39      193      352      506      639 
     734      796      820      797      738      661      585      503 
     390      256      132       33      -39      -81      -85      -62 
     -18       40      117      195      252      299      356      402 
     429      453      488      542      621      711      793      846 
     846      788      681      544      413      318      274      282 
     328      378      396      379      324      225       91      -58 
    -182     -252     -260     -197      -78       55      178      274 
     326      359      391      432      488      553      616      661 
     653      592      506      418      349      298      265      284 
     340      392      427      425      390      349      310      286 
     299      341      386      433      487      525      518      463 
     386      321      299      333      399      465      513      525 
     492      430      372      338      329      328      328      337 
     351      342      302      238      155       58      -17      -36 
       1       68      139      194      221      221      203      183 
     160      152      176      234      326      445      572      684 
     747      738      656      518      368      229      101       12 
     -16       12       81      166      260      369      499      630 
     737      787      769      700      600      488      375      255 
     129        8     -105     -187     -207     -160      -56       99 
     294      480      641      780      877      911      876      788 
     699      642      602      546      479      403      318      238 
     187      170      198      280      391      504      612      703 
     765      801      816      785      700      584      450      306 
     144      -29     -186     -294     -355     -376     -338     -247 
    -136      -27       91      226      372      507      604      666 
     711      743      757      727      638      499      349      230 
     156      130      144      176      203      206      180      143 
     118      122      164      248      344      417      469      523 
     573      612      662      750      851      920      919      826 
     637      369       64     -224     -437     -545     -538     -425 
    -234      -10      220      438      646      842     1011     1123 
    1151     1077      895      633      340       66     -148     -290 
    -368     -382     -314     -172        0      193      415      648 
     834      924      912      828      707      581      472      368 
     268      178      108       66       28      -45     -151     -243 
    -282     -243     -101      126      402      702     1003     1258 
    1420     1463     1385     1197      930      633      333       41 
    -211     -392     -471     -430     -287      -79      157      395 
     604      778      922     1034     1116     1179     1228     1224 
    1113      900      621      324       64     -122     -264     -392 
    -506     -606     -707     -808     -869     -837     -689     -446 
    -151      168      480      757      977     1115     1159     1142 
    1107     1075     1034      973      897      801      696      608 
     535      422      241       10     -216     -372     -422     -365 
    -217      -18      193      372      475      490      438      340 
     213       78      -40     -102     -101      -40       79      233 
     368      438      467      503      571      662      746      791 
     776      693      565      419      245       33     -184     -360 
    -452     -460     -411     -325     -213     -106      -12      110 
     309      599      947     1285     1549     1717     1798     1791 
    1699     1524     1286     1030      778      531      311      132 
     -24     -164     -264     -309     -313     -301     -272     -216 
    -130      -10      136      280      400      480      499      437 
     292       91     -116     -276     -356     -342     -224       -2 
     298      635      932     1097     1081      901      660      440 
     253       90      -51     -156     -202     -176      -79       72 
     234      364      463      541      598      646      688      719 
     750      770      764      734      689      638      573      481 
     349      175      -25     -209     -338     -411     -394     -244 
      13      325      625      837      923      915      865      797 
     700      583      507      513      580      668      730      739 
     699      646      612      595      562      491      386      252 
      89     -101     -305     -484     -589     -577     -442     -228 
      12      237      414      511      502      383      217      106 
     133      290      506      719      909     1051     1116     1080 
     934      714      486      305      194      147      137      147 
     183      249      307      299      229      163      151      199 
     290      386      461      514      533      511      446      349 
     256      209      218      240      199       94      -28     -145 
    -243     -302     -360     -437     -483     -446     -332     -152 
      95      410      768     1132     1471     1750     1931     1983 
    1907     1711     1413     1050      666      299      -24     -310 
    -557     -754     -908     -999     -984     -831     -538     -155 
     248      621      911     1090     1169     1154     1067      932 
     766      568      337      117      -48     -144     -156      -93 
       0       78      139      202      302      460      673      897 
    1058     1121     1096      988      810      599      375      152 
     -27     -118     -113      -54       27      141      295      450 
     576      653      660      603      518      425      326      241 
     194      191      191      141       35     -113     -279     -411 
    -490     -517     -476     -338      -81      270      631      935 
    1167     1339     1431     1409     1262     1026      758      508 
     283       86      -82     -211     -280     -295     -295     -299 
    -279     -203      -51      163      399      618      788      903 
     982     1032     1046     1040     1031      978      843      634 
     402      199       63       -1       -1       40      116      232 
     383      537      650      689      645      530      375      213 
      81       21       33       83      113       64      -67     -225 
    -326     -338     -267     -132       37      221      406      579 
     734      868      970     1032     1055     1030      953      823 
     643      432      218       27     -122     -211     -243     -226 
    -190     -170     -170     -163     -118      -18      132      313 
     503      684      831      911      908      843      750      675 
     645      641      616      560      498      456      425      395 
     346      256      155       97       97      143      206      255 
     275      261      225      176      122       99      129      179 
     220      267      351      483      650      818      939      986 
     962      889      797      688      560      440      363      341 
     361      387      395      371      294      174       45      -59 
    -118     -109      -28      109      276      457      654      845 
     990     1073     1077      984      799      556      290       31 
    -179     -292     -309     -287     -275     -271     -260     -247 
    -241     -253     -252     -183      -14      248      565      870 
    1111     1251     1275     1182      984      716      427      157 
     -59     -207     -278     -270     -202      -86       70      226 
     315      317      268      217      193      216      301      449 
     649      866     1051     1165     1182     1090      923      731 
     552      399      275      162       49      -74     -202     -309 
    -394     -444     -429     -359     -255     -143      -47       24 
      72      101      133      201      336      542      773      986 
    1150     1239     1255     1235     1188     1115     1021      912 
     796      699      634      581      533      490      432      345 
     232      101      -36     -167     -257     -298     -317     -338 
    -337     -274     -149        4      155      275      369      446 
     504      544      575      599      627      652      652      616 
     527      382      203       29     -109     -198     -236     -236 
    -189      -81       89      305      546      773      940     1032 
    1051     1003      900      747      544      322      121      -41 
    -140     -137      -40      105      264      409      498      527 
     517      490      465      450      436      413      372      310 
     249      217      217      249      291      302      268      209 
     147      110       91       74       66       94      148      194 
     205      198      220      283      372      469      580      702 
     820      916      966      954      882      762      612      453 
     303      194      148      151      176      187      156      103 
      72       75      117      193      270      341      413      461 
     460      417      375      369      407      461      498      503 
     472      415      349      282      236      241      305      409 
     514      567      553      487      387      265      145       55 
       0      -29      -44      -37        4       71      157      264 
     383      495      584      629      623      583      521      461 
     432      440      475      499      477      388      237       62 
     -98     -225     -303     -317     -259     -128       55      257 
     438      584      704      811      903      962      972      936 
     865      774      677      584      521      510      527      537 
     504      403      251       98      -12      -72      -85      -64 
     -37      -31      -60     -116     -155     -132      -27      140 
     328      504      653      751      804      819      795      742 
     675      602      541      517      541      598      646      649 
     594      483      333      184       79       47       87      178 
     282      363      409      419      405      380      351      303 
     252      220      218      243      267      264      226      147 
      47      -29      -75     -110     -135     -122      -59       55 
     191      325      442      537      595      615      599      560 
     522      513      548      612      681      738      766      760 
     718      643      530      391      272      203      170      170 
     193      209      214      217      205      180      156      148 
     176      247      340      421      465      473      452      390 
     303      213      126       79      108      198      318      444 
     561      670      761      814      808      741      622      472 
     322      199      106       40       18       41       90      139 
