Origin Time       2025/01/13 21:19:00
Lat.              31.8
Long.             131.6
Depth. (km)       30
Mag.              6.9
Station Code      NARH03
Station Lat.      34.2925
Station Long.     136.0022
Station Height(m) 358
Record Time       2025/01/13 21:22:19
Sampling Freq(Hz) 100Hz
Duration Time(s)  120
Dir.              5
Scale Factor      7845(gal)/8223790
Max. Acc. (gal)   0.140
Last Correction   2025/01/13 21:22:21
Memo.             
[...]
    1047     1043     1039     1038     1038     1039     1039     1042 
    1046     1047     1047     1050     1050     1050     1055     1063 
    1067     1070     1069     1069     1069     1069     1067     1069 
    1073     1074     1074     1070     1065     1063     1065     1063 
    1063     1069     1071     1073     1075     1078     1077     1073 
    1071     1070     1070     1073     1071     1066     1062     1058 
    1053     1048     1047     1047     1048     1047     1046     1048 
    1047     1042     1036     1034     1030     1027     1028     1028 
    1024     1021     1021     1024     1023     1020     1019     1020 
    1023     1026     1026     1026     1027     1031     1035     1034 
    1030     1024     1016     1008     1004     1003     1007     1009 
    1011     1011     1011     1012     1016     1016     1013     1012 
    1012     1011     1015     1019     1024     1031     1036     1043 
    1048     1047     1043     1043     1048     1050     1048     1051 
    1058     1061     1062     1066     1066     1065     1063     1063 
    1062     1061     1063     1066     1066     1065     1059     1053 
    1050     1050     1048     1050     1054     1058     1055     1050 
    1046     1047     1047     1044     1046     1046     1043     1046 
    1048     1048     1047     1050     1050     1047     1047     1050 
    1048     1040     1032     1030     1028     1028     1031     1034 
    1028     1021     1023     1027     1030     1034     1039     1040 
    1039     1036     1030     1024     1016     1008     1005     1007 
    1005     1008     1012     1020     1030     1038     1046     1055 
    1063     1069     1073     1077     1078     1078     1080     1080 
    1078     1080     1081     1081     1081     1082     1084     1086 
    1086     1086     1086     1084     1081     1081     1077     1075 
    1078     1081     1082     1081     1077     1073     1073     1073 
    1075     1077     1081     1082     1075     1070     1073     1074 
    1071     1071     1071     1069     1069     1071     1073     1074 
    1074     1069     1065     1069     1069     1071     1078     1078 
    1075     1074     1071     1069     1070     1066     1063     1065 
    1067     1067     1063     1059     1054     1050     1047     1046 
    1044     1044     1043     1044     1047     1044     1043     1044 
    1046     1048     1051     1044     1042     1042     1040     1039 
    1040     1043     1046     1050     1054     1061     1069     1077 
    1077     1071     1063     1057     1057     1058     1054     1048 
    1044     1036     1030     1026     1021     1020     1027     1032 
    1035     1040     1043     1039     1032     1024     1020     1021 
    1021     1019     1017     1019     1017     1017     1020     1017 
    1012     1015     1015     1011     1011     1013     1016     1019 
    1023     1028     1032     1034     1038     1038     1034     1030 
    1021     1015     1012     1016     1026     1032     1035     1044 
    1051     1054     1061     1066     1065     1066     1067     1063 
    1059     1057     1054     1055     1061     1067     1073     1078 
    1084     1089     1094     1098     1101     1098     1093     1089 
    1082     1075     1070     1069     1069     1071     1073     1071 
    1071     1073     1073     1077     1080     1081     1084     1080 
    1073     1070     1067     1065     1066     1069     1074     1078 
    1078     1078     1081     1085     1089     1096     1097     1096 
    1096     1093     1089     1084     1075     1067     1065     1066 
    1063     1062     1065     1065     1062     1058     1054     1051 
    1046     1038     1034     1035     1036     1034     1028     1027 
    1026     1026     1023     1023     1028     1035     1036     1040 
    1040     1034     1031     1031     1024     1016     1015     1012 
    1013     1017     1020     1024     1034     1039     1040     1042 
    1043     1046     1046     1047     1050     1048     1047     1047 
    1047     1050     1054     1057     1059     1062     1067     1071 
    1074     1075     1075     1077     1084     1082     1075     1075 
    1077     1074     1073     1069     1065     1065     1067     1063 
    1058     1058     1062     1061     1054     1051     1050     1048 
    1046     1039     1031     1028     1027     1019     1015     1016 
    1017     1017     1013     1009     1009     1008     1007     1008 
    1012     1016     1015     1009     1008     1008     1008     1009 
    1009     1011     1016     1017     1016     1015     1012     1008 
    1009     1008     1007     1009     1009     1008     1015     1020 
    1026     1026     1024     1021     1016     1009     1011     1013 
    1015     1017     1021     1024     1021     1023     1026     1027 
    1030     1035     1036     1036     1036     1034     1034     1038 
    1043     1051     1055     1057     1055     1054     1054     1058 
    1062     1065     1061     1051     1044     1042     1039     1036 
    1036     1039     1039     1039     1046     1054     1057     1059 
    1066     1074     1077     1077     1071     1065     1065     1069 
    1069     1067     1071     1075     1078     1082     1085     1085 
    1086     1088     1089     1090     1090     1090     1084     1075 
    1077     1081     1082     1084     1086     1084     1081     1081 
    1078     1077     1080     1082     1085     1089     1089     1082 
    1084     1093     1102     1107     1108     1107     1104     1104 
    1102     1102     1109     1111     1104     1101     1101     1098 
    1089     1080     1074     1069     1063     1063     1065     1063 
    1058     1054     1048     1042     1036     1034     1032     1031 
    1028     1027     1023     1019     1012     1003      993      986 
     981      978      980      980      980      982      984      984 
     984      981      978      977      973      965      961      958 
     958      959      961      958      954      950      951      958 
     966      973      980      984      984      982      977      974 
     974      973      973      980      985      986      990      999 
    1008     1021     1030     1028     1023     1016     1013     1016 
    1021     1019     1015     1015     1017     1021     1028     1035 
    1035     1034     1038     1042     1044     1047     1046     1047 
    1053     1055     1050     1048     1053     1055     1055     1054 
    1054     1055     1054     1050     1047     1046     1042     1038 
    1035     1028     1026     1026     1024     1023     1020     1016 
    1015     1012     1016     1026     1028     1030     1034     1034 
    1032     1031     1030     1028     1028     1030     1028     1027 
    1028     1030     1030     1030     1032     1034     1034     1034 
    1032     1031     1035     1036     1038     1039     1040     1042 
    1046     1054     1057     1059     1063     1062     1061     1059 
    1054     1051     1054     1053     1048     1044     1046     1048 
    1047     1048     1054     1055     1054     1057     1059     1059 
    1055     1055     1054     1048     1044     1040     1035     1034 
    1036     1036     1035     1036     1035     1031     1028     1027 
    1023     1016     1012     1007     1001     1004     1005     1005 
    1007     1007     1004     1004     1000      993      989      994 
    1001     1003     1003     1005     1005     1004     1008     1011 
    1011     1013     1016     1017     1016     1013     1012     1012 
    1009     1004     1003     1003     1003     1003     1003     1003 
    1005     1007     1005     1003     1000     1001     1004     1007 
    1008     1009     1011     1008     1007     1009     1012     1011 
    1009     1012     1013     1012     1013     1017     1016     1015 
    1013     1011     1008     1007     1005     1004     1001     1004 
    1009     1013     1013     1012     1015     1016     1016     1017 
    1019     1020     1021     1023     1021     1015     1009     1011 
    1015     1016     1016     1020     1026     1024     1026     1026 
    1024     1023     1021     1021     1021     1020     1019     1017 
    1012     1007     1004      999     1000     1005     1005     1003 
    1001      997      994      999     1003     1005     1007     1007 
    1005     1005     1007     1009     1009     1011     1012     1011 
    1009     1012     1019     1027     1034     1043     1057     1067 
    1073     1077     1080     1080     1082     1088     1090     1093 
    1093     1092     1092     1089     1082     1078     1081     1082 
    1082     1082     1082     1078     1074     1069     1063     1061 
    1059     1057     1055     1051     1050     1050     1050     1051 
    1053     1053     1048     1046     1040     1035     1035     1035 
    1030     1026     1019     1007     1000      999      996      993 
     994      993      990      992      993      994      997      999 
     999      999      997      996      999     1003     1008     1009 
    1005     1004     1001      999     1003     1007     1008     1009 
    1004     1001     1005     1007     1001      999     1003     1007 
    1012     1012     1011     1007     1003     1001     1004     1008 
    1015     1019     1021     1023     1028     1034     1036     1036 
    1035     1034     1035     1038     1039     1040     1046     1055 
    1062     1069     1078     1085     1088     1089     1088     1085 
    1085     1082     1080     1078     1078     1080     1082     1081 
    1075     1077     1080     1078     1077     1075     1071     1069 
    1063     1057     1051     1048     1046     1042     1038     1032 
    1026     1019     1012     1003      997      994      993      992 
     988      981      980      980      973      972      970      965 
     962      962      961      962      962      963      969      976 
     978      980      978      974      977      981      980      981 
     985      981      981      986      989      990      993      993 
     994      994      993      993      994      999     1001     1005 
    1009     1008     1005     1003     1003     1005     1007     1003 
     994      992      994     1001     1005     1007     1007     1009 
    1015     1016     1017     1020     1024     1030     1032     1035 
    1036     1038     1036     1031     1030     1028     1024     1024 
    1028     1028     1030     1034     1038     1039     1043     1043 
    1044     1051     1053     1050     1047     1044     1040     1036 
    1031     1027     1027     1030     1030     1032     1039     1043 
    1042     1043     1046     1044     1043     1046     1048     1051 
    1055     1057     1055     1051     1050     1048     1046     1050 
    1054     1054     1057     1057     1053     1047     1046     1046 
    1044     1047     1047     1044     1044     1046     1044     1044 
    1044     1044     1042     1040     1039     1032     1030     1030 
    1024     1020     1020     1019     1016     1013     1015     1016 
    1015     1013     1015     1017     1021     1024     1024     1024 
    1026     1027     1026     1023     1026     1028     1026     1027 
    1034     1040     1046     1048     1051     1054     1054     1051 
    1053     1051     1046     1042     1040     1036     1031     1028 
    1023     1019     1017     1016     1011     1007     1004      999 
     994      988      984      981      978      973      965      957 
     949      943      938      934      931      932      932      928 
     930      930      928      931      935      942      953      962 
     970      978      986      993     1001     1008     1011     1011 
    1008     1007     1009     1016     1024     1027     1028     1030 
    1034     1039     1046     1053     1058     1061     1063     1066 
    1065     1065     1069     1067     1066     1065     1063     1059 
    1055     1058     1061     1057     1053     1051     1054     1054 
    1048     1046     1043     1035     1026     1020     1015     1011 
    1011     1008     1004     1003     1004     1004     1004     1009 
    1013     1013     1012     1007     1007     1011     1009     1005 
    1004     1003     1000     1001      997      994      997     1000 
    1000     1004     1005     1005     1008     1012     1011     1011 
    1009     1009     1011     1009     1008     1009     1011     1012 
    1013     1012     1008     1005     1003      996      992      993 
     993      990      988      985      985      988      993      999 
    1004     1011     1016     1021     1026     1030     1036     1042 
    1046     1051     1054     1054     1059     1066     1067     1070 
    1074     1077     1078     1082     1084     1084     1086     1093 
    1096     1096     1098     1104     1105     1107     1109     1109 
    1115     1121     1119     1115     1116     1116     1112     1107 
    1102     1100     1093     1084     1081     1078     1073     1070 
    1069     1062     1058     1054     1051     1047     1040     1038 
    1035     1031     1030     1030     1026     1019     1013     1005 
     997      990      986      982      980      974      974      974 
     967      962      959      953      946      945      942      938 
     934      928      920      912      903      897      897      895 
     891      889      886      884      885      888      891      893 
     896      895      896      903      907      904      908      911 
     911      915      923      934      942      950      959      966 
     969      977      982      984      986      992      999     1005 
    1013     1021     1028     1032     1035     1034     1032     1032 
    1034     1035     1035     1032     1032     1036     1038     1036 
    1038     1039     1038     1039     1040     1039     1040     1043 
    1039     1038     1038     1035     1035     1038     1032     1031 
    1034     1035     1036     1038     1038     1036     1035     1031 
    1030     1030     1027     1023     1024     1028     1027     1020 
    1019     1017     1013     1011     1011     1008     1004     1005 
    1007     1008     1009     1011     1012     1015     1015     1016 
    1021     1030     1034     1034     1032     1035     1040     1048 
    1057     1066     1075     1082     1088     1094     1105     1117 
    1125     1131     1131     1131     1132     1131     1131     1138 
    1143     1147     1148     1146     1142     1140     1139     1140 
    1143     1143     1143     1140     1138     1140     1143     1138 
    1131     1127     1123     1120     1116     1108     1104     1101 
    1094     1092     1093     1092     1089     1085     1078     1071 
    1067     1061     1051     1046     1043     1039     1034     1028 
    1017     1009     1004      999      996      993      985      977 
     973      970      967      961      953      949      947      942 
     936      935      939      939      939      938      938      938 
     935      931      924      922      919      915      909      901 
     896      896      893      892      893      896      897      901 
     905      907      907      907      908      908      908      912 
     916      916      920      924      924      920      920      922 
     923      926      931      936      938      942      949      951 
     957      962      962      961      962      965      966      967 
     969      970      976      982      985      985      985      989 
     994      999      999      999      999      997      996      997 
     997      996      997      999      997      993      992      996 
     990      982      981      986      990      992      997     1001 
    1003     1004     1009     1012     1015     1019     1023     1024 
    1030     1035     1034     1032     1034     1035     1036     1039 
    1040     1039     1044     1053     1055     1057     1059     1061 
    1058     1059     1061     1061     1063     1062     1058     1058 
    1053     1044     1043     1046     1047     1048     1048     1046 
    1044     1044     1043     1042     1042     1047     1053     1053 
    1055     1058     1062     1067     1070     1069     1063     1055 
    1050     1046     1042     1039     1040     1043     1043     1044 
    1046     1048     1047     1044     1042     1044     1047     1047 
    1048     1053     1054     1053     1054     1057     1055     1054 
    1053     1050     1051     1057     1061     1063     1069     1073 
    1070     1069     1071     1075     1074     1073     1074     1075 
    1077     1084     1090     1094     1097     1098     1100     1100 
    1098     1098     1100     1098     1097     1098     1098     1098 
    1100     1100     1097     1096     1094     1094     1092     1085 
    1080     1075     1071     1067     1063     1059     1057     1053 
    1051     1054     1057     1055     1054     1058     1057     1053 
    1054     1054     1050     1046     1038     1030     1023     1015 
    1011     1007     1003     1001     1001     1000     1000      999 
     996      994      996      997      990      984      978      973 
     973      974      972      969      969      967      965      962 
     962      961      958      957      951      950      953      955 
     958      959      963      965      967      970      969      967 
     970      972      974      977      978      980      980      980 
     978      978      978      977      980      982      980      977 
     981      985      988      993      999     1003     1001     1000 
    1005     1012     1015     1017     1021     1024     1026     1031 
    1036     1038     1040     1042     1039     1038     1038     1035 
    1031     1032     1032     1032     1032     1034     1032     1028 
    1024     1021     1017     1012     1009     1007     1004     1003 
    1004     1005     1005     1008     1011     1015     1019     1023 
    1024     1028     1034     1035     1036     1040     1044     1048 
    1054     1055     1057     1061     1063     1066     1073     1077 
    1078     1081     1084     1086     1093     1098     1097     1096 
    1097     1098     1098     1101     1107     1111     1115     1117 
    1117     1116     1116     1115     1116     1117     1116     1116 
    1117     1116     1112     1111     1111     1109     1111     1112 
    1111     1105     1105     1109     1109     1108     1107     1101 
    1098     1097     1093     1089     1086     1080     1074     1073 
    1069     1061     1055     1054     1051     1047     1040     1032 
    1027     1023     1016     1012     1013     1011     1008     1001 
     993      989      985      981      982      982      980      980 
     977      972      967      966      966      969      966      963 
     963      962      961      966      973      974      973      976 
     977      977      981      982      980      980      981      982 
     984      984      986      993      999     1000     1003     1003 
    1004     1005     1004     1007     1012     1013     1016     1016 
    1013     1015     1020     1023     1024     1026     1027     1028 
