Origin Time       2025/01/13 21:19:00
Lat.              31.8
Long.             131.6
Depth. (km)       30
Mag.              6.9
Station Code      NARH05
Station Lat.      34.4237
Station Long.     136.0294
Station Height(m) 390
Record Time       2025/01/13 21:22:11
Sampling Freq(Hz) 100Hz
Duration Time(s)  120
Dir.              4
Scale Factor      7845(gal)/8223790
Max. Acc. (gal)   0.236
Last Correction   2025/01/13 21:22:12
Memo.             
[...]
    1622     1629     1629     1624     1614     1603     1599     1601 
    1603     1603     1603     1601     1597     1595     1599     1607 
    1621     1633     1641     1640     1633     1628     1618     1603 
    1588     1571     1552     1541     1536     1534     1539     1547 
    1566     1593     1620     1641     1651     1647     1637     1625 
    1610     1591     1576     1570     1566     1564     1570     1575 
    1580     1588     1603     1624     1642     1657     1672     1679 
    1676     1665     1651     1632     1615     1605     1599     1594 
    1595     1606     1617     1628     1644     1663     1674     1680 
    1679     1667     1651     1629     1603     1583     1578     1579 
    1591     1614     1632     1648     1659     1652     1633     1615 
    1597     1580     1572     1572     1580     1591     1598     1605 
    1610     1607     1607     1613     1614     1611     1607     1591 
    1574     1567     1567     1572     1586     1605     1620     1626 
    1626     1621     1614     1605     1597     1586     1575     1566 
    1559     1560     1570     1582     1601     1624     1642     1651 
    1649     1636     1618     1609     1602     1598     1597     1597 
    1601     1606     1610     1615     1620     1618     1615     1611 
    1606     1607     1613     1622     1633     1644     1651     1651 
    1641     1625     1609     1597     1587     1582     1583     1587 
    1595     1606     1615     1629     1644     1651     1653     1653 
    1647     1637     1626     1614     1615     1629     1641     1651 
    1657     1657     1656     1648     1633     1625     1626     1634 
    1651     1667     1678     1687     1695     1699     1696     1687 
    1672     1657     1647     1638     1633     1632     1640     1652 
    1664     1676     1682     1679     1678     1675     1667     1656 
    1644     1629     1618     1618     1625     1633     1638     1640 
    1642     1651     1655     1653     1653     1660     1668     1669 
    1665     1659     1652     1647     1640     1634     1636     1638 
    1640     1638     1638     1640     1647     1656     1665     1665 
    1661     1656     1647     1636     1629     1630     1637     1637 
    1638     1651     1665     1668     1671     1676     1678     1672 
    1667     1653     1633     1615     1606     1605     1614     1625 
    1634     1647     1659     1668     1671     1668     1660     1645 
    1628     1614     1601     1586     1578     1578     1583     1593 
    1605     1613     1622     1633     1642     1649     1648     1640 
    1632     1618     1609     1601     1595     1595     1603     1615 
    1628     1633     1629     1620     1605     1593     1587     1587 
    1593     1597     1599     1607     1618     1625     1628     1628 
    1632     1640     1645     1645     1645     1645     1641     1641 
    1641     1640     1640     1637     1629     1624     1615     1603 
    1601     1606     1617     1629     1642     1653     1661     1667 
    1665     1655     1637     1617     1597     1583     1579     1580 
    1588     1603     1620     1630     1640     1648     1648     1641 
    1626     1607     1587     1568     1559     1559     1561     1568 
    1586     1611     1634     1651     1657     1655     1645     1636 
    1624     1613     1603     1594     1591     1593     1593     1595 
    1601     1610     1622     1634     1638     1637     1634     1634 
    1634     1633     1629     1621     1615     1610     1605     1599 
    1598     1603     1611     1625     1640     1649     1652     1651 
    1642     1628     1615     1605     1591     1587     1590     1590 
    1594     1605     1615     1622     1628     1632     1637     1642 
    1647     1651     1652     1652     1648     1641     1636     1629 
    1625     1626     1632     1640     1642     1642     1645     1651 
    1655     1656     1657     1656     1649     1647     1647     1649 
    1653     1657     1659     1655     1647     1636     1618     1599 
    1588     1584     1583     1590     1605     1622     1641     1655 
    1660     1655     1640     1622     1603     1586     1572     1564 
    1561     1566     1574     1586     1597     1607     1621     1628 
    1625     1621     1615     1605     1595     1591     1590     1588 
    1587     1584     1580     1579     1582     1588     1602     1621 
    1640     1653     1656     1653     1645     1632     1617     1602 
    1591     1586     1576     1567     1568     1576     1588     1606 
    1621     1632     1640     1644     1641     1637     1630     1622 
    1615     1613     1611     1613     1611     1605     1602     1607 
    1611     1611     1613     1614     1609     1599     1591     1593 
    1598     1607     1618     1629     1637     1647     1660     1671 
    1675     1671     1661     1652     1641     1625     1611     1606 
    1599     1602     1614     1630     1651     1676     1692     1698 
    1695     1684     1671     1656     1641     1630     1625     1620 
    1621     1625     1625     1625     1628     1628     1630     1636 
    1638     1633     1629     1630     1629     1624     1617     1609 
    1601     1599     1603     1606     1614     1629     1638     1641 
    1640     1638     1644     1652     1657     1657     1653     1645 
    1638     1633     1628     1629     1637     1651     1664     1668 
    1661     1645     1626     1614     1606     1602     1601     1603 
    1606     1610     1615     1625     1633     1634     1629     1617 
    1603     1595     1591     1593     1599     1607     1613     1611 
    1606     1599     1590     1582     1576     1578     1580     1580 
    1579     1578     1576     1572     1571     1570     1563     1555 
    1541     1528     1524     1530     1537     1547     1555     1557 
    1559     1560     1559     1557     1555     1553     1551     1548 
    1545     1544     1545     1547     1552     1559     1563     1567 
    1572     1578     1582     1591     1603     1615     1622     1626 
    1626     1624     1622     1625     1629     1636     1644     1651 
    1652     1653     1656     1656     1653     1648     1641     1638 
    1638     1640     1647     1653     1659     1661     1665     1664 
    1657     1655     1653     1653     1653     1655     1656     1656 
    1657     1657     1655     1649     1647     1642     1632     1620 
    1607     1602     1605     1610     1618     1628     1633     1633 
    1633     1632     1628     1624     1620     1617     1613     1609 
    1603     1601     1603     1609     1615     1621     1621     1618 
    1621     1622     1618     1618     1620     1622     1626     1630 
    1634     1636     1636     1636     1636     1637     1640     1638 
    1640     1644     1651     1656     1659     1659     1653     1647 
    1637     1629     1625     1626     1629     1628     1622     1618 
    1614     1611     1613     1621     1634     1641     1640     1636 
    1629     1618     1609     1603     1599     1593     1593     1602 
    1615     1629     1645     1661     1669     1668     1663     1648 
    1629     1614     1601     1590     1594     1610     1628     1644 
    1656     1661     1660     1649     1634     1621     1603     1588 
    1580     1578     1582     1598     1613     1618     1621     1620 
    1611     1602     1588     1572     1557     1548     1545     1549 
    1560     1572     1584     1591     1591     1583     1570     1559 
    1553     1553     1559     1567     1574     1576     1579     1587 
    1590     1587     1586     1583     1574     1564     1557     1551 
    1551     1557     1566     1576     1584     1590     1591     1594 
    1599     1602     1597     1590     1587     1584     1583     1590 
    1594     1594     1593     1594     1599     1606     1607     1610 
    1615     1625     1640     1659     1671     1672     1667     1660 
    1653     1647     1638     1629     1624     1622     1625     1634 
    1648     1663     1676     1687     1696     1703     1706     1702 
    1699     1695     1692     1687     1678     1669     1665     1660 
    1653     1656     1661     1671     1682     1690     1698     1705 
    1702     1701     1699     1691     1683     1675     1661     1651 
    1644     1636     1632     1636     1640     1644     1651     1655 
    1660     1665     1671     1676     1675     1664     1653     1638 
    1620     1601     1586     1578     1576     1582     1593     1607 
    1621     1633     1640     1644     1645     1645     1640     1632 
    1621     1605     1590     1579     1571     1564     1564     1570 
    1580     1594     1606     1614     1622     1628     1629     1628 
    1618     1598     1578     1559     1541     1532     1529     1537 
    1551     1568     1587     1599     1605     1605     1597     1586 
    1574     1559     1549     1547     1548     1555     1563     1575 
    1587     1593     1595     1594     1590     1584     1584     1584 
    1583     1584     1586     1583     1579     1572     1570     1570 
    1568     1571     1575     1576     1580     1586     1591     1595 
    1594     1588     1580     1571     1560     1556     1556     1559 
    1566     1575     1587     1594     1597     1598     1597     1590 
    1582     1576     1570     1567     1567     1571     1580     1591 
    1603     1609     1609     1609     1605     1599     1594     1591 
    1590     1587     1588     1593     1594     1593     1595     1601 
    1601     1599     1597     1594     1597     1606     1615     1624 
    1629     1634     1636     1629     1622     1615     1613     1611 
    1611     1609     1606     1605     1602     1602     1603     1606 
    1609     1611     1611     1613     1611     1610     1609     1603 
    1595     1593     1591     1588     1587     1586     1583     1584 
    1586     1586     1586     1590     1598     1605     1613     1620 
    1622     1620     1615     1606     1593     1584     1583     1588 
    1599     1610     1621     1629     1630     1629     1626     1624 
    1620     1617     1614     1614     1613     1610     1607     1613 
    1622     1632     1642     1655     1663     1661     1659     1655 
    1644     1634     1634     1633     1628     1622     1618     1618 
    1618     1618     1621     1630     1641     1656     1675     1686 
    1687     1686     1678     1668     1661     1652     1638     1633 
    1632     1632     1641     1659     1672     1686     1703     1715 
    1723     1728     1725     1715     1703     1691     1682     1674 
    1664     1660     1661     1663     1669     1680     1692     1705 
    1709     1711     1711     1705     1696     1684     1671     1664 
    1659     1652     1651     1659     1672     1680     1684     1687 
    1682     1672     1663     1652     1648     1648     1645     1642 
    1638     1636     1638     1641     1637     1634     1638     1647 
    1648     1647     1642     1637     1628     1621     1621     1618 
    1609     1602     1595     1591     1597     1607     1613     1614 
    1614     1610     1601     1593     1580     1564     1547     1530 
    1513     1503     1501     1499     1503     1510     1518     1526 
    1530     1528     1518     1505     1487     1471     1460     1456 
    1451     1447     1444     1437     1435     1437     1439     1440 
    1444     1449     1456     1462     1463     1460     1452     1447 
    1443     1437     1431     1425     1425     1426     1429     1437 
    1451     1463     1472     1480     1482     1480     1476     1468 
    1459     1452     1448     1444     1445     1449     1452     1458 
    1470     1487     1503     1518     1529     1536     1537     1534 
    1532     1526     1521     1518     1520     1528     1536     1540 
    1545     1551     1556     1571     1583     1586     1590     1590 
    1588     1591     1594     1598     1602     1605     1606     1605 
    1599     1593     1588     1584     1586     1594     1605     1614 
    1625     1634     1636     1636     1636     1630     1628     1630 
    1634     1640     1648     1664     1683     1696     1706     1711 
    1706     1699     1696     1691     1688     1692     1701     1710 
    1726     1744     1759     1767     1767     1765     1760     1749 
    1740     1732     1730     1733     1737     1741     1746     1750 
    1756     1763     1773     1777     1772     1765     1759     1752 
    1749     1746     1745     1750     1753     1753     1756     1760 
    1765     1772     1780     1786     1787     1786     1786     1779 
    1771     1765     1756     1742     1733     1722     1711     1707 
    1713     1725     1740     1750     1760     1771     1771     1765 
    1759     1749     1738     1728     1719     1710     1703     1696 
    1691     1690     1694     1698     1699     1702     1706     1710 
    1711     1707     1699     1691     1682     1665     1648     1633 
    1621     1611     1606     1607     1611     1617     1624     1626 
    1624     1620     1618     1610     1595     1579     1561     1544 
    1528     1514     1509     1507     1509     1516     1522     1521 
    1520     1518     1512     1499     1491     1483     1471     1452 
    1433     1418     1413     1409     1405     1402     1402     1402 
    1402     1401     1404     1409     1416     1425     1429     1428 
    1424     1414     1401     1389     1378     1372     1371     1378 
    1390     1399     1413     1431     1444     1453     1459     1452 
    1440     1432     1425     1421     1422     1431     1440     1453 
    1471     1487     1501     1512     1520     1522     1524     1520 
    1512     1509     1512     1518     1529     1541     1553     1566 
    1574     1574     1571     1572     1578     1583     1593     1602 
    1611     1621     1630     1636     1641     1648     1655     1664 
    1676     1682     1684     1684     1684     1687     1694     1701 
    1707     1715     1722     1721     1723     1729     1736     1742 
    1750     1756     1757     1757     1753     1746     1742     1738 
    1732     1726     1723     1721     1721     1728     1734     1740 
    1742     1738     1730     1721     1706     1694     1686     1676 
    1672     1672     1672     1675     1676     1675     1675     1674 
    1672     1675     1674     1665     1657     1649     1640     1630 
    1621     1617     1621     1630     1642     1653     1659     1664 
    1671     1674     1671     1664     1649     1637     1630     1628 
    1626     1625     1624     1625     1630     1641     1655     1668 
    1678     1683     1682     1675     1667     1657     1647     1637 
    1632     1628     1628     1633     1640     1645     1653     1661 
    1671     1676     1675     1671     1664     1656     1647     1638 
    1632     1625     1621     1625     1634     1645     1652     1653 
    1656     1657     1653     1649     1642     1634     1625     1615 
    1607     1602     1598     1595     1597     1603     1607     1609 
    1610     1614     1611     1602     1595     1588     1579     1574 
    1570     1564     1563     1559     1553     1557     1566     1567 
    1566     1564     1561     1556     1555     1553     1549     1545 
    1545     1551     1556     1561     1567     1575     1582     1587 
    1587     1588     1591     1591     1595     1602     1605     1605 
    1607     1609     1610     1611     1613     1613     1617     1626 
    1634     1637     1640     1642     1644     1645     1651     1655 
    1653     1652     1655     1657     1660     1664     1665     1667 
    1667     1667     1665     1664     1663     1663     1664     1665 
    1663     1661     1663     1660     1656     1652     1641     1630 
    1626     1622     1620     1620     1624     1628     1633     1636 
    1634     1633     1632     1629     1628     1625     1621     1613 
    1605     1597     1587     1586     1591     1597     1607     1618 
    1620     1620     1618     1611     1602     1598     1593     1588 
    1587     1586     1587     1587     1584     1583     1582     1582 
    1583     1582     1580     1582     1588     1595     1597     1599 
    1601     1597     1591     1588     1586     1579     1575     1574 
    1572     1576     1588     1601     1617     1632     1640     1644 
    1647     1645     1641     1633     1624     1617     1613     1611 
    1611     1617     1630     1644     1657     1669     1674     1676 
    1676     1671     1664     1656     1645     1637     1629     1620 
    1617     1621     1630     1641     1655     1664     1668     1668 
    1667     1663     1659     1655     1647     1638     1632     1625 
    1620     1620     1624     1630     1641     1652     1663     1667 
    1667     1661     1655     1647     1636     1626     1621     1620 
    1622     1626     1632     1641     1649     1655     1659     1659 
    1652     1645     1638     1630     1622     1618     1618     1624 
    1629     1632     1636     1638     1638     1637     1632     1622 
    1611     1603     1598     1593     1590     1588     1587     1583 
    1582     1580     1579     1572     1563     1552     1545     1544 
    1544     1545     1551     1559     1566     1567     1566     1561 
    1553     1548     1549     1552     1556     1564     1570     1574 
    1578     1578     1579     1582     1583     1584     1588     1593 
    1595     1602     1610     1615     1624     1633     1637     1636 
    1634     1632     1629     1626     1622     1620     1621     1628 
    1633     1640     1642     1642     1641     1640     1637     1630 
    1624     1615     1605     1599     1599     1598     1601     1602 
    1602     1602     1606     1609     1607     1599     1588     1580 
    1576     1579     1584     1590     1597     1602     1598     1595 
    1591     1586     1579     1574     1575     1582     1590     1603 
    1621     1636     1647     1656     1663     1667     1664     1659 
    1656     1653     1649     1653     1661     1667     1676     1688 
    1701     1709     1713     1710     1705     1698     1692     1686 
    1679     1676     1675     1671     1663     1661     1667     1672 
    1676     1684     1695     1705     1706     1705     1698     1687 
    1676     1667     1660     1656     1656     1663     1668     1671 
    1675     1672     1664     1653     1642     1633     1626     1617 
    1610     1613     1617     1615     1615     1617     1615     1613 
    1611     1611     1609     1603     1597     1587     1578     1571 
    1567     1566     1563     1563     1568     1572     1574     1572 
    1571     1567     1564     1559     1553     1551     1551     1552 
    1553     1553     1555     1556     1555     1553     1557     1563 
    1566     1567     1570     1578     1582     1584     1590     1594 
    1593     1594     1598     1602     1601     1605     1615     1630 
    1642     1651     1655     1659     1660     1660     1660     1663 
    1664     1663     1664     1663     1663     1665     1672     1678 
    1679     1678     1674     1665     1657     1651     1642     1633 
    1628     1629     1632     1632     1637     1641     1637     1633 
