Origin Time       2025/01/13 21:19:00
Lat.              31.8
Long.             131.6
Depth. (km)       30
Mag.              6.9
Station Code      NARH01
Station Lat.      33.9666
Station Long.     135.6489
Station Height(m) 681
Record Time       2025/01/13 21:21:20
Sampling Freq(Hz) 100Hz
Duration Time(s)  120
Dir.              3
Scale Factor      2942(gal)/8224139
Max. Acc. (gal)   0.179
Last Correction   2025/01/13 21:21:20
Memo.             
[...]
  123450   123460   123473   123479   123480   123481   123481   123480 
  123481   123479   123476   123477   123479   123481   123481   123476 
  123466   123461   123458   123453   123452   123453   123452   123450 
  123449   123450   123453   123452   123453   123452   123449   123452 
  123453   123453   123457   123458   123461   123466   123472   123476 
  123481   123492   123503   123504   123506   123508   123507   123506 
  123510   123511   123515   123522   123520   123518   123525   123534 
  123537   123535   123537   123538   123537   123534   123535   123527 
  123511   123503   123503   123498   123495   123491   123480   123465 
  123450   123433   123418   123406   123395   123387   123379   123371 
  123361   123350   123342   123334   123327   123321   123318   123318 
  123317   123318   123318   123317   123314   123315   123321   123319 
  123318   123322   123321   123314   123310   123309   123307   123307 
  123307   123302   123292   123279   123268   123256   123245   123237 
  123234   123230   123228   123233   123240   123244   123250   123260 
  123268   123280   123294   123307   123322   123338   123354   123367 
  123377   123388   123398   123404   123411   123419   123433   123448 
  123458   123471   123480   123487   123492   123493   123495   123495 
  123495   123495   123492   123487   123483   123477   123466   123462 
  123464   123457   123452   123453   123454   123452   123449   123444 
  123438   123435   123435   123437   123430   123423   123421   123419 
  123421   123421   123419   123415   123414   123412   123411   123408 
  123410   123407   123403   123407   123410   123406   123403   123406 
  123414   123425   123433   123439   123444   123449   123454   123458 
  123464   123473   123481   123487   123487   123487   123491   123492 
  123488   123485   123485   123489   123493   123489   123483   123480 
  123481   123480   123479   123473   123465   123462   123464   123462 
  123457   123452   123452   123456   123458   123460   123462   123461 
  123457   123457   123454   123450   123452   123453   123448   123442 
  123439   123441   123444   123445   123442   123435   123427   123423 
  123417   123406   123396   123388   123376   123365   123350   123336 
  123322   123310   123302   123292   123277   123267   123256   123241 
  123230   123219   123205   123194   123188   123184   123184   123190 
  123198   123206   123214   123228   123242   123252   123263   123275 
  123284   123295   123309   123317   123327   123341   123354   123363 
  123369   123376   123385   123391   123394   123395   123399   123406 
  123412   123417   123419   123423   123434   123444   123448   123453 
  123461   123469   123473   123476   123481   123493   123506   123512 
  123516   123523   123527   123530   123527   123525   123529   123531 
  123530   123531   123535   123533   123523   123512   123499   123487 
  123480   123475   123465   123457   123449   123438   123429   123415 
  123400   123392   123384   123376   123367   123353   123341   123333 
  123321   123306   123292   123279   123268   123256   123244   123232 
  123221   123211   123205   123202   123196   123191   123195   123203 
  123207   123215   123226   123236   123246   123259   123268   123277 
  123287   123296   123306   123317   123333   123350   123364   123376 
  123385   123392   123399   123403   123406   123411   123418   123418 
  123418   123418   123417   123414   123412   123408   123410   123414 
  123415   123415   123418   123421   123422   123431   123442   123449 
  123460   123473   123479   123479   123481   123481   123477   123475 
  123469   123464   123460   123450   123439   123431   123427   123423 
  123414   123402   123388   123372   123354   123340   123322   123306 
  123295   123287   123276   123265   123257   123244   123230   123226 
  123225   123221   123215   123213   123207   123203   123196   123188 
  123184   123183   123183   123184   123188   123198   123210   123223 
  123237   123246   123260   123276   123287   123300   123323   123342 
  123363   123385   123410   123433   123452   123469   123487   123499 
  123507   123516   123529   123534   123538   123545   123552   123558 
  123561   123564   123566   123570   123577   123584   123587   123585 
  123583   123579   123579   123579   123577   123573   123572   123572 
  123572   123573   123574   123570   123566   123566   123564   123560 
  123554   123549   123543   123537   123527   123518   123510   123503 
  123493   123480   123468   123460   123449   123433   123421   123408 
  123402   123396   123384   123371   123361   123349   123337   123325 
  123310   123300   123292   123282   123269   123259   123246   123237 
  123229   123221   123217   123215   123213   123207   123202   123199 
  123199   123199   123196   123198   123205   123214   123228   123234 
  123238   123248   123261   123273   123284   123298   123315   123329 
  123338   123349   123357   123361   123365   123368   123372   123379 
  123385   123387   123387   123385   123383   123377   123373   123372 
  123372   123371   123368   123364   123363   123363   123360   123360 
  123363   123363   123363   123367   123368   123367   123371   123377 
  123381   123387   123390   123398   123408   123414   123415   123426 
  123439   123449   123460   123471   123479   123487   123499   123510 
  123514   123518   123523   123530   123530   123526   123526   123527 
  123526   123525   123525   123522   123519   123515   123510   123506 
  123508   123512   123510   123508   123508   123507   123504   123504 
  123502   123499   123498   123495   123492   123489   123488   123487 
  123481   123473   123469   123464   123452   123442   123439   123434 
  123425   123414   123404   123395   123383   123368   123353   123340 
  123325   123311   123298   123282   123264   123244   123223   123203 
  123186   123164   123145   123133   123122   123113   123107   123102 
  123098   123098   123102   123109   123117   123126   123141   123161 
  123180   123201   123226   123252   123271   123288   123307   123327 
  123348   123367   123385   123410   123433   123445   123452   123460 
  123468   123477   123485   123493   123498   123503   123506   123507 
  123508   123508   123510   123514   123520   123529   123534   123538 
  123538   123535   123535   123538   123538   123539   123539   123538 
  123539   123545   123547   123547   123553   123557   123554   123553 
  123554   123552   123546   123545   123543   123539   123537   123533 
  123526   123525   123525   123519   123514   123508   123502   123496 
  123489   123480   123471   123457   123445   123434   123419   123404 
  123391   123375   123354   123337   123323   123307   123287   123265 
  123249   123238   123228   123217   123203   123191   123186   123180 
  123174   123171   123176   123187   123203   123217   123229   123248 
  123265   123280   123302   123323   123342   123364   123388   123415 
  123437   123453   123469   123485   123500   123512   123527   123542 
  123553   123561   123570   123581   123589   123595   123595   123595 
  123597   123599   123595   123591   123591   123587   123581   123579 
  123574   123570   123565   123557   123547   123539   123537   123533 
  123526   123523   123516   123507   123498   123488   123481   123473 
  123465   123458   123452   123448   123445   123441   123433   123427 
  123425   123422   123417   123408   123402   123395   123387   123381 
  123376   123365   123360   123357   123352   123345   123340   123337 
  123336   123334   123337   123342   123349   123356   123360   123367 
  123371   123373   123379   123383   123388   123395   123402   123406 
  123404   123402   123399   123398   123399   123399   123399   123403 
  123408   123410   123408   123406   123404   123406   123410   123414 
  123415   123414   123417   123417   123412   123411   123411   123410 
  123411   123411   123411   123410   123408   123411   123414   123411 
  123412   123415   123414   123414   123418   123418   123421   123422 
  123425   123427   123430   123433   123438   123444   123448   123450 
  123452   123453   123453   123449   123444   123444   123439   123434 
  123431   123429   123423   123418   123408   123400   123395   123388 
  123377   123368   123358   123353   123349   123344   123336   123325 
  123317   123311   123302   123292   123286   123282   123276   123273 
  123271   123271   123268   123265   123267   123273   123275   123279 
  123290   123300   123310   123323   123334   123340   123348   123360 
  123372   123384   123396   123408   123418   123423   123430   123437 
  123439   123445   123452   123453   123453   123452   123450   123454 
  123457   123458   123464   123468   123469   123472   123476   123476 
  123475   123479   123485   123493   123499   123504   123511   123516 
  123518   123516   123516   123516   123516   123520   123526   123526 
  123527   123531   123530   123526   123523   123519   123518   123518 
  123515   123515   123514   123510   123507   123502   123495   123489 
  123488   123485   123483   123479   123479   123479   123476   123472 
  123468   123466   123468   123469   123465   123457   123453   123449 
  123442   123437   123430   123422   123417   123412   123408   123400 
  123392   123384   123377   123373   123368   123365   123365   123368 
  123369   123368   123373   123377   123383   123392   123399   123410 
  123423   123431   123439   123452   123461   123473   123488   123496 
  123507   123520   123526   123527   123533   123535   123535   123539 
  123542   123537   123534   123533   123531   123534   123537   123539 
  123543   123546   123546   123547   123552   123554   123558   123570 
  123579   123581   123585   123593   123596   123596   123596   123599 
  123599   123595   123592   123589   123584   123576   123565   123553 
  123542   123530   123512   123499   123487   123468   123448   123433 
  123414   123394   123379   123365   123354   123348   123341   123336 
  123333   123330   123327   123331   123341   123346   123350   123357 
  123365   123376   123388   123399   123406   123412   123421   123431 
  123441   123445   123449   123452   123454   123458   123461   123461 
  123461   123461   123460   123454   123452   123445   123437   123429 
  123423   123417   123408   123400   123391   123380   123367   123354 
  123345   123336   123318   123299   123286   123277   123264   123249 
  123238   123230   123221   123210   123201   123195   123191   123182 
  123175   123174   123172   123171   123172   123176   123179   123184 
  123195   123211   123228   123242   123256   123269   123284   123298 
  123314   123333   123350   123369   123388   123404   123417   123430 
  123444   123450   123457   123464   123464   123460   123457   123456 
  123452   123449   123446   123442   123438   123429   123418   123412 
  123408   123400   123392   123384   123380   123379   123368   123358 
  123358   123357   123356   123353   123353   123356   123357   123357 
  123360   123364   123372   123388   123400   123404   123410   123421 
  123430   123438   123445   123452   123456   123462   123466   123464 
  123462   123462   123456   123449   123444   123438   123433   123426 
  123419   123417   123414   123410   123406   123404   123402   123402 
  123400   123400   123406   123412   123418   123425   123435   123444 
  123452   123458   123466   123471   123475   123483   123493   123499 
  123504   123512   123522   123526   123530   123534   123537   123539 
  123541   123537   123529   123522   123512   123502   123492   123484 
  123475   123468   123462   123454   123445   123439   123438   123434 
  123430   123430   123433   123437   123444   123448   123450   123457 
  123465   123471   123477   123485   123493   123503   123514   123520 
  123526   123537   123545   123547   123550   123553   123553   123550 
  123545   123534   123525   123514   123502   123495   123487   123473 
  123457   123442   123430   123417   123403   123390   123379   123368 
  123356   123346   123337   123329   123325   123322   123317   123313 
  123313   123315   123318   123321   123317   123314   123317   123321 
  123321   123321   123321   123315   123309   123307   123303   123296 
  123290   123282   123276   123273   123269   123265   123264   123259 
  123253   123257   123260   123259   123259   123263   123267   123272 
  123276   123283   123291   123299   123306   123313   123322   123331 
  123345   123358   123372   123387   123402   123412   123422   123433 
  123444   123453   123461   123471   123476   123483   123492   123500 
  123504   123508   123514   123518   123520   123529   123529   123523 
  123522   123522   123518   123512   123506   123502   123499   123488 
  123477   123466   123454   123442   123430   123415   123400   123387 
  123369   123349   123329   123313   123295   123273   123252   123232 
  123214   123198   123182   123165   123153   123144   123136   123130 
  123126   123129   123137   123145   123153   123164   123175   123187 
  123199   123210   123225   123244   123260   123276   123291   123309 
  123326   123344   123361   123375   123385   123402   123417   123429 
  123442   123457   123469   123479   123492   123507   123520   123535 
  123549   123560   123574   123588   123601   123616   123631   123643 
  123657   123669   123685   123701   123716   123731   123749   123766 
  123781   123795   123809   123823   123839   123854   123865   123874 
  123884   123892   123896   123900   123905   123911   123913   123913 
  123908   123900   123896   123888   123877   123866   123854   123835 
  123817   123800   123777   123753   123730   123705   123680   123657 
  123637   123614   123589   123569   123549   123531   123515   123500 
  123487   123476   123464   123454   123446   123439   123431   123422 
  123417   123412   123406   123399   123391   123381   123373   123364 
  123352   123342   123333   123319   123307   123298   123284   123268 
  123257   123240   123217   123202   123191   123175   123160   123151 
  123137   123126   123121   123114   123111   123111   123110   123107 
  123107   123107   123107   123111   123117   123120   123125   123130 
  123136   123141   123147   123157   123164   123167   123175   123182 
  123186   123191   123198   123205   123211   123214   123221   123232 
  123236   123242   123255   123264   123272   123283   123292   123304 
  123318   123329   123337   123352   123365   123372   123381   123392 
  123400   123410   123419   123426   123434   123442   123448   123457 
  123465   123466   123468   123473   123479   123480   123484   123489 
  123492   123492   123493   123493   123491   123492   123498   123500 
  123502   123503   123502   123500   123495   123487   123479   123476 
  123476   123472   123461   123456   123454   123448   123439   123435 
  123427   123423   123425   123423   123419   123419   123421   123422 
  123421   123421   123426   123431   123437   123446   123457   123465 
  123476   123485   123495   123508   123518   123526   123535   123545 
  123549   123557   123564   123569   123576   123579   123580   123588 
  123593   123596   123600   123608   123616   123623   123630   123635 
  123637   123635   123638   123643   123646   123646   123651   123655 
  123655   123657   123657   123658   123661   123658   123657   123660 
  123658   123649   123642   123641   123634   123624   123620   123618 
  123611   123607   123607   123603   123600   123601   123599   123596 
  123597   123600   123603   123607   123607   123608   123614   123615 
  123615   123612   123608   123604   123599   123589   123581   123572 
  123560   123547   123535   123519   123502   123489   123475   123457 
  123435   123414   123395   123375   123354   123340   123326   123311 
  123303   123291   123280   123273   123269   123267   123265   123261 
  123259   123256   123255   123256   123255   123252   123253   123253 
  123253   123255   123253   123253   123255   123256   123264   123272 
  123271   123271   123276   123282   123286   123294   123304   123309 
  123310   123314   123315   123311   123310   123311   123309   123302 
  123296   123290   123284   123277   123271   123265   123260   123253 
  123246   123242   123241   123240   123233   123225   123221   123217 
  123210   123202   123194   123190   123188   123184   123180   123174 
  123169   123174   123175   123172   123171   123172   123175   123178 
  123180   123182   123184   123188   123195   123198   123205   123218 
  123229   123238   123256   123275   123291   123310   123333   123352 
  123372   123395   123415   123431   123450   123473   123492   123510 
  123530   123549   123564   123579   123595   123610   123623   123635 
  123649   123664   123676   123685   123692   123695   123697   123700 
  123699   123699   123701   123703   123699   123692   123688   123681 
  123674   123672   123666   123658   123653   123647   123641   123635 
  123630   123626   123623   123615   123604   123600   123599   123593 
  123588   123587   123584   123580   123574   123570   123565   123560 
  123553   123547   123542   123538   123530   123519   123511   123504 
  123495   123485   123475   123462   123454   123446   123434   123422 
  123414   123407   123400   123394   123388   123383   123379   123379 
  123379   123377   123379   123381   123384   123384   123381   123381 
  123380   123375   123373   123373   123368   123360   123356   123352 
  123348   123344   123338   123334   123333   123336   123338   123341 
  123345   123350   123357   123363   123371   123381   123392   123404 
  123419   123431   123449   123468   123481   123496   123518   123531 
  123537   123550   123561   123564   123568   123570   123573   123577 
  123581   123580   123579   123573   123566   123562   123560   123550 
  123539   123527   123515   123504   123495   123484   123476   123465 
  123457   123453   123446   123438   123437   123438   123435   123434 
  123437   123438   123438   123435   123434   123435   123431   123427 
  123426   123427   123422   123414   123412   123412   123407   123400 
  123396   123392   123385   123379   123371   123363   123356   123348 
  123337   123329   123321   123310   123298   123286   123273   123265 
  123255   123242   123233   123221   123207   123201   123196   123190 
  123178   123171   123169   123167   123165   123167   123167   123165 
  123165   123167   123168   123169   123172   123175   123180   123186 
  123191   123199   123205   123210   123218   123225   123230   123234 
  123241   123248   123252   123257   123263   123268   123271   123271 
  123273   123276   123280   123287   123295   123299   123304   123313 
  123318   123319   123323   123336   123349   123354   123358   123365 
  123373   123381   123388   123398   123407   123417   123429   123441 
  123452   123465   123476   123484   123495   123504   123514   123525 
  123538   123549   123558   123566   123577   123589   123599   123611 
  123620   123624   123628   123635   123639   123641   123639   123634 
  123627   123620   123611   123603   123595   123583   123568   123553 
  123539   123527   123511   123495   123481   123468   123460   123456 
  123446   123434   123429   123425   123419   123412   123406   123402 
  123402   123400   123400   123402   123402   123399   123396   123398 
