Origin Time       2025/01/13 21:19:00
Lat.              31.8
Long.             131.6
Depth. (km)       30
Mag.              6.9
Station Code      NARH03
Station Lat.      34.2925
Station Long.     136.0022
Station Height(m) 257
Record Time       2025/01/13 21:22:19
Sampling Freq(Hz) 100Hz
Duration Time(s)  120
Dir.              2
Scale Factor      2942(gal)/8224139
Max. Acc. (gal)   0.123
Last Correction   2025/01/13 21:22:21
Memo.             
[...]
  190240   190250   190251   190259   190266   190263   190271   190275 
  190263   190269   190279   190269   190259   190262   190270   190275 
  190269   190263   190262   190263   190264   190259   190259   190267 
  190260   190255   190263   190264   190258   190250   190250   190259 
  190260   190259   190259   190258   190259   190256   190259   190267 
  190259   190254   190262   190259   190254   190256   190251   190247 
  190255   190250   190236   190240   190244   190235   190223   190221 
  190223   190210   190208   190212   190202   190198   190208   190204 
  190194   190188   190182   190185   190188   190181   190175   190174 
  190173   190175   190181   190183   190181   190181   190193   190198 
  190190   190190   190193   190189   190193   190198   190198   190194 
  190179   190171   190173   190171   190169   190167   190163   190159 
  190161   190159   190151   190146   190146   190146   190144   190139 
  190136   190135   190134   190138   190131   190115   190120   190134 
  190119   190104   190113   190113   190112   190124   190125   190124 
  190135   190139   190129   190131   190135   190134   190139   190139 
  190132   190138   190142   190142   190146   190151   190159   190167 
  190171   190178   190178   190183   190200   190202   190206   190216 
  190216   190223   190231   190235   190244   190248   190251   190267 
  190274   190274   190279   190282   190290   190296   190294   190297 
  190300   190298   190300   190296   190296   190304   190301   190296 
  190293   190290   190286   190281   190278   190283   190278   190269 
  190267   190266   190259   190247   190243   190252   190254   190250 
  190248   190248   190255   190255   190255   190256   190252   190250 
  190251   190254   190262   190267   190260   190256   190260   190256 
  190254   190259   190256   190243   190236   190246   190252   190242 
  190228   190227   190227   190216   190208   190206   190205   190194 
  190181   190182   190186   190177   190177   190174   190165   190166 
  190165   190158   190159   190156   190147   190150   190156   190148 
  190142   190146   190148   190148   190146   190143   190146   190148 
  190148   190151   190158   190156   190158   190170   190181   190177 
  190170   190182   190192   190186   190190   190198   190202   190205 
  190216   190221   190213   190215   190223   190223   190224   190232 
  190235   190232   190235   190240   190237   190236   190239   190240 
  190240   190235   190228   190225   190225   190224   190220   190213 
  190202   190196   190192   190181   190173   190171   190156   190147 
  190155   190150   190135   190132   190127   190117   190105   190096 
  190094   190084   190077   190084   190073   190059   190061   190057 
  190053   190051   190046   190048   190050   190050   190055   190053 
  190050   190048   190053   190063   190061   190059   190070   190065 
  190065   190077   190074   190077   190088   190081   190071   190075 
  190085   190082   190081   190090   190094   190096   190107   190107 
  190105   190117   190127   190125   190121   190121   190134   190143 
  190152   190158   190155   190162   190175   190173   190175   190189 
  190192   190194   190202   190202   190202   190209   190215   190212 
  190209   190213   190216   190217   190223   190228   190229   190229 
  190229   190232   190231   190233   190240   190242   190244   190248 
  190252   190259   190259   190256   190262   190264   190267   190274 
  190273   190277   190289   190290   190291   190296   190291   190291 
  190298   190301   190305   190309   190305   190302   190308   190308 
  190301   190300   190308   190314   190310   190305   190306   190305 
  190309   190310   190309   190318   190328   190331   190333   190335 
  190339   190343   190337   190337   190343   190335   190331   190340 
  190341   190331   190327   190325   190316   190305   190298   190297 
  190290   190277   190270   190263   190259   190254   190239   190228 
  190221   190210   190201   190192   190182   190169   190152   190142 
  190138   190125   190115   190102   190085   190086   190093   190080 
  190066   190062   190062   190059   190043   190028   190031   190023 
  190007   190008   190012   190003   189993   189992   189990   189988 
  189989   189996   189993   189994   190001   190001   189996   190005 
  190016   190009   190011   190028   190027   190024   190035   190040 
  190048   190059   190062   190074   190084   190080   190081   190088 
  190098   190102   190097   190104   190113   190117   190124   190123 
  190120   190125   190127   190125   190125   190131   190140   190144 
  190148   190152   190152   190156   190156   190158   190165   190166 
  190166   190169   190167   190163   190159   190163   190163   190150 
  190148   190152   190142   190136   190134   190124   190119   190116 
  190115   190107   190093   190096   190098   190086   190077   190080 
  190080   190074   190071   190071   190070   190067   190067   190069 
  190065   190062   190069   190071   190066   190069   190073   190067 
  190066   190070   190070   190075   190078   190074   190073   190075 
  190081   190089   190086   190084   190094   190101   190097   190100 
  190109   190115   190115   190119   190124   190124   190123   190132 
  190136   190134   190139   190144   190142   190142   190146   190148 
  190143   190143   190148   190146   190138   190139   190148   190151 
  190144   190143   190146   190143   190143   190142   190132   190129 
  190131   190127   190120   190116   190116   190112   190105   190102 
  190100   190094   190086   190088   190085   190073   190073   190078 
  190067   190063   190071   190073   190071   190070   190066   190071 
  190073   190073   190080   190084   190081   190088   190098   190093 
  190090   190100   190105   190108   190111   190111   190111   190111 
  190113   190113   190112   190115   190117   190116   190112   190112 
  190113   190112   190113   190123   190120   190109   190112   190119 
  190117   190120   190124   190124   190125   190132   190132   190125 
  190121   190120   190120   190119   190121   190124   190115   190112 
  190117   190120   190123   190124   190125   190128   190131   190131 
  190134   190142   190143   190138   190140   190139   190138   190143 
  190146   190144   190138   190132   190146   190152   190147   190150 
  190152   190158   190161   190155   190159   190161   190148   190143 
  190148   190154   190152   190143   190139   190140   190140   190134 
  190129   190131   190125   190123   190121   190109   190111   190121 
  190119   190115   190116   190113   190112   190113   190112   190109 
  190111   190115   190116   190123   190131   190132   190132   190138 
  190148   190156   190166   190179   190188   190196   190204   190209 
  190219   190231   190239   190243   190244   190251   190262   190266 
  190260   190255   190256   190259   190260   190259   190254   190256 
  190256   190246   190240   190243   190232   190224   190227   190219 
  190209   190209   190204   190200   190193   190179   190175   190171 
  190162   190155   190143   190134   190135   190125   190105   190097 
  190096   190090   190080   190063   190051   190048   190043   190036 
  190036   190035   190031   190023   190026   190030   190017   190011 
  190016   190019   190021   190017   190013   190023   190032   190034 
  190035   190031   190031   190042   190043   190040   190055   190062 
  190048   190048   190061   190058   190057   190069   190074   190071 
  190078   190084   190088   190094   190104   190117   190117   190112 
  190132   190146   190138   190143   190158   190165   190173   190177 
  190181   190192   190204   190210   190216   190223   190235   190248 
  190255   190256   190259   190270   190277   190278   190283   190285 
  190286   190298   190298   190293   190298   190294   190290   190291 
  190291   190294   190289   190274   190266   190264   190259   190256 
  190251   190243   190235   190223   190208   190192   190182   190178 
  190167   190146   190128   190124   190117   190097   190084   190073 
  190062   190058   190050   190043   190035   190021   190021   190019 
  190005   190000   190003   189994   189984   189984   189985   189984 
  189976   189972   189976   189972   189966   189970   189973   189976 
  189977   189972   189972   189974   189974   189978   189982   189981 
  189981   189982   189981   189976   189976   189981   189984   189988 
  189992   189990   189993   190003   190012   190009   190005   190015 
  190028   190026   190028   190047   190051   190050   190067   190084 
  190089   190097   190105   190112   190127   190132   190125   190135 
  190152   190155   190159   190167   190171   190170   190171   190185 
  190185   190174   190179   190183   190183   190192   190188   190177 
  190183   190185   190182   190186   190181   190173   190178   190183 
  190182   190174   190171   190171   190167   190167   190173   190173 
  190169   190175   190185   190182   190170   190175   190183   190181 
  190182   190185   190179   190186   190196   190186   190182   190185 
  190182   190179   190188   190197   190192   190183   190193   190193 
  190181   190186   190192   190185   190186   190189   190190   190192 
  190185   190178   190181   190182   190175   190171   190173   190171 
  190158   190151   190159   190156   190144   190150   190148   190139 
  190139   190140   190138   190136   190135   190131   190128   190125 
  190124   190131   190139   190136   190134   190138   190148   190151 
  190143   190144   190154   190152   190144   190143   190142   190135 
  190138   190138   190119   190115   190120   190107   190092   190090 
  190082   190066   190059   190055   190042   190024   190013   190001 
  189984   189978   189972   189949   189936   189934   189922   189913 
  189908   189892   189884   189891   189895   189889   189886   189893 
  189899   189903   189916   189928   189940   189955   189962   189977 
  189996   190008   190026   190046   190061   190075   190085   190098 
  190123   190134   190134   190150   190171   190181   190185   190190 
  190198   190205   190220   190229   190221   190225   190240   190236 
  190233   190247   190248   190243   190247   190246   190237   190236 
  190232   190224   190220   190213   190205   190204   190200   190183 
  190174   190178   190177   190162   190148   190151   190155   190143 
  190127   190125   190123   190116   190116   190112   190104   190097 
  190093   190092   190082   190075   190071   190070   190071   190069 
  190063   190057   190054   190059   190059   190053   190054   190053 
  190046   190048   190050   190046   190044   190043   190042   190046 
  190050   190050   190047   190047   190044   190039   190042   190043 
  190034   190024   190020   190021   190024   190021   190016   190017 
  190017   190017   190023   190023   190026   190039   190050   190050 
  190054   190059   190066   190085   190094   190101   190116   190127 
  190138   190150   190159   190177   190190   190197   190210   190223 
  190232   190247   190266   190273   190281   190300   190312   190317 
  190332   190340   190343   190354   190358   190355   190362   190363 
  190362   190363   190358   190341   190333   190335   190328   190316 
  190302   190293   190279   190266   190255   190239   190225   190216 
  190200   190186   190174   190154   190135   190129   190123   190104 
  190085   190074   190066   190062   190047   190027   190020   190011 
  189994   189985   189984   189973   189958   189951   189943   189930 
  189923   189922   189912   189900   189895   189882   189876   189872 
  189859   189858   189855   189842   189834   189835   189834   189823 
  189824   189835   189827   189819   189830   189834   189838   189847 
  189849   189853   189868   189878   189882   189893   189908   189919 
  189935   189950   189961   189970   189986   190007   190019   190028 
  190042   190057   190077   190090   190097   190119   190139   190136 
  190138   190154   190167   190171   190169   190170   190186   190194 
  190185   190186   190197   190198   190193   190189   190188   190193 
  190192   190179   190177   190186   190182   190169   190167   190169 
  190165   190155   190148   190152   190152   190135   190125   190129 
  190125   190121   190120   190116   190115   190109   190107   190104 
  190097   190098   190105   190100   190085   190078   190080   190081 
  190078   190078   190080   190074   190074   190077   190071   190077 
  190085   190081   190088   190094   190093   190104   190112   190113 
  190123   190139   190152   190165   190177   190182   190196   190220 
  190232   190242   190255   190269   190291   190309   190316   190333 
  190351   190355   190370   190383   190383   190391   190404   190412 
  190418   190421   190424   190432   190436   190435   190431   190432 
  190437   190433   190426   190424   190420   190412   190405   190402 
  190399   190393   190382   190367   190358   190356   190348   190333 
  190324   190313   190297   190282   190271   190263   190247   190229 
  190221   190208   190182   190159   190144   190131   190112   190096 
  190077   190053   190038   190020   189997   189985   189970   189951 
  189943   189926   189903   189899   189892   189884   189882   189873 
  189862   189853   189842   189838   189845   189843   189824   189820 
  189827   189820   189810   189808   189808   189805   189804   189801 
  189796   189797   189797   189797   189808   189812   189804   189805 
  189810   189808   189815   189827   189826   189816   189827   189845 
  189842   189839   189847   189853   189861   189870   189874   189886 
  189895   189893   189903   189916   189918   189919   189934   189945 
  189946   189950   189961   189973   189978   189978   189982   189989 
  189992   189999   190005   190004   190008   190017   190021   190028 
  190034   190030   190030   190035   190032   190027   190024   190030 
  190034   190024   190026   190032   190024   190026   190035   190031 
  190028   190027   190024   190032   190035   190036   190046   190043 
  190038   190051   190066   190066   190073   190084   190092   190102 
  190120   190125   190128   190146   190158   190156   190163   190169 
  190174   190186   190194   190198   190205   190209   190215   190221 
  190223   190219   190221   190223   190224   190231   190221   190209 
  190217   190219   190209   190217   190223   190210   190209   190216 
  190212   190210   190212   190212   190212   190206   190206   190212 
  190202   190189   190192   190193   190188   190183   190183   190183 
  190183   190173   190156   190155   190167   190158   190142   190144 
  190148   190140   190136   190132   190128   190132   190136   190131 
  190132   190131   190125   190135   190146   190148   190150   190151 
  190154   190162   190167   190171   190174   190183   190196   190198 
  190200   190206   190216   190223   190227   190239   190246   190247 
  190254   190262   190266   190266   190274   190286   190287   190282 
  190285   190290   190296   190301   190304   190304   190298   190293 
  190297   190300   190293   190286   190278   190275   190270   190255 
  190255   190259   190248   190239   190237   190232   190221   190220 
  190225   190215   190197   190194   190193   190189   190185   190174 
  190165   190159   190155   190154   190146   190135   190127   190121 
  190116   190109   190098   190093   190086   190075   190073   190074 
  190069   190066   190059   190050   190051   190046   190034   190028 
  190024   190027   190034   190020   190008   190011   190004   190003 
  190005   189999   190000   190000   189990   189993   189997   189988 
  189990   189996   189992   189986   189988   189992   189994   189993 
  189993   189989   189988   189993   189989   189985   189994   190000 
  189999   189996   189989   189997   190009   190001   190004   190020 
  190020   190019   190027   190032   190042   190048   190053   190058 
  190065   190074   190089   190096   190093   190101   190111   190109 
  190116   190123   190115   190117   190129   190128   190124   190128 
  190125   190119   190119   190125   190119   190109   190115   190120 
  190123   190120   190111   190108   190112   190111   190109   190113 
  190119   190119   190119   190131   190146   190140   190134   190140 
  190148   190154   190155   190158   190170   190181   190189   190196 
  190194   190200   190213   190217   190216   190213   190220   190236 
  190242   190240   190250   190256   190255   190263   190270   190270 
  190274   190279   190283   190290   190297   190305   190310   190306 
  190302   190313   190323   190320   190317   190324   190324   190323 
  190329   190331   190328   190332   190328   190327   190335   190332 
  190331   190339   190340   190331   190327   190323   190318   190317 
  190314   190308   190301   190296   190290   190278   190270   190267 
  190254   190243   190242   190232   190221   190216   190209   190200 
  190190   190178   190166   190162   190156   190140   190127   190124 
  190117   190107   190098   190089   190081   190073   190066   190061 
  190053   190040   190036   190036   190039   190039   190031   190021 
  190016   190024   190030   190020   190012   190017   190030   190032 
  190024   190026   190030   190036   190048   190053   190054   190061 
  190063   190062   190066   190075   190086   190085   190088   190100 
  190101   190101   190104   190102   190107   190113   190121   190128 
  190128   190131   190138   190147   190155   190154   190155   190166 
  190177   190177   190175   190186   190206   190209   190201   190204 
  190209   190209   190208   190205   190210   190213   190208   190205 
  190206   190205   190197   190190   190189   190183   190179   190182 
  190182   190179   190179   190173   190170   190179   190185   190177 
  190175   190177   190179   190186   190188   190190   190198   190205 
  190206   190206   190213   190224   190229   190223   190221   190231 
  190236   190232   190235   190248   190247   190239   190244   190246 
  190240   190248   190248   190242   190243   190246   190247   190239 
  190231   190232   190231   190224   190219   190213   190209   190209 
  190204   190196   190190   190183   190171   190161   190159   190152 
  190144   190147   190140   190132   190128   190119   190116   190120 
  190113   190104   190098   190101   190109   190109   190098   190098 
  190100   190092   190096   190097   190085   190084   190085   190084 
  190085   190084   190085   190092   190092   190086   190088   190098 
  190097   190086   190094   190107   190101   190102   190115   190121 
  190123   190121   190120   190127   190136   190140   190148   190152 
  190151   190156   190169   190173   190171   190175   190181   190185 
  190186   190193   190205   190212   190213   190219   190233   190242 
  190239   190243   190250   190254   190264   190275   190273   190274 
  190286   190289   190286   190293   190297   190302   190308   190304 
  190304   190310   190310   190310   190313   190310   190316   190318 
  190309   190312   190310   190298   190297   190297   190293   190285 
  190274   190278   190279   190264   190263   190263   190244   190237 
  190239   190228   190217   190216   190206   190197   190197   190189 
