Origin Time       2025/01/13 21:19:00
Lat.              31.8
Long.             131.6
Depth. (km)       30
Mag.              6.9
Station Code      NARH05
Station Lat.      34.4237
Station Long.     136.0294
Station Height(m) 289
Record Time       2025/01/13 21:22:11
Sampling Freq(Hz) 100Hz
Duration Time(s)  120
Dir.              3
Scale Factor      2942(gal)/8224139
Max. Acc. (gal)   0.103
Last Correction   2025/01/13 21:22:12
Memo.             
[...]
  152602   152602   152605   152604   152606   152612   152614   152618 
  152625   152631   152635   152639   152641   152643   152647   152652 
  152658   152668   152672   152672   152678   152682   152685   152685 
  152686   152693   152693   152689   152691   152690   152689   152689 
  152689   152690   152691   152690   152690   152690   152690   152694 
  152691   152687   152691   152691   152683   152685   152690   152689 
  152686   152689   152685   152680   152682   152685   152685   152680 
  152678   152678   152679   152683   152686   152685   152683   152687 
  152690   152687   152682   152683   152685   152685   152683   152680 
  152683   152683   152682   152682   152679   152678   152679   152678 
  152678   152680   152682   152683   152690   152694   152694   152699 
  152703   152703   152709   152716   152714   152712   152714   152716 
  152720   152724   152724   152721   152718   152716   152716   152717 
  152716   152717   152716   152712   152713   152713   152710   152712 
  152710   152703   152701   152699   152698   152701   152707   152709 
  152709   152709   152716   152721   152721   152722   152730   152736 
  152739   152741   152745   152747   152752   152759   152757   152759 
  152764   152764   152760   152757   152757   152756   152755   152753 
  152748   152745   152744   152740   152739   152733   152724   152721 
  152721   152718   152717   152714   152707   152702   152698   152694 
  152687   152683   152682   152674   152668   152667   152660   152658 
  152656   152649   152645   152641   152637   152637   152636   152635 
  152635   152632   152628   152628   152631   152633   152633   152629 
  152626   152626   152628   152633   152632   152625   152626   152629 
  152625   152626   152628   152621   152617   152618   152617   152621 
  152625   152620   152618   152625   152631   152633   152636   152637 
  152640   152641   152644   152655   152659   152660   152667   152672 
  152675   152680   152683   152685   152687   152693   152695   152695 
  152698   152699   152698   152701   152702   152697   152697   152698 
  152694   152694   152693   152687   152690   152693   152689   152685 
  152685   152682   152686   152689   152682   152682   152690   152691 
  152689   152691   152691   152690   152694   152699   152701   152707 
  152716   152716   152714   152721   152726   152726   152726   152730 
  152736   152739   152737   152733   152729   152728   152726   152725 
  152724   152722   152724   152724   152718   152713   152707   152709 
  152714   152707   152702   152703   152702   152701   152702   152702 
  152703   152702   152702   152709   152713   152716   152722   152724 
  152724   152730   152737   152737   152737   152744   152743   152739 
  152739   152737   152736   152732   152729   152732   152730   152724 
  152718   152713   152706   152705   152702   152698   152690   152683 
  152678   152674   152664   152653   152652   152649   152641   152637 
  152635   152628   152618   152616   152613   152605   152601   152599 
  152597   152595   152593   152589   152590   152590   152590   152594 
  152595   152591   152597   152609   152608   152610   152620   152628 
  152643   152653   152659   152675   152690   152703   152721   152734 
  152748   152764   152779   152793   152807   152821   152832   152842 
  152855   152861   152868   152876   152879   152883   152892   152895 
  152896   152901   152903   152901   152895   152896   152898   152894 
  152887   152883   152884   152886   152878   152871   152867   152863 
  152859   152847   152837   152825   152809   152798   152787   152774 
  152756   152737   152722   152710   152691   152670   152655   152641 
  152625   152606   152590   152574   152559   152545   152531   152514 
  152508   152501   152487   152475   152466   152456   152444   152436 
  152432   152425   152420   152419   152423   152423   152421   152420 
  152421   152427   152432   152435   152444   152448   152450   152458 
  152467   152477   152483   152491   152501   152508   152510   152523 
  152529   152531   152536   152536   152540   152551   152554   152555 
  152563   152570   152574   152574   152578   152585   152586   152587 
  152589   152591   152599   152598   152598   152606   152609   152612 
  152617   152614   152610   152613   152620   152620   152622   152631 
  152633   152633   152639   152647   152653   152658   152663   152668 
  152676   152689   152695   152699   152712   152726   152736   152745 
  152759   152770   152778   152791   152802   152813   152820   152826 
  152841   152851   152852   152855   152853   152849   152851   152855 
  152852   152842   152837   152832   152826   152824   152820   152814 
  152810   152803   152799   152797   152790   152786   152783   152779 
  152776   152778   152775   152774   152772   152766   152768   152778 
  152776   152774   152776   152778   152774   152772   152775   152779 
  152776   152778   152780   152775   152776   152776   152772   152775 
  152772   152766   152768   152771   152770   152767   152764   152763 
  152760   152756   152753   152752   152751   152751   152749   152748 
  152748   152745   152744   152751   152755   152752   152752   152756 
  152757   152760   152766   152770   152771   152774   152774   152771 
  152772   152776   152775   152772   152772   152770   152767   152764 
  152763   152766   152764   152756   152753   152759   152756   152749 
  152749   152748   152741   152743   152744   152734   152733   152739 
  152732   152725   152728   152726   152722   152720   152716   152709 
  152705   152705   152699   152694   152691   152686   152682   152680 
  152672   152667   152668   152667   152663   152659   152655   152655 
  152655   152652   152655   152658   152656   152656   152653   152649 
  152648   152645   152641   152640   152637   152633   152626   152625 
  152628   152622   152617   152614   152612   152613   152614   152610 
  152610   152612   152616   152622   152628   152631   152635   152641 
  152645   152648   152655   152664   152667   152670   152680   152687 
  152687   152693   152702   152699   152705   152717   152722   152728 
  152733   152733   152737   152741   152739   152740   152747   152749 
  152753   152755   152756   152760   152761   152763   152767   152767 
  152768   152772   152771   152770   152774   152775   152774   152774 
  152776   152778   152778   152780   152783   152782   152782   152783 
  152786   152790   152793   152793   152788   152784   152784   152780 
  152775   152768   152759   152753   152749   152741   152739   152734 
  152728   152724   152718   152709   152702   152699   152694   152691 
  152689   152687   152685   152679   152676   152679   152678   152676 
  152678   152675   152672   152674   152675   152678   152682   152682 
  152679   152679   152686   152689   152687   152690   152693   152698 
  152702   152698   152701   152706   152707   152707   152714   152724 
  152726   152730   152737   152743   152745   152751   152761   152766 
  152768   152778   152787   152793   152794   152794   152799   152803 
  152803   152805   152803   152798   152798   152798   152794   152791 
  152787   152776   152771   152771   152761   152745   152737   152736 
  152724   152705   152697   152691   152680   152671   152660   152648 
  152636   152625   152614   152605   152598   152591   152582   152577 
  152574   152568   152563   152560   152558   152558   152554   152550 
  152555   152558   152552   152551   152552   152548   152547   152548 
  152547   152543   152541   152540   152540   152541   152540   152545 
  152550   152550   152552   152556   152556   152562   152571   152574 
  152579   152591   152594   152595   152605   152612   152614   152621 
  152631   152639   152641   152647   152651   152655   152659   152662 
  152664   152670   152674   152674   152674   152676   152675   152675 
  152676   152675   152680   152683   152678   152676   152679   152679 
  152678   152679   152686   152690   152689   152687   152687   152691 
  152695   152694   152698   152703   152702   152702   152712   152716 
  152717   152725   152726   152728   152732   152736   152747   152749 
  152741   152747   152756   152753   152755   152759   152761   152763 
  152764   152766   152767   152766   152766   152768   152770   152766 
  152764   152764   152760   152753   152752   152755   152751   152739 
  152733   152737   152737   152729   152718   152712   152712   152706 
  152701   152697   152687   152676   152672   152671   152666   152658 
  152653   152651   152645   152641   152636   152629   152628   152631 
  152628   152626   152626   152624   152625   152625   152628   152629 
  152629   152633   152633   152636   152641   152641   152641   152648 
  152653   152655   152664   152670   152671   152679   152686   152687 
  152694   152702   152707   152710   152717   152728   152729   152729 
  152739   152739   152737   152747   152748   152747   152749   152749 
  152749   152752   152747   152744   152743   152739   152737   152739 
  152734   152730   152728   152722   152717   152717   152717   152714 
  152710   152710   152709   152705   152701   152702   152702   152698 
  152693   152687   152683   152683   152675   152671   152675   152670 
  152664   152667   152667   152662   152663   152666   152667   152664 
  152668   152671   152668   152671   152676   152676   152679   152685 
  152685   152687   152693   152694   152699   152702   152701   152705 
  152707   152707   152710   152710   152712   152718   152721   152721 
  152722   152724   152729   152739   152743   152744   152749   152752 
  152757   152764   152766   152768   152780   152787   152786   152788 
  152790   152791   152795   152799   152802   152803   152803   152807 
  152810   152810   152814   152811   152809   152810   152810   152809 
  152807   152806   152805   152801   152799   152802   152802   152798 
  152795   152794   152791   152786   152787   152786   152778   152772 
  152774   152771   152766   152764   152761   152759   152755   152753 
  152755   152756   152752   152752   152749   152747   152749   152748 
  152745   152748   152747   152743   152743   152740   152733   152730 
  152729   152729   152725   152721   152720   152717   152720   152721 
  152716   152717   152720   152718   152722   152730   152733   152736 
  152740   152747   152753   152757   152763   152770   152772   152778 
  152780   152783   152788   152791   152793   152790   152786   152787 
  152788   152788   152786   152779   152776   152776   152772   152767 
  152763   152763   152761   152755   152753   152753   152748   152745 
  152739   152728   152728   152728   152720   152720   152724   152717 
  152713   152714   152709   152707   152707   152706   152702   152697 
  152699   152701   152694   152693   152695   152693   152690   152689 
  152689   152687   152690   152691   152686   152685   152687   152687 
  152686   152686   152683   152679   152680   152680   152676   152675 
  152675   152675   152676   152676   152676   152676   152675   152668 
  152666   152667   152667   152664   152663   152663   152663   152664 
  152664   152662   152659   152659   152662   152662   152658   152655 
  152652   152652   152651   152647   152645   152647   152647   152644 
  152641   152644   152639   152633   152639   152641   152637   152635 
  152637   152639   152640   152643   152641   152643   152647   152648 
  152647   152652   152656   152659   152663   152667   152671   152675 
  152679   152685   152689   152690   152691   152691   152695   152701 
  152702   152702   152699   152699   152705   152706   152705   152702 
  152705   152703   152698   152695   152701   152702   152699   152695 
  152691   152693   152690   152682   152679   152675   152666   152664 
  152663   152658   152655   152649   152644   152645   152645   152643 
  152641   152643   152645   152644   152644   152651   152653   152649 
  152652   152659   152663   152666   152666   152674   152682   152676 
  152683   152695   152691   152691   152695   152694   152701   152705 
  152702   152706   152710   152710   152714   152717   152714   152712 
  152712   152713   152717   152720   152716   152717   152725   152722 
  152721   152730   152732   152726   152728   152729   152728   152728 
  152728   152730   152729   152722   152720   152724   152724   152722 
  152724   152720   152716   152722   152725   152714   152709   152716 
  152714   152706   152702   152705   152702   152697   152694   152690 
  152687   152685   152680   152674   152672   152667   152660   152658 
  152651   152647   152645   152639   152636   152637   152633   152626 
  152624   152621   152618   152617   152614   152612   152610   152610 
  152613   152613   152612   152608   152604   152605   152605   152604 
  152602   152604   152608   152608   152605   152605   152605   152606 
  152610   152613   152609   152609   152614   152613   152606   152610 
  152617   152618   152620   152622   152625   152626   152626   152631 
  152636   152639   152644   152651   152659   152662   152660   152666 
  152672   152675   152680   152689   152690   152693   152702   152713 
  152724   152730   152733   152744   152755   152763   152772   152782 
  152787   152795   152807   152814   152820   152836   152848   152852 
  152860   152871   152878   152886   152896   152901   152909   152923 
  152932   152936   152937   152941   152950   152953   152956   152965 
  152968   152965   152973   152980   152975   152971   152975   152973 
  152973   152973   152969   152965   152961   152961   152959   152952 
  152945   152937   152929   152921   152914   152905   152895   152888 
  152880   152874   152868   152857   152845   152842   152840   152829 
  152822   152814   152795   152788   152788   152778   152767   152760 
  152748   152737   152732   152729   152725   152718   152712   152707 
  152703   152699   152697   152694   152693   152691   152687   152689 
  152693   152690   152687   152691   152691   152689   152693   152694 
  152693   152697   152701   152701   152703   152705   152703   152705 
  152709   152707   152706   152703   152698   152698   152697   152691 
  152693   152689   152680   152679   152675   152672   152672   152670 
  152666   152664   152659   152658   152656   152658   152660   152653 
  152647   152656   152659   152652   152649   152653   152653   152647 
  152647   152653   152652   152647   152645   152643   152641   152637 
  152636   152640   152635   152624   152624   152624   152617   152610 
  152608   152606   152599   152594   152594   152589   152585   152586 
  152583   152581   152582   152581   152582   152582   152578   152579 
  152583   152585   152589   152590   152594   152599   152599   152598 
  152601   152598   152599   152602   152602   152609   152614   152616 
  152620   152622   152620   152621   152624   152622   152626   152635 
  152636   152636   152639   152641   152644   152651   152655   152658 
  152662   152666   152667   152671   152672   152675   152682   152682 
  152685   152695   152701   152703   152713   152722   152725   152730 
  152739   152741   152748   152760   152766   152771   152780   152786 
  152791   152802   152810   152817   152825   152830   152836   152841 
  152845   152849   152855   152860   152860   152864   152868   152868 
  152868   152868   152864   152867   152869   152865   152861   152859 
  152859   152857   152851   152841   152838   152837   152833   152829 
  152826   152821   152815   152806   152797   152794   152790   152782 
  152774   152770   152761   152753   152749   152744   152737   152729 
  152718   152710   152706   152699   152693   152687   152676   152667 
  152662   152651   152641   152635   152624   152617   152610   152599 
  152591   152583   152571   152566   152558   152545   152537   152528 
  152518   152517   152508   152497   152497   152496   152486   152483 
  152479   152474   152471   152466   152469   152471   152463   152458 
  152459   152458   152454   152455   152456   152456   152456   152460 
  152458   152458   152463   152464   152464   152469   152473   152474 
  152478   152483   152490   152497   152500   152504   152510   152514 
  152520   152527   152531   152540   152550   152555   152562   152575 
  152587   152594   152604   152616   152625   152636   152643   152651 
  152663   152671   152675   152683   152691   152697   152703   152709 
  152717   152722   152724   152730   152739   152741   152744   152744 
  152749   152761   152766   152768   152772   152774   152783   152787 
  152787   152797   152802   152806   152807   152805   152813   152818 
  152810   152815   152822   152814   152809   152813   152813   152807 
  152805   152801   152797   152793   152783   152779   152775   152761 
  152753   152751   152741   152732   152722   152716   152712   152697 
  152686   152682   152667   152659   152656   152644   152636   152632 
  152620   152613   152612   152605   152595   152599   152601   152594 
  152595   152597   152591   152594   152601   152599   152601   152604 
  152608   152613   152614   152612   152614   152617   152618   152625 
  152629   152626   152628   152632   152633   152635   152637   152639 
  152641   152643   152643   152645   152647   152649   152653   152649 
  152653   152662   152659   152660   152671   152674   152674   152678 
  152680   152683   152687   152691   152698   152702   152703   152709 
  152709   152710   152717   152716   152716   152722   152721   152718 
  152724   152725   152724   152729   152730   152730   152733   152734 
  152732   152732   152730   152729   152736   152736   152729   152729 
  152732   152732   152734   152732   152726   152725   152722   152718 
  152713   152709   152709   152706   152699   152695   152693   152685 
  152679   152678   152671   152664   152662   152653   152649   152649 
  152644   152637   152635   152632   152628   152620   152617   152617 
  152608   152604   152605   152594   152590   152589   152583   152582 
  152581   152578   152574   152571   152572   152574   152571   152572 
  152571   152575   152586   152591   152593   152595   152602   152609 
  152616   152620   152624   152635   152644   152645   152653   152663 
  152667   152676   152686   152690   152698   152709   152716   152721 
  152726   152732   152737   152743   152751   152756   152757   152761 
  152761   152761   152768   152770   152767   152770   152771   152767 
  152768   152772   152772   152768   152761   152759   152760   152757 
  152751   152748   152745   152739   152729   152722   152724   152718 
  152707   152707   152710   152706   152698   152693   152690   152689 
  152685   152680   152676   152675   152675   152672   152668   152670 
  152671   152670   152668   152667   152663   152664   152666   152666 
  152664   152666   152667   152667   152668   152667   152664   152667 
  152667   152662   152663   152666   152660   152656   152658   152653 
  152651   152652   152652   152648   152641   152635   152633   152633 
  152629   152624   152620   152614   152610   152609   152605   152598 
  152595   152594   152591   152586   152585   152585   152577   152572 
  152574   152570   152571   152574   152571   152570   152570   152570 
  152574   152578   152581   152583   152583   152585   152587   152591 
