Origin Time       2025/01/13 21:19:00
Lat.              31.8
Long.             131.6
Depth. (km)       30
Mag.              6.9
Station Code      NARH01
Station Lat.      33.9666
Station Long.     135.6489
Station Height(m) 681
Record Time       2025/01/13 21:21:20
Sampling Freq(Hz) 100Hz
Duration Time(s)  120
Dir.              1
Scale Factor      2942(gal)/8224139
Max. Acc. (gal)   0.295
Last Correction   2025/01/13 21:21:20
Memo.             
[...]
 -251127  -251124  -251135  -251148  -251151  -251144  -251139  -251140 
 -251139  -251141  -251147  -251156  -251183  -251199  -251195  -251208 
 -251233  -251245  -251262  -251274  -251278  -251294  -251306  -251302 
 -251301  -251313  -251325  -251316  -251317  -251341  -251341  -251314 
 -251322  -251361  -251353  -251326  -251359  -251384  -251372  -251401 
 -251448  -251459  -251464  -251490  -251506  -251503  -251515  -251544 
 -251560  -251564  -251568  -251572  -251571  -251575  -251583  -251591 
 -251619  -251633  -251623  -251638  -251660  -251664  -251687  -251703 
 -251683  -251671  -251677  -251675  -251660  -251642  -251630  -251625 
 -251610  -251599  -251598  -251594  -251591  -251590  -251575  -251560 
 -251546  -251542  -251545  -251526  -251507  -251510  -251502  -251498 
 -251518  -251522  -251498  -251487  -251484  -251463  -251456  -251461 
 -251455  -251451  -251446  -251440  -251433  -251415  -251397  -251379 
 -251368  -251368  -251364  -251343  -251328  -251326  -251329  -251333 
 -251325  -251313  -251322  -251314  -251280  -251282  -251295  -251275 
 -251272  -251309  -251317  -251293  -251295  -251310  -251316  -251316 
 -251322  -251348  -251361  -251371  -251401  -251411  -251405  -251417 
 -251428  -251446  -251483  -251522  -251556  -251577  -251595  -251618 
 -251630  -251634  -251649  -251676  -251706  -251730  -251748  -251752 
 -251741  -251734  -251739  -251743  -251735  -251719  -251718  -251738 
 -251742  -251726  -251731  -251738  -251710  -251692  -251704  -251703 
 -251687  -251676  -251669  -251661  -251642  -251619  -251615  -251626 
 -251621  -251599  -251591  -251586  -251563  -251557  -251563  -251548 
 -251527  -251507  -251483  -251464  -251433  -251397  -251379  -251374 
 -251357  -251338  -251332  -251330  -251314  -251299  -251310  -251317 
 -251299  -251289  -251291  -251280  -251256  -251252  -251267  -251267 
 -251274  -251297  -251287  -251268  -251286  -251295  -251276  -251286 
 -251307  -251303  -251305  -251314  -251316  -251324  -251332  -251326 
 -251328  -251353  -251370  -251365  -251374  -251380  -251374  -251382 
 -251402  -251409  -251409  -251421  -251449  -251472  -251496  -251536 
 -251560  -251572  -251591  -251611  -251633  -251645  -251645  -251664 
 -251685  -251684  -251700  -251715  -251707  -251712  -251725  -251718 
 -251710  -251716  -251723  -251718  -251719  -251730  -251733  -251723 
 -251716  -251726  -251737  -251743  -251754  -251750  -251749  -251770 
 -251777  -251764  -251752  -251737  -251729  -251723  -251706  -251694 
 -251687  -251676  -251665  -251657  -251642  -251615  -251595  -251599 
 -251599  -251590  -251586  -251584  -251587  -251591  -251579  -251579 
 -251596  -251603  -251600  -251606  -251614  -251607  -251579  -251549 
 -251564  -251603  -251610  -251600  -251603  -251606  -251610  -251615 
 -251623  -251622  -251591  -251560  -251557  -251552  -251532  -251511 
 -251500  -251494  -251472  -251452  -251444  -251413  -251375  -251363 
 -251351  -251314  -251275  -251262  -251276  -251286  -251270  -251249 
 -251249  -251260  -251262  -251249  -251251  -251267  -251264  -251243 
 -251236  -251224  -251203  -251193  -251181  -251168  -251168  -251170 
 -251166  -251158  -251158  -251160  -251154  -251140  -251136  -251139 
 -251136  -251125  -251108  -251106  -251120  -251104  -251085  -251095 
 -251102  -251104  -251110  -251112  -251113  -251113  -251105  -251104 
 -251120  -251131  -251128  -251140  -251166  -251176  -251186  -251202 
 -251209  -251220  -251240  -251253  -251280  -251329  -251367  -251375 
 -251387  -251411  -251421  -251422  -251432  -251446  -251464  -251478 
 -251480  -251484  -251494  -251503  -251530  -251559  -251541  -251517 
 -251527  -251540  -251530  -251521  -251521  -251526  -251538  -251545 
 -251534  -251530  -251532  -251513  -251506  -251530  -251541  -251530 
 -251525  -251529  -251529  -251518  -251494  -251480  -251479  -251472 
 -251473  -251482  -251492  -251517  -251536  -251541  -251552  -251565 
 -251572  -251583  -251600  -251625  -251653  -251677  -251702  -251735 
 -251756  -251752  -251745  -251753  -251766  -251769  -251777  -251796 
 -251793  -251781  -251802  -251823  -251823  -251830  -251837  -251838 
 -251856  -251873  -251868  -251864  -251860  -251845  -251837  -251835 
 -251826  -251814  -251800  -251780  -251745  -251704  -251681  -251681 
 -251681  -251676  -251661  -251634  -251631  -251641  -251619  -251594 
 -251592  -251588  -251576  -251586  -251600  -251594  -251581  -251575 
 -251583  -251591  -251575  -251568  -251581  -251588  -251598  -251603 
 -251588  -251579  -251596  -251604  -251599  -251604  -251602  -251586 
 -251577  -251564  -251542  -251526  -251502  -251472  -251448  -251426 
 -251402  -251368  -251337  -251316  -251295  -251274  -251245  -251216 
 -251194  -251167  -251133  -251112  -251106  -251106  -251101  -251089 
 -251082  -251075  -251070  -251070  -251082  -251109  -251113  -251109 
 -251129  -251148  -251158  -251170  -251191  -251222  -251244  -251252 
 -251263  -251291  -251325  -251343  -251348  -251357  -251384  -251434 
 -251488  -251526  -251546  -251553  -251569  -251606  -251637  -251652 
 -251654  -251654  -251671  -251675  -251652  -251649  -251656  -251637 
 -251622  -251633  -251638  -251629  -251625  -251614  -251586  -251573 
 -251580  -251590  -251579  -251534  -251506  -251511  -251499  -251468 
 -251460  -251453  -251437  -251446  -251457  -251441  -251429  -251433 
 -251440  -251430  -251415  -251425  -251441  -251446  -251441  -251421 
 -251421  -251437  -251425  -251407  -251414  -251414  -251392  -251372 
 -251372  -251372  -251370  -251383  -251386  -251375  -251379  -251379 
 -251365  -251371  -251384  -251365  -251337  -251336  -251353  -251367 
 -251363  -251363  -251365  -251352  -251348  -251360  -251359  -251348 
 -251349  -251361  -251367  -251370  -251382  -251397  -251403  -251414 
 -251430  -251437  -251442  -251465  -251492  -251509  -251527  -251545 
 -251548  -251553  -251568  -251586  -251592  -251584  -251596  -251642 
 -251672  -251680  -251704  -251725  -251733  -251750  -251754  -251745 
 -251748  -251750  -251749  -251756  -251742  -251707  -251687  -251683 
 -251675  -251664  -251675  -251685  -251665  -251648  -251642  -251614 
 -251580  -251557  -251533  -251527  -251544  -251540  -251514  -251488 
 -251464  -251442  -251432  -251422  -251403  -251395  -251406  -251411 
 -251407  -251405  -251406  -251409  -251401  -251387  -251388  -251392 
 -251397  -251409  -251407  -251397  -251415  -251437  -251441  -251453 
 -251459  -251449  -251465  -251480  -251471  -251475  -251492  -251506 
 -251509  -251500  -251506  -251511  -251502  -251498  -251492  -251486 
 -251484  -251471  -251459  -251469  -251479  -251471  -251456  -251444 
 -251424  -251409  -251418  -251432  -251436  -251444  -251457  -251452 
 -251438  -251451  -251456  -251446  -251461  -251480  -251476  -251476 
 -251482  -251483  -251492  -251507  -251521  -251526  -251513  -251506 
 -251510  -251503  -251494  -251503  -251507  -251487  -251469  -251459 
 -251442  -251432  -251424  -251414  -251403  -251378  -251365  -251380 
 -251378  -251364  -251355  -251341  -251344  -251341  -251314  -251311 
 -251314  -251297  -251302  -251295  -251257  -251257  -251279  -251262 
 -251235  -251230  -251232  -251243  -251262  -251267  -251262  -251249 
 -251220  -251202  -251224  -251247  -251243  -251247  -251253  -251248 
 -251262  -251293  -251299  -251309  -251338  -251361  -251372  -251368 
 -251379  -251415  -251422  -251401  -251409  -251436  -251446  -251453 
 -251488  -251537  -251556  -251553  -251559  -251571  -251584  -251583 
 -251572  -251591  -251621  -251621  -251619  -251621  -251610  -251598 
 -251581  -251565  -251565  -251567  -251565  -251560  -251550  -251550 
 -251549  -251533  -251529  -251527  -251515  -251521  -251529  -251513 
 -251496  -251486  -251461  -251445  -251446  -251449  -251449  -251442 
 -251433  -251424  -251402  -251386  -251378  -251355  -251344  -251347 
 -251325  -251305  -251306  -251305  -251301  -251297  -251279  -251264 
 -251264  -251259  -251264  -251293  -251318  -251332  -251356  -251388 
 -251405  -251417  -251441  -251467  -251499  -251537  -251579  -251625 
 -251641  -251654  -251699  -251726  -251745  -251792  -251838  -251872 
 -251901  -251922  -251941  -251953  -251965  -251996  -252023  -252026 
 -252027  -252038  -252046  -252057  -252076  -252092  -252086  -252072 
 -252077  -252078  -252070  -252073  -252069  -252054  -252055  -252040 
 -252012  -252013  -252009  -251968  -251945  -251953  -251946  -251919 
 -251881  -251835  -251797  -251775  -251757  -251722  -251675  -251646 
 -251625  -251583  -251545  -251521  -251486  -251437  -251405  -251387 
 -251349  -251302  -251267  -251233  -251203  -251189  -251175  -251160 
 -251148  -251125  -251104  -251108  -251105  -251089  -251100  -251108 
 -251095  -251104  -251117  -251118  -251137  -251149  -251144  -251167 
 -251201  -251212  -251212  -251221  -251237  -251248  -251253  -251259 
 -251262  -251267  -251279  -251290  -251284  -251266  -251253  -251257 
 -251267  -251283  -251301  -251306  -251297  -251286  -251293  -251305 
 -251302  -251311  -251326  -251317  -251316  -251329  -251322  -251307 
 -251301  -251293  -251286  -251289  -251298  -251301  -251295  -251293 
 -251294  -251309  -251322  -251303  -251290  -251302  -251307  -251307 
 -251316  -251332  -251359  -251368  -251349  -251344  -251364  -251374 
 -251364  -251368  -251388  -251403  -251421  -251448  -251463  -251455 
 -251451  -251449  -251429  -251424  -251446  -251452  -251446  -251457 
 -251461  -251461  -251465  -251456  -251452  -251480  -251505  -251510 
 -251536  -251569  -251571  -251572  -251599  -251608  -251602  -251607 
 -251610  -251603  -251603  -251598  -251584  -251594  -251598  -251560 
 -251532  -251537  -251530  -251515  -251509  -251499  -251491  -251495 
 -251499  -251488  -251476  -251482  -251490  -251490  -251476  -251448 
 -251433  -251434  -251415  -251403  -251424  -251428  -251415  -251429 
 -251448  -251457  -251463  -251456  -251451  -251453  -251442  -251438 
 -251428  -251399  -251383  -251386  -251382  -251375  -251368  -251355 
 -251334  -251314  -251283  -251243  -251232  -251244  -251243  -251221 
 -251189  -251158  -251139  -251139  -251144  -251128  -251108  -251109 
 -251113  -251109  -251113  -251108  -251082  -251074  -251086  -251091 
 -251097  -251106  -251112  -251116  -251118  -251127  -251140  -251139 
 -251136  -251151  -251159  -251170  -251209  -251240  -251241  -251247 
 -251266  -251278  -251282  -251279  -251282  -251299  -251311  -251310 
 -251306  -251309  -251322  -251328  -251330  -251338  -251349  -251364 
 -251367  -251361  -251371  -251386  -251397  -251405  -251410  -251422 
 -251451  -251472  -251464  -251452  -251467  -251498  -251527  -251560 
 -251596  -251631  -251667  -251692  -251711  -251752  -251800  -251830 
 -251845  -251853  -251869  -251897  -251912  -251919  -251926  -251931 
 -251946  -251958  -251968  -251984  -252001  -252005  -251992  -252005 
 -252031  -252019  -251999  -251996  -251991  -251977  -251939  -251903 
 -251888  -251878  -251860  -251838  -251816  -251779  -251741  -251730 
 -251727  -251711  -251685  -251661  -251630  -251592  -251583  -251580 
 -251553  -251538  -251540  -251523  -251498  -251495  -251509  -251506 
 -251490  -251484  -251484  -251468  -251455  -251448  -251441  -251452 
 -251461  -251457  -251456  -251448  -251436  -251430  -251438  -251476 
 -251513  -251510  -251491  -251482  -251468  -251473  -251502  -251499 
 -251483  -251484  -251471  -251457  -251455  -251442  -251433  -251424 
 -251406  -251395  -251395  -251391  -251378  -251353  -251336  -251332 
 -251336  -251329  -251298  -251272  -251276  -251278  -251249  -251216 
 -251220  -251248  -251249  -251236  -251226  -251220  -251214  -251218 
 -251228  -251233  -251241  -251247  -251236  -251233  -251233  -251224 
 -251235  -251249  -251243  -251232  -251220  -251212  -251229  -251237 
 -251214  -251195  -251194  -251195  -251197  -251183  -251156  -251156 
 -251171  -251160  -251140  -251118  -251102  -251110  -251124  -251120 
 -251121  -251129  -251129  -251129  -251132  -251127  -251125  -251149 
 -251178  -251178  -251175  -251201  -251226  -251232  -251229  -251253 
 -251293  -251314  -251326  -251352  -251383  -251414  -251432  -251457 
 -251509  -251542  -251553  -251576  -251598  -251615  -251652  -251699 
 -251734  -251746  -251761  -251787  -251783  -251785  -251831  -251868 
 -251888  -251918  -251935  -251922  -251912  -251932  -251942  -251943 
 -251964  -251978  -251974  -251977  -251995  -252011  -251996  -251981 
 -251995  -251981  -251951  -251938  -251926  -251930  -251928  -251893 
 -251857  -251838  -251816  -251791  -251777  -251758  -251723  -251692 
 -251660  -251631  -251610  -251583  -251552  -251521  -251490  -251456 
 -251425  -251391  -251345  -251311  -251302  -251280  -251255  -251240 
 -251203  -251166  -251163  -251141  -251101  -251097  -251082  -251054 
 -251059  -251060  -251050  -251071  -251086  -251070  -251075  -251093 
 -251095  -251091  -251085  -251091  -251114  -251139  -251163  -251179 
 -251195  -251209  -251206  -251210  -251235  -251260  -251279  -251303 
 -251337  -251355  -251367  -251401  -251428  -251440  -251473  -251517 
 -251554  -251595  -251634  -251669  -251696  -251712  -251734  -251758 
 -251776  -251815  -251883  -251942  -251969  -251978  -251993  -252012 
 -252051  -252097  -252105  -252113  -252139  -252146  -252167  -252231 
 -252275  -252254  -252185  -252159  -252205  -252219  -252175  -252162 
 -252162  -252123  -252082  -252062  -252042  -252032  -252018  -251976 
 -251934  -251911  -251891  -251869  -251833  -251772  -251726  -251696 
 -251673  -251656  -251617  -251579  -251550  -251505  -251471  -251457 
 -251438  -251433  -251424  -251394  -251380  -251402  -251410  -251371 
 -251343  -251340  -251324  -251325  -251338  -251321  -251321  -251336 
 -251330  -251344  -251370  -251375  -251383  -251403  -251411  -251392 
 -251371  -251376  -251392  -251407  -251430  -251446  -251429  -251414 
 -251428  -251432  -251430  -251441  -251453  -251453  -251429  -251402 
 -251405  -251414  -251409  -251406  -251392  -251359  -251343  -251344 
 -251326  -251295  -251264  -251243  -251220  -251183  -251154  -251125 
 -251094  -251074  -251052  -251016  -250981  -250959  -250948  -250925 
 -250896  -250884  -250861  -250819  -250788  -250778  -250777  -250781 
 -250785  -250788  -250797  -250823  -250844  -250844  -250854  -250879 
 -250888  -250894  -250919  -250924  -250920  -250950  -250974  -250969 
 -250977  -250998  -251008  -251025  -251058  -251087  -251112  -251139 
 -251167  -251187  -251202  -251228  -251264  -251297  -251328  -251353 
 -251365  -251395  -251444  -251480  -251518  -251552  -251563  -251594 
 -251648  -251695  -251743  -251776  -251788  -251823  -251860  -251868 
 -251885  -251904  -251904  -251919  -251947  -251959  -251965  -251976 
 -251978  -251970  -251968  -251978  -251989  -251999  -251999  -251988 
 -251984  -251980  -251972  -251965  -251955  -251953  -251942  -251914 
 -251895  -251876  -251849  -251830  -251797  -251764  -251742  -251699 
 -251657  -251637  -251615  -251584  -251544  -251503  -251478  -251437 
 -251387  -251344  -251310  -251302  -251290  -251249  -251218  -251189 
 -251148  -251122  -251095  -251064  -251046  -251014  -250985  -250992 
 -251000  -250982  -250965  -250958  -250965  -250978  -250993  -251008 
 -251017  -251039  -251079  -251109  -251118  -251128  -251151  -251183 
 -251236  -251290  -251324  -251360  -251413  -251465  -251518  -251563 
 -251596  -251629  -251656  -251676  -251716  -251781  -251831  -251868 
 -251911  -251943  -251970  -251995  -252013  -252043  -252061  -252076 
 -252121  -252143  -252153  -252190  -252208  -252215  -252240  -252250 
 -252248  -252240  -252236  -252251  -252248  -252225  -252219  -252221 
 -252219  -252217  -252216  -252216  -252208  -252180  -252155  -252136 
 -252111  -252082  -252053  -252022  -251991  -251957  -251931  -251899 
 -251856  -251823  -251779  -251722  -251685  -251653  -251606  -251561 
 -251519  -251465  -251411  -251375  -251345  -251313  -251289  -251253 
 -251208  -251175  -251143  -251097  -251060  -251032  -251014  -251012 
 -250998  -250963  -250943  -250954  -250954  -250921  -250900  -250900 
 -250886  -250869  -250866  -250881  -250885  -250865  -250871  -250900 
 -250915  -250927  -250936  -250946  -250974  -251002  -251010  -251010 
 -251027  -251052  -251067  -251086  -251112  -251136  -251175  -251212 
 -251229  -251262  -251298  -251303  -251318  -251352  -251360  -251364 
 -251398  -251429  -251444  -251478  -251525  -251546  -251563  -251587 
 -251587  -251576  -251580  -251587  -251603  -251618  -251607  -251615 
 -251653  -251667  -251669  -251673  -251669  -251671  -251673  -251672 
 -251679  -251680  -251683  -251680  -251668  -251658  -251657  -251661 
 -251654  -251635  -251640  -251650  -251650  -251650  -251654  -251660 
 -251671  -251687  -251704  -251712  -251725  -251734  -251731  -251750 
 -251800  -251833  -251834  -251849  -251887  -251895  -251884  -251900 
 -251916  -251910  -251901  -251915  -251927  -251920  -251926  -251946 
 -251961  -251970  -251959  -251957  -251984  -251989  -251978  -251988 
 -251989  -251970  -251962  -251969  -251973  -251966  -251950  -251941 
 -251945  -251945  -251930  -251897  -251873  -251868  -251856  -251834 
 -251816  -251784  -251738  -251721  -251707  -251652  -251614  -251618 
 -251575  -251513  -251495  -251479  -251457  -251441  -251402  -251357 
 -251322  -251305  -251291  -251240  -251185  -251167  -251141  -251098 
 -251079  -251063  -251012  -250971  -250978  -250985  -250975  -250960 
 -250943  -250938  -250927  -250900  -250884  -250888  -250892  -250886 
 -250881  -250881  -250881  -250863  -250828  -250816  -250838  -250838 
 -250828  -250862  -250894  -250904  -250923  -250946  -250955  -250966 
 -250993  -251025  -251040  -251056  -251097  -251140  -251163  -251182 
 -251201  -251213  -251232  -251266  -251299  -251320  -251341  -251376 
 -251411  -251442  -251464  -251483  -251517  -251546  -251568  -251604 
 -251648  -251672  -251695  -251727  -251754  -251772  -251787  -251807 
 -251829  -251833  -251841  -251869  -251883  -251880  -251892  -251903 
 -251897  -251900  -251922  -251922  -251900  -251893  -251891  -251884 
 -251887  -251866  -251822  -251815  -251816  -251776  -251752  -251758 
 -251729  -251689  -251688  -251696  -251688  -251664  -251633  -251602 
 -251567  -251540  -251517  -251483  -251464  -251456  -251422  -251387 
 -251355  -251299  -251255  -251251  -251241  -251198  -251145  -251108 
 -251071  -251029  -251017  -251004  -250956  -250923  -250906  -250882 
 -250857  -250834  -250812  -250793  -250782  -250782  -250773  -250763 
 -250778  -250782  -250766  -250755  -250747  -250746  -250751  -250757 
 -250761  -250758  -250770  -250788  -250793  -250815  -250838  -250842 
 -250871  -250909  -250919  -250943  -250997  -251031  -251059  -251118 
 -251163  -251175  -251214  -251284  -251333  -251356  -251371  -251391 
 -251421  -251446  -251487  -251553  -251591  -251602  -251645  -251691 
 -251711  -251743  -251764  -251760  -251775  -251799  -251800  -251788 
 -251795  -251837  -251862  -251854  -251864  -251868  -251851  -251850 
 -251829  -251808  -251827  -251816  -251788  -251787  -251775  -251750 
