Origin Time       2025/01/13 21:19:00
Lat.              31.8
Long.             131.6
Depth. (km)       30
Mag.              6.9
Station Code      NARH03
Station Lat.      34.2925
Station Long.     136.0022
Station Height(m) 257
Record Time       2025/01/13 21:22:19
Sampling Freq(Hz) 100Hz
Duration Time(s)  120
Dir.              1
Scale Factor      2942(gal)/8224139
Max. Acc. (gal)   0.146
Last Correction   2025/01/13 21:22:21
Memo.             
  199392   199395   199400   199395   199388   199395   199408   199407 
  199397   199400   199407   199405   199408   199412   199403   199392 
  199392   199401   199405   199397   199399   199409   199419   199416 
  199413   199419   199417   199424   199438   199436   199440   199450 
  199449   199449   199463   199474   199469   199477   199490   199490 
  199486   199477   199474   199480   199471   199462   199455   199449 
  199453   199457   199447   199440   199440   199436   199438   199446 
  199440   199435   199439   199430   199420   199432   199427   199404 
  199408   199417   199404   199392   199397   199396   199393   199399 
  199389   199377   199370   199357   199362   199365   199357   199363 
  199363   199347   199343   199346   199342   199338   199338   199335 
  199335   199338   199334   199326   199323   199324   199328   199326 
  199319   199327   199335   199331   199332   199343   199342   199336 
  199335   199339   199345   199345   199341   199343   199355   199366 
  199372   199372   199370   199372   199374   199376   199376   199372 
  199382   199401   199388   199377   199395   199386   199376   199386 
  199381   199374   199380   199378   199370   199362   199355   199354 
  199357   199358   199359   199350   199346   199353   199338   199330 
  199339   199326   199311   199316   199320   199320   199309   199299 
  199303   199301   199297   199297   199288   199281   199287   199289 
  199281   199265   199261   199273   199280   199277   199287   199292 
  199278   199287   199305   199292   199289   199312   199312   199303 
  199315   199320   199315   199320   199330   199338   199354   199362 
  199350   199357   199368   199366   199378   199392   199405   199413 
  199408   199419   199434   199430   199430   199435   199436   199438 
  199443   199451   199457   199454   199453   199447   199438   199440 
  199434   199419   199424   199431   199430   199422   199403   199393 
  199400   199401   199382   199357   199350   199345   199327   199332 
  199324   199291   199295   199295   199261   199255   199253   199237 
  199233   199223   199222   199224   199210   199206   199214   199208 
  199203   199206   199204   199200   199201   199214   199222   199220 
  199218   199226   199239   199237   199234   199247   199260   199262 
  199266   199280   199291   199288   199300   199322   199322   199323 
  199336   199336   199345   199368   199370   199372   199378   199380 
  199396   199409   199399   199404   199422   199419   199422   199435 
  199438   199439   199443   199439   199442   199447   199443   199451 
  199455   199442   199442   199450   199454   199465   199470   199463 
  199457   199453   199451   199458   199461   199453   199444   199439 
  199435   199430   199428   199426   199420   199422   199423   199412 
  199401   199417   199417   199388   199389   199399   199395   199397 
  199390   199370   199361   199366   199366   199358   199357   199351 
  199341   199342   199341   199328   199328   199328   199318   199307 
  199304   199309   199311   199307   199304   199303   199297   199297 
  199301   199291   199284   199293   199296   199299   199300   199299 
  199304   199309   199309   199318   199324   199322   199324   199330 
  199334   199341   199346   199345   199343   199346   199351   199361 
  199372   199377   199378   199386   199395   199395   199395   199403 
  199413   199413   199419   199426   199428   199434   199443   199454 
  199457   199459   199484   199494   199480   199485   199492   199481 
  199492   199501   199488   199482   199484   199482   199470   199451 
  199449   199453   199449   199436   199426   199419   199415   199409 
  199399   199389   199380   199366   199362   199355   199341   199334 
  199324   199307   199295   199278   199262   199265   199264   199242 
  199226   199222   199210   199191   199187   199180   199170   199168 
  199158   199154   199161   199164   199165   199162   199157   199162 
  199168   199161   199158   199169   199179   199181   199183   199195 
  199208   199212   199216   199218   199218   199222   199227   199233 
  199234   199239   199249   199245   199245   199260   199261   199255 
  199270   199281   199280   199287   199288   199291   199301   199308 
  199311   199308   199318   199343   199350   199343   199353   199359 
  199361   199366   199382   199403   199404   199404   199420   199419 
  199416   199432   199439   199436   199438   199442   199451   199446 
  199443   199457   199461   199457   199453   199439   199431   199436 
  199434   199427   199427   199431   199434   199427   199424   199431 
  199424   199419   199431   199430   199419   199420   199427   199426 
  199420   199415   199412   199415   199411   199401   199401   199400 
  199392   199385   199381   199386   199393   199386   199385   199374 
  199353   199351   199355   199353   199353   199345   199342   199343 
  199335   199339   199336   199326   199327   199326   199323   199334 
  199332   199318   199320   199328   199323   199320   199319   199314 
  199322   199322   199304   199308   199322   199314   199308   199318 
  199316   199307   199311   199314   199309   199308   199311   199322 
  199331   199328   199323   199322   199336   199350   199346   199345 
  199357   199369   199382   199386   199378   199389   199413   199417 
  199415   199427   199434   199434   199447   199454   199455   199463 
  199458   199449   199463   199473   199462   199463   199484   199484 
  199474   199484   199484   199473   199481   199492   199500   199511 
  199511   199505   199507   199512   199513   199513   199516   199528 
  199535   199525   199513   199513   199520   199515   199509   199505 
  199504   199505   199490   199474   199476   199471   199450   199442 
  199442   199420   199407   199417   199407   199378   199365   199363 
  199361   199347   199330   199314   199293   199280   199269   199257 
  199249   199243   199233   199220   199220   199220   199210   199204 
  199208   199210   199207   199203   199200   199196   199201   199206 
  199201   199211   199226   199228   199234   199243   199247   199251 
  199257   199254   199254   199264   199268   199268   199274   199280 
  199276   199270   199272   199284   199293   199295   199304   199314 
  199316   199315   199320   199326   199327   199334   199342   199345 
  199349   199351   199358   199370   199374   199372   199372   199374 
  199376   199374   199377   199381   199374   199370   199376   199378 
  199377   199376   199369   199361   199351   199343   199343   199343 
  199331   199320   199312   199301   199293   199281   199264   199257 
  199247   199239   199243   199234   199223   199228   199218   199204 
  199204   199204   199204   199200   199195   199200   199203   199193 
  199185   199188   199188   199180   199177   199169   199169   199183 
  199170   199153   199165   199161   199150   199160   199157   199153 
  199161   199164   199169   199170   199164   199172   199176   199174 
  199184   199187   199187   199195   199193   199196   199206   199207 
  199215   199226   199227   199237   199246   199253   199265   199269 
  199270   199282   199291   199308   199326   199323   199320   199336 
  199358   199362   199359   199370   199384   199381   199376   199384 
  199399   199400   199407   199423   199432   199439   199450   199461 
  199473   199478   199485   199512   199532   199532   199536   199552 
  199561   199571   199588   199592   199592   199602   199611   199615 
  199621   199631   199636   199635   199635   199642   199650   199652 
  199655   199659   199663   199667   199675   199687   199693   199697 
  199704   199712   199721   199731   199731   199735   199750   199754 
  199746   199752   199763   199759   199762   199777   199779   199775 
  199782   199782   199770   199768   199767   199755   199755   199748 
  199731   199725   199719   199705   199700   199698   199689   199673 
  199663   199663   199650   199636   199632   199620   199604   199598 
  199597   199581   199565   199558   199546   199532   199524   199519 
  199512   199503   199489   199478   199471   199466   199457   199446 
  199440   199430   199422   199419   199404   199392   199392   199393 
  199392   199378   199362   199361   199350   199332   199327   199328 
  199319   199304   199291   199278   199268   199255   199251   199247 
  199235   199224   199214   199195   199187   199193   199191   199184 
  199176   199161   199158   199165   199154   199150   199158   199153 
  199143   199150   199149   199146   199160   199164   199162   199162 
  199161   199166   199173   199177   199191   199200   199207   199215 
  199220   199237   199250   199251   199262   199274   199280   199292 
  199303   199304   199314   199326   199336   199338   199330   199342 
  199362   199357   199349   199362   199357   199338   199347   199354 
  199335   199331   199331   199312   199296   199301   199300   199282 
  199269   199257   199242   199239   199233   199215   199200   199201 
  199208   199191   199169   199170   199164   199160   199169   199162 
  199162   199168   199158   199164   199181   199177   199177   199191 
  199192   199200   199220   199223   199222   199233   199241   199241 
  199246   199264   199278   199276   199278   199280   199284   199308 
  199315   199300   199305   199314   199314   199322   199328   199331 
  199330   199328   199327   199323   199324   199318   199312   199322 
  199320   199309   199318   199323   199316   199320   199331   199323 
  199309   199319   199331   199327   199328   199336   199332   199334 
  199341   199339   199347   199358   199365   199373   199368   199373 
  199392   199388   199386   199397   199397   199401   199412   199412 
  199409   199413   199417   199420   199424   199420   199415   199419 
  199427   199430   199428   199423   199426   199431   199431   199430 
  199434   199442   199438   199435   199450   199458   199458   199465 
  199471   199469   199471   199481   199484   199488   199494   199497 
  199496   199498   199504   199508   199513   199511   199504   199508 
  199511   199501   199505   199512   199498   199490   199497   199490 
  199480   199480   199473   199465   199461   199447   199434   199430 
  199426   199416   199411   199397   199377   199376   199377   199362 
  199346   199328   199318   199319   199312   199293   199277   199276 
  199266   199253   199251   199246   199239   199239   199230   199218 
  199220   199223   199215   199207   199207   199200   199188   199184 
  199184   199181   199179   199173   199174   199177   199179   199181 
  199183   199187   199196   199193   199191   199196   199197   199199 
  199212   199219   199220   199233   199237   199233   199239   199250 
  199247   199247   199257   199268   199281   199292   199295   199301 
  199314   199319   199327   199345   199350   199349   199366   199380 
  199380   199388   199401   199413   199428   199443   199453   199462 
  199482   199493   199494   199509   199525   199534   199551   199563 
  199562   199561   199562   199574   199586   199584   199584   199600 
  199604   199589   199589   199597   199590   199578   199571   199562 
  199550   199538   199531   199524   199501   199477   199481   199481 
  199458   199444   199431   199411   199411   199404   199385   199376 
  199368   199361   199358   199350   199346   199346   199342   199339 
  199343   199345   199334   199328   199335   199342   199343   199342 
  199342   199343   199334   199331   199336   199339   199347   199350 
  199349   199362   199357   199342   199346   199346   199342   199342 
  199332   199334   199338   199328   199327   199324   199305   199299 
  199299   199291   199292   199287   199270   199268   199269   199261 
  199247   199241   199245   199238   199227   199226   199227   199230 
  199224   199215   199210   199211   199216   199223   199224   199219 
  199212   199224   199242   199237   199239   199257   199262   199265 
  199273   199277   199289   199315   199328   199331   199345   199353 
  199355   199372   199385   199392   199407   199419   199426   199438 
  199447   199447   199462   199477   199473   199474   199490   199497 
  199501   199517   199528   199525   199532   199544   199548   199555 
  199557   199559   199573   199569   199561   199578   199588   199586 
  199590   199586   199585   199593   199584   199574   199584   199574 
  199558   199569   199567   199547   199539   199535   199530   199523 
  199512   199505   199494   199480   199473   199462   199442   199434 
  199428   199407   199382   199369   199358   199346   199341   199342 
  199327   199304   199289   199277   199270   199261   199245   199239 
  199239   199234   199228   199224   199223   199216   199210   199206 
  199206   199210   199211   199212   199216   199215   199220   199224 
  199219   199227   199239   199233   199234   199251   199255   199258 
  199272   199276   199273   199282   199291   199291   199296   199295 
  199291   199292   199296   199300   199301   199297   199303   199307 
  199303   199299   199308   199308   199296   199315   199335   199326 
  199323   199326   199328   199338   199341   199345   199354   199363 
  199372   199374   199382   199395   199397   199407   199419   199423 
  199434   199442   199454   199471   199465   199463   199480   199488 
  199494   199507   199508   199512   199527   199534   199534   199551 
  199559   199546   199548   199561   199559   199562   199575   199571 
  199559   199558   199559   199552   199544   199550   199551   199538 
  199527   199523   199519   199517   199515   199505   199496   199500 
  199492   199469   199476   199474   199453   199453   199447   199431 
  199436   199436   199419   199423   199423   199405   199403   199393 
  199385   199392   199384   199372   199377   199377   199374   199373 
  199372   199374   199372   199373   199385   199388   199382   199395 
  199407   199401   199405   199420   199422   199420   199431   199440 
  199449   199457   199459   199469   199478   199481   199488   199485 
  199481   199488   199484   199480   199485   199484   199471   199470 
  199481   199481   199470   199463   199455   199449   199449   199442 
  199434   199431   199426   199411   199395   199389   199388   199374 
  199369   199370   199358   199349   199346   199335   199323   199311 
  199303   199297   199284   199277   199284   199278   199266   199261 
  199250   199237   199237   199235   199227   199227   199234   199228 
  199220   199219   199214   199214   199224   199222   199211   199220 
  199228   199222   199215   199220   199233   199243   199247   199246 
  199251   199255   199250   199250   199250   199254   199262   199255 
  199253   199266   199273   199261   199246   199258   199270   199260 
  199258   199261   199254   199253   199260   199273   199277   199273 
  199282   199285   199278   199282   199291   199305   199318   199312 
  199316   199331   199327   199315   199328   199353   199351   199343 
  199355   199359   199355   199359   199363   199363   199363   199368 
  199380   199389   199382   199380   199385   199395   199411   199403 
  199393   199416   199420   199404   199408   199408   199405   199415 
  199419   199411   199409   199417   199419   199412   199416   199422 
  199417   199423   199424   199417   199420   199430   199430   199426 
  199419   199422   199426   199424   199422   199423   199423   199422 
  199419   199417   199422   199423   199416   199422   199427   199413 
  199416   199422   199409   199411   199419   199405   199403   199408 
  199400   199397   199399   199386   199382   199385   199384   199388 
  199392   199390   199381   199378   199381   199376   199382   199396 
  199388   199377   199381   199389   199384   199384   199395   199393 
  199400   199422   199423   199415   199431   199446   199442   199443 
  199451   199453   199461   199462   199459   199473   199474   199467 
  199480   199488   199489   199498   199500   199500   199505   199509 
  199519   199520   199516   199525   199534   199535   199536   199531 
  199535   199547   199547   199539   199542   199547   199544   199544 
  199546   199539   199539   199551   199547   199534   199535   199535 
  199525   199517   199508   199508   199511   199500   199490   199489 
  199473   199465   199463   199450   199444   199449   199439   199424 
  199415   199416   199409   199395   199392   199393   199384   199376 
  199376   199377   199376   199365   199362   199370   199373   199373 
  199374   199376   199377   199369   199363   199365   199366   199365 
  199370   199374   199366   199358   199361   199368   199365   199359 
  199362   199362   199358   199363   199365   199351   199350   199359 
  199350   199347   199351   199336   199339   199346   199336   199336 
  199336   199328   199332   199334   199331   199328   199327   199327 
  199324   199322   199322   199320   199323   199323   199315   199319 
  199327   199327   199324   199312   199312   199322   199318   199315 
  199318   199319   199324   199330   199322   199320   199336   199336 
  199328   199347   199353   199345   199361   199370   199369   199386 
  199399   199403   199423   199442   199444   199450   199462   199478 
  199494   199498   199503   199519   199532   199544   199554   199559 
  199574   199589   199596   199605   199612   199615   199617   199619 
  199619   199621   199627   199627   199628   199631   199629   199631 
  199636   199632   199621   199620   199627   199616   199605   199608 
  199601   199588   199578   199567   199563   199563   199550   199535 
  199530   199519   199511   199515   199500   199481   199476   199465 
  199451   199439   199432   199428   199413   199403   199403   199401 
  199396   199382   199376   199378   199369   199363   199363   199361 
  199361   199354   199350   199353   199350   199350   199345   199335 
  199334   199332   199324   199323   199332   199335   199328   199320 
  199320   199319   199314   199312   199305   199300   199300   199284 
  199269   199270   199270   199265   199255   199245   199239   199234 
  199226   199224   199228   199231   199226   199219   199231   199235 
  199223   199215   199215   199223   199230   199222   199222   199235 
  199241   199239   199245   199260   199276   199281   199292   199301 
  199297   199308   199332   199342   199342   199349   199353   199359 
  199373   199384   199384   199386   199404   199419   199413   199415 
  199423   199416   199420   199439   199440   199430   199428   199443 
  199446   199436   199449   199453   199432   199438   199450   199442 
  199442   199447   199444   199442   199439   199443   199443   199442 
  199442   199432   199430   199435   199430   199427   199426   199426 
  199434   199434   199424   199432   199435   199422   199427   199442 
  199432   199430   199439   199440   199442   199447   199453   199458 
  199458   199459   199458   199457   199469   199474   199467   199474 
  199476   199466   199482   199492   199474   199477   199486   199476 
  199474   199485   199486   199482   199481   199480   199478   199477 
  199476   199471   199470   199476   199478   199477   199484   199486 
  199478   199476   199476   199481   199488   199488   199486   199488 
