Origin Time       2025/01/13 21:19:00
Lat.              31.8
Long.             131.6
Depth. (km)       30
Mag.              6.9
Station Code      NGNH24
Station Lat.      35.6152
Station Long.     137.8797
Station Height(m) 608
Record Time       2025/01/13 21:23:14
Sampling Freq(Hz) 100Hz
Duration Time(s)  120
Dir.              2
Scale Factor      2940(gal)/6170270
Max. Acc. (gal)   0.228
Last Correction   2025/01/13 21:22:59
Memo.             
[...]
   53357    53352    53354    53353    53348    53349    53348    53342 
   53343    53343    53338    53339    53342    53338    53336    53338 
   53336    53331    53331    53332    53329    53329    53329    53327 
   53327    53327    53325    53325    53326    53325    53323    53323 
   53324    53324    53323    53323    53324    53324    53323    53322 
   53322    53323    53324    53322    53319    53317    53319    53318 
   53315    53317    53319    53316    53316    53315    53314    53315 
   53315    53316    53317    53317    53317    53319    53320    53321 
   53319    53321    53325    53325    53324    53324    53325    53329 
   53329    53328    53329    53332    53334    53334    53336    53338 
   53336    53337    53340    53339    53336    53338    53340    53342 
   53344    53344    53344    53346    53346    53345    53348    53350 
   53350    53353    53356    53356    53357    53361    53364    53364 
   53366    53369    53371    53374    53378    53379    53381    53382 
   53382    53385    53388    53388    53388    53392    53392    53390 
   53392    53392    53389    53389    53390    53390    53387    53383 
   53381    53380    53379    53377    53376    53373    53369    53368 
   53368    53363    53359    53358    53354    53351    53351    53346 
   53339    53339    53338    53333    53330    53330    53327    53324 
   53325    53323    53319    53318    53317    53316    53314    53311 
   53312    53312    53310    53311    53312    53310    53309    53315 
   53316    53313    53315    53319    53319    53320    53326    53327 
   53329    53334    53335    53335    53337    53340    53341    53342 
   53341    53343    53345    53343    53344    53347    53344    53344 
   53348    53346    53344    53345    53344    53342    53343    53345 
   53344    53345    53347    53346    53346    53348    53349    53347 
   53348    53351    53351    53350    53350    53351    53352    53353 
   53355    53357    53357    53358    53361    53362    53365    53369 
   53369    53369    53374    53377    53379    53384    53389    53390 
   53391    53395    53399    53403    53404    53407    53412    53412 
   53411    53413    53416    53416    53416    53416    53418    53418 
   53417    53415    53413    53416    53416    53413    53414    53415 
   53411    53409    53411    53410    53410    53413    53412    53409 
   53410    53411    53410    53410    53413    53414    53414    53414 
   53412    53412    53413    53409    53406    53409    53407    53404 
   53406    53403    53398    53400    53401    53397    53394    53392 
   53389    53389    53389    53385    53380    53378    53375    53371 
   53369    53362    53357    53355    53351    53345    53342    53338 
   53333    53330    53323    53314    53311    53307    53299    53294 
   53291    53284    53280    53277    53271    53266    53264    53259 
   53253    53251    53247    53242    53239    53233    53230    53232 
   53229    53224    53221    53221    53220    53216    53214    53213 
   53214    53217    53215    53214    53214    53214    53215    53216 
   53215    53215    53218    53220    53219    53219    53221    53222 
   53224    53227    53227    53230    53232    53233    53235    53239 
   53241    53243    53245    53247    53253    53255    53255    53262 
   53268    53270    53275    53278    53278    53282    53289    53296 
   53301    53305    53308    53312    53317    53321    53326    53331 
   53334    53337    53343    53349    53352    53356    53364    53369 
   53372    53377    53383    53389    53395    53400    53404    53409 
   53415    53419    53423    53429    53431    53433    53438    53441 
   53445    53449    53451    53456    53460    53458    53457    53462 
   53464    53461    53463    53466    53465    53464    53462    53459 
   53458    53458    53455    53454    53452    53449    53446    53444 
   53441    53437    53436    53433    53427    53422    53420    53416 
   53410    53410    53408    53401    53397    53392    53386    53382 
   53380    53376    53371    53368    53365    53362    53361    53358 
   53356    53354    53353    53352    53352    53351    53350    53347 
   53346    53346    53346    53346    53345    53344    53342    53342 
   53343    53342    53342    53341    53338    53335    53338    53341 
   53338    53337    53338    53338    53339    53340    53338    53338 
   53340    53341    53341    53342    53343    53343    53342    53342 
   53344    53346    53345    53347    53348    53342    53341    53343 
   53343    53342    53339    53336    53338    53339    53338    53337 
   53336    53334    53335    53335    53332    53330    53333    53332 
   53329    53329    53330    53330    53331    53332    53333    53333 
   53335    53335    53335    53337    53339    53338    53339    53341 
   53341    53341    53342    53342    53343    53347    53348    53347 
   53351    53354    53357    53360    53363    53367    53370    53373 
   53378    53383    53385    53388    53391    53394    53398    53402 
   53405    53409    53414    53418    53421    53422    53426    53431 
   53434    53436    53439    53440    53440    53441    53445    53447 
   53447    53448    53452    53453    53450    53454    53459    53457 
   53458    53461    53461    53459    53461    53462    53459    53457 
   53457    53456    53455    53453    53452    53452    53449    53446 
   53446    53445    53442    53438    53438    53437    53437    53434 
   53430    53427    53424    53421    53420    53419    53414    53411 
   53410    53404    53400    53400    53395    53390    53388    53385 
   53380    53376    53374    53370    53365    53363    53358    53353 
   53350    53345    53339    53335    53330    53324    53323    53318 
   53311    53308    53305    53299    53296    53292    53285    53283 
   53285    53280    53273    53271    53267    53263    53261    53256 
   53253    53252    53249    53246    53246    53246    53243    53241 
   53242    53241    53240    53241    53241    53238    53239    53240 
   53240    53242    53243    53243    53246    53250    53252    53254 
   53256    53258    53263    53267    53269    53272    53279    53283 
   53285    53291    53296    53300    53308    53313    53315    53323 
   53333    53341    53346    53353    53361    53368    53374    53381 
   53387    53395    53403    53408    53414    53422    53431    53442 
   53450    53453    53458    53467    53474    53481    53487    53492 
   53498    53503    53506    53511    53517    53522    53523    53525 
   53528    53531    53533    53533    53532    53533    53533    53529 
   53526    53524    53520    53516    53509    53502    53500    53495 
   53484    53473    53466    53460    53452    53445    53437    53428 
   53419    53411    53402    53393    53385    53375    53364    53357 
   53348    53337    53327    53319    53311    53300    53291    53284 
   53275    53267    53260    53250    53242    53236    53227    53218 
   53211    53205    53201    53196    53187    53181    53179    53175 
   53172    53170    53166    53160    53160    53163    53159    53155 
   53157    53155    53153    53154    53156    53156    53157    53160 
   53161    53162    53165    53170    53173    53175    53180    53185 
   53189    53192    53196    53200    53204    53210    53217    53220 
   53225    53232    53236    53242    53249    53251    53256    53265 
   53271    53277    53284    53291    53297    53302    53306    53312 
   53319    53325    53330    53336    53341    53347    53354    53361 
   53368    53375    53382    53387    53392    53400    53406    53412 
   53419    53424    53429    53438    53445    53447    53451    53455 
   53459    53463    53465    53466    53469    53471    53473    53476 
   53476    53473    53475    53479    53477    53473    53475    53475 
   53471    53471    53472    53466    53462    53465    53466    53462 
   53458    53458    53457    53457    53457    53452    53449    53450 
   53449    53445    53444    53441    53438    53437    53435    53431 
   53428    53426    53422    53418    53416    53413    53410    53408 
   53403    53397    53392    53389    53386    53382    53376    53370 
   53366    53363    53359    53355    53351    53346    53341    53339 
   53335    53329    53325    53321    53318    53314    53311    53306 
   53300    53297    53295    53290    53286    53282    53278    53274 
   53270    53268    53265    53260    53260    53259    53256    53252 
   53250    53250    53251    53251    53250    53249    53249    53250 
   53253    53254    53255    53255    53259    53264    53264    53264 
   53272    53275    53275    53280    53284    53285    53290    53293 
   53294    53296    53303    53307    53307    53311    53318    53323 
   53330    53336    53338    53344    53348    53349    53357    53363 
   53363    53367    53373    53376    53380    53383    53383    53385 
   53390    53390    53391    53395    53393    53393    53397    53397 
   53398    53400    53398    53397    53399    53398    53396    53395 
   53394    53392    53390    53388    53385    53382    53381    53379 
   53374    53369    53365    53359    53355    53354    53349    53343 
   53338    53333    53331    53328    53321    53320    53320    53315 
   53311    53307    53300    53296    53295    53288    53280    53279 
   53276    53269    53267    53264    53256    53251    53252    53250 
   53244    53242    53241    53239    53234    53231    53231    53232 
   53233    53232    53230    53230    53232    53235    53236    53233 
   53234    53238    53239    53238    53239    53241    53243    53246 
   53246    53247    53253    53256    53255    53260    53263    53261 
   53265    53272    53274    53274    53280    53284    53282    53287 
   53296    53297    53298    53303    53303    53305    53312    53314 
   53317    53324    53326    53329    53336    53339    53342    53351 
   53356    53358    53364    53368    53370    53374    53379    53383 
   53386    53391    53396    53402    53407    53409    53415    53420 
   53421    53423    53429    53432    53433    53437    53441    53441 
   53443    53447    53448    53449    53451    53454    53457    53457 
   53457    53460    53463    53463    53462    53463    53463    53464 
   53467    53466    53462    53462    53460    53457    53458    53455 
   53453    53453    53448    53445    53445    53442    53436    53433 
   53429    53424    53419    53411    53405    53403    53397    53392 
   53389    53384    53377    53373    53369    53364    53356    53350 
   53347    53341    53335    53332    53329    53324    53320    53316 
   53313    53310    53308    53304    53296    53291    53289    53284 
   53278    53273    53268    53264    53261    53255    53251    53248 
   53243    53236    53230    53224    53218    53215    53213    53207 
   53201    53199    53196    53190    53186    53185    53181    53176 
   53174    53172    53167    53163    53160    53155    53149    53145 
   53144    53139    53131    53128    53125    53116    53112    53110 
   53108    53105    53100    53096    53095    53093    53091    53092 
   53091    53088    53086    53085    53084    53083    53085    53085 
   53084    53087    53089    53090    53093    53096    53096    53098 
   53100    53103    53105    53110    53114    53116    53118    53124 
   53130    53136    53141    53146    53151    53158    53161    53165 
   53173    53179    53181    53186    53193    53198    53204    53210 
   53212    53216    53220    53226    53233    53236    53242    53251 
   53254    53258    53266    53273    53277    53281    53286    53292 
   53299    53305    53312    53319    53324    53330    53340    53347 
   53348    53353    53360    53363    53368    53373    53375    53379 
   53383    53383    53387    53395    53396    53394    53396    53398 
   53400    53403    53407    53408    53408    53412    53414    53415 
   53417    53418    53420    53421    53422    53424    53421    53419 
   53425    53425    53420    53422    53423    53419    53420    53424 
   53423    53422    53426    53427    53425    53424    53423    53426 
   53427    53426    53427    53430    53430    53430    53433    53435 
   53434    53437    53440    53439    53441    53446    53448    53448 
   53450    53454    53457    53460    53463    53466    53469    53473 
   53475    53478    53486    53489    53489    53495    53499    53500 
   53506    53510    53512    53518    53521    53525    53532    53535 
   53534    53537    53543    53545    53546    53549    53553    53555 
   53557    53558    53557    53558    53561    53562    53562    53563 
   53561    53560    53561    53560    53561    53560    53556    53554 
   53553    53551    53550    53547    53540    53535    53534    53532 
   53525    53518    53512    53508    53502    53494    53484    53476 
   53471    53463    53453    53448    53440    53428    53419    53410 
   53400    53391    53382    53370    53360    53349    53336    53325 
   53315    53302    53290    53279    53264    53249    53237    53222 
   53207    53195    53183    53167    53153    53140    53123    53106 
   53093    53081    53066    53052    53037    53022    53011    53000 
   52987    52975    52965    52954    52944    52937    52928    52918 
   52912    52906    52897    52891    52886    52881    52878    52874 
   52868    52867    52867    52863    52862    52863    52860    52858 
   52861    52864    52863    52865    52869    52872    52877    52882 
   52886    52893    52899    52904    52912    52922    52930    52938 
   52948    52958    52969    52982    52995    53007    53021    53035 
   53047    53061    53077    53089    53103    53122    53136    53150 
   53167    53182    53196    53213    53229    53244    53259    53277 
   53293    53307    53323    53338    53354    53369    53383    53399 
   53413    53424    53440    53455    53467    53480    53496    53506 
   53516    53529    53543    53555    53567    53578    53587    53595 
   53601    53611    53622    53632    53640    53646    53652    53658 
   53664    53670    53675    53679    53685    53687    53690    53694 
   53694    53695    53698    53696    53697    53700    53698    53697 
   53697    53694    53693    53692    53688    53685    53681    53677 
   53674    53670    53666    53659    53654    53650    53645    53640 
   53636    53628    53620    53616    53611    53601    53594    53590 
   53581    53573    53566    53558    53553    53545    53536    53529 
   53523    53516    53511    53505    53496    53491    53485    53477 
   53470    53465    53458    53450    53442    53438    53432    53424 
   53419    53414    53406    53398    53393    53387    53380    53373 
   53366    53360    53354    53348    53343    53339    53335    53331 
   53325    53318    53311    53304    53302    53299    53293    53288 
   53285    53278    53272    53268    53262    53255    53252    53248 
   53243    53237    53232    53228    53223    53215    53210    53205 
   53199    53193    53188    53182    53177    53172    53168    53163 
   53157    53150    53146    53143    53135    53131    53131    53126 
   53122    53119    53117    53114    53111    53109    53110    53111 
   53110    53112    53115    53115    53114    53119    53123    53123 
   53127    53134    53136    53141    53149    53154    53160    53167 
   53171    53177    53187    53194    53201    53211    53220    53229 
   53240    53248    53255    53265    53275    53284    53295    53309 
   53317    53323    53332    53343    53353    53363    53371    53380 
   53389    53396    53404    53413    53420    53429    53438    53442 
   53447    53457    53464    53468    53473    53477    53481    53487 
   53490    53490    53492    53495    53498    53500    53500    53499 
   53500    53502    53502    53501    53501    53501    53500    53501 
   53501    53497    53496    53497    53494    53494    53494    53490 
   53488    53492    53491    53487    53486    53484    53484    53485 
   53483    53480    53481    53481    53481    53482    53478    53477 
   53477    53475    53475    53473    53468    53469    53471    53468 
   53464    53464    53461    53456    53455    53453    53446    53442 
   53440    53436    53433    53428    53423    53418    53412    53406 
   53402    53397    53391    53385    53377    53371    53367    53361 
   53353    53349    53343    53332    53325    53318    53309    53303 
   53297    53287    53278    53271    53265    53257    53250    53243 
   53235    53229    53223    53216    53212    53208    53201    53197 
   53194    53190    53186    53185    53184    53181    53179    53180 
   53180    53181    53182    53182    53183    53188    53190    53189 
   53193    53199    53200    53200    53202    53206    53209    53212 
   53215    53217    53219    53220    53224    53228    53232    53233 
   53232    53235    53239    53241    53242    53241    53240    53242 
   53244    53244    53243    53243    53242    53241    53239    53236 
   53235    53232    53228    53228    53227    53222    53220    53215 
   53211    53212    53209    53201    53197    53196    53191    53188 
   53185    53182    53180    53177    53172    53170    53170    53171 
   53168    53167    53168    53167    53167    53168    53167    53168 
   53172    53174    53175    53177    53180    53185    53191    53194 
   53199    53204    53207    53214    53219    53222    53230    53235 
   53239    53248    53254    53259    53267    53274    53281    53287 
   53293    53300    53307    53314    53320    53325    53331    53337 
   53341    53347    53354    53358    53358    53362    53367    53367 
   53369    53374    53373    53375    53383    53383    53380    53383 
   53385    53384    53386    53387    53386    53387    53389    53390 
   53392    53394    53395    53397    53399    53400    53403    53408 
   53410    53412    53420    53423    53422    53427    53434    53436 
   53441    53446    53447    53452    53460    53464    53465    53471 
   53476    53480    53484    53488    53491    53495    53498    53501 
   53504    53505    53506    53506    53505    53507    53509    53507 
   53506    53507    53508    53505    53503    53500    53493    53491 
   53491    53484    53478    53476    53469    53461    53457    53451 
   53441    53434    53426    53418    53410    53401    53393    53384 
   53373    53363    53356    53349    53338    53330    53324    53315 
   53307    53299    53290    53285    53280    53271    53265    53262 
   53254    53247    53244    53239    53234    53230    53225    53220 
   53217    53214    53210    53206    53203    53198    53195    53194 
   53194    53191    53189    53187    53184    53183    53181    53178 
   53174    53174    53175    53175    53173    53172    53172    53169 
   53167    53166    53166    53165    53164    53163    53162    53161 
   53157    53157    53159    53155    53151    53153    53153    53150 
   53150    53149    53147    53148    53149    53146    53146    53149 
   53149    53149    53150    53152    53154    53156    53159    53160 
   53160    53164    53167    53169    53172    53176    53178    53180 
