Origin Time       2025/01/13 21:19:00
Lat.              31.8
Long.             131.6
Depth. (km)       30
Mag.              6.9
Station Code      NGNH27
Station Lat.      36.5770
Station Long.     138.0479
Station Height(m) 403
Record Time       2025/01/13 21:23:34
Sampling Freq(Hz) 100Hz
Duration Time(s)  120
Dir.              3
Scale Factor      2940(gal)/6170270
Max. Acc. (gal)   0.096
Last Correction   2025/01/13 21:23:19
Memo.             
[...]
   56765    56763    56763    56764    56763    56761    56761    56760 
   56760    56761    56759    56756    56757    56757    56756    56757 
   56756    56754    56754    56754    56754    56753    56751    56750 
   56749    56748    56749    56749    56746    56746    56748    56746 
   56744    56745    56744    56742    56742    56741    56738    56738 
   56739    56739    56739    56737    56736    56736    56737    56737 
   56735    56736    56738    56737    56736    56735    56736    56737 
   56737    56736    56736    56736    56736    56734    56733    56735 
   56736    56735    56737    56740    56739    56740    56738    56735 
   56738    56740    56739    56742    56745    56742    56741    56745 
   56746    56743    56741    56741    56744    56744    56745    56748 
   56747    56744    56747    56750    56749    56747    56748    56749 
   56748    56749    56751    56750    56753    56755    56751    56752 
   56754    56752    56751    56754    56755    56754    56755    56757 
   56757    56756    56756    56755    56756    56758    56758    56756 
   56754    56754    56754    56753    56753    56752    56753    56753 
   56753    56755    56753    56751    56752    56752    56750    56747 
   56748    56750    56748    56747    56747    56747    56748    56749 
   56746    56744    56747    56749    56748    56750    56751    56748 
   56749    56752    56752    56753    56753    56751    56752    56752 
   56750    56753    56754    56754    56753    56755    56757    56756 
   56756    56758    56759    56761    56762    56761    56760    56760 
   56765    56766    56764    56765    56766    56767    56767    56766 
   56766    56766    56768    56771    56772    56774    56774    56774 
   56777    56775    56773    56778    56778    56774    56775    56777 
   56775    56776    56777    56774    56772    56774    56773    56769 
   56768    56768    56768    56769    56767    56762    56762    56762 
   56758    56756    56756    56755    56752    56749    56744    56742 
   56742    56739    56735    56735    56732    56728    56726    56725 
   56722    56718    56715    56713    56710    56705    56702    56699 
   56696    56693    56693    56689    56683    56680    56678    56675 
   56669    56665    56664    56660    56655    56652    56649    56646 
   56642    56639    56636    56637    56636    56634    56633    56630 
   56625    56625    56626    56622    56619    56619    56617    56614 
   56613    56613    56612    56611    56614    56614    56610    56610 
   56610    56610    56612    56610    56607    56611    56616    56613 
   56612    56616    56616    56614    56616    56617    56617    56621 
   56622    56624    56627    56627    56627    56630    56630    56631 
   56634    56633    56631    56635    56638    56640    56642    56642 
   56643    56646    56648    56648    56650    56652    56654    56657 
   56658    56658    56658    56661    56665    56668    56667    56669 
   56674    56674    56675    56680    56683    56683    56683    56686 
   56689    56689    56691    56694    56698    56700    56701    56702 
   56707    56711    56712    56715    56719    56722    56724    56726 
   56729    56730    56732    56736    56740    56743    56746    56748 
   56749    56752    56757    56759    56761    56764    56768    56770 
   56770    56773    56777    56776    56777    56781    56781    56783 
   56788    56789    56792    56796    56796    56796    56796    56796 
   56798    56800    56800    56801    56803    56803    56802    56800 
   56801    56804    56804    56804    56805    56806    56806    56806 
   56803    56801    56803    56803    56800    56800    56803    56801 
   56798    56799    56796    56794    56796    56795    56791    56792 
   56792    56792    56796    56795    56791    56791    56787    56780 
   56782    56786    56780    56775    56777    56776    56773    56772 
   56772    56771    56768    56766    56765    56765    56765    56764 
   56762    56760    56757    56755    56755    56755    56753    56750 
   56749    56749    56747    56745    56743    56742    56744    56745 
   56742    56739    56742    56740    56736    56734    56734    56733 
   56732    56730    56731    56730    56727    56726    56724    56724 
   56723    56718    56717    56719    56717    56714    56713    56712 
   56711    56711    56710    56707    56705    56704    56702    56702 
   56702    56699    56699    56699    56697    56695    56697    56696 
   56693    56693    56690    56688    56691    56692    56688    56685 
   56686    56687    56686    56685    56685    56683    56682    56682 
   56683    56682    56678    56677    56678    56676    56677    56677 
   56675    56675    56675    56674    56675    56674    56672    56671 
   56673    56675    56674    56675    56677    56676    56675    56677 
   56677    56676    56678    56679    56678    56676    56676    56679 
   56680    56680    56683    56684    56684    56685    56685    56686 
   56688    56690    56695    56695    56691    56693    56696    56698 
   56700    56700    56702    56703    56704    56707    56705    56706 
   56710    56711    56710    56713    56715    56716    56717    56719 
   56719    56721    56723    56724    56722    56722    56723    56725 
   56726    56726    56727    56728    56727    56726    56725    56723 
   56724    56727    56728    56726    56725    56727    56726    56723 
   56722    56723    56720    56717    56717    56716    56714    56713 
   56713    56710    56708    56710    56708    56703    56703    56705 
   56705    56704    56702    56701    56698    56700    56699    56696 
   56697    56697    56694    56694    56695    56693    56693    56695 
   56695    56694    56695    56695    56696    56697    56694    56692 
   56693    56694    56697    56698    56697    56695    56693    56693 
   56696    56696    56696    56697    56699    56699    56698    56701 
   56704    56702    56703    56706    56706    56704    56706    56708 
   56708    56709    56710    56712    56714    56715    56717    56720 
   56720    56721    56724    56726    56727    56729    56731    56733 
   56734    56734    56738    56744    56745    56744    56749    56752 
   56752    56752    56753    56755    56759    56761    56765    56766 
   56768    56772    56773    56773    56776    56778    56780    56782 
   56783    56785    56786    56787    56789    56790    56790    56793 
   56795    56793    56793    56795    56794    56793    56796    56798 
   56797    56796    56796    56796    56796    56794    56794    56795 
   56791    56787    56788    56786    56783    56782    56779    56776 
   56777    56775    56771    56768    56766    56765    56763    56758 
   56753    56751    56746    56745    56745    56741    56735    56733 
   56733    56729    56726    56723    56718    56714    56711    56705 
   56705    56702    56694    56692    56691    56684    56680    56680 
   56677    56673    56668    56665    56665    56661    56657    56656 
   56655    56651    56646    56646    56645    56643    56641    56637 
   56636    56634    56631    56630    56627    56626    56627    56625 
   56624    56623    56619    56619    56621    56619    56618    56618 
   56618    56616    56617    56618    56619    56620    56620    56620 
   56623    56625    56624    56626    56629    56627    56627    56631 
   56631    56631    56631    56631    56634    56638    56639    56640 
   56643    56645    56648    56651    56652    56655    56658    56660 
   56664    56668    56668    56670    56673    56676    56681    56686 
   56689    56692    56696    56699    56703    56708    56709    56710 
   56714    56718    56722    56725    56728    56733    56738    56740 
   56742    56746    56753    56757    56757    56760    56765    56768 
   56769    56771    56775    56778    56781    56785    56789    56791 
   56792    56793    56798    56803    56802    56803    56809    56811 
   56811    56812    56817    56819    56819    56821    56823    56824 
   56824    56824    56824    56827    56829    56828    56827    56829 
   56831    56833    56833    56831    56832    56833    56832    56834 
   56835    56832    56832    56833    56831    56830    56829    56827 
   56827    56825    56822    56824    56825    56821    56817    56817 
   56817    56815    56812    56810    56809    56806    56803    56801 
   56797    56794    56793    56790    56786    56785    56782    56775 
   56771    56772    56771    56768    56762    56756    56752    56748 
   56743    56738    56735    56728    56722    56721    56719    56711 
   56704    56702    56700    56696    56692    56687    56683    56678 
   56672    56670    56665    56657    56656    56655    56649    56643 
   56640    56638    56634    56628    56625    56622    56617    56612 
   56608    56606    56601    56595    56595    56596    56593    56589 
   56585    56583    56580    56574    56570    56573    56572    56566 
   56565    56565    56562    56560    56560    56557    56554    56554 
   56555    56555    56554    56553    56554    56555    56554    56554 
   56557    56555    56553    56557    56560    56561    56562    56560 
   56561    56566    56569    56567    56568    56573    56575    56576 
   56581    56583    56586    56592    56594    56595    56600    56603 
   56605    56610    56615    56615    56621    56627    56630    56635 
   56639    56642    56646    56647    56651    56660    56664    56665 
   56669    56673    56678    56685    56688    56690    56696    56699 
   56701    56706    56710    56713    56719    56724    56726    56730 
   56734    56734    56736    56741    56741    56741    56745    56747 
   56750    56752    56752    56755    56759    56758    56758    56760 
   56762    56764    56764    56764    56766    56769    56769    56766 
   56765    56767    56769    56768    56768    56767    56764    56765 
   56766    56765    56763    56759    56757    56759    56761    56758 
   56753    56752    56755    56756    56753    56749    56749    56748 
   56744    56745    56746    56743    56741    56740    56737    56735 
   56735    56732    56731    56731    56730    56730    56728    56722 
   56721    56721    56719    56719    56718    56715    56713    56712 
   56710    56709    56710    56708    56705    56704    56702    56699 
   56699    56701    56700    56700    56701    56698    56696    56697 
   56696    56694    56696    56696    56696    56698    56699    56699 
   56697    56697    56697    56698    56701    56702    56702    56704 
   56704    56703    56705    56708    56710    56710    56710    56711 
   56713    56717    56720    56723    56726    56727    56731    56733 
   56733    56734    56738    56740    56742    56745    56747    56750 
   56755    56757    56761    56765    56766    56771    56774    56775 
   56779    56781    56782    56784    56788    56792    56794    56797 
   56803    56804    56804    56806    56809    56811    56813    56814 
   56817    56817    56816    56820    56822    56822    56824    56828 
   56828    56826    56827    56831    56831    56830    56829    56827 
   56828    56830    56830    56831    56832    56828    56826    56828 
   56828    56826    56826    56826    56825    56822    56819    56819 
   56818    56816    56815    56813    56813    56813    56809    56807 
   56807    56805    56802    56802    56800    56798    56796    56795 
   56795    56793    56791    56791    56789    56786    56786    56785 
   56783    56779    56778    56778    56777    56776    56775    56775 
   56775    56773    56772    56771    56769    56768    56768    56765 
   56762    56763    56764    56761    56759    56757    56755    56757 
   56756    56753    56754    56754    56751    56750    56751    56750 
   56750    56749    56748    56745    56747    56749    56745    56743 
   56743    56741    56740    56740    56740    56738    56737    56737 
   56735    56734    56735    56734    56732    56734    56731    56728 
   56729    56728    56726    56726    56725    56724    56724    56724 
   56720    56718    56720    56722    56721    56718    56717    56718 
   56718    56718    56718    56718    56717    56716    56717    56720 
   56722    56721    56720    56721    56723    56724    56724    56723 
   56726    56729    56729    56729    56732    56731    56733    56738 
   56739    56737    56739    56743    56744    56746    56747    56748 
   56749    56752    56753    56752    56755    56758    56757    56758 
   56760    56760    56761    56762    56764    56766    56765    56766 
   56768    56766    56766    56767    56767    56768    56769    56766 
   56764    56765    56763    56761    56764    56765    56762    56759 
   56758    56757    56755    56752    56749    56748    56747    56746 
   56744    56741    56738    56736    56733    56730    56726    56723 
   56721    56718    56714    56711    56710    56707    56701    56698 
   56697    56692    56687    56684    56680    56675    56671    56667 
   56663    56659    56654    56650    56647    56645    56640    56634 
   56632    56629    56624    56621    56616    56613    56610    56604 
   56601    56600    56595    56590    56587    56585    56582    56577 
   56573    56569    56566    56564    56562    56558    56555    56551 
   56548    56546    56542    56539    56539    56536    56533    56533 
   56531    56526    56525    56523    56521    56520    56521    56522 
   56522    56520    56520    56520    56521    56522    56522    56520 
   56521    56525    56526    56527    56529    56531    56533    56536 
   56539    56543    56547    56550    56554    56559    56564    56566 
   56571    56578    56583    56586    56592    56596    56602    56610 
   56616    56619    56623    56629    56636    56642    56646    56652 
   56660    56666    56672    56678    56684    56689    56693    56699 
   56707    56713    56717    56721    56726    56734    56740    56743 
   56747    56754    56762    56763    56765    56773    56779    56780 
   56785    56792    56795    56798    56802    56805    56808    56812 
   56815    56821    56826    56826    56825    56830    56833    56836 
   56839    56843    56847    56848    56847    56850    56853    56855 
   56859    56859    56859    56864    56866    56866    56869    56870 
   56870    56872    56873    56874    56876    56877    56879    56878 
   56877    56879    56878    56877    56876    56877    56879    56880 
   56878    56877    56877    56877    56878    56878    56876    56876 
   56875    56872    56872    56875    56873    56870    56868    56869 
   56868    56864    56863    56863    56860    56858    56859    56857 
   56856    56854    56852    56849    56848    56847    56845    56844 
   56842    56840    56837    56836    56835    56832    56830    56829 
   56827    56825    56824    56822    56821    56819    56817    56814 
   56813    56813    56809    56804    56803    56801    56799    56798 
   56797    56795    56794    56793    56791    56788    56786    56786 
   56783    56778    56779    56779    56776    56775    56771    56769 
   56769    56768    56765    56764    56763    56759    56757    56755 
   56751    56751    56751    56747    56743    56742    56738    56731 
   56728    56729    56728    56727    56722    56719    56719    56716 
   56712    56708    56706    56704    56700    56697    56695    56693 
   56690    56687    56684    56683    56682    56679    56674    56674 
   56672    56669    56669    56667    56664    56661    56662    56662 
   56659    56656    56655    56654    56653    56652    56650    56649 
   56647    56644    56643    56640    56640    56642    56641    56640 
   56640    56637    56635    56634    56636    56636    56631    56631 
   56633    56631    56629    56631    56628    56625    56626    56627 
   56624    56621    56619    56621    56623    56621    56618    56619 
   56619    56617    56616    56616    56616    56616    56615    56617 
   56615    56613    56614    56615    56616    56617    56616    56616 
   56618    56618    56618    56617    56616    56616    56619    56619 
   56619    56621    56625    56626    56627    56629    56631    56632 
   56633    56633    56635    56639    56640    56640    56644    56647 
   56648    56650    56650    56651    56655    56657    56661    56664 
   56663    56666    56671    56675    56677    56677    56679    56684 
   56687    56689    56691    56694    56696    56696    56698    56703 
   56708    56711    56709    56710    56718    56719    56718    56723 
   56725    56725    56729    56732    56734    56737    56739    56739 
   56739    56743    56745    56743    56745    56748    56748    56750 
   56755    56755    56754    56757    56758    56760    56760    56759 
   56763    56766    56766    56766    56764    56763    56767    56769 
   56768    56770    56771    56772    56772    56772    56772    56774 
   56774    56776    56779    56778    56777    56779    56781    56782 
   56782    56782    56785    56787    56785    56786    56787    56788 
   56789    56789    56790    56791    56791    56792    56792    56794 
   56797    56797    56795    56796    56796    56796    56799    56798 
   56796    56796    56796    56796    56796    56794    56792    56793 
   56794    56792    56791    56791    56788    56785    56787    56787 
   56783    56781    56781    56779    56775    56773    56772    56773 
   56772    56769    56767    56765    56763    56759    56758    56761 
   56757    56751    56751    56751    56749    56748    56746    56743 
   56741    56741    56739    56735    56734    56737    56735    56731 
   56730    56730    56729    56729    56726    56722    56720    56721 
   56720    56718    56719    56717    56713    56712    56713    56711 
   56707    56707    56709    56709    56709    56707    56705    56704 
   56706    56705    56700    56701    56704    56701    56698    56700 
   56700    56698    56697    56697    56696    56696    56695    56694 
   56693    56692    56694    56695    56693    56693    56693    56695 
   56697    56696    56693    56696    56699    56701    56703    56702 
   56702    56704    56706    56707    56707    56708    56711    56711 
   56713    56718    56721    56721    56722    56723    56726    56728 
   56730    56730    56730    56731    56735    56738    56737    56737 
   56741    56746    56748    56750    56751    56750    56752    56756 
   56756    56756    56758    56759    56760    56763    56766    56768 
   56768    56767    56768    56771    56772    56771    56772    56772 
   56770    56774    56777    56775    56775    56777    56778    56782 
   56783    56781    56782    56781    56780    56782    56782    56782 
   56783    56782    56781    56782    56782    56782    56784    56786 
   56786    56784    56782    56784    56787    56786    56785    56785 
   56785    56785    56785    56785    56786    56784    56782    56781 
   56780    56780    56780    56777    56776    56776    56775    56774 
   56772    56770    56771    56772    56768    56767    56768    56765 
   56763    56762    56760    56758    56756    56753    56753    56752 
   56751    56752    56750    56747    56746    56745    56743    56741 
   56742    56742    56739    56740    56740    56735    56735    56738 
