Origin Time       2025/01/13 21:19:00
Lat.              31.8
Long.             131.6
Depth. (km)       30
Mag.              6.9
Station Code      NGNH27
Station Lat.      36.5770
Station Long.     138.0479
Station Height(m) 505
Record Time       2025/01/13 21:23:34
Sampling Freq(Hz) 100Hz
Duration Time(s)  120
Dir.              4
Scale Factor      3920(gal)/6170801
Max. Acc. (gal)   0.160
Last Correction   2025/01/13 21:23:19
Memo.             
[...]
   22872    22873    22868    22862    22860    22860    22858    22858 
   22856    22852    22853    22853    22851    22850    22850    22849 
   22851    22852    22850    22851    22856    22856    22855    22857 
   22858    22859    22861    22861    22863    22867    22870    22873 
   22875    22877    22881    22886    22888    22888    22890    22895 
   22900    22905    22907    22909    22914    22918    22921    22926 
   22930    22936    22941    22944    22947    22951    22957    22961 
   22965    22969    22975    22982    22987    22993    22996    23000 
   23006    23012    23018    23023    23030    23037    23043    23048 
   23054    23060    23066    23072    23078    23085    23092    23097 
   23103    23110    23116    23125    23134    23139    23144    23150 
   23158    23166    23172    23176    23184    23193    23199    23203 
   23207    23214    23221    23226    23231    23236    23242    23249 
   23256    23258    23261    23266    23271    23275    23279    23281 
   23283    23286    23291    23292    23292    23295    23298    23297 
   23298    23300    23303    23304    23304    23303    23301    23301 
   23301    23299    23298    23298    23298    23296    23293    23288 
   23284    23283    23282    23277    23272    23270    23269    23265 
   23259    23253    23248    23246    23242    23234    23230    23228 
   23224    23218    23213    23206    23200    23196    23192    23185 
   23179    23176    23171    23165    23159    23155    23152    23147 
   23141    23135    23129    23128    23124    23115    23112    23110 
   23104    23101    23099    23094    23089    23088    23085    23081 
   23078    23077    23075    23071    23067    23064    23063    23061 
   23057    23055    23054    23053    23052    23050    23047    23046 
   23047    23046    23041    23040    23041    23042    23041    23041 
   23040    23039    23040    23042    23042    23042    23043    23044 
   23044    23044    23043    23044    23048    23050    23049    23049 
   23051    23055    23056    23054    23054    23058    23061    23063 
   23064    23066    23067    23067    23069    23071    23072    23073 
   23073    23073    23074    23075    23077    23078    23077    23076 
   23076    23078    23079    23077    23074    23073    23074    23074 
   23074    23074    23071    23069    23068    23065    23063    23064 
   23063    23061    23057    23055    23055    23052    23048    23046 
   23044    23042    23037    23037    23038    23034    23031    23030 
   23025    23022    23023    23024    23021    23016    23014    23014 
   23015    23015    23012    23007    23006    23010    23009    23005 
   23005    23007    23006    23007    23008    23006    23007    23008 
   23008    23008    23010    23011    23013    23014    23014    23016 
   23019    23020    23022    23023    23023    23027    23030    23029 
   23029    23033    23038    23039    23039    23040    23042    23045 
   23046    23046    23048    23053    23055    23056    23058    23061 
   23063    23064    23066    23066    23069    23073    23074    23076 
   23078    23080    23085    23089    23088    23089    23092    23096 
   23101    23101    23102    23106    23108    23110    23112    23115 
   23119    23122    23124    23124    23127    23132    23137    23139 
   23138    23140    23146    23148    23149    23151    23154    23157 
   23161    23164    23164    23166    23171    23175    23175    23177 
   23181    23184    23186    23187    23188    23192    23196    23196 
   23196    23198    23200    23202    23204    23204    23205    23207 
   23208    23209    23210    23211    23211    23211    23211    23209 
   23208    23210    23211    23208    23206    23206    23205    23206 
   23204    23200    23200    23198    23193    23191    23188    23186 
   23186    23186    23181    23177    23177    23175    23171    23167 
   23163    23162    23160    23155    23151    23150    23148    23148 
   23147    23143    23138    23136    23136    23133    23129    23127 
   23129    23128    23125    23122    23120    23119    23117    23115 
   23114    23113    23113    23113    23110    23106    23106    23106 
   23104    23099    23097    23097    23096    23095    23092    23089 
   23089    23089    23087    23082    23079    23079    23080    23076 
   23073    23069    23065    23065    23065    23060    23058    23058 
   23055    23052    23050    23048    23046    23044    23039    23035 
   23036    23039    23037    23033    23031    23031    23031    23031 
   23028    23026    23028    23029    23029    23027    23024    23027 
   23029    23028    23027    23028    23028    23028    23027    23027 
   23027    23030    23032    23033    23030    23030    23034    23035 
   23033    23030    23031    23033    23037    23037    23035    23035 
   23039    23041    23037    23034    23037    23041    23040    23038 
   23037    23038    23040    23041    23041    23041    23043    23045 
   23045    23044    23044    23045    23048    23049    23047    23047 
   23048    23050    23051    23050    23050    23052    23054    23057 
   23057    23055    23058    23061    23061    23061    23062    23067 
   23071    23070    23069    23071    23076    23079    23078    23079 
   23083    23087    23088    23089    23092    23094    23098    23100 
   23099    23103    23108    23111    23113    23114    23116    23121 
   23125    23125    23125    23130    23135    23136    23138    23139 
   23142    23147    23147    23147    23150    23153    23156    23159 
   23160    23162    23164    23168    23170    23170    23171    23173 
   23175    23177    23179    23180    23180    23181    23182    23183 
   23183    23184    23188    23189    23185    23183    23186    23188 
   23188    23186    23186    23187    23187    23186    23186    23186 
   23185    23183    23183    23183    23183    23184    23183    23179 
   23178    23178    23178    23177    23176    23173    23173    23175 
   23174    23174    23172    23171    23172    23171    23169    23169 
   23170    23170    23170    23169    23166    23166    23168    23165 
   23163    23163    23163    23164    23163    23161    23160    23158 
   23157    23156    23153    23149    23149    23150    23148    23146 
   23143    23140    23138    23136    23132    23128    23125    23122 
   23119    23113    23107    23107    23104    23097    23092    23089 
   23086    23081    23075    23070    23067    23064    23059    23052 
   23046    23041    23038    23035    23032    23028    23026    23023 
   23016    23009    23008    23005    22999    22996    22993    22988 
   22987    22985    22982    22980    22979    22977    22976    22973 
   22970    22970    22972    22971    22968    22966    22965    22967 
   22966    22964    22966    22969    22969    22969    22968    22969 
   22970    22970    22971    22973    22974    22976    22975    22975 
   22977    22980    22981    22981    22982    22981    22982    22986 
   22986    22984    22984    22985    22984    22985    22986    22985 
   22984    22983    22982    22980    22980    22980    22979    22978 
   22976    22974    22974    22972    22969    22969    22967    22964 
   22963    22961    22960    22958    22955    22953    22951    22948 
   22945    22943    22941    22938    22934    22935    22936    22932 
   22927    22923    22921    22921    22919    22916    22914    22913 
   22912    22909    22907    22908    22907    22904    22901    22901 
   22902    22903    22903    22900    22899    22901    22902    22903 
   22904    22906    22907    22907    22907    22909    22913    22916 
   22917    22919    22922    22927    22931    22935    22938    22939 
   22943    22950    22954    22956    22959    22963    22968    22976 
   22983    22986    22989    22995    23002    23008    23010    23015 
   23023    23029    23035    23040    23045    23052    23058    23060 
   23064    23071    23076    23080    23084    23089    23093    23099 
   23105    23108    23111    23114    23116    23118    23122    23125 
   23128    23131    23134    23137    23139    23141    23142    23141 
   23140    23145    23148    23146    23146    23149    23150    23151 
   23152    23152    23152    23153    23154    23154    23152    23151 
   23152    23154    23154    23152    23151    23153    23157    23154 
   23149    23150    23152    23152    23152    23149    23147    23152 
   23156    23153    23150    23152    23153    23152    23150    23150 
   23151    23153    23153    23154    23156    23158    23156    23152 
   23152    23155    23156    23156    23158    23158    23155    23156 
   23159    23159    23157    23158    23160    23160    23160    23162 
   23161    23160    23161    23160    23158    23160    23163    23164 
   23162    23160    23159    23162    23164    23160    23158    23159 
   23160    23161    23161    23156    23153    23154    23154    23152 
   23151    23148    23145    23144    23143    23141    23140    23139 
   23135    23131    23128    23127    23124    23119    23116    23115 
   23113    23110    23107    23103    23099    23094    23091    23088 
   23086    23083    23079    23077    23073    23068    23064    23061 
   23056    23052    23051    23047    23043    23038    23035    23035 
   23033    23028    23024    23021    23019    23017    23015    23012 
   23008    23006    23004    23001    22998    22997    22997    22997 
   22996    22993    22991    22990    22988    22986    22986    22985 
   22984    22984    22983    22984    22983    22980    22980    22980 
   22980    22981    22981    22980    22982    22983    22982    22980 
   22981    22982    22981    22979    22981    22984    22984    22983 
   22981    22984    22987    22987    22987    22987    22987    22988 
   22990    22992    22993    22993    22993    22994    22995    22996 
   23000    23002    23000    23000    23003    23004    23005    23006 
   23007    23008    23011    23013    23012    23012    23011    23010 
   23011    23015    23016    23015    23014    23014    23014    23015 
   23017    23017    23014    23012    23013    23013    23015    23016 
   23013    23010    23012    23013    23011    23009    23006    23005 
   23007    23007    23005    23004    23003    23001    23002    23001 
   22999    22998    22998    22995    22993    22993    22992    22993 
   22990    22989    22990    22990    22990    22989    22986    22985 
   22987    22987    22987    22988    22989    22989    22989    22991 
   22993    22994    22996    22995    22995    22999    23001    23002 
   23006    23010    23011    23013    23018    23023    23027    23028 
   23031    23036    23042    23046    23049    23053    23056    23061 
   23068    23072    23074    23079    23085    23089    23091    23094 
   23101    23108    23112    23116    23120    23124    23129    23134 
   23137    23139    23142    23147    23151    23155    23160    23164 
   23168    23171    23173    23176    23181    23183    23186    23189 
   23192    23197    23199    23201    23205    23209    23211    23212 
   23215    23217    23219    23221    23225    23227    23227    23228 
   23231    23233    23233    23235    23236    23237    23237    23238 
   23239    23239    23241    23241    23240    23241    23242    23242 
   23243    23242    23239    23238    23239    23239    23237    23236 
   23236    23235    23234    23231    23228    23225    23223    23221 
   23219    23218    23218    23214    23210    23208    23205    23201 
   23198    23195    23193    23191    23186    23181    23180    23178 
   23174    23171    23168    23164    23161    23160    23157    23154 
   23151    23148    23145    23142    23140    23138    23135    23133 
   23130    23128    23128    23126    23123    23122    23120    23116 
   23114    23116    23115    23112    23108    23106    23106    23106 
   23105    23103    23100    23098    23099    23098    23094    23094 
   23095    23093    23091    23089    23089    23088    23086    23086 
   23087    23087    23086    23084    23083    23086    23087    23084 
   23083    23084    23084    23083    23085    23087    23088    23088 
   23086    23086    23088    23090    23089    23091    23094    23095 
   23094    23095    23096    23097    23098    23098    23100    23103 
   23103    23103    23105    23107    23108    23109    23110    23112 
   23115    23117    23117    23118    23120    23122    23122    23122 
   23122    23124    23127    23129    23129    23129    23129    23131 
   23133    23132    23131    23132    23134    23135    23134    23133 
   23133    23133    23133    23134    23134    23131    23127    23126 
   23126    23125    23124    23123    23119    23116    23115    23114 
   23111    23109    23106    23102    23100    23097    23093    23089 
   23086    23086    23084    23079    23075    23075    23073    23067 
   23061    23058    23057    23056    23051    23045    23043    23041 
   23036    23031    23027    23023    23021    23017    23012    23007 
   23003    23000    22996    22990    22983    22980    22978    22973 
   22967    22961    22956    22952    22947    22943    22938    22933 
   22929    22922    22915    22913    22909    22902    22895    22892 
   22890    22887    22883    22876    22871    22869    22865    22863 
   22860    22853    22850    22851    22849    22844    22841    22842 
   22841    22839    22838    22838    22836    22836    22837    22837 
   22837    22839    22840    22840    22843    22845    22845    22848 
   22853    22856    22855    22858    22864    22868    22870    22875 
   22879    22881    22887    22894    22897    22901    22906    22912 
   22920    22926    22930    22935    22940    22945    22953    22962 
   22967    22972    22980    22989    22996    23002    23009    23018 
   23025    23031    23038    23043    23050    23060    23067    23073 
   23080    23087    23093    23100    23106    23111    23119    23126 
   23134    23141    23145    23148    23154    23158    23162    23170 
   23176    23181    23186    23191    23196    23198    23200    23205 
   23210    23212    23215    23218    23219    23220    23223    23225 
   23227    23230    23229    23228    23232    23234    23233    23233 
   23234    23232    23233    23235    23232    23230    23230    23227 
   23227    23228    23225    23220    23220    23222    23220    23216 
   23213    23211    23208    23207    23205    23202    23198    23197 
   23197    23196    23193    23190    23187    23183    23183    23183 
   23181    23177    23177    23176    23174    23173    23172    23171 
   23170    23171    23170    23171    23174    23174    23172    23172 
   23172    23173    23175    23177    23176    23175    23178    23182 
   23185    23184    23184    23188    23192    23193    23193    23198 
   23202    23202    23204    23208    23209    23210    23214    23219 
   23223    23224    23226    23233    23237    23236    23237    23243 
   23247    23248    23250    23253    23256    23258    23260    23264 
   23266    23267    23269    23271    23272    23275    23277    23276 
   23277    23280    23280    23277    23277    23277    23278    23279 
   23275    23271    23272    23271    23270    23268    23262    23259 
   23257    23254    23252    23249    23246    23242    23238    23235 
   23230    23223    23218    23216    23211    23206    23202    23199 
   23195    23190    23185    23179    23176    23173    23167    23162 
   23158    23155    23152    23147    23141    23137    23135    23131 
   23125    23122    23121    23118    23114    23111    23108    23105 
   23102    23099    23096    23093    23089    23088    23086    23083 
   23082    23083    23081    23079    23078    23075    23073    23074 
   23073    23070    23069    23068    23068    23068    23066    23065 
   23066    23068    23067    23065    23063    23066    23068    23066 
   23065    23065    23068    23070    23067    23067    23069    23068 
   23067    23068    23067    23067    23068    23068    23067    23065 
   23064    23066    23067    23065    23064    23065    23064    23062 
   23062    23061    23061    23062    23063    23059    23056    23056 
   23057    23057    23055    23053    23052    23053    23052    23049 
   23048    23048    23048    23048    23046    23045    23046    23044 
   23044    23043    23043    23045    23047    23044    23041    23040 
   23041    23042    23042    23040    23042    23043    23042    23040 
   23040    23041    23042    23040    23038    23039    23040    23039 
   23039    23039    23037    23039    23040    23038    23036    23036 
   23036    23037    23039    23036    23035    23035    23033    23031 
   23031    23032    23030    23028    23028    23027    23026    23027 
   23027    23024    23022    23020    23018    23017    23016    23013 
   23011    23009    23009    23010    23008    23006    23005    23004 
   23001    23000    23000    22999    22997    22995    22994    22994 
   22994    22992    22991    22992    22991    22989    22988    22987 
   22987    22988    22988    22987    22989    22989    22987    22987 
   22988    22991    22993    22991    22991    22994    22995    22996 
   22997    22999    23000    23001    23001    23003    23006    23008 
   23009    23011    23014    23017    23018    23019    23021    23023 
   23025    23027    23029    23030    23031    23034    23036    23038 
   23042    23045    23044    23047    23051    23053    23054    23055 
   23056    23060    23063    23066    23067    23069    23072    23074 
   23075    23077    23079    23082    23084    23086    23088    23088 
   23090    23092    23094    23095    23097    23098    23100    23101 
   23103    23105    23107    23109    23110    23110    23114    23117 
   23117    23117    23117    23118    23121    23123    23124    23126 
   23127    23129    23133    23135    23137    23138    23140    23140 
   23142    23144    23145    23147    23151    23152    23154    23157 
   23158    23161    23164    23165    23166    23169    23171    23174 
   23175    23176    23178    23181    23184    23186    23186    23187 
   23188    23191    23193    23194    23195    23195    23198    23200 
   23199    23197    23196    23197    23199    23201    23202    23200 
   23199    23200    23201    23200    23198    23198    23197    23195 
   23192    23191    23190    23190    23188    23186    23185    23184 
   23183    23180    23178    23175    23172    23171    23169    23166 
   23164    23161    23157    23156    23152    23150    23149    23146 
   23144    23141    23138    23135    23131    23130    23129    23125 
   23121    23121    23118    23113    23110    23109    23108    23105 
   23101    23098    23097    23097    23094    23089    23088    23090 
   23088    23082    23079    23079    23078    23077    23074    23071 
   23071    23070    23069    23066    23064    23063    23060    23059 
   23058    23055    23055    23055    23052    23050    23048    23048 
   23051    23048    23041    23040    23042    23041    23040    23038 
   23037    23036    23036    23035    23035    23033    23032    23035 
   23036    23033    23032    23033    23033    23031    23031    23032 
