Origin Time       2025/01/13 21:19:00
Lat.              31.8
Long.             131.6
Depth. (km)       30
Mag.              6.9
Station Code      NGNH27
Station Lat.      36.5770
Station Long.     138.0479
Station Height(m) 505
Record Time       2025/01/13 21:23:34
Sampling Freq(Hz) 100Hz
Duration Time(s)  120
Dir.              6
Scale Factor      3920(gal)/6170801
Max. Acc. (gal)   0.099
Last Correction   2025/01/13 21:23:19
Memo.             
[...]
  -24783   -24785   -24785   -24785   -24788   -24787   -24786   -24786 
  -24786   -24786   -24789   -24792   -24791   -24789   -24788   -24790 
  -24792   -24793   -24793   -24791   -24791   -24795   -24796   -24794 
  -24795   -24796   -24796   -24797   -24799   -24799   -24797   -24799 
  -24801   -24801   -24801   -24802   -24803   -24804   -24804   -24803 
  -24803   -24803   -24805   -24806   -24806   -24808   -24808   -24806 
  -24807   -24809   -24807   -24806   -24807   -24807   -24806   -24807 
  -24808   -24810   -24810   -24808   -24808   -24808   -24807   -24807 
  -24808   -24810   -24808   -24806   -24806   -24806   -24806   -24805 
  -24803   -24802   -24801   -24801   -24801   -24800   -24799   -24800 
  -24801   -24800   -24799   -24797   -24795   -24794   -24795   -24796 
  -24795   -24795   -24795   -24793   -24791   -24792   -24793   -24792 
  -24791   -24790   -24789   -24789   -24790   -24789   -24790   -24790 
  -24789   -24791   -24790   -24788   -24788   -24790   -24791   -24790 
  -24790   -24789   -24788   -24788   -24789   -24789   -24789   -24787 
  -24788   -24789   -24787   -24787   -24789   -24789   -24788   -24788 
  -24788   -24789   -24789   -24789   -24791   -24791   -24789   -24790 
  -24789   -24789   -24792   -24792   -24790   -24792   -24793   -24793 
  -24794   -24793   -24792   -24793   -24794   -24794   -24794   -24794 
  -24796   -24796   -24796   -24795   -24794   -24795   -24797   -24797 
  -24795   -24794   -24795   -24795   -24795   -24794   -24792   -24792 
  -24794   -24795   -24793   -24790   -24791   -24792   -24790   -24790 
  -24790   -24789   -24788   -24787   -24784   -24785   -24785   -24783 
  -24782   -24784   -24781   -24778   -24779   -24778   -24776   -24779 
  -24778   -24775   -24775   -24775   -24775   -24776   -24774   -24772 
  -24772   -24774   -24774   -24773   -24772   -24771   -24771   -24772 
  -24774   -24775   -24775   -24775   -24776   -24775   -24777   -24779 
  -24779   -24780   -24781   -24782   -24785   -24786   -24787   -24788 
  -24790   -24792   -24794   -24794   -24796   -24799   -24801   -24802 
  -24803   -24805   -24809   -24812   -24814   -24818   -24818   -24818 
  -24823   -24828   -24827   -24830   -24834   -24835   -24838   -24841 
  -24843   -24846   -24849   -24852   -24855   -24858   -24859   -24861 
  -24865   -24867   -24869   -24873   -24876   -24878   -24880   -24880 
  -24881   -24884   -24887   -24888   -24889   -24891   -24893   -24895 
  -24896   -24896   -24896   -24897   -24899   -24898   -24898   -24901 
  -24902   -24899   -24898   -24899   -24900   -24899   -24898   -24898 
  -24900   -24898   -24896   -24897   -24895   -24893   -24895   -24894 
  -24891   -24891   -24890   -24889   -24886   -24886   -24886   -24884 
  -24882   -24881   -24881   -24878   -24878   -24880   -24879   -24876 
  -24875   -24874   -24871   -24869   -24869   -24870   -24869   -24865 
  -24864   -24863   -24862   -24863   -24862   -24861   -24860   -24858 
  -24859   -24858   -24855   -24853   -24851   -24851   -24851   -24849 
  -24848   -24847   -24844   -24841   -24840   -24838   -24837   -24838 
  -24836   -24831   -24830   -24831   -24828   -24827   -24826   -24823 
  -24820   -24816   -24816   -24816   -24813   -24809   -24807   -24805 
  -24802   -24798   -24797   -24795   -24793   -24792   -24790   -24788 
  -24786   -24783   -24780   -24779   -24779   -24777   -24773   -24772 
  -24768   -24766   -24766   -24766   -24765   -24763   -24761   -24761 
  -24758   -24755   -24755   -24756   -24755   -24753   -24750   -24749 
  -24750   -24748   -24747   -24748   -24748   -24746   -24745   -24745 
  -24746   -24746   -24745   -24744   -24745   -24746   -24746   -24746 
  -24747   -24745   -24744   -24746   -24747   -24746   -24748   -24749 
  -24750   -24751   -24751   -24751   -24753   -24754   -24753   -24755 
  -24760   -24763   -24762   -24763   -24764   -24765   -24766   -24767 
  -24768   -24772   -24773   -24773   -24775   -24777   -24778   -24778 
  -24781   -24782   -24783   -24785   -24786   -24788   -24790   -24789 
  -24789   -24792   -24791   -24792   -24795   -24794   -24792   -24795 
  -24797   -24796   -24797   -24800   -24801   -24801   -24801   -24802 
  -24802   -24803   -24805   -24806   -24805   -24807   -24808   -24809 
  -24809   -24811   -24813   -24814   -24815   -24817   -24819   -24820 
  -24820   -24821   -24822   -24823   -24826   -24827   -24826   -24827 
  -24828   -24830   -24831   -24831   -24832   -24834   -24836   -24838 
  -24839   -24840   -24841   -24843   -24844   -24843   -24842   -24845 
  -24847   -24847   -24849   -24851   -24851   -24851   -24853   -24853 
  -24853   -24854   -24855   -24857   -24858   -24856   -24857   -24858 
  -24859   -24859   -24861   -24860   -24858   -24858   -24860   -24861 
  -24860   -24859   -24859   -24859   -24861   -24860   -24860   -24860 
  -24858   -24859   -24859   -24856   -24855   -24857   -24856   -24854 
  -24854   -24855   -24852   -24851   -24849   -24848   -24847   -24844 
  -24844   -24845   -24841   -24839   -24839   -24838   -24836   -24834 
  -24834   -24832   -24830   -24830   -24832   -24830   -24826   -24825 
  -24826   -24825   -24823   -24822   -24823   -24822   -24820   -24817 
  -24816   -24819   -24821   -24818   -24816   -24817   -24817   -24817 
  -24816   -24814   -24813   -24814   -24814   -24815   -24815   -24816 
  -24817   -24816   -24815   -24815   -24814   -24816   -24817   -24816 
  -24817   -24818   -24817   -24817   -24817   -24817   -24820   -24823 
  -24823   -24823   -24823   -24824   -24825   -24825   -24826   -24826 
  -24827   -24829   -24829   -24828   -24829   -24828   -24828   -24830 
  -24830   -24829   -24829   -24829   -24831   -24832   -24832   -24830 
  -24830   -24831   -24830   -24831   -24833   -24831   -24831   -24830 
  -24829   -24828   -24828   -24829   -24830   -24829   -24828   -24828 
  -24827   -24828   -24829   -24828   -24828   -24828   -24826   -24826 
  -24826   -24828   -24827   -24825   -24825   -24826   -24825   -24824 
  -24826   -24824   -24821   -24822   -24821   -24820   -24820   -24818 
  -24816   -24815   -24816   -24814   -24810   -24809   -24809   -24807 
  -24807   -24807   -24804   -24801   -24802   -24803   -24799   -24795 
  -24794   -24792   -24789   -24789   -24789   -24786   -24783   -24781 
  -24780   -24779   -24776   -24775   -24774   -24772   -24770   -24769 
  -24768   -24766   -24763   -24762   -24761   -24758   -24757   -24756 
  -24754   -24754   -24756   -24754   -24750   -24751   -24751   -24750 
  -24749   -24749   -24749   -24751   -24753   -24752   -24752   -24753 
  -24754   -24753   -24756   -24759   -24760   -24762   -24764   -24764 
  -24765   -24769   -24771   -24772   -24774   -24777   -24778   -24781 
  -24783   -24785   -24787   -24789   -24793   -24795   -24797   -24801 
  -24803   -24805   -24807   -24810   -24813   -24816   -24818   -24821 
  -24824   -24826   -24829   -24832   -24836   -24838   -24839   -24840 
  -24843   -24846   -24849   -24852   -24854   -24854   -24855   -24858 
  -24863   -24866   -24866   -24869   -24870   -24869   -24870   -24874 
  -24876   -24878   -24878   -24878   -24881   -24883   -24883   -24883 
  -24885   -24885   -24885   -24888   -24889   -24889   -24889   -24888 
  -24888   -24890   -24891   -24890   -24890   -24892   -24892   -24891 
  -24891   -24892   -24890   -24889   -24889   -24888   -24889   -24892 
  -24891   -24888   -24886   -24887   -24888   -24886   -24883   -24882 
  -24882   -24880   -24880   -24881   -24880   -24877   -24874   -24873 
  -24872   -24868   -24866   -24866   -24863   -24861   -24860   -24858 
  -24855   -24852   -24848   -24845   -24844   -24843   -24839   -24836 
  -24833   -24830   -24827   -24826   -24821   -24815   -24815   -24814 
  -24807   -24804   -24804   -24800   -24797   -24796   -24791   -24786 
  -24783   -24781   -24779   -24778   -24776   -24773   -24769   -24767 
  -24765   -24764   -24761   -24758   -24757   -24756   -24754   -24753 
  -24750   -24748   -24748   -24747   -24746   -24745   -24743   -24743 
  -24744   -24742   -24739   -24738   -24739   -24738   -24737   -24737 
  -24738   -24737   -24737   -24738   -24737   -24734   -24734   -24735 
  -24736   -24737   -24737   -24735   -24735   -24736   -24738   -24737 
  -24738   -24739   -24739   -24739   -24741   -24742   -24743   -24743 
  -24742   -24745   -24748   -24747   -24747   -24750   -24749   -24750 
  -24754   -24756   -24757   -24758   -24761   -24763   -24764   -24765 
  -24767   -24770   -24772   -24773   -24774   -24776   -24779   -24783 
  -24785   -24787   -24791   -24792   -24793   -24797   -24800   -24803 
  -24805   -24808   -24811   -24813   -24814   -24818   -24822   -24825 
  -24828   -24832   -24835   -24836   -24839   -24843   -24845   -24848 
  -24851   -24854   -24859   -24862   -24862   -24865   -24869   -24870 
  -24875   -24881   -24882   -24883   -24886   -24890   -24894   -24896 
  -24896   -24900   -24903   -24905   -24908   -24910   -24912   -24916 
  -24918   -24918   -24921   -24925   -24926   -24927   -24929   -24932 
  -24932   -24932   -24933   -24934   -24936   -24937   -24938   -24938 
  -24937   -24937   -24938   -24938   -24939   -24941   -24940   -24939 
  -24938   -24937   -24936   -24935   -24933   -24932   -24930   -24930 
  -24930   -24929   -24924   -24920   -24920   -24919   -24916   -24916 
  -24913   -24909   -24907   -24907   -24904   -24901   -24899   -24897 
  -24894   -24891   -24890   -24886   -24881   -24879   -24877   -24873 
  -24871   -24868   -24861   -24857   -24858   -24859   -24855   -24851 
  -24847   -24844   -24842   -24840   -24838   -24832   -24828   -24829 
  -24827   -24823   -24821   -24819   -24817   -24815   -24811   -24808 
  -24809   -24808   -24804   -24802   -24801   -24799   -24796   -24796 
  -24798   -24796   -24793   -24793   -24792   -24790   -24790   -24791 
  -24789   -24788   -24789   -24788   -24787   -24788   -24789   -24789 
  -24787   -24787   -24790   -24790   -24788   -24789   -24790   -24790 
  -24793   -24794   -24793   -24795   -24796   -24796   -24797   -24799 
  -24801   -24802   -24800   -24800   -24801   -24803   -24806   -24807 
  -24807   -24809   -24812   -24812   -24811   -24812   -24814   -24816 
  -24816   -24817   -24820   -24822   -24821   -24821   -24824   -24826 
  -24825   -24826   -24828   -24828   -24829   -24831   -24830   -24830 
  -24832   -24834   -24833   -24834   -24837   -24836   -24836   -24838 
  -24838   -24835   -24836   -24837   -24836   -24837   -24837   -24835 
  -24835   -24836   -24835   -24836   -24835   -24832   -24833   -24832 
  -24830   -24830   -24830   -24828   -24825   -24823   -24823   -24821 
  -24818   -24818   -24816   -24813   -24812   -24810   -24806   -24804 
  -24802   -24800   -24798   -24795   -24792   -24789   -24787   -24785 
  -24783   -24782   -24778   -24773   -24772   -24771   -24767   -24765 
  -24763   -24758   -24757   -24755   -24750   -24748   -24749   -24746 
  -24745   -24745   -24743   -24739   -24736   -24735   -24733   -24733 
  -24732   -24730   -24730   -24728   -24726   -24725   -24726   -24726 
  -24726   -24724   -24722   -24724   -24726   -24723   -24721   -24723 
  -24723   -24723   -24725   -24724   -24723   -24724   -24726   -24726 
  -24727   -24729   -24729   -24730   -24730   -24731   -24733   -24735 
  -24736   -24736   -24738   -24739   -24741   -24744   -24746   -24744 
  -24745   -24750   -24751   -24750   -24751   -24754   -24758   -24758 
  -24758   -24760   -24761   -24761   -24763   -24765   -24768   -24770 
  -24771   -24770   -24770   -24772   -24775   -24776   -24775   -24776 
  -24779   -24778   -24778   -24779   -24780   -24783   -24784   -24785 
  -24783   -24782   -24784   -24786   -24785   -24786   -24787   -24787 
  -24788   -24790   -24789   -24789   -24791   -24794   -24793   -24794 
  -24796   -24794   -24792   -24795   -24797   -24796   -24797   -24796 
  -24795   -24797   -24797   -24797   -24798   -24799   -24799   -24800 
  -24800   -24801   -24803   -24804   -24807   -24808   -24807   -24808 
  -24811   -24810   -24810   -24812   -24814   -24815   -24815   -24817 
  -24819   -24818   -24817   -24821   -24823   -24819   -24817   -24821 
  -24823   -24822   -24822   -24822   -24824   -24825   -24823   -24822 
  -24823   -24824   -24824   -24823   -24823   -24823   -24822   -24822 
  -24823   -24822   -24821   -24820   -24819   -24818   -24819   -24818 
  -24817   -24817   -24816   -24816   -24816   -24814   -24812   -24812 
  -24812   -24809   -24809   -24811   -24809   -24807   -24807   -24808 
  -24805   -24802   -24800   -24800   -24801   -24803   -24802   -24800 
  -24801   -24801   -24799   -24798   -24799   -24800   -24800   -24798 
  -24797   -24797   -24796   -24795   -24798   -24799   -24799   -24799 
  -24799   -24799   -24800   -24801   -24802   -24802   -24803   -24804 
  -24805   -24807   -24809   -24811   -24811   -24809   -24814   -24820 
  -24819   -24815   -24819   -24824   -24826   -24827   -24828   -24830 
  -24837   -24840   -24840   -24843   -24846   -24847   -24847   -24851 
  -24856   -24858   -24860   -24863   -24865   -24868   -24871   -24875 
  -24877   -24879   -24881   -24883   -24888   -24891   -24892   -24895 
  -24900   -24902   -24902   -24907   -24911   -24912   -24915   -24917 
  -24919   -24923   -24926   -24926   -24928   -24934   -24936   -24937 
  -24939   -24941   -24944   -24947   -24949   -24951   -24954   -24955 
  -24957   -24960   -24962   -24964   -24964   -24963   -24964   -24965 
  -24965   -24966   -24968   -24971   -24971   -24970   -24969   -24968 
  -24968   -24968   -24966   -24965   -24965   -24964   -24961   -24956 
  -24954   -24953   -24950   -24946   -24943   -24940   -24937   -24933 
  -24929   -24926   -24923   -24917   -24911   -24907   -24903   -24898 
  -24894   -24888   -24883   -24879   -24873   -24868   -24864   -24858 
  -24852   -24849   -24844   -24838   -24833   -24827   -24823   -24820 
  -24815   -24810   -24805   -24800   -24797   -24793   -24789   -24786 
  -24783   -24779   -24775   -24771   -24768   -24766   -24763   -24759 
  -24755   -24753   -24752   -24750   -24747   -24745   -24743   -24739 
  -24736   -24735   -24735   -24733   -24730   -24729   -24729   -24726 
  -24724   -24723   -24723   -24722   -24719   -24719   -24720   -24718 
  -24716   -24716   -24716   -24714   -24713   -24714   -24712   -24712 
  -24712   -24710   -24708   -24710   -24712   -24712   -24710   -24709 
  -24709   -24709   -24710   -24709   -24706   -24708   -24710   -24708 
  -24709   -24710   -24707   -24706   -24710   -24712   -24710   -24709 
  -24711   -24711   -24710   -24712   -24713   -24714   -24715   -24715 
  -24718   -24720   -24721   -24720   -24720   -24722   -24723   -24723 
  -24725   -24727   -24727   -24728   -24730   -24730   -24731   -24735 
  -24735   -24735   -24737   -24738   -24739   -24741   -24742   -24743 
  -24745   -24747   -24748   -24749   -24750   -24751   -24753   -24755 
  -24754   -24755   -24758   -24759   -24758   -24759   -24760   -24761 
  -24764   -24767   -24766   -24766   -24768   -24769   -24769   -24770 
  -24771   -24773   -24774   -24774   -24775   -24777   -24781   -24782 
  -24779   -24779   -24783   -24785   -24784   -24784   -24787   -24790 
  -24791   -24792   -24794   -24795   -24797   -24801   -24803   -24802 
  -24801   -24805   -24807   -24807   -24809   -24812   -24814   -24817 
  -24819   -24820   -24820   -24822   -24824   -24826   -24828   -24829 
  -24831   -24834   -24834   -24835   -24839   -24841   -24841   -24842 
  -24844   -24846   -24848   -24848   -24848   -24851   -24853   -24854 
  -24856   -24858   -24859   -24860   -24862   -24862   -24862   -24863 
  -24865   -24866   -24867   -24868   -24869   -24872   -24874   -24874 
  -24874   -24873   -24874   -24878   -24879   -24878   -24881   -24883 
  -24883   -24885   -24884   -24885   -24887   -24889   -24888   -24887 
  -24888   -24890   -24891   -24893   -24893   -24893   -24895   -24897 
  -24896   -24895   -24896   -24897   -24897   -24897   -24898   -24898 
  -24897   -24898   -24898   -24898   -24900   -24900   -24898   -24898 
  -24898   -24898   -24898   -24898   -24897   -24896   -24896   -24894 
  -24892   -24893   -24893   -24893   -24891   -24888   -24887   -24887 
  -24887   -24887   -24884   -24880   -24881   -24883   -24880   -24877 
  -24874   -24875   -24875   -24870   -24866   -24866   -24866   -24863 
  -24861   -24859   -24856   -24854   -24854   -24850   -24846   -24848 
  -24846   -24842   -24844   -24843   -24840   -24838   -24835   -24831 
  -24830   -24829   -24826   -24825   -24824   -24821   -24819   -24818 
  -24817   -24815   -24813   -24813   -24811   -24806   -24804   -24803 
  -24802   -24801   -24800   -24796   -24794   -24794   -24794   -24792 
  -24791   -24791   -24790   -24788   -24785   -24782   -24783   -24782 
  -24780   -24780   -24780   -24780   -24780   -24779   -24776   -24775 
  -24775   -24777   -24777   -24775   -24771   -24771   -24774   -24772 
  -24769   -24768   -24769   -24770   -24769   -24767   -24767   -24768 
  -24766   -24765   -24767   -24766   -24765   -24767   -24767   -24766 
  -24765   -24765   -24764   -24765   -24765   -24764   -24763   -24765 
  -24764   -24761   -24763   -24766   -24766   -24765   -24766   -24767 
  -24767   -24768   -24768   -24768   -24771   -24772   -24772   -24773 
  -24774   -24776   -24778   -24776   -24776   -24781   -24782   -24782 
  -24784   -24785   -24785   -24786   -24788   -24791   -24791   -24790 
  -24793   -24794   -24795   -24797   -24799   -24799   -24800   -24801 
  -24802   -24805   -24807   -24809   -24809   -24808   -24808   -24810 
  -24812   -24814   -24815   -24815   -24816   -24818   -24819   -24819 
  -24820   -24820   -24820   -24821   -24823   -24824   -24825   -24825 
  -24823   -24825   -24828   -24829   -24828   -24828   -24829   -24829 
  -24830   -24832   -24831   -24831   -24832   -24834   -24834   -24833 
  -24832   -24834   -24836   -24835   -24835   -24837   -24836   -24837 
  -24839   -24839   -24837   -24838   -24839   -24838   -24836   -24836 
  -24839   -24837   -24835   -24836   -24834   -24835   -24837   -24834 
  -24832   -24832   -24831   -24829   -24829   -24829   -24828   -24827 
  -24824   -24822   -24823   -24822   -24819   -24817   -24815   -24813 
  -24814   -24812   -24807   -24807   -24806   -24803   -24803   -24801 
  -24798   -24797   -24796   -24794   -24792   -24790   -24789   -24786 
  -24785   -24786   -24784   -24780   -24780   -24780   -24776   -24775 
  -24775   -24774   -24774   -24773   -24772   -24772   -24770   -24767 
  -24769   -24770   -24768   -24767   -24767   -24766   -24766   -24764 
  -24763   -24765   -24767   -24764   -24763   -24764   -24761   -24760 
  -24762   -24760   -24759   -24760   -24758   -24758   -24760   -24761 
  -24760   -24760   -24759   -24758   -24758   -24759   -24760   -24761 
  -24761   -24759   -24760   -24761   -24760   -24761   -24762   -24762 
  -24762   -24761   -24761   -24764   -24763   -24761   -24763   -24764 
  -24765   -24767   -24768   -24769   -24770   -24771   -24772   -24771 
  -24771   -24774   -24776   -24777   -24779   -24781   -24781   -24781 
  -24782   -24784   -24785   -24786   -24789   -24790   -24790   -24791 
  -24792   -24793   -24794   -24795   -24798   -24800   -24798   -24800 
  -24803   -24803   -24804   -24805   -24806   -24807   -24808   -24810 
