Origin Time       2025/01/13 21:19:00
Lat.              31.8
Long.             131.6
Depth. (km)       30
Mag.              6.9
Station Code      NGNH24
Station Lat.      35.6152
Station Long.     137.8797
Station Height(m) 715
Record Time       2025/01/13 21:23:14
Sampling Freq(Hz) 100Hz
Duration Time(s)  120
Dir.              4
Scale Factor      3920(gal)/6170801
Max. Acc. (gal)   0.175
Last Correction   2025/01/13 21:22:59
Memo.             
[...]
   -3557    -3551    -3555    -3560    -3553    -3544    -3553    -3559 
   -3548    -3548    -3565    -3567    -3555    -3560    -3575    -3574 
   -3563    -3569    -3578    -3570    -3564    -3577    -3582    -3570 
   -3569    -3582    -3581    -3573    -3575    -3579    -3580    -3581 
   -3584    -3588    -3585    -3582    -3588    -3593    -3584    -3579 
   -3591    -3594    -3583    -3582    -3583    -3575    -3572    -3575 
   -3581    -3578    -3562    -3567    -3584    -3577    -3566    -3577 
   -3588    -3576    -3571    -3585    -3584    -3571    -3583    -3601 
   -3593    -3584    -3593    -3601    -3599    -3592    -3595    -3603 
   -3604    -3603    -3605    -3608    -3606    -3603    -3607    -3609 
   -3605    -3608    -3614    -3605    -3600    -3612    -3617    -3612 
   -3613    -3619    -3623    -3621    -3616    -3622    -3627    -3615 
   -3613    -3621    -3614    -3602    -3609    -3612    -3595    -3588 
   -3603    -3605    -3590    -3586    -3587    -3579    -3576    -3578 
   -3573    -3561    -3558    -3563    -3557    -3545    -3545    -3548 
   -3547    -3538    -3529    -3536    -3538    -3524    -3522    -3526 
   -3514    -3502    -3507    -3510    -3500    -3486    -3485    -3494 
   -3486    -3474    -3479    -3474    -3459    -3462    -3470    -3462 
   -3448    -3450    -3461    -3459    -3450    -3450    -3452    -3448 
   -3452    -3460    -3454    -3442    -3444    -3457    -3460    -3449 
   -3447    -3452    -3447    -3446    -3451    -3450    -3446    -3447 
   -3460    -3469    -3463    -3465    -3475    -3475    -3477    -3484 
   -3488    -3488    -3488    -3498    -3503    -3498    -3500    -3511 
   -3518    -3515    -3515    -3530    -3536    -3524    -3530    -3548 
   -3543    -3533    -3544    -3553    -3547    -3547    -3563    -3572 
   -3566    -3571    -3590    -3595    -3585    -3592    -3608    -3611 
   -3609    -3614    -3625    -3627    -3627    -3635    -3640    -3634 
   -3629    -3634    -3636    -3631    -3630    -3634    -3633    -3625 
   -3625    -3638    -3635    -3621    -3631    -3645    -3637    -3633 
   -3638    -3635    -3627    -3627    -3627    -3619    -3608    -3607 
   -3613    -3608    -3594    -3591    -3593    -3575    -3562    -3573 
   -3571    -3549    -3543    -3553    -3554    -3545    -3539    -3543 
   -3544    -3536    -3537    -3543    -3534    -3526    -3531    -3533 
   -3525    -3523    -3533    -3534    -3522    -3521    -3531    -3532 
   -3524    -3525    -3532    -3529    -3526    -3534    -3536    -3532 
   -3534    -3540    -3538    -3533    -3533    -3535    -3532    -3528 
   -3527    -3530    -3526    -3516    -3520    -3530    -3523    -3515 
   -3519    -3516    -3504    -3504    -3510    -3505    -3500    -3502 
   -3500    -3497    -3492    -3493    -3500    -3493    -3482    -3497 
   -3510    -3502    -3503    -3512    -3512    -3505    -3509    -3524 
   -3517    -3508    -3522    -3532    -3531    -3532    -3537    -3545 
   -3554    -3557    -3560    -3568    -3570    -3574    -3584    -3582 
   -3577    -3586    -3593    -3590    -3592    -3595    -3592    -3592 
   -3599    -3604    -3601    -3595    -3595    -3600    -3602    -3598 
   -3594    -3596    -3596    -3592    -3596    -3602    -3594    -3591 
   -3600    -3599    -3585    -3584    -3599    -3605    -3598    -3598 
   -3605    -3602    -3598    -3604    -3605    -3598    -3598    -3605 
   -3602    -3593    -3597    -3610    -3611    -3599    -3600    -3614 
   -3615    -3612    -3619    -3619    -3612    -3616    -3624    -3625 
   -3620    -3612    -3613    -3617    -3614    -3615    -3617    -3606 
   -3597    -3608    -3616    -3602    -3594    -3606    -3611    -3608 
   -3612    -3616    -3611    -3609    -3611    -3609    -3605    -3602 
   -3608    -3615    -3605    -3593    -3597    -3601    -3589    -3584 
   -3593    -3587    -3576    -3578    -3574    -3566    -3561    -3559 
   -3560    -3553    -3538    -3538    -3544    -3534    -3526    -3527 
   -3519    -3506    -3501    -3503    -3499    -3491    -3488    -3484 
   -3476    -3466    -3463    -3462    -3451    -3442    -3446    -3442 
   -3425    -3420    -3423    -3416    -3408    -3408    -3403    -3391 
   -3391    -3396    -3387    -3375    -3372    -3370    -3370    -3367 
   -3357    -3352    -3348    -3336    -3337    -3340    -3325    -3322 
   -3332    -3324    -3319    -3330    -3328    -3319    -3323    -3328 
   -3331    -3334    -3329    -3330    -3346    -3355    -3355    -3367 
   -3380    -3380    -3386    -3404    -3413    -3415    -3422    -3434 
   -3440    -3440    -3448    -3465    -3468    -3463    -3475    -3490 
   -3493    -3498    -3508    -3514    -3517    -3521    -3530    -3539 
   -3538    -3542    -3560    -3566    -3564    -3577    -3593    -3594 
   -3589    -3602    -3617    -3607    -3605    -3621    -3623    -3619 
   -3629    -3634    -3634    -3641    -3647    -3650    -3653    -3653 
   -3657    -3666    -3667    -3658    -3666    -3677    -3668    -3667 
   -3681    -3682    -3677    -3688    -3695    -3686    -3685    -3690 
   -3686    -3683    -3685    -3684    -3682    -3680    -3677    -3685 
   -3691    -3674    -3671    -3684    -3672    -3662    -3674    -3671 
   -3653    -3655    -3670    -3668    -3657    -3659    -3669    -3667 
   -3657    -3655    -3661    -3660    -3651    -3653    -3659    -3651 
   -3645    -3648    -3646    -3640    -3640    -3639    -3628    -3614 
   -3615    -3624    -3614    -3598    -3598    -3600    -3594    -3588 
   -3589    -3587    -3575    -3569    -3583    -3586    -3570    -3566 
   -3575    -3567    -3558    -3569    -3571    -3553    -3545    -3552 
   -3553    -3543    -3538    -3545    -3545    -3539    -3540    -3543 
   -3540    -3532    -3535    -3543    -3536    -3526    -3536    -3543 
   -3534    -3536    -3550    -3544    -3533    -3541    -3549    -3546 
   -3543    -3542    -3543    -3541    -3541    -3544    -3542    -3535 
   -3540    -3551    -3547    -3531    -3536    -3551    -3541    -3530 
   -3536    -3540    -3535    -3535    -3541    -3545    -3540    -3537 
   -3544    -3543    -3534    -3537    -3544    -3537    -3531    -3534 
   -3533    -3525    -3517    -3524    -3528    -3518    -3517    -3525 
   -3520    -3513    -3511    -3514    -3516    -3513    -3511    -3513 
   -3504    -3496    -3506    -3511    -3500    -3488    -3491    -3503 
   -3500    -3487    -3488    -3490    -3482    -3485    -3494    -3488 
   -3483    -3493    -3500    -3496    -3493    -3493    -3499    -3506 
   -3506    -3511    -3518    -3513    -3512    -3522    -3521    -3513 
   -3521    -3530    -3521    -3512    -3522    -3529    -3517    -3510 
   -3521    -3524    -3516    -3523    -3534    -3526    -3516    -3522 
   -3532    -3527    -3520    -3518    -3513    -3512    -3514    -3513 
   -3507    -3502    -3504    -3506    -3501    -3491    -3490    -3495 
   -3490    -3477    -3475    -3477    -3469    -3468    -3476    -3479 
   -3473    -3468    -3473    -3468    -3450    -3455    -3465    -3449 
   -3436    -3446    -3448    -3438    -3434    -3443    -3450    -3442 
   -3437    -3443    -3438    -3425    -3427    -3433    -3427    -3422 
   -3425    -3430    -3426    -3421    -3427    -3427    -3417    -3412 
   -3419    -3422    -3411    -3406    -3413    -3417    -3415    -3418 
   -3428    -3428    -3423    -3436    -3452    -3440    -3434    -3452 
   -3452    -3441    -3450    -3458    -3451    -3451    -3462    -3470 
   -3471    -3468    -3472    -3482    -3485    -3481    -3488    -3496 
   -3488    -3491    -3512    -3514    -3511    -3527    -3537    -3534 
   -3541    -3555    -3561    -3560    -3562    -3573    -3582    -3580 
   -3583    -3598    -3602    -3598    -3607    -3620    -3620    -3618 
   -3623    -3632    -3635    -3630    -3637    -3647    -3640    -3638 
   -3652    -3658    -3657    -3661    -3670    -3672    -3668    -3671 
   -3673    -3665    -3664    -3672    -3669    -3657    -3657    -3662 
   -3656    -3650    -3649    -3646    -3637    -3632    -3639    -3640 
   -3628    -3620    -3626    -3628    -3614    -3604    -3608    -3609 
   -3596    -3591    -3599    -3594    -3583    -3585    -3587    -3580 
   -3578    -3577    -3573    -3567    -3557    -3552    -3550    -3537 
   -3531    -3536    -3526    -3513    -3515    -3517    -3514    -3510 
   -3502    -3498    -3498    -3493    -3487    -3483    -3482    -3481 
   -3483    -3483    -3475    -3475    -3484    -3476    -3459    -3460 
   -3460    -3445    -3437    -3438    -3431    -3419    -3420    -3429 
   -3424    -3412    -3417    -3428    -3423    -3419    -3429    -3433 
   -3430    -3433    -3442    -3446    -3442    -3446    -3460    -3459 
   -3448    -3453    -3462    -3459    -3452    -3453    -3460    -3451 
   -3438    -3454    -3461    -3441    -3435    -3445    -3444    -3438 
   -3441    -3448    -3446    -3439    -3447    -3465    -3467    -3461 
   -3466    -3473    -3470    -3465    -3465    -3462    -3453    -3457 
   -3466    -3454    -3441    -3452    -3464    -3457    -3448    -3454 
   -3460    -3457    -3457    -3464    -3465    -3458    -3468    -3486 
   -3484    -3478    -3490    -3506    -3509    -3504    -3511    -3527 
   -3527    -3519    -3524    -3533    -3528    -3528    -3540    -3541 
   -3530    -3530    -3547    -3551    -3536    -3535    -3542    -3538 
   -3542    -3554    -3553    -3545    -3548    -3560    -3565    -3558 
   -3559    -3571    -3568    -3563    -3572    -3574    -3557    -3550 
   -3559    -3560    -3547    -3537    -3543    -3543    -3526    -3522 
   -3530    -3523    -3508    -3510    -3515    -3504    -3494    -3498 
   -3501    -3493    -3485    -3488    -3487    -3478    -3481    -3483 
   -3474    -3467    -3468    -3468    -3464    -3454    -3444    -3447 
   -3441    -3429    -3430    -3424    -3407    -3407    -3415    -3406 
   -3390    -3390    -3397    -3390    -3384    -3388    -3385    -3375 
   -3375    -3384    -3387    -3381    -3381    -3385    -3382    -3379 
   -3384    -3386    -3377    -3373    -3385    -3389    -3380    -3377 
   -3381    -3380    -3378    -3381    -3385    -3384    -3381    -3385 
   -3393    -3396    -3393    -3398    -3408    -3403    -3404    -3424 
   -3433    -3424    -3426    -3440    -3445    -3446    -3455    -3465 
   -3467    -3467    -3477    -3490    -3490    -3491    -3503    -3513 
   -3517    -3522    -3535    -3545    -3544    -3553    -3570    -3578 
   -3582    -3593    -3604    -3607    -3613    -3627    -3636    -3641 
   -3647    -3658    -3668    -3669    -3670    -3686    -3698    -3695 
   -3701    -3718    -3721    -3720    -3734    -3748    -3741    -3737 
   -3751    -3760    -3758    -3760    -3771    -3771    -3766    -3775 
   -3784    -3779    -3777    -3779    -3779    -3783    -3785    -3781 
   -3781    -3776    -3769    -3778    -3778    -3756    -3756    -3771 
   -3765    -3752    -3749    -3745    -3739    -3733    -3730    -3726 
   -3710    -3699    -3704    -3700    -3681    -3665    -3665    -3663 
   -3644    -3634    -3638    -3622    -3602    -3604    -3600    -3575 
   -3560    -3565    -3561    -3540    -3528    -3523    -3512    -3498 
   -3491    -3486    -3473    -3457    -3452    -3451    -3435    -3419 
   -3415    -3408    -3396    -3389    -3384    -3376    -3364    -3353 
   -3356    -3353    -3332    -3326    -3334    -3322    -3309    -3315 
   -3313    -3299    -3294    -3298    -3299    -3290    -3281    -3284 
   -3284    -3279    -3280    -3285    -3281    -3273    -3277    -3281 
   -3275    -3276    -3282    -3282    -3278    -3276    -3287    -3299 
   -3292    -3288    -3299    -3301    -3301    -3314    -3320    -3313 
   -3316    -3330    -3337    -3335    -3337    -3341    -3344    -3349 
   -3350    -3357    -3365    -3362    -3365    -3378    -3380    -3380 
   -3393    -3397    -3392    -3404    -3420    -3419    -3420    -3431 
   -3439    -3444    -3450    -3459    -3471    -3473    -3475    -3489 
   -3500    -3497    -3504    -3522    -3525    -3523    -3534    -3549 
   -3549    -3550    -3565    -3570    -3567    -3573    -3581    -3589 
   -3593    -3592    -3595    -3603    -3605    -3606    -3612    -3616 
   -3612    -3610    -3619    -3624    -3620    -3620    -3630    -3629 
   -3622    -3631    -3635    -3629    -3635    -3643    -3640    -3641 
   -3647    -3653    -3654    -3652    -3655    -3664    -3664    -3658 
   -3664    -3671    -3667    -3671    -3683    -3681    -3673    -3677 
   -3687    -3686    -3682    -3688    -3695    -3690    -3686    -3699 
   -3705    -3689    -3689    -3708    -3707    -3696    -3702    -3709 
   -3703    -3701    -3707    -3707    -3700    -3699    -3706    -3709 
   -3699    -3695    -3704    -3708    -3698    -3697    -3708    -3706 
   -3694    -3701    -3714    -3705    -3698    -3709    -3711    -3703 
   -3704    -3710    -3711    -3704    -3704    -3714    -3713    -3700 
   -3700    -3715    -3716    -3698    -3700    -3713    -3702    -3692 
   -3701    -3698    -3687    -3689    -3694    -3684    -3672    -3671 
   -3672    -3664    -3655    -3650    -3646    -3633    -3622    -3626 
   -3621    -3599    -3591    -3594    -3580    -3564    -3558    -3551 
   -3535    -3522    -3519    -3513    -3499    -3488    -3481    -3471 
   -3461    -3450    -3439    -3428    -3413    -3408    -3410    -3395 
   -3373    -3369    -3371    -3358    -3343    -3344    -3339    -3319 
   -3313    -3320    -3314    -3296    -3291    -3291    -3284    -3280 
   -3281    -3278    -3272    -3264    -3266    -3275    -3270    -3263 
   -3268    -3273    -3266    -3270    -3282    -3281    -3279    -3290 
   -3299    -3299    -3301    -3311    -3322    -3326    -3334    -3350 
   -3359    -3359    -3368    -3384    -3393    -3399    -3410    -3425 
   -3436    -3440    -3451    -3466    -3470    -3477    -3497    -3509 
   -3509    -3518    -3532    -3540    -3543    -3551    -3565    -3575 
   -3578    -3588    -3604    -3609    -3610    -3622    -3631    -3628 
   -3635    -3651    -3654    -3651    -3659    -3672    -3679    -3675 
   -3671    -3681    -3687    -3684    -3686    -3688    -3680    -3676 
   -3683    -3684    -3673    -3668    -3674    -3674    -3665    -3664 
   -3666    -3658    -3652    -3656    -3656    -3642    -3636    -3643 
   -3635    -3621    -3624    -3623    -3613    -3619    -3621    -3610 
   -3604    -3603    -3609    -3613    -3602    -3591    -3598    -3606 
   -3598    -3595    -3605    -3600    -3593    -3605    -3610    -3598 
   -3602    -3618    -3616    -3610    -3615    -3621    -3626    -3627 
   -3622    -3628    -3636    -3630    -3628    -3633    -3625    -3620 
   -3628    -3627    -3617    -3613    -3614    -3615    -3610    -3605 
   -3605    -3600    -3590    -3592    -3593    -3581    -3568    -3569 
   -3571    -3560    -3549    -3549    -3548    -3536    -3526    -3529 
   -3527    -3512    -3504    -3508    -3503    -3492    -3490    -3489 
   -3479    -3472    -3473    -3466    -3456    -3461    -3463    -3453 
   -3445    -3443    -3441    -3435    -3426    -3427    -3428    -3418 
   -3414    -3420    -3418    -3403    -3400    -3411    -3406    -3397 
   -3401    -3397    -3387    -3384    -3384    -3391    -3390    -3374 
   -3376    -3392    -3388    -3380    -3385    -3387    -3380    -3383 
   -3398    -3398    -3380    -3386    -3403    -3396    -3394    -3407 
   -3409    -3406    -3416    -3427    -3428    -3430    -3439    -3451 
   -3459    -3457    -3462    -3480    -3488    -3488    -3503    -3518 
   -3514    -3518    -3541    -3553    -3551    -3561    -3579    -3587 
   -3587    -3600    -3619    -3622    -3622    -3639    -3650    -3647 
   -3654    -3666    -3667    -3668    -3681    -3692    -3693    -3691 
   -3695    -3706    -3714    -3716    -3717    -3715    -3710    -3714 
   -3725    -3722    -3711    -3710    -3717    -3717    -3705    -3699 
   -3705    -3702    -3688    -3685    -3688    -3675    -3661    -3662 
   -3662    -3646    -3630    -3632    -3635    -3624    -3609    -3608 
   -3606    -3592    -3587    -3592    -3583    -3568    -3570    -3578 
   -3568    -3552    -3552    -3558    -3552    -3548    -3551    -3544 
   -3532    -3532    -3536    -3534    -3527    -3519    -3520    -3519 
   -3510    -3511    -3514    -3503    -3497    -3501    -3501    -3496 
   -3494    -3488    -3482    -3480    -3482    -3487    -3483    -3470 
   -3469    -3475    -3471    -3467    -3474    -3472    -3464    -3465 
   -3469    -3466    -3462    -3464    -3466    -3459    -3452    -3457 
   -3463    -3455    -3448    -3453    -3457    -3452    -3449    -3458 
   -3463    -3456    -3454    -3461    -3462    -3457    -3461    -3470 
   -3464    -3454    -3464    -3477    -3470    -3461    -3471    -3478 
   -3469    -3466    -3479    -3478    -3466    -3480    -3491    -3473 
   -3469    -3487    -3489    -3478    -3482    -3488    -3485    -3488 
   -3494    -3495    -3491    -3485    -3493    -3505    -3499    -3493 
   -3502    -3509    -3509    -3512    -3517    -3515    -3510    -3515 
   -3527    -3527    -3523    -3533    -3542    -3536    -3535    -3546 
   -3553    -3550    -3550    -3559    -3567    -3563    -3565    -3578 
   -3574    -3564    -3580    -3595    -3584    -3578    -3590    -3592 
   -3584    -3590    -3603    -3600    -3591    -3592    -3600    -3605 
   -3599    -3598    -3607    -3605    -3598    -3606    -3610    -3599 
   -3597    -3606    -3603    -3594    -3594    -3600    -3601    -3590 
   -3586    -3590    -3586    -3581    -3586    -3585    -3572    -3564 
   -3576    -3580    -3564    -3559    -3570    -3563    -3552    -3558 
   -3561    -3550    -3541    -3541    -3548    -3544    -3532    -3531 
   -3536    -3529    -3521    -3523    -3522    -3508    -3507    -3518 
   -3509    -3491    -3493    -3498    -3487    -3477    -3481    -3480 
   -3465    -3456    -3463    -3462    -3447    -3442    -3444    -3436 
   -3428    -3430    -3433    -3422    -3406    -3409    -3416    -3409 
   -3402    -3400    -3398    -3397    -3394    -3394    -3392    -3375 
   -3375    -3393    -3383    -3364    -3375    -3378    -3363    -3368 
   -3375    -3371    -3368    -3365    -3368    -3380    -3374    -3364 
   -3376    -3383    -3375    -3382    -3394    -3383    -3380    -3399 
   -3402    -3393    -3401    -3416    -3419    -3417    -3424    -3438 
   -3439    -3435    -3447    -3463    -3464    -3464    -3476    -3487 
   -3486    -3493    -3513    -3520    -3513    -3525    -3547    -3549 
   -3547    -3561    -3578    -3581    -3579    -3593    -3609    -3609 
   -3615    -3633    -3639    -3638    -3649    -3660    -3659    -3657 
   -3667    -3680    -3682    -3676    -3677    -3689    -3692    -3687 
   -3690    -3691    -3683    -3689    -3702    -3691    -3674    -3681 
   -3687    -3682    -3680    -3676    -3670    -3671    -3673    -3671 
   -3664    -3654    -3650    -3657    -3657    -3644    -3636    -3639 
   -3632    -3624    -3633    -3635    -3616    -3604    -3610    -3611 
   -3601    -3593    -3589    -3582    -3576    -3579    -3577    -3564 
   -3557    -3560    -3561    -3555    -3545    -3542    -3547    -3547 
   -3539    -3536    -3537    -3537    -3538    -3539    -3536    -3534 
   -3539    -3549    -3548    -3538    -3542    -3552    -3548    -3545 
   -3555    -3558    -3554    -3557    -3564    -3564    -3559    -3563 
