Origin Time       2025/01/13 21:19:00
Lat.              31.8
Long.             131.6
Depth. (km)       30
Mag.              6.9
Station Code      NGNH24
Station Lat.      35.6152
Station Long.     137.8797
Station Height(m) 608
Record Time       2025/01/13 21:23:14
Sampling Freq(Hz) 100Hz
Duration Time(s)  120
Dir.              3
Scale Factor      2940(gal)/6170270
Max. Acc. (gal)   0.153
Last Correction   2025/01/13 21:22:59
Memo.             
[...]
  -29803   -29809   -29814   -29817   -29822   -29827   -29831   -29834 
  -29840   -29844   -29846   -29850   -29851   -29854   -29859   -29862 
  -29866   -29868   -29868   -29870   -29874   -29873   -29874   -29878 
  -29879   -29878   -29877   -29877   -29876   -29876   -29876   -29876 
  -29875   -29873   -29869   -29870   -29871   -29869   -29866   -29864 
  -29863   -29861   -29860   -29859   -29856   -29854   -29851   -29849 
  -29846   -29843   -29843   -29842   -29839   -29838   -29838   -29833 
  -29831   -29833   -29831   -29830   -29830   -29827   -29825   -29826 
  -29825   -29823   -29824   -29824   -29823   -29824   -29824   -29824 
  -29825   -29825   -29825   -29827   -29829   -29830   -29832   -29833 
  -29835   -29838   -29837   -29839   -29842   -29844   -29845   -29847 
  -29848   -29849   -29851   -29854   -29856   -29858   -29858   -29859 
  -29858   -29859   -29860   -29858   -29858   -29859   -29857   -29858 
  -29860   -29860   -29859   -29861   -29860   -29859   -29858   -29859 
  -29860   -29860   -29860   -29862   -29863   -29862   -29863   -29865 
  -29869   -29871   -29872   -29874   -29876   -29877   -29878   -29879 
  -29883   -29888   -29887   -29886   -29888   -29889   -29889   -29892 
  -29893   -29892   -29893   -29894   -29895   -29894   -29893   -29894 
  -29894   -29893   -29893   -29892   -29890   -29890   -29889   -29887 
  -29888   -29886   -29881   -29880   -29881   -29877   -29871   -29869 
  -29865   -29861   -29858   -29854   -29850   -29847   -29843   -29838 
  -29837   -29836   -29832   -29829   -29826   -29824   -29820   -29817 
  -29816   -29815   -29811   -29806   -29805   -29803   -29801   -29799 
  -29796   -29794   -29792   -29790   -29788   -29785   -29785   -29788 
  -29788   -29787   -29788   -29789   -29790   -29792   -29793   -29794 
  -29795   -29794   -29791   -29788   -29786   -29784   -29783   -29782 
  -29780   -29779   -29778   -29776   -29774   -29772   -29770   -29767 
  -29765   -29761   -29759   -29760   -29757   -29754   -29755   -29755 
  -29753   -29751   -29753   -29755   -29752   -29751   -29754   -29755 
  -29752   -29751   -29753   -29753   -29751   -29751   -29751   -29751 
  -29750   -29750   -29751   -29751   -29751   -29752   -29751   -29753 
  -29757   -29759   -29760   -29763   -29768   -29768   -29771   -29776 
  -29776   -29774   -29777   -29781   -29783   -29786   -29788   -29789 
  -29792   -29796   -29797   -29798   -29799   -29802   -29804   -29804 
  -29804   -29807   -29809   -29810   -29811   -29814   -29816   -29818 
  -29821   -29824   -29826   -29828   -29829   -29828   -29829   -29832 
  -29833   -29832   -29831   -29831   -29831   -29830   -29829   -29830 
  -29833   -29834   -29836   -29839   -29840   -29842   -29845   -29849 
  -29851   -29853   -29856   -29859   -29859   -29863   -29866   -29867 
  -29869   -29871   -29875   -29879   -29882   -29886   -29888   -29888 
  -29892   -29898   -29902   -29904   -29904   -29907   -29910   -29913 
  -29917   -29921   -29923   -29924   -29928   -29930   -29929   -29930 
  -29931   -29930   -29929   -29928   -29928   -29929   -29928   -29925 
  -29924   -29925   -29926   -29924   -29922   -29923   -29920   -29919 
  -29920   -29918   -29917   -29916   -29916   -29914   -29912   -29912 
  -29913   -29913   -29912   -29910   -29910   -29910   -29908   -29906 
  -29906   -29904   -29901   -29901   -29901   -29901   -29903   -29903 
  -29902   -29902   -29900   -29896   -29894   -29892   -29890   -29889 
  -29886   -29884   -29884   -29882   -29879   -29877   -29876   -29874 
  -29869   -29867   -29864   -29858   -29856   -29854   -29850   -29847 
  -29845   -29844   -29843   -29840   -29837   -29837   -29834   -29829 
  -29826   -29827   -29824   -29819   -29817   -29815   -29812   -29812 
  -29811   -29809   -29805   -29801   -29799   -29798   -29797   -29796 
  -29794   -29791   -29789   -29787   -29786   -29783   -29782   -29782 
  -29780   -29778   -29778   -29776   -29773   -29772   -29772   -29770 
  -29768   -29764   -29760   -29757   -29752   -29747   -29744   -29744 
  -29743   -29740   -29742   -29744   -29743   -29743   -29743   -29743 
  -29743   -29742   -29738   -29737   -29739   -29737   -29734   -29733 
  -29735   -29736   -29739   -29744   -29745   -29747   -29751   -29753 
  -29754   -29755   -29756   -29757   -29756   -29755   -29757   -29758 
  -29756   -29756   -29759   -29762   -29764   -29768   -29770   -29773 
  -29776   -29778   -29779   -29779   -29780   -29781   -29780   -29781 
  -29785   -29786   -29787   -29792   -29794   -29792   -29794   -29798 
  -29799   -29799   -29799   -29801   -29803   -29803   -29802   -29800 
  -29800   -29802   -29801   -29802   -29806   -29808   -29808   -29811 
  -29815   -29817   -29817   -29819   -29822   -29824   -29825   -29828 
  -29829   -29831   -29832   -29833   -29834   -29834   -29837   -29838 
  -29839   -29840   -29841   -29842   -29841   -29842   -29844   -29844 
  -29843   -29843   -29843   -29844   -29843   -29841   -29842   -29843 
  -29841   -29840   -29842   -29844   -29844   -29844   -29844   -29841 
  -29839   -29839   -29838   -29839   -29839   -29839   -29838   -29837 
  -29837   -29838   -29837   -29836   -29835   -29833   -29830   -29828 
  -29826   -29826   -29827   -29827   -29827   -29824   -29820   -29821 
  -29823   -29821   -29819   -29818   -29814   -29811   -29810   -29809 
  -29808   -29808   -29807   -29806   -29806   -29806   -29804   -29803 
  -29801   -29797   -29795   -29798   -29798   -29796   -29800   -29805 
  -29803   -29801   -29802   -29801   -29802   -29803   -29802   -29802 
  -29803   -29803   -29804   -29808   -29813   -29815   -29819   -29823 
  -29824   -29827   -29828   -29828   -29833   -29837   -29834   -29835 
  -29841   -29845   -29847   -29851   -29856   -29859   -29861   -29865 
  -29868   -29871   -29874   -29877   -29877   -29877   -29877   -29878 
  -29876   -29874   -29874   -29874   -29874   -29874   -29874   -29875 
  -29873   -29871   -29870   -29869   -29867   -29865   -29861   -29858 
  -29856   -29854   -29852   -29849   -29844   -29841   -29839   -29838 
  -29836   -29833   -29831   -29830   -29826   -29822   -29820   -29815 
  -29811   -29810   -29807   -29805   -29802   -29799   -29799   -29798 
  -29795   -29793   -29792   -29790   -29788   -29787   -29787   -29788 
  -29788   -29785   -29784   -29785   -29785   -29785   -29786   -29785 
  -29784   -29784   -29786   -29787   -29786   -29785   -29786   -29787 
  -29789   -29790   -29790   -29794   -29797   -29798   -29800   -29799 
  -29796   -29797   -29799   -29798   -29798   -29798   -29797   -29796 
  -29798   -29800   -29799   -29796   -29797   -29794   -29790   -29789 
  -29790   -29789   -29789   -29789   -29788   -29788   -29786   -29785 
  -29789   -29790   -29789   -29791   -29792   -29793   -29795   -29796 
  -29797   -29799   -29801   -29802   -29804   -29805   -29807   -29811 
  -29815   -29816   -29817   -29822   -29824   -29822   -29824   -29826 
  -29824   -29827   -29830   -29830   -29828   -29828   -29828   -29826 
  -29825   -29825   -29825   -29825   -29825   -29823   -29821   -29819 
  -29815   -29814   -29815   -29813   -29811   -29808   -29805   -29803 
  -29801   -29798   -29794   -29789   -29786   -29785   -29782   -29778 
  -29776   -29775   -29770   -29768   -29767   -29766   -29767   -29765 
  -29763   -29764   -29764   -29762   -29764   -29767   -29767   -29769 
  -29772   -29771   -29770   -29771   -29771   -29772   -29774   -29775 
  -29776   -29778   -29781   -29783   -29787   -29789   -29792   -29796 
  -29797   -29796   -29799   -29802   -29806   -29810   -29811   -29813 
  -29818   -29819   -29819   -29823   -29826   -29827   -29830   -29832 
  -29830   -29831   -29834   -29836   -29839   -29839   -29838   -29840 
  -29841   -29843   -29847   -29848   -29847   -29849   -29850   -29850 
  -29854   -29854   -29853   -29853   -29854   -29855   -29857   -29856 
  -29852   -29851   -29851   -29849   -29850   -29850   -29847   -29846 
  -29846   -29844   -29841   -29841   -29843   -29841   -29840   -29840 
  -29841   -29837   -29835   -29835   -29834   -29833   -29836   -29837 
  -29836   -29837   -29837   -29836   -29837   -29836   -29833   -29833 
  -29833   -29831   -29832   -29833   -29833   -29834   -29834   -29834 
  -29835   -29837   -29840   -29844   -29846   -29848   -29852   -29853 
  -29854   -29858   -29860   -29859   -29857   -29859   -29859   -29859 
  -29862   -29864   -29866   -29867   -29864   -29861   -29861   -29864 
  -29863   -29862   -29861   -29858   -29856   -29854   -29852   -29853 
  -29853   -29850   -29850   -29852   -29850   -29848   -29850   -29850 
  -29849   -29850   -29846   -29844   -29846   -29844   -29842   -29841 
  -29839   -29839   -29838   -29836   -29837   -29839   -29836   -29833 
  -29832   -29830   -29827   -29826   -29824   -29819   -29817   -29816 
  -29815   -29816   -29816   -29815   -29814   -29814   -29811   -29809 
  -29808   -29807   -29804   -29803   -29802   -29799   -29794   -29793 
  -29794   -29792   -29790   -29789   -29787   -29785   -29783   -29780 
  -29778   -29779   -29776   -29774   -29776   -29778   -29777   -29775 
  -29774   -29772   -29770   -29769   -29767   -29764   -29763   -29764 
  -29764   -29763   -29764   -29764   -29763   -29765   -29766   -29767 
  -29768   -29770   -29771   -29772   -29774   -29776   -29778   -29779 
  -29782   -29784   -29785   -29790   -29795   -29798   -29800   -29802 
  -29807   -29813   -29816   -29820   -29826   -29829   -29832   -29836 
  -29838   -29840   -29843   -29847   -29851   -29853   -29854   -29857 
  -29860   -29860   -29860   -29862   -29866   -29868   -29870   -29872 
  -29875   -29879   -29881   -29881   -29882   -29883   -29883   -29886 
  -29889   -29889   -29891   -29892   -29891   -29892   -29895   -29897 
  -29897   -29896   -29897   -29896   -29892   -29892   -29891   -29885 
  -29881   -29880   -29876   -29871   -29871   -29870   -29868   -29865 
  -29861   -29859   -29859   -29855   -29853   -29851   -29847   -29841 
  -29836   -29832   -29827   -29822   -29819   -29815   -29811   -29806 
  -29799   -29794   -29790   -29784   -29779   -29775   -29767   -29759 
  -29756   -29753   -29750   -29750   -29747   -29743   -29743   -29744 
  -29743   -29741   -29739   -29737   -29736   -29734   -29730   -29728 
  -29727   -29724   -29722   -29720   -29720   -29722   -29723   -29723 
  -29723   -29722   -29721   -29722   -29722   -29721   -29721   -29722 
  -29725   -29725   -29724   -29727   -29731   -29732   -29730   -29730 
  -29732   -29729   -29727   -29728   -29727   -29726   -29725   -29723 
  -29723   -29725   -29723   -29724   -29726   -29725   -29726   -29730 
  -29730   -29730   -29732   -29733   -29735   -29737   -29740   -29742 
  -29742   -29744   -29746   -29746   -29746   -29747   -29747   -29747 
  -29748   -29748   -29749   -29752   -29752   -29753   -29757   -29762 
  -29762   -29762   -29765   -29770   -29772   -29772   -29775   -29780 
  -29782   -29783   -29787   -29792   -29796   -29801   -29808   -29813 
  -29817   -29822   -29826   -29828   -29830   -29833   -29836   -29839 
  -29841   -29843   -29845   -29847   -29851   -29854   -29857   -29860 
  -29864   -29866   -29868   -29872   -29875   -29877   -29878   -29879 
  -29881   -29884   -29886   -29889   -29892   -29892   -29895   -29900 
  -29901   -29902   -29905   -29905   -29905   -29907   -29907   -29906 
  -29906   -29906   -29905   -29903   -29904   -29906   -29907   -29906 
  -29905   -29903   -29901   -29902   -29902   -29899   -29895   -29889 
  -29886   -29888   -29888   -29885   -29882   -29879   -29877   -29875 
  -29872   -29871   -29869   -29867   -29866   -29864   -29861   -29861 
  -29861   -29859   -29858   -29861   -29861   -29856   -29854   -29856 
  -29855   -29854   -29854   -29854   -29853   -29855   -29856   -29854 
  -29855   -29858   -29858   -29858   -29862   -29866   -29868   -29868 
  -29871   -29877   -29878   -29880   -29885   -29887   -29888   -29892 
  -29897   -29898   -29900   -29904   -29903   -29904   -29906   -29906 
  -29904   -29904   -29904   -29905   -29903   -29900   -29899   -29899 
  -29898   -29897   -29897   -29896   -29894   -29893   -29890   -29888 
  -29886   -29883   -29880   -29876   -29872   -29868   -29861   -29855 
  -29850   -29845   -29841   -29834   -29825   -29819   -29813   -29807 
  -29800   -29792   -29783   -29775   -29767   -29760   -29752   -29744 
  -29734   -29723   -29714   -29703   -29691   -29682   -29673   -29662 
  -29653   -29642   -29633   -29623   -29610   -29601   -29595   -29584 
  -29572   -29565   -29556   -29547   -29541   -29534   -29529   -29526 
  -29522   -29516   -29511   -29509   -29508   -29506   -29503   -29503 
  -29503   -29504   -29505   -29505   -29505   -29510   -29513   -29515 
  -29518   -29523   -29526   -29530   -29534   -29539   -29545   -29550 
  -29555   -29562   -29571   -29577   -29583   -29593   -29601   -29609 
  -29618   -29626   -29633   -29642   -29650   -29657   -29666   -29674 
  -29682   -29690   -29696   -29705   -29715   -29722   -29729   -29738 
  -29749   -29758   -29767   -29777   -29786   -29794   -29805   -29816 
  -29824   -29834   -29845   -29854   -29865   -29876   -29886   -29899 
  -29912   -29921   -29929   -29941   -29953   -29964   -29975   -29984 
  -29992   -30000   -30010   -30020   -30028   -30038   -30046   -30049 
  -30057   -30068   -30073   -30078   -30084   -30090   -30096   -30102 
  -30105   -30110   -30115   -30120   -30124   -30127   -30131   -30134 
  -30135   -30137   -30139   -30138   -30138   -30139   -30140   -30138 
  -30137   -30136   -30134   -30132   -30131   -30127   -30123   -30121 
  -30117   -30112   -30109   -30104   -30096   -30089   -30084   -30078 
  -30072   -30067   -30060   -30052   -30044   -30034   -30025   -30017 
  -30008   -29998   -29990   -29981   -29971   -29960   -29950   -29942 
  -29932   -29920   -29911   -29901   -29891   -29879   -29866   -29856 
  -29846   -29835   -29825   -29818   -29810   -29800   -29792   -29786 
  -29779   -29771   -29763   -29757   -29752   -29745   -29742   -29741 
  -29735   -29729   -29728   -29727   -29722   -29719   -29718   -29716 
  -29715   -29716   -29713   -29710   -29710   -29711   -29711   -29710 
  -29710   -29710   -29711   -29712   -29711   -29711   -29714   -29715 
  -29715   -29716   -29716   -29717   -29719   -29721   -29722   -29725 
  -29729   -29730   -29732   -29735   -29735   -29734   -29737   -29738 
  -29738   -29740   -29742   -29742   -29744   -29746   -29744   -29743 
  -29748   -29751   -29749   -29748   -29749   -29752   -29753   -29752 
  -29752   -29754   -29753   -29754   -29754   -29755   -29754   -29752 
  -29752   -29752   -29752   -29751   -29750   -29749   -29746   -29745 
  -29744   -29742   -29739   -29737   -29735   -29732   -29730   -29728 
  -29727   -29725   -29721   -29720   -29718   -29715   -29714   -29714 
  -29711   -29707   -29706   -29704   -29702   -29699   -29698   -29696 
  -29693   -29692   -29693   -29691   -29686   -29684   -29684   -29680 
  -29677   -29674   -29672   -29669   -29667   -29665   -29664   -29664 
  -29662   -29659   -29657   -29656   -29652   -29650   -29649   -29646 
  -29644   -29644   -29642   -29640   -29640   -29637   -29634   -29631 
  -29632   -29633   -29631   -29629   -29630   -29630   -29629   -29628 
  -29629   -29632   -29633   -29635   -29638   -29641   -29642   -29646 
  -29650   -29653   -29655   -29659   -29664   -29668   -29671   -29675 
  -29681   -29686   -29692   -29700   -29707   -29714   -29723   -29729 
  -29735   -29743   -29750   -29755   -29762   -29770   -29779   -29788 
  -29793   -29801   -29811   -29819   -29826   -29835   -29844   -29853 
  -29861   -29867   -29872   -29879   -29887   -29894   -29897   -29901 
  -29909   -29918   -29923   -29927   -29933   -29937   -29942   -29948 
  -29953   -29957   -29962   -29967   -29968   -29971   -29975   -29979 
  -29981   -29983   -29986   -29986   -29988   -29995   -30000   -30002 
  -30002   -30003   -30006   -30011   -30012   -30012   -30014   -30016 
  -30018   -30019   -30019   -30021   -30023   -30024   -30024   -30024 
  -30023   -30022   -30021   -30021   -30022   -30023   -30019   -30015 
  -30013   -30011   -30008   -30003   -29997   -29993   -29989   -29984 
  -29979   -29974   -29968   -29962   -29957   -29952   -29944   -29935 
  -29928   -29921   -29913   -29903   -29894   -29886   -29878   -29868 
  -29858   -29849   -29840   -29832   -29824   -29815   -29804   -29797 
  -29788   -29778   -29770   -29763   -29753   -29744   -29737   -29730 
  -29723   -29716   -29712   -29708   -29701   -29694   -29689   -29684 
  -29679   -29673   -29667   -29664   -29661   -29657   -29652   -29649 
  -29650   -29651   -29650   -29649   -29648   -29648   -29648   -29648 
  -29648   -29647   -29645   -29645   -29646   -29647   -29646   -29647 
  -29648   -29648   -29649   -29651   -29652   -29654   -29657   -29658 
  -29657   -29656   -29655   -29654   -29654   -29656   -29659   -29658 
  -29658   -29658   -29659   -29661   -29664   -29665   -29664   -29664 
  -29666   -29665   -29667   -29669   -29669   -29670   -29674   -29673 
  -29673   -29676   -29680   -29683   -29687   -29690   -29690   -29694 
  -29700   -29703   -29706   -29711   -29717   -29725   -29731   -29737 
  -29743   -29747   -29753   -29761   -29767   -29774   -29783   -29789 
  -29794   -29803   -29810   -29817   -29826   -29835   -29843   -29851 
  -29856   -29864   -29873   -29880   -29886   -29894   -29903   -29911 
  -29916   -29921   -29929   -29936   -29941   -29944   -29949   -29954 
  -29958   -29963   -29966   -29967   -29970   -29974   -29975   -29975 
  -29977   -29978   -29979   -29982   -29983   -29981   -29981   -29983 
  -29983   -29982   -29982   -29983   -29983   -29985   -29984   -29982 
  -29982   -29984   -29984   -29985   -29985   -29983   -29982   -29984 
  -29984   -29984   -29985   -29984   -29981   -29983   -29985   -29983 
  -29982   -29984   -29984   -29981   -29978   -29978   -29976   -29971 
  -29968   -29967   -29966   -29963   -29959   -29953   -29950   -29946 
  -29941   -29936   -29931   -29926   -29920   -29913   -29908   -29903 
  -29899   -29892   -29883   -29877   -29872   -29866   -29859   -29851 
  -29846   -29841   -29834   -29830   -29828   -29819   -29811   -29809 
  -29804   -29798   -29794   -29788   -29783   -29778   -29773   -29770 
  -29764   -29756   -29751   -29747   -29744   -29739   -29736   -29734 
  -29730   -29725   -29721   -29716   -29711   -29708   -29706   -29702 
  -29697   -29694   -29689   -29682   -29679   -29680   -29679   -29675 
  -29673   -29672   -29670   -29668   -29667   -29665   -29662   -29664 
  -29666   -29666   -29667   -29668   -29668   -29669   -29672   -29674 
  -29677   -29682   -29686   -29688   -29691   -29697   -29701   -29705 
  -29709   -29714   -29717   -29722   -29730   -29736   -29741   -29748 
  -29754   -29755   -29758   -29765   -29771   -29775   -29781   -29784 
  -29787   -29793   -29798   -29802   -29808   -29811   -29814   -29816 
  -29818   -29822   -29826   -29831   -29834   -29835   -29838   -29841 
  -29841   -29844   -29848   -29848   -29848   -29851   -29852   -29851 
  -29853   -29855   -29855   -29856   -29858   -29856   -29857   -29860 
  -29862   -29864   -29864   -29864   -29867   -29869   -29870   -29872 
  -29875   -29874   -29877   -29882   -29884   -29885   -29887   -29890 
