Origin Time       2025/01/13 21:19:00
Lat.              31.8
Long.             131.6
Depth. (km)       30
Mag.              6.9
Station Code      NGNH27
Station Lat.      36.5770
Station Long.     138.0479
Station Height(m) 403
Record Time       2025/01/13 21:23:34
Sampling Freq(Hz) 100Hz
Duration Time(s)  120
Dir.              1
Scale Factor      2940(gal)/6170270
Max. Acc. (gal)   0.134
Last Correction   2025/01/13 21:23:19
Memo.             
[...]
   86478    86475    86470    86471    86468    86465    86466    86465 
   86462    86460    86458    86459    86460    86455    86455    86460 
   86462    86460    86462    86464    86462    86461    86463    86465 
   86469    86471    86471    86473    86478    86482    86483    86482 
   86486    86493    86495    86499    86505    86506    86509    86514 
   86516    86520    86525    86531    86533    86536    86544    86548 
   86549    86557    86563    86564    86569    86577    86581    86585 
   86593    86601    86604    86607    86614    86620    86625    86631 
   86639    86644    86647    86651    86658    86666    86674    86677 
   86679    86686    86695    86699    86703    86711    86717    86719 
   86725    86735    86741    86747    86754    86757    86763    86772 
   86779    86784    86789    86794    86800    86805    86809    86815 
   86825    86831    86834    86840    86846    86850    86856    86861 
   86864    86867    86872    86877    86879    86883    86887    86889 
   86892    86895    86896    86898    86902    86902    86900    86905 
   86912    86910    86909    86910    86909    86908    86910    86911 
   86907    86908    86909    86905    86905    86907    86903    86899 
   86898    86896    86893    86892    86890    86888    86886    86881 
   86876    86873    86868    86864    86861    86859    86861    86857 
   86848    86845    86843    86839    86834    86829    86824    86819 
   86815    86811    86804    86797    86793    86789    86786    86784 
   86777    86767    86763    86761    86754    86749    86749    86747 
   86743    86738    86730    86728    86726    86719    86716    86715 
   86710    86708    86707    86702    86699    86698    86694    86692 
   86690    86686    86686    86686    86682    86681    86680    86678 
   86676    86676    86676    86676    86675    86677    86680    86678 
   86675    86677    86679    86678    86676    86676    86678    86679 
   86681    86683    86681    86681    86684    86682    86683    86688 
   86688    86684    86686    86689    86688    86689    86690    86691 
   86693    86696    86696    86694    86693    86694    86696    86697 
   86697    86697    86697    86698    86699    86700    86699    86695 
   86693    86695    86696    86695    86692    86688    86688    86690 
   86689    86688    86689    86688    86686    86683    86681    86680 
   86678    86675    86675    86673    86670    86672    86671    86665 
   86663    86662    86657    86654    86655    86653    86649    86648 
   86650    86649    86648    86643    86638    86640    86639    86632 
   86630    86632    86627    86624    86624    86620    86618    86619 
   86617    86617    86614    86612    86612    86612    86615    86617 
   86612    86608    86606    86607    86608    86610    86610    86607 
   86604    86609    86612    86610    86607    86609    86612    86612 
   86614    86619    86621    86622    86624    86624    86624    86629 
   86633    86630    86631    86633    86638    86644    86644    86644 
   86648    86648    86650    86659    86664    86663    86665    86673 
   86676    86677    86682    86686    86688    86692    86695    86699 
   86702    86705    86709    86712    86715    86719    86722    86724 
   86728    86731    86733    86738    86743    86745    86749    86752 
   86753    86756    86761    86765    86766    86769    86772    86775 
   86777    86779    86782    86783    86788    86793    86791    86790 
   86794    86796    86799    86800    86801    86802    86803    86803 
   86805    86806    86808    86810    86809    86809    86811    86814 
   86815    86813    86813    86816    86814    86812    86816    86815 
   86811    86813    86813    86809    86811    86812    86808    86806 
   86809    86809    86804    86802    86802    86798    86795    86794 
   86793    86794    86793    86790    86788    86784    86781    86781 
   86780    86778    86776    86772    86769    86771    86772    86767 
   86763    86765    86765    86761    86758    86758    86754    86751 
   86752    86753    86749    86749    86747    86742    86742    86742 
   86739    86740    86738    86732    86731    86733    86728    86724 
   86726    86724    86719    86720    86718    86714    86717    86718 
   86713    86710    86710    86707    86706    86707    86704    86698 
   86696    86697    86695    86691    86691    86692    86687    86682 
   86681    86681    86681    86680    86677    86674    86671    86669 
   86668    86669    86671    86669    86665    86663    86665    86663 
   86659    86661    86663    86659    86658    86658    86658    86658 
   86655    86653    86656    86655    86654    86654    86653    86650 
   86648    86648    86653    86654    86652    86652    86653    86653 
   86654    86655    86656    86658    86654    86652    86655    86655 
   86655    86658    86657    86656    86658    86657    86657    86660 
   86659    86661    86662    86660    86658    86658    86662    86669 
   86666    86663    86668    86670    86670    86673    86674    86674 
   86674    86675    86674    86673    86676    86679    86680    86679 
   86679    86679    86681    86684    86684    86687    86690    86690 
   86692    86694    86693    86696    86701    86702    86702    86706 
   86710    86711    86712    86714    86715    86716    86719    86723 
   86724    86725    86732    86735    86735    86739    86741    86741 
   86744    86747    86750    86752    86754    86757    86761    86766 
   86768    86769    86771    86773    86778    86781    86782    86785 
   86789    86790    86787    86787    86795    86798    86797    86799 
   86804    86808    86807    86808    86807    86805    86810    86814 
   86813    86814    86817    86819    86815    86816    86820    86818 
   86814    86816    86816    86816    86818    86817    86816    86815 
   86814    86813    86815    86815    86814    86812    86809    86809 
   86810    86808    86807    86807    86807    86807    86807    86807 
   86805    86804    86803    86801    86801    86801    86800    86801 
   86798    86795    86797    86798    86797    86795    86793    86791 
   86789    86787    86783    86780    86783    86783    86779    86779 
   86777    86772    86769    86769    86767    86763    86760    86758 
   86753    86748    86748    86746    86738    86734    86731    86725 
   86722    86720    86713    86709    86707    86700    86693    86687 
   86683    86683    86679    86674    86670    86664    86658    86653 
   86649    86646    86642    86636    86633    86630    86624    86617 
   86616    86614    86605    86597    86597    86596    86589    86586 
   86587    86583    86575    86573    86572    86571    86571    86567 
   86560    86559    86561    86561    86561    86559    86556    86555 
   86556    86554    86552    86552    86552    86550    86550    86552 
   86553    86552    86554    86553    86552    86555    86556    86554 
   86553    86555    86557    86559    86559    86556    86556    86558 
   86557    86559    86561    86559    86557    86558    86558    86559 
   86558    86557    86557    86556    86557    86561    86559    86555 
   86554    86553    86550    86551    86553    86554    86553    86550 
   86548    86547    86548    86547    86543    86540    86537    86535 
   86535    86534    86532    86534    86533    86528    86526    86527 
   86523    86521    86520    86517    86516    86514    86512    86513 
   86511    86508    86509    86509    86509    86509    86510    86510 
   86511    86511    86510    86513    86516    86513    86514    86518 
   86519    86522    86526    86527    86527    86530    86536    86538 
   86540    86544    86546    86548    86554    86556    86558    86563 
   86568    86573    86577    86578    86582    86586    86587    86592 
   86599    86603    86606    86609    86615    86620    86624    86632 
   86635    86638    86644    86649    86653    86661    86666    86667 
   86669    86674    86680    86685    86691    86694    86695    86702 
   86707    86709    86715    86719    86720    86725    86727    86729 
   86735    86737    86739    86746    86748    86748    86753    86754 
   86752    86756    86761    86766    86767    86765    86767    86769 
   86767    86766    86770    86773    86772    86773    86775    86774 
   86773    86775    86776    86777    86780    86783    86781    86780 
   86783    86783    86784    86786    86781    86777    86782    86785 
   86784    86785    86786    86786    86786    86785    86787    86787 
   86783    86782    86785    86787    86786    86786    86787    86790 
   86791    86791    86792    86790    86789    86791    86795    86796 
   86794    86793    86795    86793    86791    86794    86793    86790 
   86792    86794    86791    86788    86787    86789    86790    86790 
   86790    86790    86786    86783    86784    86781    86779    86781 
   86781    86775    86771    86772    86770    86765    86766    86765 
   86762    86759    86754    86753    86753    86748    86744    86744 
   86745    86741    86734    86732    86730    86724    86721    86718 
   86714    86711    86710    86703    86697    86697    86691    86686 
   86685    86681    86675    86673    86670    86667    86664    86663 
   86663    86658    86652    86652    86652    86647    86641    86639 
   86638    86636    86631    86628    86627    86626    86623    86620 
   86617    86617    86616    86613    86612    86610    86608    86607 
   86607    86605    86602    86603    86607    86606    86603    86602 
   86598    86598    86601    86596    86596    86602    86602    86598 
   86599    86602    86599    86596    86599    86601    86599    86600 
   86602    86600    86597    86598    86600    86601    86601    86602 
   86603    86601    86600    86602    86604    86605    86605    86603 
   86602    86603    86604    86603    86601    86605    86608    86604 
   86603    86602    86602    86604    86605    86604    86602    86603 
   86606    86606    86605    86605    86604    86605    86605    86603 
   86603    86604    86603    86601    86602    86603    86602    86600 
   86599    86598    86597    86599    86600    86597    86593    86593 
   86592    86591    86594    86591    86588    86590    86588    86586 
   86586    86585    86583    86585    86586    86584    86584    86582 
   86580    86583    86581    86579    86581    86581    86581    86584 
   86582    86581    86585    86585    86584    86589    86591    86590 
   86591    86593    86594    86597    86599    86599    86600    86602 
   86604    86605    86607    86611    86614    86616    86619    86622 
   86626    86632    86635    86636    86639    86642    86642    86647 
   86656    86660    86662    86665    86669    86675    86680    86683 
   86690    86696    86698    86703    86710    86713    86715    86721 
   86727    86732    86737    86742    86745    86750    86757    86763 
   86767    86772    86778    86780    86785    86792    86796    86798 
   86805    86809    86810    86814    86821    86824    86826    86829 
   86833    86837    86837    86839    86844    86848    86852    86858 
   86861    86862    86864    86866    86868    86869    86869    86872 
   86877    86879    86877    86878    86881    86881    86881    86884 
   86886    86885    86882    86883    86886    86884    86882    86882 
   86882    86881    86878    86876    86875    86876    86875    86870 
   86870    86868    86866    86866    86862    86858    86857    86854 
   86850    86851    86850    86846    86842    86837    86836    86834 
   86830    86828    86824    86821    86817    86814    86811    86809 
   86808    86806    86801    86797    86792    86789    86788    86785 
   86781    86777    86773    86771    86769    86767    86765    86762 
   86761    86758    86753    86747    86746    86746    86744    86740 
   86740    86742    86739    86737    86737    86737    86732    86728 
   86730    86729    86726    86728    86729    86725    86723    86724 
   86722    86718    86719    86721    86720    86719    86720    86718 
   86716    86716    86717    86717    86716    86716    86716    86715 
   86715    86715    86714    86716    86717    86716    86719    86722 
   86718    86717    86721    86722    86721    86723    86726    86726 
   86723    86720    86723    86729    86730    86727    86730    86733 
   86733    86736    86735    86735    86738    86737    86737    86744 
   86749    86745    86744    86749    86748    86745    86746    86749 
   86748    86747    86748    86749    86750    86751    86750    86751 
   86751    86748    86748    86750    86750    86750    86748    86750 
   86748    86742    86741    86741    86737    86736    86737    86733 
   86729    86730    86729    86727    86725    86722    86719    86715 
   86708    86706    86706    86702    86698    86696    86693    86689 
   86687    86684    86680    86676    86673    86668    86661    86657 
   86655    86651    86644    86642    86641    86636    86629    86625 
   86621    86617    86612    86606    86600    86596    86593    86589 
   86582    86576    86573    86567    86560    86557    86551    86546 
   86546    86540    86533    86530    86525    86518    86515    86512 
   86506    86502    86499    86489    86483    86483    86476    86470 
   86471    86466    86460    86458    86453    86447    86446    86443 
   86439    86437    86438    86437    86431    86428    86428    86427 
   86425    86423    86421    86420    86421    86422    86421    86421 
   86421    86423    86424    86422    86424    86430    86433    86434 
   86436    86436    86442    86450    86453    86456    86460    86465 
   86469    86476    86481    86484    86489    86496    86503    86509 
   86512    86516    86522    86530    86537    86544    86551    86558 
   86564    86573    86580    86583    86591    86599    86605    86611 
   86618    86625    86635    86641    86644    86654    86665    86668 
   86673    86683    86689    86693    86701    86709    86716    86719 
   86723    86734    86743    86746    86749    86755    86761    86763 
   86769    86776    86779    86783    86790    86795    86798    86803 
   86807    86810    86815    86819    86820    86821    86825    86829 
   86831    86836    86837    86835    86841    86846    86842    86840 
   86841    86841    86845    86849    86846    86844    86845    86843 
   86843    86845    86846    86845    86844    86840    86839    86841 
   86841    86840    86839    86840    86837    86833    86832    86834 
   86834    86834    86834    86832    86832    86832    86828    86827 
   86830    86833    86832    86829    86830    86831    86830    86833 
   86834    86831    86830    86832    86832    86831    86831    86829 
   86831    86837    86840    86840    86843    86845    86846    86850 
   86853    86854    86856    86858    86859    86864    86868    86868 
   86869    86874    86879    86883    86885    86883    86885    86890 
   86892    86895    86897    86898    86905    86907    86906    86908 
   86910    86912    86917    86918    86920    86925    86924    86923 
   86925    86928    86930    86930    86932    86933    86931    86931 
   86930    86928    86928    86928    86926    86925    86923    86920 
   86920    86918    86915    86914    86910    86906    86905    86903 
   86899    86895    86891    86889    86886    86879    86877    86874 
   86864    86860    86861    86855    86847    86844    86842    86835 
   86831    86828    86824    86819    86813    86807    86803    86798 
   86792    86786    86781    86780    86780    86774    86769    86767 
   86761    86756    86754    86751    86747    86740    86734    86733 
   86730    86725    86724    86724    86722    86719    86712    86710 
   86709    86705    86701    86699    86694    86693    86694    86690 
   86687    86690    86689    86686    86686    86683    86679    86681 
   86681    86679    86680    86679    86676    86678    86680    86678 
   86675    86674    86675    86674    86672    86675    86678    86675 
   86673    86675    86674    86674    86672    86670    86671    86671 
   86669    86670    86671    86669    86669    86669    86670    86672 
   86670    86668    86668    86668    86667    86665    86665    86665 
   86663    86660    86662    86664    86664    86665    86663    86662 
   86661    86659    86659    86658    86652    86653    86658    86655 
   86652    86654    86651    86647    86647    86646    86643    86644 
   86645    86641    86641    86641    86638    86638    86642    86641 
   86638    86636    86634    86635    86636    86633    86633    86635 
   86632    86628    86630    86633    86628    86623    86625    86628 
   86625    86621    86622    86622    86620    86619    86617    86616 
   86615    86612    86607    86606    86608    86607    86605    86604 
   86601    86600    86602    86599    86599    86603    86600    86594 
   86595    86596    86593    86594    86596    86595    86596    86597 
   86595    86593    86591    86590    86587    86587    86592    86591 
   86590    86593    86593    86592    86591    86589    86589    86588 
   86585    86586    86588    86588    86587    86587    86589    86592 
   86592    86590    86590    86594    86594    86594    86598    86600 
   86599    86600    86601    86604    86605    86606    86608    86613 
   86614    86613    86615    86617    86621    86625    86625    86626 
   86629    86631    86634    86638    86642    86643    86644    86649 
   86654    86657    86658    86661    86666    86668    86671    86675 
   86677    86680    86683    86685    86688    86690    86693    86697 
   86702    86703    86705    86709    86713    86713    86714    86717 
   86724    86727    86726    86727    86732    86736    86737    86739 
   86743    86744    86747    86749    86750    86754    86758    86757 
   86756    86760    86764    86764    86768    86772    86772    86775 
   86777    86776    86781    86784    86783    86788    86795    86798 
   86799    86800    86798    86801    86808    86810    86810    86810 
   86812    86818    86820    86820    86822    86825    86830    86832 
   86831    86833    86837    86837    86837    86841    86844    86845 
   86846    86844    86842    86845    86849    86849    86847    86849 
   86848    86848    86850    86849    86847    86846    86845    86843 
   86842    86843    86843    86840    86840    86841    86839    86834 
   86833    86835    86835    86831    86827    86826    86825    86820 
   86816    86816    86814    86812    86807    86803    86803    86801 
   86795    86791    86788    86785    86782    86780    86774    86766 
   86762    86762    86759    86756    86751    86747    86743    86735 
   86731    86730    86724    86720    86720    86716    86711    86709 
   86707    86704    86699    86693    86687    86683    86683    86680 
   86676    86674    86672    86668    86665    86662    86658    86655 
   86652    86647    86645    86646    86646    86641    86637    86636 
   86635    86633    86632    86630    86626    86626    86625    86621 
   86620    86619    86619    86620    86619    86618    86618    86617 
   86617    86617    86615    86613    86613    86614    86616    86617 
   86612    86613    86617    86618    86620    86620    86619    86623 
