Origin Time       2025/01/13 21:19:00
Lat.              31.8
Long.             131.6
Depth. (km)       30
Mag.              6.9
Station Code      NGNH24
Station Lat.      35.6152
Station Long.     137.8797
Station Height(m) 715
Record Time       2025/01/13 21:23:14
Sampling Freq(Hz) 100Hz
Duration Time(s)  120
Dir.              6
Scale Factor      3920(gal)/6170801
Max. Acc. (gal)   0.180
Last Correction   2025/01/13 21:22:59
Memo.             
[...]
  -17203   -17201   -17202   -17197   -17191   -17192   -17185   -17174 
  -17173   -17173   -17166   -17159   -17158   -17158   -17151   -17148 
  -17153   -17145   -17135   -17140   -17146   -17138   -17133   -17135 
  -17134   -17131   -17128   -17127   -17130   -17127   -17123   -17129 
  -17127   -17116   -17117   -17128   -17123   -17112   -17119   -17127 
  -17118   -17116   -17120   -17117   -17116   -17115   -17112   -17119 
  -17119   -17110   -17116   -17119   -17108   -17107   -17112   -17109 
  -17102   -17105   -17109   -17102   -17099   -17107   -17108   -17101 
  -17102   -17107   -17109   -17110   -17110   -17112   -17116   -17117 
  -17117   -17119   -17122   -17123   -17127   -17127   -17124   -17129 
  -17136   -17137   -17136   -17140   -17146   -17145   -17141   -17149 
  -17154   -17149   -17153   -17158   -17161   -17166   -17165   -17167 
  -17173   -17171   -17172   -17176   -17176   -17180   -17182   -17183 
  -17188   -17190   -17188   -17191   -17197   -17194   -17193   -17200 
  -17199   -17196   -17204   -17205   -17200   -17200   -17203   -17206 
  -17204   -17203   -17203   -17204   -17210   -17209   -17204   -17203 
  -17206   -17207   -17204   -17200   -17199   -17199   -17198   -17196 
  -17191   -17190   -17193   -17192   -17190   -17189   -17187   -17182 
  -17182   -17184   -17177   -17177   -17179   -17173   -17173   -17174 
  -17173   -17175   -17170   -17168   -17175   -17176   -17171   -17172 
  -17173   -17172   -17172   -17178   -17179   -17175   -17175   -17183 
  -17182   -17177   -17183   -17186   -17182   -17186   -17191   -17190 
  -17189   -17192   -17197   -17199   -17194   -17195   -17204   -17202 
  -17196   -17201   -17206   -17201   -17198   -17201   -17200   -17197 
  -17199   -17198   -17196   -17196   -17196   -17196   -17197   -17196 
  -17194   -17195   -17196   -17198   -17198   -17197   -17197   -17198 
  -17199   -17198   -17195   -17198   -17201   -17198   -17200   -17202 
  -17199   -17201   -17204   -17209   -17211   -17207   -17210   -17217 
  -17216   -17216   -17217   -17217   -17219   -17219   -17219   -17221 
  -17222   -17219   -17220   -17224   -17222   -17218   -17220   -17223 
  -17222   -17218   -17216   -17218   -17216   -17213   -17218   -17216 
  -17210   -17213   -17210   -17203   -17205   -17202   -17195   -17194 
  -17191   -17188   -17187   -17182   -17181   -17187   -17181   -17172 
  -17180   -17183   -17173   -17171   -17177   -17176   -17170   -17173 
  -17177   -17170   -17168   -17169   -17165   -17164   -17162   -17163 
  -17169   -17162   -17153   -17158   -17160   -17154   -17155   -17158 
  -17159   -17156   -17156   -17157   -17153   -17150   -17148   -17151 
  -17154   -17143   -17137   -17145   -17139   -17129   -17134   -17134 
  -17126   -17124   -17125   -17124   -17122   -17118   -17118   -17116 
  -17111   -17110   -17115   -17113   -17105   -17109   -17115   -17111 
  -17109   -17111   -17111   -17113   -17112   -17110   -17112   -17110 
  -17109   -17111   -17105   -17102   -17107   -17104   -17104   -17106 
  -17102   -17104   -17106   -17104   -17108   -17111   -17110   -17114 
  -17120   -17123   -17122   -17126   -17131   -17129   -17130   -17136 
  -17135   -17133   -17139   -17144   -17139   -17140   -17147   -17143 
  -17144   -17152   -17152   -17152   -17155   -17153   -17153   -17157 
  -17155   -17152   -17157   -17156   -17153   -17160   -17163   -17161 
  -17167   -17169   -17166   -17173   -17177   -17176   -17180   -17181 
  -17176   -17181   -17189   -17186   -17187   -17191   -17188   -17188 
  -17191   -17192   -17192   -17194   -17197   -17196   -17196   -17199 
  -17202   -17205   -17201   -17203   -17215   -17216   -17211   -17217 
  -17219   -17218   -17220   -17222   -17225   -17224   -17223   -17232 
  -17237   -17234   -17241   -17248   -17246   -17246   -17248   -17251 
  -17251   -17246   -17247   -17251   -17247   -17243   -17248   -17250 
  -17243   -17244   -17250   -17250   -17246   -17247   -17251   -17250 
  -17252   -17255   -17256   -17258   -17258   -17258   -17261   -17259 
  -17258   -17258   -17255   -17253   -17250   -17247   -17246   -17243 
  -17240   -17243   -17242   -17238   -17243   -17244   -17241   -17245 
  -17249   -17250   -17250   -17250   -17252   -17252   -17245   -17240 
  -17243   -17242   -17233   -17232   -17232   -17220   -17213   -17216 
  -17211   -17204   -17205   -17201   -17197   -17202   -17199   -17195 
  -17198   -17196   -17193   -17194   -17189   -17190   -17194   -17185 
  -17177   -17177   -17177   -17170   -17161   -17162   -17162   -17152 
  -17150   -17153   -17146   -17143   -17148   -17147   -17141   -17143 
  -17144   -17145   -17148   -17146   -17142   -17143   -17141   -17136 
  -17139   -17137   -17127   -17127   -17129   -17120   -17117   -17118 
  -17111   -17107   -17104   -17100   -17102   -17101   -17092   -17094 
  -17098   -17090   -17085   -17088   -17085   -17083   -17084   -17081 
  -17080   -17080   -17080   -17084   -17087   -17088   -17091   -17092 
  -17092   -17093   -17095   -17094   -17093   -17093   -17096   -17098 
  -17098   -17101   -17103   -17104   -17100   -17101   -17113   -17116 
  -17113   -17119   -17126   -17128   -17132   -17134   -17134   -17136 
  -17140   -17144   -17144   -17143   -17143   -17150   -17156   -17153 
  -17155   -17165   -17165   -17160   -17164   -17165   -17162   -17164 
  -17162   -17160   -17161   -17158   -17163   -17170   -17167   -17167 
  -17173   -17177   -17173   -17172   -17180   -17177   -17171   -17179 
  -17183   -17176   -17182   -17192   -17189   -17186   -17191   -17195 
  -17193   -17196   -17202   -17201   -17200   -17202   -17208   -17211 
  -17204   -17205   -17213   -17206   -17200   -17207   -17204   -17196 
  -17197   -17198   -17194   -17192   -17194   -17196   -17192   -17190 
  -17191   -17187   -17184   -17181   -17176   -17173   -17169   -17166 
  -17168   -17168   -17162   -17158   -17161   -17165   -17161   -17157 
  -17157   -17153   -17146   -17151   -17153   -17145   -17145   -17147 
  -17146   -17148   -17142   -17140   -17146   -17139   -17139   -17144 
  -17133   -17127   -17135   -17133   -17124   -17126   -17129   -17127 
  -17129   -17127   -17124   -17129   -17128   -17125   -17133   -17131 
  -17122   -17131   -17137   -17128   -17126   -17133   -17135   -17134 
  -17135   -17140   -17144   -17142   -17144   -17153   -17156   -17154 
  -17162   -17170   -17170   -17170   -17177   -17187   -17186   -17183 
  -17192   -17196   -17192   -17196   -17202   -17200   -17198   -17205 
  -17214   -17214   -17211   -17218   -17224   -17225   -17227   -17229 
  -17233   -17234   -17232   -17238   -17244   -17245   -17246   -17246 
  -17250   -17252   -17250   -17251   -17247   -17239   -17242   -17240 
  -17230   -17224   -17222   -17223   -17219   -17214   -17217   -17215 
  -17208   -17214   -17215   -17205   -17203   -17202   -17196   -17194 
  -17188   -17186   -17190   -17182   -17177   -17179   -17179   -17174 
  -17167   -17162   -17157   -17152   -17150   -17144   -17135   -17137 
  -17140   -17136   -17134   -17134   -17137   -17141   -17139   -17136 
  -17139   -17140   -17137   -17136   -17137   -17138   -17139   -17135 
  -17131   -17131   -17129   -17130   -17128   -17120   -17121   -17122 
  -17116   -17118   -17121   -17116   -17116   -17119   -17119   -17122 
  -17125   -17120   -17122   -17127   -17120   -17116   -17124   -17123 
  -17113   -17115   -17120   -17111   -17109   -17121   -17119   -17108 
  -17114   -17121   -17122   -17126   -17123   -17124   -17135   -17135 
  -17134   -17142   -17135   -17133   -17149   -17148   -17138   -17146 
  -17157   -17159   -17155   -17156   -17163   -17165   -17162   -17170 
  -17175   -17169   -17171   -17178   -17180   -17183   -17182   -17182 
  -17186   -17186   -17186   -17190   -17190   -17186   -17188   -17193 
  -17187   -17181   -17188   -17193   -17185   -17186   -17192   -17187 
  -17182   -17184   -17185   -17179   -17172   -17172   -17176   -17170 
  -17164   -17168   -17168   -17163   -17162   -17159   -17155   -17153 
  -17150   -17154   -17154   -17142   -17138   -17149   -17149   -17139 
  -17138   -17140   -17137   -17138   -17137   -17134   -17135   -17132 
  -17133   -17137   -17127   -17129   -17140   -17134   -17129   -17138 
  -17142   -17138   -17140   -17142   -17139   -17141   -17147   -17147 
  -17146   -17148   -17148   -17150   -17160   -17164   -17162   -17168 
  -17175   -17175   -17179   -17183   -17179   -17177   -17183   -17180 
  -17179   -17187   -17185   -17181   -17184   -17183   -17185   -17189 
  -17189   -17191   -17193   -17187   -17192   -17201   -17193   -17190 
  -17202   -17201   -17195   -17200   -17200   -17198   -17201   -17197 
  -17193   -17198   -17191   -17184   -17190   -17183   -17170   -17173 
  -17177   -17172   -17168   -17170   -17170   -17165   -17159   -17162 
  -17168   -17159   -17155   -17162   -17160   -17157   -17159   -17157 
  -17156   -17157   -17156   -17155   -17154   -17153   -17153   -17152 
  -17154   -17156   -17155   -17159   -17161   -17162   -17164   -17165 
  -17164   -17165   -17169   -17169   -17167   -17174   -17178   -17176 
  -17181   -17188   -17193   -17193   -17195   -17202   -17202   -17204 
  -17209   -17208   -17212   -17214   -17211   -17215   -17216   -17208 
  -17209   -17219   -17213   -17205   -17210   -17210   -17203   -17205 
  -17208   -17202   -17201   -17207   -17205   -17198   -17200   -17204 
  -17202   -17198   -17200   -17205   -17204   -17201   -17198   -17194 
  -17196   -17192   -17184   -17190   -17190   -17176   -17175   -17179 
  -17171   -17163   -17163   -17165   -17160   -17154   -17159   -17159 
  -17147   -17149   -17160   -17154   -17149   -17153   -17154   -17153 
  -17150   -17151   -17156   -17150   -17140   -17145   -17148   -17143 
  -17144   -17144   -17136   -17134   -17137   -17136   -17128   -17127 
  -17134   -17130   -17121   -17123   -17129   -17132   -17130   -17127 
  -17133   -17134   -17127   -17133   -17139   -17129   -17125   -17137 
  -17135   -17124   -17125   -17133   -17131   -17126   -17132   -17137 
  -17134   -17133   -17137   -17140   -17141   -17142   -17148   -17151 
  -17150   -17156   -17165   -17169   -17167   -17169   -17179   -17182 
  -17177   -17178   -17184   -17187   -17186   -17191   -17197   -17195 
  -17195   -17205   -17208   -17204   -17212   -17217   -17212   -17217 
  -17220   -17216   -17218   -17221   -17223   -17226   -17225   -17228 
  -17233   -17232   -17232   -17234   -17236   -17234   -17228   -17230 
  -17234   -17230   -17230   -17237   -17237   -17231   -17239   -17247 
  -17237   -17232   -17233   -17228   -17224   -17222   -17216   -17214 
  -17208   -17202   -17207   -17208   -17200   -17200   -17199   -17189 
  -17186   -17185   -17180   -17176   -17169   -17166   -17168   -17168 
  -17166   -17163   -17162   -17162   -17157   -17151   -17147   -17140 
  -17134   -17134   -17130   -17119   -17115   -17116   -17113   -17109 
  -17109   -17109   -17104   -17102   -17103   -17102   -17101   -17099 
  -17101   -17107   -17104   -17105   -17110   -17106   -17102   -17104 
  -17102   -17097   -17092   -17087   -17087   -17091   -17088   -17084 
  -17093   -17094   -17085   -17095   -17105   -17095   -17091   -17096 
  -17090   -17088   -17093   -17093   -17094   -17095   -17097   -17101 
  -17100   -17096   -17096   -17096   -17088   -17083   -17084   -17084 
  -17077   -17071   -17078   -17082   -17075   -17079   -17085   -17085 
  -17092   -17089   -17084   -17090   -17092   -17093   -17096   -17093 
  -17096   -17102   -17101   -17103   -17113   -17117   -17112   -17114 
  -17127   -17128   -17118   -17120   -17125   -17120   -17120   -17125 
  -17129   -17130   -17129   -17135   -17141   -17137   -17139   -17149 
  -17150   -17150   -17160   -17167   -17167   -17167   -17170   -17177 
  -17178   -17170   -17173   -17179   -17177   -17178   -17183   -17187 
  -17186   -17185   -17194   -17201   -17196   -17198   -17205   -17195 
  -17188   -17198   -17196   -17186   -17188   -17191   -17196   -17197 
  -17196   -17205   -17208   -17202   -17209   -17218   -17210   -17207 
  -17215   -17217   -17213   -17215   -17219   -17216   -17217   -17225 
  -17224   -17222   -17225   -17222   -17222   -17224   -17219   -17219 
  -17222   -17215   -17208   -17213   -17215   -17205   -17206   -17211 
  -17205   -17209   -17212   -17205   -17203   -17204   -17202   -17201 
  -17201   -17201   -17197   -17198   -17200   -17196   -17197   -17202 
  -17196   -17194   -17200   -17200   -17199   -17201   -17202   -17201 
  -17207   -17212   -17209   -17210   -17212   -17211   -17213   -17213 
  -17216   -17222   -17218   -17218   -17226   -17228   -17229   -17231 
  -17234   -17237   -17236   -17242   -17250   -17247   -17249   -17258 
  -17260   -17261   -17264   -17264   -17268   -17273   -17272   -17271 
  -17275   -17274   -17272   -17275   -17278   -17277   -17275   -17278 
  -17280   -17275   -17275   -17277   -17272   -17272   -17274   -17270 
  -17269   -17269   -17264   -17261   -17261   -17251   -17245   -17247 
  -17236   -17228   -17230   -17218   -17205   -17204   -17196   -17185 
  -17179   -17169   -17161   -17157   -17143   -17129   -17125   -17117 
  -17099   -17091   -17089   -17074   -17063   -17059   -17045   -17033 
  -17025   -17015   -17005   -16993   -16984   -16978   -16965   -16953 
  -16950   -16944   -16932   -16927   -16923   -16913   -16911   -16912 
  -16903   -16899   -16901   -16896   -16896   -16899   -16889   -16888 
  -16896   -16889   -16884   -16893   -16894   -16888   -16890   -16896 
  -16899   -16899   -16900   -16903   -16904   -16908   -16916   -16916 
  -16916   -16923   -16931   -16935   -16935   -16940   -16952   -16955 
  -16955   -16964   -16976   -16981   -16982   -16991   -17003   -17004 
  -17012   -17028   -17032   -17034   -17045   -17056   -17065   -17074 
  -17079   -17086   -17095   -17102   -17114   -17125   -17129   -17132 
  -17145   -17158   -17162   -17170   -17184   -17191   -17197   -17210 
  -17219   -17228   -17240   -17250   -17257   -17265   -17275   -17286 
  -17296   -17304   -17307   -17316   -17329   -17331   -17337   -17348 
  -17348   -17356   -17371   -17372   -17373   -17382   -17391   -17397 
  -17397   -17402   -17415   -17418   -17418   -17425   -17426   -17426 
  -17434   -17436   -17432   -17437   -17440   -17436   -17436   -17441 
  -17437   -17436   -17442   -17436   -17431   -17439   -17437   -17429 
  -17431   -17428   -17421   -17419   -17418   -17414   -17407   -17401 
  -17398   -17393   -17384   -17376   -17375   -17371   -17359   -17352 
  -17350   -17340   -17329   -17327   -17324   -17309   -17293   -17292 
  -17289   -17274   -17266   -17260   -17248   -17241   -17236   -17224 
  -17213   -17206   -17198   -17196   -17189   -17173   -17173   -17175 
  -17158   -17151   -17153   -17145   -17134   -17129   -17128   -17122 
  -17116   -17115   -17115   -17112   -17111   -17111   -17107   -17105 
  -17107   -17105   -17101   -17103   -17104   -17103   -17103   -17099 
  -17097   -17101   -17101   -17095   -17093   -17099   -17100   -17092 
  -17092   -17097   -17097   -17099   -17099   -17096   -17096   -17096 
  -17097   -17094   -17091   -17094   -17095   -17090   -17087   -17088 
  -17087   -17082   -17082   -17087   -17083   -17079   -17083   -17082 
  -17076   -17077   -17076   -17070   -17071   -17072   -17069   -17065 
  -17061   -17062   -17064   -17060   -17057   -17058   -17056   -17052 
  -17052   -17055   -17055   -17054   -17054   -17054   -17053   -17053 
  -17053   -17052   -17054   -17053   -17049   -17055   -17055   -17049 
  -17058   -17064   -17054   -17056   -17068   -17064   -17060   -17069 
  -17072   -17072   -17077   -17077   -17080   -17085   -17081   -17080 
  -17084   -17079   -17075   -17084   -17087   -17076   -17080   -17087 
  -17077   -17074   -17080   -17076   -17074   -17079   -17075   -17072 
  -17076   -17071   -17068   -17071   -17068   -17062   -17065   -17065 
  -17056   -17055   -17060   -17053   -17045   -17046   -17045   -17040 
  -17036   -17035   -17034   -17030   -17028   -17029   -17026   -17022 
  -17026   -17029   -17026   -17028   -17032   -17031   -17034   -17039 
  -17038   -17042   -17048   -17049   -17055   -17061   -17058   -17060 
  -17070   -17072   -17075   -17088   -17089   -17085   -17099   -17110 
  -17110   -17113   -17122   -17131   -17135   -17137   -17147   -17157 
  -17159   -17166   -17175   -17182   -17188   -17191   -17199   -17210 
  -17213   -17216   -17228   -17236   -17236   -17242   -17251   -17253 
  -17258   -17264   -17266   -17269   -17274   -17275   -17277   -17279 
  -17278   -17284   -17288   -17284   -17287   -17293   -17294   -17294 
  -17293   -17294   -17300   -17297   -17293   -17301   -17301   -17295 
  -17301   -17303   -17298   -17299   -17299   -17298   -17304   -17303 
  -17299   -17305   -17308   -17305   -17309   -17313   -17307   -17308 
  -17315   -17311   -17307   -17312   -17307   -17299   -17303   -17300 
  -17291   -17294   -17292   -17286   -17288   -17286   -17282   -17280 
  -17277   -17275   -17269   -17265   -17262   -17253   -17251   -17246 
  -17236   -17234   -17231   -17223   -17215   -17215   -17212   -17198 
  -17191   -17192   -17184   -17173   -17167   -17163   -17154   -17142 
  -17139   -17134   -17123   -17116   -17110   -17101   -17094   -17088 
  -17082   -17077   -17066   -17062   -17065   -17060   -17050   -17047 
  -17045   -17037   -17034   -17036   -17031   -17024   -17021   -17021 
  -17024   -17019   -17011   -17014   -17016   -17009   -17009   -17017 
  -17014   -17007   -17017   -17023   -17017   -17021   -17026   -17025 
  -17027   -17028   -17030   -17032   -17031   -17036   -17039   -17035 
  -17038   -17049   -17048   -17043   -17049   -17057   -17058   -17056 
  -17058   -17063   -17059   -17059   -17066   -17066   -17067   -17066 
  -17064   -17070   -17072   -17068   -17072   -17076   -17073   -17072 
  -17077   -17079   -17072   -17073   -17081   -17077   -17077   -17087 
  -17086   -17086   -17095   -17096   -17098   -17107   -17107   -17109 
  -17120   -17120   -17119   -17132   -17137   -17135   -17143   -17152 
  -17155   -17159   -17166   -17173   -17177   -17182   -17189   -17193 
  -17199   -17207   -17217   -17224   -17226   -17232   -17241   -17243 
  -17248   -17257   -17262   -17266   -17266   -17271   -17280   -17279 
  -17280   -17289   -17288   -17287   -17296   -17298   -17293   -17294 
  -17299   -17296   -17294   -17296   -17293   -17291   -17294   -17289 
  -17287   -17289   -17287   -17286   -17287   -17285   -17283   -17280 
  -17282   -17285   -17280   -17278   -17283   -17280   -17276   -17283 
  -17283   -17273   -17272   -17278   -17276   -17272   -17272   -17273 
  -17273   -17270   -17269   -17271   -17270   -17270   -17274   -17269 
  -17264   -17267   -17269   -17268   -17264   -17262   -17265   -17261 
  -17254   -17256   -17255   -17250   -17247   -17243   -17242   -17240 
  -17233   -17232   -17231   -17224   -17221   -17222   -17213   -17205 
  -17207   -17204   -17195   -17190   -17188   -17189   -17183   -17175 
  -17171   -17167   -17162   -17158   -17157   -17152   -17145   -17144 
  -17140   -17135   -17131   -17127   -17122   -17114   -17112   -17113 
  -17103   -17096   -17093   -17086   -17083   -17082   -17077   -17070 
  -17067   -17065   -17063   -17059   -17055   -17052   -17047   -17044 
