Origin Time       2025/01/13 21:19:00
Lat.              31.8
Long.             131.6
Depth. (km)       30
Mag.              6.9
Station Code      NGNH24
Station Lat.      35.6152
Station Long.     137.8797
Station Height(m) 608
Record Time       2025/01/13 21:23:14
Sampling Freq(Hz) 100Hz
Duration Time(s)  120
Dir.              1
Scale Factor      2940(gal)/6170270
Max. Acc. (gal)   0.184
Last Correction   2025/01/13 21:22:59
Memo.             
[...]
    5068     5068     5064     5068     5070     5064     5065     5067 
    5067     5067     5063     5064     5070     5069     5067     5071 
    5068     5065     5074     5075     5071     5080     5081     5075 
    5081     5081     5079     5088     5088     5086     5093     5093 
    5091     5097     5094     5090     5096     5104     5107     5110 
    5112     5114     5115     5116     5116     5115     5120     5125 
    5123     5121     5129     5138     5136     5138     5145     5138 
    5138     5145     5150     5158     5156     5152     5161     5163 
    5162     5161     5163     5174     5176     5168     5174     5182 
    5175     5173     5184     5188     5186     5190     5191     5189 
    5195     5200     5193     5196     5205     5196     5192     5198 
    5198     5202     5204     5201     5203     5201     5199     5203 
    5200     5198     5202     5198     5198     5206     5204     5198 
    5196     5198     5202     5196     5189     5190     5189     5191 
    5194     5187     5181     5180     5185     5189     5180     5175 
    5179     5174     5176     5178     5164     5161     5166     5161 
    5158     5155     5147     5146     5147     5140     5137     5138 
    5134     5128     5129     5127     5116     5115     5121     5114 
    5112     5116     5113     5111     5109     5107     5113     5113 
    5107     5111     5111     5101     5106     5118     5110     5102 
    5107     5110     5107     5107     5112     5111     5107     5111 
    5117     5119     5122     5121     5121     5126     5124     5127 
    5138     5132     5127     5140     5144     5136     5140     5150 
    5144     5139     5148     5151     5150     5154     5155     5155 
    5157     5158     5159     5156     5158     5164     5163     5168 
    5174     5166     5166     5169     5161     5162     5169     5170 
    5164     5159     5161     5161     5159     5158     5161     5162 
    5152     5149     5153     5152     5154     5151     5148     5150 
    5148     5149     5148     5141     5141     5142     5136     5134 
    5136     5132     5126     5124     5125     5120     5115     5120 
    5120     5112     5108     5108     5109     5108     5108     5107 
    5102     5100     5101     5095     5092     5099     5102     5094 
    5094     5096     5090     5091     5097     5093     5090     5092 
    5093     5091     5087     5091     5093     5084     5081     5088 
    5094     5091     5084     5086     5089     5087     5088     5087 
    5086     5089     5086     5082     5082     5081     5080     5079 
    5081     5081     5078     5075     5075     5083     5081     5073 
    5076     5077     5071     5070     5071     5071     5073     5076 
    5080     5077     5074     5077     5079     5081     5083     5076 
    5077     5082     5076     5080     5089     5087     5087     5090 
    5095     5097     5096     5101     5109     5109     5111     5120 
    5119     5114     5122     5129     5135     5142     5143     5143 
    5148     5155     5158     5164     5169     5167     5169     5179 
    5184     5188     5192     5192     5194     5195     5201     5212 
    5212     5212     5220     5217     5218     5235     5235     5230 
    5244     5245     5238     5244     5246     5245     5251     5259 
    5263     5259     5257     5265     5271     5271     5267     5262 
    5270     5279     5272     5264     5271     5274     5270     5274 
    5272     5266     5271     5279     5276     5268     5265     5263 
    5261     5260     5258     5253     5251     5250     5239     5231 
    5233     5228     5215     5208     5206     5200     5190     5183 
    5179     5170     5166     5168     5165     5159     5152     5147 
    5148     5142     5131     5129     5129     5120     5110     5106 
    5103     5096     5095     5096     5086     5081     5083     5078 
    5079     5080     5068     5067     5070     5061     5061     5065 
    5057     5052     5059     5059     5058     5062     5057     5053 
    5058     5058     5056     5056     5054     5057     5063     5060 
    5057     5066     5074     5072     5074     5079     5080     5085 
    5091     5089     5092     5098     5100     5105     5108     5110 
    5115     5116     5119     5119     5118     5125     5128     5132 
    5138     5137     5149     5153     5141     5147     5158     5156 
    5156     5159     5162     5161     5160     5168     5174     5171 
    5172     5180     5186     5190     5192     5192     5191     5193 
    5198     5200     5200     5203     5207     5207     5206     5206 
    5212     5215     5212     5213     5211     5208     5211     5211 
    5216     5221     5217     5215     5220     5223     5221     5219 
    5217     5220     5220     5213     5214     5218     5215     5213 
    5212     5210     5207     5198     5200     5205     5194     5189 
    5191     5183     5179     5178     5167     5160     5161     5154 
    5148     5148     5141     5133     5133     5128     5121     5120 
    5118     5107     5104     5107     5101     5099     5100     5095 
    5090     5087     5087     5088     5083     5077     5076     5075 
    5077     5076     5067     5064     5072     5071     5064     5065 
    5063     5061     5066     5066     5056     5056     5063     5057 
    5054     5060     5055     5054     5060     5054     5053     5060 
    5052     5048     5057     5056     5053     5057     5055     5057 
    5060     5058     5062     5062     5060     5064     5061     5059 
    5063     5063     5066     5070     5071     5073     5075     5077 
    5080     5079     5075     5078     5083     5083     5085     5087 
    5086     5091     5098     5095     5097     5103     5108     5106 
    5100     5109     5116     5110     5115     5129     5133     5135 
    5136     5141     5147     5153     5163     5168     5172     5185 
    5188     5187     5197     5205     5210     5217     5218     5221 
    5232     5239     5239     5248     5258     5256     5261     5277 
    5278     5276     5286     5291     5289     5298     5308     5315 
    5318     5318     5326     5331     5335     5341     5343     5352 
    5359     5358     5362     5369     5370     5369     5374     5378 
    5378     5387     5391     5385     5386     5391     5389     5382 
    5385     5394     5390     5383     5385     5387     5380     5370 
    5369     5368     5360     5357     5351     5340     5332     5328 
    5326     5317     5305     5302     5296     5286     5279     5270 
    5262     5257     5248     5239     5231     5225     5221     5209 
    5199     5197     5188     5176     5174     5167     5159     5157 
    5145     5135     5135     5125     5113     5113     5108     5095 
    5084     5079     5077     5071     5064     5055     5049     5050 
    5046     5036     5034     5037     5031     5025     5021     5018 
    5016     5012     5008     5009     5007     5003     5002     5004 
    5006     5002     4994     4993     4995     4998     5001     4997 
    4993     4992     4990     4995     5000     4995     4996     5004 
    4999     4997     5002     4998     4998     5004     5006     5014 
    5017     5008     5009     5015     5010     5015     5025     5023 
    5020     5023     5028     5035     5035     5030     5038     5056 
    5058     5052     5060     5062     5058     5066     5070     5074 
    5079     5081     5089     5091     5089     5096     5104     5106 
    5104     5103     5110     5114     5114     5120     5122     5116 
    5123     5136     5133     5131     5141     5141     5133     5138 
    5143     5141     5146     5148     5146     5146     5143     5148 
    5154     5151     5150     5150     5142     5145     5154     5149 
    5146     5155     5151     5146     5153     5152     5146     5151 
    5153     5148     5149     5148     5147     5152     5146     5145 
    5158     5159     5153     5154     5156     5160     5160     5155 
    5156     5159     5155     5154     5159     5161     5163     5162 
    5165     5172     5170     5168     5171     5171     5168     5168 
    5175     5179     5175     5177     5183     5180     5180     5187 
    5183     5179     5184     5188     5196     5192     5180     5189 
    5201     5194     5193     5204     5202     5195     5203     5209 
    5205     5205     5211     5210     5205     5213     5222     5213 
    5208     5214     5212     5205     5202     5207     5211     5202 
    5202     5206     5201     5201     5201     5198     5201     5204 
    5206     5204     5201     5201     5200     5197     5196     5198 
    5195     5193     5198     5201     5199     5200     5199     5200 
    5206     5208     5198     5199     5209     5205     5202     5214 
    5216     5213     5217     5222     5225     5226     5226     5229 
    5235     5235     5233     5236     5235     5240     5247     5243 
    5244     5251     5244     5249     5268     5262     5251     5264 
    5270     5262     5266     5270     5271     5274     5277     5279 
    5279     5279     5283     5289     5289     5285     5288     5293 
    5294     5294     5296     5297     5296     5297     5301     5305 
    5304     5300     5305     5310     5298     5291     5296     5294 
    5288     5292     5291     5283     5289     5296     5287     5282 
    5282     5275     5278     5283     5272     5261     5263     5264 
    5263     5259     5245     5236     5244     5252     5240     5227 
    5226     5226     5218     5211     5207     5198     5191     5191 
    5184     5170     5163     5165     5164     5150     5136     5138 
    5138     5123     5116     5116     5106     5101     5101     5091 
    5084     5084     5076     5067     5064     5056     5051     5053 
    5048     5038     5040     5047     5041     5029     5031     5030 
    5020     5023     5031     5021     5013     5023     5029     5022 
    5019     5025     5026     5024     5028     5030     5031     5036 
    5035     5038     5043     5045     5052     5056     5057     5065 
    5069     5071     5075     5077     5082     5090     5090     5093 
    5101     5105     5111     5117     5117     5127     5142     5144 
    5143     5153     5162     5163     5170     5177     5180     5183 
    5191     5200     5204     5206     5213     5216     5217     5223 
    5228     5230     5233     5237     5242     5241     5239     5248 
    5254     5260     5267     5259     5252     5262     5266     5269 
    5269     5261     5266     5272     5266     5264     5264     5260 
    5255     5254     5256     5251     5248     5257     5254     5241 
    5250     5256     5242     5246     5256     5247     5251     5260 
    5255     5251     5249     5250     5258     5255     5250     5256 
    5258     5254     5256     5256     5255     5256     5261     5261 
    5255     5251     5258     5264     5261     5254     5259     5267 
    5261     5259     5264     5264     5262     5260     5263     5266 
    5259     5253     5255     5252     5248     5247     5245     5240 
    5233     5233     5228     5219     5218     5215     5207     5209 
    5210     5201     5193     5193     5192     5189     5185     5184 
    5184     5176     5173     5176     5169     5168     5172     5167 
    5163     5160     5157     5164     5162     5147     5150     5157 
    5152     5152     5152     5152     5157     5155     5158     5165 
    5158     5161     5176     5177     5174     5177     5181     5187 
    5192     5199     5206     5214     5219     5217     5221     5234 
    5237     5239     5247     5250     5256     5265     5266     5270 
    5278     5283     5290     5295     5303     5311     5308     5313 
    5328     5330     5329     5339     5347     5348     5358     5365 
    5364     5371     5375     5373     5381     5384     5380     5382 
    5388     5387     5386     5395     5403     5398     5395     5407 
    5409     5398     5397     5400     5401     5404     5404     5401 
    5396     5396     5397     5397     5392     5382     5381     5383 
    5376     5370     5367     5360     5354     5349     5341     5329 
    5323     5323     5313     5300     5294     5286     5275     5266 
    5259     5247     5231     5224     5221     5211     5199     5191 
    5182     5171     5158     5145     5136     5124     5113     5102 
    5089     5080     5070     5055     5041     5029     5021     5009 
    4994     4986     4974     4959     4951     4938     4919     4910 
    4906     4896     4886     4877     4867     4861     4855     4842 
    4837     4835     4824     4817     4816     4813     4810     4804 
    4801     4802     4798     4799     4802     4801     4803     4802 
    4799     4804     4808     4808     4813     4818     4825     4832 
    4839     4847     4853     4858     4870     4878     4883     4897 
    4908     4919     4932     4938     4949     4963     4969     4985 
    5003     5005     5015     5039     5047     5059     5079     5087 
    5099     5117     5128     5146     5160     5163     5180     5199 
    5207     5227     5247     5250     5264     5284     5289     5300 
    5323     5339     5341     5351     5374     5382     5390     5408 
    5413     5421     5435     5443     5457     5463     5463     5478 
    5488     5497     5507     5507     5513     5525     5523     5528 
    5538     5536     5541     5550     5546     5543     5549     5547 
    5547     5549     5542     5538     5539     5540     5538     5528 
    5523     5529     5524     5513     5509     5507     5501     5493 
    5487     5484     5478     5468     5460     5462     5457     5440 
    5434     5434     5426     5416     5406     5399     5397     5386 
    5377     5375     5361     5348     5348     5339     5329     5327 
    5312     5295     5295     5284     5266     5264     5257     5243 
    5235     5221     5206     5203     5198     5181     5171     5169 
    5155     5144     5144     5133     5117     5114     5106     5096 
    5092     5087     5088     5080     5060     5062     5059     5044 
    5052     5050     5031     5034     5032     5024     5028     5024 
    5014     5013     5013     5009     5006     5005     5001     4995 
    4998     4999     4996     4991     4986     4988     4987     4978 
    4979     4978     4974     4979     4977     4970     4968     4967 
    4972     4975     4963     4960     4966     4959     4954     4959 
    4956     4956     4956     4951     4953     4953     4945     4946 
    4950     4945     4949     4951     4944     4945     4948     4947 
    4948     4946     4946     4948     4941     4939     4948     4943 
    4941     4952     4948     4940     4940     4942     4941     4936 
    4936     4940     4938     4939     4939     4933     4937     4940 
    4933     4937     4943     4942     4944     4948     4951     4955 
    4960     4961     4966     4977     4985     4987     4990     5000 
    5009     5016     5027     5034     5043     5056     5064     5074 
    5087     5093     5100     5114     5129     5136     5144     5164 
    5176     5178     5190     5209     5219     5228     5242     5259 
    5270     5278     5288     5300     5315     5328     5333     5339 
    5355     5369     5372     5380     5395     5403     5410     5419 
    5429     5439     5445     5450     5458     5460     5464     5477 
    5482     5479     5482     5487     5488     5491     5491     5492 
    5494     5491     5491     5489     5484     5485     5479     5469 
    5465     5458     5450     5444     5436     5429     5419     5409 
    5404     5394     5385     5376     5363     5351     5342     5329 
    5317     5305     5292     5280     5270     5263     5251     5230 
    5218     5213     5204     5196     5180     5166     5161     5148 
    5138     5133     5122     5113     5104     5093     5086     5075 
    5065     5064     5058     5050     5043     5035     5031     5026 
    5020     5019     5015     5007     5007     5003     4995     4998 
    5002     4996     4996     5000     4997     4990     4992     5000 
    5000     4999     5004     5004     5007     5014     5012     5012 
    5021     5021     5019     5025     5029     5030     5031     5034 
    5038     5038     5039     5042     5046     5048     5046     5048 
    5048     5043     5046     5049     5049     5050     5050     5052 
    5054     5045     5042     5051     5050     5047     5051     5049 
    5047     5053     5054     5045     5046     5055     5056     5054 
    5062     5065     5057     5059     5065     5063     5063     5067 
    5071     5074     5074     5076     5080     5080     5086     5092 
    5091     5098     5106     5114     5120     5116     5120     5131 
    5138     5150     5156     5155     5164     5174     5178     5188 
    5198     5203     5209     5214     5224     5237     5242     5246 
    5254     5262     5267     5271     5281     5291     5295     5299 
    5306     5312     5316     5321     5331     5336     5333     5337 
    5348     5347     5347     5352     5353     5358     5362     5355 
    5358     5365     5361     5361     5362     5357     5360     5359 
    5352     5350     5347     5340     5337     5335     5330     5321 
    5314     5311     5306     5297     5290     5284     5277     5270 
    5260     5253     5248     5239     5231     5224     5214     5203 
    5197     5188     5180     5172     5157     5151     5151     5140 
    5123     5117     5115     5107     5094     5083     5081     5083 
    5070     5056     5052     5048     5040     5032     5029     5030 
    5021     5009     5009     5012     5008     5002     4996     4998 
    5001     5000     5000     4998     4998     5002     5003     5003 
    5006     5006     5012     5017     5013     5023     5030     5022 
    5028     5037     5036     5043     5054     5057     5056     5060 
    5068     5070     5075     5084     5090     5095     5095     5098 
    5106     5116     5119     5117     5123     5131     5132     5136 
    5138     5139     5143     5148     5155     5159     5157     5163 
    5166     5169     5176     5171     5169     5180     5182     5181 
    5189     5190     5192     5201     5203     5204     5208     5208 
    5211     5220     5222     5218     5219     5226     5228     5224 
    5228     5238     5238     5232     5238     5244     5238     5233 
    5236     5238     5239     5240     5241     5241     5241     5242 
    5239     5234     5234     5235     5232     5232     5230     5225 
    5224     5225     5224     5221     5221     5219     5214     5212 
    5210     5210     5211     5210     5208     5205     5205     5207 
    5202     5197     5195     5193     5198     5203     5200     5191 
    5189     5193     5190     5185     5187     5188     5181     5180 
    5181     5176     5173     5176     5180     5175     5166     5172 
    5179     5169     5165     5171     5166     5161     5164     5163 
    5159     5157     5153     5154     5157     5151     5146     5149 
    5144     5139     5145     5139     5131     5134     5133     5130 
    5130     5126     5127     5129     5125     5123     5123     5122 
