Origin Time       2025/01/13 21:19:00
Lat.              31.8
Long.             131.6
Depth. (km)       30
Mag.              6.9
Station Code      NGNH27
Station Lat.      36.5770
Station Long.     138.0479
Station Height(m) 403
Record Time       2025/01/13 21:23:34
Sampling Freq(Hz) 100Hz
Duration Time(s)  120
Dir.              2
Scale Factor      2940(gal)/6170270
Max. Acc. (gal)   0.157
Last Correction   2025/01/13 21:23:19
Memo.             
[...]
   51586    51589    51591    51591    51592    51593    51596    51596 
   51598    51598    51597    51600    51603    51605    51609    51606 
   51605    51608    51609    51608    51608    51611    51614    51614 
   51616    51617    51615    51615    51618    51617    51614    51617 
   51620    51617    51617    51619    51615    51616    51620    51618 
   51615    51617    51616    51615    51615    51615    51615    51616 
   51617    51616    51612    51611    51611    51610    51611    51611 
   51611    51611    51610    51610    51606    51601    51605    51609 
   51606    51603    51604    51606    51605    51602    51600    51600 
   51599    51596    51596    51597    51597    51596    51594    51592 
   51592    51590    51586    51584    51585    51586    51584    51583 
   51583    51580    51572    51571    51576    51573    51567    51570 
   51567    51561    51565    51564    51555    51557    51562    51555 
   51550    51551    51550    51547    51547    51544    51543    51543 
   51538    51536    51539    51535    51532    51535    51534    51529 
   51530    51532    51530    51529    51530    51531    51532    51532 
   51531    51529    51530    51534    51537    51538    51538    51537 
   51542    51545    51544    51548    51553    51552    51553    51558 
   51561    51561    51565    51570    51573    51575    51579    51581 
   51585    51588    51590    51594    51599    51601    51605    51608 
   51611    51616    51618    51619    51625    51629    51631    51634 
   51637    51642    51647    51649    51652    51653    51654    51659 
   51661    51660    51664    51667    51668    51669    51672    51676 
   51678    51677    51678    51681    51682    51682    51684    51687 
   51686    51683    51683    51684    51684    51686    51688    51689 
   51688    51687    51685    51684    51685    51685    51685    51684 
   51684    51684    51682    51681    51680    51679    51679    51680 
   51682    51680    51676    51677    51676    51673    51672    51670 
   51666    51670    51672    51665    51664    51667    51664    51663 
   51666    51664    51659    51659    51661    51660    51659    51658 
   51658    51659    51657    51655    51657    51656    51656    51654 
   51650    51653    51655    51651    51651    51652    51649    51649 
   51647    51643    51640    51641    51642    51640    51639    51639 
   51637    51635    51634    51634    51631    51628    51627    51626 
   51624    51621    51619    51620    51618    51614    51613    51612 
   51607    51605    51603    51597    51597    51597    51591    51588 
   51588    51584    51580    51580    51578    51574    51573    51570 
   51568    51570    51564    51556    51558    51560    51554    51551 
   51554    51551    51546    51545    51544    51543    51540    51538 
   51538    51537    51534    51534    51532    51532    51530    51525 
   51524    51524    51521    51522    51522    51518    51518    51520 
   51517    51514    51514    51514    51511    51510    51511    51510 
   51509    51509    51508    51507    51507    51506    51505    51504 
   51505    51506    51504    51501    51501    51502    51503    51502 
   51503    51503    51502    51503    51502    51502    51503    51504 
   51503    51503    51507    51509    51508    51505    51504    51511 
   51512    51512    51515    51515    51515    51518    51521    51524 
   51525    51526    51529    51531    51532    51536    51537    51538 
   51539    51542    51549    51553    51551    51553    51559    51561 
   51565    51570    51571    51572    51578    51583    51584    51586 
   51591    51596    51598    51600    51605    51612    51614    51616 
   51619    51622    51624    51631    51637    51638    51640    51644 
   51650    51654    51657    51655    51657    51666    51672    51670 
   51674    51678    51680    51685    51688    51688    51692    51696 
   51698    51701    51705    51707    51711    51714    51714    51715 
   51718    51720    51722    51723    51726    51728    51730    51734 
   51735    51736    51738    51738    51740    51744    51745    51745 
   51746    51747    51746    51748    51748    51745    51748    51751 
   51750    51747    51746    51747    51751    51752    51748    51747 
   51745    51744    51746    51745    51744    51744    51742    51739 
   51738    51737    51735    51733    51733    51731    51728    51728 
   51727    51724    51721    51719    51715    51712    51712    51710 
   51707    51703    51701    51698    51695    51692    51688    51684 
   51683    51683    51680    51676    51671    51671    51669    51664 
   51662    51659    51654    51652    51649    51644    51644    51642 
   51637    51632    51630    51629    51624    51621    51619    51616 
   51614    51611    51606    51602    51599    51595    51594    51591 
   51586    51584    51583    51578    51576    51574    51572    51568 
   51566    51563    51560    51556    51553    51551    51550    51548 
   51543    51543    51543    51539    51534    51533    51531    51527 
   51525    51524    51521    51518    51516    51513    51511    51511 
   51509    51505    51500    51499    51498    51493    51491    51490 
   51487    51483    51479    51480    51477    51473    51472    51470 
   51466    51464    51464    51461    51456    51455    51457    51455 
   51449    51446    51444    51442    51439    51438    51438    51437 
   51434    51433    51435    51433    51430    51427    51423    51423 
   51425    51424    51424    51426    51423    51420    51424    51426 
   51422    51423    51426    51426    51427    51429    51428    51431 
   51433    51434    51438    51438    51438    51442    51445    51447 
   51451    51452    51453    51461    51467    51468    51471    51476 
   51480    51485    51490    51491    51495    51501    51506    51509 
   51514    51520    51525    51528    51532    51537    51542    51547 
   51553    51558    51564    51567    51570    51576    51578    51580 
   51589    51594    51594    51599    51606    51610    51613    51618 
   51626    51629    51627    51630    51639    51639    51640    51649 
   51651    51650    51656    51657    51653    51659    51664    51662 
   51664    51669    51670    51670    51672    51674    51674    51676 
   51680    51681    51680    51682    51685    51684    51683    51687 
   51688    51688    51692    51693    51692    51694    51695    51695 
   51694    51695    51698    51697    51695    51697    51698    51697 
   51699    51700    51697    51697    51700    51701    51698    51699 
   51701    51700    51699    51696    51695    51697    51695    51695 
   51697    51697    51695    51694    51690    51690    51692    51689 
   51687    51685    51681    51680    51682    51680    51675    51672 
   51671    51670    51667    51662    51661    51658    51655    51652 
   51648    51644    51641    51637    51633    51631    51628    51623 
   51618    51615    51613    51608    51603    51601    51600    51597 
   51594    51587    51579    51577    51577    51573    51567    51565 
   51562    51557    51552    51548    51547    51543    51540    51538 
   51534    51528    51527    51526    51521    51518    51517    51513 
   51512    51508    51502    51501    51499    51497    51495    51494 
   51490    51486    51484    51483    51481    51480    51475    51472 
   51474    51472    51466    51465    51465    51461    51459    51457 
   51455    51453    51450    51448    51449    51448    51442    51438 
   51439    51438    51434    51431    51434    51432    51426    51425 
   51425    51424    51421    51417    51417    51417    51416    51415 
   51414    51414    51409    51406    51408    51410    51410    51408 
   51404    51403    51403    51401    51402    51405    51403    51401 
   51403    51403    51405    51408    51406    51404    51405    51408 
   51414    51415    51411    51415    51420    51419    51423    51427 
   51427    51430    51434    51436    51440    51445    51444    51447 
   51456    51459    51460    51468    51473    51477    51481    51483 
   51488    51493    51497    51503    51508    51512    51521    51526 
   51526    51534    51542    51541    51549    51560    51562    51568 
   51577    51581    51585    51594    51603    51607    51610    51615 
   51624    51631    51637    51642    51649    51657    51663    51668 
   51674    51681    51687    51692    51699    51706    51711    51716 
   51723    51730    51735    51740    51744    51751    51757    51762 
   51769    51774    51778    51784    51786    51788    51794    51798 
   51800    51800    51802    51809    51812    51811    51812    51814 
   51815    51817    51815    51816    51820    51818    51814    51818 
   51817    51814    51812    51811    51811    51809    51806    51804 
   51803    51800    51795    51790    51787    51786    51783    51776 
   51773    51771    51764    51760    51759    51754    51749    51743 
   51738    51739    51737    51727    51720    51717    51712    51705 
   51701    51696    51693    51688    51682    51679    51675    51667 
   51663    51661    51658    51653    51646    51640    51637    51635 
   51630    51623    51618    51617    51613    51606    51602    51598 
   51594    51590    51586    51582    51577    51572    51568    51565 
   51561    51556    51555    51553    51545    51537    51535    51533 
   51527    51521    51518    51513    51509    51506    51497    51490 
   51487    51484    51479    51472    51465    51464    51459    51452 
   51450    51445    51438    51436    51431    51425    51421    51415 
   51410    51407    51403    51400    51394    51387    51386    51383 
   51375    51372    51370    51364    51359    51357    51353    51349 
   51345    51341    51340    51337    51332    51329    51325    51322 
   51322    51321    51317    51315    51313    51308    51308    51312 
   51309    51303    51301    51301    51302    51303    51301    51298 
   51300    51302    51302    51301    51298    51299    51302    51302 
   51303    51306    51305    51306    51308    51308    51311    51314 
   51314    51318    51321    51320    51322    51327    51328    51329 
   51333    51337    51340    51344    51346    51350    51354    51356 
   51359    51366    51369    51371    51377    51380    51381    51388 
   51393    51395    51403    51409    51408    51414    51420    51421 
   51427    51435    51441    51447    51451    51455    51461    51466 
   51472    51479    51485    51489    51494    51502    51509    51516 
   51523    51528    51531    51538    51547    51554    51561    51568 
   51575    51579    51585    51595    51604    51607    51612    51621 
   51631    51637    51638    51643    51655    51661    51665    51674 
   51680    51686    51695    51699    51703    51708    51713    51720 
   51725    51730    51735    51740    51745    51750    51753    51760 
   51764    51764    51771    51777    51775    51778    51785    51789 
   51791    51793    51795    51799    51799    51798    51801    51804 
   51804    51806    51808    51807    51808    51810    51809    51809 
   51812    51810    51809    51811    51809    51806    51807    51806 
   51805    51805    51804    51801    51798    51797    51794    51793 
   51793    51790    51785    51783    51782    51778    51773    51772 
   51767    51761    51759    51756    51751    51747    51742    51739 
   51733    51723    51720    51720    51712    51706    51703    51695 
   51689    51684    51675    51669    51664    51659    51653    51646 
   51640    51634    51625    51616    51612    51607    51599    51591 
   51585    51578    51571    51564    51555    51550    51547    51538 
   51527    51523    51520    51511    51499    51492    51487    51479 
   51473    51469    51459    51452    51448    51439    51433    51430 
   51424    51418    51409    51400    51399    51396    51386    51383 
   51380    51373    51367    51363    51359    51354    51351    51350 
   51343    51340    51339    51333    51330    51329    51326    51326 
   51324    51320    51318    51316    51315    51316    51315    51314 
   51314    51310    51309    51311    51310    51312    51312    51310 
   51313    51313    51310    51313    51317    51318    51320    51322 
   51321    51323    51325    51328    51328    51327    51331    51334 
   51333    51337    51341    51342    51343    51344    51346    51350 
   51353    51353    51353    51355    51359    51362    51367    51369 
   51371    51374    51379    51382    51384    51387    51389    51392 
   51397    51399    51402    51408    51411    51414    51420    51423 
   51426    51431    51434    51437    51444    51451    51452    51452 
   51460    51470    51472    51474    51483    51489    51494    51498 
   51503    51510    51517    51523    51530    51536    51541    51547 
   51554    51561    51570    51576    51578    51585    51596    51601 
   51606    51615    51622    51627    51634    51643    51651    51659 
   51663    51670    51679    51685    51690    51700    51706    51712 
   51720    51728    51733    51739    51748    51755    51760    51769 
   51776    51780    51787    51794    51799    51805    51810    51816 
   51823    51828    51835    51841    51844    51849    51855    51860 
   51865    51869    51871    51877    51884    51886    51887    51891 
   51894    51893    51895    51901    51904    51902    51902    51905 
   51906    51905    51908    51910    51909    51909    51910    51907 
   51904    51906    51905    51899    51896    51895    51891    51886 
   51882    51879    51877    51874    51871    51865    51857    51853 
   51850    51844    51838    51833    51827    51821    51816    51808 
   51797    51790    51787    51782    51771    51761    51756    51749 
   51739    51733    51727    51715    51705    51699    51691    51682 
   51676    51667    51656    51648    51643    51633    51623    51617 
   51611    51600    51589    51584    51576    51565    51560    51555 
   51546    51537    51531    51524    51516    51511    51505    51498 
   51492    51486    51480    51476    51470    51465    51460    51455 
   51454    51452    51444    51441    51441    51438    51433    51431 
   51430    51429    51425    51423    51423    51422    51422    51421 
   51420    51421    51420    51420    51421    51424    51425    51422 
   51422    51426    51426    51422    51425    51429    51430    51433 
   51438    51438    51437    51437    51440    51442    51442    51447 
   51449    51448    51453    51459    51458    51458    51462    51465 
   51464    51467    51474    51475    51473    51476    51479    51481 
   51482    51484    51488    51488    51488    51492    51493    51495 
   51498    51499    51501    51504    51502    51502    51505    51505 
   51505    51507    51509    51510    51508    51507    51511    51511 
   51508    51510    51512    51511    51514    51516    51516    51514 
   51513    51515    51512    51510    51517    51518    51512    51514 
   51518    51516    51516    51519    51520    51518    51518    51519 
   51519    51519    51522    51522    51522    51526    51529    51526 
   51525    51528    51526    51526    51532    51534    51533    51535 
   51539    51541    51543    51544    51546    51549    51551    51553 
   51555    51559    51561    51563    51567    51568    51569    51575 
   51578    51582    51588    51586    51586    51593    51598    51597 
   51598    51602    51610    51615    51614    51618    51625    51626 
   51627    51632    51634    51637    51646    51650    51646    51652 
   51659    51658    51662    51668    51668    51674    51678    51678 
   51681    51686    51689    51694    51696    51698    51703    51704 
   51707    51711    51712    51714    51718    51721    51722    51722 
   51726    51730    51731    51731    51733    51733    51734    51736 
   51738    51739    51740    51738    51735    51739    51742    51738 
   51737    51738    51737    51737    51738    51736    51735    51735 
   51734    51731    51732    51731    51728    51725    51723    51722 
   51721    51718    51717    51714    51710    51709    51706    51702 
   51700    51696    51691    51688    51685    51680    51676    51674 
   51670    51664    51658    51654    51651    51645    51638    51635 
   51631    51623    51619    51616    51606    51601    51598    51589 
   51583    51580    51573    51564    51558    51552    51548    51541 
   51532    51527    51523    51514    51507    51502    51494    51489 
   51484    51476    51470    51466    51459    51453    51447    51441 
   51437    51435    51429    51422    51418    51414    51407    51401 
   51398    51392    51386    51385    51382    51375    51371    51370 
   51366    51362    51357    51355    51353    51348    51344    51340 
   51337    51336    51334    51333    51329    51324    51324    51322 
   51318    51316    51315    51312    51312    51312    51311    51309 
   51308    51307    51305    51305    51306    51306    51305    51305 
   51307    51306    51305    51307    51307    51307    51309    51310 
   51311    51313    51316    51317    51318    51322    51325    51325 
   51328    51332    51334    51336    51341    51346    51348    51351 
   51356    51361    51364    51368    51373    51378    51381    51387 
   51393    51398    51404    51410    51415    51419    51425    51432 
   51437    51441    51446    51455    51464    51467    51472    51483 
   51488    51491    51501    51510    51516    51521    51527    51535 
   51542    51550    51558    51563    51568    51578    51587    51591 
   51599    51605    51609    51617    51626    51630    51635    51645 
   51653    51657    51660    51667    51675    51680    51683    51690 
   51695    51700    51706    51711    51714    51717    51722    51728 
   51730    51733    51738    51742    51745    51749    51752    51754 
   51757    51759    51761    51763    51763    51764    51769    51772 
   51770    51769    51770    51773    51775    51773    51772    51775 
   51774    51771    51771    51773    51773    51772    51773    51771 
   51767    51767    51767    51761    51758    51759    51758    51754 
   51750    51747    51746    51745    51742    51738    51734    51733 
   51731    51726    51723    51718    51714    51712    51711    51707 
   51701    51698    51696    51692    51688    51684    51679    51676 
   51675    51672    51668    51664    51660    51659    51657    51654 
   51650    51647    51646    51644    51641    51639    51636    51631 
   51630    51632    51628    51623    51624    51622    51617    51618 
   51617    51614    51615    51617    51615    51615    51611    51606 
   51608    51611    51610    51611    51611    51610    51610    51612 
   51613    51612    51614    51617    51616    51618    51619    51620 
   51621    51621    51624    51626    51628    51629    51630    51631 
   51634    51636    51637    51638    51639    51641    51643    51642 
   51643    51647    51648    51647    51650    51652    51653    51654 
   51655    51656    51656    51656    51657    51657    51657    51657 
   51657    51655    51653    51654    51653    51649    51648    51648 
   51647    51646    51645    51639    51634    51634    51633    51626 
