Origin Time       2025/01/13 21:19:00
Lat.              31.8
Long.             131.6
Depth. (km)       30
Mag.              6.9
Station Code      NGNH24
Station Lat.      35.6152
Station Long.     137.8797
Station Height(m) 715
Record Time       2025/01/13 21:23:14
Sampling Freq(Hz) 100Hz
Duration Time(s)  120
Dir.              5
Scale Factor      3920(gal)/6170801
Max. Acc. (gal)   0.292
Last Correction   2025/01/13 21:22:59
Memo.             
[...]
    9178     9174     9200     9194     9165     9174     9201     9191 
    9161     9171     9195     9175     9151     9174     9187     9157 
    9150     9179     9178     9148     9151     9174     9166     9150 
    9172     9186     9154     9144     9180     9187     9160     9154 
    9176     9178     9152     9159     9188     9175     9150     9174 
    9195     9163     9144     9180     9191     9156     9152     9184 
    9183     9149     9150     9180     9170     9138     9151     9178 
    9154     9125     9153     9171     9137     9126     9159     9160 
    9125     9131     9163     9147     9119     9136     9158     9139 
    9122     9140     9150     9128     9121     9149     9154     9126 
    9127     9158     9153     9131     9149     9171     9150     9139 
    9168     9181     9157     9152     9183     9192     9162     9158 
    9191     9199     9175     9181     9211     9201     9178     9200 
    9221     9197     9183     9212     9222     9193     9187     9219 
    9224     9193     9190     9219     9216     9187     9195     9222 
    9208     9188     9208     9220     9194     9185     9216     9219 
    9187     9186     9218     9213     9184     9195     9217     9192 
    9172     9200     9214     9182     9167     9195     9206     9176 
    9160     9182     9182     9153     9159     9183     9160     9133 
    9161     9179     9145     9129     9162     9170     9131     9129 
    9167     9162     9128     9133     9160     9158     9136     9148 
    9175     9154     9135     9167     9182     9151     9143     9175 
    9183     9152     9156     9192     9181     9154     9177     9203 
    9183     9161     9183     9203     9175     9163     9200     9202 
    9161     9170     9210     9195     9156     9170     9203     9183 
    9150     9172     9197     9167     9146     9180     9194     9152 
    9136     9172     9173     9133     9146     9181     9159     9133 
    9157     9176     9154     9145     9180     9193     9160     9156 
    9191     9195     9171     9188     9219     9201     9180     9205 
    9229     9213     9196     9220     9244     9221     9207     9241 
    9246     9216     9230     9262     9245     9215     9234     9264 
    9244     9222     9253     9265     9225     9222     9264     9261 
    9220     9225     9260     9248     9216     9229     9251     9228 
    9210     9239     9249     9213     9208     9244     9239     9202 
    9218     9253     9233     9205     9226     9248     9225     9206 
    9232     9249     9222     9214     9246     9247     9209     9210 
    9244     9228     9190     9211     9240     9213     9188     9212 
    9224     9192     9178     9206     9209     9173     9167     9195 
    9182     9140     9148     9174     9148     9119     9147     9161 
    9119     9105     9137     9133     9096     9096     9121     9112 
    9075     9080     9110     9089     9058     9077     9097     9074 
    9053     9070     9082     9060     9054     9078     9074     9042 
    9049     9076     9059     9034     9054     9070     9047     9035 
    9057     9065     9043     9045     9073     9068     9034     9044 
    9081     9062     9029     9057     9088     9060     9042     9084 
    9099     9054     9050     9099     9106     9075     9084     9118 
    9109     9082     9100     9136     9121     9090     9118     9150 
    9124     9114     9149     9148     9124     9147     9173     9159 
    9149     9167     9184     9171     9162     9193     9214     9185 
    9169     9208     9229     9201     9200     9236     9238     9210 
    9220     9250     9242     9221     9240     9265     9244     9230 
    9265     9279     9244     9243     9276     9272     9249     9257 
    9276     9264     9249     9275     9294     9259     9246     9285 
    9297     9266     9262     9294     9290     9257     9267     9300 
    9284     9247     9264     9291     9266     9243     9268     9282 
    9245     9226     9262     9270     9226     9219     9246     9233 
    9205     9222     9242     9214     9186     9205     9224     9193 
    9166     9183     9195     9167     9153     9180     9182     9149 
    9156     9185     9169     9147     9165     9182     9159     9142 
    9173     9185     9151     9157     9192     9180     9148     9161 
    9190     9172     9147     9172     9187     9155     9144     9178 
    9190     9161     9155     9181     9182     9162     9164     9181 
    9172     9151     9166     9187     9163     9147     9176     9183 
    9149     9144     9170     9163     9134     9140     9164     9149 
    9128     9150     9164     9135     9122     9150     9161     9129 
    9119     9157     9168     9131     9126     9158     9152     9124 
    9141     9169     9147     9125     9150     9170     9154     9147 
    9170     9183     9166     9169     9201     9197     9165     9179 
    9219     9207     9175     9198     9228     9207     9189     9221 
    9240     9210     9199     9235     9244     9219     9221     9238 
    9228     9215     9232     9249     9231     9213     9235     9254 
    9231     9223     9255     9256     9220     9227     9268     9260 
    9224     9236     9267     9254     9237     9259     9273     9251 
    9245     9280     9288     9255     9252     9289     9290     9257 
    9261     9287     9273     9253     9274     9291     9269     9255 
    9276     9287     9262     9252     9284     9287     9248     9245 
    9276     9263     9227     9238     9266     9239     9213     9244 
    9253     9208     9203     9240     9230     9189     9197     9222 
    9204     9180     9192     9207     9185     9172     9196     9196 
    9159     9161     9196     9187     9151     9156     9183     9166 
    9139     9155     9170     9139     9119     9147     9153     9115 
    9107     9134     9129     9094     9099     9125     9105     9075 
    9097     9121     9094     9069     9096     9115     9083     9069 
    9098     9093     9055     9068     9099     9077     9050     9071 
    9093     9069     9042     9068     9088     9058     9049     9079 
    9077     9047     9061     9094     9080     9054     9074     9101 
    9087     9068     9093     9117     9096     9087     9123     9131 
    9099     9108     9150     9144     9117     9146     9187     9170 
    9150     9184     9212     9191     9185     9227     9245     9220 
    9228     9269     9268     9240     9258     9302     9296     9271 
    9298     9328     9308     9304     9342     9351     9320     9325 
    9366     9364     9335     9344     9368     9358     9337     9354 
    9374     9354     9337     9362     9372     9346     9337     9355 
    9353     9328     9325     9344     9333     9300     9306     9326 
    9301     9270     9283     9295     9260     9238     9254     9242 
    9207     9210     9223     9199     9166     9168     9181     9158 
    9123     9129     9143     9117     9091     9107     9116     9083 
    9067     9087     9083     9057     9058     9068     9045     9026 
    9047     9058     9028     9012     9041     9053     9020     9009 
    9042     9042     9006     9011     9040     9027     9005     9023 
    9042     9021     9006     9039     9058     9030     9021     9048 
    9055     9036     9042     9071     9064     9036     9054     9088 
    9067     9043     9069     9087     9064     9059     9090     9097 
    9074     9085     9118     9108     9089     9122     9146     9116 
    9107     9155     9181     9152     9141     9185     9207     9176 
    9174     9213     9209     9183     9208     9237     9212     9194 
    9235     9262     9224     9208     9254     9265     9226     9232 
    9266     9250     9226     9248     9269     9249     9229     9249 
    9269     9249     9241     9268     9268     9236     9243     9277 
    9266     9240     9258     9280     9258     9238     9264     9280 
    9248     9237     9272     9274     9236     9235     9267     9266 
    9241     9242     9270     9267     9235     9243     9267     9242 
    9225     9261     9268     9225     9217     9253     9253     9221 
    9221     9238     9231     9213     9213     9224     9212     9189 
    9201     9217     9188     9167     9192     9193     9154     9155 
    9185     9170     9140     9144     9157     9139     9120     9136 
    9144     9118     9107     9131     9135     9103     9098     9126 
    9117     9087     9101     9124     9102     9081     9104     9118 
    9091     9085     9117     9122     9091     9087     9114     9117 
    9095     9100     9120     9105     9088     9114     9130     9106 
    9100     9128     9134     9112     9117     9148     9144     9117 
    9132     9161     9146     9131     9158     9171     9146     9142 
    9178     9184     9154     9161     9196     9187     9157     9179 
    9216     9194     9163     9193     9222     9200     9186     9209 
    9220     9202     9205     9230     9225     9196     9209     9244 
    9228     9195     9213     9237     9211     9187     9214     9232 
    9196     9184     9217     9219     9184     9187     9221     9213 
    9184     9201     9219     9196     9185     9203     9208     9184 
    9171     9189     9184     9148     9158     9187     9163     9128 
    9144     9167     9143     9118     9135     9148     9119     9105 
    9129     9135     9111     9111     9135     9128     9105     9124 
    9144     9117     9102     9131     9141     9106     9094     9126 
    9131     9092     9094     9130     9116     9082     9100     9129 
    9103     9074     9101     9128     9099     9077     9104     9111 
    9083     9089     9118     9104     9077     9094     9122     9107 
    9087     9112     9135     9108     9092     9127     9144     9112 
    9107     9143     9148     9124     9136     9168     9164     9143 
    9165     9196     9170     9150     9187     9209     9180     9168 
    9201     9213     9188     9192     9222     9214     9196     9226 
    9244     9208     9198     9236     9246     9218     9217     9249 
    9253     9224     9225     9256     9256     9232     9239     9261 
    9255     9243     9265     9283     9259     9252     9287     9293 
    9263     9264     9293     9290     9262     9276     9303     9280 
    9256     9284     9308     9279     9255     9278     9294     9268 
    9252     9272     9273     9245     9250     9276     9263     9235 
    9246     9264     9237     9214     9238     9243     9203     9189 
    9216     9215     9185     9189     9207     9183     9157     9175 
    9187     9152     9128     9150     9160     9129     9112     9135 
    9133     9096     9100     9129     9112     9079     9086     9105 
    9089     9064     9081     9096     9063     9054     9095     9100 
    9060     9055     9089     9090     9060     9063     9084     9065 
    9044     9073     9093     9055     9035     9072     9078     9041 
    9043     9070     9054     9027     9038     9061     9050     9024 
    9037     9058     9033     9020     9046     9044     9012     9009 
    9036     9031     8991     8992     9029     9015     8979     9002 
    9030     8996     8974     9012     9026     8987     8980     9013 
    9009     8980     8994     9022     9006     8984     9012     9043 
    9017     8995     9029     9046     9012     9004     9041     9043 
    9006     9014     9051     9040     9008     9026     9055     9037 
    9020     9046     9054     9024     9022     9057     9059     9032 
    9042     9078     9076     9052     9073     9104     9084     9064 
    9095     9115     9087     9079     9119     9128     9097     9113 
    9156     9144     9116     9143     9177     9156     9134     9163 
    9186     9164     9162     9201     9212     9185     9188     9228 
    9231     9198     9210     9246     9238     9222     9247     9265 
    9243     9232     9261     9279     9252     9240     9266     9262 
    9235     9246     9271     9259     9236     9249     9278     9271 
    9251     9263     9268     9241     9241     9268     9255     9215 
    9225     9260     9246     9220     9237     9252     9231     9217 
    9239     9254     9225     9204     9228     9238     9216     9217 
    9239     9229     9206     9227     9256     9233     9207     9229 
    9248     9230     9226     9251     9255     9228     9234     9274 
    9273     9240     9253     9289     9277     9257     9288     9309 
    9280     9275     9314     9328     9308     9311     9339     9342 
    9326     9338     9364     9355     9337     9360     9385     9364 
    9355     9389     9397     9371     9376     9405     9401     9373 
    9385     9413     9393     9366     9392     9413     9381     9361 
    9390     9401     9366     9353     9381     9379     9344     9348 
    9373     9353     9323     9345     9367     9334     9309     9333 
    9339     9305     9298     9318     9306     9274     9273     9289 
    9271     9233     9235     9252     9220     9179     9189     9197 
    9159     9132     9145     9139     9099     9089     9108     9087 
    9045     9045     9057     9026     8991     9000     9003     8967 
    8941     8955     8957     8914     8892     8914     8907     8864 
    8854     8866     8845     8811     8819     8835     8799     8767 
    8784     8789     8760     8751     8763     8755     8733     8735 
    8755     8743     8717     8734     8753     8729     8710     8734 
    8752     8725     8714     8748     8758     8732     8739     8772 
    8774     8761     8774     8797     8795     8792     8821     8847 
    8831     8826     8859     8876     8864     8878     8917     8921 
    8907     8935     8977     8971     8961     8999     9031     9017 
    9020     9068     9090     9072     9083     9134     9152     9134 
    9149     9188     9195     9186     9212     9250     9243     9229 
    9265     9296     9277     9278     9320     9337     9322     9330 
    9365     9375     9364     9384     9415     9408     9396     9422 
    9449     9438     9429     9458     9474     9451     9452     9490 
    9490     9465     9478     9504     9493     9475     9497     9522 
    9496     9480     9509     9516     9490     9492     9516     9507 
    9482     9492     9510     9491     9471     9488     9504     9477 
    9451     9473     9487     9449     9430     9466     9471     9428 
    9419     9442     9429     9400     9403     9413     9391     9367 
    9382     9389     9354     9336     9358     9355     9317     9310 
    9331     9317     9286     9292     9307     9273     9240     9264 
    9276     9238     9222     9244     9240     9203     9196     9222 
    9210     9171     9178     9201     9176     9146     9164     9178 
    9146     9127     9152     9156     9119     9114     9145     9134 
    9097     9106     9127     9102     9079     9101     9115     9093 
    9080     9096     9100     9074     9069     9094     9091     9059 
    9065     9092     9078     9048     9064     9084     9055     9035 
    9063     9070     9034     9029     9060     9051     9014     9024 
    9051     9028     8996     9016     9036     9011     8994     9018 
    9020     8984     8980     9012     9003     8967     8972     8998 
    8982     8951     8965     8988     8961     8940     8971     8986 
    8951     8944     8983     8986     8956     8967     8999     8992 
    8970     8996     9032     9015     9000     9035     9057     9041 
    9044     9084     9099     9073     9080     9133     9145     9115 
    9134     9181     9171     9160     9200     9221     9199     9206 
    9245     9253     9233     9246     9277     9273     9255     9276 
    9305     9286     9266     9302     9329     9296     9285     9329 
    9336     9299     9302     9334     9331     9308     9317     9340 
    9326     9306     9327     9347     9323     9310     9336     9340 
    9314     9314     9340     9338     9306     9304     9338     9334 
    9298     9313     9341     9319     9304     9327     9334     9310 
    9307     9334     9328     9297     9302     9330     9323     9297 
    9306     9323     9303     9281     9307     9322     9282     9266 
    9303     9299     9263     9273     9294     9275     9251     9261 
    9283     9264     9232     9249     9265     9236     9216     9235 
    9238     9207     9199     9218     9208     9177     9178     9195 
    9175     9147     9162     9176     9139     9112     9137     9146 
    9111     9094     9110     9104     9074     9075     9093     9073 
    9040     9054     9077     9050     9026     9048     9056     9022 
    9012     9043     9044     9003     9002     9040     9030     8999 
    9016     9033     9011     9003     9030     9041     9016     9010 
    9046     9055     9029     9037     9074     9069     9038     9060 
    9105     9085     9059     9092     9114     9092     9091     9123 
    9128     9106     9118     9142     9130     9114     9128     9149 
    9132     9107     9134     9159     9123     9098     9131     9141 
    9104     9097     9124     9115     9080     9092     9119     9094 
    9063     9080     9093     9063     9044     9067     9067     9028 
    9024     9051     9040     9009     9011     9027     9011     8989 
    9005     9019     8986     8967     9004     9018     8980     8970 
    9002     9004     8974     8988     9026     9009     8982     9010 
    9039     9023     9010     9038     9063     9044     9046     9089 
    9096     9070     9086     9125     9124     9105     9125     9155 
    9147     9141     9172     9187     9164     9171     9207     9206 
    9188     9204     9234     9227     9207     9229     9255     9232 
    9215     9241     9254     9233     9228     9259     9265     9230 
    9229     9268     9265     9230     9241     9271     9249     9221 
    9250     9275     9245     9227     9253     9267     9246     9239 
    9262     9265     9243     9250     9271     9262     9242     9255 
    9276     9264     9251     9273     9281     9254     9252     9287 
    9294     9267     9270     9299     9295     9271     9286     9314 
    9296     9280     9310     9323     9296     9295     9324     9324 
    9302     9306     9328     9318     9291     9305     9326     9300 
    9275     9299     9314     9284     9270     9290     9284     9254 
    9255     9271     9252     9216     9221     9246     9219     9179 
    9194     9209     9174     9145     9160     9168     9132     9119 
    9144     9132     9092     9092     9109     9089     9058     9068 
    9086     9053     9026     9056     9066     9028     9018     9045 
    9042     9010     9015     9043     9027     8996     9018     9043 
    9017     8997     9025     9043     9016     9006     9041     9047 
    9013     9015     9051     9047     9022     9040     9064     9041 
    9024     9050     9064     9039     9032     9061     9061     9029 
    9040     9071     9053     9025     9048     9072     9049     9034 
    9056     9064     9044     9044     9072     9068     9034     9039 
    9073     9068     9036     9043     9074     9060     9034     9058 
    9079     9053     9042     9069     9077     9051     9049     9077 
