Origin Time       2025/01/13 21:19:00
Lat.              31.8
Long.             131.6
Depth. (km)       30
Mag.              6.9
Station Code      NGNH27
Station Lat.      36.5770
Station Long.     138.0479
Station Height(m) 505
Record Time       2025/01/13 21:23:34
Sampling Freq(Hz) 100Hz
Duration Time(s)  120
Dir.              5
Scale Factor      3920(gal)/6170801
Max. Acc. (gal)   0.163
Last Correction   2025/01/13 21:23:19
Memo.             
[...]
    8452     8451     8451     8450     8447     8445     8446     8444 
    8440     8440     8442     8439     8435     8435     8434     8432 
    8430     8428     8426     8427     8425     8423     8423     8423 
    8422     8419     8415     8414     8414     8411     8410     8409 
    8407     8407     8406     8404     8404     8405     8403     8399 
    8398     8400     8400     8399     8401     8402     8401     8400 
    8401     8403     8405     8405     8406     8408     8408     8410 
    8413     8413     8414     8417     8419     8421     8424     8426 
    8428     8429     8430     8433     8437     8439     8442     8445 
    8448     8452     8459     8461     8462     8465     8468     8473 
    8479     8483     8487     8490     8491     8497     8502     8503 
    8506     8513     8518     8521     8524     8527     8534     8538 
    8541     8545     8550     8557     8564     8567     8569     8574 
    8580     8584     8588     8592     8594     8599     8606     8612 
    8616     8621     8627     8632     8634     8639     8645     8648 
    8653     8658     8663     8668     8672     8676     8681     8685 
    8690     8693     8695     8699     8705     8706     8708     8713 
    8716     8719     8723     8725     8726     8727     8728     8730 
    8733     8732     8730     8731     8733     8733     8734     8733 
    8732     8734     8733     8729     8727     8726     8723     8721 
    8717     8714     8712     8711     8709     8706     8701     8698 
    8696     8691     8686     8683     8680     8676     8671     8666 
    8660     8656     8654     8649     8644     8640     8635     8631 
    8626     8622     8618     8612     8608     8606     8602     8596 
    8593     8591     8586     8582     8579     8573     8569     8568 
    8564     8560     8557     8554     8551     8549     8546     8543 
    8540     8535     8531     8529     8528     8525     8521     8518 
    8516     8514     8513     8508     8504     8501     8498     8496 
    8493     8491     8490     8487     8484     8480     8475     8471 
    8468     8466     8464     8461     8457     8452     8448     8445 
    8443     8440     8436     8433     8431     8428     8422     8416 
    8414     8412     8409     8405     8402     8399     8393     8388 
    8385     8380     8377     8375     8373     8370     8366     8362 
    8359     8356     8354     8352     8348     8345     8344     8343 
    8340     8338     8339     8337     8332     8332     8332     8328 
    8328     8328     8324     8326     8327     8325     8326     8327 
    8325     8325     8326     8325     8325     8327     8326     8325 
    8327     8329     8331     8331     8332     8333     8335     8337 
    8339     8342     8342     8342     8344     8347     8348     8348 
    8351     8355     8357     8357     8360     8364     8364     8366 
    8371     8373     8373     8377     8380     8381     8385     8387 
    8389     8393     8393     8395     8401     8405     8406     8408 
    8414     8419     8421     8422     8426     8431     8436     8440 
    8442     8445     8450     8455     8460     8464     8471     8477 
    8481     8486     8492     8497     8503     8510     8515     8519 
    8525     8534     8540     8544     8547     8553     8563     8571 
    8575     8580     8588     8594     8599     8604     8611     8618 
    8625     8630     8633     8637     8645     8652     8657     8662 
    8667     8672     8677     8681     8685     8690     8693     8696 
    8700     8703     8707     8709     8712     8716     8718     8719 
    8722     8726     8727     8728     8730     8731     8731     8731 
    8732     8733     8735     8736     8735     8733     8735     8736 
    8736     8735     8734     8732     8730     8731     8730     8729 
    8728     8727     8726     8724     8720     8719     8718     8715 
    8714     8713     8712     8710     8706     8704     8703     8700 
    8696     8693     8690     8687     8686     8683     8678     8676 
    8672     8667     8664     8660     8655     8651     8646     8640 
    8635     8634     8629     8621     8616     8611     8604     8599 
    8595     8589     8583     8576     8570     8565     8560     8552 
    8543     8538     8533     8525     8518     8511     8505     8500 
    8494     8486     8480     8475     8467     8461     8455     8449 
    8442     8437     8430     8424     8419     8414     8408     8403 
    8398     8392     8387     8381     8376     8371     8366     8364 
    8361     8355     8352     8348     8344     8342     8339     8333 
    8333     8332     8327     8323     8320     8318     8316     8315 
    8315     8316     8314     8312     8312     8312     8311     8311 
    8312     8313     8314     8313     8316     8317     8316     8318 
    8320     8322     8325     8326     8325     8328     8332     8334 
    8334     8336     8340     8343     8345     8347     8350     8354 
    8357     8359     8361     8363     8365     8368     8371     8374 
    8376     8378     8381     8384     8386     8388     8393     8395 
    8394     8395     8401     8405     8407     8410     8412     8413 
    8416     8416     8420     8425     8427     8429     8434     8437 
    8440     8443     8445     8448     8452     8456     8459     8463 
    8466     8469     8474     8480     8483     8486     8491     8495 
    8497     8502     8506     8509     8513     8517     8523     8528 
    8531     8534     8539     8546     8551     8553     8558     8563 
    8567     8570     8576     8582     8585     8589     8594     8600 
    8606     8610     8614     8619     8624     8630     8636     8639 
    8644     8651     8655     8657     8663     8670     8675     8681 
    8685     8687     8691     8697     8700     8704     8710     8714 
    8717     8725     8730     8732     8735     8740     8742     8746 
    8751     8753     8755     8760     8761     8762     8767     8770 
    8771     8770     8772     8776     8778     8779     8779     8779 
    8780     8781     8781     8779     8779     8780     8779     8777 
    8775     8775     8774     8769     8768     8771     8767     8761 
    8759     8759     8756     8752     8749     8747     8741     8738 
    8736     8731     8725     8721     8716     8714     8713     8707 
    8700     8694     8688     8682     8674     8669     8665     8658 
    8653     8647     8639     8634     8629     8623     8615     8605 
    8600     8596     8587     8578     8573     8567     8561     8553 
    8545     8542     8537     8528     8522     8519     8513     8505 
    8500     8495     8489     8483     8478     8476     8473     8468 
    8463     8460     8456     8451     8446     8444     8442     8442 
    8439     8436     8435     8434     8431     8430     8428     8423 
    8422     8423     8423     8422     8421     8422     8423     8421 
    8420     8421     8421     8420     8420     8420     8421     8424 
    8423     8423     8424     8426     8428     8432     8433     8432 
    8434     8437     8437     8438     8437     8438     8442     8445 
    8447     8448     8451     8455     8456     8455     8456     8458 
    8461     8462     8462     8464     8469     8472     8472     8473 
    8476     8477     8477     8479     8480     8480     8483     8485 
    8484     8486     8490     8491     8489     8491     8492     8491 
    8491     8494     8493     8492     8494     8494     8493     8494 
    8495     8494     8493     8494     8494     8491     8492     8492 
    8491     8491     8491     8490     8489     8489     8489     8487 
    8486     8485     8485     8483     8484     8486     8486     8483 
    8482     8483     8483     8481     8482     8484     8484     8483 
    8483     8482     8484     8486     8487     8487     8489     8490 
    8489     8491     8494     8495     8494     8497     8500     8502 
    8503     8505     8508     8511     8511     8511     8516     8520 
    8523     8526     8528     8529     8534     8539     8542     8544 
    8547     8550     8552     8557     8561     8562     8565     8571 
    8575     8578     8582     8585     8589     8593     8597     8600 
    8602     8606     8609     8611     8614     8618     8622     8627 
    8630     8631     8635     8639     8640     8641     8645     8646 
    8646     8649     8652     8652     8655     8657     8657     8660 
    8663     8662     8662     8663     8662     8664     8667     8666 
    8667     8670     8669     8667     8668     8668     8668     8668 
    8668     8667     8668     8669     8669     8669     8668     8666 
    8667     8666     8665     8664     8664     8663     8662     8661 
    8659     8658     8656     8654     8651     8651     8651     8648 
    8646     8643     8639     8637     8636     8630     8626     8625 
    8624     8617     8611     8609     8605     8601     8599     8595 
    8589     8583     8578     8575     8570     8561     8556     8552 
    8545     8541     8538     8532     8528     8521     8513     8508 
    8503     8497     8492     8487     8481     8476     8471     8466 
    8460     8456     8452     8446     8443     8439     8433     8428 
    8424     8420     8414     8410     8408     8405     8400     8395 
    8390     8388     8386     8381     8377     8376     8375     8371 
    8367     8363     8360     8359     8357     8355     8353     8350 
    8346     8344     8344     8342     8340     8339     8335     8331 
    8330     8330     8328     8327     8327     8324     8321     8321 
    8322     8319     8316     8318     8319     8317     8316     8316 
    8316     8316     8313     8311     8313     8313     8312     8312 
    8313     8315     8315     8317     8319     8319     8318     8319 
    8321     8322     8325     8328     8332     8332     8334     8340 
    8344     8344     8347     8350     8353     8359     8364     8367 
    8372     8376     8382     8388     8394     8401     8406     8411 
    8415     8420     8426     8434     8442     8447     8454     8461 
    8468     8475     8485     8490     8494     8502     8510     8515 
    8521     8529     8535     8543     8550     8556     8564     8572 
    8575     8580     8587     8592     8597     8602     8607     8611 
    8616     8622     8627     8630     8635     8639     8643     8647 
    8651     8654     8658     8661     8663     8664     8668     8672 
    8674     8675     8677     8680     8682     8683     8686     8690 
    8690     8689     8692     8694     8693     8694     8696     8697 
    8698     8697     8697     8697     8698     8699     8699     8697 
    8697     8697     8697     8694     8692     8693     8691     8689 
    8689     8687     8684     8683     8682     8679     8676     8675 
    8674     8671     8670     8669     8663     8659     8657     8655 
    8652     8650     8648     8644     8640     8638     8636     8631 
    8628     8625     8622     8620     8618     8615     8611     8610 
    8606     8601     8598     8596     8593     8590     8588     8586 
    8583     8582     8581     8578     8577     8575     8572     8569 
    8568     8568     8567     8566     8565     8564     8562     8561 
    8560     8559     8560     8559     8556     8556     8556     8556 
    8558     8560     8558     8559     8562     8562     8563     8564 
    8565     8566     8566     8566     8568     8570     8571     8574 
    8574     8576     8581     8582     8582     8582     8584     8587 
    8590     8589     8591     8595     8598     8601     8601     8601 
    8604     8604     8603     8606     8609     8609     8612     8615 
    8614     8615     8615     8614     8616     8617     8615     8616 
    8616     8614     8614     8614     8613     8611     8611     8611 
    8609     8606     8604     8601     8598     8597     8594     8590 
    8587     8587     8586     8581     8576     8573     8570     8568 
    8565     8559     8555     8552     8548     8545     8542     8538 
    8533     8528     8525     8521     8516     8512     8505     8500 
    8496     8490     8487     8482     8476     8471     8467     8460 
    8456     8453     8448     8442     8435     8429     8425     8419 
    8415     8411     8405     8399     8397     8392     8387     8382 
    8377     8374     8371     8365     8362     8361     8357     8353 
    8350     8349     8346     8342     8340     8339     8337     8333 
    8332     8332     8332     8331     8330     8330     8331     8329 
    8330     8332     8331     8332     8336     8338     8340     8341 
    8342     8346     8349     8351     8355     8358     8360     8364 
    8368     8373     8378     8382     8388     8395     8400     8404 
    8408     8412     8419     8426     8432     8437     8443     8451 
    8459     8466     8472     8479     8486     8493     8498     8504 
    8513     8523     8530     8536     8543     8552     8559     8565 
    8571     8577     8585     8593     8599     8606     8615     8621 
    8625     8633     8642     8649     8654     8661     8668     8672 
    8677     8685     8692     8696     8701     8708     8712     8718 
    8723     8727     8731     8738     8744     8747     8751     8756 
    8762     8765     8769     8772     8774     8776     8781     8784 
    8785     8786     8788     8791     8793     8794     8794     8794 
    8795     8794     8794     8793     8790     8790     8790     8786 
    8784     8783     8781     8777     8773     8770     8768     8762 
    8756     8752     8749     8744     8738     8734     8729     8722 
    8717     8713     8708     8701     8695     8689     8682     8676 
    8673     8667     8660     8653     8647     8643     8634     8625 
    8619     8614     8609     8604     8597     8592     8587     8579 
    8573     8567     8561     8555     8550     8546     8540     8534 
    8530     8526     8522     8517     8511     8508     8506     8500 
    8495     8493     8489     8484     8483     8479     8475     8476 
    8475     8471     8469     8467     8463     8461     8461     8461 
    8459     8457     8458     8460     8462     8460     8460     8461 
    8461     8462     8463     8463     8465     8467     8468     8470 
    8473     8475     8476     8478     8481     8484     8484     8486 
    8490     8493     8495     8498     8501     8504     8504     8505 
    8509     8512     8510     8512     8518     8520     8520     8522 
    8524     8526     8528     8530     8532     8533     8533     8534 
    8536     8538     8539     8539     8541     8541     8540     8541 
    8541     8541     8541     8541     8541     8541     8541     8542 
    8541     8538     8536     8538     8537     8535     8534     8533 
    8531     8529     8529     8528     8526     8522     8520     8519 
    8516     8515     8513     8510     8509     8509     8505     8502 
    8501     8499     8496     8494     8491     8489     8486     8485 
    8484     8482     8481     8480     8476     8475     8475     8473 
    8473     8472     8469     8468     8470     8471     8470     8471 
    8473     8473     8474     8477     8476     8475     8479     8482 
    8483     8484     8488     8491     8493     8494     8496     8499 
    8502     8504     8508     8512     8515     8517     8522     8528 
    8529     8531     8534     8538     8540     8542     8545     8550 
    8554     8556     8559     8563     8568     8568     8570     8575 
    8577     8578     8583     8585     8588     8593     8594     8596 
    8601     8603     8602     8604     8608     8611     8612     8613 
    8616     8618     8619     8621     8622     8623     8627     8628 
    8626     8626     8630     8632     8632     8633     8632     8632 
    8634     8635     8634     8632     8635     8638     8636     8635 
    8637     8638     8639     8640     8639     8640     8642     8640 
    8639     8641     8643     8644     8647     8647     8646     8648 
    8651     8650     8649     8651     8653     8654     8655     8657 
    8658     8659     8659     8661     8663     8662     8664     8668 
    8669     8669     8671     8671     8669     8669     8671     8672 
    8671     8671     8672     8673     8673     8672     8671     8670 
    8670     8672     8672     8669     8668     8669     8667     8666 
    8666     8663     8659     8659     8658     8656     8654     8653 
    8651     8648     8645     8643     8641     8637     8634     8631 
    8628     8626     8622     8619     8618     8615     8610     8607 
    8604     8599     8596     8593     8588     8584     8582     8579 
    8574     8569     8567     8565     8561     8557     8553     8548 
    8543     8540     8537     8533     8530     8527     8522     8519 
    8518     8514     8508     8505     8502     8497     8495     8493 
    8490     8486     8482     8479     8475     8470     8466     8464 
    8461     8456     8453     8449     8445     8442     8440     8437 
    8432     8427     8424     8421     8417     8412     8409     8407 
    8403     8400     8398     8394     8392     8389     8386     8385 
    8383     8380     8379     8377     8372     8371     8371     8369 
    8367     8366     8366     8365     8365     8364     8364     8365 
    8364     8364     8366     8365     8364     8367     8369     8368 
    8370     8372     8372     8372     8375     8379     8381     8384 
    8388     8389     8390     8393     8396     8399     8402     8404 
    8407     8413     8416     8418     8424     8429     8431     8433 
    8437     8441     8445     8448     8451     8456     8460     8463 
    8468     8473     8477     8480     8483     8485     8487     8490 
    8494     8498     8501     8503     8505     8508     8512     8515 
    8517     8518     8519     8522     8525     8526     8526     8528 
    8530     8533     8535     8536     8537     8538     8540     8542 
    8541     8540     8541     8543     8543     8545     8548     8549 
    8550     8550     8549     8550     8551     8551     8551     8551 
    8551     8554     8555     8554     8556     8558     8557     8558 
    8560     8561     8560     8562     8563     8563     8564     8567 
    8568     8567     8568     8571     8572     8572     8573     8575 
    8577     8578     8581     8583     8584     8585     8589     8590 
    8590     8592     8594     8596     8598     8600     8602     8604 
    8606     8607     8608     8610     8611     8613     8615     8617 
    8618     8621     8623     8625     8626     8625     8627     8629 
    8630     8633     8634     8635     8635     8633     8634     8635 
    8634     8636     8637     8635     8635     8636     8637     8635 
    8634     8633     8633     8633     8631     8627     8624     8624 
    8624     8621     8619     8619     8616     8613     8613     8611 
    8606     8603     8600     8596     8595     8594     8590     8585 
    8583     8579     8575     8573     8570     8565     8562     8559 
    8556     8552     8549     8545     8542     8539     8538     8535 
    8530     8528     8525     8521     8522     8519     8512     8510 
    8511     8508     8504     8502     8500     8497     8495     8492 
