Origin Time       2025/01/13 21:19:00
Lat.              31.8
Long.             131.6
Depth. (km)       30
Mag.              6.9
Station Code      NGSH03
Station Lat.      33.1256
Station Long.     129.8102
Station Height(m) 10
Record Time       2025/01/13 21:20:07
Sampling Freq(Hz) 100Hz
Duration Time(s)  181
Dir.              6
Scale Factor      7845(gal)/8223790
Max. Acc. (gal)   0.694
Last Correction   2025/01/13 21:20:09
Memo.             
[...]
    3456     3461     3465     3472     3481     3488     3496     3510 
    3530     3558     3591     3626     3661     3685     3697     3707 
    3711     3712     3708     3700     3693     3684     3672     3661 
    3653     3649     3657     3676     3696     3717     3735     3748 
    3762     3784     3807     3828     3851     3874     3896     3921 
    3950     3974     3990     4001     4008     4006     3997     3983 
    3969     3952     3942     3936     3927     3919     3923     3932 
    3948     3975     4008     4048     4091     4129     4167     4207 
    4239     4260     4271     4278     4280     4280     4276     4271 
    4263     4247     4225     4198     4166     4132     4099     4063 
    4025     3996     3967     3944     3924     3901     3871     3838 
    3804     3773     3746     3717     3688     3666     3645     3620 
    3601     3585     3565     3549     3537     3527     3523     3527 
    3531     3539     3555     3573     3592     3615     3636     3659 
    3689     3719     3746     3770     3793     3815     3832     3846 
    3851     3846     3835     3829     3828     3831     3835     3835 
    3839     3851     3866     3890     3921     3951     3983     4020 
    4052     4077     4097     4113     4124     4128     4133     4141 
    4148     4151     4151     4159     4174     4187     4201     4214 
    4228     4243     4257     4267     4272     4272     4272     4274 
    4270     4255     4237     4220     4195     4171     4158     4153 
    4153     4151     4144     4139     4133     4132     4133     4135 
    4136     4137     4144     4160     4183     4209     4232     4253 
    4271     4278     4278     4275     4266     4253     4247     4239 
    4226     4213     4203     4205     4213     4229     4252     4282 
    4317     4353     4388     4419     4444     4457     4459     4448 
    4429     4409     4387     4361     4333     4305     4280     4256 
    4239     4232     4228     4225     4224     4220     4213     4205 
    4198     4193     4190     4186     4179     4178     4176     4171 
    4166     4160     4153     4149     4143     4140     4143     4139 
    4131     4129     4131     4131     4132     4129     4125     4116 
    4099     4081     4055     4025     3996     3967     3942     3921 
    3904     3893     3883     3875     3869     3867     3865     3859 
    3861     3866     3871     3882     3896     3909     3923     3929 
    3931     3929     3925     3923     3924     3921     3921     3924 
    3925     3923     3919     3915     3909     3902     3883     3863 
    3842     3812     3775     3744     3716     3688     3658     3634 
    3616     3601     3589     3577     3561     3539     3515     3489 
    3464     3439     3412     3387     3365     3349     3339     3334 
    3329     3327     3327     3327     3334     3345     3362     3384 
    3406     3424     3445     3466     3476     3481     3489     3492 
    3487     3483     3478     3474     3472     3469     3466     3469 
    3483     3507     3537     3569     3605     3643     3677     3711 
    3742     3763     3778     3789     3792     3790     3789     3778 
    3765     3755     3750     3744     3739     3732     3732     3738 
    3748     3766     3786     3802     3817     3836     3856     3869 
    3877     3881     3878     3874     3869     3862     3862     3869 
    3879     3896     3915     3932     3947     3958     3963     3959 
    3954     3947     3932     3912     3893     3871     3843     3812 
    3781     3757     3740     3728     3713     3692     3666     3643 
    3624     3607     3592     3580     3565     3545     3522     3497 
    3470     3450     3433     3416     3411     3411     3419     3441 
    3478     3523     3566     3607     3645     3674     3697     3711 
    3713     3711     3707     3700     3696     3689     3680     3678 
    3689     3700     3716     3742     3773     3812     3854     3889 
    3920     3947     3967     3979     3987     4000     4023     4043 
    4059     4079     4094     4105     4118     4133     4152     4172 
    4186     4201     4224     4244     4257     4268     4276     4279 
    4282     4280     4279     4282     4278     4261     4239     4202 
    4160     4117     4064     4018     3986     3952     3923     3901 
    3883     3869     3862     3858     3854     3847     3838     3824 
    3811     3797     3785     3773     3761     3751     3744     3740 
    3743     3750     3761     3771     3786     3807     3832     3867 
    3909     3955     4005     4055     4101     4140     4178     4207 
    4228     4236     4234     4221     4197     4167     4137     4109 
    4085     4062     4040     4021     4004     3996     3996     3993 
    3996     3998     4002     4016     4028     4040     4059     4079 
    4099     4117     4128     4141     4156     4166     4176     4185 
    4191     4201     4206     4209     4213     4212     4198     4170 
    4131     4083     4029     3973     3921     3879     3850     3829 
    3821     3823     3828     3839     3854     3867     3883     3902 
    3917     3933     3951     3967     3985     4005     4024     4041 
    4055     4062     4056     4043     4023     4001     3978     3955 
    3935     3921     3912     3909     3917     3935     3960     3989 
    4014     4040     4060     4071     4071     4063     4050     4033 
    4014     3998     3989     3989     4005     4029     4058     4089 
    4121     4153     4183     4213     4245     4280     4318     4353 
    4383     4414     4441     4463     4479     4484     4480     4463 
    4436     4406     4379     4351     4325     4309     4298     4291 
    4291     4302     4320     4342     4364     4387     4409     4423 
    4434     4452     4473     4496     4521     4548     4571     4581 
    4576     4563     4537     4503     4465     4422     4365     4299 
    4236     4175     4116     4064     4020     3979     3943     3906 
    3866     3823     3778     3736     3689     3639     3588     3539 
    3496     3460     3433     3414     3396     3380     3364     3352 
    3343     3346     3356     3362     3372     3388     3403     3419 
    3438     3457     3477     3499     3518     3535     3557     3584 
    3608     3628     3647     3662     3672     3682     3693     3701 
    3708     3709     3705     3699     3685     3663     3636     3608 
    3573     3535     3499     3465     3439     3427     3414     3404 
    3410     3419     3430     3439     3449     3457     3460     3465 
    3466     3453     3437     3420     3397     3376     3360     3345 
    3333     3329     3331     3334     3337     3345     3354     3360 
    3366     3385     3410     3441     3477     3508     3538     3565 
    3585     3605     3632     3666     3705     3754     3808     3867 
    3932     3993     4045     4091     4126     4149     4162     4171 
    4175     4174     4172     4163     4147     4129     4104     4067 
    4032     3997     3960     3928     3902     3878     3855     3839 
    3828     3817     3807     3793     3775     3761     3744     3728 
    3719     3717     3717     3716     3717     3730     3744     3758 
    3773     3789     3804     3817     3836     3856     3877     3894 
    3910     3917     3913     3909     3906     3904     3901     3901 
    3910     3927     3947     3973     4002     4031     4054     4079 
    4105     4126     4151     4179     4207     4239     4268     4293 
    4311     4326     4330     4324     4313     4294     4261     4221 
    4180     4147     4121     4101     4094     4094     4095     4101 
    4105     4098     4087     4068     4037     4004     3973     3944 
    3916     3890     3867     3850     3844     3848     3862     3883 
    3906     3923     3939     3959     3973     3985     4001     4012 
    4018     4021     4021     4017     4014     4006     3990     3969 
    3946     3924     3905     3889     3874     3871     3877     3889 
    3912     3936     3956     3975     3987     3986     3978     3960 
    3931     3890     3846     3801     3757     3716     3685     3665 
    3650     3636     3628     3618     3608     3611     3626     3645 
    3670     3707     3751     3800     3847     3894     3933     3960 
    3979     3985     3975     3956     3935     3917     3904     3894 
    3883     3870     3856     3842     3820     3790     3755     3715 
    3676     3638     3605     3584     3569     3559     3559     3572 
    3591     3623     3661     3692     3717     3738     3748     3761 
    3778     3798     3816     3828     3838     3850     3854     3850 
    3843     3832     3813     3796     3782     3773     3770     3774 
    3781     3793     3811     3829     3846     3859     3869     3877 
    3883     3886     3890     3896     3898     3900     3910     3927 
    3942     3958     3977     3998     4024     4050     4075     4108 
    4147     4186     4229     4276     4324     4365     4398     4421 
    4440     4446     4442     4432     4415     4394     4372     4351 
    4329     4309     4288     4266     4243     4224     4205     4185 
    4167     4149     4132     4116     4105     4101     4098     4094 
    4093     4095     4098     4104     4114     4125     4136     4148 
    4153     4153     4151     4143     4132     4120     4108     4093 
    4072     4050     4027     4005     3983     3962     3936     3912 
    3892     3879     3869     3859     3851     3846     3840     3832 
    3828     3827     3821     3815     3805     3792     3777     3759 
    3740     3720     3699     3681     3663     3654     3654     3653 
    3654     3659     3666     3670     3673     3676     3674     3665 
    3653     3643     3632     3622     3612     3607     3607     3608 
    3611     3616     3623     3632     3642     3654     3666     3672 
    3673     3669     3663     3658     3653     3653     3655     3661 
    3667     3673     3674     3674     3667     3650     3631     3616 
    3597     3574     3554     3537     3523     3510     3488     3464 
    3446     3430     3412     3404     3400     3397     3403     3416 
    3434     3454     3474     3492     3505     3516     3530     3538 
    3541     3541     3535     3520     3500     3473     3442     3414 
    3389     3368     3357     3353     3354     3366     3385     3408 
    3441     3483     3530     3582     3638     3694     3759     3821 
    3881     3937     3987     4033     4070     4095     4117     4137 
    4151     4151     4141     4131     4114     4097     4078     4056 
    4028     3994     3963     3935     3909     3886     3863     3842 
    3827     3817     3808     3796     3786     3784     3785     3792 
    3811     3836     3862     3892     3927     3964     4000     4025 
    4041     4052     4054     4045     4032     4014     3985     3944 
    3904     3859     3813     3766     3713     3654     3592     3534 
    3483     3437     3392     3358     3337     3323     3319     3323 
    3329     3337     3342     3346     3346     3339     3329     3316 
    3302     3281     3261     3244     3233     3231     3235     3249 
    3277     3315     3356     3402     3453     3501     3542     3570 
    3593     3612     3622     3624     3623     3615     3607     3599 
    3591     3591     3596     3607     3627     3647     3667     3696 
    3726     3757     3792     3825     3861     3900     3936     3974 
    4014     4052     4090     4122     4139     4144     4148     4155 
    4160     4156     4158     4167     4170     4170     4174     4178 
    4182     4182     4179     4179     4171     4158     4147     4133 
    4113     4093     4072     4047     4021     4001     3982     3963 
    3944     3924     3901     3878     3852     3825     3800     3771 
    3744     3723     3707     3700     3703     3716     3740     3774 
    3811     3847     3881     3916     3951     3983     4016     4047 
    4075     4106     4140     4176     4213     4251     4286     4317 
    4341     4357     4364     4365     4359     4342     4318     4290 
    4256     4216     4171     4126     4086     4050     4013     3985 
    3967     3956     3951     3950     3955     3967     3975     3986 
    4002     4027     4048     4072     4104     4135     4160     4185 
    4205     4218     4222     4222     4221     4220     4212     4203 
    4197     4185     4166     4148     4128     4104     4079     4052 
    4027     4002     3974     3944     3919     3890     3863     3840 
    3819     3794     3769     3744     3721     3703     3681     3663 
    3649     3630     3609     3589     3572     3554     3539     3524 
    3512     3499     3483     3468     3460     3454     3449     3447 
    3454     3466     3473     3484     3504     3524     3541     3564 
    3592     3622     3655     3694     3734     3771     3811     3847 
    3878     3905     3925     3942     3951     3947     3937     3927 
    3908     3885     3865     3843     3819     3804     3797     3796 
    3798     3805     3820     3844     3870     3898     3931     3964 
    3994     4018     4033     4044     4055     4062     4063     4067 
    4071     4071     4074     4081     4089     4097     4116     4140 
    4163     4189     4217     4247     4278     4317     4357     4395 
    4433     4469     4502     4527     4553     4576     4591     4600 
    4606     4610     4611     4610     4607     4603     4592     4573 
    4549     4517     4477     4433     4384     4333     4282     4230 
    4185     4140     4098     4056     4017     3979     3942     3913 
    3886     3859     3836     3820     3809     3801     3796     3796 
    3802     3813     3831     3852     3875     3898     3924     3944 
    3956     3969     3973     3970     3959     3944     3923     3898 
    3875     3850     3823     3800     3775     3746     3716     3690 
    3666     3647     3628     3604     3578     3561     3542     3523 
    3507     3496     3491     3487     3484     3489     3496     3505 
    3520     3535     3545     3559     3580     3597     3612     3630 
    3647     3662     3677     3692     3707     3723     3740     3758 
    3775     3793     3812     3832     3852     3874     3894     3910 
    3927     3943     3954     3966     3985     4006     4032     4063 
    4093     4121     4148     4171     4189     4199     4205     4203 
    4198     4187     4172     4153     4132     4110     4090     4066 
    4039     4014     3997     3979     3955     3939     3929     3916 
    3904     3897     3894     3889     3881     3875     3870     3867 
    3866     3862     3859     3861     3863     3865     3867     3875 
    3890     3900     3902     3906     3913     3919     3919     3917 
    3920     3920     3915     3909     3909     3910     3912     3913 
    3920     3927     3931     3933     3931     3923     3920     3919 
    3917     3917     3917     3919     3919     3919     3920     3919 
    3915     3912     3908     3901     3894     3889     3882     3874 
    3867     3861     3855     3848     3835     3816     3796     3774 
    3753     3731     3708     3684     3659     3636     3620     3609 
    3605     3604     3603     3605     3612     3619     3627     3642 
    3659     3677     3694     3716     3736     3748     3755     3761 
    3759     3755     3747     3739     3732     3727     3727     3735 
    3742     3747     3757     3766     3774     3780     3782     3785 
    3790     3794     3802     3819     3835     3851     3870     3890 
    3905     3919     3933     3944     3951     3956     3960     3967 
    3973     3981     3987     3991     4000     4006     4009     4016 
    4024     4028     4032     4035     4031     4028     4025     4018 
    4004     3983     3962     3939     3916     3892     3873     3858 
    3847     3840     3838     3839     3843     3850     3859     3870 
    3882     3893     3901     3905     3908     3906     3904     3900 
    3896     3896     3900     3902     3908     3921     3939     3958 
    3975     3994     4016     4039     4059     4078     4094     4109 
    4124     4136     4145     4151     4152     4153     4156     4153 
    4148     4140     4126     4106     4083     4059     4027     3990 
    3956     3921     3885     3854     3828     3808     3786     3762 
    3743     3723     3699     3678     3665     3651     3639     3632 
    3630     3628     3630     3634     3638     3643     3645     3646 
    3650     3649     3646     3649     3653     3657     3662     3667 
    3674     3681     3686     3694     3700     3707     3717     3724 
    3731     3744     3758     3769     3782     3797     3815     3836 
    3856     3879     3910     3942     3973     4005     4035     4064 
    4090     4108     4118     4121     4121     4117     4106     4095 
    4085     4071     4055     4039     4027     4014     3998     3983 
    3969     3947     3925     3906     3882     3856     3838     3817 
    3798     3785     3771     3759     3750     3744     3743     3748 
    3759     3781     3808     3834     3865     3898     3928     3956 
    3983     4010     4039     4064     4089     4113     4136     4163 
    4190     4212     4232     4249     4257     4261     4264     4261 
    4255     4245     4236     4225     4213     4195     4176     4158 
    4136     4112     4086     4060     4039     4021     4005     3991 
    3982     3973     3962     3951     3946     3939     3927     3917 
    3913     3904     3896     3889     3879     3870     3862     3854 
    3844     3828     3813     3800     3789     3778     3765     3748 
    3735     3721     3709     3700     3692     3686     3684     3684 
    3690     3700     3713     3727     3742     3761     3784     3804 
    3824     3838     3850     3867     3882     3893     3904     3916 
    3925     3935     3943     3952     3963     3974     3983     3993 
    4000     4006     4009     4008     4006     4000     3987     3969 
    3950     3935     3921     3908     3894     3882     3875     3869 
    3862     3861     3863     3866     3871     3878     3883     3890 
    3901     3909     3910     3910     3912     3909     3905     3904 
    3902     3902     3908     3916     3927     3936     3942     3946 
    3946     3936     3928     3923     3910     3894     3878     3862 
    3842     3820     3800     3782     3762     3740     3720     3701 
    3688     3681     3674     3670     3673     3677     3678     3677 
    3676     3670     3662     3655     3649     3642     3639     3638 
    3638     3643     3650     3654     3662     3669     3673     3680 
    3685     3686     3692     3701     3711     3726     3740     3754 
    3771     3789     3804     3816     3825     3832     3836     3839 
    3843     3842     3842     3846     3848     3847     3843     3844 
    3847     3843     3836     3831     3828     3829     3834     3839 
    3848     3861     3871     3883     3896     3906     3917     3929 
    3937     3944     3948     3951     3954     3956     3955     3955 
    3958     3959     3958     3956     3958     3958     3954     3948 
    3943     3933     3925     3920     3906     3894     3888     3877 
