Origin Time       2025/01/13 21:19:00
Lat.              31.8
Long.             131.6
Depth. (km)       30
Mag.              6.9
Station Code      NGSH05
Station Lat.      32.9103
Station Long.     130.1408
Station Height(m) 29
Record Time       2025/01/13 21:20:02
Sampling Freq(Hz) 100Hz
Duration Time(s)  224
Dir.              6
Scale Factor      7845(gal)/8223790
Max. Acc. (gal)   1.402
Last Correction   2025/01/13 21:20:03
Memo.             
[...]
   35472    35440    35403    35359    35309    35264    35228    35183 
   35136    35098    35074    35063    35054    35028    34977    34902 
   34836    34803    34804    34825    34847    34851    34835    34803 
   34758    34709    34668    34638    34627    34634    34646    34673 
   34730    34824    34935    35024    35071    35082    35073    35047 
   34997    34909    34770    34595    34422    34284    34207    34196 
   34233    34302    34376    34431    34454    34454    34460    34488 
   34549    34638    34742    34857    34962    35043    35109    35174 
   35248    35333    35414    35480    35522    35538    35541    35530 
   35495    35438    35382    35348    35348    35379    35422    35448 
   35437    35398    35347    35302    35290    35311    35341    35368 
   35391    35407    35425    35451    35478    35505    35526    35537 
   35540    35545    35568    35607    35645    35661    35652    35625 
   35588    35553    35523    35484    35425    35352    35272    35201 
   35148    35127    35140    35172    35210    35247    35279    35303 
   35320    35325    35322    35321    35326    35336    35344    35332 
   35293    35228    35129    34998    34854    34720    34615    34543 
   34506    34485    34483    34501    34543    34595    34630    34646 
   34663    34695    34759    34859    34975    35081    35156    35193 
   35198    35190    35190    35208    35222    35205    35139    35039 
   34938    34851    34780    34711    34647    34601    34581    34595 
   34627    34657    34677    34699    34732    34782    34842    34898 
   34939    34946    34909    34840    34759    34704    34699    34735 
   34788    34840    34892    34938    34963    34951    34898    34821 
   34746    34688    34642    34603    34580    34595    34646    34705 
   34749    34754    34731    34715    34731    34784    34857    34935 
   35023    35106    35159    35166    35131    35083    35054    35051 
   35062    35077    35091    35093    35079    35048    35014    35005 
   35043    35121    35217    35305    35365    35395    35405    35398 
   35364    35301    35230    35172    35143    35148    35189    35256 
   35344    35444    35526    35580    35619    35665    35714    35752 
   35769    35769    35760    35758    35758    35746    35726    35712 
   35714    35730    35753    35770    35784    35803    35815    35810 
   35793    35789    35820    35873    35911    35908    35860    35797 
   35750    35715    35687    35654    35627    35631    35669    35727 
   35788    35838    35868    35869    35847    35822    35815    35842 
   35897    35945    35947    35891    35788    35656    35517    35386 
   35267    35158    35051    34942    34824    34708    34622    34591 
   34623    34704    34809    34923    35025    35117    35199    35270 
   35330    35372    35391    35392    35374    35341    35293    35216 
   35122    35031    34965    34940    34942    34944    34942    34929 
   34915    34908    34906    34905    34920    34956    35009    35066 
   35106    35124    35124    35120    35127    35155    35202    35267 
   35345    35421    35482    35519    35536    35527    35488    35418 
   35329    35225    35116    35013    34920    34842    34789    34773 
   34798    34848    34909    34986    35082    35186    35282    35341 
   35363    35361    35356    35353    35340    35310    35275    35256 
   35257    35256    35226    35154    35050    34933    34817    34726 
   34668    34635    34623    34618    34603    34572    34531    34501 
   34503    34535    34595    34670    34751    34836    34931    35017 
   35060    35044    34981    34893    34815    34762    34734    34720 
   34715    34708    34703    34704    34711    34726    34762    34831 
   34920    35008    35082    35145    35212    35291    35383    35483 
   35581    35669    35746    35808    35853    35874    35877    35885 
   35919    35973    36034    36082    36105    36107    36088    36045 
   35986    35927    35880    35847    35818    35784    35738    35677 
   35603    35522    35448    35395    35363    35344    35322    35293 
   35252    35190    35109    35019    34917    34811    34705    34603 
   34504    34420    34364    34329    34312    34322    34349    34384 
   34418    34443    34453    34458    34481    34538    34624    34720 
   34797    34834    34834    34821    34820    34838    34874    34921 
   34982    35051    35129    35218    35306    35383    35436    35452 
   35440    35422    35410    35399    35359    35257    35104    34933 
   34782    34682    34643    34628    34601    34560    34511    34464 
   34433    34426    34447    34489    34549    34622    34700    34766 
   34801    34815    34827    34840    34871    34940    35051    35183 
   35305    35392    35449    35502    35579    35688    35808    35916 
   35996    36039    36059    36078    36105    36147    36204    36250 
   36263    36250    36225    36197    36165    36119    36061    35997 
   35942    35889    35834    35791    35764    35746    35729    35691 
   35625    35540    35453    35382    35332    35299    35279    35271 
   35266    35263    35268    35286    35333    35421    35534    35644 
   35725    35783    35826    35849    35841    35792    35716    35646 
   35600    35584    35586    35577    35549    35510    35457    35405 
   35365    35333    35291    35228    35133    35006    34867    34728 
   34592    34462    34338    34222    34125    34056    34015    34005 
   34002    33984    33953    33921    33895    33886    33895    33926 
   33984    34065    34165    34268    34361    34437    34485    34510 
   34519    34518    34516    34518    34524    34539    34551    34560 
   34576    34601    34654    34744    34862    34971    35037    35055 
   35043    35016    34993    34973    34952    34924    34897    34888 
   34892    34898    34896    34870    34811    34734    34668    34622 
   34597    34588    34578    34568    34569    34588    34624    34673 
   34720    34765    34801    34839    34894    34979    35086    35199 
   35306    35398    35488    35583    35673    35752    35785    35762 
   35710    35664    35644    35658    35688    35696    35653    35564 
   35446    35317    35202    35121    35073    35037    35010    34987 
   34959    34927    34889    34827    34732    34618    34501    34410 
   34358    34341    34334    34329    34331    34356    34419    34516 
   34623    34707    34746    34738    34685    34609    34550    34528 
   34542    34585    34643    34712    34792    34888    35006    35144 
   35279    35406    35523    35633    35739    35838    35910    35954 
   35984    36001    36019    36043    36069    36093    36108    36088 
   36030    35951    35873    35808    35753    35687    35591    35471 
   35352    35260    35217    35224    35274    35349    35426    35483 
   35505    35495    35463    35409    35338    35257    35170    35095 
   35051    35033    35033    35041    35068    35122    35202    35297 
   35382    35438    35468    35479    35478    35465    35448    35438 
   35448    35479    35527    35581    35623    35635    35608    35536 
   35425    35301    35183    35102    35064    35054    35047    35028 
   34987    34931    34863    34796    34731    34662    34584    34506 
   34429    34357    34295    34241    34203    34190    34196    34222 
   34267    34327    34407    34503    34599    34680    34754    34838 
   34943    35077    35237    35388    35502    35580    35631    35650 
   35645    35627    35595    35552    35522    35519    35541    35581 
   35621    35640    35621    35568    35507    35460    35432    35414 
   35399    35388    35382    35383    35395    35402    35380    35324 
   35255    35202    35178    35187    35218    35244    35241    35213 
   35170    35120    35077    35046    35021    34989    34944    34885 
   34824    34784    34765    34755    34740    34717    34681    34639 
   34601    34570    34551    34551    34569    34604    34653    34709 
   34767    34823    34869    34900    34905    34875    34821    34744 
   34665    34614    34592    34591    34614    34655    34707    34766 
   34824    34875    34931    35000    35085    35179    35268    35332 
   35370    35394    35403    35410    35413    35411    35424    35448 
   35472    35486    35488    35479    35457    35429    35398    35356 
   35302    35245    35194    35148    35112    35079    35043    35008 
   34986    34990    35028    35104    35216    35353    35510    35672 
   35824    35966    36093    36193    36266    36310    36336    36352 
   36363    36356    36339    36312    36262    36188    36092    35985 
   35887    35806    35737    35660    35554    35414    35243    35068 
   34924    34811    34711    34622    34542    34477    34441    34427 
   34427    34427    34434    34442    34439    34429    34408    34373 
   34318    34241    34156    34076    34006    33957    33924    33893 
   33851    33808    33783    33801    33858    33930    33998    34053 
   34101    34152    34206    34249    34276    34283    34276    34265 
   34252    34222    34173    34105    34020    33937    33882    33864 
   33871    33883    33886    33879    33876    33905    33975    34072 
   34165    34233    34263    34272    34281    34306    34350    34420 
   34516    34632    34754    34870    34960    35021    35056    35071 
   35078    35086    35101    35118    35135    35145    35145    35139 
   35131    35129    35152    35202    35271    35340    35387    35406 
   35401    35379    35357    35341    35325    35311    35299    35286 
   35280    35302    35359    35445    35548    35645    35714    35760 
   35806    35864    35937    36012    36070    36111    36147    36196 
   36266    36343    36402    36427    36413    36385    36360    36352 
   36356    36356    36339    36297    36247    36205    36175    36157 
   36144    36126    36111    36108    36111    36115    36111    36081 
   36019    35934    35850    35797    35785    35806    35842    35872 
   35878    35857    35819    35770    35722    35677    35631    35587 
   35549    35510    35465    35417    35352    35267    35181    35106 
   35048    35009    34981    34959    34950    34950    34950    34952 
   34955    34954    34952    34950    34943    34932    34906    34865 
   34813    34759    34704    34662    34645    34647    34655    34647 
   34599    34508    34396    34288    34202    34145    34103    34064 
   34032    33998    33961    33921    33864    33795    33736    33696 
   33674    33681    33717    33760    33799    33843    33901    33988 
   34107    34252    34396    34520    34630    34736    34836    34928 
   35009    35068    35105    35128    35143    35149    35155    35152 
   35129    35082    35020    34960    34920    34913    34940    34982 
   35023    35056    35085    35117    35162    35214    35263    35316 
   35379    35451    35521    35583    35637    35687    35739    35800 
   35864    35922    35970    35995    35992    35973    35947    35927 
   35923    35932    35949    35964    35972    35981    35999    36020 
   36043    36058    36066    36065    36051    36035    36016    35989 
   35974    35984    36005    36023    36031    36032    36026    36019 
   36016    36015    36008    36000    35989    35964    35920    35869 
   35815    35762    35712    35672    35650    35645    35652    35661 
   35664    35645    35592    35506    35392    35249    35091    34932 
   34781    34650    34545    34453    34373    34308    34261    34236 
   34241    34284    34353    34427    34500    34561    34591    34593 
   34584    34576    34585    34616    34643    34639    34603    34545 
   34484    34439    34425    34438    34469    34507    34528    34523 
   34499    34465    34418    34358    34288    34207    34118    34038 
   33990    33988    34034    34117    34230    34361    34500    34641 
   34771    34890    34993    35077    35145    35205    35260    35305 
   35344    35380    35411    35430    35442    35451    35451    35441 
   35417    35365    35295    35220    35151    35108    35079    35052 
   35028    34998    34967    34942    34929    34933    34952    34986 
   35025    35060    35086    35100    35098    35089    35091    35105 
   35128    35164    35202    35224    35230    35229    35222    35210 
   35195    35168    35128    35085    35056    35055    35085    35145 
   35224    35301    35365    35419    35465    35502    35533    35557 
   35573    35592    35631    35685    35731    35752    35738    35694 
   35633    35577    35540    35522    35509    35483    35436    35361 
   35271    35182    35101    35040    34989    34925    34846    34762 
   34678    34603    34545    34497    34449    34398    34342    34287 
   34240    34207    34192    34190    34203    34233    34277    34335 
   34411    34508    34615    34720    34820    34917    35014    35108 
   35187    35248    35297    35330    35352    35370    35387    35403 
   35430    35469    35509    35552    35599    35644    35691    35739 
   35781    35810    35819    35811    35792    35773    35760    35757 
   35769    35799    35835    35872    35900    35910    35896    35868 
   35831    35783    35718    35641    35561    35479    35417    35395 
   35410    35455    35527    35618    35726    35845    35961    36074 
   36182    36281    36371    36452    36517    36559    36585    36598 
   36601    36597    36591    36571    36518    36431    36313    36178 
   36039    35905    35784    35668    35549    35430    35314    35197 
   35073    34946    34823    34712    34608    34514    34427    34346 
   34281    34237    34209    34199    34196    34188    34183    34177 
   34167    34150    34130    34105    34079    34059    34044    34045 
   34069    34105    34141    34171    34183    34179    34173    34177 
   34187    34199    34222    34246    34269    34292    34318    34341 
   34357    34361    34345    34323    34308    34306    34321    34354 
   34396    34438    34487    34534    34578    34626    34677    34730 
   34786    34852    34927    35008    35093    35172    35243    35299 
   35341    35371    35392    35414    35428    35428    35424    35421 
   35425    35436    35457    35488    35514    35533    35540    35534 
   35517    35490    35468    35453    35442    35445    35453    35469 
   35494    35522    35561    35611    35657    35698    35727    35756 
   35789    35835    35889    35937    35973    35995    35996    35984 
   35958    35915    35857    35785    35711    35634    35568    35518 
   35475    35436    35395    35334    35253    35166    35093    35040 
   35004    34977    34947    34919    34901    34900    34925    34967 
   35009    35054    35101    35137    35155    35143    35104    35039 
   34956    34877    34813    34773    34744    34715    34676    34626 
   34581    34562    34572    34596    34632    34668    34689    34697 
   34696    34711    34755    34828    34927    35035    35145    35256 
   35356    35442    35513    35563    35588    35586    35565    35548 
   35550    35572    35602    35633    35652    35649    35634    35615 
   35594    35573    35563    35556    35550    35553    35561    35565 
   35561    35552    35537    35522    35511    35509    35507    35506 
   35505    35498    35491    35492    35496    35496    35484    35455 
   35411    35368    35343    35345    35363    35386    35410    35425 
   35415    35388    35356    35320    35282    35253    35235    35229 
   35230    35229    35225    35221    35217    35206    35194    35182 
   35168    35159    35154    35143    35118    35083    35051    35024 
   35002    34989    34973    34944    34908    34866    34827    34805 
   34796    34789    34769    34734    34695    34655    34614    34572 
   34533    34496    34462    34439    34427    34425    34431    34443 
   34464    34493    34533    34582    34635    34690    34749    34804 
   34846    34877    34901    34913    34920    34928    34931    34925 
   34919    34911    34897    34882    34870    34852    34821    34784 
   34743    34703    34672    34650    34632    34616    34609    34609 
   34616    34635    34666    34708    34750    34789    34831    34863 
   34882    34894    34897    34901    34920    34943    34973    35014 
   35063    35113    35163    35212    35256    35297    35334    35375 
   35413    35445    35467    35473    35473    35475    35479    35482 
   35487    35500    35529    35567    35608    35649    35680    35699 
   35707    35700    35692    35692    35698    35715    35753    35796 
   35834    35862    35876    35872    35856    35834    35816    35802 
   35783    35764    35735    35692    35638    35577    35522    35475 
   35430    35397    35375    35367    35368    35375    35375    35360 
   35330    35282    35220    35159    35091    35019    34950    34890 
   34847    34816    34781    34738    34688    34628    34566    34506 
   34442    34385    34342    34300    34260    34218    34167    34110 
   34060    34026    34014    34014    34013    34013    34011    34006 
   34003    34007    34022    34049    34083    34123    34165    34202 
   34237    34280    34327    34376    34437    34500    34560    34615 
   34658    34688    34712    34746    34792    34834    34878    34924 
   34959    34997    35046    35098    35154    35208    35248    35276 
   35306    35340    35387    35444    35492    35534    35571    35603 
   35633    35657    35672    35681    35685    35687    35689    35699 
   35719    35746    35776    35803    35827    35851    35876    35897 
   35910    35899    35870    35827    35772    35715    35665    35621 
   35581    35553    35541    35536    35537    35538    35522    35494 
   35457    35421    35394    35379    35371    35357    35336    35313 
   35294    35283    35279    35283    35279    35260    35237    35218 
   35216    35237    35268    35305    35341    35365    35376    35376 
   35370    35363    35357    35351    35338    35316    35287    35252 
   35220    35189    35152    35109    35062    35014    34975    34943 
   34912    34882    34852    34823    34800    34789    34792    34808 
   34828    34847    34857    34852    34847    34846    34850    34857 
   34866    34877    34888    34905    34929    34951    34963    34963 
   34951    34940    34935    34921    34898    34870    34838    34811 
   34794    34793    34804    34825    34848    34867    34889    34916 
   34954    35000    35048    35089    35116    35133    35143    35140 
   35131    35116    35100    35089    35090    35112    35141    35176 
   35224    35279    35336    35394    35449    35494    35523    35540 
   35542    35533    35525    35523    35533    35549    35557    35545 
   35507    35452    35394    35343    35301    35259    35222    35194 
   35168    35147    35133    35124    35110    35090    35073    35063 
   35060    35074    35098    35120    35140    35155    35164    35174 
   35187    35209    35236    35266    35298    35343    35398    35449 
   35494    35530    35545    35538    35522    35503    35480    35460 
   35444    35425    35402    35375    35348    35332    35333    35349 
   35370    35386    35403    35422    35445    35476    35515    35560 
