Origin Time       2025/01/13 21:19:00
Lat.              31.8
Long.             131.6
Depth. (km)       30
Mag.              6.9
Station Code      NGSH03
Station Lat.      33.1256
Station Long.     129.8102
Station Height(m) 10
Record Time       2025/01/13 21:20:07
Sampling Freq(Hz) 100Hz
Duration Time(s)  181
Dir.              5
Scale Factor      7845(gal)/8223790
Max. Acc. (gal)   1.069
Last Correction   2025/01/13 21:20:09
Memo.             
[...]
   38113    38124    38105    38061    38001    37935    37878    37835 
   37812    37804    37801    37800    37800    37798    37797    37800 
   37812    37837    37882    37939    38002    38064    38119    38157 
   38178    38179    38163    38140    38121    38101    38086    38076 
   38068    38065    38074    38087    38097    38097    38091    38083 
   38070    38055    38036    38011    37982    37945    37905    37879 
   37870    37875    37899    37932    37963    37991    38005    37997 
   37982    37968    37963    37966    37979    38001    38020    38030 
   38032    38026    38021    38016    38018    38038    38075    38124 
   38183    38246    38303    38344    38364    38367    38354    38333 
   38306    38276    38244    38210    38171    38122    38065    38001 
   37933    37871    37822    37793    37777    37778    37797    37831 
   37867    37906    37948    37994    38040    38083    38117    38138 
   38142    38126    38091    38040    37982    37926    37882    37848 
   37829    37824    37832    37851    37876    37903    37929    37951 
   37967    37984    38007    38040    38086    38140    38192    38237 
   38275    38306    38327    38342    38356    38369    38379    38377 
   38365    38340    38306    38265    38222    38186    38159    38137 
   38119    38106    38080    38045    38003    37955    37905    37860 
   37820    37783    37752    37719    37679    37640    37600    37567 
   37550    37542    37539    37543    37547    37547    37554    37566 
   37582    37611    37655    37713    37781    37858    37941    38025 
   38102    38165    38211    38241    38256    38253    38236    38202 
   38155    38105    38059    38024    37999    37989    37982    37970 
   37951    37918    37874    37832    37797    37774    37775    37798 
   37828    37856    37883    37899    37903    37901    37897    37894 
   37893    37893    37899    37913    37932    37953    37980    38003 
   38024    38045    38071    38106    38156    38219    38294    38375 
   38453    38519    38566    38593    38607    38610    38601    38584 
   38557    38516    38470    38419    38369    38326    38291    38272 
   38268    38269    38281    38292    38295    38296    38292    38277 
   38257    38230    38198    38161    38114    38059    38002    37939 
   37874    37821    37783    37763    37759    37768    37786    37805 
   37825    37847    37864    37879    37886    37886    37878    37868 
   37868    37883    37912    37953    38002    38044    38072    38088 
   38095    38101    38106    38109    38107    38087    38043    37983 
   37912    37835    37766    37709    37666    37636    37611    37585 
   37563    37543    37527    37520    37525    37544    37571    37594 
   37608    37606    37596    37579    37563    37562    37582    37615 
   37652    37686    37702    37701    37683    37650    37606    37562 
   37517    37471    37428    37382    37343    37322    37320    37335 
   37369    37423    37490    37566    37652    37741    37827    37903 
   37967    38011    38038    38052    38053    38048    38041    38030 
   38014    37987    37940    37874    37793    37698    37602    37519 
   37451    37401    37369    37347    37328    37312    37297    37282 
   37272    37268    37269    37282    37308    37339    37380    37430 
   37490    37562    37642    37727    37812    37891    37959    38007 
   38037    38055    38055    38038    38017    37993    37967    37952 
   37943    37935    37926    37916    37901    37878    37847    37818 
   37801    37797    37812    37849    37908    37971    38028    38078 
   38110    38125    38137    38144    38149    38160    38175    38191 
   38200    38203    38202    38205    38213    38227    38248    38268 
   38280    38281    38271    38249    38227    38219    38229    38259 
   38303    38358    38421    38485    38547    38601    38646    38676 
   38681    38659    38599    38500    38380    38244    38094    37956 
   37837    37736    37660    37611    37577    37554    37543    37539 
   37546    37562    37589    37625    37669    37716    37764    37810 
   37856    37895    37920    37930    37929    37912    37885    37856 
   37825    37797    37771    37741    37705    37665    37627    37598 
   37582    37581    37597    37624    37656    37694    37736    37782 
   37833    37891    37949    37998    38036    38067    38083    38087 
   38088    38086    38078    38060    38034    38002    37963    37922 
   37891    37871    37867    37885    37917    37960    38005    38037 
   38049    38041    38011    37963    37910    37859    37813    37783 
   37766    37754    37752    37759    37762    37763    37760    37748 
   37732    37708    37679    37643    37602    37569    37550    37543 
   37558    37597    37651    37714    37781    37837    37882    37916 
   37941    37964    38005    38067    38144    38234    38337    38441 
   38533    38612    38686    38753    38809    38859    38897    38911 
   38890    38844    38770    38668    38556    38443    38333    38229 
   38140    38063    38003    37972    37968    37983    38013    38049 
   38082    38106    38121    38129    38133    38134    38128    38114 
   38087    38047    37995    37945    37899    37867    37847    37829 
   37804    37767    37714    37648    37573    37492    37415    37350 
   37297    37258    37233    37216    37201    37188    37174    37164 
   37153    37147    37149    37162    37189    37230    37288    37355 
   37430    37511    37592    37663    37727    37777    37808    37821 
   37827    37817    37798    37775    37748    37721    37701    37683 
   37670    37665    37663    37663    37662    37663    37670    37682 
   37705    37736    37767    37795    37825    37848    37860    37862 
   37855    37845    37847    37863    37897    37948    38013    38082 
   38149    38221    38299    38385    38479    38572    38654    38716 
   38761    38788    38796    38785    38767    38742    38708    38669 
   38624    38578    38535    38495    38461    38437    38418    38407 
   38406    38410    38422    38441    38460    38469    38470    38469 
   38465    38456    38441    38425    38411    38387    38349    38304 
   38257    38211    38168    38136    38115    38102    38095    38097 
   38099    38103    38106    38092    38065    38032    37987    37935 
   37885    37840    37808    37786    37778    37781    37786    37793 
   37798    37806    37816    37822    37820    37810    37793    37767 
   37735    37693    37654    37627    37609    37606    37621    37642 
   37662    37678    37685    37679    37667    37651    37635    37629 
   37632    37640    37644    37642    37635    37628    37624    37629 
   37646    37673    37701    37720    37728    37723    37705    37678 
   37639    37589    37532    37473    37409    37345    37284    37228 
   37177    37131    37092    37061    37049    37058    37087    37134 
   37195    37255    37308    37346    37358    37338    37297    37241 
   37179    37135    37122    37146    37206    37289    37382    37477 
   37565    37640    37708    37773    37837    37901    37966    38034 
   38101    38160    38213    38259    38292    38314    38322    38319 
   38311    38306    38300    38298    38302    38300    38288    38264 
   38227    38182    38129    38065    38003    37948    37898    37852 
   37817    37791    37777    37768    37766    37770    37778    37787 
   37797    37798    37798    37800    37805    37822    37862    37922 
   37993    38061    38118    38153    38163    38148    38117    38083 
   38061    38059    38083    38124    38171    38222    38267    38303 
   38335    38361    38380    38395    38404    38403    38394    38384 
   38381    38392    38421    38477    38556    38645    38738    38827 
   38894    38931    38942    38929    38900    38854    38793    38718 
   38638    38560    38485    38414    38354    38302    38252    38203 
   38159    38117    38078    38045    38017    37994    37980    37976 
   37982    37998    38022    38059    38097    38124    38146    38168 
   38183    38191    38198    38202    38209    38221    38244    38277 
   38311    38346    38380    38404    38408    38392    38365    38335 
   38302    38269    38246    38229    38210    38190    38169    38142 
   38118    38105    38101    38113    38142    38184    38232    38273 
   38302    38318    38321    38307    38279    38238    38190    38134 
   38079    38030    37987    37953    37930    37910    37893    37874 
   37854    37831    37808    37790    37779    37767    37759    37751 
   37735    37716    37702    37690    37686    37698    37728    37778 
   37837    37902    37971    38034    38092    38146    38199    38246 
   38283    38308    38319    38307    38273    38227    38171    38114 
   38065    38022    37984    37952    37918    37879    37836    37791 
   37744    37697    37658    37628    37609    37600    37600    37602 
   37598    37585    37565    37536    37501    37470    37449    37435 
   37431    37436    37449    37462    37473    37485    37498    37516 
   37546    37590    37651    37727    37804    37882    37966    38048 
   38122    38194    38257    38314    38364    38396    38410    38411 
   38399    38371    38335    38300    38263    38225    38191    38164 
   38138    38117    38101    38091    38082    38070    38057    38043 
   38024    38013    38010    38009    38016    38028    38038    38044 
   38049    38045    38037    38030    38028    38032    38055    38098 
   38157    38232    38322    38411    38496    38577    38657    38727 
   38784    38830    38858    38865    38853    38824    38781    38732 
   38678    38619    38558    38502    38449    38399    38348    38296 
   38246    38188    38126    38064    37997    37922    37851    37783 
   37719    37665    37619    37575    37535    37494    37455    37426 
   37401    37382    37374    37374    37376    37370    37350    37320 
   37285    37246    37208    37177    37161    37158    37170    37189 
   37214    37243    37280    37324    37369    37411    37450    37486 
   37519    37544    37563    37581    37596    37602    37601    37584 
   37550    37504    37447    37393    37355    37335    37343    37381 
   37436    37503    37574    37638    37686    37720    37737    37739 
   37725    37694    37651    37605    37570    37547    37540    37547 
   37559    37574    37588    37594    37602    37608    37613    37625 
   37646    37670    37694    37720    37741    37758    37768    37774 
   37773    37771    37773    37775    37778    37785    37794    37802 
   37808    37810    37808    37797    37771    37737    37702    37665 
   37628    37609    37611    37633    37678    37736    37810    37893 
   37971    38044    38109    38156    38184    38203    38225    38253 
   38294    38349    38415    38483    38549    38601    38635    38657 
   38670    38674    38677    38680    38682    38685    38681    38668 
   38649    38616    38568    38507    38441    38368    38291    38211 
   38132    38056    37986    37930    37898    37885    37890    37909 
   37929    37943    37948    37948    37945    37937    37926    37922 
   37920    37910    37901    37890    37870    37839    37795    37737 
   37663    37571    37467    37358    37251    37158    37081    37022 
   36987    36964    36949    36944    36948    36961    36980    37011 
   37060    37116    37177    37235    37287    37328    37358    37373 
   37377    37373    37361    37343    37319    37292    37262    37226 
   37192    37168    37156    37160    37189    37246    37323    37415 
   37512    37608    37698    37777    37840    37891    37932    37955 
   37960    37951    37928    37893    37854    37824    37814    37828 
   37868    37937    38025    38122    38225    38321    38407    38483 
   38543    38591    38628    38654    38666    38668    38655    38628 
   38578    38511    38426    38325    38218    38118    38030    37959 
   37914    37901    37913    37939    37979    38030    38090    38153 
   38219    38287    38348    38396    38435    38465    38489    38508 
   38530    38562    38592    38620    38657    38697    38735    38773 
   38803    38819    38823    38812    38788    38761    38732    38707 
   38689    38685    38691    38708    38736    38759    38770    38766 
   38740    38688    38616    38527    38427    38318    38206    38098 
   37999    37913    37843    37795    37770    37759    37758    37760 
   37760    37759    37754    37744    37733    37720    37697    37665 
   37623    37578    37534    37494    37469    37457    37458    37470 
   37484    37496    37503    37504    37498    37490    37478    37461 
   37442    37420    37395    37362    37326    37288    37254    37227 
   37208    37199    37197    37204    37215    37226    37241    37261 
   37280    37300    37326    37349    37363    37370    37362    37334 
   37291    37234    37174    37122    37088    37079    37096    37143 
   37214    37295    37377    37453    37517    37569    37602    37625 
   37639    37644    37647    37644    37632    37616    37598    37573 
   37551    37535    37513    37489    37465    37444    37432    37436 
   37451    37476    37511    37554    37597    37640    37686    37732 
   37785    37847    37917    37993    38074    38155    38234    38310 
   38376    38434    38483    38527    38574    38626    38676    38730 
   38786    38843    38900    38954    38996    39028    39047    39048 
   39033    39008    38971    38931    38892    38862    38842    38823 
   38801    38778    38745    38703    38653    38599    38541    38476 
   38408    38345    38283    38225    38178    38142    38124    38124 
   38136    38157    38179    38188    38184    38159    38109    38043 
   37964    37874    37775    37675    37574    37476    37382    37288 
   37197    37116    37049    36998    36968    36958    36968    37002 
   37050    37106    37166    37230    37289    37345    37395    37438 
   37469    37492    37513    37538    37561    37586    37621    37663 
   37708    37756    37812    37876    37948    38024    38097    38167 
   38230    38288    38346    38406    38461    38516    38565    38601 
   38623    38624    38603    38565    38518    38461    38402    38349 
   38306    38272    38254    38256    38264    38276    38288    38292 
   38283    38261    38232    38194    38155    38113    38070    38033 
   38005    37986    37979    37983    37999    38022    38040    38059 
   38083    38101    38111    38115    38113    38110    38106    38105 
   38110    38118    38125    38124    38114    38099    38072    38037 
   38006    37976    37944    37916    37890    37868    37847    37818 
   37789    37760    37731    37698    37669    37639    37609    37586 
   37570    37561    37558    37559    37565    37578    37590    37597 
   37602    37604    37600    37594    37592    37593    37601    37620 
   37651    37693    37740    37790    37833    37863    37887    37908 
   37921    37935    37952    37972    37995    38016    38029    38040 
   38048    38055    38070    38087    38107    38136    38164    38186 
   38206    38219    38221    38211    38186    38145    38095    38036 
   37972    37905    37835    37764    37700    37635    37573    37523 
   37484    37444    37412    37382    37351    37324    37301    37280 
   37261    37247    37237    37226    37212    37193    37170    37149 
   37134    37131    37142    37169    37211    37273    37347    37426 
   37513    37604    37686    37763    37832    37889    37943    37990 
   38032    38075    38121    38164    38215    38275    38334    38392 
   38443    38484    38514    38533    38545    38553    38557    38560 
   38561    38553    38538    38522    38504    38487    38472    38458 
   38446    38438    38433    38429    38423    38423    38426    38431 
   38437    38437    38423    38399    38365    38322    38273    38227 
   38184    38149    38121    38097    38068    38037    38002    37970 
   37945    37932    37930    37945    37964    37979    37989    37990 
   37983    37972    37962    37951    37939    37922    37903    37874 
   37836    37798    37758    37724    37702    37687    37681    37682 
   37682    37682    37682    37677    37667    37655    37644    37629 
   37611    37594    37586    37588    37606    37642    37679    37717 
   37754    37787    37816    37840    37860    37878    37894    37908 
   37921    37935    37949    37966    37983    37999    38013    38018 
   38017    38002    37974    37940    37901    37859    37820    37782 
   37746    37710    37677    37639    37601    37562    37517    37476 
   37443    37416    37392    37377    37361    37341    37323    37314 
   37311    37316    37324    37335    37349    37359    37365    37369 
   37377    37389    37408    37442    37485    37538    37602    37675 
   37748    37818    37886    37944    37987    38017    38034    38043 
   38049    38060    38075    38091    38114    38141    38165    38188 
   38211    38227    38240    38257    38273    38284    38288    38290 
   38287    38280    38280    38286    38295    38306    38318    38325 
   38326    38323    38315    38307    38303    38303    38310    38315 
   38319    38325    38323    38311    38295    38277    38260    38246 
   38245    38248    38253    38261    38271    38281    38288    38292 
   38300    38313    38327    38346    38362    38376    38388    38398 
   38406    38408    38408    38407    38394    38369    38337    38295 
   38246    38202    38160    38125    38102    38088    38078    38071 
   38060    38043    38016    37980    37940    37906    37881    37866 
   37866    37875    37883    37897    37922    37947    37975    38013 
   38055    38091    38121    38141    38153    38156    38156    38159 
   38167    38183    38206    38238    38267    38286    38298    38300 
   38290    38275    38257    38236    38207    38169    38125    38072 
   38011    37948    37886    37832    37789    37759    37743    37737 
   37739    37736    37731    37724    37710    37698    37692    37689 
   37689    37693    37698    37700    37696    37686    37674    37666 
   37663    37658    37654    37651    37642    37625    37604    37582 
   37563    37547    37530    37513    37498    37481    37459    37434 
   37404    37373    37343    37316    37293    37278    37278    37285 
   37299    37319    37345    37376    37405    37439    37476    37509 
   37544    37582    37619    37652    37685    37713    37737    37758 
   37777    37787    37793    37795    37793    37791    37791    37791 
   37800    37818    37843    37868    37894    37920    37945    37966 
   37987    38006    38017    38026    38040    38049    38061    38078 
   38094    38110    38128    38140    38153    38164    38171    38179 
   38186    38188    38192    38196    38195    38194    38195    38199 
   38206    38218    38234    38252    38269    38284    38294    38292 
   38283    38267    38245    38222    38202    38180    38163    38151 
   38144    38142    38145    38153    38165    38182    38194    38196 
   38196    38190    38172    38156    38151    38148    38148    38157 
   38165    38171    38178    38180    38178    38171    38163    38155 
