Origin Time       2025/01/13 21:19:00
Lat.              31.8
Long.             131.6
Depth. (km)       30
Mag.              6.9
Station Code      NGSH01
Station Lat.      33.2116
Station Long.     129.4353
Station Height(m) 30
Record Time       2025/01/13 21:20:21
Sampling Freq(Hz) 100Hz
Duration Time(s)  157
Dir.              6
Scale Factor      7845(gal)/8223790
Max. Acc. (gal)   1.120
Last Correction   2025/01/13 21:20:22
Memo.             
[...]
   33053    33043    33031    33023    33022    33034    33054    33069 
   33076    33075    33061    33037    33014    32999    32992    32991 
   33003    33031    33076    33133    33189    33247    33304    33349 
   33384    33412    33431    33439    33442    33442    33443    33453 
   33473    33489    33501    33513    33520    33519    33513    33498 
   33470    33431    33393    33359    33326    33292    33257    33223 
   33199    33180    33157    33130    33100    33062    33023    32987 
   32952    32919    32892    32869    32859    32860    32865    32869 
   32876    32887    32896    32896    32887    32863    32832    32795 
   32749    32697    32645    32599    32567    32551    32541    32540 
   32549    32568    32589    32605    32621    32629    32622    32605 
   32580    32544    32497    32441    32381    32319    32260    32209 
   32165    32134    32117    32109    32109    32128    32165    32206 
   32248    32287    32321    32348    32368    32381    32383    32381 
   32368    32341    32306    32263    32213    32162    32115    32081 
   32063    32065    32090    32134    32185    32244    32305    32360 
   32410    32445    32468    32479    32483    32489    32495    32498 
   32498    32505    32516    32528    32537    32547    32559    32576 
   32601    32634    32676    32726    32783    32840    32896    32954 
   33003    33035    33058    33068    33069    33062    33054    33045 
   33035    33026    33022    33030    33048    33066    33083    33091 
   33089    33085    33085    33085    33083    33079    33079    33073 
   33069    33076    33083    33083    33084    33081    33069    33058 
   33045    33023    32999    32977    32954    32937    32929    32934 
   32945    32965    33000    33038    33064    33079    33080    33064 
   33041    33011    32980    32946    32910    32876    32854    32846 
   32848    32854    32865    32877    32890    32900    32906    32908 
   32908    32906    32902    32906    32918    32935    32968    33006 
   33039    33066    33083    33088    33079    33057    33038    33023 
   33016    33015    33014    33012    33008    32999    32984    32968 
   32949    32925    32902    32883    32867    32856    32850    32850 
   32856    32865    32880    32904    32935    32969    33004    33035 
   33064    33093    33124    33151    33170    33177    33176    33169 
   33161    33151    33137    33111    33081    33056    33033    33004 
   32977    32960    32960    32969    32987    33010    33037    33064 
   33087    33104    33123    33134    33126    33110    33097    33088 
   33080    33070    33057    33046    33046    33052    33053    33056 
   33062    33066    33064    33057    33048    33031    33018    33014 
   33008    33000    32992    32983    32975    32968    32952    32930 
   32917    32900    32877    32859    32846    32833    32822    32818 
   32817    32814    32815    32818    32818    32809    32795    32786 
   32784    32792    32813    32844    32876    32906    32931    32953 
   32969    32979    32989    33003    33014    33031    33056    33077 
   33106    33145    33178    33205    33223    33224    33216    33205 
   33188    33165    33146    33137    33133    33134    33142    33151 
   33160    33161    33153    33138    33126    33118    33114    33112 
   33114    33119    33126    33133    33133    33127    33116    33099 
   33081    33064    33052    33049    33052    33056    33056    33060 
   33065    33064    33056    33037    33004    32962    32923    32888 
   32867    32854    32850    32860    32876    32896    32923    32952 
   32972    32979    32975    32962    32945    32926    32910    32896 
   32886    32877    32872    32869    32861    32849    32833    32815 
   32803    32799    32803    32815    32830    32845    32859    32867 
   32877    32887    32888    32887    32890    32895    32903    32913 
   32918    32922    32926    32931    32937    32953    32976    33004 
   33037    33061    33072    33072    33065    33049    33025    32994 
   32958    32926    32900    32881    32872    32872    32872    32867 
   32856    32840    32822    32799    32773    32748    32722    32698 
   32684    32680    32686    32698    32705    32703    32692    32680 
   32670    32652    32628    32613    32613    32616    32624    32637 
   32649    32664    32682    32695    32699    32695    32687    32676 
   32660    32644    32630    32624    32628    32636    32645    32663 
   32678    32683    32683    32672    32655    32641    32629    32616 
   32597    32579    32567    32553    32543    32537    32536    32532 
   32525    32518    32512    32508    32518    32540    32568    32605 
   32645    32684    32721    32748    32761    32768    32776    32790 
   32807    32834    32868    32907    32949    32989    33033    33080 
   33124    33164    33195    33218    33231    33228    33218    33210 
   33201    33196    33195    33195    33188    33173    33150    33124 
   33096    33072    33060    33050    33043    33049    33064    33091 
   33131    33180    33227    33272    33315    33346    33357    33355 
   33345    33323    33299    33281    33269    33259    33253    33238 
   33214    33187    33154    33120    33093    33070    33050    33038 
   33030    33026    33023    33022    33023    33019    33004    32984 
   32957    32925    32887    32852    32829    32822    32827    32840 
   32865    32898    32931    32972    33015    33048    33061    33064 
   33057    33039    33014    32984    32956    32933    32921    32918 
   32926    32940    32952    32954    32952    32946    32940    32934 
   32930    32929    32934    32945    32962    32985    33011    33041 
   33069    33091    33103    33108    33107    33104    33102    33100 
   33093    33083    33073    33070    33073    33079    33081    33084 
   33084    33083    33081    33080    33077    33070    33064    33058 
   33054    33054    33056    33061    33072    33080    33079    33075 
   33068    33058    33042    33018    32991    32967    32949    32941 
   32949    32968    32999    33041    33085    33123    33154    33178 
   33191    33192    33189    33178    33165    33160    33150    33141 
   33134    33127    33112    33084    33049    33014    32975    32933 
   32900    32875    32852    32845    32853    32869    32891    32919 
   32946    32965    32975    32971    32950    32919    32886    32856 
   32829    32806    32790    32783    32786    32796    32810    32827 
   32848    32872    32899    32925    32948    32968    32984    32988 
   32979    32964    32948    32929    32906    32877    32850    32826 
   32802    32779    32769    32772    32782    32796    32817    32837 
   32856    32873    32886    32891    32894    32892    32888    32884 
   32875    32861    32844    32821    32796    32775    32757    32749 
   32749    32751    32753    32765    32776    32782    32782    32773 
   32753    32730    32710    32692    32676    32668    32667    32674 
   32684    32691    32691    32688    32675    32652    32630    32606 
   32587    32583    32587    32598    32626    32660    32691    32717 
   32736    32751    32760    32761    32757    32748    32740    32740 
   32742    32753    32775    32799    32821    32837    32845    32852 
   32854    32854    32856    32860    32868    32876    32883    32892 
   32899    32902    32908    32923    32942    32967    33000    33042 
   33085    33129    33168    33199    33224    33241    33243    33239 
   33234    33227    33222    33216    33215    33216    33214    33210 
   33204    33196    33185    33174    33164    33153    33145    33139 
   33134    33124    33116    33108    33099    33095    33089    33076 
   33064    33046    33015    32979    32944    32913    32891    32873 
   32850    32827    32807    32788    32769    32752    32730    32707 
   32688    32670    32648    32622    32595    32567    32541    32520 
   32499    32479    32470    32468    32470    32476    32489    32503 
   32514    32517    32514    32506    32494    32476    32456    32436 
   32417    32405    32406    32413    32421    32436    32452    32470 
   32490    32503    32512    32513    32509    32501    32491    32481 
   32472    32471    32475    32487    32508    32532    32562    32598 
   32638    32678    32711    32738    32755    32760    32759    32755 
   32748    32744    32748    32757    32761    32772    32792    32815 
   32841    32871    32904    32933    32960    32988    33007    33014 
   33016    33015    33004    32995    32987    32976    32965    32960 
   32954    32945    32937    32931    32929    32930    32935    32946 
   32958    32972    32985    32995    33003    33010    33014    33023 
   33039    33050    33054    33049    33034    33016    32998    32977 
   32956    32927    32895    32867    32833    32798    32771    32753 
   32744    32744    32746    32748    32751    32753    32749    32752 
   32760    32765    32769    32775    32778    32778    32775    32771 
   32768    32771    32780    32796    32821    32846    32872    32898 
   32919    32931    32941    32953    32962    32967    32971    32973 
   32981    32995    33006    33015    33023    33026    33025    33026 
   33026    33021    33014    33011    33011    33014    33021    33019 
   33008    32992    32972    32954    32940    32927    32922    32919 
   32915    32913    32911    32917    32922    32922    32922    32922 
   32918    32911    32906    32896    32884    32875    32868    32871 
   32884    32899    32913    32931    32949    32960    32972    32981 
   32991    33008    33029    33053    33083    33107    33123    33135 
   33145    33149    33147    33150    33158    33168    33177    33188 
   33197    33207    33214    33211    33200    33189    33178    33162 
   33143    33126    33106    33089    33081    33079    33083    33089 
   33096    33102    33103    33096    33092    33093    33093    33097 
   33107    33122    33143    33165    33176    33177    33172    33157 
   33130    33103    33079    33054    33029    32999    32972    32956 
   32949    32956    32972    32989    33000    33002    32995    32981 
   32960    32935    32906    32869    32826    32784    32748    32714 
   32684    32653    32622    32601    32586    32574    32568    32567 
   32567    32574    32587    32607    32628    32643    32649    32651 
   32645    32633    32621    32610    32598    32586    32578    32567 
   32549    32529    32510    32494    32481    32468    32462    32460 
   32459    32454    32451    32448    32441    32429    32416    32397 
   32375    32359    32347    32332    32317    32316    32317    32317 
   32324    32335    32344    32354    32367    32379    32390    32402 
   32416    32422    32421    32417    32410    32398    32386    32377 
   32368    32363    32364    32373    32385    32405    32435    32470 
   32505    32536    32563    32587    32607    32629    32651    32671 
   32697    32721    32742    32765    32787    32810    32829    32844 
   32856    32863    32868    32879    32887    32892    32898    32898 
   32894    32888    32883    32879    32879    32879    32875    32871 
   32871    32871    32871    32873    32881    32895    32914    32938 
   32967    33000    33041    33083    33119    33154    33187    33218 
   33255    33293    33328    33363    33400    33432    33465    33490 
   33507    33520    33529    33535    33542    33551    33562    33571 
   33586    33604    33625    33651    33681    33706    33721    33725 
   33720    33704    33678    33650    33617    33582    33551    33525 
   33507    33493    33484    33480    33478    33478    33486    33497 
   33504    33513    33520    33523    33520    33511    33493    33473 
   33453    33435    33420    33409    33405    33407    33408    33409 
   33413    33416    33411    33405    33400    33394    33392    33393 
   33394    33397    33400    33404    33401    33389    33372    33343 
   33309    33274    33237    33201    33172    33145    33119    33095 
   33070    33050    33033    33018    33004    32995    32988    32981 
   32975    32960    32938    32918    32902    32886    32865    32845 
   32822    32796    32768    32737    32706    32671    32633    32602 
   32580    32563    32548    32535    32521    32503    32481    32456 
   32422    32385    32347    32309    32274    32242    32209    32184 
   32166    32148    32134    32124    32116    32107    32100    32093 
   32082    32069    32057    32042    32023    32004    31986    31963 
   31936    31912    31895    31887    31889    31901    31926    31957 
   31985    32016    32050    32078    32100    32120    32142    32152 
   32154    32158    32161    32161    32161    32166    32174    32188 
   32201    32215    32229    32242    32244    32247    32251    32251 
   32256    32267    32281    32298    32321    32346    32373    32400 
   32427    32449    32470    32491    32513    32530    32553    32578 
   32598    32621    32643    32657    32679    32702    32715    32732 
   32748    32757    32765    32773    32782    32795    32817    32845 
   32877    32918    32961    32998    33035    33073    33103    33131 
   33162    33185    33205    33230    33251    33274    33303    33336 
   33376    33420    33466    33512    33554    33592    33627    33651 
   33673    33702    33736    33772    33813    33856    33901    33943 
   33978    34010    34037    34059    34074    34080    34079    34071 
   34056    34037    34015    33993    33967    33941    33920    33899 
   33882    33867    33851    33832    33813    33794    33777    33758 
   33740    33725    33708    33689    33673    33650    33621    33590 
   33556    33517    33475    33440    33408    33377    33351    33328 
   33305    33282    33259    33243    33234    33232    33235    33235 
   33226    33212    33192    33165    33135    33099    33061    33023 
   32984    32948    32918    32892    32871    32854    32841    32834 
   32825    32813    32800    32786    32769    32756    32751    32746 
   32741    32737    32728    32711    32691    32675    32651    32622 
   32598    32563    32520    32475    32431    32390    32355    32323 
   32294    32270    32250    32229    32204    32177    32152    32125 
   32100    32081    32067    32058    32051    32046    32038    32031 
   32027    32030    32036    32049    32066    32084    32104    32130 
   32158    32186    32217    32250    32282    32308    32336    32367 
   32393    32416    32441    32470    32501    32535    32567    32595 
   32617    32638    32661    32684    32711    32744    32780    32823 
   32863    32900    32935    32965    32989    33008    33021    33027 
   33030    33034    33037    33039    33049    33068    33088    33112 
   33143    33174    33201    33227    33251    33272    33288    33301 
   33319    33334    33338    33335    33328    33316    33300    33276 
   33250    33226    33200    33177    33160    33149    33143    33143 
   33149    33153    33154    33154    33154    33158    33160    33161 
   33162    33162    33161    33158    33157    33149    33141    33133 
   33120    33114    33118    33123    33130    33143    33157    33169 
   33183    33191    33189    33184    33173    33151    33123    33089 
   33052    33014    32977    32941    32910    32894    32888    32892 
   32904    32923    32945    32969    32996    33018    33034    33046 
   33050    33043    33038    33033    33025    33016    33008    32999 
   32991    32984    32980    32980    32985    32994    33003    33018 
   33038    33062    33091    33119    33141    33156    33165    33168 
   33161    33146    33126    33097    33066    33041    33019    33004 
   32992    32985    32987    32992    33002    33012    33025    33038 
   33054    33073    33088    33099    33107    33107    33102    33092 
   33079    33064    33046    33027    33010    32995    32983    32972 
   32969    32968    32960    32952    32948    32937    32922    32906 
   32886    32859    32833    32813    32794    32775    32759    32742 
   32725    32707    32692    32676    32664    32663    32668    32679 
   32695    32713    32725    32734    32738    32738    32730    32717 
   32706    32697    32691    32694    32707    32728    32749    32771 
   32795    32819    32841    32863    32880    32892    32903    32908 
   32910    32911    32913    32911    32906    32899    32888    32873 
   32857    32842    32826    32814    32809    32807    32815    32832 
   32849    32869    32891    32906    32914    32919    32919    32913 
   32902    32881    32856    32834    32817    32803    32795    32790 
   32787    32794    32806    32823    32846    32872    32898    32926 
   32948    32964    32976    32977    32973    32967    32953    32941 
   32935    32931    32927    32926    32927    32929    32933    32938 
   32946    32954    32964    32977    32994    33006    33018    33029 
   33034    33041    33045    33043    33033    33012    32988    32961 
   32933    32904    32880    32860    32848    32842    32841    32844 
   32853    32861    32871    32880    32881    32879    32876    32868 
   32860    32857    32856    32848    32837    32826    32817    32803 
   32788    32776    32763    32748    32737    32736    32742    32749 
   32755    32760    32763    32765    32768    32772    32773    32769 
   32760    32751    32744    32736    32730    32733    32748    32765 
   32779    32795    32814    32832    32853    32880    32908    32935 
   32956    32977    33000    33019    33029    33035    33038    33033 
   33023    33016    33007    32996    32983    32972    32968    32967 
   32969    32976    32980    32987    33002    33016    33033    33052 
   33070    33088    33107    33127    33147    33166    33183    33199 
   33214    33228    33239    33243    33243    33242    33237    33226 
   33215    33203    33193    33185    33172    33157    33143    33130 
   33119    33114    33116    33123    33130    33141    33149    33149 
   33147    33145    33135    33122    33112    33103    33093    33083 
   33076    33075    33075    33075    33077    33076    33072    33070 
   33072    33075    33079    33079    33077    33077    33076    33076 
   33076    33072    33068    33062    33052    33041    33034    33022 
   33002    32980    32957    32930    32899    32871    32842    32811 
   32780    32753    32726    32705    32690    32670    32655    32649 
   32647    32641    32638    32634    32628    32622    32614    32609 
   32607    32603    32601    32605    32611    32621    32636    32651 
   32664    32678    32695    32709    32714    32719    32725    32733 
   32738    32741    32745    32749    32751    32745    32734    32721 
   32707    32694    32679    32667    32657    32655    32656    32661 
   32672    32686    32703    32722    32737    32749    32752    32751 
   32749    32744    32732    32725    32724    32719    32717    32724 
   32729    32730    32736    32742    32748    32760    32776    32796 
   32817    32837    32861    32887    32910    32934    32961    32983 
   32994    33003    33008    33004    32998    32989    32979    32973 
   32973    32973    32977    32988    33007    33037    33066    33096 
