Origin Time       2025/01/13 21:19:00
Lat.              31.8
Long.             131.6
Depth. (km)       30
Mag.              6.9
Station Code      NGSH03
Station Lat.      33.1256
Station Long.     129.8102
Station Height(m) -190
Record Time       2025/01/13 21:20:07
Sampling Freq(Hz) 100Hz
Duration Time(s)  181
Dir.              1
Scale Factor      3923(gal)/8224838
Max. Acc. (gal)   0.791
Last Correction   2025/01/13 21:20:09
Memo.             
[...]
   17072    17080    17080    17069    17050    17019    16969    16906 
   16842    16772    16690    16610    16536    16457    16382    16317 
   16255    16198    16152    16119    16089    16063    16043    16025 
   16006    15992    15979    15959    15936    15916    15890    15859 
   15824    15788    15741    15685    15623    15560    15493    15429 
   15372    15323    15275    15228    15182    15134    15091    15053 
   15016    14983    14962    14948    14935    14924    14921    14925 
   14936    14959    14986    15012    15041    15074    15103    15129 
   15155    15180    15202    15228    15260    15294    15327    15368 
   15404    15433    15454    15469    15477    15483    15479    15469 
   15460    15446    15427    15406    15387    15368    15346    15326 
   15307    15290    15277    15268    15260    15261    15273    15296 
   15327    15364    15410    15468    15534    15603    15673    15738 
   15799    15862    15920    15975    16032    16082    16124    16160 
   16189    16214    16244    16276    16313    16357    16409    16467 
   16525    16579    16626    16667    16702    16737    16773    16807 
   16841    16870    16891    16906    16914    16904    16884    16858 
   16821    16779    16744    16715    16692    16673    16663    16660 
   16665    16673    16686    16698    16707    16713    16715    16714 
   16710    16696    16676    16656    16632    16606    16580    16553 
   16532    16518    16507    16505    16510    16519    16538    16563 
   16586    16606    16623    16636    16642    16648    16654    16664 
   16673    16681    16688    16696    16698    16695    16690    16676 
   16653    16629    16603    16569    16540    16511    16478    16447 
   16416    16383    16351    16322    16298    16281    16271    16275 
   16293    16326    16376    16436    16505    16580    16661    16742 
   16816    16884    16938    16976    16999    17011    17018    17019 
   17022    17028    17038    17051    17072    17096    17122    17147 
   17176    17209    17239    17267    17296    17319    17339    17356 
   17369    17377    17381    17382    17389    17392    17389    17393 
   17401    17410    17417    17423    17421    17413    17402    17390 
   17375    17367    17365    17362    17362    17369    17371    17365 
   17348    17324    17294    17259    17226    17193    17162    17135 
   17111    17086    17059    17028    16991    16947    16897    16848 
   16799    16748    16703    16671    16640    16615    16605    16600 
   16598    16599    16607    16619    16629    16634    16638    16641 
   16640    16636    16627    16619    16607    16587    16567    16540 
   16503    16465    16426    16387    16344    16301    16256    16206 
   16154    16100    16036    15971    15909    15844    15781    15726 
   15680    15649    15624    15611    15614    15623    15634    15657 
   15685    15716    15750    15782    15807    15822    15830    15824 
   15805    15778    15738    15691    15647    15604    15564    15531 
   15506    15487    15480    15493    15527    15570    15623    15681 
   15742    15801    15858    15911    15962    16012    16058    16097 
   16135    16170    16202    16233    16260    16279    16287    16283 
   16272    16256    16233    16205    16175    16147    16119    16087 
   16058    16033    16012    15993    15982    15978    15977    15981 
   15989    15994    15997    16005    16013    16015    16016    16013 
   16008    15998    15973    15938    15898    15843    15778    15715 
   15658    15606    15561    15530    15516    15515    15531    15568 
   15620    15689    15781    15888    15997    16112    16224    16324 
   16410    16486    16548    16596    16640    16673    16695    16708 
   16715    16708    16687    16656    16611    16555    16490    16420 
   16347    16278    16212    16155    16116    16087    16066    16056 
   16052    16052    16052    16056    16063    16073    16083    16092 
   16102    16119    16136    16164    16204    16245    16290    16336 
   16383    16429    16470    16509    16548    16587    16627    16667 
   16706    16752    16799    16841    16881    16920    16951    16972 
   16978    16976    16962    16934    16897    16853    16798    16738 
   16671    16594    16515    16437    16357    16285    16221    16163 
   16120    16098    16090    16094    16108    16133    16173    16220 
   16276    16343    16406    16471    16538    16598    16649    16692 
   16729    16760    16787    16808    16827    16852    16872    16887 
   16900    16902    16887    16857    16806    16740    16665    16583 
   16502    16424    16349    16285    16233    16191    16156    16132 
   16110    16098    16104    16125    16164    16221    16291    16368 
   16451    16537    16623    16713    16806    16893    16976    17054 
   17128    17196    17258    17313    17369    17417    17459    17498 
   17540    17579    17613    17641    17668    17690    17699    17701 
   17691    17666    17626    17578    17512    17428    17340    17246 
   17143    17043    16949    16856    16772    16698    16636    16588 
   16553    16526    16506    16491    16480    16461    16434    16406 
   16375    16333    16287    16237    16182    16128    16077    16033 
   16000    15974    15958    15947    15946    15951    15955    15962 
   15970    15971    15963    15944    15909    15865    15813    15755 
   15692    15623    15554    15491    15433    15385    15356    15344 
   15348    15365    15392    15427    15472    15520    15572    15618 
   15661    15699    15724    15738    15742    15739    15731    15716 
   15697    15676    15651    15628    15607    15587    15569    15561 
   15565    15579    15601    15642    15693    15751    15819    15893 
   15961    16020    16081    16141    16197    16256    16318    16380 
   16444    16507    16569    16626    16673    16710    16740    16760 
   16775    16791    16806    16818    16834    16852    16866    16885 
   16904    16919    16942    16972    17000    17032    17069    17105 
   17136    17158    17172    17180    17180    17176    17172    17166 
   17162    17165    17173    17181    17197    17219    17242    17269 
   17300    17331    17356    17377    17386    17379    17354    17313 
   17258    17190    17116    17041    16974    16915    16860    16816 
   16789    16773    16762    16760    16765    16776    16789    16806 
   16812    16806    16789    16758    16721    16680    16630    16579 
   16540    16511    16490    16476    16467    16460    16459    16456 
   16452    16449    16443    16432    16421    16406    16384    16359 
   16326    16290    16247    16197    16146    16093    16038    15984 
   15936    15890    15846    15801    15758    15715    15673    15637 
   15604    15573    15547    15531    15523    15523    15527    15537 
   15547    15560    15576    15597    15622    15646    15670    15696 
   15718    15732    15742    15742    15731    15711    15681    15642 
   15596    15550    15507    15469    15445    15435    15438    15456 
   15485    15520    15561    15607    15653    15696    15734    15770 
   15807    15839    15869    15894    15916    15932    15940    15943 
   15947    15946    15942    15944    15952    15959    15967    15977 
   15988    16004    16028    16060    16101    16151    16206    16260 
   16313    16368    16425    16480    16536    16588    16634    16675 
   16713    16742    16767    16785    16800    16810    16810    16802 
   16787    16764    16731    16695    16657    16623    16595    16569 
   16553    16544    16538    16537    16545    16563    16586    16617 
   16656    16700    16754    16819    16891    16972    17062    17158 
   17251    17336    17412    17473    17514    17541    17555    17559 
   17556    17545    17529    17508    17485    17463    17442    17421 
   17405    17386    17369    17354    17336    17317    17298    17280 
   17263    17240    17208    17177    17140    17093    17042    16989 
   16935    16888    16846    16811    16788    16773    16758    16744 
   16725    16703    16673    16640    16609    16576    16545    16522 
   16505    16490    16482    16479    16482    16492    16507    16528 
   16545    16553    16557    16552    16533    16499    16453    16393 
   16321    16243    16160    16079    16008    15942    15890    15859 
   15842    15838    15851    15878    15915    15963    16021    16082 
   16144    16206    16264    16316    16359    16390    16411    16425 
   16432    16436    16436    16436    16438    16441    16443    16444 
   16448    16451    16451    16456    16465    16474    16483    16490 
   16499    16513    16519    16518    16511    16499    16482    16464 
   16448    16429    16405    16379    16355    16326    16291    16258 
   16222    16178    16125    16075    16024    15973    15928    15897 
   15881    15885    15904    15936    15979    16023    16066    16105 
   16139    16160    16168    16164    16143    16105    16055    15993 
   15915    15834    15750    15660    15572    15489    15410    15340 
   15280    15232    15186    15147    15110    15071    15039    15016 
   15001    14997    15010    15037    15084    15152    15233    15327 
   15433    15541    15650    15754    15847    15927    15988    16025 
   16043    16042    16024    15992    15951    15907    15854    15796 
   15736    15678    15622    15570    15527    15496    15480    15475 
   15484    15512    15552    15604    15668    15736    15807    15882 
   15957    16028    16105    16185    16266    16359    16464    16575 
   16690    16811    16935    17061    17182    17294    17394    17477 
   17543    17590    17616    17621    17606    17571    17516    17451 
   17379    17304    17228    17162    17107    17059    17024    17005 
   17005    17023    17049    17080    17115    17151    17184    17211 
   17230    17242    17247    17242    17224    17194    17154    17107 
   17054    17000    16945    16888    16826    16771    16721    16673 
   16644    16633    16633    16645    16671    16704    16745    16788 
   16833    16876    16918    16951    16980    17003    17015    17012 
   16992    16961    16922    16868    16794    16710    16623    16534 
   16443    16348    16254    16159    16067    15979    15903    15835 
   15780    15749    15734    15726    15739    15766    15790    15822 
   15865    15907    15948    15994    16040    16083    16119    16151 
   16182    16210    16229    16244    16259    16268    16276    16281 
   16283    16286    16290    16295    16302    16309    16317    16336 
   16367    16409    16459    16517    16583    16654    16723    16792 
   16856    16903    16937    16957    16957    16935    16902    16860 
   16815    16768    16729    16698    16676    16663    16654    16648 
   16644    16648    16653    16659    16669    16684    16706    16730 
   16760    16796    16833    16866    16899    16923    16939    16947 
   16942    16920    16888    16846    16796    16745    16690    16630 
   16573    16524    16476    16434    16406    16389    16384    16398 
   16422    16455    16501    16555    16609    16669    16737    16808 
   16883    16958    17030    17107    17181    17243    17297    17340 
   17365    17369    17347    17302    17236    17150    17041    16916 
   16781    16637    16488    16341    16190    16043    15905    15769 
   15637    15515    15400    15295    15205    15129    15075    15045 
   15039    15055    15097    15159    15233    15318    15410    15496 
   15577    15649    15701    15738    15765    15780    15782    15780 
   15772    15757    15739    15716    15685    15657    15628    15592 
   15553    15519    15489    15464    15442    15429    15426    15425 
   15423    15423    15417    15399    15379    15352    15314    15272 
   15226    15188    15161    15136    15117    15122    15144    15168 
   15207    15259    15306    15358    15417    15468    15522    15585 
   15643    15693    15736    15790    15858    15905    15940    16004 
   16067    16101    16141    16191    16227    16259    16291    16306 
   16312    16312    16299    16279    16254    16224    16190    16155 
   16121    16086    16050    16015    15981    15947    15920    15903 
   15890    15886    15896    15911    15932    15967    16009    16050 
   16097    16141    16182    16229    16281    16332    16393    16461 
   16537    16618    16700    16776    16850    16916    16969    17010 
   17038    17051    17051    17041    17018    16983    16945    16904 
   16865    16838    16812    16785    16768    16753    16738    16727 
   16717    16706    16699    16688    16680    16677    16673    16671 
   16669    16667    16664    16668    16673    16687    16714    16750 
   16796    16849    16910    16980    17057    17132    17212    17293 
   17370    17442    17508    17558    17589    17606    17610    17602 
   17582    17550    17514    17474    17427    17385    17347    17307 
   17271    17251    17243    17246    17265    17297    17338    17389 
   17447    17498    17551    17598    17635    17662    17674    17672 
   17658    17626    17581    17521    17446    17362    17273    17172 
   17062    16954    16846    16738    16630    16528    16430    16330 
   16239    16155    16070    15986    15908    15827    15741    15653 
   15560    15462    15363    15260    15159    15061    14972    14893 
   14827    14777    14744    14735    14746    14769    14810    14871 
   14944    15025    15115    15209    15300    15394    15489    15576 
   15651    15723    15789    15843    15885    15916    15936    15951 
   15957    15958    15958    15950    15936    15916    15893    15870 
   15850    15831    15817    15812    15816    15830    15857    15896 
   15940    15990    16048    16110    16168    16224    16281    16335 
   16386    16438    16491    16546    16603    16667    16737    16810 
   16887    16965    17041    17109    17166    17211    17246    17265 
   17269    17262    17244    17213    17170    17122    17076    17032 
   16991    16954    16923    16900    16885    16881    16887    16899 
   16922    16958    17004    17058    17119    17180    17238    17294 
   17343    17381    17405    17416    17417    17410    17397    17381 
   17365    17352    17346    17346    17351    17358    17370    17385 
   17398    17404    17401    17388    17355    17312    17258    17190 
   17120    17047    16970    16896    16826    16757    16691    16627 
   16571    16514    16452    16395    16341    16283    16227    16171 
   16116    16059    16011    15965    15917    15876    15838    15796 
   15757    15723    15685    15649    15615    15579    15543    15515 
   15488    15462    15441    15427    15415    15400    15388    15375 
   15356    15337    15318    15294    15268    15244    15223    15209 
   15194    15183    15180    15187    15201    15222    15252    15288 
   15327    15371    15419    15475    15531    15595    15662    15730 
   15803    15878    15955    16031    16101    16164    16222    16271 
   16306    16330    16344    16349    16347    16343    16341    16345 
   16356    16370    16384    16405    16430    16456    16479    16505 
   16532    16560    16587    16614    16646    16683    16721    16767 
   16822    16883    16951    17028    17109    17192    17277    17365 
   17454    17533    17606    17674    17728    17761    17782    17788 
   17780    17757    17721    17676    17622    17566    17508    17452 
   17402    17362    17331    17312    17304    17307    17317    17335 
   17355    17374    17392    17398    17392    17367    17327    17265 
   17182    17086    16981    16865    16746    16627    16514    16407 
   16302    16206    16120    16039    15961    15888    15822    15757 
   15700    15653    15616    15592    15580    15579    15589    15611 
   15638    15670    15705    15742    15776    15807    15826    15834 
   15834    15824    15808    15789    15763    15735    15709    15680 
   15646    15614    15580    15543    15510    15483    15462    15450 
   15448    15454    15466    15484    15503    15519    15529    15533 
   15531    15530    15525    15519    15515    15510    15508    15515 
   15522    15525    15534    15547    15558    15569    15576    15576 
   15573    15562    15538    15506    15466    15419    15371    15322 
   15273    15233    15199    15179    15175    15188    15221    15269 
   15334    15418    15518    15627    15745    15871    15996    16109 
   16212    16302    16370    16422    16456    16467    16464    16453 
   16436    16413    16391    16372    16359    16353    16357    16370 
   16386    16405    16430    16460    16486    16507    16525    16541 
   16556    16569    16582    16599    16625    16654    16688    16730 
   16780    16831    16887    16946    17010    17077    17145    17215 
   17286    17351    17405    17447    17477    17493    17498    17493 
   17479    17462    17442    17423    17410    17398    17386    17381 
   17375    17367    17356    17348    17340    17327    17312    17301 
   17290    17285    17284    17281    17278    17278    17274    17273 
   17270    17259    17247    17234    17212    17189    17166    17145 
   17126    17108    17091    17077    17068    17058    17053    17053 
   17051    17055    17062    17072    17085    17103    17122    17145 
   17166    17190    17216    17238    17261    17285    17311    17336 
   17361    17377    17383    17378    17363    17335    17289    17228 
   17158    17084    17003    16919    16839    16767    16698    16636 
   16580    16534    16494    16463    16440    16424    16420    16422 
   16430    16443    16452    16461    16471    16475    16471    16460 
   16440    16413    16379    16339    16290    16237    16183    16129 
   16078    16028    15984    15944    15908    15877    15854    15838 
   15823    15813    15811    15815    15831    15853    15884    15927 
   15981    16043    16113    16193    16275    16357    16444    16528 
   16603    16671    16731    16788    16834    16864    16883    16895 
   16893    16877    16853    16821    16776    16727    16679    16630 
   16584    16548    16521    16501    16486    16476    16470    16468 
   16472    16475    16479    16486    16488    16497    16509    16514 
   16519    16529    16537    16548    16565    16583    16599    16617 
   16640    16664    16686    16703    16711    16711    16706    16691 
   16663    16626    16586    16545    16505    16472    16445    16420 
   16399    16387    16386    16386    16384    16384    16383    16382 
   16376    16364    16352    16337    16316    16289    16258    16221 
   16179    16139    16098    16056    16025    16005    15986    15977 
   15979    15989    16004    16023    16043    16065    16083    16097 
   16108    16110    16109    16105    16098    16087    16070    16051 
   16038    16016    15989    15961    15927    15880    15827    15777 
   15728    15681    15643    15616    15597    15583    15579    15588 
   15604    15628    15661    15701    15741    15777    15813    15846 
   15869    15885    15898    15905    15905    15903    15896    15885 
   15874    15865    15851    15839    15827    15815    15805    15797 
