Origin Time       2025/01/13 21:19:00
Lat.              31.8
Long.             131.6
Depth. (km)       30
Mag.              6.9
Station Code      NGSH03
Station Lat.      33.1256
Station Long.     129.8102
Station Height(m) -190
Record Time       2025/01/13 21:20:07
Sampling Freq(Hz) 100Hz
Duration Time(s)  181
Dir.              2
Scale Factor      3923(gal)/8224838
Max. Acc. (gal)   0.760
Last Correction   2025/01/13 21:20:09
Memo.             
[...]
     858      866      862      849      828      801      773      749 
     724      697      662      621      571      514      453      399 
     356      329      317      324      346      382      427      477 
     525      571      615      650      677      702      727      756 
     789      822      858      899      935      970     1003     1024 
    1042     1057     1062     1058     1044     1024     1001      973 
     940      915      897      881      866      858      853      843 
     835      830      827      831      839      845      849      855 
     859      859      865      876      885      891      896      899 
     891      873      851      824      795      768      739      715 
     695      681      675      673      675      684      696      703 
     708      716      724      737      753      776      805      832 
     861      893      923      950      985     1020     1048     1073 
    1090     1097     1096     1092     1078     1055     1027     1001 
     974      946      919      891      859      830      800      760 
     710      657      599      537      468      402      341      286 
     236      195      163      132      102       79       56       35 
      21       18       27       47       85      140      203      271 
     338      407      473      537      588      631      669      693 
     706      714      716      715      716      722      726      730 
     731      730      723      712      693      668      638      607 
     579      553      531      514      503      504      515      529 
     548      567      583      600      626      658      696      735 
     768      801      841      878      915      954      997     1036 
    1074     1107     1124     1127     1113     1081     1040      994 
     947      905      870      841      820      811      812      819 
     828      846      861      868      870      869      859      849 
     837      826      823      831      849      877      915      959 
    1007     1057     1109     1154     1186     1205     1209     1193 
    1159     1117     1066     1011      953      893      839      793 
     754      726      708      697      695      700      708      711 
     718      730      734      731      727      718      695      661 
     618      562      494      414      332      249      170      102 
      45        1      -27      -32      -18        5       40       82 
     122      156      187      207      216      213      198      174 
     139       97       49       -1      -54     -103     -145     -175 
    -201     -220     -228     -230     -226     -216     -202     -184 
    -156     -125      -94      -59      -24        9       44       83 
     121      156      193      226      257      288      317      345 
     375      400      414      415      405      379      344      292 
     230      160       81       -4      -85     -163     -240     -311 
    -376     -438     -487     -519     -541     -550     -546     -530 
    -499     -457     -410     -359     -306     -255     -203     -153 
    -109      -71      -40      -12        9       22       31       32 
      29       28       22       12        6       12       20       32 
      54       86      128      186      259      341      430      521 
     616      711      792      862      928      978     1008     1028 
    1035     1024      999      962      918      873      830      793 
     761      743      743      753      772      805      849      895 
     945      994     1043     1089     1132     1170     1202     1227 
    1243     1247     1242     1223     1188     1140     1081     1013 
     946      882      820      762      708      658      610      569 
     537      507      488      477      468      467      477      494 
     521      557      596      637      673      707      727      733 
     727      711      681      643      595      544      496      456 
     425      409      399      394      388      383      379      378 
     376      380      384      386      383      373      361      345 
     325      305      286      268      249      229      216      209 
     202      202      220      237      256      288      324      353 
     390      433      473      514      553      587      615      638 
     653      658      664      676      683      685      689      687 
     685      681      672      654      633      615      595      576 
     560      544      530      518      510      504      498      492 
     487      479      475      475      481      502      535      581 
     637      696      754      807      853      895      922      935 
     938      931      918      907      897      889      878      873 
     873      877      886      899      915      938      965      993 
    1023     1046     1063     1080     1090     1094     1096     1097 
    1096     1090     1086     1084     1077     1069     1059     1040 
    1009      974      930      877      823      769      718      666 
     621      573      525      476      429      384      338      287 
     236      187      133       79       28      -22      -71     -113 
    -152     -186     -216     -241     -272     -310     -348     -390 
    -434     -480     -522     -554     -577     -594     -604     -604 
    -604     -599     -584     -568     -553     -533     -515     -499 
    -481     -460     -430     -395     -349     -301     -252     -198 
    -144      -89      -31       36      108      183      261      338 
     414      488      557      626      699      772      841      908 
     970     1020     1059     1094     1119     1132     1142     1152 
    1159     1159     1165     1177     1197     1224     1256     1297 
    1344     1389     1436     1483     1522     1560     1598     1626 
    1648     1668     1687     1705     1726     1748     1763     1775 
    1783     1786     1780     1767     1746     1718     1680     1638 
    1597     1549     1501     1459     1421     1382     1343     1306 
    1269     1228     1186     1139     1092     1043      988      928 
     868      805      750      703      656      618      589      562 
     535      510      477      434      387      334      276      224 
     172      117       66       21      -20      -58      -89     -110 
    -124     -132     -133     -130     -126     -124     -122     -118 
    -113     -105      -95      -83      -71      -56      -41      -27 
     -13       -4       -4      -13      -31      -54      -85     -125 
    -172     -221     -274     -330     -390     -449     -508     -569 
    -629     -684     -733     -772     -799     -815     -820     -816 
    -810     -795     -768     -737     -703     -664     -626     -594 
    -569     -549     -538     -527     -513     -498     -473     -437 
    -400     -359     -307     -253     -198     -139      -86      -35 
      14       63      120      190      268      351      440      526 
     598      654      693      711      714      704      688      677 
     675      683      707      749      800      855      912      962 
    1004     1039     1067     1085     1090     1081     1070     1055 
    1027      996      966      932      896      858      824      795 
     774      764      760      758      762      772      781      788 
     799      810      819      832      849      873      901      934 
     970     1009     1053     1104     1161     1217     1278     1344 
    1408     1462     1507     1547     1572     1582     1576     1560 
    1537     1505     1470     1440     1406     1374     1344     1312 
    1275     1242     1212     1185     1167     1166     1177     1204 
    1244     1294     1352     1412     1468     1516     1549     1570 
    1575     1561     1536     1494     1439     1377     1316     1258 
    1205     1155     1115     1082     1051     1024     1004      985 
     972      969      972      984     1009     1044     1082     1128 
    1179     1231     1278     1323     1360     1386     1398     1398 
    1382     1358     1328     1296     1264     1236     1206     1177 
    1146     1112     1077     1044     1016      986      954      918 
     876      830      781      730      679      627      573      523 
     480      441      406      375      353      340      336      341 
     356      383      419      461      504      549      591      629 
     662      695      724      747      764      774      776      769 
     757      731      699      666      623      569      514      456 
     396      345      302      267      245      233      226      220 
     210      199      189      175      160      144      132      121 
     109       95       81       56       31        4      -27      -55 
     -81      -99     -106     -103      -90      -67      -39        1 
      54      108      166      228      290      348      398      446 
     495      537      568      589      604      610      612      618 
     619      622      634      648      664      687      710      734 
     764      795      826      861      900      943      990     1046 
    1109     1178     1252     1328     1399     1468     1534     1598 
    1656     1709     1757     1790     1807     1817     1810     1784 
    1755     1717     1667     1618     1568     1509     1460     1420 
    1378     1343     1309     1275     1252     1213     1148     1097 
    1058      989      911      850      796      735      685      652 
     623      599      588      580      573      572      569      562 
     557      548      530      518      506      490      479      475 
     467      454      444      433      418      396      369      337 
     303      263      218      172      124       75       21      -44 
    -110     -175     -245     -314     -376     -438     -491     -538 
    -584     -622     -657     -692     -719     -742     -758     -764 
    -766     -765     -757     -747     -737     -724     -712     -702 
    -689     -675     -660     -645     -631     -621     -606     -592 
    -576     -556     -534     -511     -487     -461     -427     -386 
    -342     -287     -225     -168     -112      -55       -8       35 
      81      118      147      175      199      221      241      261 
     280      294      299      295      276      247      213      179 
     141      109       89       81       85       98      118      151 
     184      214      244      274      301      324      349      379 
     417      464      518      584      662      743      826      911 
     993     1067     1132     1197     1262     1323     1383     1445 
    1499     1541     1579     1609     1630     1647     1652     1651 
    1645     1630     1611     1594     1570     1543     1512     1475 
    1435     1394     1345     1291     1236     1175     1112     1048 
     984      918      854      793      726      660      587      500 
     407      306      197       87      -20     -124     -213     -283 
    -337     -371     -387     -387     -371     -344     -309     -268 
    -228     -189     -157     -137     -122     -122     -137     -167 
    -209     -263     -329     -405     -483     -562     -641     -714 
    -781     -842     -892     -931     -963     -982     -988     -985 
    -976     -954     -926     -892     -853     -807     -753     -697 
    -641     -583     -522     -463     -405     -344     -286     -225 
    -164     -110      -55       -1       45       97      148      201 
     256      313      368      426      483      538      595      648 
     697      749      800      845      884      920      950      974 
     999     1031     1069     1108     1158     1216     1274     1332 
    1393     1453     1506     1553     1602     1645     1686     1728 
    1760     1782     1795     1795     1777     1746     1706     1656 
    1605     1553     1503     1459     1420     1389     1371     1363 
    1366     1386     1420     1464     1510     1555     1598     1634 
    1657     1668     1665     1655     1637     1611     1583     1552 
    1521     1495     1472     1451     1432     1416     1394     1364 
    1333     1304     1270     1232     1194     1156     1119     1082 
    1050     1021      997      978      958      931      899      855 
     797      730      653      564      471      379      287      198 
     126       66        9      -37      -70      -95     -122     -153 
    -184     -221     -263     -302     -345     -392     -434     -475 
    -522     -564     -603     -642     -679     -712     -742     -765 
    -785     -793     -793     -792     -783     -765     -741     -711 
    -677     -646     -618     -589     -567     -552     -541     -533 
    -523     -508     -496     -483     -464     -445     -427     -407 
    -388     -373     -359     -345     -337     -329     -324     -322 
    -330     -342     -352     -363     -376     -386     -387     -386 
    -376     -356     -328     -284     -225     -155      -74       16 
     108      201      295      383      461      533      598      657 
     711      761      811      862      912      961     1015     1067 
    1116     1167     1219     1264     1308     1352     1393     1428 
    1467     1507     1541     1571     1602     1633     1664     1702 
    1746     1796     1849     1904     1952     1993     2034     2066 
    2089     2108     2118     2116     2106     2087     2058     2016 
    1960     1894     1814     1722     1624     1513     1397     1279 
    1161     1043      930      818      704      592      477      363 
     251      141       41      -44     -122     -189     -243     -291 
    -333     -363     -386     -406     -418     -418     -410     -396 
    -375     -351     -325     -299     -271     -247     -224     -198 
    -174     -152     -125      -95      -67      -32       12       60 
     110      166      228      294      363      436      510      580 
     649      720      783      838      892      939      973      994 
    1004     1003      996      988      980      974      974      981 
     994     1009     1027     1047     1067     1082     1093     1096 
    1090     1078     1067     1050     1028     1011     1000      986 
     977      970      963      955      943      924      900      865 
     822      777      730      683      639      600      571      552 
     541      534      531      537      540      542      550      556 
     557      568      579      587      598      602      599      589 
     569      541      510      475      434      392      351      306 
     257      209      163      121       82       44       12      -14 
     -36      -54      -71      -87      -97     -105     -114     -120 
    -117     -109      -93      -68      -36        5       58      120 
     187      257      325      392      454      507      553      594 
     626      650      666      673      666      645      618      583 
     533      480      423      360      295      230      164      108 
      59       13      -27      -59      -90     -120     -143     -168 
    -195     -217     -233     -247     -255     -255     -249     -243 
    -232     -224     -214     -202     -190     -175     -156     -133 
    -103      -67      -24       31       94      166      241      310 
     378      440      484      518      542      553      561      571 
     576      587      603      626      654      688      722      757 
     796      839      878      918      963     1009     1051     1096 
    1146     1194     1243     1293     1343     1389     1431     1470 
    1507     1537     1560     1579     1590     1588     1578     1561 
    1541     1514     1485     1455     1424     1401     1379     1348 
    1312     1277     1236     1196     1154     1105     1055     1009 
     958      908      864      820      774      726      676      625 
     567      508      453      398      346      307      276      255 
     240      226      218      213      205      198      195      190 
     182      174      164      152      139      129      118      106 
      95       87       82       79       82       89       97      109 
     128      147      163      182      199      205      210      214 
     214      213      210      209      209      209      209      211 
     209      205      194      176      159      139      114       91 
      76       64       54       47       41       33       22        8 
     -10      -24      -37      -52      -64      -72      -79      -79 
     -79      -76      -70      -64      -62      -58      -54      -51 
     -48      -44      -40      -31      -18       -8        5       21 
      36       48       63       78       95      117      143      172 
     205      244      292      345      402      465      530      596 
     661      723      783      835      886      936      982     1028 
    1074     1119     1163     1205     1243     1275     1301     1321 
    1337     1351     1358     1360     1363     1362     1359     1358 
    1358     1359     1363     1372     1387     1398     1409     1422 
    1431     1435     1435     1433     1428     1418     1410     1405 
    1395     1385     1372     1359     1344     1332     1323     1309 
    1291     1273     1252     1225     1197     1167     1135     1105 
    1081     1053     1019      988      963      942      922      904 
     895      891      885      876      868      858      849      835 
     822      808      796      787      781      777      774      770 
     765      760      753      745      735      722      708      700 
     692      679      665      654      649      642      639      639 
     642      642      639      635      627      614      602      591 
     580      568      554      535      515      488      450      406 
     360      307      251      194      133       72       18      -29 
     -71     -109     -139     -157     -168     -174     -172     -166 
    -155     -145     -132     -120     -114     -105      -93      -86 
     -78      -68      -62      -49      -32      -14        4       24 
      41       63       86      101      116      128      130      135 
     135      125      116      101       82       62       40       16 
      -9      -32      -51      -67      -79      -81      -81      -78 
     -63      -43      -24        1       29       59       95      130 
     166      203      241      283      325      369      417      467 
     517      568      615      661      707      747      785      822 
     853      878      907      931      953      972      985      990 
     989      984      970      947      926      907      886      870 
     859      854      854      861      870      884      900      919 
     936      955      973      989     1005     1023     1038     1048 
    1058     1065     1070     1073     1071     1065     1058     1047 
    1034     1021     1003      981      963      939      909      877 
     842      801      756      708      661      610      561      515 
     472      434      409      388      372      357      349      349 
     356      368      380      394      414      440      464      487 
