Origin Time       2025/01/13 21:19:00
Lat.              31.8
Long.             131.6
Depth. (km)       30
Mag.              6.9
Station Code      NGSH01
Station Lat.      33.2116
Station Long.     129.4353
Station Height(m) 30
Record Time       2025/01/13 21:20:21
Sampling Freq(Hz) 100Hz
Duration Time(s)  157
Dir.              4
Scale Factor      7845(gal)/8223790
Max. Acc. (gal)   1.396
Last Correction   2025/01/13 21:20:22
Memo.             
[...]
   -9189    -9136    -9082    -9027    -8974    -8931    -8896    -8870 
   -8860    -8866    -8889    -8924    -8965    -9004    -9036    -9057 
   -9066    -9069    -9062    -9046    -9026    -9008    -8988    -8961 
   -8928    -8892    -8857    -8824    -8800    -8791    -8788    -8797 
   -8819    -8853    -8895    -8935    -8969    -9003    -9043    -9089 
   -9143    -9200    -9244    -9274    -9289    -9282    -9255    -9221 
   -9181    -9135    -9092    -9050    -9008    -8976    -8954    -8939 
   -8938    -8958    -8999    -9054    -9123    -9205    -9293    -9375 
   -9445    -9493    -9521    -9531    -9517    -9482    -9429    -9369 
   -9294    -9205    -9113    -9027    -8945    -8873    -8816    -8775 
   -8758    -8772    -8808    -8857    -8919    -8988    -9057    -9126 
   -9194    -9261    -9328    -9394    -9448    -9490    -9521    -9535 
   -9524    -9490    -9435    -9356    -9261    -9148    -9027    -8910 
   -8812    -8743    -8715    -8725    -8770    -8850    -8951    -9062 
   -9173    -9265    -9327    -9362    -9369    -9342    -9294    -9234 
   -9162    -9084    -9001    -8922    -8854    -8806    -8785    -8792 
   -8826    -8885    -8953    -9023    -9096    -9159    -9209    -9252 
   -9281    -9300    -9309    -9304    -9289    -9267    -9229    -9181 
   -9136    -9094    -9069    -9072    -9104    -9165    -9250    -9346 
   -9440    -9526    -9590    -9616    -9609    -9572    -9506    -9412 
   -9293    -9163    -9032    -8912    -8814    -8749    -8725    -8739 
   -8789    -8861    -8943    -9024    -9094    -9150    -9189    -9212 
   -9220    -9209    -9188    -9163    -9134    -9101    -9072    -9045 
   -9023    -9000    -8977    -8961    -8957    -8974    -9016    -9078 
   -9159    -9246    -9327    -9400    -9454    -9482    -9482    -9444 
   -9363    -9248    -9113    -8977    -8851    -8756    -8706    -8698 
   -8733    -8803    -8888    -8973    -9051    -9113    -9151    -9161 
   -9142    -9097    -9039    -8972    -8899    -8826    -8765    -8721 
   -8702    -8707    -8743    -8803    -8874    -8959    -9050    -9136 
   -9221    -9304    -9375    -9431    -9466    -9489    -9502    -9508 
   -9504    -9490    -9460    -9409    -9346    -9271    -9196    -9130 
   -9077    -9036    -9018    -9016    -9024    -9043    -9073    -9107 
   -9143    -9181    -9208    -9215    -9198    -9169    -9130    -9080 
   -9018    -8954    -8899    -8849    -8808    -8784    -8785    -8807 
   -8842    -8892    -8951    -9009    -9061    -9100    -9124    -9135 
   -9132    -9116    -9090    -9055    -9011    -8962    -8920    -8885 
   -8856    -8841    -8837    -8841    -8853    -8874    -8899    -8928 
   -8965    -9004    -9040    -9070    -9088    -9090    -9077    -9046 
   -8996    -8935    -8874    -8815    -8758    -8710    -8672    -8646 
   -8637    -8644    -8675    -8731    -8807    -8895    -8991    -9085 
   -9158    -9209    -9244    -9254    -9231    -9184    -9119    -9036 
   -8941    -8843    -8750    -8669    -8613    -8588    -8594    -8627 
   -8691    -8781    -8892    -9011    -9132    -9240    -9323    -9378 
   -9401    -9381    -9324    -9239    -9134    -9020    -8911    -8814 
   -8739    -8698    -8689    -8719    -8785    -8877    -8985    -9100 
   -9211    -9308    -9371    -9397    -9381    -9321    -9234    -9135 
   -9035    -8941    -8862    -8803    -8765    -8757    -8773    -8808 
   -8861    -8930    -9003    -9076    -9147    -9216    -9277    -9331 
   -9378    -9414    -9433    -9429    -9408    -9363    -9292    -9194 
   -9078    -8951    -8824    -8714    -8629    -8580    -8571    -8610 
   -8692    -8806    -8953    -9124    -9301    -9478    -9648    -9787 
   -9887    -9942    -9942    -9884    -9782    -9647    -9494    -9339 
   -9186    -9047    -8934    -8856    -8812    -8804    -8827    -8877 
   -8950    -9045    -9159    -9282    -9387    -9468    -9525    -9547 
   -9539    -9510    -9459    -9386    -9304    -9213    -9120    -9028 
   -8941    -8868    -8812    -8776    -8758    -8765    -8795    -8846 
   -8911    -8981    -9051    -9109    -9154    -9181    -9185    -9167 
   -9134    -9093    -9050    -9009    -8981    -8969    -8959    -8947 
   -8937    -8923    -8907    -8885    -8862    -8841    -8824    -8820 
   -8827    -8846    -8872    -8905    -8942    -8978    -9015    -9059 
   -9109    -9161    -9209    -9250    -9286    -9315    -9331    -9342 
   -9344    -9335    -9312    -9282    -9247    -9212    -9188    -9174 
   -9163    -9154    -9146    -9121    -9086    -9050    -9011    -8973 
   -8949    -8939    -8946    -8974    -9020    -9080    -9140    -9202 
   -9255    -9289    -9298    -9289    -9259    -9215    -9157    -9089 
   -9013    -8927    -8839    -8753    -8673    -8613    -8579    -8579 
   -8611    -8669    -8754    -8865    -8984    -9097    -9194    -9265 
   -9302    -9319    -9309    -9277    -9223    -9153    -9081    -9013 
   -8946    -8877    -8820    -8783    -8766    -8775    -8806    -8851 
   -8914    -8996    -9088    -9178    -9263    -9331    -9378    -9408 
   -9425    -9431    -9421    -9398    -9362    -9309    -9246    -9173 
   -9092    -9009    -8934    -8868    -8811    -8766    -8746    -8753 
   -8789    -8856    -8953    -9065    -9182    -9306    -9428    -9528 
   -9594    -9629    -9626    -9590    -9535    -9460    -9377    -9300 
   -9232    -9184    -9163    -9169    -9198    -9248    -9313    -9389 
   -9460    -9521    -9566    -9585    -9574    -9532    -9463    -9374 
   -9274    -9180    -9094    -9022    -8972    -8947    -8954    -8991 
   -9051    -9127    -9209    -9283    -9337    -9371    -9382    -9366 
   -9331    -9278    -9219    -9157    -9099    -9057    -9032    -9032 
   -9054    -9092    -9136    -9178    -9223    -9267    -9297    -9309 
   -9305    -9282    -9243    -9197    -9144    -9081    -9013    -8946 
   -8885    -8831    -8784    -8746    -8721    -8707    -8714    -8734 
   -8765    -8807    -8857    -8910    -8964    -9011    -9049    -9078 
   -9097    -9097    -9078    -9040    -8982    -8914    -8847    -8781 
   -8729    -8698    -8681    -8687    -8714    -8746    -8779    -8815 
   -8854    -8893    -8931    -8955    -8965    -8958    -8941    -8920 
   -8899    -8876    -8854    -8839    -8838    -8842    -8842    -8841 
   -8847    -8864    -8885    -8919    -8969    -9034    -9112    -9201 
   -9296    -9383    -9459    -9522    -9564    -9575    -9556    -9513 
   -9454    -9382    -9298    -9208    -9108    -9000    -8900    -8820 
   -8773    -8758    -8776    -8823    -8896    -8978    -9057    -9120 
   -9171    -9212    -9234    -9240    -9236    -9227    -9215    -9200 
   -9178    -9154    -9121    -9085    -9059    -9046    -9043    -9051 
   -9066    -9081    -9094    -9108    -9116    -9115    -9109    -9099 
   -9081    -9055    -9024    -8988    -8953    -8920    -8893    -8880 
   -8883    -8905    -8945    -8996    -9055    -9112    -9163    -9202 
   -9227    -9228    -9201    -9150    -9084    -9004    -8920    -8843 
   -8775    -8723    -8695    -8685    -8691    -8710    -8733    -8752 
   -8769    -8783    -8781    -8766    -8741    -8707    -8672    -8640 
   -8615    -8599    -8591    -8590    -8596    -8604    -8604    -8600 
   -8595    -8581    -8563    -8538    -8506    -8480    -8460    -8446 
   -8438    -8422    -8418    -8429    -8426    -8417    -8415    -8436 
   -8476    -8530    -8604    -8694    -8780    -8872    -8972    -9054 
   -9111    -9148    -9166    -9165    -9150    -9123    -9082    -9035 
   -8992    -8961    -8949    -8955    -8981    -9038    -9128    -9236 
   -9346    -9451    -9539    -9603    -9645    -9655    -9626    -9564 
   -9475    -9370    -9258    -9139    -9026    -8934    -8865    -8818 
   -8800    -8807    -8835    -8888    -8951    -9012    -9069    -9112 
   -9142    -9157    -9163    -9162    -9150    -9126    -9099    -9074 
   -9046    -9019    -8997    -8985    -8982    -8995    -9024    -9067 
   -9134    -9224    -9329    -9443    -9553    -9644    -9714    -9763 
   -9784    -9780    -9759    -9722    -9675    -9621    -9559    -9493 
   -9423    -9348    -9282    -9234    -9204    -9198    -9220    -9266 
   -9335    -9412    -9491    -9570    -9643    -9701    -9740    -9757 
   -9756    -9736    -9705    -9668    -9622    -9574    -9533    -9508 
   -9506    -9528    -9568    -9620    -9670    -9709    -9734    -9734 
   -9710    -9671    -9625    -9579    -9537    -9498    -9458    -9417 
   -9383    -9362    -9351    -9348    -9354    -9366    -9387    -9420 
   -9455    -9498    -9553    -9607    -9657    -9701    -9720    -9714 
   -9691    -9648    -9583    -9505    -9418    -9332    -9261    -9202 
   -9161    -9139    -9139    -9161    -9202    -9256    -9320    -9390 
   -9463    -9536    -9605    -9659    -9688    -9698    -9682    -9637 
   -9567    -9471    -9354    -9228    -9101    -8981    -8872    -8777 
   -8707    -8672    -8675    -8716    -8792    -8888    -9003    -9123 
   -9227    -9300    -9333    -9317    -9261    -9169    -9047    -8908 
   -8769    -8649    -8556    -8498    -8482    -8503    -8559    -8648 
   -8769    -8899    -9016    -9120    -9198    -9242    -9258    -9236 
   -9175    -9090    -8988    -8870    -8742    -8614    -8495    -8395 
   -8321    -8282    -8280    -8301    -8347    -8424    -8509    -8591 
   -8683    -8773    -8849    -8918    -8982    -9026    -9050    -9059 
   -9043    -9005    -8942    -8845    -8737    -8631    -8530    -8434 
   -8347    -8286    -8257    -8256    -8287    -8353    -8428    -8499 
   -8587    -8687    -8775    -8841    -8903    -8947    -8965    -8970 
   -8958    -8928    -8899    -8874    -8861    -8861    -8861    -8851 
   -8837    -8820    -8799    -8766    -8719    -8671    -8630    -8598 
   -8568    -8548    -8537    -8541    -8564    -8599    -8638    -8691 
   -8746    -8797    -8851    -8893    -8920    -8920    -8888    -8834 
   -8757    -8656    -8544    -8433    -8341    -8279    -8241    -8240 
   -8291    -8378    -8495    -8640    -8785    -8926    -9067    -9190 
   -9281    -9346    -9375    -9360    -9315    -9250    -9167    -9077 
   -8997    -8931    -8877    -8846    -8839    -8849    -8873    -8914 
   -8970    -9043    -9128    -9216    -9301    -9378    -9443    -9489 
   -9513    -9509    -9475    -9416    -9340    -9261    -9180    -9103 
   -9042    -9004    -8989    -8993    -9015    -9058    -9120    -9190 
   -9266    -9332    -9385    -9423    -9436    -9428    -9406    -9371 
   -9325    -9277    -9231    -9184    -9138    -9107    -9088    -9082 
   -9096    -9123    -9161    -9207    -9256    -9313    -9373    -9425 
   -9468    -9502    -9518    -9520    -9505    -9479    -9451    -9421 
   -9400    -9386    -9382    -9387    -9396    -9409    -9431    -9441 
   -9445    -9447    -9432    -9401    -9360    -9298    -9225    -9151 
   -9077    -9004    -8942    -8895    -8865    -8866    -8896    -8951 
   -9028    -9113    -9194    -9266    -9319    -9343    -9342    -9321 
   -9286    -9243    -9200    -9162    -9139    -9127    -9117    -9109 
   -9100    -9086    -9061    -9024    -8980    -8924    -8864    -8799 
   -8734    -8676    -8637    -8618    -8618    -8635    -8669    -8714 
   -8762    -8814    -8866    -8915    -8959    -9000    -9032    -9062 
   -9085    -9096    -9101    -9099    -9082    -9062    -9049    -9039 
   -9035    -9039    -9047    -9062    -9085    -9107    -9124    -9143 
   -9165    -9185    -9208    -9228    -9236    -9228    -9204    -9163 
   -9103    -9023    -8931    -8835    -8738    -8650    -8575    -8510 
   -8467    -8456    -8468    -8505    -8581    -8683    -8775    -8874 
   -8980    -9058    -9115    -9157    -9170    -9167    -9143    -9085 
   -8997    -8885    -8766    -8656    -8561    -8499    -8484    -8529 
   -8626    -8761    -8927    -9107    -9278    -9440    -9574    -9659 
   -9701    -9691    -9626    -9518    -9374    -9205    -9027    -8854 
   -8715    -8621    -8580    -8600    -8681    -8820    -9007    -9220 
   -9437    -9647    -9832    -9975   -10075   -10122   -10122   -10080 
  -10002    -9898    -9784    -9668    -9553    -9444    -9348    -9269 
   -9213    -9189    -9200    -9243    -9327    -9448    -9595    -9760 
   -9929   -10092   -10230   -10324   -10368   -10355   -10291   -10184 
  -10045    -9884    -9717    -9558    -9409    -9286    -9208    -9177 
   -9189    -9244    -9333    -9445    -9566    -9678    -9780    -9861 
   -9906    -9921    -9900    -9840    -9748    -9636    -9505    -9373 
   -9248    -9136    -9046    -8978    -8934    -8916    -8922    -8946 
   -8992    -9065    -9158    -9266    -9378    -9487    -9586    -9663 
   -9713    -9733    -9718    -9672    -9603    -9509    -9398    -9278 
   -9157    -9036    -8924    -8833    -8768    -8731    -8721    -8735 
   -8770    -8818    -8877    -8943    -9008    -9065    -9107    -9135 
   -9146    -9132    -9089    -9016    -8928    -8829    -8729    -8638 
   -8556    -8490    -8455    -8449    -8468    -8517    -8598    -8688 
   -8773    -8862    -8938    -8980    -8993    -8976    -8924    -8854 
   -8773    -8680    -8583    -8494    -8421    -8370    -8352    -8360 
   -8386    -8433    -8505    -8587    -8660    -8708    -8734    -8730 
   -8694    -8638    -8553    -8448    -8340    -8229    -8112    -8006 
   -7920    -7852    -7825    -7844    -7894    -7978    -8100    -8225 
   -8351    -8483    -8590    -8652    -8675    -8648    -8573    -8468 
   -8328    -8168    -8008    -7855    -7734    -7655    -7615    -7624 
   -7685    -7788    -7933    -8108    -8283    -8452    -8618    -8768 
   -8885    -8972    -9030    -9061    -9067    -9049    -9009    -8961 
   -8899    -8834    -8770    -8714    -8673    -8656    -8667    -8710 
   -8781    -8880    -8992    -9108    -9223    -9325    -9408    -9466 
   -9497    -9504    -9486    -9445    -9386    -9315    -9236    -9162 
   -9099    -9045    -9005    -8982    -8974    -8984    -9005    -9036 
   -9077    -9119    -9155    -9185    -9205    -9208    -9196    -9171 
   -9138    -9105    -9080    -9069    -9072    -9088    -9123    -9175 
   -9239    -9312    -9393    -9474    -9543    -9602    -9653    -9691 
   -9714    -9725    -9721    -9703    -9676    -9637    -9585    -9531 
   -9478    -9424    -9373    -9327    -9282    -9243    -9220    -9211 
   -9209    -9220    -9242    -9273    -9312    -9356    -9405    -9458 
   -9508    -9553    -9593    -9618    -9634    -9647    -9653    -9651 
   -9647    -9648    -9643    -9633    -9626    -9617    -9599    -9578 
   -9553    -9521    -9481    -9437    -9391    -9348    -9313    -9281 
   -9248    -9228    -9224    -9231    -9250    -9281    -9316    -9351 
   -9386    -9417    -9433    -9431    -9413    -9386    -9351    -9310 
   -9266    -9220    -9178    -9146    -9126    -9121    -9134    -9170 
   -9223    -9285    -9354    -9417    -9464    -9498    -9508    -9489 
   -9441    -9371    -9292    -9217    -9162    -9138    -9146    -9190 
   -9265    -9354    -9451    -9548    -9632    -9703    -9760    -9798 
   -9822    -9842    -9852    -9852    -9841    -9809    -9753    -9680 
   -9589    -9485    -9381    -9289    -9213    -9159    -9130    -9120 
   -9135    -9180    -9242    -9309    -9382    -9447    -9493    -9522 
   -9539    -9532    -9504    -9455    -9383    -9300    -9209    -9119 
   -9032    -8955    -8900    -8873    -8869    -8885    -8915    -8953 
   -8999    -9045    -9089    -9130    -9165    -9192    -9208    -9205 
   -9177    -9121    -9043    -8953    -8858    -8772    -8704    -8667 
   -8656    -8675    -8721    -8784    -8856    -8928    -8992    -9036 
   -9054    -9036    -8985    -8908    -8802    -8676    -8545    -8413 
   -8294    -8212    -8158    -8132    -8147    -8195    -8270    -8372 
   -8491    -8611    -8729    -8831    -8915    -8972    -8997    -8995 
   -8964    -8911    -8853    -8789    -8734    -8698    -8681    -8688 
   -8723    -8784    -8860    -8951    -9050    -9140    -9225    -9296 
   -9336    -9347    -9328    -9273    -9192    -9092    -8981    -8868 
   -8756    -8654    -8575    -8519    -8503    -8529    -8591    -8699 
   -8839    -8982    -9136    -9286    -9401    -9487    -9537    -9541 
   -9513    -9459    -9378    -9283    -9180    -9073    -8978    -8903 
   -8853    -8835    -8850    -8897    -8968    -9054    -9142    -9219 
   -9281    -9321    -9331    -9312    -9266    -9198    -9121    -9042 
   -8959    -8881    -8815    -8761    -8718    -8687    -8671    -8662 
   -8664    -8672    -8684    -8703    -8731    -8762    -8793    -8829 
   -8851    -8854    -8843    -8811    -8756    -8691    -8619    -8544 
   -8468    -8394    -8326    -8287    -8275    -8275    -8291    -8333 
   -8384    -8441    -8513    -8602    -8699    -8780    -8856    -8930 
   -8980    -9007    -9015    -8999    -8976    -8945    -8900    -8858 
   -8827    -8796    -8772    -8762    -8765    -8769    -8781    -8799 
   -8816    -8834    -8846    -8857    -8869    -8880    -8893    -8916 
   -8954    -9008    -9077    -9158    -9243    -9324    -9394    -9443 
   -9471    -9471    -9444    -9398    -9333    -9258    -9177    -9097 
   -9031    -9001    -9012    -9065    -9158    -9282    -9428    -9575 
   -9711    -9826    -9907    -9946    -9936    -9873    -9764    -9618 
   -9437    -9232    -9018    -8807    -8614    -8453    -8332    -8262 
   -8252    -8291    -8370    -8492    -8644    -8804    -8976    -9142 
   -9278    -9390    -9467    -9502    -9504    -9475    -9423    -9354 
   -9273    -9184    -9092    -9012    -8951    -8916    -8915    -8951 
   -9016    -9108    -9225    -9352    -9470    -9572    -9651    -9698 
   -9709    -9682    -9621    -9531    -9414    -9281    -9146    -9026 
   -8932    -8876    -8865    -8900    -8976    -9088    -9223    -9367 
   -9510    -9640    -9741    -9814    -9860    -9869    -9848    -9798 
   -9722    -9630    -9531    -9427    -9327    -9239    -9166    -9115 
   -9082    -9069    -9084    -9115    -9161    -9220    -9281    -9339 
   -9387    -9414    -9416    -9394    -9346    -9281    -9205    -9134 
   -9076    -9038    -9023    -9034    -9066    -9113    -9173    -9234 
   -9288    -9335    -9374    -9405    -9423    -9431    -9432    -9423 
   -9404    -9382    -9359    -9336    -9323    -9319    -9324    -9343 
   -9374    -9417    -9463    -9509    -9551    -9579    -9597    -9607 
   -9614    -9620    -9621    -9621    -9624    -9622    -9614    -9606 
   -9591    -9572    -9555    -9537    -9516    -9497    -9491    -9501 
   -9518    -9540    -9568    -9603    -9637    -9661    -9678    -9679 
   -9656    -9620    -9570    -9504    -9429    -9352    -9277    -9207 
   -9144    -9088    -9045    -9011    -8988    -8977    -8972    -8970 
   -8970    -8966    -8955    -8935    -8903    -8865    -8820    -8770 
   -8716    -8654    -8590    -8521    -8451    -8387    -8336    -8294 
   -8253    -8217    -8179    -8151    -8132    -8108    -8077    -8051 
   -8029    -8017    -8010    -8010    -8016    -8017    -8016    -8025 
   -8039    -8048    -8051    -8036    -8020    -8010    -8000    -7997 
   -7989    -7971    -7973    -7992    -8013    -8037    -8068    -8113 
   -8170    -8232    -8302    -8368    -8417    -8455    -8479    -8480 
   -8468    -8444    -8391    -8326    -8275    -8224    -8166    -8128 
