Origin Time       2025/01/13 21:19:00
Lat.              31.8
Long.             131.6
Depth. (km)       30
Mag.              6.9
Station Code      NGSH01
Station Lat.      33.2116
Station Long.     129.4353
Station Height(m) 30
Record Time       2025/01/13 21:20:21
Sampling Freq(Hz) 100Hz
Duration Time(s)  157
Dir.              5
Scale Factor      7845(gal)/8223790
Max. Acc. (gal)   1.533
Last Correction   2025/01/13 21:20:22
Memo.             
[...]
   19818    19739    19660    19579    19510    19461    19427    19414 
   19423    19449    19480    19518    19565    19619    19677    19743 
   19820    19908    19996    20082    20151    20197    20223    20225 
   20196    20139    20059    19955    19831    19685    19531    19387 
   19265    19174    19120    19105    19133    19203    19305    19429 
   19569    19718    19861    19992    20106    20190    20239    20267 
   20277    20264    20244    20221    20190    20162    20143    20136 
   20148    20185    20241    20313    20386    20455    20521    20571 
   20590    20587    20576    20553    20514    20480    20466    20468 
   20503    20575    20672    20788    20916    21039    21147    21240 
   21307    21327    21305    21247    21149    21015    20866    20721 
   20590    20491    20433    20412    20434    20502    20599    20722 
   20872    21034    21185    21309    21404    21454    21454    21412 
   21335    21227    21099    20965    20825    20675    20534    20417 
   20325    20267    20260    20305    20390    20513    20668    20844 
   21024    21205    21377    21517    21609    21659    21660    21601 
   21492    21346    21169    20973    20777    20590    20417    20275 
   20182    20135    20143    20209    20318    20463    20634    20815 
   20992    21161    21300    21394    21444    21447    21401    21311 
   21189    21049    20895    20737    20584    20441    20316    20216 
   20147    20112    20117    20159    20231    20326    20439    20556 
   20668    20765    20846    20911    20945    20946    20920    20864 
   20783    20688    20586    20480    20385    20293    20210    20142 
   20086    20042    20007    19975    19953    19940    19931    19919 
   19907    19897    19892    19890    19890    19890    19894    19890 
   19876    19851    19813    19768    19718    19660    19589    19507 
   19414    19321    19241    19180    19153    19164    19206    19280 
   19384    19496    19610    19726    19828    19908    19966    20001 
   20004    19978    19934    19874    19797    19716    19638    19568 
   19512    19467    19435    19427    19442    19488    19565    19668 
   19799    19951    20104    20237    20348    20430    20475    20476 
   20441    20371    20277    20164    20038    19917    19827    19772 
   19759    19796    19885    20017    20183    20370    20557    20740 
   20903    21031    21105    21115    21058    20943    20779    20576 
   20355    20136    19931    19745    19599    19503    19461    19473 
   19533    19633    19773    19939    20119    20308    20497    20682 
   20852    20999    21119    21212    21269    21284    21261    21207 
   21118    21007    20895    20781    20667    20564    20480    20417 
   20372    20348    20341    20345    20360    20376    20385    20387 
   20385    20375    20362    20349    20340    20325    20312    20302 
   20289    20270    20255    20241    20229    20217    20206    20189 
   20160    20124    20085    20051    20024    20009    20005    20016 
   20040    20070    20106    20150    20191    20233    20274    20304 
   20325    20337    20336    20325    20304    20274    20233    20182 
   20121    20059    19998    19946    19909    19899    19908    19942 
   20001    20083    20179    20278    20374    20456    20514    20549 
   20555    20529    20483    20425    20351    20270    20191    20113 
   20050    20009    19986    19971    19963    19967    19984    20009 
   20048    20096    20151    20209    20259    20298    20324    20333 
   20326    20308    20283    20252    20227    20216    20217    20236 
   20279    20340    20413    20498    20580    20656    20718    20764 
   20790    20799    20795    20777    20752    20729    20709    20691 
   20687    20690    20702    20727    20753    20780    20811    20837 
   20849    20846    20830    20796    20748    20696    20638    20576 
   20520    20471    20432    20410    20407    20416    20426    20437 
   20444    20444    20439    20426    20410    20394    20371    20349 
   20331    20302    20268    20233    20194    20158    20121    20086 
   20058    20044    20047    20070    20117    20183    20262    20355 
   20449    20538    20622    20695    20750    20785    20796    20783 
   20744    20680    20591    20480    20352    20212    20069    19930 
   19801    19696    19618    19579    19580    19620    19697    19807 
   19930    20061    20194    20321    20434    20534    20613    20671 
   20707    20714    20699    20671    20630    20582    20533    20488 
   20451    20421    20398    20387    20391    20412    20443    20483 
   20528    20575    20619    20659    20690    20715    20725    20717 
   20696    20660    20613    20555    20487    20422    20370    20321 
   20272    20232    20200    20174    20160    20154    20152    20162 
   20178    20200    20224    20254    20285    20310    20335    20359 
   20383    20409    20439    20467    20486    20497    20494    20474 
   20441    20402    20355    20304    20247    20182    20116    20052 
   19992    19938    19892    19865    19858    19869    19893    19931 
   19988    20067    20160    20254    20352    20452    20538    20602 
   20640    20646    20622    20568    20479    20364    20235    20098 
   19965    19843    19742    19666    19624    19616    19641    19707 
   19807    19932    20075    20220    20352    20474    20574    20641 
   20676    20673    20628    20547    20440    20314    20183    20052 
   19926    19818    19731    19665    19627    19620    19639    19689 
   19766    19861    19969    20086    20212    20337    20455    20561 
   20645    20703    20733    20731    20706    20661    20598    20525 
   20451    20386    20332    20295    20277    20272    20278    20287 
   20295    20301    20309    20314    20316    20314    20308    20297 
   20286    20267    20243    20217    20187    20154    20123    20094 
   20070    20056    20051    20048    20048    20044    20032    20017 
   20009    20004    20005    20021    20054    20096    20147    20206 
   20267    20331    20395    20455    20503    20533    20541    20524 
   20483    20422    20351    20275    20198    20124    20059    20005 
   19970    19963    19981    20017    20070    20136    20206    20270 
   20326    20379    20429    20479    20528    20576    20622    20668 
   20715    20763    20806    20841    20864    20871    20862    20841 
   20808    20763    20704    20638    20565    20487    20416    20356 
   20318    20305    20318    20359    20428    20518    20628    20748 
   20875    20993    21089    21157    21186    21170    21109    21007 
   20871    20709    20530    20352    20187    20044    19938    19869 
   19838    19845    19892    19973    20086    20220    20368    20521 
   20659    20776    20868    20918    20935    20922    20868    20779 
   20667    20540    20410    20290    20187    20109    20065    20055 
   20081    20135    20216    20316    20425    20538    20657    20769 
   20873    20968    21037    21073    21077    21038    20962    20858 
   20727    20582    20433    20289    20158    20048    19965    19916 
   19901    19916    19957    20020    20100    20186    20271    20344 
   20401    20440    20455    20443    20406    20344    20262    20167 
   20058    19939    19820    19711    19616    19542    19484    19450 
   19446    19472    19529    19614    19720    19840    19970    20093 
   20200    20286    20343    20364    20352    20301    20212    20094 
   19950    19792    19638    19500    19391    19323    19298    19318 
   19386    19492    19630    19797    19982    20170    20345    20493 
   20602    20668    20687    20663    20599    20501    20376    20237 
   20088    19939    19793    19660    19549    19472    19425    19404 
   19422    19475    19550    19651    19776    19912    20051    20187 
   20309    20412    20490    20533    20540    20514    20463    20391 
   20305    20210    20121    20040    19969    19909    19862    19831 
   19826    19855    19920    20024    20160    20317    20497    20692 
   20885    21066    21234    21373    21467    21517    21509    21433 
   21301    21123    20907    20675    20447    20233    20052    19912 
   19816    19776    19795    19859    19967    20113    20277    20444 
   20611    20761    20879    20961    21007    21018    20999    20956 
   20885    20799    20704    20601    20495    20397    20313    20250 
   20214    20210    20241    20299    20374    20470    20583    20696 
   20804    20904    20987    21043    21077    21084    21062    21014 
   20943    20864    20780    20700    20641    20606    20595    20613 
   20657    20723    20812    20915    21027    21145    21250    21330 
   21381    21393    21361    21294    21197    21070    20919    20758 
   20595    20440    20302    20189    20105    20052    20029    20031 
   20051    20083    20120    20147    20158    20156    20140    20104 
   20050    19982    19904    19820    19735    19653    19580    19521 
   19471    19438    19425    19425    19441    19479    19531    19602 
   19692    19792    19894    20008    20125    20237    20351    20455 
   20542    20619    20683    20722    20742    20741    20714    20667 
   20611    20552    20495    20443    20398    20364    20339    20324 
   20318    20321    20332    20349    20364    20374    20383    20391 
   20395    20395    20390    20378    20364    20347    20324    20297 
   20274    20254    20235    20218    20206    20202    20200    20196 
   20189    20182    20177    20163    20142    20119    20094    20071 
   20050    20034    20025    20024    20031    20050    20078    20110 
   20151    20198    20250    20301    20349    20402    20463    20534 
   20618    20704    20781    20845    20887    20904    20893    20856 
   20792    20707    20603    20479    20348    20218    20097    19997 
   19932    19905    19919    19971    20062    20177    20306    20444 
   20579    20700    20799    20873    20920    20933    20904    20846 
   20764    20660    20544    20428    20317    20225    20154    20104 
   20083    20094    20135    20204    20298    20407    20521    20632 
   20736    20821    20891    20950    20992    21011    21011    20991 
   20946    20883    20808    20729    20650    20582    20524    20475 
   20436    20406    20385    20378    20383    20397    20420    20453 
   20499    20551    20603    20656    20707    20741    20757    20758 
   20734    20677    20602    20509    20405    20302    20206    20127 
   20071    20040    20036    20061    20104    20162    20232    20305 
   20370    20426    20474    20502    20509    20497    20463    20412 
   20344    20266    20181    20096    20011    19930    19863    19818 
   19791    19792    19823    19878    19955    20046    20144    20247 
   20345    20428    20483    20517    20524    20499    20445    20362 
   20248    20115    19975    19839    19714    19607    19526    19477 
   19461    19483    19537    19615    19715    19830    19944    20056 
   20162    20250    20321    20380    20421    20445    20453    20447 
   20426    20389    20337    20282    20218    20142    20066    19996 
   19928    19872    19830    19799    19778    19778    19791    19815 
   19854    19899    19944    19997    20050    20097    20137    20169 
   20190    20198    20191    20175    20147    20106    20065    20027 
   19985    19944    19912    19884    19862    19855    19865    19889 
   19930    19978    20034    20092    20147    20196    20239    20274 
   20301    20317    20321    20318    20309    20290    20268    20244 
   20210    20170    20127    20081    20031    19975    19916    19853 
   19796    19754    19730    19726    19742    19780    19843    19927 
   20025    20137    20255    20370    20476    20567    20638    20687 
   20713    20711    20688    20649    20587    20510    20425    20328 
   20227    20132    20044    19970    19915    19880    19869    19884 
   19912    19957    20019    20092    20173    20262    20351    20433 
   20505    20564    20607    20636    20646    20642    20629    20610 
   20586    20564    20541    20517    20491    20470    20456    20447 
   20445    20452    20470    20499    20542    20596    20659    20725 
   20795    20862    20919    20960    20980    20983    20972    20945 
   20907    20866    20818    20767    20722    20683    20650    20628 
   20605    20584    20564    20538    20513    20488    20474    20472 
   20484    20506    20540    20571    20602    20636    20661    20671 
   20661    20629    20572    20497    20405    20305    20209    20128 
   20069    20034    20027    20051    20105    20186    20301    20443 
   20595    20752    20903    21033    21131    21200    21240    21250 
   21234    21200    21155    21100    21037    20970    20912    20868 
   20842    20839    20856    20887    20931    20985    21038    21088 
   21130    21154    21155    21135    21092    21031    20962    20889 
   20818    20753    20699    20655    20619    20590    20565    20540 
   20513    20487    20460    20433    20413    20398    20393    20405 
   20432    20471    20515    20563    20605    20633    20641    20626 
   20583    20509    20403    20271    20116    19951    19793    19651 
   19534    19453    19406    19398    19429    19491    19576    19678 
   19786    19886    19966    20011    20013    19971    19888    19762 
   19608    19434    19259    19093    18944    18825    18744    18706 
   18715    18762    18841    18954    19091    19236    19375    19499 
   19597    19668    19707    19715    19695    19651    19591    19516 
   19431    19344    19260    19188    19133    19099    19089    19098 
   19130    19184    19255    19337    19429    19529    19630    19726 
   19809    19877    19919    19938    19938    19917    19885    19842 
   19792    19746    19705    19670    19650    19649    19664    19700 
   19757    19828    19915    20008    20108    20212    20309    20393 
   20461    20506    20526    20524    20498    20453    20398    20340 
   20287    20247    20223    20223    20252    20309    20387    20482 
   20588    20696    20800    20895    20977    21037    21073    21087 
   21072    21028    20968    20900    20834    20772    20723    20698 
   20692    20707    20745    20804    20877    20961    21046    21128 
   21203    21258    21292    21308    21301    21278    21243    21196 
   21141    21087    21031    20980    20935    20899    20866    20838 
   20821    20810    20800    20788    20777    20767    20753    20737 
   20726    20719    20713    20709    20714    20721    20727    20740 
   20754    20769    20777    20780    20771    20752    20727    20696 
   20665    20640    20617    20596    20583    20574    20564    20564 
   20572    20582    20587    20590    20584    20567    20537    20491 
   20433    20368    20305    20245    20198    20170    20163    20173 
   20194    20227    20267    20305    20336    20360    20367    20358 
   20339    20310    20268    20224    20189    20160    20139    20133 
   20137    20152    20181    20210    20232    20247    20250    20237 
   20213    20175    20128    20069    20001    19939    19878    19824 
   19784    19761    19755    19769    19803    19854    19916    19988 
   20070    20151    20229    20298    20351    20382    20393    20379 
   20351    20316    20270    20220    20173    20129    20097    20082 
   20083    20101    20135    20177    20223    20268    20310    20341 
   20362    20368    20362    20348    20324    20290    20252    20217 
   20183    20158    20140    20131    20129    20135    20144    20159 
   20173    20186    20204    20225    20251    20282    20320    20367 
   20414    20464    20517    20561    20599    20632    20653    20659 
   20653    20634    20601    20552    20495    20434    20364    20287 
   20212    20146    20086    20040    20013    20007    20015    20042 
   20085    20139    20200    20266    20328    20378    20420    20445 
   20448    20430    20387    20321    20239    20142    20031    19916 
   19805    19704    19620    19558    19519    19508    19530    19580 
   19657    19754    19862    19982    20106    20221    20325    20420 
   20498    20559    20596    20605    20586    20542    20471    20376 
   20268    20155    20043    19938    19845    19769    19716    19681 
   19666    19677    19703    19732    19773    19820    19866    19911 
   19948    19986    20017    20038    20051    20059    20059    20055 
   20044    20025    20004    19981    19962    19953    19959    19981 
   20020    20077    20144    20220    20306    20393    20478    20560 
   20630    20680    20713    20719    20706    20677    20634    20582 
   20526    20474    20429    20406    20405    20422    20464    20525 
   20601    20687    20771    20848    20915    20965    20999    21014 
   21001    20968    20918    20850    20768    20680    20591    20501 
   20416    20348    20295    20260    20251    20263    20297    20345 
   20399    20455    20510    20552    20575    20587    20579    20549 
   20505    20448    20389    20331    20279    20239    20214    20204 
   20205    20217    20243    20277    20314    20348    20376    20399 
   20413    20417    20410    20393    20366    20333    20301    20274 
   20256    20251    20252    20259    20278    20299    20316    20336 
   20359    20372    20379    20382    20374    20356    20331    20298 
   20260    20223    20186    20156    20133    20117    20117    20139 
   20179    20229    20291    20360    20430    20495    20548    20586 
   20606    20605    20582    20544    20494    20439    20385    20341 
   20310    20298    20305    20329    20375    20444    20530    20623 
   20722    20819    20906    20972    21011    21022    21000    20943 
   20860    20757    20638    20517    20403    20301    20216    20158 
   20127    20115    20119    20140    20175    20220    20268    20316 
   20358    20397    20424    20437    20441    20439    20428    20401 
   20364    20320    20266    20206    20150    20096    20052    20025 
   20013    20016    20032    20056    20088    20124    20166    20205 
   20233    20250    20252    20244    20223    20191    20148    20094 
   20038    19980    19924    19882    19859    19851    19863    19899 
   19953    20023    20105    20189    20266    20332    20379    20398 
   20393    20367    20322    20262    20190    20115    20038    19969 
   19913    19870    19838    19824    19834    19859    19896    19943 
   19996    20048    20100    20148    20191    20229    20256    20272 
   20283    20287    20279    20264    20250    20221    20190    20163 
   20135    20106    20086    20070    20056    20044    20039    20040 
   20044    20052    20063    20077    20092    20108    20125    20144 
   20166    20186    20204    20223    20236    20236    20231    20221 
   20209    20194    20182    20171    20163    20166    20178    20200 
   20236    20286    20340    20395    20451    20497    20534    20563 
   20575    20569    20544    20499    20441    20370    20286    20200 
   20120    20052    19998    19963    19946    19944    19965    20008 
   20059    20116    20182    20252    20312    20359    20398    20424 
