Origin Time       2025/01/13 21:19:00
Lat.              31.8
Long.             131.6
Depth. (km)       30
Mag.              6.9
Station Code      NGSH05
Station Lat.      32.9103
Station Long.     130.1408
Station Height(m) -171
Record Time       2025/01/13 21:20:02
Sampling Freq(Hz) 100Hz
Duration Time(s)  224
Dir.              1
Scale Factor      3923(gal)/8224838
Max. Acc. (gal)   1.217
Last Correction   2025/01/13 21:20:03
Memo.             
[...]
  -19874   -19803   -19734   -19664   -19591   -19518   -19456   -19408 
  -19375   -19354   -19348   -19348   -19356   -19371   -19386   -19403 
  -19425   -19458   -19503   -19556   -19627   -19714   -19803   -19888 
  -19958   -20001   -20017   -20015   -19997   -19967   -19930   -19878 
  -19805   -19714   -19610   -19494   -19368   -19255   -19164   -19097 
  -19048   -19016   -18999   -19001   -19010   -19021   -19032   -19043 
  -19051   -19062   -19084   -19129   -19188   -19264   -19365   -19479 
  -19595   -19719   -19845   -19969   -20097   -20218   -20324   -20418 
  -20510   -20592   -20659   -20710   -20749   -20768   -20767   -20761 
  -20750   -20729   -20704   -20665   -20609   -20547   -20476   -20399 
  -20332   -20275   -20221   -20164   -20113   -20061   -20005   -19957 
  -19917   -19885   -19862   -19850   -19850   -19862   -19889   -19928 
  -19977   -20040   -20115   -20191   -20263   -20313   -20336   -20339 
  -20318   -20272   -20208   -20128   -20032   -19928   -19827   -19734 
  -19660   -19616   -19599   -19600   -19612   -19616   -19602   -19572 
  -19527   -19473   -19404   -19323   -19244   -19164   -19080   -19002 
  -18925   -18839   -18744   -18651   -18570   -18511   -18481   -18481 
  -18508   -18557   -18617   -18688   -18755   -18814   -18875   -18921 
  -18959   -18991   -19012   -19014   -19005   -18990   -18983   -18994 
  -19025   -19086   -19180   -19305   -19440   -19572   -19696   -19809 
  -19912   -20008   -20101   -20189   -20263   -20310   -20329   -20316 
  -20274   -20221   -20166   -20109   -20056   -20007   -19944   -19873 
  -19795   -19705   -19612   -19518   -19413   -19298   -19179   -19049 
  -18916   -18793   -18684   -18588   -18511   -18451   -18412   -18391 
  -18382   -18387   -18404   -18439   -18492   -18550   -18607   -18663 
  -18727   -18808   -18909   -19026   -19160   -19305   -19457   -19612 
  -19759   -19905   -20046   -20174   -20285   -20374   -20424   -20437 
  -20421   -20376   -20305   -20225   -20140   -20054   -19977   -19907 
  -19843   -19782   -19726   -19680   -19647   -19627   -19618   -19614 
  -19612   -19622   -19649   -19693   -19759   -19843   -19940   -20054 
  -20178   -20297   -20395   -20468   -20513   -20532   -20526   -20507 
  -20483   -20459   -20437   -20409   -20378   -20340   -20290   -20227 
  -20152   -20061   -19954   -19843   -19737   -19634   -19541   -19452 
  -19360   -19272   -19192   -19121   -19068   -19044   -19059   -19111 
  -19201   -19317   -19446   -19589   -19739   -19882   -20016   -20135 
  -20233   -20304   -20347   -20364   -20359   -20331   -20294   -20266 
  -20237   -20212   -20202   -20193   -20175   -20154   -20121   -20082 
  -20038   -19994   -19953   -19908   -19853   -19777   -19687   -19592 
  -19494   -19403   -19338   -19298   -19287   -19317   -19387   -19488 
  -19615   -19757   -19904   -20052   -20198   -20339   -20456   -20542 
  -20591   -20599   -20574   -20532   -20470   -20394   -20312   -20227 
  -20146   -20071   -19997   -19928   -19861   -19795   -19734   -19668 
  -19592   -19515   -19427   -19323   -19213   -19099   -18997   -18918 
  -18871   -18859   -18874   -18904   -18943   -18983   -19016   -19041 
  -19062   -19084   -19120   -19160   -19213   -19287   -19380   -19479 
  -19573   -19654   -19722   -19770   -19801   -19815   -19804   -19766 
  -19711   -19647   -19577   -19511   -19453   -19407   -19372   -19345 
  -19326   -19314   -19307   -19305   -19300   -19292   -19280   -19273 
  -19278   -19302   -19353   -19431   -19531   -19645   -19769   -19899 
  -20021   -20132   -20224   -20289   -20324   -20331   -20318   -20295 
  -20268   -20239   -20205   -20174   -20154   -20151   -20170   -20205 
  -20240   -20263   -20275   -20279   -20271   -20252   -20227   -20187 
  -20136   -20070   -19985   -19889   -19788   -19695   -19622   -19566 
  -19525   -19495   -19473   -19461   -19458   -19469   -19487   -19506 
  -19522   -19531   -19535   -19535   -19531   -19527   -19530   -19548 
  -19584   -19630   -19687   -19750   -19820   -19894   -19970   -20047 
  -20136   -20237   -20337   -20433   -20522   -20590   -20629   -20634 
  -20610   -20564   -20509   -20447   -20378   -20308   -20236   -20158 
  -20073   -19993   -19916   -19842   -19786   -19751   -19735   -19734 
  -19742   -19755   -19777   -19800   -19824   -19845   -19857   -19858 
  -19849   -19826   -19795   -19758   -19711   -19660   -19612   -19564 
  -19523   -19491   -19465   -19448   -19437   -19435   -19445   -19464 
  -19489   -19523   -19561   -19596   -19635   -19677   -19720   -19768 
  -19818   -19863   -19894   -19908   -19894   -19854   -19800   -19749 
  -19705   -19676   -19666   -19670   -19677   -19685   -19696   -19700 
  -19688   -19661   -19618   -19562   -19500   -19440   -19379   -19319 
  -19273   -19245   -19232   -19236   -19257   -19291   -19332   -19375 
  -19419   -19454   -19481   -19504   -19530   -19564   -19615   -19685 
  -19766   -19854   -19944   -20021   -20075   -20112   -20132   -20137 
  -20139   -20140   -20139   -20133   -20127   -20124   -20127   -20139 
  -20156   -20169   -20171   -20162   -20143   -20109   -20062   -20012 
  -19961   -19905   -19838   -19750   -19641   -19507   -19356   -19198 
  -19049   -18922   -18828   -18779   -18774   -18804   -18871   -18975 
  -19109   -19269   -19450   -19642   -19836   -20028   -20210   -20367 
  -20482   -20563   -20615   -20644   -20650   -20649   -20637   -20610 
  -20574   -20522   -20461   -20397   -20320   -20220   -20094   -19946 
  -19784   -19619   -19453   -19288   -19130   -18987   -18864   -18765 
  -18698   -18662   -18643   -18640   -18655   -18682   -18716   -18762 
  -18819   -18885   -18963   -19052   -19143   -19241   -19346   -19450 
  -19548   -19635   -19697   -19735   -19750   -19730   -19669   -19568 
  -19423   -19240   -19022   -18783   -18539   -18307   -18106   -17948 
  -17838   -17788   -17787   -17830   -17914   -18027   -18165   -18323 
  -18504   -18712   -18937   -19175   -19418   -19653   -19859   -20027 
  -20147   -20212   -20229   -20201   -20132   -20042   -19935   -19820 
  -19710   -19603   -19503   -19411   -19329   -19261   -19209   -19163 
  -19120   -19082   -19047   -19016   -18994   -18993   -19012   -19047 
  -19097   -19155   -19214   -19283   -19363   -19441   -19516   -19593 
  -19660   -19714   -19759   -19791   -19804   -19804   -19795   -19781 
  -19765   -19743   -19720   -19701   -19685   -19669   -19649   -19622 
  -19589   -19554   -19511   -19461   -19407   -19350   -19294   -19242 
  -19205   -19190   -19195   -19210   -19237   -19267   -19300   -19334 
  -19363   -19386   -19394   -19380   -19349   -19307   -19259   -19211 
  -19165   -19124   -19079   -19039   -19024   -19036   -19076   -19161 
  -19290   -19445   -19620   -19816   -20013   -20198   -20368   -20515 
  -20638   -20736   -20808   -20860   -20888   -20891   -20868   -20825 
  -20764   -20688   -20611   -20540   -20464   -20391   -20321   -20248 
  -20189   -20150   -20129   -20136   -20167   -20204   -20244   -20281 
  -20302   -20314   -20317   -20305   -20275   -20237   -20196   -20151 
  -20113   -20090   -20089   -20116   -20170   -20244   -20336   -20439 
  -20540   -20626   -20691   -20723   -20725   -20710   -20682   -20644 
  -20613   -20584   -20549   -20521   -20507   -20509   -20528   -20553 
  -20572   -20583   -20586   -20578   -20547   -20499   -20447   -20382 
  -20314   -20258   -20216   -20183   -20156   -20125   -20088   -20034 
  -19967   -19892   -19811   -19730   -19662   -19616   -19589   -19583 
  -19596   -19620   -19657   -19714   -19795   -19896   -20013   -20144 
  -20293   -20447   -20587   -20706   -20798   -20871   -20933   -20985 
  -21026   -21053   -21057   -21034   -20980   -20888   -20769   -20637 
  -20493   -20344   -20208   -20088   -19993   -19927   -19882   -19857 
  -19845   -19845   -19858   -19881   -19905   -19928   -19938   -19927 
  -19900   -19863   -19823   -19776   -19735   -19705   -19678   -19657 
  -19638   -19615   -19589   -19558   -19521   -19479   -19438   -19406 
  -19379   -19353   -19333   -19311   -19280   -19246   -19219   -19203 
  -19202   -19217   -19260   -19333   -19418   -19510   -19608   -19701 
  -19777   -19840   -19889   -19917   -19926   -19911   -19878   -19831 
  -19770   -19693   -19610   -19526   -19438   -19348   -19263   -19190 
  -19122   -19060   -19003   -18954   -18910   -18882   -18877   -18893 
  -18927   -18978   -19044   -19114   -19194   -19286   -19380   -19471 
  -19558   -19637   -19705   -19768   -19826   -19870   -19892   -19890 
  -19862   -19797   -19699   -19573   -19427   -19275   -19129   -19002 
  -18894   -18812   -18752   -18696   -18643   -18601   -18566   -18549 
  -18563   -18601   -18666   -18766   -18889   -19018   -19152   -19279 
  -19380   -19449   -19494   -19518   -19529   -19539   -19552   -19566 
  -19587   -19604   -19614   -19620   -19618   -19603   -19575   -19525 
  -19458   -19380   -19294   -19218   -19172   -19147   -19134   -19132 
  -19129   -19121   -19102   -19079   -19057   -19028   -18997   -18978 
  -18964   -18962   -18981   -19013   -19053   -19105   -19161   -19217 
  -19268   -19310   -19341   -19361   -19365   -19353   -19334   -19309 
  -19275   -19248   -19233   -19228   -19237   -19257   -19291   -19338 
  -19390   -19441   -19495   -19541   -19576   -19610   -19643   -19676 
  -19719   -19766   -19811   -19855   -19888   -19901   -19907   -19903 
  -19880   -19847   -19824   -19812   -19807   -19813   -19832   -19858 
  -19899   -19962   -20036   -20129   -20247   -20378   -20518   -20671 
  -20823   -20966   -21095   -21211   -21303   -21367   -21419   -21452 
  -21470   -21477   -21467   -21440   -21405   -21358   -21297   -21234 
  -21168   -21101   -21045   -21001   -20968   -20949   -20943   -20949 
  -20968   -20988   -20996   -20996   -20989   -20969   -20942   -20907 
  -20858   -20799   -20723   -20628   -20518   -20398   -20264   -20125 
  -20002   -19900   -19818   -19759   -19715   -19674   -19643   -19623 
  -19604   -19592   -19587   -19577   -19573   -19580   -19593   -19615 
  -19647   -19688   -19737   -19791   -19843   -19884   -19907   -19905 
  -19863   -19785   -19684   -19564   -19437   -19325   -19234   -19165 
  -19113   -19079   -19056   -19043   -19039   -19043   -19049   -19066 
  -19089   -19117   -19161   -19217   -19276   -19336   -19379   -19398 
  -19396   -19372   -19334   -19290   -19232   -19167   -19099   -19026 
  -18952   -18885   -18825   -18763   -18690   -18608   -18517   -18423 
  -18331   -18239   -18165   -18118   -18094   -18096   -18125   -18165 
  -18214   -18279   -18358   -18458   -18578   -18709   -18848   -18990 
  -19117   -19218   -19292   -19334   -19354   -19360   -19350   -19336 
  -19325   -19322   -19337   -19371   -19415   -19460   -19502   -19533 
  -19554   -19573   -19596   -19626   -19668   -19722   -19793   -19884 
  -19998   -20135   -20289   -20459   -20632   -20796   -20943   -21068 
  -21168   -21239   -21288   -21328   -21359   -21379   -21392   -21385 
  -21358   -21315   -21250   -21173   -21089   -20997   -20898   -20788 
  -20671   -20549   -20434   -20337   -20267   -20232   -20233   -20271 
  -20352   -20479   -20648   -20845   -21053   -21269   -21470   -21633 
  -21755   -21822   -21825   -21772   -21663   -21505   -21308   -21078 
  -20833   -20590   -20353   -20132   -19927   -19735   -19556   -19381 
  -19215   -19060   -18916   -18792   -18689   -18611   -18559   -18543 
  -18571   -18648   -18771   -18928   -19101   -19279   -19449   -19596 
  -19714   -19800   -19854   -19873   -19862   -19831   -19782   -19722 
  -19653   -19573   -19485   -19398   -19302   -19202   -19110   -19024 
  -18943   -18874   -18813   -18763   -18727   -18701   -18677   -18652 
  -18640   -18632   -18621   -18615   -18615   -18616   -18630   -18662 
  -18711   -18781   -18874   -18982   -19103   -19238   -19381   -19521 
  -19653   -19776   -19885   -19984   -20066   -20139   -20205   -20270 
  -20335   -20398   -20455   -20507   -20547   -20571   -20590   -20601 
  -20591   -20563   -20514   -20436   -20331   -20202   -20050   -19882 
  -19712   -19556   -19423   -19321   -19242   -19188   -19161   -19159 
  -19180   -19234   -19326   -19456   -19618   -19800   -19996   -20187 
  -20360   -20513   -20641   -20741   -20802   -20822   -20807   -20758 
  -20679   -20568   -20433   -20282   -20117   -19943   -19759   -19566 
  -19360   -19138   -18904   -18661   -18427   -18218   -18045   -17926 
  -17874   -17883   -17942   -18041   -18171   -18316   -18474   -18652 
  -18840   -19037   -19238   -19433   -19615   -19780   -19921   -20038 
  -20135   -20218   -20283   -20321   -20341   -20343   -20322   -20285 
  -20228   -20152   -20070   -19984   -19880   -19764   -19642   -19504 
  -19350   -19194   -19039   -18887   -18744   -18612   -18496   -18393 
  -18308   -18243   -18198   -18175   -18176   -18200   -18242   -18300 
  -18369   -18449   -18532   -18601   -18650   -18675   -18670   -18632 
  -18573   -18493   -18389   -18269   -18145   -18027   -17937   -17884 
  -17869   -17898   -17973   -18090   -18234   -18409   -18611   -18823 
  -19037   -19252   -19448   -19616   -19758   -19858   -19915   -19943 
  -19948   -19938   -19926   -19913   -19890   -19855   -19813   -19762 
  -19703   -19642   -19584   -19525   -19465   -19414   -19367   -19326 
  -19309   -19321   -19372   -19469   -19611   -19774   -19950   -20158 
  -20397   -20644   -20891   -21135   -21371   -21595   -21793   -21963 
  -22098   -22192   -22252   -22277   -22268   -22230   -22162   -22061 
  -21932   -21774   -21593   -21402   -21207   -21010   -20815   -20633 
  -20460   -20302   -20162   -20025   -19893   -19769   -19654   -19558 
  -19484   -19429   -19395   -19386   -19402   -19445   -19514   -19611 
  -19734   -19876   -20027   -20175   -20312   -20432   -20532   -20605 
  -20649   -20664   -20653   -20623   -20578   -20521   -20459   -20389 
  -20306   -20213   -20115   -20019   -19928   -19845   -19770   -19722 
  -19710   -19726   -19768   -19838   -19923   -20011   -20092   -20164 
  -20228   -20282   -20322   -20353   -20375   -20389   -20406   -20439 
  -20476   -20517   -20553   -20567   -20545   -20490   -20387   -20237 
  -20056   -19845   -19600   -19344   -19078   -18813   -18574   -18368 
  -18195   -18065   -17979   -17928   -17914   -17941   -18003   -18092 
  -18211   -18351   -18509   -18686   -18882   -19083   -19286   -19485 
  -19687   -19884   -20075   -20267   -20451   -20628   -20791   -20931 
  -21057   -21163   -21242   -21289   -21298   -21269   -21201   -21097 
  -20957   -20785   -20588   -20372   -20137   -19892   -19645   -19407 
  -19186   -18991   -18829   -18706   -18639   -18625   -18658   -18735 
  -18860   -19017   -19190   -19381   -19583   -19782   -19980   -20170 
  -20358   -20545   -20725   -20900   -21072   -21236   -21389   -21525 
  -21631   -21697   -21717   -21689   -21613   -21494   -21332   -21127 
  -20891   -20638   -20375   -20104   -19835   -19568   -19294   -19021 
  -18763   -18527   -18334   -18198   -18119   -18104   -18156   -18257 
  -18393   -18551   -18719   -18887   -19048   -19199   -19344   -19487 
  -19620   -19749   -19880   -20011   -20143   -20279   -20422   -20572 
  -20719   -20861   -20991   -21107   -21205   -21284   -21340   -21379 
  -21393   -21374   -21323   -21240   -21127   -20993   -20862   -20745 
  -20632   -20525   -20453   -20421   -20401   -20387   -20405   -20437 
  -20468   -20507   -20551   -20588   -20630   -20677   -20734   -20795 
  -20854   -20903   -20918   -20889   -20814   -20688   -20520   -20322 
  -20113   -19911   -19734   -19597   -19512   -19481   -19506   -19570 
  -19657   -19753   -19838   -19889   -19913   -19909   -19867   -19805 
  -19743   -19681   -19627   -19585   -19553   -19525   -19500   -19483 
  -19473   -19464   -19460   -19458   -19458   -19462   -19472   -19491 
  -19514   -19542   -19575   -19611   -19649   -19688   -19728   -19773 
  -19822   -19867   -19909   -19955   -20004   -20056   -20109   -20156 
  -20204   -20244   -20263   -20272   -20283   -20293   -20297   -20297 
  -20297   -20294   -20275   -20237   -20174   -20081   -19962   -19813 
  -19631   -19433   -19229   -19032   -18855   -18704   -18580   -18480 
  -18409   -18366   -18346   -18354   -18393   -18457   -18551   -18670 
  -18793   -18910   -19012   -19078   -19117   -19137   -19136   -19121 
  -19102   -19079   -19052   -19029   -19009   -18989   -18975   -18968 
  -18966   -18959   -18943   -18913   -18866   -18792   -18692   -18573 
  -18442   -18301   -18162   -18033   -17919   -17829   -17764   -17733 
  -17734   -17759   -17799   -17856   -17930   -18019   -18114   -18216 
  -18322   -18420   -18509   -18585   -18640   -18677   -18709   -18743 
  -18773   -18804   -18841   -18874   -18890   -18887   -18855   -18800 
  -18736   -18670   -18612   -18574   -18554   -18549   -18555   -18574 
  -18601   -18636   -18685   -18744   -18809   -18885   -18981   -19090 
  -19218   -19364   -19521   -19687   -19851   -20001   -20133   -20243 
  -20324   -20379   -20417   -20440   -20456   -20474   -20488   -20501 
  -20514   -20517   -20503   -20476   -20432   -20364   -20278   -20185 
  -20086   -19985   -19894   -19820   -19769   -19747   -19753   -19778 
  -19820   -19863   -19909   -19963   -20025   -20088   -20150   -20213 
  -20274   -20331   -20385   -20448   -20520   -20588   -20656   -20713 
  -20748   -20765   -20761   -20741   -20715   -20679   -20630   -20578 
  -20524   -20467   -20401   -20324   -20235   -20125   -20000   -19863 
  -19720   -19581   -19454   -19341   -19234   -19132   -19028   -18924 
  -18820   -18715   -18611   -18526   -18484   -18484   -18497   -18532 
  -18613   -18735   -18871   -19017   -19182   -19353   -19515   -19670 
  -19818   -19947   -20067   -20178   -20278   -20362   -20430   -20480 
  -20509   -20517   -20505   -20474   -20424   -20356   -20275   -20183 
  -20086   -19986   -19886   -19791   -19705   -19638   -19591   -19561 
  -19556   -19580   -19630   -19695   -19781   -19893   -20021   -20156 
  -20295   -20422   -20532   -20619   -20680   -20711   -20723   -20727 
  -20727   -20731   -20746   -20772   -20804   -20839   -20875   -20899 
  -20918   -20927   -20919   -20903   -20881   -20853   -20822   -20787 
  -20749   -20706   -20660   -20609   -20552   -20488   -20422   -20348 
  -20272   -20202   -20133   -20062   -19990   -19923   -19857   -19797 
  -19749   -19714   -19700   -19707   -19731   -19774   -19836   -19905 
  -19980   -20058   -20128   -20196   -20258   -20314   -20372   -20429 
  -20480   -20529   -20571   -20594   -20609   -20609   -20586   -20542 
  -20476   -20390   -20290   -20175   -20055   -19946   -19838   -19731 
  -19631   -19534   -19430   -19326   -19225   -19124   -19032   -18955 
  -18897   -18864   -18862   -18885   -18937   -19010   -19093   -19187 
  -19280   -19360   -19422   -19467   -19492   -19503   -19502   -19489 
  -19471   -19449   -19431   -19421   -19413   -19414   -19434   -19473 
  -19522   -19583   -19650   -19715   -19784   -19853   -19911   -19965 
  -20016   -20058   -20098   -20127   -20140   -20150   -20151   -20139 
  -20124   -20113   -20109   -20119   -20136   -20159   -20177   -20174 
  -20148   -20102   -20034   -19947   -19851   -19753   -19649   -19548 
  -19457   -19383   -19332   -19303   -19294   -19300   -19315   -19333 
