Origin Time       2025/01/13 21:19:00
Lat.              31.8
Long.             131.6
Depth. (km)       30
Mag.              6.9
Station Code      NGSH01
Station Lat.      33.2116
Station Long.     129.4353
Station Height(m) -177
Record Time       2025/01/13 21:20:21
Sampling Freq(Hz) 100Hz
Duration Time(s)  157
Dir.              2
Scale Factor      3923(gal)/8224838
Max. Acc. (gal)   0.963
Last Correction   2025/01/13 21:20:22
Memo.             
[...]
   61445    61435    61422    61406    61392    61380    61364    61349 
   61337    61327    61315    61302    61291    61280    61269    61261 
   61254    61248    61249    61254    61261    61275    61300    61327 
   61358    61398    61435    61476    61522    61564    61604    61643 
   61682    61723    61767    61815    61867    61924    61985    62051 
   62122    62201    62280    62359    62438    62515    62588    62653 
   62712    62769    62820    62862    62903    62939    62976    63016 
   63055    63096    63136    63178    63216    63248    63279    63310 
   63337    63359    63378    63394    63404    63406    63410    63413 
   63408    63402    63401    63400    63400    63402    63404    63410 
   63420    63429    63440    63455    63466    63478    63493    63502 
   63510    63516    63517    63517    63517    63514    63512    63512 
   63509    63504    63498    63494    63491    63481    63470    63464 
   63456    63447    63441    63435    63427    63417    63409    63401 
   63394    63386    63378    63373    63367    63356    63347    63339 
   63329    63317    63305    63296    63292    63288    63283    63277 
   63266    63251    63236    63220    63205    63196    63188    63180 
   63175    63171    63166    63159    63148    63138    63126    63112 
   63093    63069    63043    63013    62977    62941    62899    62853 
   62808    62766    62721    62676    62635    62598    62561    62521 
   62479    62441    62401    62356    62314    62275    62235    62194 
   62154    62110    62066    62021    61973    61920    61869    61815 
   61759    61707    61653    61601    61554    61508    61462    61423 
   61383    61342    61306    61267    61234    61211    61192    61177 
   61168    61163    61161    61161    61163    61169    61179    61187 
   61195    61203    61217    61234    61254    61276    61298    61322 
   61346    61366    61383    61395    61399    61398    61396    61392 
   61389    61389    61388    61392    61402    61412    61431    61454 
   61485    61522    61554    61592    61632    61673    61712    61751 
   61788    61823    61851    61877    61900    61923    61942    61958 
   61971    61987    62008    62028    62047    62067    62089    62108 
   62125    62144    62164    62182    62197    62208    62216    62228 
   62240    62248    62260    62275    62290    62307    62330    62355 
   62382    62410    62444    62480    62514    62549    62587    62622 
   62657    62691    62715    62738    62757    62770    62780    62785 
   62783    62781    62777    62772    62766    62760    62753    62745 
   62737    62729    62722    62715    62707    62696    62681    62665 
   62649    62627    62608    62590    62571    62553    62537    62519 
   62505    62488    62471    62452    62434    62419    62406    62387 
   62372    62360    62345    62333    62325    62316    62303    62294 
   62286    62276    62270    62266    62264    62266    62272    62280 
   62289    62301    62314    62321    62328    62332    62328    62320 
   62310    62295    62279    62268    62259    62245    62233    62225 
   62213    62197    62185    62175    62163    62154    62149    62144 
   62136    62129    62118    62106    62095    62083    62071    62062 
   62054    62043    62035    62033    62035    62037    62043    62051 
   62063    62077    62091    62112    62133    62155    62183    62213 
   62243    62276    62314    62349    62386    62421    62456    62486 
   62509    62532    62552    62567    62580    62594    62606    62618 
   62631    62648    62662    62677    62695    62716    62741    62768 
   62795    62818    62841    62860    62865    62866    62865    62850 
   62830    62812    62791    62762    62735    62707    62680    62653 
   62627    62603    62581    62564    62544    62525    62505    62483 
   62463    62442    62426    62414    62403    62397    62395    62397 
   62402    62407    62413    62419    62424    62425    62428    62428 
   62425    62419    62410    62397    62383    62368    62356    62345 
   62333    62324    62318    62314    62309    62305    62301    62291 
   62280    62268    62252    62237    62224    62213    62205    62202 
   62205    62214    62229    62243    62259    62278    62294    62309 
   62324    62340    62353    62367    62384    62399    62415    62434 
   62451    62467    62486    62506    62529    62553    62577    62604 
   62637    62671    62700    62729    62756    62776    62791    62800 
   62804    62800    62792    62780    62761    62738    62712    62684 
   62656    62629    62604    62584    62564    62550    62546    62545 
   62544    62544    62545    62545    62542    62536    62527    62521 
   62511    62500    62490    62482    62465    62445    62425    62402 
   62372    62345    62324    62302    62283    62275    62267    62264 
   62264    62262    62262    62257    62247    62232    62216    62197 
   62176    62151    62129    62109    62090    62079    62070    62062 
   62056    62048    62043    62043    62040    62040    62044    62048 
   62052    62058    62063    62068    62073    62075    62078    62077 
   62071    62070    62067    62060    62059    62060    62063    62066 
   62068    62070    62074    62077    62077    62077    62079    62082 
   62086    62093    62100    62106    62114    62120    62127    62128 
   62127    62128    62128    62128    62131    62135    62143    62158 
   62172    62187    62206    62224    62239    62251    62263    62276 
   62290    62298    62306    62314    62322    62328    62333    62345 
   62353    62357    62365    62368    62364    62360    62348    62332 
   62320    62301    62280    62263    62247    62225    62199    62175 
   62151    62128    62106    62083    62071    62062    62048    62041 
   62041    62037    62033    62035    62035    62035    62035    62032 
   62031    62028    62021    62023    62027    62027    62032    62041 
   62051    62066    62083    62104    62127    62151    62176    62206 
   62239    62274    62309    62345    62380    62417    62449    62480 
   62510    62538    62564    62584    62599    62610    62615    62619 
   62622    62626    62630    62634    62642    62653    62668    62687 
   62710    62731    62760    62789    62823    62857    62888    62923 
   62959    62992    63024    63050    63069    63085    63093    63092 
   63088    63077    63062    63046    63028    63005    62981    62961 
   62942    62922    62903    62889    62877    62864    62851    62838 
   62823    62810    62789    62765    62739    62708    62677    62646 
   62614    62584    62557    62532    62511    62499    62492    62494 
   62503    62518    62537    62557    62573    62592    62610    62621 
   62625    62629    62630    62629    62627    62627    62630    62633 
   62640    62644    62648    62657    62662    62662    62660    62654 
   62644    62625    62602    62576    62548    62517    62486    62456 
   62425    62394    62363    62333    62306    62279    62253    62226 
   62198    62171    62143    62116    62090    62066    62040    62014 
   61987    61962    61933    61904    61871    61840    61815    61790 
   61765    61743    61727    61712    61693    61682    61672    61658 
   61647    61639    61626    61612    61599    61588    61577    61568 
   61566    61564    61558    61557    61551    61547    61547    61546 
   61542    61543    61545    61550    61561    61569    61577    61592 
   61604    61614    61624    61635    61647    61653    61659    61666 
   61668    61665    61665    61663    61661    61658    61655    61654 
   61653    61651    61655    61668    61685    61701    61720    61742 
   61759    61781    61803    61817    61836    61859    61884    61915 
   61950    61987    62029    62071    62114    62160    62206    62249 
   62295    62345    62395    62444    62496    62550    62596    62638 
   62676    62703    62722    62738    62748    62753    62760    62765 
   62772    62781    62791    62799    62804    62808    62811    62814 
   62818    62822    62829    62838    62845    62854    62865    62872 
   62877    62878    62873    62866    62860    62851    62839    62823 
   62806    62792    62779    62769    62766    62768    62772    62777 
   62789    62807    62823    62842    62865    62885    62905    62927 
   62946    62961    62980    62999    63016    63036    63054    63072 
   63096    63120    63142    63170    63198    63225    63255    63281 
   63305    63332    63355    63370    63383    63389    63387    63382 
   63370    63354    63332    63308    63282    63251    63219    63184 
   63144    63099    63046    62997    62947    62895    62846    62800 
   62754    62708    62664    62622    62575    62527    62488    62442 
   62391    62345    62294    62247    62206    62164    62122    62083 
   62044    62006    61971    61936    61898    61865    61834    61805 
   61780    61759    61747    61743    61746    61755    61771    61793 
   61820    61850    61881    61913    61944    61971    62000    62029 
   62055    62073    62091    62113    62129    62143    62159    62172 
   62183    62195    62203    62213    62224    62229    62236    62244 
   62249    62256    62260    62263    62267    62268    62266    62259 
   62249    62235    62214    62191    62167    62143    62114    62086 
   62063    62039    62016    62000    61993    61990    61990    61998 
   62013    62029    62048    62071    62094    62121    62151    62182 
   62214    62243    62264    62287    62306    62318    62326    62332 
   62333    62336    62336    62332    62329    62330    62332    62337 
   62348    62360    62370    62386    62402    62417    62432    62446 
   62461    62473    62482    62490    62495    62499    62503    62510 
   62522    62532    62541    62557    62575    62591    62610    62634 
   62657    62679    62699    62722    62741    62758    62777    62795 
   62814    62834    62853    62870    62884    62893    62903    62910 
   62914    62919    62923    62924    62924    62928    62931    62932 
   62937    62946    62957    62969    62982    62996    63009    63026 
   63042    63054    63067    63077    63080    63077    63070    63058 
   63040    63023    63003    62978    62957    62937    62914    62892 
   62874    62854    62829    62803    62773    62745    62716    62683 
   62650    62622    62588    62552    62521    62488    62455    62425 
   62399    62372    62351    62336    62325    62316    62306    62301 
   62297    62290    62280    62275    62270    62263    62262    62262 
   62256    62253    62252    62247    62243    62240    62233    62226 
   62218    62205    62183    62159    62129    62100    62067    62031 
   61998    61966    61931    61900    61870    61842    61820    61804 
   61792    61786    61782    61784    61794    61805    61819    61839 
   61863    61888    61915    61940    61970    61997    62016    62035 
   62052    62064    62070    62071    62068    62059    62047    62029 
   62008    61987    61969    61948    61928    61908    61893    61878 
   61865    61851    61840    61831    61825    61824    61819    61812 
   61811    61808    61804    61805    61804    61800    61801    61804 
   61807    61813    61821    61828    61835    61840    61843    61848 
   61857    61862    61867    61873    61873    61873    61878    61881 
   61878    61879    61878    61875    61873    61870    61863    61857 
   61850    61839    61825    61815    61807    61798    61796    61798 
   61804    61812    61823    61834    61847    61859    61871    61879 
   61882    61888    61900    61909    61916    61928    61940    61950 
   61960    61975    61985    61994    62008    62017    62028    62043 
   62055    62067    62082    62095    62113    62132    62148    62160 
   62172    62186    62195    62205    62216    62226    62237    62251 
   62262    62275    62291    62305    62320    62336    62352    62371 
   62391    62410    62432    62451    62475    62502    62523    62544 
   62569    62595    62617    62638    62662    62685    62706    62722 
   62739    62756    62766    62779    62787    62793    62806    62814 
   62820    62831    62834    62835    62843    62853    62858    62868 
   62880    62889    62900    62916    62931    62941    62950    62961 
   62966    62966    62959    62947    62934    62920    62900    62876 
   62854    62834    62812    62795    62781    62768    62756    62749 
   62746    62749    62758    62773    62787    62808    62837    62864 
   62892    62923    62959    62999    63036    63077    63120    63165 
   63209    63254    63301    63344    63382    63416    63444    63470 
   63491    63510    63525    63536    63547    63559    63568    63578 
   63593    63607    63620    63632    63639    63637    63633    63632 
   63620    63601    63582    63560    63533    63506    63479    63450 
   63417    63387    63359    63329    63290    63252    63216    63171 
   63123    63077    63026    62972    62922    62870    62819    62769 
   62719    62668    62622    62575    62525    62478    62429    62379 
   62329    62274    62212    62147    62075    62002    61927    61846 
   61763    61682    61601    61523    61447    61379    61317    61256 
   61206    61164    61121    61080    61045    61007    60968    60929 
   60891    60852    60809    60766    60724    60683    60643    60604 
   60570    60539    60502    60470    60443    60417    60392    60372 
   60357    60340    60331    60327    60324    60327    60334    60342 
   60351    60362    60370    60381    60396    60412    60427    60450 
   60474    60500    60531    60565    60601    60640    60682    60727 
   60772    60818    60862    60906    60952    60998    61037    61076 
   61115    61153    61188    61223    61258    61292    61326    61362 
   61396    61435    61479    61518    61560    61608    61657    61701 
   61750    61803    61854    61906    61962    62014    62068    62118 
   62171    62224    62276    62330    62386    62445    62506    62564 
   62623    62687    62749    62811    62870    62926    62985    63047 
   63103    63157    63209    63262    63310    63352    63389    63429 
   63467    63497    63525    63552    63572    63594    63616    63634 
   63653    63671    63688    63706    63718    63728    63736    63737 
   63736    63736    63732    63721    63710    63701    63690    63675 
   63659    63641    63625    63606    63586    63564    63544    63525 
   63508    63487    63467    63450    63437    63427    63416    63406 
   63401    63397    63391    63382    63374    63363    63348    63329 
   63309    63290    63269    63244    63221    63194    63165    63135 
   63103    63069    63038    63009    62978    62947    62919    62891 
   62864    62839    62819    62796    62772    62749    62727    62703 
   62675    62645    62613    62575    62537    62502    62464    62424 
   62386    62351    62318    62287    62257    62233    62210    62185 
   62160    62143    62122    62101    62078    62056    62035    62013 
   61989    61967    61944    61923    61902    61879    61854    61831 
   61809    61785    61763    61747    61732    61727    61726    61727 
   61734    61746    61757    61769    61785    61804    61821    61838 
   61854    61873    61886    61900    61917    61932    61946    61960 
   61970    61981    61992    61997    62001    62006    62009    62010 
   62013    62017    62023    62029    62036    62043    62051    62064 
   62077    62087    62101    62114    62121    62128    62136    62141 
   62145    62148    62149    62155    62158    62159    62166    62171 
   62172    62175    62175    62170    62167    62166    62163    62162 
   62162    62166    62172    62176    62183    62193    62198    62199 
   62197    62193    62189    62181    62167    62154    62140    62122 
   62100    62081    62060    62035    62013    61994    61973    61952 
   61939    61928    61920    61917    61919    61921    61927    61938 
   61950    61958    61967    61979    61990    61996    61997    62001 
   62004    62000    61997    61993    61986    61978    61970    61966 
   61963    61959    61955    61956    61962    61969    61974    61977 
   61977    61975    61969    61955    61938    61919    61898    61877 
   61857    61840    61827    61820    61819    61821    61828    61840 
   61861    61881    61902    61928    61951    61978    62008    62036 
   62063    62094    62129    62162    62198    62236    62272    62314 
   62361    62406    62448    62488    62533    62576    62618    62661 
   62703    62741    62776    62811    62845    62873    62901    62926 
   62946    62966    62981    62992    63000    63005    63005    63001 
   62996    62986    62974    62962    62950    62932    62915    62899 
   62877    62850    62826    62799    62770    62746    62725    62698 
   62672    62653    62635    62614    62596    62584    62573    62565 
   62559    62550    62544    62540    62536    62529    62523    62518 
   62511    62505    62496    62487    62475    62463    62452    62441 
   62430    62419    62413    62401    62390    62382    62370    62356 
   62345    62332    62313    62295    62278    62260    62240    62222 
   62209    62197    62189    62183    62178    62176    62182    62186 
   62191    62202    62213    62221    62229    62240    62249    62257 
   62267    62274    62278    62286    62298    62309    62322    62338 
   62353    62368    62388    62407    62428    62451    62471    62492 
   62517    62541    62561    62583    62602    62617    62631    62640 
   62644    62650    62657    62657    62657    62664    62673    62680 
   62689    62702    62710    62718    62725    62733    62741    62748 
   62748    62750    62750    62745    62738    62733    62722    62708 
   62698    62683    62664    62646    62625    62602    62580    62554 
   62525    62494    62464    62436    62402    62371    62343    62311 
   62284    62260    62237    62218    62199    62182    62166    62151 
   62131    62112    62100    62086    62075    62070    62068    62064 
   62059    62059    62058    62052    62048    62046    62039    62029 
   62023    62013    62002    61994    61986    61978    61973    61967 
   61965    61965    61962    61958    61954    61950    61943    61935 
   61931    61929    61928    61924    61921    61921    61923    61923 
   61920    61919    61920    61916    61908    61902    61898    61889 
   61875    61866    61859    61848    61844    61842    61838    61839 
   61848    61857    61865    61875    61881    61885    61892    61896 
   61898    61896    61892    61889    61888    61885    61882    61882 
   61882    61878    61878    61882    61885    61889    61894    61904 
   61915    61927    61936    61946    61959    61973    61985    61996 
   62005    62014    62021    62028    62036    62047    62056    62064 
   62075    62087    62101    62116    62132    62151    62170    62183 
   62195    62208    62218    62230    62239    62241    62245    62253 
   62263    62271    62280    62293    62306    62318    62333    62349 
   62363    62378    62394    62411    62429    62445    62457    62475 
   62491    62502    62514    62527    62542    62559    62572    62583 
   62592    62603    62614    62627    62635    62641    62649    62658 
