Origin Time       2025/01/13 21:19:00
Lat.              31.8
Long.             131.6
Depth. (km)       30
Mag.              6.9
Station Code      NGSH03
Station Lat.      33.1256
Station Long.     129.8102
Station Height(m) -190
Record Time       2025/01/13 21:20:07
Sampling Freq(Hz) 100Hz
Duration Time(s)  181
Dir.              3
Scale Factor      3923(gal)/8224838
Max. Acc. (gal)   0.616
Last Correction   2025/01/13 21:20:09
Memo.             
[...]
  -37863   -37841   -37820   -37806   -37801   -37800   -37808   -37822 
  -37844   -37868   -37895   -37922   -37953   -37982   -38010   -38038 
  -38059   -38078   -38094   -38099   -38101   -38098   -38086   -38070 
  -38049   -38024   -37997   -37974   -37945   -37912   -37883   -37864 
  -37841   -37818   -37797   -37775   -37755   -37740   -37723   -37706 
  -37694   -37685   -37679   -37682   -37690   -37702   -37725   -37758 
  -37795   -37844   -37901   -37953   -38005   -38059   -38111   -38156 
  -38195   -38227   -38252   -38272   -38288   -38294   -38287   -38275 
  -38260   -38238   -38211   -38188   -38160   -38130   -38106   -38079 
  -38040   -37995   -37943   -37882   -37814   -37748   -37690   -37639 
  -37596   -37557   -37519   -37485   -37449   -37409   -37372   -37336 
  -37311   -37297   -37300   -37320   -37357   -37401   -37454   -37512 
  -37575   -37643   -37709   -37773   -37835   -37894   -37951   -38007 
  -38068   -38126   -38183   -38236   -38276   -38308   -38337   -38353 
  -38354   -38350   -38344   -38325   -38292   -38257   -38221   -38180 
  -38137   -38099   -38070   -38041   -38010   -37971   -37932   -37891 
  -37847   -37809   -37783   -37762   -37750   -37747   -37751   -37763 
  -37779   -37797   -37814   -37837   -37862   -37889   -37920   -37960 
  -38010   -38067   -38126   -38191   -38260   -38322   -38381   -38443 
  -38504   -38561   -38616   -38672   -38724   -38765   -38793   -38817 
  -38830   -38832   -38832   -38821   -38803   -38781   -38757   -38730 
  -38705   -38686   -38665   -38647   -38641   -38638   -38635   -38632 
  -38634   -38638   -38637   -38628   -38619   -38610   -38599   -38597 
  -38603   -38607   -38618   -38638   -38658   -38680   -38707   -38728 
  -38747   -38772   -38797   -38826   -38857   -38888   -38916   -38944 
  -38970   -38992   -39005   -39015   -39020   -39020   -39023   -39027 
  -39023   -39009   -38983   -38946   -38902   -38850   -38792   -38732 
  -38666   -38599   -38537   -38480   -38427   -38381   -38342   -38311 
  -38287   -38271   -38267   -38268   -38276   -38291   -38311   -38333 
  -38360   -38387   -38410   -38434   -38457   -38485   -38522   -38560 
  -38603   -38654   -38709   -38763   -38816   -38863   -38902   -38942 
  -38983   -39020   -39055   -39087   -39114   -39132   -39140   -39137 
  -39129   -39116   -39096   -39070   -39039   -39006   -38977   -38952 
  -38935   -38921   -38912   -38907   -38897   -38882   -38870   -38855 
  -38836   -38826   -38816   -38808   -38801   -38790   -38780   -38766 
  -38745   -38727   -38711   -38688   -38665   -38637   -38601   -38564 
  -38524   -38481   -38438   -38396   -38356   -38315   -38277   -38244 
  -38210   -38176   -38146   -38117   -38086   -38063   -38045   -38029 
  -38017   -38006   -37995   -37984   -37974   -37962   -37948   -37936 
  -37925   -37912   -37902   -37899   -37895   -37891   -37886   -37881 
  -37875   -37863   -37851   -37844   -37839   -37835   -37841   -37848 
  -37849   -37862   -37876   -37887   -37902   -37922   -37939   -37955 
  -37979   -38009   -38041   -38075   -38114   -38160   -38202   -38248 
  -38298   -38345   -38391   -38439   -38483   -38520   -38557   -38587 
  -38608   -38620   -38630   -38638   -38639   -38645   -38651   -38658 
  -38666   -38677   -38688   -38696   -38703   -38708   -38708   -38707 
  -38708   -38711   -38708   -38708   -38711   -38709   -38703   -38697 
  -38692   -38689   -38684   -38673   -38664   -38653   -38637   -38619 
  -38596   -38561   -38516   -38466   -38414   -38360   -38306   -38253 
  -38198   -38140   -38088   -38041   -37989   -37936   -37883   -37833 
  -37786   -37740   -37700   -37660   -37624   -37590   -37562   -37534 
  -37509   -37493   -37482   -37473   -37467   -37467   -37470   -37477 
  -37481   -37486   -37496   -37503   -37511   -37521   -37531   -37536 
  -37544   -37550   -37551   -37548   -37543   -37538   -37535   -37530 
  -37530   -37536   -37546   -37561   -37578   -37593   -37605   -37613 
  -37615   -37612   -37605   -37598   -37593   -37586   -37584   -37585 
  -37586   -37594   -37604   -37608   -37613   -37623   -37633   -37650 
  -37665   -37675   -37685   -37690   -37689   -37682   -37679   -37677 
  -37677   -37678   -37678   -37679   -37679   -37678   -37675   -37674 
  -37678   -37682   -37686   -37693   -37693   -37693   -37694   -37694 
  -37696   -37698   -37700   -37704   -37706   -37708   -37709   -37697 
  -37673   -37647   -37623   -37600   -37579   -37563   -37557   -37558 
  -37567   -37588   -37615   -37654   -37706   -37763   -37822   -37883 
  -37943   -37995   -38040   -38075   -38102   -38122   -38141   -38157 
  -38168   -38179   -38194   -38206   -38214   -38214   -38211   -38209 
  -38209   -38210   -38215   -38225   -38241   -38264   -38287   -38308 
  -38329   -38345   -38360   -38369   -38377   -38388   -38400   -38408 
  -38416   -38422   -38429   -38439   -38450   -38464   -38485   -38510 
  -38535   -38564   -38591   -38616   -38642   -38662   -38682   -38703 
  -38718   -38735   -38753   -38772   -38790   -38809   -38830   -38848 
  -38869   -38893   -38917   -38947   -38981   -39009   -39042   -39073 
  -39097   -39123   -39151   -39166   -39177   -39195   -39214   -39226 
  -39239   -39249   -39253   -39252   -39244   -39233   -39222   -39209 
  -39194   -39185   -39171   -39154   -39137   -39121   -39102   -39086 
  -39071   -39062   -39055   -39047   -39039   -39031   -39016   -38998 
  -38975   -38944   -38909   -38873   -38828   -38781   -38734   -38685 
  -38630   -38573   -38522   -38475   -38426   -38383   -38349   -38318 
  -38288   -38264   -38246   -38234   -38226   -38221   -38222   -38232 
  -38238   -38245   -38250   -38249   -38236   -38221   -38203   -38183 
  -38171   -38164   -38159   -38167   -38182   -38195   -38215   -38240 
  -38264   -38291   -38326   -38362   -38404   -38448   -38495   -38545 
  -38593   -38642   -38693   -38740   -38782   -38821   -38855   -38884 
  -38911   -38931   -38948   -38966   -38983   -38998   -39013   -39028 
  -39042   -39043   -39040   -39039   -39031   -39019   -39006   -38990 
  -38975   -38961   -38946   -38931   -38913   -38890   -38866   -38834 
  -38797   -38759   -38724   -38689   -38654   -38614   -38572   -38533 
  -38491   -38452   -38414   -38376   -38349   -38326   -38300   -38273 
  -38244   -38215   -38187   -38153   -38119   -38088   -38060   -38032 
  -38001   -37971   -37943   -37914   -37882   -37849   -37818   -37790 
  -37764   -37746   -37732   -37720   -37705   -37687   -37670   -37655 
  -37644   -37640   -37642   -37648   -37660   -37675   -37686   -37693 
  -37701   -37710   -37723   -37739   -37764   -37797   -37835   -37874 
  -37916   -37956   -37994   -38032   -38070   -38105   -38136   -38165 
  -38192   -38215   -38234   -38254   -38272   -38287   -38300   -38311 
  -38317   -38317   -38318   -38323   -38325   -38330   -38341   -38352 
  -38361   -38367   -38365   -38362   -38357   -38341   -38325   -38314 
  -38302   -38291   -38281   -38272   -38263   -38257   -38252   -38248 
  -38252   -38261   -38268   -38272   -38275   -38273   -38264   -38253 
  -38237   -38214   -38188   -38156   -38122   -38086   -38048   -38010 
  -37972   -37939   -37912   -37890   -37871   -37858   -37851   -37848 
  -37848   -37851   -37858   -37870   -37886   -37902   -37920   -37941 
  -37959   -37971   -37984   -38001   -38020   -38044   -38070   -38101 
  -38132   -38155   -38169   -38178   -38178   -38171   -38156   -38134 
  -38110   -38080   -38047   -38006   -37966   -37928   -37890   -37859 
  -37831   -37810   -37797   -37786   -37775   -37770   -37771   -37773 
  -37770   -37764   -37762   -37758   -37752   -37752   -37755   -37760 
  -37770   -37782   -37791   -37797   -37795   -37783   -37770   -37756 
  -37737   -37717   -37701   -37690   -37687   -37693   -37697   -37697 
  -37693   -37682   -37663   -37636   -37600   -37557   -37508   -37461 
  -37423   -37392   -37370   -37365   -37372   -37388   -37409   -37431 
  -37450   -37463   -37470   -37476   -37476   -37465   -37450   -37436 
  -37417   -37395   -37370   -37341   -37308   -37281   -37257   -37235 
  -37226   -37227   -37237   -37257   -37284   -37308   -37334   -37363 
  -37393   -37431   -37478   -37532   -37597   -37673   -37748   -37824 
  -37901   -37972   -38038   -38102   -38163   -38223   -38290   -38358 
  -38422   -38483   -38545   -38600   -38647   -38692   -38734   -38780 
  -38834   -38886   -38934   -38983   -39027   -39055   -39077   -39094 
  -39104   -39104   -39101   -39094   -39083   -39070   -39056   -39044 
  -39033   -39023   -39013   -39001   -38986   -38977   -38966   -38948 
  -38931   -38915   -38894   -38877   -38869   -38865   -38863   -38870 
  -38888   -38904   -38920   -38940   -38956   -38970   -38988   -39002 
  -39013   -39023   -39027   -39031   -39037   -39042   -39043   -39046 
  -39052   -39060   -39067   -39079   -39101   -39124   -39151   -39183 
  -39216   -39243   -39270   -39289   -39297   -39301   -39302   -39298 
  -39290   -39282   -39275   -39264   -39252   -39241   -39221   -39199 
  -39182   -39160   -39141   -39123   -39098   -39069   -39033   -38990 
  -38940   -38885   -38824   -38761   -38699   -38641   -38581   -38529 
  -38483   -38434   -38381   -38331   -38279   -38226   -38179   -38133 
  -38094   -38063   -38033   -38013   -38003   -37997   -37998   -38014 
  -38037   -38068   -38106   -38146   -38191   -38237   -38277   -38313 
  -38340   -38361   -38380   -38392   -38398   -38402   -38403   -38402 
  -38399   -38392   -38379   -38362   -38345   -38330   -38307   -38281 
  -38256   -38223   -38190   -38165   -38144   -38124   -38115   -38114 
  -38113   -38109   -38105   -38101   -38088   -38072   -38055   -38036 
  -38011   -37987   -37962   -37928   -37891   -37855   -37817   -37777 
  -37739   -37709   -37683   -37660   -37643   -37629   -37615   -37601 
  -37590   -37578   -37573   -37575   -37577   -37575   -37581   -37592 
  -37604   -37615   -37629   -37650   -37682   -37725   -37771   -37821 
  -37871   -37914   -37949   -37980   -38005   -38024   -38040   -38055 
  -38065   -38075   -38088   -38105   -38121   -38140   -38161   -38184 
  -38205   -38222   -38234   -38234   -38226   -38217   -38205   -38192 
  -38184   -38182   -38183   -38190   -38200   -38217   -38234   -38250 
  -38267   -38281   -38292   -38299   -38303   -38307   -38317   -38331 
  -38350   -38376   -38407   -38442   -38484   -38529   -38569   -38603 
  -38634   -38662   -38686   -38707   -38727   -38749   -38766   -38782 
  -38794   -38801   -38794   -38780   -38758   -38728   -38688   -38646 
  -38607   -38566   -38527   -38489   -38456   -38422   -38383   -38340 
  -38302   -38265   -38232   -38211   -38206   -38206   -38219   -38249 
  -38287   -38327   -38368   -38406   -38441   -38469   -38492   -38515 
  -38537   -38556   -38565   -38570   -38574   -38572   -38561   -38549 
  -38534   -38515   -38493   -38465   -38434   -38402   -38367   -38334 
  -38307   -38286   -38273   -38271   -38272   -38275   -38281   -38287 
  -38288   -38292   -38299   -38302   -38303   -38308   -38317   -38323 
  -38329   -38334   -38338   -38335   -38330   -38323   -38314   -38300 
  -38286   -38271   -38249   -38223   -38195   -38161   -38124   -38083 
  -38037   -37991   -37947   -37893   -37831   -37774   -37719   -37656 
  -37593   -37542   -37497   -37451   -37413   -37385   -37355   -37327 
  -37304   -37288   -37278   -37276   -37281   -37291   -37304   -37330 
  -37362   -37397   -37439   -37488   -37536   -37588   -37643   -37697 
  -37747   -37794   -37837   -37876   -37914   -37944   -37970   -37994 
  -38013   -38028   -38048   -38067   -38087   -38109   -38132   -38160 
  -38191   -38222   -38256   -38294   -38334   -38375   -38411   -38449 
  -38487   -38518   -38539   -38558   -38577   -38591   -38603   -38616 
  -38630   -38641   -38646   -38647   -38651   -38649   -38639   -38626 
  -38607   -38587   -38570   -38553   -38537   -38520   -38503   -38485 
  -38470   -38456   -38443   -38439   -38437   -38438   -38448   -38461 
  -38481   -38503   -38518   -38533   -38546   -38553   -38557   -38562 
  -38569   -38577   -38591   -38605   -38622   -38639   -38657   -38673 
  -38686   -38703   -38719   -38731   -38745   -38761   -38778   -38792 
  -38803   -38815   -38820   -38823   -38826   -38827   -38834   -38846 
  -38858   -38874   -38894   -38916   -38935   -38954   -38973   -38990 
  -39005   -39023   -39037   -39047   -39058   -39064   -39064   -39064 
  -39058   -39046   -39037   -39033   -39031   -39035   -39043   -39050 
  -39056   -39066   -39073   -39074   -39073   -39069   -39062   -39051 
  -39037   -39023   -39004   -38988   -38974   -38958   -38939   -38921 
  -38905   -38882   -38854   -38824   -38785   -38738   -38693   -38647 
  -38591   -38534   -38483   -38430   -38375   -38325   -38277   -38233 
  -38192   -38155   -38122   -38095   -38075   -38056   -38041   -38033 
  -38034   -38043   -38057   -38083   -38115   -38152   -38195   -38242 
  -38291   -38340   -38384   -38422   -38461   -38504   -38538   -38564 
  -38588   -38604   -38616   -38623   -38626   -38630   -38626   -38612 
  -38596   -38578   -38553   -38523   -38495   -38465   -38438   -38415 
  -38396   -38387   -38384   -38385   -38396   -38411   -38426   -38449 
  -38479   -38508   -38539   -38574   -38612   -38651   -38691   -38730 
  -38769   -38808   -38851   -38901   -38955   -39012   -39075   -39140 
  -39210   -39283   -39349   -39409   -39461   -39505   -39537   -39563 
  -39580   -39590   -39591   -39583   -39567   -39545   -39519   -39487 
  -39453   -39415   -39376   -39332   -39283   -39237   -39190   -39135 
  -39082   -39033   -38990   -38946   -38904   -38870   -38835   -38799 
  -38769   -38739   -38707   -38680   -38651   -38616   -38581   -38542 
  -38495   -38441   -38384   -38321   -38254   -38190   -38126   -38063 
  -37998   -37939   -37882   -37827   -37773   -37728   -37686   -37647 
  -37615   -37585   -37557   -37534   -37509   -37485   -37471   -37462 
  -37454   -37455   -37463   -37477   -37503   -37535   -37575   -37627 
  -37687   -37751   -37813   -37878   -37947   -38018   -38084   -38145 
  -38202   -38253   -38298   -38340   -38376   -38403   -38426   -38446 
  -38461   -38472   -38477   -38477   -38475   -38468   -38450   -38426 
  -38400   -38365   -38323   -38280   -38233   -38176   -38118   -38060 
  -38002   -37941   -37885   -37833   -37787   -37748   -37717   -37689 
  -37669   -37654   -37647   -37646   -37647   -37656   -37675   -37700 
  -37729   -37762   -37797   -37832   -37866   -37899   -37936   -37966 
  -37990   -38010   -38028   -38043   -38056   -38063   -38061   -38055 
  -38048   -38040   -38029   -38018   -38007   -37997   -37983   -37972 
  -37962   -37947   -37936   -37932   -37935   -37944   -37960   -37982 
  -38010   -38044   -38080   -38114   -38148   -38179   -38210   -38245 
  -38279   -38308   -38346   -38385   -38427   -38472   -38516   -38561 
  -38604   -38645   -38684   -38723   -38757   -38790   -38824   -38854 
  -38880   -38901   -38920   -38938   -38950   -38958   -38963   -38963 
  -38955   -38946   -38936   -38921   -38908   -38893   -38874   -38854 
  -38830   -38801   -38772   -38732   -38688   -38647   -38599   -38547 
  -38495   -38434   -38373   -38318   -38259   -38206   -38164   -38125 
  -38092   -38068   -38045   -38026   -38018   -38016   -38014   -38016 
  -38024   -38040   -38056   -38070   -38087   -38099   -38107   -38114 
  -38114   -38106   -38103   -38099   -38087   -38075   -38059   -38044 
  -38025   -38007   -37995   -37980   -37968   -37967   -37964   -37959 
  -37956   -37945   -37928   -37909   -37883   -37848   -37812   -37773 
  -37735   -37698   -37662   -37627   -37590   -37554   -37523   -37489 
  -37453   -37417   -37385   -37354   -37323   -37293   -37269   -37247 
  -37224   -37204   -37189   -37176   -37162   -37152   -37146   -37146 
  -37153   -37165   -37185   -37211   -37238   -37270   -37312   -37359 
  -37405   -37459   -37520   -37584   -37651   -37723   -37794   -37864 
  -37932   -37994   -38053   -38109   -38157   -38199   -38237   -38273 
  -38307   -38335   -38362   -38383   -38402   -38422   -38437   -38449 
  -38465   -38476   -38485   -38499   -38516   -38534   -38557   -38587 
  -38618   -38651   -38692   -38731   -38770   -38808   -38843   -38877 
  -38909   -38938   -38966   -38993   -39015   -39029   -39044   -39052 
  -39059   -39064   -39062   -39054   -39046   -39032   -39012   -38992 
  -38967   -38940   -38913   -38888   -38866   -38846   -38821   -38797 
  -38778   -38758   -38734   -38711   -38689   -38668   -38647   -38624 
  -38599   -38574   -38549   -38520   -38489   -38456   -38423   -38388 
  -38346   -38303   -38261   -38219   -38178   -38134   -38092   -38057 
  -38022   -37986   -37953   -37920   -37890   -37866   -37843   -37825 
  -37812   -37801   -37794   -37794   -37795   -37797   -37798   -37805 
  -37813   -37824   -37843   -37864   -37885   -37913   -37944   -37968 
  -37993   -38020   -38038   -38051   -38065   -38080   -38091   -38102 
  -38118   -38134   -38146   -38159   -38173   -38186   -38195   -38203 
  -38214   -38223   -38236   -38250   -38264   -38281   -38302   -38322 
  -38344   -38367   -38383   -38396   -38412   -38429   -38441   -38454 
  -38466   -38472   -38477   -38484   -38485   -38481   -38476   -38470 
  -38462   -38456   -38449   -38438   -38422   -38400   -38379   -38353 
  -38327   -38304   -38284   -38264   -38248   -38236   -38229   -38229 
  -38234   -38237   -38241   -38248   -38256   -38264   -38275   -38286 
  -38295   -38304   -38318   -38334   -38349   -38367   -38383   -38398 
  -38411   -38425   -38437   -38452   -38466   -38479   -38491   -38508 
  -38526   -38546   -38572   -38595   -38622   -38654   -38682   -38704 
  -38722   -38736   -38743   -38745   -38745   -38743   -38736   -38728 
  -38719   -38708   -38699   -38695   -38686   -38673   -38666   -38661 
  -38653   -38643   -38630   -38614   -38599   -38583   -38562   -38539 
  -38518   -38492   -38461   -38434   -38408   -38383   -38357   -38331 
  -38313   -38300   -38281   -38261   -38245   -38227   -38209   -38188 
  -38168   -38148   -38129   -38113   -38098   -38086   -38083   -38080 
  -38082   -38087   -38094   -38105   -38118   -38132   -38146   -38163 
  -38173   -38182   -38190   -38192   -38187   -38183   -38183   -38178 
  -38171   -38167   -38165   -38160   -38160   -38167   -38172   -38175 
  -38179   -38180   -38176   -38168   -38156   -38138   -38115   -38088 
  -38056   -38018   -37979   -37940   -37905   -37874   -37847   -37827 
  -37810   -37802   -37800   -37800   -37802   -37813   -37824   -37835 
  -37856   -37883   -37913   -37941   -37972   -38001   -38030   -38060 
  -38087   -38114   -38146   -38179   -38213   -38249   -38287   -38323 
  -38358   -38391   -38421   -38448   -38473   -38495   -38512   -38529 
  -38545   -38558   -38572   -38585   -38596   -38604   -38610   -38611 
  -38607   -38605   -38604   -38599   -38595   -38593   -38592   -38592 
  -38593   -38597   -38599   -38601   -38603   -38599   -38597   -38596 
  -38587   -38576   -38561   -38541   -38516   -38488   -38456   -38422 
  -38391   -38361   -38331   -38304   -38279   -38259   -38242   -38229 
  -38217   -38210   -38203   -38200   -38205   -38210   -38218   -38232 
  -38249   -38269   -38292   -38317   -38341   -38365   -38395   -38421 
