Origin Time       2025/01/13 21:19:00
Lat.              31.8
Long.             131.6
Depth. (km)       30
Mag.              6.9
Station Code      NGSH03
Station Lat.      33.1256
Station Long.     129.8102
Station Height(m) 10
Record Time       2025/01/13 21:20:07
Sampling Freq(Hz) 100Hz
Duration Time(s)  181
Dir.              4
Scale Factor      7845(gal)/8223790
Max. Acc. (gal)   1.279
Last Correction   2025/01/13 21:20:09
Memo.             
[...]
  -16029   -16079   -16121   -16152   -16181   -16210   -16247   -16291 
  -16345   -16413   -16492   -16578   -16660   -16731   -16791   -16831 
  -16848   -16842   -16823   -16799   -16773   -16749   -16729   -16710 
  -16686   -16652   -16595   -16525   -16452   -16380   -16316   -16271 
  -16244   -16229   -16225   -16225   -16225   -16222   -16214   -16213 
  -16222   -16236   -16262   -16297   -16339   -16387   -16436   -16482 
  -16524   -16559   -16595   -16636   -16683   -16731   -16775   -16812 
  -16839   -16853   -16852   -16839   -16819   -16795   -16772   -16753 
  -16740   -16737   -16738   -16737   -16727   -16704   -16665   -16611 
  -16545   -16474   -16399   -16322   -16244   -16170   -16097   -16038 
  -15993   -15962   -15942   -15932   -15931   -15935   -15942   -15955 
  -15977   -16008   -16047   -16083   -16109   -16124   -16132   -16139 
  -16148   -16170   -16209   -16255   -16299   -16335   -16351   -16351 
  -16332   -16291   -16236   -16168   -16090   -16000   -15909   -15823 
  -15746   -15680   -15624   -15576   -15534   -15503   -15481   -15469 
  -15473   -15485   -15503   -15520   -15529   -15525   -15512   -15488 
  -15454   -15421   -15390   -15368   -15363   -15368   -15379   -15392 
  -15412   -15442   -15479   -15526   -15584   -15645   -15707   -15768 
  -15819   -15855   -15877   -15878   -15866   -15849   -15831   -15826 
  -15844   -15881   -15921   -15959   -15985   -15993   -15985   -15974 
  -15984   -16023   -16086   -16167   -16256   -16335   -16386   -16403 
  -16393   -16364   -16328   -16286   -16241   -16197   -16146   -16078 
  -16002   -15920   -15838   -15765   -15701   -15649   -15611   -15585 
  -15570   -15568   -15568   -15581   -15606   -15634   -15670   -15709 
  -15736   -15757   -15766   -15753   -15724   -15691   -15647   -15604 
  -15569   -15542   -15525   -15520   -15518   -15512   -15500   -15481 
  -15453   -15417   -15377   -15345   -15327   -15322   -15327   -15341 
  -15364   -15392   -15419   -15449   -15484   -15516   -15547   -15570 
  -15577   -15561   -15518   -15458   -15390   -15317   -15253   -15210 
  -15179   -15161   -15164   -15179   -15207   -15252   -15310   -15377 
  -15446   -15506   -15557   -15592   -15608   -15611   -15603   -15591 
  -15580   -15569   -15565   -15570   -15585   -15600   -15610   -15612 
  -15604   -15581   -15545   -15503   -15461   -15425   -15403   -15399 
  -15407   -15430   -15462   -15492   -15515   -15535   -15552   -15570 
  -15603   -15651   -15719   -15807   -15908   -16013   -16113   -16193 
  -16245   -16276   -16289   -16282   -16264   -16245   -16227   -16209 
  -16195   -16189   -16190   -16200   -16212   -16220   -16222   -16212 
  -16195   -16186   -16194   -16227   -16282   -16360   -16455   -16553 
  -16644   -16722   -16784   -16819   -16827   -16810   -16773   -16719 
  -16656   -16594   -16530   -16470   -16418   -16372   -16324   -16260 
  -16187   -16112   -16042   -15985   -15950   -15939   -15948   -15969 
  -15997   -16028   -16048   -16063   -16082   -16101   -16117   -16132 
  -16141   -16141   -16132   -16119   -16102   -16090   -16083   -16074 
  -16056   -16038   -16013   -15978   -15939   -15900   -15863   -15836 
  -15822   -15824   -15846   -15884   -15938   -16011   -16096   -16185 
  -16278   -16366   -16432   -16474   -16495   -16488   -16456   -16413 
  -16363   -16308   -16252   -16198   -16146   -16090   -16035   -15986 
  -15943   -15904   -15874   -15849   -15822   -15795   -15769   -15751 
  -15747   -15761   -15796   -15854   -15921   -15997   -16073   -16137 
  -16194   -16247   -16293   -16332   -16367   -16398   -16422   -16438 
  -16449   -16448   -16436   -16416   -16391   -16360   -16322   -16279 
  -16231   -16179   -16133   -16090   -16046   -16002   -15959   -15917 
  -15881   -15850   -15830   -15822   -15815   -15805   -15789   -15763 
  -15726   -15688   -15655   -15634   -15620   -15612   -15607   -15604 
  -15600   -15591   -15589   -15601   -15623   -15653   -15693   -15735 
  -15770   -15803   -15830   -15851   -15870   -15884   -15889   -15885 
  -15869   -15843   -15811   -15780   -15751   -15732   -15720   -15708 
  -15696   -15677   -15646   -15606   -15561   -15514   -15476   -15450 
  -15433   -15422   -15415   -15408   -15407   -15418   -15442   -15483 
  -15543   -15628   -15731   -15844   -15967   -16090   -16212   -16332 
  -16447   -16557   -16664   -16756   -16827   -16877   -16903   -16908 
  -16892   -16854   -16798   -16727   -16644   -16557   -16468   -16379 
  -16291   -16210   -16137   -16074   -16019   -15973   -15935   -15896 
  -15854   -15804   -15745   -15673   -15581   -15475   -15357   -15233 
  -15111   -15002   -14910   -14845   -14820   -14832   -14882   -14966 
  -15064   -15161   -15249   -15319   -15367   -15394   -15408   -15414 
  -15422   -15435   -15450   -15465   -15473   -15468   -15454   -15439 
  -15421   -15406   -15402   -15403   -15406   -15410   -15414   -15421 
  -15441   -15476   -15527   -15591   -15657   -15712   -15750   -15766 
  -15761   -15739   -15712   -15685   -15673   -15681   -15708   -15757 
  -15819   -15884   -15950   -16019   -16090   -16164   -16244   -16326 
  -16398   -16451   -16484   -16494   -16486   -16468   -16443   -16405 
  -16357   -16299   -16232   -16163   -16098   -16047   -16016   -16009 
  -16025   -16060   -16113   -16175   -16236   -16286   -16326   -16348 
  -16348   -16340   -16335   -16344   -16370   -16406   -16448   -16492 
  -16529   -16553   -16568   -16573   -16572   -16569   -16568   -16563 
  -16556   -16544   -16521   -16487   -16441   -16386   -16332   -16282 
  -16241   -16220   -16220   -16236   -16263   -16298   -16335   -16364 
  -16383   -16397   -16401   -16395   -16383   -16367   -16345   -16322 
  -16299   -16268   -16227   -16175   -16112   -16042   -15967   -15892 
  -15819   -15753   -15693   -15638   -15587   -15534   -15480   -15423 
  -15363   -15296   -15228   -15155   -15080   -15010   -14944   -14891 
  -14855   -14833   -14823   -14821   -14829   -14847   -14868   -14899 
  -14943   -15001   -15076   -15172   -15280   -15394   -15506   -15607 
  -15692   -15754   -15792   -15816   -15826   -15824   -15820   -15816 
  -15815   -15820   -15830   -15844   -15874   -15909   -15946   -15989 
  -16027   -16046   -16040   -16011   -15958   -15892   -15826   -15769 
  -15724   -15693   -15669   -15650   -15627   -15596   -15560   -15520 
  -15483   -15454   -15437   -15431   -15438   -15449   -15462   -15480 
  -15493   -15508   -15530   -15568   -15620   -15684   -15753   -15828 
  -15901   -15965   -16029   -16097   -16163   -16228   -16286   -16329 
  -16362   -16382   -16397   -16407   -16421   -16436   -16453   -16480 
  -16517   -16555   -16598   -16644   -16687   -16727   -16765   -16796 
  -16814   -16816   -16803   -16771   -16723   -16663   -16594   -16519 
  -16443   -16372   -16310   -16255   -16212   -16175   -16141   -16104 
  -16055   -15994   -15927   -15865   -15817   -15790   -15788   -15808 
  -15853   -15905   -15955   -16000   -16036   -16060   -16083   -16108 
  -16132   -16159   -16189   -16216   -16245   -16282   -16325   -16380 
  -16449   -16524   -16591   -16638   -16654   -16636   -16578   -16494 
  -16402   -16312   -16237   -16193   -16170   -16162   -16164   -16163 
  -16155   -16143   -16129   -16121   -16125   -16140   -16156   -16175 
  -16193   -16205   -16209   -16202   -16186   -16166   -16139   -16104 
  -16058   -15998   -15921   -15828   -15727   -15618   -15510   -15411 
  -15326   -15257   -15203   -15155   -15115   -15080   -15045   -15017 
  -15005   -15007   -15020   -15036   -15051   -15066   -15078   -15083 
  -15088   -15097   -15106   -15115   -15126   -15136   -15145   -15156 
  -15175   -15205   -15246   -15306   -15383   -15462   -15543   -15626 
  -15701   -15769   -15826   -15870   -15908   -15936   -15955   -15973 
  -15988   -16004   -16025   -16050   -16070   -16083   -16079   -16050 
  -15996   -15920   -15824   -15716   -15608   -15506   -15417   -15341 
  -15279   -15236   -15209   -15198   -15202   -15226   -15269   -15321 
  -15381   -15449   -15515   -15579   -15639   -15699   -15755   -15811 
  -15863   -15912   -15950   -15975   -15988   -15996   -16002   -16015 
  -16040   -16079   -16129   -16193   -16264   -16329   -16384   -16425 
  -16451   -16467   -16475   -16478   -16479   -16486   -16497   -16501 
  -16499   -16495   -16480   -16451   -16409   -16359   -16299   -16235 
  -16173   -16113   -16055   -16004   -15962   -15925   -15897   -15876 
  -15855   -15835   -15819   -15800   -15780   -15762   -15749   -15739 
  -15739   -15750   -15773   -15804   -15836   -15865   -15874   -15866 
  -15840   -15797   -15741   -15685   -15633   -15579   -15535   -15510 
  -15496   -15502   -15529   -15574   -15635   -15704   -15777   -15846 
  -15912   -15973   -16032   -16089   -16144   -16197   -16243   -16279 
  -16310   -16339   -16372   -16417   -16472   -16532   -16587   -16625 
  -16638   -16633   -16610   -16578   -16541   -16509   -16486   -16474 
  -16470   -16474   -16486   -16505   -16524   -16538   -16546   -16546 
  -16541   -16526   -16503   -16482   -16468   -16467   -16478   -16499 
  -16525   -16545   -16557   -16567   -16569   -16565   -16563   -16561 
  -16559   -16553   -16548   -16538   -16532   -16530   -16532   -16532 
  -16528   -16513   -16480   -16430   -16360   -16270   -16164   -16050 
  -15925   -15800   -15684   -15579   -15489   -15430   -15406   -15410 
  -15441   -15500   -15577   -15653   -15722   -15785   -15839   -15878 
  -15905   -15921   -15921   -15908   -15881   -15843   -15795   -15736 
  -15665   -15583   -15495   -15400   -15302   -15210   -15125   -15051 
  -14999   -14979   -14983   -15016   -15072   -15136   -15195   -15238 
  -15260   -15269   -15271   -15272   -15292   -15331   -15383   -15452 
  -15531   -15611   -15684   -15750   -15809   -15859   -15897   -15920 
  -15924   -15912   -15882   -15835   -15774   -15711   -15643   -15576 
  -15514   -15457   -15411   -15381   -15367   -15368   -15388   -15430 
  -15493   -15573   -15661   -15755   -15846   -15925   -15997   -16065 
  -16128   -16194   -16262   -16324   -16379   -16420   -16430   -16407 
  -16352   -16268   -16171   -16073   -15981   -15909   -15861   -15842 
  -15855   -15890   -15940   -16006   -16074   -16133   -16186   -16237 
  -16287   -16335   -16378   -16407   -16424   -16424   -16403   -16364 
  -16316   -16258   -16191   -16124   -16056   -15990   -15931   -15885 
  -15851   -15827   -15812   -15807   -15809   -15824   -15849   -15880 
  -15921   -15969   -16013   -16052   -16082   -16097   -16101   -16097 
  -16087   -16074   -16062   -16046   -16019   -15978   -15928   -15874 
  -15816   -15765   -15722   -15693   -15684   -15699   -15739   -15790 
  -15846   -15900   -15936   -15954   -15954   -15940   -15923   -15908 
  -15900   -15898   -15896   -15881   -15849   -15800   -15734   -15653 
  -15566   -15488   -15418   -15354   -15300   -15253   -15210   -15176 
  -15153   -15142   -15145   -15157   -15178   -15199   -15221   -15242 
  -15264   -15284   -15303   -15318   -15340   -15373   -15418   -15475 
  -15546   -15626   -15711   -15800   -15885   -15969   -16055   -16143 
  -16228   -16306   -16376   -16436   -16483   -16509   -16514   -16498 
  -16456   -16389   -16303   -16202   -16093   -15989   -15901   -15830 
  -15784   -15762   -15758   -15769   -15793   -15820   -15846   -15871 
  -15897   -15925   -15958   -15992   -16031   -16079   -16131   -16195 
  -16272   -16356   -16444   -16529   -16599   -16656   -16702   -16731 
  -16753   -16762   -16769   -16780   -16788   -16795   -16799   -16789 
  -16760   -16711   -16640   -16551   -16457   -16364   -16276   -16206 
  -16159   -16133   -16131   -16146   -16168   -16185   -16189   -16181 
  -16159   -16127   -16098   -16082   -16074   -16073   -16074   -16081 
  -16090   -16094   -16096   -16105   -16121   -16150   -16206   -16286 
  -16390   -16514   -16648   -16783   -16910   -17018   -17105   -17172 
  -17217   -17244   -17257   -17250   -17220   -17174   -17112   -17031 
  -16937   -16838   -16742   -16657   -16584   -16517   -16455   -16399 
  -16336   -16263   -16181   -16092   -16001   -15913   -15831   -15755 
  -15685   -15610   -15531   -15448   -15354   -15263   -15179   -15099 
  -15034   -14991   -14962   -14945   -14939   -14926   -14904   -14877 
  -14855   -14845   -14862   -14909   -14987   -15087   -15196   -15304 
  -15406   -15498   -15581   -15662   -15741   -15820   -15903   -15984 
  -16065   -16148   -16228   -16303   -16376   -16437   -16479   -16501 
  -16501   -16480   -16456   -16426   -16386   -16339   -16291   -16235 
  -16173   -16109   -16047   -15988   -15930   -15876   -15823   -15768 
  -15705   -15646   -15589   -15535   -15492   -15461   -15439   -15429 
  -15423   -15415   -15403   -15384   -15353   -15307   -15249   -15180 
  -15102   -15021   -14941   -14871   -14809   -14751   -14706   -14673 
  -14652   -14647   -14659   -14690   -14728   -14769   -14816   -14867 
  -14917   -14974   -15034   -15102   -15174   -15249   -15326   -15398 
  -15453   -15496   -15527   -15538   -15535   -15531   -15530   -15534 
  -15550   -15585   -15641   -15720   -15822   -15938   -16059   -16181 
  -16294   -16394   -16472   -16525   -16556   -16572   -16583   -16592 
  -16609   -16630   -16654   -16679   -16698   -16700   -16696   -16687 
  -16671   -16654   -16646   -16649   -16664   -16690   -16726   -16768 
  -16818   -16876   -16933   -16988   -17042   -17096   -17146   -17188 
  -17223   -17251   -17263   -17261   -17238   -17190   -17128   -17053 
  -16964   -16869   -16772   -16669   -16556   -16430   -16293   -16136 
  -15963   -15785   -15603   -15427   -15267   -15121   -14999   -14904 
  -14832   -14783   -14760   -14756   -14773   -14809   -14868   -14941 
  -15025   -15120   -15219   -15325   -15429   -15529   -15623   -15712 
  -15793   -15867   -15934   -15988   -16027   -16047   -16052   -16043 
  -16020   -15994   -15970   -15954   -15948   -15948   -15954   -15962 
  -15966   -15962   -15950   -15930   -15903   -15878   -15849   -15809 
  -15770   -15723   -15665   -15608   -15552   -15492   -15439   -15400 
  -15369   -15346   -15326   -15300   -15267   -15229   -15184   -15133 
  -15084   -15041   -15002   -14971   -14943   -14912   -14887   -14867 
  -14852   -14844   -14836   -14832   -14829   -14825   -14824   -14832 
  -14851   -14883   -14931   -14998   -15090   -15195   -15309   -15431 
  -15557   -15680   -15795   -15893   -15975   -16048   -16113   -16174 
  -16241   -16322   -16417   -16528   -16648   -16768   -16876   -16965 
  -17024   -17055   -17059   -17042   -17020   -17000   -16984   -16974 
  -16976   -16992   -17024   -17069   -17123   -17174   -17219   -17248 
  -17255   -17240   -17203   -17146   -17077   -16995   -16899   -16788 
  -16668   -16545   -16432   -16326   -16235   -16163   -16104   -16060 
  -16031   -16002   -15978   -15959   -15946   -15934   -15920   -15907 
  -15897   -15893   -15897   -15917   -15957   -16013   -16081   -16158 
  -16232   -16294   -16337   -16357   -16356   -16335   -16294   -16239 
  -16183   -16123   -16052   -15984   -15917   -15851   -15788   -15732 
  -15687   -15651   -15626   -15604   -15583   -15558   -15533   -15502 
  -15468   -15438   -15418   -15404   -15392   -15380   -15361   -15321 
  -15253   -15165   -15060   -14952   -14856   -14778   -14720   -14683 
  -14667   -14665   -14674   -14693   -14720   -14755   -14793   -14831 
  -14866   -14897   -14922   -14945   -14974   -15013   -15055   -15105 
  -15168   -15236   -15309   -15388   -15469   -15552   -15641   -15732 
  -15823   -15908   -15979   -16040   -16089   -16128   -16162   -16193 
  -16225   -16262   -16302   -16339   -16366   -16389   -16410   -16426 
  -16440   -16456   -16476   -16499   -16521   -16540   -16559   -16576 
  -16594   -16610   -16623   -16633   -16638   -16638   -16636   -16623 
  -16605   -16584   -16563   -16538   -16513   -16483   -16449   -16410 
  -16362   -16309   -16248   -16179   -16108   -16033   -15959   -15889 
  -15826   -15774   -15736   -15723   -15738   -15780   -15844   -15931 
  -16035   -16150   -16268   -16384   -16494   -16591   -16669   -16731 
  -16780   -16822   -16860   -16889   -16914   -16938   -16947   -16939 
  -16919   -16888   -16843   -16795   -16752   -16715   -16683   -16664 
  -16649   -16626   -16595   -16555   -16495   -16421   -16349   -16279 
  -16213   -16162   -16119   -16083   -16055   -16025   -15990   -15955 
  -15924   -15892   -15861   -15846   -15844   -15855   -15877   -15908 
  -15944   -15978   -16009   -16029   -16038   -16038   -16025   -15998 
  -15958   -15909   -15846   -15773   -15705   -15642   -15585   -15545 
  -15523   -15510   -15507   -15512   -15516   -15514   -15511   -15506 
  -15499   -15493   -15489   -15485   -15488   -15492   -15495   -15504 
  -15522   -15545   -15572   -15607   -15642   -15673   -15701   -15722 
  -15734   -15732   -15719   -15696   -15658   -15608   -15557   -15510 
  -15471   -15444   -15431   -15434   -15446   -15465   -15491   -15520 
  -15546   -15566   -15581   -15587   -15587   -15585   -15576   -15556 
  -15533   -15508   -15479   -15444   -15408   -15373   -15337   -15300 
  -15267   -15233   -15202   -15172   -15142   -15120   -15101   -15084 
  -15075   -15068   -15052   -15039   -15034   -15037   -15053   -15090 
  -15142   -15209   -15283   -15356   -15421   -15475   -15518   -15554 
  -15587   -15614   -15646   -15685   -15730   -15784   -15836   -15877 
  -15907   -15923   -15925   -15916   -15907   -15901   -15898   -15900 
  -15908   -15923   -15943   -15977   -16016   -16058   -16102   -16146 
  -16186   -16217   -16239   -16263   -16289   -16310   -16335   -16359 
  -16375   -16382   -16379   -16360   -16329   -16283   -16227   -16156 
  -16077   -15992   -15900   -15809   -15724   -15650   -15592   -15549 
  -15515   -15495   -15488   -15491   -15498   -15511   -15534   -15565 
  -15603   -15653   -15718   -15790   -15870   -15951   -16032   -16109 
  -16179   -16236   -16283   -16318   -16344   -16362   -16374   -16380 
  -16387   -16389   -16383   -16372   -16357   -16336   -16306   -16267 
  -16221   -16164   -16096   -16021   -15943   -15869   -15799   -15736 
  -15685   -15643   -15611   -15588   -15568   -15560   -15562   -15565 
  -15568   -15576   -15581   -15588   -15593   -15601   -15615   -15633 
  -15657   -15687   -15716   -15735   -15742   -15743   -15745   -15746 
  -15747   -15757   -15774   -15792   -15804   -15812   -15815   -15809 
  -15800   -15790   -15785   -15785   -15790   -15799   -15807   -15812 
  -15812   -15803   -15789   -15777   -15768   -15768   -15780   -15801 
  -15832   -15866   -15890   -15909   -15923   -15924   -15921   -15921 
  -15923   -15931   -15952   -15981   -16019   -16067   -16125   -16185 
  -16241   -16297   -16348   -16389   -16421   -16445   -16451   -16444 
  -16432   -16411   -16386   -16364   -16347   -16337   -16332   -16329 
  -16326   -16324   -16322   -16320   -16314   -16309   -16306   -16306 
  -16305   -16302   -16299   -16299   -16295   -16290   -16282   -16270 
  -16251   -16231   -16213   -16197   -16175   -16152   -16127   -16089 
  -16043   -15993   -15944   -15903   -15876   -15867   -15877   -15905 
  -15947   -15990   -16039   -16092   -16143   -16195   -16256   -16325 
  -16389   -16448   -16502   -16545   -16572   -16590   -16602   -16605 
