Origin Time       2025/01/13 21:19:00
Lat.              31.8
Long.             131.6
Depth. (km)       30
Mag.              6.9
Station Code      NGSH05
Station Lat.      32.9103
Station Long.     130.1408
Station Height(m) -171
Record Time       2025/01/13 21:20:02
Sampling Freq(Hz) 100Hz
Duration Time(s)  224
Dir.              2
Scale Factor      3923(gal)/8224838
Max. Acc. (gal)   1.587
Last Correction   2025/01/13 21:20:03
Memo.             
[...]
   21446    21498    21529    21546    21560    21574    21591    21612 
   21628    21645    21659    21658    21640    21604    21552    21490 
   21416    21327    21226    21114    20992    20858    20717    20578 
   20451    20341    20254    20186    20142    20120    20115    20123 
   20146    20179    20214    20241    20256    20258    20243    20205 
   20159    20123    20102    20104    20125    20159    20198    20245 
   20294    20331    20344    20339    20320    20290    20264    20239 
   20216    20202    20200    20202    20216    20240    20278    20337 
   20416    20497    20571    20645    20729    20807    20875    20946 
   21024    21116    21227    21347    21469    21594    21712    21820 
   21919    22009    22083    22129    22152    22171    22187    22195 
   22202    22202    22192    22171    22133    22080    22018    21955 
   21891    21828    21767    21709    21648    21597    21568    21558 
   21564    21589    21628    21676    21728    21775    21811    21844 
   21863    21861    21847    21813    21763    21713    21671    21632 
   21597    21567    21541    21523    21509    21500    21496    21490 
   21469    21436    21397    21351    21307    21276    21261    21257 
   21278    21330    21400    21481    21582    21686    21763    21813 
   21841    21840    21817    21786    21740    21681    21617    21555 
   21493    21435    21379    21330    21292    21276    21274    21278 
   21293    21325    21367    21415    21475    21546    21620    21698 
   21766    21817    21844    21843    21818    21779    21735    21690 
   21639    21581    21521    21459    21397    21335    21277    21227 
   21189    21159    21143    21143    21153    21165    21180    21193 
   21212    21238    21257    21262    21259    21243    21219    21189 
   21153    21104    21054    20999    20945    20908    20887    20875 
   20877    20891    20914    20946    20981    21008    21020    21020 
   21011    20997    20988    20979    20965    20942    20907    20864 
   20818    20767    20704    20634    20559    20497    20453    20421 
   20395    20382    20380    20390    20412    20456    20517    20580 
   20640    20684    20713    20726    20734    20744    20757    20781 
   20818    20852    20880    20907    20923    20926    20922    20922 
   20926    20929    20934    20949    20970    21011    21074    21149 
   21230    21312    21386    21451    21505    21543    21574    21610 
   21652    21695    21747    21807    21880    21980    22113    22268 
   22445    22644    22860    23078    23282    23458    23598    23696 
   23757    23788    23789    23761    23708    23641    23564    23476 
   23373    23263    23153    23048    22941    22835    22727    22615 
   22501    22387    22261    22118    21961    21787    21597    21409 
   21232    21069    20925    20804    20703    20621    20564    20529 
   20518    20534    20574    20623    20677    20733    20777    20799 
   20788    20744    20675    20580    20461    20329    20185    20028 
   19878    19747    19634    19539    19461    19398    19354    19333 
   19336    19356    19377    19400    19426    19464    19523    19604 
   19705    19819    19938    20062    20189    20308    20417    20522 
   20625    20725    20822    20914    20992    21043    21070    21069 
   21034    20977    20912    20852    20800    20765    20748    20752 
   20783    20838    20910    20993    21078    21162    21253    21347 
   21435    21520    21601    21664    21705    21718    21708    21671 
   21618    21560    21500    21439    21389    21350    21325    21315 
   21312    21316    21328    21346    21367    21388    21408    21424 
   21433    21432    21408    21358    21288    21207    21130    21068 
   21022    20996    20981    20969    20964    20964    20968    20980 
   21000    21020    21038    21053    21062    21060    21045    21026 
   21016    21022    21043    21073    21105    21141    21172    21203 
   21230    21251    21269    21284    21297    21307    21308    21305 
   21305    21315    21338    21371    21413    21462    21513    21566 
   21616    21666    21716    21759    21790    21811    21824    21830 
   21832    21833    21834    21830    21818    21799    21778    21749 
   21716    21690    21672    21658    21648    21643    21640    21636 
   21631    21618    21598    21575    21555    21532    21510    21493 
   21467    21435    21405    21371    21332    21289    21238    21173 
   21101    21034    20970    20910    20844    20769    20684    20594 
   20513    20445    20397    20370    20358    20360    20367    20370 
   20368    20358    20332    20297    20260    20229    20209    20201 
   20202    20209    20220    20241    20271    20299    20332    20367 
   20405    20448    20502    20559    20606    20641    20659    20648 
   20617    20564    20487    20403    20325    20254    20205    20191 
   20212    20263    20339    20433    20537    20634    20718    20790 
   20846    20885    20914    20935    20950    20957    20957    20953 
   20947    20945    20952    20966    20983    20996    21000    20991 
   20969    20938    20907    20888    20879    20877    20887    20911 
   20949    20997    21061    21131    21196    21259    21321    21369 
   21402    21427    21442    21451    21459    21469    21483    21502 
   21516    21521    21516    21496    21467    21439    21402    21365 
   21330    21296    21266    21243    21230    21222    21222    21227 
   21220    21196    21154    21101    21042    20988    20945    20915 
   20900    20902    20914    20933    20957    20983    21008    21039 
   21080    21128    21177    21230    21290    21355    21421    21490 
   21558    21625    21697    21776    21860    21945    22029    22106 
   22168    22211    22238    22245    22234    22216    22195    22162 
   22125    22087    22056    22032    22011    21995    21982    21973 
   21969    21961    21957    21963    21976    22000    22038    22084 
   22125    22161    22198    22227    22249    22265    22269    22260 
   22239    22200    22141    22061    21964    21859    21752    21645 
   21550    21469    21411    21375    21363    21366    21377    21393 
   21404    21402    21397    21396    21401    21421    21455    21490 
   21523    21550    21554    21527    21467    21388    21297    21199 
   21099    20996    20895    20803    20733    20684    20664    20675 
   20714    20780    20862    20956    21054    21145    21213    21250 
   21244    21212    21165    21100    21031    20974    20931    20910 
   20916    20953    21006    21066    21136    21216    21308    21420 
   21543    21655    21752    21834    21898    21952    22003    22046 
   22079    22104    22126    22140    22152    22160    22152    22130 
   22095    22034    21952    21859    21755    21645    21543    21462 
   21408    21379    21375    21393    21423    21455    21482    21496 
   21497    21489    21477    21456    21433    21411    21388    21359 
   21327    21297    21269    21246    21230    21216    21204    21190 
   21173    21146    21109    21064    21014    20968    20939    20931 
   20950    20997    21060    21122    21170    21190    21192    21177 
   21161    21161    21172    21196    21242    21301    21374    21466 
   21571    21691    21825    21955    22084    22214    22335    22449 
   22559    22659    22738    22793    22821    22821    22800    22759 
   22702    22632    22546    22443    22331    22219    22111    22017 
   21933    21857    21795    21748    21694    21628    21556    21470 
   21367    21251    21120    20974    20821    20656    20494    20340 
   20202    20089    20005    19942    19901    19881    19873    19867 
   19859    19840    19797    19731    19649    19562    19481    19415 
   19371    19349    19352    19372    19403    19442    19491    19539 
   19583    19615    19637    19646    19645    19638    19627    19612 
   19596    19584    19584    19606    19653    19710    19776    19850 
   19920    19984    20046    20108    20173    20243    20324    20421 
   20529    20636    20729    20806    20864    20895    20899    20891 
   20872    20837    20795    20765    20756    20760    20775    20807 
   20857    20918    20984    21058    21136    21215    21286    21348 
   21406    21460    21510    21568    21632    21709    21807    21926 
   22057    22199    22347    22499    22648    22792    22921    23029 
   23113    23172    23214    23249    23283    23321    23368    23411 
   23446    23467    23471    23449    23400    23340    23278    23222 
   23193    23191    23207    23241    23294    23357    23427    23500 
   23566    23618    23656    23685    23706    23714    23710    23693 
   23660    23610    23544    23460    23364    23261    23156    23035 
   22893    22738    22561    22364    22156    21933    21698    21467 
   21243    21028    20834    20663    20511    20383    20274    20181 
   20094    20009    19921    19832    19749    19669    19596    19541 
   19502    19477    19467    19461    19461    19468    19480    19488 
   19489    19481    19461    19433    19404    19381    19376    19394 
   19431    19483    19549    19623    19699    19776    19851    19927 
   19998    20063    20115    20154    20181    20194    20205    20213 
   20218    20227    20241    20256    20272    20294    20318    20343 
   20374    20417    20470    20530    20601    20675    20753    20848 
   20965    21093    21217    21332    21427    21502    21566    21620 
   21667    21713    21764    21830    21901    21967    22030    22083 
   22119    22141    22149    22149    22146    22140    22138    22145 
   22158    22176    22188    22196    22199    22194    22181    22169 
   22158    22158    22173    22210    22273    22357    22443    22531 
   22607    22662    22698    22713    22707    22693    22670    22638 
   22608    22586    22566    22549    22539    22540    22559    22603 
   22661    22731    22816    22897    22972    23045    23113    23179 
   23251    23322    23387    23444    23488    23512    23508    23481 
   23438    23390    23334    23268    23191    23116    23044    22972 
   22904    22829    22729    22617    22520    22404    22249    22100 
   21971    21834    21699    21579    21465    21355    21254    21158 
   21069    20989    20918    20849    20772    20686    20601    20521 
   20444    20368    20297    20231    20169    20113    20062    20013 
   19966    19923    19886    19854    19822    19792    19762    19730 
   19689    19647    19606    19565    19534    19515    19511    19530 
   19576    19642    19728    19839    19957    20078    20213    20348 
   20472    20592    20702    20788    20853    20892    20908    20906 
   20879    20830    20765    20682    20582    20461    20322    20171 
   20017    19867    19739    19641    19577    19554    19568    19607 
   19660    19708    19742    19761    19764    19746    19714    19665 
   19600    19525    19448    19375    19311    19264    19237    19229 
   19244    19272    19307    19346    19377    19403    19430    19454 
   19479    19502    19525    19560    19602    19645    19704    19776 
   19847    19913    19970    20012    20039    20054    20059    20062 
   20069    20079    20090    20108    20129    20155    20190    20243 
   20310    20394    20490    20587    20684    20779    20873    20966 
   21060    21151    21244    21334    21412    21486    21567    21652 
   21744    21849    21972    22099    22218    22320    22392    22424 
   22419    22380    22311    22221    22115    22002    21891    21795 
   21716    21651    21609    21589    21589    21610    21644    21683 
   21735    21803    21882    21964    22046    22127    22211    22296 
   22387    22489    22605    22725    22843    22944    23018    23058 
   23060    23026    22956    22854    22723    22565    22393    22219 
   22042    21872    21722    21597    21493    21412    21347    21297 
   21259    21220    21177    21127    21065    21004    20947    20896 
   20857    20830    20817    20821    20845    20884    20937    21003 
   21077    21162    21263    21365    21459    21544    21618    21674 
   21705    21714    21713    21702    21687    21671    21658    21664 
   21682    21699    21712    21705    21671    21608    21517    21411 
   21289    21161    21039    20918    20798    20687    20586    20499 
   20432    20378    20329    20295    20306    20343    20368    20402 
   20467    20538    20607    20680    20763    20858    20962    21066 
   21172    21284    21396    21505    21616    21717    21795    21853 
   21897    21922    21934    21938    21936    21934    21938    21946 
   21964    21995    22036    22088    22165    22269    22395    22546 
   22721    22913    23120    23342    23564    23781    23988    24169 
   24317    24433    24516    24560    24559    24520    24448    24354 
   24240    24116    23992    23873    23760    23652    23548    23445 
   23353    23261    23163    23064    22962    22843    22720    22596 
   22468    22341    22222    22114    22023    21949    21891    21852 
   21821    21797    21776    21760    21745    21724    21693    21648 
   21585    21498    21393    21273    21135    20979    20804    20617 
   20417    20209    19993    19773    19557    19346    19148    18974 
   18828    18704    18600    18515    18435    18360    18285    18211 
   18139    18077    18013    17955    17921    17913    17934    17988 
   18068    18165    18272    18393    18522    18643    18751    18843 
   18908    18951    18979    18999    19013    19018    19025    19044 
   19076    19120    19178    19246    19317    19388    19457    19523 
   19589    19654    19711    19758    19799    19839    19877    19917 
   19965    20015    20082    20171    20282    20417    20578    20754 
   20950    21155    21358    21547    21718    21861    21973    22063 
   22137    22207    22269    22333    22399    22468    22540    22616 
   22697    22781    22859    22935    23009    23078    23143    23201 
   23252    23290    23315    23332    23337    23334    23329    23319 
   23307    23290    23271    23252    23236    23222    23209    23186 
   23153    23106    23047    22981    22906    22831    22761    22690 
   22620    22565    22512    22458    22407    22351    22288    22226 
   22164    22100    22041    21983    21930    21890    21855    21816 
   21768    21709    21640    21559    21466    21365    21257    21143 
   21033    20923    20823    20730    20637    20548    20467    20401 
   20352    20322    20322    20359    20414    20476    20541    20603 
   20661    20709    20738    20744    20729    20696    20650    20591 
   20524    20456    20401    20355    20317    20299    20301    20314 
   20333    20359    20389    20413    20429    20445    20456    20460 
   20474    20501    20532    20567    20609    20648    20679    20709 
   20733    20752    20760    20754    20737    20702    20645    20569 
   20480    20379    20277    20185    20109    20061    20052    20082 
   20148    20237    20333    20425    20501    20559    20603    20640 
   20672    20704    20742    20787    20834    20891    20957    21023 
   21082    21127    21151    21157    21136    21100    21058    21012 
   20962    20920    20883    20852    20837    20838    20857    20898 
   20960    21037    21128    21224    21319    21408    21492    21564 
   21632    21702    21775    21851    21928    22006    22084    22152 
   22196    22215    22214    22195    22165    22127    22077    22017 
   21951    21884    21818    21751    21686    21622    21558    21501 
   21451    21402    21365    21344    21328    21323    21330    21340 
   21352    21369    21379    21385    21384    21371    21354    21336 
   21315    21293    21276    21261    21247    21243    21251    21276 
   21312    21361    21419    21477    21535    21583    21610    21617 
   21605    21568    21504    21413    21303    21177    21043    20910 
   20784    20664    20548    20445    20358    20282    20220    20175 
   20147    20133    20132    20140    20150    20162    20175    20187 
   20208    20237    20275    20324    20379    20437    20499    20565 
   20637    20707    20773    20838    20902    20970    21047    21127 
   21207    21292    21377    21452    21523    21581    21617    21640 
   21654    21651    21635    21601    21551    21486    21404    21315 
   21230    21151    21078    21019    20984    20974    20988    21023 
   21076    21136    21192    21235    21257    21254    21231    21193 
   21139    21077    21010    20935    20862    20794    20727    20672 
   20626    20596    20578    20567    20561    20563    20567    20579 
   20609    20653    20713    20783    20857    20949    21058    21155 
   21244    21339    21420    21479    21523    21547    21555    21552 
   21547    21543    21540    21540    21543    21541    21532    21510 
   21483    21450    21406    21359    21312    21267    21234    21208 
   21190    21180    21184    21201    21231    21274    21321    21366 
   21404    21436    21456    21466    21466    21452    21432    21413 
   21392    21374    21371    21374    21378    21385    21390    21390 
   21385    21371    21350    21317    21280    21235    21188    21141 
   21089    21041    20992    20949    20918    20899    20892    20898 
   20919    20956    21004    21058    21112    21159    21200    21238 
   21266    21285    21298    21303    21301    21294    21276    21254 
   21227    21185    21135    21089    21046    21012    21000    21004 
   21020    21054    21099    21149    21207    21269    21328    21385 
   21440    21490    21531    21566    21600    21627    21655    21694 
   21736    21776    21817    21851    21874    21891    21894    21878 
   21849    21809    21749    21676    21597    21512    21424    21343 
   21276    21219    21177    21155    21146    21150    21172    21203 
   21240    21286    21339    21396    21451    21502    21546    21578 
   21609    21636    21649    21648    21633    21606    21563    21502 
   21442    21386    21339    21300    21278    21270    21267    21270 
   21288    21319    21355    21406    21473    21550    21635    21721 
   21803    21880    21951    22021    22092    22162    22234    22310 
   22391    22474    22555    22638    22717    22800    22885    22960 
   23022    23078    23128    23178    23228    23283    23342    23395 
   23433    23454    23456    23434    23395    23345    23279    23206 
   23136    23067    23005    22955    22909    22866    22827    22786 
   22742    22686    22623    22549    22469    22387    22299    22207 
   22118    22036    21961    21892    21826    21767    21717    21667 
   21613    21558    21497    21421    21330    21228    21118    21003 
   20881    20761    20648    20545    20452    20372    20309    20255 
   20204    20155    20112    20074    20042    20009    19970    19932 
   19894    19854    19819    19781    19743    19712    19689    19666 
   19651    19647    19650    19657    19664    19666    19669    19669 
   19664    19660    19653    19643    19635    19631    19633    19645 
   19664    19683    19704    19732    19764    19801    19847    19901 
