Origin Time       2025/01/13 21:19:00
Lat.              31.8
Long.             131.6
Depth. (km)       30
Mag.              6.9
Station Code      NGSH05
Station Lat.      32.9103
Station Long.     130.1408
Station Height(m) -171
Record Time       2025/01/13 21:20:02
Sampling Freq(Hz) 100Hz
Duration Time(s)  224
Dir.              3
Scale Factor      3923(gal)/8224838
Max. Acc. (gal)   1.187
Last Correction   2025/01/13 21:20:03
Memo.             
[...]
  -54916   -54932   -54938   -54938   -54942   -54950   -54965   -54988 
  -55027   -55081   -55144   -55221   -55304   -55385   -55455   -55509 
  -55556   -55598   -55632   -55679   -55750   -55844   -55944   -56045 
  -56143   -56227   -56300   -56366   -56427   -56473   -56504   -56513 
  -56493   -56439   -56358   -56266   -56178   -56097   -56026   -55979 
  -55962   -55976   -56016   -56080   -56149   -56216   -56278   -56334 
  -56370   -56396   -56412   -56417   -56412   -56403   -56386   -56370 
  -56349   -56316   -56278   -56249   -56226   -56205   -56189   -56166 
  -56131   -56083   -56025   -55957   -55884   -55799   -55701   -55606 
  -55520   -55435   -55368   -55325   -55301   -55293   -55294   -55289 
  -55279   -55256   -55209   -55144   -55073   -54999   -54928   -54869 
  -54822   -54788   -54773   -54769   -54770   -54777   -54789   -54801 
  -54814   -54823   -54834   -54839   -54845   -54862   -54884   -54904 
  -54932   -54973   -55019   -55071   -55124   -55171   -55212   -55240 
  -55252   -55255   -55248   -55237   -55224   -55210   -55200   -55198 
  -55212   -55232   -55258   -55287   -55313   -55336   -55355   -55366 
  -55371   -55382   -55409   -55451   -55502   -55566   -55636   -55703 
  -55776   -55854   -55927   -55988   -56033   -56054   -56054   -56046 
  -56034   -56015   -56000   -55993   -55988   -55989   -56008   -56033 
  -56054   -56069   -56068   -56050   -56026   -56003   -55981   -55962 
  -55948   -55933   -55919   -55912   -55912   -55915   -55918   -55925 
  -55941   -55961   -55984   -56014   -56042   -56061   -56079   -56095 
  -56104   -56116   -56137   -56158   -56180   -56204   -56227   -56251 
  -56281   -56309   -56336   -56366   -56389   -56408   -56430   -56443 
  -56444   -56435   -56417   -56389   -56353   -56319   -56296   -56284 
  -56288   -56300   -56309   -56312   -56311   -56307   -56296   -56278 
  -56251   -56209   -56157   -56096   -56031   -55966   -55902   -55848 
  -55807   -55777   -55761   -55759   -55767   -55769   -55757   -55726 
  -55678   -55614   -55540   -55463   -55385   -55310   -55254   -55210 
  -55182   -55167   -55159   -55147   -55120   -55073   -54996   -54899 
  -54804   -54719   -54654   -54625   -54622   -54648   -54703   -54776 
  -54851   -54920   -54972   -54992   -54976   -54935   -54877   -54814 
  -54754   -54706   -54664   -54625   -54581   -54537   -54492   -54449 
  -54417   -54395   -54373   -54345   -54322   -54302   -54283   -54265 
  -54248   -54230   -54224   -54226   -54238   -54259   -54292   -54341 
  -54400   -54461   -54518   -54569   -54602   -54614   -54610   -54591 
  -54552   -54499   -54442   -54392   -54360   -54357   -54390   -54452 
  -54534   -54630   -54730   -54834   -54938   -55031   -55105   -55154 
  -55183   -55205   -55223   -55243   -55273   -55309   -55354   -55410 
  -55472   -55530   -55593   -55651   -55694   -55729   -55759   -55773 
  -55767   -55732   -55679   -55614   -55544   -55486   -55436   -55391 
  -55362   -55347   -55339   -55343   -55348   -55351   -55358   -55368 
  -55381   -55406   -55436   -55471   -55512   -55551   -55576   -55594 
  -55603   -55599   -55586   -55571   -55555   -55544   -55541   -55543 
  -55545   -55549   -55557   -55570   -55584   -55610   -55640   -55668 
  -55690   -55706   -55717   -55721   -55723   -55725   -55726   -55733 
  -55745   -55756   -55764   -55779   -55803   -55836   -55867   -55890 
  -55900   -55892   -55868   -55833   -55791   -55748   -55706   -55665 
  -55633   -55617   -55613   -55620   -55647   -55691   -55740   -55790 
  -55850   -55914   -55975   -56037   -56096   -56151   -56204   -56253 
  -56295   -56332   -56365   -56389   -56398   -56400   -56386   -56349 
  -56296   -56238   -56174   -56108   -56049   -55998   -55949   -55903 
  -55853   -55790   -55717   -55632   -55533   -55435   -55337   -55240 
  -55143   -55055   -54984   -54919   -54864   -54816   -54772   -54723 
  -54668   -54608   -54554   -54504   -54461   -54430   -54407   -54387 
  -54376   -54369   -54365   -54375   -54396   -54426   -54460   -54499 
  -54546   -54602   -54668   -54746   -54828   -54909   -54993   -55078 
  -55155   -55224   -55297   -55368   -55429   -55486   -55530   -55560 
  -55591   -55634   -55690   -55757   -55840   -55938   -56038   -56134 
  -56227   -56315   -56397   -56470   -56528   -56578   -56620   -56655 
  -56690   -56724   -56748   -56762   -56766   -56754   -56718   -56662 
  -56583   -56488   -56377   -56258   -56137   -56025   -55929   -55852 
  -55798   -55756   -55714   -55672   -55636   -55609   -55586   -55567 
  -55553   -55547   -55549   -55561   -55590   -55636   -55696   -55772 
  -55853   -55927   -55992   -56039   -56068   -56077   -56061   -56029 
  -55989   -55939   -55885   -55836   -55783   -55728   -55676   -55628 
  -55578   -55522   -55460   -55385   -55298   -55213   -55129   -55046 
  -54965   -54877   -54784   -54684   -54572   -54456   -54337   -54221 
  -54108   -53998   -53896   -53802   -53725   -53666   -53620   -53590 
  -53580   -53588   -53612   -53651   -53701   -53750   -53796   -53839 
  -53879   -53916   -53948   -53985   -54022   -54063   -54113   -54178 
  -54255   -54342   -54440   -54540   -54638   -54734   -54823   -54904 
  -54978   -55051   -55120   -55182   -55237   -55286   -55316   -55331 
  -55340   -55341   -55340   -55347   -55356   -55366   -55382   -55398 
  -55406   -55421   -55455   -55502   -55567   -55645   -55732   -55827 
  -55941   -56065   -56191   -56313   -56428   -56536   -56627   -56694 
  -56755   -56814   -56871   -56937   -57014   -57087   -57150   -57203 
  -57240   -57248   -57237   -57214   -57173   -57125   -57080   -57036 
  -56995   -56968   -56955   -56957   -56975   -57011   -57059   -57100 
  -57136   -57160   -57161   -57130   -57068   -56979   -56864   -56731 
  -56596   -56466   -56347   -56251   -56187   -56150   -56139   -56150 
  -56164   -56173   -56180   -56181   -56181   -56176   -56160   -56137 
  -56107   -56073   -56029   -55969   -55903   -55834   -55761   -55694 
  -55637   -55590   -55560   -55545   -55536   -55530   -55534   -55549 
  -55575   -55611   -55652   -55687   -55694   -55671   -55620   -55536 
  -55422   -55287   -55138   -54984   -54834   -54703   -54604   -54546 
  -54522   -54525   -54562   -54631   -54720   -54828   -54945   -55062 
  -55178   -55283   -55377   -55463   -55539   -55605   -55659   -55701 
  -55738   -55771   -55800   -55837   -55879   -55923   -55976   -56039 
  -56103   -56164   -56223   -56280   -56327   -56362   -56384   -56390 
  -56376   -56344   -56299   -56246   -56193   -56137   -56080   -56039 
  -55999   -55956   -55912   -55871   -55825   -55779   -55734   -55691 
  -55657   -55629   -55590   -55533   -55470   -55401   -55317   -55227 
  -55136   -55046   -54955   -54876   -54816   -54773   -54738   -54716 
  -54711   -54715   -54727   -54751   -54784   -54824   -54870   -54920 
  -54969   -55015   -55065   -55113   -55156   -55192   -55216   -55231 
  -55242   -55247   -55258   -55273   -55278   -55279   -55279   -55278 
  -55281   -55289   -55298   -55308   -55313   -55306   -55283   -55254 
  -55221   -55185   -55146   -55105   -55062   -55019   -54982   -54958 
  -54945   -54950   -54969   -54992   -55024   -55061   -55100   -55138 
  -55171   -55208   -55244   -55290   -55352   -55421   -55505   -55607 
  -55715   -55819   -55925   -56022   -56097   -56150   -56196   -56231 
  -56265   -56307   -56355   -56415   -56484   -56554   -56617   -56667 
  -56693   -56689   -56658   -56601   -56523   -56421   -56304   -56178 
  -56047   -55921   -55802   -55679   -55552   -55421   -55279   -55132 
  -54988   -54855   -54742   -54650   -54585   -54550   -54549   -54576 
  -54627   -54687   -54743   -54797   -54849   -54893   -54935   -54974 
  -55005   -55021   -55027   -55015   -54990   -54974   -54970   -54980 
  -55004   -55046   -55101   -55171   -55258   -55362   -55479   -55601 
  -55721   -55826   -55908   -55976   -56023   -56046   -56054   -56054 
  -56045   -56038   -56035   -56035   -56047   -56083   -56131   -56192 
  -56262   -56335   -56403   -56466   -56519   -56567   -56614   -56650 
  -56671   -56683   -56675   -56650   -56609   -56550   -56479   -56403 
  -56316   -56230   -56142   -56047   -55962   -55880   -55790   -55702 
  -55617   -55534   -55466   -55413   -55377   -55355   -55337   -55321 
  -55302   -55281   -55264   -55252   -55248   -55251   -55258   -55260 
  -55254   -55239   -55213   -55175   -55129   -55071   -55015   -54965 
  -54920   -54888   -54876   -54874   -54882   -54897   -54911   -54920 
  -54927   -54924   -54912   -54889   -54851   -54804   -54747   -54681 
  -54615   -54552   -54488   -54427   -54372   -54322   -54282   -54252 
  -54225   -54206   -54205   -54220   -54253   -54313   -54395   -54488 
  -54592   -54712   -54847   -54989   -55143   -55308   -55478   -55651 
  -55822   -55988   -56143   -56281   -56403   -56505   -56587   -56656 
  -56714   -56758   -56783   -56793   -56797   -56799   -56802   -56810 
  -56832   -56864   -56902   -56948   -56998   -57053   -57109   -57164 
  -57222   -57279   -57327   -57379   -57433   -57478   -57514   -57532 
  -57519   -57485   -57439   -57387   -57338   -57298   -57258   -57225 
  -57203   -57191   -57190   -57199   -57215   -57230   -57244   -57249 
  -57241   -57222   -57188   -57142   -57090   -57026   -56953   -56874 
  -56786   -56700   -56624   -56558   -56506   -56473   -56447   -56427 
  -56409   -56393   -56381   -56374   -56373   -56376   -56380   -56386 
  -56397   -56401   -56397   -56386   -56362   -56326   -56292   -56261 
  -56232   -56212   -56200   -56195   -56181   -56162   -56135   -56092 
  -56029   -55942   -55836   -55710   -55568   -55410   -55244   -55075 
  -54915   -54761   -54616   -54483   -54361   -54249   -54145   -54052 
  -53973   -53913   -53881   -53877   -53892   -53913   -53935   -53950 
  -53955   -53956   -53952   -53939   -53916   -53889   -53860   -53832 
  -53802   -53781   -53767   -53752   -53742   -53743   -53752   -53769 
  -53800   -53840   -53885   -53931   -53974   -54018   -54063   -54094 
  -54114   -54126   -54129   -54121   -54103   -54076   -54048   -54021 
  -53994   -53968   -53948   -53935   -53931   -53940   -53962   -54001 
  -54064   -54148   -54244   -54351   -54465   -54576   -54684   -54791 
  -54889   -54981   -55071   -55158   -55237   -55313   -55383   -55449 
  -55513   -55578   -55636   -55692   -55756   -55827   -55907   -56002 
  -56112   -56236   -56370   -56504   -56637   -56767   -56890   -56999 
  -57091   -57167   -57222   -57260   -57284   -57308   -57333   -57357 
  -57380   -57402   -57416   -57430   -57442   -57445   -57437   -57427 
  -57414   -57393   -57376   -57369   -57366   -57366   -57366   -57357 
  -57333   -57294   -57241   -57171   -57091   -56995   -56880   -56756 
  -56629   -56505   -56389   -56276   -56170   -56076   -55989   -55915 
  -55856   -55809   -55768   -55733   -55702   -55678   -55660   -55649 
  -55636   -55621   -55609   -55588   -55556   -55512   -55451   -55377 
  -55296   -55213   -55131   -55059   -54996   -54934   -54881   -54826 
  -54760   -54685   -54594   -54487   -54373   -54249   -54122   -54006 
  -53902   -53819   -53761   -53720   -53698   -53690   -53688   -53690 
  -53693   -53689   -53684   -53673   -53653   -53632   -53609   -53576 
  -53547   -53527   -53509   -53508   -53527   -53565   -53626   -53703 
  -53793   -53897   -54013   -54130   -54244   -54349   -54438   -54510 
  -54560   -54595   -54630   -54672   -54722   -54784   -54859   -54943 
  -55030   -55119   -55202   -55281   -55359   -55431   -55495   -55561 
  -55630   -55709   -55795   -55891   -55991   -56095   -56196   -56299 
  -56401   -56493   -56573   -56641   -56702   -56760   -56820   -56876 
  -56940   -57009   -57072   -57133   -57194   -57245   -57288   -57318 
  -57327   -57322   -57299   -57261   -57214   -57164   -57110   -57060 
  -57015   -56978   -56948   -56929   -56911   -56889   -56863   -56836 
  -56794   -56733   -56662   -56571   -56466   -56355   -56241   -56131 
  -56031   -55939   -55860   -55794   -55736   -55684   -55636   -55588 
  -55549   -55516   -55490   -55476   -55471   -55471   -55483   -55512 
  -55544   -55586   -55636   -55679   -55714   -55741   -55759   -55763 
  -55760   -55749   -55726   -55692   -55659   -55632   -55605   -55576 
  -55544   -55507   -55462   -55405   -55340   -55270   -55193   -55115 
  -55040   -54972   -54919   -54884   -54864   -54861   -54872   -54892 
  -54927   -54978   -55040   -55112   -55189   -55269   -55345   -55416 
  -55468   -55501   -55509   -55502   -55475   -55429   -55381   -55331 
  -55275   -55220   -55175   -55129   -55084   -55051   -55032   -55032 
  -55054   -55094   -55156   -55237   -55324   -55417   -55516   -55609 
  -55699   -55792   -55881   -55961   -56033   -56097   -56147   -56182 
  -56212   -56231   -56241   -56247   -56251   -56259   -56270   -56288 
  -56309   -56334   -56362   -56393   -56423   -56450   -56466   -56469 
  -56459   -56436   -56401   -56353   -56292   -56218   -56133   -56043 
  -55946   -55840   -55734   -55636   -55541   -55455   -55377   -55301 
  -55233   -55178   -55124   -55078   -55048   -55026   -55004   -54993 
  -54988   -54974   -54959   -54940   -54912   -54878   -54835   -54770 
  -54689   -54596   -54490   -54372   -54253   -54136   -54020   -53912 
  -53820   -53742   -53677   -53626   -53586   -53562   -53541   -53519 
  -53497   -53476   -53449   -53420   -53391   -53364   -53331   -53293 
  -53249   -53202   -53152   -53106   -53071   -53053   -53055   -53077 
  -53123   -53195   -53292   -53410   -53545   -53697   -53863   -54033 
  -54203   -54372   -54538   -54696   -54849   -55005   -55161   -55314 
  -55471   -55626   -55780   -55934   -56091   -56247   -56401   -56555 
  -56708   -56851   -56984   -57109   -57226   -57333   -57426   -57511 
  -57582   -57640   -57690   -57730   -57761   -57780   -57784   -57778 
  -57763   -57736   -57700   -57661   -57623   -57586   -57553   -57528 
  -57507   -57495   -57501   -57514   -57520   -57524   -57522   -57501 
  -57461   -57400   -57318   -57223   -57115   -56997   -56864   -56718 
  -56569   -56415   -56258   -56106   -55964   -55837   -55729   -55638 
  -55568   -55522   -55503   -55506   -55518   -55537   -55560   -55572 
  -55571   -55563   -55540   -55502   -55456   -55408   -55360   -55321 
  -55290   -55270   -55262   -55255   -55244   -55229   -55210   -55183 
  -55150   -55116   -55078   -55039   -55003   -54965   -54927   -54899 
  -54878   -54858   -54839   -54823   -54808   -54795   -54778   -54758 
  -54734   -54703   -54666   -54630   -54595   -54561   -54535   -54521 
  -54513   -54508   -54515   -54529   -54540   -54545   -54544   -54541 
  -54533   -54525   -54523   -54523   -54529   -54545   -54573   -54608 
  -54652   -54699   -54751   -54807   -54861   -54922   -54989   -55058 
  -55134   -55215   -55297   -55383   -55466   -55540   -55605   -55664 
  -55715   -55755   -55787   -55819   -55845   -55864   -55888   -55915 
  -55945   -55977   -56007   -56034   -56054   -56064   -56070   -56072 
  -56062   -56047   -56029   -55999   -55961   -55919   -55875   -55826 
  -55775   -55721   -55656   -55587   -55522   -55451   -55378   -55313 
  -55252   -55193   -55147   -55107   -55073   -55051   -55036   -55026 
  -55026   -55039   -55058   -55081   -55113   -55146   -55174   -55194 
  -55208   -55213   -55213   -55206   -55198   -55190   -55181   -55170 
  -55154   -55134   -55115   -55094   -55078   -55073   -55073   -55077 
  -55089   -55105   -55121   -55136   -55150   -55156   -55158   -55151 
  -55129   -55102   -55081   -55058   -55032   -55020   -55019   -55028 
  -55054   -55093   -55139   -55188   -55240   -55298   -55351   -55401 
  -55453   -55502   -55552   -55607   -55665   -55728   -55788   -55837 
  -55877   -55911   -55930   -55941   -55952   -55960   -55971   -55992 
  -56018   -56050   -56095   -56141   -56184   -56232   -56276   -56313 
  -56342   -56359   -56370   -56374   -56367   -56351   -56330   -56307 
  -56288   -56272   -56257   -56245   -56242   -56242   -56241   -56246 
  -56255   -56259   -56269   -56286   -56301   -56313   -56326   -56332 
  -56330   -56322   -56309   -56296   -56288   -56288   -56288   -56292 
  -56300   -56305   -56303   -56290   -56269   -56238   -56203   -56170 
  -56142   -56115   -56089   -56068   -56045   -56020   -55993   -55964 
  -55931   -55899   -55863   -55826   -55790   -55748   -55705   -55657 
  -55599   -55529   -55448   -55355   -55255   -55148   -55040   -54938 
  -54838   -54743   -54661   -54589   -54527   -54479   -54445   -54419 
  -54400   -54394   -54396   -54406   -54422   -54441   -54461   -54480 
  -54502   -54522   -54540   -54557   -54576   -54598   -54618   -54637 
  -54664   -54697   -54738   -54789   -54841   -54896   -54959   -55023 
  -55080   -55136   -55186   -55223   -55244   -55259   -55266   -55263 
  -55254   -55247   -55246   -55250   -55260   -55277   -55296   -55323 
  -55358   -55389   -55424   -55467   -55513   -55567   -55626   -55698 
  -55784   -55880   -55980   -56091   -56209   -56327   -56443   -56560 
  -56681   -56799   -56914   -57024   -57126   -57219   -57299   -57364 
  -57414   -57453   -57484   -57508   -57520   -57527   -57535   -57535 
  -57530   -57527   -57518   -57497   -57470   -57429   -57373   -57312 
  -57241   -57160   -57076   -56988   -56898   -56806   -56717   -56629 
  -56536   -56446   -56358   -56273   -56192   -56118   -56050   -55979 
  -55904   -55831   -55749   -55659   -55570   -55479   -55387   -55298 
  -55212   -55134   -55063   -54997   -54943   -54897   -54853   -54812 
  -54766   -54715   -54668   -54621   -54573   -54527   -54486   -54449 
  -54415   -54388   -54371   -54360   -54353   -54348   -54341   -54338 
  -54342   -54345   -54351   -54361   -54373   -54388   -54417   -54452 
  -54490   -54535   -54581   -54622   -54660   -54699   -54734   -54760 
  -54783   -54799   -54805   -54812   -54818   -54820   -54827   -54842 
  -54857   -54873   -54886   -54900   -54913   -54922   -54928   -54946 
  -54965   -54981   -55008   -55040   -55069   -55093   -55120   -55150 
  -55173   -55194   -55219   -55244   -55270   -55300   -55332   -55366 
  -55399   -55437   -55476   -55516   -55559   -55601   -55640   -55680 
  -55722   -55765   -55804   -55842   -55883   -55921   -55952   -55977 
  -56004   -56026   -56042   -56053   -56057   -56052   -56043   -56035 
  -56027   -56020   -56015   -56012   -56012   -56010   -56003   -55993 
  -55985   -55977   -55971   -55971   -55971   -55980   -55996   -56015 
  -56039   -56061   -56076   -56093   -56103   -56100   -56092   -56074 
  -56045   -56007   -55966   -55917   -55864   -55815   -55765   -55715 
  -55675   -55640   -55607   -55584   -55570   -55560   -55555   -55548 
  -55540   -55534   -55530   -55524   -55514   -55503   -55493   -55483 
  -55471   -55456   -55441   -55428   -55410   -55394   -55377   -55362 
  -55354   -55343   -55328   -55318   -55314   -55313   -55314   -55314 
  -55314   -55320   -55324   -55328   -55333   -55344   -55360   -55371 
  -55385   -55402   -55412   -55421   -55429   -55428   -55424   -55417 
  -55399   -55379   -55354   -55316   -55274   -55228   -55174   -55119 
  -55062   -55004   -54947   -54893   -54843   -54795   -54743   -54696 
  -54656   -54615   -54581   -54548   -54511   -54481   -54456   -54426 
