Origin Time       2025/01/13 21:19:00
Lat.              31.8
Long.             131.6
Depth. (km)       30
Mag.              6.9
Station Code      NGSH01
Station Lat.      33.2116
Station Long.     129.4353
Station Height(m) -177
Record Time       2025/01/13 21:20:21
Sampling Freq(Hz) 100Hz
Duration Time(s)  157
Dir.              1
Scale Factor      3923(gal)/8224838
Max. Acc. (gal)   0.993
Last Correction   2025/01/13 21:20:22
Memo.             
[...]
   13234    13240    13246    13255    13267    13277    13286    13296 
   13304    13312    13320    13324    13332    13344    13351    13359 
   13374    13390    13408    13427    13450    13475    13500    13525 
   13551    13578    13606    13628    13651    13676    13697    13717 
   13741    13763    13784    13807    13828    13848    13868    13886 
   13896    13907    13918    13926    13927    13923    13917    13907 
   13899    13887    13871    13857    13845    13836    13829    13822 
   13815    13809    13801    13794    13790    13791    13794    13794 
   13798    13802    13802    13799    13798    13795    13786    13772 
   13760    13744    13726    13706    13679    13649    13617    13589 
   13562    13531    13505    13486    13467    13450    13435    13420 
   13409    13400    13390    13385    13378    13375    13377    13379 
   13385    13397    13405    13417    13436    13450    13460    13475 
   13490    13500    13504    13505    13512    13513    13510    13510 
   13512    13510    13512    13516    13524    13532    13540    13549 
   13560    13568    13574    13581    13586    13590    13594    13597 
   13603    13610    13613    13618    13628    13633    13636    13643 
   13648    13648    13647    13651    13653    13655    13662    13671 
   13679    13690    13706    13724    13743    13765    13788    13810 
   13833    13856    13878    13898    13915    13930    13948    13965 
   13981    13999    14014    14029    14048    14065    14080    14098 
   14114    14137    14162    14183    14208    14241    14268    14291 
   14314    14328    14341    14350    14355    14354    14349    14339 
   14327    14315    14304    14292    14280    14270    14260    14243 
   14224    14200    14173    14146    14118    14089    14061    14034 
   14010    13984    13959    13933    13906    13880    13856    13830 
   13801    13770    13738    13707    13678    13651    13630    13612 
   13594    13582    13576    13571    13568    13568    13568    13570 
   13571    13567    13562    13559    13555    13549    13545    13543 
   13539    13535    13539    13545    13547    13551    13560    13566 
   13568    13571    13572    13568    13564    13559    13547    13535 
   13527    13512    13493    13481    13463    13441    13423    13402 
   13381    13360    13343    13323    13300    13275    13247    13219 
   13189    13159    13130    13101    13073    13046    13019    12996 
   12978    12965    12954    12945    12939    12935    12928    12922 
   12915    12904    12892    12881    12866    12849    12833    12815 
   12796    12773    12752    12735    12714    12692    12675    12657 
   12644    12634    12622    12611    12602    12592    12587    12587 
   12591    12596    12602    12611    12622    12630    12637    12640 
   12641    12641    12640    12641    12638    12637    12641    12645 
   12650    12658    12667    12671    12673    12680    12687    12695 
   12707    12721    12738    12756    12771    12789    12810    12827 
   12841    12853    12865    12874    12881    12892    12901    12911 
   12926    12941    12955    12972    12989    13008    13028    13049 
   13068    13084    13100    13117    13132    13144    13159    13177 
   13197    13220    13247    13275    13305    13339    13373    13402 
   13432    13464    13494    13522    13551    13579    13610    13640 
   13666    13693    13716    13736    13760    13782    13799    13815 
   13833    13846    13863    13887    13907    13927    13950    13971 
   13990    14007    14019    14031    14042    14049    14057    14058 
   14056    14060    14062    14062    14065    14067    14067    14068 
   14072    14077    14085    14096    14106    14119    14137    14156 
   14175    14189    14202    14212    14223    14230    14235    14241 
   14246    14249    14251    14257    14262    14266    14270    14269 
   14266    14265    14260    14247    14234    14222    14212    14203 
   14200    14204    14210    14219    14231    14238    14241    14239 
   14231    14220    14210    14196    14183    14173    14168    14165 
   14164    14165    14168    14176    14187    14197    14210    14220 
   14231    14243    14253    14261    14268    14269    14269    14265 
   14261    14251    14239    14226    14218    14210    14197    14188 
   14184    14177    14168    14161    14154    14150    14143    14133 
   14121    14107    14088    14069    14048    14018    13987    13954 
   13918    13883    13846    13809    13774    13741    13713    13691 
   13670    13648    13629    13612    13594    13572    13547    13525 
   13504    13479    13458    13436    13416    13398    13382    13370 
   13363    13354    13350    13350    13352    13355    13356    13356 
   13355    13347    13339    13325    13311    13296    13281    13266 
   13251    13242    13238    13230    13231    13235    13236    13239 
   13246    13250    13257    13267    13274    13274    13275    13274 
   13266    13257    13243    13228    13215    13203    13193    13186 
   13180    13174    13169    13163    13161    13159    13157    13157 
   13155    13154    13155    13159    13162    13165    13173    13181 
   13186    13193    13201    13209    13217    13225    13232    13243 
   13259    13275    13290    13305    13320    13335    13350    13363 
   13379    13396    13414    13439    13463    13490    13521    13549 
   13575    13601    13624    13644    13659    13672    13684    13691 
   13698    13705    13707    13707    13705    13707    13714    13717 
   13717    13720    13717    13710    13705    13698    13689    13672 
   13657    13643    13632    13625    13618    13610    13603    13595 
   13590    13586    13583    13581    13579    13576    13579    13587 
   13595    13606    13617    13636    13657    13674    13689    13706 
   13722    13734    13741    13752    13760    13768    13778    13786 
   13792    13801    13811    13826    13838    13852    13865    13879 
   13894    13906    13914    13921    13933    13944    13949    13954 
   13964    13968    13973    13977    13976    13975    13975    13971 
   13964    13961    13952    13942    13941    13937    13923    13911 
   13899    13883    13859    13829    13798    13763    13721    13679 
   13639    13599    13559    13518    13477    13435    13396    13352 
   13306    13259    13211    13165    13120    13074    13026    12980 
   12938    12895    12849    12807    12766    12729    12694    12663 
   12630    12604    12583    12563    12545    12532    12515    12496 
   12476    12460    12445    12426    12410    12394    12375    12356 
   12336    12314    12297    12276    12253    12232    12214    12198 
   12186    12181    12186    12197    12209    12231    12255    12282 
   12314    12345    12376    12413    12448    12483    12518    12556 
   12596    12636    12671    12704    12739    12769    12798    12820 
   12839    12856    12865    12869    12873    12877    12874    12872 
   12874    12883    12891    12901    12916    12934    12953    12978 
   13008    13039    13073    13113    13155    13200    13244    13293 
   13340    13387    13435    13481    13524    13567    13612    13653 
   13694    13733    13770    13803    13836    13861    13884    13906 
   13919    13936    13954    13972    13990    14015    14038    14062 
   14092    14123    14150    14183    14215    14245    14274    14305 
   14338    14370    14397    14419    14436    14453    14466    14478 
   14490    14505    14526    14544    14562    14585    14611    14636 
   14662    14688    14709    14731    14751    14773    14796    14818 
   14847    14877    14905    14937    14970    14999    15030    15063 
   15094    15125    15155    15180    15201    15217    15228    15234 
   15237    15234    15228    15217    15206    15191    15171    15151 
   15128    15102    15080    15056    15029    15001    14971    14936 
   14899    14862    14823    14781    14737    14690    14640    14593 
   14544    14490    14439    14388    14334    14283    14234    14181 
   14126    14073    14021    13968    13919    13872    13826    13784 
   13751    13726    13703    13678    13660    13647    13630    13616 
   13605    13594    13583    13574    13568    13566    13560    13552 
   13539    13527    13510    13491    13471    13447    13420    13390 
   13362    13333    13302    13273    13248    13224    13203    13180 
   13161    13146    13134    13117    13105    13092    13078    13065 
   13049    13036    13022    13007    12991    12974    12957    12941 
   12924    12907    12893    12883    12874    12868    12865    12865 
   12868    12872    12876    12877    12874    12869    12861    12849 
   12834    12815    12793    12777    12762    12750    12744    12742 
   12738    12737    12737    12738    12741    12746    12752    12754 
   12762    12773    12781    12788    12799    12811    12823    12834 
   12847    12858    12869    12880    12887    12892    12900    12907 
   12914    12924    12931    12938    12951    12960    12962    12968 
   12973    12977    12982    12989    13000    13011    13020    13032 
   13046    13057    13065    13069    13073    13078    13076    13068 
   13061    13049    13032    13020    13007    12985    12961    12939 
   12914    12884    12860    12838    12816    12793    12779    12771 
   12761    12750    12748    12745    12744    12745    12748    12750 
   12758    12769    12783    12802    12825    12849    12873    12899 
   12919    12935    12955    12973    12987    13001    13018    13034 
   13047    13062    13076    13088    13103    13116    13131    13147 
   13163    13181    13201    13223    13244    13271    13302    13333 
   13365    13401    13435    13466    13500    13532    13562    13590 
   13614    13639    13664    13690    13711    13736    13764    13794 
   13824    13851    13882    13917    13953    13984    14014    14046 
   14075    14095    14115    14135    14150    14164    14172    14173 
   14175    14175    14173    14172    14172    14170    14165    14158 
   14154    14152    14145    14137    14129    14119    14106    14095 
   14084    14071    14054    14040    14027    14018    14008    14003 
   14000    14003    14008    14011    14008    14010    14008    14004 
   14004    14002    13995    13990    13984    13977    13968    13959 
   13950    13942    13930    13919    13906    13888    13875    13860 
   13845    13832    13814    13795    13780    13764    13744    13728 
   13710    13695    13683    13672    13663    13655    13645    13637 
   13630    13625    13620    13618    13613    13608    13609    13616 
   13624    13637    13649    13659    13666    13671    13675    13683 
   13687    13689    13694    13698    13701    13709    13721    13738 
   13760    13786    13813    13844    13882    13919    13953    13991 
   14033    14067    14095    14121    14148    14173    14195    14212 
   14230    14246    14254    14257    14264    14266    14264    14262 
   14264    14260    14254    14253    14243    14231    14222    14208 
   14191    14179    14168    14156    14142    14134    14125    14110 
   14096    14088    14077    14065    14056    14049    14042    14031 
   14019    14003    13981    13954    13925    13892    13861    13828 
   13794    13763    13733    13703    13676    13643    13610    13578 
   13540    13501    13462    13420    13381    13343    13304    13267 
   13236    13208    13185    13165    13146    13136    13135    13135 
   13140    13153    13166    13184    13207    13230    13258    13286 
   13313    13343    13375    13404    13431    13462    13491    13514 
   13533    13551    13564    13576    13581    13579    13578    13567 
   13548    13529    13509    13481    13451    13425    13402    13379 
   13359    13346    13338    13331    13323    13321    13325    13324 
   13323    13323    13323    13320    13317    13313    13309    13309 
   13311    13313    13315    13313    13316    13319    13316    13312 
   13309    13306    13302    13296    13289    13281    13267    13250 
   13230    13204    13177    13155    13134    13109    13089    13073 
   13063    13055    13046    13042    13039    13035    13036    13038 
   13038    13042    13045    13042    13039    13035    13030    13022 
   13012    13007    13004    13003    13005    13011    13022    13035 
   13046    13057    13068    13080    13089    13097    13108    13119 
   13126    13136    13147    13153    13162    13173    13177    13181 
   13189    13193    13194    13194    13190    13184    13174    13161 
   13144    13127    13105    13080    13051    13019    12987    12953 
   12918    12880    12843    12806    12764    12726    12687    12644 
   12603    12565    12530    12502    12480    12468    12463    12460 
   12464    12475    12486    12503    12529    12553    12582    12613 
   12645    12680    12718    12754    12793    12838    12883    12934 
   12991    13049    13111    13177    13240    13306    13373    13437 
   13501    13562    13624    13686    13745    13805    13864    13922 
   13980    14041    14102    14158    14214    14270    14327    14384 
   14439    14496    14554    14613    14675    14743    14806    14866 
   14928    14987    15044    15099    15156    15210    15268    15325 
   15377    15429    15476    15518    15554    15588    15608    15620 
   15630    15624    15611    15595    15569    15541    15511    15475 
   15437    15402    15365    15329    15295    15263    15234    15205 
   15175    15144    15115    15088    15057    15026    14998    14964 
   14926    14887    14848    14804    14758    14713    14667    14620 
   14573    14526    14480    14436    14392    14346    14301    14254 
   14200    14141    14080    14019    13954    13884    13815    13748 
   13679    13613    13551    13493    13439    13382    13323    13271 
   13225    13176    13127    13084    13041    12996    12955    12916 
   12881    12847    12812    12781    12752    12719    12690    12664 
   12638    12617    12596    12580    12565    12552    12534    12515 
   12499    12483    12464    12445    12425    12409    12393    12376 
   12367    12359    12349    12348    12349    12344    12341    12349 
   12356    12361    12372    12384    12395    12410    12425    12437 
   12451    12465    12476    12484    12491    12496    12498    12498 
   12495    12492    12488    12479    12467    12449    12433    12417 
   12395    12372    12351    12326    12301    12280    12264    12249 
   12239    12229    12225    12225    12228    12236    12248    12264 
   12280    12299    12321    12343    12366    12390    12415    12441 
   12471    12496    12518    12545    12575    12598    12618    12644 
   12668    12687    12706    12729    12752    12777    12802    12823 
   12846    12869    12892    12914    12933    12953    12974    12995 
   13018    13041    13058    13074    13089    13104    13115    13122 
   13127    13128    13126    13127    13127    13130    13135    13140 
   13144    13151    13161    13167    13170    13176    13184    13192 
   13205    13221    13243    13266    13289    13316    13348    13381 
   13412    13444    13478    13510    13541    13574    13605    13639 
   13672    13701    13732    13765    13797    13826    13857    13890 
   13925    13954    13987    14026    14060    14095    14131    14168 
   14206    14249    14288    14330    14370    14408    14447    14488 
   14526    14562    14598    14636    14678    14716    14754    14790 
   14824    14851    14870    14890    14901    14904    14901    14895 
   14887    14877    14862    14845    14829    14812    14790    14773 
   14755    14737    14720    14702    14683    14656    14625    14597 
   14565    14528    14494    14458    14420    14384    14345    14303 
   14262    14223    14185    14149    14111    14075    14044    14017 
   13991    13968    13948    13934    13921    13905    13891    13882 
   13869    13856    13851    13844    13833    13825    13819    13811 
   13806    13802    13795    13792    13792    13787    13782    13782 
   13784    13784    13782    13778    13775    13768    13759    13748 
   13732    13710    13693    13674    13648    13626    13603    13578 
   13552    13524    13494    13464    13433    13400    13365    13332 
   13302    13269    13232    13198    13169    13140    13112    13086 
   13066    13047    13030    13016    13009    13003    12999    13001 
   13003    13000    13001    13001    12993    12981    12969    12954 
   12934    12915    12896    12879    12861    12845    12831    12822 
   12815    12807    12800    12800    12803    12807    12819    12833 
   12847    12869    12892    12915    12942    12969    12997    13027 
   13057    13084    13109    13134    13155    13178    13200    13213 
   13227    13240    13246    13252    13270    13285    13292    13301 
   13308    13309    13312    13308    13297    13285    13270    13250 
   13230    13207    13185    13167    13153    13135    13126    13122 
   13115    13115    13120    13126    13136    13147    13159    13174 
   13188    13203    13220    13232    13243    13258    13271    13279 
   13290    13304    13317    13328    13339    13354    13369    13383 
   13401    13419    13439    13462    13485    13514    13547    13579 
   13614    13656    13699    13747    13801    13857    13917    13979 
   14045    14112    14183    14254    14322    14388    14450    14504 
   14554    14598    14636    14674    14701    14723    14744    14762 
   14773    14783    14794    14805    14810    14817    14825    14831 
   14833    14837    14841    14848    14856    14867    14877    14885 
   14893    14899    14905    14908    14906    14905    14901    14889 
   14875    14860    14843    14824    14805    14785    14762    14739 
   14716    14692    14667    14640    14611    14581    14551    14519 
   14485    14454    14419    14381    14339    14297    14251    14203 
   14148    14092    14038    13979    13918    13860    13802    13743 
   13689    13639    13590    13544    13502    13467    13437    13410 
   13389    13371    13358    13347    13336    13327    13321    13319 
   13315    13315    13317    13319    13321    13323    13321    13320 
   13316    13308    13297    13281    13263    13244    13224    13203 
   13178    13154    13130    13105    13078    13050    13022    12989 
   12957    12928    12895    12858    12825    12792    12765    12738 
   12711    12688    12668    12646    12627    12610    12592    12579 
   12568    12559    12553    12553    12555    12559    12568    12573 
   12580    12592    12602    12611    12626    12641    12657    12680 
   12700    12723    12752    12781    12811    12843    12877    12915 
   12955    12993    13034    13077    13117    13154    13192    13221 
   13248    13277    13301    13323    13343    13359    13374    13390 
   13408    13427    13443    13459    13477    13494    13512    13529 
   13545    13560    13572    13583    13593    13601    13609    13616 
   13622    13630    13636    13640    13647    13652    13655    13656 
   13655    13653    13652    13648    13641    13636    13628    13614 
