Origin Time       2025/01/13 21:19:00
Lat.              31.8
Long.             131.6
Depth. (km)       30
Mag.              6.9
Station Code      NGSH01
Station Lat.      33.2116
Station Long.     129.4353
Station Height(m) -177
Record Time       2025/01/13 21:20:21
Sampling Freq(Hz) 100Hz
Duration Time(s)  157
Dir.              3
Scale Factor      3923(gal)/8224838
Max. Acc. (gal)   0.991
Last Correction   2025/01/13 21:20:22
Memo.             
[...]
  -36499   -36489   -36481   -36474   -36463   -36451   -36439   -36424 
  -36406   -36394   -36379   -36362   -36343   -36323   -36302   -36281 
  -36252   -36223   -36192   -36154   -36109   -36061   -36008   -35953 
  -35897   -35842   -35792   -35745   -35699   -35664   -35637   -35618 
  -35606   -35600   -35603   -35617   -35633   -35654   -35680   -35711 
  -35749   -35789   -35829   -35872   -35920   -35968   -36015   -36062 
  -36108   -36155   -36202   -36252   -36302   -36352   -36401   -36451 
  -36499   -36543   -36583   -36626   -36667   -36705   -36744   -36784 
  -36821   -36857   -36892   -36927   -36960   -36990   -37018   -37044 
  -37065   -37084   -37103   -37122   -37138   -37158   -37183   -37207 
  -37234   -37266   -37297   -37327   -37358   -37389   -37419   -37449 
  -37480   -37511   -37539   -37571   -37606   -37636   -37666   -37696 
  -37717   -37733   -37754   -37771   -37785   -37800   -37812   -37822 
  -37836   -37847   -37858   -37866   -37870   -37875   -37875   -37876 
  -37876   -37878   -37883   -37883   -37878   -37874   -37867   -37854 
  -37837   -37824   -37806   -37790   -37771   -37750   -37727   -37702 
  -37677   -37648   -37617   -37584   -37547   -37511   -37474   -37435 
  -37396   -37361   -37328   -37293   -37257   -37219   -37180   -37139 
  -37092   -37042   -36992   -36938   -36887   -36837   -36784   -36733 
  -36688   -36644   -36599   -36563   -36532   -36502   -36478   -36462 
  -36447   -36435   -36423   -36412   -36404   -36397   -36391   -36389 
  -36385   -36385   -36391   -36397   -36405   -36417   -36431   -36445 
  -36459   -36475   -36494   -36508   -36521   -36539   -36551   -36560 
  -36568   -36574   -36575   -36575   -36570   -36559   -36547   -36541 
  -36533   -36524   -36520   -36520   -36520   -36524   -36529   -36536 
  -36548   -36563   -36580   -36605   -36630   -36653   -36675   -36699 
  -36722   -36737   -36744   -36752   -36755   -36744   -36732   -36724 
  -36707   -36686   -36663   -36637   -36614   -36594   -36571   -36548 
  -36531   -36514   -36504   -36497   -36491   -36493   -36498   -36499 
  -36506   -36522   -36535   -36545   -36563   -36576   -36582   -36589 
  -36593   -36595   -36595   -36593   -36586   -36578   -36570   -36555 
  -36541   -36526   -36506   -36490   -36472   -36445   -36420   -36394 
  -36367   -36346   -36329   -36317   -36308   -36301   -36298   -36300 
  -36305   -36313   -36325   -36339   -36351   -36363   -36377   -36390 
  -36400   -36406   -36413   -36424   -36436   -36445   -36448   -36455 
  -36459   -36456   -36451   -36441   -36429   -36421   -36412   -36400 
  -36390   -36381   -36366   -36354   -36343   -36329   -36319   -36312 
  -36308   -36308   -36310   -36319   -36332   -36350   -36367   -36387 
  -36414   -36441   -36470   -36502   -36531   -36560   -36595   -36625 
  -36656   -36691   -36718   -36738   -36760   -36778   -36788   -36795 
  -36798   -36796   -36790   -36782   -36776   -36767   -36755   -36745 
  -36733   -36717   -36702   -36680   -36653   -36620   -36587   -36555 
  -36518   -36482   -36448   -36418   -36389   -36359   -36333   -36312 
  -36289   -36269   -36254   -36236   -36217   -36205   -36192   -36178 
  -36169   -36165   -36162   -36159   -36162   -36173   -36180   -36184 
  -36194   -36202   -36209   -36220   -36225   -36234   -36248   -36261 
  -36271   -36288   -36305   -36321   -36333   -36346   -36363   -36378 
  -36387   -36400   -36413   -36427   -36447   -36468   -36489   -36513 
  -36536   -36559   -36578   -36591   -36603   -36614   -36620   -36624 
  -36628   -36634   -36643   -36653   -36667   -36679   -36687   -36695 
  -36701   -36703   -36703   -36701   -36699   -36702   -36707   -36713 
  -36720   -36732   -36745   -36757   -36768   -36775   -36778   -36779 
  -36774   -36765   -36757   -36749   -36740   -36730   -36721   -36711 
  -36701   -36686   -36668   -36647   -36626   -36606   -36589   -36574 
  -36560   -36549   -36541   -36536   -36532   -36529   -36529   -36529 
  -36537   -36548   -36558   -36568   -36583   -36598   -36612   -36625 
  -36639   -36655   -36672   -36693   -36713   -36737   -36763   -36791 
  -36821   -36852   -36882   -36913   -36940   -36965   -36991   -37014 
  -37035   -37058   -37079   -37093   -37112   -37127   -37137   -37147 
  -37157   -37161   -37165   -37166   -37158   -37150   -37143   -37134 
  -37127   -37126   -37122   -37115   -37118   -37123   -37125   -37127 
  -37133   -37135   -37141   -37153   -37166   -37179   -37192   -37210 
  -37226   -37239   -37254   -37269   -37280   -37287   -37293   -37295 
  -37292   -37288   -37285   -37278   -37269   -37262   -37258   -37250 
  -37239   -37228   -37216   -37204   -37188   -37165   -37145   -37116 
  -37080   -37045   -37011   -36971   -36927   -36886   -36840   -36790 
  -36741   -36695   -36652   -36606   -36556   -36509   -36467   -36427 
  -36386   -36352   -36323   -36297   -36279   -36266   -36254   -36244 
  -36240   -36239   -36239   -36240   -36243   -36246   -36244   -36240 
  -36232   -36228   -36228   -36219   -36208   -36207   -36200   -36188 
  -36180   -36166   -36144   -36128   -36112   -36093   -36078   -36066 
  -36055   -36051   -36054   -36058   -36066   -36078   -36099   -36121 
  -36144   -36167   -36193   -36224   -36258   -36290   -36324   -36364 
  -36405   -36443   -36483   -36521   -36553   -36586   -36614   -36639 
  -36657   -36668   -36675   -36678   -36676   -36674   -36668   -36660 
  -36653   -36641   -36630   -36626   -36624   -36621   -36621   -36618 
  -36613   -36607   -36601   -36594   -36589   -36579   -36571   -36564 
  -36560   -36558   -36559   -36560   -36556   -36549   -36548   -36544 
  -36535   -36529   -36524   -36514   -36506   -36497   -36483   -36472 
  -36466   -36462   -36452   -36439   -36424   -36412   -36398   -36379 
  -36360   -36343   -36325   -36309   -36294   -36286   -36279   -36273 
  -36265   -36261   -36261   -36258   -36256   -36259   -36270   -36279 
  -36290   -36308   -36324   -36336   -36352   -36367   -36373   -36377 
  -36381   -36382   -36381   -36379   -36379   -36378   -36374   -36371 
  -36370   -36363   -36355   -36344   -36331   -36313   -36294   -36279 
  -36262   -36244   -36234   -36225   -36219   -36220   -36229   -36244 
  -36261   -36279   -36300   -36323   -36346   -36371   -36397   -36421 
  -36444   -36464   -36490   -36513   -36526   -36543   -36564   -36582 
  -36599   -36618   -36633   -36647   -36667   -36686   -36695   -36702 
  -36713   -36720   -36722   -36729   -36733   -36733   -36732   -36730 
  -36729   -36721   -36713   -36710   -36706   -36701   -36699   -36702 
  -36705   -36709   -36715   -36721   -36728   -36734   -36742   -36751 
  -36757   -36763   -36771   -36779   -36783   -36791   -36802   -36807 
  -36814   -36826   -36837   -36846   -36856   -36863   -36871   -36879 
  -36883   -36884   -36890   -36898   -36909   -36914   -36919   -36930 
  -36944   -36952   -36963   -36979   -36992   -37006   -37022   -37039 
  -37056   -37071   -37085   -37098   -37111   -37125   -37137   -37150 
  -37164   -37174   -37184   -37192   -37200   -37206   -37208   -37207 
  -37203   -37195   -37185   -37179   -37168   -37154   -37142   -37133 
  -37119   -37106   -37092   -37075   -37057   -37039   -37015   -36994 
  -36973   -36946   -36919   -36894   -36869   -36849   -36825   -36803 
  -36786   -36768   -36747   -36728   -36709   -36687   -36667   -36643 
  -36614   -36583   -36553   -36518   -36483   -36451   -36416   -36377 
  -36339   -36298   -36258   -36220   -36186   -36154   -36124   -36103 
  -36084   -36065   -36053   -36046   -36043   -36047   -36055   -36069 
  -36086   -36108   -36132   -36154   -36177   -36205   -36235   -36262 
  -36290   -36321   -36352   -36383   -36417   -36451   -36485   -36520 
  -36555   -36589   -36622   -36656   -36690   -36721   -36753   -36795 
  -36840   -36879   -36922   -36975   -37025   -37072   -37120   -37164 
  -37206   -37247   -37284   -37320   -37349   -37374   -37403   -37427 
  -37444   -37461   -37473   -37482   -37493   -37504   -37509   -37515 
  -37519   -37521   -37524   -37525   -37524   -37523   -37519   -37512 
  -37505   -37497   -37484   -37467   -37453   -37438   -37422   -37404 
  -37392   -37380   -37366   -37354   -37342   -37332   -37322   -37311 
  -37303   -37292   -37280   -37268   -37255   -37241   -37228   -37212 
  -37195   -37177   -37154   -37126   -37100   -37068   -37035   -37006 
  -36967   -36929   -36898   -36860   -36822   -36792   -36760   -36728 
  -36703   -36675   -36645   -36620   -36598   -36576   -36562   -36547 
  -36528   -36513   -36502   -36493   -36489   -36485   -36479   -36477 
  -36478   -36481   -36483   -36487   -36489   -36491   -36494   -36494 
  -36489   -36486   -36483   -36475   -36471   -36475   -36478   -36481 
  -36491   -36499   -36506   -36520   -36536   -36555   -36576   -36595 
  -36614   -36640   -36664   -36686   -36706   -36726   -36745   -36768 
  -36788   -36809   -36832   -36852   -36871   -36892   -36911   -36926 
  -36940   -36949   -36956   -36960   -36960   -36953   -36942   -36931 
  -36914   -36890   -36868   -36846   -36823   -36798   -36772   -36744 
  -36715   -36693   -36670   -36647   -36626   -36609   -36590   -36575 
  -36563   -36552   -36544   -36540   -36540   -36541   -36547   -36555 
  -36563   -36570   -36580   -36594   -36602   -36612   -36624   -36632 
  -36641   -36649   -36655   -36663   -36672   -36679   -36684   -36686 
  -36686   -36690   -36691   -36690   -36690   -36687   -36680   -36672 
  -36668   -36666   -36661   -36655   -36652   -36651   -36647   -36641 
  -36632   -36621   -36607   -36589   -36571   -36552   -36528   -36502 
  -36478   -36450   -36417   -36386   -36356   -36329   -36300   -36273 
  -36246   -36223   -36202   -36182   -36167   -36158   -36153   -36148 
  -36147   -36148   -36150   -36151   -36155   -36157   -36157   -36155 
  -36153   -36153   -36157   -36161   -36165   -36169   -36174   -36185 
  -36192   -36198   -36209   -36223   -36236   -36248   -36262   -36278 
  -36297   -36316   -36332   -36351   -36369   -36385   -36404   -36421 
  -36436   -36448   -36463   -36475   -36483   -36493   -36506   -36517 
  -36528   -36541   -36555   -36571   -36590   -36610   -36636   -36663 
  -36690   -36717   -36748   -36782   -36818   -36855   -36894   -36931 
  -36973   -37019   -37061   -37098   -37135   -37174   -37210   -37241 
  -37262   -37284   -37304   -37318   -37324   -37328   -37334   -37339 
  -37342   -37349   -37355   -37363   -37376   -37392   -37409   -37431 
  -37455   -37478   -37501   -37523   -37543   -37563   -37584   -37601 
  -37620   -37632   -37643   -37655   -37665   -37671   -37677   -37678 
  -37679   -37682   -37686   -37694   -37700   -37700   -37706   -37712 
  -37714   -37719   -37717   -37713   -37710   -37701   -37686   -37671 
  -37654   -37638   -37617   -37594   -37577   -37555   -37531   -37508 
  -37481   -37451   -37424   -37397   -37366   -37331   -37299   -37266 
  -37231   -37199   -37165   -37131   -37104   -37077   -37045   -37015 
  -36992   -36968   -36942   -36918   -36900   -36882   -36863   -36848 
  -36834   -36814   -36795   -36784   -36771   -36753   -36740   -36728 
  -36714   -36695   -36680   -36667   -36651   -36634   -36620   -36601 
  -36579   -36560   -36535   -36508   -36481   -36450   -36416   -36383 
  -36346   -36304   -36261   -36217   -36167   -36116   -36066   -36020 
  -35972   -35920   -35874   -35833   -35791   -35750   -35710   -35673 
  -35645   -35614   -35583   -35557   -35534   -35514   -35494   -35475 
  -35463   -35453   -35446   -35445   -35448   -35451   -35455   -35464 
  -35472   -35475   -35482   -35490   -35495   -35503   -35513   -35521 
  -35530   -35537   -35548   -35559   -35569   -35587   -35606   -35627 
  -35653   -35676   -35699   -35723   -35742   -35758   -35776   -35792 
  -35802   -35807   -35812   -35818   -35822   -35819   -35815   -35811 
  -35807   -35803   -35803   -35807   -35808   -35811   -35822   -35837 
  -35853   -35869   -35891   -35916   -35943   -35970   -35999   -36030 
  -36061   -36096   -36132   -36173   -36212   -36247   -36286   -36328 
  -36359   -36390   -36424   -36451   -36477   -36504   -36528   -36551 
  -36576   -36603   -36634   -36668   -36703   -36738   -36776   -36817 
  -36856   -36899   -36945   -36992   -37038   -37087   -37138   -37191 
  -37241   -37292   -37345   -37397   -37447   -37496   -37542   -37586 
  -37629   -37666   -37701   -37737   -37775   -37809   -37841   -37872 
  -37902   -37935   -37967   -37995   -38022   -38052   -38082   -38109 
  -38134   -38155   -38175   -38195   -38210   -38222   -38236   -38245 
  -38256   -38267   -38271   -38271   -38272   -38269   -38263   -38254 
  -38244   -38232   -38219   -38206   -38191   -38172   -38153   -38133 
  -38111   -38090   -38067   -38047   -38028   -38007   -37990   -37970 
  -37947   -37932   -37913   -37886   -37863   -37845   -37821   -37798 
  -37778   -37756   -37735   -37713   -37687   -37660   -37636   -37608 
  -37578   -37548   -37520   -37490   -37462   -37434   -37404   -37376 
  -37349   -37320   -37291   -37260   -37226   -37187   -37149   -37110 
  -37066   -37019   -36973   -36925   -36873   -36823   -36774   -36724 
  -36675   -36624   -36568   -36514   -36458   -36398   -36339   -36274 
  -36212   -36150   -36082   -36015   -35949   -35883   -35816   -35750 
  -35687   -35622   -35557   -35495   -35434   -35368   -35301   -35237 
  -35174   -35110   -35051   -34992   -34933   -34882   -34834   -34786 
  -34746   -34707   -34672   -34646   -34626   -34607   -34599   -34601 
  -34605   -34614   -34632   -34655   -34684   -34719   -34759   -34801 
  -34848   -34898   -34951   -35005   -35052   -35100   -35151   -35195 
  -35237   -35279   -35320   -35361   -35401   -35436   -35475   -35515 
  -35548   -35580   -35617   -35654   -35689   -35722   -35758   -35797 
  -35837   -35877   -35920   -35962   -36007   -36053   -36097   -36142 
  -36186   -36229   -36270   -36306   -36343   -36382   -36423   -36463 
  -36499   -36539   -36580   -36620   -36660   -36701   -36741   -36784 
  -36826   -36863   -36900   -36941   -36973   -37003   -37038   -37075 
  -37106   -37138   -37174   -37210   -37242   -37281   -37322   -37363 
  -37409   -37457   -37508   -37559   -37611   -37663   -37717   -37767 
  -37814   -37866   -37914   -37960   -38009   -38057   -38099   -38140 
  -38179   -38211   -38241   -38265   -38290   -38308   -38317   -38322 
  -38325   -38318   -38307   -38292   -38269   -38240   -38207   -38168 
  -38119   -38068   -38011   -37947   -37879   -37809   -37737   -37666 
  -37590   -37516   -37447   -37378   -37311   -37246   -37183   -37118 
  -37060   -37000   -36940   -36883   -36833   -36780   -36732   -36688 
  -36648   -36606   -36567   -36529   -36490   -36450   -36409   -36370 
  -36329   -36290   -36255   -36219   -36185   -36155   -36123   -36096 
  -36076   -36055   -36034   -36016   -36001   -35985   -35966   -35954 
  -35947   -35938   -35932   -35934   -35937   -35938   -35943   -35957 
  -35968   -35976   -35992   -36008   -36022   -36036   -36053   -36066 
  -36081   -36096   -36108   -36120   -36134   -36148   -36162   -36173 
  -36185   -36193   -36196   -36202   -36212   -36220   -36228   -36236 
  -36248   -36261   -36274   -36285   -36296   -36313   -36329   -36339 
  -36351   -36366   -36378   -36390   -36404   -36413   -36421   -36429 
  -36441   -36454   -36464   -36475   -36487   -36497   -36509   -36521 
  -36529   -36537   -36548   -36558   -36566   -36572   -36578   -36583 
  -36585   -36587   -36589   -36586   -36579   -36571   -36564   -36553 
  -36539   -36522   -36510   -36498   -36485   -36472   -36466   -36459 
  -36452   -36447   -36443   -36441   -36437   -36433   -36429   -36424 
  -36416   -36412   -36409   -36404   -36400   -36400   -36402   -36406 
  -36409   -36413   -36416   -36420   -36425   -36428   -36431   -36431 
  -36429   -36431   -36435   -36436   -36441   -36447   -36450   -36458 
  -36471   -36481   -36491   -36506   -36521   -36537   -36553   -36571 
  -36591   -36613   -36637   -36663   -36688   -36711   -36736   -36759 
  -36783   -36802   -36821   -36841   -36861   -36879   -36898   -36917 
  -36931   -36944   -36958   -36968   -36976   -36985   -36991   -36990 
  -36990   -36990   -36984   -36976   -36967   -36956   -36946   -36937 
  -36926   -36914   -36900   -36887   -36871   -36852   -36836   -36818 
  -36803   -36788   -36769   -36757   -36749   -36738   -36730   -36728 
  -36728   -36729   -36736   -36742   -36749   -36759   -36765   -36772 
  -36780   -36784   -36788   -36794   -36796   -36803   -36809   -36811 
  -36818   -36825   -36830   -36836   -36834   -36834   -36837   -36833 
  -36829   -36828   -36823   -36821   -36817   -36810   -36807   -36805 
  -36795   -36784   -36778   -36767   -36753   -36741   -36729   -36715 
  -36698   -36682   -36667   -36652   -36639   -36624   -36609   -36598 
  -36587   -36578   -36570   -36559   -36548   -36539   -36529   -36517 
  -36505   -36495   -36483   -36468   -36459   -36455   -36450   -36448 
  -36450   -36454   -36462   -36474   -36487   -36502   -36517   -36529 
  -36543   -36560   -36578   -36597   -36617   -36636   -36652   -36671 
  -36691   -36709   -36728   -36747   -36763   -36778   -36795   -36814 
  -36830   -36845   -36861   -36875   -36888   -36902   -36917   -36927 
  -36938   -36949   -36957   -36964   -36969   -36972   -36976   -36980 
  -36983   -36990   -36994   -36992   -36990   -36990   -36984   -36973 
  -36964   -36954   -36937   -36919   -36904   -36886   -36864   -36845 
  -36825   -36802   -36780   -36756   -36734   -36715   -36697   -36678 
  -36660   -36641   -36622   -36609   -36599   -36586   -36571   -36559 
  -36548   -36535   -36518   -36505   -36491   -36471   -36451   -36435 
  -36418   -36398   -36379   -36364   -36347   -36327   -36313   -36296 
  -36273   -36256   -36242   -36217   -36194   -36177   -36158   -36138 
  -36117   -36100   -36092   -36085   -36074   -36072   -36076   -36081 
  -36085   -36094   -36105   -36117   -36132   -36144   -36155   -36170 
  -36185   -36196   -36205   -36215   -36219   -36224   -36235   -36242 
  -36244   -36250   -36255   -36259   -36262   -36262   -36262   -36261 
  -36256   -36256   -36258   -36255   -36254   -36255   -36255   -36255 
  -36256   -36259   -36263   -36269   -36275   -36286   -36301   -36320 
  -36342   -36364   -36389   -36420   -36454   -36487   -36520   -36558 
  -36601   -36641   -36678   -36715   -36753   -36794   -36834   -36873 
  -36911   -36950   -36990   -37026   -37061   -37093   -37120   -37147 
  -37173   -37192   -37211   -37228   -37237   -37241   -37247   -37247 
  -37246   -37246   -37242   -37233   -37230   -37227   -37222   -37216 
  -37210   -37207   -37206   -37200   -37196   -37196   -37193   -37188 
  -37185   -37184   -37181   -37176   -37173   -37170   -37165   -37164 
  -37162   -37158   -37157   -37160   -37164   -37168   -37173   -37177 
  -37181   -37185   -37187   -37187   -37187   -37187   -37181   -37173 
  -37168   -37165   -37160   -37146   -37134   -37125   -37108   -37091 
  -37075   -37053   -37026   -37002   -36976   -36946   -36918   -36888 
  -36856   -36821   -36790   -36757   -36722   -36691   -36657   -36625 
  -36597   -36564   -36532   -36505   -36479   -36451   -36423   -36398 
  -36375   -36354   -36332   -36313   -36293   -36273   -36255   -36239 
