Origin Time       2025/01/13 21:19:00
Lat.              31.8
Long.             131.6
Depth. (km)       30
Mag.              6.9
Station Code      NGSH05
Station Lat.      32.9103
Station Long.     130.1408
Station Height(m) 29
Record Time       2025/01/13 21:20:02
Sampling Freq(Hz) 100Hz
Duration Time(s)  224
Dir.              4
Scale Factor      7845(gal)/8223790
Max. Acc. (gal)   2.577
Last Correction   2025/01/13 21:20:03
Memo.             
[...]
  -17176   -17199   -17269   -17383   -17525   -17680   -17825   -17930 
  -17986   -17992   -17959   -17902   -17832   -17747   -17643   -17520 
  -17390   -17289   -17234   -17240   -17325   -17489   -17703   -17909 
  -18045   -18106   -18112   -18084   -18041   -17980   -17895   -17829 
  -17830   -17906   -18027   -18148   -18202   -18152   -18003   -17788 
  -17560   -17404   -17388   -17516   -17744   -18009   -18254   -18431 
  -18522   -18538   -18507   -18447   -18373   -18268   -18125   -17969 
  -17832   -17733   -17668   -17616   -17543   -17423   -17255   -17085 
  -16977   -16985   -17115   -17324   -17554   -17755   -17892   -17964 
  -17973   -17918   -17811   -17658   -17454   -17232   -17047   -16943 
  -16947   -17064   -17281   -17567   -17871   -18129   -18274   -18296 
  -18216   -18046   -17799   -17512   -17250   -17077   -17035   -17120 
  -17290   -17475   -17609   -17640   -17562   -17427   -17292   -17215 
  -17231   -17320   -17433   -17535   -17599   -17606   -17562   -17501 
  -17475   -17535   -17701   -17934   -18172   -18361   -18481   -18532 
  -18546   -18565   -18636   -18798   -19037   -19283   -19461   -19527 
  -19454   -19265   -19021   -18782   -18601   -18520   -18536   -18588 
  -18607   -18569   -18484   -18387   -18320   -18283   -18245   -18192 
  -18107   -17982   -17837   -17706   -17594   -17505   -17425   -17313 
  -17146   -16927   -16683   -16467   -16345   -16364   -16532   -16781 
  -17015   -17166   -17213   -17166   -17055   -16915   -16798   -16733 
  -16717   -16744   -16800   -16869   -16966   -17132   -17383   -17694 
  -18017   -18288   -18434   -18426   -18279   -18042   -17783   -17563 
  -17427   -17388   -17428   -17524   -17639   -17706   -17667   -17513 
  -17285   -17065   -16949   -16997   -17217   -17583   -18007   -18360 
  -18566   -18586   -18411   -18103   -17749   -17424   -17186   -17051 
  -16997   -17004   -17065   -17169   -17297   -17447   -17625   -17818 
  -17995   -18123   -18179   -18152   -18084   -18036   -18034   -18087 
  -18177   -18256   -18285   -18249   -18149   -18019   -17901   -17795 
  -17697   -17598   -17490   -17367   -17242   -17126   -17020   -16938 
  -16870   -16798   -16726   -16688   -16710   -16796   -16933   -17086 
  -17205   -17271   -17294   -17282   -17251   -17226   -17203   -17167 
  -17108   -17027   -16933   -16858   -16835   -16860   -16920   -17022 
  -17153   -17309   -17500   -17721   -17957   -18192   -18412   -18615 
  -18805   -18983   -19129   -19214   -19219   -19137   -18995   -18846 
  -18728   -18647   -18600   -18558   -18473   -18319   -18117   -17907 
  -17739   -17648   -17647   -17725   -17857   -18025   -18206   -18373 
  -18513   -18605   -18624   -18566   -18458   -18320   -18171   -18031 
  -17898   -17761   -17636   -17541   -17509   -17543   -17606   -17656 
  -17644   -17537   -17351   -17127   -16915   -16764   -16702   -16741 
  -16868   -17047   -17235   -17405   -17525   -17579   -17556   -17467 
  -17343   -17221   -17116   -17068   -17113   -17228   -17370   -17523 
  -17660   -17751   -17809   -17872   -17959   -18075   -18216   -18347 
  -18439   -18478   -18454   -18380   -18295   -18239   -18222   -18241 
  -18293   -18343   -18347   -18299   -18225   -18165   -18156   -18191 
  -18265   -18368   -18445   -18450   -18382   -18254   -18092   -17921 
  -17774   -17702   -17718   -17809   -17957   -18141   -18307   -18416 
  -18463   -18450   -18378   -18266   -18141   -18026   -17925   -17829 
  -17745   -17678   -17606   -17508   -17373   -17203   -17020   -16861 
  -16756   -16713   -16719   -16748   -16753   -16707   -16615   -16509 
  -16421   -16384   -16418   -16515   -16663   -16853   -17028   -17140 
  -17188   -17180   -17130   -17084   -17072   -17103   -17194   -17351 
  -17545   -17748   -17941   -18110   -18245   -18345   -18412   -18445 
  -18469   -18507   -18524   -18500   -18450   -18387   -18327   -18287 
  -18266   -18265   -18276   -18287   -18283   -18253   -18195   -18115 
  -18030   -17950   -17874   -17813   -17779   -17760   -17734   -17710 
  -17714   -17766   -17875   -18041   -18245   -18431   -18535   -18512 
  -18343   -18057   -17725   -17416   -17188   -17073   -17068   -17165 
  -17370   -17652   -17933   -18135   -18222   -18175   -18023   -17844 
  -17721   -17701   -17768   -17887   -18002   -18065   -18079   -18052 
  -17996   -17930   -17855   -17771   -17697   -17635   -17574   -17520 
  -17489   -17496   -17548   -17656   -17807   -17961   -18071   -18098 
  -18026   -17878   -17699   -17528   -17390   -17315   -17324   -17425 
  -17587   -17767   -17953   -18137   -18301   -18445   -18563   -18648 
  -18688   -18678   -18642   -18596   -18553   -18507   -18434   -18306 
  -18119   -17911   -17724   -17595   -17560   -17618   -17732   -17855 
  -17938   -17960   -17934   -17875   -17799   -17737   -17706   -17693 
  -17670   -17616   -17512   -17352   -17158   -16964   -16796   -16676 
  -16618   -16614   -16649   -16721   -16823   -16947   -17066   -17143 
  -17146   -17070   -16960   -16861   -16812   -16849   -16977   -17194 
  -17487   -17815   -18131   -18400   -18590   -18697   -18719   -18654 
  -18524   -18361   -18202   -18079   -18011   -18013   -18077   -18181 
  -18310   -18454   -18598   -18717   -18794   -18802   -18720   -18557 
  -18349   -18148   -18000   -17930   -17929   -17969   -18023   -18063 
  -18053   -17975   -17830   -17629   -17378   -17122   -16899   -16742 
  -16684   -16735   -16876   -17081   -17297   -17463   -17539   -17512 
  -17390   -17217   -17049   -16915   -16839   -16852   -16954   -17122 
  -17346   -17614   -17892   -18158   -18385   -18547   -18634   -18651 
  -18624   -18566   -18496   -18422   -18338   -18252   -18168   -18064 
  -17921   -17749   -17551   -17329   -17111   -16929   -16800   -16744 
  -16768   -16866   -17027   -17236   -17462   -17649   -17768   -17821 
  -17814   -17770   -17737   -17744   -17797   -17901   -18030   -18144 
  -18229   -18284   -18310   -18335   -18378   -18428   -18473   -18493 
  -18454   -18342   -18179   -17991   -17795   -17621   -17506   -17447 
  -17431   -17447   -17466   -17451   -17396   -17292   -17154   -17022 
  -16915   -16827   -16761   -16719   -16691   -16664   -16646   -16650 
  -16686   -16757   -16852   -16935   -16985   -17004   -16999   -16984 
  -16974   -16980   -16995   -17011   -17026   -17026   -17010   -16995 
  -16983   -16965   -16942   -16912   -16877   -16856   -16887   -16987 
  -17142   -17329   -17509   -17649   -17767   -17896   -18045   -18218 
  -18415   -18612   -18777   -18862   -18832   -18684   -18434   -18121 
  -17806   -17551   -17400   -17378   -17490   -17706   -17967   -18211 
  -18385   -18455   -18431   -18347   -18238   -18137   -18079   -18056 
  -18034   -18006   -17959   -17875   -17763   -17632   -17494   -17367 
  -17254   -17131   -16995   -16860   -16761   -16725   -16764   -16888 
  -17080   -17308   -17544   -17753   -17905   -17987   -17998   -17933 
  -17806   -17649   -17505   -17402   -17361   -17375   -17408   -17419 
  -17405   -17378   -17370   -17423   -17554   -17739   -17945   -18117 
  -18191   -18169   -18080   -17959   -17855   -17797   -17774   -17766 
  -17759   -17726   -17640   -17509   -17351   -17172   -17000   -16892 
  -16885   -17012   -17296   -17702   -18148   -18553   -18856   -19002 
  -18987   -18860   -18671   -18472   -18318   -18239   -18246   -18343 
  -18500   -18655   -18755   -18758   -18630   -18364   -18018   -17672 
  -17400   -17267   -17302   -17491   -17809   -18198   -18582   -18916 
  -19161   -19267   -19214   -19035   -18766   -18451   -18145   -17884 
  -17686   -17548   -17460   -17423   -17437   -17489   -17555   -17631 
  -17710   -17778   -17832   -17887   -17946   -18010   -18087   -18184 
  -18284   -18373   -18449   -18500   -18503   -18451   -18361   -18230 
  -18067   -17921   -17811   -17724   -17663   -17648   -17682   -17743 
  -17784   -17783   -17744   -17682   -17620   -17593   -17628   -17725 
  -17855   -17976   -18056   -18068   -18023   -17932   -17793   -17626 
  -17482   -17400   -17401   -17491   -17649   -17833   -18000   -18130 
  -18223   -18307   -18407   -18538   -18708   -18905   -19110   -19291 
  -19419   -19479   -19462   -19386   -19275   -19147   -19006   -18856 
  -18693   -18507   -18304   -18094   -17886   -17695   -17536   -17415 
  -17338   -17297   -17285   -17293   -17316   -17340   -17358   -17359 
  -17313   -17197   -17016   -16788   -16538   -16305   -16124   -16016 
  -16001   -16085   -16248   -16452   -16650   -16803   -16900   -16958 
  -17004   -17077   -17199   -17362   -17563   -17776   -17964   -18099 
  -18166   -18164   -18114   -18061   -18045   -18090   -18208   -18389 
  -18596   -18797   -18981   -19128   -19222   -19249   -19198   -19071 
  -18882   -18634   -18345   -18040   -17733   -17437   -17170   -16943 
  -16767   -16664   -16636   -16657   -16713   -16769   -16796   -16803 
  -16821   -16842   -16869   -16915   -16962   -16987   -16989   -16980 
  -16965   -16946   -16923   -16883   -16826   -16784   -16777   -16814 
  -16906   -17042   -17196   -17351   -17478   -17544   -17545   -17500 
  -17428   -17354   -17308   -17312   -17352   -17424   -17516   -17595 
  -17644   -17668   -17672   -17674   -17698   -17751   -17836   -17959 
  -18110   -18273   -18434   -18571   -18650   -18658   -18603   -18486 
  -18342   -18218   -18129   -18053   -17975   -17886   -17776   -17647 
  -17509   -17374   -17250   -17140   -17051   -16978   -16942   -16981 
  -17099   -17258   -17420   -17536   -17575   -17533   -17421   -17265 
  -17116   -17016   -16981   -17014   -17097   -17196   -17289   -17363 
  -17402   -17409   -17396   -17373   -17338   -17294   -17254   -17215 
  -17192   -17207   -17259   -17354   -17482   -17626   -17771   -17909 
  -18030   -18126   -18191   -18227   -18238   -18226   -18207   -18196 
  -18206   -18245   -18304   -18368   -18419   -18441   -18416   -18350 
  -18269   -18193   -18135   -18111   -18125   -18154   -18192   -18243 
  -18296   -18328   -18337   -18330   -18328   -18360   -18439   -18557 
  -18700   -18858   -19010   -19137   -19228   -19271   -19259   -19192 
  -19087   -18959   -18829   -18705   -18578   -18432   -18268   -18092 
  -17917   -17770   -17668   -17620   -17621   -17672   -17766   -17886 
  -18025   -18173   -18297   -18369   -18370   -18284   -18129   -17945 
  -17760   -17597   -17473   -17382   -17311   -17250   -17201   -17153 
  -17092   -17034   -16969   -16887   -16814   -16773   -16772   -16831 
  -16956   -17146   -17396   -17658   -17865   -17980   -17987   -17887 
  -17716   -17544   -17428   -17392   -17458   -17622   -17845   -18090 
  -18308   -18438   -18441   -18328   -18145   -17936   -17752   -17647 
  -17644   -17736   -17905   -18108   -18289   -18403   -18412   -18296 
  -18060   -17725   -17352   -17038   -16842   -16776   -16838   -17007 
  -17226   -17429   -17562   -17575   -17458   -17228   -16934   -16634 
  -16387   -16243   -16221   -16295   -16417   -16524   -16557   -16495 
  -16343   -16127   -15896   -15700   -15570   -15526   -15581   -15724 
  -15940   -16217   -16528   -16834   -17126   -17402   -17647   -17852 
  -18019   -18135   -18192   -18192   -18152   -18106   -18091   -18125 
  -18206   -18333   -18493   -18669   -18839   -18990   -19110   -19188 
  -19232   -19244   -19214   -19153   -19087   -19033   -19017   -19063 
  -19157   -19276   -19399   -19492   -19518   -19453   -19305   -19091 
  -18848   -18600   -18369   -18176   -18045   -17996   -18033   -18135 
  -18279   -18416   -18513   -18555   -18550   -18507   -18442   -18364 
  -18266   -18141   -17979   -17780   -17556   -17358   -17224   -17159 
  -17163   -17239   -17369   -17551   -17799   -18100   -18432   -18766 
  -19045   -19217   -19263   -19180   -18985   -18729   -18459   -18200 
  -17984   -17830   -17722   -17645   -17582   -17506   -17398   -17259 
  -17101   -16935   -16787   -16683   -16634   -16646   -16719   -16837 
  -16980   -17140   -17301   -17439   -17545   -17606   -17609   -17559 
  -17470   -17352   -17217   -17088   -16989   -16933   -16933   -16995 
  -17103   -17230   -17351   -17448   -17506   -17520   -17494   -17443 
  -17373   -17294   -17232   -17201   -17216   -17284   -17383   -17486 
  -17564   -17597   -17585   -17536   -17452   -17344   -17221   -17085 
  -16957   -16879   -16881   -16972   -17139   -17343   -17543   -17720 
  -17861   -17964   -18037   -18094   -18133   -18166   -18227   -18315 
  -18419   -18544   -18679   -18786   -18852   -18868   -18823   -18742 
  -18662   -18617   -18635   -18725   -18854   -18967   -19026   -18991 
  -18835   -18577   -18257   -17913   -17594   -17361   -17242   -17253 
  -17379   -17570   -17757   -17896   -17960   -17944   -17872   -17782 
  -17701   -17660   -17671   -17724   -17795   -17860   -17895   -17876 
  -17799   -17666   -17500   -17331   -17182   -17057   -16947   -16854 
  -16776   -16708   -16652   -16602   -16555   -16505   -16467   -16456 
  -16479   -16548   -16676   -16845   -17016   -17174   -17312   -17440 
  -17579   -17739   -17923   -18121   -18315   -18490   -18619   -18692 
  -18729   -18750   -18763   -18786   -18808   -18817   -18821   -18827 
  -18833   -18854   -18875   -18883   -18859   -18785   -18647   -18445 
  -18193   -17910   -17616   -17323   -17032   -16746   -16475   -16214 
  -15973   -15769   -15599   -15448   -15317   -15214   -15147   -15124 
  -15161   -15245   -15337   -15406   -15425   -15384   -15303   -15210 
  -15124   -15061   -15047   -15090   -15180   -15321   -15507   -15714 
  -15915   -16109   -16285   -16436   -16588   -16772   -17003   -17294 
  -17652   -18050   -18463   -18868   -19249   -19593   -19893   -20133 
  -20294   -20355   -20314   -20204   -20074   -19970   -19931   -19971 
  -20070   -20175   -20233   -20210   -20105   -19926   -19684   -19387 
  -19059   -18729   -18432   -18206   -18081   -18081   -18176   -18296 
  -18387   -18407   -18338   -18212   -18076   -17942   -17845   -17830 
  -17888   -17996   -18146   -18326   -18500   -18642   -18733   -18751 
  -18685   -18547   -18351   -18114   -17863   -17622   -17415   -17248 
  -17139   -17100   -17143   -17258   -17424   -17609   -17775   -17888 
  -17929   -17891   -17798   -17703   -17633   -17591   -17593   -17639 
  -17714   -17810   -17919   -18022   -18103   -18156   -18179   -18183 
  -18184   -18193   -18208   -18218   -18219   -18199   -18150   -18077 
  -17998   -17938   -17910   -17905   -17917   -17933   -17945   -17949 
  -17934   -17907   -17887   -17874   -17874   -17911   -17995   -18099 
  -18196   -18265   -18288   -18247   -18145   -17984   -17790   -17597 
  -17440   -17359   -17388   -17529   -17752   -18017   -18262   -18414 
  -18419   -18269   -17984   -17612   -17216   -16865   -16609   -16456 
  -16402   -16417   -16448   -16456   -16432   -16374   -16298   -16240 
  -16236   -16299   -16441   -16649   -16869   -17072   -17248   -17362 
  -17409   -17431   -17439   -17446   -17490   -17570   -17666   -17794 
  -17955   -18138   -18345   -18576   -18814   -19043   -19241   -19402 
  -19518   -19593   -19631   -19635   -19611   -19553   -19449   -19302 
  -19122   -18913   -18682   -18450   -18239   -18063   -17940   -17896 
  -17937   -18053   -18216   -18389   -18530   -18613   -18627   -18565 
  -18441   -18283   -18108   -17926   -17759   -17624   -17531   -17494 
  -17531   -17621   -17732   -17818   -17828   -17725   -17516   -17235 
  -16927   -16652   -16455   -16367   -16395   -16519   -16684   -16834 
  -16922   -16900   -16761   -16545   -16316   -16135   -16075   -16166 
  -16394   -16740   -17163   -17617   -18054   -18430   -18701   -18841 
  -18844   -18731   -18527   -18287   -18085   -17977   -18009   -18200 
  -18532   -18952   -19395   -19795   -20100   -20285   -20351   -20322 
  -20243   -20148   -20071   -20038   -20042   -20046   -20020   -19936 
  -19772   -19535   -19249   -18936   -18625   -18339   -18092   -17898 
  -17768   -17716   -17734   -17809   -17918   -18030   -18114   -18144 
  -18103   -17976   -17774   -17512   -17215   -16918   -16646   -16414 
  -16225   -16070   -15934   -15804   -15672   -15550   -15476   -15496 
  -15657   -15967   -16407   -16923   -17439   -17869   -18152   -18243 
  -18144   -17887   -17540   -17189   -16903   -16737   -16711   -16814 
  -17020   -17293   -17568   -17806   -17991   -18096   -18123   -18103 
  -18069   -18056   -18098   -18200   -18339   -18480   -18596   -18654 
  -18640   -18569   -18445   -18270   -18080   -17914   -17795   -17745 
  -17776   -17871   -17995   -18122   -18241   -18342   -18427   -18509 
  -18585   -18632   -18632   -18570   -18428   -18220   -17980   -17734 
  -17520   -17356   -17236   -17149   -17086   -17030   -16965   -16892 
  -16806   -16710   -16622   -16559   -16519   -16510   -16541   -16592 
  -16632   -16644   -16637   -16626   -16627   -16648   -16673   -16675 
  -16636   -16557   -16436   -16279   -16116   -15978   -15905   -15934 
  -16071   -16308   -16614   -16935   -17213   -17415   -17521   -17531 
  -17475   -17397   -17324   -17271   -17251   -17267   -17308   -17359 
  -17406   -17440   -17466   -17489   -17512   -17527   -17528   -17509 
  -17469   -17415   -17367   -17339   -17328   -17327   -17321   -17297 
  -17247   -17170   -17085   -17016   -16978   -16976   -17008   -17072 
  -17145   -17215   -17267   -17284   -17265   -17220   -17169   -17146 
  -17184   -17285   -17431   -17604   -17782   -17941   -18073   -18187 
  -18300   -18424   -18566   -18725   -18885   -19013   -19093   -19111 
  -19070   -18983   -18874   -18760   -18655   -18573   -18523   -18507 
  -18507   -18509   -18503   -18478   -18432   -18368   -18288   -18215 
  -18165   -18138   -18121   -18090   -18026   -17911   -17770   -17643 
  -17574   -17587   -17691   -17857   -18029   -18157   -18210   -18160 
  -18007   -17778   -17506   -17239   -17035   -16945   -16989   -17170 
  -17456   -17776   -18057   -18254   -18331   -18274   -18115   -17888 
  -17644   -17439   -17316   -17292   -17359   -17485   -17621   -17712 
  -17728   -17670   -17560   -17435   -17335   -17281   -17274   -17320 
  -17409   -17514   -17617   -17695   -17734   -17739   -17716   -17663 
  -17597   -17532   -17470   -17416   -17390   -17420   -17517   -17680 
  -17879   -18058   -18185   -18243   -18229   -18157   -18065   -17977 
  -17909   -17864   -17860   -17896   -17967   -18061   -18150   -18203 
  -18208   -18162   -18068   -17953   -17853   -17783   -17753   -17770 
  -17817   -17884   -17975   -18081   -18189   -18306   -18446   -18607 
  -18781   -18964   -19136   -19251   -19287   -19251   -19152   -19016 
  -18870   -18731   -18607   -18499   -18399   -18306   -18231   -18185 
  -18179   -18210   -18266   -18335   -18396   -18438   -18453   -18447 
  -18430   -18407   -18385   -18351   -18293   -18202   -18085   -17960 
  -17841   -17740   -17667   -17629   -17632   -17668   -17725   -17779 
  -17799   -17767   -17675   -17536   -17383   -17255   -17188   -17193 
  -17253   -17339   -17413   -17447   -17432   -17370   -17277   -17170 
  -17069   -16993   -16950   -16943   -16981   -17058   -17155   -17258 
  -17358   -17440   -17496   -17513   -17482   -17423   -17363   -17325 
  -17334   -17402   -17510   -17625   -17712   -17745   -17710   -17606 
  -17451   -17275   -17116   -17022   -17019   -17116   -17307   -17568 
