Origin Time       2025/01/13 21:19:00
Lat.              31.8
Long.             131.6
Depth. (km)       30
Mag.              6.9
Station Code      NGSH05
Station Lat.      32.9103
Station Long.     130.1408
Station Height(m) 29
Record Time       2025/01/13 21:20:02
Sampling Freq(Hz) 100Hz
Duration Time(s)  224
Dir.              5
Scale Factor      7845(gal)/8223790
Max. Acc. (gal)   2.600
Last Correction   2025/01/13 21:20:03
Memo.             
[...]
    4320     4446     4523     4557     4558     4556     4585     4644 
    4696     4710     4648     4513     4351     4189     4052     3971 
    3943     3943     3939     3905     3838     3766     3735     3766 
    3854     3960     4028     4014     3913     3766     3642     3591 
    3643     3811     4058     4330     4565     4720     4815     4888 
    4985     5150     5383     5632     5841     5973     6010     5954 
    5823     5636     5414     5205     5042     4932     4873     4846 
    4838     4843     4855     4869     4881     4881     4873     4870 
    4855     4810     4734     4657     4600     4584     4608     4652 
    4673     4619     4457     4202     3910     3642     3451     3385 
    3454     3646     3923     4221     4471     4637     4719     4731 
    4695     4629     4541     4444     4336     4210     4074     3940 
    3831     3761     3727     3730     3762     3811     3869     3931 
    3994     4056     4109     4143     4152     4133     4097     4055 
    4008     3960     3923     3900     3889     3871     3823     3761 
    3742     3804     3956     4163     4379     4568     4699     4753 
    4741     4693     4653     4657     4730     4870     5047     5216 
    5355     5474     5583     5674     5702     5634     5475     5250 
    4995     4773     4652     4676     4862     5166     5489     5726 
    5827     5795     5672     5514     5343     5148     4934     4718 
    4529     4392     4305     4257     4264     4338     4455     4546 
    4544     4410     4149     3781     3348     2932     2631     2521 
    2600     2787     2992     3150     3230     3233     3190     3130 
    3063     3002     2988     3056     3204     3414     3658     3917 
    4179     4423     4619     4741     4799     4837     4889     4954 
    5030     5097     5132     5169     5232     5274     5265     5192 
    5049     4858     4649     4440     4248     4097     4016     4043 
    4170     4334     4477     4571     4603     4583     4513     4374 
    4199     4032     3875     3736     3628     3557     3531     3559 
    3682     3906     4175     4456     4726     4935     5054     5058 
    4947     4780     4615     4490     4423     4401     4396     4410 
    4428     4418     4383     4359     4375     4445     4567     4691 
    4785     4872     4963     5063     5175     5300     5433     5564 
    5661     5698     5653     5522     5324     5098     4895     4757 
    4720     4785     4916     5057     5143     5127     5000     4773 
    4491     4214     3991     3859     3832     3886     3986     4097 
    4178     4195     4152     4087     4037     4014     4020     4041 
    4089     4187     4330     4495     4658     4788     4858     4862 
    4791     4645     4457     4290     4199     4207     4287     4390 
    4486     4560     4594     4588     4571     4549     4522     4482 
    4418     4342     4274     4247     4288     4387     4499     4602 
    4683     4727     4718     4666     4592     4507     4441     4426 
    4477     4596     4756     4919     5046     5093     5061     4989 
    4895     4779     4668     4581     4548     4590     4703     4857 
    5026     5177     5297     5373     5409     5420     5409     5371 
    5301     5201     5082     4954     4831     4729     4641     4545 
    4423     4274     4105     3936     3782     3646     3534     3441 
    3338     3215     3094     2994     2956     3018     3186     3418 
    3657     3851     3993     4117     4249     4395     4542     4672 
    4753     4753     4661     4495     4298     4117     3983     3909 
    3913     4002     4144     4309     4488     4679     4876     5078 
    5255     5358     5356     5269     5116     4911     4689     4517 
    4444     4477     4594     4749     4895     5007     5086     5138 
    5157     5128     5043     4919     4764     4569     4351     4148 
    4017     3985     4031     4117     4209     4272     4280     4229 
    4144     4060     4017     4041     4117     4210     4287     4309 
    4253     4132     3971     3808     3672     3576     3512     3487 
    3516     3608     3754     3933     4121     4313     4496     4649 
    4750     4779     4734     4642     4519     4383     4267     4212 
    4251     4359     4465     4525     4540     4518     4479     4429 
    4372     4341     4376     4473     4600     4726     4828     4882 
    4881     4839     4770     4689     4599     4487     4352     4218 
    4113     4045     4031     4091     4209     4352     4490     4598 
    4652     4657     4626     4564     4476     4365     4240     4101 
    3951     3802     3674     3596     3584     3611     3622     3584 
    3497     3373     3240     3140     3111     3169     3292     3426 
    3522     3559     3538     3476     3399     3330     3291     3288 
    3308     3331     3341     3339     3365     3451     3619     3871 
    4182     4514     4822     5039     5117     5051     4880     4676 
    4513     4426     4418     4483     4610     4769     4923     5055 
    5181     5319     5459     5566     5601     5541     5406     5232 
    5058     4923     4850     4842     4888     4977     5097     5223 
    5323     5383     5416     5439     5459     5470     5456     5412 
    5340     5240     5096     4912     4704     4487     4280     4105 
    3967     3883     3862     3877     3919     3969     4006     4036 
    4071     4110     4149     4178     4186     4185     4180     4163 
    4136     4118     4129     4180     4252     4329     4425     4548 
    4684     4822     4942     5036     5103     5132     5124     5085 
    5011     4905     4789     4689     4641     4664     4737     4823 
    4899     4946     4969     4981     4992     5012     5046     5071 
    5054     4973     4833     4648     4433     4205     3982     3798 
    3680     3636     3659     3731     3823     3905     3977     4045 
    4116     4213     4359     4542     4739     4927     5076     5169 
    5211     5204     5152     5076     4993     4924     4882     4881 
    4934     5047     5204     5360     5460     5460     5336     5088 
    4749     4371     4006     3696     3472     3356     3343     3412 
    3524     3654     3790     3916     4005     4044     4013     3921 
    3801     3694     3636     3646     3721     3851     4017     4193 
    4351     4476     4560     4604     4617     4596     4564     4540 
    4527     4526     4523     4503     4464     4409     4329     4239 
    4155     4078     4002     3924     3844     3788     3773     3796 
    3847     3900     3909     3858     3744     3604     3496     3433 
    3408     3426     3461     3492     3528     3588     3694     3867 
    4101     4376     4665     4934     5162     5324     5398     5395 
    5346     5265     5178     5098     5007     4900     4788     4684 
    4607     4577     4591     4633     4681     4725     4766     4804 
    4841     4888     4939     4981     5007     5003     4969     4934 
    4935     4990     5100     5248     5416     5583     5737     5853 
    5922     5961     5994     6027     6056     6054     6000     5888 
    5722     5514     5282     5071     4934     4885     4891     4908 
    4897     4843     4752     4641     4523     4405     4279     4139 
    3966     3754     3503     3241     3007     2833     2747     2767 
    2875     3036     3215     3380     3514     3619     3690     3723 
    3742     3765     3780     3751     3655     3496     3299     3098 
    2910     2756     2664     2643     2679     2762     2859     2957 
    3068     3198     3343     3523     3748     3998     4244     4464 
    4649     4796     4901     4961     4972     4950     4911     4851 
    4785     4729     4696     4711     4789     4924     5093     5252 
    5362     5394     5327     5144     4865     4542     4228     3959 
    3769     3680     3700     3825     4037     4310     4606     4892 
    5139     5305     5370     5358     5296     5209     5117     5019 
    4918     4835     4766     4699     4617     4521     4413     4306 
    4225     4179     4159     4170     4197     4218     4217     4171 
    4086     3987     3892     3824     3793     3785     3794     3823 
    3866     3916     3970     4033     4112     4199     4271     4313 
    4320     4290     4228     4162     4145     4218     4387     4625 
    4884     5115     5310     5490     5648     5761     5809     5776 
    5674     5512     5308     5105     4945     4853     4841     4889 
    4961     5034     5096     5138     5152     5131     5070     4962 
    4808     4611     4387     4164     3970     3815     3705     3639 
    3604     3597     3604     3599     3576     3546     3528     3545 
    3595     3667     3757     3855     3958     4058     4153     4266 
    4402     4552     4692     4803     4865     4885     4872     4830 
    4772     4702     4622     4536     4438     4330     4222     4124 
    4037     3962     3904     3865     3846     3840     3843     3848 
    3851     3848     3850     3851     3840     3823     3813     3820 
    3852     3909     3967     4004     4002     3952     3855     3735 
    3628     3558     3539     3578     3677     3832     4023     4220 
    4395     4515     4568     4561     4511     4445     4392     4367 
    4384     4441     4510     4557     4563     4515     4422     4306 
    4168     4020     3896     3807     3753     3735     3744     3762 
    3754     3684     3562     3433     3353     3384     3541     3792 
    4087     4376     4627     4835     5001     5127     5224     5304 
    5350     5339     5265     5139     4995     4878     4819     4831 
    4900     4984     5044     5069     5042     4962     4849     4726 
    4619     4538     4487     4459     4444     4437     4434     4425 
    4409     4401     4410     4423     4425     4399     4328     4217 
    4093     3966     3851     3765     3712     3693     3701     3728 
    3771     3835     3923     4020     4099     4140     4153     4147 
    4125     4110     4124     4187     4317     4510     4746     4978 
    5171     5302     5348     5292     5139     4926     4703     4514 
    4398     4378     4455     4617     4835     5071     5278     5420 
    5486     5470     5383     5243     5065     4882     4726     4599 
    4499     4406     4313     4234     4189     4191     4244     4337 
    4459     4585     4681     4723     4704     4652     4611     4611 
    4650     4722     4807     4892     4986     5080     5148     5182 
    5178     5136     5053     4914     4714     4472     4221     4006 
    3877     3867     3977     4180     4429     4664     4841     4935 
    4946     4888     4780     4634     4472     4313     4162     4029 
    3944     3929     4005     4174     4392     4598     4735     4784 
    4761     4684     4577     4472     4380     4306     4247     4197 
    4162     4147     4166     4212     4272     4344     4422     4500 
    4560     4579     4564     4536     4514     4514     4531     4560 
    4592     4641     4715     4818     4939     5065     5181     5273 
    5340     5390     5418     5417     5387     5324     5221     5086 
    4936     4785     4645     4526     4434     4376     4357     4371 
    4413     4467     4509     4517     4477     4380     4228     4040 
    3865     3744     3713     3780     3923     4120     4351     4588 
    4787     4897     4909     4837     4699     4523     4338     4167 
    4039     3974     3970     4028     4131     4248     4351     4413 
    4423     4402     4374     4345     4329     4337     4372     4436 
    4514     4588     4662     4745     4833     4911     4947     4922 
    4839     4727     4615     4527     4484     4509     4611     4796 
    5036     5282     5489     5632     5701     5692     5611     5490 
    5373     5289     5269     5324     5427     5536     5602     5593 
    5503     5329     5076     4770     4437     4108     3820     3597 
    3453     3389     3392     3437     3493     3530     3522     3462 
    3354     3222     3102     3021     2990     3003     3049     3119 
    3200     3285     3376     3476     3582     3704     3840     3990 
    4158     4332     4499     4642     4720     4711     4614     4450 
    4260     4074     3912     3790     3711     3678     3697     3762 
    3870     4004     4132     4214     4203     4086     3886     3638 
    3381     3172     3049     3026     3098     3237     3411     3586 
    3727     3816     3870     3913     3962     4020     4077     4122 
    4139     4116     4070     4020     3996     4024     4116     4261 
    4422     4558     4650     4699     4725     4741     4747     4746 
    4733     4692     4615     4519     4426     4356     4337     4371 
    4436     4531     4648     4752     4846     4947     5069     5219 
    5375     5514     5611     5656     5656     5643     5633     5649 
    5705     5782     5856     5907     5910     5863     5800     5769 
    5784     5836     5902     5945     5927     5833     5664     5454 
    5255     5111     5049     5066     5132     5228     5347     5485 
    5630     5768     5881     5958     5992     5998     5980     5944 
    5904     5879     5863     5852     5837     5806     5756     5688 
    5587     5428     5197     4896     4537     4144     3748     3377 
    3053     2789     2581     2416     2280     2149     2015     1887 
    1769     1699     1701     1755     1833     1923     2006     2076 
    2147     2235     2376     2594     2891     3261     3674     4089 
    4468     4791     5040     5200     5259     5220     5081     4872 
    4639     4418     4253     4178     4195     4272     4368     4423 
    4390     4260     4071     3889     3762     3717     3755     3852 
    3989     4132     4256     4352     4409     4426     4415     4375 
    4317     4267     4237     4240     4293     4401     4545     4702 
    4834     4924     4985     5026     5040     5023     4968     4873 
    4745     4585     4405     4225     4074     3987     3989     4074 
    4221     4402     4583     4735     4847     4924     4972     4999 
    5017     5027     5011     4962     4885     4799     4750     4774 
    4868     5008     5166     5304     5406     5483     5557     5663 
    5815     5999     6181     6324     6381     6338     6223     6077 
    5935     5842     5819     5845     5888     5906     5863     5738 
    5557     5358     5178     5059     5011     5007     5026     5047 
    5053     5044     5026     5005     4995     4972     4908     4795 
    4627     4434     4280     4206     4226     4334     4496     4665 
    4810     4899     4912     4843     4708     4529     4320     4104 
    3897     3716     3574     3469     3408     3397     3430     3491 
    3565     3624     3646     3630     3596     3565     3549     3558 
    3596     3661     3759     3896     4072     4286     4499     4675 
    4783     4787     4693     4544     4365     4191     4041     3910 
    3790     3680     3580     3504     3460     3457     3504     3603 
    3747     3925     4114     4287     4418     4487     4491     4438 
    4334     4199     4064     3942     3842     3781     3758     3753 
    3748     3726     3663     3550     3396     3215     3028     2862 
    2725     2616     2525     2454     2412     2421     2494     2623 
    2789     2964     3114     3204     3210     3123     2955     2733 
    2494     2272     2099     2004     2023     2176     2451     2808 
    3196     3568     3889     4139     4305     4390     4410     4387 
    4342     4288     4236     4194     4172     4190     4261     4391 
    4575     4800     5043     5265     5425     5513     5537     5524 
    5517     5545     5610     5687     5744     5746     5671     5513 
    5277     4992     4702     4452     4282     4207     4206     4244 
    4286     4303     4290     4256     4218     4201     4217     4263 
    4340     4452     4599     4777     4993     5239     5491     5711 
    5854     5877     5772     5575     5329     5076     4847     4666 
    4552     4518     4554     4644     4774     4927     5065     5152 
    5178     5140     5067     4988     4930     4914     4926     4947 
    4965     4969     4951     4919     4876     4839     4818     4815 
    4824     4834     4833     4824     4811     4788     4752     4692 
    4585     4426     4228     4012     3819     3685     3626     3646 
    3730     3848     3973     4081     4153     4198     4222     4237 
    4243     4249     4271     4315     4386     4487     4623     4785 
    4946     5067     5121     5105     5031     4928     4816     4710 
    4627     4569     4540     4536     4542     4548     4541     4507 
    4452     4387     4336     4317     4344     4409     4482     4529 
    4523     4448     4306     4114     3896     3680     3499     3383 
    3361     3441     3615     3859     4122     4359     4541     4642 
    4661     4621     4550     4477     4434     4438     4509     4644 
    4828     5040     5250     5429     5566     5674     5760     5818 
    5841     5832     5787     5707     5602     5472     5331     5200 
    5098     5049     5063     5132     5239     5362     5483     5598 
    5711     5822     5935     6046     6138     6192     6191     6139 
    6054     5952     5846     5746     5656     5579     5516     5466 
    5439     5433     5443     5462     5481     5489     5474     5416 
    5300     5120     4888     4635     4398     4190     4021     3886 
    3773     3669     3555     3420     3267     3106     2957     2839 
    2758     2722     2732     2772     2839     2924     3019     3133 
    3257     3376     3492     3605     3721     3850     3981     4094 
    4159     4147     4056     3906     3735     3573     3435     3325 
    3240     3179     3140     3114     3096     3076     3042     2991 
    2909     2782     2627     2458     2300     2181     2124     2145 
    2254     2438     2670     2909     3107     3237     3299     3304 
    3277     3240     3203     3179     3188     3230     3302     3406 
    3539     3696     3875     4059     4226     4375     4490     4572 
    4633     4687     4750     4835     4936     5028     5090     5105 
    5070     4996     4905     4820     4769     4770     4826     4924 
    5044     5165     5269     5340     5381     5400     5402     5400 
    5398     5395     5390     5390     5406     5443     5502     5595 
    5709     5830     5952     6057     6142     6208     6243     6243 
    6201     6116     6002     5877     5767     5682     5621     5584 
    5562     5537     5501     5449     5389     5331     5287     5270 
    5269     5270     5258     5208     5105     4951     4750     4515 
    4272     4035     3820     3650     3523     3445     3426     3457 
    3530     3628     3719     3777     3800     3784     3742     3700 
    3680     3692     3726     3758     3778     3773     3740     3684 
    3611     3538     3492     3500     3566     3674     3802     3939 
    4062     4162     4236     4287     4322     4348     4360     4356 
    4338     4313     4287     4267     4252     4244     4241     4243 
    4244     4245     4241     4229     4216     4218     4247     4302 
