Origin Time       2025/01/13 21:19:00
Lat.              31.8
Long.             131.6
Depth. (km)       30
Mag.              6.9
Station Code      OITH09
Station Lat.      32.8486
Station Long.     131.6786
Station Height(m) 90
Record Time       2025/01/13 21:19:52
Sampling Freq(Hz) 100Hz
Duration Time(s)  173
Dir.              1
Scale Factor      2942(gal)/8224139
Max. Acc. (gal)   7.356
Last Correction   2025/01/13 21:19:52
Memo.             
[...]
  175825   175999   176516   176881   176679   176170   175988   176162 
  175948   175092   174510   175050   176219   176921   176951   176944 
  177271   177588   177502   177264   177318   177566   177678   177757 
  178113   178596   178638   177885   176731   176094   176355   176839 
  176839   176578   176648   177082   177422   177570   177965   178596 
  178733   178036   177151   176833   176962   176837   176270   175770 
  175755   176044   176223   176231   176318   176682   177296   177871 
  178089   177986   177858   177793   177654   177311   176752   176242 
  176156   176403   176385   175636   174355   173456   173684   174668 
  175563   176098   176446   176569   176052   174885   173978   174132 
  175005   175643   175643   175436   175346   175113   174695   174623 
  175146   175790   176033   176045   176362   176947   177253   177236 
  177417   177851   177970   177565   177199   177445   178075   178179 
  177352   176401   176231   176615   176778   176644   176773   177201 
  177202   176536   175995   176276   176970   177126   176613   176307 
  176764   177446   177776   178004   178430   178617   177930   176639 
  175992   176696   177839   178140   177628   177353   177746   177977 
  177279   176342   176287   176921   177261   177012   176667   176671 
  176906   177043   177188   177657   178240   178482   178336   178052 
  177843   177808   177876   177904   177797   177458   176899   176422 
  176265   176119   175549   174764   174411   174796   175448   175591 
  175140   174783   175122   176013   176789   177144   177387   177793 
  178216   178202   177580   176844   176577   176789   177067   177033 
  176769   176647   176644   176366   175834   175657   176181   176779 
  176594   175745   175242   175662   176256   175972   175113   174973 
  175926   176843   176624   175693   175294   175776   176405   176563 
  176374   176189   175979   175589   175300   175441   175722   175709 
  175555   175737   176351   176926   177020   176841   176918   177318 
  177708   177930   178096   178281   178451   178569   178640   178729 
  178815   178711   178344   177747   176955   176296   176332   177033 
  177533   177091   175990   175108   174823   174762   174586   174444 
  174588   175005   175463   175726   175783   175918   176260   176563 
  176669   176754   177106   177585   177334   175879   174214   173772 
  174757   175934   176003   175166   174727   175108   175351   174841 
  174433   175309   177250   178698   178610   177678   177182   177350 
  177572   177587   177772   178243   178390   177816   177099   176974 
  177250   177295   177134   177226   177457   177195   176485   176380 
  177317   178117   177597   176250   175517   175882   176509   176729 
  176837   177121   177105   176401   175771   176269   177519   178155 
  177888   177746   178295   178645   177763   176303   176006   177314 
  178722   178668   177333   176264   176342   176783   176573   175994 
  176033   176850   177446   177014   176111   175837   176330   176852 
  176910   176612   176224   175861   175721   176089   176756   177091 
  176867   176531   176624   176956   176679   175621   174788   175065 
  176015   176335   175441   174190   173734   174141   174633   174789 
  174849   174949   174814   174372   174154   174610   175305   175435 
  175059   175023   175670   176373   176392   175845   175427   175433 
  175697   176064   176319   176130   175447   174719   174487   174776 
  175124   175220   175282   175693   176436   177145   177670   178216 
  178769   178934   178499   177801   177438   177695   178216   178357 
  177869   177017   176189   175714   175900   176643   177222   177013 
  176162   175320   174982   175198   175703   176189   176322   175949 
  175544   175857   176877   177708   177651   176974   176428   176376 
  176733   177414   178148   178170   176929   175015   173758   173877 
  174812   175424   175182   174461   173838   173564   173637   173870 
  173998   173929   173848   174006   174414   174804   174974   175068 
  175304   175564   175593   175582   175972   176600   176879   176806 
  176978   177618   178147   177977   177331   176798   176551   176315 
  175865   175423   175297   175328   175259   175266   175490   175590 
  175225   174613   174326   174559   174841   174787   174750   175224 
  175933   176131   175653   175216   175539   176373   176823   176623 
  176416   176582   176669   176347   176094   176346   176635   176238 
  175470   175381   176046   176295   175545   174708   174745   175432 
  175981   176162   176196   175963   175236   174541   174675   175404 
  175806   175786   176089   176914   177519   177502   177534   178299 
  179420   180009   179898   179712   179867   180200   180497   180808 
  181156   181269   180868   180103   179531   179641   180254   180511 
  179864   178821   178294   178429   178475   177870   177044   176663 
  176589   176215   175459   174829   174582   174393   174170   174413 
  175308   176231   176515   176295   176273   176696   177107   177063 
  176705   176577   176899   177265   177184   176669   176253   176345 
  176625   176527   176030   175568   175466   175672   175994   176492 
  177236   177881   178067   177938   177920   178146   178308   178260 
  178445   179201   180013   180095   179471   178933   179045   179543 
  179761   179388   178656   177940   177398   176982   176467   175716 
  175031   174829   175035   175053   174376   173225   172393   172381 
  172883   173448   174066   174752   175185   175109   174804   174877 
  175359   175566   175171   174779   175009   175562   175706   175410 
  175297   175637   175999   175967   175861   176332   177348   178190 
  178487   178673   179298   180192   180727   180701   180461   180216 
  179691   178684   177753   177672   178299   178694   178379   177889 
  177836   177951   177579   176901   176827   177597   178264   177950 
  177014   176418   176413   176530   176512   176567   176785   176855 
  176611   176450   176740   177180   177296   177290   177901   179396 
  180981   181526   180777   179514   178582   178104   177626   176821 
  175905   175138   174317   173292   172582   172802   173738   174615 
  175231   176149   177742   179687   181481   182869   183748   183955 
  183483   182850   182742   183157   183411   183011   182135   181290 
  180684   180148   179566   178929   178086   176785   174906   172741 
  170866   169547   168524   167529   166796   166803   167503   168308 
  168983   169965   171489   173003   173934   174595   175806   177793 
  179971   181665   182761   183541   184161   184554   184729   184790 
  184678   184273   183735   183459   183631   183918   183705   182665 
  181125   179759   178838   178104   177345   176643   176122   175637 
  174798   173495   172100   170932   169904   168740   167366   165978 
  164808   163902   163144   162487   162135   162487   163831   166016 
  168475   170648   172276   173330   173915   174240   174449   174595 
  174819   175343   176287   177510   178578   179085   179150   179398 
  180431   182461   185126   187577   189097   189619   189477   188879 
  187739   186020   184023   182133   180519   179230   178360   178046 
  178414   179370   180593   181897   183204   184233   184581   184140 
  183325   182702   182405   182093   181450   180580   179680   178575 
  176875   174407   171356   168165   165298   163084   161649   160897 
  160610   160794   161836   163961   166735   169420   171487   172781 
  173564   174244   174892   175149   174690   173720   172991   173125 
  173940   174683   174858   174675   174807   175666   176829   177500 
  177460   177241   177471   178233   179146   180076   181330   182861 
  183963   183956   182807   181111   179597   178600   178052   177684 
  177172   176447   175792   175501   175531   175545   175247   174528 
  173462   172307   171332   170603   169965   169213   168457   168122 
  168388   168972   169612   170383   171459   172648   173529   174098 
  174785   175776   176798   177537   177982   178413   179059   179878 
  180755   181719   182704   183416   183641   183473   183088   182460 
  181479   180208   178833   177495   176283   175316   174779   174733 
  174973   175230   175347   175209   174722   174032   173591   173653 
  173848   173574   172860   172523   173215   174625   176011   177148 
  178189   179014   179267   178916   178437   178317   178444   178290 
  177665   176932   176501   176446   176613   176904   177373   178081 
  178835   179325   179440   179317   179211   179284   179427   179324 
  178673   177411   175824   174409   173476   172929   172570   172399 
  172435   172461   172220   171936   172262   173415   174672   175115 
  174657   174001   173758   173993   174471   174962   175350   175603 
  175737   175778   175695   175435   175023   174552   174213   174357 
  175193   176469   177668   178416   178694   178741   178762   178803 
  178845   178825   178621   178256   178005   178132   178588   179028 
  179099   178664   177866   177003   176319   175902   175703   175625 
  175660   175894   176300   176777   177356   178144   179064   179874 
  180422   180769   181102   181580   182243   183064   184041   185133 
  186155   186885   187246   187270   186869   185827   184177   182417 
  181087   180165   179155   177888   176895   176736   177120   177084 
  176168   174977   174286   174042   173816   173674   174021   174834 
  175508   175648   175585   175749   176089   176342   176490   176715 
  177010   177132   176985   176778   176733   176783   176669   176350 
  176079   175973   175783   175220   174422   173828   173524   173161 
  172677   172516   172947   173535   173589   173134   172994   173574 
  174224   174177   173592   173207   173240   173275   173165   173349 
  174091   175011   175613   175903   176200   176616   177010   177356 
  177776   178254   178528   178347   177757   176975   176065   174970 
  173819   172974   172764   173138   173611   173846   174108   174799 
  175807   176662   177175   177564   177927   178032   177626   176806 
  175991   175402   174830   174020   173016   172127   171671   171732 
  172141   172724   173589   174982   176800   178559   179770   180311 
  180522   180743   180841   180434   179501   178524   177977   177804 
  177572   177086   176620   176558   176967   177515   177827   177761 
  177358   176731   176003   175305   174735   174174   173349   172260 
  171197   170317   169473   168498   167606   167304   167742   168605 
  169734   171305   173308   175255   176636   177516   178349   179308 
  180189   180827   181292   181750   182140   182167   181660   180688 
  179420   178093   176952   176206   176027   176346   176860   177446 
  178281   179413   180508   181179   181407   181453   181585   181873 
  182223   182771   183798   185121   186108   186301   185635   184230 
  182229   179788   177277   175263   174051   173475   173190   172936 
  172543   171913   171040   170046   169217   168843   168880   168947 
  168632   167864   167155   167213   168185   169545   170703   171545 
  172309   173087   173719   174144   174595   175296   176222   177275 
  178397   179412   179965   179737   178802   177599   176411   175223 
  174066   173060   172173   171328   170741   170866   171960   173805 
  175909   178020   180219   182421   184289   185657   186682   187625 
  188496   188989   188889   188307   187513   186721   185970   185155 
  184141   182831   181257   179512   177709   176084   174893   174137 
  173476   172562   171468   170638   170383   170495   170569   170657 
  171142   171952   172486   172359   171855   171541   171634   171899 
  172041   172093   172305   172669   172944   173214   173994   175703 
  178077   180230   181495   181993   182224   182434   182532   182348 
  182001   181743   181529   181143   180638   180245   180088   180202 
  180586   181121   181553   181634   181290   180657   179851   178829 
  177553   176076   174447   172774   171389   170650   170498   170440 
  170149   169884   170108   170769   171408   171931   172665   173695 
  174657   175223   175630   176474   177950   179597   180763   181066 
  180524   179473   178297   177207   176308   175641   175142   174729 
  174465   174484   174808   175309   175910   176758   177959   179236 
  180152   180597   180715   180468   179678   178529   177722   177867 
  178811   179802   180331   180571   180837   180990   180740   180216 
  179845   179848   180041   180106   180023   180088   180532   181286 
  182009   182299   181955   181188   180465   180099   180072   180187 
  180261   180166   179798   179096   178127   177132   176392   175986 
  175743   175431   174846   173831   172363   170599   168793   167200 
  165958   165087   164604   164494   164593   164668   164582   164366 
  164230   164378   164901   165831   167128   168683   170414   172254 
  174106   175902   177615   179146   180262   180765   180684   180254 
  179732   179321   179239   179674   180576   181708   182914   184118 
  185272   186339   187149   187470   187158   186254   185110   184191 
  183558   182845   181772   180531   179458   178484   177327   176049 
  175032   174452   174108   173844   173859   174353   175007   175209 
  174791   174147   173661   173267   172669   171786   170772   169693 
  168385   166679   164704   162841   161277   159845   158359   156956 
  156039   155973   156902   158824   161607   164824   167908   170610 
  173136   175706   178112   180003   181492   183046   184873   186698 
  188103   189013   189679   190225   190593   190713   190428   189427 
  187605   185417   183585   182463   181826   181179   180343   179632 
  179336   179462   179928   180628   181381   181866   181772   181128 
  180361   179872   179622   179230   178464   177512   176682   175980 
  175275   174690   174425   174310   173975   173425   173099   173260 
  173595   173688   173557   173485   173619   173848   174106   174604 
  175537   176777   178009   179039   179915   180696   181244   181372 
  181103   180715   180477   180381   180237   179946   179551   179097 
  178623   178264   178124   177990   177418   176281   175001   174019 
  173318   172673   172149   172123   172812   173963   175189   176432 
  177859   179377   180612   181336   181603   181603   181503   181273 
  180773   179971   178958   177815   176490   174900   173196   171769 
  170843   170321   169967   169595   169106   168540   168081   167895 
  167903   167854   167745   167923   168581   169454   170256   171043 
  172042   173307   174726   176172   177460   178299   178468   178060 
  177495   177206   177309   177711   178383   179178   179734   179901 
  179950   180258   180943   181749   182289   182433   182441   182677 
  183223   183776   183994   183844   183473   182954   182339   181758 
  181357   181144   180863   180119   178711   176866   175177   174208 
  174024   174247   174614   175266   176436   177996   179494   180671 
  181554   182147   182282   181769   180717   179645   178872   178081 
  176777   174869   172704   170726   169183   168156   167701   167792 
  168232   168802   169469   170365   171576   173040   174661   176365 
  178025   179501   180720   181633   182182   182345   182278   182356 
  182850   183594   184195   184387   184057   183085   181337   178945 
  176499   174671   173614   173016   172666   172638   173005   173647 
  174436   175398   176482   177329   177573   177310   176971   176837 
  176893   177037   177296   177757   178268   178467   178187   177560 
  176723   175655   174332   172995   172007   171429   170972   170359 
  169623   168893   168029   166822   165441   164331   163665   163136 
  162372   161470   160901   160925   161366   161925   162507   163220 
  164193   165489   167144   169115   171190   173118   174762   176079 
  177078   177903   178784   179739   180495   180916   181251   181836 
  182711   183617   184315   184828   185240   185463   185380   185121 
  184959   184990   185056   184927   184569   184200   183915   183452 
  182536   181259   179936   178721   177566   176446   175451   174646 
  173916   173126   172434   172143   172359   172963   173736   174484 
  175089   175450   175570   175649   175868   176189   176455   176627 
  176808   176960   176844   176374   175863   175702   175898   176080 
  175936   175497   175016   174650   174384   174213   174198   174357 
  174568   174653   174604   174646   174987   175630   176428   177237 
  177994   178640   179062   179212   179184   179131   179130   179136 
  179099   179058   179035   178999   179032   179307   179865   180540 
  181089   181423   181700   182040   182258   182105   181611   181024 
  180534   180131   179801   179686   179874   180181   180311   180164 
  179869   179543   179109   178314   176944   175111   173244   171745 
  170770   170333   170440   171096   172125   173133   173844   174351 
  174935   175705   176449   176959   177323   177730   178125   178220 
  177781   176936   176029   175236   174552   174020   173769   173857 
  174208   174729   175359   176011   176515   176662   176359   175697 
  174808   173794   172812   172087   171771   171772   171810   171776 
  171846   172166   172632   172995   173114   173068   173053   173194 
  173460   173708   173877   174039   174248   174411   174366   174078 
  173708   173403   173115   172700   172161   171691   171517   171647 
  171873   172127   172628   173624   175158   177016   178895   180546 
  181753   182399   182555   182412   182162   181938   181726   181473 
  181280   181272   181417   181558   181487   181067   180405   179814 
  179545   179571   179659   179620   179450   179327   179439   179799 
  180327   181024   181876   182725   183427   183949   184257   184185 
  183605   182761   182120   181803   181479   180823   179836   178687 
  177384   175892   174437   173296   172424   171536   170514   169555 
  168863   168327   167690   166897   166131   165591   165369   165483 
  165987   166951   168361   170091   171957   173807   175583   177280 
  178912   180401   181527   182098   182143   181888   181631   181461 
  181105   180335   179301   178285   177458   176852   176366   175981 
  175807   175851   175986   176164   176445   176863   177337   177684 
  177773   177618   177236   176598   175780   175011   174498   174233 
  174040   173813   173595   173472   173497   173662   173965   174415 
  174962   175528   176041   176400   176594   176782   177138   177708 
  178407   179059   179489   179621   179559   179504   179563   179674 
  179707   179645   179591   179633   179689   179640   179587   179761 
  180193   180671   180927   180824   180422   179876   179323   178785 
  178186   177487   176751   176003   175192   174312   173473   172855 
  172485   172197   171917   171741   171745   171906   172224   172733 
  173356   173877   174178   174413   174766   175116   175177   174926 
  174629   174518   174603   174776   174987   175244   175522   175751 
  175846   175717   175315   174725   174160   173817   173734   173817 
  173989   174310   174895   175678   176443   177033   177422   177658 
  177781   177811   177763   177627   177380   177082   176908   177066 
