Origin Time       2025/01/13 21:19:00
Lat.              31.8
Long.             131.6
Depth. (km)       30
Mag.              6.9
Station Code      OITH02
Station Lat.      33.4581
Station Long.     131.4429
Station Height(m) 65
Record Time       2025/01/13 21:20:02
Sampling Freq(Hz) 100Hz
Duration Time(s)  179
Dir.              2
Scale Factor      3923(gal)/8224838
Max. Acc. (gal)   2.030
Last Correction   2025/01/13 21:20:02
Memo.             
[...]
    9568     9510     9445     9382     9309     9236     9212     9275 
    9402     9520     9566     9563     9582     9656     9741     9782 
    9798     9844     9925     9990     9981     9926     9913     9967 
   10026    10027     9968     9887     9829     9805     9784     9763 
    9756     9749     9711     9644     9580     9564     9618     9720 
    9811     9857     9860     9840     9809     9783     9774     9788 
    9821     9845     9844     9826     9806     9792     9774     9734 
    9694     9679     9679     9671     9636     9582     9551     9563 
    9591     9605     9610     9636     9688     9732     9730     9688 
    9645     9630     9629     9612     9582     9563     9567     9597 
    9648     9709     9765     9798     9792     9752     9699     9644 
    9579     9504     9421     9343     9292     9271     9271     9281 
    9296     9327     9391     9479     9566     9641     9697     9734 
    9767     9795     9825     9867     9906     9910     9864     9798 
    9757     9771     9825     9883     9921     9937     9925     9876 
    9795     9694     9603     9548     9513     9479     9451     9428 
    9408     9379     9350     9343     9385     9462     9536     9585 
    9607     9617     9614     9583     9513     9439     9418     9459 
    9516     9535     9505     9452     9389     9313     9244     9228 
    9288     9396     9498     9571     9645     9738     9818     9863 
    9879     9903     9968    10052    10098    10100    10107    10141 
   10192    10230    10239    10254    10295    10336    10343    10311 
   10255    10187    10095     9972     9848     9768     9749     9755 
    9755     9751     9753     9764     9759     9728     9690     9679 
    9691     9698     9683     9660     9667     9709     9741     9736 
    9721     9730     9765     9803     9817     9814     9809     9779 
    9703     9598     9514     9489     9501     9494     9454     9420 
    9429     9460     9464     9424     9378     9359     9362     9364 
    9369     9391     9429     9448     9429     9387     9373     9408 
    9459     9490     9508     9517     9508     9466     9413     9402 
    9456     9524     9532     9471     9398     9363     9360     9355 
    9348     9390     9506     9637     9702     9694     9680     9710 
    9763     9796     9814     9842     9898     9948     9958     9942 
    9938     9960     9980     9981     9990    10026    10072    10091 
   10087    10085    10099    10098    10050     9990     9980    10035 
   10093    10092    10033     9979     9968     9973     9956     9918 
    9892     9884     9868     9821     9742     9655     9558     9441 
    9327     9261     9252     9274     9286     9281     9281     9312 
    9367     9409     9429     9456     9517     9578     9594     9567 
    9544     9575     9660     9740     9778     9795     9817     9845 
    9861     9850     9826     9813     9810     9801     9769     9715 
    9649     9580     9509     9427     9344     9286     9270     9297 
    9352     9402     9421     9421     9429     9440     9423     9375 
    9336     9359     9451     9563     9648     9702     9745     9788 
    9811     9801     9784     9814     9899     9979     9994     9942 
    9863     9788     9742     9726     9732     9769     9823     9855 
    9845     9819     9805     9806     9792     9732     9651     9607 
    9628     9674     9699     9717     9753     9814     9872     9886 
    9859     9846     9868     9903     9938     9979    10033    10084 
   10098    10068    10025    10010    10019    10004     9949     9890 
    9844     9803     9755     9714     9717     9765     9818     9833 
    9814     9795     9795     9792     9771     9745     9738     9733 
    9688     9590     9482     9424     9431     9463     9490     9522 
    9575     9630     9657     9648     9636     9649     9661     9640 
    9580     9518     9481     9458     9425     9386     9381     9433 
    9517     9594     9655     9697     9711     9697     9657     9607 
    9567     9544     9514     9464     9417     9398     9401     9402 
    9394     9390     9413     9466     9528     9586     9639     9682 
    9713     9738     9772     9814     9850     9860     9844     9823 
    9822     9834     9832     9799     9756     9717     9675     9626 
    9575     9526     9475     9406     9309     9212     9157     9154 
    9182     9219     9269     9332     9375     9370     9339     9332 
    9379     9456     9520     9564     9618     9702     9794     9855 
    9894     9957    10049    10129    10164    10169    10195    10257 
   10303    10269    10170    10088    10085    10145    10210    10257 
   10308    10365    10376    10311    10200    10099    10042    10014 
    9984     9952     9933     9923     9900     9842     9760     9701 
    9675     9647     9598     9547     9504     9454     9381     9297 
    9246     9265     9335     9398     9417     9405     9393     9389 
    9369     9321     9279     9266     9279     9300     9329     9390 
    9479     9570     9633     9672     9715     9784     9853     9882 
    9868     9850     9855     9869     9877     9877     9888     9907 
    9899     9837     9736     9633     9566     9522     9466     9381 
    9290     9228     9205     9211     9227     9248     9278     9325 
    9382     9428     9477     9537     9590     9602     9562     9497 
    9448     9421     9393     9350     9300     9273     9278     9293 
    9308     9332     9378     9436     9475     9483     9482     9493 
    9509     9520     9529     9549     9586     9626     9657     9679 
    9726     9811     9891     9933     9945     9967    10029    10108 
   10150    10137    10093    10062    10060    10062    10062    10075 
   10110    10153    10172    10161    10142    10131    10116    10085 
   10050    10046    10075    10092    10061     9992     9926     9886 
    9846     9784     9715     9670     9660     9674     9693     9715 
    9749     9778     9765     9710     9653     9633     9647     9652 
    9616     9551     9491     9447     9404     9358     9327     9324 
    9340     9358     9366     9373     9386     9413     9445     9460 
    9452     9432     9406     9390     9404     9448     9499     9521 
    9498     9452     9413     9389     9373     9350     9320     9312 
    9337     9394     9471     9555     9628     9676     9701     9722 
    9763     9811     9842     9849     9836     9813     9782     9734 
    9672     9620     9597     9583     9552     9520     9520     9567 
    9655     9756     9836     9882     9900     9892     9859     9809 
    9757     9721     9718     9753     9815     9898    10000    10115 
   10231    10343    10434    10485    10500    10476    10412    10339 
   10276    10227    10206    10208    10212    10195    10157    10129 
   10149    10228    10335    10427    10505    10588    10673    10731 
   10739    10712    10687    10674    10651    10611    10573    10565 
   10585    10592    10557    10501    10451    10411    10359    10312 
   10304    10342    10389    10399    10361    10305    10257    10200 
   10118    10023     9958     9927     9883     9796     9686     9598 
    9544     9490     9405     9300     9209     9144     9085     9022 
    8980     8989     9028     9035     8982     8912     8881     8887 
    8878     8811     8710     8640     8610     8571     8505     8437 
    8392     8365     8310     8212     8124     8094     8105     8100 
    8052     7998     7981     7993     7978     7927     7882     7875 
    7874     7828     7746     7699     7732     7823     7901     7927 
    7929     7944     7959     7944     7909     7901     7942     7994 
    8005     7977     7950     7948     7960     7963     7982     8066 
    8225     8419     8618     8810     9001     9182     9327     9424 
    9493     9552     9624     9705     9783     9855     9918     9968 
   10017    10073    10130    10191    10250    10300    10353    10424 
   10501    10561    10600    10623    10636    10639    10639    10659 
   10719    10827    10955    11070    11171    11265    11346    11402 
   11430    11456    11499    11561    11634    11708    11781    11859 
   11931    11962    11952    11935    11942    11975    12016    12048 
   12067    12060    12019    11961    11913    11892    11897    11901 
   11884    11851    11797    11705    11580    11437    11303    11191 
   11083    10959    10840    10767    10755    10779    10797    10787 
   10771    10775    10790    10779    10720    10636    10558    10503 
   10471    10451    10428    10409    10400    10395    10386    10376 
   10368    10362    10341    10296    10262    10278    10330    10384 
   10423    10453    10493    10546    10593    10620    10635    10646 
   10640    10609    10562    10504    10443    10369    10255    10103 
    9922     9729     9544     9383     9240     9108     8985     8878 
    8810     8789     8797     8797     8765     8704     8629     8538 
    8424     8286     8141     7997     7855     7709     7555     7404 
    7280     7179     7074     6972     6916     6921     6964     7006 
    7026     7030     7041     7052     7034     6990     6957     6964 
    7003     7044     7071     7117     7204     7312     7407     7476 
    7534     7593     7642     7669     7705     7794     7942     8102 
    8229     8330     8438     8559     8680     8792     8904     9023 
    9138     9227     9293     9366     9477     9622     9767     9911 
   10077    10272    10458    10601    10706    10825    10984    11142 
   11261    11353    11449    11560    11659    11726    11772    11808 
   11831    11827    11807    11831    11932    12058    12127    12124 
   12104    12125    12194    12256    12272    12266    12267    12274 
   12251    12163    12024    11873    11715    11523    11273    10980 
   10679    10388    10088     9761     9429     9123     8838     8541 
    8203     7840     7512     7273     7128     7051     7017     7011 
    7030     7064     7095     7122     7167     7240     7346     7473 
    7597     7713     7825     7947     8081     8237     8432     8654 
    8872     9046     9148     9182     9188     9207     9243     9279 
    9309     9332     9364     9417     9478     9543     9609     9663 
    9686     9675     9652     9657     9705     9782     9859     9930 
   10010    10123    10260    10378    10458    10511    10550    10566 
   10544    10498    10465    10459    10481    10513    10538    10550 
   10539    10493    10427    10373    10359    10376    10374    10323 
   10247    10197    10193    10211    10220    10214    10211    10242 
   10281    10277    10206    10081     9923     9757     9593     9429 
    9294     9198     9121     9042     8946     8850     8777     8730 
    8700     8703     8764     8883     9026     9161     9292     9433 
    9564     9648     9671     9661     9659     9671     9687     9709 
    9760     9856     9973    10073    10139    10179    10208    10222 
   10201    10162    10134    10135    10161    10191    10204    10207 
   10226    10274    10358    10474    10615    10781    10956    11102 
   11180    11178    11124    11056    10989    10912    10816    10704 
   10602    10534    10512    10554    10665    10831    11026    11223 
   11396    11543    11678    11801    11886    11917    11898    11843 
   11759    11650    11522    11383    11261    11182    11132    11099 
   11074    11043    11016    10989    10939    10858    10750    10616 
   10470    10334    10215    10127    10080    10065    10071    10083 
   10098    10110    10120    10119    10079     9988     9877     9780 
    9695     9597     9474     9347     9242     9162     9088     9018 
    8993     9049     9144     9202     9190     9130     9069     9020 
    8951     8838     8710     8613     8556     8506     8448     8403 
    8382     8364     8332     8305     8343     8469     8645     8812 
    8951     9069     9173     9247     9261     9225     9177     9139 
    9103     9053     9007     8978     8958     8941     8939     8982 
    9090     9248     9423     9595     9767     9923    10045    10137 
   10215    10303    10419    10548    10666    10760    10828    10874 
   10899    10905    10895    10870    10802    10682    10523    10335 
   10127     9921     9749     9618     9504     9374     9227     9082 
    8972     8896     8835     8788     8773     8796     8834     8849 
    8822     8761     8684     8598     8500     8417     8384     8414 
    8484     8546     8583     8603     8619     8635     8652     8657 
    8650     8617     8533     8397     8222     8043     7881     7735 
    7609     7508     7430     7388     7393     7430     7492     7581 
    7699     7847     8028     8230     8429     8588     8718     8845 
    8974     9109     9243     9348     9421     9468     9486     9479 
    9456     9425     9383     9321     9243     9174     9131     9120 
    9128     9136     9135     9112     9055     8962     8861     8791 
    8779     8818     8883     8968     9084     9235     9391     9518 
    9626     9749     9884     9984    10018    10017    10031    10081 
   10135    10145    10107    10065    10033     9985     9896     9778 
    9668     9560     9401     9169     8892     8626     8403     8202 
    7978     7734     7510     7317     7119     6872     6579     6292 
    6057     5867     5701     5562     5467     5429     5420     5420 
    5455     5560     5733     5933     6115     6288     6489     6710 
    6914     7087     7257     7464     7720     8014     8328     8677 
    9074     9478     9842    10162    10461    10752    11036    11306 
   11572    11851    12139    12417    12679    12934    13188    13432 
   13641    13791    13879    13903    13857    13753    13614    13467 
   13324    13182    13035    12861    12633    12383    12160    11962 
   11765    11573    11402    11246    11075    10851    10571    10282 
   10033     9842     9691     9558     9448     9374     9325     9281 
    9242     9225     9240     9289     9377     9510     9693     9904 
   10108    10292    10474    10666    10847    10998    11140    11317 
   11538    11767    11966    12117    12226    12303    12349    12367 
   12364    12368    12401    12453    12503    12519    12474    12363 
   12202    12009    11797    11585    11364    11148    10986    10894 
   10849    10822    10789    10751    10723    10694    10635    10521 
   10361    10177    10000     9850     9720     9599     9486     9379 
    9288     9228     9215     9240     9278     9288     9232     9113 
    8957     8787     8622     8472     8333     8201     8083     7987 
    7916     7886     7901     7935     7951     7932     7897     7866 
    7832     7769     7672     7577     7530     7538     7570     7587 
    7603     7669     7811     7998     8182     8344     8496     8644 
    8758     8792     8742     8664     8610     8569     8507     8419 
    8348     8340     8387     8442     8482     8515     8596     8743 
    8908     9039     9130     9201     9266     9317     9362     9428 
    9535     9657     9755     9810     9855     9937    10056    10172 
   10254    10308    10359    10436    10544    10675    10820    10963 
   11110    11271    11434    11588    11703    11743    11713    11653 
   11608    11599    11608    11596    11542    11452    11342    11229 
   11134    11084    11080    11098    11117    11128    11132    11138 
   11146    11146    11145    11146    11136    11114    11102    11111 
   11130    11130    11092    11005    10879    10732    10578    10432 
   10312    10245    10261    10365    10528    10698    10827    10891 
   10905    10895    10876    10849    10802    10720    10606    10480 
   10370    10288    10234    10201    10180    10164    10157    10150 
   10127    10083    10025     9958     9898     9853     9832     9844 
    9887     9936     9972     9995    10000     9996     9987     9969 
    9945     9903     9842     9763     9663     9541     9390     9211 
    9024     8850     8695     8568     8464     8390     8356     8340 
    8301     8213     8075     7924     7781     7626     7453     7291 
    7163     7057     6948     6817     6681     6575     6507     6420 
    6284     6115     5965     5873     5832     5815     5813     5811 
    5803     5787     5763     5755     5791     5864     5956     6081 
    6265     6517     6820     7119     7395     7663     7947     8244 
    8538     8823     9101     9363     9576     9699     9733     9726 
    9713     9697     9672     9645     9633     9659     9722     9817 
    9942    10095    10253    10392    10509    10619    10716    10773 
   10778    10748    10693    10616    10519    10422    10372    10405 
   10496    10570    10596    10611    10678    10802    10936    11034 
   11095    11137    11172    11191    11190    11190    11207    11242 
   11296    11360    11408    11438    11465    11504    11561    11612 
   11616    11546    11422    11288    11178    11086    11006    10959 
   10957    10968    10947    10871    10762    10659    10561    10424 
   10233    10019     9855     9763     9694     9603     9516     9477 
    9501     9558     9613     9672     9759     9872     9958     9972 
    9919     9853     9796     9732     9657     9621     9679     9837 
   10062    10322    10601    10891    11175    11419    11605    11742 
   11834    11869    11840    11773    11711    11689    11696    11695 
   11673    11639    11593    11519    11395    11225    11040    10860 
   10678    10492    10309    10141     9984     9826     9667     9544 
    9485     9478     9479     9460     9433     9425     9432     9439 
    9447     9474     9544     9647     9729     9769     9788     9787 
    9767     9729     9679     9643     9639     9632     9576     9482 
    9391     9335     9306     9259     9169     9054     8954     8895 
    8884     8915     8999     9153     9354     9556     9732     9871 
    9971    10022    10010     9926     9801     9670     9537     9389 
    9223     9070     8965     8915     8914     8949     8992     9015 
    9000     8931     8816     8677     8530     8383     8248     8137 
    8081     8083     8108     8114     8095     8052     7983     7898 
    7808     7735     7695     7690     7703     7701     7693     7701 
    7728     7773     7839     7929     8029     8124     8206     8259 
    8278     8259     8205     8152     8151     8229     8390     8604 
    8834     9063     9285     9493     9676     9829     9965    10106 
   10261    10413    10523    10578    10612    10655    10709    10750 
   10748    10712    10687    10700    10731    10755    10773    10820 
   10943    11132    11317    11442    11499    11516    11515    11480 
   11384    11256    11137    11026    10895    10720    10507    10285 
   10073     9842     9574     9288     9028     8806     8602     8398 
    8199     8043     7942     7870     7805     7755     7723     7692 
    7634     7547     7469     7423     7412     7410     7398     7387 
    7410     7470     7557     7647     7742     7848     7977     8114 
    8255     8394     8536     8702     8899     9121     9371     9626 
