Origin Time       2025/01/13 21:19:00
Lat.              31.8
Long.             131.6
Depth. (km)       30
Mag.              6.9
Station Code      OITH11
Station Lat.      33.2844
Station Long.     131.2118
Station Height(m) 300
Record Time       2025/01/13 21:20:00
Sampling Freq(Hz) 100Hz
Duration Time(s)  209
Dir.              2
Scale Factor      2942(gal)/8224139
Max. Acc. (gal)   3.087
Last Correction   2025/01/13 21:20:00
Memo.             
[...]
   21801    21643    21516    21450    21448    21492    21559    21639 
   21725    21832    21979    22148    22311    22447    22523    22526 
   22454    22308    22123    21936    21764    21614    21473    21332 
   21228    21197    21259    21425    21678    21984    22330    22713 
   23129    23572    24011    24401    24711    24930    25056    25069 
   24965    24757    24487    24205    23950    23749    23603    23485 
   23369    23263    23172    23098    23031    22964    22917    22890 
   22867    22839    22792    22740    22702    22677    22661    22669 
   22723    22813    22901    22958    22994    23026    23060    23089 
   23105    23098    23044    22921    22727    22491    22260    22081 
   21969    21915    21901    21910    21937    21988    22083    22235 
   22446    22696    22943    23137    23256    23301    23282    23215 
   23120    23005    22890    22806    22758    22744    22752    22766 
   22786    22802    22796    22735    22612    22461    22322    22221 
   22177    22179    22180    22168    22134    22065    21960    21832 
   21699    21586    21505    21463    21458    21478    21512    21548 
   21573    21571    21540    21479    21404    21335    21280    21240 
   21222    21226    21257    21308    21367    21452    21577    21740 
   21942    22164    22381    22580    22740    22839    22856    22812 
   22740    22670    22636    22654    22709    22765    22782    22778 
   22788    22819    22855    22883    22909    22943    22994    23059 
   23116    23151    23170    23179    23172    23148    23121    23103 
   23083    23060    23049    23067    23114    23171    23215    23213 
   23147    23045    22936    22832    22742    22650    22551    22442 
   22318    22198    22100    22022    21946    21840    21674    21458 
   21227    21026    20877    20777    20727    20745    20848    21028 
   21261    21521    21794    22064    22312    22542    22766    22974 
   23145    23294    23425    23517    23539    23485    23365    23218 
   23079    22963    22886    22859    22855    22859    22871    22904 
   22979    23089    23199    23291    23340    23355    23376    23417 
   23453    23463    23438    23391    23337    23278    23218    23163 
   23113    23066    23014    22951    22893    22864    22878    22924 
   22987    23063    23148    23226    23287    23323    23321    23283 
   23210    23083    22893    22639    22338    22033    21768    21558 
   21381    21217    21065    20919    20783    20682    20619    20596 
   20646    20794    21027    21325    21651    21968    22264    22539 
   22797    23036    23261    23464    23602    23661    23657    23589 
   23431    23172    22837    22480    22157    21903    21720    21597 
   21544    21567    21666    21828    22033    22261    22486    22675 
   22813    22901    22956    23001    23035    23043    23018    22977 
   22947    22939    22954    22990    23033    23068    23079    23035 
   22950    22850    22739    22636    22573    22546    22531    22509 
   22459    22377    22280    22196    22148    22122    22102    22092 
   22102    22142    22219    22314    22388    22415    22400    22351 
   22276    22208    22173    22165    22168    22148    22079    21983 
   21895    21837    21826    21871    21964    22079    22191    22273 
   22304    22283    22246    22212    22152    22054    21956    21863 
   21786    21756    21775    21847    21956    22064    22161    22257 
   22356    22457    22550    22611    22639    22659    22678    22696 
   22719    22735    22738    22725    22692    22634    22543    22422 
   22293    22169    22049    21929    21807    21686    21574    21494 
   21465    21493    21581    21702    21836    21978    22121    22252 
   22388    22535    22690    22887    23132    23373    23595    23780 
   23885    23897    23823    23689    23549    23448    23407    23421 
   23472    23539    23615    23697    23780    23859    23947    24038 
   24113    24151    24124    24025    23872    23674    23450    23215 
   22977    22755    22588    22486    22453    22484    22557    22639 
   22693    22694    22654    22612    22599    22617    22669    22738 
   22812    22894    22977    23039    23045    22999    22932    22856 
   22774    22700    22636    22586    22561    22573    22621    22689 
   22750    22775    22755    22690    22578    22422    22229    22013 
   21806    21648    21563    21556    21621    21737    21887    22073 
   22296    22530    22740    22901    23008    23070    23098    23089 
   23040    22958    22852    22735    22597    22443    22265    22044 
   21790    21525    21262    21026    20831    20669    20542    20453 
   20382    20324    20301    20317    20362    20429    20514    20630 
   20784    20962    21141    21297    21412    21483    21517    21524 
   21527    21521    21510    21509    21506    21498    21516    21574 
   21674    21801    21922    22009    22052    22065    22079    22096 
   22117    22133    22119    22076    22023    21975    21940    21919 
   21901    21876    21871    21902    21968    22067    22188    22304 
   22393    22457    22507    22559    22638    22747    22883    23044 
   23232    23431    23639    23854    24055    24221    24347    24430 
   24476    24495    24506    24511    24516    24538    24570    24586 
   24574    24526    24439    24328    24228    24155    24096    24047 
   23998    23922    23801    23662    23530    23425    23363    23352 
   23382    23438    23504    23556    23576    23560    23502    23411 
   23295    23167    23062    22999    22970    22951    22933    22920 
   22916    22913    22905    22891    22885    22887    22870    22816 
   22724    22599    22441    22248    22046    21864    21703    21598 
   21567    21595    21689    21841    22010    22160    22281    22393 
   22501    22592    22667    22725    22759    22775    22786    22808 
   22854    22925    23010    23089    23145    23188    23220    23234 
   23226    23167    23053    22908    22739    22554    22356    22157 
   21982    21837    21739    21706    21753    21870    22041    22239 
   22434    22611    22754    22855    22921    22959    22963    22935 
   22870    22754    22599    22416    22216    22007    21789    21586 
   21436    21365    21374    21450    21577    21718    21830    21905 
   21959    21991    21992    21964    21917    21861    21803    21736 
   21658    21582    21501    21398    21273    21143    21037    20980 
   20969    20987    21031    21101    21188    21267    21332    21373 
   21378    21351    21311    21276    21251    21244    21271    21327 
   21415    21537    21676    21829    21988    22142    22308    22495 
   22680    22858    23018    23145    23245    23322    23373    23399 
   23409    23409    23399    23367    23301    23207    23099    22990 
   22885    22785    22686    22609    22558    22523    22500    22491 
   22505    22551    22599    22623    22624    22615    22603    22594 
   22605    22659    22783    22985    23238    23499    23741    23954 
   24139    24312    24476    24621    24737    24806    24825    24811 
   24787    24756    24707    24644    24582    24529    24505    24526 
   24594    24692    24810    24931    25033    25118    25204    25300 
   25404    25509    25589    25628    25629    25605    25575    25550 
   25533    25524    25521    25525    25527    25500    25431    25334 
   25234    25141    25033    24888    24703    24471    24206    23939 
   23685    23450    23225    23004    22793    22585    22358    22130 
   21953    21860    21848    21895    21971    22059    22161    22264 
   22327    22339    22312    22237    22115    21972    21836    21721 
   21625    21535    21443    21334    21204    21049    20869    20677 
   20493    20343    20252    20194    20146    20112    20085    20039 
   19971    19885    19792    19712    19653    19600    19552    19514 
   19492    19479    19462    19444    19429    19426    19449    19511 
   19611    19737    19869    19992    20094    20177    20240    20301 
   20355    20390    20401    20385    20341    20274    20174    20046 
   19882    19697    19508    19322    19141    18978    18848    18750 
   18658    18581    18551    18569    18608    18658    18715    18763 
   18802    18840    18879    18913    18927    18906    18847    18754 
   18650    18565    18507    18477    18476    18484    18486    18488 
   18489    18503    18523    18536    18539    18536    18542    18571 
   18628    18696    18758    18796    18814    18835    18877    18958 
   19101    19310    19577    19892    20237    20579    20889    21157 
   21392    21622    21867    22126    22388    22654    22939    23244 
   23562    23907    24270    24632    24988    25340    25672    25965 
   26218    26439    26631    26778    26874    26910    26896    26840 
   26758    26666    26576    26477    26373    26275    26191    26140 
   26119    26107    26094    26076    26029    25953    25879    25821 
   25791    25797    25841    25928    26037    26144    26254    26388 
   26531    26649    26716    26738    26728    26698    26663    26617 
   26555    26487    26423    26374    26354    26360    26384    26428 
   26476    26514    26553    26611    26689    26774    26838    26859 
   26840    26802    26769    26771    26838    26946    27058    27155 
   27229    27270    27287    27294    27292    27290    27280    27237 
   27163    27090    27036    27000    26967    26906    26802    26670 
   26528    26396    26272    26158    26055    25936    25789    25623 
   25448    25258    25051    24830    24601    24374    24159    23957 
   23769    23610    23483    23394    23352    23359    23400    23454 
   23490    23475    23382    23211    22993    22756    22527    22331 
   22175    22046    21937    21834    21722    21583    21419    21246 
   21082    20962    20912    20906    20889    20818    20661    20417 
   20100    19719    19303    18904    18547    18242    17991    17780 
   17602    17450    17327    17255    17234    17253    17300    17370 
   17458    17543    17618    17705    17803    17906    18019    18130 
   18219    18283    18310    18303    18283    18265    18241    18192 
   18129    18079    18048    18037    18050    18073    18079    18054 
   17998    17919    17830    17740    17639    17506    17347    17174 
   17012    16883    16796    16758    16773    16846    16960    17084 
   17207    17319    17421    17533    17670    17833    18014    18187 
   18339    18478    18616    18758    18906    19060    19217    19390 
   19596    19830    20065    20290    20499    20682    20834    20960 
   21081    21215    21365    21536    21725    21936    22171    22418 
   22669    22932    23213    23510    23823    24144    24468    24783 
   25068    25313    25509    25670    25826    25986    26144    26312 
   26515    26748    26998    27248    27469    27653    27796    27881 
   27908    27889    27835    27766    27696    27622    27552    27498 
   27457    27422    27390    27360    27334    27324    27334    27367 
   27419    27481    27530    27568    27591    27571    27504    27407 
   27284    27135    26959    26788    26651    26554    26480    26435 
   26423    26420    26411    26368    26269    26130    25971    25801 
   25633    25467    25292    25115    24948    24795    24664    24552 
   24452    24355    24244    24124    24008    23881    23741    23589 
   23425    23261    23117    23005    22937    22897    22848    22770 
   22650    22473    22253    22017    21772    21536    21321    21128 
   20953    20792    20634    20460    20266    20063    19858    19654 
   19460    19280    19114    18959    18820    18688    18553    18415 
   18274    18141    18014    17879    17729    17563    17392    17238 
   17122    17050    17024    17041    17064    17061    17032    16989 
   16941    16906    16919    17007    17169    17408    17710    18050 
   18415    18794    19176    19569    19974    20367    20741    21101 
   21435    21726    21965    22127    22198    22181    22103    22007 
   21929    21887    21884    21907    21933    21940    21913    21855 
   21783    21716    21682    21698    21763    21894    22084    22315 
   22596    22927    23287    23665    24054    24430    24786    25122 
   25432    25716    25968    26172    26308    26361    26329    26245 
   26150    26075    26038    26045    26095    26181    26293    26412 
   26511    26572    26605    26626    26638    26638    26612    26555 
   26496    26457    26445    26439    26422    26403    26412    26445 
   26496    26586    26720    26892    27103    27338    27549    27707 
   27796    27814    27773    27685    27568    27471    27430    27430 
   27446    27454    27415    27319    27174    26997    26815    26643 
   26499    26408    26379    26387    26407    26418    26393    26327 
   26230    26113    25987    25863    25735    25608    25462    25266 
   25014    24698    24306    23855    23377    22885    22401    21969 
   21601    21293    21047    20854    20707    20605    20522    20452 
   20405    20366    20320    20267    20201    20119    20031    19942 
   19846    19724    19566    19367    19118    18839    18543    18211 
   17836    17428    17000    16563    16125    15712    15358    15067 
   14823    14617    14438    14270    14123    14007    13930    13884 
   13867    13895    13972    14080    14196    14308    14419    14496 
   14509    14477    14422    14369    14351    14372    14438    14575 
   14787    15055    15345    15624    15888    16127    16329    16492 
   16633    16752    16837    16887    16897    16864    16795    16695 
   16571    16449    16363    16328    16353    16418    16491    16576 
   16691    16842    17031    17257    17508    17794    18121    18489 
   18885    19298    19724    20171    20641    21108    21531    21883 
   22179    22447    22692    22898    23067    23210    23332    23441 
   23546    23639    23720    23793    23861    23949    24069    24220 
   24406    24626    24854    25070    25273    25463    25656    25860 
   26071    26287    26512    26734    26937    27121    27283    27411 
   27498    27535    27538    27511    27441    27328    27183    27025 
   26877    26752    26644    26570    26546    26565    26619    26698 
   26792    26902    27027    27151    27267    27379    27498    27627 
   27754    27858    27927    27959    27961    27947    27950    27977 
   28026    28086    28147    28204    28264    28340    28426    28499 
   28526    28501    28422    28293    28116    27904    27681    27476 
   27299    27145    27002    26869    26734    26573    26393    26211 
   26029    25860    25710    25566    25407    25199    24934    24624 
   24267    23880    23494    23128    22792    22472    22150    21824 
   21501    21195    20919    20679    20472    20314    20212    20158 
   20143    20142    20117    20061    19971    19865    19764    19677 
   19600    19527    19465    19415    19375    19344    19337    19369 
   19427    19495    19562    19607    19616    19606    19585    19576 
   19599    19643    19684    19711    19708    19673    19630    19604 
   19607    19642    19708    19795    19907    20043    20163    20245 
   20302    20345    20386    20424    20440    20410    20335    20237 
   20131    20019    19907    19800    19703    19619    19558    19526 
   19519    19531    19549    19572    19596    19624    19664    19718 
   19792    19877    19954    20043    20162    20308    20494    20715 
   20953    21203    21440    21654    21849    22037    22222    22408 
   22578    22731    22867    22986    23089    23172    23218    23220 
   23182    23121    23072    23059    23087    23137    23188    23237 
   23284    23332    23388    23464    23575    23724    23905    24128 
   24398    24717    25078    25443    25771    26057    26283    26430 
   26519    26577    26616    26632    26620    26590    26557    26547 
   26573    26631    26727    26854    26989    27122    27252    27371 
   27483    27588    27685    27761    27805    27827    27847    27888 
   27946    28011    28061    28075    28051    28004    27959    27934 
   27924    27927    27930    27909    27841    27714    27545    27359 
   27159    26959    26769    26580    26391    26183    25940    25671 
   25394    25126    24880    24656    24432    24206    23990    23788 
   23595    23404    23218    23036    22839    22619    22399    22192 
   21994    21794    21601    21413    21219    21031    20879    20780 
   20744    20760    20808    20864    20903    20916    20910    20885 
   20838    20746    20576    20328    20020    19669    19306    18963 
   18644    18338    18025    17693    17355    17032    16731    16461 
   16227    16015    15842    15728    15687    15718    15811    15984 
   16239    16542    16891    17280    17670    18034    18354    18616 
   18821    18987    19132    19267    19407    19553    19695    19822 
   19936    20050    20182    20343    20529    20742    20985    21261 
   21575    21925    22285    22613    22896    23145    23369    23598 
   23854    24133    24414    24686    24948    25211    25478    25737 
   25965    26137    26248    26307    26319    26292    26242    26180 
   26099    25986    25866    25764    25691    25644    25598    25539 
   25474    25408    25363    25355    25381    25446    25540    25627 
   25677    25670    25601    25481    25334    25192    25077    25003 
   24962    24945    24948    24966    24989    25014    25051    25100 
   25143    25180    25215    25250    25284    25313    25346    25371 
   25392    25425    25482    25562    25670    25801    25934    26057 
   26144    26161    26087    25917    25671    25401    25169    24989 
   24846    24703    24513    24240    23873    23429    22929    22393 
   21848    21315    20798    20290    19801    19337    18885    18434 
   17996    17582    17197    16854    16551    16287    16050    15817 
   15593    15385    15202    15051    14931    14845    14785    14725 
   14663    14593    14508    14426    14378    14381    14420    14481 
   14543    14608    14677    14737    14783    14829    14886    14945 
   15009    15080    15164    15252    15331    15410    15500    15622 
   15774    15931    16071    16195    16298    16367    16399    16405 
   16410    16445    16518    16633    16789    16989    17231    17497 
   17774    18034    18264    18477    18693    18912    19136    19357 
   19566    19761    19939    20101    20262    20448    20694    21022 
   21429    21910    22462    23063    23674    24281    24875    25444 
   25974    26451    26860    27198    27476    27688    27832    27932 
   27996    28013    27972    27868    27712    27534    27365    27222 
   27105    27002    26900    26784    26655    26530    26412    26315 
   26262    26254    26288    26354    26445    26549    26663    26786 
   26908    27008    27086    27132    27122    27056    26939    26770 
   26578    26392    26214    26044    25874    25682    25471    25259 
   25051    24860    24695    24541    24385    24223    24048    23843 
   23614    23373    23151    22962    22815    22728    22698    22700 
