Origin Time       2025/01/13 21:19:00
Lat.              31.8
Long.             131.6
Depth. (km)       30
Mag.              6.9
Station Code      OITH07
Station Lat.      32.9870
Station Long.     131.5881
Station Height(m) 160
Record Time       2025/01/13 21:19:53
Sampling Freq(Hz) 100Hz
Duration Time(s)  181
Dir.              5
Scale Factor      7845(gal)/8223790
Max. Acc. (gal)   51.503
Last Correction   2025/01/13 21:19:53
Memo.             
[...]
   22901    24547    26126    27028    26766    25373    23379    21432 
   19859    18657    17852    17537    17556    17435    16717    15295 
   13462    11816    11001    11335    12769    14951    17300    19282 
   20640    21350    21601    21757    22154    22977    24298    25971 
   27612    28819    29281    28842    27571    25743    23774    21998 
   20513    19224    17892    16278    14304    12159    10268     9136 
    9120    10291    12401    14959    17292    18705    18866    17984 
   16563    15101    14031    13737    14440    16028    18181    20683 
   23255    25444    26871    27399    27211    26731    26314    26157 
   26302    26499    26295    25320    23490    21045    18463    16322 
   15052    14713    14956    15241    15207    14810    14210    13726 
   13664    14127    15174    16941    19354    21957    24283    26184 
   27615    28452    28564    27950    26819    25420    23935    22515 
   21340    20515    19807    18812    17415    15849    14420    13219 
   12210    11535    11410    11830    12573    13462    14364    15066 
   15434    15534    15460    15273    15160    15396    16198    17594 
   19460    21644    23905    25895    27380    28323    28802    28926 
   28829    28606    28202    27546    26678    25542    23947    21829 
   19394    17064    15234    14122    13840    14408    15745    17729 
   20162    22566    24139    24052    21960    18266    13933    10011 
    7460     7128     9278    13149    17482    21157    23328    23839 
   23199    21940    20596    19697    19349    19350    19435    19504 
   19781    20479    21637    23213    25012    26657    27710    27797 
   26632    24187    20929    17628    14943    13270    12781    13392 
   14777    16497    18033    18883    18936    18453    17724    17146 
   17161    17798    18841    20210    21744    22952    23234    22426 
   21055    19939    19738    20861    23233    26129    28528    29539 
   28668    25987    22095    17988    14778    13235    13514    15194 
   17513    19624    20800    20661    19341    17400    15549    14445 
   14503    15676    17595    19789    21674    22721    22778    22049 
   20922    19913    19580    20179    21431    22716    23469    23360 
   22395    21020    19874    19421    19727    20474    21308    22021 
   22451    22545    22319    21880    21514    21346    21049    20277 
   19045    17675    16603    16092    16143    16645    17362    18131 
   18987    19927    20869    21691    22221    22227    21421    19724 
   17543    15534    14196    13770    14388    15954    17980    19839 
   21011    21097    19992    18068    15925    14062    12846    12486 
   12933    13871    14773    15094    14601    13531    12333    11408 
   11149    11921    13902    16942    20690    24729    28455    31199 
   32537    32356    30869    28563    26010    23814    22508    22239 
   22623    22962    22555    20931    18003    14104     9903     6093 
    3067      967      -98     -139      622     1844     3295     4912 
    6642     8559    11047    14439    18666    23191    27255    30325 
   32212    33025    33355    34071    35772    38541    41914    45017 
   46932    46982    44720    40057    33546    26295    19519    14049 
   10107     7423     5501     3916     2424      886     -596    -1597 
   -1653     -413     2317     6266    10689    14755    17874    20063 
   22005    24445    27658    31445    35376    38936    41500    42441 
   41392    38425    34095    29288    24895    21571    19631    19097 
   19710    20915    22032    22515    22135    21155    20208    19858 
   20341    21554    23121    24611    25540    25386    24088    22142 
   20031    18164    16989    16509    16181    15377    13855    11782 
    9421     7123     5429     4691     4733     5103     5458     5603 
    5532     5474     5725     6443     7663     9431    11677    14189 
   16819    19560    22441    25529    28911    32548    36155    39259 
   41455    42537    42327    40805    38213    34789    30858    26987 
   23595    20680    17983    15152    11924     8311     4638     1355 
   -1082    -2290    -2106     -652     1671     4291     6705     8515 
    9478     9721     9722    10141    11499    13783    16594    19556 
   22323    24640    26608    28579    30781    33249    35830    38129 
   39592    39619    37891    34732    30966    27554    25174    23963 
   23664    23859    24148    24231    23909    23224    22501    22262 
   23062    25176    28347    31858    34778    36355    36247    34330 
   30739    26059    21057    16452    12856    10439     8887     7786 
    6847     5941     5213     4835     4711     4779     5175     5890 
    6794     7923     9281    10714    12159    13737    15669    18126 
   20970    23853    26632    29290    31710    33717    35129    35941 
   36340    36412    36162    35738    35330    34963    34555    34068 
   33300    31811    29169    25096    19678    13398     6960     1274 
   -2825    -5024    -5578    -4945    -3410    -1202     1220     3341 
    4924     6118     7248     8613    10366    12407    14523    16565 
   18397    19878    20803    21050    20864    20574    20336    20254 
   20331    20470    20517    20240    19608    18832    18019    17246 
   16700    16463    16255    15489    13714    11003     7847     4841 
    2637     1962     3350     6914    12247    18362    23961    27961 
   29866    29790    28321    26275    24470    23626    24183    26129 
   28965    31963    34615    36756    38333    39309    39715    39625 
   39067    38083    36892    35791    34901    34172    33511    32968 
   32768    33019    33581    34233    34750    34870    34354    33161 
   31425    29303    27112    25299    24119    23549    23302    23029 
   22438    21166    19060    16208    12714     8931     5517     3195 
    2440     3227     5274     8214    11531    14644    17167    18990 
   20082    20459    20206    19344    17894    15940    13533    10816 
    8179     6039     4629     3991     4008     4449     5109     5800 
    6292     6405     6162     5757     5445     5576     6559     8694 
   12077    16510    21420    26110    29994    32633    33798    33516 
   32055    29783    27159    24633    22369    20478    19229    18708 
   18665    18702    18478    17687    16043    13498    10324     7041 
    4303     2581     2092     2848     4761     7848    12033    16884 
   21828    26586    31017    34537    36597    37315    37026    36059 
   34882    33828    32933    32173    31513    30782    29789    28453 
   26883    25398    23978    22135    19839    17369    14625    11873 
   10029     9632    10552    12471    14951    17408    19461    21069 
   22160    22713    22925    23024    23593    25623    29380    34129 
   39066    43436    46215    46516    43830    38103    30051    20787 
   11468     3273    -3429    -8745   -12087   -13880   -15724   -17778 
  -19904   -22177   -23315   -22746   -20501   -16019    -9871    -2756 
    4957    12476    19556    25878    31341    36526    41345    45272 
   47792    48541    47425    44386    40022    35132    30230    26099 
   23236    21832    21728    21697    20908    19421    16765    12800 
    8329     4153     1201      314     1714     5468    11352    18196 
   24610    29843    33378    35004    35463    35382    34672    33893 
   33897    34369    34435    33524    31332    28290    25234    22420 
   20133    18486    16659    14300    12154    11103    10909    10127 
    9100     9599    10733    11627    14300    18705    22674    26585 
   31024    34722    37210    38707    38996    37993    35743    32520 
   28903    25321    21990    19350    18006    17820    17949    17890 
   17667    17243    16359    15013    13460    11836    10440     9609 
    9173     8964     9254    10335    12002    13587    14656    15217 
   15256    14790    14003    13080    12379    12351    13054    14278 
   15774    17232    18381    19132    19341    18515    16383    13425 
   10403     7877     6011     4746     4226     4783     6720    10029 
   14289    18939    23310    26879    29636    31814    33642    35294 
   36814    38133    39147    39823    40000    39406    38013    35824 
   33034    30227    27661    25238    23025    21303    20401    20174 
   20204    20328    20387    20169    19426    17961    15908    13535 
   11080     8891     7692     8225    10388    13694    17853    22297 
   26192    29011    30754    31545    31549    31334    31245    30983 
   30361    29442    28098    26041    23048    19075    14233     8819 
    3269    -1892    -6031    -8507    -8830    -7020    -3712      372 
    4765     9128    13263    17278    21235    24665    27051    28212 
   28009    26573    24413    21957    19765    18431    17911    17929 
   18372    19064    19920    20833    21605    22218    22644    22744 
   22569    22364    22210    21946    21207    19735    18065    17066 
   17038    18010    19977    22607    25429    27893    29475    30196 
   30403    30402    30661    31557    32929    34254    34940    34457 
   32578    29419    25273    20470    15354    10373     5881     1981 
   -1150    -3213    -4230    -4469    -3954    -2524     -122     3258 
    7734    13366    20056    27648    35575    42834    48718    52849 
   54864    54697    52671    49268    45114    40711    36224    31988 
   28240    24335    19525    13747     7295      679    -5331   -10045 
  -13324   -15385   -16399   -16738   -16875   -16899   -16775   -16416 
  -15487   -13743   -11068    -7267    -2323     3618    10334    17309 
   24108    30609    36358    40657    43445    45268    46533    47191 
   47048    45981    44128    41897    39413    36697    33939    30969 
   27739    24727    21863    18782    15913    13779    12301    11477 
   11522    12258    13435    15159    17410    19789    21764    23130 
   24219    25258    26215    27178    28021    28417    28264    27475 
   26056    24228    22038    19471    16667    13942    11723    10216 
    9486     9680    10642    11820    12849    13522    13570    13208 
   13176    13864    15218    17220    19723    22356    24915    27395 
   29762    31901    33659    34866    35429    35557    35730    36159 
   36601    36832    36722    35758    33327    29246    23568    16640 
    9292     2548    -2677    -5802    -6548    -4842    -1146     3582 
    8469    12634    15445    17228    18819    20806    23348    26252 
   29178    31646    33176    33457    32331    30015    26913    23170 
   18970    14778    11024     7962     5803     4706     4563     5027 
    5918     7206     8580     9560    10157    10827    11777    13166 
   15553    19388    24719    31402    38917    46394    52975    57950 
   60921    61732    60080    55948    49954    42666    34473    26041 
   18077    10875     4550     -518    -4016    -6043    -6922    -7109 
   -7047    -6948    -6949    -7048    -6953    -6332    -4907    -2293 
    1737     7020    13201    19782    26154    31922    36826    40543 
   42743    43212    42017    39513    36151    32568    29613    27758 
   26990    27243    28185    29164    29585    28884    26661    22987 
   18231    12819     7419     2868     -264    -1752    -1487      500 
    3906     8114    12469    16610    20455    23944    27032    29868 
   32622    35154    37103    37989    37243    34518    29755    23106 
   15102     6690    -1204    -8093   -13709   -17743   -20051   -20690 
  -19604   -16677   -11992    -5782     1686     9981    18391    26138 
   32761    38164    42495    46045    49164    52142    55042    57694 
   59823    60953    60543    58415    54669    49597    43823    38059 
   32832    28351    24372    20386    15977    10959     5166    -1351 
   -7848   -13324   -17128   -18958   -18771   -16727   -13281    -9178 
   -5077    -1325     2043     5208     8276    11253    14254    17388 
   20414    22948    24814    26107    27178    28233    29108    29709 
   30127    30438    30624    30373    29327    27591    25535    23463 
   21798    21014    21288    22597    24823    27769    30964    33465 
   34632    34623    33705    32116    30331    28786    27633    26680 
   25563    24069    22080    19569    16852    14332    12152    10319 
    8610     6373     3064    -1262    -6301   -11670   -16522   -19850 
  -21213   -20611   -18180   -14154    -8946    -3199     2636     8606 
   14902    21458    28009    34566    41254    47795    53670    58288 
   60899    60983    58758    54915    50002    44324    38125    31804 
   25942    20943    16823    13601    11500    10465    10116    10207 
   10503    10671    10508     9942     9155     8715     9285    11221 
   14499    18944    24318    30088    35371    39387    41997    43452 
   43956    43808    43232    42132    40485    38346    35714    32780 
   29701    26427    23049    19697    16465    13617    11175     8741 
    5961     2648    -1285    -5609    -9671   -12865   -14912   -15688 
  -15249   -13716   -11022    -7167    -2493     2547     7650    12519 
   16974    21046    24772    28216    31457    34562    37673    40757 
   43660    46383    48771    50499    51456    51568    50785    49141 
   46602    43398    40030    36822    33999    31838    30527    29991 
   29963    30019    29517    28063    25596    22088    17713    12676 
    7107     1282    -4536   -10243   -15809   -21037   -25590   -29403 
  -32404   -34200   -34433   -32933   -29747   -24989   -18802   -11688 
   -4207     3415    11095    18804    26423    33498    39603    44826 
   49088    51933    53870    55771    57424    58795    60226    61492 
   62576    63470    63707    63062    61578    59360    56255    52023 
   46828    40767    33928    26593    18906    11196     3867    -2725 
   -8167   -12452   -15646   -17645   -18636   -18740   -18046   -16862 
  -15264   -13243   -10972    -8599    -6158    -3341      153     4186 
    8581    13085    17262    20812    23425    24926    25479    25276 
   24507    23496    22596    22029    21933    22549    24073    26400 
   29242    32266    35017    37035    38103    38376    38145    37566 
   36822    36082    35571    35671    36472    37774    39314    40726 
   41476    40880    38472    34138    28039    20790    13302     6482 
    1170    -2222    -3901    -4342    -4124    -3800    -3770    -4295 
   -5409    -6860    -8168    -8762    -8237    -6423    -3418      467 
    4849     9252    13358    17255    21073    24806    28667    32917 
   37473    41998    46037    49113    50939    51484    50780    48906 
   46182    43039    39901    37273    35449    34287    33389    32333 
   30784    28533    25542    22003    18234    14571    11448     9171 
    7682     6831     6475     6334     6232     6311     6675     7168 
    7668     8131     8355     8301     8230     8475     9439    11249 
   13579    16085    18504    20572    22026    22767    22932    22638 
   22068    21541    21108    20729    20618    20779    20757    20098 
   18690    16789    14829    13300    12684    13158    14353    15828 
   17525    19269    20629    21654    22728    23959    25195    26183 
   26757    26890    26491    25678    24918    24183    22920    20981 
   18509    15457    11952     8519     5607     3262     1572      891 
    1398     3268     6828    11935    17868    23934    29652    34620 
   38533    41508    43985    46105    47860    49296    49925    49148 
   46757    42453    36077    27990    18779     9243      314    -7254 
  -12943   -16390   -17504   -16507   -13929   -10731    -7950    -5830 
   -4083    -2531     -818     1489     4550     8406    12838    17459 
   22037    26377    30191    33137    35095    36283    36803    36774 
   36720    37139    38165    39815    41935    44091    45781    46423 
   45539    43133    39469    34774    29371    23843    18909    14964 
   11946     9598     7546     5529     3667     2197     1162      479 
      48      -87      228     1024     2181     3739     5961     8980 
   12652    16798    21212    25587    29597    32946    35486    37201 
   38102    38156    37272    35386    32610    29177    25428    21934 
   19287    17788    17562    18742    21231    24513    28000    31244 
   33751    35052    34956    33543    31054    27801    24148    20490 
   17199    14600    12901    11874    11033    10282     9680     8973 
    7973     6812     5715     4982     4834     5262     6226     7697 
    9567    11670    13783    15707    17336    18597    19558    20418 
   21169    21699    22017    22144    22287    22798    23669    24629 
   25577    26480    27244    27796    28198    28687    29384    30144 
   30892    31565    31838    31409    30312    28825    27124    25145 
   22937    20740    18684    16899    15484    14312    13298    12463 
   11603    10453     9097     7668     6119     4495     2844     1166 
    -426    -1821    -2902    -3466    -3364    -2524     -966     1127 
    3586     6323     9250    12434    15982    19650    23076    26156 
   28899    31475    34223    37319    40807    44639    48492    52006 
   54870    56652    57013    55925    53477    49771    45076    39738 
   34146    28752    23674    18688    13713     8776     3819    -1032 
   -5441    -9127   -11855   -13420   -13774   -12964   -11128    -8376 
   -4604      234     5944    12297    18924    25192    30588    34906 
   38048    39919    40501    39835    38109    35792    33245    30456 
   27546    24772    22091    19410    16875    14555    12445    10864 
   10158    10300    11156    12494    13950    15476    17211    19062 
   20957    22887    24583    25786    26443    26482    25832    24460 
   22441    20232    18563    17724    17535    17886    18855    20347 
   21764    22599    22929    22746    21897    20667    19444    18357 
   17524    17157    17321    17973    19228    21242    23888    26792 
   29608    32016    33624    34076    33177    31025    27980    24505 
   21119    18193    15786    13771    12071    10662     9320     7581 
    5065     1701    -2323    -6625   -10569   -13512   -15078   -14979 
  -13050    -9532    -4916      341     5802    11137    16205    20857 
   24991    28651    31827    34479    36671    38485    39918    40883 
   41200    40772    39760    38333    36435    34025    31325    28584 
   26007    23900    22574    22180    22663    23787    25273    26894 
   28431    29710    30653    31239    31614    32028    32425    32445 
   31810    30396    28102    24814    20632    15940    11057     6231 
    1815    -1925    -4783    -6525    -7171    -6971    -6138    -4806 
   -3210    -1534      282     2222     4175     6342     9024    12332 
   16225    20555    25142    29897    34659    39060    42755    45567 
   47343    48026    47640    46222    44026    41337    38196    34672 
   30909    26970    23010    19282    15981    13297    11435    10422 
   10031    10000    10149    10438    10999    11861    12945    14323 
   15939    17533    18922    19934    20448    20574    20483    20313 
   20191    20178    20224    20166    19823    19151    18192    17019 
   15765    14547    13424    12370    11186     9591     7437     4849 
    2251      203     -789     -359     1680     5259     9988    15240 
