Origin Time       2025/01/13 21:19:00
Lat.              31.8
Long.             131.6
Depth. (km)       30
Mag.              6.9
Station Code      OITH09
Station Lat.      32.8486
Station Long.     131.6786
Station Height(m) 190
Record Time       2025/01/13 21:19:52
Sampling Freq(Hz) 100Hz
Duration Time(s)  173
Dir.              6
Scale Factor      7845(gal)/8223790
Max. Acc. (gal)   4.099
Last Correction   2025/01/13 21:19:52
Memo.             
[...]
   15923    16048    16078    15973    15804    15669    15601    15595 
   15619    15647    15672    15655    15610    15601    15595    15539 
   15542    15657    15700    15537    15342    15360    15543    15749 
   15950    16032    15908    15751    15712    15705    15705    15758 
   15807    15840    15907    15970    16028    16128    16235    16247 
   16146    16025    15900    15755    15666    15606    15487    15395 
   15421    15523    15643    15704    15678    15692    15807    15873 
   15774    15654    15715    15917    16070    16078    15992    15892 
   15812    15755    15751    15782    15735    15615    15619    15781 
   15917    15997    16060    16029    15912    15801    15724    15714 
   15831    16089    16341    16413    16447    16665    16895    16897 
   16735    16507    16262    16110    16073    16028    15924    15858 
   15954    16146    16281    16303    16209    16067    16006    15973 
   15853    15770    15830    15915    15965    16054    16073    15785 
   15318    15055    15075    15267    15612    16012    16306    16436 
   16414    16322    16195    15944    15580    15280    15201    15337 
   15600    15981    16349    16371    16052    15722    15484    15306 
   15260    15395    15662    15939    16117    16170    16077    15904 
   15853    15826    15508    15090    14914    14824    14667    14666 
   14901    15209    15488    15661    15685    15691    15805    15978 
   16058    16004    15930    15859    15703    15507    15507    15788 
   16139    16352    16320    16078    15967    16175    16413    16503 
   16609    16775    16799    16569    16326    16260    16152    15934 
   15847    15863    15795    15693    15635    15573    15444    15276 
   15337    15789    16208    16146    15847    15784    16071    16465 
   16573    16289    15892    15630    15547    15543    15523    15518 
   15553    15585    15611    15682    15822    15943    15946    15795 
   15604    15628    15921    16212    16233    15996    15743    15662 
   15722    15763    15593    15234    14995    15001    15086    15250 
   15595    16002    16317    16480    16530    16556    16511    16367 
   16220    16086    16009    16062    16075    15862    15503    15145 
   14904    14963    15338    15736    15931    15993    16105    16310 
   16545    16757    16815    16637    16399    16283    16259    16209 
   16023    15727    15596    15874    16333    16499    16371    16263 
   16252    16286    16259    15948    15450    15290    15568    15780 
   15754    15703    15709    15853    16132    16220    15943    15570 
   15356    15309    15439    15738    16006    16029    15808    15487 
   15242    15280    15565    15795    15843    15880    16017    16141 
   16150    16105    16085    16117    16139    16097    16065    15978 
   15732    15579    15645    15661    15572    15525    15504    15562 
   15799    16077    16243    16287    16171    15961    15942    16128 
   16144    15890    15619    15483    15502    15596    15668    15793 
   16016    16177    16198    16131    15994    15874    15859    15917 
   16125    16544    16845    16669    16174    15796    15759    15889 
   15912    15844    15803    15801    15807    15701    15458    15311 
   15429    15669    15782    15724    15665    15758    16060    16393 
   16425    16260    16321    16595    16681    16399    15992    15836 
   15947    16005    15952    16012    16141    16098    15871    15657 
   15557    15508    15473    15520    15703    15913    15970    15923 
   16021    16298    16453    16258    15873    15612    15561    15589 
   15539    15398    15321    15361    15411    15431    15481    15580 
   15670    15763    15948    16178    16378    16578    16740    16834 
   16796    16488    16055    15801    15709    15572    15388    15342 
   15441    15503    15527    15619    15773    15924    15952    15817 
   15761    15994    16353    16533    16556    16671    16781    16576 
   16131    15789    15676    15646    15537    15412    15568    16029 
   16357    16270    15996    15793    15696    15705    15753    15719 
   15695    15757    15741    15646    15687    15736    15523    15232 
   15217    15454    15703    15790    15689    15545    15511    15512 
   15342    15115    15203    15581    15939    16168    16268    16278 
   16258    16120    15896    15878    16058    16042    15808    15759 
   15925    15936    15691    15399    15196    15152    15345    15641 
   15780    15769    15793    15911    16151    16498    16740    16660 
   16305    15898    15604    15461    15461    15545    15757    16181 
   16576    16619    16405    16259    16291    16345    16252    16100 
   16025    15966    15967    16124    16179    16017    15877    15726 
   15483    15356    15385    15504    15734    15931    15988    16043 
   16175    16264    16228    16113    15934    15661    15404    15334 
   15457    15624    15653    15429    15084    14985    15299    15807 
   16329    16816    17019    16760    16263    15804    15550    15662 
   16048    16437    16629    16482    16082    15723    15519    15446 
   15487    15568    15562    15354    15083    15052    15192    15286 
   15408    15475    15237    14878    14758    14959    15337    15622 
   15596    15344    15178    15369    15969    16676    17092    17146 
   16923    16465    15994    15741    15716    15865    16039    16050 
   15962    15970    15994    15834    15560    15380    15418    15681 
   15944    15966    15866    15820    15707    15435    15246    15325 
   15508    15612    15626    15541    15423    15414    15523    15580 
   15442    15267    15269    15390    15588    15950    16421    16868 
   17166    17200    16987    16683    16463    16460    16671    16923 
   17039    16992    16792    16437    15994    15566    15276    15178 
   15141    15133    15237    15396    15643    16048    16353    16364 
   16340    16514    16771    16868    16696    16421    16267    16243 
   16282    16329    16321    16367    16495    16422    16071    15661 
   15303    15141    15268    15415    15338    15101    14931    14978 
   15003    14820    14674    14661    14719    14990    15481    16075 
   16661    16958    16845    16540    16198    15799    15421    15299 
   15547    15993    16390    16557    16374    15944    15643    15668 
   15780    15687    15449    15325    15353    15292    15040    14924 
   15223    15704    15942    15836    15569    15407    15554    15873 
   16097    16270    16437    16502    16436    16163    15730    15396 
   15279    15480    16042    16582    16800    16777    16478    15859 
   15309    15383    16024    16471    16359    16089    15975    16036 
   16179    16236    16248    16266    16077    15758    15616    15670 
   15809    15815    15495    15160    15138    15259    15446    15826 
   16200    16298    16218    16144    16019    15743    15417    15183 
   15066    15010    14967    14980    15272    15907    16475    16734 
   16907    16902    16591    16414    16538    16625    16591    16465 
   16193    15886    15703    15673    15674    15630    15650    15682 
   15547    15307    15041    14797    14817    15172    15498    15635 
   15849    16173    16457    16640    16675    16642    16505    16069 
   15611    15537    15750    16052    16268    16206    16094    16205 
   16258    16079    16065    16303    16390    16357    16542    16795 
   16745    16309    15673    15091    14682    14503    14472    14374 
   14322    14651    15304    15890    16227    16429    16659    16983 
   17192    16978    16524    16268    16144    15804    15304    14781 
   14231    14119    14831    15699    16042    16083    16006    15718 
   15472    15526    15830    16204    16416    16268    15715    15078 
   14739    14581    14553    14967    15537    15692    15628    15766 
   16069    16252    16135    16016    16308    16731    16848    16900 
   17207    17591    17751    17510    16980    16552    16366    16263 
   16229    16159    15882    15635    15593    15516    15342    15314 
   15504    15672    15651    15635    15780    15990    16190    16310 
   16254    16083    15913    15769    15817    16197    16563    16480 
   15931    15323    15167    15330    15304    15279    15622    16044 
   16237    16228    16143    16185    16333    16310    16147    16071 
   16066    16133    16405    16757    16988    17153    17344    17543 
   17512    17015    16382    16054    15817    15348    14833    14513 
   14272    14107    14160    14202    14185    14508    15145    15884 
   16630    16983    16830    16619    16511    16301    15943    15689 
   15731    15905    15963    15765    15434    15342    15452    15460 
   15488    15597    15650    15765    15826    15587    15480    15965 
   16468    16306    15944    16044    16455    16776    16734    16293 
   15934    16012    16143    15842    15241    14760    14517    14469 
   14571    14670    14823    15225    15565    15488    15271    15093 
   14786    14547    14598    14755    15014    15526    16183    16908 
   17672    18254    18423    18123    17559    17132    17020    16961 
   16785    16718    16738    16573    16309    15959    15368    14940 
   15067    15307    15236    15133    15263    15460    15595    15697 
   15786    15853    15851    15835    15854    15714    15476    15570 
   15777    15525    15188    15319    15619    15539    14821    13887 
   13620    14053    14598    15086    15566    16127    16764    17059 
   16758    16270    16124    16503    17201    17666    17622    17440 
   17421    17467    17436    17285    17081    16876    16694    16571 
   16426    16267    16263    16395    16448    16208    15619    14933 
   14598    14782    15130    15336    15426    15280    14863    14678 
   14974    15361    15558    15615    15612    15574    15538    15560 
   15610    15772    16268    16818    16868    16313    15385    14656 
   14710    15196    15387    15380    15664    16271    16772    16729 
   16293    16020    16013    16012    15931    15746    15574    15700 
   16011    16183    16167    15948    15503    14989    14704    14821 
   15006    15002    15165    15572    15824    15762    15475    15209 
   15210    15475    15828    15955    15704    15384    15244    15175 
   15126    15230    15491    15753    16025    16407    16808    17131 
   17319    17248    17070    17035    17000    16742    16241    15574 
   14967    14725    14951    15341    15574    15757    15954    16000 
   15975    15982    15901    15728    15603    15538    15400    15176 
   15141    15429    15669    15614    15477    15377    15292    15437 
   15877    16224    16208    15955    15661    15511    15631    15855 
   15916    15831    15695    15414    15093    15113    15485    15777 
   15774    15708    15844    16081    16177    16208    16322    16316 
   16021    15682    15722    16275    16825    16865    16592    16154 
   15499    15171    15500    15813    15712    15553    15469    15410 
   15427    15396    15331    15523    15759    15550    15110    14990 
   15229    15638    16020    16147    16240    16688    17150    17095 
   16814    16706    16521    16217    16179    16407    16606    16576 
   16325    16121    15992    15680    15284    15086    15209    15631 
   15958    15927    15939    16217    16443    16471    16359    16174 
   16178    16452    16673    16692    16610    16491    16465    16474 
   16214    15799    15566    15369    14991    14728    14814    14935 
   14828    14748    14937    15265    15425    15344    15327    15385 
   15290    15399    15896    16214    16210    16229    16254    16178 
   16028    15795    15643    15672    15651    15523    15483    15522 
   15483    15400    15456    15537    15400    15164    15029    15016 
   15174    15485    15718    15735    15681    15705    15800    15878 
   15880    15804    15643    15383    15130    15025    14949    14752 
   14654    14781    14787    14588    14508    14635    14771    14752 
   14702    14868    15098    15174    15286    15503    15658    15776 
   15923    15961    15874    15873    15943    15861    15611    15383 
   15380    15614    15803    15820    15827    15776    15525    15242 
   15157    15226    15317    15475    15738    15853    15630    15302 
   15137    15121    15215    15422    15514    15259    14916    14962 
   15398    15881    16313    16704    16831    16653    16393    15944 
   15149    14459    14270    14364    14546    14848    15160    15399 
   15650    15951    16241    16515    16748    16740    16443    16163 
   16132    16271    16325    16209    16195    16437    16621    16476 
   16247    16259    16398    16517    16704    16960    17255    17466 
   17193    16402    15606    15152    14944    14762    14615    14681 
   15001    15300    15269    15086    15252    15769    16251    16740 
   17393    17923    18096    17976    17683    17454    17475    17554 
   17388    16956    16474    16114    15849    15735    15967    16449 
   16862    17103    17242    17315    17217    16772    16077    15547 
   15457    15700    15973    16069    16011    15846    15588    15406 
   15396    15488    15735    16254    16993    17807    18624    19395 
   19853    19774    19354    18835    18246    17689    17254    16730 
   15958    15149    14472    13890    13477    13369    13566    13880 
   14019    13879    13524    12992    12445    12008    11659    11568 
   11862    12352    12931    13636    14350    14956    15460    15886 
   16324    16860    17424    17959    18443    18732    18700    18374 
   17847    17309    16980    16764    16451    16151    16012    15892 
   15664    15311    14700    13790    12904    12364    12144    12067 
   11978    11830    11784    11888    11916    11857    11804    11699 
   11708    11985    12322    12708    13333    14103    14837    15491 
   16060    16692    17504    18320    18936    19330    19561    19761 
   20000    20101    19947    19712    19579    19585    19666    19591 
   19241    18840    18608    18561    18643    18743    18709    18395 
   17757    16970    16262    15773    15479    15228    15076    15115 
   15113    14901    14600    14373    14412    14727    15106    15454 
   15680    15701    15700    15695    15542    15475    15618    15646 
   15429    15168    14966    14775    14580    14372    14157    14025 
   14033    14107    14265    14690    15399    16221    17119    18053 
   18770    19137    19256    19203    19070    18924    18704    18428 
   18098    17606    17193    17169    17294    17284    17286    17490 
   17890    18355    18604    18457    18119    17906    17955    18212 
   18399    18354    18299    18387    18414    18091    17340    16452 
   15881    15722    15712    15560    15115    14594    14322    14266 
   14419    14854    15295    15561    15844    16160    16309    16221 
   15917    15412    14828    14413    14281    14319    14462    14656 
   14728    14679    14693    14775    14850    14924    14891    14598 
   14139    13763    13578    13589    13790    14077    14281    14351 
   14355    14202    13807    13360    12950    12513    12255    12366 
   12663    12960    13294    13637    13832    13861    13840    13822 
   13802    13745    13737    13849    13852    13622    13517    13878 
   14624    15512    16447    17390    18152    18534    18527    18220 
   17853    17697    17694    17606    17447    17467    17787    18274 
   18738    19126    19516    19892    20123    20156    20025    19720 
   19275    18794    18276    17710    17182    16711    16409    16457 
   16653    16700    16703    16765    16776    16713    16644    16636 
   16752    16916    16981    16803    16282    15697    15460    15464 
   15392    15248    15117    14970    14871    14875    14831    14752 
   14883    15209    15561    15928    16229    16422    16681    16988 
   17136    17204    17324    17408    17374    17213    17008    16907 
   16942    17084    17309    17471    17440    17285    17069    16803 
   16615    16584    16559    16379    16098    15817    15469    15039 
   14739    14674    14705    14696    14623    14516    14509    14720 
   14991    15079    15010    14902    14701    14355    13968    13602 
   13236    12942    12807    12819    12901    12881    12627    12291 
   12141    12226    12398    12502    12522    12731    13311    13898 
   14126    14123    14094    14141    14278    14407    14596    14909 
   15174    15267    15106    14716    14395    14311    14473    14962 
   15642    16236    16717    17149    17485    17717    17871    17948 
   17972    17971    17919    17809    17678    17568    17502    17447 
   17300    17104    17118    17323    17354    17131    16866    16625 
   16476    16594    16919    17157    17265    17513    17805    17790 
   17702    17987    18465    18765    18878    18885    18735    18404 
   17934    17393    16768    16050    15461    15260    15411    15699 
   15947    16097    16216    16429    16792    17178    17404    17502 
   17608    17649    17483    17177    16914    16746    16568    16256 
   15705    14937    14327    14215    14384    14497    14550    14574 
   14555    14527    14428    14176    13891    13682    13432    13103 
   12829    12657    12573    12526    12447    12418    12584    13001 
   13639    14304    14872    15460    16052    16443    16603    16582 
   16276    15658    14908    14311    14087    14222    14536    14806 
   14939    15041    15090    14983    14947    15209    15678    16210 
   16656    16931    17138    17343    17520    17659    17749    17840 
   17914    17783    17477    17151    16722    16155    15547    14944 
   14520    14343    14247    14308    14652    15045    15291    15404 
   15388    15205    14812    14341    14058    14049    14243    14559 
   14852    15017    15039    14963    14924    14885    14674    14447 
   14440    14597    14847    15155    15460    15894    16529    17194 
   17855    18490    18966    19202    19076    18634    18366    18553 
   18894    19087    19022    18762    18566    18419    18131    17830 
   17647    17493    17419    17563    17791    17783    17424    16841 
   16221    15627    14956    14288    13907    13810    13867    14149 
   14638    15240    15923    16583    17159    17703    18185    18416 
   18260    17953    17794    17737    17678    17597    17447    17196 
   16843    16468    16106    15645    15102    14647    14320    14108 
   14064    14180    14314    14381    14431    14440    14401    14412 
   14457    14435    14308    14127    14104    14337    14578    14617 
   14508    14428    14442    14446    14445    14617    14948    15248 
   15508    15758    15913    16062    16341    16571    16625    16642 
   16609    16456    16278    16056    15746    15510    15542    15886 
   16370    16785    17124    17444    17712    17871    17952    17995 
   17915    17612    17070    16372    15664    15030    14535    14299 
   14272    14242    14153    14088    14044    14022    14143    14459 
   14841    15201    15616    16070    16352    16372    16316    16386 
   16545    16652    16695    16637    16406    16070    15697    15283 
