Origin Time       2025/01/13 21:19:00
Lat.              31.8
Long.             131.6
Depth. (km)       30
Mag.              6.9
Station Code      OITH10
Station Lat.      32.9278
Station Long.     131.8695
Station Height(m) -20
Record Time       2025/01/13 21:19:53
Sampling Freq(Hz) 100Hz
Duration Time(s)  163
Dir.              2
Scale Factor      3923(gal)/8224838
Max. Acc. (gal)   6.562
Last Correction   2025/01/13 21:19:53
Memo.             
[...]
    6592     6466     6385     6269     6218     6264     6319     6501 
    6737     6714     6529     6332     6045     5829     5833     5981 
    6189     6245     6003     5551     5117     4938     5005     5221 
    5530     5737     5800     5900     5983     5931     5848     5755 
    5533     5201     4957     4887     4807     4604     4418     4361 
    4387     4414     4441     4511     4696     4984     5193     5302 
    5475     5715     5913     5984     5962     5988     6041     5962 
    5756     5609     5752     6197     6647     6828     6685     6303 
    5907     5706     5741     5877     5902     5822     5697     5417 
    5111     4996     4962     4970     5198     5571     5884     6118 
    6219     6142     6022     5989     6056     6070     5931     5756 
    5620     5576     5714     5991     6255     6300     6151     6004 
    5879     5827     5919     6085     6235     6241     6080     5890 
    5817     5868     5884     5782     5530     5221     5143     5266 
    5325     5283     5248     5281     5286     5217     5108     4932 
    4776     4664     4514     4415     4410     4477     4692     5092 
    5610     6095     6374     6392     6234     6075     6000     5998 
    6048     6093     6049     5971     5940     5968     6133     6372 
    6489     6451     6339     6286     6319     6274     6192     6191 
    6192     6123     6011     5911     5827     5706     5540     5325 
    5101     4970     4941     4946     4992     5076     5107     5088 
    5077     5058     5124     5413     5755     5944     6023     6010 
    5927     5841     5737     5711     5892     6176     6305     6173 
    5957     5848     5863     5880     5779     5649     5655     5798 
    5952     5941     5728     5428     5181     5108     5215     5428 
    5668     5884     5983     5860     5613     5383     5169     5027 
    5020     5127     5335     5671     6102     6439     6548     6485 
    6313     6095     5976     6018     6129     6239     6311     6297 
    6259     6224     6106     5940     5867     5930     6075     6180 
    6154     5960     5607     5306     5289     5397     5325     5109 
    4970     4999     5147     5337     5483     5467     5370     5439 
    5682     5869     5852     5756     5759     5759     5594     5283 
    4896     4564     4421     4391     4334     4337     4495     4777 
    5202     5660     5940     5989     5871     5729     5737     5910 
    6112     6192     6135     6062     6021     6004     6060     6177 
    6223     6188     6201     6215     6174     6231     6390     6419 
    6153     5729     5443     5331     5256     5174     5066     5113 
    5413     5651     5687     5656     5578     5584     5833     6131 
    6185     6007     5826     5734     5633     5472     5332     5235 
    5173     5162     5080     4953     5020     5247     5405     5378 
    5221     5103     5132     5251     5339     5440     5567     5587 
    5543     5458     5355     5333     5287     5293     5460     5572 
    5655     5880     6219     6602     6914     7065     7036     6910 
    6748     6466     6199     6131     6187     6258     6250     6177 
    6104     5946     5684     5432     5270     5196     5181     5255 
    5431     5601     5660     5694     5795     5883     5969     6170 
    6482     6794     6997     7137     7331     7550     7740     7866 
    7851     7677     7375     6987     6624     6431     6424     6424 
    6281     6004     5563     5027     4712     4746     4959     5206 
    5362     5385     5350     5289     5255     5246     5165     5067 
    5086     5192     5344     5610     5942     6154     6177     6048 
    5792     5451     5138     5022     5120     5244     5233     5081 
    4827     4476     4060     3676     3376     3138     2906     2731 
    2687     2741     2893     3087     3198     3345     3605     3821 
    4025     4311     4550     4637     4645     4662     4710     4766 
    4749     4552     4220     3866     3483     3028     2629     2425 
    2339     2257     2149     2035     1995     1993     2002     2110 
    2241     2285     2327     2475     2774     3206     3715     4253 
    4757     5193     5616     6093     6627     7160     7701     8329 
    8984     9518     9960    10405    10878    11300    11589    11839 
   12183    12615    13028    13254    13189    12895    12592    12438 
   12357    12239    12055    11835    11605    11307    10797    10095 
    9418     8807     8224     7723     7176     6496     5850     5443 
    5324     5379     5491     5498     5325     5170     5135     5115 
    5013     4803     4568     4355     4156     3982     3792     3586 
    3464     3501     3705     3928     4041     4124     4284     4472 
    4576     4563     4522     4606     4860     5188     5454     5614 
    5703     5628     5221     4554     3882     3287     2740     2246 
    1771     1267      731      228     -135     -342     -514     -714 
    -822     -684     -352        4      334      750     1355     2115 
    2955     3836     4792     5823     6794     7616     8332     8980 
    9653    10388    11022    11418    11556    11433    11056    10485 
    9792     9062     8345     7516     6484     5447     4669     4226 
    3983     3662     3154     2670     2415     2366     2509     2872 
    3322     3757     4170     4450     4525     4423     4263     4172 
    4171     4301     4521     4733     5026     5348     5463     5393 
    5362     5432     5574     5910     6529     7408     8548     9786 
   10867    11699    12247    12507    12494    12270    11973    11758 
   11877    12449    13254    14045    14640    14966    15140    15288 
   15442    15543    15646    15893    16155    16193    15959    15511 
   14859    13992    12991    11915    10820     9807     8922     8235 
    7757     7352     6956     6546     6120     5690     5233     4831 
    4523     4170     3700     3146     2527     1844     1097      355 
    -191     -426     -503     -573     -557     -360       -1      406 
     680      765      714      513      236      103      143      128 
     -76     -481    -1057    -1611    -1984    -2178    -2127    -1813 
   -1412    -1023     -572       78     1019     2201     3493     4700 
    5671     6384     6880     7253     7581     7938     8329     8645 
    8822     8968     9169     9370     9477     9416     9216     9022 
    8891     8815     8860     8986     9090     9188     9267     9234 
    9099     8876     8472     7979     7650     7445     7171     6843 
    6529     6230     5989     5873     5938     6307     6914     7395 
    7530     7418     7261     7167     7226     7591     8218     8923 
    9533     9923    10226    10671    11234    11778    12201    12424 
   12384    12063    11557    11001    10489     9954     9215     8317 
    7446     6632     5822     4927     3892     2818     1817      926 
     260     -112     -225     -124      102      441      955     1588 
    2258     2884     3343     3634     3900     4255     4617     4861 
    5000     5081     5097     4947     4548     4027     3474     2902 
    2432     2112     1856     1674     1614     1682     1915     2319 
    2808     3333     3932     4594     5221     5784     6296     6756 
    7161     7497     7744     7916     8063     8079     7662     6697 
    5367     3946     2659     1651     1020      665      306      -90 
    -407     -553     -440     -128      334      974     1749     2701 
    3856     5130     6498     7951     9498    11102    12663    14187 
   15608    16816    17774    18277    18193    17693    16877    15826 
   14763    13815    12892    11900    10856     9840     8939     8144 
    7385     6593     5603     4383     3136     2016     1036      171 
    -556    -1073    -1420    -1718    -2022    -2332    -2606    -2766 
   -2785    -2627    -2259    -1814    -1424    -1093     -849     -769 
    -847    -1024    -1221    -1324    -1240     -916     -425       21 
     341      639      978     1422     2089     2883     3541     3989 
    4271     4382     4494     4822     5312     5873     6507     7126 
    7609     7943     8117     8035     7695     7248     6745     6006 
    4915     3734     2754     2023     1503     1093      787      714 
     977     1567     2262     2847     3295     3628     4047     4676 
    5217     5456     5540     5629     5757     5926     6184     6590 
    7196     8082     9273    10605    11803    12754    13525    14135 
   14489    14480    14256    14064    13872    13570    13215    12868 
   12498    12089    11689    11221    10567     9840     9078     8241 
    7481     6876     6300     5629     4831     3936     2903     1714 
     498     -634    -1595    -2245    -2574    -2717    -2755    -2610 
   -2180    -1480     -573      459     1408     2184     2978     3987 
    5189     6409     7449     8199     8689     9028     9283     9410 
    9387     9296     9131     8802     8306     7717     7134     6623 
    6245     6022     5900     5844     5745     5459     5100     4818 
    4533     4158     3709     3204     2693     2270     2014     1906 
    1890     1962     2111     2232     2227     2027     1630     1177 
     853      774      939     1223     1453     1555     1566     1539 
    1522     1606     1833     2151     2617     3362     4290     5278 
    6388     7593     8823    10102    11437    12810    14026    14751 
   14898    14616    14044    13279    12418    11519    10577     9583 
    8581     7654     6876     6292     5961     5934     6216     6791 
    7515     8255     8958     9559    10031    10359    10581    10845 
   11163    11423    11619    11743    11745    11653    11538    11375 
   11088    10659    10060     9235     8171     6961     5840     4934 
    4143     3377     2664     2046     1543     1151      882      783 
     916     1304     1823     2392     3130     4129     5282     6539 
    8000     9598    11087    12415    13660    14790    15747    16418 
   16642    16398    15796    14948    13929    12791    11657    10686 
    9864     9073     8307     7570     6770     5837     4839     3913 
    3092     2378     1817     1451     1325     1475     1922     2550 
    3161     3734     4276     4681     4873     4901     4893     4882 
    4793     4571     4243     3993     3931     3878     3616     3142 
    2635     2203     1817     1470     1135      746      371      139 
     110      287      706     1428     2281     2932     3361     3782 
    4226     4596     4857     5089     5409     5854     6354     6799 
    7219     7686     8124     8507     8880     9078     8922     8392 
    7551     6689     6174     6043     6093     6250     6524     6868 
    7242     7584     7825     7987     8055     7993     7801     7450 
    6940     6303     5643     5073     4604     4225     3801     3164 
    2398     1674     1109      838      838      897      812      583 
     301      -32     -442     -886    -1273    -1597    -1896    -2085 
   -2030    -1669     -994      -16     1274     2851     4537     6133 
    7647     9096    10341    11279    11870    12172    12436    12816 
   13198    13431    13500    13474    13342    13115    12969    13030 
   13252    13487    13547    13342    12970    12622    12325    11942 
   11453    10978    10617    10351    10077     9815     9670     9641 
    9637     9531     9238     8741     8032     7137     6135     5120 
    4233     3631     3302     3009     2513     1749      774     -264 
   -1170    -1865    -2473    -3065    -3542    -3800    -3838    -3697 
   -3484    -3279    -3051    -2802    -2516    -2120    -1761    -1672 
   -1817    -1998    -2069    -1948    -1618    -1278    -1143    -1162 
   -1254    -1420    -1621    -1891    -2282    -2739    -3229    -3797 
   -4409    -4877    -5016    -4789    -4328    -3856    -3458    -3034 
   -2428    -1359      287     2292     4390     6377     8176     9842 
   11385    12791    14030    15160    16270    17232    17921    18420 
   18783    19002    19122    19183    19191    19161    19045    18665 
   17902    16879    15813    14823    13907    13001    12066    11148 
   10331     9706     9333     9136     9003     8880     8676     8322 
    7842     7231     6450     5587     4811     4249     3975     3933 
    3969     4005     4090     4203     4287     4411     4637     4945 
    5321     5659     5790     5726     5715     5973     6498     7175 
    7855     8317     8472     8433     8230     7877     7603     7576 
    7649     7620     7480     7385     7385     7290     6957     6419 
    5697     4865     4110     3573     3240     3075     3099     3233 
    3246     3017     2650     2397     2434     2651     2767     2739 
    2805     3084     3555     4203     4911     5503     5900     6104 
    6158     6145     6139     6093     5894     5526     5065     4567 
    4036     3484     3028     2741     2610     2582     2543     2470 
    2434     2411     2419     2577     2907     3272     3595     3987 
    4457     4876     5262     5710     6242     6812     7304     7645 
    7832     7889     7854     7778     7700     7527     7117     6466 
    5661     4885     4378     4233     4338     4421     4226     3700 
    2959     2289     2014     2212     2809     3798     5221     7065 
    9186    11264    13047    14550    15866    17020    17977    18690 
   19178    19453    19477    19236    18617    17485    15946    14281 
   12658    11088     9548     8077     6667     5189     3613     2196 
    1084       99     -884    -1898    -2947    -3852    -4410    -4666 
   -4837    -5019    -5067    -4839    -4324    -3443    -2150     -684 
     645     1757     2743     3674     4483     5121     5692     6269 
    6853     7385     7676     7668     7568     7531     7507     7391 
    7198     7025     6899     6778     6615     6442     6253     5899 
    5363     4860     4634     4791     5182     5609     6108     6705 
    7258     7666     7902     7973     7886     7634     7245     6724 
    6010     5138     4290     3642     3191     2822     2462     2101 
    1748     1424     1254     1429     1977     2693     3356     3923 
    4473     5054     5691     6380     7022     7533     7869     7996 
    7870     7500     7037     6624     6326     6177     6150     6241 
    6411     6567     6736     6929     7107     7287     7511     7746 
    7842     7749     7601     7550     7646     7739     7647     7393 
    7063     6647     6135     5609     5152     4818     4656     4633 
    4719     4889     4972     4860     4603     4275     4006     3817 
    3573     3249     2933     2706     2629     2712     2918     3184 
    3487     3908     4440     4953     5418     5927     6451     6828 
    7017     7032     6844     6523     6137     5597     4861     4128 
    3615     3273     2980     2822     2956     3316     3654     3808 
    3755     3562     3375     3268     3244     3334     3493     3588 
    3542     3402     3191     2893     2608     2455     2444     2594 
    3014     3850     5032     6237     7213     7978     8699     9479 
   10265    10930    11346    11553    11736    11894    11846    11543 
   11106    10710    10446    10161     9659     8915     7978     7026 
    6307     5881     5665     5586     5570     5501     5232     4715 
    4060     3527     3294     3280     3392     3700     4302     5178 
    6173     7195     8248     9293    10239    11018    11713    12429 
   13099    13649    14056    14233    14116    13680    12923    11928 
   10812     9705     8715     7863     7101     6363     5601     4750 
    3771     2735     1734      799        8     -565     -994    -1413 
   -1876    -2361    -2828    -3207    -3304    -3017    -2488    -1911 
   -1359     -830     -315      244      945     1748     2570     3391 
    4179     4934     5606     6049     6273     6389     6405     6365 
    6357     6349     6262     6130     6081     6115     6037     5819 
    5651     5607     5675     5802     5887     5894     5840     5753 
    5746     5934     6286     6693     7040     7253     7349     7325 
    7153     6967     6940     6991     6914     6689     6448     6299 
    6268     6313     6355     6342     6253     6087     5903     5702 
    5440     5144     4909     4842     4923     4986     4955     4893 
    4907     5046     5206     5281     5252     5128     4968     4845 
    4819     4955     5239     5560     5856     6104     6286     6413 
    6507     6573     6663     6798     6880     6848     6759     6701 
    6741     6882     7067     7298     7550     7701     7646     7389 
    7098     6987     7105     7369     7620     7743     7858     8078 
    8343     8563     8739     8918     9066     9124     9062     8793 
    8278     7620     6957     6362     5884     5559     5306     4966 
    4513     4062     3730     3476     3125     2646     2197     1907 
    1825     2003     2436     3017     3632     4228     4698     4958 
    5055     5065     4976     4725     4303     3852     3569     3539 
    3658     3793     3951     4149     4371     4633     4861     4963 
    5046     5274     5590     5748     5610     5285     4966     4753 
    4612     4421     4131     3892     3820     3854     3873     3796 
    3619     3415     3292     3294     3346     3454     3723     4117 
    4563     4993     5329     5613     5930     6284     6677     7133 
    7634     8114     8475     8600     8505     8364     8272     8147 
    7946     7740     7593     7500     7425     7306     7079     6793 
    6598     6482     6284     6008     5811     5775     5875     6084 
    6455     6979     7489     7904     8255     8509     8630     8641 
    8560     8436     8368     8368     8278     7986     7593     7141 
    6517     5738     4936     4179     3464     2786     2211     1819 
    1601     1491     1432     1368     1345     1476     1795     2323 
    3071     3890     4548     4939     5162     5390     5687     6046 
    6423     6740     6986     7207     7458     7767     8055     8229 
    8347     8529     8803     9067     9186     9171     9185     9310 
    9460     9540     9541     9462     9305     9148     9028     8893 
    8702     8442     8149     7861     7531     7141     6756     6431 
    6228     6176     6170     6108     5972     5776     5521     5250 
    5047     4904     4729     4495     4282     4121     3956     3754 
    3516     3283     3148     3146     3218     3314     3483     3821 
    4320     4884     5422     5863     6216     6521     6778     6998 
    7177     7357     7619     7916     8168     8372     8515     8568 
    8523     8411     8213     7889     7497     7092     6659     6258 
    5994     5826     5640     5413     5228     5130     5061     5007 
    5004     4938     4683     4342     4070     3925     3947     4108 
    4301     4445     4500     4437     4279     4089     3892     3707 
    3545     3410     3339     3316     3287     3291     3346     3375 
    3348     3362     3547     3894     4301     4710     5109     5474 
    5796     6064     6258     6380     6393     6262     6057     5887 
    5798     5790     5850     5934     6076     6357     6683     6916 
