Origin Time       2025/01/13 21:19:00
Lat.              31.8
Long.             131.6
Depth. (km)       30
Mag.              6.9
Station Code      OITH10
Station Lat.      32.9278
Station Long.     131.8695
Station Height(m) 80
Record Time       2025/01/13 21:19:53
Sampling Freq(Hz) 100Hz
Duration Time(s)  163
Dir.              5
Scale Factor      7845(gal)/8223790
Max. Acc. (gal)   11.822
Last Correction   2025/01/13 21:19:53
Memo.             
[...]
    4275     3823     3213     3223     3952     4807     5289     5216 
    4635     3867     3329     3202     3308     3489     3951     4718 
    5220     4976     4126     3041     2037     1583     2047     3130 
    4068     4496     4553     4259     3597     2949     2592     2354 
    2300     2728     3375     3730     3871     4099     4229     3940 
    3346     2674     1956     1402     1290     1497     1888     2656 
    3747     4657     5011     4880     4500     4063     3836     4027 
    4261     3966     3373     3111     3250     3460     3437     3180 
    3219     3994     5044     5474     4889     3672     2641     2404 
    2929     3696     4108     4002     3628     3088     2349     1628 
    1274     1466     2290     3677     5138     5988     5880     5078 
    4159     3528     3318     3370     3462     3699     4241     4880 
    5269     5170     4503     3519     2650     2181     2146     2386 
    2821     3443     4058     4495     4706     4433     3624     2849 
    2685     2984     3103     2899     2839     2994     3161     3468 
    3716     3365     2590     2023     1950     2425     3252     3989 
    4369     4375     4199     4044     3739     3244     2987     3144 
    3443     3669     3636     3257     2806     2758     3400     4511 
    5436     5787     5638     5070     4294     3777     3754     4000 
    4028     3503     2724     2390     2679     3064     3063     2720 
    2407     2451     2997     3923     4711     4877     4536     4024 
    3573     3397     3322     2952     2467     2249     2258     2430 
    2893     3665     4521     5069     5024     4395     3411     2575 
    2358     2596     2862     3271     4052     4838     5162     5150 
    5092     4887     4391     3777     3095     2336     1948     2250 
    2766     2961     2911     2845     2833     2949     3230     3542 
    3711     3807     4122     4652     4916     4541     3647     2725 
    2293     2475     3057     3892     4764     5177     4808     3946 
    3330     3456     3981     4201     4027     3874     3900     3939 
    3834     3457     2859     2496     2687     2971     2798     2501 
    2724     3469     4291     4720     4463     3856     3562     3562 
    3531     3689     4167     4374     3858     2943     2122     1698 
    1945     2767     3427     3404     3130     3141     3262     3199 
    3032     2937     3082     3618     4383     4878     4730     4074 
    3443     3214     3256     3253     3068     2756     2540     2631 
    2952     3304     3765     4545     5448     5935     5737     5000 
    4064     3368     3194     3438     3748     3859     3677     3214 
    2550     1810     1418     1972     3281     4383     4770     4718 
    4490     4027     3446     3148     3122     3048     3036     3154 
    3022     2775     3118     4091     4950     5061     4426     3564 
    2913     2504     2269     2232     2405     2712     2972     2983 
    2808     2778     3105     3604     3836     3647     3338     3249 
    3481     3906     4318     4668     4842     4644     4189     3640 
    3061     2849     3402     4492     5498     5806     5093     3719 
    2544     2191     2582     3095     3264     3237     3264     3345 
    3461     3539     3503     3466     3608     3994     4467     4669 
    4396     3785     3237     3292     4075     4977     5481     5733 
    5930     5899     5355     4283     3226     2847     3226     3943 
    4398     4090     3187     2400     2139     2359     2787     3029 
    3030     3156     3535     3962     4183     3942     3284     2786 
    2928     3534     4113     4364     4221     3778     3325     3194 
    3362     3464     3312     3136     3242     3597     3792     3474 
    2752     2054     1696     1769     2177     2640     2960     3152 
    3103     2593     1809     1202      897      920     1529     2668 
    3766     4349     4284     3542     2513     2115     2786     3908 
    4594     4428     3514     2457     2020     2388     2902     2821 
    2134     1402     1100     1225     1416     1385     1128      841 
     830     1192     1611     1861     2095     2381     2598     2718 
    2741     2686     2716     2930     3356     4091     5038     5702 
    5661     5093     4619     4622     5032     5761     6660     7273 
    7387     7422     7634     7776     7824     7993     8267     8631 
    9074     9185     8554     7381     6142     5111     4515     4538 
    5032     5628     5985     5841     5138     4201     3484     3109 
    2902     2652     2280     1911     1649     1471     1521     2080 
    3078     4017     4487     4540     4384     4018     3453     2863 
    2344     1939     1795     1949     2170     2196     1930     1472 
    1156     1367     2076     2728     2893     2806     2901     3248 
    3813     4585     5382     6030     6616     7055     6836     5726 
    4170     2577      907     -822    -2262    -3149    -3462    -3258 
   -2739    -2243    -1852    -1324     -510      506     1545     2461 
    3296     4195     4984     5134     4433     3402     2770     2902 
    3767     5134     6633     7932     8939     9721    10254    10327 
    9649     8141     6116     4106     2563     1683     1298     1054 
     851      900     1189     1325     1175     1136     1404     1633 
    1553     1267      908      576      540     1107     2324     3971 
    5597     6525     6373     5575     4942     4716     4468     3809 
    2793     1769     1139     1078     1433     1919     2392     2920 
    3663     4673     5815     6956     8152     9459    10667    11423 
   11483    10698     9097     7217     5760     4777     3970     3627 
    4434     6528     9197    11365    12185    11537    10150     9015 
    8526     8306     8058     8020     8187     8037     7338     6319 
    5177     4066     3164     2535     2182     2141     2403     2830 
    3204     3245     2786     2087     1605     1456     1453     1594 
    2031     2523     2474     1641      310    -1170    -2528    -3350 
   -3268    -2273     -576     1513     3396     4479     4625     3908 
    2420      538    -1127    -2196    -2689    -2678    -2150    -1316 
    -561      -70      233      537      899     1139     1221     1433 
    2046     3114     4449     5629     6355     6590     6399     6007 
    5713     5583     5589     5796     6160     6440     6446     6226 
    5976     5679     5073     4171     3396     3069     3191     3588 
    4037     4402     4718     5206     5899     6288     6107     5948 
    6166     6137     5427     4581     4239     4371     4540     4286 
    3377     2061      961      615     1227     2729     4668     6249 
    6982     6983     6525     5832     5275     5251     5806     6624 
    7404     8082     8665     9084     9281     9123     8282     6627 
    4587     2813     1648     1066      950     1129     1298     1314 
    1240      984      380     -361     -843     -909     -608      -27 
     737     1571     2285     2713     2936     3192     3611     4090 
    4455     4606     4468     3987     3287     2617     2079     1679 
    1545     1688     1788     1520      919      325       43      163 
     607     1177     1680     2110     2502     2809     3033     3310 
    3915     5086     6551     7616     7904     7516     6733     5973 
    5605     5555     5503     5273     4707     3500     1339    -1680 
   -4696    -6484    -6357    -4603    -2191      -95     1143     1591 
    1854     2556     3793     5119     6021     6435     6693     7052 
    7541     8121     8749     9420    10261    11418    12796    14052 
   14800    14724    13709    11855     9304     6273     3179      504 
   -1367    -2242    -2050     -843     1078     3196     4963     5988 
    6039     4943     2809      279    -1906    -3418    -4232    -4340 
   -3689    -2334     -607      831     1352      854     -261    -1444 
   -2203    -2281    -1755     -945     -298     -160     -530    -1097 
   -1467    -1399     -815      313     1850     3469     4845     5668 
    5663     4897     3920     3308     3261     3696     4320     4680 
    4564     4301     4409     5011     5780     6316     6342     5838 
    5119     4494     3883     3018     1864      596     -656    -1780 
   -2566    -2775    -2343    -1451     -467      284      928     1915 
    3331     4779     5836     6254     5935     5038     3927     2943 
    2281     2114     2664     3947     5482     6583     6998     7080 
    7404     8372     9957    11643    12798    13108    12638    11626 
   10287     8699     7014     5641     4824     4306     3771     3292 
    3048     2959     2857     2678     2281     1520      515     -326 
    -503      213     1526     2830     3541     3361     2373      904 
    -610    -1742    -2214    -2034    -1489     -828      -27     1053 
    2381     3762     4884     5410     5358     5244     5609     6538 
    7699     8540     8441     7179     5346     3821     2979     2670 
    2574     2420     2093     1651     1254     1100     1325     1900 
    2608     3215     3647     3956     4213     4438     4534     4294 
    3559     2376     1069       54     -494     -703     -764     -754 
    -625     -257      338      905     1150      982      514       35 
     -45      579     1938     3693     5212     5988     5971     5390 
    4577     3843     3308     3009     3159     3937     5162     6440 
    7516     8375     9186    10149    11245    12075    12043    10852 
    8721     6183     3844     2027      695     -112     -194      480 
    1636     2872     3956     4865     5661     6538     7717     9040 
   10004    10347    10084     9174     7692     6087     4845     4066 
    3692     3790     4263     4776     5077     5055     4692     4166 
    3650     3024     1984      409    -1391    -2720    -2913    -1809 
      83     1880     2871     2878     2141     1094      295      294 
    1409     3562     6311     9084    11402    12866    13317    12992 
   12185    11053     9877     8996     8461     8106     7827     7496 
    6901     5944     4679     3160     1493      113     -375      207 
    1447     2640     3257     3207     2629     1657      502     -372 
    -533      -71      599     1328     2207     3256     4405     5614 
    6721     7376     7304     6500     5127     3477     1998     1074 
     716      595      337     -193     -795    -1089     -889     -440 
    -137      -89     -112       21      477     1221     1915     2216 
    2239     2577     3647     5109     6234     6704     6659     6323 
    5890     5512     5175     4706     3943     2920     1960     1664 
    2531     4441     6663     8446     9389     9173     7492     4548 
    1301    -1102    -1980    -1177      931     3410     5427     6845 
    7773     8064     7549     6421     5096     3785     2566     1566 
     770      -28     -868    -1487    -1710    -1686    -1733    -2091 
   -2710    -3146    -2851    -1632      178     2014     3530     4557 
    4806     3982     2160      -99    -1908    -2484    -1692      -71 
    1748     3433     4869     6042     7055     8050     9069    10006 
   10705    11097    11164    10940    10558    10096     9502     8689 
    7603     6323     5185     4612     4847     5871     7412     9023 
   10154    10378     9701     8475     6995     5425     3801     2100 
     654      205     1162     3041     4887     6045     6500     6697 
    6907     6813     5958     4352     2377      368    -1364    -2363 
   -2336    -1580     -818     -695    -1566    -3366    -5408    -6605 
   -6214    -4286    -1485     1285     3111     3505     2718     1274 
    -534    -2428    -3847    -4156    -3056     -637     2519     5185 
    6231     5451     3345      657    -1811    -3511    -4330    -4409 
   -3969    -3285    -2654    -2293    -2155    -2135    -2269    -2405 
   -2178    -1416     -230     1129     2444     3605     4635     5710 
    6999     8484     9973    11209    12006    12343    12452    12734 
   13266    13586    13130    11789     9987     8268     6986     6358 
    6408     6875     7474     8127     8687     8723     7956     6639 
    5250     4160     3690     4000     4808     5583     5983     6023 
    5933     5872     5745     5336     4577     3623     2662     1702 
     603     -615    -1636    -2035    -1541     -225     1532     3308 
    4761     5609     5810     5652     5464     5463     5852     6651 
    7406     7466     6585     5061     3551     2801     3127     4183 
    5449     6609     7317     7192     6270     5026     3874     2897 
    1993     1116      507      623     1543     2664     3260     3079 
    2358     1636     1458     1957     2762     3284     3111     2226 
     919     -349    -1016     -676      506     1885     2982     3804 
    4611     5629     6762     7476     7230     6031     4394     2909 
    1876     1254      816      379      -28     -153      133      522 
     594      391      388      977     2100     3253     3736     3231 
    2273     1782     2227     3500     5236     6898     7874     7813 
    6847     5539     4571     4248     4351     4504     4496     4315 
    4072     3843     3576     3204     2721     2070     1165      180 
    -346       48     1285     2785     3943     4382     3981     2995 
    2035     1769     2539     4139     6056     7973     9994    12287 
   14511    15900    15959    14810    12992    11241    10191     9948 
   10039     9845     8981     7366     5097     2347     -587    -3207 
   -4912    -5246    -4132    -2046       62     1256     1169       14 
   -1760    -3592    -4927    -5476    -5117    -3763    -1645      585 
    2212     2868     2652     2006     1688     2328     3744     5271 
    6598     7682     8297     8201     7376     5968     4368     3186 
    2787     2902     2975     2860     2859     3117     3464     3819 
    4206     4471     4409     3979     3215     2293     1660     1661 
    2118     2656     3250     4047     5015     5988     6736     6995 
    6651     5780     4541     3118     1717      500     -390     -843 
    -876     -565      110     1196     2482     3474     3750     3331 
    2635     2177     2353     3285     4730     6068     6670     6478 
    6050     5950     6293     6813     7086     6671     5375     3522 
    1798      804      746     1375     2222     2901     3244     3365 
    3558     4029     4780     5659     6436     6862     6713     5957 
    4816     3588     2389     1290      630      757     1490     2187 
    2351     1998     1401      799      459      699     1645     3136 
    4811     6142     6610     6103     5004     3782     2678     1759 
    1044      666      862     1649     2668     3515     4036     4353 
    4700     5123     5412     5412     5163     4780     4407     4186 
    4174     4191     3847     2920     1555      105     -996    -1462 
   -1358     -869      -94      812     1688     2641     3717     4405 
    4172     3256     2319     1782     1833     2502     3468     4155 
    4205     3669     2856     2096     1561     1312     1510     2417 
    4099     6160     7811     8468     8349     8216     8518     9078 
    9356     8904     7836     6724     5996     5582     5111     4422 
    3738     3283     3068     2943     2543     1586      373     -419 
    -437      253     1355     2409     3061     3307     3343     3334 
    3356     3472     3786     4384     5193     6031     6839     7735 
    8765     9771    10508    10841    10864    10740    10393     9621 
    8436     7033     5613     4405     3596     3138     2779     2301 
    1678     1015      453       72     -201     -496     -855    -1282 
   -1814    -2390    -2763    -2704    -2142    -1175     -152      472 
     471      -97     -904    -1386    -1061       98     1690     3149 
    3996     4153     3983     3855     3858     3946     4056     4125 
    4222     4627     5391     6057     6174     5763     5076     4355 
    3753     3230     2700     2305     2254     2523     3026     3746 
    4560     5192     5398     5082     4333     3503     3057     3233 
    3959     5040     6168     6894     6891     6201     5086     3800 
    2627     1849     1509     1354     1077      641      384      726 
    1688     2864     3862     4561     4955     5032     4869     4531 
    3978     3350     3003     3084     3364     3537     3430     3142 
    3068     3477     4081     4352     4126     3605     3091     2863 
    2979     3206     3370     3582     4000     4553     5119     5714 
    6307     6741     6963     6971     6596     5638     4252     2979 
    2343     2484     3115     3715     3852     3424     2675     2091 
    2115     2841     4013     5224     6172     6793     7144     7276 
    7153     6682     5988     5437     5167     4935     4450     3568 
    2257      695     -653    -1321    -1256     -803     -303      156 
     708     1513     2492     3260     3406     2930     2320     2134 
    2614     3634     4788     5566     5648     5128     4347     3562 
    2855     2207     1622     1239     1228     1559     1968     2181 
    2133     1968     1908     2118     2685     3530     4334     4860 
    5239     5678     6087     6177     5736     4773     3577     2570 
    1954     1594     1323     1198     1256     1286     1108      787 
     508      541     1183     2484     3959     5015     5567     5938 
    6331     6647     6666     6320     5787     5302     4976     4799 
    4696     4514     4159     3762     3480     3233     2880     2512 
    2340     2446     2748     3109     3346     3323     3132     3105 
    3461     4050     4476     4461     4166     4122     4766     6004 
    7250     7924     7855     7190     6151     5076     4268     3716 
    3238     2833     2593     2469     2323     2092     1795     1459 
    1174     1078     1229     1552     1854     1918     1682     1355 
    1224     1350     1588     1876     2320     3067     4102     5225 
    6156     6594     6320     5387     4176     3148     2592     2569 
    2932     3473     4087     4774     5520     6161     6434     6270 
    5937     5690     5567     5535     5590     5783     6146     6523 
    6656     6465     6124     5832     5567     5178     4683     4244 
    3865     3361     2644     1826     1069      514      318      638 
    1445     2455     3353     3983     4290     4252     3933     3443 
    2890     2404     2100     2033     2187     2451     2612     2516 
    2277     2160     2261     2477     2762     3231     3998     5043 
    6161     6956     7055     6393     5332     4469     4259     4693 
    5324     5652     5528     5154     4801     4573     4378     4086 
    3684     3264     2936     2725     2551     2320     2085     2047 
    2258     2525     2714     2922     3250     3689     4182     4587 
    4612     4062     3109     2155     1539     1443     1845     2478 
    2952     3009     2727     2370     2101     1942     1861     1807 
    1777     1884     2222     2681     3018     3119     3046     2863 
    2627     2594     3091     4083     5108     5670     5582     5001 
    4278     3748     3547     3554     3576     3564     3627     3870 
