Origin Time       2025/01/13 21:19:00
Lat.              31.8
Long.             131.6
Depth. (km)       30
Mag.              6.9
Station Code      OITH05
Station Lat.      33.1525
Station Long.     131.5420
Station Height(m) 160
Record Time       2025/01/13 21:19:56
Sampling Freq(Hz) 100Hz
Duration Time(s)  154
Dir.              4
Scale Factor      7845(gal)/8223790
Max. Acc. (gal)   4.871
Last Correction   2025/01/13 21:19:56
Memo.             
[...]
  -13697   -13547   -13598   -13672   -13620   -13491   -13506   -13786 
  -14123   -14207   -14071   -14014   -14122   -14238   -14357   -14611 
  -14924   -15105   -15153   -15148   -15087   -14980   -14889   -14804 
  -14654   -14466   -14369   -14404   -14472   -14477   -14416   -14374 
  -14424   -14470   -14416   -14362   -14361   -14296   -14110   -13872 
  -13694   -13632   -13671   -13807   -13988   -14114   -14223   -14427 
  -14646   -14706   -14632   -14540   -14374   -14048   -13721   -13603 
  -13668   -13782   -13894   -14027   -14210   -14446   -14617   -14593 
  -14442   -14315   -14243   -14149   -14045   -14065   -14231   -14395 
  -14434   -14369   -14293   -14273   -14342   -14512   -14729   -14901 
  -14964   -14917   -14816   -14724   -14643   -14550   -14443   -14337 
  -14246   -14162   -14089   -14041   -13991   -13913   -13809   -13689 
  -13629   -13748   -13981   -14157   -14297   -14509   -14742   -14918 
  -15084   -15257   -15352   -15315   -15223   -15188   -15215   -15191 
  -15087   -15012   -15043   -15152   -15287   -15408   -15460   -15377 
  -15183   -15036   -15067   -15248   -15433   -15450   -15209   -14798 
  -14423   -14195   -14046   -13817   -13491   -13248   -13242   -13390 
  -13471   -13423   -13414   -13514   -13625   -13702   -13784   -13887 
  -13981   -14007   -13905   -13709   -13582   -13660   -13892   -14122 
  -14256   -14362   -14585   -14925   -15202   -15279   -15195   -15030 
  -14878   -14860   -14975   -15113   -15210   -15222   -15088   -14852 
  -14643   -14492   -14335   -14181   -14119   -14145   -14191   -14273 
  -14427   -14531   -14481   -14434   -14551   -14720   -14764   -14688 
  -14580   -14496   -14403   -14269   -14192   -14250   -14419   -14663 
  -14871   -14941   -14921   -14850   -14674   -14420   -14165   -13961 
  -13801   -13637   -13525   -13578   -13755   -13911   -14017   -14134 
  -14214   -14142   -13973   -13900   -14010   -14224   -14419   -14538 
  -14600   -14590   -14480   -14370   -14420   -14636   -14912   -15105 
  -15115   -15055   -15098   -15167   -15090   -14877   -14663   -14547 
  -14509   -14455   -14353   -14262   -14196   -14092   -13964   -13896 
  -13830   -13645   -13420   -13273   -13143   -13020   -13065   -13375 
  -13803   -14112   -14258   -14350   -14426   -14462   -14476   -14482 
  -14447   -14354   -14296   -14386   -14581   -14712   -14690   -14594 
  -14554   -14534   -14476   -14492   -14651   -14844   -14926   -14870 
  -14790   -14786   -14781   -14609   -14204   -13676   -13278   -13197 
  -13369   -13612   -13824   -13991   -14146   -14287   -14331   -14235 
  -14040   -13832   -13724   -13729   -13806   -14000   -14311   -14566 
  -14607   -14550   -14663   -14910   -15032   -15009   -14960   -14850 
  -14640   -14446   -14343   -14258   -14195   -14269   -14465   -14665 
  -14841   -15007   -15149   -15292   -15441   -15523   -15462   -15228 
  -14855   -14445   -14134   -14006   -14007   -14067   -14166   -14210 
  -14112   -13992   -14018   -14219   -14494   -14674   -14682   -14586 
  -14489   -14454   -14534   -14685   -14700   -14467   -14197   -14108 
  -14116   -14060   -14010   -14108   -14342   -14609   -14859   -15120 
  -15437   -15755   -15886   -15751   -15543   -15437   -15369   -15264 
  -15184   -15172   -15195   -15225   -15240   -15217   -15082   -14742 
  -14238   -13791   -13594   -13614   -13726   -13902   -14103   -14216 
  -14210   -14172   -14161   -14148   -14146   -14281   -14589   -14906 
  -15086   -15167   -15192   -15075   -14810   -14519   -14280   -14122 
  -14046   -14040   -14099   -14143   -14071   -13967   -13959   -14013 
  -14069   -14150   -14254   -14342   -14378   -14388   -14443   -14558 
  -14646   -14665   -14682   -14709   -14708   -14694   -14708   -14729 
  -14723   -14701   -14733   -14820   -14848   -14735   -14553   -14409 
  -14266   -14075   -13923   -13888   -13933   -13968   -13917   -13747 
  -13513   -13321   -13201   -13165   -13281   -13581   -13944   -14206 
  -14327   -14389   -14461   -14562   -14679   -14770   -14793   -14746 
  -14673   -14534   -14288   -14107   -14129   -14177   -14102   -14037 
  -14073   -14080   -13979   -13913   -14010   -14154   -14157   -14029 
  -13892   -13803   -13787   -13879   -14011   -14064   -14037   -13984 
  -13902   -13792   -13724   -13693   -13562   -13289   -13069   -13086 
  -13279   -13497   -13707   -13861   -13860   -13764   -13689   -13601 
  -13493   -13482   -13547   -13562   -13540   -13575   -13690   -13890 
  -14180   -14539   -14918   -15277   -15589   -15817   -15970   -16066 
  -16074   -16000   -15942   -15896   -15751   -15568   -15525   -15587 
  -15550   -15346   -15057   -14782   -14592   -14493   -14446   -14450 
  -14489   -14527   -14636   -14924   -15340   -15687   -15873   -16031 
  -16285   -16573   -16810   -16987   -17093   -17058   -16893   -16725 
  -16588   -16424   -16190   -15878   -15537   -15240   -14980   -14731 
  -14536   -14415   -14291   -14096   -13861   -13679   -13581   -13521 
  -13471   -13424   -13370   -13320   -13255   -13177   -13182   -13343 
  -13594   -13868   -14149   -14372   -14459   -14501   -14619   -14770 
  -14820   -14709   -14434   -14015   -13545   -13163   -12961   -12930 
  -12941   -12822   -12559   -12309   -12183   -12162   -12174   -12183 
  -12187   -12166   -12156   -12344   -12815   -13365   -13783   -14127 
  -14512   -14939   -15371   -15751   -15998   -16077   -15969   -15654 
  -15194   -14732   -14381   -14129   -13880   -13564   -13105   -12445 
  -11734   -11229   -10970   -10837   -10855   -11167   -11767   -12484 
  -13271   -14234   -15325   -16298   -16993   -17377   -17439   -17253 
  -16973   -16729   -16533   -16297   -15977   -15639   -15352   -15129 
  -14949   -14737   -14413   -14048   -13848   -13907   -14134   -14416 
  -14636   -14628   -14372   -14045   -13807   -13710   -13748   -13857 
  -13952   -14006   -14111   -14407   -14944   -15619   -16282   -16858 
  -17297   -17527   -17586   -17571   -17475   -17227   -16725   -15894 
  -14852   -13798   -12830   -12036   -11511   -11221   -11070   -11051 
  -11211   -11546   -12032   -12641   -13288   -13909   -14521   -15076 
  -15433   -15506   -15364   -15219   -15225   -15271   -15186   -14985 
  -14766   -14571   -14399   -14188   -13841   -13366   -12939   -12679 
  -12514   -12422   -12484   -12602   -12596   -12537   -12653   -13050 
  -13628   -14251   -14937   -15693   -16339   -16719   -16897   -17022 
  -17172   -17332   -17475   -17621   -17759   -17822   -17776   -17577 
  -17208   -16776   -16362   -15921   -15473   -15078   -14663   -14181 
  -13755   -13481   -13354   -13338   -13369   -13419   -13544   -13811 
  -14208   -14611   -14943   -15272   -15642   -16059   -16542   -17023 
  -17383   -17606   -17686   -17587   -17336   -16978   -16498   -15904 
  -15250   -14589   -13948   -13296   -12609   -11990   -11572   -11369 
  -11321   -11317   -11267   -11223   -11273   -11383   -11485   -11583 
  -11689   -11826   -12043   -12371   -12754   -13151   -13578   -13965 
  -14164   -14104   -13844   -13533   -13288   -13041   -12750   -12571 
  -12596   -12723   -12877   -13090   -13394   -13753   -14003   -13929 
  -13524   -13065   -12808   -12773   -12842   -12861   -12725   -12478 
  -12272   -12210   -12363   -12739   -13215   -13626   -13915   -14143 
  -14438   -14831   -15198   -15442   -15622   -15754   -15716   -15502 
  -15245   -14967   -14593   -14187   -13922   -13872   -13961   -14137 
  -14540   -15315   -16283   -17119   -17770   -18387   -18986   -19381 
  -19413   -19151   -18706   -18029   -17205   -16519   -16025   -15539 
  -15039   -14616   -14273   -14011   -13919   -14056   -14346   -14624 
  -14758   -14715   -14524   -14214   -13795   -13343   -12964   -12672 
  -12395   -12074   -11731   -11462   -11338   -11345   -11507   -11904 
  -12544   -13342   -14189   -14999   -15703   -16221   -16521   -16615 
  -16497   -16179   -15789   -15496   -15388   -15431   -15502   -15498 
  -15403   -15233   -15056   -14971   -14971   -14989   -14999   -14995 
  -14983   -14962   -14856   -14573   -14133   -13682   -13379   -13271 
  -13278   -13240   -13026   -12692   -12476   -12533   -12798   -13113 
  -13385   -13612   -13846   -14111   -14380   -14631   -14787   -14731 
  -14499   -14341   -14440   -14762   -15213   -15726   -16183   -16487 
  -16613   -16575   -16406   -16144   -15819   -15502   -15276   -15097 
  -14850   -14565   -14345   -14170   -13968   -13768   -13725   -13905 
  -14139   -14265   -14339   -14370   -14258   -14068   -13911   -13733 
  -13446   -13066   -12668   -12309   -12010   -11823   -11904   -12399 
  -13182   -13906   -14358   -14561   -14665   -14825   -15045   -15188 
  -15149   -14916   -14575   -14266   -14000   -13651   -13192   -12741 
  -12326   -11901   -11541   -11327   -11237   -11275   -11466   -11826 
  -12382   -13028   -13536   -13782   -13760   -13512   -13184   -12934 
  -12711   -12368   -11911   -11449   -11140   -11126   -11387   -11803 
  -12347   -12980   -13599   -14181   -14814   -15601   -16553   -17497 
  -18179   -18435   -18314   -18034   -17797   -17608   -17397   -17166 
  -16965   -16803   -16714   -16762   -16934   -17162   -17393   -17582 
  -17666   -17581   -17286   -16792   -16173   -15530   -14958   -14455 
  -13977   -13594   -13432   -13432   -13367   -13211   -13169   -13328 
  -13606   -13948   -14280   -14517   -14611   -14478   -14118   -13676 
  -13244   -12829   -12487   -12239   -12054   -11974   -12074   -12321 
  -12631   -12947   -13227   -13498   -13783   -13968   -13945   -13819 
  -13799   -13952   -14185   -14377   -14476   -14472   -14311   -13934 
  -13385   -12800   -12353   -12159   -12141   -12135   -12098   -12063 
  -12033   -12042   -12125   -12249   -12399   -12648   -13066   -13570 
  -13988   -14327   -14787   -15419   -16051   -16613   -17134   -17496 
  -17555   -17424   -17327   -17305   -17246   -17143   -17100   -17097 
  -17028   -16875   -16687   -16544   -16506   -16521   -16490   -16410 
  -16356   -16348   -16260   -15954   -15527   -15249   -15183   -15098 
  -14832   -14492   -14234   -14037   -13867   -13817   -13863   -13776 
  -13454   -13099   -12927   -12907   -12926   -12984   -13107   -13246 
  -13298   -13189   -12951   -12706   -12546   -12492   -12503   -12556 
  -12707   -13050   -13539   -14054   -14558   -15025   -15341   -15473 
  -15595   -15846   -16101   -16201   -16175   -16043   -15716   -15269 
  -14929   -14774   -14681   -14557   -14519   -14710   -15014   -15252 
  -15516   -15935   -16413   -16768   -16945   -17045   -17118   -17030 
  -16699   -16289   -15988   -15742   -15421   -15005   -14520   -14017 
  -13593   -13251   -12900   -12532   -12231   -12040   -11917   -11812 
  -11724   -11666   -11692   -11857   -12058   -12110   -12024   -11997 
  -12136   -12360   -12561   -12739   -12933   -13117   -13252   -13377 
  -13628   -14068   -14531   -14817   -14931   -15005   -15109   -15191 
  -15222   -15255   -15269   -15176   -14979   -14737   -14436   -14040 
  -13537   -12987   -12507   -12152   -11823   -11479   -11322   -11526 
  -11975   -12483   -13031   -13667   -14350   -14982   -15520   -15977 
  -16295   -16417   -16387   -16282   -16151   -16017   -15849   -15661 
  -15547   -15549   -15596   -15657   -15770   -15921   -16004   -15963 
  -15850   -15705   -15499   -15221   -14955   -14782   -14728   -14756 
  -14793   -14796   -14804   -14859   -14963   -15059   -15060   -14916 
  -14646   -14347   -14183   -14242   -14465   -14701   -14796   -14725 
  -14602   -14482   -14316   -14084   -13834   -13601   -13324   -12937 
  -12542   -12312   -12226   -12150   -12140   -12422   -13016   -13724 
  -14412   -15024   -15503   -15858   -16112   -16279   -16452   -16676 
  -16865   -16910   -16707   -16225   -15658   -15310   -15255   -15319 
  -15368   -15438   -15630   -15936   -16245   -16488   -16698   -16876 
  -16939   -16831   -16524   -15993   -15345   -14760   -14251   -13779 
  -13450   -13293   -13117   -12798   -12449   -12191   -12019   -11948 
  -11992   -12032   -11917   -11662   -11457   -11418   -11514   -11735 
  -12114   -12621   -13180   -13732   -14256   -14767   -15229   -15566 
  -15736   -15751   -15715   -15761   -15838   -15781   -15601   -15454 
  -15408   -15402   -15376   -15344   -15333   -15330   -15268   -15080 
  -14752   -14373   -14079   -13922   -13902   -13991   -14115   -14231 
  -14365   -14524   -14671   -14813   -15048   -15457   -15924   -16244 
  -16411   -16600   -16806   -16843   -16692   -16522   -16389   -16183 
  -15851   -15481   -15168   -14875   -14538   -14143   -13668   -13092 
  -12514   -12108   -11902   -11772   -11684   -11712   -11875   -12170 
  -12667   -13369   -14073   -14544   -14737   -14733   -14638   -14553 
  -14476   -14303   -13987   -13616   -13352   -13273   -13294   -13369 
  -13602   -14077   -14731   -15425   -16011   -16375   -16502   -16490 
  -16483   -16490   -16351   -15946   -15323   -14611   -13987   -13663 
  -13757   -14177   -14732   -15310   -15819   -16187   -16483   -16776 
  -17034   -17217   -17302   -17294   -17220   -17014   -16633   -16195 
  -15804   -15458   -15114   -14674   -14058   -13394   -12865   -12486 
  -12233   -12140   -12117   -11978   -11701   -11502   -11601   -11967 
  -12282   -12302   -12125   -11959   -11857   -11824   -11931   -12204 
  -12575   -12984   -13405   -13794   -14100   -14347   -14647   -15070 
  -15511   -15819   -16006   -16154   -16308   -16560   -16992   -17543 
  -18119   -18701   -19222   -19507   -19441   -19074   -18526   -17848 
  -17016   -16047   -15051   -14110   -13248   -12494   -11835   -11248 
  -10806   -10569   -10443   -10336   -10285   -10319   -10396   -10482 
  -10596   -10782   -11084   -11538   -12163   -12920   -13679   -14310 
  -14843   -15469   -16283   -17126   -17771   -18122   -18206   -18144 
  -18095   -18137   -18260   -18370   -18304   -17955   -17401   -16787 
  -16185   -15638   -15241   -15026   -14868   -14607   -14245   -13944 
  -13857   -13949   -14038   -14056   -14048   -14030   -14014   -14068 
  -14200   -14303   -14280   -14139   -13898   -13566   -13243   -13051 
  -12982   -12892   -12704   -12499   -12371   -12371   -12498   -12583 
  -12457   -12214   -11977   -11684   -11360   -11242   -11416   -11699 
  -11917   -12071   -12199   -12287   -12318   -12275   -12058   -11605 
  -11074   -10655   -10420   -10455   -10786   -11269   -11724   -12019 
  -12125   -12239   -12571   -13085   -13605   -14010   -14237   -14251 
  -14112   -13949   -13894   -14007   -14253   -14554   -14875   -15194 
  -15431   -15491   -15367   -15144   -14839   -14365   -13748   -13200 
  -12927   -12920   -13054   -13301   -13726   -14319   -14931   -15377 
  -15647   -15961   -16509   -17203   -17822   -18237   -18346   -18088 
  -17582   -17023   -16501   -16002   -15475   -14871   -14243   -13784 
  -13698   -13965   -14386   -14885   -15435   -15913   -16256   -16506 
  -16718   -16970   -17271   -17521   -17664   -17675   -17482   -17042 
  -16401   -15701   -15109   -14693   -14497   -14615   -14970   -15249 
  -15284   -15228   -15256   -15383   -15577   -15792   -15936   -15970 
  -15947   -15876   -15728   -15601   -15569   -15533   -15372   -15074 
  -14720   -14488   -14470   -14523   -14450   -14200   -13801   -13277 
  -12725   -12330   -12172   -12116   -12015   -11857   -11653   -11443 
  -11323   -11337   -11429   -11558   -11680   -11711   -11631   -11516 
  -11465   -11530   -11685   -11873   -12052   -12191   -12291   -12398 
  -12548   -12754   -12984   -13131   -13086   -12864   -12663   -12729 
  -13089   -13532   -13907   -14173   -14291   -14308   -14422   -14773 
  -15241   -15587   -15709   -15666   -15597   -15664   -15934   -16345 
  -16669   -16654   -16336   -16004   -15881   -15986   -16243   -16567 
  -16888   -17146   -17316   -17417   -17479   -17382   -16946   -16290 
  -15697   -15171   -14632   -14235   -14096   -14111   -14111   -14003 
  -13851   -13822   -13968   -14152   -14287   -14447   -14700   -14995 
  -15214   -15314   -15354   -15323   -15141   -14885   -14762   -14847 
  -14994   -15014   -14860   -14582   -14251   -13998   -13929   -13949 
  -13887   -13732   -13544   -13385   -13366   -13527   -13740   -13830 
  -13730   -13562   -13485   -13493   -13520   -13626   -13828   -13972 
  -13944   -13855   -13875   -14025   -14241   -14462   -14638   -14715 
  -14639   -14454   -14380   -14570   -14870   -15001   -14862   -14528 
  -14068   -13578   -13266   -13242   -13371   -13463   -13483   -13520 
  -13639   -13883   -14287   -14837   -15492   -16160   -16719   -17172 
  -17667   -18208   -18558   -18504   -18046   -17379   -16715   -16166 
  -15773   -15565   -15539   -15643   -15768   -15826   -15849   -15913 
  -16000   -16042   -15993   -15819   -15545   -15240   -14912   -14580 
  -14281   -13941   -13512   -13135   -12982   -13100   -13393   -13680 
  -13848   -13898   -13878   -13886   -13988   -14121   -14195   -14207 
  -14185   -14112   -13992   -13926   -13976   -14053   -14041   -13945 
  -13857   -13811   -13778   -13726   -13698   -13818   -14089   -14331 
  -14465   -14600   -14798   -14982   -15041   -15005   -15012   -15072 
  -15090   -15049   -15007   -15021   -15066   -15007   -14701   -14146 
  -13517   -12949   -12425   -11956   -11676   -11599   -11585   -11560 
  -11526   -11527   -11677   -12044   -12544   -13077   -13599   -14019 
  -14189   -14073   -13784   -13490   -13320   -13288   -13274   -13223 
  -13266   -13500   -13875   -14334   -14764   -14983   -14905   -14569 
  -14122   -13826   -13757   -13703   -13560   -13463   -13458   -13439 
  -13410   -13529   -13860   -14216   -14395   -14488   -14696   -14935 
  -15032   -15128   -15388   -15681   -15830   -15823   -15754   -15704 
  -15677   -15655   -15742   -15996   -16179   -15986   -15510   -15140 
  -15076   -15178   -15213   -15093   -14866   -14646   -14515   -14430 
  -14250   -13950   -13675   -13498   -13316   -13085   -12911   -12862 
  -12892   -13026   -13417   -14068   -14728   -15176   -15435   -15599 
  -15645   -15554   -15426   -15342   -15276   -15165   -15028   -14972 
  -15061   -15237   -15453   -15682   -15819   -15759   -15589   -15496 
  -15527   -15574   -15591   -15622   -15634   -15566   -15483   -15511 
  -15655   -15751   -15641   -15379   -15109   -14872   -14725   -14782 
  -15024   -15249   -15333   -15338   -15344   -15311   -15176   -15009 
  -14960   -15115   -15380   -15499   -15290   -14859   -14507   -14415 
  -14489   -14527   -14447   -14269   -13998   -13694   -13495   -13386 
  -13188   -12880   -12636   -12511   -12383   -12229   -12185   -12248 
  -12285   -12303   -12395   -12560   -12765   -13018   -13305   -13585 
  -13822   -14011   -14176   -14350   -14509   -14531   -14305   -13914 
  -13602   -13513   -13547   -13576   -13652   -13867   -14211   -14643 
  -15086   -15429   -15604   -15616   -15515   -15333   -15093   -14848 
  -14609   -14400   -14361   -14554   -14877   -15250   -15615   -15823 
  -15807   -15676   -15552   -15531   -15660   -15827   -15903   -15869 
  -15728   -15456   -15072   -14624   -14203   -13932   -13794   -13643 
  -13409   -13170   -13041   -13042   -13099   -13166   -13329   -13632 
  -13925   -14123   -14323   -14512   -14585   -14582   -14590   -14581 
  -14486   -14339   -14235   -14219   -14307   -14519   -14781   -14962 
