Origin Time       2025/01/13 21:19:00
Lat.              31.8
Long.             131.6
Depth. (km)       30
Mag.              6.9
Station Code      OITH08
Station Lat.      32.8392
Station Long.     131.5357
Station Height(m) 159
Record Time       2025/01/13 21:19:51
Sampling Freq(Hz) 100Hz
Duration Time(s)  162
Dir.              1
Scale Factor      2942(gal)/8224139
Max. Acc. (gal)   7.375
Last Correction   2025/01/13 21:19:51
Memo.             
[...]
  -90193   -89976   -89901   -89889   -89965   -90093   -90198   -90327 
  -90428   -90460   -90649   -91158   -91782   -92156   -92148   -91997 
  -91894   -91690   -91331   -90999   -90717   -90440   -90290   -90319 
  -90532   -90957   -91354   -91419   -91216   -90965   -90788   -90802 
  -91031   -91296   -91380   -91253   -91031   -90867   -90876   -91037 
  -91219   -91266   -91065   -90688   -90298   -89903   -89564   -89445 
  -89498   -89559   -89600   -89662   -89764   -89914   -90088   -90269 
  -90498   -90756   -90904   -90879   -90830   -90926   -91156   -91378 
  -91450   -91355   -91172   -90945   -90732   -90595   -90505   -90409 
  -90350   -90354   -90451   -90728   -91122   -91400   -91438   -91311 
  -91174   -91083   -91011   -90931   -90771   -90571   -90501   -90547 
  -90522   -90450   -90464   -90433   -90240   -90080   -90034   -90050 
  -90192   -90387   -90439   -90391   -90431   -90633   -91015   -91477 
  -91756   -91766   -91689   -91706   -91817   -91879   -91817   -91619 
  -91292   -90994   -90841   -90729   -90702   -90946   -91285   -91416 
  -91412   -91438   -91369   -91038   -90636   -90499   -90598   -90568 
  -90247   -89874   -89710   -89746   -89891   -90134   -90423   -90680 
  -90999   -91555   -92335   -93056   -93438   -93464   -93299   -93087 
  -92882   -92607   -92157   -91644   -91272   -91039   -90861   -90768 
  -90744   -90660   -90468   -90248   -90112   -90158   -90356   -90539 
  -90616   -90602   -90483   -90270   -90028   -89792   -89606   -89526 
  -89457   -89392   -89614   -90103   -90486   -90661   -90682   -90564 
  -90474   -90470   -90410   -90342   -90401   -90518   -90579   -90647 
  -90767   -90780   -90572   -90329   -90254   -90271   -90228   -90126 
  -89984   -89868   -89912   -90109   -90364   -90574   -90630   -90703 
  -91012   -91395   -91623   -91728   -91794   -91763   -91590   -91370 
  -91187   -91058   -91029   -91035   -90852   -90431   -90059   -89991 
  -90161   -90313   -90333   -90366   -90560   -90903   -91274   -91534 
  -91590   -91493   -91361   -91226   -91044   -90774   -90396   -89904 
  -89371   -88985   -88900   -89047   -89245   -89446   -89758   -90201 
  -90688   -91239   -91831   -92286   -92491   -92488   -92515   -92803 
  -93114   -93085   -92812   -92527   -92275   -92118   -92032   -91871 
  -91692   -91565   -91401   -91212   -91115   -91112   -91054   -90801 
  -90537   -90567   -90798   -90990   -91129   -91281   -91463   -91631 
  -91670   -91547   -91408   -91351   -91284   -91145   -91061   -91118 
  -91241   -91341   -91358   -91243   -91017   -90803   -90720   -90742 
  -90713   -90641   -90760   -90996   -90954   -90566   -90116   -89800 
  -89623   -89463   -89236   -89128   -89322   -89710   -90036   -90119 
  -90046   -90099   -90324   -90556   -90737   -90914   -91153   -91457 
  -91685   -91686   -91547   -91562   -91793   -91937   -91827   -91561 
  -91216   -90883   -90621   -90331   -90076   -90080   -90232   -90209 
  -89999   -89865   -89954   -90255   -90674   -90967   -91021   -90933 
  -90687   -90329   -90153   -90223   -90350   -90548   -90848   -91027 
  -90925   -90607   -90265   -90088   -90146   -90328   -90444   -90418 
  -90306   -90142   -89957   -89773   -89633   -89688   -89965   -90308 
  -90644   -90910   -91041   -91114   -91143   -91081   -90940   -90738 
  -90512   -90332   -90378   -90805   -91432   -91951   -92287   -92519 
  -92730   -92863   -92766   -92472   -92213   -92129   -92118   -91997 
  -91771   -91503   -91131   -90759   -90622   -90703   -90802   -90861 
  -90887   -90850   -90768   -90772   -91002   -91372   -91706   -91994 
  -92178   -92138   -92041   -92152   -92448   -92722   -92774   -92550 
  -92171   -91666   -91002   -90398   -90171   -90389   -90846   -91231 
  -91359   -91304   -91215   -91158   -91164   -91269   -91430   -91498 
  -91373   -91152   -91049   -91126   -91261   -91301   -91129   -90811 
  -90589   -90540   -90582   -90660   -90809   -91084   -91423   -91625 
  -91675   -91760   -91976   -92329   -92720   -92936   -92905   -92705 
  -92437   -92252   -92105   -91762   -91282   -90896   -90661   -90533 
  -90441   -90304   -90112   -89942   -89870   -89937   -90104   -90262 
  -90427   -90693   -90979   -91133   -91119   -91091   -91270   -91570 
  -91712   -91728   -91901   -92389   -93019   -93357   -93286   -93163 
  -93225   -93312   -93255   -93163   -93189   -93217   -93070   -92804 
  -92570   -92421   -92333   -92219   -92040   -91898   -91887   -92006 
  -92242   -92495   -92607   -92572   -92516   -92561   -92695   -92797 
  -92824   -92816   -92750   -92619   -92477   -92291   -91895   -91277 
  -90703   -90335   -90080   -89922   -89876   -89847   -89823   -89853 
  -89954   -90158   -90447   -90730   -90888   -90852   -90740   -90713 
  -90720   -90699   -90684   -90532   -90146   -89719   -89360   -89079 
  -89044   -89260   -89406   -89325   -89243   -89380   -89677   -89939 
  -90045   -90067   -90190   -90427   -90670   -90938   -91243   -91365 
  -91096   -90533   -89985   -89642   -89440   -89253   -89040   -88680 
  -88055   -87316   -86783   -86582   -86607   -86705   -86794   -86964 
  -87358   -87849   -88150   -88268   -88476   -88875   -89302   -89621 
  -89869   -90099   -90305   -90509   -90705   -90818   -90755   -90502 
  -90228   -90111   -90131   -90175   -90131   -89973   -89858   -89900 
  -90003   -90097   -90181   -90259   -90363   -90451   -90499   -90607 
  -90748   -90832   -90879   -90888   -90815   -90678   -90543   -90460 
  -90421   -90408   -90381   -90224   -89959   -89788   -89803   -89910 
  -89995   -90023   -90016   -90034   -90162   -90316   -90248   -89946 
  -89629   -89422   -89426   -89739   -90313   -91003   -91644   -92144 
  -92565   -92915   -93073   -93027   -92889   -92767   -92695   -92601 
  -92484   -92410   -92261   -91882   -91345   -90815   -90423   -90236 
  -90196   -90170   -90074   -89839   -89429   -88996   -88731   -88614 
  -88501   -88281   -87952   -87677   -87655   -87939   -88445   -89063 
  -89738   -90427   -91057   -91625   -92152   -92535   -92772   -93133 
  -93795   -94540   -95133   -95592   -95953   -96202   -96433   -96743 
  -97027   -97097   -96916   -96589   -96203   -95770   -95235   -94606 
  -94069   -93853   -93985   -94324   -94767   -95262   -95651   -95793 
  -95748   -95627   -95503   -95463   -95513   -95581   -95608   -95550 
  -95416   -95249   -94981   -94494   -93752   -92823   -91843   -90965 
  -90213   -89457   -88620   -87732   -86848   -86042   -85405   -85001 
  -84869   -84939   -85016   -84943   -84723   -84484   -84304   -84092 
  -83740   -83226   -82561   -81812   -81020   -80172   -79343   -78637 
  -78015   -77519   -77365   -77542   -77755   -77827   -77731   -77487 
  -77261   -77295   -77668   -78300   -79087   -79893   -80609   -81311 
  -82188   -83280   -84453   -85518   -86333   -86891   -87319   -87794 
  -88439   -89235   -90053   -90855   -91650   -92453   -93406   -94602 
  -95871   -96985   -97869   -98605   -99257   -99743   -99987  -100074 
 -100060   -99949   -99823   -99790   -99864   -99979  -100020   -99854 
  -99397   -98720   -98000   -97332   -96692   -96087   -95628   -95358 
  -95158   -94848   -94296   -93561   -92828   -92078   -91223   -90427 
  -89816   -89352   -89001   -88739   -88589   -88574   -88585   -88534 
  -88476   -88523   -88789   -89334   -90077   -90933   -91920   -92913 
  -93627   -94016   -94265   -94405   -94301   -93900   -93305   -92699 
  -92272   -92099   -92084   -92113   -92156   -92330   -92831   -93719 
  -94857   -96022   -97044   -97939   -98810   -99565   -99970   -99927 
  -99511   -98818   -97956   -97150   -96579   -96234   -96076   -96103 
  -96234   -96344   -96426   -96568   -96780   -97019   -97274   -97519 
  -97719   -97919   -98203   -98601   -99041   -99345   -99418   -99312 
  -99114   -98964   -98968   -98986   -98847   -98500   -97837   -96804 
  -95515   -94104   -92677   -91316   -90005   -88619   -87139   -85714 
  -84325   -82806   -81267   -80055   -79357   -79157   -79353   -79737 
  -80099   -80352   -80509   -80630   -80758   -80827   -80819   -80901 
  -81207   -81650   -82089   -82530   -83022   -83566   -84181   -84800 
  -85288   -85649   -85926   -86125   -86347   -86621   -86810   -86846 
  -86751   -86566   -86378   -86202   -85988   -85749   -85477   -85132 
  -84824   -84674   -84643   -84634   -84585   -84569   -84781   -85364 
  -86333   -87562   -88839   -90024   -91035   -91854   -92561   -93232 
  -93846   -94392   -94880   -95285   -95596   -95828   -95925   -95775 
  -95366   -94829   -94328   -93873   -93356   -92789   -92381   -92222 
  -92210   -92287   -92406   -92469   -92441   -92307   -92097   -91967 
  -92033   -92259   -92551   -92784   -92859   -92826   -92828   -92996 
  -93434   -94216   -95243   -96244   -97019   -97546   -97866   -98055 
  -98158   -98131   -97980   -97788   -97596   -97494   -97619   -97976 
  -98469   -99057   -99698  -100267  -100653  -100888  -101052  -101163 
 -101200  -101127  -100931  -100618  -100179   -99603   -98818   -97726 
  -96345   -94846   -93457   -92295   -91253   -90185   -89095   -88088 
  -87269   -86606   -85980   -85375   -84798   -84167   -83428   -82637 
  -81893   -81217   -80532   -79797   -78995   -78131   -77326   -76696 
  -76169   -75621   -75061   -74682   -74686   -75088   -75745   -76445 
  -77067   -77733   -78520   -79340   -80265   -81452   -82900   -84518 
  -86154   -87660   -88947   -89897   -90560   -91195   -91951   -92834 
  -93802   -94713   -95413   -95898   -96199   -96302   -96256   -96175 
  -96051   -95764   -95210   -94392   -93475   -92696   -92275   -92337 
  -92731   -93121   -93282   -93179   -92877   -92523   -92271   -92124 
  -92014   -91957   -91924   -91802   -91552   -91143   -90590   -90030 
  -89502   -88936   -88366   -87899   -87596   -87403   -87196   -87026 
  -87003   -86999   -86911   -86903   -87107   -87523   -88176   -89050 
  -90000   -90834   -91458   -91905   -92188   -92349   -92496   -92659 
  -92803   -92904   -92962   -93055   -93181   -93175   -92977   -92697 
  -92485   -92433   -92476   -92470   -92426   -92445   -92511   -92608 
  -92801   -93050   -93303   -93595   -93879   -94076   -94176   -94170 
  -94085   -93951   -93799   -93699   -93698   -93746   -93738   -93669 
  -93629   -93611   -93568   -93560   -93648   -93816   -93962   -93933 
  -93696   -93402   -93248   -93360   -93726   -94230   -94832   -95553 
  -96333   -97119   -97872   -98505   -98971   -99252   -99262   -98930 
  -98274   -97357   -96306   -95287   -94329   -93325   -92234   -91133 
  -90046   -88929   -87798   -86691   -85656   -84811   -84262   -83987 
  -83903   -83932   -83998   -84105   -84308   -84623   -85023   -85514 
  -86088   -86651   -87147   -87655   -88250   -88913   -89587   -90212 
  -90751   -91201   -91582   -91887   -92060   -92082   -91982   -91724 
  -91312   -90903   -90586   -90290   -89992   -89792   -89820   -90097 
  -90458   -90715   -90822   -90778   -90622   -90474   -90367   -90255 
  -90169   -90139   -90096   -89910   -89588   -89326   -89259   -89340 
  -89478   -89600   -89649   -89645   -89742   -90097   -90718   -91478 
  -92172   -92643   -92917   -93071   -93132   -93144   -93214   -93456 
  -93895   -94439   -95000   -95540   -95962   -96186   -96237   -96149 
  -95952   -95728   -95497   -95227   -94887   -94362   -93553   -92605 
  -91725   -90956   -90262   -89583   -88839   -88045   -87265   -86441 
  -85473   -84396   -83346   -82447   -81714   -81068   -80562   -80374 
  -80568   -81021   -81583   -82213   -82899   -83573   -84195   -84790 
  -85328   -85793   -86248   -86660   -86992   -87309   -87605   -87824 
  -87987   -88086   -88101   -88101   -88141   -88261   -88527   -88929 
  -89422   -90012   -90676   -91359   -92020   -92661   -93337   -94096 
  -94945   -95813   -96515   -96855   -96789   -96452   -96067   -95804 
  -95754   -95933   -96187   -96237   -95955   -95465   -95034   -94899 
  -95095   -95466   -95816   -96106   -96449   -96859   -97221   -97505 
  -97706   -97769   -97683   -97460   -97186   -96990   -96813   -96581 
  -96402   -96276   -96037   -95555   -94806   -93930   -93162   -92600 
  -92130   -91656   -91247   -90948   -90722   -90628   -90722   -90910 
  -90954   -90688   -90232   -89800   -89398   -88936   -88447   -88057 
  -87866   -87849   -87793   -87508   -87126   -86877   -86763   -86640 
  -86421   -86112   -85747   -85365   -84997   -84655   -84372   -84188 
  -84138   -84295   -84708   -85376   -86204   -86950   -87446   -87718 
  -87793   -87646   -87318   -86868   -86432   -86223   -86211   -86211 
  -86192   -86081   -85774   -85395   -85108   -84936   -84846   -84819 
  -84886   -85098   -85446   -85916   -86431   -86798   -86934   -86930 
  -86832   -86726   -86802   -87077   -87399   -87740   -88176   -88738 
  -89473   -90385   -91386   -92439   -93514   -94531   -95436   -96256 
  -97054   -97835   -98510   -98996   -99261   -99365   -99420   -99511 
  -99642   -99756   -99771   -99658   -99443   -99152   -98791   -98339 
  -97811   -97359   -97150   -97186   -97297   -97282   -97097   -96912 
  -96927   -97174   -97563   -98023   -98531   -99048   -99508   -99947 
 -100525  -101287  -102111  -102852  -103419  -103808  -104082  -104259 
 -104323  -104274  -104078  -103682  -103069  -102255  -101282  -100156 
  -98841   -97326   -95644   -93839   -91945   -89974   -87979   -86058 
  -84285   -82671   -81201   -79863   -78588   -77257   -75780   -74187 
  -72681   -71497   -70717   -70314   -70254   -70445   -70777   -71155 
  -71504   -71921   -72681   -73849   -75216   -76642   -78101   -79564 
  -81032   -82544   -84117   -85749   -87413   -89036   -90593   -92086 
  -93518   -94884   -96114   -97158   -98053   -98801   -99380   -99860 
 -100326  -100768  -101160  -101460  -101536  -101304  -100831  -100257 
  -99679   -99121   -98567   -98001   -97410   -96758   -95975   -95037 
  -93991   -92848   -91575   -90219   -88905   -87736   -86759   -85976 
  -85382   -84951   -84603   -84322   -84230   -84360   -84609   -84896 
  -85144   -85347   -85607   -85992   -86483   -86977   -87303   -87392 
  -87355   -87366   -87493   -87655   -87790   -87937   -88084   -88153 
  -88146   -88117   -88121   -88248   -88572   -89102   -89773   -90482 
  -91165   -91785   -92257   -92511   -92572   -92514   -92389   -92213 
  -92026   -91891   -91756   -91582   -91488   -91555   -91662   -91629 
  -91377   -90922   -90354   -89816   -89453   -89341   -89468   -89762 
  -90109   -90447   -90817   -91285   -91895   -92682   -93604   -94506 
  -95231   -95746   -96056   -96176   -96188   -96115   -95908   -95624 
  -95381   -95181   -94988   -94737   -94356   -93831   -93226   -92662 
  -92202   -91839   -91570   -91358   -91142   -90869   -90537   -90216 
  -89937   -89648   -89286   -88835   -88369   -87967   -87655   -87474 
  -87463   -87588   -87735   -87813   -87841   -87817   -87635   -87243 
  -86706   -86062   -85332   -84543   -83729   -82979   -82435   -82152 
  -82097   -82275   -82715   -83439   -84472   -85745   -87089   -88465 
  -89833   -91027   -92036   -93004   -93970   -94946   -95912   -96654 
  -97021   -97182   -97329   -97461   -97587   -97731   -97798   -97672 
  -97386   -96990   -96454   -95786   -95045   -94297   -93637   -93110 
  -92638   -92119   -91534   -90944   -90431   -90026   -89704   -89448 
  -89235   -88990   -88624   -88103   -87462   -86768   -86078   -85441 
  -84879   -84388   -83983   -83717   -83712   -84049   -84620   -85256 
  -85874   -86408   -86867   -87401   -88177   -89240   -90478   -91704 
  -92830   -93904   -94949   -95899   -96693   -97359   -97960   -98504 
  -98932   -99196   -99331   -99372   -99291   -99077   -98798   -98529 
  -98325   -98204   -98135   -98051   -97884   -97606   -97218   -96726 
  -96120   -95409   -94659   -93893   -93106   -92349   -91647   -90988 
  -90470   -90123   -89789   -89378   -88913   -88418   -87885   -87183 
  -86212   -85149   -84279   -83775   -83714   -84005   -84392   -84674 
  -84816   -84850   -84838   -84886   -85093   -85572   -86395   -87489 
  -88744   -90039   -91220   -92267   -93240   -94126   -94933   -95769 
  -96674   -97536   -98240   -98734   -98972   -98975   -98814   -98533 
  -98217   -97931   -97684   -97542   -97551   -97590   -97514   -97240 
  -96708   -96003   -95316   -94697   -94107   -93536   -92956   -92376 
  -91793   -91172   -90628   -90297   -90100   -89903   -89634   -89235 
  -88700   -88086   -87463   -86906   -86444   -86100   -85943   -85980 
  -86128   -86363   -86667   -86948   -87164   -87378   -87698   -88230 
  -88959   -89726   -90377   -90842   -91120   -91261   -91342   -91458 
  -91694   -92088   -92669   -93361   -93961   -94374   -94707   -95014 
  -95246   -95361   -95297   -95018   -94649   -94348   -94022   -93444 
  -92558   -91420   -90157   -88952   -87902   -86988   -86198   -85571 
  -85114   -84824   -84711   -84761   -84890   -85010   -85099   -85189 
  -85324   -85540   -85849   -86263   -86753   -87196   -87511   -87760 
  -88059   -88433   -88851   -89336   -89866   -90302   -90560   -90629 
  -90460   -90046   -89418   -88620   -87731   -86825   -85962   -85205 
  -84580   -84149   -84034   -84265   -84765   -85438   -86192   -86996 
  -87914   -88925   -89911   -90799   -91594   -92353   -93185   -94109 
  -94980   -95647   -96037   -96141   -96070   -95967   -95818   -95509 
  -94975   -94252   -93499   -92819   -92148   -91482   -90954   -90599 
  -90305   -89996   -89700   -89483   -89383   -89409   -89519   -89644 
  -89722   -89743   -89749   -89738   -89687   -89671   -89804   -90085 
  -90410   -90744   -91102   -91458   -91820   -92232   -92647   -93013 
  -93336   -93575   -93687   -93712   -93649   -93452   -93187   -92966 
  -92793   -92593   -92295   -91856   -91299   -90699   -90086   -89449 
  -88851   -88354   -87972   -87754   -87725   -87833   -88018   -88245 
  -88466   -88645   -88758   -88830   -88913   -89077   -89426   -89976 
  -90567   -91087   -91539   -91899   -92179   -92477   -92823   -93156 
  -93451   -93731   -94051   -94412   -94717   -94860   -94801   -94547 
  -94166   -93803   -93582   -93502   -93413   -93174   -92790   -92335 
  -91859   -91436   -91134   -90907   -90663   -90394   -90103   -89758 
  -89379   -89020   -88699   -88416   -88215   -88137   -88165   -88315 
  -88611   -88982   -89330   -89641   -90000   -90509   -91215   -92059 
  -92928   -93772   -94613   -95523   -96584   -97731   -98718   -99350 
  -99594   -99553   -99378   -99117   -98672   -98042   -97380   -96809 
  -96331   -95870   -95266   -94441   -93545   -92716   -91989   -91417 
  -91000   -90666   -90409   -90223   -90030   -89784   -89552   -89407 
  -89280   -89028   -88600   -88080   -87602   -87170   -86683   -86103 
  -85488   -84939   -84526   -84230   -83968   -83717   -83543   -83511 
  -83681   -84125   -84836   -85706   -86651   -87612   -88492   -89229 
  -89846   -90364   -90782   -91095   -91303   -91438   -91578   -91783 
  -92014   -92134   -92038   -91794   -91585   -91532   -91598   -91673 
  -91671   -91575   -91419   -91247   -91091   -90979   -90953   -91017 
  -91077   -91041   -90872   -90560   -90150   -89779   -89548   -89455 
  -89419   -89355   -89237   -89094   -88938   -88785   -88695   -88666 
  -88620   -88566   -88623   -88878   -89333   -89877   -90375   -90796 
