Origin Time       2025/01/13 21:19:00
Lat.              31.8
Long.             131.6
Depth. (km)       30
Mag.              6.9
Station Code      OITH02
Station Lat.      33.4581
Station Long.     131.4429
Station Height(m) 65
Record Time       2025/01/13 21:20:02
Sampling Freq(Hz) 100Hz
Duration Time(s)  179
Dir.              3
Scale Factor      3923(gal)/8224838
Max. Acc. (gal)   1.536
Last Correction   2025/01/13 21:20:02
Memo.             
[...]
    6546     6555     6581     6625     6686     6758     6837     6920 
    6995     7052     7083     7071     7005     6898     6764     6612 
    6442     6253     6077     5930     5806     5709     5625     5530 
    5436     5367     5324     5301     5298     5293     5277     5267 
    5266     5260     5250     5217     5170     5135     5108     5080 
    5050     5017     4973     4931     4905     4893     4874     4855 
    4853     4864     4892     4958     5054     5152     5240     5336 
    5454     5582     5715     5859     5981     6068     6142     6238 
    6365     6502     6619     6701     6764     6826     6887     6928 
    6937     6940     6947     6929     6872     6795     6732     6718 
    6758     6812     6845     6843     6804     6768     6774     6818 
    6875     6913     6934     6976     7040     7102     7156     7180 
    7160     7121     7075     7025     6984     6943     6902     6897 
    6932     6968     6972     6936     6885     6835     6779     6705 
    6596     6458     6316     6191     6077     5981     5918     5908 
    5944     6003     6075     6154     6228     6320     6444     6567 
    6664     6735     6772     6772     6728     6619     6471     6318 
    6158     5987     5814     5664     5557     5490     5443     5412 
    5416     5467     5563     5680     5796     5896     5967     6016 
    6075     6143     6192     6204     6181     6134     6100     6097 
    6083     6035     5987     5971     5985     6016     6042     6052 
    6050     6066     6112     6191     6295     6389     6448     6498 
    6562     6624     6669     6689     6679     6648     6609     6575 
    6565     6566     6565     6562     6551     6531     6511     6489 
    6451     6405     6355     6299     6226     6133     6043     5988 
    5946     5890     5823     5761     5703     5649     5597     5563 
    5545     5528     5521     5543     5575     5593     5599     5621 
    5667     5725     5779     5815     5823     5821     5833     5861 
    5891     5911     5908     5880     5840     5799     5773     5765 
    5765     5776     5805     5833     5857     5891     5923     5952 
    6012     6110     6211     6301     6373     6409     6416     6417 
    6417     6389     6307     6184     6050     5923     5807     5688 
    5560     5433     5321     5217     5093     4931     4768     4637 
    4553     4513     4500     4510     4545     4623     4770     4984 
    5229     5475     5717     5958     6189     6413     6639     6862 
    7061     7214     7296     7310     7298     7292     7294     7292 
    7268     7191     7071     6951     6868     6833     6828     6828 
    6812     6772     6741     6760     6821     6889     6945     7002 
    7061     7119     7177     7242     7300     7334     7353     7380 
    7425     7496     7578     7634     7651     7641     7631     7647 
    7676     7677     7623     7541     7483     7480     7535     7616 
    7666     7673     7665     7669     7705     7751     7753     7672 
    7514     7302     7067     6839     6617     6397     6183     5976 
    5784     5611     5449     5285     5101     4907     4719     4565 
    4477     4438     4391     4330     4283     4249     4228     4248 
    4320     4428     4548     4654     4742     4831     4932     5032 
    5131     5227     5308     5360     5404     5445     5471     5486 
    5514     5568     5640     5733     5845     5968     6106     6261 
    6458     6708     6987     7267     7535     7793     8039     8247 
    8397     8473     8484     8457     8415     8351     8256     8147 
    8029     7882     7707     7504     7265     7013     6774     6566 
    6397     6278     6216     6184     6149     6111     6076     6043 
    6023     6023     6041     6060     6050     6006     5961     5942 
    5949     5972     6007     6056     6123     6207     6284     6331 
    6349     6336     6299     6258     6223     6178     6138     6093 
    6025     5937     5845     5767     5737     5753     5768     5765 
    5759     5746     5746     5794     5864     5903     5896     5852 
    5792     5733     5674     5611     5535     5427     5310     5224 
    5175     5170     5212     5270     5331     5424     5557     5717 
    5883     6046     6197     6336     6463     6586     6706     6806 
    6874     6910     6899     6840     6760     6691     6639     6577 
    6474     6322     6143     5962     5802     5676     5589     5525 
    5474     5418     5355     5281     5205     5166     5190     5260 
    5337     5390     5418     5443     5491     5586     5729     5898 
    6061     6226     6401     6570     6712     6836     6934     6987 
    6995     6979     6940     6868     6798     6781     6804     6833 
    6871     6910     6941     6987     7052     7106     7133     7132 
    7105     7052     6986     6922     6867     6812     6748     6662 
    6558     6458     6384     6331     6286     6243     6187     6103 
    6007     5913     5794     5651     5495     5331     5189     5112 
    5085     5077     5074     5085     5116     5171     5228     5269 
    5292     5298     5289     5262     5213     5143     5055     4965 
    4885     4804     4699     4579     4464     4367     4295     4234 
    4163     4089     4024     3985     3986     4025     4077     4118 
    4126     4083     4006     3917     3824     3726     3624     3528 
    3438     3362     3335     3380     3487     3622     3774     3948 
    4124     4307     4537     4796     5042     5283     5535     5786 
    6043     6330     6640     6945     7226     7457     7632     7796 
    7958     8105     8217     8264     8255     8218     8152     8046 
    7911     7762     7603     7452     7326     7222     7130     7047 
    6979     6930     6910     6937     7026     7142     7227     7263 
    7252     7192     7114     7063     7028     6975     6907     6840 
    6775     6721     6686     6675     6685     6704     6744     6812 
    6894     6984     7059     7091     7088     7059     6995     6905 
    6797     6686     6594     6519     6426     6311     6192     6069 
    5950     5863     5813     5786     5778     5802     5867     5967 
    6088     6220     6372     6524     6656     6760     6849     6930 
    7003     7078     7157     7223     7252     7233     7195     7152 
    7103     7048     6982     6905     6817     6704     6565     6421 
    6297     6197     6129     6085     6054     6035     6037     6054 
    6097     6187     6332     6527     6745     6961     7168     7356 
    7510     7635     7735     7786     7770     7695     7587     7488 
    7430     7406     7384     7337     7268     7195     7146     7132 
    7144     7176     7211     7238     7250     7256     7265     7292 
    7339     7393     7434     7477     7554     7653     7713     7703 
    7624     7492     7318     7117     6903     6681     6432     6164 
    5904     5678     5505     5394     5313     5228     5124     4999 
    4881     4797     4723     4627     4491     4317     4137     3987 
    3889     3843     3829     3839     3888     4000     4167     4353 
    4531     4698     4849     4982     5081     5117     5109     5108 
    5150     5243     5341     5383     5371     5337     5290     5244 
    5219     5224     5255     5292     5317     5340     5374     5424 
    5471     5486     5467     5437     5431     5472     5559     5667 
    5791     5922     6043     6151     6242     6322     6413     6525 
    6644     6762     6876     6979     7078     7191     7325     7466 
    7616     7792     7998     8218     8432     8623     8779     8876 
    8904     8885     8853     8822     8775     8702     8603     8495 
    8419     8401     8419     8437     8437     8437     8445     8442 
    8407     8320     8158     7911     7589     7211     6802     6389 
    6004     5667     5367     5092     4842     4639     4498     4403 
    4322     4225     4112     3996     3894     3828     3789     3765 
    3767     3796     3844     3925     4039     4168     4307     4445 
    4563     4661     4754     4846     4927     4995     5031     5038 
    5039     5036     5032     5034     5034     5036     5081     5178 
    5308     5441     5551     5644     5764     5925     6120     6347 
    6586     6809     7003     7180     7349     7515     7668     7782 
    7859     7920     7971     8005     7996     7940     7843     7705 
    7547     7376     7177     6957     6727     6482     6231     5996 
    5792     5634     5544     5509     5525     5616     5792     6031 
    6277     6478     6627     6743     6841     6936     7020     7076 
    7096     7101     7115     7152     7192     7221     7242     7288 
    7392     7554     7731     7879     8006     8149     8301     8441 
    8557     8634     8660     8625     8527     8382     8218     8048 
    7873     7699     7534     7379     7249     7132     6991     6802 
    6552     6259     5952     5641     5320     5012     4752     4558 
    4432     4353     4302     4251     4171     4075     3997     3937 
    3879     3827     3796     3798     3820     3840     3848     3858 
    3882     3912     3933     3954     4008     4131     4332     4591 
    4884     5194     5509     5819     6131     6435     6705     6943 
    7165     7391     7618     7844     8085     8333     8553     8734 
    8881     8984     9040     9054     9023     8953     8854     8734 
    8599     8469     8356     8248     8124     7987     7862     7753 
    7672     7628     7623     7641     7651     7622     7553     7472 
    7395     7294     7141     6948     6723     6480     6242     6011 
    5775     5536     5300     5080     4891     4730     4568     4399 
    4241     4099     3982     3885     3797     3743     3748     3805 
    3892     3974     4032     4082     4158     4272     4429     4614 
    4796     4970     5157     5343     5494     5610     5698     5767 
    5838     5927     6022     6111     6204     6305     6401     6498 
    6602     6694     6758     6794     6806     6806     6818     6855 
    6906     6970     7028     7057     7061     7067     7087     7107 
    7117     7113     7090     7069     7071     7094     7126     7152 
    7156     7141     7129     7133     7164     7219     7288     7366 
    7442     7507     7568     7624     7662     7668     7639     7605 
    7591     7604     7647     7724     7813     7898     7986     8087 
    8194     8297     8392     8479     8538     8553     8518     8430 
    8284     8104     7920     7755     7604     7446     7264     7055 
    6817     6559     6288     6003     5719     5448     5181     4922 
    4696     4526     4429     4410     4455     4534     4626     4710 
    4784     4853     4907     4946     4988     5032     5063     5076 
    5092     5130     5198     5305     5456     5655     5886     6114 
    6309     6448     6547     6633     6698     6721     6709     6662 
    6589     6523     6480     6447     6417     6386     6362     6369 
    6419     6489     6558     6637     6741     6858     6975     7082 
    7145     7159     7163     7188     7213     7196     7126     7017 
    6886     6743     6608     6489     6369     6247     6130     6006 
    5867     5717     5556     5395     5251     5107     4954     4801 
    4653     4525     4436     4375     4314     4243     4164     4077 
    3981     3886     3800     3730     3704     3734     3804     3890 
    3963     4012     4052     4108     4182     4266     4347     4441 
    4592     4820     5101     5394     5683     5969     6250     6523 
    6781     7005     7183     7314     7407     7476     7519     7523 
    7474     7377     7240     7069     6886     6710     6539     6358 
    6177     6011     5879     5778     5690     5610     5547     5503 
    5489     5506     5526     5537     5564     5621     5692     5773 
    5853     5898     5902     5895     5895     5898     5907     5930 
    5958     5980     5989     5973     5925     5869     5845     5857 
    5896     5949     5989     5998     5977     5944     5906     5875 
    5850     5836     5829     5832     5846     5871     5900     5937 
    5979     6046     6154     6292     6447     6610     6763     6898 
    7010     7096     7157     7191     7190     7159     7119     7078 
    7025     6952     6847     6704     6556     6448     6385     6327 
    6249     6156     6068     6016     6015     6065     6150     6251 
    6354     6477     6616     6740     6844     6924     6980     7028 
    7065     7078     7069     7036     6971     6891     6806     6724 
    6646     6562     6470     6381     6296     6215     6151     6093 
    6023     5935     5826     5694     5548     5390     5228     5076 
    4953     4880     4862     4878     4909     4943     4968     4984 
    5001     5019     5022     4996     4951     4901     4864     4853 
    4861     4857     4841     4828     4837     4869     4919     4984 
    5057     5124     5198     5297     5433     5611     5815     6025 
    6218     6378     6478     6504     6478     6434     6367     6254 
    6104     5927     5728     5528     5347     5190     5066     4973 
    4900     4855     4861     4907     4980     5080     5206     5381 
    5609     5876     6172     6470     6724     6925     7110     7296 
    7462     7608     7751     7905     8079     8278     8486     8688 
    8885     9066     9217     9333     9405     9421     9385     9294 
    9159     9008     8845     8658     8446     8216     7970     7712 
    7439     7172     6940     6752     6608     6484     6367     6255 
    6149     6046     5952     5859     5751     5618     5467     5317 
    5188     5101     5065     5081     5130     5194     5277     5387 
    5533     5694     5838     5948     6025     6079     6120     6162 
    6211     6259     6286     6292     6297     6300     6289     6253 
    6196     6129     6043     5948     5869     5829     5818     5830 
    5875     5954     6061     6203     6361     6505     6648     6798 
    6933     7059     7194     7317     7385     7395     7358     7292 
    7202     7095     6991     6889     6767     6629     6489     6350 
    6212     6093     6012     5962     5926     5906     5899     5890 
    5886     5907     5960     6042     6156     6289     6420     6535 
    6623     6671     6671     6628     6558     6469     6373     6268 
    6149     6025     5896     5753     5594     5435     5294     5186 
    5109     5053     5011     4985     4996     5057     5150     5247 
    5327     5385     5425     5451     5454     5417     5327     5194 
    5044     4892     4734     4576     4442     4355     4324     4353 
    4423     4514     4618     4716     4816     4959     5167     5424 
    5679     5910     6122     6319     6497     6639     6727     6766 
    6774     6763     6744     6717     6666     6590     6513     6436 
    6345     6262     6222     6227     6273     6342     6438     6569 
    6702     6812     6914     7024     7138     7254     7365     7464 
    7547     7615     7655     7658     7619     7560     7493     7407 
    7292     7155     7006     6853     6710     6579     6457     6326 
    6174     6002     5815     5626     5433     5240     5054     4877 
    4731     4641     4583     4531     4488     4469     4483     4526 
    4580     4634     4696     4784     4899     5031     5169     5305 
    5448     5613     5800     6000     6210     6421     6631     6855 
    7092     7327     7561     7784     7977     8143     8289     8401 
    8472     8510     8510     8479     8421     8344     8263     8185 
    8109     8051     8001     7939     7862     7778     7697     7642 
    7614     7603     7591     7558     7497     7406     7276     7111 
    6922     6712     6480     6242     6012     5782     5543     5309 
    5096     4896     4696     4504     4328     4174     4031     3886 
    3751     3640     3554     3499     3468     3449     3450     3483 
    3551     3650     3762     3888     4041     4221     4437     4680 
    4919     5124     5294     5443     5580     5714     5846     5972 
    6069     6134     6197     6292     6423     6582     6760     6952 
    7156     7373     7600     7811     7985     8113     8203     8276 
    8347     8415     8467     8486     8490     8496     8499     8502 
    8510     8518     8530     8550     8571     8595     8611     8611 
    8591     8545     8478     8401     8317     8230     8132     8010 
    7867     7719     7576     7441     7312     7195     7082     6948 
    6789     6615     6434     6262     6097     5925     5740     5568 
    5428     5333     5287     5286     5316     5354     5377     5395 
    5433     5499     5586     5668     5726     5751     5745     5733 
    5732     5721     5687     5636     5582     5525     5463     5393 
    5301     5178     5049     4934     4841     4769     4729     4729 
    4756     4787     4810     4824     4835     4846     4850     4846 
    4847     4857     4865     4873     4874     4870     4860     4838 
    4806     4776     4737     4687     4646     4629     4618     4608 
    4606     4612     4617     4622     4641     4668     4695     4735 
    4796     4872     4957     5044     5123     5190     5259     5336 
    5425     5522     5620     5715     5822     5949     6093     6238 
    6369     6473     6558     6633     6708     6782     6829     6845 
    6866     6905     6961     7041     7123     7184     7240     7292 
    7322     7322     7300     7265     7225     7195     7177     7164 
    7153     7145     7125     7086     7038     6979     6901     6814 
    6740     6689     6652     6617     6570     6509     6438     6370 
    6322     6285     6239     6174     6085     5983     5892     5817 
    5742     5683     5641     5603     5568     5545     5530     5517 
    5503     5503     5520     5543     5568     5594     5603     5595 
    5582     5576     5574     5559     5532     5494     5436     5368 
    5319     5296     5292     5306     5346     5405     5479     5560 
    5629     5680     5711     5711     5675     5613     5541     5472 
    5406     5329     5247     5178     5130     5098     5088     5098 
    5128     5186     5281     5404     5544     5698     5848     5976 
    6081     6177     6273     6369     6454     6528     6606     6683 
    6743     6770     6762     6737     6704     6667     6637     6608 
    6562     6501     6438     6367     6282     6191     6103     6039 
    6010     6000     6003     6010     6018     6029     6052     6095 
    6151     6200     6234     6261     6278     6297     6334     6389 
    6453     6515     6563     6593     6616     6646     6677     6709 
    6748     6787     6816     6824     6814     6799     6790     6786 
    6785     6779     6759     6714     6647     6562     6455     6324 
    6184     6046     5915     5780     5655     5548     5458     5379 
    5313     5259     5215     5181     5162     5152     5150     5165 
    5193     5223     5263     5324     5409     5526     5668     5821 
    5984     6149     6296     6426     6543     6647     6751     6859 
    6970     7083     7192     7294     7391     7488     7584     7680 
