Origin Time       2025/01/13 21:19:00
Lat.              31.8
Long.             131.6
Depth. (km)       30
Mag.              6.9
Station Code      OITH05
Station Lat.      33.1525
Station Long.     131.5420
Station Height(m) 60
Record Time       2025/01/13 21:19:56
Sampling Freq(Hz) 100Hz
Duration Time(s)  154
Dir.              1
Scale Factor      2942(gal)/8224139
Max. Acc. (gal)   3.287
Last Correction   2025/01/13 21:19:56
Memo.             
[...]
   83166    83397    83467    83421    83342    83265    83188    83147 
   83188    83251    83204    82988    82714    82536    82460    82333 
   82053    81699    81432    81283    81137    80882    80524    80184 
   80037    80148    80364    80480    80431    80337    80349    80443 
   80411    80165    79971    80125    80612    81189    81664    82040 
   82414    82822    83205    83547    83929    84370    84700    84770 
   84699    84728    84959    85251    85407    85429    85425    85368 
   85097    84585    84068    83766    83609    83390    83066    82814 
   82769    82769    82524    82043    81631    81460    81390    81249 
   81058    80936    80978    81139    81253    81268    81278    81356 
   81513    81718    81932    82167    82431    82669    82863    83030 
   83153    83201    83154    83019    82906    82904    82937    82840 
   82533    82097    81707    81492    81449    81533    81737    82038 
   82358    82625    82823    82949    83008    83050    83115    83172 
   83162    83068    82983    83056    83286    83486    83505    83411 
   83389    83538    83771    83929    83945    83874    83740    83512 
   83205    82921    82705    82455    82070    81650    81400    81388 
   81436    81342    81160    81103    81226    81419    81627    81928 
   82356    82790    83088    83239    83354    83520    83718    83871 
   83922    83820    83613    83532    83744    84114    84314    84159 
   83825    83683    83857    84145    84300    84260    84099    83867 
   83551    83192    82945    82930    83011    82976    82795    82578 
   82409    82251    81970    81584    81330    81353    81565    81866 
   82242    82661    83027    83223    83265    83315    83416    83428 
   83304    83193    83277    83574    83880    83995    83941    83848 
   83755    83639    83515    83439    83412    83361    83177    82787 
   82297    81940    81851    82008    82324    82688    82995    83128 
   83018    82710    82325    81950    81591    81221    80900    80763 
   80846    81024    81168    81276    81421    81629    81864    82030 
   82100    82205    82405    82588    82663    82606    82495    82471 
   82548    82648    82760    82890    82969    82937    82807    82637 
   82445    82242    82152    82340    82755    83073    83015    82678 
   82424    82364    82225    81804    81334    81198    81371    81444 
   81178    80797    80709    80912    80948    80570    80088    79934 
   80137    80388    80543    80798    81311    81896    82200    82129 
   81950    81940    82113    82339    82579    82885    83238    83511 
   83562    83331    82912    82468    82143    82031    82108    82266 
   82437    82634    82831    82900    82794    82684    82748    82946 
   83077    83030    82973    83104    83335    83403    83232    83052 
   83088    83250    83309    83258    83249    83308    83286    83095 
   82821    82624    82510    82300    81893    81464    81268    81365 
   81630    81946    82258    82502    82629    82679    82771    83014 
   83382    83756    84056    84277    84489    84713    84863    84905 
   84901    84851    84711    84501    84284    84102    83945    83781 
   83625    83509    83374    83151    82891    82759    82873    83130 
   83281    83235    83153    83205    83330    83312    83111    82961 
   83092    83436    83704    83694    83490    83327    83328    83409 
   83484    83629    83933    84311    84638    84916    85199    85444 
   85521    85368    85128    85001    84985    84908    84713    84524 
   84488    84591    84669    84619    84511    84480    84534    84531 
   84414    84257    84121    84005    83866    83643    83331    82981 
   82605    82148    81598    80987    80343    79702    79093    78487 
   77888    77419    77253    77446    77877    78324    78665    78985 
   79405    79848    80156    80292    80362    80497    80685    80781 
   80739    80601    80388    80104    79713    79176    78556    77939 
   77346    76836    76519    76442    76576    76906    77399    77953 
   78432    78729    78860    78966    79170    79475    79822    80204 
   80701    81386    82155    82783    83169    83435    83775    84235 
   84642    84834    84865    84866    84890    84908    84840    84682 
   84539    84449    84352    84258    84260    84365    84450    84373 
   84142    83957    84034    84383    84813    85179    85536    85990 
   86553    87139    87658    88099    88472    88707    88708    88464 
   88032    87455    86755    85958    85164    84492    83959    83481 
   83020    82632    82370    82212    82107    82086    82236    82545 
   82923    83347    83879    84542    85278    85942    86433    86803 
   87099    87242    87120    86730    86213    85722    85239    84645 
   83878    83018    82250    81660    81145    80593    80033    79617 
   79447    79435    79448    79524    79802    80300    80846    81229 
   81395    81480    81650    81884    82058    82216    82501    82908 
   83247    83336    83215    83080    82998    82865    82606    82235 
   81789    81233    80489    79616    78784    78116    77630    77307 
   77215    77488    78128    78981    79907    80866    81881    82942 
   83945    84784    85448    86016    86530    86919    87115    87096 
   86818    86283    85618    84975    84439    83960    83447    82975 
   82714    82653    82590    82387    82128    81994    82063    82256 
   82482    82794    83289    83879    84370    84720    85043    85417 
   85747    85828    85598    85195    84743    84280    83799    83305 
   82864    82475    81970    81194    80199    79174    78214    77230 
   76158    75149    74422    74032    73850    73724    73670    73872 
   74418    75190    76072    77078    78225    79409    80442    81226 
   81839    82405    82957    83434    83737    83802    83606    83150 
   82486    81711    80931    80237    79670    79239    78995    78976 
   79127    79363    79641    79968    80381    80898    81518    82232 
   82998    83720    84365    84996    85642    86238    86687    86956 
   87123    87292    87473    87612    87623    87415    87011    86501 
   85984    85561    85288    85174    85210    85388    85720    86213 
   86821    87461    88021    88381    88480    88329    87963    87424 
   86809    86278    85966    85884    85915    85914    85841    85793 
   85862    86016    86161    86277    86463    86791    87153    87347 
   87339    87251    87139    86931    86580    86100    85523    84916 
   84353    83830    83367    83070    82944    82884    82860    82853 
   82803    82613    82142    81338    80347    79386    78584    77877 
   77101    76227    75392    74741    74364    74271    74407    74702 
   75096    75520    75880    76195    76569    77025    77494    77916 
   78254    78505    78709    78903    79123    79490    80126    80991 
   81918    82757    83465    84141    84883    85614    86232    86768 
   87232    87559    87642    87415    86956    86428    85927    85429 
   84902    84430    84105    83860    83525    83027    82462    81997 
   81720    81568    81468    81492    81677    81864    81886    81780 
   81688    81703    81738    81621    81369    81244    81396    81673 
   81841    81859    81899    82096    82397    82680    82930    83223 
   83559    83864    84123    84384    84646    84863    85012    85137 
   85332    85594    85791    85801    85618    85276    84747    83959 
   82937    81850    80923    80256    79782    79397    79043    78703 
   78393    78159    78035    78005    78113    78414    78867    79390 
   79884    80273    80605    80933    81214    81421    81591    81810 
   82159    82640    83185    83794    84531    85359    86078    86494 
   86568    86435    86246    86053    85835    85617    85460    85340 
   85153    84888    84623    84407    84217    84010    83783    83650 
   83720    83997    84443    84990    85552    86092    86589    87039 
   87473    87831    87967    87818    87521    87265    87102    86976 
   86860    86867    87141    87609    88022    88295    88534    88801 
   88992    88948    88666    88337    88068    87686    86949    85842 
   84577    83366    82243    81147    80113    79261    78656    78219 
   77797    77367    77051    76900    76815    76682    76476    76254 
   76080    75890    75594    75263    75060    75080    75294    75594 
   75953    76470    77190    78015    78781    79459    80156    80893 
   81611    82246    82721    83014    83182    83280    83419    83733 
   84202    84689    85083    85356    85571    85789    85993    86158 
   86321    86524    86738    86918    87058    87147    87151    87058 
   86887    86647    86302    85783    85089    84362    83791    83442 
   83232    83100    83120    83377    83812    84276    84674    85021 
   85430    85980    86595    87099    87409    87620    87874    88152 
   88254    88030    87523    86906    86296    85630    84747    83632 
   82545    81784    81359    81013    80469    79708    78985    78436 
   77934    77380    76813    76405    76281    76273    76133    75892 
   75767    75859    76032    76094    76123    76408    77001    77620 
   78021    78275    78648    79258    79933    80438    80755    81049 
   81445    81913    82399    82908    83438    83909    84248    84458 
   84577    84622    84616    84605    84669    84850    85085    85291 
   85473    85695    85945    86090    85982    85598    85055    84538 
   84152    83843    83470    83003    82561    82256    82080    81973 
   81931    81950    81946    81812    81541    81224    80959    80731 
   80473    80204    80030    80006    80019    79905    79685    79543 
   79564    79613    79479    79154    78864    78790    78850    78908 
   79019    79305    79758    80248    80639    80952    81355    81932 
   82632    83407    84262    85198    86124    86887    87423    87810 
   88150    88456    88674    88774    88766    88666    88465    88117 
   87637    87116    86559    85914    85212    84553    84032    83686 
   83465    83292    83119    82912    82652    82337    82017    81776 
   81639    81621    81789    82202    82792    83404    83970    84568 
   85234    85839    86189    86221    86094    85981    85820    85455 
   84894    84339    83951    83627    83184    82610    82035    81550 
   81133    80701    80249    79861    79591    79374    79142    78957 
   78925    79049    79263    79531    79837    80165    80455    80638 
   80734    80897    81194    81460    81541    81500    81463    81490 
   81588    81730    81930    82205    82428    82399    82080    81635 
   81257    81014    80839    80659    80546    80636    80947    81387 
   81939    82651    83513    84388    85144    85810    86429    86864 
   86896    86458    85731    84978    84292    83600    82888    82275 
   81826    81445    81027    80603    80303    80196    80185    80138 
   80064    80079    80204    80293    80192    79909    79585    79332 
   79151    78972    78759    78545    78421    78448    78549    78642 
   78802    79149    79693    80350    81001    81588    82188    82884 
   83602    84172    84577    84985    85531    86112    86514    86736 
   86983    87338    87623    87582    87164    86584    86089    85691 
   85272    84848    84581    84504    84404    84125    83732    83362 
   83083    82845    82561    82247    81959    81657    81241    80724 
   80299    80187    80434    80887    81345    81738    82062    82216 
   82127    81895    81707    81679    81774    81889    81913    81753 
   81414    81001    80522    79888    79131    78455    78028    77828 
   77669    77431    77286    77473    77949    78466    78925    79494 
   80385    81594    82885    84033    85028    85984    86864    87540 
   87979    88207    88180    87885    87405    86865    86374    85977 
   85583    85109    84615    84204    83920    83731    83559    83411 
   83396    83520    83644    83667    83579    83373    82998    82453 
   81853    81288    80746    80160    79587    79245    79282    79609 
   79982    80212    80293    80329    80347    80230    79902    79470 
   79099    78852    78646    78393    78133    77944    77816    77724 
   77683    77707    77793    77878    77936    78121    78615    79363 
   80125    80761    81353    82085    83039    84137    85210    86117 
   86772    87169    87444    87793    88272    88743    89010    89087 
   89186    89359    89386    89109    88659    88287    88076    87848 
   87361    86611    85841    85158    84406    83484    82510    81621 
   80811    79971    79002    77922    76840    75848    75030    74510 
   74348    74484    74864    75471    76253    77089    77847    78497 
   79162    79968    80912    81953    83093    84338    85625    86829 
   87853    88696    89401    89941    90228    90255    90092    89812 
   89433    88877    88105    87139    85997    84739    83467    82247 
   81071    79863    78560    77233    76061    75208    74688    74380 
   74227    74282    74588    75074    75579    75990    76357    76801 
   77380    78040    78687    79308    79947    80584    81114    81467 
   81719    82003    82370    82765    83072    83246    83417    83694 
   83983    84168    84303    84512    84832    85195    85503    85699 
   85869    86185    86668    87183    87673    88248    88969    89723 
   90327    90652    90741    90765    90825    90860    90790    90695 
   90794    91158    91594    91855    91851    91650    91358    90981 
   90489    89959    89506    89068    88501    87777    87008    86368 
   85962    85761    85681    85662    85634    85495    85152    84555 
   83743    82856    82082    81544    81256    81155    81184    81361 
   81729    82227    82682    82983    83176    83319    83409    83390 
   83232    83011    82798    82537    82093    81351    80362    79370 
   78601    78074    77689    77427    77403    77733    78362    79085 
   79710    80140    80357    80395    80323    80229    80171    80167 
   80180    80149    80065    79944    79721    79292    78665    77998 
   77472    77191    77182    77384    77689    77990    78138    78040 
   77839    77765    77869    78042    78160    78210    78322    78580 
   78846    78921    78775    78552    78424    78437    78534    78718 
   79088    79655    80283    80770    81024    81148    81326    81645 
   82070    82539    83004    83440    83880    84423    85121    85941 
   86815    87682    88534    89360    90011    90340    90440    90531 
   90682    90801    90818    90798    90852    90967    90973    90714 
   90200    89548    88865    88203    87619    87219    87099    87204 
   87315    87235    86972    86610    86225    85888    85599    85268 
   84802    84142    83355    82607    81988    81492    81017    80446 
   79824    79270    78802    78376    78035    77859    77858    77949 
   78038    78067    78059    78035    77920    77664    77359    77184 
   77263    77523    77835    78197    78630    79095    79502    79771 
   79956    80257    80736    81234    81631    81950    82213    82381 
   82391    82215    81942    81724    81634    81642    81685    81680 
   81564    81394    81341    81460    81648    81804    81900    82007 
   82297    82822    83425    83971    84442    84819    85027    85023 
   84867    84667    84516    84411    84275    84149    84160    84235 
   84156    83868    83570    83458    83458    83316    82910    82395 
   82021    81822    81670    81511    81355    81189    81039    81009 
   81248    81795    82510    83199    83756    84186    84505    84643 
   84573    84427    84314    84191    83982    83679    83340    82995 
   82540    81834    80881    79868    79000    78371    78032    78036 
   78268    78489    78551    78489    78401    78306    78121    77841 
   77620    77593    77710    77822    77897    78092    78491    78984 
   79447    79853    80266    80804    81479    82169    82722    83035 
   83106    83029    82941    82944    83003    83027    82989    82937 
   82926    82992    83135    83326    83551    83797    83963    83967 
   83874    83775    83702    83647    83606    83624    83724    83812 
   83770    83612    83501    83555    83702    83799    83820    83821 
   83802    83651    83295    82842    82480    82213    81924    81680 
   81754    82321    83185    83943    84446    84901    85444    85941 
   86217    86305    86436    86740    87025    87008    86738    86498 
   86364    86163    85850    85619    85664    85877    85893    85537 
   85079    84831    84708    84429    83913    83386    83126    83168 
   83316    83428    83535    83686    83862    83997    84009    83880 
   83681    83473    83301    83191    83110    83052    83073    83173 
   83262    83316    83367    83392    83297    83015    82559    82054 
   81627    81256    80871    80478    80079    79667    79288    79010 
   78942    79119    79342    79428    79467    79655    80037    80473 
   80797    81047    81417    81912    82286    82390    82372    82516 
   82926    83466    83951    84299    84485    84491    84348    84179 
   84115    84159    84168    84025    83766    83485    83212    82911 
   82571    82237    81940    81638    81272    80854    80476    80258 
   80196    80142    80014    79876    79787    79726    79629    79489 
   79381    79342    79331    79346    79440    79637    79894    80115 
   80185    80069    79859    79662    79527    79482    79578    79832 
   80188    80580    80906    81055    81024    80940    80946    81064 
   81186    81205    81184    81286    81540    81855    82171    82489 
   82840    83230    83633    84025    84387    84732    85067    85374 
   85653    85926    86169    86389    86633    86856    86918    86746 
   86417    86058    85703    85291    84819    84372    84041    83890 
   83936    84095    84254    84393    84514    84549    84477    84325 
   84057    83623    83120    82732    82528    82424    82309    82188 
   82182    82336    82510    82506    82239    81807    81321    80750 
   80113    79625    79496    79751    80208    80569    80694    80719 
   80730    80671    80576    80546    80640    80886    81202    81441 
   81610    81824    82123    82453    82756    83019    83293    83602 
   83899    84125    84275    84364    84391    84357    84277    84142 
   83922    83617    83296    83058    82906    82723    82440    82107 
   81835    81702    81626    81449    81187    81045    81156    81427 
   81619    81544    81280    81079    81025    80975    80829    80638 
   80554    80700    81035    81410    81785    82224    82744    83281 
   83732    84029    84192    84296    84414    84546    84667    84777 
   84851    84831    84696    84451    84103    83646    83047    82358 
   81764    81411    81317    81386    81457    81464    81460    81492 
   81569    81668    81766    81949    82381    83103    83934    84640 
   85118    85452    85752    86005    86140    86186    86266    86475 
   86755    87003    87269    87656    88098    88373    88335    88038 
   87620    87146    86579    85873    85072    84298    83633    83060 
   82512    81932    81270    80555    79894    79288    78683    78079 
   77525    77091    76816    76619    76397    76192    76146    76279 
