Origin Time       2025/01/13 21:19:00
Lat.              31.8
Long.             131.6
Depth. (km)       30
Mag.              6.9
Station Code      OITH07
Station Lat.      32.9870
Station Long.     131.5881
Station Height(m) 160
Record Time       2025/01/13 21:19:53
Sampling Freq(Hz) 100Hz
Duration Time(s)  181
Dir.              4
Scale Factor      7845(gal)/8223790
Max. Acc. (gal)   53.242
Last Correction   2025/01/13 21:19:53
Memo.             
[...]
   36458    35199    33340    31153    28938    27159    26311    26578 
   27788    29457    30753    30874    29600    27315    24811    23039 
   22673    23828    26268    29659    33482    36922    39213    40126 
   39934    38959    37467    35797    34152    32475    30738    29081 
   27804    27280    27719    29053    31040    33305    35376    36720 
   36860    35718    33621    30981    28186    25672    23785    22642 
   22221    22573    23746    25616    27885    30088    31722    32458 
   32136    30910    29430    28530    28734    30172    32702    35757 
   38406    39846    39771    38296    35883    33319    31396    30508 
   30572    31158    31711    31765    31104    29902    28633    27864 
   28094    29527    31885    34437    36286    36714    35463    33026 
   30484    28683    27893    28124    29192    30638    31861    32325 
   31784    30447    28840    27511    26916    27352    28803    30871 
   33035    34809    35630    34956    32695    29394    25880    22860 
   20914    20463    21625    24135    27371    30684    33627    35888 
   37374    38165    38362    38184    37879    37569    37197    36474 
   35164    33400    31565    30022    28927    28366    28486    29193 
   29987    30304    29785    28387    26428    24401    22804    22194 
   22878    24595    26829    29172    31279    32886    33876    34206 
   33929    33409    33068    32969    32954    32941    32942    32957 
   33003    33311    34160    35459    36830    37948    38556    38408 
   37362    35479    33156    30959    29281    28371    28370    29087 
   29909    30198    29741    28706    27353    26037    25258    25381 
   26381    28062    30080    31726    32328    31815    30535    28896 
   27432    26828    27548    29489    32100    34703    36633    37318 
   36594    34915    32968    31233    30032    29675    30300    31774 
   33783    35930    37822    39016    39094    38006    36016    33466 
   30794    28409    26578    25486    25197    25681    26782    28132 
   29277    29949    30157    29965    29377    28545    27789    27314 
   27175    27399    27924    28521    29037    29493    29839    29924 
   29774    29567    29432    29512    29959    30670    31305    31556 
   31240    30316    29008    27920    27841    29174    31658    34716 
   37731    39926    40529    39307    36742    33635    30703    28544 
   27739    28642    31012    33982    36491    37804    37544    35746 
   33114    30596    28759    27903    28148    29147    30245    30956 
   31051    30466    29393    28101    26750    25654    25319    26013 
   27619    29909    32563    35025    36630    36836    35494    33029 
   30272    28183    27324    27445    28044    28952    30002    30796 
   31164    31284    31311    31252    31159    31159    31280    31449 
   31649    31881    32008    31961    31866    31772    31590    31255 
   30616    29525    28159    27012    26622    27302    29015    31387 
   33700    35101    35068    33687    31607    29775    28977    29471 
   30950    32850    34638    35819    36117    35723    35093    34614 
   34654    35464    36720    37654    37596    36139    33327    29818 
   26453    23882    22596    22792    24186    26072    27642    28420 
   28426    28000    27521    27210    27148    27418    28023    28755 
   29482    30422    31711    33068    34172    34893    34990    34273 
   33115    32147    31726    32036    33072    34341    35127    34931 
   33550    31178    28467    26265    25231    25624    27369    30154 
   33251    35518    36057    34890    32786    30654    29312    29359 
   30744    32649    34110    34600    34025    32593    30838    29417 
   28769    29031    30026    31259    32228    32740    32764    32308 
   31545    30824    30481    30800    31824    33127    34167    34628 
   34236    32929    31328    30218    29770    29722    29857    29949 
   29682    28998    28259    27884    28063    28671    29343    29852 
   30279    30862    31783    33012    34327    35371    35931    36151 
   36138    35748    35013    34118    32985    31525    30002    28791 
   28021    27737    28040    28880    29941    30788    30989    30308 
   28925    27399    26420    26472    27522    29034    30473    31666 
   32481    32694    32285    31360    29992    28458    27276    26832 
   27203    28277    29733    31018    31783    32154    32377    32617 
   33108    33966    34982    35795    36090    35781    35059    34179 
   33273    32356    31506    30854    30338    29767    29219    28987 
   29195    29695    30230    30528    30457    30029    29301    28383 
   27446    26570    25716    25004    24895    25752    27345    29238 
   31212    32961    34022    34144    33447    32467    31796    31603 
   31915    32921    34524    36158    37220    37381    36599    35064 
   33077    30925    28918    27511    27086    27614    28694    29864 
   30762    31135    31058    31014    31401    32208    33272    34426 
   35372    35752    35344    34072    32044    29728    27684    26269 
   25839    26688    28657    31189    33556    35039    35268    34416 
   32975    31530    30578    30376    30870    31630    32104    32008 
   31298    30049    28603    27452    26831    26720    27216    28468 
   30323    32297    33898    34800    34798    33899    32454    30960 
   29879    29538    29810    30234    30584    30815    30726    30161 
   29246    28247    27363    26831    27008    27940    29135    30075 
   30672    31055    31298    31463    31548    31456    31325    31449 
   31846    32422    33259    34319    35376    36400    37384    37978 
   37874    37122    35800    33934    31774    29809    28520    28121 
   28521    29462    30505    31025    30584    29315    27784    26509 
   25809    25999    27207    29064    31021    32737    33963    34466 
   34188    33264    31976    30693    29704    29147    28993    29173 
   29736    30630    31584    32398    33008    33388    33590    33683 
   33532    32864    31658    30173    28547    26748    24867    23124 
   21768    21130    21523    22967    25130    27599    30114    32540 
   34776    36705    38281    39542    40406    40778    40709    40107 
   38819    37058    35229    33678    32809    32914    33848    35194 
   36553    37396    37145    35680    33399    30750    28021    25462 
   23259    21471    20175    19529    19641    20499    22052    24304 
   27160    30285    33192    35367    36350    35911    34234    32015 
   30258    29735    30505    32062    33787    35213    36023    36009 
   35143    33633    31881    30406    29617    29556    30079    31071 
   32278    33303    33808    33555    32513    30970    29361    28050 
   27197    26581    25812    24771    23554    22266    21127    20547 
   20964    22558    25164    28490    32217    35853    38763    40620 
   41540    41818    41824    41859    41925    41760    41017    39440 
   37093    34303    31432    28867    27036    26096    25806    25849 
   25965    25883    25434    24734    24119    23928    24414    25691 
   27581    29720    31820    33702    35244    36404    37130    37324 
   37041    36482    35685    34578    33318    32240    31569    31395 
   31633    31916    31758    30846    29178    26971    24567    22503 
   21363    21405    22550    24640    27473    30686    33856    36724 
   39117    40668    40913    39696    37266    34221    31402    29565 
   29234    30608    33211    36136    38746    40567    40905    39316 
   36140    32046    27691    23835    21119    19773    19541    19801 
   20036    20133    20245    20644    21624    23287    25401    27549 
   29263    30222    30530    30511    30314    30032    29882    29978 
   30271    30904    32188    34092    36331    38800    41354    43565 
   45119    45862    45416    43410    40081    36228    32707    30219 
   29227    29714    31110    32667    33820    34065    33158    31475 
   29605    27951    26927    26697    26840    26813    26381    25528 
   24445    23531    23155    23449    24305    25550    27180    29239 
   31603    33956    35839    36788    36505    34993    32729    30532 
   29158    29041    30231    32432    35081    37435    38816    38955 
   37953    35976    33241    30235    27653    26092    25705    26094 
   26684    27075    27059    26667    26292    26368    27000    28093 
   29489    30935    32250    33436    34608    35800    36814    37480 
   37806    37685    36832    35136    32776    30200    28003    26599 
   26114    26573    27791    29196    30181    30539    30234    29180 
   27715    26721    26842    28111    30362    33285    36045    37648 
   37696    36293    33698    30464    27452    25402    24657    25303 
   27187    29727    32085    33548    33759    32775    30862    28452 
   26296    25215    25677    27585    30410    33536    36389    38507 
   39722    40200    40220    39926    39170    37581    34944    31418 
   27467    23885    21539    20837    21733    23913    26685    29154 
   30735    31221    30674    29494    28247    27318    26971    27437 
   28745    30620    32479    33656    33844    33191    32198    31549 
   31743    32914    34769    36767    38481    39557    39498    38003 
   35328    32092    28983    26628    25533    25937    27542    29666 
   31758    33288    33546    32370    30464    28642    27480    27346 
   28221    29776    31638    33400    34731    35623    36369    37191 
   37994    38628    39051    39105    38499    37034    34665    31452 
   27670    23947    21069    19542    19444    20576    22612    25132 
   27596    29577    31035    32030    32463    32325    31846    31357 
   31163    31480    32470    34190    36456    38817    40679    41513 
   41052    39390    36877    33936    31028    28571    26690    25328 
   24460    23950    23620    23526    23788    24468    25722    27598 
   29713    31461    32463    32779    32701    32454    32228    32277 
   32775    33654    34642    35510    36188    36545    36412    35905 
   35386    35006    34668    34146    33133    31519    29577    27716 
   26400    26181    27405    29910    33154    36441    39141    40859 
   41453    41108    40204    38961    37407    35630    33868    32367 
   31334    30858    30855    31207    31630    31672    31195    30346 
   29072    27213    24788    22044    19425    17486    16686    17205 
   18916    21498    24665    28193    31739    34828    37072    38240 
   38257    37199    35247    32742    30150    27912    26364    25621 
   25515    25806    26391    27205    28082    28786    29092    28865 
   28107    26916    25477    24065    22943    22215    21856    21913 
   22647    24367    27060    30358    33835    37114    39854    41875 
   43158    43698    43532    42855    41929    41011    40350    40046 
   39830    39260    38188    36772    35109    33165    30964    28597 
   26158    23715    21251    18711    16132    13653    11391     9545 
    8415     8114     8584     9833    11997    15117    18912    22937 
   26784    30129    32834    34915    36462    37602    38477    39209 
   39772    39993    39754    39052    37879    36366    35062    34676 
   35567    37682    40690    43989    46870    48763    49486    49279 
   48510    47506    46631    46201    46265    46589    46720    46170 
   44666    42237    39191    36046    33276    31081    29550    28795 
   28709    28949    29208    29308    29165    28780    28267    27783 
   27310    26765    26109    25207    23886    22077    19778    17091 
   14278    11670     9526     8036     7411     7888     9699    12973 
   17578    23086    28791    33864    37783    40562    42542    43929 
   44649    44736    44363    43484    42018    40138    38097    36136 
   34524    33486    33066    33115    33454    33886    34025    33521 
   32406    30937    29367    28013    27191    26947    27056    27120 
   26723    25722    24208    22276    20124    18076    16295    14762 
   13574    13011    13274    14261    15607    16879    17783    18389 
   19099    20406    22763    26427    31303    37046    43272    49507 
   55059    59233    61638    62260    61321    59252    56671    54152 
   51979    50099    48317    46419    44203    41523    38372    34915 
   31376    27978    24914    22179    19865    18357    17884    18538 
   20416    23569    27943    33115    38398    43181    46943    49338 
   50280    49815    48114    45555    42550    39318    35978    32616 
   29307    26253    23480    20718    17837    14860    11704     8370 
    5020     1831    -1047    -3443    -4973    -5132    -3699     -814 
    3238     8217    13837    19538    24777    29446    33689    37625 
   41408    45199    48976    52527    55614    57977    59316    59416 
   58212    55775    52384    48444    44280    40158    36379    33062 
   30049    27075    23858    20202    16174    12150     8700     6397 
    5675     6716     9444    13555    18500    23627    28471    32867 
   36802    40273    43336    46089    48624    51193    53973    56702 
   58861    59914    59466    57478    54171    49742    44464    38719 
   32906    27446    22631    18630    15726    14017    13154    12841 
   13319    15045    18187    22774    28861    36131    43931    51686 
   58961    65313    70079    72539    72473    70063    65591    59626 
   52930    46032    39163    32528    26271    20071    13544     7159 
    1780    -3014    -8469   -14004   -18449   -22319   -24725   -24464 
  -23558   -22038   -18207   -13579    -8502    -2053     4764    12077 
   20385    28618    36059    42375    47005    50183    52357    53234 
   53431    53831    54114    55073    57449    60164    62988    65524 
   66420    65809    63686    59537    54183    48251    42223    37065 
   33072    30414    29087    28409    28521    30244    33021    35642 
   38350    41428    43954    46210    48703    49827    49162    47633 
   44082    38064    31730    26198    21265    17734    15923    14859 
   14068    12939    10932     8498     5836     3561     1817     -513 
   -1449     1551     5953     9514    13626    18265    22056    25362 
   28877    32506    36493    41202    46125    50642    54595    57570 
   59069    59092    58037    56201    53507    49966    46030    42234 
   38680    35109    31564    28327    25141    21487    17390    13228 
    9221     5390     1719    -1537    -3888    -4962    -4693    -3260 
    -850     2494     6829    12025    17869    24375    31222    37786 
   43831    49131    53273    55981    57202    57422    57331    57126 
   56920    57055    57608    58332    58962    59447    59873    60053 
   59688    58819    57424    55435    53284    51459    49833    48073 
   46059    43744    40977    37380    32547    26789    20850    15232 
   10779     8004     6386     6018     7119     8820    10404    11419 
   11637    11430    10845     9963     9393     9328     9630    10444 
   11584    12434    12953    13339    13429    13436    13741    14504 
   15989    18084    20466    23114    25864    28572    31199    33458 
   35379    37385    39691    42210    44751    47282    49740    51822 
   53203    53573    52857    51375    49420    47310    45665    44892 
   44956    45686    46847    48262    49700    50457    49875    47845 
   44315    39403    33687    27824    22450    18010    14531    12078 
   10771    10395    10636    11236    11794    11966    11676    11119 
   10794    11140    12440    15033    18859    23467    28490    33470 
   38001    41960    45112    47156    48111    48208    47860    47564 
   47660    48254    49208    50168    50677    50365    49144    47177 
   44783    42240    39556    36636    33430    29911    26158    22272 
   18381    14782    11766     9639     8769     9108    10139    11464 
   12989    14640    16278    17926    19880    22469    25743    29484 
   33457    37345    40720    43362    45416    47066    48141    48371 
   47686    45900    42907    39106    35037    31063    27429    24386 
   22287    21238    20972    21406    22603    24347    26418    28691 
   30758    32185    33131    33836    33867    32952    31565    30134 
   28856    28046    27982    28736    30204    31955    33548    35068 
   36406    36952    36783    36423    35588    33629    30442    26419 
   22245    18754    16708    16440    17826    20791    24941    29227 
   32875    35525    36896    37314    37366    37234    37119    37369 
   37887    38214    38156    37817    37226    36455    35783    35506 
   35854    36801    37775    38041    37409    36188    34696    33077 
   31209    28914    26265    23562    21124    19053    17437    16673 
   17115    18724    21135    23751    25953    27352    27785    27337 
   26307    25154    24571    25199    27135    30069    33635    37428 
   41085    44336    46890    48551    49218    48735    47065    44443 
   41189    37768    34821    32730    31371    30472    29943    29640 
   29350    29169    29382    30133    31498    33498    35758    37536 
   38426    38511    37943    36822    35365    33961    32965    32521 
   32641    33220    33924    34257    33790    32441    30464    28008 
   24999    21512    17822    14350    11657    10137     9976    11465 
   14696    19205    24482    30110    35446    40020    43673    46215 
   47483    47471    46417    44878    43328    41886    40684    39974 
   39804    40065    40628    41193    41266    40416    38410    35127 
   30761    25876    20906    16127    11986     8947     7263     6983 
    8009    10056    12733    15811    19040    22005    24509    26568 
   28088    28896    28856    28001    26666    25300    24209    23572 
   23421    23573    23888    24414    25131    25918    26809    27841 
   28945    30082    31288    32718    34453    36418    38520    40570 
   42357    43792    44810    45366    45539    45423    45050    44547 
   44081    43675    43316    43077    42967    42808    42381    41551 
   40252    38493    36294    33605    30404    26763    22802    18692 
   14702    11138     8287     6451     5826     6421     8201    11007 
   14488    18306    22219    25947    29166    31669    33501    34902 
   36135    37512    39382    41893    44975    48463    51983    54985 
   57071    57925    57275    55152    51864    47844    43564    39314 
   35128    30839    26258    21384    16239    10858     5501      581 
   -3537    -6424    -7522    -6511    -3545      876     6201    11973 
   17764    23294    28630    34123    39961    45868    51529    56594 
   60492    62888    63825    63460    61950    59374    55894    51908 
   47887    44167    40910    37997    35287    32984    31132    29411 
   27760    26323    25027    23826    22852    22152    21637    21298 
   21290    21678    22338    23326    24857    26925    29465    32454 
   35653    38666    41175    42994    43978    44019    43204    41642 
   39247    36007    32177    28031    23751    19600    15930    13097 
   11476    11186    11893    13050    14354    15797    17369    19174 
   21583    24807    28738    33300    38449    43902    49045    53175 
   55869    56975    56427    54375    51121    47061    42653    38107 
   33431    28779    24439    20667    17624    15491    14393    14216 
