Origin Time       2025/01/13 21:19:00
Lat.              31.8
Long.             131.6
Depth. (km)       30
Mag.              6.9
Station Code      OITH09
Station Lat.      32.8486
Station Long.     131.6786
Station Height(m) 90
Record Time       2025/01/13 21:19:52
Sampling Freq(Hz) 100Hz
Duration Time(s)  173
Dir.              3
Scale Factor      2942(gal)/8224139
Max. Acc. (gal)   3.550
Last Correction   2025/01/13 21:19:52
Memo.             
[...]
   39469    39324    39128    38932    38651    38357    38206    38180 
   38206    38242    38244    38249    38353    38488    38479    38376 
   38439    38693    38885    38919    38950    39062    39179    39206 
   39124    38978    38765    38534    38503    38711    38890    38965 
   39051    39082    39019    38979    38969    38935    38935    39066 
   39289    39471    39700    40147    40598    40784    40806    40755 
   40570    40351    40239    40130    39881    39598    39492    39568 
   39665    39679    39594    39488    39444    39380    39233    39112 
   39081    39075    39086    39197    39316    39117    38587    38137 
   37939    37885    37995    38242    38542    38931    39380    39749 
   39926    39787    39289    38681    38303    38205    38260    38497 
   38897    39168    39167    39067    38904    38558    38138    37922 
   38038    38403    38858    39228    39332    39159    38965    38800 
   38439    38005    37760    37517    37126    36850    36795    36798 
   36879    37142    37490    37843    38233    38551    38638    38580 
   38638    38848    38965    38871    38774    38851    39017    39172 
   39271    39275    39405    39823    40142    40092    40001    40170 
   40452    40633    40772    40882    40663    40117    39687    39498 
   39282    38974    38722    38546    38342    38090    38038    38408 
   38835    38840    38641    38715    39158    39671    39816    39519 
   39113    38865    38823    38855    38776    38583    38418    38396 
   38497    38619    38723    38782    38735    38564    38364    38395 
   38740    39087    39151    39004    38894    38942    39063    39090 
   38796    38159    37592    37435    37535    37662    37764    37876 
   38160    38718    39417    40020    40269    40171    40012    39866 
   39765    39818    39812    39495    38983    38483    38121    37983 
   38022    38065    38067    38184    38539    39091    39672    40104 
   40288    40230    40142    40215    40343    40298    39962    39456 
   39171    39374    39754    39846    39725    39718    39810    39852 
   39808    39596    39201    38931    38921    38815    38533    38400 
   38469    38651    38940    39125    39021    38761    38534    38407 
   38425    38556    38647    38611    38531    38508    38526    38493 
   38345    38121    38007    38175    38566    38951    39168    39240 
   39272    39374    39498    39537    39572    39563    39326    39070 
   39020    38938    38676    38385    38164    38142    38443    38870 
   39131    39199    39179    39181    39351    39598    39575    39208 
   38759    38475    38454    38554    38526    38458    38615    38904 
   39113    39275    39436    39529    39506    39401    39448    39879 
   40381    40436    40117    39857    39785    39644    39253    38848 
   38693    38772    38939    38950    38673    38344    38207    38222 
   38223    38176    38202    38421    38857    39271    39340    39240 
   39460    40009    40416    40398    40149    39993    39935    39725 
   39399    39275    39357    39414    39398    39334    39110    38685 
   38325    38296    38512    38708    38723    38647    38769    39117 
   39355    39275    39067    38988    38966    38792    38446    38107 
   37968    38032    38087    38041    38020    38063    38067    38075 
   38254    38641    39182    39766    40207    40489    40690    40672 
   40414    40157    39928    39540    39037    38685    38541    38456 
   38415    38476    38597    38669    38566    38330    38264    38578 
   39078    39394    39548    39908    40401    40537    40275    39961 
   39696    39376    38962    38601    38608    39008    39361    39402 
   39325    39282    39216    39131    39019    38774    38487    38384 
   38427    38507    38645    38635    38264    37856    37825    38036 
   38153    38106    37975    37902    37984    38080    37932    37650 
   37646    37925    38199    38487    38890    39333    39688    39776 
   39584    39434    39448    39332    39040    38959    39152    39244 
   39063    38749    38373    37994    37833    37933    38021    38022 
   38132    38416    38869    39463    39962    40080    39834    39529 
   39376    39290    39096    38786    38615    38867    39386    39752 
   39907    40059    40252    40328    40177    39951    39857    39765 
   39604    39641    39745    39555    39248    38970    38601    38323 
   38265    38232    38187    38210    38302    38550    39005    39399 
   39518    39525    39514    39302    38913    38570    38379    38319 
   38272    38079    37829    37836    38138    38457    38742    39162 
   39560    39706    39742    39777    39684    39495    39348    39276 
   39302    39397    39487    39544    39472    39197    38820    38507 
   38269    38014    37855    37952    38036    37845    37631    37465 
   37106    36753    36751    36968    37165    37262    37177    36994 
   37007    37412    38169    39025    39676    40128    40478    40589 
   40458    40300    40109    39812    39536    39357    39316    39503 
   39703    39541    39116    38784    38666    38707    38751    38665 
   38568    38600    38612    38461    38287    38202    38106    37956 
   37872    37863    37824    37783    37839    37903    37822    37719 
   37789    37889    37916    38071    38480    39177    40070    40834 
   41246    41343    41273    41191    41156    41172    41257    41419 
   41604    41634    41295    40528    39542    38661    38009    37617 
   37563    37733    37957    38298    38722    38975    39127    39488 
   39974    40239    40236    40208    40317    40454    40498    40498 
   40446    40383    40456    40537    40342    39865    39287    38820 
   38558    38299    37818    37216    36856    36887    36861    36472 
   36113    36026    36101    36424    36973    37601    38348    39098 
   39611    39933    40140    40062    39598    39046    38824    38994 
   39352    39729    39908    39741    39456    39298    39097    38672 
   38215    38011    38082    38107    37848    37531    37473    37625 
   37797    37905    37908    37883    38056    38389    38615    38843 
   39317    39835    40089    39995    39654    39249    38854    38661 
   38882    39205    39305    39388    39557    39555    39411    39523 
   39908    40000    39621    39337    39484    39845    40131    40134 
   39870    39532    39174    38886    38830    38951    39070    38955 
   38464    37998    38003    38211    38230    38165    38218    38373 
   38608    38912    39094    38956    38596    38242    37979    37783 
   37644    37574    37686    38119    38661    39104    39661    40165 
   40186    40142    40441    40640    40527    40416    40370    40281 
   40209    40204    40001    39388    38662    38234    38141    38173 
   38005    37504    37053    36987    37058    37111    37473    38183 
   38877    39457    39960    40281    40261    39825    39353    39313 
   39529    39676    39727    39607    39445    39614    39900    39842 
   39690    39744    39729    39658    39920    40356    40505    40296 
   39865    39276    38605    37944    37231    36420    35843    35837 
   36269    36871    37527    38218    39000    39874    40547    40703 
   40593    40678    40740    40316    39572    38684    37532    36701 
   36875    37401    37444    37432    37836    38291    38507    38599 
   38705    38897    39145    39307    39145    38699    38265    37709 
   36991    36729    36979    37161    37373    37984    38661    38888 
   38713    38685    39235    40055    40516    40701    41106    41708 
   42184    42380    42314    42191    42057    41723    41234    40636 
   39849    39245    39101    38921    38437    38090    38087    38067 
   37859    37839    38217    38708    39108    39355    39301    39066 
   38993    39128    39384    39765    39989    39754    39282    39070 
   39322    39487    38923    38106    37851    38025    38200    38356 
   38631    39116    39636    39822    39694    39622    39708    39837 
   40097    40512    40826    41002    41304    41836    42268    42209 
   41836    41513    40996    39987    38820    37816    36845    36074 
   35862    35787    35429    35295    35749    36522    37369    38064 
   38566    39168    39892    40359    40335    39968    39505    39144 
   39023    38943    38722    38634    38682    38515    38259    38076 
   37885    37943    38310    38524    38641    39098    39530    39336 
   39004    39247    39810    40236    40397    40203    39949    40053 
   40193    39769    38866    38010    37389    36868    36425    36181 
   36278    36751    37176    37069    36760    36675    36487    36144 
   36049    36121    36321    37002    38098    39208    40243    41285 
   42219    42862    43147    43155    43012    42677    42202    42005 
   42148    42105    41651    40934    39968    39013    38472    38029 
   37295    36825    37068    37531    37862    38178    38369    38342 
   38292    38340    38497    38614    38519    38495    38615    38348 
   37764    37569    37817    37952    37497    36625    36104    36109 
   36089    35905    35899    36433    37650    38961    39573    39559 
   39584    40049    40825    41454    41758    42117    42769    43428 
   43737    43615    43213    42745    42367    42101    41762    41301 
   40954    40752    40486    40016    39245    38240    37439    37164 
   37091    36934    36877    36848    36649    36649    37054    37354 
   37230    37045    37185    37563    37976    38365    38595    38758 
   39248    39891    40070    39672    39036    38588    38573    38605 
   38151    37523    37511    38252    39064    39339    39229    39197 
   39330    39517    39653    39564    39380    39480    39708    39664 
   39425    39182    38862    38354    37782    37382    37012    36532 
   36387    36702    37041    37300    37498    37578    37713    38052 
   38429    38503    38213    37963    37993    38068    37999    37899 
   37922    38082    38453    39145    39945    40591    41061    41280 
   41349    41605    41940    41917    41341    40343    39289    38547 
   38257    38161    37889    37602    37700    38117    38580    38848 
   38785    38543    38396    38433    38454    38261    38049    38029 
   37941    37629    37396    37378    37435    37651    38155    38677 
   38948    39029    38981    38900    38986    39102    38990    38812 
   38757    38641    38395    38281    38311    38153    37832    37794 
   38227    38863    39360    39591    39582    39351    38996    38788 
   39006    39611    40159    40351    40374    40279    39887    39529 
   39559    39456    38847    38334    38310    38448    38488    38275 
   37781    37457    37467    37297    36941    36987    37359    37674 
   38003    38345    38708    39456    40351    40656    40525    40587 
   40759    40849    41073    41377    41453    41266    41017    40846 
   40593    39955    39051    38254    37795    37768    37933    38001 
   38271    38956    39573    39819    39868    39857    39937    40205 
   40424    40435    40377    40381    40467    40504    40274    39846 
   39451    38971    38233    37546    37231    37035    36672    36394 
   36532    36957    37164    36952    36830    37075    37307    37601 
   38219    38674    38742    38925    39329    39641    39769    39687 
   39430    39213    39064    38799    38350    37817    37374    37250 
   37467    37643    37465    37168    37022    36931    36899    37107 
   37488    37835    38142    38433    38681    38936    39112    39070 
   38851    38541    38276    38176    38006    37516    37026    36906 
   36844    36517    36213    36126    35977    35630    35421    35618 
   35942    36072    36201    36558    37031    37574    38240    38749 
   38842    38817    38975    39110    38989    38678    38439    38466 
   38639    38792    38948    38993    38734    38330    38070    37913 
   37687    37511    37555    37647    37620    37600    37662    37677 
   37575    37449    37303    37029    36759    36846    37262    37648 
   38088    38855    39627    40039    40239    40134    39394    38475 
   37944    37521    37054    36877    36996    37242    37631    38111 
   38547    38888    39136    39216    39199    39413    39895    40304 
   40409    40329    40389    40643    40752    40485    40103    39989 
   40055    40088    40265    40630    40991    41254    41242    40801 
   40104    39422    38828    38179    37440    36863    36637    36636 
   36633    36751    37320    38191    38904    39553    40505    41578 
   42442    43051    43337    43374    43451    43484    43167    42631 
   42218    41875    41358    40794    40486    40379    40263    40188 
   40351    40771    41088    40929    40385    39829    39499    39432 
   39449    39344    39216    39222    39278    39321    39328    39220 
   39190    39576    40400    41443    42682    44162    45441    46002 
   46041    45918    45553    44902    44065    42913    41404    39865 
   38470    37141    36026    35282    34769    34294    33814    33465 
   33230    32832    32240    31657    31131    30755    30693    30832 
   31062    31513    32294    33403    34753    36165    37540    38884 
   40173    41427    42595    43432    43816    43861    43707    43464 
   43135    42606    41808    40898    40127    39503    38897    38267 
   37435    36175    34734    33529    32505    31457    30481    29725 
   29296    29193    29164    29101    29083    29023    29061    29392 
   29805    30325    31288    32637    34169    35876    37710    39604 
   41519    43263    44609    45555    46234    46784    47274    47502 
   47341    47148    47240    47548    47880    47946    47601    47159 
   46923    46764    46512    46178    45708    44994    43997    42769 
   41431    40122    38897    37816    37146    37138    37519    37764 
   37766    37822    38145    38583    38797    38651    38194    37567 
   37081    36863    36771    36933    37446    37906    38009    37897 
   37714    37444    37037    36481    35864    35415    35282    35409 
   35845    36802    38215    39722    41135    42412    43432    44201 
   44794    45099    45094    44906    44608    44292    43969    43486 
   42961    42732    42774    42893    43112    43457    43939    44620 
   45292    45661    45801    45859    45816    45655    45279    44720 
   44393    44491    44589    44108    42936    41569    40579    40074 
   39784    39406    38870    38361    37998    37674    37424    37420 
   37444    37378    37642    38330    38977    39274    39205    38820 
   38277    37791    37322    36720    36182    35926    35775    35611 
   35590    35707    35745    35598    35313    34897    34403    33972 
   33636    33354    33156    33053    32979    32914    32915    32829 
   32439    31957    31612    31324    31199    31422    31827    32240 
   32684    33104    33367    33524    33678    33720    33474    33050 
   32848    33073    33488    33870    34357    35147    36189    37342 
   38585    39928    41238    42430    43457    44112    44336    44329 
   44140    43707    43227    43108    43509    44180    44892    45743 
   46793    47811    48520    48836    48809    48470    47943    47476 
   47056    46454    45607    44602    43633    42851    42084    41206 
   40597    40589    40910    41173    41310    41377    41443    41596 
   41794    41779    41407    40959    40645    40208    39409    38399 
   37485    36794    36312    36016    35723    35310    35043    35135 
   35542    36279    37247    38218    39194    40124    40778    41189 
   41559    41939    42246    42365    42322    42298    42381    42572 
   42768    42819    42747    42658    42507    42201    41836    41562 
   41293    40841    40290    39847    39463    38981    38404    37774 
   37147    36660    36310    35955    35622    35529    35658    35757 
   35797    35922    35980    35695    35060    34176    33104    32073 
   31342    30956    30866    30974    31077    31091    31125    31232 
   31330    31334    31276    31360    31679    31981    32157    32502 
   33100    33713    34233    34661    34996    35272    35494    35662 
   35764    35818    35974    36231    36402    36574    36987    37670 
   38611    39788    41019    42060    42784    43217    43498    43753 
   43972    44069    44016    43830    43607    43502    43444    43286 
   43179    43222    43094    42665    42195    41802    41499    41453 
   41686    41858    41863    42148    42757    43123    43279    43737 
   44352    44767    45122    45508    45636    45400    44969    44377 
   43464    42260    41098    40239    39688    39418    39387    39445 
   39556    39887    40520    41197    41616    41879    42248    42669 
   42961    43116    43229    43302    43127    42539    41646    40564 
   39510    38788    38209    37417    36520    35776    35205    34713 
   34168    33473    32773    32312    31973    31480    30875    30384 
   30092    29933    29859    29947    30275    30866    31752    32895 
   34163    35530    36931    38020    38638    39012    39191    38994 
   38423    37723    37123    36671    36309    35970    35679    35652 
   35934    36298    36738    37353    38003    38577    39058    39424 
   39823    40393    41049    41643    42078    42410    42742    42977 
   43004    42807    42334    41624    40802    39930    39091    38268 
   37380    36686    36475    36564    36626    36560    36398    36205 
   35984    35738    35552    35448    35379    35267    35041    34784 
   34618    34630    34951    35476    35876    36246    36929    37795 
   38465    38848    39073    39294    39637    40198    41121    42407 
   43815    45103    46082    46634    46975    47336    47486    47208 
   46696    46205    45840    45547    45142    44629    44157    43726 
   43426    43465    43636    43390    42570    41519    40564    39706 
   38743    37725    36983    36564    36238    36049    36274    37030 
   38198    39483    40630    41607    42410    42854    42778    42434 
   42218    42134    42032    41939    41859    41704    41411    41045 
   40643    40011    39067    38002    36976    36174    35835    35904 
   36034    36047    36070    36177    36309    36417    36408    36263 
   36103    36007    36003    36020    35920    35694    35490    35465 
   35599    35739    35853    36032    36252    36358    36402    36632 
   37123    37798    38516    38940    38881    38543    38107    37732 
   37679    37882    38080    38333    38817    39507    40153    40464 
   40583    41013    41905    42947    43791    44263    44298    43903 
   43224    42412    41455    40302    39105    38153    37544    37147 
   36844    36597    36366    36154    36054    36082    36113    36115 
   36285    36748    37372    37951    38456    38978    39440    39703 
   39868    39965    39785    39295    38693    38138    37804    37854 
   38265    38888    39580    40277    40925    41461    41916    42349 
   42753    43051    43067    42765    42298    41669    40844    39961 
   39205    38709    38426    38202    38091    38213    38487    38870 
   39399    39927    40273    40452    40490    40278    39726    38988 
   38511    38611    39016    39258    39375    39730    40292    40703 
