Origin Time       2025/01/13 21:19:00
Lat.              31.8
Long.             131.6
Depth. (km)       30
Mag.              6.9
Station Code      OITH10
Station Lat.      32.9278
Station Long.     131.8695
Station Height(m) 80
Record Time       2025/01/13 21:19:53
Sampling Freq(Hz) 100Hz
Duration Time(s)  163
Dir.              4
Scale Factor      7845(gal)/8223790
Max. Acc. (gal)   13.558
Last Correction   2025/01/13 21:19:53
Memo.             
[...]
    6166     6173     6053     6084     6355     6544     6515     6578 
    6928     7487     7928     7705     6818     5926     5471     5350 
    5198     5012     5223     5679     5676     5232     4988     5297 
    6089     6966     7470     7542     7495     7524     7339     6519 
    5308     4465     4360     4789     5458     6122     6459     6278 
    5949     5906     5829     5398     5125     5293     5351     5034 
    4850     5356     6455     7366     7634     7500     7130     6735 
    6721     6808     6396     5664     5107     4726     4480     4723 
    5360     5563     5047     4438     4224     4307     4315     4148 
    4324     5112     5713     5402     4718     4588     5121     5698 
    5792     5533     5486     5973     6759     7310     7195     6517 
    5976     5984     6261     6708     7400     7983     8118     7720 
    6779     5505     4101     2775     2215     2948     4286     5066 
    5167     5225     5494     5845     6034     5810     5292     4681 
    4118     4195     5177     6079     6002     5348     5062     5629 
    6795     7689     7580     6774     6135     5826     5641     5749 
    6068     6296     6512     6804     7322     8145     8490     7688 
    6238     4826     3935     4000     4553     4741     4811     5344 
    6003     6330     6399     6280     6097     6247     6912     7688 
    7939     7568     7142     7146     7489     7634     7090     6102 
    5463     5358     5184     4673     4240     4205     4442     4603 
    4442     4083     3924     4237     4977     5825     6497     6993 
    7269     7092     6597     6230     6046     5898     5902     6164 
    6451     6444     6309     6440     6550     6199     5795     5769 
    5773     5447     5023     4976     5431     6077     6531     6448 
    5822     5273     5263     5498     5556     5460     5501     5837 
    6247     6439     6462     6469     6365     5981     5290     4591 
    4438     5101     6297     7321     7560     7267     6988     6513 
    5509     4321     3677     4248     5971     7911     9186     9327 
    8236     6550     5200     4518     4216     3944     3724     3932 
    4930     6543     7866     8114     7400     6134     4656     3604 
    3387     3636     3979     4376     4722     5034     5526     6207 
    6930     7381     7095     6300     5746     5598     5575     5402 
    4799     4047     3881     4260     4406     4199     4245     4773 
    5498     6235     6949     7493     7681     7496     7118     6806 
    6559     6095     5398     4865     4822     5242     5898     6602 
    7142     7173     6602     5805     5198     4872     4841     5317 
    6231     6825     6521     5796     5356     5135     5027     5471 
    6497     7330     7461     7267     7156     7036     6856     6648 
    6270     5891     5922     6112     5806     5103     4668     4631 
    4564     4222     3896     4078     4646     4962     5023     5267 
    5556     5641     5771     6053     6328     6659     7037     7095 
    6662     6045     5584     5409     5420     5386     5287     5305 
    5424     5591     5923     6408     6845     6943     6490     5741 
    5258     5358     5811     6192     6474     6820     7069     7024 
    6756     6280     5493     4666     4338     4436     4279     3838 
    3902     4646     5356     5610     5597     5626     5752     5817 
    5904     6133     6093     5509     4810     4487     4638     4920 
    4810     4472     4711     5594     6228     6119     5613     4984 
    4349     4217     4874     5819     6536     7045     7453     7555 
    7105     6351     5910     5944     6057     5971     5775     5709 
    5903     6150     6083     5694     5367     5325     5331     5161 
    5078     5358     5740     5788     5402     4843     4517     4552 
    4688     4760     5069     5829     6559     6616     6160     6045 
    6808     7973     8604     8278     7311     6384     5814     5178 
    4213     3519     3708     4538     5305     5597     5644     6092 
    6968     7299     6436     5065     4340     4673     5589     6265 
    6239     5837     5609     5572     5525     5408     5182     5094 
    5544     6253     6451     6037     5591     5512     5690     5598 
    4880     4056     4021     4977     6245     6905     6617     5845 
    5206     4842     4594     4540     4861     5389     5796     5902 
    5699     5459     5536     5873     6139     6399     7033     8066 
    9003     9205     8534     7580     6825     6291     5976     5602 
    4783     3993     4055     4945     5911     6228     5713     4738 
    3854     3472     3551     3811     4241     4747     4946     4781 
    4607     4765     5281     5684     5605     5314     5088     4900 
    4842     5028     5463     6015     6251     5980     5521     5112 
    4824     4596     4303     4257     4800     5633     6345     6853 
    7130     7038     6451     5512     4824     4990     5733     6313 
    6651     7017     7377     7524     7161     6187     4981     4070 
    3738     3855     4097     4482     5157     5844     6347     6907 
    7389     7387     7002     6594     6413     6505     6562     6469 
    6478     6582     6697     6937     7126     6930     6498     6250 
    6361     6677     6956     7244     7684     7778     6902     5427 
    4162     3456     3412     3982     4835     5553     5773     5499 
    5189     5105     4970     4583     4301     4471     4909     5428 
    6103     6767     7015     6620     5786     5225     5541     6494 
    7269     7281     6637     5969     5718     5737     5589     5024 
    4500     4750     5589     6230     6578     6912     7009     6721 
    6442     6489     6748     6953     6943     6721     6436     6357 
    6663     7204     7549     7300     6631     6184     6235     6646 
    7264     7776     7936     8012     8322     8537     8113     7258 
    6658     6658     7118     7291     6610     5894     6096     6706 
    6821     6389     5863     5672     5854     5979     5724     5198 
    4757     4638     4665     4544     4357     4407     4756     5127 
    5167     4800     4288     3915     3800     3900     4023     4002 
    4021     4369     4700     4480     4014     3909     4236     4747 
    5098     5121     5254     5903     6571     6589     6160     5856 
    5865     6110     6411     6507     6174     5427     4669     4407 
    4556     4498     4002     3574     3751     4495     5293     5655 
    5593     5522     5745     6226     6651     6666     6293     5969 
    5999     6123     5971     5732     5815     6245     6751     7148 
    7520     7850     7754     7186     6558     6019     5599     5479 
    5586     5784     6193     6917     7951     9024     9533     9321 
    9080     9450    10235    10710    10327     9036     7222     5449 
    4032     3083     2848     3350     4293     5481     6621     7257 
    7312     6959     6151     4934     3696     2795     2415     2712 
    3700     5008     6034     6531     6959     7800     8695     8788 
    7835     6538     5753     5697     5915     5854     5467     5105 
    4779     4214     3631     3476     3627     3682     3611     3612 
    3758     3931     3788     3033     2039     1740     2641     4338 
    5956     6783     6791     6519     6115     5283     4324     3874 
    3894     4120     4579     5063     5108     4521     3611     3083 
    3368     4203     5178     6193     7254     8256     9069     9526 
    9325     8259     6658     5285     4572     4382     4641     5339 
    6031     6162     5512     4179     2685     1576      888      526 
     584      943     1479     2401     3720     5034     6116     7153 
    8341     9541    10384    10586    10077     8949     7438     5961 
    4958     4488     4284     4163     4125     4414     5339     6567 
    7245     7145     6839     6856     7302     7839     8047     8108 
    8399     8756     9039     9486    10079    10473    10322     9486 
    8240     7064     6253     5917     6045     6299     6122     5343 
    4359     3723     3808     4602     5601     6224     6376     6242 
    5841     5190     4521     4110     4174     4631     5108     5509 
    6016     6598     7219     7807     7886     7263     6566     6489 
    6945     7196     6604     5162     3360     1729      508     -245 
    -378      206     1405     2902     4071     4444     4398     4754 
    5636     6281     6255     6079     6281     6671     6724     6205 
    5490     5101     5181     5853     7260     8874     9818     9853 
    9313     8479     7504     6573     5898     5609     5683     6014 
    6434     6799     7083     7106     6408     4675     2350      491 
    -160      284     1128     1737     2122     2783     3987     5441 
    6686     7604     8446     9402    10238    10454     9875     8908 
    7986     7034     5922     4919     4268     3928     3851     4010 
    4342     4715     5009     5489     6473     7506     7846     7503 
    6921     6164     5165     4375     4384     5066     5756     6208 
    6689     7138     7204     6809     5923     4473     2567      540 
    -936    -1309     -780      230     1756     3827     6157     8455 
   10430    11688    12155    12085    11620    10835     9977     9328 
    8928     8633     8374     8208     8402     9213    10355    11283 
   11735    11643    11105    10284     9252     8077     6717     5092 
    3369     1885      923      764     1696     3647     5892     7608 
    8461     8409     7577     6304     4729     2874     1251      558 
     972     2253     4058     5923     7510     8819     9767     9968 
    9271     8039     6898     6304     6255     6558     7038     7528 
    7857     7813     7396     6905     6566     6481     6675     6829 
    6633     6208     5634     4857     4000     2992     1648      417 
      99      878     2161     3381     4545     5786     6944     7786 
    8113     7724     6594     4970     3218     1644      476     -224 
    -540     -538     -391     -309     -191       82      409      845 
    1395     1765     1907     2073     2328     2663     3076     3379 
    3411     3335     3474     4059     5146     6527     7766     8463 
    8370     7591     6708     6254     6241     6507     7010     7663 
    8324     8810     9003     9024     9011     9007     9190     9778 
   10827    12194    13478    14264    14589    14634    14192    13069 
   11539     9883     8152     6635     5860     6027     6704     7155 
    6887     5853     4321     2821     2011     2124     2729     3454 
    4382     5447     6286     6849     7472     8320     9215    10006 
   10609    10767    10289     9454     8704     8059     7152     5710 
    3840     1965      554     -114      -10      735     1715     2326 
    2398     2308     2435     2874     3396     3655     3738     4093 
    4799     5462     5688     5313     4449     3499     2847     2608 
    2685     2899     2961     2628     2015     1389      726      -47 
    -731    -1027     -627      630     2447     4259     5751     6814 
    7375     7518     7356     6812     6062     5787     6609     8592 
   11113    13205    14427    15079    15487    15611    15202    13979 
   11838     9094     6396     4266     2810     1921     1463     1364 
    1806     3051     4850     6592     7929     8708     8865     8815 
    9155     9880    10450    10458    10115     9930     9823     9204 
    8062     7105     6748     6782     6980     7348     7734     7704 
    6876     5337     3707     2697     2490     2700     2957     3316 
    4083     5402     6936     8019     8121     7009     4804     2037 
    -664    -2656    -3231    -2209     -315     1595     3184     4363 
    5131     5719     6315     6728     6590     5809     4841     4410 
    4888     5988     7051     7674     7994     8229     8228     7649 
    6420     5012     4089     3735     3453     2889     2187     1755 
    1730     1786     1614     1350     1287     1493     1904     2438 
    2938     3438     4085     4800     5368     5609     5494     5410 
    5956     7296     9086    10959    12758    14188    14613    13641 
   11774    10083     9107     8513     7920     7325     6816     6523 
    6547     6704     6569     5890     4996     4691     5456     6898 
    8266     9161     9540     9433     8826     7773     6721     6349 
    6802     7554     7967     7815     7426     7125     6521     5055 
    3038     1329      459      637     1939     4078     6524     8669 
    9828     9717     8588     6772     4783     3491     3496     4631 
    6299     7919     9130     9860    10237    10301     9814     8492 
    6512     4483     2899     1779      754     -465    -1678    -2347 
   -2241    -1682    -1196    -1140    -1579    -2303    -2776    -2142 
      28     3025     5645     7153     7341     6331     4634     3063 
    2467     3249     4999     6921     8473     9444     9778     9335 
    7931     5728     3213      982     -203      261     2344     5452 
    8827    11915    14544    16737    18419    19453    19761    19352 
   18355    17109    15934    14739    13321    11731    10138     8691 
    7331     5792     4228     3234     2955     2970     2932     2631 
    1937      989       90     -514     -629     -162      768     1983 
    3424     5053     6663     7898     8410     7965     6451     3865 
     299    -3704    -6978    -8436    -7716    -5046    -1096     3187 
    7015     9803    10995    10473     8819     6841     5331     4895 
    5516     6797     8405     9798    10224     9413     7901     6712 
    6559     7271     8257     9121     9624     9703     9431     8788 
    7774     6610     5528     4629     4024     3836     4306     5609 
    7364     8783     9208     8479     7045     5715     5155     5394 
    5906     6311     6855     7967     9436    10326     9896     8255 
    5987     3757     2255     1842     2245     2909     3464     3817 
    4133     4696     5468     5989     5841     4845     3235     1904 
    1602     2023     2497     2859     3223     3727     4463     5304 
    5927     5964     5254     4147     3172     2617     2552     2868 
    3510     4527     5661     6428     6632     6455     6231     6237 
    6771     8105    10102    12313    14296    15495    15481    14373 
   12630    10763     9205     8222     7913     8159     8783     9670 
   10457    10733    10461     9651     8268     6519     4720     3214 
    2370     2273     2558     2768     2681     2326     1860     1366 
     915      877     1711     3325     4943     5782     5724     5251 
    4845     4626     4482     4284     3855     3159     2735     3289 
    4768     6246     6797     6334     5432     4428     3230     1853 
     631      -28       41      750     1821     2766     3227     3366 
    3570     4032     4696     5242     5389     5431     6027     7501 
    9518    11254    12025    11894    11337    10466     9047     7265 
    5902     5601     6320     7402     8090     8179     7948     7570 
    7051     6528     6181     5934     5571     5108     4800     4955 
    5815     7244     8518     8746     7626     5899     4773     4712 
    5269     5934     6509     6952     7256     7227     6694     5884 
    5204     4901     4990     5254     5491     5811     6381     6843 
    6520     5336     3974     3080     2909     3488     4596     5778 
    6536     6498     5702     4711     4116     3931     3700     3125 
    2459     2250     2884     4410     6265     7429     7600     7439 
    7510     7897     8409     8748     8901     8920     8519     7452 
    5832     4072     2775     2373     2729     3329     3954     4880 
    6188     7449     8244     8491     8363     8046     7537     6855 
    6237     5868     5718     5717     5765     5636     5179     4533 
    3979     3781     4090     4662     4965     4830     4519     4093 
    3377     2567     2247     2820     4128     5611     6721     7234 
    7325     7346     7360     7096     6376     5319     4233     3430 
    2967     2758     2893     3406     3954     4198     4171     4021 
    3792     3535     3433     3883     5232     7164     8945    10238 
   11006    11090    10451     9504     8885     8775     8630     7942 
    6851     5859     5301     5004     4395     3240     1985     1285 
    1510     2608     4166     5636     6488     6386     5522     4413 
    3454     2924     2963     3497     4476     5827     7200     8201 
    8718     8791     8430     7638     6438     5028     3929     3562 
    3906     4727     5730     6528     6895     6890     6523     5803 
    5123     5007     5593     6679     7948     9090     9953    10416 
   10296     9585     8514     7388     6411     5525     4584     3738 
    3365     3592     4045     4170     3682     2731     1745     1182 
    1386     2357     3499     4110     4256     4645     5641     6945 
    8079     8692     8640     8091     7441     7036     7020     7214 
    7214     6867     6431     6156     6087     6114     6043     5813 
    5478     5030     4445     3801     3406     3686     4631     5725 
    6512     6825     6728     6386     5707     4548     3323     2624 
    2532     2837     3318     3888     4812     6282     7811     8559 
    8170     7045     5904     5204     4942     4893     4989     5274 
    5547     5398     4619     3353     2010     1129     1109     1912 
    3160     4529     5913     7169     8001     8162     7662     6957 
    6635     6689     6552     5769     4437     3094     2168     1696 
    1709     2431     3927     5837     7604     8818     9351     9487 
    9709    10023    10077    10000    10319    11106    11749    11626 
   10762     9593     8437     7446     6704     6177     5742     5352 
    5115     5012     4702     3960     3001     2107     1494     1472 
    2246     3665     5298     6679     7600     8170     8537     8779 
    9028     9332     9526     9495     9296     9097     9093     9324 
    9684    10038    10177     9903     9220     8363     7645     7146 
    6646     5913     4876     3666     2600     1904     1620     1753 
    2258     3090     4197     5247     5836     5934     5805     5790 
    6012     6178     5925     5119     3998     3190     3134     3739 
    4641     5412     5775     5690     5193     4473     3846     3437 
    3142     2894     2790     3002     3550     4225     4847     5441 
    6088     6752     7214     7169     6561     5670     4872     4368 
    4039     3601     2975     2408     2259     2691     3635     4857 
    5946     6573     6763     6721     6687     6835     7056     7225 
    7580     8307     9175     9886    10206     9902     9081     8230 
    7711     7541     7549     7426     6917     6081     5178     4395 
    3824     3549     3609     3912     4209     4369     4583     5077 
    5722     6043     5730     5059     4607     4648     4909     4955 
    4704     4379     4141     3989     3844     3642     3403     3249 
    3353     3838     4563     5155     5468     5881     6790     7998 
    8941     9331     9394     9482     9614     9640     9572     9451 
    9220     8945     8883     9181     9602     9674     9182     8364 
