Origin Time       2025/01/13 21:19:00
Lat.              31.8
Long.             131.6
Depth. (km)       30
Mag.              6.9
Station Code      OITH11
Station Lat.      33.2844
Station Long.     131.2118
Station Height(m) 460
Record Time       2025/01/13 21:20:00
Sampling Freq(Hz) 100Hz
Duration Time(s)  209
Dir.              5
Scale Factor      7845(gal)/8223790
Max. Acc. (gal)   5.296
Last Correction   2025/01/13 21:20:00
Memo.             
[...]
    1718     2155     2427     2489     2357     2100     1813     1582 
    1483     1539     1733     2030     2369     2668     2860     2887 
    2714     2346     1813     1170      502      -90     -514     -689 
    -592     -275      152      575      907     1115     1217     1278 
    1362     1498     1676     1865     2027     2139     2226     2326 
    2478     2694     2941     3134     3176     3001     2592     1981 
    1266      585       86     -145      -78      274      842     1533 
    2253     2887     3316     3446     3235     2710     1952     1102 
     324     -257     -564     -577     -357        0      396      750 
    1003     1142     1182     1156     1109     1102     1186     1382 
    1678     2015     2308     2466     2415     2150     1732     1266 
     876      670      681      864     1131     1378     1513     1485 
    1313     1058      766      496      313      249      306      459 
     664      893     1131     1370     1599     1788     1911     1953 
    1908     1791     1642     1516     1417     1316     1167      924 
     568      130     -314     -662     -810     -692     -303      295 
     993     1647     2133     2365     2323     2053     1633     1151 
     702      364      193      222      446      827     1283     1687 
    1911     1857     1499      912      241     -349     -711     -756 
    -481       54      753     1486     2139     2624     2872     2862 
    2635     2268     1860     1520     1321     1291     1412     1603 
    1769     1837     1771     1595     1387     1237     1224     1374 
    1638     1927     2146     2220     2126     1880     1536     1173 
     850      614      495      502      615      793      972     1090 
    1119     1063      949      819      726      718      835     1088 
    1437     1804     2095     2232     2165     1896     1498     1073 
     712      472      345      283      241      207      199      272 
     480      838     1313     1822     2259     2532     2587     2432 
    2122     1752     1421     1196     1086     1062     1062     1039 
     992      957      993     1144     1405     1713     1976     2111 
    2070     1849     1495     1086      710      440      317      359 
     558      886     1274     1642     1925     2084     2119     2064 
    1964     1854     1756     1680     1628     1590     1557     1529 
    1510     1520     1583     1694     1815     1906     1912     1790 
    1516     1125      684      265      -63     -260     -305     -199 
      14      287      572      818      986     1057     1021      891 
     718      558      450      429      508      670      881     1101 
    1297     1471     1645     1833     2026     2201     2312     2309 
    2164     1876     1498     1112      811      661      684      858 
    1132     1439     1711     1885     1919     1809     1576     1263 
     946      687      535      529      661      884     1127     1318 
    1405     1371     1254     1136     1102     1212     1474     1827 
    2172     2393     2401     2172     1750     1231      729      345 
     143      135      276      498      734      935     1089     1209 
    1325     1452     1568     1649     1671     1618     1506     1383 
    1293     1269     1340     1502     1701     1854     1890     1760 
    1456     1015      511       52     -264     -386     -301      -36 
     341      735     1053     1229     1247     1134      959      793 
     691      666      688      714      715      673      600      523 
     475      465      488      525      562      585      588      579 
     561      542      541      577      670      827     1039     1289 
    1566     1837     2069     2247     2347     2357     2284     2145 
    1975     1815     1706     1678     1744     1898     2108     2315 
    2474     2565     2579     2538     2467     2404     2370     2361 
    2357     2342     2296     2219     2118     2006     1898     1814 
    1776     1794     1868     1983     2091     2142     2100     1950 
    1718     1448     1177      942      766      643      569      540 
     548      606      719      888     1098     1318     1509     1630 
    1653     1582     1448     1293     1136      981      835      688 
     537      399      295      243      247      297      383      483 
     591      719      885     1088     1310     1522     1664     1683 
    1563     1320     1005      700      465      334      322      419 
     589      799     1024     1247     1456     1626     1718     1715 
    1615     1431     1216     1042      951      965     1084     1269 
    1466     1629     1721     1725     1625     1412     1101      739 
     388      113      -54     -122     -147     -197     -340     -616 
   -1009    -1436    -1794    -1988    -1954    -1692    -1254     -720 
    -191      264      612      854     1024     1156     1262     1355 
    1468     1634     1887     2219     2585     2914     3126     3160 
    3010     2732     2411     2147     2023     2065     2246     2501 
    2741     2903     2956     2899     2751     2533     2249     1888 
    1466     1020      623      367      325      513      880     1325 
    1722     1971     2035     1937     1742     1555     1459     1491 
    1648     1871     2070     2178     2160     2015     1791     1543 
    1320     1170     1124     1193     1364     1618     1917     2192 
    2377     2412     2268     1952     1525     1090      772      676 
     834     1192     1651     2088     2385     2474     2343     2045 
    1678     1354     1147     1094     1194     1391     1588     1703 
    1687     1534     1278      965      650      387      206      132 
     174      307      494      693      859      949      938      815 
     594      318       33     -220     -386     -406     -260       41 
     475      994     1545     2043     2407     2581     2547     2331 
    2016     1696     1460     1378     1478     1725     2060     2416 
    2725     2929     2997     2906     2667     2317     1926     1566 
    1294     1127     1048     1027     1026     1007      949      849 
     731      638      596      639      784     1004     1255     1486 
    1632     1655     1557     1362     1102      822      552      310 
     122       13       -1       70      202      353      460      469 
     353      124     -163     -415     -550     -506     -264      117 
     542      908     1131     1171     1058      857      656      534 
     527      621      773      943     1093     1205     1282     1340 
    1387     1420     1431     1410     1347     1232     1058      835 
     594      359      160       25      -36      -31       16       68 
      95       90       72       78      149      319      599      950 
    1316     1641     1881     2014     2052     2015     1935     1849 
    1775     1730     1721     1744     1802     1912     2080     2293 
    2542     2787     2986     3109     3146     3098     2997     2898 
    2847     2859     2933     3041     3152     3235     3272     3264 
    3231     3187     3136     3073     2999     2925     2883     2893 
    2955     3055     3160     3221     3192     3041     2755     2363 
    1902     1425      997      653      407      270      216      213 
     255      346      492      687      895     1084     1237     1358 
    1467     1611     1838     2164     2559     2948     3254     3433 
    3476     3414     3306     3213     3167     3163     3156     3084 
    2902     2592     2177     1722     1298      966      762      673 
     654      653      619      521      353      124     -140     -395 
    -585     -677     -645     -487     -236       43      286      433 
     464      391      247       81      -55     -132     -129      -48 
      76      211      313      348      292      147      -55     -252 
    -392     -438     -386     -283     -187     -128     -124     -174 
    -251     -315     -348     -355     -363     -394     -457     -535 
    -585     -567     -459     -268      -32      182      315      356 
     325      257      198      167      155      148      140      128 
     117      113      112       93       18     -148     -413     -741 
   -1081    -1370    -1536    -1547    -1425    -1220    -1019     -916 
    -962    -1139    -1387    -1607    -1710    -1665    -1498    -1252 
    -984     -753     -585     -491     -459     -464     -476     -471 
    -432     -360     -271     -179      -91       -2       90      193 
     318      477      675      903     1155     1412     1634     1799 
    1884     1876     1782     1624     1435     1260     1138     1097 
    1182     1418     1792     2273     2814     3345     3792     4105 
    4260     4252     4110     3877     3574     3231     2893     2594 
    2370     2255     2276     2432     2689     2995     3269     3426 
    3411     3214     2883     2509     2182     1987     1980     2176 
    2525     2960     3392     3734     3946     4045     4054     4001 
    3931     3848     3743     3628     3524     3457     3450     3522 
    3676     3883     4110     4334     4525     4653     4704     4685 
    4595     4455     4288     4113     3959     3855     3811     3817 
    3847     3861     3815     3681     3449     3134     2782     2447 
    2169     1977     1899     1937     2072     2266     2461     2582 
    2587     2465     2241     1976     1744     1607     1601     1710 
    1883     2047     2135     2106     1964     1748     1522     1354 
    1286     1316     1410     1528     1628     1671     1655     1606 
    1557     1539     1594     1757     2022     2330     2604     2774 
    2781     2606     2273     1834     1371      973      703      577 
     584      691      849     1009     1140     1247     1344     1410 
    1420     1358     1202      954      637      295      -18     -270 
    -444     -545     -604     -656     -727     -845    -1020    -1252 
   -1510    -1749    -1930    -2019    -1995    -1887    -1761    -1694 
   -1749    -1966    -2327    -2756    -3152    -3410    -3457    -3283 
   -2924    -2457    -1969    -1520    -1129     -800     -522     -294 
    -124      -31      -41     -170     -414     -753    -1135    -1499 
   -1800    -2007    -2111    -2111    -2016    -1867    -1714    -1593 
   -1524    -1509    -1529    -1561    -1572    -1533    -1452    -1345 
   -1231    -1136    -1074    -1028     -988     -940     -876     -792 
    -676     -498     -233      120      552     1034     1517     1954 
    2301     2528     2646     2683     2667     2625     2573     2497 
    2385     2249     2107     1969     1845     1734     1620     1479 
    1308     1121      953      854      870     1000     1192     1377 
    1497     1530     1502     1476     1528     1702     2011     2417 
    2852     3245     3559     3805     4006     4189     4369     4553 
    4719     4850     4932     4966     4977     4989     5016     5071 
    5152     5254     5368     5486     5593     5683     5745     5748 
    5663     5486     5246     4974     4718     4525     4402     4322 
    4237     4097     3874     3585     3273     2980     2744     2575 
    2478     2447     2479     2571     2724     2925     3142     3315 
    3368     3249     2947     2490     1950     1420      972      658 
     498      456      475      499      477      395      284      182 
     102       70       91      137      184      207      183      121 
      47      -18      -56      -60      -62      -83     -151     -294 
    -486     -662     -776     -785     -681     -523     -400     -399 
    -577     -939    -1431    -1958    -2404    -2686    -2768    -2640 
   -2316    -1857    -1341     -831     -382      -40      176      272 
     264      197      114       44        1      -29      -75     -152 
    -265     -407     -542     -642     -704     -730     -726     -735 
    -784     -861     -953    -1030    -1047    -1004     -909     -769 
    -606     -438     -270      -91      125      399      714     1043 
    1362     1617     1780     1867     1890     1880     1868     1858 
    1837     1764     1603     1359     1057      753      527      434 
     494      704     1030     1416     1815     2174     2434     2556 
    2513     2290     1929     1506     1100      823      787     1030 
    1537     2239     3003     3684     4176     4430     4464     4352 
    4187     4062     4051     4178     4423     4754     5119     5460 
    5738     5915     5958     5864     5653     5347     4958     4517 
    4075     3677     3364     3183     3167     3294     3512     3742 
    3889     3883     3715     3433     3127     2893     2810     2917 
    3171     3491     3798     4014     4079     3982     3723     3321 
    2839     2350     1927     1648     1543     1606     1821     2141 
    2501     2848     3132     3303     3319     3163     2840     2378 
    1834     1298      853      550      417      440      568      726 
     834      845      743      535      251      -79     -422     -756 
   -1061    -1321    -1506    -1590    -1566    -1453    -1297    -1155 
   -1080    -1085    -1147    -1219    -1244    -1196    -1081     -927 
    -787     -712     -742     -892    -1140    -1456    -1799    -2122 
   -2393    -2587    -2687    -2678    -2554    -2331    -2057    -1796 
   -1625    -1621    -1833    -2241    -2785    -3372    -3882    -4218 
   -4332    -4214    -3904    -3480    -3032    -2646    -2380    -2238 
   -2182    -2168    -2158    -2134    -2093    -2053    -2037    -2068 
   -2170    -2353    -2590    -2835    -3019    -3063    -2910    -2539 
   -1962    -1250     -494      206      777     1179     1412     1489 
    1443     1317     1162     1020      915      869      884      947 
    1046     1156     1255     1314     1318     1258     1146     1031 
     965      996     1152     1429     1784     2166     2519     2789 
    2952     3001     2941     2808     2652     2531     2490     2555 
    2717     2940     3154     3289     3300     3183     2970     2721 
    2500     2365     2350     2442     2601     2778     2918     2997 
    3014     2983     2921     2853     2802     2779     2797     2872 
    3017     3229     3504     3808     4093     4309     4426     4432 
    4351     4221     4078     3944     3831     3728     3623     3504 
    3385     3287     3222     3206     3234     3298     3388     3489 
    3596     3712     3828     3951     4081     4197     4283     4320 
    4280     4162     3975     3742     3491     3252     3046     2897 
    2808     2786     2845     2984     3169     3366     3537     3636 
    3635     3534     3362     3161     2976     2839     2748     2673 
    2575     2420     2178     1848     1451     1024      592      172 
    -214     -552     -835    -1048    -1175    -1202    -1129     -978 
    -792     -610     -464     -372     -314     -260     -199     -130 
     -56        4       18      -36     -160     -322     -479     -589 
    -635     -627     -599     -596     -643     -742     -858     -940 
    -955     -896     -776     -642     -541     -491     -475     -453 
    -371     -202       39      295      479      502      326      -40 
    -544    -1101    -1636    -2099    -2470    -2756    -2955    -3046 
   -3014    -2832    -2489    -2012    -1455     -884     -379        0 
     222      279      197       37     -135     -275     -351     -344 
    -264     -143        0      145      279      410      556      724 
     913     1105     1278     1424     1540     1642     1765     1929 
    2151     2432     2747     3067     3353     3581     3743     3838 
    3866     3838     3781     3726     3701     3732     3823     3948 
    4071     4147     4128     3986     3724     3384     3026     2695 
    2428     2242     2126     2066     2066     2116     2188     2249 
    2274     2251     2176     2074     2006     2023     2158     2416 
    2768     3161     3532     3816     3946     3897     3693     3385 
    3049     2774     2646     2713     2976     3402     3916     4421 
    4827     5070     5119     4989     4743     4465     4237     4129 
    4170     4334     4565     4788     4924     4923     4764     4457 
    4041     3568     3091     2663     2326     2103     2006     2027 
    2138     2292     2436     2525     2531     2446     2293     2110 
    1930     1777     1664     1579     1507     1440     1358     1247 
    1092      884      622      322       14     -272     -521     -710 
    -850     -959    -1053    -1146    -1255    -1390    -1549    -1736 
   -1938    -2149    -2370    -2594    -2789    -2905    -2893    -2709 
   -2342    -1834    -1274     -778     -465     -409     -635    -1109 
   -1733    -2403    -3014    -3477    -3744    -3805    -3676    -3397 
   -3025    -2604    -2181    -1814    -1556    -1439    -1474    -1641 
   -1880    -2097    -2192    -2083    -1752    -1237     -622      -10 
     508      896     1142     1267     1318     1352     1414     1518 
    1655     1799     1927     2026     2101     2164     2223     2281 
    2344     2421     2513     2609     2705     2805     2905     2997 
    3083     3163     3227     3261     3257     3218     3157     3094 
    3057     3065     3127     3244     3404     3592     3805     4059 
    4357     4691     5043     5385     5679     5902     6034     6070 
    6030     5931     5782     5591     5385     5174     4969     4797 
    4676     4599     4545     4472     4321     4045     3622     3057 
    2404     1732     1112      607      256       58       -8       13 
      72      132      171      186      186      189      214      278 
     379      510      639      730      753      700      588      457 
     353      324      410      625      940     1305     1655     1912 
    2012     1914     1615     1154      610       86     -329     -584 
    -677     -638     -531     -441     -427     -514     -693     -939 
   -1201    -1447    -1663    -1831    -1950    -2015    -2016    -1957 
   -1864    -1780    -1748    -1810    -1980    -2249    -2579    -2917 
   -3213    -3427    -3543    -3554    -3474    -3333    -3172    -3036 
   -2965    -2997    -3129    -3339    -3588    -3817    -3985    -4047 
   -3981    -3786    -3484    -3129    -2793    -2536    -2392    -2367 
   -2435    -2538    -2613    -2616    -2519    -2320    -2031    -1660 
   -1217     -720     -197      329      819     1236     1567     1817 
    2012     2201     2408     2641     2903     3183     3462     3723 
    3947     4131     4257     4306     4272     4172     4035     3902 
    3827     3840     3940     4102     4278     4411     4476     4472 
    4411     4336     4283     4248     4195     4095     3929     3694 
    3422     3152     2925     2768     2681     2640     2617     2592 
    2560     2532     2515     2517     2527     2531     2543     2583 
    2674     2845     3113     3454     3828     4174     4433     4572 
    4588     4507     4371     4210     4041     3877     3715     3539 
    3348     3161     2991     2844     2733     2646     2539     2382 
    2153     1837     1443      993      521       56     -348     -668 
    -907    -1074    -1202    -1328    -1458    -1601    -1755    -1871 
