Origin Time       2025/01/13 21:19:00
Lat.              31.8
Long.             131.6
Depth. (km)       30
Mag.              6.9
Station Code      OITH07
Station Lat.      32.9870
Station Long.     131.5881
Station Height(m) 59
Record Time       2025/01/13 21:19:53
Sampling Freq(Hz) 100Hz
Duration Time(s)  181
Dir.              1
Scale Factor      3923(gal)/8224838
Max. Acc. (gal)   8.546
Last Correction   2025/01/13 21:19:53
Memo.             
[...]
  -10486   -10366   -10115    -9814    -9510    -9224    -8985    -8800 
   -8681    -8658    -8712    -8764    -8734    -8631    -8550    -8573 
   -8699    -8903    -9162    -9440    -9684    -9849    -9888    -9787 
   -9558    -9244    -8939    -8715    -8569    -8503    -8549    -8689 
   -8831    -8915    -8978    -9053    -9103    -9088    -9000    -8888 
   -8787    -8658    -8473    -8297    -8197    -8145    -8094    -8104 
   -8255    -8495    -8706    -8820    -8830    -8806    -8837    -8877 
   -8861    -8833    -8810    -8772    -8787    -8881    -8974    -9027 
   -9039    -8988    -8885    -8783    -8699    -8662    -8716    -8834 
   -8970    -9128    -9316    -9498    -9625    -9679    -9680    -9620 
   -9482    -9354    -9319    -9340    -9347    -9277    -9078    -8802 
   -8540    -8333    -8239    -8297    -8457    -8676    -8943    -9188 
   -9312    -9263    -9058    -8773    -8527    -8375    -8298    -8328 
   -8509    -8745    -8888    -8924    -8881    -8739    -8517    -8276 
   -8075    -7993    -8077    -8275    -8496    -8680    -8764    -8703 
   -8557    -8421    -8309    -8233    -8241    -8332    -8468    -8598 
   -8679    -8749    -8880    -9039    -9151    -9227    -9304    -9366 
   -9364    -9298    -9212    -9127    -9054    -9023    -9038    -9123 
   -9319    -9585    -9825    -9981   -10045   -10034    -9991    -9927 
   -9811    -9672    -9626    -9697    -9774    -9783    -9783    -9814 
   -9853    -9876    -9856    -9795    -9740    -9684    -9559    -9374 
   -9228    -9167    -9109    -8996    -8919    -8962    -9054    -9081 
   -9054    -9046    -9078    -9117    -9116    -9054    -8937    -8780 
   -8650    -8633    -8711    -8784    -8784    -8700    -8534    -8295 
   -8021    -7838    -7836    -7967    -8147    -8344    -8514    -8631 
   -8708    -8737    -8715    -8703    -8795    -8999    -9197    -9262 
   -9181    -8986    -8699    -8390    -8136    -7962    -7901    -7978 
   -8091    -8085    -7928    -7736    -7635    -7647    -7692    -7740 
   -7886    -8158    -8382    -8434    -8390    -8329    -8230    -8091 
   -7971    -7939    -8033    -8244    -8514    -8765    -8953    -9057 
   -9078    -9057    -9067    -9123    -9174    -9212    -9248    -9281 
   -9340    -9391    -9320    -9109    -8839    -8586    -8456    -8523 
   -8764    -9096    -9418    -9693    -9956   -10191   -10346   -10432 
  -10450   -10393   -10339   -10314   -10247   -10135    -9995    -9809 
   -9607    -9414    -9227    -9158    -9321    -9621    -9923   -10224 
  -10532   -10766   -10808   -10609   -10282    -9968    -9672    -9352 
   -9018    -8706    -8456    -8272    -8093    -7874    -7655    -7508 
   -7465    -7503    -7600    -7759    -7973    -8220    -8490    -8735 
   -8900    -9008    -9101    -9173    -9204    -9140    -8935    -8685 
   -8502    -8330    -8117    -7925    -7847    -7924    -8129    -8368 
   -8575    -8731    -8835    -8893    -8877    -8796    -8795    -8966 
   -9221    -9467    -9641    -9666    -9531    -9297    -9034    -8888 
   -9003    -9343    -9779   -10191   -10434   -10417   -10199    -9887 
   -9553    -9296    -9211    -9251    -9298    -9304    -9266    -9161 
   -8977    -8743    -8530    -8430    -8503    -8688    -8860    -8970 
   -9023    -8964    -8746    -8425    -8155    -8060    -8116    -8193 
   -8186    -8095    -8032    -8054    -8081    -8048    -8002    -8009 
   -8070    -8128    -8132    -8129    -8239    -8490    -8753    -8889 
   -8872    -8768    -8661    -8614    -8671    -8833    -9069    -9344 
   -9621    -9842    -9958    -9936    -9759    -9487    -9263    -9171 
   -9174    -9244    -9366    -9412    -9286    -9101    -8989    -8949 
   -8966    -9062    -9219    -9385    -9474    -9454    -9451    -9571 
   -9715    -9745    -9657    -9521    -9321    -9008    -8618    -8268 
   -8063    -8012    -8017    -8019    -8102    -8326    -8569    -8764 
   -8957    -9100    -9093    -8931    -8671    -8425    -8271    -8164 
   -8091    -8120    -8235    -8329    -8338    -8276    -8143    -7936 
   -7754    -7678    -7700    -7835    -8059    -8241    -8325    -8387 
   -8426    -8360    -8199    -8044    -7987    -8039    -8100    -8051 
   -7884    -7689    -7574    -7551    -7582    -7712    -7990    -8297 
   -8472    -8536    -8622    -8807    -9097    -9409    -9602    -9616 
   -9505    -9351    -9223    -9116    -8959    -8761    -8622    -8590 
   -8637    -8739    -8870    -9009    -9147    -9262    -9300    -9238 
   -9126    -9051    -9093    -9292    -9599    -9867    -9963    -9879 
   -9661    -9356    -9040    -8793    -8677    -8743    -8945    -9121 
   -9221    -9373    -9620    -9823    -9914    -9954   -10004   -10112 
  -10277   -10381   -10324   -10134    -9864    -9544    -9258    -9086 
   -9070    -9194    -9364    -9486    -9556    -9562    -9501    -9479 
   -9514    -9487    -9373    -9231    -9112    -9067    -9055    -8982 
   -8900    -8893    -8964    -9086    -9229    -9340    -9432    -9528 
   -9574    -9539    -9471    -9423    -9385    -9320    -9231    -9135 
   -9022    -8961    -9059    -9243    -9387    -9497    -9520    -9383 
   -9132    -8796    -8378    -7996    -7770    -7731    -7838    -7967 
   -8066    -8193    -8322    -8332    -8152    -7831    -7576    -7560 
   -7684    -7805    -7932    -8067    -8183    -8268    -8226    -8029 
   -7859    -7890    -8075    -8240    -8306    -8324    -8340    -8365 
   -8402    -8405    -8349    -8328    -8414    -8595    -8815    -9005 
   -9170    -9319    -9329    -9192    -9108    -9157    -9275    -9474 
   -9701    -9803    -9784    -9778    -9798    -9772    -9664    -9491 
   -9352    -9358    -9450    -9494    -9477    -9408    -9271    -9107 
   -8980    -8970    -9150    -9408    -9570    -9624    -9589    -9455 
   -9277    -9096    -8938    -8881    -8939    -9028    -9061    -8988 
   -8884    -8860    -8884    -8901    -8964    -9070    -9167    -9186 
   -9049    -8800    -8554    -8266    -7915    -7670    -7615    -7632 
   -7624    -7560    -7470    -7458    -7587    -7815    -8104    -8449 
   -8784    -9030    -9166    -9185    -9117    -9042    -8970    -8864 
   -8752    -8719    -8793    -8900    -8943    -8949    -9011    -9113 
   -9201    -9354    -9624    -9969   -10353   -10697   -10926   -11086 
  -11191   -11153   -10986   -10752   -10401    -9938    -9495    -9107 
   -8738    -8432    -8195    -7936    -7650    -7447    -7348    -7298 
   -7271    -7200    -7101    -7152    -7389    -7622    -7828    -8144 
   -8546    -8955    -9379    -9738    -9936    -9990    -9958    -9868 
   -9683    -9324    -8833    -8365    -7996    -7744    -7639    -7681 
   -7847    -8052    -8156    -8104    -7935    -7705    -7495    -7339 
   -7253    -7331    -7630    -8095    -8599    -8935    -8964    -8780 
   -8576    -8476    -8544    -8765    -9081    -9495    -9964   -10336 
  -10543   -10652   -10760   -10901   -11034   -11138   -11260   -11377 
  -11357   -11111   -10681   -10220    -9884    -9648    -9402    -9135 
   -8883    -8684    -8581    -8523    -8487    -8546    -8707    -8883 
   -9023    -9097    -9147    -9247    -9343    -9362    -9370    -9432 
   -9501    -9528    -9510    -9435    -9288    -9076    -8826    -8590 
   -8421    -8360    -8440    -8662    -8903    -8976    -8849    -8640 
   -8451    -8316    -8221    -8159    -8158    -8190    -8220    -8276 
   -8347    -8360    -8333    -8311    -8306    -8364    -8534    -8802 
   -9076    -9250    -9265    -9153    -9009    -8866    -8680    -8417 
   -8082    -7715    -7415    -7285    -7357    -7588    -7929    -8359 
   -8804    -9136    -9294    -9319    -9273    -9180    -9034    -8887 
   -8822    -8815    -8791    -8743    -8669    -8607    -8656    -8802 
   -8958    -9144    -9360    -9521    -9655    -9841   -10041   -10187 
  -10315   -10507   -10751   -10968   -11122   -11246   -11354   -11399 
  -11349   -11226   -11070   -10891   -10687   -10424   -10103    -9790 
   -9489    -9154    -8857    -8727    -8765    -8870    -9018    -9247 
   -9481    -9582    -9580    -9562    -9505    -9406    -9269    -9030 
   -8708    -8424    -8199    -7989    -7786    -7622    -7474    -7296 
   -7141    -7117    -7215    -7376    -7553    -7681    -7747    -7820 
   -7938    -8062    -8135    -8143    -8164    -8257    -8376    -8453 
   -8482    -8473    -8409    -8263    -8097    -8027    -8085    -8236 
   -8459    -8661    -8735    -8719    -8723    -8775    -8899    -9154 
   -9504    -9826   -10054   -10145   -10083    -9953    -9830    -9703 
   -9578    -9475    -9404    -9383    -9342    -9134    -8765    -8376 
   -8059    -7846    -7776    -7882    -8158    -8540    -8931    -9231 
   -9390    -9436    -9421    -9401    -9455    -9622    -9810    -9944 
  -10042   -10037    -9836    -9551    -9342    -9207    -9119    -9101 
   -9159    -9277    -9463    -9682    -9823    -9845    -9821    -9778 
   -9660    -9478    -9278    -9076    -8904    -8766    -8631    -8536 
   -8521    -8554    -8603    -8660    -8757    -8957    -9198    -9348 
   -9327    -9111    -8775    -8490    -8352    -8334    -8448    -8749 
   -9196    -9648   -10011   -10278   -10447   -10473   -10299    -9945 
   -9510    -9092    -8765    -8579    -8502    -8471    -8452    -8432 
   -8392    -8328    -8244    -8181    -8205    -8361    -8618    -8934 
   -9293    -9628    -9841    -9910    -9865    -9715    -9502    -9342 
   -9362    -9567    -9805    -9904    -9795    -9452    -8937    -8398 
   -7921    -7511    -7217    -7087    -7096    -7221    -7434    -7647 
   -7781    -7861    -7920    -7905    -7817    -7788    -7847    -7888 
   -7854    -7769    -7686    -7678    -7734    -7754    -7682    -7516 
   -7300    -7128    -7029    -6967    -6979    -7125    -7358    -7577 
   -7723    -7805    -7846    -7877    -7958    -8105    -8295    -8517 
   -8698    -8743    -8665    -8550    -8425    -8293    -8178    -8101 
   -8070    -8077    -8086    -8116    -8245    -8452    -8635    -8818 
   -9042    -9211    -9294    -9385    -9486    -9566    -9626    -9639 
   -9602    -9566    -9558    -9556    -9509    -9423    -9339    -9192 
   -8942    -8657    -8367    -8100    -7959    -7959    -8010    -8081 
   -8163    -8255    -8379    -8505    -8594    -8681    -8793    -8922 
   -9035    -9016    -8762    -8307    -7742    -7117    -6485    -5937 
   -5521    -5185    -4891    -4649    -4425    -4186    -4008    -3977 
   -4113    -4434    -4909    -5425    -5900    -6291    -6554    -6737 
   -6928    -7134    -7387    -7747    -8183    -8611    -8910    -8922 
   -8688    -8397    -8066    -7662    -7285    -6995    -6791    -6708 
   -6674    -6631    -6650    -6748    -6916    -7237    -7778    -8538 
   -9502   -10629   -11831   -12958   -13869   -14554   -15051   -15384 
  -15585   -15624   -15492   -15273   -15017   -14715   -14400   -14106 
  -13856   -13674   -13541   -13447   -13448   -13597   -13883   -14246 
  -14584   -14800   -14840   -14628   -14088   -13269   -12283   -11219 
  -10152    -9170    -8361    -7773    -7377    -7132    -7048    -7163 
   -7452    -7850    -8333    -8934    -9633   -10355   -11068   -11799 
  -12522   -13155   -13724   -14268   -14659   -14820   -14863   -14829 
  -14652   -14334   -13910   -13463   -13116   -12852   -12610   -12442 
  -12409   -12521   -12799   -13197   -13579   -13818   -13833   -13598 
  -13119   -12422   -11573   -10631    -9674    -8760    -7823    -6818 
   -5830    -4908    -4045    -3303    -2747    -2358    -2123    -2031 
   -2019    -2039    -2070    -2054    -1941    -1771    -1599    -1435 
   -1254    -1055     -838     -585     -303      -13      257      387 
     278       27     -299     -750    -1161    -1447    -1846    -2313 
   -2670    -3134    -3792    -4521    -5390    -6297    -7078    -7813 
   -8438    -8799    -8973    -9101    -9256    -9483    -9788   -10172 
  -10600   -11026   -11449   -11844   -12195   -12540   -12895   -13220 
  -13487   -13705   -13878   -13996   -14060   -14042   -13876   -13544 
  -13113   -12638   -12116   -11589   -11182   -10948   -10866   -10914 
  -11074   -11299   -11603   -12028   -12587   -13251   -13945   -14571 
  -15115   -15608   -16015   -16249   -16321   -16349   -16440   -16553 
  -16606   -16615   -16607   -16480   -16124   -15534   -14744   -13764 
  -12679   -11612   -10631    -9774    -9061    -8492    -8120    -7939 
   -7827    -7722    -7655    -7622    -7584    -7500    -7360    -7221 
   -7118    -7049    -7022    -6974    -6760    -6305    -5626    -4766 
   -3751    -2601    -1352      -82     1120     2227     3218     4009 
    4634     5270     5906     6284     6350     6278     6053     5549 
    4846     4044     3092     1999      832     -481    -1984    -3661 
   -5567    -7578    -9540   -11468   -13281   -14870   -16233   -17267 
  -17967   -18546   -19018   -19248   -19256   -19083   -18736   -18297 
  -17787   -17174   -16551   -16047   -15701   -15456   -15250   -15122 
  -15113   -15164   -15192   -15214   -15309   -15481   -15692   -15915 
  -16108   -16249   -16379   -16498   -16565   -16588   -16609   -16614 
  -16555   -16461   -16362   -16159   -15800   -15326   -14705   -13917 
  -13080   -12275   -11510   -10813   -10149    -9410    -8557    -7600 
   -6556    -5510    -4548    -3667    -2886    -2258    -1738    -1258 
    -842     -487     -141      167      372      411      218     -222 
    -831    -1516    -2141    -2485    -2396    -1861     -959      189 
    1503     2943     4452     5960     7319     8325     8899     9005 
    8606     7846     6859     5659     4318     2795     1020     -805 
   -2527    -4158    -5682    -7129    -8553    -9927   -11240   -12506 
  -13703   -14870   -16052   -17216   -18327   -19356   -20270   -21091 
  -21838   -22486   -22982   -23230   -23186   -22924   -22547   -22133 
  -21725   -21334   -20995   -20748   -20565   -20341   -20009   -19666 
  -19381   -19093   -18812   -18600   -18377   -18013   -17497   -16830 
  -15923   -14801   -13620   -12425   -11260   -10234    -9319    -8419 
   -7506    -6520    -5397    -4120    -2736    -1364     -149      816 
    1458     1741     1741     1528     1146      716      330      -25 
    -375     -760    -1254    -1860    -2481    -2975    -3258    -3393 
   -3423    -3326    -3130    -2920    -2802    -2914    -3314    -3956 
   -4769    -5634    -6428    -7101    -7607    -7952    -8243    -8491 
   -8641    -8700    -8672    -8572    -8472    -8457    -8599    -8896 
   -9302    -9838   -10509   -11263   -12101   -12987   -13799   -14508 
  -15160   -15773   -16359   -16889   -17313   -17637   -17874   -18011 
  -18060   -18060   -18085   -18184   -18315   -18432   -18496   -18445 
  -18277   -18025   -17651   -17127   -16495   -15815   -15138   -14473 
  -13759   -12976   -12189   -11404   -10535    -9532    -8425    -7226 
   -5954    -4699    -3508    -2381    -1390     -572      136      777 
    1385     2010     2592     3065     3450     3713     3781     3677 
    3473     3260     3119     3022     2902     2790     2674     2474 
    2182     1775     1165      344     -646    -1795    -3065    -4410 
   -5764    -7055    -8255    -9370   -10408   -11352   -12187   -13004 
  -13879   -14785   -15669   -16476   -17163   -17743   -18257   -18766 
  -19323   -19919   -20495   -20979   -21293   -21404   -21324   -21096 
  -20727   -20194   -19500   -18675   -17761   -16843   -15962   -15078 
  -14172   -13244   -12320   -11433   -10594    -9837    -9213    -8712 
   -8263    -7843    -7497    -7257    -7098    -6955    -6804    -6686 
   -6674    -6805    -7069    -7387    -7682    -7956    -8214    -8426 
   -8586    -8703    -8772    -8773    -8679    -8486    -8195    -7785 
   -7222    -6504    -5710    -4990    -4445    -4072    -3846    -3726 
   -3649    -3586    -3554    -3547    -3559    -3634    -3823    -4140 
   -4548    -4999    -5524    -6154    -6821    -7466    -8118    -8803 
   -9512   -10181   -10721   -11099   -11265   -11144   -10763   -10197 
   -9498    -8734    -7987    -7329    -6840    -6563    -6473    -6565 
   -6835    -7207    -7605    -8023    -8448    -8849    -9204    -9498 
   -9732    -9931   -10077   -10110    -9990    -9759    -9509    -9300 
   -9171    -9161    -9259    -9443    -9671    -9875   -10019   -10125 
  -10215   -10282   -10349   -10416   -10430   -10397   -10386   -10380 
  -10318   -10235   -10218   -10292   -10471   -10746   -11018   -11196 
  -11221   -11059   -10768   -10466   -10227   -10085   -10027    -9994 
   -9946    -9907    -9900    -9910    -9899    -9868    -9848    -9852 
   -9887    -9958   -10044   -10103   -10089    -9953    -9720    -9486 
   -9319    -9228    -9235    -9351    -9541    -9786   -10076   -10334 
  -10455   -10405   -10239   -10011    -9732    -9432    -9132    -8780 
   -8365    -7917    -7470    -7118    -6920    -6810    -6759    -6790 
   -6894    -7053    -7257    -7442    -7531    -7507    -7400    -7283 
   -7242    -7338    -7605    -8062    -8676    -9375   -10069   -10679 
  -11169   -11516   -11713   -11800   -11786   -11651   -11427   -11107 
  -10629   -10011    -9335    -8644    -7948    -7296    -6712    -6164 
   -5657    -5209    -4787    -4363    -3927    -3483    -3107    -2889 
   -2874    -3042    -3289    -3545    -3808    -4058    -4264    -4449 
   -4657    -4922    -5277    -5741    -6251    -6698    -7038    -7272 
   -7392    -7419    -7400    -7388    -7425    -7512    -7604    -7630 
   -7550    -7365    -7118    -6844    -6543    -6214    -5850    -5459 
   -5107    -4862    -4747    -4779    -4969    -5320    -5853    -6574 
   -7426    -8310    -9105    -9783   -10369   -10825   -11133   -11352 
  -11507   -11583   -11604   -11620   -11637   -11654   -11677   -11707 
  -11762   -11848   -11944   -12070   -12241   -12434   -12637   -12854 
  -13099   -13350   -13532   -13608   -13648   -13726   -13859   -14062 
  -14370   -14766   -15179   -15557   -15858   -16027   -16032   -15877 
  -15603   -15314   -15105   -14971   -14858   -14747   -14604   -14339 
  -13936   -13459   -12900   -12232   -11522   -10849   -10227    -9694 
   -9366    -9310    -9475    -9759   -10045   -10224   -10206    -9958 
   -9547    -9078    -8618    -8221    -7940    -7784    -7736    -7743 
   -7686    -7500    -7213    -6886    -6623    -6562    -6752    -7137 
   -7649    -8218    -8773    -9244    -9566    -9722    -9751    -9674 
   -9514    -9293    -9028    -8769    -8514    -8149    -7607    -6949 
   -6253    -5582    -5054    -4772    -4745    -4935    -5290    -5734 
   -6212    -6694    -7152    -7605    -8120    -8743    -9501   -10408 
  -11445   -12534   -13556   -14359   -14816   -14913   -14758   -14476 
  -14154   -13840   -13525   -13153   -12667   -12051   -11307   -10455 
   -9598    -8838    -8202    -7786    -7674    -7785    -8036    -8390 
   -8738    -8981    -9072    -8961    -8696    -8351    -7908    -7407 
   -6936    -6471    -5979    -5501    -5038    -4600    -4271    -4091 
   -4050    -4145    -4328    -4525    -4714    -4828    -4760    -4473 
   -4017    -3468    -2886    -2281    -1692    -1206     -862     -695 
    -796    -1194    -1844    -2718    -3811    -5055    -6361    -7639 
   -8815    -9815   -10597   -11107   -11317   -11291   -11152   -10971 
  -10777   -10584   -10401   -10255   -10177   -10154   -10154   -10184 
