Origin Time       2025/01/13 21:19:00
Lat.              31.8
Long.             131.6
Depth. (km)       30
Mag.              6.9
Station Code      OITH02
Station Lat.      33.4581
Station Long.     131.4429
Station Height(m) 165
Record Time       2025/01/13 21:20:02
Sampling Freq(Hz) 100Hz
Duration Time(s)  179
Dir.              6
Scale Factor      7845(gal)/8223790
Max. Acc. (gal)   1.854
Last Correction   2025/01/13 21:20:02
Memo.             
[...]
    1948     2111     2220     2301     2354     2355     2301     2199 
    2066     1949     1875     1831     1811     1810     1810     1803 
    1799     1782     1729     1632     1486     1331     1250     1302 
    1470     1665     1795     1827     1819     1844     1930     2033 
    2069     2022     1950     1903     1871     1821     1763     1745 
    1777     1788     1732     1622     1493     1360     1252     1210 
    1255     1382     1578     1780     1904     1921     1858     1746 
    1615     1506     1466     1518     1624     1734     1842     1942 
    1996     1989     1960     1938     1908     1850     1794     1777 
    1782     1750     1647     1467     1289     1231     1351     1613 
    1922     2184     2362     2454     2447     2342     2174     2006 
    1899     1887     1953     2054     2139     2161     2114     2011 
    1852     1638     1416     1220     1057      927      858      882 
    1026     1266     1536     1746     1846     1834     1740     1613 
    1471     1304     1142     1057     1085     1177     1246     1278 
    1374     1586     1831     2002     2053     2000     1887     1745 
    1597     1464     1383     1397     1503     1629     1717     1764 
    1792     1814     1821     1779     1691     1602     1555     1544 
    1528     1491     1487     1553     1656     1746     1782     1738 
    1648     1551     1458     1381     1344     1364     1439     1552 
    1633     1613     1502     1341     1151      974      868      850 
     911     1036     1189     1332     1441     1489     1452     1356 
    1248     1156     1100     1090     1142     1282     1517     1780 
    1983     2080     2087     2062     2065     2096     2112     2097 
    2062     1996     1880     1707     1547     1487     1541     1663 
    1803     1935     2037     2084     2073     2008     1908     1821 
    1775     1749     1719     1717     1804     1961     2091     2134 
    2070     1891     1637     1409     1301     1347     1499     1653 
    1738     1756     1741     1740     1773     1822     1848     1838 
    1780     1674     1555     1466     1433     1445     1449     1429 
    1435     1518     1680     1876     2045     2158     2203     2172 
    2060     1884     1682     1489     1316     1179     1117     1131 
    1178     1200     1152     1059     1001     1009     1038     1048 
    1058     1098     1181     1278     1366     1443     1526     1640 
    1782     1907     1981     1998     1956     1881     1825     1819 
    1842     1840     1771     1644     1498     1372     1275     1212 
    1186     1219     1341     1556     1786     1919     1921     1827 
    1688     1559     1503     1533     1628     1775     1973     2236 
    2533     2774     2890     2894     2825     2713     2574     2424 
    2284     2181     2158     2209     2293     2386     2489     2560 
    2513     2328     2088     1879     1740     1684     1696     1746 
    1815     1875     1890     1863     1827     1810     1826     1881 
    1965     2069     2174     2259     2316     2340     2317     2219 
    2022     1759     1497     1304     1204     1166     1162     1206 
    1281     1340     1364     1362     1345     1340     1350     1356 
    1325     1251     1173     1120     1071     1017      978      974 
    1017     1117     1252     1358     1383     1321     1183      999 
     823      707      666      704      822     1005     1233     1468 
    1649     1699     1598     1429     1312     1309     1435     1622 
    1769     1836     1868     1938     2061     2174     2214     2165 
    2079     2018     2004     2002     1987     1979     1991     1989 
    1944     1869     1814     1819     1884     1949     1962     1935 
    1929     1988     2085     2150     2135     2031     1885     1806 
    1858     2025     2226     2369     2420     2419     2380     2300 
    2178     2018     1858     1763     1763     1821     1871     1887 
    1887     1876     1856     1807     1717     1607     1521     1480 
    1480     1505     1552     1633     1719     1761     1744     1702 
    1680     1728     1865     2060     2250     2377     2385     2243 
    1969     1634     1339     1165     1120     1154     1204     1263 
    1366     1487     1566     1579     1555     1520     1498     1506 
    1537     1584     1645     1729     1849     1958     1988     1925 
    1795     1645     1570     1606     1649     1588     1452     1355 
    1354     1425     1499     1516     1486     1471     1520     1661 
    1877     2074     2172     2166     2108     2043     1983     1898 
    1782     1683     1653     1709     1818     1923     1983     2002 
    1988     1937     1848     1740     1641     1579     1561     1579 
    1597     1582     1532     1471     1404     1314     1220     1177 
    1215     1306     1405     1480     1528     1543     1530     1498 
    1435     1340     1250     1194     1181     1215     1308     1444 
    1606     1779     1926     1981     1934     1842     1750     1652 
    1536     1424     1355     1327     1290     1243     1239     1306 
    1421     1529     1587     1607     1651     1745     1860     1941 
    1958     1926     1880     1853     1837     1776     1634     1432 
    1258     1178     1167     1158     1116     1058     1027     1036 
    1032      967      878      823      832      905     1004     1080 
    1116     1131     1175     1305     1525     1767     1949     2026 
    2015     1987     2006     2081     2181     2274     2319     2299 
    2262     2282     2339     2366     2305     2126     1857     1611 
    1505     1578     1764     1956     2069     2064     1976     1903 
    1903     1956     2010     2039     2061     2096     2174     2319 
    2511     2664     2725     2727     2722     2728     2714     2624 
    2440     2235     2110     2116     2231     2358     2394     2331 
    2253     2249     2362     2546     2691     2710     2596     2415 
    2253     2123     1971     1750     1507     1332     1286     1363 
    1505     1630     1680     1649     1549     1402     1229     1035 
     815      592      419      351      400      522      645      761 
     913     1096     1237     1290     1266     1201     1123     1040 
     974      951      997     1098     1223     1333     1401     1424 
    1436     1462     1485     1501     1521     1536     1549     1597 
    1696     1853     2069     2327     2604     2860     3029     3067 
    3015     2955     2928     2903     2821     2660     2473     2305 
    2177     2083     2020     2010     2058     2131     2193     2224 
    2207     2127     1983     1784     1575     1420     1356     1375 
    1440     1522     1583     1579     1497     1381     1297     1291 
    1345     1406     1456     1498     1524     1532     1543     1556 
    1551     1509     1435     1374     1382     1463     1583     1707 
    1794     1836     1876     1919     1919     1833     1648     1409 
    1209     1123     1138     1231     1390     1560     1698     1806 
    1873     1875     1818     1729     1622     1505     1385     1269 
    1162     1057      976      973     1046     1143     1250     1372 
    1506     1669     1868     2056     2173     2219     2212     2151 
    2025     1849     1687     1586     1555     1582     1634     1691 
    1764     1853     1944     2010     2037     2012     1937     1822 
    1690     1545     1393     1248     1119     1000      891      810 
     792      880     1085     1363     1624     1784     1840     1834 
    1798     1730     1645     1583     1583     1678     1864     2084 
    2253     2315     2268     2141     1976     1821     1710     1652 
    1676     1821     2033     2215     2326     2340     2254     2106 
    1923     1715     1528     1449     1530     1728     1934     2053 
    2060     2002     1919     1858     1858     1904     1939     1907 
    1764     1517     1227      977      832      826      946     1143 
    1337     1471     1540     1564     1528     1381     1139      886 
     707      631      637      683      770      912     1070     1183 
    1205     1134     1016      935      940      990     1009      997 
     999     1038     1096     1105     1035      918      811      762 
     780      812      797      723      614      476      328      207 
     159      178      218      238      252      302      406      534 
     627      643      606      575      606      750     1038     1437 
    1838     2122     2226     2182     2106     2119     2274     2517 
    2733     2849     2878     2887     2921     2955     2920     2781 
    2593     2440     2331     2222     2107     2008     1941     1884 
    1811     1729     1687     1738     1892     2074     2204     2280 
    2339     2380     2385     2371     2353     2308     2236     2145 
    2008     1823     1629     1493     1474     1578     1741     1912 
    2066     2178     2216     2158     2029     1887     1780     1709 
    1682     1721     1807     1877     1895     1867     1809     1711 
    1543     1308     1092      990     1048     1266     1586     1890 
    2084     2142     2103     2061     2074     2139     2208     2245 
    2254     2277     2344     2444     2544     2616     2617     2516 
    2324     2106     1934     1844     1817     1799     1757     1696 
    1659     1663     1699     1755     1827     1892     1910     1837 
    1653     1401     1186     1092     1144     1344     1671     2053 
    2370     2533     2548     2471     2359     2270     2246     2278 
    2300     2228     2046     1831     1691     1675     1757     1896 
    2054     2205     2330     2403     2401     2346     2286     2247 
    2214     2187     2199     2281     2430     2586     2698     2778 
    2862     2921     2889     2729     2484     2227     2002     1819 
    1672     1559     1474     1414     1375     1324     1243     1159 
    1097     1036      954      838      723      652      598      498 
     338      156       21        2      121      363      673      954 
    1151     1270     1314     1269     1156     1051     1023     1088 
    1198     1273     1270     1225     1200     1215     1237     1212 
    1154     1146     1223     1350     1478     1574     1588     1475 
    1246      990      816      788      889     1059     1271     1522 
    1767     1926     1948     1845     1682     1547     1512     1591 
    1749     1935     2118     2276     2382     2439     2465     2484 
    2519     2582     2654     2701     2718     2758     2857     2991 
    3090     3102     3034     2921     2793     2714     2756     2911 
    3084     3157     3075     2893     2735     2698     2748     2741 
    2601     2390     2218     2141     2155     2231     2313     2335 
    2247     2026     1688     1291      913      610      410      315 
     313      388      502      592      633      638      639      645 
     622      546      427      315      270      299      371      465 
     568      657      737      808      868      928     1027     1166 
    1320     1445     1495     1444     1329     1202     1089      997 
     911      839      849      977     1186     1428     1638     1767 
    1840     1912     2022     2182     2370     2529     2632     2694 
    2743     2791     2840     2859     2816     2732     2660     2600 
    2516     2388     2203     1999     1845     1764     1726     1710 
    1696     1660     1599     1540     1495     1478     1517     1598 
    1671     1723     1784     1863     1923     1941     1934     1954 
    2034     2164     2286     2328     2270     2169     2085     2041 
    2019     1981     1939     1962     2101     2358     2682     2988 
    3221     3381     3445     3373     3188     2970     2778     2631 
    2504     2367     2218     2066     1917     1777     1694     1719 
    1857     2025     2093     1976     1699     1364     1066      830 
     650      554      580      710      854      931      926      864 
     766      679      637      623      575      461      326      236 
     221      286      417      585      731      805      810      807 
     889     1104     1405     1692     1896     2018     2107     2169 
    2170     2119     2081     2114     2220     2367     2524     2667 
    2790     2874     2882     2812     2721     2682     2728     2852 
    2994     3068     3022     2849     2587     2317     2111     1993 
    1977     2069     2241     2424     2552     2589     2529     2397 
    2226     2057     1930     1884     1919     1969     1962     1867 
    1717     1578     1485     1398     1259     1057      819      596 
     465      469      579      730      869      958      988      930 
     769      569      440      449      579      747      873      928 
     950      993     1093     1244     1406     1545     1651     1701 
    1687     1647     1634     1686     1796     1930     2022     2030 
    1971     1891     1856     1921     2079     2253     2347     2297 
    2110     1885     1745     1725     1782     1865     1962     2084 
    2216     2338     2452     2562     2631     2604     2474     2288 
    2101     1960     1884     1876     1884     1863     1814     1768 
    1775     1865     2007     2164     2300     2392     2434     2447 
    2443     2424     2389     2335     2241     2080     1887     1763 
    1788     1981     2326     2766     3203     3518     3627     3537 
    3306     3014     2710     2401     2118     1907     1784     1736 
    1730     1715     1680     1659     1647     1601     1478     1271 
    1039      850      733      699      756      884     1023     1116 
    1165     1224     1324     1428     1470     1431     1337     1244 
    1204     1228     1294     1378     1490     1642     1804     1914 
    1953     1966     1977     1969     1906     1788     1682     1661 
    1719     1800     1867     1887     1848     1761     1653     1536 
    1428     1359     1358     1464     1686     1937     2118     2212 
    2262     2308     2354     2355     2278     2161     2076     2061 
    2083     2070     1984     1848     1706     1582     1491     1432 
    1393     1378     1389     1394     1368     1314     1235     1143 
    1053      957      841      723      635      588      580      573 
     514      400      288      225      234      302      387      457 
     500      511      502      511      567      681      861     1090 
    1298     1393     1344     1220     1132     1156     1306     1544 
    1823     2115     2400     2648     2836     2953     2986     2901 
    2691     2392     2058     1741     1468     1258     1148     1163 
    1294     1489     1647     1690     1621     1512     1432     1405 
    1416     1462     1541     1637     1721     1760     1714     1579 
    1406     1266     1216     1270     1404     1580     1752     1899 
    2011     2054     1992     1841     1644     1445     1300     1251 
    1281     1354     1470     1633     1809     1965     2066     2062 
    1941     1741     1518     1329     1206     1148     1151     1205 
    1269     1312     1359     1448     1576     1719     1852     1946 
    1996     2003     1962     1895     1827     1790     1817     1927 
    2087     2230     2316     2324     2239     2081     1876     1652 
    1471     1385     1381     1401     1439     1526     1663     1830 
    2019     2195     2297     2288     2195     2084     1998     1953 
    1950     1962     1960     1952     1956     1966     1957     1912 
    1826     1702     1571     1486     1472     1502     1541     1582 
    1606     1594     1541     1452     1327     1200     1121     1098 
    1100     1111     1117     1124     1148     1202     1283     1345 
    1337     1254     1112      957      857      846      908     1008 
    1119     1229     1339     1439     1510     1534     1499     1399 
    1232     1003      751      567      531      669      940     1285 
    1648     1965     2178     2249     2172     1984     1728     1452 
    1244     1175     1231     1348     1467     1551     1595     1614 
    1615     1570     1448     1259     1054      911      891      985 
    1150     1352     1575     1826     2114     2417     2681     2829 
    2830     2725     2592     2493     2450     2466     2532     2623 
    2717     2826     2961     3098     3192     3202     3134     3026 
    2911     2809     2718     2641     2589     2571     2569     2529 
    2401     2189     1966     1780     1634     1544     1529     1586 
    1671     1734     1749     1729     1688     1628     1521     1377 
    1250     1186     1169     1156     1139     1140     1192     1300 
    1444     1590     1711     1814     1900     1960     1954     1864 
    1737     1634     1586     1605     1692     1792     1850     1865 
    1844     1777     1652     1472     1270     1082      947      886 
     922     1050     1236     1424     1591     1764     1968     2193 
    2397     2536     2601     2600     2539     2444     2371     2344 
    2361     2400     2421     2362     2185     1934     1680     1468 
    1339     1318     1391     1487     1536     1534     1510     1470 
    1394     1296     1212     1182     1243     1405     1634     1875 
    2079     2203     2220     2146     2010     1836     1648     1486 
    1374     1318     1321     1344     1340     1289     1202     1125 
    1105     1170     1317     1489     1595     1579     1443     1248 
    1071      965      951     1017     1139     1291     1435     1510 
    1475     1335     1131      904      704      576      533      562 
     654      787      926     1039     1112     1150     1198     1301 
    1471     1707     2010     2319     2538     2587     2486     2313 
    2149     2025     1922     1819     1729     1657     1598     1544 
    1507     1495     1517     1560     1602     1642     1701     1773 
    1826     1834     1807     1780     1767     1775     1836     1989 
    2231     2492     2686     2768     2751     2668     2574     2478 
    2357     2199     2019     1823     1617     1452     1391     1422 
    1501     1605     1699     1738     1691     1541     1305     1044 
     837      724      687      660      611      577      608      718 
     907     1161     1421     1597     1625     1506     1287     1057 
     896      818      822      942     1196     1560     1985     2398 
    2721     2882     2860     2736     2610     2525     2494     2492 
    2474     2448     2448     2505     2644     2833     3019     3157 
    3188     3094     2914     2694     2467     2281     2170     2126 
    2114     2093     2070     2087     2158     2261     2347     2373 
    2339     2276     2173     2008     1794     1555     1314     1111 
     980      916      880      826      731      588      405      210 
      45      -59      -98      -81        1      168      398      610 
     722      707      621      569      618      727      832      919 
     992     1066     1161     1281     1414     1532     1591     1593 
    1584     1632     1756     1921     2070     2185     2263     2324 
    2385     2436     2454     2439     2424     2466     2592     2768 
