Origin Time       2025/01/13 21:19:00
Lat.              31.8
Long.             131.6
Depth. (km)       30
Mag.              6.9
Station Code      OITH05
Station Lat.      33.1525
Station Long.     131.5420
Station Height(m) 60
Record Time       2025/01/13 21:19:56
Sampling Freq(Hz) 100Hz
Duration Time(s)  154
Dir.              2
Scale Factor      2942(gal)/8224139
Max. Acc. (gal)   4.885
Last Correction   2025/01/13 21:19:56
Memo.             
[...]
  -64384   -64181   -64031   -64002   -64092   -64233   -64312   -64238 
  -64014   -63738   -63521   -63448   -63543   -63732   -63915   -64041 
  -64096   -64092   -64044   -63957   -63884   -63911   -64058   -64238 
  -64341   -64320   -64220   -64133   -64085   -64044   -63987   -63918 
  -63837   -63772   -63761   -63817   -63938   -64102   -64254   -64374 
  -64451   -64461   -64399   -64311   -64235   -64188   -64165   -64147 
  -64133   -64161   -64261   -64404   -64536   -64613   -64611   -64548 
  -64469   -64381   -64266   -64107   -63909   -63710   -63553   -63456 
  -63383   -63310   -63269   -63294   -63397   -63563   -63726   -63833 
  -63895   -63911   -63875   -63840   -63869   -63956   -64064   -64156 
  -64207   -64230   -64250   -64245   -64197   -64134   -64060   -63948 
  -63821   -63765   -63864   -64102   -64342   -64444   -64400   -64320 
  -64278   -64260   -64227   -64196   -64245   -64426   -64666   -64854 
  -64975   -65083   -65191   -65275   -65313   -65319   -65327   -65335 
  -65318   -65248   -65113   -64932   -64743   -64579   -64453   -64341 
  -64214   -64065   -63902   -63717   -63520   -63360   -63289   -63356 
  -63560   -63802   -63979   -64050   -64038   -63985   -63903   -63794 
  -63709   -63698   -63751   -63832   -63911   -63963   -63994   -63998 
  -63927   -63771   -63585   -63417   -63344   -63409   -63529   -63613 
  -63686   -63836   -64107   -64430   -64674   -64779   -64800   -64810 
  -64791   -64681   -64497   -64323   -64184   -64029   -63829   -63660 
  -63634   -63769   -63954   -64056   -64048   -64041   -64099   -64127 
  -64046   -63941   -63994   -64300   -64748   -65103   -65232   -65175 
  -65036   -64874   -64708   -64584   -64589   -64737   -64903   -64926 
  -64789   -64625   -64527   -64388   -64050   -63582   -63247   -63161 
  -63171   -63108   -63005   -63059   -63364   -63717   -63845   -63776 
  -63765   -63921   -64093   -64112   -64022   -64031   -64214   -64399 
  -64422   -64345   -64353   -64490   -64573   -64439   -64193   -64052 
  -64075   -64122   -64045   -63900   -63879   -64026   -64192   -64216 
  -64104   -63981   -63956   -64038   -64152   -64228   -64268   -64296 
  -64327   -64372   -64447   -64565   -64694   -64774   -64767   -64696 
  -64601   -64500   -64380   -64239   -64112   -64052   -64062   -64066 
  -63981   -63845   -63837   -64068   -64408   -64604   -64531   -64328 
  -64222   -64238   -64249   -64177   -64080   -64076   -64170   -64196 
  -64023   -63748   -63510   -63316   -63134   -63013   -63082   -63382 
  -63791   -64147   -64401   -64574   -64669   -64655   -64552   -64489 
  -64582   -64795   -64989   -65080   -65103   -65068   -64935   -64717 
  -64517   -64419   -64382   -64247   -63891   -63367   -62865   -62552 
  -62483   -62638   -62951   -63329   -63690   -64007   -64255   -64358 
  -64243   -63968   -63744   -63801   -64187   -64721   -65183   -65519 
  -65805   -66051   -66141   -65985   -65645   -65268   -64967   -64758 
  -64585   -64395   -64170   -63902   -63620   -63416   -63331   -63281 
  -63148   -62931   -62748   -62726   -62856   -63020   -63127   -63181 
  -63246   -63362   -63497   -63606   -63705   -63837   -63975   -64030 
  -63964   -63850   -63790   -63794   -63801   -63784   -63805   -63950 
  -64233   -64520   -64648   -64621   -64608   -64710   -64845   -64855 
  -64708   -64555   -64558   -64681   -64754   -64700   -64616   -64654 
  -64827   -64991   -65038   -64978   -64827   -64569   -64183   -63714 
  -63347   -63244   -63355   -63477   -63477   -63428   -63517   -63776 
  -64046   -64224   -64372   -64574   -64798   -64905   -64822   -64651 
  -64577   -64669   -64835   -64963   -65028   -65020   -64870   -64546 
  -64160   -63871   -63764   -63825   -63956   -64052   -64066   -64010 
  -63919   -63823   -63709   -63558   -63424   -63428   -63617   -63886 
  -64049   -64006   -63841   -63725   -63734   -63815   -63906   -64002 
  -64103   -64157   -64114   -64006   -63904   -63836   -63779   -63745 
  -63840   -64147   -64562   -64837   -64825   -64558   -64165   -63783 
  -63552   -63574   -63815   -64115   -64346   -64509   -64621   -64615 
  -64401   -64022   -63660   -63489   -63524   -63653   -63810   -64012 
  -64255   -64451   -64507   -64408   -64269   -64210   -64233   -64295 
  -64405   -64571   -64764   -64918   -64991   -65052   -65151   -65202 
  -65125   -64940   -64731   -64578   -64451   -64293   -64168   -64149 
  -64158   -64042   -63764   -63485   -63408   -63568   -63840   -64075 
  -64241   -64400   -64571   -64698   -64739   -64714   -64643   -64513 
  -64319   -64100   -63968   -64012   -64196   -64411   -64578   -64671 
  -64717   -64735   -64714   -64663   -64573   -64451   -64350   -64301 
  -64235   -64025   -63622   -63180   -62939   -62980   -63120   -63170 
  -63158   -63238   -63444   -63633   -63702   -63760   -63958   -64228 
  -64326   -64169   -63977   -63995   -64188   -64280   -64164   -64054 
  -64111   -64214   -64197   -64112   -64195   -64519   -64818   -64804 
  -64543   -64339   -64314   -64254   -63950   -63537   -63315   -63371 
  -63524   -63549   -63483   -63575   -63884   -64176   -64297   -64373 
  -64558   -64805   -64926   -64800   -64513   -64301   -64324   -64534 
  -64801   -65087   -65368   -65560   -65589   -65434   -65125   -64736 
  -64351   -64066   -63956   -63980   -64008   -63964   -63886   -63811 
  -63697   -63470   -63144   -62869   -62812   -62982   -63267   -63547 
  -63752   -63904   -64058   -64227   -64403   -64546   -64598   -64586 
  -64625   -64767   -64890   -64828   -64577   -64320   -64231   -64282 
  -64336   -64332   -64280   -64146   -63883   -63537   -63266   -63166 
  -63144   -63059   -62938   -62946   -63147   -63420   -63657   -63915 
  -64308   -64800   -65190   -65311   -65229   -65140   -65121   -65075 
  -64917   -64700   -64562   -64570   -64640   -64636   -64500   -64264 
  -64019   -63902   -63972   -64131   -64239   -64241   -64188   -64150 
  -64100   -63992   -63850   -63767   -63801   -63886   -63952   -64042 
  -64233   -64486   -64674   -64685   -64588   -64574   -64721   -64922 
  -64997   -64848   -64602   -64481   -64498   -64469   -64285   -64064 
  -63991   -64104   -64282   -64415   -64519   -64621   -64619   -64408 
  -64057   -63772   -63722   -63875   -64058   -64184   -64253   -64251 
  -64168   -64017   -63821   -63598   -63383   -63238   -63209   -63306 
  -63477   -63626   -63705   -63741   -63760   -63707   -63545   -63425 
  -63583   -64042   -64589   -65003   -65225   -65313   -65322   -65261 
  -65163   -65102   -65088   -64978   -64633   -64129   -63713   -63583 
  -63680   -63803   -63864   -63903   -63925   -63869   -63701   -63502 
  -63421   -63516   -63693   -63822   -63869   -63871   -63865   -63887 
  -63980   -64161   -64361   -64438   -64334   -64173   -64114   -64204 
  -64381   -64530   -64594   -64617   -64631   -64601   -64485   -64300 
  -64111   -63987   -63998   -64158   -64392   -64605   -64744   -64785 
  -64763   -64697   -64540   -64309   -64122   -64077   -64195   -64413 
  -64633   -64770   -64774   -64638   -64363   -63987   -63656   -63540 
  -63655   -63883   -64071   -64131   -64139   -64150   -64083   -63886 
  -63626   -63441   -63462   -63647   -63795   -63795   -63711   -63713 
  -63925   -64273   -64520   -64461   -64152   -63892   -63886   -64029 
  -64054   -63792   -63402   -63221   -63348   -63575   -63703   -63706 
  -63644   -63560   -63491   -63522   -63755   -64152   -64523   -64704 
  -64662   -64489   -64322   -64251   -64284   -64312   -64216   -64030 
  -63875   -63848   -63948   -64045   -63992   -63825   -63684   -63618 
  -63575   -63562   -63656   -63864   -64068   -64139   -64050   -63948 
  -64014   -64262   -64565   -64813   -64963   -64991   -64881   -64643 
  -64388   -64270   -64332   -64415   -64314   -64057   -63891   -63969 
  -64208   -64404   -64413   -64258   -64045   -63841   -63667   -63551 
  -63517   -63547   -63614   -63756   -64014   -64305   -64473   -64415 
  -64216   -64099   -64138   -64112   -63806   -63350   -63063   -63119 
  -63402   -63653   -63729   -63715   -63694   -63618   -63462   -63302 
  -63292   -63513   -63867   -64216   -64505   -64705   -64756   -64640 
  -64455   -64362   -64397   -64501   -64654   -64829   -64945   -64960 
  -64886   -64754   -64644   -64648   -64747   -64837   -64813   -64606 
  -64277   -63977   -63836   -63898   -64146   -64490   -64754   -64794 
  -64623   -64380   -64207   -64147   -64127   -64076   -64054   -64188 
  -64446   -64629   -64606   -64423   -64228   -64139   -64129   -64093 
  -64033   -64021   -64091   -64210   -64323   -64428   -64586   -64809 
  -65017   -65094   -64962   -64686   -64424   -64295   -64293   -64303 
  -64249   -64185   -64179   -64216   -64254   -64295   -64345   -64342 
  -64170   -63807   -63409   -63196   -63227   -63400   -63630   -63927 
  -64261   -64512   -64588   -64523   -64424   -64311   -64111   -63830 
  -63590   -63487   -63497   -63545   -63624   -63769   -63960   -64075 
  -64037   -63936   -63941   -64116   -64374   -64629   -64852   -64945 
  -64782   -64382   -63979   -63869   -64106   -64412   -64585   -64716 
  -64935   -65130   -65064   -64687   -64247   -63971   -63802   -63543 
  -63181   -62973   -63115   -63455   -63641   -63509   -63251   -63190 
  -63396   -63680   -63875   -63979   -64072   -64130   -64021   -63721 
  -63406   -63300   -63460   -63761   -64023   -64185   -64296   -64374 
  -64381   -64319   -64242   -64177   -64116   -64056   -63964   -63837 
  -63715   -63589   -63397   -63177   -63020   -62976   -63081   -63315 
  -63553   -63749   -63903   -63968   -63925   -63810   -63657   -63544 
  -63547   -63656   -63788   -63879   -63980   -64154   -64363   -64498 
  -64427   -64107   -63703   -63424   -63300   -63240   -63211   -63202 
  -63216   -63298   -63475   -63713   -63953   -64112   -64112   -63965 
  -63764   -63612   -63543   -63525   -63522   -63508   -63448   -63356 
  -63290   -63290   -63340   -63350   -63262   -63150   -63140   -63205 
  -63212   -63165   -63216   -63412   -63593   -63580   -63381   -63220 
  -63262   -63379   -63398   -63351   -63358   -63459   -63574   -63612 
  -63606   -63666   -63734   -63641   -63400   -63243   -63337   -63609 
  -63829   -63856   -63736   -63578   -63404   -63212   -63120   -63236 
  -63521   -63850   -64137   -64374   -64561   -64667   -64741   -64901 
  -65215   -65612   -65901   -65963   -65854   -65684   -65541   -65477 
  -65499   -65557   -65565   -65529   -65576   -65797   -66132   -66437 
  -66603   -66658   -66718   -66796   -66812   -66753   -66679   -66663 
  -66746   -66880   -66992   -67097   -67186   -67213   -67190   -67198 
  -67321   -67581   -67878   -68094   -68243   -68393   -68534   -68589 
  -68500   -68308   -68148   -68143   -68346   -68715   -69165   -69622 
  -70023   -70320   -70464   -70399   -70129   -69743   -69398   -69244 
  -69277   -69367   -69471   -69684   -70042   -70407   -70563   -70432 
  -70150   -69898   -69697   -69414   -68994   -68559   -68256   -68083 
  -67849   -67383   -66745   -66067   -65362   -64665   -64089   -63686 
  -63400   -63100   -62649   -62081   -61558   -61111   -60644   -60154 
  -59763   -59575   -59547   -59536   -59451   -59317   -59227   -59196 
  -59161   -59103   -59069   -59039   -58876   -58486   -57951   -57393 
  -56875   -56477   -56317   -56430   -56698   -56932   -56976   -56816 
  -56583   -56373   -56088   -55655   -55217   -54981   -55003   -55173 
  -55309   -55329   -55339   -55482   -55748   -55972   -56015   -55865 
  -55594   -55290   -55043   -54916   -54992   -55335   -55885   -56471 
  -56949   -57279   -57550   -57889   -58274   -58579   -58761   -58900 
  -59159   -59679   -60436   -61234   -61886   -62379   -62827   -63363 
  -64030   -64744   -65449   -66123   -66665   -66962   -67036   -67058 
  -67209   -67536   -67907   -68152   -68207   -68126   -67971   -67775 
  -67601   -67517   -67501   -67436   -67242   -66969   -66726   -66482 
  -66058   -65399   -64689   -64165   -63952   -63995   -64149   -64390 
  -64800   -65341   -65834   -66104   -66162   -66197   -66370   -66671 
  -66991   -67297   -67728   -68408   -69217   -69893   -70308   -70528 
  -70700   -70900   -71035   -70993   -70857   -70803   -70856   -70865 
  -70734   -70540   -70440   -70468   -70529   -70599   -70748   -71030 
  -71417   -71790   -72060   -72245   -72345   -72327   -72181   -71917 
  -71581   -71239   -70906   -70584   -70348   -70295   -70441   -70699 
  -70945   -71081   -71023   -70692   -70127   -69503   -69026   -68782 
  -68682   -68573   -68399   -68214   -68061   -67938   -67814   -67643 
  -67360   -66911   -66279   -65545   -64847   -64250   -63715   -63219 
  -62831   -62617   -62527   -62446   -62289   -62023   -61641   -61130 
  -60509   -59868   -59331   -58935   -58591   -58202   -57780   -57404 
  -57059   -56573   -55849   -55040   -54413   -54153   -54280   -54684 
  -55264   -55962   -56677   -57294   -57796   -58266   -58752   -59162 
  -59390   -59516   -59715   -60012   -60272   -60388   -60347   -60218 
  -60046   -59755   -59282   -58754   -58403   -58306   -58283   -58079 
  -57646   -57198   -56940   -56802   -56532   -56007   -55374   -54882 
  -54614   -54446   -54244   -53986   -53759   -53608   -53455   -53252 
  -53110   -53195   -53578   -54221   -54974   -55655   -56185   -56651 
  -57229   -58094   -59274   -60642   -62089   -63578   -65071   -66532 
  -67932   -69210   -70264   -71031   -71593   -72164   -72990   -74174 
  -75508   -76654   -77422   -77788   -77818   -77580   -77129   -76527 
  -75825   -75041   -74162   -73215   -72276   -71340   -70285   -69018 
  -67616   -66305   -65269   -64447   -63666   -62881   -62189   -61692 
  -61356   -61026   -60670   -60486   -60700   -61250   -61832   -62248 
  -62573   -63028   -63670   -64241   -64444   -64330   -64224   -64353 
  -64598   -64660   -64405   -63988   -63602   -63250   -62856   -62459 
  -62149   -61948   -61819   -61722   -61689   -61811   -62100   -62405 
  -62521   -62424   -62303   -62262   -62199   -62036   -61808   -61639 
  -61689   -62004   -62461   -62914   -63323   -63732   -64192   -64687 
  -65133   -65492   -65857   -66341   -66982   -67791   -68759   -69843 
  -71011   -72261   -73575   -74849   -75906   -76640   -77082   -77299 
  -77341   -77228   -76950   -76473   -75780   -74916   -73962   -72974 
  -71967   -70914   -69736   -68337   -66727   -65095   -63632   -62372 
  -61218   -60070   -58945   -57958   -57208   -56702   -56340   -56045 
  -55853   -55807   -55840   -55860   -55903   -56112   -56546   -57110 
  -57696   -58332   -59108   -60023   -60926   -61643   -62179   -62692 
  -63251   -63747   -64072   -64299   -64585   -64925   -65105   -64953 
  -64613   -64426   -64525   -64679   -64601   -64254   -63744   -63138 
  -62475   -61835   -61345   -61091   -61053   -61163   -61427   -61871 
  -62351   -62580   -62426   -62083   -61859   -61867   -62019   -62191 
  -62357   -62557   -62758   -62866   -62872   -62874   -62900   -62854 
  -62661   -62442   -62414   -62656   -63085   -63563   -64023   -64516 
  -65064   -65577   -65951   -66179   -66336   -66498   -66733   -67057 
  -67459   -67977   -68658   -69411   -70078   -70580   -70927   -71177 
  -71369   -71475   -71454   -71373   -71371   -71431   -71335   -70934 
  -70282   -69534   -68783   -68034   -67289   -66658   -66309   -66247 
  -66299   -66305   -66214   -66055   -65823   -65458   -64951   -64400 
  -63890   -63439   -63061   -62804   -62694   -62630   -62451   -62094 
  -61751   -61678   -61854   -62001   -61919   -61631   -61319   -61099 
  -60868   -60512   -60168   -60033   -60081   -60169   -60250   -60448 
  -60918   -61599   -62195   -62518   -62658   -62808   -63090   -63490 
  -63871   -64173   -64503   -65003   -65719   -66567   -67404   -68131 
  -68698   -69095   -69383   -69677   -70056   -70497   -70857   -70924 
  -70555   -69839   -69033   -68312   -67663   -66997   -66302   -65635 
  -65017   -64362   -63575   -62766   -62217   -62093   -62320   -62679 
  -63000   -63332   -63792   -64336   -64814   -65192   -65603   -66125 
  -66631   -66911   -66961   -66991   -67161   -67402   -67494   -67316 
  -67001   -66717   -66433   -66008   -65396   -64689   -63983   -63254 
  -62398   -61429   -60524   -59881   -59599   -59591   -59679   -59798 
  -60002   -60273   -60501   -60663   -60914   -61406   -62066   -62654 
  -63015   -63229   -63532   -64060   -64678   -65173   -65512   -65807 
  -66083   -66229   -66148   -65923   -65745   -65767   -66001   -66287 
  -66507   -66750   -67116   -67504   -67710   -67605   -67189   -66595 
  -65965   -65333   -64709   -64191   -63934   -63977   -64125   -64119 
  -63903   -63586   -63212   -62653   -61771   -60681   -59722   -59152 
  -58961   -58915   -58789   -58588   -58473   -58529   -58745   -59034 
  -59286   -59486   -59679   -59875   -60091   -60370   -60682   -60903 
  -60933   -60770   -60531   -60388   -60412   -60555   -60775   -61013 
  -61210   -61416   -61705   -62128   -62708   -63367   -63949   -64407 
  -64822   -65273   -65739   -66110   -66282   -66280   -66253   -66316 
  -66471   -66613   -66588   -66343   -65963   -65566   -65206   -64895 
  -64659   -64542   -64605   -64863   -65210   -65523   -65805   -66070 
  -66259   -66309   -66204   -66051   -66025   -66164   -66390   -66668 
  -67036   -67486   -67891   -68131   -68185   -68156   -68157   -68203 
  -68237   -68249   -68265   -68280   -68207   -67899   -67262   -66356 
  -65354   -64377   -63448   -62606   -61855   -61132   -60401   -59678 
  -59032   -58558   -58256   -58047   -57854   -57649   -57501   -57553 
  -57863   -58418   -59192   -60111   -61038   -61844   -62486   -62993 
  -63413   -63787   -64126   -64390   -64554   -64592   -64469   -64168 
  -63728   -63256   -62876   -62619   -62446   -62328   -62268   -62320 
  -62510   -62748   -62895   -62930   -62938   -62950   -62910   -62788 
  -62638   -62565   -62625   -62762   -62931   -63215   -63672   -64197 
  -64588   -64756   -64821   -64957   -65126   -65065   -64608   -63968 
  -63597   -63756   -64281   -64821   -65214   -65519   -65769   -65865 
  -65686   -65279   -64839   -64481   -64137   -63747   -63391   -63197 
  -63158   -63093   -62853   -62495   -62175   -61886   -61481   -60932 
  -60430   -60153   -60069   -59980   -59764   -59548   -59532   -59718 
  -60008   -60396   -60960   -61724   -62509   -63030   -63252   -63437 
  -63782   -64219   -64589   -64883   -65277   -65902   -66615   -67158 
  -67518   -67917   -68501   -69168   -69666   -69859   -69840   -69819 
  -69871   -69812   -69369   -68496   -67466   -66634   -66125   -65786 
  -65427   -65053   -64801   -64681   -64546   -64270   -63898   -63620 
  -63544   -63490   -63146   -62417   -61496   -60640   -59989   -59587 
  -59435   -59566   -60014   -60702   -61495   -62259   -62874   -63285 
  -63567   -63911   -64426   -65017   -65520   -65873   -66174   -66582 
  -67045   -67312   -67298   -67161   -67042   -66907   -66610   -66108 
  -65592   -65273   -65103   -64836   -64365   -63837   -63452   -63259 
  -63181   -63139   -63158   -63308   -63574   -63846   -64019   -64038 
  -63882   -63570   -63198   -62892   -62718   -62691   -62826   -63136 
  -63593   -64118   -64588   -64849   -64787   -64446   -64025   -63717 
  -63567   -63516   -63533   -63645   -63860   -64080   -64199   -64238 
