Origin Time       2025/01/13 21:19:00
Lat.              31.8
Long.             131.6
Depth. (km)       30
Mag.              6.9
Station Code      OITH02
Station Lat.      33.4581
Station Long.     131.4429
Station Height(m) 65
Record Time       2025/01/13 21:20:02
Sampling Freq(Hz) 100Hz
Duration Time(s)  179
Dir.              1
Scale Factor      3923(gal)/8224838
Max. Acc. (gal)   2.154
Last Correction   2025/01/13 21:20:02
Memo.             
[...]
    7546     7503     7462     7485     7560     7632     7677     7708 
    7747     7773     7754     7693     7645     7645     7681     7707 
    7707     7697     7701     7708     7697     7672     7661     7689 
    7743     7785     7797     7773     7711     7628     7555     7516 
    7511     7524     7535     7535     7524     7516     7515     7524 
    7550     7596     7646     7680     7695     7704     7712     7709 
    7693     7670     7641     7608     7576     7553     7574     7654 
    7762     7848     7896     7916     7939     7987     8051     8113 
    8174     8233     8272     8266     8209     8116     8014     7929 
    7877     7862     7867     7863     7815     7720     7608     7499 
    7398     7300     7206     7146     7148     7180     7188     7156 
    7109     7067     7025     6963     6867     6758     6686     6658 
    6639     6624     6635     6689     6782     6876     6943     6990 
    7041     7103     7182     7279     7396     7539     7684     7789 
    7835     7836     7832     7847     7866     7870     7867     7877 
    7904     7920     7898     7836     7767     7738     7769     7836 
    7905     7962     8006     8035     8028     7987     7944     7939 
    7978     8024     8036     8017     8005     8037     8101     8156 
    8159     8102     8014     7929     7863     7813     7777     7738 
    7682     7620     7570     7520     7454     7361     7253     7161 
    7099     7055     7028     7029     7059     7092     7103     7094 
    7103     7173     7302     7435     7534     7595     7639     7680 
    7709     7724     7754     7815     7888     7928     7917     7885 
    7867     7870     7858     7824     7800     7823     7884     7923 
    7904     7851     7800     7738     7627     7469     7331     7281 
    7300     7298     7230     7145     7101     7098     7090     7028 
    6948     6920     6956     7006     7032     7037     7045     7053 
    7033     6975     6933     6961     7042     7118     7165     7195 
    7223     7249     7257     7240     7231     7268     7322     7349 
    7357     7385     7454     7531     7566     7558     7564     7612 
    7676     7690     7626     7530     7479     7481     7503     7531 
    7582     7665     7749     7788     7766     7726     7711     7728 
    7761     7786     7807     7827     7824     7767     7669     7576 
    7533     7543     7572     7587     7599     7626     7662     7677 
    7668     7673     7711     7750     7751     7712     7684     7708 
    7759     7790     7786     7781     7794     7801     7762     7695 
    7646     7639     7646     7631     7580     7523     7497     7492 
    7454     7368     7291     7298     7392     7514     7587     7595 
    7576     7593     7661     7744     7821     7892     7951     7979 
    7959     7902     7836     7763     7684     7601     7530     7473 
    7418     7346     7285     7272     7299     7311     7276     7202 
    7128     7091     7082     7057     7013     6972     6955     6963 
    6982     7002     7034     7090     7168     7258     7360     7464 
    7562     7653     7723     7761     7778     7793     7804     7797 
    7765     7728     7726     7766     7838     7928     8024     8104 
    8136     8105     8032     7947     7879     7836     7805     7788 
    7784     7771     7734     7673     7627     7636     7681     7708 
    7705     7703     7727     7765     7778     7757     7736     7750 
    7767     7735     7650     7562     7533     7562     7588     7572 
    7547     7554     7595     7655     7730     7823     7933     8033 
    8091     8109     8110     8106     8095     8059     8009     7992 
    8035     8108     8155     8162     8139     8087     8009     7900 
    7776     7670     7605     7573     7564     7578     7611     7631 
    7620     7570     7491     7411     7350     7302     7268     7264 
    7279     7295     7299     7283     7254     7234     7213     7183 
    7164     7182     7231     7280     7303     7312     7338     7383 
    7418     7419     7400     7402     7429     7423     7345     7215 
    7096     7042     7056     7091     7110     7114     7103     7059 
    6978     6885     6798     6737     6710     6713     6762     6868 
    6991     7074     7101     7107     7123     7156     7198     7246 
    7323     7433     7534     7587     7596     7595     7603     7614 
    7609     7599     7609     7655     7701     7703     7659     7615 
    7601     7607     7593     7554     7518     7504     7508     7523 
    7542     7570     7623     7685     7734     7765     7788     7812 
    7824     7803     7757     7711     7685     7690     7722     7758 
    7774     7765     7742     7723     7724     7749     7774     7781 
    7765     7713     7624     7518     7435     7416     7450     7485 
    7493     7481     7466     7461     7453     7438     7438     7466 
    7511     7557     7605     7659     7716     7746     7728     7677 
    7643     7662     7715     7761     7792     7815     7820     7792 
    7720     7622     7546     7519     7516     7501     7446     7353 
    7238     7117     7002     6907     6851     6839     6863     6922 
    7009     7084     7123     7119     7076     7029     7003     6986 
    6976     6999     7055     7129     7204     7273     7353     7452 
    7543     7589     7581     7554     7549     7557     7550     7524 
    7520     7555     7611     7646     7646     7635     7639     7649 
    7630     7589     7580     7642     7755     7851     7888     7882 
    7873     7862     7831     7782     7767     7815     7886     7919 
    7888     7830     7790     7777     7759     7731     7738     7825 
    7967     8090     8137     8114     8064     8014     7966     7923 
    7901     7920     7975     8024     8036     8012     7967     7919 
    7863     7794     7712     7627     7547     7474     7423     7403 
    7410     7429     7450     7487     7549     7632     7740     7855 
    7950     8016     8044     8035     8006     7981     7962     7936 
    7902     7878     7877     7885     7881     7862     7840     7835 
    7832     7797     7719     7624     7535     7453     7364     7253 
    7133     7021     6917     6812     6721     6654     6602     6559 
    6524     6505     6532     6601     6647     6642     6613     6594 
    6597     6620     6639     6655     6697     6747     6772     6777 
    6797     6852     6922     6976     7014     7060     7126     7191 
    7213     7187     7159     7156     7155     7133     7111     7132 
    7204     7296     7376     7449     7538     7643     7724     7757 
    7770     7809     7885     7974     8041     8085     8104     8094 
    8055     8008     7979     7979     7986     7973     7950     7951 
    7983     8019     8027     8024     8033     8046     8029     7963 
    7861     7762     7686     7615     7539     7469     7422     7402 
    7369     7295     7196     7106     7042     6995     6949     6917 
    6917     6941     6967     6968     6945     6920     6916     6937 
    6979     7034     7098     7175     7263     7345     7414     7466 
    7495     7516     7573     7682     7827     7950     7998     7977 
    7944     7948     7981     8010     8029     8059     8112     8164 
    8175     8127     8048     7978     7912     7815     7680     7539 
    7420     7325     7221     7099     6987     6926     6930     6976 
    7026     7069     7102     7132     7168     7217     7273     7325 
    7362     7388     7408     7414     7399     7372     7346     7329 
    7327     7337     7344     7348     7362     7384     7415     7468 
    7537     7603     7647     7665     7665     7666     7677     7688 
    7693     7696     7704     7740     7815     7905     7997     8083 
    8168     8244     8282     8279     8256     8241     8257     8280 
    8262     8183     8073     7974     7900     7823     7736     7647 
    7549     7441     7338     7273     7283     7358     7445     7477 
    7439     7364     7279     7196     7106     7010     6934     6897 
    6874     6853     6843     6841     6847     6858     6868     6883 
    6929     7011     7094     7145     7157     7137     7094     7034 
    6972     6929     6917     6933     6952     6961     6963     6960 
    6955     6953     6955     6963     6980     7002     7020     7030 
    7044     7069     7111     7156     7200     7248     7291     7339 
    7412     7507     7588     7622     7597     7551     7515     7489 
    7457     7426     7418     7439     7473     7489     7497     7528 
    7584     7635     7657     7647     7638     7645     7641     7614 
    7589     7593     7628     7658     7663     7655     7650     7641 
    7626     7623     7659     7736     7812     7836     7794     7717 
    7635     7551     7458     7357     7264     7191     7121     7042 
    6988     6987     7029     7063     7055     7025     7020     7051 
    7106     7165     7230     7317     7408     7458     7462     7462 
    7491     7539     7577     7608     7668     7759     7852     7925 
    8006     8141     8320     8476     8564     8586     8599     8644 
    8698     8723     8723     8716     8706     8685     8634     8550 
    8464     8399     8363     8365     8407     8471     8546     8606 
    8619     8594     8540     8468     8406     8370     8357     8370 
    8390     8399     8397     8388     8375     8367     8372     8384 
    8394     8388     8355     8306     8276     8270     8264     8253 
    8243     8233     8230     8212     8149     8056     7966     7897 
    7843     7786     7726     7693     7719     7789     7861     7906 
    7923     7919     7904     7882     7863     7867     7904     7946 
    7951     7901     7839     7800     7774     7735     7669     7574 
    7472     7369     7248     7106     6987     6910     6855     6785 
    6705     6652     6650     6669     6658     6601     6520     6450 
    6389     6315     6219     6116     6014     5895     5760     5640 
    5570     5563     5586     5603     5641     5740     5890     6043 
    6164     6253     6338     6426     6501     6567     6650     6760 
    6878     6968     7034     7125     7261     7410     7524     7596 
    7662     7751     7844     7906     7948     8001     8060     8087 
    8048     7955     7869     7813     7761     7682     7593     7519 
    7473     7433     7372     7295     7226     7172     7122     7065 
    7020     7005     7009     7002     6963     6913     6898     6922 
    6957     6986     7029     7111     7226     7331     7403     7462 
    7545     7639     7711     7739     7747     7782     7851     7912 
    7946     7982     8062     8168     8248     8264     8245     8243 
    8264     8286     8297     8318     8382     8469     8541     8576 
    8587     8596     8621     8652     8681     8718     8746     8737 
    8679     8604     8549     8510     8456     8376     8287     8218 
    8159     8075     7971     7893     7866     7863     7839     7782 
    7730     7704     7686     7649     7592     7558     7570     7593 
    7580     7528     7476     7438     7395     7326     7248     7215 
    7240     7281     7292     7263     7210     7146     7053     6930 
    6808     6717     6658     6604     6538     6481     6458     6465 
    6471     6469     6471     6494     6531     6555     6567     6600 
    6667     6745     6821     6905     7006     7119     7209     7237 
    7214     7194     7206     7237     7267     7295     7337     7400 
    7461     7489     7493     7500     7535     7600     7678     7765 
    7855     7931     7978     8009     8039     8064     8060     7998 
    7879     7747     7639     7554     7464     7352     7244     7183 
    7192     7268     7387     7523     7670     7838     8025     8216 
    8403     8600     8816     9031     9201     9285     9283     9246 
    9227     9234     9250     9267     9290     9337     9432     9560 
    9687     9784     9833     9826     9776     9714     9653     9602 
    9558     9502     9429     9351     9271     9193     9115     9034 
    8935     8797     8621     8444     8303     8194     8077     7923 
    7746     7592     7487     7412     7334     7253     7199     7183 
    7176     7138     7063     6982     6914     6832     6700     6524 
    6351     6201     6046     5848     5603     5381     5232     5143 
    5063     4965     4876     4830     4823     4827     4834     4878 
    4970     5053     5057     4972     4847     4733     4625     4495 
    4357     4272     4286     4394     4544     4687     4818     4941 
    5055     5162     5275     5422     5625     5860     6099     6336 
    6573     6804     7007     7183     7361     7565     7786     8005 
    8205     8399     8615     8845     9047     9186     9274     9348 
    9427     9494     9539     9568     9602     9640     9664     9666 
    9648     9626     9628     9655     9694     9744     9809     9902 
   10038    10224    10438    10651    10851    11036    11194    11308 
   11377    11387    11341    11269    11187    11080    10951    10814 
   10677    10540    10396    10220    10011     9780     9526     9234 
    8903     8559     8244     7975     7742     7516     7280     7041 
    6812     6577     6320     6037     5730     5416     5100     4795 
    4536     4345     4197     4036     3846     3653     3483     3339 
    3218     3117     3055     3037     3032     3018     3028     3109 
    3267     3461     3647     3835     4067     4369     4714     5061 
    5402     5744     6075     6353     6562     6727     6878     7029 
    7183     7319     7426     7516     7603     7665     7682     7657 
    7607     7554     7510     7472     7441     7434     7474     7561 
    7663     7759     7847     7939     8035     8129     8221     8334 
    8491     8668     8819     8937     9047     9175     9325     9475 
    9602     9722     9855     9984    10071    10088    10044     9954 
    9833     9674     9485     9297     9135     8985     8822     8641 
    8480     8370     8298     8241     8178     8104     8021     7929 
    7831     7754     7734     7781     7862     7929     7967     7993 
    8036     8112     8206     8306     8406     8502     8579     8627 
    8638     8602     8536     8463     8380     8284     8189     8094 
    8004     7933     7871     7815     7769     7724     7655     7538 
    7369     7191     7047     6933     6793     6586     6320     6045 
    5806     5613     5455     5337     5278     5281     5308     5323 
    5328     5352     5410     5508     5643     5822     6056     6324 
    6588     6836     7082     7323     7537     7701     7839     7992 
    8179     8379     8563     8726     8904     9128     9381     9628 
    9848    10025    10152    10233    10274    10297    10318    10326 
   10284    10179    10042     9915     9806     9698     9571     9423 
    9290     9197     9115     9005     8849     8642     8406     8182 
    7998     7877     7815     7790     7778     7750     7695     7622 
    7547     7483     7442     7438     7461     7491     7507     7499 
    7470     7422     7348     7250     7155     7087     7034     6972 
    6887     6779     6663     6559     6466     6397     6370     6380 
    6397     6397     6365     6304     6243     6191     6146     6111 
    6091     6107     6161     6231     6309     6405     6521     6664 
    6832     7013     7209     7423     7636     7817     7939     7992 
    7985     7939     7859     7744     7605     7457     7285     7061 
    6795     6527     6300     6126     5975     5813     5643     5494 
    5394     5344     5327     5343     5400     5478     5537     5552 
    5543     5544     5575     5622     5668     5718     5802     5937 
    6104     6284     6478     6701     6949     7198     7407     7561 
    7677     7761     7800     7786     7736     7680     7642     7609 
    7554     7473     7393     7339     7318     7303     7276     7238 
    7203     7163     7094     6999     6906     6832     6763     6670 
    6565     6481     6434     6407     6377     6347     6340     6367 
    6407     6416     6401     6403     6439     6496     6558     6625 
    6714     6843     6993     7130     7250     7376     7514     7649 
    7762     7847     7915     7983     8067     8145     8202     8237 
    8263     8287     8306     8332     8402     8525     8662     8768 
    8837     8891     8937     8949     8895     8789     8683     8600 
    8533     8471     8415     8383     8378     8367     8333     8302 
    8311     8371     8457     8546     8637     8739     8843     8908 
    8924     8927     8941     8954     8953     8930     8905     8919 
    8964     8999     8999     8966     8916     8872     8835     8808 
    8806     8845     8927     9028     9130     9234     9339     9428 
    9483     9505     9521     9567     9647     9741     9823     9882 
    9933     9991    10048    10093    10130    10181    10266    10365 
   10439    10473    10471    10435    10354    10214    10012     9774 
    9528     9289     9053     8827     8621     8419     8213     8005 
    7809     7655     7550     7468     7392     7307     7210     7111 
    7013     6920     6852     6820     6813     6810     6793     6750 
    6693     6656     6664     6704     6739     6748     6724     6673 
    6609     6525     6419     6307     6205     6115     6026     5919 
    5778     5609     5443     5294     5175     5096     5058     5063 
    5096     5135     5175     5224     5290     5370     5459     5553 
    5665     5800     5950     6097     6227     6338     6440     6538 
    6623     6694     6768     6867     6975     7076     7180     7311 
    7476     7663     7846     8008     8166     8338     8507     8634 
    8715     8772     8831     8903     8982     9067     9153     9227 
    9266     9251     9194     9143     9134     9147     9121     9034 
    8912     8785     8649     8478     8255     8000     7735     7461 
    7167     6862     6593     6404     6288     6208     6127     6030 
    5918     5786     5629     5467     5339     5271     5236     5193 
    5140     5120     5151     5213     5279     5359     5486     5674 
    5900     6124     6326     6507     6667     6799     6912     7029 
    7175     7349     7528     7704     7897     8124     8349     8527 
    8650     8739     8824     8914     8988     9046     9115     9207 
    9296     9337     9305     9225     9158     9138     9158     9194 
    9232     9270     9308     9337     9356     9362     9358     9329 
    9258     9138     8989     8835     8695     8560     8415     8266 
    8106     7927     7736     7550     7385     7250     7142     7068 
    7028     7001     6953     6851     6683     6469     6234     5994 
    5767     5568     5405     5283     5197     5128     5063     5001 
    4942     4873     4789     4703     4631     4581     4571     4608 
    4672     4733     4780     4818     4864     4931     5013     5101 
    5201     5325     5464     5591     5686     5764     5865     5996 
    6135     6253     6351     6463     6610     6789     6990     7217 
    7465     7727     7994     8264     8526     8762     8958     9107 
