Origin Time       2025/01/13 21:19:00
Lat.              31.8
Long.             131.6
Depth. (km)       30
Mag.              6.9
Station Code      OITH10
Station Lat.      32.9278
Station Long.     131.8695
Station Height(m) -20
Record Time       2025/01/13 21:19:53
Sampling Freq(Hz) 100Hz
Duration Time(s)  163
Dir.              1
Scale Factor      3923(gal)/8224838
Max. Acc. (gal)   9.075
Last Correction   2025/01/13 21:19:53
Memo.             
[...]
  -13859   -13986   -14143   -14305   -14357   -14393   -14554   -14715 
  -14696   -14621   -14651   -14762   -14963   -15202   -15217   -14947 
  -14651   -14544   -14584   -14517   -14264   -14054   -13902   -13680 
  -13509   -13455   -13521   -13697   -13782   -13728   -13718   -13737 
  -13659   -13540   -13481   -13474   -13479   -13487   -13466   -13309 
  -13001   -12690   -12488   -12428   -12545   -12762   -12849   -12762 
  -12744   -13004   -13455   -13687   -13520   -13230   -13008   -12873 
  -12846   -12783   -12525   -12133   -11749   -11510   -11565   -11897 
  -12309   -12661   -12846   -12757   -12463   -12163   -12031   -12175 
  -12591   -13038   -13221   -13219   -13313   -13487   -13552   -13574 
  -13709   -13865   -13914   -13814   -13570   -13301   -13088   -12978 
  -13028   -13205   -13493   -13747   -13744   -13528   -13355   -13304 
  -13136   -12901   -12951   -13281   -13690   -14013   -14172   -14372 
  -14692   -14862   -14713   -14469   -14384   -14388   -14361   -14355 
  -14470   -14729   -15007   -15118   -14935   -14489   -13986   -13652 
  -13721   -14094   -14222   -13826   -13099   -12387   -11988   -11844 
  -11824   -12015   -12375   -12870   -13554   -14141   -14280   -14108 
  -13953   -13871   -13888   -14181   -14625   -14866   -14848   -14759 
  -14790   -15012   -15132   -14851   -14373   -14034   -13900   -13944 
  -14094   -14083   -13743   -13221   -12667   -12208   -12124   -12459 
  -12822   -12961   -13024   -13080   -13003   -12752   -12344   -11904 
  -11734   -12023   -12618   -13217   -13616   -13765   -13734   -13591 
  -13448   -13437   -13350   -12993   -12681   -12673   -12907   -13271 
  -13529   -13489   -13120   -12490   -11853   -11483   -11464   -11673 
  -11908   -12044   -12043   -12042   -12210   -12522   -12897   -13209 
  -13404   -13563   -13720   -13875   -13988   -14077   -14208   -14253 
  -14137   -14021   -14035   -14133   -14106   -13952   -13840   -13686 
  -13404   -13158   -13014   -12916   -12864   -12916   -13135   -13275 
  -13082   -12802   -12719   -12795   -12982   -13207   -13370   -13512 
  -13624   -13622   -13572   -13602   -13649   -13566   -13410   -13304 
  -13193   -13096   -13139   -13194   -13115   -13093   -13198   -13296 
  -13477   -13693   -13601   -13095   -12460   -12083   -11998   -12073 
  -12406   -12943   -13373   -13560   -13495   -13223   -12916   -12677 
  -12487   -12379   -12421   -12658   -13028   -13329   -13525   -13767 
  -13952   -13795   -13327   -12883   -12698   -12839   -13284   -13891 
  -14457   -14863   -15115   -15178   -15071   -14989   -14926   -14712 
  -14350   -13917   -13452   -13032   -12798   -12858   -13158   -13489 
  -13694   -13821   -13896   -13845   -13770   -13876   -14125   -14355 
  -14569   -14759   -14881   -14920   -14752   -14359   -13980   -13763 
  -13608   -13404   -13289   -13467   -13887   -14292   -14461   -14350 
  -13968   -13389   -12891   -12614   -12464   -12474   -12672   -12808 
  -12644   -12332   -12106   -11942   -11886   -12008   -12201   -12464 
  -12864   -13311   -13598   -13614   -13517   -13473   -13359   -12984 
  -12496   -12172   -12031   -12005   -12066   -12247   -12553   -12825 
  -13065   -13363   -13578   -13678   -13833   -14153   -14631   -15183 
  -15645   -15854   -15761   -15383   -14868   -14403   -13963   -13610 
  -13505   -13552   -13612   -13679   -13714   -13709   -13657   -13502 
  -13344   -13297   -13213   -13016   -12752   -12405   -12177   -12268 
  -12523   -12814   -13174   -13549   -13743   -13630   -13265   -12818 
  -12490   -12348   -12403   -12711   -13108   -13352   -13470   -13576 
  -13734   -13888   -13991   -14156   -14335   -14405   -14500   -14689 
  -14828   -14874   -14905   -14899   -14810   -14689   -14644   -14656 
  -14627   -14669   -14794   -14736   -14553   -14488   -14454   -14370 
  -14338   -14272   -14017   -13686   -13405   -13130   -12906   -12926 
  -13227   -13556   -13689   -13680   -13636   -13558   -13483   -13481 
  -13466   -13343   -13239   -13246   -13216   -13031   -12843   -12915 
  -13227   -13522   -13736   -14014   -14353   -14600   -14662   -14462 
  -14092   -13919   -14081   -14320   -14404   -14280   -14076   -13975 
  -13919   -13693   -13333   -13022   -12688   -12294   -11975   -11813 
  -11950   -12401   -12752   -12775   -12783   -12945   -13078   -13219 
  -13417   -13409   -13215   -13213   -13424   -13599   -13706   -13857 
  -14087   -14376   -14611   -14594   -14304   -13925   -13706   -13763 
  -13910   -13977   -14010   -14026   -13994   -13919   -13779   -13549 
  -13413   -13598   -14010   -14427   -14697   -14713   -14527   -14299 
  -14130   -14031   -14073   -14278   -14407   -14338   -14179   -13926 
  -13647   -13504   -13482   -13435   -13359   -13397   -13446   -13242 
  -12726   -12106   -11712   -11630   -11666   -11724   -11819   -11970 
  -12182   -12550   -13124   -13603   -13788   -13824   -13744   -13572 
  -13539   -13780   -14176   -14559   -14781   -14648   -14257   -13988 
  -14000   -14125   -14196   -14280   -14492   -14798   -15147   -15553 
  -16004   -16378   -16480   -16243   -15776   -15346   -15070   -14774 
  -14524   -14575   -14887   -15184   -15160   -14762   -14238   -13798 
  -13535   -13473   -13593   -13849   -14065   -14027   -13722   -13402 
  -13212   -13022   -12849   -12831   -12939   -13117   -13328   -13510 
  -13667   -13828   -14011   -14177   -14219   -14115   -13936   -13609 
  -13035   -12445   -12090   -11901   -11843   -12029   -12398   -12729 
  -12864   -12787   -12559   -12241   -11947   -11839   -11935   -12056 
  -12085   -12008   -11805   -11515   -11256   -11130   -11222   -11530 
  -11858   -12055   -12260   -12602   -12915   -13074   -13204   -13358 
  -13512   -13776   -14177   -14494   -14544   -14331   -14033   -13946 
  -14150   -14355   -14324   -14156   -14054   -14108   -14292   -14434 
  -14315   -13973   -13695   -13695   -13849   -13834   -13645   -13514 
  -13471   -13404   -13225   -12942   -12748   -12800   -12976   -13077 
  -13046   -12869   -12657   -12563   -12523   -12456   -12367   -12224 
  -12039   -11839   -11597   -11334   -11144   -11105   -11192   -11261 
  -11167   -10940   -10758   -10751   -10875   -10905   -10756   -10694 
  -10816   -10875   -10794   -10759   -10948   -11331   -11638   -11691 
  -11618   -11597   -11669   -11851   -12104   -12347   -12622   -12943 
  -13232   -13470   -13679   -13921   -14265   -14648   -14871   -14870 
  -14845   -14960   -15140   -15303   -15433   -15506   -15606   -15788 
  -15853   -15614   -15255   -15110   -15260   -15561   -15911   -16185 
  -16225   -16069   -15826   -15510   -15133   -14747   -14370   -13922 
  -13447   -13140   -12976   -12842   -12796   -12976   -13462   -14116 
  -14642   -14885   -14986   -15149   -15385   -15592   -15651   -15561 
  -15446   -15365   -15348   -15358   -15283   -15075   -14752   -14472 
  -14385   -14316   -14081   -13788   -13570   -13371   -13096   -12819 
  -12615   -12348   -11983   -11699   -11554   -11541   -11707   -11967 
  -12097   -11978   -11650   -11164   -10585   -10069    -9748    -9566 
   -9332    -9035    -8804    -8595    -8433    -8572    -9063    -9738 
  -10480   -11214   -11912   -12532   -12968   -13157   -13124   -13042 
  -13122   -13332   -13522   -13729   -13996   -14214   -14373   -14575 
  -14727   -14659   -14386   -14022   -13582   -12980   -12259   -11645 
  -11295   -11160   -11102   -11110   -11260   -11580   -12015   -12422 
  -12729   -13030   -13489   -14241   -15198   -16116   -16935   -17679 
  -18208   -18455   -18508   -18453   -18341   -18119   -17658   -16999 
  -16349   -15863   -15612   -15611   -15851   -16302   -16916   -17517 
  -17875   -17992   -17907   -17628   -17274   -16896   -16501   -16071 
  -15514   -14808   -14060   -13435   -12966   -12571   -12249   -11975 
  -11693   -11535   -11599   -11740   -11801   -11817   -11874   -11951 
  -12047   -12283   -12738   -13320   -13967   -14800   -15786   -16660 
  -17294   -17806   -18318   -18759   -18905   -18616   -17968   -17072 
  -16025   -14985   -13968   -12916   -11966   -11327   -11111   -11310 
  -11765   -12206   -12455   -12550   -12638   -12773   -12816   -12583 
  -12199   -11977   -11939   -11947   -11962   -11919   -11739   -11475 
  -11211   -10940   -10590   -10172    -9792    -9555    -9450    -9329 
   -9121    -8938    -8896    -9015    -9256    -9574    -9940   -10397 
  -11087   -12033   -12919   -13383   -13477   -13489   -13595   -13765 
  -13913   -14062   -14177   -14131   -13963   -13749   -13489   -13211 
  -12879   -12515   -12343   -12407   -12560   -12793   -13127   -13474 
  -13805   -14123   -14407   -14627   -14720   -14683   -14729   -15087 
  -15673   -16205   -16528   -16636   -16583   -16501   -16448   -16337 
  -16128   -15869   -15601   -15398   -15361   -15538   -15820   -15988 
  -15893   -15530   -14978   -14424   -14022   -13740   -13481   -13242 
  -13061   -12899   -12750   -12645   -12448   -12047   -11585   -11241 
  -11097   -11179   -11408   -11589   -11674   -11897   -12417   -13208 
  -14164   -15068   -15712   -16106   -16374   -16492   -16371   -16058 
  -15651   -15155   -14538   -13869   -13227   -12621   -12162   -11966 
  -12005   -12239   -12640   -13104   -13541   -13960   -14392   -14845 
  -15315   -15646   -15689   -15433   -14833   -14026   -13339   -12870 
  -12513   -12252   -12210   -12378   -12573   -12766   -12989   -13132 
  -13143   -13065   -12984   -12974   -12977   -12992   -13247   -13979 
  -15095   -16266   -17232   -17860   -18065   -17787   -17042   -16042 
  -15024   -14146   -13471   -12814   -12037   -11246   -10513    -9945 
   -9659    -9652    -9826    -9976   -10017    -9931    -9647    -9281 
   -8916    -8476    -7936    -7231    -6478    -5980    -5833    -6027 
   -6571    -7396    -8394    -9371   -10107   -10462   -10424   -10170 
   -9886    -9672    -9659    -9845   -10176   -10735   -11479   -12199 
  -12771   -13209   -13579   -13859   -14033   -14138   -14142   -14085 
  -14165   -14426   -14692   -14828   -14793   -14547   -14114   -13589 
  -13063   -12607   -12262   -12032   -11983   -12193   -12588   -13027 
  -13518   -14169   -14939   -15673   -16268   -16649   -16858   -16968 
  -16897   -16690   -16578   -16611   -16671   -16714   -16761   -16796 
  -16767   -16596   -16324   -16067   -15838   -15712   -15854   -16181 
  -16579   -17157   -17923   -18824   -19846   -20849   -21676   -22291 
  -22742   -23109   -23296   -23195   -22955   -22709   -22376   -21919 
  -21477   -21150   -20860   -20410   -19723   -18875   -17921   -16976 
  -16239   -15762   -15458   -15167   -14729   -14175   -13591   -12964 
  -12343   -11821   -11326   -10751   -10079    -9208    -8068    -6795 
   -5497    -4148    -2841    -1732     -827      -66      514      749 
     612      221     -545    -1765    -3161    -4556    -5934    -7260 
   -8546    -9775   -10944   -11992   -12723   -13134   -13328   -13309 
  -13140   -12947   -12812   -12680   -12405   -12016   -11647   -11340 
  -11126   -11001   -10898   -10839   -10895   -11053   -11248   -11500 
  -11889   -12475   -13197   -13934   -14667   -15396   -16067   -16695 
  -17340   -17980   -18515   -18863   -18985   -18917   -18778   -18594 
  -18360   -18198   -18180   -18281   -18543   -18895   -19103   -19068 
  -18883   -18655   -18485   -18495   -18643   -18804   -19043   -19541 
  -20332   -21301   -22249   -22979   -23392   -23484   -23298   -22858 
  -22134   -21139   -19971   -18685   -17356   -16021   -14551   -12922 
  -11241    -9536    -7881    -6336    -4912    -3769    -3029    -2671 
   -2731    -3272    -4306    -5778    -7511    -9192   -10482   -11249 
  -11554   -11487   -11172   -10729   -10210    -9626    -9043    -8564 
   -8208    -7884    -7508    -7090    -6751    -6550    -6430    -6431 
   -6643    -7002    -7345    -7632    -7942    -8259    -8602    -9066 
   -9644   -10332   -11167   -12093   -13051   -13983   -14809   -15414 
  -15701   -15742   -15649   -15499   -15403   -15445   -15734   -16348 
  -17257   -18391   -19458   -20056   -20259   -20368   -20382   -20267 
  -20123   -19874   -19363   -18644   -17969   -17531   -17335   -17257 
  -17112   -16785   -16326   -15804   -15142   -14291   -13383   -12606 
  -12102   -11915   -11958   -12133   -12468   -13095   -13981   -14859 
  -15541   -15993   -16224   -16305   -16357   -16525   -16958   -17682 
  -18540   -19377   -20039   -20336   -20185   -19664   -18932   -18088 
  -17072   -15800   -14272   -12576   -10878    -9297    -7998    -7153 
   -6646    -6226    -5829    -5601    -5663    -5907    -6162    -6380 
   -6597    -6932    -7545    -8537    -9807   -11098   -12151   -12768 
  -12968   -12872   -12513   -12012   -11492   -10930   -10335    -9841 
   -9572    -9489    -9439    -9373    -9313    -9297    -9495   -10100 
  -11009   -12008   -13065   -14079   -14744   -14862   -14494   -13846 
  -13182   -12784   -12750   -12972   -13315   -13720   -14148   -14508 
  -14688   -14608   -14203   -13467   -12464   -11319   -10276    -9536 
   -9132    -9119    -9639   -10723   -12217   -13987   -15917   -17768 
  -19364   -20772   -22114   -23341   -24356   -25162   -25732   -25941 
  -25693   -25008   -24016   -22928   -22014   -21429   -21114   -20939 
  -20711   -20250   -19604   -18948   -18355   -17795   -17220   -16610 
  -16012   -15611   -15547   -15707   -15859   -15776   -15256   -14227 
  -12727   -10824    -8610    -6192    -3670    -1217      970     2821 
    4272     5184     5549     5530     5233     4621     3667     2435 
     970     -670    -2439    -4207    -5759    -7184    -8739   -10331 
  -11808   -13193   -14547   -15927   -17289   -18580   -19827   -20981 
  -21906   -22437   -22377   -21682   -20588   -19445   -18588   -18316 
  -18752   -19847   -21415   -23129   -24649   -25731   -26223   -26059 
  -25239   -23994   -22721   -21655   -20819   -20129   -19369   -18339 
  -17041   -15620   -14218   -12826   -11427   -10204    -9371    -8928 
   -8734    -8649    -8626    -8687    -8785    -8791    -8638    -8322 
   -7881    -7487    -7312    -7433    -7888    -8619    -9543   -10543 
  -11439   -12120   -12521   -12663   -12711   -12765   -12804   -12775 
  -12615   -12297   -11803   -11192   -10651   -10309   -10207   -10393 
  -10874   -11539   -12258   -12945   -13517   -13954   -14280   -14504 
  -14679   -14825   -14868   -14786   -14650   -14581   -14733   -15186 
  -15851   -16580   -17221   -17663   -17921   -18071   -18099   -17960 
  -17778   -17774   -17991   -18312   -18630   -18875   -18966   -18837 
  -18538   -18045   -17227   -16177   -15187   -14462   -14067   -13841 
  -13479   -12787   -11813   -10720    -9520    -8220    -6987    -5929 
   -5093    -4494    -4063    -3836    -3829    -3871    -3866    -3850 
   -3834    -3874    -4059    -4352    -4710    -5251    -6146    -7445 
   -9065   -10777   -12251   -13373   -14343   -15282   -16143   -16923 
  -17617   -18216   -18725   -19071   -19186   -19084   -18868   -18681 
  -18520   -18311   -18021   -17575   -16970   -16440   -16175   -16054 
  -15874   -15666   -15593   -15726   -16040   -16474   -16908   -17269 
  -17572   -17837   -18041   -18106   -17941   -17649   -17481   -17528 
  -17614   -17481   -17066   -16586   -16282   -16135   -15839   -15152 
  -14085   -12827   -11628   -10628    -9848    -9337    -9171    -9424 
  -10061   -10874   -11643   -12226   -12503   -12460   -12228   -11959 
  -11697   -11419   -11169   -11090   -11321   -11789   -12259   -12594 
  -12731   -12642   -12434   -12316   -12434   -12773   -13170   -13444 
  -13558   -13537   -13320   -12931   -12499   -12086   -11813   -11758 
  -11753   -11587   -11217   -10714   -10227    -9909    -9802    -9886 
  -10211   -10837   -11643   -12403   -12992   -13360   -13505   -13525 
  -13581   -13797   -14188   -14685   -15218   -15719   -16123   -16451 
  -16754   -16978   -17022   -16910   -16731   -16470   -16144   -15888 
  -15697   -15465   -15137   -14662   -14068   -13487   -13086   -13004 
  -13230   -13606   -13983   -14343   -14688   -14904   -14889   -14639 
  -14208   -13674   -13069   -12384   -11670   -11072   -10714   -10509 
  -10331   -10272   -10453   -10833   -11362   -12021   -12749   -13454 
  -14031   -14413   -14601   -14651   -14742   -15033   -15445   -15819 
  -16148   -16475   -16811   -17138   -17278   -17089   -16661   -16150 
  -15677   -15290   -14913   -14565   -14358   -14316   -14434   -14736 
  -15183   -15623   -15913   -15965   -15768   -15448   -15142   -14924 
  -14829   -14829   -14852   -14781   -14507   -14019   -13398   -12762 
  -12166   -11672   -11389   -11223   -10971   -10586   -10211   -10050 
  -10098   -10239   -10461   -10785   -11298   -11978   -12650   -13252 
  -13795   -14237   -14547   -14762   -14970   -15249   -15622   -15989 
  -16274   -16532   -16745   -16827   -16718   -16364   -15858   -15306 
  -14662   -13990   -13398   -12858   -12388   -12117   -12066   -12167 
  -12347   -12496   -12588   -12684   -12775   -12842   -12966   -13180 
  -13385   -13467   -13441   -13436   -13443   -13340   -13090   -12688 
  -12171   -11650   -11194   -10912   -10968   -11346   -11877   -12405 
  -12845   -13221   -13620   -14042   -14453   -14868   -15209   -15287 
  -15109   -14867   -14715   -14656   -14646   -14727   -14978   -15380 
  -15808   -16119   -16278   -16341   -16309   -16083   -15619   -14948 
  -14106   -13225   -12451   -11751   -11072   -10458   -10002    -9775 
   -9761    -9958   -10405   -11063   -11770   -12382   -12897   -13389 
  -13892   -14377   -14767   -15052   -15321   -15669   -16086   -16437 
  -16646   -16792   -16947   -17037   -16915   -16518   -15928   -15319 
  -14796   -14334   -13883   -13506   -13313   -13255   -13217   -13143 
  -12999   -12831   -12812   -13054   -13528   -14102   -14658   -15128 
  -15462   -15637   -15639   -15499   -15310   -15134   -14902   -14531 
  -14002   -13441   -13113   -13176   -13620   -14291   -14939   -15469 
  -15867   -16071   -16125   -16062   -15857   -15585   -15333   -15114 
  -14812   -14305   -13716   -13203   -12738   -12226   -11628   -10991 
  -10376    -9791    -9178    -8506    -7885    -7445    -7245    -7298 
   -7493    -7781    -8299    -9062    -9931   -10856   -11836   -12784 
  -13486   -13836   -13944   -13900   -13720   -13439   -13068   -12630 
  -12156   -11603   -10957   -10315    -9769    -9328    -9011    -8862 
   -8839    -8901    -9073    -9317    -9585    -9875   -10142   -10312 
  -10407   -10532   -10773   -11142   -11645   -12252   -12846   -13316 
  -13678   -13977   -14145   -14122   -14018   -13959   -13936   -13875 
  -13756   -13670   -13713   -13909   -14265   -14748   -15263   -15682 
  -15861   -15776   -15556   -15300   -15128   -15178   -15502   -16011 
  -16521   -16950   -17261   -17369   -17302   -17136   -16877   -16590 
  -16324   -16024   -15665   -15292   -14949   -14694   -14619   -14748 
  -15016   -15302   -15483   -15534   -15527   -15492   -15426   -15338 
  -15213   -15074   -14966   -14870   -14748   -14588   -14353   -13981 
  -13483   -12927   -12383   -11873   -11342   -10824   -10446   -10179 
   -9927    -9709    -9551    -9471    -9589   -10012   -10683   -11483 
  -12294   -12950   -13359   -13551   -13625   -13740   -13868   -13830 
  -13684   -13626   -13757   -14084   -14519   -14928   -15269   -15635 
