Origin Time       2025/01/13 21:19:00
Lat.              31.8
Long.             131.6
Depth. (km)       30
Mag.              6.9
Station Code      OITH05
Station Lat.      33.1525
Station Long.     131.5420
Station Height(m) 160
Record Time       2025/01/13 21:19:56
Sampling Freq(Hz) 100Hz
Duration Time(s)  154
Dir.              5
Scale Factor      7845(gal)/8223790
Max. Acc. (gal)   6.293
Last Correction   2025/01/13 21:19:56
Memo.             
[...]
    2976     3071     3273     3443     3492     3447     3384     3368 
    3406     3422     3356     3240     3123     2991     2836     2701 
    2604     2509     2404     2335     2369     2486     2585     2637 
    2698     2801     2928     3028     3067     3105     3207     3322 
    3348     3311     3304     3343     3379     3372     3334     3330 
    3399     3481     3511     3516     3522     3477     3365     3244 
    3172     3159     3159     3140     3134     3196     3325     3457 
    3542     3568     3539     3469     3388     3327     3310     3341 
    3426     3518     3497     3288     2987     2786     2745     2710 
    2571     2465     2521     2686     2882     3094     3322     3542 
    3707     3794     3870     3951     3944     3798     3573     3337 
    3129     2941     2740     2555     2459     2465     2531     2633 
    2705     2677     2627     2720     2963     3190     3287     3291 
    3269     3215     3098     3003     3019     3083     3133     3210 
    3322     3454     3616     3728     3734     3712     3747     3801 
    3774     3603     3341     3121     3014     2975     2925     2849 
    2781     2763     2832     2972     3121     3257     3393     3473 
    3433     3345     3342     3450     3549     3492     3264     3018 
    2909     2964     3100     3207     3241     3207     3103     3007 
    3015     3080     3103     3080     3018     2920     2852     2859 
    2913     2986     3056     3111     3195     3308     3381     3389 
    3364     3361     3418     3465     3414     3284     3154     3048 
    2910     2743     2666     2766     2948     3082     3180     3304 
    3462     3624     3709     3653     3568     3576     3611     3570 
    3451     3268     3071     2949     2898     2867     2871     2909 
    2910     2843     2756     2697     2667     2681     2785     2980 
    3167     3257     3289     3346     3438     3519     3570     3615 
    3676     3713     3692     3638     3595     3588     3599     3558 
    3437     3271     3064     2794     2533     2404     2432     2529 
    2590     2577     2513     2416     2343     2423     2646     2841 
    2960     3123     3395     3690     3866     3867     3797     3751 
    3744     3801     3915     3958     3843     3657     3518     3412 
    3303     3230     3215     3200     3196     3271     3388     3418 
    3322     3223     3218     3235     3171     3086     3127     3306 
    3503     3585     3468     3208     2978     2866     2821     2747 
    2609     2459     2347     2308     2392     2590     2840     3083 
    3261     3349     3388     3407     3384     3337     3312     3312 
    3315     3331     3360     3385     3442     3535     3566     3450 
    3250     3133     3176     3242     3156     2938     2722     2598 
    2608     2764     2955     2986     2890     2898     2982     2948 
    2816     2737     2791     2952     3153     3381     3618     3784 
    3840     3797     3666     3491     3368     3335     3325     3292 
    3304     3346     3300     3145     2974     2876     2929     3138 
    3375     3516     3593     3623     3519     3271     3018     2866 
    2787     2737     2778     3013     3334     3456     3311     3118 
    3018     2988     3040     3191     3391     3577     3682     3688 
    3677     3699     3678     3568     3430     3348     3316     3252 
    3114     2959     2832     2752     2749     2835     2983     3100 
    3098     3038     3002     2921     2794     2717     2641     2493 
    2412     2560     2843     3024     3076     3198     3427     3591 
    3595     3493     3365     3280     3277     3311     3303     3264 
    3268     3295     3265     3233     3283     3312     3215     3087 
    3024     2983     2922     2849     2770     2714     2720     2782 
    2876     2992     3113     3230     3361     3487     3562     3577 
    3504     3354     3223     3177     3180     3191     3230     3339 
    3460     3481     3464     3516     3569     3531     3457     3418 
    3393     3326     3225     3121     3010     2929     2961     3067 
    3090     2971     2826     2820     2982     3156     3213     3204 
    3198     3149     3014     2845     2772     2886     3132     3402 
    3638     3793     3834     3792     3709     3586     3443     3343 
    3303     3198     2944     2640     2398     2285     2339     2486 
    2616     2737     2870     2975     3046     3105     3119     3044 
    2930     2864     2863     2916     3082     3395     3712     3832 
    3753     3622     3570     3618     3703     3755     3736     3661 
    3570     3438     3227     2984     2810     2741     2708     2643 
    2589     2633     2736     2785     2808     2932     3150     3308 
    3337     3384     3551     3723     3805     3816     3753     3651 
    3601     3609     3626     3600     3504     3384     3287     3179 
    3028     2870     2744     2639     2536     2498     2600     2776 
    2905     3001     3153     3312     3384     3395     3385     3311 
    3163     3033     2959     2920     2929     2980     3044     3078 
    3045     3018     3090     3214     3272     3219     3165     3254 
    3426     3505     3464     3358     3208     3052     2936     2852 
    2791     2783     2844     2905     2866     2782     2844     3068 
    3265     3322     3312     3337     3381     3369     3280     3122 
    2902     2749     2801     2990     3148     3200     3186     3156 
    3141     3176     3303     3515     3663     3636     3538     3480 
    3468     3559     3734     3815     3731     3559     3377     3230 
    3137     3095     3110     3206     3349     3368     3136     2775 
    2505     2415     2440     2482     2528     2632     2787     2937 
    3021     3049     3190     3491     3701     3684     3573     3496 
    3461     3424     3384     3366     3316     3250     3277     3377 
    3437     3389     3214     2988     2832     2783     2820     2883 
    2952     3092     3291     3465     3581     3603     3518     3349 
    3105     2826     2632     2636     2812     2960     2961     2917 
    2957     3076     3195     3296     3415     3516     3543     3549 
    3545     3458     3289     3065     2799     2569     2436     2400 
    2465     2637     2898     3229     3554     3744     3746     3612 
    3474     3469     3569     3609     3538     3445     3385     3327 
    3244     3148     3069     3055     3125     3238     3283     3172 
    2998     2972     3123     3260     3250     3184     3221     3384 
    3558     3673     3727     3676     3522     3400     3373     3358 
    3322     3268     3153     2960     2751     2617     2621     2762 
    2951     3080     3173     3376     3681     3875     3840     3631 
    3380     3222     3184     3187     3180     3165     3103     2998 
    2926     2906     2963     3136     3310     3346     3279     3179 
    3078     2978     2862     2760     2771     2899     3015     3032 
    3060     3272     3603     3817     3800     3620     3406     3246 
    3149     3130     3199     3268     3262     3230     3248     3352 
    3491     3496     3295     3063     3001     3106     3256     3315 
    3241     3171     3234     3354     3424     3472     3534     3596 
    3623     3599     3578     3609     3616     3504     3273     2941 
    2577     2335     2313     2484     2752     3005     3168     3219 
    3169     3090     3076     3144     3222     3238     3134     2906 
    2687     2639     2721     2779     2835     3038     3331     3478 
    3437     3337     3215     3064     2980     3006     3059     3109 
    3202     3331     3431     3458     3416     3307     3134     2952 
    2816     2775     2853     2980     3052     3105     3230     3365 
    3348     3179     3007     2910     2820     2698     2598     2592 
    2716     2928     3115     3248     3373     3469     3474     3427 
    3389     3375     3402     3469     3514     3492     3403     3285 
    3204     3190     3171     3100     3048     3036     3033     3113 
    3268     3334     3307     3322     3420     3527     3554     3504 
    3464     3414     3299     3227     3276     3292     3144     2898 
    2687     2565     2490     2421     2376     2389     2509     2754 
    3040     3265     3439     3597     3685     3638     3483     3361 
    3427     3595     3634     3542     3480     3466     3461     3468 
    3470     3456     3450     3514     3624     3619     3393     3083 
    2903     2905     2997     3090     3149     3173     3152     3061 
    2949     2914     2970     3051     3119     3204     3300     3368 
    3445     3607     3798     3863     3730     3514     3404     3441 
    3551     3734     3954     4035     3862     3524     3159     2840 
    2654     2689     2886     3079     3186     3277     3381     3388 
    3299     3262     3326     3422     3484     3483     3492     3597 
    3748     3829     3761     3515     3184     2994     3072     3245 
    3273     3164     3049     2976     2957     3018     3172     3370 
    3537     3663     3767     3844     3904     3915     3867     3843 
    3831     3782     3794     3900     3940     3859     3767     3677 
    3488     3190     2925     2859     2984     3118     3117     3025 
    2980     3094     3334     3547     3631     3601     3531     3504 
    3578     3770     3986     4050     3916     3689     3469     3358 
    3350     3264     3037     2787     2602     2516     2529     2600 
    2659     2637     2559     2551     2689     2883     2949     2832 
    2679     2639     2717     2806     2810     2717     2551     2390 
    2319     2284     2182     2039     1903     1787     1742     1776 
    1822     1885     2012     2130     2165     2180     2235     2320 
    2374     2297     2096     1921     1854     1818     1709     1522 
    1316     1132      980      846      741      712      745      803 
     936     1111     1156     1088     1096     1217     1335     1352 
    1277     1233     1279     1336     1350     1274     1081      897 
     787      614      368      207      202      341      630     1030 
    1448     1819     2099     2326     2632     3011     3312     3528 
    3775     4087     4433     4727     4860     4858     4865     4932 
    4982     4946     4853     4764     4688     4637     4652     4729 
    4820     4926     5088     5333     5649     5923     5972     5795 
    5636     5695     5935     6180     6319     6430     6590     6709 
    6698     6602     6517     6535     6617     6596     6450     6336 
    6382     6628     6940     7102     7091     7003     6870     6755 
    6729     6705     6565     6384     6338     6450     6579     6589 
    6471     6340     6243     6092     5825     5497     5189     4932 
    4691     4423     4182     4005     3858     3754     3667     3433 
    3011     2644     2555     2641     2627     2386     2020     1686 
    1449     1308     1260     1313     1426     1493     1432     1351 
    1393     1544     1738     1926     2027     2011     1960     1992 
    2122     2281     2435     2559     2633     2731     2916     3171 
    3465     3731     3850     3790     3570     3190     2721     2270 
    1850     1462     1135      882      710      604      529      418 
     220       -6      -93       52      328      573      696      679 
     599      581      656      784      946     1077     1119     1065 
     930      807      756      668      487      256      -41     -414 
    -745     -822     -514       -5      375      567      764     1088 
    1422     1644     1790     1885     1858     1671     1355     1038 
     891      920      976      959      924      982     1201     1555 
    1966     2407     2844     3210     3497     3781     4089     4363 
    4513     4534     4544     4629     4711     4679     4482     4155 
    3813     3539     3342     3300     3555     4139     4904     5655 
    6295     6809     7190     7450     7634     7766     7773     7576 
    7295     7090     6890     6574     6123     5568     5005     4579 
    4328     4205     4180     4218     4214     4168     4214     4325 
    4280     4070     3947     4089     4445     4826     5116     5389 
    5701     5976     6168     6270     6345     6481     6662     6817 
    7001     7254     7534     7825     8110     8294     8325     8178 
    7843     7484     7315     7288     7222     7071     6876     6652 
    6404     6137     5842     5517     5159     4727     4143     3370 
    2432     1399      425     -367     -994    -1541    -2030    -2382 
   -2525    -2488    -2370    -2286    -2358    -2636    -2994    -3210 
   -3183    -2933    -2474    -1864    -1182     -391      580     1669 
    2714     3576     4205     4657     5049     5433     5725     5786 
    5582     5235     4928     4698     4438     4141     3908     3786 
    3766     3771     3693     3531     3353     3122     2794     2454 
    2187     2042     2085     2254     2351     2312     2262     2328 
    2547     2876     3275     3715     4117     4433     4703     4942 
    5086     5054     4828     4502     4189     3947     3813     3781 
    3801     3852     3908     3927     3955     4016     4001     3843 
    3592     3314     3018     2651     2201     1771     1426     1074 
     625      153     -224     -558     -972    -1428    -1782    -2083 
   -2531    -3057    -3375    -3418    -3271    -2898    -2346    -1780 
   -1175     -359      702     1863     2921     3786     4514     5128 
    5580     5948     6320     6583     6644     6632     6673     6762 
    6893     7069     7222     7298     7288     7186     7001     6801 
    6660     6520     6177     5584     4958     4402     3785     3049 
    2315     1775     1532     1512     1617     1810     2088     2488 
    2978     3388     3581     3588     3534     3561     3704     3819 
    3778     3666     3599     3549     3499     3537     3712     3923 
    4025     4060     4168     4275     4195     3952     3736     3662 
    3669     3616     3508     3450     3396     3250     3106     3111 
    3258     3458     3612     3646     3618     3684     3894     4118 
    4189     4063     3798     3429     2974     2494     1998     1445 
     919      584      475      507      573      552      421      244 
      -9     -329     -477     -319      -52      140      303      519 
     769      953     1023     1104     1341     1728     2174     2687 
    3283     3840     4237     4448     4477     4368     4194     3959 
    3658     3399     3273     3218     3161     3103     3059     3057 
    3118     3225     3379     3605     3917     4240     4415     4432 
    4459     4575     4680     4702     4680     4676     4704     4719 
    4691     4711     4835     4945     4893     4635     4199     3678 
    3199     2837     2617     2500     2380     2223     2068     1877 
    1570     1140      635      124     -325     -664     -810     -680 
    -321      135      631     1216     1911     2662     3443     4209 
    4754     4931     4800     4495     4147     3829     3542     3326 
    3234     3179     3037     2828     2637     2509     2411     2305 
    2258     2272     2230     2101     1910     1687     1521     1447 
    1404     1390     1456     1641     1968     2421     2957     3487 
    3931     4328     4749     5188     5614     6004     6303     6413 
    6292     6010     5656     5258     4804     4270     3672     3127 
    2758     2539     2322     2050     1879     1962     2247     2559 
    2789     2943     3038     3059     2974     2781     2552     2404 
    2382     2465     2632     2797     2791     2558     2205     1833 
    1453     1142     1082     1316     1678     2054     2465     2930 
    3451     3975     4386     4631     4795     5013     5278     5390 
    5290     5217     5350     5532     5522     5354     5217     5182 
    5221     5313     5400     5402     5267     4968     4606     4387 
    4419     4622     4769     4710     4529     4375     4256     4162 
    4156     4216     4205     4056     3812     3574     3434     3350 
    3184     2907     2596     2295     2047     1914     1891     1933 
    2045     2214     2359     2423     2416     2396     2409     2470 
    2620     2944     3383     3694     3789     3815     3840     3750 
    3438     2953     2484     2115     1737     1325     1053     1026 
    1129     1198     1197     1200     1287     1441     1566     1674 
    1867     2095     2226     2245     2178     2041     1875     1715 
    1618     1672     1895     2262     2785     3458     4197     4893 
    5494     6004     6451     6848     7157     7298     7209     6883 
    6426     5998     5683     5472     5240     4831     4317     3854 
    3416     2971     2641     2506     2439     2300     2165     2170 
    2295     2448     2614     2814     3028     3206     3406     3709 
    4091     4448     4707     4854     4911     4830     4571     4234 
    3948     3699     3388     3015     2702     2506     2388     2371 
    2524     2789     3007     3060     2998     2995     3130     3275 
    3312     3292     3292     3349     3538     3829     3944     3704 
    3288     2928     2577     2143     1815     1791     1996     2315 
    2797     3472     4194     4772     5115     5217     5154     5046 
    4922     4749     4544     4365     4294     4359     4453     4444 
    4401     4529     4837     5104     5225     5255     5131     4723 
    4095     3464     2987     2673     2386     2039     1702     1405 
    1080      760      560      486      477      527      615      670 
     681      722      824      950     1101     1313     1543     1795 
    2197     2755     3267     3559     3680     3802     3966     4059 
    4045     4027     4067     4104     4048     3908     3800     3871 
    4191     4726     5333     5817     6037     5960     5651     5188 
    4568     3807     3022     2309     1726     1347     1156     1034 
     930      938     1123     1439     1779     2046     2236     2471 
    2797     3064     3163     3176     3203     3223     3222     3233 
    3314     3530     3825     4006     3985     3862     3753     3692 
    3643     3554     3427     3321     3368     3669     4082     4351 
    4488     4676     4841     4808     4611     4349     4024     3616 
    3145     2698     2381     2124     1844     1663     1688     1837 
    2018     2227     2455     2671     2851     2940     2876     2686 
    2439     2142     1823     1557     1374     1231     1051      783 
     503      346      383      656     1142     1709     2241     2756 
    3331     3871     4156     4168     4099     4075     4048     3840 
    3370     2802     2330     2053     2010     2093     2207     2482 
    2986     3477     3751     3869     3889     3726     3373     2970 
    2685     2565     2461     2300     2219     2235     2263     2365 
    2579     2798     2911     2840     2527     2029     1486     1026 
     723      622      773     1162     1628     1987     2239     2502 
    2751     2839     2770     2685     2677     2741     2829     2959 
    3231     3689     4261     4819     5240     5522     5740     5907 
