Origin Time       2025/01/13 21:19:00
Lat.              31.8
Long.             131.6
Depth. (km)       30
Mag.              6.9
Station Code      OITH11
Station Lat.      33.2844
Station Long.     131.2118
Station Height(m) 300
Record Time       2025/01/13 21:20:00
Sampling Freq(Hz) 100Hz
Duration Time(s)  209
Dir.              1
Scale Factor      2942(gal)/8224139
Max. Acc. (gal)   2.514
Last Correction   2025/01/13 21:20:00
Memo.             
[...]
  163962   164043   164137   164265   164425   164606   164791   164956 
  165123   165315   165511   165689   165843   165956   166024   166036 
  165991   165921   165847   165771   165699   165626   165558   165495 
  165427   165366   165337   165353   165411   165477   165507   165472 
  165387   165283   165181   165106   165071   165059   165042   165025 
  165017   165013   165006   165014   165038   165069   165111   165175 
  165268   165379   165478   165559   165634   165688   165693   165620 
  165442   165184   164911   164667   164484   164382   164357   164403 
  164497   164600   164668   164671   164602   164489   164371   164277 
  164227   164239   164295   164363   164436   164498   164525   164527 
  164529   164536   164546   164567   164583   164579   164550   164489 
  164415   164351   164320   164323   164340   164358   164373   164374 
  164355   164327   164289   164238   164187   164154   164150   164169 
  164185   164169   164119   164069   164056   164100   164208   164358 
  164513   164652   164778   164898   164999   165060   165082   165055 
  164980   164890   164826   164813   164840   164899   164983   165072 
  165153   165221   165264   165283   165288   165285   165289   165318 
  165369   165441   165545   165693   165871   166032   166147   166224 
  166255   166224   166129   165971   165774   165581   165414   165273 
  165144   165001   164833   164658   164508   164415   164380   164400 
  164469   164563   164659   164735   164782   164813   164840   164872 
  164920   164974   165026   165086   165148   165195   165213   165187 
  165114   165010   164883   164732   164558   164351   164108   163867 
  163669   163532   163441   163390   163385   163441   163557   163722 
  163915   164123   164330   164511   164656   164771   164859   164934 
  165018   165105   165172   165200   165167   165080   164984   164906 
  164860   164845   164814   164732   164608   164467   164326   164174 
  163989   163769   163537   163333   163174   163058   162994   162990 
  163035   163111   163206   163316   163448   163595   163725   163819 
  163883   163919   163937   163939   163949   163993   164080   164188 
  164295   164388   164474   164559   164637   164708   164774   164840 
  164911   164982   165042   165090   165119   165142   165154   165142 
  165099   165034   164961   164903   164899   164983   165149   165384 
  165666   165958   166226   166444   166596   166695   166756   166789 
  166810   166839   166887   166943   167017   167113   167215   167306 
  167387   167445   167458   167422   167352   167263   167166   167067 
  166957   166822   166657   166475   166295   166126   165997   165939 
  165935   165942   165963   166000   166040   166090   166139   166171 
  166189   166195   166182   166135   166059   165978   165902   165836 
  165773   165708   165662   165657   165709   165815   165956   166118 
  166286   166442   166575   166683   166766   166826   166853   166838 
  166793   166750   166720   166706   166710   166737   166814   166939 
  167086   167229   167348   167416   167433   167400   167306   167163 
  166996   166827   166664   166504   166347   166207   166106   166032 
  165973   165931   165915   165923   165950   165997   166064   166145 
  166222   166260   166240   166162   166021   165835   165640   165461 
  165312   165213   165169   165176   165229   165325   165466   165642 
  165812   165943   166023   166055   166045   166002   165935   165851 
  165759   165669   165593   165512   165395   165237   165032   164793 
  164562   164365   164197   164019   163798   163547   163263   162920 
  162527   162124   161757   161482   161326   161265   161273   161333 
  161427   161558   161730   161925   162128   162341   162567   162807 
  163053   163285   163499   163707   163937   164195   164448   164666 
  164837   164956   165033   165079   165096   165082   165036   164963 
  164870   164767   164664   164571   164489   164404   164315   164227 
  164142   164058   163969   163868   163765   163665   163567   163485 
  163421   163379   163371   163401   163460   163555   163691   163858 
  164030   164182   164309   164411   164490   164539   164551   164535 
  164511   164506   164559   164670   164817   164960   165067   165126 
  165141   165126   165106   165087   165080   165099   165146   165223 
  165331   165453   165581   165713   165828   165901   165925   165915 
  165890   165866   165842   165802   165744   165677   165622   165599 
  165612   165639   165650   165624   165562   165466   165348   165227 
  165115   164997   164874   164754   164637   164548   164502   164505 
  164563   164667   164790   164909   165017   165122   165235   165345 
  165453   165580   165716   165840   165954   166060   166144   166205 
  166245   166280   166326   166384   166457   166548   166645   166731 
  166796   166828   166816   166766   166695   166619   166548   166488 
  166441   166403   166359   166284   166180   166074   165989   165936 
  165909   165900   165904   165906   165890   165865   165848   165854 
  165875   165890   165892   165892   165892   165892   165900   165932 
  165977   166004   165997   165971   165952   165952   165967   165982 
  165967   165898   165775   165613   165412   165164   164887   164616 
  164361   164115   163895   163691   163480   163274   163113   163019 
  163003   163059   163147   163223   163274   163304   163317   163332 
  163370   163463   163641   163898   164192   164482   164731   164920 
  165059   165146   165160   165106   165017   164911   164802   164681 
  164538   164381   164216   164049   163898   163763   163634   163525 
  163452   163428   163447   163502   163584   163675   163760   163822 
  163852   163845   163803   163741   163684   163649   163652   163702 
  163791   163899   164008   164110   164208   164304   164401   164512 
  164643   164790   164964   165172   165400   165611   165771   165863 
  165881   165831   165734   165616   165496   165385   165294   165217 
  165138   165042   164933   164837   164766   164729   164740   164797 
  164898   165032   165184   165365   165580   165813   166043   166244 
  166398   166503   166560   166585   166608   166660   166758   166916 
  167121   167337   167553   167753   167919   168042   168118   168130 
  168048   167852   167556   167190   166783   166375   166020   165750 
  165564   165447   165380   165338   165294   165231   165150   165065 
  164991   164929   164859   164755   164602   164393   164128   163841 
  163563   163324   163140   162997   162896   162870   162947   163132 
  163406   163726   164050   164339   164592   164825   165034   165217 
  165373   165499   165585   165623   165597   165497   165329   165110 
  164862   164601   164367   164184   164025   163865   163683   163468 
  163236   163028   162882   162801   162781   162843   162993   163237 
  163580   163988   164394   164748   165011   165172   165249   165273 
  165273   165275   165292   165315   165342   165383   165429   165478 
  165549   165654   165798   165974   166179   166388   166583   166762 
  166931   167096   167274   167470   167670   167836   167937   167965 
  167919   167823   167699   167553   167382   167193   167005   166841 
  166699   166576   166467   166351   166216   166072   165933   165819 
  165738   165680   165638   165613   165608   165615   165603   165545 
  165434   165284   165110   164925   164743   164554   164324   164027 
  163667   163273   162869   162486   162170   161959   161846   161811 
  161833   161885   161943   161989   162029   162079   162140   162206 
  162279   162359   162442   162534   162641   162766   162903   163043 
  163206   163402   163626   163883   164164   164447   164710   164916 
  165052   165127   165153   165149   165138   165126   165092   165009 
  164853   164616   164304   163944   163561   163189   162847   162546 
  162301   162118   161994   161913   161867   161838   161811   161789 
  161773   161747   161707   161658   161620   161609   161626   161673 
  161738   161788   161806   161802   161792   161798   161840   161944 
  162120   162357   162638   162945   163256   163576   163903   164222 
  164525   164816   165086   165335   165573   165812   166048   166264 
  166449   166590   166684   166735   166731   166673   166590   166491 
  166374   166234   166058   165843   165611   165379   165173   165011 
  164894   164832   164826   164879   164994   165159   165368   165619 
  165877   166120   166352   166564   166753   166931   167100   167270 
  167452   167663   167908   168188   168488   168786   169072   169350 
  169609   169835   170024   170171   170280   170365   170434   170480 
  170483   170428   170311   170135   169902   169643   169381   169138 
  168941   168801   168708   168647   168596   168535   168461   168370 
  168286   168227   168193   168176   168160   168137   168103   168043 
  167952   167814   167643   167470   167308   167163   167043   166932 
  166826   166753   166734   166773   166872   167008   167148   167265 
  167352   167395   167366   167275   167130   166914   166630   166291 
  165913   165528   165154   164789   164416   164027   163622   163208 
  162801   162432   162116   161848   161626   161441   161279   161131 
  161009   160929   160913   160969   161117   161361   161659   161955 
  162232   162492   162747   163015   163306   163609   163907   164173 
  164376   164489   164531   164517   164439   164289   164087   163857 
  163624   163404   163182   162950   162714   162473   162213   161931 
  161650   161403   161221   161114   161068   161053   161067   161114 
  161194   161292   161400   161518   161649   161800   161959   162105 
  162222   162302   162352   162405   162468   162535   162596   162657 
  162731   162830   162939   163030   163086   163092   163043   162972 
  162903   162838   162785   162741   162702   162666   162621   162573 
  162549   162557   162595   162646   162685   162695   162688   162714 
  162812   163012   163308   163676   164095   164543   164984   165396 
  165786   166168   166542   166901   167238   167536   167780   167985 
  168176   168357   168538   168736   168922   169083   169242   169408 
  169582   169767   169959   170155   170344   170515   170664   170772 
  170829   170839   170802   170716   170606   170483   170368   170272 
  170186   170108   170019   169894   169728   169533   169346   169203 
  169114   169079   169083   169099   169102   169064   168982   168859 
  168702   168525   168345   168156   167949   167714   167441   167128 
  166762   166349   165896   165407   164899   164407   163948   163540 
  163189   162889   162637   162432   162272   162171   162144   162186 
  162260   162340   162406   162438   162427   162388   162332   162263 
  162193   162135   162095   162070   162039   161981   161894   161805 
  161731   161693   161705   161757   161838   161947   162063   162166 
  162248   162319   162379   162411   162426   162440   162450   162464 
  162500   162580   162700   162854   163050   163274   163512   163752 
  163993   164236   164479   164721   164952   165172   165383   165589 
  165789   165983   166185   166414   166681   166992   167335   167679 
  168010   168318   168570   168745   168855   168913   168932   168920 
  168887   168849   168813   168767   168709   168655   168627   168629 
  168652   168662   168627   168543   168424   168272   168110   167962 
  167819   167671   167521   167397   167312   167259   167232   167217 
  167206   167209   167243   167313   167412   167530   167660   167787 
  167903   167992   168050   168085   168095   168076   168031   167961 
  167864   167742   167598   167448   167302   167163   167028   166891 
  166733   166536   166295   166020   165723   165416   165121   164853 
  164625   164434   164274   164127   163991   163871   163772   163725 
  163761   163867   164022   164191   164328   164421   164478   164486 
  164438   164332   164187   164015   163818   163594   163363   163146 
  162946   162777   162679   162661   162693   162743   162796   162845 
  162885   162924   162958   162980   162993   162993   162974   162927 
  162828   162685   162515   162324   162132   161958   161811   161693 
  161597   161505   161418   161323   161195   161025   160836   160620 
  160371   160124   159906   159733   159636   159621   159665   159759 
  159888   160050   160258   160504   160776   161071   161374   161653 
  161887   162074   162220   162344   162461   162575   162689   162788 
  162865   162926   162966   162989   163008   163032   163065   163090 
  163104   163105   163080   163008   162901   162799   162727   162688 
  162681   162706   162750   162824   162939   163086   163269   163497 
  163741   163946   164084   164143   164128   164072   164002   163907 
  163782   163640   163505   163385   163283   163205   163154   163123 
  163105   163100   163109   163143   163210   163301   163408   163540 
  163692   163844   163985   164130   164274   164421   164570   164693 
  164793   164890   164987   165094   165213   165341   165484   165654 
  165865   166108   166348   166564   166761   166934   167081   167209 
  167328   167445   167562   167659   167714   167710   167667   167614 
  167564   167513   167467   167435   167416   167404   167397   167409 
  167452   167528   167624   167719   167817   167922   168033   168166 
  168331   168515   168729   168986   169264   169535   169786   170028 
  170264   170515   170802   171111   171424   171714   171942   172066 
  172065   171937   171710   171412   171078   170752   170452   170189 
  169975   169789   169587   169350   169072   168752   168419   168097 
  167802   167540   167308   167097   166901   166702   166483   166268 
  166095   165970   165882   165828   165773   165686   165566   165410 
  165222   165019   164818   164624   164431   164228   163995   163714 
  163389   163032   162658   162284   161909   161526   161145   160780 
  160439   160135   159877   159675   159536   159460   159443   159464 
  159495   159521   159543   159567   159594   159613   159614   159584 
  159506   159371   159197   159008   158832   158700   158631   158635 
  158697   158804   158940   159109   159317   159557   159821   160081 
  160326   160562   160809   161075   161365   161676   161997   162321 
  162638   162918   163139   163301   163417   163517   163638   163777 
  163908   164014   164080   164107   164099   164060   163973   163830 
  163641   163443   163273   163152   163093   163096   163154   163246 
  163352   163462   163568   163660   163734   163790   163830   163868 
  163929   164030   164180   164382   164621   164875   165144   165420 
  165693   165955   166182   166336   166402   166375   166272   166128 
  165973   165824   165712   165655   165647   165676   165728   165804 
  165916   166072   166261   166469   166676   166870   167059   167248 
  167429   167602   167749   167856   167902   167854   167703   167481 
  167209   166896   166575   166275   166010   165809   165700   165677 
  165726   165817   165924   166031   166140   166271   166422   166573 
  166712   166835   166946   167058   167179   167314   167478   167675 
  167911   168183   168459   168705   168883   168961   168937   168822 
  168646   168448   168264   168107   167988   167904   167833   167771 
  167732   167718   167715   167711   167697   167655   167566   167429 
  167275   167143   167051   167003   167008   167062   167144   167236 
  167312   167350   167344   167302   167240   167192   167173   167181 
  167227   167306   167387   167459   167530   167611   167703   167798 
  167886   167958   167995   167981   167922   167830   167725   167629 
  167543   167463   167394   167323   167244   167158   167044   166892 
  166703   166491   166275   166079   165933   165852   165824   165824 
  165840   165854   165859   165870   165902   165964   166062   166185 
  166317   166450   166590   166743   166931   167148   167383   167640 
  167923   168220   168498   168732   168912   169037   169105   169106 
  169048   168951   168828   168689   168540   168376   168197   168003 
  167787   167543   167251   166893   166480   166036   165592   165176 
  164790   164420   164066   163722   163381   163059   162772   162538 
  162369   162255   162175   162102   162009   161889   161746   161596 
  161469   161385   161353   161364   161400   161433   161450   161457 
  161441   161393   161326   161254   161184   161119   161060   161006 
  160961   160918   160874   160834   160801   160787   160818   160914 
  161090   161333   161597   161839   162032   162164   162247   162291 
  162313   162344   162407   162508   162645   162793   162923   163030 
  163109   163166   163223   163304   163414   163536   163628   163665 
  163647   163582   163476   163331   163161   162989   162843   162743 
  162691   162670   162668   162661   162652   162657   162683   162730 
  162795   162859   162928   163007   163082   163138   163155   163119 
  163036   162922   162799   162696   162619   162567   162530   162491 
  162440   162373   162283   162149   161970   161750   161504   161253 
  161019   160813   160652   160550   160494   160474   160466   160451 
  160427   160390   160346   160307   160290   160299   160332   160409 
  160539   160702   160880   161055   161226   161423   161674   162000 
  162403   162874   163389   163911   164407   164864   165269   165612 
  165908   166186   166467   166760   167065   167373   167682   167985 
  168278   168552   168787   168968   169106   169210   169268   169275 
  169249   169210   169177   169160   169149   169146   169161   169192 
  169233   169285   169352   169430   169520   169628   169761   169913 
  170082   170263   170441   170614   170777   170908   170992   171022 
  171000   170947   170873   170764   170615   170425   170194   169929 
  169646   169356   169057   168737   168393   168027   167641   167242 
  166845   166452   166071   165711   165356   165009   164685   164394 
  164150   163949   163788   163682   163638   163648   163696   163769 
  163846   163921   164006   164093   164158   164197   164208   164187 
  164133   164038   163925   163825   163723   163595   163432   163231 
  162994   162730   162446   162174   161952   161802   161734   161736 
  161797   161890   161983   162067   162141   162209   162283   162378 
  162504   162675   162896   163165   163476   163809   164134   164432 
  164675   164843   164934   164945   164878   164749   164585   164412 
  164245   164095   163961   163821   163653   163458   163217   162932 
  162629   162315   162014   161755   161536   161356   161229   161165 
  161184   161289   161468   161723   162059   162457   162907   163404 
  163931   164481   165044   165604   166155   166691   167196   167656 
  168062   168396   168636   168798   168893   168922   168889   168799 
  168655   168453   168203   167937   167653   167332   166978   166598 
  166205   165831   165483   165149   164849   164604   164413   164269 
  164157   164057   163965   163904   163904   163984   164142   164347 
  164569   164799   165037   165271   165496   165713   165919   166104 
  166268   166413   166513   166554   166541   166463   166311   166097 
  165850   165585   165298   165002   164713   164423   164135   163864 
