Origin Time       2025/01/13 21:19:00
Lat.              31.8
Long.             131.6
Depth. (km)       30
Mag.              6.9
Station Code      OITH11
Station Lat.      33.2844
Station Long.     131.2118
Station Height(m) 300
Record Time       2025/01/13 21:20:00
Sampling Freq(Hz) 100Hz
Duration Time(s)  209
Dir.              3
Scale Factor      2942(gal)/8224139
Max. Acc. (gal)   1.822
Last Correction   2025/01/13 21:20:00
Memo.             
[...]
   12537    12453    12406    12422    12496    12591    12692    12798 
   12891    12955    12978    12968    12942    12891    12804    12710 
   12625    12538    12457    12388    12340    12318    12324    12352 
   12417    12518    12645    12793    12942    13074    13178    13244 
   13273    13290    13328    13392    13483    13612    13768    13941 
   14108    14245    14342    14405    14453    14493    14521    14544 
   14585    14661    14782    14962    15187    15422    15635    15805 
   15915    15959    15961    15940    15898    15828    15739    15653 
   15577    15498    15390    15237    15043    14837    14642    14465 
   14318    14207    14134    14080    14022    13954    13884    13828 
   13788    13772    13787    13825    13878    13952    14052    14193 
   14384    14612    14862    15128    15395    15630    15804    15917 
   15981    16004    15994    15951    15880    15809    15758    15732 
   15742    15805    15920    16065    16222    16393    16545    16650 
   16706    16713    16669    16596    16510    16414    16314    16212 
   16113    16024    15938    15843    15742    15650    15580    15546 
   15552    15601    15703    15849    16012    16156    16260    16325 
   16345    16316    16235    16110    15958    15784    15587    15375 
   15169    14985    14798    14585    14339    14075    13825    13613 
   13437    13312    13258    13269    13344    13482    13655    13857 
   14106    14389    14685    14975    15241    15476    15691    15877 
   16036    16186    16317    16422    16524    16637    16784    16974 
   17186    17402    17601    17772    17915    18017    18084    18131 
   18158    18164    18139    18069    17937    17763    17582    17423 
   17302    17236    17215    17216    17236    17265    17282    17275 
   17220    17096    16918    16704    16468    16229    16015    15831 
   15676    15545    15423    15288    15142    14991    14828    14651 
   14454    14234    14015    13798    13567    13335    13105    12870 
   12641    12432    12249    12097    11978    11892    11832    11803 
   11803    11831    11885    11950    12008    12059    12108    12151 
   12181    12201    12209    12190    12139    12075    12035    12052 
   12154    12337    12592    12908    13258    13609    13933    14218 
   14490    14770    15044    15313    15600    15920    16271    16649 
   17031    17390    17705    17964    18141    18202    18146    17994 
   17756    17466    17155    16837    16524    16221    15920    15607 
   15282    14937    14573    14191    13803    13435    13095    12799 
   12572    12406    12278    12179    12101    12036    11986    11932 
   11854    11755    11654    11566    11503    11476    11483    11502 
   11541    11615    11713    11846    12036    12252    12472    12698 
   12918    13135    13354    13564    13779    14003    14241    14512 
   14813    15114    15411    15704    15961    16185    16401    16591 
   16726    16803    16811    16745    16617    16448    16254    16038 
   15797    15542    15298    15098    14967    14893    14843    14806 
   14798    14820    14860    14908    14932    14908    14835    14716 
   14542    14307    14011    13664    13292    12938    12634    12384 
   12212    12113    12059    12043    12056    12086    12133    12185 
   12241    12312    12380    12430    12442    12410    12361    12301 
   12222    12137    12050    11962    11894    11866    11880    11939 
   12040    12174    12325    12464    12575    12676    12779    12884 
   12981    13035    13036    13012    12985    12968    12982    13045 
   13139    13239    13340    13429    13495    13533    13531    13490 
   13429    13360    13315    13323    13398    13559    13799    14092 
   14412    14742    15060    15357    15622    15853    16069    16274 
   16460    16629    16781    16919    17031    17107    17135    17105 
   17011    16861    16675    16480    16286    16100    15938    15792 
   15655    15549    15472    15426    15412    15423    15439    15460 
   15499    15558    15631    15728    15858    16016    16185    16343 
   16470    16541    16546    16490    16371    16187    15962    15727 
   15506    15311    15156    15040    14960    14909    14875    14860 
   14870    14883    14886    14878    14864    14856    14866    14902 
   14987    15129    15309    15496    15669    15807    15896    15950 
   15986    16008    16006    15978    15924    15865    15811    15753 
   15688    15626    15569    15535    15534    15552    15565    15542 
   15465    15350    15229    15130    15078    15079    15120    15184 
   15275    15391    15522    15655    15774    15880    15974    16051 
   16113    16159    16182    16185    16168    16129    16079    16012 
   15935    15877    15863    15901    16001    16155    16335    16498 
   16614    16679    16691    16648    16555    16432    16294    16155 
   16015    15859    15672    15454    15198    14909    14613    14328 
   14062    13814    13597    13419    13255    13090    12935    12803 
   12696    12599    12479    12320    12113    11880    11647    11404 
   11144    10893    10659    10459    10320    10257    10281    10390 
   10562    10777    11014    11254    11497    11746    11990    12236 
   12469    12668    12846    13020    13204    13393    13570    13745 
   13932    14118    14299    14480    14675    14902    15168    15473 
   15805    16141    16465    16761    17004    17188    17311    17388 
   17450    17510    17571    17624    17682    17766    17876    18003 
   18144    18280    18389    18470    18500    18469    18385    18250 
   18077    17887    17678    17462    17243    17016    16783    16557 
   16344    16119    15874    15612    15319    14975    14596    14195 
   13792    13428    13097    12788    12536    12355    12214    12120 
   12113    12177    12279    12432    12619    12816    13024    13228 
   13401    13528    13637    13749    13869    14018    14208    14431 
   14683    14956    15246    15562    15917    16294    16642    16922 
   17123    17238    17274    17263    17227    17186    17158    17139 
   17138    17162    17197    17224    17221    17150    17001    16794 
   16551    16313    16078    15826    15577    15333    15086    14864 
   14682    14530    14399    14280    14152    14017    13887    13755 
   13609    13489    13421    13396    13398    13406    13382    13333 
   13292    13269    13278    13319    13367    13432    13533    13660 
   13795    13942    14096    14247    14397    14546    14690    14816 
   14906    14958    14967    14929    14845    14720    14570    14420 
   14283    14176    14114    14104    14149    14235    14361    14532 
   14739    14956    15171    15368    15530    15653    15741    15789 
   15795    15773    15750    15734    15728    15734    15742    15761 
   15790    15815    15824    15817    15782    15714    15614    15481 
   15314    15120    14902    14666    14428    14204    13999    13803 
   13632    13498    13408    13366    13373    13408    13460    13521 
   13575    13606    13599    13585    13581    13560    13536    13545 
   13570    13608    13675    13771    13913    14130    14423    14778 
   15174    15577    15955    16271    16501    16657    16757    16818 
   16870    16922    16965    17003    17022    17020    17026    17051 
   17086    17104    17088    17045    16987    16919    16838    16746 
   16646    16530    16394    16252    16119    16011    15950    15925 
   15915    15921    15952    16005    16083    16179    16251    16276 
   16263    16217    16152    16090    16040    15988    15915    15832 
   15750    15674    15620    15581    15550    15535    15547    15583 
   15634    15696    15763    15826    15862    15858    15797    15672 
   15502    15319    15138    14974    14829    14694    14553    14396 
   14238    14102    13991    13911    13855    13795    13736    13679 
   13622    13593    13602    13636    13680    13713    13717    13702 
   13689    13693    13729    13799    13907    14048    14195    14312 
   14388    14438    14486    14540    14585    14602    14601    14596 
   14598    14620    14661    14705    14736    14756    14783    14829 
   14914    15052    15223    15404    15565    15684    15750    15739 
   15635    15449    15202    14912    14584    14220    13844    13482 
   13149    12841    12564    12321    12104    11917    11751    11600 
   11472    11362    11265    11187    11122    11057    10987    10916 
   10856    10825    10818    10814    10797    10787    10813    10882 
   10991    11133    11304    11502    11705    11881    12016    12124 
   12216    12329    12492    12706    12969    13261    13529    13749 
   13921    14052    14162    14273    14396    14513    14609    14694 
   14763    14802    14827    14844    14856    14883    14945    15057 
   15221    15414    15611    15785    15916    15994    16015    15984 
   15917    15828    15724    15620    15514    15407    15298    15180 
   15063    14949    14851    14783    14748    14720    14678    14608 
   14503    14382    14283    14223    14214    14258    14350    14489 
   14671    14870    15064    15256    15442    15614    15786    15965 
   16152    16352    16546    16714    16846    16915    16923    16914 
   16891    16853    16823    16806    16803    16842    16939    17100 
   17320    17581    17855    18119    18364    18567    18701    18765 
   18770    18731    18663    18576    18472    18354    18219    18065 
   17894    17713    17528    17338    17138    16929    16725    16563 
   16470    16436    16436    16441    16422    16366    16286    16204 
   16117    16029    15962    15905    15857    15819    15786    15754 
   15712    15655    15572    15456    15323    15211    15160    15192 
   15296    15453    15638    15819    15966    16059    16092    16075 
   16017    15911    15745    15526    15280    15040    14829    14634 
   14427    14203    13940    13629    13300    12965    12644    12353 
   12094    11877    11700    11551    11442    11380    11349    11350 
   11388    11435    11473    11500    11511    11506    11502    11519 
   11561    11628    11715    11805    11886    11967    12052    12131 
   12210    12314    12456    12644    12879    13135    13396    13657 
   13900    14123    14330    14500    14617    14686    14713    14720 
   14731    14755    14783    14796    14782    14747    14686    14604 
   14516    14430    14327    14184    14006    13813    13618    13448 
   13301    13155    13016    12868    12676    12436    12167    11894 
   11651    11462    11327    11244    11199    11160    11124    11105 
   11087    11072    11088    11146    11242    11373    11526    11677 
   11819    11940    12039    12124    12217    12317    12424    12529 
   12613    12661    12672    12649    12615    12619    12688    12820 
   13031    13328    13690    14092    14527    14978    15407    15785 
   16125    16448    16753    17042    17298    17516    17695    17859 
   18026    18203    18365    18503    18620    18720    18816    18913 
   18999    19067    19113    19133    19136    19136    19144    19152 
   19137    19086    18990    18855    18688    18495    18284    18068 
   17849    17637    17437    17251    17065    16875    16671    16447 
   16189    15892    15572    15242    14910    14590    14291    14006 
   13738    13500    13289    13105    12947    12808    12669    12521 
   12374    12231    12094    11974    11870    11780    11704    11626 
   11522    11388    11232    11080    10956    10858    10781    10740 
   10729    10732    10743    10750    10741    10735    10727    10701 
   10669    10650    10648    10669    10719    10801    10906    11021 
   11136    11233    11304    11365    11429    11510    11622    11767 
   11934    12131    12367    12625    12884    13134    13362    13572 
   13772    13984    14234    14526    14832    15124    15400    15664 
   15894    16082    16233    16351    16433    16503    16573    16638 
   16696    16745    16783    16816    16860    16930    17031    17154 
   17292    17416    17516    17609    17699    17783    17861    17921 
   17957    17972    17961    17952    17972    18007    18041    18067 
   18083    18100    18137    18184    18245    18319    18389    18439 
   18443    18378    18245    18052    17805    17513    17178    16806 
   16413    16023    15645    15286    14963    14683    14454    14280 
   14168    14102    14062    14033    14018    14019    14033    14048 
   14069    14118    14203    14327    14490    14678    14864    15052 
   15229    15380    15527    15680    15834    15998    16179    16367 
   16545    16700    16835    16958    17076    17189    17296    17415 
   17562    17732    17909    18064    18173    18226    18206    18106 
   17955    17787    17604    17402    17199    16992    16785    16607 
   16465    16352    16289    16285    16326    16417    16548    16694 
   16842    16991    17122    17215    17267    17274    17248    17217 
   17193    17184    17188    17189    17181    17162    17118    17037 
   16914    16745    16544    16336    16124    15916    15716    15519 
   15342    15190    15047    14899    14729    14516    14261    13971 
   13659    13329    12981    12615    12245    11880    11533    11225 
   10963    10754    10605    10507    10431    10350    10261    10164 
   10054     9934     9813     9706     9630     9590     9595     9668 
    9818    10035    10301    10604    10932    11264    11573    11861 
   12129    12374    12598    12798    12962    13074    13126    13101 
   13007    12860    12673    12474    12283    12108    11947    11788 
   11622    11452    11281    11136    11025    10949    10914    10917 
   10957    11033    11138    11264    11396    11541    11707    11897 
   12109    12316    12494    12657    12807    12926    13003    13026 
   13003    12960    12897    12800    12663    12486    12274    12021 
   11732    11418    11103    10820    10584    10404    10288    10226 
   10208    10238    10299    10388    10520    10698    10909    11167 
   11481    11826    12187    12553    12874    13134    13354    13540 
   13707    13878    14054    14239    14445    14663    14910    15191 
   15488    15795    16097    16355    16540    16634    16650    16614 
   16565    16530    16499    16471    16448    16418    16380    16344 
   16318    16290    16248    16191    16112    16021    15951    15907 
   15873    15847    15849    15885    15963    16089    16254    16430 
   16591    16726    16846    16970    17107    17254    17408    17551 
   17659    17720    17739    17722    17663    17571    17486    17416 
   17366    17356    17392    17454    17527    17595    17644    17667 
   17664    17626    17558    17483    17424    17381    17346    17309 
   17275    17244    17215    17190    17178    17182    17190    17186 
   17185    17194    17208    17232    17263    17292    17324    17365 
   17408    17456    17505    17551    17602    17658    17709    17751 
   17775    17770    17739    17709    17695    17693    17698    17702 
   17693    17671    17626    17539    17398    17211    16977    16708 
   16432    16154    15876    15607    15353    15101    14836    14566 
   14287    13991    13684    13381    13084    12787    12496    12231 
   11998    11807    11634    11468    11314    11163    11020    10918 
   10859    10827    10835    10879    10943    11010    11059    11080 
   11067    11029    11005    11028    11115    11260    11446    11658 
   11873    12079    12266    12402    12482    12514    12492    12432 
   12334    12186    12001    11813    11630    11460    11340    11269 
   11225    11199    11192    11207    11254    11329    11411    11491 
   11558    11616    11672    11732    11796    11861    11938    12033 
   12145    12289    12478    12711    12984    13279    13585    13886 
   14170    14428    14655    14864    15060    15228    15356    15441 
   15480    15483    15462    15423    15368    15287    15186    15088 
   14998    14917    14847    14782    14721    14678    14650    14642 
   14681    14773    14897    15057    15257    15488    15738    15994 
   16248    16503    16760    17022    17300    17575    17826    18048 
   18235    18369    18442    18468    18465    18439    18399    18349 
   18281    18187    18064    17913    17745    17601    17486    17383 
   17302    17239    17170    17093    17004    16899    16803    16731 
   16677    16627    16557    16444    16293    16109    15907    15720 
   15568    15446    15356    15304    15294    15322    15399    15538 
   15724    15936    16147    16329    16467    16560    16617    16649 
   16663    16652    16599    16506    16382    16216    16013    15786 
   15526    15223    14871    14466    14013    13522    13026    12555 
   12127    11755    11448    11195    11016    10910    10854    10837 
   10854    10878    10910    10943    10960    10972    10987    11002 
   11030    11076    11129    11184    11248    11308    11357    11385 
   11391    11383    11371    11358    11365    11402    11452    11516 
   11596    11676    11736    11772    11785    11781    11758    11715 
   11658    11607    11570    11543    11530    11531    11541    11584 
   11691    11865    12093    12353    12634    12923    13216    13525 
   13849    14177    14505    14824    15124    15423    15714    15974 
   16208    16418    16600    16769    16949    17146    17359    17562 
   17722    17824    17865    17864    17832    17784    17751    17739 
   17737    17751    17775    17795    17829    17879    17929    17965 
   17967    17911    17801    17662    17508    17352    17205    17064 
   16934    16835    16784    16769    16772    16780    16781    16757 
   16692    16591    16464    16333    16214    16117    16036    15970 
   15928    15905    15889    15877    15862    15831    15784    15711 
   15604    15481    15353    15209    15053    14908    14773    14636 
   14503    14377    14260    14133    13996    13872    13761    13656 
   13568    13497    13435    13397    13390    13406    13439    13479 
   13518    13562    13616    13678    13751    13822    13875    13905 
   13907    13896    13900    13907    13896    13886    13865    13828 
   13787    13743    13678    13609    13547    13489    13437    13400 
   13383    13394    13427    13489    13585    13706    13845    13987 
   14127    14273    14430    14597    14767    14928    15083    15240 
   15392    15542    15691    15842    15990    16133    16287    16447 
   16605    16780    16980    17190    17409    17628    17820    17959 
   18053    18115    18142    18134    18096    18023    17915    17783 
   17639    17494    17338    17154    16933    16659    16326    15946 
   15523    15083    14639    14197    13774    13371    12988    12638 
   12318    12010    11715    11439    11202    11010    10860    10748 
   10685    10669    10681    10694    10712    10758    10824    10898 
   10993    11102    11222    11357    11512    11686    11863    12048 
   12237    12425    12630    12854    13081    13305    13524    13732 
   13922    14095    14258    14418    14563    14701    14839    14970 
