Origin Time       2025/01/13 21:19:00
Lat.              31.8
Long.             131.6
Depth. (km)       30
Mag.              6.9
Station Code      OITH05
Station Lat.      33.1525
Station Long.     131.5420
Station Height(m) 160
Record Time       2025/01/13 21:19:56
Sampling Freq(Hz) 100Hz
Duration Time(s)  154
Dir.              6
Scale Factor      7845(gal)/8223790
Max. Acc. (gal)   5.013
Last Correction   2025/01/13 21:19:56
Memo.             
[...]
   -5418    -5356    -5348    -5304    -5194    -5093    -5089    -5174 
   -5231    -5206    -5157    -5107    -5089    -5148    -5216    -5224 
   -5228    -5316    -5513    -5763    -5967    -6068    -6093    -6126 
   -6210    -6262    -6203    -6053    -5857    -5680    -5578    -5536 
   -5499    -5404    -5246    -5140    -5142    -5194    -5267    -5343 
   -5381    -5398    -5416    -5402    -5404    -5498    -5651    -5746 
   -5713    -5567    -5444    -5444    -5487    -5418    -5244    -5134 
   -5170    -5252    -5277    -5243    -5236    -5316    -5408    -5452 
   -5526    -5711    -5946    -6060    -6000    -5927    -5954    -5998 
   -5999    -6016    -6072    -6070    -5965    -5819    -5707    -5648 
   -5597    -5479    -5343    -5286    -5305    -5377    -5483    -5559 
   -5606    -5694    -5821    -5956    -6058    -6108    -6162    -6215 
   -6143    -5900    -5582    -5351    -5312    -5367    -5362    -5300 
   -5225    -5077    -4838    -4590    -4422    -4392    -4490    -4621 
   -4704    -4768    -4914    -5231    -5641    -5922    -5976    -5958 
   -6022    -6115    -6193    -6327    -6455    -6481    -6448    -6369 
   -6247    -6193    -6191    -6075    -5818    -5552    -5404    -5373 
   -5355    -5300    -5252    -5220    -5162    -5089    -5071    -5136 
   -5244    -5387    -5579    -5756    -5857    -5944    -6048    -6097 
   -6104    -6124    -6147    -6200    -6286    -6278    -6106    -5844 
   -5617    -5522    -5533    -5555    -5555    -5514    -5433    -5398 
   -5485    -5675    -5908    -6138    -6292    -6297    -6192    -6139 
   -6222    -6343    -6382    -6328    -6181    -5895    -5455    -4946 
   -4558    -4469    -4642    -4870    -5008    -5053    -5040    -4977 
   -4822    -4637    -4595    -4765    -5076    -5436    -5756    -6000 
   -6164    -6150    -5886    -5579    -5494    -5524    -5459    -5347 
   -5251    -5132    -5081    -5233    -5539    -5829    -6008    -6062 
   -6029    -5961    -5863    -5732    -5649    -5661    -5734    -5783 
   -5775    -5768    -5775    -5761    -5711    -5570    -5333    -5103 
   -4954    -4943    -5051    -5166    -5267    -5452    -5679    -5807 
   -5865    -6034    -6357    -6640    -6647    -6350    -5973    -5726 
   -5665    -5800    -6033    -6177    -6268    -6451    -6650    -6693 
   -6550    -6270    -5961    -5736    -5591    -5483    -5410    -5343 
   -5231    -5128    -5148    -5258    -5300    -5186    -4949    -4664 
   -4430    -4329    -4356    -4441    -4530    -4591    -4622    -4687 
   -4850    -5108    -5443    -5825    -6187    -6432    -6486    -6392 
   -6320    -6354    -6417    -6390    -6262    -6133    -6014    -5849 
   -5671    -5506    -5293    -5030    -4777    -4604    -4560    -4573 
   -4537    -4525    -4679    -4954    -5247    -5529    -5738    -5852 
   -5989    -6193    -6315    -6270    -6174    -6188    -6276    -6204 
   -5899    -5570    -5413    -5413    -5435    -5424    -5397    -5285 
   -5117    -5103    -5216    -5256    -5206    -5039    -4766    -4638 
   -4758    -4992    -5278    -5539    -5611    -5460    -5240    -5123 
   -5185    -5364    -5509    -5587    -5690    -5744    -5714    -5864 
   -6282    -6673    -6833    -6853    -6858    -6880    -6887    -6781 
   -6542    -6300    -6093    -5814    -5440    -5119    -5008    -5121 
   -5282    -5301    -5173    -5008    -4801    -4506    -4279    -4320 
   -4544    -4757    -4914    -5066    -5269    -5470    -5536    -5459 
   -5422    -5575    -5859    -6106    -6268    -6408    -6543    -6642 
   -6701    -6772    -6889    -6979    -6949    -6844    -6762    -6633 
   -6377    -6065    -5782    -5545    -5404    -5364    -5336    -5302 
   -5354    -5483    -5545    -5508    -5517    -5629    -5729    -5736 
   -5686    -5616    -5474    -5273    -5157    -5171    -5248    -5391 
   -5557    -5514    -5212    -4939    -4861    -4855    -4838    -4806 
   -4826    -5054    -5421    -5660    -5709    -5659    -5563    -5459 
   -5416    -5475    -5591    -5664    -5598    -5375    -5113    -4995 
   -5074    -5186    -5197    -5212    -5329    -5486    -5691    -5967 
   -6142    -6087    -5925    -5782    -5638    -5479    -5331    -5250 
   -5308    -5485    -5664    -5748    -5690    -5555    -5485    -5471 
   -5405    -5259    -5096    -5039    -5152    -5302    -5333    -5244 
   -5142    -5175    -5387    -5711    -6079    -6351    -6412    -6335 
   -6188    -5984    -5836    -5834    -5914    -5960    -5899    -5806 
   -5796    -5849    -5902    -5887    -5784    -5714    -5682    -5582 
   -5433    -5235    -4985    -4847    -4916    -5085    -5235    -5354 
   -5560    -5876    -6054    -5969    -5836    -5829    -5933    -6093 
   -6214    -6216    -6091    -5860    -5606    -5413    -5301    -5259 
   -5278    -5348    -5436    -5540    -5698    -5842    -5810    -5598 
   -5394    -5309    -5302    -5256    -5117    -5053    -5152    -5221 
   -5258    -5428    -5628    -5757    -5919    -6142    -6412    -6678 
   -6743    -6593    -6442    -6315    -6061    -5651    -5251    -5046 
   -5009    -4980    -4897    -4804    -4746    -4758    -4878    -5089 
   -5251    -5282    -5256    -5174    -5023    -4982    -5147    -5410 
   -5721    -6002    -6124    -6145    -6156    -6115    -6033    -5950 
   -5805    -5591    -5452    -5431    -5381    -5188    -4947    -4839 
   -4881    -4909    -4820    -4715    -4758    -4941    -5123    -5277 
   -5463    -5707    -5998    -6218    -6211    -6042    -5965    -6050 
   -6079    -5910    -5718    -5678    -5695    -5649    -5603    -5649 
   -5764    -5877    -5968    -6066    -6181    -6222    -6165    -6154 
   -6223    -6231    -6160    -6089    -6008    -5877    -5690    -5482 
   -5362    -5351    -5391    -5451    -5429    -5292    -5161    -5103 
   -5067    -5019    -4981    -5028    -5130    -5219    -5379    -5682 
   -6027    -6266    -6322    -6264    -6210    -6197    -6282    -6417 
   -6388    -6208    -6097    -6043    -5898    -5660    -5422    -5235 
   -5094    -5024    -5089    -5217    -5252    -5152    -4965    -4841 
   -4945    -5173    -5274    -5186    -5086    -5142    -5308    -5502 
   -5705    -5844    -5903    -5917    -5813    -5605    -5406    -5247 
   -5148    -5080    -5012    -5078    -5285    -5402    -5308    -5167 
   -5252    -5553    -5800    -5872    -5844    -5811    -5833    -5798 
   -5555    -5278    -5244    -5352    -5387    -5427    -5566    -5744 
   -5907    -6014    -6068    -6120    -6156    -6138    -6058    -5886 
   -5675    -5563    -5495    -5306    -5073    -4943    -4878    -4919 
   -5189    -5568    -5826    -5879    -5764    -5598    -5478    -5435 
   -5459    -5514    -5614    -5757    -5860    -5911    -5988    -6037 
   -5967    -5857    -5779    -5702    -5649    -5603    -5497    -5387 
   -5375    -5455    -5509    -5478    -5458    -5537    -5718    -5898 
   -5863    -5599    -5359    -5236    -5144    -5097    -5088    -5094 
   -5201    -5443    -5729    -5995    -6223    -6326    -6284    -6264 
   -6296    -6296    -6349    -6434    -6436    -6413    -6382    -6305 
   -6276    -6328    -6354    -6268    -6114    -6038    -6039    -5945 
   -5719    -5476    -5301    -5186    -5040    -4831    -4680    -4645 
   -4644    -4591    -4449    -4299    -4313    -4468    -4621    -4789 
   -5034    -5298    -5499    -5547    -5433    -5314    -5320    -5428 
   -5593    -5796    -6019    -6247    -6470    -6621    -6604    -6408 
   -6118    -5842    -5699    -5719    -5807    -5857    -5807    -5695 
   -5621    -5586    -5557    -5528    -5471    -5413    -5395    -5400 
   -5436    -5552    -5697    -5718    -5606    -5525    -5518    -5528 
   -5548    -5593    -5651    -5717    -5790    -5791    -5618    -5405 
   -5378    -5520    -5721    -5989    -6272    -6470    -6647    -6791 
   -6740    -6509    -6223    -5898    -5578    -5294    -4989    -4698 
   -4459    -4245    -4194    -4360    -4579    -4849    -5248    -5690 
   -6066    -6319    -6442    -6490    -6446    -6293    -6093    -5914 
   -5779    -5597    -5336    -5175    -5236    -5393    -5456    -5421 
   -5432    -5540    -5672    -5753    -5786    -5823    -5814    -5721 
   -5695    -5749    -5741    -5675    -5590    -5429    -5224    -5084 
   -5027    -5001    -4981    -4938    -4780    -4468    -4162    -4079 
   -4257    -4546    -4791    -4992    -5235    -5521    -5767    -5886 
   -5933    -6045    -6187    -6227    -6151    -6022    -5914    -5859 
   -5817    -5756    -5732    -5784    -5873    -5931    -5922    -5899 
   -5948    -6046    -6087    -5972    -5746    -5607    -5648    -5729 
   -5732    -5683    -5653    -5698    -5790    -5807    -5760    -5730 
   -5638    -5422    -5157    -4873    -4621    -4490    -4473    -4545 
   -4770    -5179    -5695    -6164    -6458    -6593    -6606    -6509 
   -6343    -6116    -5875    -5697    -5583    -5521    -5474    -5371 
   -5242    -5162    -5142    -5165    -5242    -5374    -5489    -5518 
   -5478    -5433    -5444    -5483    -5537    -5695    -5948    -6135 
   -6228    -6335    -6466    -6488    -6334    -6089    -5826    -5607 
   -5568    -5744    -5973    -6046    -5914    -5779    -5765    -5776 
   -5782    -5791    -5719    -5552    -5393    -5348    -5360    -5290 
   -5221    -5270    -5350    -5429    -5541    -5655    -5825    -6050 
   -6188    -6174    -6062    -5919    -5814    -5736    -5587    -5418 
   -5358    -5375    -5367    -5266    -5116    -5080    -5138    -5135 
   -5104    -5085    -5047    -5084    -5248    -5420    -5458    -5362 
   -5328    -5466    -5591    -5587    -5553    -5497    -5381    -5285 
   -5251    -5277    -5363    -5433    -5431    -5378    -5301    -5285 
   -5412    -5603    -5737    -5857    -6015    -6123    -6177    -6291 
   -6417    -6438    -6380    -6336    -6319    -6296    -6243    -6161 
   -6056    -5944    -5863    -5811    -5799    -5865    -5976    -6043 
   -6053    -6103    -6272    -6469    -6566    -6532    -6394    -6247 
   -6207    -6234    -6238    -6339    -6650    -6948    -7037    -7018 
   -6982    -6937    -6856    -6651    -6412    -6305    -6284    -6295 
   -6372    -6521    -6755    -7056    -7322    -7515    -7650    -7704 
   -7711    -7726    -7722    -7666    -7550    -7369    -7179    -7017 
   -6862    -6739    -6624    -6361    -5967    -5670    -5563    -5541 
   -5539    -5586    -5671    -5771    -5884    -5961    -6011    -6084 
   -6108    -6043    -5989    -5984    -5913    -5705    -5485    -5381 
   -5350    -5382    -5587    -5914    -6201    -6407    -6554    -6658 
   -6686    -6563    -6274    -5945    -5728    -5605    -5485    -5390 
   -5367    -5409    -5436    -5328    -5089    -4784    -4394    -3969 
   -3655    -3478    -3385    -3377    -3465    -3665    -3909    -4023 
   -4004    -4005    -4037    -4017    -3925    -3781    -3624    -3535 
   -3559    -3672    -3843    -4028    -4158    -4225    -4244    -4151 
   -3932    -3690    -3546    -3527    -3505    -3399    -3308    -3322 
   -3385    -3469    -3595    -3746    -3932    -4178    -4406    -4521 
   -4515    -4463    -4477    -4577    -4675    -4791    -5008    -5286 
   -5536    -5683    -5680    -5568    -5414    -5190    -4899    -4665 
   -4580    -4612    -4680    -4745    -4807    -4889    -5049    -5259 
   -5455    -5648    -5810    -5937    -6154    -6461    -6724    -6961 
   -7206    -7385    -7527    -7651    -7688    -7628    -7528    -7429 
   -7335    -7257    -7244    -7260    -7249    -7281    -7365    -7368 
   -7230    -7069    -6993    -6924    -6802    -6727    -6710    -6724 
   -6844    -7021    -7153    -7273    -7371    -7362    -7198    -6895 
   -6585    -6359    -6185    -6012    -5799    -5563    -5413    -5379 
   -5400    -5395    -5328    -5254    -5200    -5142    -5154    -5205 
   -5136    -5012    -4982    -5047    -5157    -5265    -5364    -5505 
   -5660    -5759    -5825    -5906    -5945    -5883    -5719    -5420 
   -5019    -4639    -4309    -4013    -3726    -3360    -2953    -2614 
   -2316    -2060    -1954    -1973    -1991    -2003    -2073    -2223 
   -2494    -2882    -3234    -3496    -3817    -4229    -4587    -4815 
   -4928    -4961    -4935    -4827    -4714    -4761    -4950    -5116 
   -5197    -5239    -5336    -5529    -5701    -5745    -5725    -5728 
   -5759    -5805    -5864    -5902    -5903    -5926    -5968    -6027 
   -6200    -6463    -6731    -7030    -7276    -7364    -7391    -7383 
   -7281    -7168    -7128    -7117    -7103    -7140    -7191    -7148 
   -6984    -6717    -6351    -5925    -5452    -5005    -4706    -4527 
   -4378    -4315    -4414    -4576    -4730    -4912    -5103    -5275 
   -5483    -5699    -5817    -5852    -5853    -5752    -5563    -5528 
   -5688    -5788    -5784    -5860    -6039    -6242    -6454    -6624 
   -6694    -6644    -6466    -6245    -6062    -5903    -5759    -5659 
   -5640    -5759    -5984    -6215    -6392    -6497    -6544    -6528 
   -6426    -6259    -6072    -5940    -5877    -5746    -5528    -5375 
   -5301    -5173    -4927    -4619    -4310    -3994    -3663    -3348 
   -3082    -2879    -2762    -2764    -2895    -3126    -3500    -4078 
   -4737    -5275    -5668    -5962    -6147    -6258    -6299    -6203 
   -6006    -5860    -5832    -5822    -5764    -5709    -5678    -5606 
   -5499    -5479    -5586    -5740    -5968    -6319    -6727    -7182 
   -7717    -8257    -8729    -9159    -9564    -9913   -10214   -10489 
  -10687   -10775   -10827   -10849   -10813   -10795   -10790   -10613 
  -10227    -9753    -9236    -8649    -8006    -7377    -6833    -6292 
   -5675    -5170    -4904    -4730    -4584    -4495    -4383    -4239 
   -4108    -3935    -3712    -3430    -3015    -2547    -2118    -1690 
   -1293    -1009     -866     -869     -981    -1119    -1225    -1347 
   -1571    -1892    -2215    -2520    -2832    -3111    -3321    -3508 
   -3744    -3974    -4106    -4197    -4287    -4387    -4561    -4718 
   -4757    -4841    -5062    -5305    -5505    -5653    -5825    -6137 
   -6529    -6844    -7056    -7214    -7319    -7381    -7433    -7503 
   -7601    -7651    -7576    -7452    -7327    -7134    -6885    -6631 
   -6400    -6246    -6157    -6124    -6247    -6521    -6851    -7173 
   -7425    -7605    -7796    -8004    -8194    -8371    -8546    -8731 
   -8910    -9043    -9105    -9112    -9081    -8957    -8715    -8467 
   -8240    -7985    -7765    -7636    -7612    -7699    -7789    -7805 
   -7769    -7620    -7302    -6852    -6261    -5570    -5004    -4645 
   -4286    -3844    -3477    -3252    -3095    -2941    -2805    -2754 
   -2748    -2701    -2616    -2544    -2463    -2350    -2299    -2386 
   -2508    -2585    -2667    -2778    -2975    -3334    -3766    -4095 
   -4313    -4526    -4737    -4854    -4834    -4726    -4645    -4673 
   -4785    -4882    -4845    -4695    -4623    -4712    -4860    -5015 
   -5232    -5501    -5726    -5853    -5945    -6107    -6324    -6442 
   -6407    -6335    -6291    -6243    -6228    -6250    -6273    -6327 
   -6378    -6369    -6345    -6297    -6193    -6072    -5923    -5729 
   -5530    -5355    -5232    -5231    -5377    -5602    -5829    -6039 
   -6212    -6292    -6261    -6099    -5778    -5404    -5116    -4915 
   -4774    -4693    -4672    -4770    -4989    -5224    -5431    -5640 
   -5841    -6025    -6185    -6276    -6304    -6328    -6322    -6222 
   -5980    -5602    -5212    -4893    -4629    -4390    -4141    -3933 
   -3809    -3649    -3460    -3356    -3275    -3218    -3298    -3457 
   -3613    -3805    -4051    -4321    -4604    -4877    -5076    -5184 
   -5224    -5170    -5090    -5142    -5310    -5467    -5524    -5491 
   -5483    -5533    -5603    -5670    -5655    -5595    -5637    -5776 
   -5908    -5988    -6042    -6168    -6367    -6525    -6636    -6750 
   -6844    -6941    -7079    -7184    -7141    -6943    -6741    -6637 
   -6561    -6462    -6359    -6246    -6126    -6016    -5929    -5890 
   -5846    -5768    -5737    -5697    -5508    -5274    -5109    -4934 
   -4774    -4737    -4710    -4581    -4460    -4477    -4592    -4702 
   -4843    -5054    -5256    -5455    -5711    -5999    -6276    -6546 
   -6799    -6967    -6999    -6984    -7005    -7040    -7096    -7236 
   -7433    -7574    -7581    -7465    -7223    -6822    -6340    -5940 
   -5668    -5498    -5405    -5339    -5324    -5459    -5684    -5869 
   -6021    -6138    -6178    -6226    -6320    -6430    -6577    -6673 
   -6623    -6521    -6461    -6439    -6416    -6345    -6270    -6262 
   -6280    -6272    -6273    -6330    -6428    -6544    -6671    -6755 
   -6710    -6511    -6197    -5830    -5440    -5084    -4861    -4784 
   -4788    -4828    -4882    -4958    -5071    -5204    -5316    -5416 
   -5528    -5629    -5702    -5737    -5682    -5555    -5448    -5329 
   -5132    -4954    -4889    -4900    -4892    -4812    -4698    -4622 
   -4584    -4561    -4598    -4700    -4819    -4999    -5258    -5494 
   -5632    -5691    -5729    -5730    -5652    -5451    -5115    -4761 
   -4511    -4284    -3978    -3655    -3410    -3254    -3172    -3167 
   -3233    -3341    -3469    -3603    -3781    -4067    -4387    -4611 
   -4758    -4928    -5116    -5256    -5339    -5370    -5360    -5359 
   -5333    -5221    -5096    -5034    -5022    -5050    -5080    -5032 
   -4977    -4970    -4901    -4789    -4784    -4880    -5004    -5136 
   -5287    -5481    -5674    -5863    -6096    -6295    -6340    -6316 
   -6295    -6177    -5935    -5660    -5344    -4985    -4693    -4472 
   -4233    -4039    -3993    -4032    -4095    -4263    -4525    -4731 
   -4876    -5030    -5167    -5289    -5414    -5489    -5544    -5653 
   -5764    -5844    -5923    -5965    -5918    -5837    -5791    -5786 
   -5830    -5944    -6060    -6111    -6131    -6173    -6228    -6272 
   -6262    -6122    -5863    -5616    -5431    -5266    -5124    -5013 
   -4993    -5140    -5385    -5609    -5810    -5987    -6129    -6262 
   -6372    -6423    -6462    -6497    -6508    -6536    -6598    -6605 
   -6477    -6201    -5809    -5339    -4830    -4349    -4000    -3817 
   -3754    -3759    -3796    -3855    -3936    -4005    -4054    -4102 
   -4152    -4222    -4333    -4437    -4522    -4688    -4973    -5332 
   -5706    -6010    -6277    -6574    -6826    -7015    -7227    -7476 
   -7716    -7913    -8047    -8116    -8160    -8194    -8193    -8109 
   -7912    -7649    -7379    -7047    -6620    -6199    -5771    -5274 
   -4779    -4357    -4058    -3906    -3812    -3716    -3680    -3707 
   -3781    -3958    -4247    -4553    -4812    -5063    -5292    -5431 
   -5544    -5737    -6006    -6346    -6758    -7145    -7416    -7564 
   -7616    -7576    -7416    -7183    -6963    -6777    -6610    -6482 
   -6438    -6517    -6710    -6934    -7114    -7214    -7140    -6890 
   -6612    -6372    -6176    -6076    -6035    -6014    -6037    -6106 
   -6203    -6315    -6413    -6507    -6574    -6571    -6516    -6446 
   -6332    -6114    -5860    -5632    -5367    -5089    -4847    -4621 
   -4475    -4421    -4368    -4322    -4302    -4280    -4297    -4374 
   -4417    -4338    -4170    -3971    -3780    -3631    -3570    -3589 
   -3670    -3836    -4039    -4187    -4266    -4263    -4179    -4072 
