Origin Time       2025/01/13 21:19:00
Lat.              31.8
Long.             131.6
Depth. (km)       30
Mag.              6.9
Station Code      OITH11
Station Lat.      33.2844
Station Long.     131.2118
Station Height(m) 460
Record Time       2025/01/13 21:20:00
Sampling Freq(Hz) 100Hz
Duration Time(s)  209
Dir.              6
Scale Factor      7845(gal)/8223790
Max. Acc. (gal)   2.859
Last Correction   2025/01/13 21:20:00
Memo.             
[...]
   -5310    -5429    -5541    -5613    -5641    -5644    -5632    -5614 
   -5602    -5584    -5535    -5418    -5229    -5000    -4777    -4600 
   -4484    -4425    -4402    -4406    -4440    -4503    -4594    -4693 
   -4792    -4899    -5027    -5185    -5387    -5632    -5891    -6114 
   -6257    -6311    -6300    -6254    -6199    -6143    -6076    -5962 
   -5776    -5541    -5304    -5103    -4958    -4862    -4772    -4660 
   -4534    -4419    -4329    -4275    -4244    -4203    -4122    -4000 
   -3867    -3777    -3778    -3881    -4047    -4222    -4345    -4378 
   -4330    -4249    -4189    -4183    -4225    -4279    -4322    -4360 
   -4405    -4473    -4585    -4739    -4904    -5049    -5142    -5178 
   -5185    -5193    -5208    -5213    -5198    -5170    -5140    -5121 
   -5116    -5112    -5094    -5034    -4911    -4731    -4529    -4356 
   -4261    -4248    -4278    -4295    -4264    -4172    -4017    -3811 
   -3577    -3327    -3080    -2872    -2727    -2660    -2668    -2736 
   -2856    -3026    -3233    -3461    -3696    -3919    -4120    -4291 
   -4422    -4517    -4585    -4627    -4634    -4603    -4529    -4429 
   -4313    -4189    -4081    -4004    -3942    -3894    -3875    -3882 
   -3900    -3909    -3893    -3861    -3848    -3878    -3958    -4097 
   -4274    -4453    -4603    -4704    -4762    -4806    -4851    -4918 
   -5012    -5125    -5242    -5339    -5402    -5440    -5476    -5498 
   -5464    -5344    -5124    -4811    -4456    -4131    -3879    -3711 
   -3608    -3541    -3487    -3429    -3353    -3252    -3134    -3006 
   -2867    -2740    -2656    -2627    -2663    -2768    -2925    -3118 
   -3338    -3557    -3747    -3901    -4017    -4079    -4062    -3962 
   -3813    -3663    -3542    -3451    -3383    -3316    -3244    -3172 
   -3122    -3105    -3121    -3173    -3253    -3350    -3470    -3620 
   -3784    -3925    -4023    -4071    -4082    -4087    -4122    -4187 
   -4264    -4333    -4379    -4387    -4365    -4329    -4283    -4229 
   -4167    -4101    -4035    -3996    -4008    -4075    -4183    -4313 
   -4467    -4656    -4891    -5182    -5536    -5934    -6330    -6667 
   -6902    -7038    -7117    -7179    -7242    -7304    -7339    -7312 
   -7195    -6974    -6659    -6270    -5849    -5449    -5120    -4884 
   -4739    -4661    -4608    -4550    -4482    -4410    -4341    -4271 
   -4187    -4072    -3933    -3784    -3650    -3559    -3523    -3531 
   -3546    -3531    -3485    -3423    -3360    -3307    -3262    -3214 
   -3165    -3132    -3132    -3180    -3291    -3469    -3696    -3946 
   -4203    -4455    -4691    -4915    -5127    -5323    -5495    -5625 
   -5702    -5740    -5749    -5749    -5767    -5806    -5856    -5913 
   -5969    -6014    -6043    -6045    -5988    -5871    -5695    -5472 
   -5244    -5047    -4907    -4849    -4873    -4962    -5090    -5216 
   -5309    -5370    -5414    -5447    -5462    -5444    -5383    -5294 
   -5201    -5125    -5062    -4997    -4918    -4814    -4671    -4495 
   -4303    -4104    -3881    -3612    -3310    -3013    -2739    -2508 
   -2335    -2232    -2195    -2201    -2257    -2392    -2610    -2893 
   -3204    -3505    -3771    -4004    -4209    -4392    -4565    -4726 
   -4866    -4980    -5092    -5227    -5387    -5559    -5724    -5873 
   -5996    -6073    -6104    -6097    -6061    -6010    -5957    -5895 
   -5827    -5772    -5721    -5667    -5614    -5559    -5485    -5386 
   -5258    -5103    -4949    -4845    -4822    -4870    -4955    -5035 
   -5081    -5097    -5116    -5158    -5221    -5301    -5387    -5451 
   -5471    -5440    -5364    -5289    -5262    -5292    -5377    -5502 
   -5626    -5725    -5790    -5826    -5860    -5899    -5923    -5908 
   -5837    -5683    -5443    -5131    -4768    -4398    -4070    -3794 
   -3561    -3349    -3149    -2971    -2843    -2778    -2755    -2744 
   -2735    -2731    -2740    -2760    -2798    -2870    -2968    -3083 
   -3217    -3381    -3581    -3820    -4087    -4372    -4660    -4924 
   -5136    -5270    -5324    -5323    -5292    -5243    -5188    -5138 
   -5093    -5043    -4973    -4884    -4799    -4712    -4606    -4468 
   -4303    -4133    -3981    -3866    -3788    -3734    -3684    -3636 
   -3597    -3568    -3562    -3586    -3616    -3638    -3642    -3630 
   -3615    -3626    -3685    -3804    -3963    -4131    -4283    -4410 
   -4511    -4575    -4571    -4486    -4337    -4174    -4063    -4041 
   -4102    -4221    -4347    -4421    -4433    -4403    -4361    -4314 
   -4251    -4152    -4027    -3917    -3871    -3925    -4093    -4348 
   -4637    -4905    -5123    -5289    -5404    -5463    -5463    -5395 
   -5282    -5166    -5085    -5047    -5030    -4989    -4899    -4757 
   -4573    -4356    -4126    -3900    -3685    -3500    -3353    -3252 
   -3204    -3210    -3238    -3267    -3292    -3314    -3322    -3318 
   -3304    -3280    -3244    -3198    -3157    -3144    -3175    -3249 
   -3350    -3458    -3555    -3638    -3723    -3829    -3956    -4089 
   -4214    -4326    -4437    -4580    -4791    -5074    -5400    -5714 
   -5968    -6134    -6220    -6261    -6297    -6349    -6400    -6423 
   -6405    -6340    -6249    -6165    -6119    -6120    -6131    -6106 
   -6027    -5911    -5786    -5679    -5591    -5498    -5374    -5196 
   -4974    -4745    -4552    -4426    -4371    -4361    -4361    -4341 
   -4293    -4236    -4198    -4199    -4245    -4315    -4376    -4405 
   -4398    -4361    -4302    -4230    -4141    -4021    -3865    -3676 
   -3474    -3298    -3172    -3103    -3084    -3087    -3090    -3095 
   -3102    -3102    -3078    -3007    -2876    -2706    -2550    -2463 
   -2485    -2633    -2884    -3186    -3481    -3731    -3913    -4045 
   -4147    -4224    -4284    -4321    -4332    -4322    -4290    -4241 
   -4207    -4229    -4332    -4494    -4665    -4812    -4918    -4982 
   -5042    -5143    -5302    -5495    -5679    -5814    -5890    -5911 
   -5892    -5845    -5787    -5717    -5621    -5482    -5312    -5144 
   -5004    -4892    -4803    -4726    -4650    -4569    -4486    -4405 
   -4348    -4330    -4333    -4329    -4299    -4226    -4120    -4009 
   -3919    -3869    -3869    -3906    -3951    -3962    -3927    -3859 
   -3790    -3743    -3728    -3750    -3802    -3877    -3962    -4050 
   -4124    -4180    -4221    -4241    -4236    -4212    -4186    -4180 
   -4213    -4287    -4395    -4523    -4652    -4747    -4785    -4762 
   -4685    -4583    -4477    -4379    -4293    -4233    -4209    -4226 
   -4295    -4411    -4553    -4691    -4796    -4855    -4858    -4807 
   -4712    -4587    -4449    -4320    -4205    -4102    -4013    -3933 
   -3873    -3839    -3850    -3929    -4090    -4309    -4563    -4827 
   -5081    -5312    -5513    -5668    -5759    -5773    -5711    -5580 
   -5393    -5162    -4897    -4612    -4321    -4036    -3765    -3519 
   -3304    -3115    -2940    -2762    -2585    -2420    -2276    -2169 
   -2115    -2126    -2214    -2388    -2650    -2988    -3381    -3792 
   -4195    -4581    -4951    -5302    -5629    -5925    -6169    -6342 
   -6439    -6457    -6409    -6324    -6211    -6072    -5922    -5786 
   -5686    -5630    -5594    -5548    -5476    -5370    -5225    -5051 
   -4872    -4719    -4607    -4523    -4448    -4378    -4315    -4268 
   -4239    -4225    -4225    -4228    -4217    -4182    -4133    -4087 
   -4045    -4001    -3943    -3869    -3790    -3726    -3681    -3655 
   -3632    -3609    -3589    -3586    -3618    -3682    -3757    -3809 
   -3827    -3817    -3804    -3811    -3842    -3875    -3896    -3894 
   -3869    -3827    -3788    -3766    -3765    -3766    -3747    -3720 
   -3707    -3715    -3751    -3802    -3843    -3862    -3854    -3825 
   -3805    -3816    -3855    -3894    -3912    -3908    -3898    -3910 
   -3958    -4045    -4160    -4286    -4428    -4587    -4761    -4955 
   -5163    -5343    -5471    -5529    -5510    -5443    -5367    -5306 
   -5263    -5220    -5152    -5054    -4926    -4766    -4591    -4436 
   -4326    -4260    -4243    -4279    -4356    -4449    -4537    -4607 
   -4654    -4679    -4680    -4661    -4626    -4587    -4563    -4560 
   -4571    -4561    -4506    -4409    -4284    -4160    -4045    -3939 
   -3842    -3757    -3689    -3649    -3640    -3670    -3744    -3858 
   -4001    -4160    -4321    -4487    -4642    -4770    -4891    -5032 
   -5188    -5336    -5455    -5532    -5575    -5601    -5620    -5634 
   -5637    -5624    -5593    -5543    -5491    -5451    -5409    -5352 
   -5290    -5242    -5225    -5243    -5283    -5336    -5379    -5385 
   -5366    -5350    -5359    -5400    -5462    -5514    -5540    -5547 
   -5557    -5584    -5616    -5636    -5633    -5613    -5602    -5621 
   -5678    -5741    -5760    -5697    -5547    -5335    -5119    -4941 
   -4800    -4675    -4538    -4368    -4162    -3951    -3785    -3699 
   -3696    -3736    -3757    -3715    -3607    -3478    -3381    -3350 
   -3388    -3469    -3558    -3635    -3712    -3817    -3956    -4104 
   -4224    -4290    -4301    -4283    -4274    -4303    -4388    -4523 
   -4673    -4793    -4865    -4893    -4915    -4955    -5007    -5040 
   -5028    -4965    -4872    -4780    -4712    -4677    -4661    -4635 
   -4579    -4492    -4396    -4311    -4236    -4159    -4067    -3947 
   -3805    -3658    -3510    -3372    -3254    -3167    -3118    -3119 
   -3177    -3288    -3431    -3578    -3696    -3766    -3797    -3793 
   -3762    -3716    -3655    -3589    -3539    -3504    -3464    -3396 
   -3300    -3198    -3129    -3136    -3235    -3415    -3645    -3878 
   -4085    -4286    -4502    -4730    -4945    -5100    -5144    -5069 
   -4903    -4703    -4526    -4406    -4333    -4282    -4236    -4191 
   -4144    -4105    -4081    -4056    -4008    -3924    -3809    -3690 
   -3601    -3559    -3553    -3561    -3555    -3519    -3457    -3388 
   -3330    -3308    -3333    -3393    -3481    -3580    -3693    -3834 
   -4009    -4221    -4455    -4680    -4865    -4993    -5078    -5163 
   -5283    -5444    -5640    -5846    -6035    -6183    -6280    -6328 
   -6335    -6297    -6193    -6004    -5740    -5420    -5094    -4828 
   -4653    -4564    -4536    -4509    -4438    -4328    -4216    -4159 
   -4202    -4357    -4590    -4838    -5047    -5186    -5271    -5348 
   -5436    -5502    -5505    -5400    -5179    -4876    -4538    -4220 
   -3974    -3823    -3742    -3684    -3634    -3609    -3635    -3728 
   -3875    -4054    -4244    -4417    -4553    -4668    -4783    -4903 
   -5028    -5140    -5224    -5289    -5359    -5449    -5575    -5741 
   -5930    -6135    -6357    -6586    -6813    -7025    -7191    -7283 
   -7290    -7215    -7099    -6982    -6870    -6748    -6594    -6389 
   -6133    -5850    -5590    -5397    -5285    -5229    -5192    -5140 
   -5076    -5022    -4999    -5011    -5039    -5042    -4985    -4864 
   -4699    -4518    -4355    -4228    -4131    -4036    -3924    -3804 
   -3711    -3655    -3632    -3634    -3628    -3591    -3532    -3484 
   -3469    -3508    -3578    -3628    -3616    -3539    -3442    -3381 
   -3385    -3460    -3565    -3640    -3653    -3624    -3600    -3597 
   -3613    -3635    -3631    -3578    -3483    -3379    -3294    -3242 
   -3221    -3203    -3167    -3113    -3068    -3060    -3088    -3123 
   -3138    -3118    -3076    -3052    -3076    -3160    -3285    -3433 
   -3585    -3738    -3900    -4104    -4353    -4614    -4854    -5073 
   -5285    -5520    -5811    -6157    -6523    -6856    -7092    -7196 
   -7176    -7078    -6953    -6833    -6716    -6569    -6365    -6107 
   -5819    -5525    -5233    -4954    -4687    -4438    -4224    -4055 
   -3932    -3856    -3819    -3798    -3793    -3816    -3878    -3983 
   -4114    -4251    -4403    -4591    -4818    -5078    -5347    -5595 
   -5809    -5976    -6093    -6183    -6261    -6315    -6322    -6273 
   -6173    -6052    -5938    -5845    -5773    -5715    -5651    -5562 
   -5451    -5336    -5212    -5081    -4950    -4816    -4683    -4560 
   -4452    -4357    -4272    -4186    -4072    -3920    -3735    -3527 
   -3319    -3144    -3029    -2982    -2988    -3033    -3090    -3138 
   -3184    -3245    -3325    -3411    -3492    -3558    -3604    -3631 
   -3646    -3658    -3680    -3719    -3763    -3788    -3782    -3738 
   -3653    -3557    -3474    -3411    -3368    -3331    -3280    -3218 
   -3168    -3173    -3273    -3476    -3762    -4083    -4394    -4661 
   -4868    -5024    -5148    -5246    -5317    -5336    -5277    -5144 
   -4951    -4729    -4518    -4332    -4159    -3974    -3771    -3570 
   -3387    -3245    -3164    -3145    -3173    -3219    -3264    -3308 
   -3379    -3497    -3676    -3886    -4097    -4283    -4422    -4510 
   -4552    -4552    -4509    -4433    -4342    -4264    -4222    -4220 
   -4228    -4210    -4156    -4078    -4000    -3925    -3848    -3753 
   -3635    -3496    -3360    -3246    -3165    -3111    -3055    -2970 
   -2844    -2677    -2470    -2236    -1998    -1794    -1652    -1587 
   -1598    -1660    -1744    -1818    -1872    -1907    -1937    -1961 
   -1977    -1992    -2015    -2068    -2185    -2392    -2695    -3088 
   -3546    -4047    -4561    -5059    -5517    -5921    -6265    -6555 
   -6794    -6987    -7146    -7272    -7356    -7404    -7416    -7406 
   -7387    -7380    -7395    -7429    -7466    -7487    -7465    -7383 
   -7245    -7078    -6898    -6718    -6558    -6426    -6332    -6288 
   -6297    -6347    -6409    -6454    -6465    -6453    -6436    -6427 
   -6430    -6434    -6405    -6322    -6178    -5992    -5799    -5637 
   -5508    -5393    -5281    -5165    -5053    -4963    -4914    -4914 
   -4955    -5008    -5049    -5069    -5084    -5120    -5197    -5308 
   -5439    -5580    -5711    -5814    -5881    -5911    -5892    -5832 
   -5736    -5610    -5470    -5329    -5196    -5069    -4938    -4806 
   -4688    -4594    -4531    -4513    -4530    -4571    -4615    -4653 
   -4699    -4765    -4847    -4934    -5020    -5109    -5220    -5364 
   -5528    -5687    -5822    -5919    -5984    -6021    -6033    -6023 
   -5984    -5903    -5778    -5614    -5443    -5301    -5188    -5070 
   -4928    -4749    -4537    -4334    -4179    -4089    -4052    -4033 
   -3990    -3905    -3798    -3707    -3667    -3677    -3681    -3623 
   -3474    -3250    -3007    -2795    -2652    -2589    -2581    -2590 
   -2601    -2619    -2640    -2667    -2702    -2744    -2794    -2867 
   -2972    -3115    -3294    -3499    -3711    -3908    -4077    -4214 
   -4333    -4450    -4588    -4765    -4973    -5181    -5366    -5502 
   -5563    -5541    -5445    -5296    -5119    -4947    -4804    -4689 
   -4588    -4472    -4322    -4132    -3917    -3712    -3532    -3388 
   -3285    -3207    -3150    -3115    -3110    -3146    -3237    -3368 
   -3511    -3658    -3815    -3975    -4128    -4255    -4349    -4398 
   -4398    -4371    -4348    -4341    -4344    -4320    -4240    -4094 
   -3886    -3640    -3406    -3218    -3083    -2983    -2895    -2805 
   -2708    -2612    -2528    -2458    -2392    -2327    -2262    -2208 
   -2185    -2208    -2268    -2359    -2481    -2612    -2752    -2905 
   -3057    -3208    -3365    -3523    -3681    -3866    -4094    -4364 
   -4664    -4974    -5271    -5540    -5782    -6015    -6246    -6465 
   -6656    -6804    -6910    -6990    -7048    -7092    -7114    -7086 
   -6993    -6836    -6631    -6407    -6187    -5975    -5755    -5509 
   -5236    -4955    -4706    -4509    -4376    -4310    -4307    -4356 
   -4444    -4569    -4729    -4911    -5089    -5239    -5358    -5468 
   -5591    -5722    -5844    -5934    -5987    -6012    -6031    -6066 
   -6133    -6220    -6299    -6350    -6370    -6370    -6370    -6385 
   -6403    -6405    -6380    -6311    -6197    -6062    -5923    -5795 
   -5682    -5578    -5475    -5370    -5250    -5123    -5019    -4946 
   -4891    -4824    -4711    -4536    -4315    -4085    -3886    -3754 
   -3700    -3700    -3716    -3720    -3700    -3663    -3622    -3580 
   -3546    -3523    -3508    -3512    -3555    -3653    -3811    -4008 
   -4187    -4301    -4336    -4291    -4186    -4059    -3942    -3842 
   -3759    -3689    -3626    -3565    -3505    -3439    -3375    -3314 
   -3248    -3186    -3134    -3092    -3053    -3017    -2990    -2987 
   -3013    -3059    -3123    -3198    -3271    -3343    -3416    -3489 
   -3558    -3612    -3651    -3685    -3728    -3800    -3898    -4020 
   -4152    -4267    -4338    -4372    -4383    -4390    -4410    -4445 
   -4467    -4455    -4399    -4293    -4158    -4037    -3940    -3861 
   -3781    -3678    -3551    -3422    -3326    -3300    -3349    -3453 
   -3584    -3717    -3835    -3940    -4032    -4118    -4217    -4326 
   -4429    -4530    -4644    -4777    -4939    -5115    -5270    -5393 
   -5487    -5570    -5675    -5823    -6011    -6210    -6372    -6467 
   -6490    -6458    -6396    -6327    -6258    -6178    -6077    -5956 
   -5818    -5672    -5529    -5389    -5236    -5069    -4900    -4745 
   -4610    -4514    -4473    -4487    -4554    -4664    -4799    -4961 
   -5139    -5329    -5537    -5771    -6029    -6284    -6481    -6586 
   -6601    -6565    -6527    -6529    -6582    -6660    -6725    -6736 
   -6687    -6594    -6492    -6396    -6291    -6149    -5967    -5756 
   -5536    -5320    -5116    -4922    -4730    -4526    -4310    -4105 
   -3919    -3751    -3600    -3468    -3354    -3249    -3149    -3055 
   -2957    -2852    -2744    -2643    -2562    -2512    -2488    -2474 
   -2455    -2432    -2419    -2425    -2446    -2454    -2430    -2371 
   -2303    -2268    -2303    -2411    -2570    -2748    -2920    -3071 
   -3210    -3356    -3512    -3674    -3829    -3963    -4074    -4163 
   -4240    -4317    -4399    -4486    -4556    -4594    -4595    -4568 
   -4536    -4511    -4503    -4507    -4506    -4482    -4438    -4394 
   -4379    -4413    -4488    -4571    -4626    -4645    -4631    -4598 
   -4561    -4533    -4510    -4498    -4502    -4525    -4573    -4642 
   -4710    -4766    -4810    -4850    -4892    -4927    -4946    -4947 
   -4920    -4866    -4797    -4725    -4662    -4615    -4569    -4507 
   -4430    -4333    -4216    -4089    -3964    -3851    -3761    -3699 
   -3669    -3678    -3735    -3842    -3994    -4179    -4371    -4545 
   -4702    -4858    -5039    -5252    -5478    -5678    -5826    -5910 
   -5935    -5934    -5927    -5918    -5900    -5846    -5734    -5579 
   -5404    -5223    -5050    -4893    -4745    -4595    -4448    -4310 
   -4194    -4104    -4020    -3916    -3784    -3638    -3491    -3362 
   -3272    -3219    -3194    -3184    -3177    -3175    -3188    -3225 
   -3273    -3323    -3369    -3426    -3501    -3600    -3713    -3809 
   -3855    -3836    -3771    -3705    -3682    -3726    -3836    -3993 
   -4167    -4337    -4515    -4726    -4974    -5252    -5540    -5802 
   -6012    -6183    -6334    -6484    -6640    -6808    -6968    -7103 
   -7199    -7245    -7241    -7191    -7094    -6953    -6778    -6574 
   -6355    -6137    -5915    -5701    -5497    -5297    -5094    -4885 
