Origin Time       2025/01/13 21:19:00
Lat.              31.8
Long.             131.6
Depth. (km)       30
Mag.              6.9
Station Code      OITH05
Station Lat.      33.1525
Station Long.     131.5420
Station Height(m) 60
Record Time       2025/01/13 21:19:56
Sampling Freq(Hz) 100Hz
Duration Time(s)  154
Dir.              3
Scale Factor      2942(gal)/8224139
Max. Acc. (gal)   4.346
Last Correction   2025/01/13 21:19:56
Memo.             
[...]
  125581   125778   125986   126108   126090   126000   125968   126040 
  126180   126334   126434   126442   126424   126457   126484   126373 
  126084   125680   125258   124935   124727   124528   124295   124123 
  124108   124260   124514   124785   124973   125050   125123   125292 
  125527   125687   125695   125613   125529   125516   125604   125714 
  125756   125722   125639   125537   125462   125462   125560   125716 
  125833   125849   125834   125942   126181   126391   126469   126441 
  126357   126237   126077   125907   125788   125720   125617   125386 
  125072   124821   124660   124507   124326   124186   124135   124109 
  124097   124187   124372   124551   124668   124725   124768   124842 
  124931   125038   125165   125247   125274   125317   125369   125367 
  125320   125238   125135   125066   124992   124873   124800   124853 
  124960   125001   124995   125091   125347   125656   125938   126176 
  126345   126441   126522   126648   126841   127080   127310   127468 
  127458   127203   126765   126343   126034   125729   125346   124943 
  124557   124228   124052   124023   124031   124004   123881   123673 
  123556   123691   124063   124499   124821   125012   125159   125284 
  125377   125459   125533   125586   125639   125694   125729   125722 
  125682   125653   125620   125467   125192   124907   124664   124452 
  124263   124090   123959   123916   123996   124195   124424   124578 
  124676   124804   124978   125163   125332   125416   125352   125158 
  124879   124588   124382   124258   124120   123927   123749   123691 
  123776   123955   124205   124552   125004   125513   125975   126277 
  126455   126644   126856   126982   126955   126839   126782   126823 
  126843   126781   126663   126488   126227   125875   125467   125131 
  124981   124942   124914   124976   125205   125531   125887   126223 
  126427   126422   126257   126044   125837   125586   125231   124823 
  124507   124366   124363   124417   124491   124583   124630   124560 
  124402   124279   124363   124742   125281   125766   126098   126246 
  126249   126219   126175   126026   125779   125524   125251   124864 
  124348   123876   123689   123844   124139   124387   124534   124590 
  124649   124738   124698   124401   123920   123477   123303   123433 
  123657   123817   123950   124128   124399   124780   125186   125477 
  125572   125548   125566   125695   125909   126208   126569   126925 
  127282   127677   128065   128359   128498   128440   128204   127826 
  127311   126702   126073   125463   124891   124364   123863   123396 
  123090   123083   123330   123688   124059   124353   124588   124865 
  125192   125558   125961   126303   126561   126864   127228   127483 
  127495   127282   126924   126504   126103   125741   125352   124951 
  124672   124568   124534   124437   124290   124225   124301   124448 
  124573   124700   124891   125107   125317   125547   125676   125579 
  125425   125440   125672   126088   126517   126725   126698   126592 
  126519   126500   126517   126563   126590   126493   126277   126104 
  126067   126040   125899   125706   125460   125072   124591   124175 
  123908   123718   123427   122960   122488   122284   122435   122806 
  123272   123781   124290   124733   125012   125123   125247   125537 
  125886   126122   126312   126577   126832   127021   127229   127510 
  127803   127942   127815   127508   127176   126864   126509   126075 
  125656   125294   124885   124401   123890   123342   122751   122196 
  121757   121521   121533   121670   121811   122010   122311   122708 
  123236   123839   124351   124719   125084   125504   125829   125968 
  126037   126096   126076   125968   125805   125616   125469   125440 
  125558   125733   125795   125714   125614   125536   125556   125841 
  126285   126549   126495   126281   126171   126306   126540   126613 
  126511   126414   126369   126272   126061   125753   125394   125081 
  124895   124857   124981   125250   125525   125668   125734   125907 
  126233   126558   126721   126627   126258   125775   125435   125298 
  125205   125070   124965   124958   125049   125178   125255   125251 
  125228   125273   125435   125631   125690   125620   125602   125709 
  125863   125963   125996   126061   126219   126364   126341   126110 
  125697   125159   124638   124310   124217   124256   124329   124379 
  124387   124376   124399   124557   124879   125177   125259   125096 
  124808   124646   124691   124758   124796   124922   125130   125335 
  125558   125791   125946   126019   126080   126094   125906   125509 
  125126   124887   124735   124583   124362   124137   124082   124256 
  124542   124765   124852   124861   124896   125007   125178   125374 
  125550   125651   125645   125563   125514   125566   125626   125595 
  125552   125686   125999   126245   126320   126310   126229   126096 
  125953   125774   125525   125180   124680   124133   123759   123565 
  123390   123229   123234   123515   123985   124487   125008   125585 
  126162   126643   126960   127075   126971   126739   126517   126354 
  126303   126443   126635   126665   126515   126272   125996   125764 
  125593   125404   125166   124920   124691   124538   124542   124675 
  124833   124997   125280   125717   126177   126492   126601   126616 
  126690   126786   126775   126636   126396   126058   125659   125250 
  124888   124677   124698   124826   124841   124735   124696   124807 
  124968   125085   125162   125224   125258   125243   125232   125238 
  125136   124808   124335   123909   123606   123398   123346   123492 
  123726   123952   124155   124340   124507   124599   124605   124627 
  124750   124993   125338   125671   125879   125955   125999   126112 
  126261   126365   126443   126511   126495   126307   125964   125586 
  125217   124811   124413   124069   123728   123484   123495   123709 
  123954   124131   124321   124634   124996   125251   125325   125240 
  125155   125244   125513   125891   126316   126657   126800   126798 
  126839   126976   127008   126828   126522   126144   125780   125536 
  125367   125236   125150   125061   125001   125093   125358   125734 
  126138   126430   126513   126455   126388   126283   126031   125707 
  125470   125347   125273   125186   125101   125122   125300   125498 
  125537   125482   125510   125605   125601   125450   125263   125109 
  124903   124602   124298   124066   123920   123903   123989   124085 
  124256   124596   125005   125390   125768   126084   126242   126254 
  126219   126220   126229   126154   125971   125709   125467   125336 
  125301   125312   125290   125097   124757   124511   124474   124526 
  124548   124521   124542   124703   124984   125317   125574   125632 
  125567   125537   125568   125586   125531   125452   125463   125541 
  125574   125572   125610   125730   125926   126087   126102   125977 
  125740   125377   124984   124722   124526   124217   123807   123439 
  123205   123144   123260   123484   123684   123746   123660   123479 
  123329   123321   123385   123410   123468   123738   124248   124789 
  125150   125371   125621   125929   126219   126465   126701   127032 
  127485   127889   128052   128007   127874   127708   127529   127363 
  127222   127125   127028   126805   126430   125992   125579   125242 
  124974   124711   124409   124096   123846   123735   123763   123828 
  123863   123936   124094   124325   124645   124987   125211   125271 
  125235   125228   125312   125413   125448   125419   125324   125167 
  125076   125157   125309   125394   125401   125397   125446   125504 
  125478   125347   125165   125046   125095   125230   125254   125135 
  124962   124761   124513   124163   123726   123371   123205   123201 
  123329   123572   123908   124335   124843   125460   126210   126954 
  127465   127687   127704   127553   127230   126756   126187   125586 
  125030   124594   124276   124101   124125   124268   124472   124821 
  125281   125653   125802   125774   125697   125604   125440   125172 
  124888   124758   124787   124858   124939   124977   124896   124768 
  124738   124848   125057   125320   125571   125743   125865   126045 
  126343   126712   127107   127553   127967   128150   128088   127959 
  127808   127508   127037   126523   126130   125922   125787   125559 
  125201   124806   124487   124275   124175   124222   124402   124630 
  124791   124811   124762   124768   124798   124706   124463   124204 
  124106   124218   124383   124448   124413   124355   124360   124470 
  124606   124618   124488   124406   124478   124659   124966   125439 
  125996   126555   127076   127511   127838   128034   127998   127606 
  126839   125836   124800   123932   123330   122983   122898   123099 
  123542   124119   124673   125150   125609   126026   126327   126488 
  126515   126446   126266   125992   125790   125744   125761   125733 
  125644   125540   125397   125099   124684   124359   124152   123907 
  123588   123379   123417   123676   124062   124407   124564   124544 
  124507   124652   124915   125034   124954   124822   124730   124703 
  124784   125005   125255   125355   125371   125483   125632   125698 
  125672   125582   125528   125544   125501   125396   125335   125294 
  125150   124870   124579   124418   124425   124557   124808   125165 
  125539   125840   125953   125852   125739   125743   125799   125944 
  126212   126465   126590   126648   126724   126773   126662   126362 
  125995   125722   125639   125732   125895   125992   125915   125698 
  125506   125451   125523   125647   125710   125602   125343   125130 
  125097   125124   125038   124842   124611   124379   124194   124102 
  124087   124074   124004   123915   123889   123909   123919   123903 
  123890   123917   123959   123948   123904   123888   123857   123682 
  123368   123047   122864   122905   123094   123249   123304   123326 
  123337   123242   123017   122817   122736   122678   122543   122354 
  122246   122318   122462   122504   122430   122350   122331   122339 
  122246   121988   121670   121360   121030   120649   120221   119826 
  119584   119527   119684   120069   120545   120957   121277   121583 
  122014   122638   123337   123917   124297   124526   124675   124799 
  124934   125015   124989   124895   124761   124610   124465   124320 
  124150   123996   123963   124123   124384   124606   124746   124826 
  124835   124779   124694   124599   124457   124263   124082   123982 
  124008   124124   124290   124542   124892   125292   125648   125895 
  126092   126303   126482   126682   127043   127543   128070   128576 
  129030   129412   129702   129860   129992   130242   130501   130589 
  130523   130455   130484   130615   130781   130867   130824   130689 
  130473   130195   129917   129645   129375   129169   129119   129222 
  129377   129520   129679   129878   130042   130087   130032   129917 
  129755   129595   129463   129348   129258   129219   129200   129092 
  128857   128576   128355   128213   128070   127823   127464   127105 
  126841   126657   126528   126470   126455   126472   126531   126631 
  126735   126806   126806   126639   126280   125852   125425   124978 
  124551   124156   123719   123261   122877   122544   122230   121922 
  121602   121329   121180   121167   121257   121394   121570   121722 
  121788   121855   121942   121929   121767   121572   121439   121285 
  121027   120741   120486   120271   120136   120039   119955   119970 
  120132   120420   120779   121212   121790   122454   123076   123628 
  124124   124580   125016   125401   125721   126019   126314   126605 
  126871   127067   127132   126962   126558   126134   125878   125791 
  125774   125732   125674   125620   125502   125270   124981   124727 
  124553   124475   124522   124708   125023   125458   126014   126681 
  127404   128173   129062   130065   131025   131853   132582   133184 
  133563   133753   133890   133987   133955   133731   133315   132818 
  132344   131819   131161   130423   129675   128983   128412   128005 
  127793   127728   127639   127400   127078   126827   126674   126499 
  126188   125770   125378   125115   124937   124745   124533   124326 
  124119   123946   123827   123718   123587   123365   123013   122646 
  122365   122199   122152   122089   121941   121834   121845   121913 
  121990   122085   122222   122419   122697   123034   123391   123753 
  124087   124386   124708   125066   125424   125805   126200   126516 
  126705   126781   126723   126546   126341   126138   125938   125802 
  125764   125788   125860   125973   126022   125905   125736   125699 
  125756   125732   125566   125280   124943   124617   124303   124052 
  123890   123736   123608   123579   123606   123592   123448   123160 
  122794   122423   122135   121953   121848   121857   122030   122400 
  122902   123383   123844   124395   125008   125632   126253   126844 
  127388   127862   128201   128399   128545   128717   128984   129381 
  129794   130127   130416   130650   130677   130420   129984   129428 
  128679   127727   126663   125597   124680   124092   123824   123688 
  123643   123805   124148   124511   124806   125084   125338   125388 
  125163   124789   124343   123812   123199   122493   121687   120791 
  119801   118740   117702   116723   115761   114849   114111   113582 
  113252   113139   113166   113252   113410   113663   114027   114529 
  115148   115875   116733   117652   118613   119727   120962   122135 
  123238   124337   125396   126404   127396   128339   129168   129867 
  130542   131346   132262   133128   133902   134631   135329   135946 
  136418   136742   136964   137096   137074   136818   136327   135657 
  134878   134088   133340   132629   131993   131382   130707   130049 
  129478   128974   128542   128144   127754   127449   127265   127136 
  126981   126786   126576   126328   125987   125482   124826   124137 
  123452   122739   122077   121529   121035   120509   119938   119453 
  119180   119110   119223   119485   119830   120217   120591   120939 
  121290   121560   121641   121540   121325   121085   120893   120691 
  120360   119917   119495   119194   118995   118814   118636   118480 
  118312   118103   117927   117887   117946   117991   118000   117999 
  118006   118077   118208   118326   118440   118604   118832   119196 
  119790   120661   121807   123103   124351   125575   126967   128511 
  129987   131209   132147   132869   133417   133790   134061   134335 
  134601   134796   134933   135008   134901   134558   134102   133681 
  133321   132927   132367   131619   130817   130104   129465   128776 
  127984   127192   126569   126158   125876   125639   125437   125356 
  125502   125826   126157   126457   126804   127151   127334   127284 
  127079   126801   126430   125902   125278   124737   124355   124059 
  123804   123589   123379   123174   123039   123005   123082   123250 
  123471   123749   124106   124474   124740   124912   125076   125228 
  125311   125266   125139   125077   125107   125116   125043   124891 
  124717   124650   124750   124927   125081   125207   125316   125401 
  125454   125470   125454   125428   125362   125205   124962   124665 
  124387   124206   124119   124136   124282   124514   124837   125231 
  125617   126025   126519   127126   127800   128432   129060   129730 
  130383   131036   131680   132139   132328   132327   132177   131811 
  131205   130453   129636   128825   128132   127610   127241   126951 
  126609   126187   125747   125369   125163   125104   125041   124883 
  124648   124448   124376   124368   124302   124163   124047   124011 
  123984   123878   123696   123454   123167   122894   122671   122445 
  122126   121734   121463   121429   121522   121691   121994   122369 
  122754   123156   123549   123890   124178   124437   124673   124862 
  125046   125325   125697   126087   126527   127056   127558   127938 
  128239   128498   128623   128578   128472   128360   128156   127793 
  127229   126436   125471   124461   123512   122667   121945   121385 
  121031   120811   120594   120357   120140   119955   119851   119871 
  119978   120144   120440   120947   121659   122476   123299   124074 
  124779   125404   125888   126175   126324   126377   126280   126050 
  125730   125339   124953   124607   124332   124233   124301   124391 
  124370   124206   124028   123931   123862   123738   123547   123350 
  123192   123052   122910   122766   122642   122593   122624   122721 
  122899   123142   123433   123789   124204   124615   125004   125390 
  125733   125952   126052   126081   126091   126146   126253   126320 
  126292   126202   126098   125973   125836   125759   125775   125811 
  125830   125887   126048   126335   126682   126985   127201   127306 
  127295   127290   127332   127329   127253   127114   126904   126630 
  126277   125840   125455   125294   125370   125608   125987   126532 
  127260   128094   128898   129601   130184   130644   131033   131348 
  131506   131464   131193   130701   130129   129617   129132   128602 
  128086   127664   127319   127044   126817   126586   126372   126230 
  126146   126102   126110   126189   126401   126727   127018   127261 
  127522   127727   127766   127660   127508   127329   127035   126628 
  126200   125726   125149   124564   124128   123865   123755   123873 
  124202   124645   125196   125805   126315   126704   127037   127322 
  127558   127776   127943   127986   127930   127865   127804   127726 
  127639   127543   127430   127246   126908   126481   126126   125883 
  125726   125644   125583   125478   125329   125135   124861   124549 
  124275   124052   123835   123565   123286   123141   123214   123495 
  123878   124208   124425   124615   124877   125213   125497   125598 
  125541   125421   125254   125007   124672   124263   123788   123284 
  122844   122530   122327   122216   122197   122308   122594   123036 
  123584   124248   125080   126046   127025   127954   128818   129563 
  130113   130437   130582   130605   130582   130593   130588   130414 
  130049   129631   129239   128848   128382   127761   127022   126223 
  125347   124464   123642   122828   122010   121265   120636   120137 
  119739   119369   119014   118705   118458   118322   118331   118482 
  118866   119558   120424   121355   122408   123570   124761   125894 
  126860   127661   128403   129108   129693   130075   130187   129994 
  129550   128960   128295   127623   127030   126536   126072   125621 
  125216   124845   124479   124125   123770   123353   122877   122467 
  122246   122176   122110   121953   121747   121554   121405   121296 
  121155   120941   120715   120636   120780   121045   121324   121598 
  121884   122216   122617   123026   123319   123404   123310   123152 
  122991   122839   122783   122960   123341   123781   124258   124775 
  125213   125540   125786   125971   126188   126430   126580   126711 
  126964   127329   127720   128038   128177   128124   128023   128040 
  128217   128521   128918   129359   129778   130084   130216   130239 
  130275   130327   130322   130212   129972   129621   129185   128700 
