Origin Time       2025/01/13 21:19:00
Lat.              31.8
Long.             131.6
Depth. (km)       30
Mag.              6.9
Station Code      OITH08
Station Lat.      32.8392
Station Long.     131.5357
Station Height(m) 159
Record Time       2025/01/13 21:19:51
Sampling Freq(Hz) 100Hz
Duration Time(s)  162
Dir.              2
Scale Factor      2942(gal)/8224139
Max. Acc. (gal)   5.807
Last Correction   2025/01/13 21:19:51
Memo.             
[...]
 -209231  -209807  -210249  -210375  -210325  -210212  -209987  -209637 
 -209209  -208818  -208672  -208757  -208764  -208541  -208218  -207982 
 -207982  -208197  -208402  -208487  -208572  -208691  -208718  -208646 
 -208614  -208700  -208861  -208958  -208870  -208649  -208538  -208680 
 -208936  -209164  -209352  -209509  -209668  -209730  -209536  -209210 
 -208984  -208836  -208700  -208661  -208768  -208946  -209163  -209360 
 -209366  -209197  -209063  -209004  -208896  -208662  -208296  -207901 
 -207619  -207482  -207499  -207632  -207693  -207577  -207530  -207785 
 -208170  -208400  -208468  -208494  -208494  -208395  -208225  -208093 
 -208052  -208143  -208413  -208792  -209228  -209713  -210093  -210222 
 -210127  -209939  -209854  -209980  -210199  -210359  -210369  -210172 
 -209799  -209348  -208865  -208414  -208153  -208268  -208780  -209428 
 -209865  -209983  -209933  -209996  -210197  -210246  -210065  -209902 
 -209864  -209781  -209510  -209125  -208734  -208379  -208217  -208407 
 -208869  -209340  -209667  -209804  -209677  -209328  -208974  -208739 
 -208592  -208491  -208381  -208202  -207947  -207624  -207281  -207045 
 -206875  -206640  -206554  -206940  -207789  -208784  -209542  -209891 
 -209947  -209968  -210176  -210587  -211063  -211442  -211511  -211219 
 -210848  -210679  -210767  -210995  -211191  -211253  -211131  -210743 
 -210123  -209507  -209106  -208947  -208973  -209082  -209125  -209023 
 -208828  -208579  -208272  -208008  -207897  -207910  -207925  -207881 
 -207848  -207864  -207835  -207693  -207508  -207451  -207643  -207995 
 -208386  -208759  -209021  -209100  -209011  -208838  -208818  -209075 
 -209430  -209738  -210023  -210180  -210003  -209491  -208793  -208087 
 -207607  -207492  -207654  -207906  -208033  -207883  -207593  -207492 
 -207738  -208211  -208795  -209416  -209876  -209969  -209754  -209478 
 -209221  -208904  -208584  -208387  -208334  -208430  -208633  -208870 
 -209119  -209356  -209630  -209984  -210292  -210413  -210343  -210141 
 -209879  -209555  -209224  -209155  -209412  -209614  -209494  -209156 
 -208751  -208369  -208179  -208299  -208618  -208946  -209208  -209416 
 -209579  -209628  -209568  -209595  -209834  -210205  -210562  -210790 
 -210837  -210676  -210297  -209831  -209513  -209511  -209741  -209900 
 -209865  -209740  -209553  -209332  -209232  -209299  -209402  -209412 
 -209271  -209046  -208921  -209005  -209252  -209575  -209808  -209771 
 -209486  -209201  -209096  -209092  -209040  -208958  -208928  -208943 
 -208946  -208928  -208921  -208996  -209275  -209758  -210216  -210477 
 -210573  -210536  -210358  -210120  -209970  -209960  -210004  -209934 
 -209601  -209159  -208954  -209046  -209185  -209096  -208700  -208218 
 -207879  -207689  -207642  -207763  -207981  -208207  -208337  -208341 
 -208356  -208471  -208633  -208758  -208832  -208924  -209101  -209375 
 -209709  -209974  -210043  -209914  -209669  -209493  -209588  -209892 
 -210087  -209911  -209470  -209162  -209182  -209425  -209767  -210074 
 -210292  -210421  -210338  -210045  -209771  -209614  -209575  -209636 
 -209601  -209312  -208870  -208417  -207987  -207592  -207206  -206830 
 -206512  -206247  -205977  -205688  -205421  -205291  -205459  -205915 
 -206419  -206747  -206918  -207119  -207503  -208009  -208444  -208765 
 -209067  -209353  -209555  -209742  -210104  -210597  -210934  -210978 
 -210816  -210573  -210296  -209985  -209750  -209763  -210011  -210276 
 -210308  -210082  -209826  -209702  -209683  -209738  -209830  -209900 
 -210023  -210255  -210458  -210513  -210525  -210682  -211002  -211277 
 -211303  -211084  -210702  -210266  -209979  -209925  -209953  -209919 
 -209881  -209952  -210111  -210243  -210270  -210193  -210042  -209829 
 -209588  -209407  -209358  -209348  -209210  -209009  -208975  -209108 
 -209277  -209424  -209459  -209341  -209159  -208957  -208699  -208403 
 -208129  -207916  -207732  -207536  -207415  -207495  -207797  -208280 
 -208835  -209318  -209680  -209985  -210308  -210583  -210674  -210593 
 -210486  -210388  -210230  -210050  -209942  -209925  -210008  -210181 
 -210359  -210413  -210307  -210145  -210018  -209910  -209785  -209719 
 -209839  -210080  -210170  -209891  -209326  -208772  -208305  -207846 
 -207493  -207312  -207127  -206829  -206581  -206578  -206753  -206884 
 -206923  -206964  -207026  -207141  -207389  -207609  -207536  -207250 
 -207004  -206955  -207177  -207546  -207814  -207979  -208164  -208346 
 -208475  -208541  -208453  -208230  -208121  -208257  -208477  -208630 
 -208832  -209247  -209796  -210254  -210493  -210529  -210424  -210224 
 -210066  -210192  -210516  -210616  -210419  -210212  -210084  -209931 
 -209665  -209262  -208836  -208542  -208373  -208184  -207895  -207634 
 -207544  -207515  -207376  -207191  -207108  -207171  -207334  -207512 
 -207666  -207817  -207952  -208049  -208102  -208149  -208259  -208373 
 -208488  -208789  -209348  -209969  -210398  -210504  -210359  -210168 
 -210042  -209965  -209885  -209817  -209844  -209980  -210154  -210323 
 -210470  -210562  -210575  -210539  -210544  -210639  -210740  -210756 
 -210728  -210786  -210973  -211207  -211414  -211538  -211573  -211648 
 -211881  -212193  -212425  -212468  -212244  -211767  -211172  -210675 
 -210514  -210725  -211102  -211368  -211337  -211080  -210822  -210654 
 -210581  -210600  -210694  -210888  -211129  -211296  -211341  -211242 
 -211034  -210807  -210554  -210208  -209792  -209313  -208707  -207983 
 -207245  -206616  -206234  -206093  -205958  -205638  -205170  -204616 
 -203967  -203326  -202886  -202733  -202795  -202922  -202975  -202879 
 -202733  -202706  -202787  -202910  -203102  -203341  -203532  -203639 
 -203662  -203602  -203463  -203251  -203021  -202888  -202925  -203110 
 -203332  -203420  -203357  -203382  -203642  -204076  -204604  -205154 
 -205710  -206321  -206949  -207555  -208133  -208589  -208897  -209162 
 -209466  -209852  -210331  -210880  -211486  -212145  -212835  -213466 
 -213946  -214320  -214666  -215017  -215376  -215585  -215438  -214991 
 -214463  -213942  -213430  -213019  -212746  -212577  -212558  -212654 
 -212719  -212724  -212626  -212314  -211850  -211445  -211215  -211069 
 -210875  -210559  -210060  -209436  -208862  -208449  -208268  -208241 
 -208174  -208101  -208256  -208681  -209169  -209511  -209682  -209753 
 -209763  -209694  -209552  -209371  -209163  -209000  -208997  -209148 
 -209305  -209402  -209518  -209619  -209556  -209374  -209231  -209144 
 -209144  -209325  -209683  -210182  -210820  -211482  -212059  -212533 
 -212903  -213214  -213568  -213976  -214304  -214344  -214008  -213499 
 -213127  -212971  -212950  -213065  -213316  -213460  -213219  -212589 
 -211704  -210686  -209706  -208943  -208456  -208090  -207600  -206982 
 -206505  -206371  -206575  -207046  -207689  -208340  -208827  -209083 
 -209144  -209066  -208873  -208583  -208363  -208367  -208422  -208245 
 -207783  -207125  -206416  -205741  -205039  -204384  -203960  -203770 
 -203735  -203839  -204017  -204152  -204159  -204063  -203975  -204028 
 -204356  -205004  -205857  -206803  -207798  -208743  -209509  -210105 
 -210637  -211113  -211455  -211678  -211866  -212093  -212314  -212326 
 -212002  -211392  -210556  -209553  -208543  -207674  -206894  -206081 
 -205285  -204597  -203982  -203397  -202836  -202329  -202041  -202049 
 -202216  -202490  -202934  -203478  -203968  -204361  -204736  -205097 
 -205380  -205629  -205852  -206043  -206379  -206976  -207705  -208477 
 -209375  -210459  -211581  -212450  -212888  -212935  -212795  -212679 
 -212588  -212349  -211947  -211551  -211218  -210867  -210409  -209679 
 -208635  -207543  -206764  -206458  -206482  -206635  -206857  -207177 
 -207594  -208074  -208618  -209247  -209925  -210568  -211125  -211572 
 -211901  -212190  -212502  -212768  -212984  -213243  -213475  -213522 
 -213406  -213229  -212951  -212550  -212186  -212006  -211966  -211943 
 -211945  -212067  -212357  -212865  -213602  -214428  -215156  -215712 
 -216087  -216302  -216460  -216664  -216954  -217243  -217297  -216959 
 -216189  -214971  -213456  -211820  -210087  -208426  -207125  -206224 
 -205611  -205235  -205063  -205058  -205193  -205425  -205637  -205654 
 -205421  -205065  -204750  -204589  -204614  -204670  -204552  -204209 
 -203771  -203443  -203324  -203353  -203489  -203771  -204201  -204726 
 -205275  -205664  -205609  -205048  -204255  -203481  -202844  -202413 
 -202147  -201931  -201731  -201572  -201467  -201467  -201622  -201930 
 -202436  -203246  -204310  -205416  -206367  -207052  -207453  -207617 
 -207621  -207555  -207503  -207493  -207531  -207709  -208171  -208889 
 -209730  -210694  -211873  -213213  -214544  -215790  -217047  -218357 
 -219635  -220804  -221795  -222519  -222983  -223268  -223396  -223408 
 -223381  -223277  -222971  -222439  -221765  -221003  -220190  -219387 
 -218635  -217965  -217387  -216886  -216472  -216091  -215628  -215037 
 -214361  -213702  -213171  -212750  -212338  -211862  -211343  -210937 
 -210693  -210419  -209922  -209120  -208090  -207009  -205885  -204707 
 -203625  -202734  -202038  -201514  -201069  -200619  -200119  -199555 
 -199000  -198574  -198319  -198225  -198328  -198668  -199169  -199678 
 -200065  -200229  -200137  -199872  -199551  -199293  -199222  -199407 
 -199755  -200090  -200318  -200427  -200502  -200720  -201204  -201864 
 -202525  -203104  -203611  -204109  -204715  -205483  -206338  -207207 
 -208032  -208711  -209197  -209518  -209771  -210150  -210772  -211561 
 -212388  -213159  -213780  -214245  -214659  -215092  -215507  -215860 
 -216187  -216523  -216881  -217309  -217864  -218508  -219084  -219464 
 -219709  -219962  -220183  -220214  -220060  -219838  -219588  -219330 
 -219095  -218830  -218485  -218083  -217638  -217148  -216672  -216267 
 -215862  -215327  -214628  -213860  -213183  -212658  -212183  -211698 
 -211226  -210724  -210189  -209695  -209183  -208539  -207817  -207133 
 -206567  -206165  -205822  -205384  -204932  -204627  -204496  -204531 
 -204746  -205166  -205802  -206609  -207536  -208534  -209483  -210253 
 -210814  -211323  -211983  -212781  -213509  -213954  -214057  -213911 
 -213621  -213229  -212776  -212232  -211535  -210779  -210120  -209561 
 -209047  -208542  -208047  -207643  -207323  -206961  -206539  -206143 
 -205816  -205509  -205162  -204823  -204600  -204531  -204589  -204676 
 -204630  -204361  -203914  -203343  -202655  -201849  -200946  -200026 
 -199222  -198632  -198197  -197742  -197214  -196771  -196582  -196676 
 -196967  -197352  -197787  -198234  -198595  -198845  -199075  -199381 
 -199790  -200252  -200637  -200853  -200911  -200854  -200778  -200844 
 -201160  -201719  -202433  -203220  -204052  -204909  -205792  -206743 
 -207759  -208786  -209787  -210784  -211847  -212970  -214034  -214903 
 -215542  -215995  -216230  -216106  -215584  -214894  -214373  -214137 
 -214076  -214137  -214408  -214906  -215511  -216113  -216681  -217220 
 -217696  -218077  -218340  -218400  -218201  -217827  -217355  -216810 
 -216255  -215719  -215129  -214408  -213584  -212803  -212220  -211908 
 -211825  -211889  -212005  -212122  -212286  -212495  -212634  -212610 
 -212421  -212188  -212091  -212116  -212047  -211702  -211098  -210415 
 -209812  -209299  -208777  -208128  -207314  -206448  -205676  -205027 
 -204471  -204047  -203787  -203674  -203656  -203715  -203841  -203976 
 -204093  -204276  -204561  -204880  -205187  -205507  -205933  -206560 
 -207377  -208360  -209443  -210397  -211023  -211356  -211615  -212013 
 -212573  -213173  -213651  -213877  -213903  -213916  -214024  -214226 
 -214466  -214602  -214461  -213952  -213084  -211960  -210762  -209649 
 -208715  -207978  -207405  -206945  -206543  -206180  -205906  -205798 
 -205915  -206231  -206624  -206998  -207357  -207740  -208137  -208488 
 -208765  -208998  -209233  -209506  -209822  -210112  -210351  -210550 
 -210566  -210278  -209849  -209511  -209376  -209464  -209653  -209790 
 -209834  -209812  -209815  -209974  -210266  -210578  -210909  -211296 
 -211713  -212139  -212546  -212850  -212989  -212970  -212831  -212684 
 -212635  -212687  -212774  -212830  -212850  -212897  -212943  -212892 
 -212776  -212692  -212654  -212572  -212261  -211581  -210593  -209533 
 -208638  -208010  -207596  -207300  -207095  -206859  -206454  -205983 
 -205583  -205208  -204839  -204511  -204195  -203982  -204026  -204261 
 -204493  -204645  -204722  -204735  -204723  -204800  -205078  -205579 
 -206258  -207057  -207906  -208761  -209640  -210562  -211492  -212341 
 -213025  -213559  -213950  -214131  -214070  -213779  -213216  -212359 
 -211300  -210209  -209232  -208413  -207705  -207091  -206578  -206105 
 -205592  -204994  -204338  -203804  -203612  -203824  -204323  -204966 
 -205660  -206328  -206871  -207196  -207330  -207441  -207681  -208053 
 -208506  -209036  -209617  -210146  -210514  -210658  -210640  -210621 
 -210694  -210838  -210988  -211110  -211204  -211272  -211341  -211481 
 -211769  -212198  -212684  -213104  -213354  -213374  -213139  -212612 
 -211839  -210969  -210058  -208984  -207639  -206068  -204421  -202855 
 -201402  -200009  -198707  -197538  -196446  -195462  -194753  -194358 
 -194197  -194274  -194584  -195031  -195536  -196101  -196739  -197459 
 -198240  -199042  -199859  -200765  -201864  -203175  -204643  -206213 
 -207823  -209440  -211091  -212800  -214481  -216016  -217444  -218910 
 -220452  -221942  -223222  -224230  -224946  -225329  -225362  -225127 
 -224780  -224468  -224220  -223892  -223349  -222617  -221726  -220656 
 -219496  -218413  -217505  -216812  -216349  -216071  -215925  -215858 
 -215781  -215628  -215388  -215068  -214621  -213887  -212764  -211356 
 -209839  -208379  -207033  -205703  -204313  -202919  -201567  -200222 
 -198880  -197608  -196547  -195921  -195863  -196281  -196943  -197629 
 -198254  -198871  -199558  -200325  -201145  -202027  -202988  -203989 
 -204909  -205683  -206304  -206776  -207150  -207534  -208052  -208731 
 -209441  -210019  -210375  -210568  -210797  -211199  -211736  -212302 
 -212799  -213174  -213463  -213714  -213927  -214119  -214301  -214490 
 -214706  -214872  -214853  -214594  -214116  -213514  -212870  -212237 
 -211682  -211162  -210512  -209713  -208967  -208454  -208163  -208002 
 -207905  -207809  -207717  -207700  -207804  -208056  -208460  -208938 
 -209413  -209883  -210365  -210895  -211547  -212323  -213082  -213667 
 -213962  -213875  -213409  -212726  -212014  -211387  -210917  -210593 
 -210303  -209980  -209665  -209390  -209098  -208699  -208172  -207635 
 -207235  -207026  -207011  -207243  -207727  -208326  -208870  -209210 
 -209258  -209075  -208812  -208560  -208365  -208226  -208028  -207639 
 -207073  -206440  -205852  -205430  -205205  -205156  -205325  -205664 
 -206038  -206338  -206482  -206537  -206709  -207072  -207612  -208354 
 -209264  -210271  -211306  -212224  -212900  -213298  -213406  -213310 
 -213185  -213129  -213178  -213321  -213416  -213281  -212881  -212290 
 -211570  -210708  -209653  -208453  -207269  -206200  -205231  -204414 
 -203833  -203391  -202898  -202257  -201487  -200732  -200153  -199785 
 -199638  -199795  -200294  -201042  -201920  -202822  -203674  -204531 
 -205509  -206568  -207569  -208460  -209297  -210146  -211027  -211925 
 -212801  -213628  -214398  -215084  -215697  -216336  -216984  -217452 
 -217602  -217433  -216985  -216306  -215504  -214739  -214100  -213489 
 -212749  -211844  -210821  -209757  -208809  -208105  -207594  -207073 
 -206401  -205636  -204886  -204152  -203436  -202884  -202718  -203018 
 -203666  -204518  -205483  -206429  -207185  -207662  -207985  -208377 
 -208990  -209881  -211011  -212241  -213395  -214324  -214971  -215418 
 -215775  -216051  -216174  -216125  -215919  -215619  -215373  -215244 
 -215157  -215068  -214963  -214806  -214578  -214250  -213752  -213044 
 -212153  -211133  -210112  -209228  -208472  -207729  -206867  -205834 
 -204727  -203700  -202861  -202261  -201877  -201664  -201549  -201434 
 -201299  -201259  -201455  -201946  -202660  -203419  -204064  -204527 
 -204862  -205218  -205721  -206342  -206937  -207389  -207669  -207792 
 -207819  -207843  -207948  -208213  -208673  -209237  -209754  -210192 
 -210620  -211072  -211550  -212083  -212661  -213192  -213630  -213991 
 -214270  -214467  -214629  -214818  -215049  -215296  -215496  -215528 
 -215304  -214813  -214083  -213178  -212268  -211555  -211117  -210884 
 -210805  -210864  -211036  -211280  -211531  -211755  -212022  -212359 
 -212668  -212915  -213175  -213483  -213772  -213966  -214011  -213876 
 -213590  -213181  -212639  -211991  -211339  -210770  -210266  -209811 
 -209455  -209206  -209021  -208834  -208560  -208170  -207708  -207258 
 -206929  -206783  -206805  -206953  -207185  -207470  -207794  -208093 
 -208257  -208286  -208300  -208395  -208618  -208953  -209306  -209657 
 -210045  -210438  -210776  -211038  -211254  -211515  -211790  -211925 
 -211846  -211640  -211446  -211338  -211331  -211442  -211713  -212113 
 -212514  -212799  -212916  -212907  -212842  -212706  -212453  -212053 
 -211518  -210946  -210455  -210051  -209698  -209366  -209028  -208666 
 -208280  -207941  -207732  -207662  -207719  -207835  -207854  -207681 
 -207351  -206915  -206382  -205776  -205154  -204574  -204136  -203963 
 -204125  -204597  -205279  -206023  -206713  -207304  -207790  -208149 
 -208338  -208357  -208349  -208458  -208657  -208780  -208673  -208294 
 -207701  -206998  -206240  -205413  -204489  -203485  -202486  -201586 
 -200842  -200356  -200187  -200242  -200414  -200707  -201198  -201965 
 -203040  -204384  -205919  -207542  -209100  -210404  -211364  -212049 
 -212584  -213081  -213590  -214084  -214462  -214604  -214497  -214246 
 -213946  -213619  -213232  -212751  -212205  -211685  -211284  -211037 
 -210899  -210768  -210562  -210224  -209737  -209186  -208727  -208444 
 -208295  -208202  -208118  -207991  -207759  -207376  -206868  -206332 
 -205856  -205487  -205236  -205075  -204970  -204905  -204881  -204912 
 -205012  -205152  -205345  -205684  -206208  -206828  -207399  -207841 
 -208191  -208525  -208911  -209344  -209714  -209918  -209958  -209904 
 -209821  -209779  -209861  -210051  -210207  -210239  -210169  -210061 
 -209981  -209916  -209811  -209663  -209482  -209256  -208938  -208494 
 -207972  -207405  -206749  -206015  -205317  -204770  -204396  -204130 
 -203928  -203814  -203791  -203808  -203802  -203708  -203481  -203168 
 -202861  -202645  -202637  -202929  -203463  -204145  -204940  -205833 
 -206767  -207655  -208491  -209306  -210060  -210732  -211361  -211920 
 -212360  -212728  -213124  -213597  -214103  -214523  -214822  -215115 
 -215487  -215935  -216423  -216859  -217165  -217356  -217445  -217443 
 -217386  -217254  -217003  -216630  -216151  -215636  -215188  -214807 
 -214404  -213879  -213185  -212361  -211523  -210753  -210068  -209520 
 -209181  -209011  -208909  -208792  -208606  -208349  -208057  -207806 
 -207655  -207584  -207563  -207580  -207601  -207598  -207523  -207347 
 -207165  -207050  -206998  -207017  -207079  -207153  -207300  -207554 
 -207870  -208199  -208467  -208642  -208795  -208955  -209117  -209325 
 -209641  -210105  -210671  -211249  -211785  -212238  -212550  -212680 
