Origin Time       2025/01/13 21:19:00
Lat.              31.8
Long.             131.6
Depth. (km)       30
Mag.              6.9
Station Code      OITH09
Station Lat.      32.8486
Station Long.     131.6786
Station Height(m) 90
Record Time       2025/01/13 21:19:52
Sampling Freq(Hz) 100Hz
Duration Time(s)  173
Dir.              2
Scale Factor      2942(gal)/8224139
Max. Acc. (gal)   6.626
Last Correction   2025/01/13 21:19:52
Memo.             
[...]
  100391   100087    99775    99558    99561    99855   100326   100750 
  101042   101306   101547   101548   101248   100978   101048   101325 
  101428   101279   101182   101282   101336   101200   101075   101094 
  101067   100903   100855   101052   101129   100768   100333   100371 
  100754   100921   100662   100267   100075   100144   100344   100581 
  100784   100815   100642   100431   100303   100222   100151   100188 
  100480   100981   101445   101665   101578   101281   101039   101094 
  101402   101636   101514   101105   100738   100585   100502   100303 
  100036    99913   100025   100184   100172    99993    99805    99782 
   99995   100265   100309   100090    99850    99828   100041   100334 
  100581   100741   100784   100741   100700   100692   100689   100688 
  100735   100873   100994   100831   100329    99910   100043   100554 
  100913   101050   101218   101368   101200   100734   100390   100398 
  100588   100799   100919   100755   100367   100171   100367   100556 
  100344   100071   100325   100911   101097   100781   100545   100566 
  100489   100296   100354   100651   100746   100508   100360   100635 
  101094   101274   101070   100749   100537   100503   100685   100955 
  101008   100737   100361   100087    99873    99697    99765   100153 
  100564   100723   100750   100824   100834   100746   100867   101331 
  101731   101660   101360   101348   101579   101617   101374   101137 
  101038   100942   100786   100676   100565   100251    99860    99800 
  100047   100151    99924    99673    99704    99948   100192   100453 
  100872   101329   101455   101129   100724   100647   100886   101090 
  100966   100606   100379   100508   100762   100718   100325    99964 
   99982   100303   100552   100525   100373   100280   100242   100240 
  100348   100591   100815   100880   100903   101077   101299   101337 
  101231   101209   101285   101214   100938   100751   100915   101254 
  101305   100813   100003    99381    99343    99813   100261   100283 
  100008    99862   100078   100514   100858   100931   100785   100703 
  100947   101333   101383   101013   100739   101025   101584   101646 
  101070   100569   100634   100934   100924   100624   100521   100677 
  100593   100174   100026   100556   101252   101308   100716   100209 
  100172   100209    99959    99743    99900   100132   100041    99819 
   99925   100291   100396   100159   100097   100423   100695   100557 
  100332   100531   101002   101100   100697   100353   100441   100732 
  100903   101007   101229   101399   101305   101244   101560   101942 
  101785   101121   100654   100808   101197   101236   100874   100435 
  100067    99756    99655    99929   100414   100741   100786   100712 
  100580   100276    99808    99501    99797   100619   101239   101127 
  100607   100367   100522   100615   100468   100467   100839   101212 
  101159   100808   100576   100603   100716   100832   101005   101173 
  101228   101191   101027   100630   100145    99913   100137   100746 
  101337   101464   101125   100688   100448   100488   100629   100587 
  100296    99995   100024   100441   100832   100703   100148    99832 
  100114   100543   100542   100179    99997   100252   100606   100691 
  100631   100660   100724   100799   101032   101376   101499   101302 
  101124   101210   101341   101278   101218   101410   101561   101260 
  100718   100444   100468   100491   100422   100390   100457   100508 
  100398   100140    99833    99571    99455    99476    99603    99885 
  100209   100298   100144   100148   100581   101125   101331   101262 
  101218   101137   100793   100417   100475   100866   101011   100753 
  100541   100676   100869   100759   100514   100558   100931   101289 
  101345   101110   100776   100518   100489   100753   101048   100946 
  100403    99859    99661    99638    99468    99245    99331    99738 
  100056   100001    99738    99634    99855   100272   100651   100921 
  101205   101529   101682   101503   101208   101178   101391   101482 
  101351   101264   101336   101316   101056   100822   100842   100915 
  100747   100430   100349   100645   100984   101063   100985   100961 
  100970   100886   100768   100854   101210   101487   101220   100421 
   99678    99465    99652    99890   100090   100372   100699   100830 
  100735   100750   101079   101434   101452   101317   101526   101988 
  102031   101433   100836   100923   101409   101413   100738   100141 
  100222   100607   100629   100365   100303   100527   100828   101082 
  101217   101147   100997   101074   101394   101557   101267   100826 
  100768   101075   101248   101070   100899   101088   101444   101564 
  101488   101575   101898   102108   102006   101956   102354   102924 
  103059   102745   102570   102682   102579   102081   101738   102068 
  102848   103410   103530   103515   103449   103113   102621   102504 
  102998   103582   103577   103049   102648   102652   102681   102440 
  102178   102132   102108   101865   101540   101468   101700   101906 
  101852   101687   101621   101710   101922   102120   102174   102069 
  101945   102008   102134   101964   101557   101320   101287   101104 
  100626   100194   100156   100322   100194    99642    99092    99023 
   99384    99617    99312    98749    98620    99112    99677    99886 
   99944   100086   100144    99932    99719    99956   100537   100839 
  100692   100599   100761   100703   100191    99787    99997   100379 
  100259    99870    99809    99833    99295    98473    98296    98753 
   98842    98286    98015    98533    99025    98736    98176    98145 
   98439    98343    97881    97679    97891    98026    97781    97355 
   96888    96245    95411    94624    94032    93525    93008    92642 
   92614    92788    92835    92599    92296    92364    93005    94028 
   95160    96337    97667    99067   100210   101046   101945   103117 
  104236   104895   105127   105193   105155   104949   104773   104993 
  105506   105745   105602   105580   105875   106007   105673   105409 
  105835   106618   106832   106213   105507   105360   105457   105167 
  104566   104295   104622   105108   105285   105138   104755   104063 
  103173   102648   102872   103385   103381   102770   102155   101903 
  101746   101320   100674   100068    99455    98628    97756    97247 
   97120    97000    96758    96616    96650    96650    96480    96277 
   96201    96195    96229    96395    96611    96568    96070    95332 
   94942    95280    96088    96959    97839    98780    99625   100137 
  100310   100438   100755   101212   101694   102122   102404   102431 
  102008   100989    99650    98651    98388    98508    98451    98301 
   98475    98938    99339    99688   100402   101534   102475   102829 
  102999   103388   103709   103539   103063   102725   102560   102307 
  101899   101579   101596   101915   102394   102938   103362   103545 
  103696   104043   104523   104974   105320   105489   105327   104846 
  104355   104036   103661   103015   102384   102297   102766   103204 
  103292   103231   103003   102204   100816    99477    98655    98095 
   97393    96622    96001    95389    94466    93206    91951    91130 
   90937    91165    91469    91751    92186    92986    94150    95362 
   96325    97110    97987    99042   100102   100894   101220   101025 
  100558   100333   100656   101312   101853   102051   101972   101704 
  101278   100901   100911   101312   101636   101501   101100   100809 
  100565   100053    99293    98628    98298    98282    98463    98761 
   99144    99585   100029   100363   100514   100538   100564   100660 
  100822   101047   101297   101439   101391   101317   101502   102061 
  102857   103621   104043   103933   103373   102645   102037   101682 
  101664   102080   102814   103468   103717   103604   103289   102826 
  102320   102033   102192   102757   103451   104159   105079   106285 
  107439   108174   108540   108885   109364   109776   109823   109378 
  108522   107428   106266   105160   104180   103346   102577   101680 
  100638    99767    99369    99403    99600    99692    99581    99438 
   99563   100087   100842   101457   101702   101688   101682   101826 
  102161   102709   103252   103266   102459   101133    99847    98849 
   98084    97671    97787    98123    97988    97085    95955    95292 
   95054    94819    94549    94471    94556    94514    94273    94127 
   94335    94927    95952    97389    98909   100213   101486   103054 
  104770   106068   106664   106994   107707   108942   110374   111631 
  112330   112147   111187   110074   109362   108990   108581   107955 
  107169   106386   105835   105700   105961   106425   107061   107954 
  108811   109084   108757   108444   108492   108441   107700   106327 
  104726   103003   101047    99041    97456    96510    95986    95655 
   95486    95397    95162    94686    94109    93553    93020    92573 
   92345    92375    92610    92928    93098    92885    92265    91546 
   91227    91589    92442    93359    94053    94477    94710    94998 
   95766    97232    99041   100514   101310   101726   102317   103304 
  104384   105035   105052   104720   104278   103524   102211   100591 
   99257    98442    97869    97289    96749    96352    96129    96159 
   96512    97039    97463    97741    98076    98581    99139    99569 
   99804    99870    99778    99550    99319    99280    99528   100003 
  100579   101044   101109   100657    99960    99470    99382    99482 
   99462    99264    99021    98906    99094    99612   100190   100394 
  100029    99292    98521    97946    97632    97536    97518    97476 
   97613    98227    99219   100111   100633   100975   101405   101817 
  101957   101876   101784   101667   101385   100961   100573   100329 
  100191   100053    99801    99335    98672    98031    97708    97771 
   97976    98104    98131    98008    97575    96743    95617    94470 
   93629    93370    93761    94491    95121    95574    96129    96938 
   97887    98925   100198   101710   103114   104090   104769   105443 
  106118   106683   107265   108108   109096   109718   109688   109162 
  108330   107271   106155   105327   104984   104854   104483   103804 
  103098   102568   102176   101750   101252   100880   100845   101067 
  101245   101216   101123   101244   101717   102483   103499   104708 
  105823   106474   106612   106413   105934   105102   103995   102910 
  102070   101410   100791   100229    99824    99536    99216    98842 
   98604    98698    99115    99619    99900    99758    99252    98593 
   97927    97326    96870    96604    96522    96623    96898    97314 
   97908    98810   100018   101286   102350   103192   104059   105135 
  106195   106797   106771   106263   105416   104287   102988   101748 
  100722    99893    99265    98996    99185    99671   100126   100395 
  100699   101362   102298   103034   103302   103419   103820   104388 
  104673   104660   104832   105414   105973   106003   105501   104777 
  104005   103231   102605   102220   101812   101011    99831    98732 
   98192    98132    98041    97717    97451    97495    97818    98301 
   98937    99704   100425   100938   101278   101478   101389   100845 
   99905    98944    98440    98599    99247    99955   100233    99850 
   98953    97819    96711    95972    95877    96344    96994    97499 
   97849    98234    98695    99065    99203    99090    98743    98142 
   97356    96709    96552    96894    97451    97907    98130    98190 
   98189    98177    98235    98486    99017    99787   100583   101159 
  101461   101626   101754   101767   101522   101090   100811   101028 
  101773   102690   103276   103243   102713   102103   101865   102195 
  102872   103470   103731   103643   103291   102798   102309   101925 
  101667   101564   101653   101767   101478   100484    98975    97556 
   96754    96572    96589    96380    95787    94900    93793    92414 
   90859    89554    88960    89141    89750    90443    91172    91945 
   92622    93133    93741    94875    96603    98485   100080   101353 
  102531   103653   104467   104796   104792   104750   104819   104958 
  105117   105263   105147   104386   103041   101790   101210   101131 
  100888   100179    99377    98788    98150    97268    96516    96296 
   96468    96550    96399    96387    96754    97241    97578    97879 
   98350    98896    99296    99600   100060   100703   101237   101479 
  101602   101904   102440   102984   103365   103608   103740   103762 
  103813   104170   104980   106049   107048   107806   108341   108716 
  108922   108986   109154   109587   110011   109935   109193   108085 
  107090   106461   106077   105741   105487   105363   105136   104604 
  104051   104008   104638   105583   106431   107048   107365   107190 
  106516   105750   105298   105167   105102   104884   104433   103796 
  103075   102388   101749   101032   100256    99681    99546    99881 
  100465   100903   100815    99983    98475    96720    95245    94304 
   93752    93244    92603    91917    91231    90433    89591    89094 
   89226    89791    90286    90435    90414    90630    91336    92399 
   93361    93823    93775    93515    93276    93098    93147    93706 
   94698    95642    96246    96774    97636    98820    99954   100812 
  101568   102577   104058   105989   108117   110061   111532   112530 
  113263   113969   114799   115812   116995   118179   119002   119180 
  118762   118060   117374   116754   115979   114751   112982   110876 
  108649   106246   103578   100992    99006    97605    96365    95193 
   94489    94524    94981    95370    95662    96114    96657    96944 
   96935    96982    97287    97602    97595    97349    97290    97626 
   98190    98717    99073    99364    99729    99986    99779    99049 
   98217    97876    98181    98709    98852    98177    96634    94722 
   93274    92857    93409    94458    95544    96446    97121    97645 
   98236    99063   100036   100971   101818   102622   103339   103792 
  103844   103459   102622   101463   100392    99816    99682    99462 
   98716    97532    96257    95160    94535    94680    95569    96786 
   97849    98581    99130    99723   100620   102046   103913   105665 
  106650   106717   106254   105691   105312   105268   105489   105548 
  104819   103023   100572    98131    96059    94401    93172    92422 
   92052    91740    91253    90690    90305    90267    90612    91322 
   92456    94057    95879    97402    98251    98614    99087    99975 
  101005   101926   102990   104436   105921   106861   107044   106686 
  106095   105412   104749   104329   104198   104072   103729   103194 
  102454   101422   100280    99590    99808   100726   101634   101973 
  101695   101051   100252    99450    98906    98907    99470   100240 
  100770   100935   101069   101549   102185   102428   102195   101972 
  102103   102371   102433   102343   102294   102123   101572   100873 
  100475   100326    99955    99131    98105    97228    96614    96279 
   96263    96484    96776    97140    97779    98845   100275   101885 
  103507   104947   106054   106824   107343   107682   107856   107846 
  107626   107192   106686   106363   106288   106290   106259   106246 
  106365   106666   107088   107508   107804   107885   107732   107385 
  106826   105946   104711   103237   101682   100147    98716    97490 
   96553    95893    95301    94443    93268    92217    91845    92387 
   93646    95121    96290    97078    97848    98763    99601   100228 
  100804   101457   101922   101779   101062   100259    99733    99411 
   98956    98200    97351    96723    96425    96448    96847    97675 
   98729    99592   100079   100461   101062   101841   102571   103180 
  103653   103802   103435   102732   102262   102456   103018   103245 
  102860   102157   101422   100572    99407    98019    96695    95613 
   94941    94937    95706    96984    98340    99505   100380   100903 
  101119   101363   102123   103624   105530   107104   107751   107457 
  106725   106131   105960   106155   106438   106500   106197   105619 
  104992   104410   103808   103293   103187   103561   104035   104091 
  103535   102566   101416   100143    98906    98070    97846    98046 
   98185    97873    97036    95700    93918    91999    90448    89509 
   88974    88558    88291    88369    88801    89410    90124    90980 
   91916    92778    93511    94220    95040    95972    96916    97837 
   98815    99904   101027   102107   103162   104139   104793   104884 
  104444   103801   103239   102730   102128   101464   100874   100410 
  100113   100040   100090    99995    99594    99023    98570    98381 
   98381    98436    98512    98616    98667    98604    98587    98901 
   99604   100467   101239   101904   102593   103364   104147   104845 
  105345   105489   105177   104544   103877   103345   102891   102417 
  101908   101331   100553    99436    98055    96718    95733    95241 
   95175    95382    95848    96676    97814    98998    99994   100855 
  101829   103048   104431   105826   107145   108295   109151   109691 
  109993   110077   109856   109301   108619   108160   108178   108637 
  109152   109252   108781   107970   107106   106270   105501   104919 
  104531   104056   103110   101609    99886    98323    96944    95521 
   93982    92576    91632    91250    91276    91554    92099    92904 
   93749    94431    95015    95733    96604    97374    97852    98134 
   98475    99011    99577    99895    99890    99752    99708    99796 
   99883    99860    99777    99735    99721    99632    99391    98961 
   98392    97784    97195    96642    96125    95644    95245    94986 
   94856    94776    94737    94868    95320    96115    97117    98165 
   99212   100249   101196   102047   102984   104118   105200   105844 
  106056   106289   106949   107910   108780   109506   110296   111132 
  111825   112334   112693   112820   112608   112167   111820   111751 
  111825   111817   111666   111416   110978   110154   108980   107766 
  106756   105961   105263   104510   103558   102312   100800    99183 
   97669    96433    95521    94815    94122    93333    92514    91790 
   91206    90842    90933    91563    92492    93390    94051    94479 
   94846    95315    95924    96607    97244    97807    98389    99017 
   99543    99806    99854    99877    99975   100052    99912    99455 
   98763    98027    97475    97189    97002    96668    96122    95550 
   95183    95065    95104    95247    95472    95736    96071    96615 
   97497    98643    99705   100263   100221    99954    99922   100225 
  100593   100813   100928   101040   101190   101449   101933   102628 
  103275   103659   103908   104271   104807   105412   106002   106477 
  106722   106817   107046   107491   107817   107670   107188   106793 
  106591   106339   105867   105229   104548   103912   103426   103161 
  103056   102914   102636   102419   102501   102832   103098   103044 
  102678   102170   101617   101023   100452   100049    99856    99705 
   99354    98713    97926    97170    96493    95870    95327    95006 
   94967    95004    94911    94722    94612    94684    94917    95243 
