Origin Time       2025/01/13 21:19:00
Lat.              31.8
Long.             131.6
Depth. (km)       30
Mag.              6.9
Station Code      OITH02
Station Lat.      33.4581
Station Long.     131.4429
Station Height(m) 165
Record Time       2025/01/13 21:20:02
Sampling Freq(Hz) 100Hz
Duration Time(s)  179
Dir.              5
Scale Factor      7845(gal)/8223790
Max. Acc. (gal)   3.767
Last Correction   2025/01/13 21:20:02
Memo.             
[...]
     402      220       -5     -175     -264     -294     -270     -175 
      -6      197      360      446      453      372      211       33 
     -86     -112      -51       49      144      187      143       14 
    -156     -332     -459     -507     -488     -414     -305     -194 
    -126     -139     -233     -387     -584     -776     -873     -797 
    -573     -314     -140      -83     -110     -172     -225     -226 
    -167      -90      -49      -87     -206     -361     -487     -533 
    -495     -436     -434     -500     -577     -591     -506     -357 
    -207     -108      -79     -126     -229     -364     -503     -599 
    -608     -537     -436     -367     -353     -359     -346     -314 
    -265     -222     -228     -302     -414     -487     -448     -265 
      20      294      422      367      205       39      -82     -139 
    -116      -20       98      186      211      144      -24     -236 
    -405     -480     -465     -410     -346     -276     -210     -166 
    -157     -209     -340     -521     -683     -778     -793     -706 
    -491     -174      148      367      423      326      136      -64 
    -210     -270     -252     -199     -176     -226     -324     -378 
    -313     -143       60      232      315      280      126     -109 
    -372     -616     -805     -897     -868     -711     -456     -184 
      16      122      153      121       39      -75     -183     -256 
    -305     -326     -297     -222     -132      -27       86      166 
     157       22     -213     -463     -618     -625     -513     -364 
    -251     -199     -213     -263     -288     -263     -190     -114 
     -93     -139     -234     -369     -526     -672     -760     -754 
    -675     -594     -575     -602     -602     -533     -418     -314 
    -251     -220     -187     -163     -207     -376     -627     -850 
    -959     -923     -749     -464     -117      184      333      305 
     164        9      -89     -126     -113      -36       97      236 
     313      297      210       97      -21     -129     -205     -229 
    -216     -209     -264     -407     -598     -762     -830     -764 
    -581     -342     -118       55      163      193      144       43 
     -75     -182     -247     -247     -197     -133      -83      -66 
    -101     -190     -297     -369     -380     -337     -282     -252 
    -255     -249     -197      -99      -17      -21     -125     -298 
    -511     -743     -942    -1028     -973     -814     -611     -410 
    -228      -90      -14        4      -12      -39      -72     -137 
    -265     -457     -652     -754     -692     -481     -217      -13 
      35      -93     -310     -486     -548     -483     -336     -176 
     -66      -21      -21      -17        6       12      -56     -220 
    -446     -662     -791     -773     -587     -271       70      324 
     430      402      284      121      -64     -275     -480     -607 
    -603     -475     -251        6      221      360      426      411 
     288       47     -264     -567     -793     -907     -900     -784 
    -577     -324      -98       40       76       21     -102     -274 
    -463     -610     -660     -592     -423     -225      -60       36 
      35      -75     -245     -422     -577     -668     -645     -492 
    -259      -27      122      155       76      -86     -302     -519 
    -691     -785     -788     -688     -490     -226       47      253 
     330      259       62     -216     -511     -764     -924     -939 
    -765     -434      -59      244      414      468      460      398 
     272      132       31      -45     -135     -257     -422     -621 
    -810     -920     -888     -708     -429     -110      184      402 
     513      521      418      191     -144     -500     -747     -785 
    -599     -279       16      182      209      121      -39     -206 
    -330     -388     -369     -284     -168      -74      -52     -130 
    -301     -544     -837    -1140    -1366    -1409    -1223     -873 
    -502     -240     -124      -97      -62       47      240      483 
     708      841      824      657      376       35     -322     -645 
    -874     -963     -912     -758     -557     -390     -305     -299 
    -352     -442     -542     -629     -670     -633     -500     -302 
     -82      109      249      332      346      287      189      101 
      51       40       43       24      -36     -149     -318     -517 
    -687     -777     -769     -670     -494     -268      -48      102 
     145       83      -44     -182     -270     -271     -191      -58 
      94      210      226      103     -130     -409     -657     -831 
    -893     -811     -573     -222      128      337      329      125 
    -191     -513     -715     -734     -622     -503     -483     -587 
    -760     -904     -926     -780     -494     -141      179      411 
     552      618      619      565      483      395      298      159 
     -36     -230     -344     -356     -295     -209     -148     -139 
    -179     -252     -332     -384     -379     -325     -260     -220 
    -228     -279     -353     -432     -483     -519     -557     -573 
    -531     -450     -371     -328     -346     -445     -621     -824 
    -970     -963     -760     -402      -12      280      384      288 
      59     -222     -486     -657     -685     -560     -321      -33 
     226      375      360      171     -167     -583     -958    -1188 
   -1217    -1032     -679     -265       78      272      279      116 
    -171     -517     -820     -973     -928     -712     -411     -113 
     143      344      461      472      367      137     -201     -591 
    -946    -1175    -1212    -1044     -708     -255      252      733 
    1094     1237     1113      764      267     -287     -812    -1232 
   -1470    -1463    -1202     -731     -135      463      932     1190 
    1223     1075      807      456       44     -398     -788    -1013 
   -1019     -818     -484     -122      189      395      456      365 
     163     -118     -440     -751    -1019    -1185    -1221    -1165 
   -1074     -997     -958     -928     -882     -807     -666     -436 
    -130      206      513      700      702      510      162     -282 
    -720    -1020    -1074     -885     -564     -233       27      168 
     174       59     -129     -307     -399     -392     -322     -247 
    -222     -263     -330     -387     -432     -483     -549     -618 
    -653     -615     -507     -357     -187      -51      -16     -105 
    -271     -414     -448     -334      -81      253      567      756 
     735      484       89     -317     -612     -712     -610     -367 
     -67      190      325      313      178      -35     -264     -449 
    -546     -533     -406     -187       60      247      310      276 
     201      109        5     -102     -209     -299     -375     -461 
    -577     -704     -788     -776     -639     -357       54      511 
     896     1121     1171     1071      841      498       74     -383 
    -797    -1081    -1182    -1105     -881     -580     -303     -124 
     -51      -55     -114     -209     -309     -380     -417     -454 
    -537     -669     -832     -989    -1062    -1003     -832     -583 
    -283       16      263      417      434      294       10     -378 
    -797    -1163    -1398    -1432    -1236     -865     -414        6 
     294      390      292       47     -280     -625     -927    -1142 
   -1251    -1250    -1127     -884     -558     -216       78      288 
     399      380      245       55     -156     -349     -483     -527 
    -452     -243       58      384      643      741      649      414 
      93     -270     -649     -986    -1193    -1205    -1017     -676 
    -270      120      432      599      567      342        1     -359 
    -661     -861     -923     -835     -633     -405     -270     -286 
    -410     -549     -634     -633     -541     -379     -171       41 
     216      318      324      229       60     -122     -263     -328 
    -302     -198      -76       -8      -35     -140     -264     -322 
    -238      -13      257      453      494      373      166      -52 
    -210     -255     -183      -16      218      464      646      687 
     521      136     -395     -959    -1440    -1741    -1834    -1759 
   -1555    -1244     -859     -449      -82      155      214      112 
     -95     -344     -571     -714     -716     -560     -274       43 
     279      368      313      179       33      -93     -189     -240 
    -249     -238     -264     -372     -529     -631     -615     -504 
    -363     -229     -128      -94     -141     -241     -352     -432 
    -450     -406     -330     -268     -238     -233     -248     -290 
    -352     -421     -460     -415     -275      -79      122      301 
     414      419      282      -28     -475     -961    -1385    -1655 
   -1698    -1503    -1111     -603     -106      278      491      545 
     491      355      125     -172     -491     -773     -950     -972 
    -827     -544     -206       78      251      297      243      145 
      58       -5      -52      -97     -148     -193     -210     -182 
     -97       12      102      133       86      -21     -157     -314 
    -486     -631     -697     -662     -545     -365     -125      130 
     324      387      271      -41     -496     -970    -1317    -1432 
   -1289     -942     -504      -89      230      426      511      477 
     301      -16     -450     -946    -1387    -1644    -1642    -1379 
    -912     -345      213      669      950     1003      824      479 
      59     -363     -761    -1096    -1310    -1347    -1183     -857 
    -441      -18      318      503      521      399      194      -39 
    -291     -571     -851    -1077    -1194    -1188    -1073     -878 
    -630     -346      -64      156      282      321      302      237 
     128      -33     -257     -525     -774     -936     -957     -814 
    -535     -180      193      535      793      927      926      778 
     500      152     -189     -445     -533     -382        8      550 
    1098     1475     1567     1358      926      407      -66     -418 
    -615     -645     -530     -299       22      388      699      886 
     954      919      780      545      259       20      -94      -63 
      83      248      337      345      311      274      280      355 
     460      530      500      365      187       29      -62      -66 
     -10       66      156      247      313      345      321      194 
     -44     -351     -643     -843     -908     -824     -633     -422 
    -280     -256     -353     -537     -742     -895     -943     -870 
    -688     -445     -224      -98     -112     -265     -525     -816 
   -1089    -1344    -1593    -1806    -1935    -1942    -1821    -1603 
   -1355    -1146    -1030    -1043    -1178    -1350    -1459    -1445 
   -1301    -1089     -926     -911    -1066    -1339    -1648    -1927 
   -2139    -2273    -2343    -2346    -2263    -2092    -1837    -1530 
   -1198     -876     -608     -440     -391     -442     -541     -645 
    -730     -776     -787     -793     -826     -907    -1019    -1088 
   -1012     -738     -280      279      812     1201     1360     1260 
     945      511       56     -345     -635     -766     -708     -484 
    -159      172      405      464      365      176      -22     -152 
    -178     -114      -13       78      153      217      253      243 
     189      143      180      352      669     1073     1447     1696 
    1765     1641     1371     1057      826      769      884     1080 
    1273     1391     1383     1248     1009      700      396      197 
     162      302      576      916     1273     1605     1844     1925 
    1819     1549     1165      726      311        6     -145     -160 
     -74       70      199      244      190       75      -28      -44 
      45      183      294      326      238       36     -233     -481 
    -618     -596     -434     -174      132      419      630      731 
     719      608      426      202      -33     -229     -332     -324 
    -229      -98       22      102      110       35     -113     -311 
    -515     -649     -660     -554     -392     -261     -234     -336 
    -535     -785    -1054    -1323    -1572    -1775    -1885    -1871 
   -1711    -1420    -1066     -757     -571     -527     -598     -719 
    -830     -913    -1004    -1142    -1336    -1556    -1756    -1903 
   -1969    -1950    -1853    -1698    -1552    -1463    -1424    -1417 
   -1439    -1483    -1532    -1564    -1566    -1551    -1522    -1456 
   -1337    -1182    -1034     -943     -967    -1113    -1300    -1412 
   -1377    -1193     -928     -670     -450     -247      -51      116 
     230      295      321      324      318      309      313      348 
     409      480      553      656      822     1055     1325     1576 
    1759     1852     1860     1780     1615     1382     1127      912 
     778      746      805      911     1007     1050     1004      862 
     656      442      279      209      274      515      909     1355 
    1734     1953     1937     1675     1219      669      159     -205 
    -379     -398     -355     -336     -356     -396     -453     -545 
    -708     -951    -1255    -1595    -1933    -2223    -2469    -2708 
   -2983    -3331    -3724    -4051    -4193    -4085    -3726    -3150 
   -2436    -1692    -1053     -625     -483     -627     -981    -1420 
   -1813    -2033    -2026    -1817    -1471    -1063     -643     -249 
      79      294      361      291      109     -140     -378     -506 
    -469     -282       -1      302      565      739      785      685 
     484      284      199      280      486      714      878      931 
     864      716      558      426      324      272      282      330 
     379      388      372      394      510      729     1003     1246 
    1390     1406     1309     1156     1050     1071     1232     1482 
    1742     1945     2054     2041     1844     1404      729      -58 
    -770    -1258    -1467    -1439    -1274    -1090     -981     -992 
   -1101    -1259    -1410    -1513    -1549    -1509    -1413    -1323 
   -1287    -1300    -1318    -1282    -1147     -911     -619     -340 
    -132      -33      -20      -60     -144     -290     -552     -950 
   -1424    -1872    -2195    -2311    -2215    -1964    -1633    -1310 
   -1055     -855     -653     -413     -122      213      537      774 
     900      915      835      677      444      157     -110     -280 
    -292     -121      174      502      803     1032     1135     1080 
     874      572      259        8     -133     -128       31      314 
     660     1003     1297     1533     1711     1829     1887     1900 
    1872     1787     1607     1293      847      351      -62     -270 
    -233        0      349      731     1084     1372     1559     1605 
    1493     1208      751      172     -437     -974    -1360    -1559 
   -1575    -1453    -1242     -965     -635     -287       36      309 
     518      630      610      450      187     -153     -552     -961 
   -1336    -1651    -1830    -1806    -1567    -1140     -606     -109 
     201      257       82     -229     -581     -915    -1186    -1386 
   -1529    -1634    -1714    -1744    -1656    -1402     -984     -450 
      97      540      791      797      535       36     -615    -1313 
   -1962    -2459    -2710    -2682    -2419    -2004    -1526    -1058 
    -635     -263       72      398      733     1084     1405     1645 
    1773     1794     1729     1605     1431     1210      951      653 
     355      124      -10      -49       -2      116      292      491 
     661      774      823      792      668      448      163     -121 
    -348     -500     -604     -693     -787     -862     -874     -810 
    -670     -481     -303     -214     -263     -459     -758    -1077 
   -1345    -1528    -1614    -1609    -1512    -1337    -1116     -912 
    -808     -861    -1050    -1305    -1548    -1741    -1877    -1933 
   -1888    -1779    -1652    -1544    -1462    -1383    -1287    -1193 
   -1124    -1069     -985     -841     -658     -508     -448     -494 
    -622     -758     -837     -845     -781     -653     -494     -334 
    -199     -135     -176     -336     -595     -882    -1086    -1116 
    -943     -625     -274       18      222      345      407      418 
     365      244       52     -191     -438     -626     -731     -784 
    -838     -934    -1089    -1271    -1394    -1364    -1125     -681 
    -122      386      691      723      507      116     -372     -885 
   -1374    -1818    -2212    -2535    -2747    -2821    -2758    -2565 
   -2257    -1875    -1499    -1202    -1028    -1024    -1208    -1560 
   -2034    -2570    -3115    -3604    -3924    -3975    -3728    -3219 
   -2546    -1840    -1237     -845     -699     -741     -847     -903 
    -837     -630     -328       -6      276      490      652      830 
    1062     1313     1510     1580     1497     1291     1043      850 
     815      969     1252     1586     1898     2134     2262     2257 
    2116     1875     1586     1302     1058      853      696      626 
     657      784      961     1115     1189     1156      994      703 
     314     -105     -464     -707     -822     -820     -746     -648 
    -557     -498     -471     -457     -448     -429     -384     -336 
    -301     -259     -201     -113       25      214      460      757 
    1069     1366     1634     1861     2025     2128     2205     2269 
    2293     2255     2168     2061     1937     1769     1539     1264 
     982      726      525      396      372      467      633      774 
     784      626      353       36     -247     -414     -405     -217 
      94      442      729      880      884      770      619      513 
     488      531      569      531      405      201      -45     -283 
    -464     -552     -549     -471     -318     -116       79      194 
     155      -55     -414     -901    -1474    -2058    -2548    -2812 
   -2798    -2573    -2227    -1837    -1428     -989     -540     -145 
      97       85     -226     -793    -1490    -2128    -2515    -2550 
   -2236    -1676    -1020     -400       63      288      282       98 
    -190     -498     -776    -1023    -1242    -1429    -1583    -1691 
   -1772    -1846    -1887    -1864    -1782    -1637    -1456    -1290 
   -1139     -989     -873     -811     -791     -800     -791     -677 
    -434      -83      340      754     1071     1278     1368     1305 
    1093      781      411       83      -91      -79       90      346 
     595      784      947     1156     1410     1648     1791     1775 
    1603     1359     1117      903      750      693      739      893 
    1131     1344     1417     1309     1023      626      253        6 
    -109     -159     -243     -409     -615     -780     -868     -897 
    -905     -918     -939     -932     -854     -697     -491     -245 
      14      245      395      449      418      345      298      326 
     419      498      461      268      -52     -423     -731     -880 
