Origin Time       2025/01/13 21:19:00
Lat.              31.8
Long.             131.6
Depth. (km)       30
Mag.              6.9
Station Code      OITH10
Station Lat.      32.9278
Station Long.     131.8695
Station Height(m) 80
Record Time       2025/01/13 21:19:53
Sampling Freq(Hz) 100Hz
Duration Time(s)  163
Dir.              6
Scale Factor      7845(gal)/8223790
Max. Acc. (gal)   6.023
Last Correction   2025/01/13 21:19:53
Memo.             
[...]
   13587    13443    12397    11782    12491    13717    14017    13221 
   12430    12123    11788    11414    11348    11271    10959    10677 
   10385    10274    10932    11866    11944    11438    11508    12363 
   13238    13443    13081    12889    13047    12846    12015    11260 
   11094    11321    11722    12209    12444    12132    11643    11669 
   12325    13138    13701    13946    13891    13571    13227    12980 
   12685    12625    13225    13853    13487    12240    11196    11203 
   11966    12410    12140    11749    11811    12409    13216    13771 
   13979    13981    13598    12584    11422    11129    11873    12546 
   12316    11608    10980    10368    10021    10632    11944    12715 
   12619    12630    12961    12692    11723    11006    11068    11778 
   12899    14134    14926    14604    13350    12279    11862    11848 
   12328    13018    13084    12791    13009    13143    12244    11408 
   12110    13375    13289    11831    10488    10341    11102    11547 
   11121    10650    10872    11244    10947    10272    10237    11164 
   12282    12798    12599    11767    10593    10088    11020    12762 
   14214    14802    14377    13436    12776    12474    12160    11639 
   10886    10446    11055    12320    13189    13489    13514    13155 
   12595    12395    12514    12475    11942    11018    10682    11628 
   12734    12591    11441    10324     9944    10557    11767    12856 
   13564    13678    12676    11276    11292    12576    13236    12960 
   12744    13072    14099    15140    14736    12950    11403    10903 
   10935    10876    10825    11172    11753    12330    13294    14563 
   14995    13940    12182    11168    11703    13166    14320    14746 
   14596    13883    12746    11542    10686    10701    11607    12453 
   12420    11766    11130    10839    11070    11734    12341    12474 
   12174    11871    11971    12375    12623    12483    12150    12002 
   11955    11547    11269    12085    13284    13335    12379    11595 
   11225    10887    10893    11803    13080    13647    13443    13082 
   12874    12911    13030    12850    12451    12263    12298    12140 
   11647    11264    11376    11705    11861    11961    12297    12826 
   13116    12873    12422    12139    11956    12091    12884    13684 
   13602    12843    12117    11534    10982    10801    11110    11415 
   11735    12491    13250    13440    13282    12870    12174    11846 
   12175    12285    11708    11292    11769    12692    13180    12964 
   12511    12366    12478    12534    12618    12814    12734    12190 
   11546    11117    10999    11175    11480    11994    12793    13213 
   12748    12021    11711    11723    11740    11596    11395    11435 
   11588    11381    10955    10914    11272    11557    11680    11873 
   12136    12325    12509    12884    13413    13770    13732    13370 
   12893    12530    12413    12577    13095    13694    13663    12969 
   12452    12325    12128    12004    12258    12388    12025    11751 
   12006    12245    11881    11290    11178    11456    11407    10901 
   10706    11353    12588    13967    14817    14469    13521    13014 
   12590    11730    11118    11051    10787    10355    10728    11865 
   12594    12464    12037    11769    11732    11738    11547    11403 
   11678    12208    12683    12912    12729    12503    12779    13238 
   13427    13598    13720    13162    11920    11003    11292    12418 
   13312    13470    12955    12074    11476    11418    11496    11680 
   12199    12800    13122    13072    12772    12351    11628    10621 
   10096    10496    11028    10901    10632    11092    12043    12687 
   12933    13023    12873    12623    12587    12560    12212    11681 
   11362    11483    11869    12251    12630    12943    13027    12888 
   12394    11623    11458    12226    12788    12530    12303    12487 
   12488    12210    11939    11495    10859    10709    11502    12704 
   13414    13313    12703    12112    11978    12171    12217    12276 
   12826    13518    13587    12968    12336    12237    12336    11985 
   11531    11950    13294    14521    14519    13103    11508    11398 
   12792    13892    13495    12521    12301    12633    12614    12360 
   12603    13308    13684    13036    11411     9973     9988    11025 
   11565    11200    10638    10458    11113    12490    13198    12482 
   11777    12160    12528    11924    10964    10443    10723    11794 
   12760    12681    11966    11483    11350    11504    12020    12534 
   12630    12532    12668    13036    13204    12798    12081    11773 
   12175    12920    13448    13459    13047    12501    12055    11828 
   11812    11928    12151    12496    12783    12708    12383    12147 
   11819    11179    10959    11901    13288    13787    13154    12237 
   11890    12266    13016    13676    13560    12522    11732    12050 
   12772    13238    13614    13759    13157    11880    10566     9733 
    9738    10663    11626    11587    11059    11230    12077    12725 
   12691    12270    12002    11805    11469    11503    12244    13244 
   13930    13910    13286    12641    12046    11303    10787    10891 
   11591    12523    12980    12717    12343    12208    12006    11677 
   11584    11886    12361    12793    13165    13431    13355    13026 
   13112    13873    14698    15088    15136    14945    14380    13467 
   12636    12151    11808    11632    11923    12336    12221    11709 
   11325    11246    11448    11773    12082    12449    12800    12897 
   12704    12191    11470    11176    11777    12906    13857    14003 
   13095    11781    11006    11028    11651    12378    12445    11869 
   11416    11291    11225    11178    11088    10881    10805    11022 
   11288    11350    11083    10388     9679     9826    10862    11712 
   11695    11327    11427    12143    13007    13425    13078    12325 
   11916    11956    11874    11480    11195    11453    12067    12102 
   11233    10639    11006    11242    10678    10285    10690    11398 
   12116    12769    12842    12324    12039    12159    11982    11337 
   10597     9967     9791    10354    11248    11793    11622    10999 
   10824    11489    12078    11689    10926    10887    11398    11472 
   10771     9987    10174    11314    12102    11969    11708    11773 
   11839    11732    11468    11192    11268    11589    11497    10974 
   10872    11560    12221    12108    11726    11919    12459    12590 
   12235    11816    11632    11774    12028    12166    12415    12910 
   13327    13720    14415    15044    14983    14218    13319    13123 
   13875    14623    14457    13716    13120    12846    12873    13045 
   12910    12280    11574    11388    11894    12542    12579    11939 
   11304    11268    11762    12286    12482    12472    12648    13232 
   14141    15024    15433    15282    14939    14550    13782    12710 
   12052    11894    11460    10708    10615    11607    12915    13635 
   13803    13890    13802    13454    13333    13570    13678    13467 
   13100    12695    12262    11674    11092    11080    11623    11875 
   11429    10862    10808    11269    11832    12009    11765    11692 
   12079    12433    12441    12314    12228    12326    12741    13370 
   14077    14685    14771    14266    13679    13293    12806    11940 
   10903    10187    10011    10261    10860    11612    11916    11435 
   10613    10019     9747     9740     9984    10085     9661     9302 
    9730    10345    10282    10006    10297    10895    11225    11269 
   11259    11329    11554    11840    11958    11805    11443    11144 
   11325    11971    12711    13676    14971    15778    15620    15296 
   15352    15287    14721    14076    13961    14328    14488    13999 
   13032    12082    11797    12334    12815    12382    11442    11026 
   11365    11804    11866    11830    12124    12699    13261    13575 
   13630    13890    14731    15730    16389    16733    16699    16294 
   16086    16285    16309    15896    15398    14974    14520    14104 
   13799    13458    13042    12640    12172    11711    11661    12202 
   12993    13610    14064    14426    14216    13112    11817    11130 
   10959    10994    11136    11203    11295    11693    11985    11601 
   10778     9965     9420     9418     9850    10276    10500    10428 
   10111    10076    10593    11125    11206    11059    11090    11431 
   11870    11950    11470    10913    10835    11055    11126    10951 
   10544    10112    10125    10625    11109    11226    11151    11425 
   12135    12418    11862    11410    11649    11907    11784    11799 
   12307    12901    12883    11911    10377     9329     9603    10746 
   11391    10955    10177    10014    10686    11641    12078    11743 
   10905     9674     8337     7817     8630    10116    11230    11537 
   11495    11734    12155    12445    12858    13625    14454    15107 
   15695    16229    16403    15985    15151    14274    13707    13780 
   14419    14993    15048    14748    14482    14472    14617    14513 
   13899    13171    12973    13306    13597    13474    13069    12711 
   12494    12283    12132    12264    12650    13016    13311    13809 
   14605    15199    15045    14435    14162    14440    14747    14655 
   14446    14559    14813    14871    14904    15026    14779    13915 
   12954    12405    12155    11923    11709    11578    11466    11533 
   12047    12592    12430    11696    11106    11009    11381    11974 
   12418    12582    12553    12405    12178    11819    11281    10885 
   11037    11627    12201    12438    12299    12152    12456    13185 
   14057    14964    15556    15225    14107    13113    12699    12663 
   12793    12954    12954    12595    11871    11140    10764    10693 
   10728    10835    10949    10835    10370     9749     9169     8621 
    8100     7639     7348     7439     7858     8224     8334     8295 
    8230     8276     8627     9202     9591     9694     9940    10566 
   11171    11283    11065    11034    11333    11568    11214    10270 
    9370     9008     9162     9570     9940    10318    11033    11924 
   12476    12644    12511    12039    11612    11637    11832    11713 
   11310    11044    11140    11603    12401    13134    13151    12437 
   11705    11496    11794    12382    12877    12942    12908    13402 
   14384    15375    16096    16426    16444    16356    16208    16094 
   16210    16525    16849    16883    16306    15415    14994    15124 
   15102    14677    14164    13639    13130    12943    13180    13636 
   14084    14358    14544    14781    14872    14617    14206    13979 
   13907    13497    12507    11473    10989    10944    10818    10220 
    9216     8380     8027     7765     7468     7533     7816     7815 
    7757     8129     8750     9177     9273     9182     9251     9742 
   10444    10926    11086    11113    11191    11352    11342    10994 
   10727    10925    11206    11156    11205    11782    12270    11925 
   11199    10947    11110    11164    10962    10642    10434    10517 
   10665    10511    10231    10199    10311    10447    10798    11286 
   11541    11346    10685     9857     9354     9202     9036     8857 
    9016     9671    10670    11697    12491    13101    13767    14582 
   15454    16244    16788    16911    16714    16610    16784    17097 
   17501    17918    18023    17713    17173    16399    15460    14794 
   14524    14278    13915    13568    13300    13069    12741    12255 
   11793    11530    11384    11182    10889    10660    10698    11061 
   11686    12576    13740    14932    15724    15934    15668    15039 
   14239    13558    12920    12010    11043    10632    10793    10881 
   10670    10611    10825    10708     9957     9324     9695    10856 
   11885    12290    12237    12247    12825    13884    14783    15152 
   15137    14886    14412    13837    13286    12769    12329    12098 
   12118    12248    12317    12361    12582    13007    13525    14130 
   14627    14505    13647    12537    11619    11191    11543    12356 
   12735    12411    11969    11816    11915    12268    12768    13004 
   12857    12721    12841    13062    13286    13502    13711    14107 
   14724    15140    14994    14396    13772    13543    13859    14400 
   14601    14233    13613    13279    13394    13651    13953    14472 
   14979    15060    14704    14111    13460    12946    12463    11726 
   10941    10593    10615    10392     9682     9007     8802     8807 
    8743     8881     9352     9802    10166    10685    11076    10922 
   10606    10898    11982    13402    14480    14748    14270    13478 
   12822    12405    11796    10814    10168    10350    10712    10527 
   10011     9814    10102    10323    10061     9836    10332    11292 
   11955    12008    11723    11510    11425    11267    11218    11650 
   12347    12806    12946    12849    12467    11998    11881    12201 
   12514    12399    11904    11225    10465     9876     9745    10000 
   10343    10648    10998    11330    11388    11118    10829    10847 
   11196    11672    11912    11593    10991    10783    11011    11195 
   11314    11608    12017    12487    13208    14258    15291    15703 
   15380    14999    15244    16067    16877    17259    17363    17406 
   17319    17227    17379    17501    17059    15904    14291    12730 
   11723    11161    10335     8985     7609     6573     5961     5927 
    6342     6702     6664     6372     6235     6396     6635     6978 
    7697     8577     9271     9960    10651    10906    10832    11097 
   11857    12645    13216    13653    13923    13975    13933    13859 
   13676    13458    13423    13527    13560    13668    14216    15187 
   16112    16637    16737    16348    15549    14920    14860    15033 
   15110    15230    15423    15462    15186    14597    13998    13817 
   13929    13707    13042    12474    12348    12445    12264    11647 
   10936    10345     9906     9737     9676     9231     8414     7878 
    7965     8401     8827     9167     9603    10287    11148    11961 
   12479    12687    12900    13452    14241    14818    14955    14748 
   14334    13790    13238    12916    13004    13251    13139    12598 
   11994    11595    11418    11326    11140    10936    11028    11402 
   11596    11389    11024    10733    10652    10812    10893    10712 
   10719    11264    11994    12438    12468    12340    12490    12976 
   13478    13837    14152    14469    14597    14422    14154    13980 
   13865    13824    13922    14080    14173    14274    14455    14526 
   14432    14461    14715    14978    15070    14890    14404    13829 
   13533    13548    13354    12636    11894    11578    11466    11337 
   11134    10619     9761     9031     8928     9545    10534    11406 
   11948    12363    12923    13552    13936    13973    13903    13871 
   13717    13474    13475    13703    13740    13404    12939    12599 
   12383    12198    12051    12060    12213    12172    11697    11136 
   11142    11894    12834    13359    13479    13489    13431    13224 
   12853    12247    11367    10547    10311    10666    11013    10894 
   10404     9904     9683     9733     9806     9671     9229     8677 
    8660     9544    10686    11296    11558    12058    12752    13149 
   12978    12407    11924    11934    12285    12452    12208    11765 
   11341    11053    11106    11545    11948    11851    11284    10628 
   10158     9934     9988    10287    10548    10655    10863    11213 
   11446    11623    11901    12170    12544    13338    14260    14577 
   14158    13603    13467    13701    13825    13613    13371    13373 
   13435    13382    13304    13143    12704    12071    11557    11388 
   11654    12160    12303    11682    10720    10122    10073    10455 
   11198    11862    11808    11265    11044    11196    11308    11431 
   11705    12005    12371    12895    13286    13288    13174    13398 
   13961    14470    14662    14565    14362    14274    14308    14130 
   13441    12422    11564    11206    11298    11492    11500    11394 
   11369    11394    11392    11445    11611    11811    11978    12150 
   12329    12502    12865    13533    14141    14353    14408    14613 
   14909    15072    14866    14235    13612    13477    13733    13932 
   13945    14035    14256    14273    14006    13853    14133    14721 
   15145    14935    14227    13686    13494    13246    12910    12922 
   13296    13379    12633    11367    10419    10164    10257    10300 
   10304    10512    10885    11045    11016    11329    12113    12911 
   13396    13567    13558    13559    13721    14007    14129    13791 
   13124    12455    11851    11341    10978    10605    10218    10054 
   10014     9819     9606     9641     9834     9923     9829     9702 
    9806    10222    10683    10935    11076    11346    11730    11920 
   11672    11126    10647    10405    10451    10910    11700    12351 
   12617    12796    13167    13609    13887    13961    13913    13679 
   13127    12366    11695    11357    11477    11939    12332    12357 
   12151    11946    11668    11118    10284     9408     8837     8627 
    8559     8627     9042     9653     9996     9944     9868    10160 
   10862    11632    12067    12181    12353    12734    13136    13374 
   13359    13261    13458    14021    14577    14806    14721    14544 
   14451    14509    14785    15126    15215    15121    15184    15425 
   15754    16222    16745    17155    17385    17351    17140    16974 
   16784    16376    15857    15387    14912    14310    13655    13130 
   12712    12185    11497    10889    10525    10257     9999     9940 
   10085    10160    10092    10034     9980     9861     9776     9784 
    9817     9931    10183    10365    10407    10467    10369     9829 
    9136     8835     9061     9589    10125    10527    10920    11480 
   12059    12295    12159    12097    12518    13259    13680    13556 
   13470    13875    14374    14422    14152    14025    14079    14050 
   13848    13593    13460    13467    13392    13181    13174    13462 
   13587    13302    12856    12499    12330    12306    12218    11902 
   11353    10733    10270    10007     9845     9822     9923     9879 
    9612     9421     9589    10157    10955    11605    11808    11693 
   11651    11855    12172    12445    12582    12526    12336    12106 
   11925    11997    12343    12610    12667    12733    12739    12383 
   11695    11020    10590    10412    10481    10747    11007    11157 
   11187    11106    11098    11237    11275    11099    10901    10810 
   10729    10566    10509    10782    11268    11622    11736    11900 
   12426    13246    13938    14162    13975    13670    13517    13645 
   13905    14026    13932    13709    13416    13116    12923    12833 
   12680    12406    12174    12125    12224    12340    12429    12510 
   12557    12695    13138    13663    13846    13836    13980    14062 
   13737    13132    12621    12444    12538    12606    12499    12329 
   12136    11893    11682    11550    11431    11272    11086    10898 
   10702    10455    10166     9992    10062    10273    10382    10376 
