Origin Time       2025/01/13 21:19:00
Lat.              31.8
Long.             131.6
Depth. (km)       30
Mag.              6.9
Station Code      OITH07
Station Lat.      32.9870
Station Long.     131.5881
Station Height(m) 160
Record Time       2025/01/13 21:19:53
Sampling Freq(Hz) 100Hz
Duration Time(s)  181
Dir.              6
Scale Factor      7845(gal)/8223790
Max. Acc. (gal)   20.414
Last Correction   2025/01/13 21:19:53
Memo.             
[...]
  -22550   -21693   -21097   -20628   -20243   -20127   -20560   -21574 
  -22820   -23814   -24339   -24653   -25182   -25996   -26612   -26276 
  -24660   -22300   -20150   -18863   -18558   -18932   -19519   -20011 
  -20457   -21124   -22180   -23546   -24853   -25612   -25682   -25409 
  -25162   -24934   -24479   -23719   -22873   -22269   -22131   -22451 
  -23006   -23406   -23195   -22210   -20829   -19681   -19192   -19426 
  -20209   -21359   -22735   -24160   -25413   -26283   -26635   -26455 
  -25802   -24800   -23712   -22914   -22674   -22998   -23595   -23893 
  -23302   -21709   -19672   -18044   -17446   -18049   -19638   -21690 
  -23623   -25016   -25681   -25650   -25126   -24349   -23537   -22900 
  -22694   -23036   -23622   -23885   -23353   -21917   -19962   -18200 
  -17226   -17298   -18465   -20676   -23745   -27170   -30073   -31591 
  -31338   -29531   -26914   -24447   -22732   -21821   -21444   -21365 
  -21479   -21648   -21724   -21709   -21748   -21982   -22372   -22702 
  -22843   -22851   -22756   -22430   -21774   -20941   -20272   -20085 
  -20571   -21766   -23512   -25434   -26943   -27484   -26854   -25299 
  -23346   -21560   -20399   -20173   -20873   -22099   -23415   -24618 
  -25600   -26248   -26396   -25816   -24503   -22977   -22002   -21898 
  -22245   -22449   -22296   -21828   -21038   -20036   -19191   -18949 
  -19583   -21055   -23031   -24952   -26164   -26238   -25231   -23764 
  -22630   -22167   -22194   -22347   -22393   -22281   -22014   -21662 
  -21359   -21163   -21072   -21074   -21243   -21795   -22894   -24374 
  -25762   -26592   -26644   -25824   -24190   -22216   -20726   -20399 
  -21313   -22954   -24567   -25483   -25384   -24410   -22923   -21185 
  -19280   -17348   -15827   -15214   -15684   -17078   -19090   -21352 
  -23518   -25447   -27201   -28761   -29953   -30576   -30393   -29231 
  -27206   -24730   -22329   -20476   -19442   -19172   -19359   -19715 
  -20173   -20740   -21324   -21752   -21918   -21949   -22157   -22809 
  -24046   -25907   -28028   -29533   -29586   -27942   -25141   -22287 
  -20383   -19819   -20366   -21394   -22269   -22674   -22601   -22202 
  -21725   -21427   -21397   -21640   -22187   -22987   -23866   -24564 
  -24830   -24536   -23664   -22314   -20850   -19816   -19626   -20378 
  -21809   -23419   -24829   -25914   -26531   -26450   -25737   -24891 
  -24478   -24611   -24749   -24243   -23025   -21606   -20470   -19626 
  -18793   -17720   -16491   -15723   -16195   -18269   -21666   -25489 
  -28582   -30194   -30292   -29357   -28182   -27525   -27456   -27311 
  -26380   -24541   -22270   -20187   -18696   -17895   -17662   -17802 
  -18193   -18866   -19890   -21145   -22275   -22991   -23247   -23145 
  -22904   -22839   -23205   -24042   -25087   -25813   -25756   -24823 
  -23400   -22206   -21802   -22276   -23328   -24414   -25024   -24968 
  -24305   -23234   -22115   -21297   -20835   -20576   -20444   -20515 
  -20900   -21582   -22341   -22874   -23039   -23009   -23116   -23472 
  -23863   -23985   -23676   -22870   -21551   -19948   -18627   -18204 
  -18964   -20634   -22565   -24260   -25658   -26866   -27823   -28223 
  -27714   -26273   -24362   -22673   -21760   -21724   -22115   -22279 
  -21840   -20884   -19832   -19149   -19182   -20124   -21910   -24155 
  -26277   -27822   -28583   -28506   -27680   -26218   -24174   -21894 
  -20083   -19399   -20077   -21659   -23234   -24035   -23766   -22704 
  -21494   -20669   -20367   -20499   -21024   -21865   -22819   -23747 
  -24613   -25320   -25654   -25362   -24437   -23287   -22470   -22337 
  -22850   -23506   -23511   -22276   -19835   -16918   -14701   -14265 
  -15909   -19001   -22509   -25556   -27592   -28451   -28445   -28175 
  -27988   -27780   -27338   -26545   -25331   -23647   -21497   -19109 
  -16927   -15330   -14473   -14485   -15576   -17851   -21045   -24505 
  -27457   -29266   -29581   -28418   -26225   -23746   -21730   -20638 
  -20486   -20862   -21215   -21178   -20753   -20337   -20503   -21498 
  -22882   -23832   -23901   -23371   -22927   -23058   -23637   -24093 
  -23924   -23093   -22200   -22149   -23310   -25088   -26347   -26157 
  -24402   -21884   -19776   -18910   -19444   -20979   -22966   -24939 
  -26492   -27307   -27284   -26550   -25465   -24464   -23693   -22894 
  -21690   -20132   -18839   -18419   -19039   -20483   -22281   -23928 
  -25035   -25443   -25452   -25655   -26212   -26570   -25971   -24225 
  -22081   -20780   -21012   -22419   -24007   -24857   -24659   -23866 
  -23315   -23544   -24395   -25299   -25871   -26057   -25749   -24661 
  -22742   -20510   -18696   -17599   -17024   -16742   -16822   -17552 
  -19101   -21251   -23576   -25666   -27167   -27819   -27687   -27244 
  -27041   -27218   -27351   -26831   -25361   -23040   -20243   -17586 
  -15745   -15044   -15333   -16295   -17791   -19807   -22094   -24069 
  -25284   -25759   -25844   -25886   -25960   -25929   -25624   -24885 
  -23662   -22111   -20522   -19172   -18220   -17663   -17455   -17755 
  -18866   -21010   -24013   -27051   -29007   -29276   -28080   -26052 
  -23823   -21940   -20830   -20725   -21559   -22842   -23946   -24595 
  -24854   -24811   -24453   -23747   -22821   -22044   -21818   -22230 
  -22994   -23661   -23795   -23317   -22740   -22788   -23749   -25288 
  -26738   -27471   -27130   -25709   -23533   -21186   -19282   -18131 
  -17695   -17861   -18590   -19791   -21209   -22389   -22829   -22472 
  -21832   -21555   -21919   -22707   -23507   -24079   -24480   -24943 
  -25492   -25799   -25601   -25035   -24489   -24212   -24158   -24081 
  -23701   -22850   -21566   -20021   -18400   -16996   -16271   -16605 
  -18037   -20320   -23056   -25767   -27973   -29290   -29492   -28634 
  -27106   -25409   -23823   -22320   -20754   -19188   -17976   -17477 
  -17871   -19147   -21043   -23068   -24738   -25852   -26477   -26725 
  -26542   -25744   -24329   -22742   -21641   -21406   -22009   -23210 
  -24706   -26183   -27427   -28314   -28679   -28332   -27248   -25698 
  -24127   -22792   -21583   -20200   -18419   -16324   -14423   -13378 
  -13481   -14519   -16117   -18014   -20096   -22231   -24081   -25213 
  -25483   -25103   -24363   -23490   -22817   -22770   -23529   -24808 
  -26069   -27012   -27753   -28584   -29620   -30561   -30758   -29712 
  -27527   -24783   -22002   -19377   -16931   -14779   -13265   -12876 
  -13952   -16364   -19423   -22146   -23776   -24187   -23899   -23622 
  -23674   -23874   -23938   -23780   -23427   -22894   -22191   -21415 
  -20776   -20530   -20904   -22009   -23692   -25458   -26731   -27226 
  -26956   -26150   -25093   -24028   -23210   -22767   -22615   -22723 
  -23167   -23839   -24451   -24767   -24744   -24567   -24409   -24221 
  -23923   -23521   -23044   -22516   -21840   -20879   -19732   -18778 
  -18403   -18801   -20012   -21971   -24408   -26825   -28709   -29737 
  -29798   -28873   -27062   -24698   -22311   -20410   -19251   -18733 
  -18524   -18366   -18269   -18439   -19165   -20588   -22472   -24219 
  -25273   -25585   -25452   -25114   -24646   -23980   -22999   -21780 
  -20645   -19943   -19845   -20301   -21053   -21720   -22023   -21963 
  -21768   -21739   -22183   -23271   -24757   -25976   -26272   -25608 
  -24575   -23743   -23291   -23144   -23113   -23059   -23009   -23074 
  -23345   -23796   -24187   -24139   -23437   -22248   -21014   -20209 
  -20147   -20803   -21890   -23089   -24162   -24985   -25552   -25945 
  -26347   -26925   -27560   -27827   -27409   -26347   -24976   -23684 
  -22669   -21868   -21097   -20250   -19379   -18634   -18238   -18370 
  -19012   -20063   -21325   -22466   -23326   -23974   -24333   -24069 
  -22935   -21020   -18735   -16776   -15927   -16703   -19086   -22443 
  -25836   -28510   -30175   -31066   -31664   -32189   -32332   -31333 
  -28579   -24297   -19639   -16015   -14091   -13498   -13524   -13752 
  -14131   -14971   -16806   -19927   -23943   -27804   -30396   -31248 
  -30654   -29239   -27548   -25864   -24135   -22288   -20540   -19202 
  -18528   -18673   -19452   -20313   -20796   -20927   -20960   -21012 
  -21141   -21381   -21587   -21535   -21182   -20696   -20366   -20486 
  -21184   -22435   -24162   -26214   -28294   -29998   -30821   -30330 
  -28641   -26453   -24502   -23259   -22781   -22700   -22509   -22010 
  -21369   -20699   -19919   -18962   -18018   -17616   -18277   -20081 
  -22557   -24803   -25913   -25535   -23981   -22003   -20494   -20113 
  -21038   -22979   -25393   -27608   -28946   -28927   -27457   -24950 
  -22156   -19894   -18789   -19002   -20310   -22330   -24533   -26306 
  -27183   -26968   -25724   -23764   -21597   -19823   -18902   -18816 
  -19014   -18836   -18099   -17313   -17334   -18759   -21533   -24946 
  -28080   -30253   -31166   -30805   -29317   -27027   -24437   -22065 
  -20260   -19264   -19238   -20116   -21655   -23506   -25153   -26033 
  -25874   -24962   -24025   -23741   -24332   -25436   -26273   -26064 
  -24397   -21475   -18135   -15507   -14467   -15264   -17554   -20726 
  -24232   -27572   -30148   -31434   -31217   -29656   -27216   -24428 
  -21803   -19915   -19261   -20027   -21883   -23931   -25169   -25262 
  -24749   -24479   -24896   -25698   -26098   -25455   -23747   -21568 
  -19707   -18670   -18500   -18949   -19788   -21010   -22728   -24884 
  -27145   -28914   -29496   -28579   -26447   -23647   -20763   -18374 
  -16931   -16691   -17780   -20078   -23120   -26191   -28521   -29590 
  -29393   -28298   -26676   -24687   -22397   -20017   -18006   -16947 
  -17203   -18526   -20143   -21327   -21872   -22079   -22410   -23105 
  -24061   -25000   -25567   -25413   -24449   -23021   -21744   -21172 
  -21513   -22586   -24050   -25637   -27081   -28089   -28574   -28563 
  -27899   -26384   -24167   -21820   -20047   -19255   -19229   -19326 
  -19039   -18280   -17371   -16888   -17288   -18539   -20132   -21475 
  -22157   -22011   -21212   -20135   -18982   -17860   -17055   -16946 
  -17824   -19876   -23083   -26951   -30499   -32719   -32985   -31253 
  -28143   -24536   -21227   -18827   -17559   -17232   -17626   -18692 
  -20328   -22250   -24162   -25895   -27418   -28742   -29735   -30136 
  -29863   -28981   -27510   -25558   -23423   -21564   -20452   -20223 
  -20553   -21058   -21660   -22472   -23539   -24694   -25600   -25995 
  -25763   -25014   -24209   -23913   -24216   -24709   -24945   -24694 
  -24070   -23392   -22940   -22894   -23237   -23708   -23971   -23716 
  -22775   -21231   -19360   -17547   -16168   -15502   -15669   -16571 
  -18084   -20197   -22701   -25116   -26940   -27791   -27591   -26589 
  -25066   -23211   -21146   -18963   -16831   -15028   -13930   -13891 
  -14990   -16877   -18883   -20542   -21884   -23022   -23809   -24032 
  -23703   -23053   -22202   -21078   -19672   -18129   -16854   -16524 
  -17682   -20258   -23535   -26597   -28750   -29718   -29695   -29029 
  -27923   -26399   -24456   -22302   -20320   -18855   -17999   -17568 
  -17288   -16991   -16687   -16596   -17108   -18538   -21035   -24514 
  -28428   -31895   -34133   -34827   -34088   -32198   -29562   -26626 
  -23683   -20923   -18539   -16710   -15577   -15115   -15083   -15295 
  -15819   -16816   -18322   -20216   -22293   -24232   -25682   -26550 
  -27112   -27768   -28827   -30395   -32275   -34156   -35748   -36574 
  -36256   -34869   -32593   -29556   -25955   -22056   -18289   -15176 
  -13231   -12841   -13971   -16240   -19302   -22798   -26257   -29342 
  -31877   -33647   -34425   -34119   -32840   -30753   -27980   -24811 
  -21620   -18501   -15458   -12757   -10849   -10093   -10620   -12366 
  -15114   -18416   -21656   -24300   -26032   -26674   -26142   -24592 
  -22654   -21178   -20569   -20719   -21396   -22477   -23823   -25139 
  -26281   -27334   -28283   -28895   -28961   -28532   -27749   -26550 
  -24740   -22342   -19700   -17262   -15418   -14326   -13933   -14218 
  -15280   -17124   -19305   -21034   -21627   -20827   -19024   -17066 
  -15622   -14824   -14563   -14910   -16081   -18199   -21053   -23990 
  -26206   -27178   -26867   -25569   -23650   -21506   -19530   -17860 
  -16326   -14855   -13697   -13198   -13582   -14835   -16708   -18925 
  -21301   -23685   -26045   -28483   -30924   -32887   -33912   -34024 
  -33569   -33035   -32807   -32813   -32809   -32582   -31878   -30658 
  -29162   -27849   -27163   -27056   -27189   -27488   -27940   -28359 
  -28707   -29042   -29200   -28977   -28336   -27437   -26545   -25768 
  -25085   -24493   -23965   -23560   -23348   -23141   -22778   -22303 
  -21780   -21284   -20758   -19996   -19035   -18126   -17435   -17068 
  -17061   -17375   -17969   -18759   -19689   -20709   -21595   -22063 
  -21955   -21240   -20039   -18675   -17566   -16931   -16745   -16992 
  -17780   -19037   -20402   -21460   -21928   -21751   -21064   -19934 
  -18453   -17007   -15978   -15371   -15045   -14953   -15080   -15403 
  -15755   -15870   -15834   -16177   -17212   -18625   -19977   -20993 
  -21435   -21417   -21497   -22010   -22832   -23693   -24208   -24031 
  -23329   -22709   -22694   -23411   -24665   -26045   -27004   -27290 
  -27427   -28192   -29658   -31214   -32147   -31988   -30861   -29475 
  -28436   -27807   -27372   -26860   -26034   -24996   -24368   -24726 
  -26015   -27885   -30009   -32042   -33971   -36120   -38601   -41118 
  -43168   -44270   -44015   -42306   -39528   -36220   -32778   -29605 
  -26967   -23926   -19363   -14574   -10709    -7109    -5184    -5552 
   -6459    -9185   -13926   -18473   -23360   -27603   -29442   -30275 
  -30434   -29805   -29412   -28715   -26781   -23571   -18787   -12949 
   -8148    -5170    -3221    -2612    -3474    -5422    -9143   -14322 
  -19762   -24937   -28572   -29889   -29413   -27182   -23841   -20544 
  -17454   -14970   -13635   -13216   -13486   -14285   -15025   -15480 
  -16518   -18218   -19664   -21551   -23854   -24694   -24425   -23760 
  -21829   -19742   -18935   -18547   -18342   -18748   -18945   -19272 
  -21065   -23346   -24645   -25035   -24560   -23039   -20447   -17247 
  -15165   -15385   -16551   -17334   -18675   -21246   -24451   -28015 
  -31556   -34248   -35580   -35677   -35264   -34946   -34758   -34601 
  -34217   -33145   -31311   -29103   -26952   -25089   -23534   -22497 
  -22377   -23230   -24987   -27553   -30294   -32350   -33160   -32447 
  -30528   -27838   -24244   -19861   -15369   -11452    -8849    -8208 
   -9509   -12104   -15241   -18366   -21300   -24069   -26451   -28413 
  -30226   -31818   -32902   -33083   -32086   -30246   -27764   -24506 
  -20835   -17290   -14108   -11531    -9823    -9070    -9319   -10496 
  -12356   -14839   -17833   -20919   -23826   -26480   -28764   -30642 
  -32113   -33104   -33675   -33731   -32987   -31799   -30520   -28841 
  -26816   -24522   -21860   -19514   -17751   -16216   -15180   -14824 
  -15132   -16102   -17170   -17778   -17876   -17699   -17802   -18717 
  -20223   -21552   -22199   -21959   -21001   -20067   -19890   -20821 
  -22734   -24823   -26227   -26792   -26979   -27301   -27835   -28398 
  -28790   -28648   -27691   -26001   -23949   -22188   -21174   -20738 
  -20434   -19828   -18682   -17200   -16044   -16063   -17645   -20545 
  -24268   -28102   -31252   -33313   -34283   -34338   -33829   -32913 
  -31344   -29079   -26293   -23340   -21185   -20453   -20668   -21188 
  -21486   -21124   -20337   -19638   -19206   -19147   -19415   -19741 
  -19938   -19739   -19079   -18442   -18264   -18605   -19291   -20009 
  -20584   -20942   -21084   -21239   -21514   -21685   -21622   -21450 
  -21289   -21330   -21813   -22700   -23772   -24829   -25656   -26167 
  -26555   -27091   -27723   -28113   -27940   -27152   -25949   -24526 
  -23164   -22145   -21339   -20586   -20112   -20155   -20738   -21767 
  -22923   -23741   -24035   -23904   -23498   -22997   -22470   -21926 
  -21532   -21478   -21872   -22723   -24015   -25786   -27689   -29008 
  -29354   -28618   -26927   -24918   -23161   -21818   -20941   -20513 
  -20574   -21163   -21924   -22245   -21883   -21026   -20058   -19591 
  -19965   -20781   -21575   -22245   -22581   -22254   -21339   -20326 
  -19831   -20360   -21929   -24088   -26507   -28983   -31105   -32373 
  -32528   -31749   -30300   -28235   -25660   -22819   -19832   -16811 
  -14057   -11943   -10832   -10913   -11882   -13259   -14764   -16254 
  -17689   -18831   -19454   -19912   -20657   -21794   -23326   -25319 
  -27621   -29585   -30539   -30381   -29589   -28979   -29038   -29416 
  -29278   -27922   -25401   -22380   -19398   -16927   -15404   -14764 
  -14709   -15102   -15747   -16605   -17960   -19936   -22167   -24007 
  -24962   -24916   -24084   -22974   -21979   -21034   -20002   -19010 
  -18399   -18598   -19927   -22368   -25421   -28314   -30349   -31128 
  -30823   -30011   -29104   -28042   -26403   -23962   -21123   -18430 
  -16183   -14746   -14484   -15429   -17302   -19548   -21612   -23490 
  -25660   -28387   -31279   -33652   -35101   -35594   -35212   -33976 
  -31803   -28661   -25091   -21964   -19754   -18804   -19417   -21070 
  -22731   -23826   -24243   -24105   -23772   -23535   -23379   -22852 
  -21408   -19102   -16486   -14108   -12591   -12402   -13427   -15295 
  -17825   -20925   -24386   -27700   -30242   -31557   -31386   -29895 
  -27711   -25381   -23062   -20715   -18242   -15583   -13151   -11786 
  -11989   -13711   -16578   -19839   -22630   -24418   -25038   -24626 
  -23481   -21762   -19623   -17383   -15310   -13771   -13332   -14056 
  -15434   -17111   -18841   -20436   -21913   -23225   -24109   -24393 
  -24219   -23845   -23485   -23495   -24252   -25658   -27153   -28347 
  -29224   -29890   -30456   -30960   -31286   -31266   -30801   -29891 
  -28695   -27415   -26157   -24945   -23753   -22670   -21913   -21583 
  -21718   -22350   -23298   -24370   -25609   -27036   -28474   -29674 
  -30383   -30342   -29411   -27756   -25901   -24393   -23425   -22910 
  -22666   -22370   -21739   -20703   -19437   -18326   -17675   -17447 
  -17487   -17658   -17791   -17857   -17853   -17730   -17778   -18399 
  -19572   -21077   -22793   -24591   -26303   -27776   -28815   -29241 
  -29058   -28305   -27095   -25963   -25529   -26046   -27260   -28436 
  -28885   -28362   -26893   -24791   -22427   -19899   -17286   -15012 
  -13635   -13429   -14319   -15927   -17764   -19677   -21675   -23518 
  -24948   -26005   -26835   -27283   -27033   -26094   -24642   -22783 
  -20729   -18704   -16892   -15691   -15496   -16397   -18416   -21429 
  -24702   -27203   -28297   -27972   -26653   -24907   -23170   -21556 
  -20097   -19148   -19008   -19546   -20738   -22696   -25105   -27490 
  -29705   -31622   -32845   -33073   -32339   -30824   -28814   -26707 
  -24879   -23598   -22878   -22594   -22632   -22693   -22646   -22658 
  -22572   -21972   -20699   -18902   -16895   -14951   -13286   -12271 
  -12280   -13383   -15300   -17458   -19332   -20788   -22038   -23490 
  -25304   -27156   -28599   -29219   -28684   -27012   -24690   -22329 
  -20328   -19032   -18694   -19246   -20495   -22418   -24981   -27928 
  -30820   -33178   -34636   -35100   -34785   -33937   -32549   -30443 
