Origin Time       2025/01/13 21:19:00
Lat.              31.8
Long.             131.6
Depth. (km)       30
Mag.              6.9
Station Code      OITH08
Station Lat.      32.8392
Station Long.     131.5357
Station Height(m) 260
Record Time       2025/01/13 21:19:51
Sampling Freq(Hz) 100Hz
Duration Time(s)  162
Dir.              5
Scale Factor      7845(gal)/8223790
Max. Acc. (gal)   8.487
Last Correction   2025/01/13 21:19:51
Memo.             
[...]
   15643    15464    15631    16162    16595    16573    16258    16070 
   16218    16789    17571    17761    16895    15670    15159    15776 
   17047    17914    17562    16324    15481    15863    17018    17925 
   17936    17057    16024    15773    16411    17253    17697    17489 
   16730    16040    15935    16260    16719    17072    16852    15921 
   14975    14787    15337    16040    16492    16656    16525    16139 
   15917    16272    16989    17490    17502    17221    17061    17220 
   17416    17266    16754    16174    15939    16293    16845    16895 
   16455    16182    16434    16920    16976    16272    15399    15299 
   16189    17261    17510    16808    15981    15867    16476    17153 
   17269    16602    15583    15044    15300    15957    16542    16831 
   16727    16316    15940    15893    16243    16892    17370    17196 
   16571    15986    15673    15786    16420    17188    17420    16931 
   16177    15709    15750    16083    16362    16494    16553    16529 
   16397    16314    16507    16927    17219    17028    16460    16058 
   16113    16510    17043    17280    16845    16171    16058    16637 
   17328    17475    16974    16359    16171    16451    16883    17127 
   17037    16638    16141    15916    16129    16592    17022    17207 
   17034    16572    16097    15901    16021    16179    16047    15714 
   15674    16127    16672    16803    16402    15850    15819    16559 
   17329    17197    16301    15616    15817    16754    17675    17752 
   16792    15623    15367    16303    17614    18171    17563    16295 
   15229    15029    15619    16173    16106    15687    15462    15735 
   16480    17275    17528    17131    16522    16093    16070    16556 
   17329    17911    17830    16966    15878    15427    15839    16380 
   16268    15705    15518    16065    17047    17911    17964    16873 
   15442    14928    15624    16889    17942    18145    17331    16043 
   15221    15581    16885    17914    17655    16243    14831    14721 
   16059    17432    17440    16191    14878    14646    15828    17500 
   18157    17280    15831    15218    16059    17675    18623    17983 
   16198    14663    14693    16533    18727    19198    17563    15475 
   14654    15535    17290    18361    17782    16256    15271    15452 
   16283    16899    16821    16291    15944    16141    16738    17321 
   17467    16964    15943    14906    14624    15403    16517    17022 
   16750    16132    15712    15957    16785    17490    17490    16842 
   16146    16077    16677    17309    17444    17162    16879    16762 
   16659    16483    16214    15970    16078    16584    17080    17097 
   16470    15601    15191    15449    15986    16389    16544    16532 
   16475    16460    16499    16536    16524    16524    16677    16977 
   17208    17224    17068    16807    16552    16569    16987    17404 
   17320    16779    16173    15854    16066    16681    17093    16922 
   16564    16529    16879    17409    17718    17415    16626    15930 
   15851    16434    17051    16988    16357    15863    15809    16092 
   16557    16831    16521    15657    14742    14450    14943    15711 
   16301    16652    16700    16353    16015    16181    16551    16622 
   16515    16526    16688    16838    16730    16416    16320    16598 
   16918    17039    16970    16725    16406    16168    16035    16013 
   16059    16006    15807    15724    16070    16663    16942    16695 
   16282    16150    16374    16799    17258    17352    16695    15633 
   15155    15778    16922    17643    17626    17235    17005    17150 
   17321    16999    16263    15840    16182    16984    17601    17521 
   16769    15955    15616    15790    16225    16487    16337    15994 
   15743    15813    16287    16760    16762    16364    16060    16267 
   16752    16792    16241    15905    16468    17595    18350    17965 
   16509    15169    15265    16818    18492    18943    17965    16290 
   14949    14758    15658    16710    16988    16367    15569    15549 
   16622    18087    18719    17790    15905    14616    14936    16432 
   17724    17693    16417    15034    14562    15086    16058    16884 
   17208    16981    16495    16185    16218    16468    16814    17208 
   17469    17344    16947    16618    16333    15988    15824    16001 
   16328    16502    16326    16029    16114    16660    17278    17595 
   17385    16746    16182    16090    16511    17308    17941    17653 
   16471    15277    14898    15622    16958    17736    17158    15591 
   14106    13679    14594    16114    17081    16995    16287    15813 
   16070    16684    17046    17238    17563    17779    17543    16870 
   15981    15514    16059    16929    17041    16464    15761    15387 
   15820    16912    17651    17247    16081    15309    15695    16811 
   17464    16996    15853    15169    15892    17629    18723    18077 
   16403    15160    15103    16135    17351    17587    16808    15943 
   15500    15526    16069    16852    17219    16922    16402    16060 
   16005    16348    16947    17350    17397    17154    16571    16020 
   16116    16708    17255    17620    17605    16861    15846    15568 
   16113    16613    16595    16505    16780    17089    16922    16322 
   15730    15543    15838    16268    16413    16266    16074    15992 
   16255    16929    17459    17174    16174    15492    16097    17824 
   19500    19727    18072    15836    14879    15633    16806    16943 
   16011    15273    15619    16606    17352    17319    16475    15502 
   15086    15252    15827    16698    17567    18057    17934    17200 
   16128    15283    15165    15790    16672    17157    17050    16772 
   16603    16474    16366    16402    16564    16583    16264    15705 
   15330    15588    16322    16897    16868    16170    15149    14546 
   15026    16248    16969    16676    15908    15264    15314    16268 
   17281    17292    16302    15283    15286    16727    18827    19853 
   18910    16930    15290    14698    15273    16344    16978    16914 
   16298    15684    15897    16825    17541    17470    16679    15846 
   15607    16042    17061    18258    18640    17585    15757    14521 
   14683    15963    17254    17312    15959    14528    14391    15596 
   17123    17774    17217    16290    16086    17041    18539    19265 
   18576    17227    16364    16609    17803    18918    18751    17065 
   15080    14467    15458    16853    17440    16746    15410    14759 
   15411    16602    17120    16691    15977    15670    16102    16976 
   17451    17086    16309    15850    16205    17243    18069    17940 
   17015    15892    15260    15562    16492    17309    17424    16734 
   15870    15747    16410    16726    16036    15261    15473    16540 
   17594    17814    16960    15633    14613    14359    15110    16407 
   17136    16742    15766    15265    15850    17046    17768    17469 
   16588    16017    16336    17234    17794    17632    17055    16538 
   16557    17035    17231    16704    15718    14760    14380    15111 
   16698    17825    17437    15803    14305    14499    16395    17948 
   17420    15564    14542    15361    17089    18139    17621    16055 
   15053    15583    17046    18192    18069    16762    15465    14978 
   15107    15674    16340    16505    16343    16422    16791    17178 
   17266    16945    16488    16205    16132    16129    16191    16397 
   16765    17244    17386    16875    16220    15859    15828    16349 
   17189    17478    16920    16220    16194    16780    17224    17116 
   16555    15981    16202    17446    18503    17937    16046    14674 
   14958    16313    17556    17786    16777    15506    15453    16823 
   18412    19190    19002    18227    17377    16827    16708    16907 
   17178    17197    16757    16222    16213    16650    16872    16588 
   16067    15669    15747    16474    17313    17361    16387    15218 
   14947    15827    17085    17770    17463    16505    15750    15731 
   16229    16789    17078    16831    16047    15174    14902    15638 
   16988    17963    17828    16831    16019    16051    16710    17648 
   18520    18619    17589    16178    15562    16178    17219    17389 
   16364    15111    14791    15680    16947    17485    16893    15666 
   14866    15226    16241    16807    16610    16197    16102    16456 
   17077    17756    18266    18081    17047    16170    16569    18027 
   19089    18742    17620    16726    16326    16582    17288    17602 
   17188    16565    16303    16529    17035    17432    17312    16683 
   15990    15693    15975    16669    17377    17551    16993    16374 
   16552    17545    18504    18563    17701    16609    15969    15979 
   16359    16843    17208    17026    16390    16059    16353    16837 
   17016    16776    16335    15988    16023    16579    17288    17541 
   17217    16586    15966    15759    16200    16973    17385    17031 
   16200    15514    15344    15587    15823    15788    15579    15357 
   15325    15668    16123    16401    16762    17328    17581    17108 
   16425    16474    17205    17496    16538    14763    13514    13690 
   14779    15588    15453    14557    13752    13954    15020    15831 
   15781    15244    14959    15363    16096    16555    16650    16533 
   16337    16320    16561    16858    17088    17155    16849    16297 
   15986    16124    16430    16451    15985    15458    15507    16119 
   16572    16317    15624    15205    15472    16312    17266    17895 
   17948    17363    16470    15805    15665    16113    16872    17215 
   16646    15606    15039    15376    16186    16688    16325    15253 
   14330    14403    15649    17209    17687    16610    14827    13705 
   14300    16326    17980    17703    15824    14150    14165    15614 
   17003    17285    16603    16016    16510    17837    18812    18625 
   17381    15939    15476    16475    18181    19271    18933    17343 
   15488    14651    15379    16837    17533    16691    15070    14152 
   14536    15623    16345    16163    15623    15539    16125    17113 
   17772    17342    16237    15835    16754    18308    19480    19704 
   19028    18091    17690    18084    19006    20097    20818    20725 
   20008    19186    18814    19153    19637    19465    18624    17803 
   17641    18112    18547    18261    17190    16069    15803    16561 
   17653    18389    18673    18597    18121    17493    17213    17437 
   17922    18233    18007    17410    17020    17253    18067    18693 
   17959    15627    13026    11875    12722    14462    15365    14688 
   13200    12193    12366    13491    14646    14885    14114    13309 
   13459    14393    15159    15061    14054    12777    12164    12511 
   13072    12964    12097    10860     9771     9590    10528    11728 
   12316    12136    11595    11284    11479    12004    12573    13043 
   13464    13892    14235    14499    14790    15118    15527    16055 
   16447    16321    15693    15145    15218    15834    16557    17073 
   17224    17190    17509    18490    19855    20966    21280    20781 
   19980    19448    19487    20009    20580    20633    19861    18723 
   18260    18894    19924    20407    19873    18536    17254    16893 
   17555    18523    18928    18416    17363    16638    16927    17914 
   18322    17290    15349    13617    12750    12861    13655    14501 
   14975    15121    15021    14922    15354    16449    17671    18284 
   18072    17794    18311    19418    20223    20070    18832    17209 
   16488    17086    18010    18060    17072    16132    16389    17545 
   18364    18289    17761    17496    18030    19286    20486    21081 
   21244    21239    21082    20601    19685    18767    18370    18377 
   18395    18291    18141    18200    18689    19219    19091    18528 
   18527    19399    20480    20933    20390    19249    18527    19067 
   20530    21637    21701    21093    20397    19982    19997    20086 
   19572    18323    16923    15832    14966    14157    13466    12942 
   12583    12550    12874    13174    13066    12502    11662    10932 
   10770    11263    12028    12746    13281    13389    13042    12649 
   12532    12784    13392    14025    14192    13748    13027    12687 
   13244    14458    15434    15489    14685    13705    13518    14538 
   16019    16825    16491    15286    13952    13417    14061    15169 
   15606    15012    13988    13262    13185    13695    14335    14532 
   14160    13701    13686    14112    14593    14943    15383    16183 
   17140    17610    17235    16452    16059    16457    17595    19141 
   20256    20228    19457    18836    18623    18617    18627    18407 
   17896    17421    17297    17489    17682    17672    17666    17817 
   17880    17694    17383    17113    16912    16721    16656    16880 
   17261    17591    17820    17977    18068    18157    18612    19741 
   21217    22312    22526    21979    21300    21030    21031    20709 
   19921    19180    18955    19332    20101    20879    21309    21212 
   20750    20417    20482    20760    20925    20702    20081    19388 
   18894    18608    18312    17595    16372    15168    14434    14018 
   13549    13042    12742    12586    12309    11908    11500    11152 
   10970    10947    10856    10520    10008     9566     9364     9301 
    9100     8706     8495     8788     9371     9747     9444     8461 
    7601     7774     9189    11307    13081    13620    13109    12688 
   13265    14769    16418    17420    17641    17739    18403    19557 
   20445    20443    19727    19147    19395    20501    21822    22396 
   21759    20298    18836    18246    18939    20208    20641    19607 
   17898    16742    16794    17969    19550    20613    20645    19745 
   18485    17628    17532    17753    17545    16741    15876    15654 
   16329    17285    17541    16772    15507    14584    14435    14725 
   14863    14598    14040    13616    13717    14143    14297    13937 
   13543    13844    15044    16629    17856    18285    17945    17292 
   16980    17250    17682    17726    17240    16553    16117    16121 
   16418    16594    16208    15256    14212    13662    14025    15242 
   16561    17065    16521    15572    15194    15826    16907    17531 
   17378    16784    16332    16507    17383    18387    18623    17922 
   17145    17134    17942    18918    19257    18729    17726    16834 
   16592    17151    18023    18490    18327    17942    17755    17793 
   18021    18550    19332    20017    20221    19934    19684    19909 
   20352    20439    19897    18864    17724    16802    16098    15427 
   14682    13853    13162    12960    13274    13756    13984    13780 
   13404    13230    13397    13834    14332    14656    14781    14823 
   14751    14472    14230    14408    15048    15920    16690    17093 
   17219    17338    17585    17945    18265    18389    18370    18335 
   18293    18277    18326    18233    17798    17281    17068    17111 
   17190    17257    17278    17248    17334    17674    18196    18651 
   18634    17946    17113    16916    17359    17720    17564    17061 
   16461    16005    16040    16761    17851    18570    18360    17305 
   16105    15607    16101    17126    17936    18019    17329    16344 
   15877    16295    16996    17174    16703    16081    16004    16826 
   18184    19252    19387    18716    17991    17768    17937    18019 
   17581    16452    15030    14085    13946    14254    14507    14454 
   14139    13772    13470    13217    12935    12556    12204    12102 
   12170    12145    12019    11992    12252    12877    13761    14596 
   14960    14627    13959    13659    13930    14268    14087    13281 
   12402    12382    13583    15292    16405    16424    15851    15611 
   16177    17251    17968    17703    16892    16514    17031    18104 
   19087    19622    19734    19627    19635    20058    20788    21332 
   21176    20067    18326    16889    16559    17262    18239    18685 
   18335    17541    16876    16772    17244    17820    18040    17837 
   17432    17232    17685    18735    19637    19714    18972    17942 
   17292    17410    18184    19161    19726    19472    18665    17878 
   17427    17378    17510    17331    16767    16314    16193    16209 
   16305    16511    16779    17051    17285    17338    17076    16677 
   16397    16112    15695    15357    15194    15036    14825    14704 
   14671    14534    14278    14049    13856    13737    13768    13826 
   13768    13613    13398    13215    13208    13410    13734    14079 
   14413    14825    15349    15766    15696    14999    14075    13539 
   13598    13884    14053    14134    14131    14049    14141    14358 
   14268    13811    13444    13680    14652    15718    15990    15383 
   14689    14613    15074    15566    15699    15319    14748    14679 
   15349    16105    16272    16069    16162    16719    17421    18025 
   18431    18634    18976    19788    20756    21369    21485    21257 
   21024    21000    20938    20480    19707    19070    18877    19041 
   19268    19313    19141    18877    18674    18688    18979    19419 
   19754    19741    19310    18640    18102    18129    18921    20144 
   21093    21296    20875    20366    20321    20950    21832    22241 
   22005    21590    21373    21423    21716    21980    21770    21038 
   20177    19465    18989    18810    18679    18050    16775    15318 
   14154    13382    12850    12289    11458    10462     9760     9659 
    9859     9841     9459     8891     8419     8306     8430     8464 
    8534     9099    10330    11813    12698    12521    11847    11657 
   12430    13869    15206    15850    15797    15542    15730    16756 
   18397    19884    20607    20623    20412    20472    21035    21838 
   22315    22052    21150    20247    19923    20086    20218    19951 
   19321    18740    18559    18578    18225    17184    15700    14420 
   13965    14370    14899    14717    13770    12680    11990    11835 
   12016    12171    12131    12125    12449    13057    13579    13694 
   13459    13263    13417    13832    14200    14362    14401    14548 
   15053    15920    16715    16902    16391    15687    15433    15901 
   16815    17602    17909    17845    17752    17801    17948    18138 
   18327    18391    18319    18374    18751    19332    19754    19626 
   18981    18360    18173    18241    18011    17136    15915    15124 
   15263    16019    16683    16899    16785    16555    16249    15817 
   15311    14968    15014    15417    15876    15934    15326    14438 
   14046    14675    16276    18115    19230    19263    18621    18054 
   18158    18885    19614    19741    19078    17995    17135    16912 
   17311    17979    18512    18593    18015    17088    16545    16572 
   16595    16092    15030    13886    13242    13062    12922    12807 
   13055    13757    14607    15144    15076    14627    14490    15095 
   16074    16654    16306    15152    13929    13298    13217    13216 
   12961    12509    12280    12607    13344    14160    14828    15206 
   15379    15647    16220    17080    18025    18800    19225    19305 
   19272    19419    19872    20483    20891    20811    20372    20001 
