Origin Time       2025/01/13 21:19:00
Lat.              31.8
Long.             131.6
Depth. (km)       30
Mag.              6.9
Station Code      OITH11
Station Lat.      33.2844
Station Long.     131.2118
Station Height(m) 460
Record Time       2025/01/13 21:20:00
Sampling Freq(Hz) 100Hz
Duration Time(s)  209
Dir.              4
Scale Factor      7845(gal)/8223790
Max. Acc. (gal)   4.889
Last Correction   2025/01/13 21:20:00
Memo.             
[...]
    8868     9228     9629     9984    10230    10336    10301    10135 
    9868     9528     9135     8708     8276     7882     7589     7466 
    7551     7832     8253     8714     9112     9356     9374     9139 
    8708     8186     7701     7371     7275     7437     7819     8345 
    8937     9521    10042    10446    10681    10708    10512    10107 
    9539     8897     8295     7843     7619     7643     7863     8170 
    8430     8540     8460     8236     7963     7757     7707     7851 
    8185     8664     9220     9774    10235    10511    10515    10218 
    9667     8996     8364     7916     7738     7836     8148     8590 
    9088     9598    10080    10484    10755    10854    10778    10577 
   10322    10076     9888     9763     9657     9509     9288     9003 
    8687     8394     8174     8048     7993     7967     7925     7846 
    7734     7623     7547     7531     7569     7632     7697     7771 
    7877     8067     8402     8901     9517    10154    10706    11082 
   11230    11151    10895    10558    10250    10054     9999    10057 
   10169    10266    10300    10247    10103     9879     9613     9343 
    9101     8914     8806     8796     8893     9093     9364     9661 
    9921    10072    10083     9971     9779     9559     9369     9248 
    9231     9325     9517     9769    10037    10257    10370    10332 
   10130     9810     9451     9146     8989     9034     9256     9570 
    9860    10022    10000     9803     9483     9108     8731     8387 
    8104     7898     7780     7766     7882     8124     8441     8773 
    9070     9273     9331     9232     8984     8617     8197     7811 
    7533     7406     7458     7695     8083     8560     9030     9391 
    9566     9516     9263     8889     8494     8181     8036     8109 
    8397     8842     9344     9803    10145    10334    10395    10384 
   10355    10338    10320    10274    10188    10065     9937     9836 
    9756     9660     9494     9225     8874     8521     8278     8232 
    8403     8733     9116     9435     9598     9570     9390     9140 
    8885     8661     8488     8364     8287     8252     8232     8209 
    8195     8217     8295     8438     8627     8829     8997     9105 
    9153     9147     9093     8986     8804     8537     8218     7919 
    7713     7655     7758     7977     8251     8533     8804     9073 
    9347     9614     9841     9963     9915     9678     9293     8856 
    8483     8293     8370     8711     9238     9832    10361    10708 
   10801    10629    10223     9655     9034     8487     8118     8005 
    8179     8595     9147     9691    10073    10164     9903     9312 
    8486     7574     6741     6129     5856     5989     6512     7330 
    8284     9186     9871    10226    10227     9946     9513     9088 
    8808     8748     8897     9205     9585     9948    10212    10323 
   10273    10123     9964     9871     9871     9942    10034    10093 
   10085    10007     9888     9769     9694     9693     9756     9840 
    9876     9803     9585     9238     8837     8484     8279     8262 
    8419     8703     9047     9381     9640     9790     9821     9734 
    9551     9305     9038     8797     8613     8478     8368     8245 
    8089     7921     7804     7805     7975     8328     8829     9408 
    9975    10450    10764    10870    10740    10382     9849     9229 
    8634     8167     7927     7965     8252     8688     9150     9513 
    9697     9684     9509     9223     8888     8571     8345     8272 
    8376     8650     9047     9491     9896    10173    10262    10145 
    9855     9463     9049     8694     8476     8446     8627     8995 
    9468     9944    10314    10511    10524    10374    10119     9814 
    9491     9177     8901     8685     8550     8499     8518     8600 
    8731     8873     8977     9000     8915     8719     8463     8229 
    8085     8081     8236     8522     8876     9221     9482     9597 
    9543     9327     8993     8611     8253     7993     7886     7947 
    8140     8401     8637     8770     8754     8577     8278     7928 
    7607     7384     7310     7423     7744     8251     8888     9578 
   10212    10677    10878    10774    10403     9876     9331     8873 
    8577     8476     8583     8884     9337     9855    10332    10681 
   10828    10746    10461    10033     9533     9036     8604     8282 
    8113     8125     8318     8664     9096     9531     9883    10095 
   10142    10045     9850     9625     9435     9329     9333     9437 
    9610     9811     9973    10018     9877     9526     9018     8471 
    8014     7765     7784     8054     8471     8887     9167     9236 
    9096     8822     8532     8338     8295     8391     8581     8822 
    9080     9336     9556     9675     9632     9396     8984     8468 
    7960     7574     7391     7453     7751     8218     8765     9300 
    9740    10025    10126    10053     9855     9590     9315     9082 
    8922     8826     8783     8784     8819     8899     9030     9207 
    9410     9598     9717     9721     9599     9383     9131     8923 
    8835     8907     9136     9485     9890    10277    10579    10759 
   10791    10670    10405    10019     9541     9026     8526     8091 
    7773     7628     7703     8001     8482     9057     9595     9976 
   10123    10034     9769     9428     9096     8834     8664     8565 
    8506     8464     8428     8390     8334     8237     8085     7900 
    7734     7669     7777     8100     8621     9254     9859    10288 
   10430    10253     9807     9213     8610     8120     7816     7726 
    7824     8051     8333     8615     8861     9057     9211     9325 
    9385     9350     9182     8874     8471     8073     7801     7742 
    7913     8259     8661     8980     9113     9026     8756     8386 
    8021     7767     7709     7889     8294     8861     9481    10039 
   10434    10593    10512    10253     9907     9576     9359     9325 
    9489     9807    10207    10586    10837    10860    10617    10164 
    9612     9109     8793     8731     8911     9252     9609     9838 
    9845     9591     9111     8510     7933     7519     7376     7566 
    8073     8803     9595    10266    10667    10721    10434     9887 
    9219     8572     8081     7855     7933     8268     8737     9173 
    9439     9468     9274     8949     8621     8403     8371     8517 
    8762     8999     9127     9100     8939     8708     8494     8360 
    8328     8392     8537     8738     8961     9158     9285     9294 
    9167     8923     8615     8328     8133     8079     8170     8361 
    8577     8745     8816     8795     8718     8625     8538     8476 
    8449     8478     8590     8806     9116     9478     9818    10058 
   10134     9996     9629     9070     8395     7703     7096     6662 
    6435     6411     6552     6804     7113     7433     7720     7942 
    8093     8171     8195     8208     8252     8349     8499     8691 
    8916     9162     9424     9703     9985    10247    10457    10573 
   10570    10469    10303    10125     9992     9938     9972    10072 
   10195    10299    10359    10362    10320    10266    10210    10138 
   10031     9875     9667     9441     9250     9130     9107     9200 
    9385     9609     9814     9960    10031    10034     9987     9919 
    9852     9782     9711     9634     9522     9352     9121     8837 
    8537     8284     8154     8217     8511     9007     9613    10195 
   10608    10755    10609    10212     9661     9088     8617     8344 
    8324     8548     8965     9485     9996    10392    10581    10521 
   10241     9822     9396     9094     8996     9121     9424     9807 
   10164    10419    10532    10501    10347    10108     9828     9553 
    9346     9248     9285     9455     9721    10021    10284    10459 
   10505    10400    10142     9753     9278     8797     8402     8168 
    8155     8374     8796     9354     9933    10438    10797    10966 
   10943    10759    10462    10127     9836     9655     9637     9798 
   10102    10476    10813    11016    11032    10843    10482    10037 
    9607     9294     9189     9331     9686    10149    10575    10833 
   10816    10473     9836     9008     8136     7380     6863     6644 
    6723     7029     7446     7858     8172     8334     8329     8189 
    7971     7742     7560     7465     7476     7576     7732     7906 
    8059     8163     8202     8168     8068     7924     7763     7614 
    7523     7508     7560     7661     7773     7855     7898     7908 
    7900     7901     7929     7994     8100     8240     8411     8604 
    8800     8986     9148     9289     9424     9563     9711     9875 
   10035    10170    10257    10287    10258    10179    10062     9922 
    9783     9671     9598     9559     9533     9493     9406     9259 
    9046     8768     8430     8043     7636     7250     6939     6762 
    6762     6940     7258     7645     8010     8299     8479     8545 
    8511     8403     8263     8145     8085     8097     8164     8252 
    8316     8322     8263     8155     8052     8019     8098     8305 
    8615     8962     9271     9502     9626     9626     9518     9343 
    9142     8947     8789     8702     8703     8792     8964     9209 
    9499     9794    10066    10296    10454    10536    10559    10547 
   10531    10550    10636    10793    10990    11190    11348    11416 
   11354    11145    10798    10346     9842     9362     8980     8749 
    8692     8792     8995     9227     9414     9489     9398     9134 
    8734     8279     7884     7669     7734     8118     8775     9595 
   10431    11124    11547    11646    11425    10943    10288     9579 
    8946     8491     8270     8306     8579     9012     9501     9927 
   10189    10231    10044     9680     9240     8811     8472     8276 
    8241     8353     8584     8878     9173     9408     9548     9574 
    9483     9306     9078     8841     8649     8552     8579     8749 
    9040     9417     9838    10249    10596    10825    10913    10858 
   10681    10423    10131     9859     9639     9477     9358     9266 
    9182     9104     9042     9000     8962     8896     8741     8451 
    8012     7474     6940     6539     6396     6596     7125     7865 
    8629     9224     9501     9398     8955     8294     7597     7051 
    6795     6902     7349     8032     8810     9521    10027    10235 
   10106     9674     9055     8409     7886     7582     7537     7727 
    8089     8523     8931     9240     9405     9409     9266     9007 
    8688     8376     8137     8028     8056     8178     8340     8503 
    8637     8737     8833     8961     9163     9472     9873    10311 
   10706    10980    11084    11024    10840    10590    10331    10096 
    9888     9698     9502     9273     9007     8714     8426     8197 
    8060     8041     8135     8294     8460     8579     8629     8630 
    8640     8725     8937     9282     9715    10160    10516    10702 
   10670    10432    10061     9657     9313     9101     9046     9127 
    9301     9525     9760     9971    10137    10226    10216    10111 
    9934     9742     9589     9491     9435     9378     9269     9065 
    8766     8405     8043     7762     7622     7661     7878     8236 
    8673     9120     9509     9788     9921     9880     9649     9244 
    8704     8085     7460     6924     6548     6376     6417     6658 
    7060     7577     8151     8715     9208     9566     9737     9699 
    9458     9051     8571     8118     7794     7673     7781     8083 
    8509     8972     9375     9640     9730     9651     9444     9194 
    8988     8899     8965     9175     9491     9859    10200    10462 
   10615    10642    10561    10407    10233    10084     9999     9995 
   10072    10212    10388    10562    10710    10813    10845    10790 
   10642    10412    10129     9844     9625     9521     9544     9675 
    9852    10008    10103    10114    10034     9888     9703     9497 
    9288     9097     8935     8810     8730     8688     8676     8698 
    8752     8829     8923     9040     9167     9277     9354     9379 
    9339     9236     9074     8880     8706     8595     8573     8657 
    8846     9130     9472     9813    10071    10161    10038     9699 
    9196     8606     8013     7492     7098     6855     6750     6739 
    6790     6880     7001     7141     7271     7337     7292     7119 
    6837     6502     6192     5989     5953     6092     6369     6717 
    7049     7281     7372     7335     7225     7119     7086     7169 
    7383     7717     8154     8654     9171     9666    10115    10501 
   10793    10951    10932    10712    10304     9776     9228     8765 
    8457     8332     8370     8507     8653     8737     8733     8642 
    8487     8314     8176     8129     8203     8395     8665     8937 
    9119     9146     8981     8638     8183     7699     7291     7055 
    7051     7292     7743     8318     8916     9445     9837    10058 
   10108    10007     9794     9526     9275     9108     9069     9166 
    9359     9579     9736     9751     9587     9258     8815     8334 
    7908     7631     7578     7790     8264     8938     9698    10411 
   10959    11250    11240    10933    10399     9747     9123     8683 
    8557     8816     9458    10399    11487    12550    13433    14010 
   14212    14056    13613    13005    12384    11898    11649    11674 
   11944    12372    12835    13200    13365    13258    12856    12212 
   11450    10712    10130     9814     9787     9999    10353    10728 
   11009    11113    11003    10710    10303     9859     9462     9182 
    9058     9100     9283     9563     9883    10179    10378    10417 
   10266     9934     9460     8922     8414     8031     7831     7830 
    7990     8251     8546     8810     8995     9082     9077     8984 
    8812     8587     8343     8117     7951     7870     7874     7951 
    8064     8164     8212     8175     8043     7831     7577     7326 
    7123     6998     6963     7013     7129     7284     7449     7587 
    7658     7647     7570     7466     7380     7373     7495     7771 
    8190     8694     9190     9580     9771     9710     9401     8908 
    8333     7784     7352     7088     7003     7074     7263     7537 
    7859     8197     8500     8715     8802     8738     8540     8262 
    7975     7758     7659     7700     7869     8114     8368     8561 
    8637     8549     8280     7838     7260     6620     6002     5489 
    5161     5069     5235     5625     6157     6718     7199     7520 
    7643     7588     7423     7241     7141     7218     7528     8064 
    8756     9487    10125    10548    10702    10604    10320     9960 
    9621     9369     9239     9229     9317     9498     9765    10093 
   10434    10728    10913    10943    10825    10632    10450    10358 
   10412    10616    10929    11306    11697    12063    12383    12652 
   12862    13014    13104    13126    13085    13012    12935    12877 
   12850    12856    12872    12869    12819    12696    12492    12201 
   11821    11384    10932    10508    10160     9925     9822     9850 
    9983    10168    10355    10501    10570    10543    10423    10234 
   10011     9790     9583     9398     9239     9105     8995     8893 
    8773     8603     8367     8050     7677     7306     7003     6841 
    6866     7072     7411     7785     8063     8131     7929     7480 
    6863     6205     5647     5289     5185     5327     5652     6075 
    6505     6867     7117     7246     7284     7284     7304     7384 
    7531     7723     7928     8100     8206     8243     8229     8191 
    8149     8120     8108     8101     8083     8071     8094     8186 
    8378     8667     9011     9337     9591     9757     9850     9909 
    9971    10057    10168    10276    10346    10351    10278    10143 
    9996     9902     9910    10050    10314    10654    11005    11299 
   11488    11557    11520    11414    11261    11079    10879    10673 
   10478    10323    10220    10181    10208    10277    10355    10419 
   10455    10466    10469    10481    10507    10538    10561    10563 
   10525    10440    10315    10166    10027     9931     9898     9926 
    9994    10066    10107    10092    10022     9921     9826     9771 
    9771     9823     9903     9976    10018    10010     9948     9846 
    9721     9594     9489     9406     9342     9288     9239     9200 
    9180     9170     9147     9082     8953     8758     8523     8298 
    8132     8067     8120     8283     8515     8758     8961     9085 
    9115     9057     8937     8797     8684     8631     8656     8738 
    8846     8937     8970     8937     8851     8746     8653     8580 
    8521     8467     8399     8318     8245     8197     8197     8259 
    8363     8476     8569     8615     8590     8496     8341     8133 
    7896     7651     7426     7256     7179     7218     7361     7564 
    7767     7909     7933     7813     7557     7207     6828     6494 
    6280     6232     6367     6662     7061     7484     7834     8016 
    7981     7732     7315     6818     6355     6038     5944     6083 
    6415     6848     7277     7614     7797     7812     7684     7473 
    7271     7149     7137     7231     7400     7605     7808     7979 
    8110     8203     8260     8276     8251     8178     8060     7933 
    7863     7911     8101     8398     8727     9023     9240     9364 
    9414     9440     9470     9513     9570     9625     9657     9649 
    9606     9537     9466     9417     9393     9383     9389     9389 
    9367     9332     9282     9211     9115     8973     8752     8442 
    8050     7599     7156     6818     6675     6775     7106     7591 
    8110     8548     8814     8878     8764     8537     8280     8086 
    8025     8140     8446     8923     9521    10161    10746    11187 
   11437    11483    11354    11124    10872    10666    10559    10601 
   10813    11187    11674    12190    12646    12965    13100    13043 
   12830    12533    12235    12004    11893    11940    12143    12448 
   12772    13018    13097    12961    12607    12078    11445    10797 
   10216     9787     9570     9595     9872    10357    10964    11585 
   12102    12410    12453    12240    11844    11377    10957    10686 
   10632    10798    11134    11560    11978    12295    12438    12363 
   12067    11587    10974    10305     9659     9099     8669     8380 
    8202     8094     8012     7916     7776     7578     7346     7117 
    6917     6759     6642     6542     6435     6313     6197     6127 
    6127     6192     6300     6397     6421     6331     6120     5829 
    5525     5281     5142     5121     5211     5375     5582     5803 
    6000     6146     6214     6204     6142     6072     6056     6145 
    6355     6666     7029     7375     7638     7782     7794     7700 
    7547     7400     7308     7306     7393     7547     7727     7875 
    7946     7911     7765     7551     7337     7196     7211     7437 
    7871     8468     9126     9728    10168    10366    10299     9988 
    9483     8880     8306     7881     7692     7786     8148     8704 
