Origin Time       2025/01/13 21:19:00
Lat.              31.8
Long.             131.6
Depth. (km)       30
Mag.              6.9
Station Code      OITH10
Station Lat.      32.9278
Station Long.     131.8695
Station Height(m) -20
Record Time       2025/01/13 21:19:53
Sampling Freq(Hz) 100Hz
Duration Time(s)  163
Dir.              3
Scale Factor      3923(gal)/8224838
Max. Acc. (gal)   5.254
Last Correction   2025/01/13 21:19:53
Memo.             
[...]
   27791    27484    27029    26495    25924    25408    25161    25115 
   25054    25014    25130    25497    26064    26561    26897    27329 
   27923    28381    28537    28498    28329    28048    27708    27391 
   27148    26914    26681    26605    26774    27090    27391    27662 
   28005    28389    28726    29034    29286    29431    29544    29670 
   29655    29331    28850    28559    28439    28183    27706    27148 
   26762    26761    27033    27375    27772    28212    28622    28923 
   28993    28887    28757    28513    28058    27545    27135    26779 
   26352    25979    25868    25856    25786    25917    26407    26937 
   27172    27141    27072    27159    27421    27855    28432    28861 
   29025    29170    29308    29278    29181    29035    28657    28188 
   28003    28053    27993    27907    28100    28408    28372    27927 
   27457    27249    27180    26948    26472    26011    25779    25618 
   25346    25053    24877    24808    24835    25016    25327    25551 
   25497    25421    25713    26242    26698    27033    27333    27793 
   28470    29119    29508    29455    28869    28043    27452    27236 
   27164    27124    27220    27388    27502    27599    27712    27812 
   27768    27499    27309    27388    27437    27275    26982    26539 
   26029    25735    25740    25887    26145    26536    26843    27004 
   27342    27814    28005    27930    27854    27962    28440    29139 
   29610    29718    29605    29405    29154    28705    28012    27321 
   26794    26454    26457    26909    27495    27859    28038    28221 
   28502    28840    29138    29349    29485    29587    29616    29435 
   29065    28728    28476    28127    27633    27151    26734    26412 
   26316    26360    26335    26288    26310    26415    26704    27109 
   27373    27418    27356    27333    27352    27271    27112    27085 
   27248    27402    27342    27174    27106    26994    26758    26705 
   26902    27067    27125    27280    27684    28232    28714    29003 
   29035    28863    28637    28347    27905    27388    26924    26600 
   26458    26473    26582    26751    26968    27220    27507    27762 
   27868    27862    27874    28008    28256    28445    28514    28518 
   28382    28090    27699    27190    26697    26449    26447    26600 
   26910    27270    27527    27765    28035    28155    27997    27668 
   27409    27378    27467    27513    27641    27972    28266    28293 
   28209    28213    28192    28009    27743    27454    27128    26779 
   26426    26206    26327    26673    26971    27141    27186    27202 
   27317    27403    27244    26912    26640    26461    26339    26322 
   26280    26050    25744    25555    25551    25709    25991    26404 
   26974    27629    28197    28580    28845    29061    29181    29180 
   29188    29257    29219    29022    28858    28786    28595    28306 
   28112    27889    27545    27310    27292    27337    27233    26989 
   26846    26785    26559    26190    25913    25852    26003    26427 
   27081    27695    28223    28821    29343    29492    29339    29047 
   28429    27507    26779    26462    26310    26118    25898    25816 
   25937    26083    26126    26123    26168    26314    26561    26848 
   27114    27418    27827    28246    28549    28794    29022    29076 
   28845    28495    28275    28216    28205    28186    28117    27988 
   27864    27766    27653    27484    27305    27236    27236    27167 
   27129    27244    27338    27222    26954    26677    26372    25926 
   25455    25288    25463    25748    26106    26539    26912    27201 
   27472    27718    27827    27684    27442    27334    27315    27315 
   27360    27418    27496    27612    27650    27580    27572    27641 
   27569    27341    27244    27399    27583    27639    27702    27758 
   27558    27117    26771    26674    26716    26823    26956    27071 
   27230    27468    27652    27719    27807    27980    28177    28337 
   28445    28556    28605    28436    28146    28007    28154    28532 
   28875    28860    28539    28394    28694    29068    29079    28750 
   28391    28229    28217    28278    28455    28649    28732    28687 
   28433    27999    27535    27074    26585    26123    25686    25230 
   24958    25112    25482    25751    25991    26377    26771    26935 
   26890    26739    26528    26369    26308    26261    26150    26036 
   26042    26256    26634    26936    27017    27059    27283    27738 
   28278    28618    28622    28418    28258    28277    28366    28385 
   28331    28225    28124    28028    27858    27656    27544    27557 
   27634    27670    27657    27642    27523    27164    26757    26643 
   26809    26990    27103    27264    27534    27814    28038    28344 
   28699    28834    28803    28864    28975    29039    29124    29215 
   29172    28922    28507    27957    27297    26720    26315    25902 
   25466    25200    25195    25404    25662    25888    26176    26437 
   26538    26646    26919    27321    27756    28038    28182    28410 
   28599    28537    28291    27955    27585    27214    26890    26747 
   26805    26929    26958    26871    26817    26865    26959    27072 
   27274    27599    27891    28084    28458    29160    29937    30499 
   30870    31243    31576    31626    31369    30964    30416    29717 
   29072    28555    27993    27392    26937    26707    26657    26623 
   26522    26519    26658    26851    27095    27271    27260    27229 
   27359    27608    27839    27939    27927    27965    28082    28117 
   28054    27931    27645    27247    26887    26604    26415    26249 
   26052    25884    25693    25424    25188    25047    24941    24771 
   24529    24362    24376    24487    24563    24629    24823    25218 
   25799    26509    27151    27525    27707    27815    27795    27627 
   27365    27122    26973    26721    26258    25895    25810    25690 
   25357    25050    24922    24910    25058    25412    25756    25903 
   25987    26167    26369    26504    26489    26215    25786    25438 
   25266    25205    25119    25010    25080    25393    25705    25763 
   25660    25678    25855    25984    25867    25586    25469    25555 
   25567    25469    25493    25668    25848    26014    26154    26188 
   26183    26212    26179    26068    26045    26167    26239    26141 
   26082    26292    26667    26927    26998    27043    27129    27187 
   27137    27055    27190    27548    27899    28300    28861    29444 
   29932    30245    30314    30321    30438    30524    30430    30229 
   30019    29813    29625    29517    29470    29343    29065    28715 
   28409    28169    27920    27592    27222    26968    26921    26963 
   26948    26912    26958    27187    27685    28398    29187    29955 
   30662    31286    31689    31719    31429    30879    30037    29010 
   28097    27572    27422    27415    27535    27903    28390    28817 
   29226    29613    29794    29650    29332    29122    29026    28759 
   28194    27557    27075    26715    26380    26119    26014    26036 
   26118    26175    26153    26200    26423    26693    26927    27159 
   27429    27776    28181    28597    29041    29531    30030    30488 
   30838    30952    30713    30103    29215    28255    27360    26547 
   25890    25475    25232    25019    24788    24568    24356    24197 
   24156    24098    23824    23464    23302    23280    23157    22935 
   22820    22885    23079    23373    23731    24078    24317    24436 
   24588    24884    25200    25420    25667    26057    26493    27048 
   27893    28807    29587    30454    31450    32296    32798    32946 
   32879    32734    32464    32023    31465    30820    30234    29853 
   29521    29043    28470    27949    27576    27280    26959    26739 
   26784    27079    27583    28182    28713    29274    30038    30897 
   31738    32518    33057    33315    33538    33844    34065    34048 
   33826    33525    33210    32929    32718    32471    32055    31503 
   30910    30284    29643    29143    28875    28732    28664    28753 
   28930    29016    29008    28942    28699    28233    27676    27153 
   26788    26623    26500    26272    25887    25321    24714    24254 
   23885    23468    23035    22663    22408    22437    22873    23522 
   24097    24540    24904    25232    25554    25814    25951    25998 
   25998    25875    25608    25309    25045    24810    24657    24634 
   24754    24921    25003    25193    25694    26214    26469    26584 
   26684    26739    26786    26904    27067    27157    27114    26919 
   26547    26100    25712    25362    24952    24428    23858    23463 
   23429    23683    23973    24146    24131    23838    23353    22959 
   22821    22855    22844    22744    22789    23190    23895    24745 
   25740    26905    28124    29332    30508    31558    32428    33072 
   33461    33652    33666    33502    33303    33188    33099    32919 
   32643    32339    32069    31804    31456    30991    30483    30048 
   29710    29393    29085    28858    28726    28584    28377    28237 
   28312    28575    28941    29446    30175    30986    31625    32059 
   32418    32715    32830    32678    32381    32169    32104    32113 
   32262    32563    32715    32524    32157    31730    31122    30275 
   29317    28375    27491    26820    26568    26640    26765    26846 
   26913    26968    26981    26887    26682    26428    26195    25987 
   25818    25721    25660    25597    25532    25467    25409    25402 
   25544    25897    26435    27067    27668    28262    28929    29523 
   29960    30364    30735    30974    31056    31018    30942    30780 
   30412    29875    29272    28620    27851    26946    25976    25026 
   24213    23633    23179    22748    22392    22099    21772    21392 
   21028    20680    20252    19781    19359    19056    19014    19229 
   19518    19826    20251    20841    21485    22006    22414    22842 
   23348    23873    24252    24391    24401    24378    24351    24328 
   24263    24208    24287    24494    24840    25400    26063    26613 
   27025    27407    27762    27955    27924    27737    27409    26994 
   26732    26709    26734    26709    26701    26746    26852    27017 
   27184    27309    27488    27846    28367    29018    29766    30539 
   31365    32262    33084    33747    34292    34720    35033    35253 
   35287    35082    34763    34430    34041    33566    33018    32391 
   31726    31128    30674    30388    30250    30257    30483    30955 
   31514    31951    32159    32138    31963    31594    30932    30083 
   29153    28117    26986    25741    24412    23234    22391    21780 
   21307    21010    20799    20501    20156    19953    19946    20042 
   20210    20515    20958    21450    21875    22235    22669    23222 
   23853    24487    24933    25056    25008    24993    24965    24835 
   24771    24937    25131    25137    25135    25367    25767    26177 
   26499    26643    26617    26545    26434    26179    25886    25720 
   25583    25425    25338    25249    25095    24900    24610    24216 
   23828    23418    22887    22288    21736    21323    21109    21135 
   21473    22168    23168    24440    25987    27774    29732    31704 
   33477    34939    36085    36919    37498    37854    37891    37593 
   37106    36528    35891    35259    34589    33801    32964    32175 
   31460    30804    30160    29459    28683    27935    27410    27217 
   27279    27413    27499    27587    27704    27842    28116    28603 
   29185    29785    30462    31152    31660    31969    32051    31684 
   30875    29913    28919    27826    26650    25597    24821    24229 
   23720    23352    23230    23371    23703    24158    24722    25423 
   26319    27407    28568    29650    30550    31248    31753    32022 
   31977    31558    30834    30028    29359    28894    28560    28345 
   28332    28479    28675    28895    29120    29277    29307    29162 
   28795    28242    27700    27313    27044    26858    26815    26940 
   27143    27369    27653    27900    28013    28088    28189    28331 
   28586    28960    29380    29816    30225    30572    30898    31205 
   31457    31676    31885    32076    32193    32144    31936    31754 
   31718    31676    31492    31288    31175    31098    31008    30881 
   30654    30242    29604    28741    27769    26889    26203    25678 
   25209    24671    24032    23322    22635    22175    21959    21853 
   21906    22257    22881    23619    24322    24945    25546    26198 
   26928    27680    28306    28715    28969    29115    29023    28626 
   28109    27594    26952    26122    25245    24553    24182    23992 
   23760    23557    23562    23687    23750    23751    23808    24062 
   24526    25081    25704    26372    26963    27380    27608    27691 
   27681    27587    27407    27152    26794    26314    25830    25482 
   25270    25195    25242    25294    25231    25069    24910    24784 
   24719    24798    25039    25363    25709    26061    26311    26306 
   26100    25903    25794    25760    25816    25903    25986    26148 
   26501    27187    28205    29265    30186    31033    31797    32395 
   32849    33318    34003    34820    35461    35826    36022    36135 
   36131    35860    35190    34126    32809    31317    29605    27738 
   25914    24208    22650    21373    20358    19449    18634    17934 
   17346    16892    16571    16460    16627    16989    17520    18296 
   19295    20402    21555    22790    24104    25357    26441    27348 
   28084    28676    29165    29493    29602    29608    29718    30055 
   30589    31172    31683    32063    32271    32385    32607    32907 
   33062    33145    33366    33670    33917    34087    34182    34118 
   33793    33200    32543    32078    31808    31533    31166    30769 
   30397    29998    29493    28917    28258    27430    26458    25493 
   24594    23666    22700    21834    21197    20826    20634    20548 
   20625    20918    21454    22243    23175    24127    25101    26168 
   27342    28466    29336    29947    30449    30944    31380    31656 
   31761    31679    31371    30902    30385    29884    29390    28817 
   28061    27116    26177    25494    25066    24786    24652    24570 
   24466    24441    24474    24483    24567    24734    24857    24914 
   24949    25043    25296    25699    26163    26607    27051    27571 
   28165    28784    29373    29872    30339    30848    31333    31637 
   31666    31552    31513    31567    31654    31837    32131    32472 
   32768    32921    32913    32842    32836    32895    32773    32260 
   31492    30685    29890    29146    28513    27931    27306    26684 
   26164    25732    25354    25089    24997    25123    25510    26145 
   26867    27500    28020    28443    28709    28814    28813    28721 
   28520    28260    28069    28016    28059    28102    28062    27950 
   27864    27822    27704    27463    27261    27270    27461    27734 
   28027    28324    28615    28842    28931    28827    28429    27762 
   27105    26619    26187    25736    25281    24810    24255    23546 
   22732    21992    21456    21139    21073    21328    21855    22488 
   23210    24077    24970    25736    26307    26677    26970    27346 
   27742    27962    27916    27649    27282    26932    26638    26383 
   26136    25839    25524    25370    25447    25593    25659    25601 
   25394    25180    25142    25195    25161    25110    25249    25623 
   26090    26599    27220    27897    28506    29037    29520    29907 
   30136    30161    29984    29721    29505    29336    29214    29131 
   29004    28829    28625    28314    27908    27503    27137    26788 
   26446    26131    25841    25609    25571    25685    25699    25579 
   25496    25470    25466    25535    25698    25917    26172    26531 
   27058    27688    28360    29077    29756    30257    30528    30607 
   30577    30528    30519    30503    30327    29938    29409    28844 
   28321    27839    27386    26994    26657    26327    26007    25770 
   25701    25767    25849    25971    26265    26743    27360    28116 
   28885    29511    30010    30462    30916    31338    31611    31704 
   31708    31716    31704    31564    31360    31266    31264    31253 
   31255    31325    31436    31529    31538    31399    31170    31051 
   31085    31043    30773    30356    29879    29317    28640    27976 
   27518    27202    26825    26330    25810    25467    25394    25462 
   25601    25888    26308    26748    27202    27719    28233    28682 
   29123    29620    30082    30326    30284    30015    29540    28890 
   28147    27394    26676    25980    25255    24474    23701    23072 
   22592    22158    21778    21528    21496    21733    22153    22653 
   23218    23828    24414    24876    25138    25276    25416    25513 
   25463    25365    25358    25452    25660    25996    26416    26885 
   27400    27963    28512    28953    29281    29513    29632    29617 
   29454    29177    28809    28313    27753    27275    26851    26264 
   25407    24437    23599    22983    22527    22199    22073    22146 
   22279    22395    22547    22815    23228    23742    24248    24715 
   25250    25910    26607    27211    27662    28026    28443    28961 
   29486    29906    30227    30537    30852    31183    31598    32078 
   32513    32890    33241    33482    33602    33781    34134    34593 
   35062    35473    35816    36109    36308    36371    36324    36171 
   35846    35274    34483    33623    32779    31882    30855    29744 
   28648    27610    26654    25845    25186    24579    24005    23548 
   23218    22989    22894    22945    23041    23110    23120    22985 
   22763    22647    22635    22603    22508    22408    22374    22388 
   22438    22573    22824    23198    23631    24034    24405    24848 
   25467    26237    26979    27589    28188    28906    29667    30306 
   30773    31102    31264    31193    30950    30719    30632    30655 
   30639    30595    30673    30848    30942    30892    30743    30504 
   30157    29705    29155    28476    27669    26828    26017    25213 
   24443    23782    23252    22786    22361    22059    22015    22270 
   22725    23269    23831    24359    24895    25494    26083    26563 
   26916    27147    27309    27423    27495    27611    27810    27988 
   28090    28121    28090    28001    27797    27460    27055    26577 
   26025    25509    25128    24892    24748    24664    24698    24888 
   25127    25297    25394    25485    25573    25601    25544    25440 
   25336    25240    25195    25269    25490    25891    26466    27108 
   27727    28267    28696    29104    29520    29847    30033    30087 
   30026    29925    29839    29709    29447    29076    28691    28358 
   28107    27901    27715    27599    27584    27681    27945    28329 
   28711    29096    29523    29870    30029    30069    30073    30044 
   29963    29779    29500    29232    29046    28898    28713    28483 
   28239    27939    27510    26983    26464    25983    25513    25041 
   24611    24294    24081    23939    23928    24081    24302    24514 
   24749    25056    25398    25749    26150    26612    27076    27504 
