Origin Time       2025/01/13 21:19:00
Lat.              31.8
Long.             131.6
Depth. (km)       30
Mag.              6.9
Station Code      OITH02
Station Lat.      33.4581
Station Long.     131.4429
Station Height(m) 165
Record Time       2025/01/13 21:20:02
Sampling Freq(Hz) 100Hz
Duration Time(s)  179
Dir.              4
Scale Factor      7845(gal)/8223790
Max. Acc. (gal)   3.481
Last Correction   2025/01/13 21:20:02
Memo.             
[...]
   11078    10758    10584    10616    10829    11145    11485    11793 
   12028    12159    12170    12043    11777    11437    11136    10953 
   10881    10862    10848    10812    10768    10771    10862    11041 
   11264    11448    11512    11449    11296    11094    10883    10705 
   10586    10546    10605    10770    10998    11211    11342    11356 
   11254    11078    10894    10736    10600    10453    10258    10045 
    9906     9915    10080    10343    10629    10878    11057    11195 
   11375    11678    12097    12495    12702    12641    12367    11996 
   11635    11341    11109    10913    10762    10696    10744    10912 
   11169    11442    11637    11693    11616    11453    11245    11033 
   10849    10720    10678    10736    10879    11063    11232    11333 
   11327    11183    10903    10542    10183     9880     9657     9535 
    9537     9678     9969    10396    10878    11299    11557    11597 
   11434    11136    10789    10486    10299    10247    10307    10451 
   10633    10797    10894    10910    10856    10748    10633    10596 
   10675    10825    10983    11142    11319    11492    11604    11641 
   11616    11537    11402    11233    11064    10916    10783    10685 
   10670    10759    10894    11014    11097    11152    11227    11353 
   11493    11588    11630    11642    11628    11564    11438    11286 
   11160    11067    10963    10822    10666    10528    10413    10332 
   10343    10466    10660    10872    11072    11242    11365    11425 
   11399    11300    11148    10948    10712    10463    10230    10046 
    9964    10034    10265    10586    10859    10971    10897    10674 
   10366    10046     9790     9664     9709     9930    10324    10851 
   11407    11862    12116    12143    11974    11658    11265    10891 
   10633    10538    10592    10732    10910    11130    11394    11666 
   11901    12073    12155    12151    12109    12104    12183    12309 
   12402    12424    12375    12278    12133    11921    11651    11360 
   11090    10897    10836    10928    11117    11323    11520    11703 
   11862    11959    11928    11750    11468    11160    10895    10724 
   10670    10755    10999    11381    11821    12236    12584    12864 
   13072    13212    13281    13265    13146    12919    12615    12318 
   12116    12048    12091    12156    12151    12036    11832    11591 
   11375    11214    11087    10964    10871    10867    10999    11241 
   11506    11688    11705    11543    11271    10983    10756    10613 
   10525    10453    10363    10264    10201    10215    10265    10281 
   10208    10035     9807     9602     9482     9489     9620     9850 
   10156    10501    10835    11098    11259    11318    11287    11192 
   11088    11010    10968    10949    10893    10752    10550    10324 
   10108     9891     9651     9393     9174     9065     9089     9234 
    9478     9769    10019    10153    10149    10049     9940     9890 
    9909     9972    10073    10233    10458    10721    10955    11083 
   11065    10906    10669    10492    10513    10762    11161    11596 
   11996    12343    12622    12785    12777    12582    12235    11813 
   11442    11259    11329    11620    12035    12459    12803    13003 
   13007    12804    12415    11885    11294    10759    10395    10274 
   10422    10818    11379    11982    12537    12999    13351    13578 
   13648    13558    13366    13132    12865    12588    12374    12302 
   12414    12667    12960    13216    13387    13425    13308    13045 
   12676    12245    11778    11279    10785    10357    10039     9813 
    9643     9543     9562     9728    10007    10311    10536    10615 
   10509    10238     9867     9475     9131     8856     8645     8495 
    8395     8324     8287     8326     8456     8657     8885     9086 
    9193     9174     9054     8910     8814     8793     8847     8968 
    9142     9367     9652    10010    10444    10926    11398    11819 
   12159    12367    12414    12314    12110    11834    11511    11175 
   10864    10636    10534    10544    10633    10763    10871    10902 
   10844    10727    10592    10470    10380    10328    10336    10426 
   10582    10755    10885    10937    10947    10990    11142    11448 
   11897    12420    12910    13261    13393    13290    12996    12573 
   12104    11659    11298    11086    11083    11310    11728    12243 
   12704    12946    12858    12421    11701    10832     9977     9283 
    8843     8695     8853     9313    10029    10894    11776    12533 
   13047    13254    13150    12810    12370    11956    11645    11445 
   11335    11296    11334    11448    11618    11809    11994    12155 
   12258    12248    12100    11857    11591    11342    11118    10922 
   10783    10731    10773    10899    11072    11206    11223    11109 
   10894    10623    10326    10014     9698     9405     9185     9099 
    9171     9359     9594     9836    10057    10210    10224    10089 
    9880     9707     9641     9698     9882    10162    10494    10835 
   11169    11492    11772    11944    11996    11985    11992    12064 
   12228    12468    12731    12958    13128    13265    13392    13501 
   13554    13516    13373    13126    12830    12575    12428    12390 
   12407    12398    12302    12108    11857    11619    11430    11267 
   11091    10917    10818    10867    11060    11303    11465    11458 
   11284    11030    10814    10727    10804    11005    11254    11499 
   11720    11904    12010    12024    11981    11919    11835    11740 
   11684    11712    11817    11927    11948    11823    11542    11137 
   10675    10239     9888     9630     9452     9328     9251     9263 
    9391     9601     9833    10058    10281    10532    10849    11225 
   11589    11863    11998    12013    11983    11970    11952    11867 
   11689    11437    11164    10951    10897    11084    11465    11874 
   12163    12260    12145    11830    11357    10775    10115     9402 
    8710     8159     7857     7848     8102     8549     9109     9688 
   10189    10547    10754    10829    10794    10663    10471    10305 
   10257    10380    10677    11075    11466    11784    12016    12189 
   12329    12429    12480    12499    12513    12532    12561    12634 
   12765    12901    12951    12868    12650    12356    12078    11882 
   11780    11727    11650    11481    11192    10818    10443    10168 
   10052    10095    10270    10534    10798    10959    10952    10789 
   10511    10149     9728     9305     8954     8726     8627     8665 
    8862     9207     9633    10030    10289    10365    10281    10114 
    9927     9733     9556     9471     9543     9782    10152    10597 
   11070    11518    11884    12135    12275    12322    12271    12110 
   11863    11599    11389    11284    11308    11453    11681    11954 
   12237    12478    12607    12559    12309    11907    11439    10980 
   10597    10346    10257    10327    10527    10812    11122    11399 
   11593    11718    11831    11947    12029    12040    11977    11861 
   11716    11543    11333    11095    10872    10727    10697    10775 
   10949    11202    11470    11628    11587    11369    11074    10809 
   10632    10550    10577    10751    11079    11534    12071    12621 
   13059    13282    13248    13001    12653    12328    12133    12112 
   12239    12472    12761    13046    13254    13323    13265    13131 
   12969    12822    12699    12557    12336    12004    11595    11146 
   10682    10254     9937     9806     9914    10254    10777    11410 
   12031    12488    12684    12586    12251    11797    11329    10917 
   10608    10411    10323    10305    10316    10354    10440    10604 
   10839    11090    11296    11404    11348    11133    10831    10509 
   10235    10056     9958     9919     9934    10012    10169    10377 
   10570    10698    10721    10617    10408    10137     9855     9612 
    9414     9244     9130     9130     9271     9558     9941    10357 
   10781    11223    11676    12094    12390    12463    12260    11808 
   11187    10536    10034     9796     9833    10079    10397    10678 
   10902    11092    11237    11342    11433    11520    11632    11820 
   12074    12351    12611    12800    12876    12847    12729    12498 
   12143    11685    11176    10689    10332    10166    10168    10292 
   10480    10648    10763    10810    10732    10484    10119     9707 
    9270     8834     8478     8280     8305     8583     9082     9713 
   10372    10945    11319    11426    11256    10845    10299     9767 
    9377     9158     9072     9067     9132     9294     9599    10076 
   10712    11435    12121    12621    12823    12707    12348    11858 
   11353    10937    10692    10656    10822    11124    11477    11811 
   12077    12294    12503    12692    12822    12870    12826    12673 
   12417    12101    11785    11506    11267    11087    11018    11111 
   11379    11800    12313    12822    13216    13401    13360    13150 
   12843    12474    12040    11589    11213    10987    10943    11080 
   11371    11727    12025    12162    12098    11851    11492    11114 
   10797    10612    10616    10814    11119    11388    11488    11375 
   11091    10732    10404    10185    10098    10130    10246    10388 
   10485    10486    10382    10188     9938     9701     9532     9431 
    9351     9271     9211     9190     9204     9227     9255     9309 
    9402     9556     9795    10126    10521    10928    11263    11442 
   11431    11264    11014    10760    10605    10656    10956    11442 
   12012    12556    12985    13239    13293    13154    12865    12488 
   12074    11670    11353    11213    11291    11558    11913    12231 
   12409    12429    12344    12199    11994    11739    11495    11356 
   11381    11551    11805    12069    12232    12206    12009    11739 
   11499    11335    11240    11171    11098    11018    10944    10893 
   10878    10901    10952    11017    11082    11163    11299    11515 
   11804    12113    12371    12517    12514    12370    12136    11874 
   11632    11423    11233    11053    10901    10809    10797    10837 
   10883    10883    10820    10701    10548    10378    10192     9994 
    9779     9518     9221     8950     8762     8695     8745     8874 
    9039     9231     9478     9798    10191    10597    10890    10968 
   10840    10582    10284    10014     9805     9657     9576     9587 
    9718     9963    10260    10536    10736    10822    10783    10633 
   10435    10270    10188    10203    10323    10550    10848    11152 
   11407    11608    11785    11971    12171    12355    12483    12523 
   12472    12330    12096    11786    11483    11286    11242    11326 
   11464    11593    11692    11747    11750    11723    11695    11647 
   11524    11259    10844    10339     9823     9377     9077     8993 
    9144     9472     9876    10265    10567    10741    10794    10770 
   10733    10754    10867    11064    11294    11496    11639    11713 
   11723    11696    11674    11709    11863    12175    12617    13092 
   13466    13620    13506    13167    12715    12249    11824    11442 
   11090    10783    10573    10500    10577    10774    11045    11345 
   11639    11907    12128    12280    12347    12314    12187    11993 
   11776    11580    11457    11461    11588    11765    11919    12047 
   12194    12383    12576    12687    12630    12375    11983    11570 
   11252    11111    11157    11318    11487    11585    11568    11396 
   11047    10544     9975     9454     9076     8897     8927     9140 
    9491     9915    10335    10670    10858    10906    10889    10872 
   10881    10922    11001    11124    11280    11425    11516    11554 
   11530    11465    11407    11414    11514    11666    11773    11761 
   11603    11314    10949    10570    10214     9925     9783     9848 
   10118    10517    10922    11209    11295    11159    10852    10461 
   10085     9817     9707     9772     9983    10288    10629    10957 
   11192    11252    11091    10729    10237     9703     9211     8829 
    8619     8604     8772     9093     9508     9942    10346    10692 
   10941    11055    11024    10895    10767    10706    10709    10735 
   10763    10783    10782    10766    10779    10883    11099    11431 
   11871    12384    12912    13385    13744    13969    14045    13954 
   13691    13293    12834    12394    12042    11824    11762    11817 
   11920    11993    11974    11834    11564    11182    10733    10291 
    9914     9648     9516     9501     9576     9701     9838     9961 
   10058    10146    10243    10327    10363    10332    10235    10119 
   10069    10150    10353    10613    10860    11051    11180    11280 
   11389    11524    11674    11805    11873    11847    11736    11588 
   11470    11418    11400    11380    11346    11299    11227    11128 
   11030    10966    10939    10959    11067    11302    11673    12125 
   12582    12989    13325    13574    13741    13853    13923    13919 
   13772    13441    12985    12510    12102    11801    11603    11462 
   11327    11171    10987    10767    10498    10196     9896     9647 
    9514     9564     9813    10218    10694    11148    11516    11736 
   11735    11469    10971    10381     9887     9629     9656     9904 
   10249    10562    10754    10783    10658    10396    10006     9490 
    8887     8293     7827     7553     7450     7462     7554     7742 
    8040     8419     8812     9165     9452     9663     9790     9865 
    9960    10130    10376    10650    10899    11099    11246    11365 
   11476    11587    11723    11908    12160    12498    12906    13350 
   13790    14175    14438    14535    14488    14355    14176    13953 
   13684    13370    13016    12637    12253    11915    11666    11506 
   11410    11352    11313    11248    11109    10898    10658    10417 
   10193    10023     9991    10166    10558    11118    11743    12307 
   12723    12933    12907    12661    12235    11685    11111    10600 
   10222    10041    10093    10353    10735    11128    11415    11511 
   11387    11080    10674    10270     9957     9769     9721     9814 
   10023    10309    10625    10909    11097    11121    10928    10543 
   10066     9617     9301     9182     9261     9497     9855    10304 
   10797    11276    11692    12001    12198    12303    12332    12297 
   12218    12104    11950    11780    11618    11483    11388    11330 
   11314    11361    11487    11695    11977    12310    12640    12893 
   12982    12845    12475    11913    11225    10534    10011     9779 
    9860    10220    10797    11504    12235    12860    13273    13437 
   13344    12991    12418    11724    11033    10444    10019     9802 
    9813    10022    10365    10740    11043    11207    11217    11098 
   10897    10647    10350    10027     9730     9505     9375     9383 
    9571     9903    10282    10620    10863    10982    10974    10855 
   10671    10496    10400    10389    10424    10477    10543    10625 
   10729    10843    10953    11071    11205    11344    11446    11489 
   11483    11445    11392    11349    11361    11492    11803    12253 
   12711    13057    13236    13250    13134    12924    12629    12241 
   11784    11314    10929    10740    10798    11064    11434    11790 
   12036    12127    12087    11993    11916    11893    11893    11858 
   11765    11635    11496    11364    11252    11172    11119    11068 
   10990    10887    10790    10697    10555    10309     9973     9616 
    9297     9046     8872     8785     8830     9054     9450     9963 
   10516    11037    11458    11727    11839    11830    11738    11607 
   11450    11253    11020    10782    10585    10471    10446    10473 
   10532    10620    10701    10725    10670    10554    10419    10318 
   10288    10358    10524    10732    10901    10947    10849    10663 
   10457    10274    10137    10037     9981     9998    10091    10227 
   10362    10471    10543    10574    10570    10562    10562    10569 
   10586    10601    10589    10552    10519    10509    10535    10598 
   10677    10737    10751    10725    10716    10768    10879    11020 
   11141    11192    11133    10964    10743    10542    10411    10373 
   10432    10555    10698    10822    10908    10971    11055    11167 
   11294    11403    11437    11346    11149    10912    10723    10635 
   10635    10705    10854    11079    11358    11645    11873    11986 
   11965    11811    11583    11365    11203    11115    11105    11161 
   11280    11453    11647    11830    11931    11882    11676    11372 
   11074    10879    10851    10986    11215    11450    11643    11790 
   11896    11952    11944    11835    11603    11254    10836    10419 
   10079     9861     9775     9822    10010    10312    10663    11005 
   11272    11400    11368    11211    11024    10908    10895    10956 
   11038    11113    11183    11260    11340    11388    11372    11300 
   11226    11213    11288    11430    11585    11700    11735    11697 
   11638    11623    11688    11803    11890    11893    11821    11758 
   11776    11892    12085    12305    12514    12676    12727    12603 
   12268    11747    11140    10592    10216    10072    10165    10444 
   10824    11229    11585    11817    11880    11757    11479    11129 
   10798    10546    10415    10426    10562    10787    11067    11356 
   11610    11789    11873    11861    11773    11632    11461    11313 
   11250    11321    11535    11848    12170    12406    12475    12337 
   12029    11641    11252    10905    10633    10477    10449    10513 
   10639    10824    11061    11308    11493    11580    11572    11504 
   11426    11384    11380    11385    11371    11318    11237    11171 
   11152    11191    11283    11403    11496    11508    11429    11277 
   11079    10845    10593    10354    10164    10034     9961     9917 
    9879     9859     9867     9892     9921     9930     9909     9869 
    9834     9845     9949    10145    10378    10592    10748    10820 
   10810    10725    10554    10311    10050     9850     9798     9944 
   10269    10714    11203    11665    12033    12251    12275    12109 
   11782    11345    10879    10473    10193    10071    10060    10127 
   10305    10579    10876    11157    11362    11402    11294    11092 
   10829    10611    10482    10449    10548    10705    10847    11037 
   11259    11441    11574    11641    11655    11658    11638    11616 
   11646    11711    11749    11755    11769    11832    11990    12198 
   12411    12661    12910    13082    13182    13225    13211    13119 
   12912    12636    12379    12175    12019    11912    11846    11794 
   11724    11643    11619    11664    11705    11693    11637    11573 
   11542    11508    11452    11418    11425    11442    11453    11477 
   11523    11543    11499    11373    11163    10871    10512    10110 
    9728     9443     9279     9216     9198     9224     9354     9532 
    9636     9629     9541     9437     9359     9290     9216     9162 
    9146     9128     9123     9225     9482     9850    10246    10602 
   10901    11152    11346    11468    11530    11550    11527    11470 
