Origin Time       2025/01/13 21:19:00
Lat.              31.8
Long.             131.6
Depth. (km)       30
Mag.              6.9
Station Code      OITH08
Station Lat.      32.8392
Station Long.     131.5357
Station Height(m) 260
Record Time       2025/01/13 21:19:51
Sampling Freq(Hz) 100Hz
Duration Time(s)  162
Dir.              4
Scale Factor      7845(gal)/8223790
Max. Acc. (gal)   7.372
Last Correction   2025/01/13 21:19:51
Memo.             
[...]
   39271    40676    42907    44458    44116    41893    39410    38499 
   39633    41967    44136    45029    44362    42770    41370    41197 
   42560    44641    46075    45902    44127    41862    40635    41125 
   42653    43804    43506    41985    40618    40567    41775    43206 
   43779    43186    42080    41472    41728    42361    42757    42709 
   42381    42099    42125    42406    42642    42655    42674    42970 
   43251    43021    42309    41561    41247    41666    42692    43633 
   43714    42869    41845    41601    42606    44221    44928    43991 
   42365    41358    41436    42381    43444    43707    42997    41872 
   40946    40878    42097    43833    44604    43877    42261    40657 
   39893    40298    41339    42142    42187    41420    40435    40502 
   42284    44502    45013    43218    40825    40235    42140    44840 
   46083    45102    42668    40212    39121    39808    41332    42585 
   43264    43225    42210    40883    40593    41515    42735    43787 
   44401    43968    42511    41085    40821    41968    43610    44239 
   43325    42172    42298    43471    44352    44097    42801    41338 
   40860    41855    43762    45480    45858    44320    41754    40018 
   40035    41112    42217    42669    41971    40497    39502    39681 
   40613    41366    41369    41052    41305    42396    43822    44799 
   44545    42866    40821    40036    41106    43251    45106    45324 
   43642    41631    41103    42020    43071    43465    43222    42560 
   41801    41436    41674    42138    42358    42307    42323    42587 
   42986    43622    44667    45547    45152    43239    41037    40232 
   41427    43464    44562    44034    42496    40930    40093    40396 
   41615    42835    43436    43738    44051    44008    43182    41748 
   40575    40510    41584    43136    44174    43877    42468    40988 
   40335    40882    42233    43357    43645    43416    43120    42618 
   41833    41318    41386    41723    42222    42994    43583    43303 
   42186    40891    40132    40489    41997    43552    43717    42398 
   40884    40315    40774    41679    42522    43200    43781    44065 
   43644    42593    41621    41272    41643    42730    44000    44342 
   43414    41924    40581    39869    40186    41497    43025    43476 
   42240    40381    39681    40755    42530    43536    43189    41985 
   41073    41388    42601    43690    44383    44788    44550    43582 
   42538    42010    41952    41959    41836    41864    42315    42730 
   42326    41073    39869    39793    41172    43029    43875    43325 
   42283    41616    41682    42385    43043    42975    42252    41543 
   41432    41913    42579    43075    43244    43190    43285    43614 
   43671    43075    42213    41844    42477    43907    45019    44707 
   43181    41593    40736    40765    41461    42279    42716    42797 
   42822    42703    42172    41339    40517    40093    40475    41484 
   42337    42552    42277    41812    41395    41260    41459    41947 
   42714    43502    43696    42753    40976    39802    40409    42421 
   44550    45558    44641    42174    39866    39487    41416    44371 
   46323    45985    43884    41909    41719    43480    45659    46419 
   45382    43644    42508    42396    42811    43089    42800    41833 
   40657    40120    40648    41760    42519    42407    41733    41175 
   41091    41362    41696    41877    41871    41816    41881    42183 
   42689    43094    43048    42525    41791    41245    41291    41878 
   42373    42325    41902    41509    41318    41188    40998    40977 
   41358    42003    42593    42812    42531    42017    41704    41881 
   42498    43031    42913    42190    41461    41160    41142    41214 
   41597    42295    42736    42664    42533    42730    43085    43148 
   42651    41813    41166    41162    41952    43174    44055    43974 
   42946    41821    41519    41990    42641    43070    42986    42394 
   41713    41407    41742    42538    43066    42738    41674    40543 
   40167    40846    41886    42384    42180    41750    41605    41854 
   42400    43140    43571    43104    41878    40632    40054    40485 
   41832    43399    44055    43202    41534    40306    40197    41112 
   42485    43640    44267    44410    44132    43537    42894    42597 
   42962    43889    44811    45002    44118    42627    41493    41256 
   41689    42310    42749    42808    42736    42981    43448    43598 
   43152    42317    41615    41530    42022    42655    43036    43043 
   42959    43047    43005    42558    42088    42018    42186    42017 
   41115    40041    39965    41054    42356    43073    42946    42098 
   41095    40787    41686    43379    44967    45758    45407    44215 
   43160    43011    43553    43915    43522    42626    41935    41886 
   42364    42938    43213    43113    42736    42167    41766    42017 
   42846    43703    44188    44112    43389    42353    41725    41727 
   41837    41724    41585    41575    41708    42024    42410    42557 
   42336    41879    41359    40937    40817    41210    41991    42574 
   42600    42342    42051    41648    41328    41489    42080    42692 
   42952    42591    41646    40756    40713    41507    42121    41624 
   40414    39793    40564    42510    44529    45087    43453    40566 
   38323    38210    40336    43244    44701    43465    40645    38754 
   39317    41713    43981    44455    43128    41554    41137    41926 
   43025    43495    43178    42822    43112    44118    45415    46068 
   45312    43625    42461    42958    44980    47250    48343    47594 
   45399    42984    41697    42025    43371    44694    45125    44506 
   43510    42809    42600    42861    43391    43783    43829    43850 
   44236    44875    45342    45225    44289    42967    42257    42572 
   43298    43638    43224    42221    41262    40941    41291    41791 
   41844    41304    40589    40321    40751    41563    42203    42078 
   40919    39295    38240    38430    39810    41405    41817    40614 
   38842    37949    38599    40288    41844    42421    42161    41882 
   42067    42438    42607    42587    42646    43060    43757    44100 
   43548    42465    41783    41974    42788    43644    43980    43740 
   43660    44436    45755    46645    46441    45316    44161    43788 
   44197    44764    44838    44131    42889    41837    41731    42554 
   43367    43379    42766    42184    41962    41983    42094    42211 
   42099    41594    40991    40849    41412    42255    42581    41997 
   40960    40321    40324    40477    40417    40197    39892    39549 
   39171    38713    38365    38398    38836    39668    40853    41917 
   42144    41257    39725    38588    38772    40335    42493    44086 
   44238    43024    41442    40680    41315    43016    44872    45762 
   44975    43070    41532    41320    42192    43393    44361    44679 
   44139    43135    42493    42803    44037    45613    46824    47368 
   47329    46815    45920    44895    44162    43927    43848    43416 
   42641    42165    42496    43313    43854    43667    42682    41176 
   39982    39923    40760    41489    41463    40662    39519    38847 
   39131    39854    40128    39737    39116    38840    39398    40819 
   42539    43800    44015    43235    42330    42195    42974    44107 
   44788    44523    43549    42772    42981    44092    45284    45711 
   44972    43499    42445    42515    43193    43499    42919    41628 
   40375    39911    40369    41265    41926    41910    41292    40603 
   40389    40867    41975    43422    44676    45177    44803    44059 
   43540    43367    43376    43484    43603    43707    44101    45029 
   46020    46195    45164    43443    42098    41866    42572    43411 
   43552    42650    41210    40189    40190    41219    42712    43645 
   43456    42762    42383    42302    42211    42159    42190    42149 
   42032    41993    41889    41315    40344    39613    39625    40321 
   41019    40763    39290    37504    36697    37392    38898    39927 
   39749    38824    38173    38367    39370    40788    42095    43054 
   43852    44624    45222    45513    45450    45007    44417    43995 
   43681    43293    42950    42861    42943    43008    43125    43456 
   43960    44439    44582    44127    43357    43011    43451    44392 
   45274    45631    45324    44564    43649    42826    42425    42820 
   43956    45149    45688    45353    44433    43463    42940    43137 
   43806    44068    43233    41690    40487    40274    40915    41661 
   41674    40824    39811    39507    40301    41894    43382    43821 
   43033    41728    40887    41067    41987    42684    42255    40648 
   38713    37535    37774    39249    40926    41542    40599    38834 
   37540    37542    38788    40428    41287    40759    39235    37716 
   37311    38537    40764    42601    42851    41497    39896    39572 
   40767    42387    43205    42768    41569    40660    40743    41723 
   43052    44000    44042    43351    42619    42275    42233    42445 
   43123    44324    45736    46801    46990    46275    45337    45069 
   45636    46302    46373    45756    44691    43737    43663    44690 
   46180    47187    46971    45465    43615    42757    43464    45238 
   47021    47804    47256    45943    44691    43977    43835    44092 
   44590    45135    45492    45438    44838    43823    42724    41972 
   42028    42840    43519    43119    41624    39935    39239    40184 
   42148    43649    43600    41962    39617    37967    37987    39298 
   40630    41053    40414    39185    38165    38026    38724    39467 
   39549    38990    38245    37729    37629    37848    38183    38446 
   38445    38244    38344    39186    40535    41520    41503    40828 
   40383    40617    41234    41667    41709    41601    41598    41764 
   42086    42439    42623    42530    42203    41804    41472    41273 
   41358    41860    42558    43063    43276    43380    43530    43664 
   43625    43379    43028    42704    42545    42587    42618    42292 
   41454    40406    39744    39806    40437    41161    41450    41126 
   40487    39864    39426    39437    40162    41443    42676    43317 
   43299    42970    42799    43105    43738    44177    44105    43672 
   43248    43174    43483    43888    44184    44369    44473    44508 
   44512    44535    44608    44682    44567    44189    43888    44010 
   44523    45303    46317    47358    48115    48448    48330    47756 
   47012    46666    46946    47402    47398    46664    45445    44305 
   43713    43795    44437    45261    45603    45088    44150    43645 
   44031    45053    46147    46800    46623    45567    44131    43104 
   42870    43032    42946    42319    41289    40284    39675    39490 
   39442    39167    38583    37995    37798    38152    38824    39353 
   39533    39630    40008    40707    41377    41539    41013    40131 
   39434    39141    39097    39021    38708    38273    38130    38434 
   38904    39305    39762    40575    41823    43135    43981    44165 
   43848    43386    43290    43777    44250    43856    42523    41015 
   40166    40227    40757    41118    41026    40694    40590    41021 
   41836    42535    42813    42892    43159    43729    44398    44807 
   44713    44193    43637    43475    43827    44408    44672    44239 
   43418    43092    43794    45073    45901    45581    44219    42600 
   41681    41898    42831    43578    43382    42053    40045    38310 
   37908    39222    41423    43016    43020    41586    39681    38423 
   38500    39715    41233    42137    41845    40586    39430    39424 
   40732    42597    44046    44577    44161    43055    41949    41636 
   42295    43452    44328    44288    43403    42322    41621    41540 
   41989    42557    42716    42257    41492    40992    41200    42141 
   43279    43780    43225    42049    41181    41299    42336    43699 
   44687    44643    43364    41512    40171    40038    40996    42302 
   43121    43050    42265    41253    40537    40451    40846    41220 
   41126    40602    40184    40305    41095    42491    43910    44354 
   43357    41566    40296    40479    41829    43156    43468    42684 
   41511    40876    41373    42854    44527    45590    45642    44716 
   43248    42006    41806    42867    44548    45832    45943    44857 
   43437    42932    43937    45659    46514    45523    43224    41315 
   41153    42504    43912    44089    42759    40629    38893    38402 
   39087    40126    40524    39918    38834    38037    37982    38736 
   39926    40873    41092    40644    40231    40765    42408    44230 
   45233    45106    44131    43128    42897    43387    43965    44205 
   44000    43432    42753    42310    42222    42147    41797    41461 
   41453    41681    41982    42229    42190    41770    41197    40728 
   40489    40556    40863    41212    41496    41716    41821    41740 
   41669    41964    42655    43375    43758    43615    42984    42195 
   41679    41663    42178    43179    44455    45578    46232    46425 
   46314    46110    46187    46839    47935    49018    49654    49590 
   48825    47807    47360    47981    49219    49982    49442    47734 
   45870    44929    45204    46045    46433    45731    44015    41986 
   40630    40478    41021    41193    40414    38955    37611    37214 
   37967    39104    39499    38649    36994    35436    34649    34747 
   35355    35969    36362    36616    36857    37129    37439    37727 
   37936    38097    38291    38560    38898    39316    39791    40200 
   40387    40258    39808    39279    39154    39708    40687    41505 
   41698    41401    41330    42022    43367    44915    46246    47044 
   47231    47117    47232    47837    48686    49306    49411    49019 
   48305    47362    46125    44705    43644    43513    44327    45517 
   46287    46053    44913    43584    42799    42803    43329    43734 
   43437    42557    41731    41342    41403    41625    41477    40774 
   39954    39514    39536    39731    39748    39379    38696    38160 
   38323    39266    40594    41746    42149    41567    40398    39529 
   39831    41453    43596    45069    45046    43610    41725    40613 
   40930    42395    44099    44868    43875    41592    39756    39864 
   41782    43947    44722    43565    41307    39476    39197    40504 
   42411    43517    42880    40801    38797    38404    39907    42273 
   44109    44598    43888    42846    42341    42754    43864    44977 
   45412    44971    44000    43104    42901    43704    45071    45949 
   45589    44085    42179    40857    40817    41918    43336    44212 
   44080    43035    41769    41142    41544    42707    43958    44598 
   44332    43370    42256    41656    41820    42318    42545    42226 
   41565    41110    41234    41808    42346    42345    41666    40645 
   39696    39060    38992    39646    40601    41125    40950    40429 
   40223    40801    41901    42842    43293    43318    43144    43244 
   43991    45127    46062    46399    46055    45246    44450    44205 
   44613    45141    45381    45500    45646    45630    45293    44709 
   44085    43578    43117    42572    42043    41781    41735    41521 
   41048    40587    40193    39750    39332    38982    38614    38250 
   38024    37970    38022    38109    38232    38431    38805    39534 
   40643    41825    42684    42942    42589    41983    41685    42195 
   43575    45200    46180    45940    44533    42850    42234    43281 
   45173    46457    46286    44937    43341    42329    42133    42385 
   42643    42692    42434    42040    41897    42080    42176    41731 
   40702    39545    38839    38774    39039    39235    39225    39128 
   39121    39418    40177    41187    41897    41936    41369    40506 
   39775    39610    40138    41026    41874    42549    43028    43325 
   43656    44153    44558    44583    44288    44096    44566    45717 
   46786    46909    45859    44354    43619    44212    45477    46305 
   46039    44716    42996    41872    41959    42986    44147    44643 
   44151    43120    42283    42049    42414    42978    43283    43205 
   42635    41343    39623    38394    38302    39148    40058    40069 
   38955    37513    36895    37704    39559    41337    41958    41237 
   40046    39580    40274    41472    42253    42242    41751    41567 
   42245    43461    44340    44259    43295    42121    41467    41523 
   41871    41972    41624    41095    40846    41079    41563    41932 
   42029    41962    42009    42429    43101    43537    43417    42958 
   42639    42730    43098    43413    43468    43383    43449    43691 
   43679    43039    42012    41304    41450    42400    43536    44057 
   43536    42275    41129    40926    41779    42865    43162    42391 
   41188    40486    40652    41133    41053    40169    39120    38790 
   39494    40721    41605    41678    41261    41148    41885    43278 
   44473    44560    43271    41355    40182    40506    41809    42943 
   43110    42423    41681    41535    42014    42692    43089    42962 
   42384    41739    41391    41381    41643    42183    42822    43256 
   43414    43352    42947    42225    41679    41823    42751    44109 
   45188    45418    44892    44115    43507    43339    43549    43656 
   43259    42585    42219    42344    42708    43222    43880    44373 
   44320    43652    42720    42209    42651    43927    45311    45922 
   45345    44142    43518    44240    45958    47542    47972    46981 
   45130    43455    42747    42930    43293    43114    41913    39845 
   37791    36722    37174    38912    40911    42034    41809    40603 
   39339    38986    39915    41638    43200    43729    42979    41635 
   40878    41469    43048    44388    44431    43096    41272    40181 
   40468    41715    42924    43291    42596    41370    40574    40829 
   41948    43204    43984    44091    43673    43200    43205    43808 
   44539    44702    43985    42739    41814    41939    42966    43860 
   43623    42145    40201    38897    38955    40225    41840    42850 
   42809    42020    41264    41266    42198    43510    44351    44289 
   43540    42597    41902    41751    42195    43027    43785    43920 
   43291    42492    42352    43127    44385    45580    46319    46345 
   45735    45096    45096    45648    46016    45738    45058    44510 
   44302    44213    44047    43933    44064    44401    44702    44757 
   44473    43803    42823    41833    41179    40932    40859    40670 
   40251    39754    39448    39494    39837    40282    40662    40883 
   40842    40425    39669    38877    38499    38740    39252    39426 
   39024    38392    38160    38681    39706    40635    41035    40936 
   40779    41026    41693    42330    42522    42284    41905    41658 
   41831    42587    43553    44014    43675    42855    41991    41473 
   41557    42044    42430    42554    42680    42940    43222    43514 
   43835    44085    44217    44227    44041    43752    43664    43885 
   44170    44193    43838    43213    42472    41829    41580    41767 
   42053    42067    41732    41262    40929    40873    41096    41370 
