Origin Time       2025/01/13 21:19:00
Lat.              31.8
Long.             131.6
Depth. (km)       30
Mag.              6.9
Station Code      OITH08
Station Lat.      32.8392
Station Long.     131.5357
Station Height(m) 159
Record Time       2025/01/13 21:19:51
Sampling Freq(Hz) 100Hz
Duration Time(s)  162
Dir.              3
Scale Factor      2942(gal)/8224139
Max. Acc. (gal)   4.102
Last Correction   2025/01/13 21:19:51
Memo.             
[...]
   25043    25105    25451    26038    26622    27118    27595    28169 
   28837    29451    29998    30532    30932    30994    30669    30156 
   29690    29323    28875    28070    27016    26144    25515    24926 
   24451    24236    24275    24435    24524    24645    25061    25677 
   26148    26349    26584    27186    28061    28965    29795    30523 
   31232    31882    32194    32124    31923    31718    31542    31399 
   31202    31045    31099    31232    31251    31217    31271    31394 
   31448    31395    31267    31077    30739    30107    29289    28517 
   27795    27116    26472    25718    24889    24177    23602    22989 
   22266    21740    21645    21720    21775    21987    22427    22979 
   23495    23953    24575    25447    26265    26721    26859    27009 
   27390    27781    27938    28117    28593    29178    29731    30333 
   30862    31086    31125    31280    31463    31356    31014    30673 
   30393    30244    30231    30086    29633    29083    28705    28456 
   28104    27684    27442    27338    27136    26790    26406    26102 
   26001    26060    26100    26111    26339    26917    27457    27473 
   27176    27103    27224    27189    26956    26705    26601    26568 
   26308    25872    25640    25725    25982    26334    26765    27280 
   27861    28391    28736    28823    28651    28404    28312    28362 
   28364    28104    27656    27494    27768    28054    28074    28036 
   28243    28705    29200    29579    29824    29841    29621    29419 
   29424    29559    29575    29249    28745    28383    28193    28181 
   28305    28236    27905    27649    27577    27519    27356    27099 
   26896    26879    26944    26870    26581    26183    25969    26173 
   26532    26553    26237    26117    26457    26919    27178    27274 
   27368    27629    28109    28679    29147    29363    29347    29281 
   29239    29191    29100    28900    28578    28269    28140    28174 
   28151    28001    27961    28173    28487    28717    28826    28908 
   28977    28930    28779    28536    28124    27642    27213    26782 
   26412    26173    25991    25952    26077    26117    26030    25960 
   25843    25621    25492    25651    25915    25976    25863    25751 
   25701    25663    25434    24937    24424    24009    23569    23207 
   23052    22962    22971    23224    23553    23870    24354    25049 
   25775    26314    26628    26919    27202    27207    26970    26817 
   26836    26974    27248    27550    27643    27449    27164    27018 
   27024    27180    27518    27888    28181    28402    28541    28710 
   28973    29197    29328    29350    29313    29430    29610    29533 
   29255    29124    29261    29359    29123    28721    28341    27846 
   27113    26219    25386    24848    24653    24696    24888    25316 
   26013    26727    27364    28125    28945    29457    29544    29492 
   29546    29585    29470    29335    29165    28827    28593    28719 
   29007    29261    29452    29546    29666    29955    30350    30767 
   31085    31210    31282    31402    31502    31581    31684    31718 
   31496    30986    30433    30042    29716    29336    28985    28703 
   28471    28377    28505    28773    29047    29261    29404    29546 
   29830    30235    30470    30372    30096    29754    29309    28834 
   28335    27660    26866    26160    25579    25153    24919    24788 
   24717    24730    24844    25164    25720    26284    26694    27132 
   27746    28339    28665    28733    28663    28456    28054    27553 
   27070    26470    25654    24845    24235    23703    23093    22505 
   22185    22161    22249    22383    22613    22939    23357    23916 
   24536    24992    25170    25128    24993    24848    24636    24283 
   23913    23805    24000    24221    24429    24864    25490    26136 
   26883    27832    28810    29663    30454    31091    31320    31226 
   30981    30516    29917    29393    29002    28829    28930    29231 
   29720    30349    31040    31864    32772    33547    34126    34604 
   35035    35307    35235    34821    34279    33791    33332    32707 
   31915    31197    30669    30356    30230    30133    30036    30065 
   30142    30096    30001    29987    30006    29949    29774    29508 
   29211    28921    28703    28584    28499    28459    28463    28421 
   28312    28155    27907    27606    27382    27205    26869    26258 
   25478    24684    23961    23372    22979    22712    22489    22393 
   22430    22384    22168    21938    21826    21829    21901    22059 
   22395    22860    23328    23889    24622    25432    26379    27587 
   28966    30408    31909    33349    34560    35557    36370    37003 
   37582    38122    38381    38215    37754    37154    36452    35654 
   34808    33986    33328    32941    32765    32706    32788    33076 
   33455    33793    34173    34573    34708    34452    33926    33184 
   32081    30561    28842    27195    25710    24339    23063    21892 
   20827    19980    19394    18858    18338    18061    18058    18160 
   18270    18400    18544    18681    18937    19453    20061    20579 
   21163    21867    22464    22932    23402    23877    24414    25092 
   25793    26334    26755    27234    27699    27876    27764    27553 
   27313    27129    27121    27217    27307    27469    27781    28128 
   28325    28351    28350    28368    28300    28206    28266    28472 
   28738    29058    29430    29835    30310    30909    31592    32341 
   33203    34052    34693    35179    35665    36171    36659    37104 
   37424    37480    37253    36830    36262    35576    34839    34122 
   33436    32761    32127    31612    31239    30900    30473    29949 
   29369    28718    27973    27256    26789    26592    26416    26092 
   25717    25452    25373    25446    25550    25633    25751    25901 
   26083    26295    26414    26388    26341    26312    26187    25888 
   25405    24648    23530    22256    21192    20418    19801    19353 
   19217    19471    20082    20976    22094    23376    24711    26005 
   27237    28371    29367    30202    30770    30997    30937    30597 
   29980    29249    28491    27618    26608    25582    24679    23947 
   23282    22590    21967    21541    21312    21149    20935    20733 
   20664    20688    20721    20875    21224    21601    22013    22720 
   23728    24794    25875    27116    28529    29945    31248    32429 
   33404    34091    34603    35040    35375    35579    35707    35830 
   35838    35607    35282    35044    34825    34453    33880    33228 
   32645    32113    31530    30977    30585    30237    29749    29208 
   28864    28796    28911    29084    29212    29320    29554    29983 
   30518    31004    31386    31741    32092    32408    32719    33006 
   33153    33160    33087    32834    32301    31617    30888    30019 
   29008    27985    27022    26179    25552    25224    25120    25031 
   24898    24887    25123    25512    25832    25968    25975    25888 
   25708    25483    25286    25060    24663    24160    23753    23454 
   23167    22901    22707    22528    22277    22033    21994    22144 
   22266    22361    22607    22974    23309    23614    23978    24406 
   24790    25019    25139    25257    25381    25469    25512    25439 
   25158    24776    24447    24066    23552    23144    23086    23280 
   23507    23730    24074    24636    25351    26114    26983    27955 
   28829    29635    30537    31398    32080    32655    33156    33628 
   34169    34767    35345    35853    36369    37003    37617    38014 
   38256    38481    38732    38982    39083    38994    38935    39013 
   39040    38842    38457    38043    37659    37224    36724    36298 
   36022    35762    35293    34546    33740    33056    32491    32057 
   31702    31315    30920    30526    30090    29677    29307    28914 
   28553    28360    28306    28220    27955    27419    26686    25971 
   25304    24606    23924    23295    22700    22180    21803    21591 
   21529    21602    21806    22103    22449    22833    23209    23564 
   23977    24424    24817    25216    25658    26038    26395    26886 
   27523    28167    28707    29133    29436    29547    29435    29130 
   28659    28030    27193    26156    25105    24136    23112    21963 
   20853    19907    19072    18354    17824    17458    17182    16968 
   16842    16827    16897    17011    17220    17632    18184    18692 
   19113    19538    20028    20557    21076    21605    22195    22831 
   23512    24371    25486    26686    27769    28737    29686    30667 
   31657    32610    33571    34566    35472    36212    36783    37076 
   37037    36799    36417    35784    34884    33878    32922    32054 
   31283    30699    30318    30021    29768    29659    29762    30059 
   30435    30739    30917    30978    30882    30604    30056    29103 
   27820    26403    24929    23464    22098    20923    20075    19581 
   19404    19545    19905    20309    20664    20925    21096    21290 
   21568    21848    22053    22206    22370    22601    22927    23359 
   23878    24498    25300    26292    27371    28453    29482    30422 
   31293    32088    32714    33169    33609    34069    34403    34603 
   34843    35202    35675    36182    36597    36972    37409    37790 
   38014    38064    37822    37253    36450    35422    34179    32873 
   31599    30273    28903    27707    26788    25995    25293    24767 
   24457    24447    24742    25213    25726    26158    26543    27066 
   27818    28736    29652    30423    31104    31793    32427    32919 
   33281    33565    33894    34356    34815    35125    35302    35332 
   35143    34735    34138    33459    32876    32390    31850    31232 
   30557    29803    29111    28664    28440    28360    28422    28540 
   28607    28574    28397    28117    27828    27534    27217    26878 
   26476    26011    25539    25051    24502    23900    23253    22516 
   21744    21114    20721    20447    20128    19765    19390    18959 
   18530    18219    18041    18017    18311    18993    19811    20549 
   21304    22135    22920    23658    24435    25213    25922    26559 
   27180    27814    28358    28717    29006    29359    29670    29731 
   29548    29303    29080    28863    28634    28266    27610    26817 
   26121    25413    24544    23691    23075    22686    22434    22270 
   22173    22134    22196    22445    22842    23286    23812    24412 
   24968    25539    26246    27021    27795    28601    29361    29951 
   30433    30987    31675    32421    33228    34130    34983    35657 
   36254    36817    37224    37481    37712    37910    38030    38130 
   38233    38242    38084    37752    37338    36998    36699    36290 
   35784    35221    34535    33750    32953    32225    31618    31078 
   30580    30169    29743    29185    28602    28109    27646    27091 
   26396    25606    24807    24038    23264    22519    21914    21496 
   21230    21087    21066    21139    21253    21475    22003    22881 
   23868    24752    25593    26474    27333    28131    28958    29894 
   30917    31949    32923    33774    34450    34967    35275    35283 
   35041    34618    33988    33176    32255    31279    30277    29268 
   28260    27328    26597    26095    25685    25315    25089    24980 
   24792    24544    24390    24258    23961    23484    22941    22455 
   22129    21972    21892    21876    21976    22110    22129    22092 
   22156    22293    22391    22411    22446    22690    23202    23877 
   24706    25671    26576    27209    27557    27799    27981    27985 
   27882    27847    27838    27783    27741    27749    27803    27857 
   27810    27652    27402    26979    26326    25490    24560    23647 
   22832    22225    21984    22131    22554    23172    23953    24941 
   26190    27616    29068    30416    31522    32302    32742    32833 
   32599    32065    31282    30366    29393    28474    27751    27207 
   26743    26381    26167    26030    25948    25999    26176    26384 
   26642    27018    27522    28139    28767    29299    29801    30339 
   30861    31307    31712    32138    32633    33216    33863    34541 
   35257    36003    36697    37223    37465    37390    37150    37018 
   37127    37335    37453    37524    37701    37989    38306    38588 
   38782    38902    38932    38766    38410    37960    37374    36529 
   35390    34041    32657    31413    30358    29424    28591    27927 
   27421    26947    26455    26029    25751    25566    25362    25132 
   24929    24695    24329    23816    23259    22716    22154    21628 
   21304    21239    21334    21508    21752    22057    22366    22596 
   22744    22821    22731    22412    21876    21136    20317    19538 
   18732    17918    17340    17134    17255    17717    18497    19485 
   20633    21853    22998    24073    25177    26280    27256    28053 
   28671    29083    29335    29538    29627    29505    29313    29158 
   29000    28846    28717    28665    28827    29149    29404    29532 
   29579    29505    29297    29019    28734    28520    28451    28513 
   28533    28344    28004    27607    27151    26634    26036    25384 
   24746    24093    23399    22713    22022    21354    20799    20385 
   20129    20094    20286    20682    21277    22045    22999    24227 
   25677    27180    28719    30304    31824    33272    34689    35958 
   36941    37677    38249    38700    39055    39297    39366    39275 
   39089    38824    38464    37989    37388    36647    35749    34749 
   33702    32557    31266    29883    28441    26925    25417    24058 
   22891    21928    21165    20578    20244    20282    20588    20972 
   21408    21898    22341    22650    22827    22990    23249    23557 
   23865    24204    24544    24849    25083    25203    25280    25338 
   25259    25051    24881    24830    24846    24871    24860    24823 
   24868    25006    25088    25147    25381    25785    26299    26986 
   27801    28641    29459    30204    30869    31457    31873    31970 
   31679    31137    30572    30002    29300    28493    27758    27190 
   26743    26406    26215    26196    26400    26805    27286    27819 
   28416    28933    29265    29481    29640    29721    29759    29879 
   30149    30524    30962    31450    32008    32665    33409    34168 
   34811    35225    35379    35230    34735    33909    32794    31500 
   30207    29045    28047    27178    26407    25780    25350    25114 
   25065    25182    25359    25540    25797    26194    26649    27039 
   27356    27643    27927    28204    28453    28682    28899    29074 
   29188    29255    29262    29174    29061    29020    29004    28935 
   28853    28842    28910    28934    28852    28752    28659    28510 
   28343    28194    27996    27720    27414    27091    26809    26612 
   26418    26141    25857    25656    25447    25093    24676    24356 
   24138    23973    23859    23741    23576    23506    23677    24023 
   24448    25020    25789    26646    27487    28274    28984    29598 
   30111    30527    30828    30986    31024    30977    30850    30603 
   30202    29670    29076    28557    28277    28242    28310    28405 
   28571    28854    29192    29490    29745    29998    30279    30592 
   30883    31066    31097    30996    30805    30526    30136    29652 
   29142    28703    28372    28147    28028    27993    28023    28120 
   28212    28194    28016    27696    27283    26743    25994    25114 
   24259    23458    22682    21973    21378    20876    20448    20148 
   20067    20263    20657    21120    21703    22491    23340    24127 
   24929    25775    26590    27319    27903    28367    28827    29231 
   29408    29262    28813    28166    27425    26577    25608    24607 
   23666    22825    22175    21816    21712    21793    22098    22667 
   23491    24567    25828    27135    28391    29570    30643    31592 
   32416    33103    33644    34018    34192    34182    34063    33870 
   33565    33162    32733    32283    31855    31563    31432    31442 
   31541    31602    31560    31423    31189    30917    30678    30402 
   30036    29628    29203    28809    28506    28256    28004    27757 
   27511    27236    26858    26339    25790    25313    24869    24399 
   23895    23388    22977    22751    22721    22806    22894    22960 
   23070    23195    23278    23376    23534    23722    23951    24187 
   24378    24578    24852    25178    25539    25956    26428    26962 
   27579    28240    28863    29417    29911    30327    30622    30751 
   30704    30526    30295    30057    29809    29539    29273    29045 
   28888    28845    28915    29034    29139    29241    29404    29655 
   29903    30055    30125    30180    30240    30215    30014    29710 
   29427    29161    28880    28579    28291    28105    28085    28205 
   28378    28579    28853    29155    29409    29628    29791    29833 
   29766    29597    29281    28829    28324    27791    27164    26445 
   25733    25108    24586    24105    23585    23097    22781    22651 
   22688    22925    23315    23754    24241    24810    25425    26053 
   26630    27102    27518    27924    28354    28877    29498    30133 
   30712    31241    31747    32196    32572    32949    33313    33501 
   33447    33288    33118    32873    32508    32035    31486    30963 
   30524    30113    29745    29463    29176    28834    28499    28201 
   27950    27741    27600    27595    27711    27832    27907    28003 
   28143    28290    28489    28775    29107    29501    29955    30352 
   30638    30804    30820    30766    30676    30451    30102    29733 
   29404    29135    28918    28713    28478    28227    28078    28081 
   28177    28375    28676    29003    29326    29613    29806    29938 
   30049    30137    30175    30086    29832    29498    29147    28782 
   28456    28231    28046    27818    27546    27225    26794    26284 
   25764    25196    24532    23818    23099    22354    21601    20954 
   20474    20139    19984    20062    20378    20860    21412    22017 
   22694    23387    24051    24719    25363    25882    26285    26690 
   27128    27564    28021    28518    29043    29540    29891    30080 
   30194    30249    30172    29901    29501    29061    28541    27892 
   27160    26418    25679    24919    24194    23593    23070    22613 
   22288    22045    21855    21814    21910    22022    22152    22418 
   22871    23421    24032    24772    25597    26418    27237    28005 
   28640    29176    29655    30014    30234    30377    30493    30582 
   30591    30461    30288    30218    30206    30142    30094    30133 
   30198    30283    30466    30709    30898    31027    31197    31476 
   31837    32233    32665    33116    33612    34215    34874    35499 
   36085    36605    37031    37426    37771    37983    38043    37952 
   37714    37380    36960    36396    35625    34631    33494    32312 
   31105    29926    28850    27872    27004    26252    25583    25031 
   24641    24368    24101    23791    23496    23251    23028    22833 
   22666    22518    22427    22432    22543    22746    22971    23164 
   23332    23476    23573    23568    23446    23284    23152    23049 
