Origin Time       2025/01/13 21:19:00
Lat.              31.8
Long.             131.6
Depth. (km)       30
Mag.              6.9
Station Code      OITH09
Station Lat.      32.8486
Station Long.     131.6786
Station Height(m) 190
Record Time       2025/01/13 21:19:52
Sampling Freq(Hz) 100Hz
Duration Time(s)  173
Dir.              4
Scale Factor      7845(gal)/8223790
Max. Acc. (gal)   7.868
Last Correction   2025/01/13 21:19:52
Memo.             
[...]
    1416     1098      788      677      783     1021     1351     1602 
    1665     1634     1483     1215     1005      994     1283     1756 
    2145     2466     2749     2764     2511     2330     2273     2043 
    1759     1765     1883     1904     2000     2138     2073     1864 
    1728     1676     1728     1956     2168     2176     2143     2174 
    2207     2261     2242     1957     1410      919      803      859 
     797      857     1215     1648     2068     2523     2787     2675 
    2438     2300     2177     2138     2285     2297     1964     1557 
    1197      859      826     1131     1352     1316     1215     1134 
     939      664      731     1209     1613     1852     1944     1539 
     803      284       40       36      456     1074     1286     1088 
    1115     1455     1725     1992     2362     2505     2280     2056 
    2214     2593     2790     2758     2571     2151     1622     1271 
    1258     1452     1543     1536     1537     1422     1351     1560 
    1841     1973     1944     1811     1742     1790     1867     1933 
    1899     1702     1475     1397     1583     2029     2546     2934 
    2999     2516     1768     1293     1055      978     1291     1826 
    2231     2423     2419     2340     2247     2079     1965     1938 
    1830     1711     1671     1618     1694     2073     2529     2857 
    3075     2998     2552     2104     1876     1702     1470     1300 
    1170      864      481      310      317      367      477      845 
    1551     2176     2400     2332     2004     1553     1293     1343 
    1630     1953     2259     2527     2536     2373     2226     1976 
    1719     1651     1710     1845     1944     1779     1375     1065 
    1132     1399     1517     1495     1463     1387     1246     1166 
    1271     1379     1360     1385     1367     1166      946      703 
     440      475      915     1443     1736     1714     1602     1690 
    1871     1864     1732     1637     1663     1858     2139     2443 
    2728     2826     2794     2859     2930     2832     2633     2389 
    2154     2191     2463     2488     2158     1772     1383      954 
     679      708      816      816      911     1053      943      814 
     891      896      845      978     1167     1263     1370     1602 
    1869     1971     1983     2047     2035     1946     1823     1502 
     993      468      187      379      854     1425     2023     2247 
    1964     1644     1566     1722     2180     2754     3048     3045 
    2910     2590     2114     1706     1591     1784     1907     1759 
    1578     1429     1306     1367     1549     1667     1772     1868 
    1726     1428     1323     1470     1719     1831     1606     1210 
    1054     1355     1833     2100     2235     2290     2115     1962 
    2060     2187     2346     2644     2886     2843     2390     1679 
    1134      976     1213     1706     2166     2502     2582     2184 
    1636     1429     1440     1381     1256     1174     1205     1314 
    1418     1528     1613     1586     1494     1340     1080      992 
    1313     1773     2118     2330     2343     2166     1872     1517 
    1159      847      851     1201     1412     1405     1366     1074 
     576      313      419      652      739      720      808      994 
    1258     1710     2147     2155     1807     1502     1165      677 
     446      522      595      760      974     1085     1287     1485 
    1464     1433     1518     1620     1671     1652     1567     1428 
    1503     2101     2925     3408     3419     3099     2585     2076 
    1818     1918     2115     2015     1594     1124      872      984 
    1283     1458     1482     1390     1113      854      996     1470 
    1761     1696     1620     1668     1734     1961     2332     2442 
    2166     1769     1507     1566     1903     2253     2335     1900 
    1020      282       93      280      556      750      762      577 
     355      311      471      672      797      818      764      793 
    1047     1405     1668     1728     1622     1614     1776     1850 
    1867     2091     2423     2614     2694     2717     2570     2211 
    1787     1401      980      589      460      598      830     1085 
    1359     1537     1475     1247     1053      912      742      614 
     664      962     1468     1953     2216     2258     2149     1989 
    1806     1595     1458     1401     1345     1328     1370     1402 
    1394     1347     1289     1300     1378     1375     1314     1297 
    1239     1210     1371     1599     1830     2026     2010     1779 
    1372      905      742      912     1161     1539     2008     2338 
    2555     2751     2883     2945     2941     2902     2895     2886 
    2905     3165     3717     4210     4356     4187     3736     3109 
    2569     2232     2073     2070     2049     1887     1746     1713 
    1705     1738     1715     1409      891      488      338      259 
     217      429      845     1255     1614     1925     2168     2197 
    1938     1669     1530     1432     1466     1651     1767     1730 
    1647     1595     1578     1661     1769     1601     1188      895 
     853      969     1148     1375     1629     1771     1799     1910 
    2089     2173     2197     2292     2444     2585     2609     2409 
    2170     2172     2405     2776     3148     3191     2739     2010 
    1270      683      411      444      546      589      625      666 
     646      610      764     1193     1745     2192     2366     2236 
    1900     1540     1255      974      747      722      846     1053 
    1362     1790     2285     2620     2610     2363     2143     2162 
    2367     2504     2366     2035     1895     2146     2675     3331 
    3789     3738     3257     2646     2231     2099     2018     1888 
    1873     2081     2428     2743     2845     2627     2176     1738 
    1497     1399     1263      985      565      217      332      955 
    1674     2034     1911     1680     1734     1977     2141     2052 
    1764     1676     2010     2556     3087     3388     3211     2648 
    2073     1787     1780     1695     1366     1026      791      743 
    1067     1611     2018     2181     2226     2328     2648     3223 
    3850     4210     4179     3813     3276     2808     2586     2598 
    2623     2515     2394     2354     2362     2398     2423     2277 
    1760      913      -25     -899    -1499    -1683    -1603    -1426 
   -1128     -661      -47      649     1344     1946     2374     2548 
    2444     2313     2471     2852     3242     3608     3939     4226 
    4487     4614     4531     4267     3766     3121     2625     2307 
    2070     2019     2112     2073     1761     1314      913      546 
     268      282      490      639      689      652      507      217 
    -284     -967    -1696    -2347    -2870    -3186    -3199    -2955 
   -2543    -1984    -1266     -400      496     1251     1765     1964 
    1827     1468     1016      637      561      896     1506     2151 
    2658     2997     3283     3734     4487     5476     6535     7371 
    7639     7260     6393     5273     4114     2972     1906     1086 
     625      650     1340     2497     3672     4727     5611     6102 
    6142     5791     5067     4152     3261     2538     2126     2006 
    1996     1948     1653      923     -152    -1399    -2727    -3870 
   -4488    -4440    -3804    -2894    -2022    -1263     -471      540 
    1555     2089     2166     2103     1891     1575     1321      959 
     379     -105     -263     -157      128      517      934     1362 
    1823     2376     2918     3142     2979     2677     2440     2382 
    2554     2853     3191     3476     3505     3190     2606     1818 
    1036      629      654      831      924      965     1094     1177 
     962      558      144     -378    -1073    -1736    -2155    -2336 
   -2370    -2280    -2069    -1723    -1212     -603       -6      575 
    1104     1510     1845     2110     2296     2533     2857     3246 
    3682     4009     4270     4712     5196     5378     5289     5125 
    4899     4600     4255     3771     3072     2253     1472      858 
     506      464      726     1171     1557     1772     1898     1910 
    1741     1518     1368     1256     1047      722      437      368 
     675     1414     2389     3325     3928     3954     3604     3277 
    3006     2694     2332     1836     1204      656      394      410 
     589      874     1213     1543     1829     1980     1946     1806 
    1618     1436     1343     1267     1008      498     -114     -622 
    -872     -783     -351      211      535      541      464      463 
     580      780      882      751      434      187      244      567 
    1128     1923     2689     3153     3272     3007     2320     1340 
     376     -202     -221      276     1123     2015     2724     3206 
    3422     3404     3281     3067     2733     2322     1857     1447 
    1262     1371     1684     1988     2061     1852     1417      845 
     369      195      282      504      769     1062     1490     2108 
    2813     3433     3805     3932     3989     4083     4216     4487 
    4965     5466     5765     5827     5680     5385     5077     4742 
    4170     3323     2362     1458      803      534      676     1086 
    1494     1767     1895     1790     1406      866      341      -98 
    -357     -222      317      953     1432     1686     1775     1880 
    2151     2606     3122     3458     3495     3325     3036     2655 
    2236     1871     1621     1443     1301     1321     1506     1580 
    1440     1205      877      457       75     -174     -240     -122 
      87      332      680     1131     1439     1513     1544     1493 
    1223      993     1107     1443     1795     2157     2448     2474 
    2254     2065     2035     1998     1915     1873     1733     1347 
     796      228     -340     -891    -1127     -814     -174      518 
    1200     1759     2054     2088     1976     1867     1761     1591 
    1424     1225      843      364      -59     -484     -865     -974 
    -810     -580     -372     -163      133      641     1355     2192 
    3065     3867     4537     4961     4946     4546     3978     3312 
    2641     2185     1998     1953     1993     2080     2161     2259 
    2409     2478     2249     1676      924      170     -400     -646 
    -629     -479     -333     -380     -675    -1057    -1329    -1378 
   -1278    -1090     -703      -99      656     1559     2474     3198 
    3624     3716     3597     3457     3346     3364     3570     3773 
    3832     3716     3372     2937     2562     2216     1962     1875 
    1931     2160     2425     2550     2605     2668     2728     2830 
    2980     3148     3322     3437     3456     3476     3689     4213 
    4849     5150     4793     3815     2524     1281      344     -103 
    -102       21       45        6     -170     -572    -1015    -1289 
   -1390    -1404    -1425    -1501    -1602    -1736    -1825    -1661 
   -1244     -734     -280      -10      172      427      742     1105 
    1505     1933     2438     2997     3508     3747     3503     2891 
    2142     1383      822      556      460      433      430      448 
     560      886     1521     2428     3420     4333     5131     5759 
    5996     5810     5485     5159     4857     4621     4344     4002 
    3770     3728     3780     3692     3285     2525     1470      371 
    -472     -976    -1262    -1524    -1818    -2043    -2064    -1749 
   -1107     -375      186      531      865     1289     1556     1460 
    1065      530       78      -60      167      558      835      970 
    1163     1614     2416     3435     4332     4792     4730     4375 
    4032     3769     3578     3534     3578     3559     3422     3181 
    2876     2614     2481     2430     2347     2150     1869     1628 
    1487     1426     1355     1123      654       24     -560     -886 
    -973     -919     -699     -315      114      460      696      936 
    1219     1490     1871     2384     2739     2910     3245     3881 
    4622     5178     5290     4815     3881     2833     1975     1418 
    1219     1321     1485     1497     1293     1051     1089     1448 
    2035     2787     3418     3726     3789     3703     3542     3323 
    2952     2443     1931     1609     1667     2039     2462     2760 
    2918     2995     3141     3492     3847     3870     3570     3105 
    2596     2230     2077     2099     2251     2392     2380     2204 
    1937     1710     1641     1728     1688     1251      637      125 
    -292     -448     -110      525     1047     1120      634     -199 
   -1082    -1892    -2666    -3334    -3709    -3730    -3485    -3084 
   -2650    -2268    -1949    -1703    -1522    -1336    -1097     -669 
     162     1271     2305     3118     3715     4125     4446     4781 
    5094     5229     5112     4810     4433     4171     4156     4341 
    4623     4873     4969     4958     4907     4824     4735     4606 
    4348     3908     3381     2975     2670     2278     1794     1309 
     847      406        4     -299     -535     -756     -795     -481 
      32      479      757      907      980      954      835      679 
     434       27     -596    -1597    -2961    -4334    -5431    -6191 
   -6588    -6594    -6301    -5896    -5433    -4666    -3357    -1648 
     139     1695     2744     3356     3856     4355     4777     5113 
    5413     5792     6301     6799     7087     7022     6654     6262 
    6033     5857     5447     4576     3403     2394     1914     2025 
    2479     2938     3245     3462     3696     3967     4274     4564 
    4726     4703     4448     3904     3129     2288     1537      923 
     453      186       33     -218     -596     -924    -1063    -1038 
    -896     -610     -222      189      544      675      580      418 
     288      395      877     1544     2196     2825     3407     3769 
    3761     3541     3396     3388     3385     3291     3218     3257 
    3249     3094     2851     2560     2312     2133     1937     1725 
    1456     1036      537       78     -319     -595     -615     -244 
     557     1611     2631     3430     3913     4128     4247     4282 
    4101     3680     3103     2536     2099     1760     1429      931 
     140     -772    -1521    -1919    -1931    -1703    -1432    -1313 
   -1498    -1852    -2061    -2004    -1795    -1574    -1354     -993 
    -461       51      418      722     1055     1478     2034     2632 
    3072     3208     2997     2567     2176     2006     2176     2739 
    3507     4162     4495     4527     4453     4388     4330     4297 
    4283     4311     4538     5038     5683     6276     6573     6381 
    5706     4776     3883     3145     2559     2149     1804     1290 
     508     -386    -1097    -1331     -994     -311      452     1165 
    1764     2365     3141     3940     4390     4309     3798     3028 
    2128     1270      621      187     -178     -660    -1318    -1984 
   -2454    -2640    -2509    -2160    -1741    -1273     -688       86 
    1111     2288     3360     4179     4747     4988     4847     4487 
    4191     4179     4406     4683     4932     5063     4985     4698 
    4145     3265     2106      835     -201     -679     -622     -295 
      94      429      702     1011     1367     1706     1964     2008 
    1844     1667     1571     1521     1467     1417     1485     1765 
    2153     2362     2187     1674      954      179     -453     -845 
   -1042    -1129    -1189    -1296    -1475    -1730    -2123    -2718 
   -3415    -3948    -4153    -4121    -4074    -4158    -4251    -4095 
   -3677    -3090    -2351    -1555     -780       -4      693     1169 
    1421     1564     1680     1760     1742     1713     1871     2273 
    2802     3330     3811     4279     4725     5096     5346     5414 
    5319     5123     4815     4449     4189     4064     3959     3844 
    3786     3709     3501     3171     2731     2203     1714     1420 
    1336     1375     1413     1345     1202     1054      880      700 
     580      576      747     1030     1220     1193      993      823 
     873     1125     1424     1636     1692     1530     1112      552 
     124       72      418      953     1404     1587     1420     1016 
     695      666      862     1108     1273     1344     1362     1406 
    1586     1919     2374     2883     3273     3469     3538     3584 
    3739     3987     4182     4243     4175     4018     3813     3613 
    3493     3559     3855     4248     4546     4644     4482     4104 
    3628     3064     2473     2104     2116     2448     2948     3433 
    3726     3736     3473     2982     2300     1418      417     -610 
   -1686    -2698    -3383    -3615    -3383    -2725    -1767     -631 
     548     1552     2151     2307     2230     2192     2289     2447 
    2585     2654     2569     2303     1927     1517     1162      965 
     923     1009     1235     1551     1871     2091     2119     1993 
    1806     1489      974      387     -124     -545     -884    -1097 
   -1174    -1194    -1204    -1162    -1043     -846     -557     -202 
     149      449      649      693      604      469      426      581 
     873     1179     1455     1651     1667     1437     1102      826 
     583      371      319      471      734     1067     1530     2149 
    2855     3557     4136     4494     4666     4725     4672     4502 
    4255     4014     3801     3569     3408     3488     3794     4114 
    4203     3956     3489     3055     2857     2843     2849     2859 
    2856     2783     2687     2623     2628     2830     3275     3877 
    4509     4954     4974     4538     3829     3114     2606     2309 
    2073     1827     1522     1066      508      -32     -541     -935 
   -1177    -1440    -1779    -2083    -2384    -2735    -3030    -3198 
   -3303    -3373    -3302    -2999    -2481    -1776     -905       74 
    1082     2073     3002     3796     4434     4877     5027     4808 
    4297     3755     3349     3018     2687     2309     1927     1665 
    1547     1564     1669     1737     1729     1688     1660     1713 
    1899     2184     2432     2496     2331     1999     1632     1354 
    1163     1030     1005     1109     1242     1291     1212     1007 
     768      681      843     1201     1667     2146     2508     2686 
    2760     2868     2999     3046     3019     2970     2867     2717 
    2587     2562     2693     2893     3061     3179     3179     2999 
    2745     2556     2446     2443     2550     2570     2350     1964 
    1533     1136      862      756      758      745      703      707 
     664      464      193      -49     -251     -418     -519     -515 
    -422     -220      133      537      899     1240     1498     1578 
    1522     1410     1296     1246     1296     1409     1597     1926 
    2288     2481     2481     2359     2114     1723     1233      723 
     274      -58     -252     -315     -234       45      564     1201 
    1728     2015     2073     1988     1892     1864     1863     1848 
