Origin Time       2025/01/13 21:19:00
Lat.              31.8
Long.             131.6
Depth. (km)       30
Mag.              6.9
Station Code      OITH07
Station Lat.      32.9870
Station Long.     131.5881
Station Height(m) 59
Record Time       2025/01/13 21:19:53
Sampling Freq(Hz) 100Hz
Duration Time(s)  181
Dir.              3
Scale Factor      3923(gal)/8224838
Max. Acc. (gal)   6.789
Last Correction   2025/01/13 21:19:53
Memo.             
[...]
  -52232   -52375   -52285   -52026   -51665   -51285   -50982   -50804 
  -50735   -50769   -50890   -51013   -51062   -51078   -51154   -51328 
  -51597   -51943   -52321   -52659   -52909   -53032   -52951   -52640 
  -52196   -51753   -51453   -51403   -51574   -51829   -52050   -52168 
  -52122   -51862   -51410   -50884   -50446   -50183   -50091   -50153 
  -50301   -50398   -50371   -50261   -50170   -50163   -50245   -50367 
  -50480   -50584   -50692   -50838   -51062   -51354   -51622   -51810 
  -51977   -52223   -52564   -52951   -53312   -53597   -53789   -53869 
  -53794   -53577   -53329   -53161   -53104   -53122   -53141   -53082 
  -52879   -52516   -52045   -51564   -51189   -50997   -50967   -51013 
  -51077   -51177   -51312   -51401   -51349   -51177   -50997   -50897 
  -50847   -50801   -50805   -50926   -51163   -51482   -51829   -52146 
  -52394   -52537   -52571   -52574   -52645   -52787   -52870   -52778 
  -52569   -52377   -52235   -52099   -51984   -51979   -52126   -52354 
  -52519   -52496   -52238   -51748   -51155   -50711   -50548   -50575 
  -50687   -50831   -50934   -50943   -50854   -50696   -50552   -50477 
  -50442   -50410   -50367   -50298   -50256   -50322   -50477   -50647 
  -50835   -51065   -51291   -51452   -51578   -51753   -51956   -52091 
  -52115   -52023   -51834   -51649   -51556   -51493   -51343   -51086 
  -50791   -50507   -50226   -49914   -49650   -49580   -49698   -49891 
  -50157   -50529   -50932   -51278   -51540   -51695   -51732   -51676 
  -51636   -51767   -52111   -52531   -52857   -52991   -52901   -52637 
  -52281   -51918   -51628   -51445   -51352   -51328   -51358   -51443 
  -51601   -51761   -51794   -51698   -51584   -51529   -51584   -51760 
  -51965   -52114   -52204   -52263   -52311   -52347   -52385   -52509 
  -52785   -53126   -53392   -53500   -53388   -53042   -52563   -52104 
  -51780   -51571   -51363   -51175   -51140   -51225   -51302   -51372 
  -51528   -51810   -52123   -52276   -52193   -51983   -51790   -51706 
  -51717   -51676   -51495   -51291   -51217   -51268   -51333   -51297 
  -51109   -50851   -50669   -50623   -50697   -50857   -51040   -51167 
  -51208   -51217   -51310   -51611   -52145   -52722   -53059   -53040 
  -52797   -52498   -52232   -52056   -52018   -52114   -52258   -52313 
  -52186   -51876   -51462   -51059   -50739   -50534   -50475   -50569 
  -50712   -50733   -50562   -50279   -50004   -49847   -49883   -50139 
  -50584   -51147   -51750   -52297   -52639   -52693   -52555   -52388 
  -52265   -52212   -52211   -52158   -51992   -51759   -51510   -51333 
  -51318   -51452   -51641   -51857   -52072   -52154   -51960   -51479 
  -50842   -50234   -49775   -49461   -49269   -49260   -49508   -49968 
  -50419   -50669   -50788   -50984   -51335   -51722   -51938   -51858 
  -51579   -51318   -51204   -51246   -51379   -51499   -51538   -51516 
  -51476   -51456   -51471   -51560   -51804   -52186   -52521   -52672 
  -52667   -52559   -52451   -52465   -52548   -52591   -52644   -52791 
  -53007   -53266   -53511   -53532   -53190   -52645   -52170   -51872 
  -51694   -51532   -51382   -51352   -51428   -51476   -51487   -51572 
  -51771   -52046   -52330   -52492   -52398   -52033   -51530   -51071 
  -50741   -50485   -50206   -49901   -49705   -49754   -50017   -50344 
  -50579   -50614   -50427   -50083   -49708   -49496   -49615   -50032 
  -50604   -51240   -51829   -52162   -52131   -51871   -51599   -51457 
  -51494   -51625   -51669   -51525   -51209   -50781   -50359   -50114 
  -50121   -50314   -50579   -50772   -50791   -50692   -50652   -50703 
  -50681   -50476   -50144   -49840   -49739   -49931   -50344   -50778 
  -51063   -51170   -51193   -51233   -51298   -51331   -51290   -51185 
  -51039   -50876   -50743   -50680   -50661   -50674   -50800   -51084 
  -51467   -51903   -52326   -52625   -52802   -52964   -53095   -53060 
  -52806   -52398   -51975   -51756   -51918   -52347   -52698   -52739 
  -52544   -52361   -52342   -52486   -52732   -52988   -53183   -53261 
  -53134   -52836   -52563   -52382   -52227   -52120   -52084   -52110 
  -52238   -52435   -52583   -52677   -52748   -52779   -52795   -52833 
  -52859   -52851   -52851   -52934   -53138   -53314   -53222   -52841 
  -52377   -51962   -51607   -51329   -51173   -51151   -51224   -51293 
  -51298   -51255   -51170   -51058   -51031   -51162   -51391   -51653 
  -51858   -51854   -51634   -51355   -51108   -50935   -50916   -50997 
  -51019   -50993   -51021   -51079   -51093   -51007   -50796   -50504 
  -50194   -49912   -49735   -49674   -49648   -49646   -49662   -49643 
  -49599   -49600   -49715   -49979   -50287   -50468   -50581   -50803 
  -51111   -51366   -51484   -51433   -51308   -51281   -51339   -51355 
  -51306   -51263   -51335   -51556   -51784   -51895   -51930   -51943 
  -51946   -51993   -52099   -52199   -52312   -52512   -52736   -52876 
  -52899   -52805   -52674   -52713   -53053   -53561   -53935   -53963 
  -53651   -53149   -52636   -52254   -52061   -52050   -52145   -52226 
  -52232   -52146   -51862   -51278   -50471   -49659   -49057   -48798 
  -48882   -49227   -49702   -50148   -50491   -50788   -51082   -51364 
  -51642   -51948   -52255   -52512   -52681   -52701   -52488   -52076 
  -51638   -51332   -51216   -51237   -51300   -51397   -51543   -51630 
  -51601   -51552   -51543   -51493   -51306   -50953   -50519   -50171 
  -49968   -49866   -49851   -49924   -50072   -50306   -50657   -51113 
  -51595   -52011   -52289   -52392   -52312   -52123   -51937   -51773 
  -51578   -51402   -51444   -51835   -52419   -52914   -53208   -53341 
  -53414   -53566   -53836   -54125   -54342   -54459   -54468   -54410 
  -54288   -54017   -53518   -52859   -52257   -51904   -51769   -51584 
  -51148   -50529   -49887   -49327   -48888   -48543   -48262   -48084 
  -47979   -47810   -47571   -47418   -47476   -47803   -48419   -49234 
  -50122   -51051   -52039   -53032   -53870   -54413   -54696   -54861 
  -54958   -54918   -54653   -54144   -53487   -52857   -52409   -52212 
  -52165   -52027   -51615   -50953   -50201   -49540   -49041   -48616 
  -48217   -47968   -47985   -48230   -48520   -48703   -48805   -48988 
  -49404   -50080   -50880   -51541   -51885   -51979   -51996   -52011 
  -52033   -52097   -52269   -52606   -53042   -53381   -53534   -53554 
  -53481   -53349   -53231   -53188   -53214   -53233   -53133   -52901 
  -52616   -52371   -52228   -52204   -52299   -52512   -52822   -53196 
  -53551   -53746   -53707   -53493   -53225   -52994   -52860   -52810 
  -52713   -52466   -52142   -51868   -51690   -51610   -51576   -51493 
  -51313   -51062   -50812   -50641   -50526   -50373   -50183   -50056 
  -50063   -50175   -50336   -50506   -50639   -50672   -50604   -50517 
  -50448   -50392   -50403   -50499   -50587   -50562   -50429   -50279 
  -50253   -50458   -50874   -51370   -51764   -51919   -51811   -51521 
  -51162   -50854   -50689   -50731   -51013   -51484   -51995   -52436 
  -52810   -53114   -53311   -53401   -53415   -53347   -53206   -53036 
  -52849   -52606   -52300   -52000   -51784   -51717   -51841   -52126 
  -52519   -52937   -53210   -53196   -52945   -52631   -52351   -52118 
  -51921   -51790   -51775   -51838   -51869   -51869   -51916   -52010 
  -52127   -52281   -52384   -52338   -52178   -51954   -51629   -51192 
  -50669   -50072   -49501   -49150   -49133   -49420   -49929   -50539 
  -51089   -51490   -51837   -52245   -52675   -52986   -53029   -52766 
  -52385   -52174   -52208   -52301   -52263   -52065   -51757   -51432 
  -51205   -51133   -51162   -51173   -51047   -50701   -50126   -49388 
  -48636   -48101   -47933   -48100   -48525   -49148   -49871   -50533 
  -50962   -51105   -51046   -50934   -50888   -50913   -50931   -50878 
  -50780   -50620   -50355   -50068   -49928   -49999   -50242   -50576 
  -50913   -51231   -51540   -51792   -51918   -51868   -51669   -51526 
  -51684   -52124   -52690   -53300   -53882   -54344   -54648   -54745 
  -54564   -54136   -53573   -52990   -52525   -52243   -52038   -51806 
  -51563   -51309   -50986   -50606   -50291   -50144   -50157   -50313 
  -50623   -50950   -51052   -50881   -50575   -50278   -50134   -50317 
  -50880   -51671   -52462   -53080   -53450   -53627   -53754   -53881 
  -53902   -53690   -53200   -52478   -51645   -50830   -50078   -49377 
  -48787   -48481   -48621   -49215   -50098   -51036   -51850   -52411 
  -52602   -52398   -51926   -51413   -51105   -51148   -51495   -52011 
  -52621   -53252   -53788   -54193   -54486   -54600   -54456   -54083 
  -53570   -52964   -52311   -51722   -51301   -51063   -50973   -50990 
  -51073   -51179   -51313   -51479   -51686   -51908   -52066   -52123 
  -52146   -52191   -52247   -52357   -52593   -52933   -53287   -53584 
  -53844   -54132   -54429   -54639   -54670   -54454   -54048   -53655 
  -53446   -53357   -53194   -52875   -52483   -52159   -52033   -52126 
  -52324   -52544   -52780   -52990   -53126   -53180   -53095   -52840 
  -52506   -52246   -52143   -52193   -52319   -52427   -52469   -52428 
  -52375   -52446   -52650   -52849   -52926   -52830   -52546   -52115 
  -51610   -51093   -50630   -50279   -50059   -49986   -50087   -50336 
  -50607   -50768   -50796   -50772   -50796   -50930   -51186   -51567 
  -52034   -52475   -52772   -52909   -52936   -52906   -52899   -53018 
  -53258   -53496   -53585   -53443   -53096   -52690   -52319   -51943 
  -51556   -51223   -51004   -50951   -51038   -51112   -51051   -50869 
  -50622   -50368   -50205   -50143   -50067   -49901   -49638   -49281 
  -48852   -48415   -48028   -47742   -47623   -47704   -47887   -48062 
  -48270   -48575   -48907   -49164   -49316   -49369   -49384   -49488 
  -49742   -50106   -50508   -50878   -51214   -51582   -51995   -52390 
  -52733   -53038   -53315   -53545   -53661   -53582   -53312   -52945 
  -52570   -52261   -52104   -52147   -52388   -52802   -53265   -53616 
  -53801   -53869   -53920   -54055   -54228   -54318   -54315   -54290 
  -54259   -54198   -54122   -54067   -54067   -54187   -54409   -54575 
  -54577   -54437   -54260   -54145   -54075   -53936   -53639   -53196 
  -52714   -52290   -51958   -51694   -51426   -51075   -50641   -50209 
  -49836   -49485   -49094   -48639   -48157   -47715   -47382   -47167 
  -47001   -46831   -46710   -46719   -46900   -47256   -47733   -48197 
  -48516   -48670   -48770   -48925   -49111   -49227   -49210   -49079 
  -48915   -48744   -48490   -48095   -47614   -47173   -46915   -46935 
  -47147   -47332   -47394   -47391   -47390   -47439   -47563   -47729 
  -47915   -48186   -48587   -49050   -49468   -49735   -49819   -49867 
  -50063   -50398   -50791   -51214   -51652   -52101   -52578   -53013 
  -53334   -53588   -53858   -54193   -54614   -55078   -55466   -55663 
  -55648   -55485   -55266   -55034   -54746   -54360   -53908   -53434 
  -52929   -52386   -51822   -51254   -50762   -50479   -50465   -50704 
  -51125   -51618   -52137   -52689   -53241   -53746   -54187   -54564 
  -54886   -55147   -55340   -55443   -55404   -55250   -55094   -55048 
  -55167   -55364   -55499   -55529   -55420   -55127   -54712   -54298 
  -53933   -53608   -53311   -53091   -53056   -53237   -53550   -53892 
  -54178   -54415   -54652   -54818   -54780   -54492   -53991   -53357 
  -52687   -52007   -51294   -50608   -50066   -49685   -49441   -49300 
  -49219   -49211   -49295   -49437   -49605   -49744   -49790   -49761 
  -49728   -49744   -49829   -50021   -50406   -51024   -51788   -52506 
  -53032   -53331   -53361   -53037   -52375   -51471   -50475   -49585 
  -48886   -48271   -47615   -46916   -46296   -45913   -45824   -45910 
  -45989   -45999   -46018   -46136   -46367   -46651   -46923   -47155 
  -47336   -47459   -47520   -47510   -47430   -47314   -47174   -46998 
  -46792   -46534   -46209   -45866   -45566   -45322   -45138   -45026 
  -44982   -45052   -45318   -45825   -46550   -47407   -48342   -49397 
  -50627   -52023   -53476   -54849   -56153   -57380   -58490   -59595 
  -60727   -61765   -62650   -63367   -63883   -64141   -64120   -63910 
  -63593   -63235   -62858   -62424   -61901   -61271   -60531   -59699 
  -58811   -57971   -57269   -56698   -56261   -55962   -55769   -55637 
  -55536   -55417   -55254   -55080   -54923   -54729   -54449   -54087 
  -53642   -53137   -52632   -52158   -51768   -51489   -51223   -50819 
  -50199   -49392   -48510   -47664   -46863   -46053   -45237   -44440 
  -43687   -43054   -42612   -42367   -42303   -42358   -42426   -42457 
  -42417   -42252   -41970   -41636   -41301   -41011   -40801   -40647 
  -40545   -40628   -41019   -41670   -42450   -43244   -43933   -44487 
  -44976   -45422   -45793   -46071   -46225   -46245   -46218   -46238 
  -46364   -46664   -47206   -48014   -49067   -50276   -51524   -52770 
  -53975   -54973   -55669   -56160   -56538   -56898   -57389   -57987 
  -58531   -58999   -59432   -59838   -60253   -60677   -61060   -61381 
  -61657   -61936   -62255   -62533   -62654   -62637   -62586   -62590 
  -62685   -62846   -62996   -63090   -63159   -63232   -63244   -63099 
  -62797   -62483   -62353   -62471   -62745   -63080   -63359   -63463 
  -63382   -63130   -62687   -62087   -61344   -60432   -59370   -58251 
  -57168   -56115   -55057   -54017   -52992   -51961   -50934   -49896 
  -48784   -47582   -46344   -45118   -43916   -42799   -41814   -40911 
  -40032   -39193   -38446   -37847   -37461   -37311   -37320   -37389 
  -37515   -37710   -37945   -38160   -38287   -38306   -38256   -38227 
  -38321   -38518   -38726   -38920   -39120   -39320   -39507   -39703 
  -39957   -40262   -40564   -40857   -41179   -41592   -42155   -42862 
  -43626   -44370   -45076   -45765   -46504   -47394   -48424   -49459 
  -50404   -51270   -52123   -53022   -53954   -54843   -55647   -56349 
  -56968   -57569   -58195   -58814   -59337   -59726   -60011   -60249 
  -60529   -60897   -61263   -61480   -61434   -61101   -60569   -60006 
  -59563   -59279   -59109   -58974   -58828   -58707   -58660   -58649 
  -58580   -58379   -58047   -57658   -57269   -56883   -56496   -56120 
  -55779   -55516   -55344   -55171   -54876   -54444   -53973   -53574 
  -53302   -53113   -52941   -52740   -52446   -52008   -51448   -50815 
  -50118   -49397   -48762   -48263   -47906   -47695   -47579   -47497 
  -47470   -47544   -47738   -48039   -48357   -48559   -48585   -48487 
  -48366   -48290   -48292   -48369   -48506   -48687   -48870   -49032 
  -49194   -49331   -49381   -49358   -49333   -49326   -49331   -49387 
  -49528   -49762   -50067   -50350   -50527   -50619   -50634   -50535 
  -50361   -50147   -49924   -49805   -49879   -50134   -50560   -51096 
  -51587   -51935   -52143   -52245   -52312   -52424   -52605   -52814 
  -52988   -53103   -53188   -53262   -53289   -53235   -53102   -52924 
  -52728   -52502   -52240   -51972   -51748   -51641   -51726   -51992 
  -52300   -52494   -52533   -52483   -52451   -52525   -52745   -53068 
  -53423   -53782   -54163   -54575   -54997   -55371   -55597   -55598 
  -55417   -55136   -54777   -54349   -53881   -53403   -52921   -52402 
  -51827   -51240   -50776   -50549   -50507   -50508   -50446   -50268 
  -49999   -49746   -49624   -49681   -49812   -49860   -49782   -49630 
  -49472   -49337   -49211   -49064   -48909   -48810   -48828   -48976 
  -49215   -49442   -49584   -49665   -49783   -50032   -50427   -50872 
  -51241   -51449   -51474   -51371   -51259   -51270   -51497   -51941 
  -52523   -53141   -53707   -54135   -54363   -54399   -54330   -54249 
  -54209   -54194   -54163   -54068   -53865   -53558   -53198   -52851 
  -52574   -52402   -52317   -52254   -52147   -51972   -51772   -51624 
  -51533   -51463   -51406   -51379   -51429   -51588   -51825   -52074 
  -52285   -52477   -52729   -53077   -53480   -53858   -54116   -54218 
  -54203   -54125   -54035   -53955   -53850   -53670   -53428   -53183 
  -52990   -52824   -52620   -52363   -52035   -51601   -51115   -50639 
  -50141   -49569   -48941   -48270   -47560   -46892   -46348   -45960 
  -45736   -45647   -45647   -45717   -45841   -46012   -46232   -46502 
  -46826   -47221   -47667   -48114   -48544   -48967   -49374   -49777 
  -50186   -50589   -50980   -51364   -51698   -51934   -52085   -52174 
  -52192   -52123   -51984   -51804   -51610   -51417   -51229   -51016 
  -50749   -50453   -50167   -49935   -49770   -49665   -49643   -49705 
  -49837   -50048   -50302   -50527   -50691   -50820   -50947   -51061 
  -51140   -51173   -51146   -51100   -51117   -51274   -51590   -51991 
  -52404   -52813   -53185   -53476   -53670   -53824   -54048   -54380 
  -54733   -54940   -54924   -54778   -54669   -54676   -54770   -54861 
  -54882   -54850   -54832   -54895   -55048   -55246   -55408   -55463 
  -55340   -55028   -54602   -54159   -53755   -53377   -52975   -52528 
  -52116   -51846   -51711   -51667   -51665   -51642   -51588   -51570 
  -51607   -51634   -51544   -51302   -50944   -50519   -50067   -49611 
  -49165   -48728   -48246   -47667   -47012   -46340   -45712   -45196 
  -44845   -44635   -44466   -44267   -44046   -43839   -43691   -43632 
  -43663   -43784   -43988   -44273   -44663   -45138   -45601   -45972 
  -46226   -46364   -46457   -46581   -46723   -46862   -47043   -47291 
  -47598   -48016   -48636   -49462   -50383   -51264   -52060   -52797 
  -53520   -54261   -55036   -55827   -56602   -57356   -58101   -58826 
  -59487   -60039   -60498   -60883   -61150   -61267   -61223   -60991 
  -60596   -60120   -59607   -59085   -58588   -58117   -57663   -57226 
  -56787   -56358   -55962   -55583   -55177   -54731   -54276   -53802 
  -53252   -52581   -51835   -51133   -50587   -50251   -50140   -50253 
  -50569   -50992   -51389   -51652   -51730   -51663   -51521   -51352 
  -51204   -51139   -51192   -51362   -51621   -51926   -52213   -52427 
  -52571   -52701   -52857   -53006   -53040   -52830   -52319   -51534 
  -50602   -49715   -49010   -48478   -48093   -47910   -47980   -48284 
  -48753   -49310   -49893   -50453   -50947   -51352   -51680   -51933 
  -52097   -52177   -52189   -52135   -52030   -51916   -51826   -51765 
  -51723   -51687   -51665   -51684   -51750   -51829   -51849   -51745 
  -51480   -51067   -50568   -50067   -49619   -49264   -49044   -48976 
  -49054   -49281   -49646   -50093   -50614   -51256   -52022   -52852 
  -53673   -54422   -55063   -55576   -55976   -56272   -56432   -56471 
  -56470   -56484   -56496   -56463   -56319   -56004   -55509   -54854 
  -54056   -53203   -52397   -51642   -50892   -50113   -49302   -48517 
  -47827   -47254   -46784   -46471   -46367   -46430   -46616   -46880 
  -47137   -47382   -47698   -48112   -48551   -48965   -49387   -49827 
  -50294   -50819   -51358   -51830   -52250   -52662   -53073   -53491 
  -53897   -54249   -54560   -54903   -55298   -55701   -56083   -56394 
  -56590   -56729   -56856   -56949   -56999   -56987   -56874   -56685 
  -56508   -56390   -56281   -56100   -55782   -55283   -54634   -53912 
  -53144   -52317   -51476   -50716   -50093   -49607   -49234   -48942 
  -48689   -48420   -48068   -47607   -47065   -46494   -45983   -45617 
  -45407   -45323   -45335   -45407   -45515   -45634   -45732   -45805 
