Origin Time       2025/01/13 21:19:00
Lat.              31.8
Long.             131.6
Depth. (km)       30
Mag.              6.9
Station Code      OITH09
Station Lat.      32.8486
Station Long.     131.6786
Station Height(m) 190
Record Time       2025/01/13 21:19:52
Sampling Freq(Hz) 100Hz
Duration Time(s)  173
Dir.              5
Scale Factor      7845(gal)/8223790
Max. Acc. (gal)   7.133
Last Correction   2025/01/13 21:19:52
Memo.             
[...]
    8627     8581     8677     8942     9193     9313     9375     9429 
    9251     8761     8329     8262     8494     8810     8997     8958 
    8800     8760     8914     9099     9204     9234     9147     8892 
    8583     8388     8347     8445     8626     8699     8536     8313 
    8334     8604     8804     8845     8957     9103     9130     9147 
    9119     8941     8814     8773     8667     8667     8822     8789 
    8638     8779     9154     9463     9531     9270     8868     8677 
    8694     8649     8515     8399     8272     8148     8141     8309 
    8486     8413     8206     8213     8425     8561     8532     8536 
    8646     8656     8461     8228     8117     8226     8540     8761 
    8731     8761     8995     9170     9256     9310     9113     8687 
    8344     8144     8093     8360     8808     9018     8941     8919 
    9007     8980     8872     8851     8857     8727     8525     8426 
    8401     8403     8498     8544     8436     8437     8702     8999 
    9147     9069     8671     8252     8295     8621     8752     8754 
    8791     8791     8838     8976     9032     9018     9080     9162 
    9080     8884     8869     8946     8750     8464     8461     8563 
    8525     8464     8521     8695     8831     8766     8654     8735 
    8946     9090     9042     8883     8888     8980     8834     8534 
    8378     8468     8748     8965     9000     9089     9246     9138 
    8762     8472     8419     8440     8344     8139     8006     8058 
    8266     8575     8946     9331     9537     9319     8837     8571 
    8607     8684     8635     8453     8360     8492     8553     8445 
    8518     8766     8893     8884     8741     8465     8309     8272 
    8110     7962     8109     8510     8926     9066     8931     8907 
    9140     9412     9545     9381     8924     8487     8247     8152 
    8239     8604     9050     9217     9088     8762     8345     8201 
    8461     8827     9046     8949     8581     8313     8344     8478 
    8509     8425     8436     8781     9312     9512     9189     8807 
    8725     8756     8775     8797     8760     8766     8866     8864 
    8756     8835     9027     8888     8511     8398     8575     8770 
    8870     8854     8788     8823     8926     8841     8572     8419 
    8403     8305     8189     8201     8282     8403     8545     8623 
    8683     8731     8676     8572     8576     8675     8762     8831 
    8791     8584     8498     8739     9032     9066     8939     8900 
    8993     9009     8760     8510     8629     8945     9182     9320 
    9213     8892     8741     8656     8247     7948     8280     8830 
    9140     9219     9059     8772     8544     8356     8189     8104 
    8197     8525     8808     8707     8518     8645     8939     9181 
    9286     9197     9065     8976     8811     8658     8731     8985 
    9194     9205     9015     8754     8581     8523     8510     8480 
    8428     8424     8515     8642     8764     8881     8938     8870 
    8766     8752     8683     8351     7970     7942     8251     8584 
    8749     8692     8588     8719     8946     8916     8758     8715 
    8689     8629     8613     8635     8756     8951     9016     8910 
    8829     8896     8969     8853     8703     8849     9173     9292 
    9121     8810     8592     8635     8687     8449     8198     8295 
    8513     8506     8370     8326     8328     8201     7965     7821 
    7967     8364     8695     8796     8874     9062     9182     9069 
    8860     8843     8999     9031     8834     8626     8671     8869 
    8907     8784     8765     8986     9281     9317     9070     8895 
    8910     8858     8715     8725     8862     8910     8841     8791 
    8868     9005     9051     8891     8371     7650     7276     7425 
    7836     8314     8683     8905     9081     9088     8876     8739 
    8880     9143     9247     9132     8976     8903     8962     9085 
    9027     8780     8638     8752     9012     9135     8896     8473 
    8182     8120     8248     8455     8721     9082     9271     9148 
    9032     9088     9128     9058     8964     8919     8881     8850 
    8830     8645     8241     7865     7732     7817     8016     8421 
    9074     9553     9495     9109     8807     8845     9099     9223 
    9277     9454     9471     9229     9084     9045     8950     8959 
    9030     8942     8847     8874     8841     8787     8822     8743 
    8529     8444     8515     8615     8725     8791     8797     8974 
    9337     9424     9131     8872     8680     8496     8584     8837 
    8943     9040     9255     9443     9539     9543     9472     9373 
    9297     9428     9821    10079     9973     9825     9747     9495 
    9135     8937     9058     9544    10104    10330    10237    10126 
   10091     9987     9751     9451     9216     9153     9123     9007 
    8995     9224     9586     9856     9742     9332     9107     9094 
    9046     9054     9117     9124     9248     9505     9656     9683 
    9572     9229     8900     8815     8800     8775     8864     8943 
    8810     8533     8244     8071     8155     8297     8104     7624 
    7280     7291     7593     8009     8321     8456     8422     8181 
    7877     7850     8197     8606     8761     8648     8425     8314 
    8424     8635     8830     9001     9101     9076     8969     8833 
    8646     8398     8248     8383     8577     8507     8301     8148 
    7993     7780     7518     7263     7190     7427     7796     7982 
    7946     7940     8105     8237     8043     7628     7384     7321 
    7187     7063     7069     7036     6812     6454     6069     5632 
    5047     4450     4140     4171     4402     4819     5366     5778 
    6019     6323     6751     7327     8166     9167     9999    10450 
   10679    10929    11102    11032    10879    10822    10770    10621 
   10463    10447    10615    10810    10862    10891    11159    11568 
   11726    11477    11074    10798    10647    10513    10366    10226 
   10160    10176    10200    10169    10064    10045    10292    10621 
   10739    10581    10169     9564     9001     8739     8698     8525 
    8128     7865     8083     8599     8857     8594     8090     7732 
    7473     7096     6689     6439     6447     6666     6801     6777 
    6914     7269     7443     7231     6975     7098     7489     7676 
    7446     7068     6804     6631     6536     6648     7063     7699 
    8359     8888     9212     9485     9890    10156    10008     9657 
    9301     8887     8422     8016     7724     7562     7504     7480 
    7507     7769     8267     8703     8923     8985     8950     8931 
    9015     9181     9394     9567     9522     9177     8743     8554 
    8703     8966     9096     9099     9105     9105     9142     9435 
   10044    10702    11109    11218    11281    11499    11676    11524 
   11082    10586    10224    10037     9846     9535     9256     9166 
    9221     9300     9379     9555     9792     9799     9305     8421 
    7489     6610     5706     4855     4234     4009     4156     4325 
    4360     4500     4833     5209     5552     5767     5769     5795 
    6135     6729     7453     8275     8949     9282     9524     9904 
   10265    10403    10241     9760     9139     8723     8731     9103 
    9574     9821     9765     9676     9776     9973    10083    10027 
    9826     9454     8904     8367     7959     7607     7319     7172 
    7177     7310     7484     7655     7827     7974     8133     8322 
    8433     8410     8287     8124     8032     8059     8159     8282 
    8391     8621     9167     9987    10810    11214    10928    10169 
    9271     8345     7528     7096     7217     7865     8961    10220 
   11126    11499    11553    11372    10984    10609    10443    10536 
   10905    11553    12384    13180    13721    13929    13867    13574 
   13045    12360    11550    10546     9506     8681     8209     8224 
    8559     8716     8518     8240     8090     8002     7898     7844 
    7888     7947     7923     7867     8050     8662     9485    10072 
   10126     9641     9067     8951     9258     9513     9491     9320 
    9062     8529     7686     6916     6586     6635     6740     6733 
    6651     6489     6216     5933     5814     5954     6274     6597 
    6836     7069     7452     7986     8517     8986     9479    10050 
   10621    11028    11326    11774    12316    12552    12341    12033 
   12020    12376    12888    13108    12734    11921    11009    10366 
   10216    10292    10226    10116    10204    10531    11020    11584 
   12186    12714    12982    12955    12730    12351    11782    11086 
   10485    10066     9621     8980     8193     7345     6544     5902 
    5339     4822     4665     5115     5859     6419     6621     6535 
    6274     5825     5204     4700     4599     4918     5454     5908 
    6126     6107     5798     5301     4959     5042     5559     6223 
    6691     7021     7501     8212     9105    10044    10705    10935 
   10856    10604    10417    10581    10918    10945    10493     9755 
    8973     8224     7466     6870     6693     6845     6984     6970 
    6899     6910     7106     7454     7805     8095     8371     8608 
    8772     8880     8904     8849     8781     8672     8514     8367 
    8181     7966     7969     8426     9201     9683     9385     8603 
    8013     7734     7489     7273     7221     7379     7736     8087 
    8198     8194     8348     8511     8267     7627     7099     7018 
    7163     7198     7133     7168     7472     8056     8689     9136 
    9283     9147     8900     8689     8541     8430     8320     8160 
    7936     7762     7780     7994     8372     8735     8765     8460 
    8073     7626     7133     6810     6718     6752     6847     6872 
    6713     6430     6131     5908     5796     5795     6012     6486 
    7040     7527     7982     8544     9286    10135    10898    11419 
   11728    11932    12023    11996    11951    11986    12233    12734 
   13216    13369    13057    12316    11419    10547     9664     8897 
    8521     8577     8818     8997     9127     9332     9594     9796 
    9738     9262     8662     8449     8590     8706     8765     9039 
    9629    10358    10984    11367    11506    11469    11279    10913 
   10381     9680     8804     7925     7341     7141     7246     7535 
    7839     8129     8527     8961     9188     9154     9059     9034 
    8901     8437     7639     6693     5954     5722     5849     6073 
    6461     7145     8085     9126    10062    10758    11198    11356 
   11217    10957    10793    10743    10662    10366     9840     9286 
    8861     8484     8014     7533     7290     7472     8082     8811 
    9246     9413     9620     9869    10007    10002     9896     9821 
    9903    10122    10397    10724    11028    11153    11099    10999 
   10901    10710    10284     9585     8807     8332     8356     8583 
    8576     8293     7935     7585     7245     6913     6578     6382 
    6492     6829     7345     8118     8986     9660    10062    10220 
   10165     9919     9336     8309     7146     6238     5726     5776 
    6536     7734     8707     8915     8380     7539     6820     6342 
    5913     5544     5606     6273     7292     8266     8892     9220 
    9468     9487     8935     7924     6963     6432     6353     6556 
    7052     8032     9321    10377    10876    10787    10311     9821 
    9439     9067     8772     8669     8795     9148     9528     9601 
    9270     8681     8137     7952     8164     8526     8823     9042 
    9282     9586     9918    10303    10728    11009    10989    10714 
   10346     9967     9436     8645     7805     7168     6781     6540 
    6227     5751     5386     5362     5525     5718     5965     6219 
    6234     5794     5055     4388     3950     3746     3831     4140 
    4607     5422     6559     7543     8074     8279     8461     8837 
    9343     9807    10226    10658    11106    11530    11767    11630 
   11142    10481     9814     9263     8932     8908     9053     9009 
    8695     8356     8183     8216     8293     8064     7480     6867 
    6508     6527     6837     7157     7329     7446     7587     7761 
    8028     8334     8471     8413     8280     8100     7978     8122 
    8532     9050     9514     9763     9903    10200    10562    10752 
   10732    10508    10230    10172    10409    10856    11389    11836 
   12132    12347    12413    12244    12009    11831    11696    11684 
   11711    11462    10836    10137     9759     9780     9953    10048 
   10098    10288    10573    10679    10579    10546    10763    11114 
   11256    10964    10428    10000     9748     9532     9385     9443 
    9679     9948    10044     9882     9732     9849     9906     9427 
    8553     7819     7515     7599     7859     8060     8052     7720 
    6932     5761     4606     3851     3542     3435     3338     3307 
    3477     3844     4230     4525     4880     5343     5649     5643 
    5444     5254     5247     5449     5752     5999     6073     6064 
    6187     6512     7024     7711     8492     9202     9747    10147 
   10430    10714    11115    11453    11533    11587    12013    12897 
   13965    14856    15384    15620    15755    15889    15990    16047 
   16116    16202    16106    15612    14839    14095    13486    12897 
   12159    11178     9976     8614     7226     6030     5167     4648 
    4376     4311     4538     5046     5710     6421     7099     7650 
    7956     7909     7555     7111     6781     6613     6535     6465 
    6477     6767     7383     8176     8943     9544     9996    10312 
   10385    10142     9610     8888     8251     8017     8280     8884 
    9354     9157     8324     7385     6791     6644     6777     7006 
    7354     7890     8432     8779     9049     9364     9594     9595 
    9366     9049     8908     8982     8893     8293     7245     6149 
    5518     5574     6004     6347     6423     6367     6340     6357 
    6416     6655     7236     8094     8996     9694    10049    10231 
   10559    11126    11788    12217    12152    11662    10932    10188 
    9741     9601     9440     9061     8425     7480     6342     5300 
    4514     4055     4051     4465     5047     5586     5999     6262 
    6385     6366     6189     6057     6323     6978     7669     8221 
    8689     9148     9628     9994    10080     9990    10034    10377 
   10836    11060    10879    10405     9906     9585     9397     9196 
    9055     9136     9373     9572     9571     9306     8922     8650 
    8509     8329     8058     7830     7753     7784     7834     7848 
    7863     8044     8422     8762     8891     8920     9111     9657 
   10357    10677    10462    10139    10112    10300    10326    10011 
    9583     9244     8887     8469     8176     8041     7948     7790 
    7476     7190     7184     7353     7564     7815     8071     8424 
    8953     9556    10219    10956    11573    11920    12001    11832 
   11538    11195    10704    10137     9738     9521     9405     9470 
    9729    10056    10436    10871    11210    11377    11454    11485 
   11456    11353    11122    10723    10203     9616     9007     8405 
    7700     6828     6075     5761     5846     6034     5985     5609 
    5219     5175     5547     6219     7044     7884     8664     9274 
    9505     9332     9034     8943     9144     9346     9219     8803 
    8367     8097     8019     8005     7921     7771     7558     7257 
    6947     6817     7095     7755     8410     8788     8957     9036 
    9144     9391     9670     9753     9583     9207     8708     8345 
    8363     8695     9097     9381     9452     9321     9076     8712 
    8071     7086     5968     5074     4747     5154     6189     7635 
    9252    10705    11616    11769    11311    10777    10643    10925 
   11335    11551    11360    10852    10419    10300    10386    10555 
   10766    10906    10917    10812    10619    10462    10409    10368 
   10347    10477    10781    11126    11241    10882    10021     8850 
    7692     6791     6197     5917     6003     6284     6372     6065 
    5452     4770     4201     3693     3172     2789     2741     3051 
    3676     4600     5640     6512     7080     7285     7219     7192 
    7358     7655     8085     8610     9124     9656    10295    10925 
   11333    11448    11190    10399     9227     8116     7312     6820 
    6589     6532     6696     7283     8282     9379    10250    10640 
   10380     9555     8469     7411     6608     6214     6222     6555 
    7182     8004     8819     9509    10038    10336    10423    10419 
   10399    10390    10422    10505    10582    10562    10453    10249 
    9840     9278     8807     8499     8197     7743     7083     6316 
    5684     5368     5422     5778     6249     6728     7238     7854 
    8657     9517    10156    10539    10883    11384    12071    12788 
   13297    13517    13568    13513    13232    12648    11850    11007 
   10308     9999    10212    10793    11421    11853    12001    11858 
   11412    10666     9736     8822     8062     7458     6886     6285 
    5788     5559     5567     5597     5464     5221     5085     5189 
    5521     5962     6351     6683     7086     7488     7689     7735 
    7811     7966     8181     8467     8833     9227     9589     9799 
    9680     9250     8765     8372     8002     7645     7442     7469 
    7642     7842     8009     8058     7859     7395     6771     6096 
    5502     5159     5123     5343     5763     6254     6723     7221 
    7746     8225     8735     9315     9786    10066    10269    10467 
   10744    11155    11500    11619    11708    12052    12706    13510 
   14226    14701    14983    15207    15390    15369    14997    14305 
   13486    12742    12160    11720    11439    11365    11410    11423 
   11330    11111    10770    10351     9917     9478     8995     8456 
    7844     7102     6276     5516     4943     4618     4498     4500 
    4606     4815     4985     4950     4801     4764     4924     5308 
    5872     6370     6678     6963     7371     7821     8149     8311 
    8399     8552     8768     8872     8804     8677     8572     8509 
    8478     8468     8401     8137     7728     7403     7265     7249 
    7211     6994     6637     6369     6301     6357     6436     6492 
    6524     6565     6735     7199     7927     8671     9132     9154 
    8907     8764     8878     9101     9250     9267     9247     9325 
    9543     9894    10331    10681    10779    10690    10623    10706 
   10933    11241    11529    11664    11654    11716    11982    12256 
   12216    11804    11299    10990    10843    10570    10048     9435 
    8914     8595     8530     8642     8818     9035     9277     9482 
    9721    10095    10449    10498    10139     9490     8764     8094 
    7488     6972     6670     6593     6596     6558     6427     6191 
    5899     5647     5547     5614     5753     5836     5817     5850 
    6139     6648     7169     7553     7781     7873     7771     7427 
