Origin Time       2025/01/13 21:19:00
Lat.              31.8
Long.             131.6
Depth. (km)       30
Mag.              6.9
Station Code      OITH08
Station Lat.      32.8392
Station Long.     131.5357
Station Height(m) 260
Record Time       2025/01/13 21:19:51
Sampling Freq(Hz) 100Hz
Duration Time(s)  162
Dir.              6
Scale Factor      7845(gal)/8223790
Max. Acc. (gal)   4.736
Last Correction   2025/01/13 21:19:51
Memo.             
[...]
  -31334   -31058   -30762   -30721   -30932   -31052   -30838   -30531 
  -30466   -30673   -31005   -31216   -31112   -30859   -30724   -30609 
  -30369   -30252   -30377   -30379   -30231   -30358   -30542   -30342 
  -30271   -30850   -31378   -31152   -30758   -30939   -31337   -31290 
  -30956   -30843   -30877   -30653   -30215   -30117   -30728   -31680 
  -32186   -32000   -31723   -31781   -31710   -31225   -30977   -31322 
  -31649   -31457   -30990   -30638   -30485   -30634   -31214   -31716 
  -31472   -30966   -31112   -31571   -31614   -31494   -31425   -30989 
  -30453   -30595   -31125   -31338   -31552   -32034   -32030   -31341 
  -30939   -31220   -31556   -31540   -31148   -30441   -29868   -29793 
  -29890   -29862   -29802   -29705   -29563   -29668   -30184   -30751 
  -30948   -30851   -30747   -30720   -30905   -31317   -31349   -30735 
  -30275   -30392   -30526   -30572   -30927   -31321   -31203   -30670 
  -30447   -31077   -32028   -32279   -31787   -31297   -31121   -31063 
  -31064   -31334   -31806   -31895   -31380   -30946   -31162   -31635 
  -31754   -31475   -30967   -30314   -29781   -29675   -29855   -29972 
  -29909   -29670   -29465   -29754   -30380   -30613   -30426   -30322 
  -30357   -30543   -31056   -31546   -31581   -31483   -31545   -31380 
  -30985   -31083   -31734   -32184   -32233   -32155   -31762   -30997 
  -30562   -30809   -30990   -30651   -30434   -30676   -30983   -31398 
  -31908   -31773   -31133   -31105   -31577   -31568   -31233   -31187 
  -31202   -30978   -30688   -30451   -30375   -30545   -30528   -30015 
  -29577   -29582   -29527   -29196   -29119   -29601   -30391   -31031 
  -31048   -30456   -30078   -30547   -31244   -31317   -31160   -31406 
  -31611   -31402   -31239   -31261   -31140   -31105   -31473   -31760 
  -31502   -31152   -31180   -31118   -30539   -30171   -30605   -30996 
  -30684   -30433   -30657   -30763   -30878   -31571   -32297   -32329 
  -32011   -31874   -31869   -31707   -31201   -30518   -30161   -30262 
  -30450   -30639   -30951   -31140   -31031   -30836   -30699   -30715 
  -31063   -31457   -31371   -31070   -31162   -31414   -31351   -31345 
  -31892   -32460   -32192   -31376   -31033   -31232   -31259   -31024 
  -30781   -30415   -30022   -29952   -30053   -30083   -30312   -30885 
  -31375   -31455   -31221   -30846   -30584   -30748   -31126   -31062 
  -30530   -30269   -30457   -30377   -29883   -29706   -30034   -30248 
  -30014   -29582   -29451   -29882   -30410   -30388   -29936   -29587 
  -29517   -29671   -30157   -30917   -31440   -31371   -31124   -31301 
  -31726   -31768   -31471   -31483   -31865   -31947   -31369   -30547 
  -30113   -30272   -30751   -31163   -31275   -31131   -31082   -31471 
  -32069   -32205   -31708   -31226   -31172   -31182   -31048   -31095 
  -31267   -31059   -30582   -30589   -31190   -31738   -31947   -31873 
  -31430   -30874   -30804   -31176   -31298   -30994   -30646   -30159 
  -29366   -28873   -29187   -29971   -30747   -31278   -31372   -31113 
  -30958   -31112   -31112   -30676   -30384   -30600   -30924   -31279 
  -31870   -32360   -32524   -32503   -32124   -31407   -31059   -31514 
  -32300   -32655   -32317   -31608   -30923   -30474   -30497   -31036 
  -31522   -31361   -30727   -30172   -29992   -30325   -31036   -31567 
  -31522   -31059   -30738   -31033   -31521   -31452   -31193   -31276 
  -31091   -30283   -29667   -29758   -30121   -30372   -30415   -30105 
  -29529   -29209   -29539   -30302   -30978   -31247   -31000   -30384 
  -29970   -30268   -31234   -32417   -33023   -32501   -31506   -31050 
  -31036   -30935   -30958   -31276   -31278   -30696   -30107   -29698 
  -29278   -29336   -30080   -30484   -30055   -29722   -29961   -30315 
  -30784   -31440   -31596   -31008   -30532   -30689   -30920   -30931 
  -31213   -31774   -31874   -31347   -31004   -31303   -31617   -31295 
  -30527   -29855   -29681   -30017   -30248   -29995   -29902   -30281 
  -30325   -29880   -29974   -30690   -31045   -31152   -31604   -31679 
  -31005   -30622   -30723   -30605   -30504   -30808   -31128   -31230 
  -31102   -30740   -30690   -31255   -31668   -31491   -31361   -31330 
  -30665   -29895   -30295   -31274   -31387   -31170   -31754   -32255 
  -31600   -30821   -31153   -32104   -32626   -32421   -31854   -31503 
  -31692   -32263   -32517   -31727   -30492   -30384   -31483   -32337 
  -32455   -32341   -31861   -30861   -30279   -30694   -31158   -31098 
  -31305   -31719   -31233   -30241   -29945   -29857   -29330   -29376 
  -30419   -31089   -30643   -29894   -29710   -30303   -30882   -30096 
  -28359   -27792   -28765   -29558   -29643   -29961   -30562   -30694 
  -30264   -29604   -29161   -29594   -30713   -31442   -31548   -31617 
  -31749   -31834   -32157   -32800   -33119   -32470   -31523   -31665 
  -32705   -33054   -32485   -32235   -32327   -31656   -30624   -30746 
  -31719   -31723   -30662   -30103   -30321   -30508   -30570   -30337 
  -29459   -28645   -28687   -29358   -30137   -30875   -31801   -32752 
  -32900   -32108   -31270   -30973   -31105   -31244   -30832   -29717 
  -28601   -28468   -29234   -29637   -29205   -28899   -29216   -29488 
  -29443   -29789   -30685   -31194   -30892   -30395   -29922   -29398 
  -29666   -31021   -31953   -31654   -31342   -31835   -32483   -32648 
  -32373   -31949   -31654   -31545   -31576   -31727   -31753   -31445 
  -31064   -31025   -31275   -31309   -31014   -30915   -31104   -31024 
  -30586   -30250   -30285   -30657   -30897   -30596   -30321   -30786 
  -31538   -31583   -30731   -30126   -31002   -32686   -33411   -32938 
  -32244   -31706   -31310   -31071   -30670   -30292   -30639   -31070 
  -30319   -29207   -29327   -30063   -30064   -29706   -29953   -30842 
  -31646   -31648   -31128   -30960   -31193   -31465   -31961   -32684 
  -33014   -32622   -31959   -31660   -31770   -31677   -31199   -30923 
  -30905   -30557   -29824   -29204   -29085   -29488   -29783   -29380 
  -29056   -29860   -31114   -31468   -31017   -30861   -31471   -32402 
  -32976   -32964   -32730   -32479   -32016   -31507   -31495   -32016 
  -32300   -31700   -30742   -30557   -31248   -31614   -30850   -29694 
  -29088   -28944   -29016   -29285   -29390   -29319   -29500   -29593 
  -29272   -29189   -29558   -29851   -30022   -30117   -29911   -29667 
  -29713   -29720   -29504   -29577   -30195   -30754   -30711   -30557 
  -31066   -31896   -32135   -31912   -31792   -31595   -31590   -32513 
  -33536   -33382   -32745   -32798   -33118   -32999   -32757   -32687 
  -32452   -32051   -31900   -31900   -31596   -30952   -30346   -30136 
  -30504   -31372   -32016   -31557   -30404   -29899   -30272   -30542 
  -30267   -29821   -29469   -29305   -29519   -30003   -30231   -30055 
  -30060   -30488   -30665   -30316   -30136   -30516   -31043   -31342 
  -31359   -31124   -30927   -31166   -31688   -31761   -31170   -30742 
  -31052   -31606   -31826   -31688   -31356   -31114   -31162   -31135 
  -30555   -29880   -30180   -31333   -31916   -31529   -31288   -31708 
  -32015   -31743   -31525   -31857   -32128   -31715   -31126   -30946 
  -30840   -30527   -30295   -30171   -29995   -30060   -30608   -31321 
  -31704   -31526   -31001   -30654   -30832   -31293   -31388   -30917 
  -30457   -30361   -30204   -29771   -29567   -29899   -30337   -30375 
  -30213   -30422   -30862   -30859   -30381   -30064   -30283   -30793 
  -31234   -31606   -31752   -31233   -30604   -30915   -31635   -31633 
  -31328   -31473   -31657   -31463   -31224   -31178   -31186   -31203 
  -31334   -31502   -31448   -31201   -31253   -31735   -31799   -30896 
  -30029   -30354   -31302   -31506   -30829   -30159   -29856   -29585 
  -29458   -29998   -30828   -31052   -30757   -30539   -30466   -30553 
  -30906   -31133   -30890   -30609   -30661   -30624   -30260   -30110 
  -30415   -30557   -30229   -30106   -30705   -31473   -31739   -31726 
  -31795   -31779   -31693   -31801   -31931   -31804   -31611   -31761 
  -32169   -32082   -31394   -31253   -32146   -32861   -32431   -31496 
  -31132   -31438   -31769   -31803   -31841   -32128   -32489   -32648 
  -32632   -32736   -32915   -32775   -32391   -32231   -32240   -32043 
  -31692   -31361   -30946   -30492   -30457   -31009   -31411   -31039 
  -30688   -31274   -32011   -31823   -31240   -31091   -31059   -30894 
  -31033   -31425   -31588   -31580   -31550   -31210   -30632   -30361 
  -30514   -30831   -31002   -30771   -30431   -30426   -30578   -30584 
  -30420   -30179   -30222   -30636   -30715   -30203   -29956   -30484 
  -31236   -31602   -31558   -31569   -32121   -32810   -32705   -31905 
  -31276   -30962   -30568   -30118   -29998   -30194   -30076   -29448 
  -29263   -30080   -30852   -30704   -30484   -30959   -31191   -30465 
  -29847   -30137   -30524   -30499   -30604   -30767   -30381   -29736 
  -29489   -29587   -29717   -30032   -30713   -31137   -30581   -29490 
  -28753   -28539   -28647   -29058   -29709   -30269   -30411   -30254 
  -30325   -30682   -30798   -30647   -30569   -30388   -30102   -30080 
  -30100   -29832   -29660   -29732   -29605   -29486   -30078   -31055 
  -31486   -31375   -31203   -31125   -31576   -32714   -33494   -33238 
  -32663   -32331   -32042   -31807   -31843   -32044   -32069   -31637 
  -31005   -30904   -31314   -31322   -30732   -30343   -30474   -30753 
  -31139   -31905   -32709   -32811   -32397   -32456   -33142   -33658 
  -33763   -33959   -34187   -33743   -32691   -32120   -32440   -32751 
  -32409   -31733   -31108   -30724   -30906   -31726   -32578   -32764 
  -32400   -32139   -32205   -32254   -31938   -31399   -31190   -31272 
  -30889   -30103   -29898   -30237   -30022   -29104   -28426   -28360 
  -28557   -29026   -29798   -30245   -30153   -30146   -30397   -30500 
  -30370   -30208   -30036   -29767   -29450   -29141   -28686   -28155 
  -28053   -28413   -28561   -28213   -27878   -28101   -28952   -29999 
  -30566   -30478   -30406   -30774   -31005   -30672   -30376   -30601 
  -31016   -31234   -31124   -30742   -30514   -30674   -30777   -30493 
  -30275   -30519   -30773   -30535   -30231   -30389   -30654   -30554 
  -30289   -30234   -30410   -30616   -30750   -30882   -31083   -31324 
  -31575   -31814   -32071   -32447   -32837   -32950   -32780   -32632 
  -32587   -32556   -32609   -32617   -32328   -32088   -32358   -32767 
  -32707   -32270   -31897   -31673   -31554   -31696   -31920   -31683 
  -30974   -30105   -29029   -28108   -28073   -28505   -28333   -27688 
  -27396   -27523   -27652   -27621   -27515   -27614   -27993   -28273 
  -28421   -28929   -29717   -30271   -30597   -30739   -30303   -29421 
  -28815   -28632   -28417   -28055   -27827   -27747   -27750   -28131 
  -29033   -30009   -30654   -31175   -31868   -32571   -32989   -33220 
  -33647   -34326   -34788   -34712   -34263   -33824   -33951   -34794 
  -35424   -35023   -34290   -34211   -34500   -34420   -34017   -33677 
  -33269   -32621   -32154   -32093   -32055   -31988   -32103   -32171 
  -32039   -31926   -31731   -31297   -31055   -31218   -31131   -30547 
  -30323   -30802   -31155   -30998   -30775   -30484   -29964   -29673 
  -29852   -30146   -30426   -30865   -31266   -31252   -31023   -31114 
  -31460   -31552   -31306   -30896   -30273   -29601   -29324   -29403 
  -29393   -29133   -28719   -28229   -27785   -27611   -27718   -27703 
  -27441   -27406   -27580   -27322   -26867   -27162   -28107   -28802 
  -29106   -29459   -29806   -29839   -29722   -29768   -29882   -29932 
  -30164   -30639   -30942   -30991   -31202   -31745   -32286   -32321 
  -31793   -31363   -31387   -31390   -31193   -31229   -31544   -31696 
  -31556   -31376   -31239   -31051   -30913   -30933   -31004   -31074 
  -31187   -31378   -31874   -32732   -33523   -34136   -34697   -34767 
  -34254   -34014   -34318   -34446   -34067   -33493   -32792   -31839 
  -30931   -30476   -30311   -30044   -29716   -29606   -29736   -29933 
  -30132   -30376   -30712   -31129   -31445   -31473   -31500   -32000 
  -32841   -33392   -33372   -33284   -33650   -34130   -34202   -34042 
  -33980   -33948   -33736   -33281   -32895   -32972   -33232   -33060 
  -32575   -32138   -31464   -30585   -30304   -30638   -30573   -29813 
  -29081   -28740   -28389   -27853   -27589   -27820   -28016   -27688 
  -27209   -27252   -27697   -28021   -28217   -28351   -28139   -27695 
  -27642   -28285   -29358   -30303   -30628   -30435   -30219   -30095 
  -29932   -29976   -30465   -30886   -30609   -29918   -29505   -29555 
  -29911   -30280   -30145   -29461   -28912   -28827   -28898   -29076 
  -29428   -29560   -29280   -29050   -29095   -29130   -29311   -30040 
  -30933   -31402   -31734   -32355   -32896   -32994   -32925   -32842 
  -32498   -31889   -31415   -31352   -31509   -31511   -31383   -31511 
  -31919   -32171   -32113   -31962   -31837   -31733   -31797   -32255 
  -32937   -33307   -33227   -33157   -33307   -33274   -32962   -32971 
  -33525   -34033   -34069   -33859   -33555   -33008   -32448   -32410 
  -32775   -32907   -32725   -32501   -32104   -31486   -31072   -31075 
  -31283   -31529   -31680   -31587   -31407   -31438   -31734   -32278 
  -32833   -32761   -31972   -31270   -31099   -31052   -30846   -30663 
  -30516   -30056   -29234   -28641   -28691   -28900   -28760   -28591 
  -28679   -28571   -27985   -27433   -27399   -27589   -27464   -26952 
  -26323   -25948   -26090   -26580   -27016   -27137   -26971   -26975 
  -27487   -27974   -27889   -27677   -27897   -28325   -28533   -28490 
  -28455   -28665   -29060   -29309   -29322   -29535   -30173   -30585 
  -30260   -29791   -29786   -30014   -30202   -30322   -30226   -30038 
  -30122   -30295   -30254   -30238   -30384   -30464   -30549   -30886 
  -31276   -31434   -31492   -31680   -32058   -32557   -32956   -33142 
  -33226   -33187   -32989   -32927   -33160   -33322   -33069   -32532 
  -31978   -31621   -31565   -31607   -31517   -31483   -31650   -31754 
  -31644   -31452   -31167   -30724   -30307   -30214   -30445   -30677 
  -30780   -30962   -31349   -31801   -32158   -32494   -32992   -33508 
  -33721   -33786   -34136   -34622   -34763   -34734   -35035   -35461 
  -35467   -35249   -35353   -35594   -35449   -34965   -34535   -34315 
  -34101   -33728   -33486   -33647   -33835   -33561   -32965   -32478 
  -32248   -32135   -31965   -31729   -31333   -30574   -29760   -29494 
  -29577   -29313   -28711   -28228   -27905   -27621   -27499   -27542 
  -27475   -27249   -27213   -27495   -27795   -28058   -28576   -29316 
  -29978   -30470   -30782   -30866   -30669   -30206   -29886   -30130 
  -30512   -30312   -29691   -29326   -29470   -29833   -29984   -29930 
  -30141   -30892   -32051   -33274   -34101   -34331   -34191   -33991 
  -33905   -33910   -33859   -33694   -33442   -33131   -32938   -32967 
  -33021   -32984   -33006   -33139   -33304   -33432   -33432   -33162 
  -32605   -32026   -31698   -31504   -31180   -30682   -30068   -29419 
  -28934   -28782   -28923   -29181   -29376   -29454   -29369   -28992 
  -28472   -28279   -28493   -28528   -27990   -27291   -26923   -26763 
  -26539   -26433   -26757   -27346   -27729   -27778   -27812   -28089 
  -28657   -29512   -30446   -31158   -31606   -31824   -31719   -31467 
  -31595   -32190   -32610   -32391   -31833   -31334   -30956   -30744 
  -30743   -30736   -30416   -29770   -29131   -28811   -28880   -29209 
  -29380   -29084   -28686   -28571   -28529   -28366   -28244   -28375 
  -28750   -29057   -29019   -28813   -28794   -29122   -29739   -30346 
  -30611   -30670   -30831   -30933   -30805   -30666   -30692   -30840 
  -30997   -30963   -30724   -30538   -30545   -30832   -31419   -31818 
  -31639   -31248   -31059   -31205   -31762   -32476   -32941   -33162 
  -33212   -33007   -32841   -33176   -33828   -34287   -34384   -34188 
  -33909   -33905   -34302   -34792   -34943   -34686   -34396   -34169 
  -33610   -32838   -32597   -33022   -33412   -33193   -32459   -31703 
  -31257   -31118   -31166   -31174   -30850   -30283   -29907   -29845 
  -29857   -29932   -30188   -30393   -30292   -30164   -30339   -30658 
  -31013   -31576   -32054   -31866   -31433   -31781   -32823   -33551 
  -33542   -33123   -32657   -32354   -32344   -32535   -32659   -32665 
  -32607   -32285   -31623   -31043   -30789   -30586   -30318   -30171 
  -30065   -29809   -29629   -29741   -29731   -29195   -28440   -27855 
  -27419   -27201   -27333   -27465   -27232   -26929   -26898   -26889 
  -26673   -26518   -26616   -26712   -26661   -26696   -26947   -27240 
  -27406   -27521   -27803   -28281   -28752   -29166   -29732   -30415 
  -30796   -30688   -30503   -30607   -30778   -30888   -31280   -31899 
  -32189   -32192   -32549   -33320   -33889   -33976   -33917   -34071 
  -34366   -34500   -34450   -34387   -34315   -34164   -33914   -33567 
  -33226   -32975   -32686   -32281   -31824   -31220   -30445   -29820 
  -29500   -29204   -28733   -28270   -27982   -27679   -27167   -26684 
  -26662   -27207   -27996   -28671   -29155   -29493   -29659   -29779 
  -30072   -30454   -30667   -30774   -31010   -31337   -31527   -31553 
  -31531   -31448   -31253   -31183   -31507   -32023   -32316   -32381 
  -32560   -33003   -33508   -33797   -33700   -33280   -32938   -32944 
  -33021   -33006   -33092   -33218   -33241   -33370   -33644   -33654 
  -33119   -32269   -31546   -31137   -30867   -30608   -30566   -30871 
  -31191   -31203   -31151   -31275   -31295   -31172   -31340   -31676 
  -31580   -31044   -30595   -30538   -30847   -31382   -31885   -32215 
  -32613   -33237   -33826   -34218   -34472   -34395   -33781   -32856 
  -31973   -31251   -30684   -30225   -29802   -29295   -28699   -28264 
  -28242   -28699   -29540   -30338   -30604   -30408   -30271   -30480 
  -30835   -31037   -31221   -31569   -31653   -31126   -30524   -30466 
  -30843   -31239   -31448   -31313   -30669   -29766   -29173   -29146 
  -29493   -29766   -29540   -28929   -28440   -28263   -28256   -28293 
  -28252   -28123   -27973   -27724   -27322   -26964   -26879   -27130 
  -27619   -28059   -28111   -27723   -27363   -27573   -28146   -28316 
  -27901   -27410   -27125   -26993   -27075   -27448   -27993   -28498 
  -28773   -28885   -29158   -29743   -30454   -31043   -31406   -31641 
  -31843   -31862   -31538   -31097   -31037   -31544   -32147   -32339 
  -32217   -32144   -32155   -32043   -31861   -31981   -32445   -32776 
  -32725   -32603   -32679   -32806   -32819   -32719   -32479   -32088 
  -31718   -31649   -31947   -32355   -32651   -32876   -33177   -33670 
  -34408   -35208   -35722   -35873   -35775   -35441   -34990   -34578 
  -34075   -33405   -32856   -32571   -32277   -31828   -31473   -31268 
  -30939   -30550   -30366   -30246   -30168   -30429   -30712   -30511 
  -30242   -30400   -30619   -30564   -30453   -30462   -30501   -30454 
  -30307   -30208   -30291   -30473   -30585   -30576   -30605   -30761 
  -30836   -30744   -30670   -30721   -30846   -30966   -31105   -31387 
  -31774   -32128   -32508   -32908   -33130   -33193   -33250   -33345 
  -33562   -33863   -34005   -33866   -33504   -33022   -32547   -32242 
  -32197   -32143   -31564   -30508   -29592   -28966   -28345   -27837 
