Origin Time       2025/01/13 21:19:00
Lat.              31.8
Long.             131.6
Depth. (km)       30
Mag.              6.9
Station Code      OITH07
Station Lat.      32.9870
Station Long.     131.5881
Station Height(m) 59
Record Time       2025/01/13 21:19:53
Sampling Freq(Hz) 100Hz
Duration Time(s)  181
Dir.              2
Scale Factor      3923(gal)/8224838
Max. Acc. (gal)   9.953
Last Correction   2025/01/13 21:19:53
Memo.             
[...]
   -3789    -3971    -4106    -4126    -4070    -3979    -3897    -3852 
   -3840    -3866    -3942    -4031    -4114    -4210    -4297    -4337 
   -4338    -4321    -4287    -4259    -4266    -4275    -4221    -4112 
   -4018    -3959    -3916    -3890    -3866    -3805    -3721    -3667 
   -3646    -3619    -3582    -3562    -3568    -3600    -3673    -3796 
   -3947    -4097    -4229    -4314    -4337    -4317    -4236    -4089 
   -3951    -3875    -3847    -3854    -3875    -3862    -3816    -3771 
   -3734    -3742    -3855    -4037    -4205    -4360    -4503    -4587 
   -4598    -4572    -4511    -4413    -4318    -4252    -4187    -4118 
   -4051    -3955    -3846    -3792    -3801    -3808    -3780    -3759 
   -3784    -3842    -3901    -3944    -3960    -3927    -3839    -3744 
   -3690    -3681    -3703    -3746    -3786    -3815    -3820    -3781 
   -3707    -3603    -3453    -3285    -3172    -3126    -3121    -3172 
   -3276    -3362    -3410    -3478    -3586    -3703    -3828    -3985 
   -4164    -4342    -4491    -4554    -4482    -4268    -3942    -3588 
   -3356    -3330    -3493    -3790    -4147    -4463    -4676    -4784 
   -4772    -4634    -4445    -4290    -4170    -4079    -4031    -3989 
   -3908    -3794    -3681    -3619    -3651    -3755    -3854    -3906 
   -3939    -3971    -3990    -4004    -4039    -4077    -4079    -4072 
   -4077    -4044    -3952    -3862    -3812    -3792    -3794    -3800 
   -3753    -3638    -3520    -3465    -3495    -3626    -3821    -3994 
   -4094    -4132    -4126    -4129    -4168    -4197    -4179    -4117 
   -4013    -3902    -3873    -3927    -3964    -3964    -4004    -4101 
   -4193    -4220    -4174    -4058    -3870    -3662    -3558    -3647 
   -3923    -4278    -4558    -4668    -4607    -4421    -4149    -3862 
   -3640    -3520    -3485    -3531    -3647    -3792    -3888    -3885 
   -3797    -3666    -3566    -3600    -3796    -4056    -4271    -4391 
   -4406    -4344    -4247    -4126    -3996    -3898    -3874    -3927 
   -4041    -4162    -4234    -4249    -4207    -4122    -4036    -3979 
   -3946    -3939    -3969    -3991    -3971    -3959    -4006    -4064 
   -4075    -4064    -4063    -4063    -4070    -4087    -4077    -4025 
   -3977    -3913    -3785    -3632    -3534    -3484    -3443    -3426 
   -3431    -3404    -3342    -3311    -3338    -3395    -3466    -3565 
   -3707    -3890    -4068    -4189    -4236    -4201    -4051    -3789 
   -3500    -3296    -3192    -3118    -3046    -2997    -2999    -3059 
   -3165    -3291    -3407    -3484    -3515    -3554    -3689    -3942 
   -4221    -4455    -4623    -4706    -4693    -4619    -4509    -4363 
   -4218    -4137    -4139    -4202    -4267    -4251    -4137    -3987 
   -3862    -3790    -3794    -3878    -4002    -4121    -4198    -4202 
   -4113    -3967    -3855    -3835    -3913    -4070    -4252    -4402 
   -4473    -4433    -4271    -4051    -3886    -3846    -3877    -3915 
   -3974    -4070    -4155    -4197    -4247    -4332    -4391    -4403 
   -4417    -4422    -4365    -4236    -4050    -3809    -3559    -3377 
   -3276    -3223    -3215    -3234    -3230    -3187    -3115    -3028 
   -2994    -3130    -3397    -3645    -3862    -4082    -4214    -4220 
   -4168    -4082    -3983    -3951    -3997    -4086    -4186    -4251 
   -4264    -4266    -4241    -4168    -4098    -4036    -3906    -3721 
   -3557    -3422    -3307    -3237    -3248    -3341    -3430    -3426 
   -3346    -3273    -3287    -3419    -3636    -3909    -4212    -4449 
   -4534    -4475    -4322    -4116    -3898    -3716    -3630    -3703 
   -3893    -4079    -4217    -4284    -4209    -4014    -3865    -3850 
   -3927    -4062    -4226    -4337    -4351    -4326    -4315    -4315 
   -4332    -4382    -4459    -4549    -4623    -4630    -4575    -4491 
   -4355    -4164    -4000    -3873    -3739    -3657    -3659    -3666 
   -3639    -3595    -3528    -3495    -3603    -3836    -4066    -4209 
   -4217    -4033    -3709    -3433    -3307    -3302    -3411    -3613 
   -3796    -3870    -3856    -3777    -3636    -3532    -3577    -3740 
   -3944    -4124    -4206    -4160    -4044    -3928    -3821    -3742 
   -3748    -3850    -3952    -3943    -3817    -3663    -3511    -3348 
   -3235    -3233    -3326    -3504    -3751    -3982    -4099    -4087 
   -4020    -3997    -4070    -4189    -4284    -4374    -4477    -4568 
   -4637    -4698    -4699    -4573    -4314    -4009    -3801    -3738 
   -3747    -3765    -3797    -3842    -3877    -3931    -4045    -4199 
   -4329    -4396    -4392    -4307    -4155    -4021    -4001    -4104 
   -4275    -4448    -4533    -4504    -4426    -4329    -4162    -3951 
   -3832    -3855    -3933    -3986    -3973    -3869    -3696    -3524 
   -3441    -3497    -3670    -3879    -4081    -4266    -4363    -4291 
   -4081    -3831    -3611    -3466    -3439    -3476    -3477    -3420 
   -3345    -3306    -3356    -3481    -3607    -3703    -3828    -4010 
   -4162    -4179    -4058    -3855    -3597    -3300    -3042    -2922 
   -2992    -3241    -3588    -3924    -4135    -4149    -4006    -3821 
   -3682    -3626    -3682    -3851    -4043    -4143    -4104    -3955 
   -3765    -3599    -3497    -3510    -3653    -3827    -3908    -3883 
   -3790    -3632    -3453    -3345    -3361    -3495    -3724    -3996 
   -4212    -4279    -4172    -3942    -3711    -3619    -3689    -3844 
   -4045    -4291    -4504    -4568    -4455    -4240    -4017    -3856 
   -3829    -3943    -4095    -4209    -4275    -4241    -4082    -3917 
   -3823    -3754    -3721    -3807    -3987    -4203    -4414    -4521 
   -4484    -4394    -4279    -4118    -4008    -3997    -4004    -4027 
   -4112    -4182    -4178    -4148    -4066    -3900    -3738    -3615 
   -3468    -3315    -3219    -3167    -3145    -3179    -3244    -3254 
   -3188    -3140    -3187    -3312    -3492    -3716    -3943    -4143 
   -4295    -4337    -4272    -4210    -4203    -4237    -4324    -4437 
   -4475    -4415    -4317    -4209    -4114    -4071    -4074    -4090 
   -4102    -4120    -4132    -4087    -4012    -3977    -3956    -3898 
   -3883    -4010    -4237    -4457    -4615    -4689    -4675    -4590 
   -4440    -4203    -3929    -3715    -3589    -3565    -3647    -3755 
   -3809    -3801    -3709    -3551    -3437    -3404    -3443    -3597 
   -3874    -4164    -4361    -4432    -4394    -4291    -4156    -4001 
   -3846    -3708    -3616    -3597    -3624    -3667    -3734    -3780 
   -3750    -3708    -3754    -3877    -4017    -4168    -4305    -4374 
   -4406    -4450    -4436    -4293    -4083    -3912    -3828    -3861 
   -3993    -4121    -4179    -4260    -4407    -4523    -4607    -4719 
   -4795    -4770    -4683    -4550    -4409    -4303    -4206    -4101 
   -4031    -4004    -4017    -4077    -4105    -4020    -3842    -3605 
   -3339    -3141    -3092    -3161    -3287    -3446    -3612    -3719 
   -3732    -3681    -3608    -3535    -3476    -3473    -3578    -3796 
   -4047    -4241    -4332    -4301    -4164    -3983    -3825    -3708 
   -3646    -3669    -3769    -3919    -4068    -4147    -4151    -4164 
   -4232    -4367    -4603    -4884    -5030    -4955    -4719    -4376 
   -3997    -3703    -3535    -3474    -3538    -3728    -3970    -4116 
   -4040    -3793    -3549    -3418    -3465    -3704    -3973    -4091 
   -4094    -4077    -4043    -4004    -4017    -4082    -4174    -4259 
   -4240    -4044    -3755    -3484    -3240    -3019    -2895    -2899 
   -2980    -3102    -3231    -3306    -3318    -3338    -3419    -3527 
   -3596    -3613    -3597    -3568    -3576    -3666    -3816    -3967 
   -4081    -4162    -4212    -4199    -4168    -4210    -4330    -4503 
   -4760    -5035    -5135    -4970    -4629    -4207    -3817    -3554 
   -3442    -3478    -3623    -3762    -3785    -3612    -3241    -2835 
   -2551    -2412    -2440    -2724    -3207    -3649    -3838    -3739 
   -3458    -3175    -3006    -2955    -3005    -3181    -3487    -3800 
   -3963    -3939    -3807    -3674    -3631    -3713    -3904    -4156 
   -4395    -4531    -4545    -4484    -4394    -4297    -4203    -4078 
   -3910    -3774    -3708    -3681    -3665    -3639    -3599    -3608 
   -3763    -4040    -4338    -4607    -4827    -4989    -5098    -5173 
   -5205    -5157    -4999    -4789    -4614    -4514    -4500    -4548 
   -4590    -4561    -4464    -4333    -4190    -4050    -3931    -3840 
   -3742    -3591    -3383    -3126    -2851    -2644    -2555    -2536 
   -2536    -2598    -2786    -3099    -3449    -3716    -3859    -3917 
   -3896    -3797    -3716    -3719    -3755    -3788    -3796    -3732 
   -3605    -3528    -3561    -3626    -3661    -3721    -3866    -4062 
   -4264    -4459    -4588    -4623    -4614    -4588    -4530    -4444 
   -4349    -4260    -4213    -4220    -4276    -4378    -4465    -4468 
   -4417    -4371    -4332    -4324    -4369    -4407    -4390    -4365 
   -4363    -4329    -4232    -4097    -3962    -3861    -3817    -3807 
   -3763    -3686    -3615    -3538    -3451    -3410    -3435    -3518 
   -3639    -3726    -3708    -3634    -3550    -3422    -3269    -3156 
   -3079    -3021    -3002    -3034    -3111    -3219    -3294    -3284 
   -3277    -3366    -3504    -3628    -3767    -3902    -3985    -4035 
   -4067    -4028    -3924    -3846    -3831    -3846    -3863    -3851 
   -3770    -3643    -3515    -3377    -3257    -3262    -3408    -3603 
   -3831    -4110    -4363    -4538    -4653    -4631    -4423    -4199 
   -4106    -4075    -4029    -3954    -3802    -3586    -3379    -3171 
   -2963    -2851    -2852    -2886    -2944    -3028    -3030    -2895 
   -2716    -2563    -2416    -2324    -2390    -2606    -2874    -3073 
   -3102    -2994    -2875    -2764    -2635    -2579    -2694    -2934 
   -3188    -3369    -3449    -3457    -3426    -3357    -3231    -3060 
   -2891    -2778    -2747    -2805    -2909    -2941    -2830    -2616 
   -2335    -2047    -1892    -1910    -1981    -2045    -2139    -2251 
   -2346    -2482    -2700    -2938    -3165    -3384    -3516    -3476 
   -3300    -3069    -2797    -2512    -2288    -2161    -2177    -2380 
   -2691    -2992    -3235    -3441    -3661    -3955    -4334    -4754 
   -5179    -5553    -5788    -5863    -5852    -5813    -5729    -5595 
   -5420    -5200    -5003    -4932    -5027    -5240    -5505    -5778 
   -6026    -6237    -6413    -6571    -6700    -6771    -6764    -6650 
   -6440    -6266    -6239    -6307    -6386    -6471    -6562    -6651 
   -6748    -6866    -7041    -7325    -7693    -8056    -8345    -8533 
   -8606    -8545    -8348    -8058    -7753    -7524    -7431    -7511 
   -7766    -8097    -8332    -8390    -8284    -8041    -7739    -7493 
   -7338    -7217    -7121    -7068    -6972    -6717    -6269    -5617 
   -4793    -3933    -3208    -2722    -2490    -2475    -2610    -2801 
   -2963    -3030    -2998    -2955    -2987    -3105    -3319    -3646 
   -4008    -4298    -4469    -4506    -4417    -4241    -4002    -3755 
   -3584    -3480    -3370    -3191    -2855    -2313    -1630     -900 
    -199      373      731      904     1000     1051     1021      928 
     830      751      700      634      476      248       39     -102 
    -110       76      368      631      859     1016      977      745 
     484      297      141      -55     -318     -622     -946    -1317 
   -1768    -2262    -2706    -3036    -3198    -3199    -3169    -3187 
   -3235    -3411    -3792    -4248    -4656    -4996    -5215    -5356 
   -5566    -5821    -6054    -6318    -6579    -6747    -6844    -6875 
   -6774    -6594    -6469    -6463    -6617    -6898    -7214    -7514 
   -7776    -7944    -7969    -7896    -7855    -7889    -7938    -7989 
   -8028    -7986    -7801    -7464    -6988    -6494    -6189    -6196 
   -6489    -7001    -7642    -8294    -8869    -9309    -9552    -9552 
   -9317    -8946    -8554    -8182    -7803    -7360    -6781    -6068 
   -5317    -4629    -4054    -3624    -3310    -3025    -2774    -2614 
   -2519    -2424    -2312    -2181    -2022    -1803    -1506    -1192 
    -891     -558     -220       86      392      692      912     1030 
    1047      984      931     1000     1210     1516     1877     2255 
    2609     2913     3142     3275     3335     3365     3335     3194 
    2911     2452     1786      954       78     -700    -1277    -1660 
   -1914    -2092    -2242    -2373    -2439    -2420    -2343    -2223 
   -2053    -1842    -1595    -1341    -1139     -996     -877     -787 
    -738     -753     -878    -1128    -1485    -1980    -2621    -3339 
   -4028    -4575    -4938    -5124    -5163    -5135    -5086    -5026 
   -4962    -4860    -4731    -4699    -4834    -5143    -5613    -6164 
   -6747    -7396    -8131    -8881    -9586   -10228   -10767   -11160 
  -11442   -11668   -11797   -11767   -11635   -11534   -11526   -11605 
  -11767   -11997   -12275   -12567   -12830   -13095   -13431   -13851 
  -14335   -14848   -15321   -15643   -15719   -15525   -15133   -14636 
  -14138   -13733   -13420   -13077   -12598   -11963   -11151   -10093 
   -8765    -7227    -5625    -4122    -2818    -1753     -951     -405 
      -6      375      785     1185     1522     1803     2068     2293 
    2469     2674     2980     3449     4164     5117     6199     7384 
    8703    10103    11508    12866    14114    15202    16085    16679 
   16945    16951    16744    16310    15695    14962    14103    13066 
   11874    10655     9508     8422     7429     6663     6116     5691 
    5416     5287     5229     5103     4734     4186     3466     2398 
    1120     -218    -1694    -3106    -4244    -5239    -6126    -6825 
   -7446    -8113    -8827    -9552   -10227   -10793   -11241   -11534 
  -11672   -11778   -11986   -12375   -12969   -13694   -14440   -15134 
  -15716   -16152   -16432   -16537   -16482   -16386   -16341   -16321 
  -16308   -16291   -16206   -16035   -15793   -15430   -14936   -14358 
  -13717   -13063   -12488   -12020   -11616   -11241   -10837   -10297 
   -9580    -8787    -8020    -7306    -6701    -6284    -6035    -5907 
   -5902    -5971    -5999    -5942    -5850    -5765    -5714    -5724 
   -5803    -5904    -5914    -5745    -5366    -4745    -3854    -2720 
   -1398       60     1587     3110     4567     5890     7030     7944 
    8567     8830     8733     8320     7614     6666     5637     4671 
    3766     2974     2386     1854     1185      452     -272    -1042 
   -1741    -2226    -2543    -2718    -2733    -2714    -2808    -3033 
   -3420    -3997    -4698    -5447    -6210    -6940    -7585    -8128 
   -8572    -8926    -9273    -9756   -10359   -11021   -11759   -12510 
  -13208   -13860   -14399   -14832   -15261   -15662   -15974   -16247 
  -16498   -16642   -16605   -16366   -15961   -15492   -15074   -14731 
  -14423   -14087   -13643   -13022   -12197   -11163    -9925    -8527 
   -7110    -5821    -4718    -3854    -3265    -2852    -2467    -2095 
   -1769    -1501    -1325    -1246    -1175    -1066     -955     -851 
    -769     -715     -646     -534     -375     -207     -102      -51 
     -40      -71      -56       74      322      742     1339     2029 
    2806     3672     4491     5123     5549     5771     5728     5440 
    5024     4495     3846     3195     2635     2160     1782     1483 
    1228     1036      905      785      672      585      514      496 
     546      573      494      290      -32     -490    -1115    -1850 
   -2567    -3221    -3828    -4426    -5071    -5757    -6435    -7107 
   -7758    -8326    -8800    -9204    -9555    -9852   -10102   -10326 
  -10531   -10750   -11014   -11264   -11419   -11460   -11387   -11210 
  -10947   -10621   -10285    -9958    -9653    -9385    -9077    -8654 
   -8172    -7708    -7264    -6858    -6520    -6258    -6050    -5884 
   -5756    -5624    -5455    -5228    -4870    -4341    -3659    -2859 
   -1991    -1107     -253      494     1077     1471     1710     1872 
    1969     1984     1966     1956     1942     1961     2042     2100 
    2062     1995     1921     1790     1665     1621     1602     1564 
    1529     1501     1464     1389     1242     1016      733      450 
     243      112        1     -163     -421     -710    -1024    -1431 
   -1872    -2241    -2544    -2814    -3037    -3244    -3545    -4025 
   -4704    -5574    -6593    -7672    -8702    -9594   -10296   -10798 
  -11145   -11364   -11477   -11553   -11622   -11627   -11553   -11433 
  -11250   -10974   -10593   -10120    -9560    -8895    -8175    -7480 
   -6809    -6145    -5498    -4872    -4278    -3723    -3215    -2817 
   -2556    -2388    -2290    -2324    -2536    -2870    -3198    -3404 
   -3474    -3456    -3362    -3221    -3084    -2965    -2870    -2816 
   -2743    -2609    -2465    -2319    -2143    -1929    -1617    -1142 
    -517      191      920     1626     2281     2866     3356     3730 
    3985     4105     4054     3773     3208     2416     1517      544 
    -514    -1628    -2758    -3835    -4765    -5487    -6002    -6332 
   -6477    -6447    -6313    -6164    -6075    -6120    -6342    -6697 
   -7115    -7564    -7993    -8329    -8553    -8741    -8996    -9360 
   -9813   -10304   -10778   -11217   -11615   -11924   -12156   -12382 
  -12641   -12949   -13290   -13625   -13914   -14146   -14318   -14378 
  -14250   -13948   -13524   -12982   -12322   -11546   -10619    -9510 
   -8297    -7114    -6042    -5101    -4284    -3547    -2833    -2126 
   -1443     -814     -276      166      534      783      858      832 
     819      843      904     1015     1147     1267     1371     1436 
    1456     1440     1375     1260     1120      939      675      353 
      51     -216     -468     -699     -889    -1039    -1171    -1277 
   -1343    -1387    -1397    -1302    -1109     -891     -688     -530 
    -414     -297     -174      -87     -122     -313     -583     -874 
   -1174    -1394    -1437    -1281     -967     -583     -244      -37 
      39      -37     -307     -692    -1073    -1394    -1636    -1813 
   -1927    -1998    -2104    -2307    -2605    -2999    -3492    -4029 
   -4527    -4953    -5308    -5583    -5786    -5903    -5908    -5867 
   -5846    -5837    -5837    -5856    -5873    -5837    -5702    -5460 
   -5155    -4819    -4461    -4089    -3701    -3314    -2988    -2727 
   -2432    -2049    -1629    -1236     -945     -855    -1024    -1444 
   -2037    -2671    -3233    -3655    -3932    -4078    -4063    -3856 
   -3510    -3111    -2705    -2315    -1971    -1638    -1262     -834 
    -396      -14      256      386      319        2     -529    -1206 
   -2029    -2974    -3906    -4716    -5418    -6010    -6423    -6654 
   -6759    -6732    -6520    -6137    -5589    -4850    -4014    -3271 
   -2689    -2265    -2058    -2060    -2124    -2177    -2241    -2322 
   -2444    -2689    -3055    -3473    -3951    -4467    -4864    -5061 
   -5157    -5217    -5235    -5296    -5543    -5988    -6585    -7337 
   -8237    -9221   -10204   -11101   -11838   -12370   -12673   -12761 
  -12684   -12440   -11956   -11209   -10257    -9167    -7979    -6735 
   -5517    -4446    -3634    -3129    -2910    -2874    -2918    -2997 
