Origin Time       2025/01/13 21:19:00
Lat.              31.8
Long.             131.6
Depth. (km)       30
Mag.              6.9
Station Code      OKYH09
Station Lat.      35.1809
Station Long.     133.6765
Station Height(m) 405
Record Time       2025/01/13 21:21:29
Sampling Freq(Hz) 100Hz
Duration Time(s)  120
Dir.              6
Scale Factor      7845(gal)/8223790
Max. Acc. (gal)   0.480
Last Correction   2025/01/13 21:21:30
Memo.             
[...]
   33809    33821    33831    33826    33816    33814    33828    33841 
   33847    33843    33837    33835    33841    33860    33868    33863 
   33862    33868    33875    33875    33876    33893    33909    33914 
   33929    33959    33984    33986    33970    33957    33948    33943 
   33940    33937    33937    33945    33949    33947    33952    33959 
   33945    33922    33909    33909    33914    33916    33918    33921 
   33909    33887    33880    33890    33885    33858    33840    33839 
   33821    33781    33748    33736    33728    33717    33716    33736 
   33759    33768    33774    33779    33778    33772    33774    33785 
   33791    33787    33782    33781    33772    33760    33764    33793 
   33820    33826    33829    33835    33843    33851    33851    33839 
   33826    33818    33822    33843    33860    33856    33848    33852 
   33867    33886    33902    33902    33895    33895    33894    33891 
   33893    33891    33895    33914    33936    33944    33941    33936 
   33936    33941    33940    33925    33918    33918    33910    33910 
   33916    33905    33886    33878    33876    33876    33878    33871 
   33862    33862    33859    33840    33817    33809    33825    33852 
   33871    33883    33895    33905    33912    33913    33903    33893 
   33887    33891    33907    33922    33933    33943    33944    33934 
   33925    33928    33936    33930    33912    33903    33905    33902 
   33893    33886    33885    33883    33886    33891    33887    33864 
   33844    33837    33839    33840    33843    33847    33852    33851 
   33833    33816    33810    33812    33812    33814    33820    33825 
   33831    33831    33825    33817    33814    33821    33824    33821 
   33829    33843    33845    33835    33817    33805    33809    33817 
   33825    33833    33840    33840    33839    33836    33835    33835 
   33840    33837    33829    33828    33832    33832    33824    33813 
   33805    33805    33802    33799    33812    33836    33856    33868 
   33874    33864    33845    33832    33829    33836    33843    33847 
   33858    33866    33851    33831    33832    33837    33832    33826 
   33839    33863    33878    33874    33871    33882    33889    33886 
   33886    33901    33920    33930    33933    33928    33917    33912 
   33906    33906    33917    33926    33925    33913    33893    33876 
   33862    33845    33840    33847    33847    33839    33835    33831 
   33829    33833    33833    33833    33839    33835    33826    33816 
   33804    33798    33799    33801    33798    33793    33783    33772 
   33772    33789    33802    33802    33806    33810    33804    33799 
   33810    33837    33859    33866    33871    33883    33893    33895 
   33897    33901    33905    33909    33914    33921    33924    33925 
   33929    33932    33928    33918    33909    33902    33902    33906 
   33917    33928    33924    33912    33905    33909    33910    33910 
   33909    33906    33907    33913    33912    33897    33867    33835 
   33817    33816    33818    33822    33825    33824    33822    33817 
   33804    33781    33759    33744    33732    33723    33716    33712 
   33709    33706    33702    33693    33685    33685    33693    33706 
   33718    33727    33736    33741    33740    33741    33744    33748 
   33755    33758    33759    33771    33783    33793    33801    33802 
   33801    33802    33808    33816    33835    33853    33851    33833 
   33817    33808    33806    33813    33829    33847    33856    33858 
   33851    33835    33825    33822    33822    33825    33828    33822 
   33822    33828    33831    33826    33821    33821    33829    33837 
   33839    33841    33853    33862    33860    33863    33866    33864 
   33870    33883    33898    33907    33912    33918    33932    33945 
   33953    33955    33951    33949    33952    33953    33963    33975 
   33979    33976    33979    33982    33975    33960    33949    33945 
   33939    33925    33912    33910    33909    33897    33885    33882 
   33871    33849    33833    33829    33822    33808    33794    33783 
   33768    33748    33733    33732    33736    33739    33740    33740 
   33736    33725    33716    33716    33721    33723    33727    33733 
   33731    33724    33729    33737    33735    33729    33732    33752 
   33775    33782    33781    33779    33777    33782    33799    33812 
   33814    33814    33822    33831    33832    33832    33839    33851 
   33858    33862    33870    33876    33879    33882    33889    33891 
   33890    33894    33907    33913    33909    33903    33905    33907 
   33903    33903    33907    33906    33899    33897    33897    33894 
   33886    33875    33868    33856    33839    33832    33837    33831 
   33812    33804    33810    33814    33812    33813    33824    33832 
   33832    33836    33841    33837    33828    33825    33831    33835 
   33837    33836    33824    33816    33810    33805    33806    33809 
   33804    33802    33808    33810    33810    33817    33822    33822 
   33822    33828    33843    33855    33855    33853    33863    33876 
   33889    33901    33910    33912    33918    33930    33933    33925 
   33918    33921    33930    33937    33934    33934    33936    33933 
   33925    33918    33914    33910    33907    33905    33899    33898 
   33895    33885    33870    33856    33851    33851    33848    33840 
   33835    33833    33826    33812    33798    33789    33793    33809 
   33824    33833    33840    33841    33843    33849    33859    33868 
   33871    33871    33871    33871    33874    33878    33879    33885 
   33899    33913    33918    33926    33941    33959    33972    33984 
   33995    34001    34007    34015    34022    34033    34040    34038 
   34038    34038    34037    34038    34037    34022    34001    33986 
   33980    33972    33961    33957    33953    33943    33929    33916 
   33898    33878    33863    33855    33851    33844    33837    33836 
   33833    33821    33816    33817    33820    33829    33841    33844 
   33839    33828    33818    33816    33820    33828    33837    33845 
   33856    33871    33875    33870    33871    33879    33889    33898 
   33905    33909    33910    33909    33910    33916    33912    33906 
   33903    33899    33895    33894    33895    33894    33886    33872 
   33860    33852    33843    33839    33841    33847    33849    33844 
   33832    33826    33826    33829    33833    33839    33835    33822 
   33812    33808    33801    33794    33799    33816    33826    33826 
   33828    33832    33835    33835    33837    33848    33859    33864 
   33866    33864    33864    33867    33866    33868    33870    33862 
   33858    33866    33864    33851    33837    33826    33821    33818 
   33810    33798    33797    33798    33790    33782    33778    33764 
   33747    33739    33736    33728    33713    33706    33709    33700 
   33683    33679    33689    33698    33704    33720    33741    33758 
   33767    33775    33779    33791    33809    33825    33840    33852 
   33864    33878    33886    33886    33885    33893    33907    33918 
   33922    33926    33937    33948    33948    33943    33937    33943 
   33949    33952    33957    33960    33948    33936    33924    33907 
   33895    33885    33872    33867    33862    33855    33849    33844 
   33835    33828    33822    33818    33822    33828    33825    33821 
   33814    33802    33794    33789    33783    33783    33783    33781 
   33781    33778    33763    33747    33737    33729    33720    33714 
   33712    33706    33698    33687    33683    33683    33683    33689 
   33698    33714    33728    33739    33751    33763    33775    33786 
   33791    33795    33808    33825    33835    33841    33855    33867 
   33868    33863    33866    33874    33879    33883    33893    33897 
   33883    33872    33880    33883    33879    33880    33885    33893 
   33897    33894    33897    33902    33902    33899    33897    33897 
   33898    33909    33921    33924    33917    33914    33924    33930 
   33930    33933    33944    33959    33971    33980    33988    33991 
   33988    33994    34001    34006    34009    34014    34029    34047 
   34049    34044    34038    34028    34017    34013    34010    34007 
   34007    34003    33998    33991    33974    33951    33934    33922 
   33914    33912    33905    33890    33875    33862    33849    33847 
   33853    33862    33874    33885    33891    33902    33903    33893 
   33889    33887    33887    33894    33897    33890    33885    33872 
   33858    33849    33840    33839    33841    33839    33839    33839 
   33828    33818    33812    33802    33795    33789    33778    33775 
   33778    33767    33755    33750    33741    33736    33740    33745 
   33741    33737    33737    33741    33740    33739    33747    33752 
   33756    33766    33775    33785    33795    33808    33820    33829 
   33836    33845    33852    33852    33860    33875    33885    33889 
   33890    33886    33880    33874    33866    33859    33852    33849 
   33862    33876    33879    33878    33879    33876    33871    33867 
   33871    33875    33878    33882    33890    33890    33882    33872 
   33871    33871    33866    33863    33874    33883    33882    33876 
   33871    33863    33855    33849    33845    33845    33844    33841 
   33835    33824    33816    33816    33818    33814    33809    33810 
   33817    33814    33802    33791    33781    33768    33758    33748 
   33745    33748    33751    33760    33772    33781    33790    33806 
   33820    33828    33840    33855    33872    33893    33901    33903 
   33916    33922    33921    33928    33937    33939    33930    33918 
   33914    33918    33913    33906    33907    33907    33906    33902 
   33898    33899    33901    33897    33897    33901    33903    33909 
   33916    33921    33928    33929    33924    33922    33930    33937 
   33939    33939    33936    33929    33925    33920    33910    33907 
   33907    33902    33899    33897    33880    33866    33862    33856 
   33851    33847    33841    33841    33848    33851    33851    33853 
   33863    33879    33898    33916    33932    33944    33953    33970 
   33990    34005    34020    34037    34055    34064    34065    34063 
   34060    34061    34059    34045    34025    34007    33990    33972 
   33953    33932    33914    33897    33872    33847    33828    33809 
   33785    33762    33750    33743    33733    33718    33702    33687 
   33674    33663    33651    33642    33635    33629    33625    33628 
   33631    33631    33631    33629    33632    33633    33635    33640 
   33639    33632    33635    33639    33639    33637    33636    33636 
   33642    33648    33648    33647    33655    33669    33681    33694 
   33709    33720    33741    33772    33794    33805    33817    33832 
   33841    33849    33864    33887    33920    33951    33972    33987 
   34002    34011    34018    34028    34036    34040    34048    34061 
   34065    34061    34055    34048    34041    34028    34015    34006 
   33994    33976    33966    33959    33945    33934    33932    33924 
   33916    33913    33907    33895    33882    33867    33856    33843 
   33829    33821    33814    33806    33798    33791    33781    33764 
   33747    33735    33729    33721    33709    33701    33696    33689 
   33683    33677    33669    33663    33666    33675    33685    33697 
   33710    33725    33739    33748    33752    33764    33783    33804 
   33824    33844    33863    33880    33897    33912    33928    33949 
   33972    33988    33998    34006    34013    34014    34010    34005 
   34006    34007    34003    33999    33991    33982    33976    33964 
   33945    33928    33914    33907    33903    33897    33882    33867 
   33858    33848    33835    33821    33810    33804    33799    33795 
   33789    33787    33786    33785    33790    33798    33802    33804 
   33808    33809    33812    33820    33829    33833    33832    33831 
   33833    33839    33845    33858    33872    33887    33890    33890 
   33893    33891    33885    33875    33867    33862    33859    33852 
   33847    33851    33858    33860    33863    33862    33851    33839 
   33833    33826    33817    33810    33805    33795    33785    33768 
   33747    33729    33713    33693    33674    33659    33647    33635 
   33623    33612    33605    33602    33601    33602    33605    33615 
   33627    33632    33640    33658    33674    33690    33709    33724 
   33741    33770    33798    33826    33859    33890    33914    33929 
   33944    33967    33987    33991    33995    34009    34020    34020 
   34017    34015    34014    34014    34014    34015    34015    34010 
   34005    34005    33997    33983    33971    33972    33979    33976 
   33963    33952    33949    33944    33932    33918    33907    33897 
   33887    33876    33855    33832    33816    33799    33781    33760 
   33736    33716    33701    33682    33655    33632    33617    33606 
   33588    33571    33566    33562    33561    33566    33571    33575 
   33586    33604    33625    33647    33673    33705    33739    33774 
   33812    33851    33889    33924    33957    33997    34034    34074 
   34115    34153    34183    34206    34233    34263    34284    34296 
   34308    34319    34333    34345    34352    34354    34356    34356 
   34357    34357    34348    34335    34326    34315    34300    34284 
   34263    34241    34219    34198    34183    34173    34160    34148 
   34138    34125    34105    34079    34053    34029    34007    33986 
   33964    33943    33925    33909    33887    33862    33839    33814 
   33793    33783    33779    33775    33772    33770    33764    33759 
   33756    33754    33751    33745    33739    33732    33723    33714 
   33706    33704    33698    33689    33682    33681    33679    33678 
   33681    33685    33686    33687    33686    33685    33689    33704 
   33721    33733    33748    33766    33779    33790    33801    33812 
   33825    33837    33847    33855    33859    33862    33863    33866 
   33866    33860    33855    33852    33841    33829    33822    33816 
   33808    33799    33791    33783    33772    33760    33752    33748 
   33741    33737    33731    33720    33713    33712    33709    33702 
   33696    33686    33675    33669    33664    33656    33648    33643 
   33639    33637    33628    33613    33608    33604    33592    33582 
   33583    33589    33590    33589    33596    33604    33612    33623 
   33636    33650    33666    33682    33696    33704    33712    33721 
   33737    33766    33793    33810    33826    33843    33855    33864 
   33880    33898    33910    33924    33941    33956    33968    33982 
   33997    34007    34018    34032    34048    34065    34075    34076 
   34078    34080    34080    34079    34074    34063    34055    34047 
   34034    34024    34009    33991    33975    33961    33944    33924 
   33907    33894    33882    33868    33853    33839    33828    33818 
   33810    33806    33804    33798    33791    33790    33789    33786 
   33781    33777    33777    33781    33782    33779    33777    33774 
   33770    33763    33759    33759    33758    33755    33751    33744 
   33735    33723    33714    33709    33701    33700    33706    33712 
   33713    33717    33724    33732    33733    33729    33733    33747 
   33763    33778    33794    33812    33829    33840    33852    33864 
   33863    33864    33878    33887    33890    33899    33901    33895 
   33890    33886    33882    33880    33879    33880    33887    33895 
   33898    33893    33889    33886    33878    33872    33875    33878 
   33879    33883    33889    33887    33878    33868    33863    33859 
   33856    33852    33855    33862    33864    33859    33855    33855 
   33856    33860    33866    33864    33866    33868    33868    33866 
   33864    33864    33866    33862    33858    33856    33855    33847 
   33841    33840    33840    33841    33845    33848    33848    33845 
   33839    33831    33828    33826    33822    33821    33826    33831 
   33831    33836    33837    33832    33826    33828    33824    33809 
   33794    33793    33791    33783    33777    33779    33782    33778 
   33774    33772    33772    33771    33771    33771    33770    33774 
   33778    33779    33782    33787    33797    33804    33812    33820 
   33825    33828    33835    33839    33836    33828    33822    33828 
   33831    33824    33817    33817    33814    33812    33806    33801 
   33797    33794    33793    33791    33793    33798    33805    33810 
   33816    33822    33835    33848    33858    33868    33883    33894 
   33903    33917    33926    33932    33945    33963    33978    33990 
   33999    34006    34009    34013    34021    34028    34030    34037 
   34049    34059    34063    34064    34064    34065    34065    34063 
   34064    34064    34060    34059    34061    34057    34052    34056 
   34060    34056    34055    34057    34063    34063    34060    34059 
   34061    34065    34076    34088    34090    34084    34083    34082 
   34078    34072    34068    34065    34065    34067    34064    34057 
   34045    34037    34037    34032    34021    34014    34013    34013 
   34006    33993    33974    33959    33948    33934    33917    33903 
   33890    33878    33864    33847    33826    33806    33793    33785 
   33786    33791    33790    33783    33781    33779    33777    33772 
   33775    33783    33793    33805    33818    33833    33847    33855 
   33860    33872    33886    33893    33899    33909    33920    33925 
   33930    33937    33947    33959    33968    33980    33995    34009 
   34015    34017    34014    34010    34002    33995    33998    34001 
   34001    33999    33995    33980    33964    33949    33936    33925 
   33914    33898    33883    33867    33851    33836    33816    33794 
   33775    33760    33748    33739    33735    33728    33714    33708 
   33700    33690    33685    33679    33677    33681    33685    33686 
   33683    33679    33671    33660    33658    33662    33662    33659 
   33660    33659    33656    33658    33655    33652    33652    33652 
   33659    33666    33669    33670    33670    33671    33673    33669 
   33667    33670    33674    33682    33689    33691    33689    33685 
   33687    33691    33691    33693    33698    33704    33709    33712 
   33714    33723    33735    33744    33751    33763    33781    33795 
   33806    33809    33809    33814    33825    33835    33840    33840 
   33843    33852    33860    33864    33870    33879    33886    33893 
   33899    33907    33917    33929    33939    33947    33960    33971 
   33982    33997    34009    34015    34026    34040    34047    34053 
   34063    34072    34082    34091    34095    34099    34109    34117 
   34123    34128    34126    34125    34126    34123    34118    34115 
   34113    34105    34094    34079    34065    34059    34047    34029 
   34014    34001    33987    33975    33960    33944    33934    33924 
   33907    33898    33894    33887    33885    33879    33872    33864 
   33853    33840    33828    33820    33816    33814    33816    33816 
