Origin Time       2025/01/13 21:19:00
Lat.              31.8
Long.             131.6
Depth. (km)       30
Mag.              6.9
Station Code      OKYH02
Station Lat.      34.7501
Station Long.     134.0702
Station Height(m) 30
Record Time       2025/01/13 21:20:55
Sampling Freq(Hz) 100Hz
Duration Time(s)  126
Dir.              4
Scale Factor      7845(gal)/8223790
Max. Acc. (gal)   0.793
Last Correction   2025/01/13 21:20:56
Memo.             
[...]
     792      816      842      845      847      873      911      920 
     911      912      916      936      986     1023     1046     1067 
    1043      985      963      967      967      982     1011     1028 
    1032     1032     1027      992      954      950      958      957 
     967      993     1016     1027     1031     1031     1007      970 
     974     1005     1000      974      946      882      815      804 
     831      864      881      880      882      876      855      847 
     851      865      911      954      958      969     1001      999 
     963      940      924      920      932      940      930      924 
     945      965      969      988     1017     1003      947      901 
     872      868      900      934      955      974      980      969 
     947      926      923      924      912      907      918      932 
     947      951      947      958      981     1000     1000      967 
     920      891      882      891      911      918      919      946 
     970      957      945      965      970      934      915      931 
     932      919      932      936      909      888      878      878 
     904      946      976      993      992      966      935      904 
     870      851      858      886      932      989     1036     1059 
    1043      994      959      962      970      969      974      966 
     931      907      918      923      922      947      988      999 
     973      943      936      935      927      922      926      935 
     954      961      946      938      934      901      866      862 
     864      850      823      777      733      729      745      750 
     762      781      781      770      774      789      797      797 
     815      851      884      896      908      928      931      907 
     901      923      928      915      920      934      912      880 
     888      912      903      889      915      957      981      984 
     972      966      974      973      965      958      927      891 
     886      889      878      885      918      946      959      955 
     932      904      899      913      936      955      969      980 
     988      984      962      965     1005     1044     1074     1094 
    1082     1055     1050     1053     1043     1030     1030     1034 
    1030     1028     1031     1017      993      974      962      973 
    1021     1075     1098     1100     1105     1115     1108     1081 
    1063     1043     1005      976      951      922      911      907 
     881      872      904      938      934      907      888      877 
     849      824      846      888      909      924      938      940 
     938      924      904      895      903      920      939      943 
     924      907      923      954      963      963      957      919 
     862      834      841      853      865      878      880      878 
     882      881      865      839      835      882      939      963 
     976      992      990      981      981      988      996     1004 
    1005      993      981      994     1038     1082     1116     1146 
    1139     1089     1059     1062     1063     1073     1084     1082 
    1088     1097     1094     1085     1085     1093     1080     1040 
    1005      989      981      966      943      920      897      891 
     932      986      988      959      963      977      967      962 
     973      972      961      973      993      989      969      950 
     923      911      935      965      973      974      969      950 
     936      931      919      911      907      905      904      903 
     920      955      965      947      936      920      896      899 
     909      889      878      907      927      920      916      920 
     907      885      877      873      868      870      886      911 
     928      930      922      912      907      912      922      924 
     915      893      876      870      873      893      922      930 
     919      900      873      855      858      853      845      849 
     853      866      903      924      912      903      905      893 
     866      862      878      877      865      869      899      947 
     984      974      940      919      907      897      901      926 
     954      967      977      986      976      959      957      958 
     974     1015     1051     1077     1112     1140     1151     1155 
    1143     1112     1092     1088     1082     1070     1057     1038 
    1024     1013      990      949      920      916      907      896 
     892      878      873      878      862      847      868      893 
     908      916      907      886      873      880      892      891 
     891      912      931      938      951      967      966      951 
     957      989     1009      994      974      966      962      961 
     976      992      989      997     1027     1034      999      969 
     961      945      920      908      908      897      874      857 
     849      851      859      854      834      808      781      769 
     772      773      784      815      842      869      888      870 
     855      892      932      932      932      953      963      967 
     981      978      965      973      976      949      946      986 
    1005      990      986      981      957      942      945      950 
     939      916      900      886      864      853      857      857 
     869      895      912      936      970      977      973      982 
    1001     1027     1044     1042     1046     1066     1088     1096 
    1088     1075     1067     1054     1027     1013     1031     1048 
    1059     1089     1119     1108     1078     1075     1084     1086 
    1107     1132     1131     1123     1129     1127     1108     1089 
    1081     1082     1069     1040     1021     1009     1009     1021 
    1013      997     1017     1042     1028     1005     1000      986 
     957      953      999     1046     1046     1023     1008      990 
     972      976      980      966      972      994     1003      997 
     994      982      959      958      981      992      996     1008 
    1000      976      965      949      918      918      942      931 
     918      943      959      936      909      904      908      892 
     857      831      834      842      841      834      827      814 
     797      785      777      774      781      783      776      785 
     799      778      749      738      719      693      672      635 
     594      577      584      598      612      631      649      645 
     626      619      622      635      666      691      692      689 
     712      754      785      797      815      841      873      911 
     932      935      955      992     1004      990      986     1000 
     996      976      976      981      965      961      986      997 
     996     1012     1028     1038     1061     1102     1143     1167 
    1175     1186     1198     1208     1227     1248     1255     1270 
    1278     1247     1210     1200     1194     1175     1154     1144 
    1134     1107     1085     1082     1077     1074     1082     1081 
    1080     1105     1139     1159     1177     1198     1205     1185 
    1158     1140     1120     1102     1101     1094     1071     1054 
    1047     1040     1034     1009      969      940      924      899 
     872      874      896      911      915      922      935      934 
     907      881      880      886      885      886      899      908 
     908      897      884      889      924      943      934      931 
     938      924      905      905      907      900      896      895 
     892      891      880      865      855      858      872      884 
     886      877      864      849      837      837      837      831 
     837      857      864      853      846      854      858      854 
     847      855      869      864      855      853      851      862 
     861      834      827      853      864      864      877      881 
     877      889      895      882      881      888      886      880 
     882      891      895      897      893      877      864      864 
     872      873      861      849      851      843      824      835 
     870      882      878      884      886      882      876      861 
     851      858      882      907      901      891      905      918 
     920      947      967      958      957      967      970      988 
    1017     1039     1073     1115     1135     1146     1167     1192 
    1205     1210     1223     1242     1247     1237     1231     1235 
    1229     1204     1185     1182     1163     1136     1123     1109 
    1100     1101     1093     1073     1075     1085     1070     1044 
    1043     1048     1031     1019     1043     1067     1070     1071 
    1071     1058     1035     1013      999      988      978      962 
     940      930      931      931      920      913      907      899 
     905      932      955      959      954      962      996     1035 
    1044     1040     1047     1059     1069     1075     1073     1075 
    1084     1084     1086     1098     1092     1051     1020     1012 
     999      984      988      985      959      939      942      943 
     927      911      901      900      908      911      908      909 
     918      930      924      909      909      908      886      866 
     858      839      820      814      810      801      787      770 
     762      764      772      781      785      796      827      866 
     892      912      947      974      974      981     1008     1028 
    1048     1078     1090     1088     1089     1075     1055     1054 
    1059     1051     1044     1050     1053     1038     1016     1017 
    1032     1034     1040     1067     1085     1078     1069     1073 
    1085     1100     1107     1107     1107     1101     1084     1048 
    1001      966      946      922      895      880      869      857 
     865      892      908      916      936      951      950      950 
     951      949      955      965      957      949      958      974 
     970      945      928      924      907      895      893      884 
     870      855      843      850      857      842      824      823 
     832      841      834      818      803      785      773      783 
     795      793      795      805      815      819      812      803 
     807      815      816      816      805      785      770      760 
     754      762      778      783      783      803      819      812 
     819      845      855      857      868      868      862      872 
     876      868      870      876      872      858      831      816 
     820      808      789      784      773      764      764      743 
     716      707      691      679      689      696      702      723 
     751      772      787      805      826      846      859      873 
     901      940      967      986     1020     1058     1080     1094 
    1117     1144     1162     1156     1138     1121     1094     1065 
    1059     1066     1062     1057     1047     1028     1019     1016 
    1017     1036     1053     1055     1073     1093     1104     1117 
    1117     1100     1101     1125     1148     1155     1147     1144 
    1151     1143     1125     1109     1086     1063     1051     1047 
    1063     1081     1074     1069     1061     1024      989      977 
     966      957      950      934      908      886      885      900 
     900      888      882      872      858      864      876      881 
     896      909      920      943      976     1004     1040     1090 
    1135     1165     1197     1227     1240     1255     1289     1305 
    1301     1304     1287     1242     1202     1177     1147     1119 
    1078     1028      996      966      927      895      878      878 
     888      889      881      878      878      882      888      886 
     884      888      892      908      938      955      967      989 
    1016     1043     1069     1077     1073     1077     1084     1077 
    1066     1069     1074     1070     1082     1097     1077     1055 
    1069     1085     1089     1096     1085     1067     1071     1073 
    1061     1046     1007      959      931      909      884      851 
     810      774      754      738      716      702      697      706 
     711      708      708      707      712      735      765      784 
     812      855      888      907      936      982     1030     1071 
    1098     1102     1093     1090     1088     1077     1071     1071 
    1071     1085     1093     1081     1081     1090     1094     1109 
    1139     1165     1192     1223     1262     1312     1345     1359 
    1389     1417     1418     1412     1412     1405     1390     1367 
    1345     1331     1302     1263     1233     1200     1152     1112 
    1085     1067     1055     1043     1027     1008      996      996 
    1000     1009     1028     1053     1078     1109     1136     1151 
    1155     1159     1169     1182     1188     1182     1175     1169 
    1155     1150     1155     1146     1124     1111     1088     1051 
    1027     1019     1008      992      984      988      993      992 
     977      962      954      955      965      974      980      978 
     963      945      928      908      878      847      823      788 
     742      695      638      568      513      465      403      342 
     284      218      172      152      133      121      122      125 
     132      155      182      195      211      252      307      353 
     388      433      469      473      475      502      534      560 
     588      616      631      642      664      695      720      737 
     753      768      780      795      812      827      843      869 
     891      899      903      911      911      912      922      912 
     885      877      884      891      904      920      927      935 
     954      967      972      984      997     1015     1036     1057 
    1074     1093     1119     1152     1182     1205     1223     1247 
    1283     1300     1296     1309     1341     1366     1386     1408 
    1417     1432     1467     1494     1505     1513     1518     1528 
    1543     1560     1579     1575     1553     1536     1516     1487 
    1463     1429     1394     1375     1359     1329     1306     1310 
    1323     1327     1314     1297     1283     1277     1277     1277 
    1270     1255     1246     1239     1220     1192     1165     1136 
    1108     1085     1062     1028     1009     1013     1011      988 
     972      954      931      926      920      905      897      895 
     888      881      864      835      812      805      818      826 
     814      811      835      866      892      918      940      958 
     957      938      919      901      886      889      897      880 
     853      835      816      796      789      793      788      780 
     792      801      804      820      841      851      878      918 
     934      940      959      978      999     1027     1042     1039 
    1034     1026     1005      981      963      949      927      901 
     877      846      820      803      777      753      742      731 
     733      751      751      742      760      787      807      835 
     853      846      853      888      904      901      908      907 
     889      881      880      862      835      819      808      796 
     792      784      770      778      804      816      819      838 
     873      904      928      955      980     1003     1030     1050 
    1055     1059     1055     1043     1043     1034     1001      974 
     951      915      889      859      814      792      796      783 
     761      750      729      702      692      691      677      650 
     625      615      616      621      625      618      616      634 
     652      662      684      710      724      729      730      743 
     760      769      777      791      799      792      783      783 
     784      781      788      803      808      811      815      805 
     805      831      842      837      847      859      859      874 
     900      915      922      930      939      957      974      982 
     990     1013     1039     1042     1035     1053     1081     1102 
    1112     1104     1097     1100     1096     1090     1098     1113 
    1134     1161     1177     1181     1189     1202     1219     1237 
    1243     1232     1215     1202     1198     1188     1178     1171 
    1158     1136     1124     1112     1084     1050     1030     1020 
    1004      977      946      905      872      855      826      788 
     772      758      734      722      719      719      719      708 
     696      695      697      697      714      735      746      749 
     745      741      750      766      774      781      804      837 
     858      866      876      886      895      909      923      927 
     935      957      980     1001     1020     1031     1048     1082 
    1115     1123     1125     1147     1174     1200     1225     1251 
    1281     1313     1327     1318     1312     1314     1316     1327 
    1350     1355     1351     1362     1377     1393     1408     1405 
    1395     1402     1404     1397     1389     1372     1351     1345 
    1350     1344     1323     1305     1296     1281     1262     1258 
    1256     1255     1273     1282     1273     1267     1260     1258 
    1262     1250     1232     1233     1233     1217     1200     1188 
    1177     1155     1120     1089     1063     1030     1007      993 
     966      934      901      872      858      846      826      807 
     783      746      718      702      683      649      610      584 
     565      535      503      480      460      456      460      449 
     453      479      490      491      500      513      527      546 
     569      594      622      648      662      675      693      702 
     696      696      711      722      715      702      699      704 
     703      702      712      723      723      730      753      770 
     778      788      805      839      868      878      886      904 
     932      959      969      967      977      985      978      974 
     976      962      930      885      839      814      792      758 
     738      735      720      693      676      680      687      687 
     687      696      706      723      750      777      804      831 
     861      896      926      940      953      974      997     1017 
    1031     1030     1030     1046     1062     1070     1084     1097 
    1098     1089     1075     1066     1061     1059     1063     1069 
    1077     1093     1117     1135     1147     1163     1173     1183 
    1208     1225     1224     1235     1264     1283     1296     1310 
    1314     1306     1316     1344     1366     1379     1389     1397 
    1410     1425     1425     1410     1394     1382     1377     1356 
    1309     1262     1227     1194     1170     1150     1125     1100 
    1070     1030      992      970      945      916      905      900 
     893      892      886      876      861      839      819      808 
     789      762      746      726      689      653      634      625 
