Origin Time       2025/01/13 21:19:00
Lat.              31.8
Long.             131.6
Depth. (km)       30
Mag.              6.9
Station Code      OKYH07
Station Lat.      35.0493
Station Long.     133.3169
Station Height(m) 563.5
Record Time       2025/01/13 21:21:01
Sampling Freq(Hz) 100Hz
Duration Time(s)  120
Dir.              6
Scale Factor      7845(gal)/8223790
Max. Acc. (gal)   0.745
Last Correction   2025/01/13 21:21:02
Memo.             
[...]
    2844     2841     2843     2841     2828     2810     2798     2786 
    2768     2762     2764     2767     2771     2766     2755     2755 
    2758     2754     2751     2751     2751     2754     2760     2768 
    2776     2781     2778     2776     2781     2789     2799     2809 
    2812     2808     2810     2822     2836     2847     2852     2853 
    2853     2851     2841     2833     2825     2818     2812     2802 
    2795     2797     2797     2794     2793     2789     2785     2783 
    2782     2783     2786     2790     2790     2789     2793     2801 
    2803     2802     2797     2791     2787     2790     2789     2789 
    2794     2793     2789     2790     2790     2787     2782     2770 
    2756     2747     2737     2729     2725     2728     2732     2729 
    2725     2721     2721     2717     2709     2694     2674     2667 
    2666     2656     2647     2648     2644     2633     2623     2609 
    2593     2578     2567     2556     2542     2527     2513     2508 
    2506     2505     2505     2513     2515     2509     2515     2532 
    2544     2555     2569     2577     2581     2593     2608     2617 
    2635     2659     2675     2691     2712     2727     2735     2748 
    2759     2763     2771     2783     2789     2789     2789     2783 
    2779     2782     2779     2775     2778     2778     2776     2775 
    2771     2770     2764     2752     2745     2747     2745     2739 
    2735     2732     2731     2739     2745     2745     2745     2741 
    2736     2735     2737     2737     2736     2739     2745     2751 
    2764     2783     2795     2806     2821     2829     2826     2816 
    2809     2806     2803     2801     2803     2805     2803     2803 
    2798     2791     2783     2771     2760     2748     2728     2710 
    2698     2679     2664     2662     2660     2656     2660     2663 
    2658     2654     2652     2647     2639     2632     2628     2624 
    2625     2628     2624     2617     2620     2621     2610     2598 
    2587     2574     2563     2559     2556     2555     2556     2556 
    2555     2551     2544     2540     2538     2539     2536     2529 
    2533     2540     2542     2551     2569     2581     2593     2604 
    2606     2612     2621     2631     2640     2648     2656     2668 
    2679     2689     2697     2698     2705     2721     2733     2740 
    2748     2752     2747     2740     2735     2735     2729     2714 
    2702     2691     2678     2673     2675     2675     2671     2667 
    2664     2662     2658     2651     2647     2651     2652     2652 
    2660     2667     2675     2683     2689     2693     2694     2690 
    2689     2690     2689     2685     2682     2678     2677     2681 
    2683     2687     2686     2679     2675     2673     2664     2659 
    2660     2652     2635     2620     2606     2590     2583     2585 
    2587     2592     2597     2598     2601     2600     2601     2619 
    2633     2637     2647     2654     2654     2660     2670     2679 
    2693     2708     2717     2725     2731     2739     2751     2760 
    2772     2789     2797     2791     2789     2791     2789     2783 
    2782     2779     2782     2793     2805     2817     2837     2862 
    2874     2880     2891     2895     2895     2899     2899     2894 
    2893     2895     2893     2886     2879     2875     2872     2870 
    2863     2852     2844     2833     2821     2808     2793     2775 
    2759     2748     2739     2731     2728     2721     2706     2697 
    2689     2673     2663     2667     2668     2660     2659     2662 
    2659     2655     2654     2654     2652     2647     2646     2652 
    2658     2666     2681     2689     2689     2690     2693     2693 
    2689     2683     2675     2668     2664     2656     2647     2633 
    2619     2609     2600     2585     2575     2574     2577     2581 
    2583     2590     2600     2610     2624     2635     2643     2654 
    2662     2663     2663     2668     2673     2673     2673     2675 
    2678     2678     2675     2674     2670     2666     2667     2668 
    2668     2673     2682     2691     2702     2713     2725     2740 
    2759     2775     2779     2783     2794     2798     2797     2802 
    2810     2820     2828     2829     2830     2825     2810     2798 
    2791     2774     2754     2744     2736     2728     2729     2732 
    2732     2732     2732     2728     2725     2722     2720     2717 
    2720     2728     2733     2732     2727     2722     2721     2725 
    2729     2728     2727     2725     2721     2717     2718     2721 
    2721     2725     2733     2740     2745     2752     2754     2751 
    2749     2748     2755     2770     2782     2789     2793     2793 
    2791     2795     2795     2793     2789     2779     2768     2766 
    2763     2752     2744     2740     2736     2729     2718     2709 
    2705     2694     2682     2675     2671     2667     2659     2654 
    2648     2644     2644     2643     2637     2632     2629     2628 
    2625     2620     2613     2608     2605     2609     2609     2604 
    2605     2610     2612     2617     2628     2636     2641     2647 
    2647     2643     2637     2625     2608     2598     2596     2589 
    2581     2578     2579     2581     2585     2592     2600     2612 
    2631     2650     2666     2679     2691     2702     2709     2716 
    2727     2739     2743     2739     2732     2722     2716     2712 
    2702     2693     2683     2667     2648     2627     2602     2581 
    2563     2551     2538     2527     2517     2506     2497     2489 
    2482     2478     2477     2474     2477     2479     2478     2479 
    2481     2477     2475     2478     2474     2473     2471     2467 
    2467     2473     2479     2492     2505     2517     2529     2544 
    2558     2569     2582     2598     2616     2633     2651     2670 
    2694     2720     2743     2771     2797     2822     2855     2886 
    2913     2934     2955     2974     2988     3005     3025     3038 
    3046     3055     3060     3061     3063     3064     3061     3055 
    3048     3041     3034     3025     3013     3005     2997     2984 
    2979     2968     2957     2955     2951     2943     2934     2924 
    2914     2903     2894     2895     2894     2889     2890     2891 
    2890     2890     2887     2886     2883     2875     2870     2867 
    2856     2847     2840     2832     2822     2812     2802     2795 
    2791     2787     2782     2779     2781     2776     2775     2785 
    2795     2801     2805     2812     2818     2825     2832     2837 
    2841     2845     2844     2840     2837     2832     2826     2826 
    2828     2821     2812     2809     2805     2793     2779     2762 
    2747     2735     2724     2717     2710     2697     2686     2673 
    2656     2647     2639     2629     2625     2617     2608     2601 
    2598     2597     2596     2594     2594     2593     2593     2596 
    2594     2587     2583     2578     2565     2550     2536     2515 
    2492     2470     2450     2428     2408     2392     2378     2362 
    2349     2344     2343     2336     2334     2339     2342     2346 
    2359     2374     2389     2404     2420     2438     2455     2473 
    2492     2511     2532     2552     2573     2590     2606     2627 
    2651     2673     2700     2725     2745     2764     2779     2795 
    2813     2822     2830     2841     2849     2853     2859     2863 
    2863     2862     2857     2851     2845     2832     2814     2801 
    2786     2770     2758     2745     2729     2716     2709     2710 
    2714     2718     2718     2718     2721     2724     2735     2755 
    2772     2787     2795     2799     2805     2806     2803     2802 
    2793     2774     2760     2748     2733     2718     2700     2679 
    2664     2648     2633     2619     2594     2573     2552     2529 
    2506     2488     2469     2448     2427     2407     2392     2380 
    2362     2347     2339     2327     2311     2296     2281     2274 
    2274     2272     2269     2273     2278     2285     2299     2312 
    2323     2339     2354     2369     2394     2423     2448     2473 
    2498     2529     2565     2597     2629     2662     2693     2720 
    2748     2782     2812     2833     2855     2878     2897     2916 
    2934     2952     2967     2982     2992     2997     3002     3002 
    2998     2992     2986     2980     2979     2970     2959     2957 
    2957     2955     2952     2952     2957     2960     2964     2974 
    2983     2990     3005     3024     3038     3056     3076     3092 
    3102     3110     3114     3113     3106     3098     3088     3069 
    3042     3013     2975     2932     2891     2849     2808     2771 
    2731     2690     2648     2608     2569     2532     2504     2475 
    2452     2442     2432     2425     2424     2427     2428     2424 
    2420     2421     2420     2415     2413     2412     2412     2411 
    2408     2405     2397     2389     2380     2365     2349     2344 
    2340     2335     2338     2346     2351     2363     2384     2404 
    2428     2454     2482     2520     2560     2608     2662     2717 
    2774     2836     2895     2956     3017     3069     3119     3169 
    3211     3250     3283     3306     3327     3343     3346     3346 
    3345     3338     3326     3307     3285     3262     3234     3203 
    3175     3148     3118     3091     3068     3048     3026     3002 
    2978     2955     2933     2917     2899     2882     2863     2839 
    2817     2798     2778     2758     2739     2718     2698     2679 
    2666     2656     2647     2639     2632     2627     2619     2616 
    2614     2605     2600     2598     2590     2581     2574     2567 
    2565     2566     2567     2570     2574     2579     2589     2596 
    2604     2614     2627     2640     2655     2668     2686     2705 
    2722     2736     2754     2774     2789     2805     2821     2830 
    2841     2851     2853     2856     2866     2872     2878     2883 
    2887     2887     2887     2887     2878     2871     2867     2853 
    2837     2824     2806     2785     2762     2741     2724     2704 
    2675     2646     2621     2597     2574     2550     2521     2501 
    2488     2473     2461     2450     2439     2432     2425     2420 
    2417     2411     2408     2411     2408     2404     2403     2407 
    2412     2411     2416     2425     2430     2436     2454     2469 
    2484     2505     2525     2546     2567     2590     2612     2628 
    2643     2656     2670     2682     2693     2701     2706     2708 
    2702     2694     2685     2671     2660     2651     2637     2623 
    2608     2598     2589     2578     2570     2563     2554     2547 
    2538     2532     2527     2519     2516     2516     2509     2506 
    2512     2516     2517     2520     2527     2532     2539     2550 
    2563     2574     2589     2608     2631     2654     2678     2701 
    2722     2740     2759     2774     2786     2799     2816     2829 
    2837     2836     2833     2829     2825     2814     2798     2781 
    2766     2747     2722     2698     2675     2651     2625     2602 
    2579     2560     2546     2532     2517     2502     2489     2484 
    2482     2475     2470     2469     2467     2465     2463     2466 
    2469     2473     2475     2481     2490     2506     2525     2544 
    2571     2601     2624     2648     2682     2710     2737     2763 
    2783     2801     2821     2840     2856     2871     2886     2899 
    2910     2920     2929     2936     2940     2948     2957     2967 
    2976     2986     2995     3007     3017     3022     3029     3040 
    3046     3049     3053     3056     3057     3059     3060     3060 
    3059     3053     3049     3048     3045     3040     3033     3025 
    3014     2998     2979     2956     2929     2897     2867     2833 
    2798     2767     2736     2704     2671     2643     2620     2602 
    2586     2571     2555     2543     2539     2533     2527     2525 
    2528     2536     2544     2551     2560     2569     2569     2567 
    2571     2577     2581     2590     2600     2604     2610     2620 
    2625     2627     2625     2627     2628     2627     2627     2629 
    2631     2631     2633     2639     2641     2647     2660     2674 
    2685     2698     2710     2724     2745     2770     2794     2821 
    2843     2867     2897     2922     2940     2955     2970     2987 
    2999     3006     3011     3013     3013     3007     2995     2984 
    2972     2951     2929     2907     2878     2849     2825     2799 
    2775     2755     2736     2717     2697     2678     2666     2651 
    2631     2614     2601     2583     2567     2558     2548     2547 
    2551     2556     2562     2566     2574     2586     2601     2619 
    2641     2664     2683     2706     2733     2754     2771     2793 
    2816     2840     2867     2893     2918     2945     2965     2986 
    3011     3034     3055     3072     3083     3091     3098     3096 
    3091     3086     3076     3063     3044     3024     2998     2967 
    2932     2897     2857     2814     2770     2724     2677     2629 
    2579     2532     2492     2446     2400     2357     2313     2277 
    2242     2205     2170     2141     2114     2085     2054     2026 
    1999     1979     1960     1939     1929     1923     1923     1925 
    1926     1938     1958     1979     2000     2030     2062     2097 
    2134     2173     2216     2265     2308     2353     2401     2451 
    2500     2547     2596     2646     2691     2733     2778     2820 
    2856     2893     2928     2957     2988     3018     3044     3057 
    3071     3090     3102     3105     3107     3105     3098     3091 
    3080     3067     3053     3038     3022     3006     2987     2970 
    2955     2940     2922     2909     2894     2876     2863     2853 
    2845     2839     2835     2835     2837     2844     2845     2848 
    2852     2853     2856     2860     2862     2866     2872     2870 
    2871     2875     2874     2872     2878     2879     2880     2886 
    2889     2889     2891     2891     2886     2882     2878     2870 
    2855     2836     2818     2798     2781     2768     2751     2735 
    2721     2708     2698     2690     2677     2662     2647     2635 
    2623     2610     2597     2583     2573     2562     2548     2535 
    2523     2512     2502     2490     2481     2475     2465     2458 
    2454     2450     2450     2448     2447     2447     2446     2446 
    2452     2461     2470     2486     2502     2515     2532     2551 
    2563     2574     2585     2596     2605     2612     2620     2629 
    2632     2633     2633     2633     2629     2625     2621     2613 
    2606     2598     2585     2575     2571     2566     2559     2551 
    2548     2547     2542     2542     2546     2544     2542     2543 
    2550     2560     2571     2586     2601     2612     2629     2650 
    2670     2690     2710     2728     2743     2756     2771     2787 
    2803     2822     2844     2864     2882     2903     2929     2955 
    2979     3001     3019     3041     3063     3079     3095     3114 
    3129     3142     3156     3169     3177     3181     3187     3187 
    3186     3186     3176     3165     3156     3141     3121     3102 
    3082     3057     3033     3009     2984     2956     2925     2893 
    2859     2826     2793     2752     2716     2682     2641     2601 
    2563     2525     2488     2454     2425     2403     2378     2354 
    2332     2313     2299     2286     2274     2262     2257     2257 
    2261     2268     2276     2289     2308     2326     2344     2369 
    2392     2413     2438     2465     2494     2529     2563     2593 
    2624     2660     2697     2731     2766     2794     2820     2847 
    2874     2898     2922     2938     2955     2974     2988     2999 
    3007     3013     3015     3014     3009     3002     2997     2988 
    2979     2972     2965     2956     2951     2947     2943     2940 
    2933     2926     2924     2926     2925     2925     2924     2921 
    2917     2916     2918     2918     2907     2901     2894     2878 
    2868     2860     2847     2835     2822     2810     2801     2790 
    2779     2775     2772     2776     2781     2783     2789     2791 
    2794     2803     2812     2818     2828     2833     2835     2837 
    2839     2840     2843     2843     2845     2851     2851     2849 
    2847     2841     2837     2833     2828     2818     2809     2802 
    2795     2785     2771     2758     2744     2729     2718     2709 
    2694     2679     2670     2659     2647     2640     2632     2623 
    2612     2601     2594     2592     2587     2585     2579     2575 
    2577     2577     2579     2583     2587     2592     2596     2602 
    2609     2612     2613     2617     2621     2625     2629     2629 
    2628     2635     2643     2650     2660     2677     2693     2706 
    2718     2729     2741     2752     2759     2768     2776     2779 
    2781     2781     2778     2775     2774     2771     2764     2758 
    2749     2741     2736     2729     2721     2717     2710     2702 
    2697     2690     2681     2677     2673     2666     2662     2659 
    2658     2659     2660     2662     2662     2660     2662     2666 
    2671     2675     2678     2681     2681     2681     2686     2689 
    2687     2687     2686     2681     2679     2675     2667     2658 
    2647     2637     2625     2610     2600     2583     2565     2551 
    2538     2524     2513     2505     2497     2492     2485     2479 
    2473     2467     2463     2458     2451     2448     2447     2440 
    2434     2425     2412     2398     2386     2374     2365     2353 
    2343     2338     2334     2331     2328     2326     2328     2332 
    2340     2349     2357     2366     2380     2392     2400     2409 
    2423     2434     2444     2458     2473     2488     2501     2516 
    2532     2542     2554     2571     2587     2602     2617     2635 
    2652     2666     2683     2698     2709     2724     2740     2749 
    2759     2764     2767     2770     2767     2762     2755     2748 
    2741     2732     2724     2721     2716     2712     2716     2721 
    2727     2733     2739     2747     2759     2772     2786     2801 
    2818     2837     2855     2871     2886     2902     2918     2932 
    2944     2953     2961     2971     2979     2984     2987     2991 
    2994     2992     2991     2987     2978     2968     2957     2941 
    2930     2918     2898     2878     2859     2836     2816     2799 
    2779     2756     2736     2717     2700     2682     2664     2648 
    2635     2624     2614     2601     2587     2577     2567     2560 
    2556     2548     2542     2533     2524     2515     2508     2501 
    2497     2494     2490     2486     2486     2490     2497     2504 
    2513     2527     2539     2547     2558     2571     2586     2602 
    2617     2627     2637     2658     2678     2693     2704     2720 
    2739     2752     2768     2787     2805     2818     2832     2847 
