Origin Time       2025/01/13 21:19:00
Lat.              31.8
Long.             131.6
Depth. (km)       30
Mag.              6.9
Station Code      OKYH08
Station Lat.      34.9103
Station Long.     133.4055
Station Height(m) 330
Record Time       2025/01/13 21:20:49
Sampling Freq(Hz) 100Hz
Duration Time(s)  135
Dir.              2
Scale Factor      2942(gal)/8224139
Max. Acc. (gal)   0.773
Last Correction   2025/01/13 21:20:51
Memo.             
[...]
   44346    44323    44308    44290    44253    44211    44193    44188 
   44169    44146    44128    44113    44116    44146    44181    44209 
   44224    44224    44211    44197    44190    44182    44169    44154 
   44155    44172    44181    44174    44163    44151    44146    44157 
   44151    44115    44074    44053    44053    44070    44097    44128 
   44170    44205    44234    44278    44338    44390    44424    44436 
   44437    44442    44437    44419    44404    44413    44432    44427 
   44396    44355    44319    44275    44219    44169    44140    44116 
   44082    44054    44059    44103    44158    44200    44231    44262 
   44286    44309    44335    44346    44336    44324    44329    44346 
   44344    44319    44301    44313    44343    44350    44317    44261 
   44204    44162    44143    44135    44113    44069    44018    43980 
   43958    43950    43965    43996    44014    44000    43980    43978 
   43996    44028    44078    44136    44182    44211    44226    44224 
   44220    44246    44296    44335    44354    44355    44365    44398 
   44442    44481    44512    44516    44474    44412    44373    44363 
   44362    44336    44280    44220    44197    44213    44244    44271 
   44297    44323    44352    44388    44417    44443    44478    44523 
   44558    44574    44570    44564    44566    44563    44551    44525 
   44482    44450    44446    44463    44478    44455    44381    44281 
   44193    44149    44132    44109    44064    44022    44018    44054 
   44120    44200    44262    44284    44259    44207    44140    44078 
   44045    44080    44182    44302    44393    44444    44459    44454 
   44443    44419    44369    44316    44281    44247    44203    44165 
   44151    44174    44213    44259    44301    44313    44301    44298 
   44309    44305    44281    44261    44271    44294    44307    44324 
   44336    44304    44243    44189    44131    44053    43988    43983 
   44027    44089    44151    44199    44230    44261    44281    44282 
   44284    44289    44296    44317    44363    44432    44506    44544 
   44544    44555    44579    44582    44552    44520    44500    44482 
   44451    44409    44362    44312    44251    44197    44188    44199 
   44193    44185    44174    44138    44099    44072    44058    44059 
   44080    44109    44128    44126    44124    44138    44167    44216 
   44267    44288    44273    44231    44162    44093    44055    44049 
   44061    44082    44091    44085    44101    44158    44220    44251 
   44243    44192    44124    44084    44074    44092    44135    44193 
   44230    44212    44170    44155    44153    44136    44122    44119 
   44132    44174    44230    44273    44296    44304    44285    44231 
   44176    44147    44128    44113    44130    44186    44244    44274 
   44284    44288    44280    44259    44234    44213    44217    44247 
   44267    44277    44308    44355    44385    44392    44383    44354 
   44309    44263    44236    44240    44253    44254    44251    44246 
   44239    44220    44174    44145    44180    44255    44327    44386 
   44417    44427    44435    44420    44378    44336    44311    44309 
   44307    44263    44209    44197    44220    44236    44209    44142 
   44054    43972    43911    43877    43858    43843    43826    43825 
   43868    43951    44062    44182    44284    44335    44342    44321 
   44277    44213    44163    44139    44139    44165    44201    44221 
   44224    44228    44239    44235    44178    44077    43993    43962 
   43978    44022    44080    44162    44248    44285    44261    44215 
   44172    44143    44135    44146    44177    44204    44201    44180 
   44173    44196    44231    44255    44258    44253    44258    44261 
   44230    44176    44132    44112    44101    44097    44113    44147 
   44166    44146    44101    44058    44016    43980    43969    43988 
   44026    44055    44054    44035    44014    43991    43977    43993 
   44057    44150    44234    44289    44332    44375    44416    44463 
   44512    44551    44590    44644    44699    44722    44706    44685 
   44680    44672    44644    44612    44582    44544    44498    44470 
   44454    44437    44440    44466    44477    44470    44459    44447 
   44451    44477    44491    44466    44402    44331    44284    44281 
   44308    44324    44320    44323    44342    44365    44371    44352 
   44329    44317    44317    44343    44390    44424    44440    44455 
   44482    44521    44544    44550    44570    44604    44629    44640 
   44633    44608    44574    44543    44517    44491    44460    44428 
   44405    44406    44447    44518    44575    44594    44585    44560 
   44527    44501    44483    44462    44452    44466    44494    44527 
   44555    44570    44577    44587    44583    44555    44531    44524 
   44504    44454    44401    44373    44363    44344    44307    44259 
   44208    44170    44155    44154    44158    44151    44113    44055 
   44015    44008    44020    44018    44001    43993    44001    44015 
   44018    44014    44003    43992    43988    44004    44050    44100 
   44126    44116    44095    44104    44157    44231    44308    44373 
   44402    44412    44428    44448    44447    44428    44428    44450 
   44478    44521    44582    44640    44676    44689    44676    44644 
   44604    44571    44555    44547    44545    44566    44594    44598 
   44587    44598    44632    44652    44632    44578    44520    44478 
   44447    44409    44386    44388    44394    44416    44463    44502 
   44516    44491    44437    44386    44350    44302    44244    44211 
   44215    44239    44277    44319    44338    44325    44293    44255 
   44247    44296    44375    44442    44486    44528    44574    44618 
   44647    44647    44628    44608    44598    44593    44595    44616 
   44631    44614    44579    44531    44471    44409    44355    44331 
   44328    44307    44271    44239    44207    44181    44184    44230 
   44290    44335    44363    44390    44416    44446    44477    44489 
   44493    44513    44528    44517    44502    44501    44509    44510 
   44514    44531    44531    44508    44491    44487    44478    44473 
   44482    44508    44539    44562    44560    44540    44512    44482 
   44452    44427    44409    44393    44393    44412    44420    44405 
   44378    44335    44274    44220    44177    44127    44074    44030 
   43987    43938    43914    43918    43919    43912    43918    43943 
   43977    44005    44028    44054    44076    44096    44138    44197 
   44247    44270    44271    44262    44246    44244    44253    44238 
   44200    44170    44180    44208    44220    44209    44196    44180 
   44150    44108    44082    44076    44062    44055    44070    44084 
   44101    44131    44153    44163    44166    44169    44184    44212 
   44239    44259    44285    44317    44354    44390    44415    44431 
   44459    44490    44496    44477    44450    44432    44427    44429 
   44421    44381    44332    44302    44271    44228    44194    44186 
   44201    44227    44246    44246    44228    44223    44244    44277 
   44290    44269    44211    44146    44100    44065    44035    44019 
   44010    44003    44004    44004    43995    43970    43938    43924 
   43957    44020    44072    44086    44097    44126    44163    44200 
   44236    44269    44294    44313    44334    44351    44348    44312 
   44257    44217    44190    44169    44150    44111    44059    44032 
   44035    44051    44077    44112    44143    44150    44139    44139 
   44159    44194    44226    44254    44275    44273    44257    44251 
   44251    44240    44224    44224    44236    44236    44228    44226 
   44208    44177    44155    44155    44180    44227    44275    44315 
   44358    44400    44417    44413    44416    44437    44460    44482 
   44514    44551    44575    44586    44594    44608    44622    44639 
   44655    44679    44714    44756    44799    44826    44825    44797 
   44749    44695    44653    44632    44614    44583    44547    44533 
   44533    44520    44489    44442    44382    44327    44281    44244 
   44231    44242    44266    44286    44284    44267    44258    44254 
   44240    44216    44184    44158    44142    44135    44143    44161 
   44172    44166    44154    44138    44092    44014    43942    43911 
   43920    43931    43919    43897    43873    43846    43822    43791 
   43750    43717    43684    43649    43614    43573    43526    43472 
   43424    43386    43363    43345    43321    43298    43289    43283 
   43278    43274    43278    43285    43294    43312    43324    43336 
   43371    43428    43480    43521    43560    43594    43621    43641 
   43668    43719    43794    43862    43910    43941    43966    43997 
   44035    44069    44096    44112    44108    44104    44122    44145 
   44162    44184    44201    44213    44221    44238    44282    44362 
   44452    44537    44610    44671    44730    44783    44824    44863 
   44907    44944    44971    45006    45044    45071    45085    45096 
   45099    45098    45099    45104    45104    45092    45077    45071 
   45058    45029    44983    44921    44851    44793    44755    44725 
   44687    44635    44568    44500    44431    44361    44285    44207 
   44134    44064    43987    43910    43843    43787    43740    43713 
   43688    43667    43665    43680    43703    43738    43783    43833 
   43897    43976    44058    44139    44200    44239    44269    44289 
   44309    44344    44381    44409    44440    44487    44554    44626 
   44695    44756    44824    44895    44944    44963    44973    44986 
   44996    45000    44998    44996    44999    44996    44976    44934 
   44868    44795    44733    44683    44640    44614    44604    44587 
   44558    44521    44486    44456    44420    44359    44275    44200 
   44163    44163    44167    44155    44128    44082    44024    43972 
   43926    43896    43876    43846    43806    43780    43777    43781 
   43784    43796    43823    43858    43897    43938    43974    44004 
   44030    44057    44091    44128    44170    44209    44227    44227 
   44235    44259    44293    44332    44367    44397    44428    44458 
   44500    44560    44614    44632    44629    44625    44617    44602 
   44599    44613    44625    44636    44637    44624    44621    44635 
   44659    44703    44755    44803    44847    44876    44887    44880 
   44868    44867    44871    44876    44874    44844    44790    44720 
   44632    44527    44423    44331    44246    44161    44078    44016 
   43974    43930    43873    43815    43762    43706    43646    43592 
   43540    43499    43479    43463    43432    43394    43372    43378 
   43398    43417    43426    43437    43448    43445    43433    43429 
   43425    43420    43417    43421    43437    43463    43494    43529 
   43564    43591    43602    43603    43621    43661    43717    43772 
   43822    43881    43957    44039    44128    44228    44342    44444 
   44516    44563    44586    44589    44606    44639    44666    44693 
   44718    44734    44743    44726    44697    44682    44680    44674 
   44652    44618    44585    44556    44533    44509    44485    44462 
   44421    44355    44286    44236    44190    44147    44118    44100 
   44081    44064    44046    44004    43942    43888    43857    43846 
   43858    43881    43904    43919    43911    43885    43868    43870 
   43902    43960    44019    44074    44138    44209    44282    44352 
   44415    44458    44477    44482    44494    44523    44552    44578 
   44613    44648    44674    44680    44655    44614    44581    44547 
   44506    44464    44439    44444    44470    44497    44512    44512 
   44501    44485    44467    44460    44463    44463    44467    44478 
   44489    44505    44537    44567    44564    44537    44504    44459 
   44409    44367    44325    44285    44251    44219    44172    44109 
   44034    43945    43864    43802    43753    43721    43708    43715 
   43746    43791    43825    43845    43850    43835    43821    43814 
   43814    43818    43823    43822    43807    43779    43744    43711 
   43676    43618    43542    43474    43428    43398    43380    43376 
   43390    43418    43459    43497    43521    43538    43572    43625 
   43680    43723    43748    43750    43752    43768    43787    43798 
   43802    43802    43800    43804    43814    43814    43794    43764 
   43733    43707    43696    43695    43702    43726    43765    43808 
   43846    43881    43920    43960    43989    44022    44053    44080 
   44123    44190    44269    44350    44446    44548    44640    44726 
   44811    44883    44942    45002    45061    45103    45126    45148 
   45168    45180    45173    45134    45076    45011    44933    44834 
   44722    44614    44513    44409    44312    44235    44157    44064 
   43972    43892    43815    43745    43675    43610    43559    43519 
   43503    43515    43544    43584    43622    43646    43650    43636 
   43615    43599    43592    43592    43594    43594    43603    43607 
   43595    43579    43565    43553    43541    43538    43540    43545 
   43556    43575    43602    43636    43671    43713    43777    43853 
   43923    44007    44116    44235    44354    44479    44624    44775 
   44919    45067    45218    45364    45503    45623    45724    45829 
   45939    46041    46136    46224    46296    46356    46403    46423 
   46413    46369    46283    46151    45993    45813    45615    45407 
   45199    44998    44807    44641    44489    44334    44186    44051 
   43924    43825    43758    43725    43726    43745    43787    43868 
   43972    44069    44158    44247    44331    44406    44470    44516 
   44536    44537    44535    44536    44524    44491    44454    44408 
   44348    44282    44211    44138    44073    44015    43966    43924 
   43896    43887    43896    43911    43926    43949    43988    44035 
   44084    44126    44166    44217    44277    44329    44373    44415 
   44455    44483    44498    44496    44478    44464    44459    44460 
   44467    44470    44450    44401    44342    44285    44235    44185 
   44124    44059    44003    43954    43918    43891    43872    43869 
   43887    43915    43939    43960    43984    44015    44057    44097 
   44131    44173    44220    44269    44320    44366    44405    44437 
   44471    44518    44581    44645    44721    44818    44923    45026 
   45131    45237    45337    45423    45488    45543    45597    45643 
   45678    45696    45685    45640    45574    45492    45392    45280 
   45154    45021    44891    44761    44625    44478    44316    44146 
   43970    43800    43649    43514    43391    43294    43224    43173 
   43141    43119    43087    43036    42967    42904    42858    42824 
   42800    42776    42736    42697    42674    42654    42630    42611 
   42592    42569    42537    42500    42468    42446    42437    42438 
   42452    42481    42538    42616    42712    42813    42912    43024 
   43156    43293    43416    43524    43627    43729    43826    43907 
   43970    44012    44037    44055    44076    44100    44131    44166 
   44199    44238    44281    44328    44394    44470    44540    44624 
   44728    44822    44896    44964    45034    45098    45145    45180 
   45198    45195    45180    45154    45121    45094    45069    45034 
   44986    44936    44898    44871    44847    44829    44824    44833 
   44849    44860    44864    44869    44879    44902    44926    44938 
   44936    44925    44911    44905    44906    44906    44896    44884 
   44883    44880    44859    44830    44805    44772    44747    44730 
   44709    44672    44622    44558    44477    44388    44305    44232 
   44147    44061    43995    43935    43869    43798    43727    43669 
   43626    43590    43551    43513    43482    43465    43451    43422 
   43399    43387    43382    43384    43386    43386    43403    43433 
   43470    43514    43564    43607    43645    43679    43711    43757 
   43816    43887    43969    44064    44155    44230    44293    44346 
   44378    44398    44410    44412    44404    44389    44370    44356 
   44343    44317    44277    44224    44166    44100    44034    43968 
   43893    43819    43761    43713    43668    43642    43633    43629 
   43636    43669    43725    43787    43853    43924    43999    44072 
   44142    44207    44273    44342    44401    44446    44483    44516 
   44539    44547    44541    44529    44510    44497    44489    44477 
   44462    44451    44439    44424    44417    44412    44402    44392 
   44381    44373    44373    44378    44388    44410    44439    44462 
   44485    44501    44491    44460    44423    44386    44354    44312 
   44258    44203    44146    44088    44032    43978    43926    43872 
   43812    43765    43734    43703    43664    43633    43619    43619 
   43625    43626    43625    43629    43636    43644    43657    43676 
   43698    43722    43749    43784    43822    43866    43933    44005 
   44070    44132    44200    44270    44334    44389    44436    44489 
   44551    44617    44686    44744    44791    44830    44860    44884 
   44901    44911    44926    44945    44961    44973    44979    44988 
   45014    45048    45076    45090    45091    45088    45083    45079 
   45094    45117    45127    45127    45127    45129    45121    45100 
   45069    45040    44999    44942    44878    44801    44707    44609 
   44506    44398    44278    44147    44023    43916    43830    43748 
   43663    43584    43513    43436    43360    43301    43264    43249 
   43255    43276    43308    43348    43410    43502    43617    43754 
   43893    44016    44132    44251    44374    44490    44595    44694 
   44780    44855    44926    44994    45050    45103    45149    45179 
   45189    45189    45188    45180    45168    45160    45158    45165 
   45179    45192    45206    45229    45260    45295    45331    45370 
   45411    45450    45485    45513    45540    45573    45604    45631 
   45648    45651    45642    45625    45604    45585    45565    45532 
   45493    45457    45428    45399    45370    45350    45327    45288 
   45246    45207    45158    45100    45057    45029    44999    44975 
   44959    44950    44957    44976    44999    45031    45076    45126 
   45175    45218    45257    45299    45338    45369    45388    45395 
   45391    45370    45330    45277    45215    45145    45068    44992 
   44917    44833    44736    44635    44527    44415    44296    44165 
   44031    43900    43777    43668    43569    43470    43371    43293 
   43228    43168    43127    43096    43073    43060    43054    43058 
   43074    43092    43109    43129    43155    43187    43229    43281 
   43330    43371    43399    43413    43409    43393    43382    43382 
   43386    43391    43397    43399    43402    43402    43398    43394 
   43386    43378    43380    43394    43409    43417    43425    43438 
   43453    43472    43499    43532    43569    43607    43649    43700 
   43742    43767    43775    43772    43768    43769    43769    43768 
   43761    43741    43708    43675    43630    43565    43486    43398 
