Origin Time       2025/01/13 21:19:00
Lat.              31.8
Long.             131.6
Depth. (km)       30
Mag.              6.9
Station Code      OKYH07
Station Lat.      35.0493
Station Long.     133.3169
Station Height(m) 463.5
Record Time       2025/01/13 21:21:01
Sampling Freq(Hz) 100Hz
Duration Time(s)  120
Dir.              3
Scale Factor      3923(gal)/8224838
Max. Acc. (gal)   0.699
Last Correction   2025/01/13 21:21:02
Memo.             
[...]
  -45959   -45968   -45982   -46001   -46026   -46052   -46074   -46089 
  -46101   -46113   -46122   -46128   -46134   -46137   -46132   -46133 
  -46137   -46130   -46117   -46105   -46098   -46093   -46087   -46082 
  -46074   -46068   -46071   -46071   -46066   -46066   -46066   -46059 
  -46049   -46035   -46016   -46002   -45994   -45983   -45974   -45970 
  -45971   -45972   -45975   -45987   -46003   -46017   -46029   -46036 
  -46043   -46055   -46063   -46071   -46082   -46084   -46079   -46080 
  -46090   -46098   -46099   -46098   -46094   -46086   -46079   -46076 
  -46072   -46068   -46062   -46055   -46052   -46055   -46060   -46063 
  -46059   -46049   -46045   -46051   -46062   -46072   -46083   -46099 
  -46120   -46136   -46152   -46164   -46174   -46183   -46192   -46199 
  -46205   -46209   -46214   -46229   -46251   -46265   -46276   -46295 
  -46319   -46334   -46349   -46365   -46383   -46403   -46427   -46450 
  -46477   -46508   -46539   -46565   -46588   -46608   -46623   -46634 
  -46637   -46630   -46624   -46624   -46615   -46589   -46569   -46554 
  -46537   -46519   -46503   -46484   -46457   -46430   -46403   -46376 
  -46345   -46311   -46272   -46234   -46203   -46172   -46136   -46103 
  -46079   -46060   -46052   -46048   -46044   -46040   -46033   -46030 
  -46032   -46035   -46044   -46055   -46057   -46060   -46071   -46084 
  -46101   -46117   -46130   -46140   -46153   -46171   -46183   -46188 
  -46195   -46194   -46190   -46188   -46187   -46184   -46179   -46175 
  -46174   -46175   -46176   -46176   -46168   -46153   -46132   -46103 
  -46078   -46057   -46037   -46022   -46014   -46010   -46009   -46014 
  -46024   -46032   -46039   -46044   -46044   -46043   -46049   -46059 
  -46066   -46080   -46102   -46128   -46159   -46184   -46206   -46233 
  -46257   -46275   -46292   -46306   -46315   -46322   -46323   -46326 
  -46332   -46336   -46341   -46345   -46348   -46350   -46356   -46364 
  -46376   -46384   -46386   -46384   -46392   -46413   -46433   -46446 
  -46460   -46475   -46487   -46498   -46504   -46503   -46502   -46510 
  -46518   -46521   -46526   -46537   -46548   -46552   -46554   -46557 
  -46558   -46552   -46541   -46530   -46518   -46507   -46495   -46477 
  -46456   -46438   -46421   -46403   -46381   -46360   -46344   -46327 
  -46310   -46292   -46271   -46248   -46233   -46218   -46201   -46184 
  -46170   -46163   -46161   -46160   -46167   -46187   -46205   -46219 
  -46237   -46251   -46260   -46272   -46282   -46287   -46288   -46288 
  -46292   -46299   -46306   -46310   -46315   -46318   -46319   -46319 
  -46314   -46303   -46295   -46282   -46269   -46267   -46264   -46256 
  -46259   -46267   -46268   -46271   -46275   -46279   -46282   -46287 
  -46292   -46292   -46295   -46299   -46300   -46302   -46307   -46319 
  -46334   -46352   -46373   -46390   -46400   -46408   -46415   -46422 
  -46425   -46423   -46422   -46418   -46410   -46399   -46391   -46386 
  -46373   -46354   -46344   -46337   -46322   -46305   -46290   -46275 
  -46257   -46234   -46210   -46183   -46156   -46134   -46113   -46091 
  -46078   -46067   -46056   -46048   -46045   -46047   -46052   -46059 
  -46063   -46062   -46052   -46037   -46020   -46001   -45979   -45959 
  -45941   -45924   -45912   -45905   -45902   -45902   -45901   -45901 
  -45901   -45906   -45912   -45914   -45924   -45936   -45949   -45962 
  -45970   -45979   -46001   -46025   -46051   -46084   -46114   -46137 
  -46156   -46172   -46194   -46215   -46230   -46245   -46260   -46278 
  -46295   -46306   -46317   -46329   -46333   -46336   -46342   -46348 
  -46349   -46352   -46359   -46364   -46357   -46344   -46337   -46327 
  -46307   -46287   -46276   -46267   -46257   -46249   -46245   -46246 
  -46253   -46259   -46265   -46280   -46298   -46319   -46340   -46356 
  -46372   -46392   -46410   -46425   -46437   -46444   -46446   -46444 
  -46433   -46423   -46411   -46395   -46377   -46360   -46346   -46336 
  -46323   -46314   -46306   -46298   -46295   -46295   -46291   -46288 
  -46290   -46286   -46286   -46288   -46287   -46290   -46292   -46284 
  -46275   -46267   -46249   -46229   -46213   -46187   -46155   -46130 
  -46105   -46076   -46059   -46048   -46036   -46022   -46012   -46002 
  -45994   -45995   -46001   -46005   -46012   -46025   -46044   -46066 
  -46089   -46116   -46141   -46164   -46184   -46197   -46202   -46207 
  -46213   -46218   -46217   -46217   -46219   -46222   -46221   -46218 
  -46219   -46224   -46225   -46222   -46222   -46224   -46224   -46224 
  -46225   -46221   -46215   -46210   -46203   -46194   -46188   -46182 
  -46172   -46163   -46147   -46130   -46122   -46114   -46103   -46097 
  -46086   -46075   -46070   -46063   -46057   -46055   -46048   -46041 
  -46045   -46056   -46070   -46083   -46097   -46107   -46120   -46132 
  -46147   -46161   -46176   -46188   -46197   -46203   -46214   -46226 
  -46236   -46246   -46259   -46268   -46280   -46292   -46300   -46306 
  -46310   -46317   -46323   -46330   -46340   -46348   -46356   -46364 
  -46376   -46384   -46390   -46398   -46408   -46415   -46418   -46421 
  -46421   -46417   -46408   -46400   -46390   -46377   -46372   -46372 
  -46377   -46388   -46399   -46408   -46419   -46434   -46453   -46472 
  -46479   -46481   -46483   -46480   -46468   -46450   -46429   -46406 
  -46384   -46361   -46332   -46300   -46275   -46249   -46222   -46205 
  -46192   -46180   -46179   -46182   -46184   -46192   -46210   -46230 
  -46252   -46278   -46305   -46337   -46375   -46410   -46444   -46484 
  -46522   -46552   -46583   -46608   -46626   -46643   -46664   -46677 
  -46683   -46685   -46692   -46699   -46703   -46700   -46693   -46689 
  -46693   -46695   -46696   -46697   -46695   -46693   -46691   -46684 
  -46677   -46666   -46651   -46634   -46614   -46589   -46562   -46537 
  -46510   -46481   -46450   -46419   -46381   -46337   -46292   -46245 
  -46195   -46145   -46095   -46043   -45990   -45940   -45890   -45840 
  -45794   -45754   -45719   -45692   -45663   -45639   -45621   -45601 
  -45585   -45576   -45566   -45563   -45567   -45574   -45581   -45586 
  -45597   -45611   -45624   -45635   -45646   -45661   -45677   -45693 
  -45708   -45716   -45721   -45735   -45750   -45762   -45775   -45792 
  -45804   -45816   -45828   -45837   -45841   -45840   -45836   -45840 
  -45844   -45841   -45840   -45848   -45854   -45860   -45874   -45890 
  -45905   -45924   -45947   -45970   -45991   -46009   -46026   -46047 
  -46066   -46079   -46094   -46105   -46109   -46107   -46101   -46097 
  -46090   -46075   -46064   -46056   -46040   -46025   -46014   -46005 
  -45997   -45994   -45991   -45991   -45993   -45998   -46008   -46016 
  -46022   -46030   -46041   -46052   -46070   -46089   -46103   -46120 
  -46138   -46160   -46183   -46205   -46230   -46256   -46275   -46294 
  -46314   -46336   -46364   -46394   -46414   -46430   -46442   -46452 
  -46461   -46471   -46476   -46479   -46481   -46483   -46488   -46494 
  -46496   -46506   -46522   -46537   -46560   -46589   -46620   -46651 
  -46685   -46720   -46751   -46780   -46808   -46832   -46855   -46870 
  -46878   -46885   -46890   -46890   -46889   -46882   -46867   -46851 
  -46830   -46804   -46776   -46747   -46719   -46689   -46656   -46622 
  -46589   -46556   -46522   -46485   -46452   -46418   -46381   -46346 
  -46311   -46272   -46234   -46202   -46170   -46136   -46107   -46084 
  -46066   -46047   -46032   -46020   -46010   -45999   -45991   -45989 
  -45987   -45989   -45994   -46001   -46012   -46029   -46047   -46066 
  -46089   -46110   -46128   -46149   -46165   -46176   -46183   -46186 
  -46187   -46183   -46176   -46163   -46144   -46122   -46097   -46074 
  -46055   -46043   -46029   -46016   -46008   -46009   -46020   -46041 
  -46064   -46087   -46117   -46148   -46180   -46214   -46248   -46280 
  -46315   -46354   -46396   -46433   -46471   -46518   -46565   -46608 
  -46653   -46700   -46746   -46788   -46827   -46862   -46896   -46932 
  -46963   -46985   -47008   -47035   -47052   -47066   -47082   -47096 
  -47098   -47100   -47098   -47092   -47077   -47054   -47029   -47004 
  -46971   -46938   -46900   -46857   -46812   -46770   -46718   -46657 
  -46597   -46537   -46472   -46408   -46346   -46284   -46221   -46155 
  -46093   -46037   -45986   -45939   -45893   -45851   -45814   -45783 
  -45755   -45729   -45708   -45694   -45684   -45675   -45678   -45684 
  -45688   -45698   -45711   -45724   -45740   -45752   -45762   -45770 
  -45777   -45781   -45781   -45771   -45759   -45751   -45736   -45720 
  -45702   -45677   -45646   -45615   -45586   -45555   -45531   -45509 
  -45489   -45476   -45470   -45472   -45482   -45503   -45527   -45563 
  -45611   -45666   -45728   -45797   -45868   -45943   -46018   -46099 
  -46180   -46257   -46330   -46404   -46475   -46538   -46596   -46642 
  -46676   -46704   -46723   -46728   -46737   -46743   -46745   -46742 
  -46745   -46749   -46751   -46754   -46751   -46754   -46765   -46776 
  -46786   -46803   -46822   -46842   -46865   -46886   -46904   -46920 
  -46931   -46936   -46939   -46935   -46920   -46893   -46861   -46824 
  -46776   -46719   -46654   -46576   -46488   -46394   -46294   -46184 
  -46074   -45959   -45843   -45727   -45609   -45499   -45403   -45311 
  -45223   -45152   -45092   -45041   -45000   -44982   -44975   -44975 
  -44984   -45004   -45034   -45072   -45111   -45158   -45210   -45261 
  -45315   -45370   -45420   -45469   -45517   -45565   -45608   -45648 
  -45688   -45729   -45770   -45810   -45856   -45904   -45949   -45991 
  -46041   -46095   -46147   -46192   -46241   -46287   -46325   -46359 
  -46390   -46414   -46434   -46449   -46462   -46469   -46471   -46479 
  -46489   -46492   -46495   -46500   -46507   -46510   -46507   -46507 
  -46507   -46502   -46495   -46488   -46480   -46467   -46453   -46437 
  -46418   -46398   -46379   -46356   -46329   -46296   -46259   -46222 
  -46187   -46149   -46107   -46067   -46029   -45994   -45960   -45929 
  -45904   -45875   -45851   -45836   -45824   -45806   -45797   -45793 
  -45789   -45790   -45796   -45802   -45817   -45840   -45863   -45895 
  -45935   -45971   -46010   -46059   -46106   -46152   -46206   -46265 
  -46319   -46371   -46426   -46483   -46535   -46585   -46629   -46669 
  -46707   -46739   -46770   -46801   -46823   -46843   -46859   -46866 
  -46872   -46877   -46880   -46882   -46882   -46876   -46869   -46862 
  -46851   -46838   -46826   -46804   -46774   -46746   -46715   -46674 
  -46630   -46585   -46542   -46498   -46454   -46419   -46386   -46348 
  -46318   -46298   -46272   -46246   -46233   -46224   -46218   -46224 
  -46237   -46251   -46265   -46284   -46311   -46341   -46364   -46388 
  -46414   -46438   -46462   -46483   -46500   -46521   -46541   -46557 
  -46570   -46584   -46595   -46606   -46616   -46623   -46622   -46620 
  -46620   -46618   -46612   -46606   -46592   -46576   -46562   -46543 
  -46514   -46480   -46445   -46404   -46361   -46321   -46283   -46242 
  -46197   -46160   -46130   -46099   -46067   -46037   -46014   -46001 
  -45990   -45979   -45982   -45993   -46009   -46032   -46060   -46093 
  -46136   -46180   -46222   -46272   -46325   -46376   -46425   -46467 
  -46504   -46542   -46579   -46610   -46637   -46656   -46668   -46680 
  -46693   -46708   -46715   -46718   -46722   -46718   -46710   -46704 
  -46695   -46680   -46661   -46637   -46610   -46577   -46539   -46496 
  -46449   -46396   -46341   -46283   -46226   -46178   -46130   -46082 
  -46041   -46003   -45967   -45939   -45916   -45894   -45875   -45858 
  -45839   -45824   -45814   -45805   -45796   -45785   -45771   -45758 
  -45742   -45721   -45704   -45684   -45659   -45638   -45619   -45601 
  -45588   -45577   -45567   -45557   -45549   -45546   -45546   -45544 
  -45543   -45539   -45540   -45546   -45551   -45557   -45570   -45592 
  -45620   -45655   -45692   -45738   -45794   -45854   -45917   -45985 
  -46051   -46116   -46180   -46241   -46294   -46342   -46391   -46434 
  -46471   -46502   -46526   -46545   -46561   -46573   -46576   -46576 
  -46575   -46569   -46560   -46550   -46543   -46535   -46527   -46519 
  -46510   -46496   -46485   -46475   -46460   -46446   -46434   -46423 
  -46418   -46411   -46402   -46399   -46400   -46403   -46400   -46402 
  -46406   -46404   -46400   -46391   -46376   -46363   -46346   -46322 
  -46294   -46261   -46228   -46191   -46147   -46098   -46047   -45991 
  -45935   -45878   -45823   -45771   -45725   -45681   -45642   -45612 
  -45594   -45582   -45573   -45571   -45578   -45590   -45609   -45636 
  -45671   -45712   -45756   -45804   -45854   -45905   -45959   -46013 
  -46057   -46103   -46148   -46187   -46228   -46272   -46311   -46346 
  -46384   -46425   -46458   -46494   -46525   -46548   -46561   -46573 
  -46581   -46580   -46569   -46552   -46531   -46508   -46477   -46437 
  -46398   -46357   -46313   -46269   -46225   -46178   -46130   -46084 
  -46039   -45990   -45945   -45898   -45847   -45797   -45748   -45702 
  -45657   -45616   -45586   -45559   -45536   -45522   -45511   -45504 
  -45511   -45527   -45547   -45569   -45598   -45639   -45686   -45740 
  -45801   -45873   -45949   -46026   -46110   -46203   -46292   -46379 
  -46468   -46561   -46651   -46737   -46816   -46896   -46975   -47048 
  -47117   -47189   -47258   -47316   -47371   -47430   -47484   -47530 
  -47575   -47617   -47649   -47673   -47691   -47700   -47699   -47692 
  -47679   -47655   -47623   -47590   -47547   -47495   -47439   -47376 
  -47309   -47237   -47162   -47082   -46998   -46911   -46822   -46732 
  -46641   -46549   -46460   -46368   -46278   -46186   -46101   -46020 
  -45943   -45870   -45801   -45731   -45667   -45615   -45562   -45519 
  -45486   -45459   -45445   -45436   -45432   -45441   -45455   -45473 
  -45499   -45526   -45553   -45588   -45623   -45658   -45694   -45732 
  -45767   -45801   -45833   -45866   -45897   -45920   -45943   -45966 
  -45982   -45994   -46003   -46006   -46006   -46006   -46006   -46003 
  -46001   -45999   -45995   -45989   -45983   -45979   -45978   -45975 
  -45966   -45958   -45954   -45945   -45937   -45928   -45918   -45905 
  -45893   -45882   -45873   -45870   -45874   -45882   -45895   -45917 
  -45941   -45970   -45999   -46024   -46052   -46083   -46111   -46136 
  -46163   -46190   -46214   -46238   -46265   -46290   -46318   -46352 
  -46379   -46404   -46434   -46460   -46484   -46510   -46531   -46556 
  -46579   -46599   -46619   -46638   -46657   -46674   -46687   -46700 
  -46711   -46714   -46719   -46726   -46724   -46720   -46718   -46707 
  -46689   -46672   -46651   -46626   -46597   -46569   -46541   -46515 
  -46488   -46462   -46442   -46423   -46404   -46388   -46376   -46368 
  -46360   -46354   -46360   -46369   -46375   -46386   -46403   -46419 
  -46437   -46456   -46472   -46492   -46512   -46527   -46541   -46553 
  -46561   -46570   -46577   -46579   -46583   -46583   -46575   -46564 
  -46549   -46530   -46508   -46484   -46456   -46422   -46386   -46353 
  -46317   -46278   -46248   -46218   -46183   -46153   -46122   -46084 
  -46048   -46012   -45970   -45927   -45885   -45839   -45793   -45750 
  -45701   -45652   -45609   -45569   -45528   -45489   -45451   -45416 
  -45384   -45353   -45328   -45307   -45292   -45283   -45276   -45276 
  -45284   -45293   -45310   -45333   -45361   -45391   -45427   -45466 
  -45508   -45553   -45601   -45652   -45704   -45756   -45817   -45882 
  -45944   -46009   -46079   -46148   -46221   -46295   -46368   -46445 
  -46519   -46587   -46653   -46718   -46776   -46831   -46884   -46930 
  -46969   -47004   -47034   -47062   -47083   -47093   -47097   -47098 
  -47089   -47075   -47054   -47021   -46988   -46951   -46908   -46862 
  -46815   -46759   -46697   -46639   -46580   -46515   -46448   -46380 
  -46311   -46246   -46184   -46121   -46062   -46008   -45958   -45913 
  -45873   -45837   -45804   -45771   -45743   -45723   -45709   -45698 
  -45690   -45689   -45689   -45693   -45704   -45716   -45728   -45742 
  -45760   -45779   -45796   -45808   -45820   -45833   -45843   -45851 
  -45858   -45862   -45866   -45871   -45871   -45868   -45867   -45864 
  -45864   -45866   -45864   -45868   -45874   -45881   -45891   -45902 
  -45918   -45937   -45954   -45972   -45993   -46010   -46026   -46043 
  -46052   -46052   -46048   -46047   -46044   -46032   -46018   -46003 
  -45989   -45976   -45963   -45948   -45937   -45927   -45918   -45914 
  -45913   -45913   -45913   -45914   -45916   -45918   -45924   -45929 
  -45936   -45945   -45958   -45971   -45985   -46001   -46016   -46029 
  -46052   -46079   -46103   -46125   -46151   -46176   -46205   -46233 
  -46260   -46288   -46315   -46340   -46361   -46383   -46404   -46425 
  -46438   -46452   -46468   -46480   -46489   -46498   -46503   -46504 
  -46506   -46502   -46492   -46483   -46473   -46461   -46450   -46440 
  -46426   -46414   -46406   -46396   -46386   -46375   -46364   -46354 
  -46338   -46318   -46300   -46280   -46257   -46237   -46214   -46194 
  -46179   -46164   -46147   -46132   -46124   -46124   -46125   -46125 
  -46132   -46141   -46148   -46161   -46179   -46194   -46206   -46221 
  -46237   -46252   -46267   -46280   -46294   -46306   -46318   -46330 
  -46340   -46348   -46359   -46367   -46371   -46373   -46373   -46369 
  -46364   -46357   -46349   -46342   -46334   -46321   -46309   -46299 
  -46288   -46273   -46257   -46244   -46233   -46226   -46218   -46211 
  -46207   -46207   -46206   -46211   -46222   -46234   -46248   -46269 
  -46292   -46314   -46341   -46375   -46408   -46442   -46476   -46508 
  -46537   -46566   -46592   -46612   -46634   -46657   -46673   -46689 
  -46704   -46715   -46726   -46738   -46750   -46762   -46773   -46785 
  -46803   -46820   -46839   -46858   -46880   -46900   -46917   -46934 
  -46950   -46965   -46975   -46982   -46984   -46982   -46980   -46975 
  -46963   -46947   -46932   -46915   -46893   -46876   -46854   -46828 
  -46805   -46781   -46751   -46723   -46697   -46665   -46634   -46604 
  -46575   -46543   -46510   -46475   -46442   -46407   -46372   -46342 
  -46310   -46273   -46244   -46217   -46188   -46161   -46143   -46126 
  -46114   -46103   -46099   -46102   -46107   -46114   -46125   -46143 
  -46159   -46172   -46187   -46199   -46206   -46210   -46214   -46211 
  -46207   -46198   -46180   -46167   -46148   -46121   -46095   -46067 
  -46035   -46006   -45974   -45939   -45910   -45885   -45852   -45824 
  -45802   -45782   -45762   -45742   -45723   -45708   -45696   -45684 
  -45678   -45677   -45678   -45685   -45697   -45709   -45728   -45754 
  -45779   -45810   -45847   -45881   -45912   -45948   -45987   -46028 
  -46066   -46103   -46141   -46180   -46215   -46246   -46279   -46309 
  -46338   -46364   -46390   -46415   -46438   -46453   -46467   -46485 
  -46504   -46518   -46537   -46558   -46575   -46589   -46608   -46627 
  -46642   -46651   -46662   -46669   -46672   -46669   -46664   -46656 
  -46642   -46624   -46607   -46588   -46564   -46537   -46508   -46479 
  -46450   -46421   -46387   -46350   -46317   -46283   -46245   -46209 
  -46174   -46134   -46095   -46057   -46024   -45993   -45962   -45932 
