Origin Time       2025/01/13 21:19:00
Lat.              31.8
Long.             131.6
Depth. (km)       30
Mag.              6.9
Station Code      OKYH09
Station Lat.      35.1809
Station Long.     133.6765
Station Height(m) 305
Record Time       2025/01/13 21:21:29
Sampling Freq(Hz) 100Hz
Duration Time(s)  120
Dir.              1
Scale Factor      2942(gal)/8224139
Max. Acc. (gal)   0.293
Last Correction   2025/01/13 21:21:30
Memo.             
[...]
  -10219   -10210   -10200   -10197   -10192   -10184   -10180   -10170 
  -10157   -10157   -10156   -10137   -10120   -10112   -10106   -10103 
  -10106   -10114   -10126   -10133   -10129   -10129   -10138   -10145 
  -10153   -10166   -10184   -10193   -10195   -10196   -10200   -10212 
  -10233   -10251   -10255   -10247   -10237   -10215   -10179   -10147 
  -10133   -10122   -10115   -10112   -10108   -10098   -10081   -10077 
  -10084   -10093   -10095   -10092   -10093   -10088   -10073   -10073 
  -10093   -10111   -10130   -10157   -10177   -10195   -10212   -10216 
  -10211   -10216   -10233   -10243   -10253   -10272   -10289   -10307 
  -10330   -10349   -10358   -10359   -10355   -10361   -10381   -10401 
  -10415   -10420   -10417   -10405   -10399   -10403   -10408   -10407 
  -10409   -10415   -10412   -10399   -10382   -10373   -10366   -10349 
  -10324   -10307   -10303   -10304   -10314   -10326   -10330   -10328 
  -10332   -10339   -10343   -10339   -10328   -10312   -10301   -10301 
  -10308   -10315   -10319   -10318   -10303   -10282   -10274   -10276 
  -10280   -10281   -10277   -10265   -10257   -10250   -10237   -10220 
  -10206   -10191   -10172   -10154   -10138   -10120   -10108   -10110 
  -10108   -10091   -10072   -10060   -10050   -10046   -10053   -10066 
  -10076   -10077   -10081   -10095   -10106   -10100   -10087   -10083 
  -10088   -10092   -10095   -10098   -10093   -10085   -10085   -10089 
  -10087   -10084   -10081   -10076   -10076   -10077   -10073   -10066 
  -10058   -10042   -10026   -10027   -10037   -10035   -10022   -10014 
  -10021   -10035   -10045   -10045   -10037   -10023   -10021   -10039 
  -10062   -10077   -10093   -10114   -10129   -10138   -10137   -10134 
  -10139   -10149   -10161   -10179   -10192   -10199   -10214   -10237 
  -10258   -10280   -10301   -10320   -10328   -10322   -10314   -10315 
  -10319   -10316   -10311   -10307   -10301   -10305   -10324   -10343 
  -10347   -10338   -10319   -10299   -10284   -10280   -10273   -10257 
  -10230   -10199   -10177   -10166   -10161   -10152   -10137   -10115 
  -10100   -10095   -10089   -10081   -10079   -10076   -10072   -10068 
  -10068   -10072   -10075   -10077   -10080   -10075   -10060   -10049 
  -10052   -10057   -10053   -10046   -10039   -10027   -10015   -10011 
  -10019   -10039   -10065   -10089   -10114   -10143   -10181   -10226 
  -10261   -10278   -10284   -10295   -10316   -10339   -10358   -10378 
  -10396   -10404   -10409   -10415   -10408   -10400   -10405   -10408 
  -10404   -10405   -10400   -10384   -10368   -10357   -10342   -10322 
  -10299   -10272   -10250   -10239   -10230   -10214   -10193   -10170 
  -10149   -10150   -10173   -10197   -10214   -10219   -10216   -10208 
  -10196   -10184   -10180   -10193   -10218   -10238   -10247   -10255 
  -10265   -10274   -10284   -10292   -10300   -10305   -10307   -10307 
  -10301   -10296   -10295   -10292   -10288   -10284   -10269   -10245 
  -10224   -10212   -10208   -10206   -10200   -10195   -10197   -10203 
  -10207   -10208   -10214   -10220   -10228   -10239   -10250   -10254 
  -10253   -10253   -10257   -10266   -10274   -10274   -10272   -10270 
  -10272   -10276   -10276   -10269   -10265   -10268   -10266   -10266 
  -10268   -10265   -10254   -10238   -10220   -10208   -10201   -10196 
  -10189   -10179   -10169   -10154   -10134   -10122   -10125   -10133 
  -10134   -10127   -10114   -10102   -10084   -10062   -10045   -10031 
  -10011    -9983    -9956    -9926    -9899    -9880    -9868    -9857 
   -9841    -9826    -9823    -9829    -9837    -9850    -9865    -9877 
   -9894    -9913    -9930    -9954    -9996   -10038   -10068   -10092 
  -10120   -10153   -10189   -10219   -10237   -10246   -10254   -10266 
  -10282   -10301   -10312   -10311   -10309   -10312   -10309   -10304 
  -10305   -10309   -10308   -10300   -10292   -10285   -10281   -10274 
  -10258   -10235   -10214   -10192   -10173   -10156   -10142   -10137 
  -10133   -10126   -10119   -10111   -10108   -10108   -10098   -10083 
  -10080   -10084   -10091   -10095   -10092   -10089   -10095   -10114 
  -10135   -10145   -10147   -10150   -10150   -10150   -10150   -10143 
  -10122   -10104   -10102   -10096   -10080   -10068   -10061   -10053 
  -10046   -10046   -10054   -10066   -10076   -10080   -10083   -10085 
  -10088   -10092   -10098   -10099   -10096   -10096   -10108   -10119 
  -10126   -10127   -10129   -10141   -10157   -10170   -10187   -10208 
  -10226   -10243   -10268   -10285   -10289   -10297   -10320   -10346 
  -10363   -10381   -10397   -10403   -10399   -10392   -10385   -10385 
  -10396   -10404   -10401   -10401   -10409   -10419   -10430   -10440 
  -10444   -10439   -10432   -10430   -10428   -10424   -10419   -10412 
  -10407   -10401   -10400   -10399   -10393   -10392   -10399   -10407 
  -10416   -10419   -10419   -10427   -10435   -10439   -10446   -10449 
  -10446   -10443   -10440   -10443   -10449   -10451   -10450   -10440 
  -10422   -10400   -10382   -10365   -10342   -10314   -10293   -10277 
  -10255   -10234   -10219   -10199   -10177   -10154   -10127   -10098 
  -10073   -10050   -10026   -10008    -9987    -9956    -9929    -9915 
   -9903    -9882    -9860    -9842    -9828    -9817    -9810    -9805 
   -9801    -9794    -9784    -9778    -9771    -9768    -9768    -9767 
   -9771    -9784    -9803    -9826    -9849    -9868    -9890    -9915 
   -9937    -9949    -9952    -9956    -9960    -9963    -9967    -9968 
   -9967    -9972    -9980    -9988   -10002   -10012   -10019   -10035 
  -10056   -10068   -10081   -10100   -10116   -10130   -10138   -10149 
  -10169   -10191   -10211   -10233   -10262   -10295   -10328   -10357 
  -10377   -10396   -10417   -10439   -10453   -10459   -10463   -10467 
  -10467   -10469   -10470   -10465   -10461   -10461   -10451   -10428 
  -10407   -10386   -10359   -10326   -10297   -10268   -10235   -10208 
  -10189   -10168   -10149   -10135   -10120   -10110   -10108   -10118 
  -10133   -10146   -10161   -10184   -10210   -10233   -10254   -10276 
  -10297   -10326   -10358   -10388   -10411   -10434   -10457   -10480 
  -10504   -10525   -10540   -10550   -10562   -10577   -10597   -10612 
  -10621   -10629   -10635   -10635   -10629   -10617   -10594   -10571 
  -10551   -10525   -10500   -10473   -10438   -10400   -10362   -10328 
  -10300   -10276   -10251   -10224   -10195   -10166   -10131   -10092 
  -10058   -10030   -10004    -9984    -9968    -9952    -9938    -9927 
   -9907    -9886    -9875    -9872    -9871    -9868    -9861    -9859 
   -9863    -9864    -9869    -9879    -9888    -9900    -9921    -9944 
   -9964    -9984   -10006   -10027   -10050   -10068   -10079   -10093 
  -10112   -10129   -10146   -10162   -10172   -10176   -10170   -10154 
  -10131   -10104   -10075   -10049   -10025   -10000    -9973    -9945 
   -9915    -9887    -9861    -9837    -9810    -9782    -9760    -9740 
   -9714    -9690    -9672    -9656    -9641    -9639    -9641    -9641 
   -9643    -9651    -9663    -9672    -9682    -9690    -9702    -9720 
   -9740    -9757    -9764    -9765    -9771    -9779    -9783    -9787 
   -9795    -9811    -9828    -9837    -9846    -9859    -9873    -9894 
   -9923    -9956    -9981   -10002   -10022   -10041   -10061   -10083 
  -10103   -10116   -10127   -10139   -10150   -10158   -10169   -10177 
  -10183   -10191   -10197   -10203   -10218   -10233   -10246   -10262 
  -10278   -10295   -10314   -10332   -10347   -10363   -10389   -10415 
  -10439   -10462   -10484   -10505   -10527   -10547   -10579   -10615 
  -10642   -10663   -10679   -10686   -10694   -10708   -10725   -10737 
  -10740   -10736   -10729   -10716   -10697   -10674   -10646   -10615 
  -10581   -10543   -10511   -10478   -10446   -10416   -10384   -10353 
  -10326   -10292   -10249   -10201   -10161   -10131   -10106   -10073 
  -10038   -10012    -9990    -9963    -9934    -9903    -9872    -9845 
   -9826    -9810    -9787    -9763    -9738    -9713    -9690    -9672 
   -9659    -9656    -9660    -9666    -9671    -9683    -9697    -9706 
   -9718    -9734    -9751    -9768    -9782    -9799    -9825    -9848 
   -9873    -9906    -9933    -9961    -9998   -10034   -10065   -10093 
  -10115   -10135   -10153   -10170   -10188   -10199   -10204   -10212 
  -10220   -10224   -10235   -10247   -10257   -10266   -10272   -10272 
  -10272   -10273   -10276   -10289   -10305   -10308   -10307   -10307 
  -10309   -10316   -10324   -10331   -10338   -10343   -10350   -10357 
  -10368   -10385   -10404   -10420   -10435   -10446   -10455   -10469 
  -10480   -10486   -10488   -10490   -10496   -10503   -10507   -10511 
  -10513   -10515   -10516   -10517   -10515   -10513   -10515   -10511 
  -10508   -10513   -10511   -10503   -10497   -10492   -10492   -10501 
  -10511   -10519   -10530   -10538   -10548   -10566   -10588   -10605 
  -10624   -10647   -10670   -10692   -10713   -10729   -10741   -10752 
  -10763   -10777   -10787   -10793   -10793   -10791   -10790   -10785 
  -10771   -10750   -10724   -10697   -10663   -10623   -10578   -10532 
  -10486   -10440   -10392   -10343   -10300   -10258   -10219   -10185 
  -10157   -10130   -10104   -10079   -10054   -10033   -10015   -10002 
   -9994    -9991    -9984    -9972    -9961    -9952    -9941    -9938 
   -9940    -9940    -9945    -9956    -9968    -9983    -9996   -10000 
  -10002   -10003   -10008   -10015   -10018   -10014   -10011   -10012 
  -10011   -10006   -10003   -10003   -10003   -10003   -10003   -10003 
   -9996    -9987    -9981    -9979    -9972    -9964    -9956    -9948 
   -9942    -9931    -9921    -9917    -9914    -9913    -9914    -9915 
   -9913    -9907    -9900    -9894    -9888    -9882    -9876    -9872 
   -9863    -9853    -9849    -9845    -9840    -9833    -9826    -9826 
   -9829    -9828    -9825    -9819    -9815    -9818    -9826    -9833 
   -9836    -9834    -9834    -9836    -9838    -9838    -9833    -9829 
   -9830    -9838    -9859    -9882    -9906    -9937    -9969   -10006 
  -10052   -10104   -10158   -10208   -10250   -10288   -10327   -10369 
  -10407   -10446   -10486   -10517   -10543   -10566   -10582   -10581 
  -10563   -10536   -10505   -10473   -10439   -10401   -10353   -10299 
  -10250   -10206   -10158   -10114   -10071   -10027    -9990    -9954 
   -9927    -9910    -9898    -9888    -9880    -9869    -9857    -9845 
   -9836    -9826    -9819    -9817    -9814    -9806    -9798    -9792 
   -9792    -9794    -9792    -9795    -9809    -9830    -9856    -9886 
   -9917    -9949    -9981   -10017   -10052   -10091   -10133   -10174 
  -10215   -10251   -10282   -10307   -10330   -10350   -10366   -10385 
  -10401   -10408   -10405   -10400   -10395   -10388   -10376   -10357 
  -10336   -10312   -10281   -10246   -10215   -10179   -10142   -10111 
  -10080   -10044   -10006    -9972    -9937    -9904    -9880    -9857 
   -9833    -9814    -9799    -9782    -9771    -9765    -9764    -9768 
   -9778    -9791    -9807    -9830    -9855    -9882    -9910    -9942 
   -9969    -9994   -10023   -10054   -10081   -10100   -10115   -10131 
  -10147   -10161   -10176   -10189   -10204   -10218   -10230   -10239 
  -10242   -10246   -10253   -10254   -10255   -10261   -10265   -10272 
  -10281   -10293   -10311   -10332   -10358   -10386   -10422   -10461 
  -10496   -10527   -10559   -10592   -10624   -10662   -10698   -10727 
  -10755   -10777   -10787   -10790   -10789   -10778   -10762   -10735 
  -10698   -10655   -10609   -10558   -10505   -10450   -10392   -10332 
  -10272   -10206   -10135   -10072   -10008    -9944    -9882    -9819 
   -9764    -9710    -9661    -9616    -9572    -9540    -9520    -9505 
   -9489    -9475    -9464    -9455    -9448    -9441    -9432    -9428 
   -9431    -9432    -9435    -9444    -9454    -9467    -9489    -9512 
   -9536    -9567    -9597    -9626    -9661    -9702    -9745    -9795 
   -9849    -9899    -9941    -9981   -10026   -10071   -10112   -10150 
  -10187   -10220   -10255   -10292   -10330   -10366   -10404   -10451 
  -10505   -10552   -10597   -10646   -10686   -10719   -10754   -10789 
  -10817   -10839   -10860   -10881   -10895   -10901   -10893   -10878 
  -10866   -10849   -10825   -10795   -10759   -10719   -10678   -10638 
  -10596   -10555   -10513   -10476   -10444   -10422   -10408   -10396 
  -10384   -10369   -10361   -10361   -10355   -10347   -10343   -10342 
  -10341   -10339   -10332   -10322   -10314   -10307   -10303   -10305 
  -10309   -10305   -10299   -10292   -10285   -10278   -10268   -10257 
  -10245   -10230   -10219   -10214   -10212   -10208   -10203   -10199 
  -10193   -10188   -10185   -10187   -10189   -10196   -10206   -10215 
  -10224   -10237   -10250   -10261   -10270   -10280   -10289   -10300 
  -10311   -10318   -10324   -10334   -10339   -10339   -10335   -10326 
  -10314   -10303   -10295   -10284   -10272   -10262   -10250   -10242 
  -10243   -10245   -10243   -10243   -10246   -10249   -10251   -10253 
  -10251   -10247   -10245   -10243   -10243   -10241   -10238   -10237 
  -10237   -10233   -10228   -10227   -10222   -10210   -10200   -10195 
  -10183   -10166   -10153   -10139   -10125   -10107   -10091   -10079 
  -10068   -10052   -10035   -10022   -10011   -10000    -9995    -9990 
   -9984    -9979    -9967    -9946    -9931    -9921    -9906    -9888 
   -9863    -9826    -9787    -9748    -9699    -9647    -9601    -9556 
   -9513    -9474    -9440    -9409    -9383    -9366    -9356    -9356 
   -9371    -9396    -9424    -9455    -9494    -9540    -9591    -9652 
   -9714    -9782    -9850    -9917    -9981   -10053   -10131   -10208 
  -10280   -10354   -10426   -10493   -10558   -10620   -10677   -10729 
  -10778   -10817   -10849   -10879   -10899   -10910   -10917   -10920 
  -10909   -10893   -10872   -10845   -10813   -10777   -10732   -10682 
  -10631   -10578   -10519   -10457   -10395   -10327   -10258   -10196 
  -10149   -10103   -10050   -10003    -9963    -9925    -9888    -9857 
   -9830    -9799    -9774    -9755    -9736    -9721    -9703    -9683 
   -9670    -9663    -9657    -9656    -9660    -9660    -9657    -9664 
   -9679    -9697    -9720    -9749    -9783    -9825    -9872    -9917 
   -9961   -10012   -10068   -10123   -10180   -10235   -10287   -10330 
  -10368   -10401   -10434   -10461   -10484   -10498   -10505   -10503 
  -10494   -10478   -10458   -10435   -10405   -10369   -10330   -10289 
  -10249   -10210   -10170   -10135   -10103   -10075   -10049   -10033 
  -10025   -10023   -10023   -10023   -10022   -10026   -10038   -10057 
  -10077   -10098   -10120   -10142   -10165   -10188   -10208   -10227 
  -10243   -10255   -10262   -10265   -10268   -10266   -10261   -10255 
  -10253   -10247   -10238   -10230   -10220   -10207   -10191   -10172 
  -10146   -10112   -10076   -10031    -9983    -9938    -9896    -9857 
   -9821    -9790    -9767    -9756    -9752    -9753    -9757    -9763 
   -9775    -9795    -9818    -9841    -9865    -9891    -9918    -9948 
   -9976    -9999   -10023   -10053   -10084   -10108   -10135   -10158 
  -10179   -10201   -10220   -10235   -10249   -10258   -10265   -10266 
  -10264   -10261   -10253   -10245   -10238   -10230   -10220   -10212 
  -10208   -10211   -10218   -10231   -10246   -10261   -10281   -10307 
  -10332   -10359   -10385   -10416   -10453   -10489   -10525   -10563 
  -10600   -10635   -10671   -10708   -10744   -10777   -10802   -10824 
  -10844   -10862   -10879   -10895   -10906   -10908   -10901   -10883 
  -10855   -10821   -10786   -10747   -10700   -10647   -10596   -10543 
  -10486   -10431   -10377   -10323   -10270   -10218   -10161   -10100 
  -10042    -9987    -9936    -9894    -9857    -9821    -9788    -9760 
   -9733    -9713    -9701    -9693    -9690    -9693    -9699    -9711 
   -9724    -9738    -9760    -9783    -9806    -9833    -9863    -9891 
   -9925    -9964   -10003   -10044   -10089   -10137   -10185   -10241 
  -10299   -10358   -10419   -10477   -10532   -10588   -10642   -10689 
  -10729   -10767   -10804   -10836   -10863   -10889   -10910   -10932 
  -10945   -10948   -10947   -10944   -10933   -10912   -10885   -10855 
  -10820   -10782   -10739   -10698   -10660   -10625   -10589   -10548 
  -10507   -10466   -10427   -10386   -10345   -10304   -10264   -10230 
  -10199   -10169   -10141   -10110   -10079   -10044   -10002    -9971 
   -9944    -9913    -9883    -9850    -9821    -9798    -9771    -9740 
   -9710    -9680    -9653    -9630    -9613    -9601    -9595    -9597 
   -9603    -9617    -9634    -9660    -9691    -9726    -9767    -9814 
   -9868    -9925    -9979   -10037   -10103   -10169   -10233   -10297 
  -10368   -10440   -10512   -10578   -10636   -10687   -10733   -10767 
  -10787   -10801   -10804   -10795   -10782   -10764   -10736   -10704 
  -10669   -10623   -10571   -10525   -10476   -10424   -10377   -10327 
  -10274   -10226   -10189   -10157   -10123   -10089   -10056   -10023 
   -9991    -9964    -9944    -9925    -9907    -9898    -9894    -9890 
   -9890    -9891    -9891    -9896    -9911    -9929    -9944    -9961 
   -9979    -9992   -10006   -10021   -10034   -10045   -10053   -10060 
  -10065   -10065   -10062   -10056   -10045   -10031   -10017    -9996 
   -9971    -9949    -9930    -9913    -9898    -9884    -9872    -9860 
   -9850    -9840    -9826    -9813    -9801    -9792    -9788    -9787 
   -9788    -9794    -9802    -9809    -9813    -9817    -9822    -9830 
   -9834    -9837    -9841    -9842    -9841    -9836    -9828    -9818 
   -9806    -9784    -9759    -9732    -9701    -9664    -9629    -9599 
   -9572    -9549    -9525    -9499    -9477    -9458    -9445    -9439 
   -9440    -9448    -9459    -9478    -9497    -9513    -9537    -9568 
   -9602    -9636    -9667    -9694    -9720    -9748    -9779    -9811 
   -9841    -9873    -9910    -9942    -9967    -9992   -10017   -10035 
  -10056   -10076   -10091   -10103   -10108   -10108   -10111   -10112 
  -10108   -10102   -10091   -10073   -10053   -10031   -10006    -9980 
   -9960    -9940    -9922    -9914    -9910    -9913    -9922    -9936 
   -9953    -9983   -10017   -10054   -10096   -10139   -10176   -10218 
  -10257   -10288   -10323   -10363   -10401   -10443   -10488   -10532 
  -10578   -10621   -10662   -10700   -10733   -10763   -10791   -10812 
  -10831   -10852   -10874   -10893   -10912   -10929   -10939   -10944 
  -10947   -10945   -10943   -10939   -10929   -10916   -10899   -10878 
  -10849   -10821   -10791   -10759   -10720   -10675   -10627   -10578 
  -10524   -10466   -10408   -10349   -10295   -10245   -10195   -10147 
  -10108   -10071   -10041   -10018    -9996    -9981    -9977    -9979 
   -9988   -10004   -10025   -10050   -10080   -10111   -10146   -10181 
  -10215   -10250   -10285   -10314   -10342   -10369   -10392   -10408 
  -10422   -10431   -10439   -10443   -10442   -10434   -10424   -10409 
  -10392   -10376   -10363   -10347   -10330   -10312   -10293   -10276 
  -10262   -10247   -10231   -10218   -10212   -10210   -10201   -10196 
  -10195   -10193   -10189   -10181   -10172   -10160   -10143   -10127 
  -10114   -10103   -10091   -10073   -10050   -10025   -10003    -9980 
   -9954    -9933    -9913    -9890    -9871    -9852    -9830    -9809 
