Origin Time       2025/01/13 21:19:00
Lat.              31.8
Long.             131.6
Depth. (km)       30
Mag.              6.9
Station Code      OKYH03
Station Lat.      34.7783
Station Long.     133.7890
Station Height(m) -101.3
Record Time       2025/01/13 21:20:56
Sampling Freq(Hz) 100Hz
Duration Time(s)  120
Dir.              1
Scale Factor      3923(gal)/8224838
Max. Acc. (gal)   0.447
Last Correction   2025/01/13 21:20:57
Memo.             
[...]
    1448     1443     1428     1406     1386     1378     1381     1378 
    1358     1340     1340     1341     1329     1316     1313     1308 
    1291     1264     1240     1221     1189     1139     1108     1105 
    1112     1117     1116     1101     1078     1073     1089     1109 
    1131     1169     1215     1244     1252     1246     1221     1181 
    1152     1155     1169     1179     1185     1185     1178     1163 
    1139     1121     1109     1096     1081     1066     1054     1036 
    1015     1003      999      994      994      988      985      985 
     966      940      922      896      880      900      939      985 
    1024     1038     1031     1021     1027     1053     1082     1107 
    1139     1169     1174     1163     1152     1139     1138     1162 
    1190     1204     1213     1225     1239     1255     1275     1293 
    1310     1340     1374     1391     1397     1410     1443     1482 
    1502     1507     1518     1534     1566     1621     1678     1723 
    1757     1769     1771     1775     1784     1780     1742     1705 
    1699     1703     1698     1703     1718     1723     1729     1744 
    1760     1769     1773     1773     1771     1768     1763     1761 
    1768     1772     1763     1745     1725     1707     1688     1675 
    1659     1624     1576     1526     1489     1471     1462     1441 
    1417     1397     1382     1377     1372     1352     1329     1324 
    1327     1323     1304     1277     1264     1277     1291     1291 
    1289     1302     1318     1332     1344     1348     1350     1354 
    1347     1336     1328     1327     1333     1341     1341     1325 
    1300     1278     1251     1204     1159     1140     1129     1113 
    1108     1109     1090     1066     1062     1075     1097     1125 
    1148     1162     1185     1210     1228     1242     1255     1264 
    1277     1291     1298     1286     1262     1244     1243     1250 
    1258     1262     1260     1263     1275     1290     1302     1316 
    1335     1367     1401     1431     1478     1544     1590     1621 
    1655     1686     1707     1721     1713     1703     1705     1698 
    1680     1664     1644     1626     1620     1613     1603     1594 
    1593     1601     1607     1603     1587     1566     1544     1528 
    1516     1509     1509     1502     1483     1466     1443     1413 
    1397     1394     1393     1391     1381     1367     1371     1385 
    1398     1416     1418     1413     1417     1424     1432     1451 
    1467     1464     1451     1431     1404     1382     1381     1390 
    1394     1391     1372     1344     1320     1300     1278     1251 
    1217     1190     1178     1165     1152     1132     1098     1070 
    1053     1034     1011      977      934      903      896      912 
     939      961      982     1003     1023     1048     1078     1113 
    1159     1205     1244     1282     1324     1367     1397     1412 
    1421     1428     1426     1417     1409     1412     1422     1416 
    1397     1389     1383     1381     1378     1356     1310     1269 
    1237     1210     1194     1194     1200     1219     1252     1293 
    1332     1358     1374     1391     1405     1422     1448     1468 
    1490     1501     1502     1517     1539     1567     1603     1630 
    1648     1669     1691     1713     1730     1738     1746     1764 
    1779     1782     1784     1795     1807     1817     1826     1834 
    1837     1836     1838     1841     1842     1846     1860     1884 
    1903     1910     1904     1902     1903     1902     1885     1853 
    1814     1782     1752     1718     1683     1648     1614     1572 
    1512     1448     1395     1337     1267     1201     1140     1078 
    1003      916      827      749      683      623      576      550 
     540      541      553      573      602      630      657      681 
     706      737      778      822      869      931     1013     1090 
    1158     1227     1309     1401     1482     1551     1613     1655 
    1691     1740     1787     1821     1841     1844     1830     1815 
    1806     1788     1764     1744     1726     1701     1656     1607 
    1567     1517     1462     1408     1347     1289     1236     1179 
    1119     1066     1016      965      912      865      839      822 
     795      777      776      766      747      735      724      714 
     716      724      727      727      730      731      746      780 
     807      827      858      901      946      989     1026     1062 
    1104     1148     1196     1250     1306     1362     1418     1474 
    1528     1576     1605     1611     1615     1624     1626     1624 
    1620     1621     1628     1626     1614     1606     1605     1598 
    1586     1579     1583     1590     1587     1578     1567     1566 
    1575     1574     1561     1556     1553     1540     1520     1503 
    1494     1480     1455     1429     1398     1358     1320     1298 
    1283     1278     1287     1297     1302     1323     1347     1364 
    1387     1412     1431     1448     1472     1498     1521     1540 
    1557     1570     1571     1574     1580     1583     1583     1591 
    1607     1625     1638     1637     1624     1607     1586     1574 
    1583     1605     1617     1609     1582     1548     1507     1471 
    1456     1451     1447     1452     1459     1456     1449     1443 
    1429     1416     1406     1399     1391     1378     1360     1347 
    1339     1328     1312     1294     1274     1244     1213     1197 
    1190     1175     1158     1142     1136     1142     1144     1150 
    1162     1171     1181     1188     1177     1163     1167     1173 
    1171     1177     1197     1228     1277     1339     1395     1440 
    1486     1539     1588     1634     1676     1702     1719     1746 
    1768     1768     1763     1763     1752     1725     1682     1632 
    1591     1552     1493     1425     1368     1317     1269     1232 
    1192     1139     1100     1071     1034     1004      992      977 
     961      951      949      940      927      913      912      918 
     922      932      962     1003     1042     1084     1129     1171 
    1205     1236     1273     1302     1325     1348     1371     1387 
    1397     1410     1429     1436     1428     1421     1412     1391 
    1367     1337     1305     1277     1255     1236     1215     1196 
    1194     1206     1215     1220     1227     1232     1232     1231 
    1233     1237     1244     1254     1267     1301     1352     1394 
    1425     1458     1478     1478     1467     1458     1451     1451 
    1455     1455     1453     1466     1487     1510     1526     1540 
    1555     1571     1583     1590     1597     1598     1591     1594 
    1614     1642     1669     1694     1719     1749     1783     1814 
    1840     1861     1876     1880     1881     1884     1894     1910 
    1925     1931     1934     1934     1922     1900     1884     1876 
    1864     1834     1791     1746     1699     1647     1591     1534 
    1475     1408     1341     1287     1239     1192     1138     1078 
    1024      982      949      928      909      880      842      800 
     760      727      703      695      697      706      720      743 
     772      800      826      842      847      847      841      839 
     847      855      870      895      908      918      939      965 
     986     1001     1017     1040     1070     1104     1132     1150 
    1173     1196     1212     1231     1258     1285     1313     1341 
    1372     1416     1460     1498     1548     1607     1668     1737 
    1817     1894     1958     2007     2054     2100     2138     2168 
    2185     2192     2191     2176     2153     2134     2116     2095 
    2062     2018     1976     1942     1898     1838     1772     1698 
    1614     1529     1455     1385     1309     1235     1173     1132 
    1113     1098     1080     1061     1047     1048     1059     1066 
    1067     1075     1098     1128     1155     1178     1201     1229 
    1264     1310     1359     1409     1447     1462     1475     1505 
    1530     1552     1584     1615     1632     1641     1652     1663 
    1665     1664     1669     1679     1682     1671     1649     1625 
    1593     1549     1503     1459     1417     1375     1324     1267 
    1208     1151     1115     1098     1097     1102     1108     1115 
    1132     1148     1171     1206     1239     1256     1271     1285 
    1296     1313     1336     1356     1372     1385     1390     1389 
    1394     1414     1443     1467     1491     1517     1545     1576 
    1607     1632     1647     1653     1659     1663     1664     1664 
    1661     1663     1668     1669     1664     1661     1663     1660 
    1655     1649     1636     1615     1590     1567     1561     1570 
    1578     1580     1587     1602     1615     1622     1625     1625 
    1629     1645     1660     1669     1678     1687     1706     1741 
    1777     1802     1818     1826     1822     1811     1803     1798 
    1790     1783     1777     1769     1763     1757     1750     1744 
    1733     1714     1688     1656     1607     1552     1493     1433 
    1378     1320     1260     1202     1135     1065     1003      942 
     884      832      785      741      689      634      581      533 
     490      457      437      426      425      434      449      465 
     491      527      565      607      657      718      783      847 
     912      976     1040     1112     1181     1235     1270     1294 
    1305     1304     1298     1291     1290     1298     1302     1301 
    1306     1305     1300     1296     1293     1297     1305     1308 
    1310     1306     1291     1277     1266     1248     1229     1216 
    1206     1198     1188     1177     1174     1175     1170     1167 
    1170     1174     1183     1204     1225     1242     1255     1266 
    1271     1277     1282     1285     1278     1266     1258     1247 
    1236     1228     1220     1213     1201     1181     1170     1174 
    1179     1188     1198     1204     1204     1197     1188     1171 
    1146     1104     1053      997      936      880      827      770 
     715      669      639      621      599      579      581      599 
     614      629      656      700      757      816      870      930 
     999     1073     1154     1235     1317     1413     1513     1601 
    1687     1773     1856     1930     1993     2049     2096     2138 
    2174     2208     2235     2251     2259     2257     2243     2214 
    2176     2138     2091     2023     1946     1872     1796     1717 
    1645     1583     1520     1462     1413     1367     1324     1283 
    1247     1220     1201     1186     1173     1162     1151     1134 
    1115     1101     1089     1078     1080     1089     1102     1121 
    1142     1161     1177     1186     1189     1192     1200     1213 
    1231     1244     1251     1258     1269     1279     1289     1300 
    1310     1320     1329     1335     1325     1302     1281     1260 
    1237     1212     1188     1169     1159     1147     1127     1115 
    1105     1089     1071     1055     1039     1028     1023     1019 
    1023     1036     1046     1051     1058     1067     1077     1097 
    1134     1177     1221     1273     1321     1362     1404     1459 
    1518     1578     1648     1722     1786     1831     1872     1903 
    1919     1921     1917     1904     1879     1845     1815     1786 
    1742     1692     1641     1586     1528     1479     1451     1433 
    1409     1383     1362     1332     1298     1274     1259     1247 
    1232     1212     1186     1154     1127     1117     1112     1109 
    1117     1136     1170     1212     1252     1297     1344     1397 
    1445     1480     1513     1544     1579     1618     1657     1699 
    1742     1775     1806     1840     1868     1895     1925     1948 
    1964     1977     1979     1979     1980     1975     1966     1952 
    1934     1919     1902     1873     1848     1825     1803     1782 
    1753     1717     1676     1640     1613     1583     1545     1505 
    1449     1381     1310     1236     1165     1094     1016      928 
     839      760      691      625      571      531      502      479 
     469      469      473      491      519      553      600      652 
     706      765      828      895      966     1043     1120     1190 
    1255     1323     1397     1472     1545     1611     1665     1705 
    1738     1771     1802     1829     1853     1871     1883     1895 
    1902     1896     1881     1867     1860     1852     1826     1792 
    1767     1740     1714     1690     1657     1617     1578     1532 
    1476     1428     1387     1350     1323     1308     1301     1305 
    1316     1332     1356     1386     1412     1431     1451     1474 
    1487     1487     1490     1498     1512     1522     1536     1555 
    1582     1609     1640     1679     1723     1764     1798     1825 
    1850     1879     1904     1919     1929     1930     1921     1902 
    1877     1857     1837     1810     1773     1740     1703     1665 
    1633     1601     1566     1524     1482     1444     1405     1360 
    1318     1275     1235     1197     1158     1116     1074     1038 
    1008      988      967      940      903      858      807      756 
     700      637      579      527      483      449      427      418 
     422      436      453      471      483      503      530      554 
     583      611      638      673      718      766      827      895 
     965     1038     1113     1189     1260     1328     1391     1456 
    1525     1588     1644     1695     1738     1779     1821     1864 
    1900     1935     1964     1985     1998     1991     1979     1969 
    1956     1937     1917     1895     1871     1838     1814     1799 
    1777     1745     1709     1672     1640     1613     1588     1570 
    1557     1551     1544     1530     1510     1491     1478     1466 
    1459     1458     1462     1471     1486     1503     1522     1541 
    1552     1556     1560     1570     1580     1601     1625     1647 
    1659     1656     1640     1624     1610     1601     1591     1579 
    1572     1568     1561     1556     1555     1549     1543     1540 
    1532     1522     1517     1510     1503     1497     1485     1470 
    1452     1428     1405     1390     1381     1372     1358     1336 
    1312     1290     1270     1248     1224     1197     1169     1142 
    1105     1054      996      942      899      858      819      784 
     756      727      699      675      658      654      658      665 
     681      703      729      762      804      850      900      951 
    1004     1055     1100     1144     1194     1240     1274     1301 
    1331     1358     1381     1405     1426     1435     1429     1417 
    1405     1393     1385     1385     1385     1379     1371     1360 
    1343     1321     1297     1270     1244     1221     1197     1167 
    1135     1101     1066     1036     1021     1009      994      980 
     966      957      955      961      970      985     1011     1042 
    1071     1098     1127     1156     1181     1202     1225     1251 
    1275     1296     1309     1324     1343     1362     1385     1409 
    1432     1452     1472     1494     1509     1513     1503     1486 
    1470     1449     1420     1393     1359     1316     1277     1243 
    1213     1197     1193     1190     1183     1178     1178     1177 
    1178     1193     1213     1232     1258     1293     1327     1358 
    1395     1439     1482     1521     1559     1586     1607     1625 
    1636     1645     1663     1686     1707     1726     1738     1746 
    1745     1734     1722     1714     1703     1694     1690     1688 
    1686     1687     1687     1683     1680     1679     1675     1665 
    1653     1634     1613     1588     1561     1540     1521     1489 
    1452     1417     1382     1356     1339     1318     1293     1266 
    1239     1206     1170     1135     1101     1075     1061     1053 
    1044     1034     1026     1027     1036     1044     1050     1057 
    1062     1063     1062     1059     1054     1048     1046     1046 
    1050     1061     1077     1094     1105     1113     1119     1117 
    1116     1119     1127     1147     1167     1183     1205     1220 
    1231     1244     1258     1277     1305     1337     1366     1398 
    1437     1476     1516     1549     1571     1593     1622     1647 
    1667     1688     1702     1709     1718     1734     1750     1764 
    1775     1782     1777     1772     1768     1756     1736     1711 
    1690     1669     1651     1637     1626     1614     1601     1583 
    1559     1532     1505     1480     1451     1418     1395     1379 
    1366     1354     1343     1343     1354     1366     1382     1404 
    1425     1444     1456     1463     1470     1478     1479     1480 
    1482     1475     1472     1467     1451     1428     1405     1377 
    1339     1297     1252     1206     1155     1104     1057     1015 
     978      943      909      881      854      820      787      758 
     733      703      677      660      641      619      604      596 
     591      588      596      618      653      703      766      834 
     907      980     1043     1097     1144     1190     1232     1269 
    1305     1343     1379     1413     1444     1467     1480     1487 
    1494     1497     1494     1490     1490     1493     1494     1497 
    1497     1497     1495     1486     1464     1445     1432     1414 
    1397     1381     1366     1355     1345     1329     1316     1308 
    1301     1298     1298     1306     1320     1331     1344     1364 
    1385     1401     1418     1431     1436     1443     1455     1468 
    1475     1478     1483     1493     1503     1516     1528     1537 
    1540     1533     1520     1502     1472     1435     1401     1366 
    1323     1277     1236     1204     1175     1148     1121     1094 
    1069     1047     1026      999      966      932      896      859 
     832      811      795      780      766      764      769      778 
     791      807      822      831      849      873      892      911 
     932      957      980     1001     1024     1046     1059     1081 
    1111     1143     1178     1213     1243     1270     1297     1314 
    1321     1328     1345     1364     1382     1397     1399     1402 
    1416     1431     1439     1444     1444     1439     1439     1440 
    1439     1439     1440     1447     1458     1474     1491     1503 
    1510     1513     1510     1513     1524     1536     1553     1574 
    1597     1624     1653     1683     1711     1736     1759     1782 
    1802     1821     1838     1854     1877     1903     1931     1965 
    2000     2033     2062     2083     2093     2106     2119     2123 
    2119     2111     2097     2077     2054     2030     1998     1958 
    1915     1875     1836     1798     1763     1723     1674     1625 
    1583     1534     1478     1414     1350     1289     1229     1170 
    1117     1070     1026      984      946      912      885      861 
