Origin Time       2025/01/13 21:19:00
Lat.              31.8
Long.             131.6
Depth. (km)       30
Mag.              6.9
Station Code      OKYH05
Station Lat.      34.8684
Station Long.     133.8527
Station Height(m) 220
Record Time       2025/01/13 21:20:54
Sampling Freq(Hz) 100Hz
Duration Time(s)  127
Dir.              1
Scale Factor      3923(gal)/8224838
Max. Acc. (gal)   0.402
Last Correction   2025/01/13 21:20:55
Memo.             
[...]
  -18349   -18370   -18387   -18403   -18426   -18439   -18453   -18461 
  -18455   -18461   -18465   -18447   -18431   -18424   -18426   -18427 
  -18424   -18423   -18423   -18423   -18422   -18415   -18412   -18418 
  -18428   -18436   -18431   -18427   -18432   -18436   -18435   -18431 
  -18424   -18416   -18405   -18403   -18414   -18419   -18418   -18420 
  -18427   -18430   -18430   -18432   -18430   -18412   -18396   -18385 
  -18380   -18366   -18339   -18312   -18293   -18285   -18281   -18274 
  -18270   -18273   -18277   -18274   -18264   -18261   -18274   -18292 
  -18312   -18330   -18351   -18382   -18414   -18432   -18447   -18472 
  -18495   -18504   -18501   -18496   -18477   -18451   -18439   -18434 
  -18412   -18387   -18366   -18346   -18323   -18297   -18273   -18249 
  -18219   -18195   -18177   -18160   -18146   -18137   -18131   -18133 
  -18126   -18112   -18100   -18088   -18073   -18061   -18054   -18041 
  -18021   -18007   -18002   -17996   -17998   -18006   -18010   -18010 
  -18015   -18023   -18027   -18033   -18049   -18067   -18084   -18103 
  -18117   -18127   -18142   -18154   -18165   -18175   -18168   -18152 
  -18137   -18115   -18080   -18041   -18009   -17975   -17941   -17911 
  -17884   -17872   -17865   -17845   -17830   -17832   -17829   -17826 
  -17836   -17853   -17874   -17899   -17930   -17967   -18006   -18044 
  -18068   -18081   -18092   -18106   -18118   -18123   -18127   -18121 
  -18099   -18087   -18076   -18053   -18036   -18010   -17980   -17964 
  -17952   -17944   -17944   -17946   -17959   -17979   -18003   -18026 
  -18046   -18077   -18119   -18162   -18206   -18234   -18247   -18270 
  -18303   -18331   -18346   -18364   -18395   -18419   -18442   -18473 
  -18489   -18493   -18504   -18517   -18532   -18550   -18567   -18576 
  -18577   -18577   -18576   -18573   -18566   -18555   -18551   -18544 
  -18527   -18512   -18507   -18504   -18497   -18480   -18468   -18457 
  -18435   -18407   -18380   -18357   -18337   -18322   -18319   -18316 
  -18307   -18301   -18307   -18316   -18324   -18338   -18353   -18364 
  -18374   -18388   -18396   -18397   -18405   -18408   -18397   -18389 
  -18391   -18384   -18373   -18365   -18354   -18343   -18333   -18314 
  -18299   -18293   -18289   -18287   -18284   -18279   -18281   -18285 
  -18289   -18297   -18306   -18308   -18318   -18339   -18366   -18388 
  -18401   -18415   -18427   -18439   -18465   -18490   -18504   -18511 
  -18517   -18519   -18511   -18504   -18497   -18481   -18446   -18409 
  -18387   -18372   -18361   -18360   -18354   -18337   -18323   -18316 
  -18304   -18292   -18289   -18288   -18287   -18289   -18300   -18308 
  -18308   -18301   -18292   -18284   -18289   -18296   -18293   -18292 
  -18295   -18288   -18283   -18289   -18291   -18281   -18281   -18288 
  -18291   -18291   -18287   -18285   -18295   -18304   -18306   -18304 
  -18315   -18333   -18346   -18360   -18376   -18392   -18409   -18424 
  -18438   -18453   -18473   -18490   -18496   -18501   -18503   -18499 
  -18504   -18512   -18513   -18501   -18476   -18449   -18431   -18411 
  -18381   -18346   -18308   -18269   -18225   -18176   -18133   -18096 
  -18056   -18022   -18002   -17987   -17976   -17973   -17977   -17986 
  -17996   -18015   -18046   -18075   -18096   -18119   -18145   -18169 
  -18189   -18200   -18203   -18208   -18214   -18207   -18198   -18189 
  -18176   -18160   -18144   -18129   -18118   -18110   -18106   -18106 
  -18099   -18098   -18110   -18123   -18126   -18127   -18127   -18119 
  -18114   -18121   -18122   -18112   -18103   -18099   -18103   -18114 
  -18129   -18149   -18161   -18165   -18172   -18175   -18179   -18191 
  -18202   -18212   -18223   -18226   -18227   -18230   -18227   -18226 
  -18233   -18246   -18256   -18253   -18256   -18272   -18285   -18296 
  -18307   -18318   -18333   -18351   -18372   -18387   -18396   -18415 
  -18438   -18453   -18463   -18469   -18472   -18480   -18482   -18476 
  -18473   -18462   -18438   -18422   -18405   -18378   -18343   -18307 
  -18269   -18231   -18193   -18150   -18112   -18085   -18064   -18044 
  -18023   -18011   -18011   -18021   -18038   -18068   -18112   -18165 
  -18218   -18277   -18337   -18396   -18459   -18519   -18574   -18617 
  -18638   -18648   -18650   -18646   -18648   -18646   -18635   -18615 
  -18581   -18540   -18508   -18473   -18443   -18415   -18384   -18360 
  -18339   -18318   -18299   -18277   -18264   -18260   -18252   -18245 
  -18246   -18242   -18226   -18199   -18171   -18149   -18127   -18107 
  -18084   -18061   -18041   -18019   -17991   -17957   -17929   -17913 
  -17899   -17886   -17874   -17860   -17848   -17837   -17829   -17815 
  -17794   -17772   -17755   -17740   -17733   -17732   -17721   -17707 
  -17706   -17721   -17744   -17757   -17766   -17782   -17797   -17805 
  -17818   -17836   -17851   -17867   -17879   -17882   -17878   -17872 
  -17871   -17863   -17840   -17818   -17790   -17755   -17740   -17736 
  -17725   -17717   -17716   -17725   -17747   -17778   -17811   -17855 
  -17911   -17972   -18026   -18084   -18138   -18187   -18243   -18301 
  -18350   -18392   -18422   -18445   -18466   -18484   -18496   -18499 
  -18492   -18480   -18468   -18450   -18430   -18412   -18391   -18362 
  -18335   -18314   -18297   -18287   -18280   -18274   -18272   -18270 
  -18280   -18297   -18315   -18337   -18364   -18391   -18420   -18453 
  -18486   -18516   -18544   -18571   -18592   -18609   -18623   -18635 
  -18651   -18663   -18667   -18673   -18679   -18688   -18692   -18690 
  -18689   -18677   -18663   -18657   -18646   -18625   -18603   -18582 
  -18563   -18547   -18542   -18539   -18522   -18509   -18508   -18499 
  -18486   -18486   -18492   -18489   -18482   -18484   -18484   -18485 
  -18493   -18493   -18481   -18476   -18472   -18465   -18461   -18459 
  -18463   -18457   -18453   -18457   -18451   -18438   -18430   -18418 
  -18397   -18376   -18362   -18345   -18322   -18301   -18283   -18270 
  -18260   -18243   -18229   -18220   -18214   -18207   -18199   -18198 
  -18203   -18198   -18185   -18179   -18175   -18173   -18177   -18179 
  -18173   -18168   -18168   -18169   -18176   -18188   -18196   -18210 
  -18225   -18234   -18245   -18261   -18272   -18291   -18310   -18323 
  -18338   -18353   -18364   -18368   -18369   -18372   -18370   -18366 
  -18354   -18341   -18323   -18293   -18261   -18233   -18193   -18154 
  -18123   -18094   -18069   -18052   -18036   -18022   -18009   -17996 
  -17986   -17983   -17988   -17988   -17988   -18002   -18018   -18038 
  -18069   -18102   -18127   -18148   -18168   -18193   -18215   -18230 
  -18243   -18252   -18247   -18235   -18227   -18215   -18192   -18166 
  -18144   -18123   -18096   -18057   -18017   -17990   -17968   -17950 
  -17937   -17922   -17907   -17894   -17896   -17913   -17918   -17919 
  -17923   -17925   -17937   -17960   -17982   -17998   -18011   -18023 
  -18030   -18038   -18046   -18052   -18058   -18069   -18076   -18080 
  -18083   -18090   -18096   -18095   -18098   -18104   -18107   -18119 
  -18134   -18141   -18154   -18177   -18193   -18203   -18214   -18230 
  -18246   -18257   -18262   -18265   -18265   -18270   -18273   -18269 
  -18264   -18254   -18239   -18222   -18198   -18172   -18139   -18102 
  -18064   -18029   -17998   -17964   -17922   -17887   -17861   -17836 
  -17809   -17779   -17757   -17749   -17747   -17756   -17786   -17814 
  -17841   -17879   -17917   -17959   -18003   -18046   -18088   -18129 
  -18171   -18216   -18264   -18308   -18354   -18405   -18458   -18505 
  -18549   -18594   -18638   -18667   -18696   -18729   -18763   -18793 
  -18812   -18833   -18867   -18897   -18928   -18962   -18981   -18995 
  -19010   -19021   -19024   -19010   -18990   -18967   -18937   -18909 
  -18879   -18837   -18783   -18721   -18661   -18600   -18535   -18472 
  -18405   -18338   -18277   -18225   -18181   -18139   -18103   -18080 
  -18057   -18031   -18011   -17991   -17980   -17983   -17984   -17984 
  -17987   -17998   -18015   -18038   -18068   -18102   -18135   -18172 
  -18204   -18231   -18252   -18268   -18289   -18311   -18331   -18350 
  -18361   -18365   -18364   -18361   -18370   -18385   -18393   -18414 
  -18438   -18459   -18493   -18543   -18596   -18646   -18694   -18747 
  -18797   -18836   -18875   -18913   -18945   -18978   -19006   -19021 
  -19018   -19010   -19002   -18991   -18979   -18959   -18927   -18890 
  -18852   -18813   -18775   -18736   -18700   -18667   -18638   -18609 
  -18584   -18561   -18539   -18519   -18507   -18500   -18488   -18480 
  -18480   -18472   -18458   -18438   -18409   -18381   -18357   -18333 
  -18300   -18261   -18218   -18169   -18112   -18053   -17995   -17940 
  -17884   -17837   -17797   -17756   -17717   -17682   -17644   -17609 
  -17575   -17554   -17551   -17551   -17552   -17562   -17572   -17582 
  -17591   -17606   -17626   -17655   -17689   -17722   -17749   -17776 
  -17809   -17841   -17872   -17905   -17930   -17950   -17976   -18000 
  -18017   -18033   -18053   -18068   -18077   -18085   -18096   -18112 
  -18121   -18127   -18144   -18156   -18164   -18176   -18187   -18195 
  -18202   -18210   -18222   -18235   -18249   -18260   -18274   -18291 
  -18306   -18320   -18337   -18347   -18362   -18384   -18399   -18407 
  -18423   -18446   -18477   -18513   -18539   -18551   -18559   -18561 
  -18559   -18555   -18547   -18538   -18528   -18513   -18493   -18470 
  -18434   -18392   -18364   -18339   -18314   -18288   -18261   -18235 
  -18214   -18200   -18189   -18177   -18171   -18172   -18175   -18180 
  -18196   -18218   -18238   -18258   -18287   -18319   -18347   -18376 
  -18403   -18418   -18430   -18443   -18450   -18450   -18451   -18453 
  -18451   -18453   -18450   -18438   -18423   -18405   -18381   -18353 
  -18330   -18306   -18281   -18257   -18231   -18200   -18164   -18129 
  -18099   -18075   -18057   -18046   -18042   -18045   -18063   -18088 
  -18117   -18158   -18200   -18237   -18281   -18327   -18370   -18407 
  -18432   -18455   -18476   -18486   -18486   -18485   -18481   -18466 
  -18446   -18423   -18393   -18357   -18316   -18281   -18254   -18230 
  -18207   -18192   -18184   -18179   -18177   -18176   -18169   -18171 
  -18180   -18191   -18206   -18222   -18231   -18247   -18266   -18280 
  -18296   -18311   -18322   -18338   -18355   -18362   -18361   -18360 
  -18360   -18362   -18362   -18354   -18342   -18324   -18310   -18301 
  -18285   -18266   -18252   -18239   -18227   -18216   -18203   -18192 
  -18180   -18165   -18153   -18145   -18144   -18153   -18161   -18162 
  -18168   -18180   -18189   -18204   -18216   -18226   -18234   -18249 
  -18272   -18292   -18308   -18323   -18338   -18351   -18364   -18377 
  -18381   -18378   -18378   -18377   -18373   -18366   -18361   -18358 
  -18342   -18318   -18296   -18276   -18257   -18239   -18219   -18192 
  -18164   -18138   -18112   -18088   -18065   -18044   -18023   -18003 
  -17980   -17959   -17948   -17944   -17937   -17932   -17938   -17955 
  -17979   -18007   -18031   -18060   -18096   -18133   -18183   -18235 
  -18279   -18320   -18365   -18403   -18434   -18454   -18461   -18461 
  -18457   -18446   -18434   -18423   -18408   -18382   -18354   -18335 
  -18318   -18303   -18289   -18274   -18262   -18257   -18257   -18257 
  -18252   -18250   -18256   -18256   -18252   -18252   -18257   -18252 
  -18239   -18233   -18227   -18222   -18208   -18189   -18175   -18157 
  -18130   -18115   -18104   -18084   -18069   -18053   -18034   -18025 
  -18025   -18030   -18030   -18025   -18021   -18014   -18018   -18040 
  -18064   -18085   -18111   -18142   -18168   -18191   -18225   -18262 
  -18299   -18337   -18369   -18396   -18422   -18439   -18445   -18453 
  -18465   -18466   -18457   -18443   -18416   -18378   -18341   -18293 
  -18238   -18181   -18119   -18054   -17987   -17915   -17852   -17790 
  -17730   -17680   -17639   -17605   -17585   -17578   -17583   -17597 
  -17618   -17653   -17693   -17734   -17780   -17836   -17895   -17946 
  -17996   -18046   -18088   -18123   -18152   -18181   -18216   -18238 
  -18245   -18243   -18238   -18231   -18219   -18196   -18172   -18153 
  -18135   -18110   -18084   -18064   -18042   -18023   -18013   -17995 
  -17979   -17973   -17977   -17991   -18009   -18033   -18065   -18095 
  -18122   -18157   -18202   -18243   -18284   -18330   -18374   -18409 
  -18450   -18495   -18538   -18588   -18642   -18690   -18736   -18785 
  -18836   -18879   -18920   -18958   -18986   -19013   -19037   -19053 
  -19067   -19068   -19056   -19041   -19025   -19003   -18970   -18931 
  -18889   -18846   -18804   -18763   -18716   -18665   -18616   -18570 
  -18523   -18477   -18430   -18378   -18333   -18291   -18247   -18208 
  -18172   -18138   -18104   -18073   -18053   -18036   -18015   -18000 
  -17986   -17965   -17946   -17928   -17906   -17883   -17860   -17841 
  -17824   -17806   -17794   -17783   -17774   -17768   -17764   -17770 
  -17779   -17784   -17795   -17806   -17807   -17811   -17822   -17834 
  -17852   -17865   -17868   -17867   -17869   -17871   -17867   -17863 
  -17860   -17856   -17856   -17861   -17865   -17864   -17863   -17871 
  -17886   -17901   -17914   -17930   -17961   -18004   -18053   -18108 
  -18169   -18234   -18304   -18377   -18449   -18517   -18590   -18666 
  -18743   -18814   -18873   -18921   -18972   -19018   -19056   -19083 
  -19098   -19105   -19106   -19102   -19091   -19075   -19048   -19012 
  -18971   -18925   -18873   -18825   -18782   -18736   -18686   -18632 
  -18588   -18554   -18527   -18503   -18480   -18462   -18455   -18453 
  -18457   -18461   -18465   -18482   -18504   -18520   -18535   -18547 
  -18563   -18582   -18600   -18617   -18632   -18642   -18644   -18640 
  -18634   -18621   -18605   -18589   -18573   -18551   -18524   -18495 
  -18466   -18438   -18416   -18399   -18380   -18361   -18338   -18314 
  -18293   -18269   -18249   -18233   -18206   -18179   -18156   -18127 
  -18102   -18087   -18073   -18060   -18060   -18071   -18080   -18092 
  -18107   -18123   -18150   -18179   -18215   -18258   -18295   -18331 
  -18377   -18422   -18462   -18500   -18538   -18569   -18593   -18623 
  -18652   -18678   -18700   -18716   -18732   -18742   -18748   -18759 
  -18770   -18783   -18802   -18817   -18828   -18837   -18846   -18847 
  -18837   -18823   -18808   -18785   -18752   -18713   -18663   -18605 
  -18543   -18480   -18412   -18341   -18265   -18185   -18110   -18038 
  -17961   -17882   -17815   -17753   -17697   -17656   -17624   -17590 
  -17562   -17541   -17524   -17520   -17524   -17533   -17554   -17581 
  -17605   -17632   -17664   -17693   -17717   -17749   -17787   -17822 
  -17859   -17899   -17940   -17982   -18027   -18071   -18103   -18135 
  -18173   -18207   -18237   -18262   -18289   -18312   -18334   -18354 
  -18378   -18404   -18427   -18449   -18466   -18480   -18499   -18513 
  -18526   -18547   -18569   -18589   -18609   -18624   -18636   -18652 
  -18663   -18670   -18678   -18685   -18688   -18686   -18681   -18674 
  -18667   -18654   -18642   -18631   -18613   -18594   -18571   -18544 
  -18519   -18489   -18454   -18424   -18397   -18362   -18333   -18304 
  -18273   -18241   -18206   -18176   -18148   -18121   -18104   -18088 
  -18076   -18069   -18063   -18058   -18063   -18064   -18065   -18071 
  -18073   -18077   -18087   -18099   -18115   -18131   -18149   -18168 
  -18188   -18211   -18231   -18252   -18273   -18292   -18310   -18330 
  -18341   -18346   -18361   -18373   -18377   -18385   -18393   -18397 
  -18404   -18407   -18404   -18407   -18411   -18418   -18424   -18435 
  -18449   -18455   -18462   -18474   -18485   -18490   -18493   -18489 
  -18480   -18469   -18454   -18430   -18407   -18384   -18355   -18324 
  -18285   -18242   -18199   -18144   -18084   -18036   -17987   -17934 
  -17888   -17842   -17794   -17748   -17707   -17667   -17633   -17602 
  -17566   -17540   -17521   -17501   -17486   -17473   -17463   -17463 
  -17469   -17477   -17496   -17521   -17552   -17585   -17616   -17651 
  -17685   -17716   -17751   -17786   -17821   -17859   -17891   -17925 
  -17968   -18009   -18040   -18072   -18102   -18123   -18149   -18177 
  -18202   -18227   -18253   -18276   -18300   -18324   -18346   -18370 
  -18396   -18423   -18449   -18470   -18495   -18517   -18542   -18576 
  -18611   -18642   -18675   -18706   -18733   -18763   -18786   -18802 
  -18825   -18848   -18860   -18871   -18887   -18901   -18906   -18906 
  -18902   -18895   -18886   -18875   -18863   -18848   -18827   -18800 
  -18773   -18746   -18715   -18684   -18655   -18623   -18589   -18555 
  -18517   -18474   -18438   -18405   -18366   -18333   -18311   -18288 
  -18264   -18250   -18233   -18208   -18191   -18184   -18180   -18169 
  -18168   -18175   -18179   -18191   -18212   -18233   -18258   -18287 
  -18314   -18343   -18372   -18404   -18443   -18480   -18508   -18538 
  -18562   -18582   -18608   -18635   -18654   -18662   -18666   -18667 
  -18669   -18670   -18669   -18666   -18663   -18658   -18644   -18627 
  -18612   -18594   -18581   -18576   -18566   -18551   -18536   -18517 
  -18496   -18481   -18470   -18455   -18434   -18414   -18395   -18378 
  -18361   -18337   -18307   -18277   -18249   -18226   -18204   -18177 
  -18152   -18123   -18095   -18075   -18057   -18041   -18021   -17995 
  -17972   -17959   -17949   -17944   -17940   -17933   -17926   -17922 
  -17917   -17910   -17903   -17892   -17880   -17872   -17863   -17855 
  -17853   -17848   -17833   -17820   -17806   -17795   -17787   -17779 
  -17771   -17767   -17763   -17759   -17755   -17752   -17752   -17755 
  -17755   -17759   -17767   -17770   -17776   -17795   -17807   -17821 
  -17838   -17852   -17868   -17894   -17917   -17936   -17964   -17992 
  -18015   -18042   -18075   -18107   -18138   -18166   -18193   -18219 
  -18242   -18264   -18287   -18311   -18334   -18358   -18382   -18399 
  -18419   -18445   -18472   -18500   -18530   -18558   -18581   -18603 
  -18623   -18635   -18650   -18667   -18679   -18692   -18705   -18712 
  -18716   -18719   -18716   -18705   -18690   -18675   -18662   -18646 
  -18631   -18616   -18596   -18569   -18538   -18511   -18480   -18443 
  -18412   -18387   -18355   -18326   -18301   -18274   -18249   -18226 
  -18207   -18191   -18175   -18165   -18158   -18152   -18154   -18169 
  -18183   -18193   -18204   -18216   -18227   -18238   -18250   -18262 
  -18274   -18281   -18284   -18288   -18293   -18299   -18304   -18308 
  -18306   -18300   -18299   -18296   -18297   -18307   -18320   -18330 
  -18335   -18338   -18342   -18350   -18357   -18372   -18389   -18401 
  -18414   -18422   -18424   -18430   -18436   -18441   -18445   -18447 
  -18443   -18441   -18434   -18422   -18405   -18385   -18358   -18333 
  -18306   -18276   -18246   -18218   -18180   -18135   -18099   -18067 
  -18030   -17996   -17965   -17932   -17903   -17880   -17861   -17853 
  -17848   -17842   -17848   -17857   -17869   -17888   -17911   -17934 
  -17957   -17987   -18018   -18045   -18068   -18094   -18119   -18137 
  -18148   -18160   -18176   -18188   -18192   -18193   -18193   -18189 
  -18184   -18185   -18188   -18187   -18187   -18188   -18192   -18200 
