Origin Time       2025/01/13 21:19:00
Lat.              31.8
Long.             131.6
Depth. (km)       30
Mag.              6.9
Station Code      OKYH07
Station Lat.      35.0493
Station Long.     133.3169
Station Height(m) 463.5
Record Time       2025/01/13 21:21:01
Sampling Freq(Hz) 100Hz
Duration Time(s)  120
Dir.              1
Scale Factor      3923(gal)/8224838
Max. Acc. (gal)   0.510
Last Correction   2025/01/13 21:21:02
Memo.             
[...]
  -28418   -28451   -28487   -28513   -28526   -28536   -28536   -28528 
  -28524   -28524   -28520   -28516   -28516   -28522   -28530   -28540 
  -28559   -28578   -28584   -28579   -28567   -28560   -28552   -28534 
  -28512   -28491   -28472   -28455   -28444   -28440   -28432   -28418 
  -28409   -28398   -28386   -28375   -28364   -28351   -28347   -28360 
  -28367   -28363   -28362   -28366   -28366   -28355   -28339   -28329 
  -28323   -28312   -28306   -28308   -28312   -28308   -28305   -28302 
  -28291   -28274   -28260   -28250   -28243   -28236   -28236   -28247 
  -28254   -28264   -28283   -28298   -28305   -28305   -28305   -28298 
  -28285   -28270   -28262   -28264   -28271   -28277   -28274   -28260 
  -28248   -28242   -28239   -28240   -28239   -28236   -28229   -28217 
  -28209   -28205   -28202   -28205   -28213   -28228   -28242   -28252 
  -28266   -28275   -28281   -28294   -28309   -28313   -28312   -28310 
  -28309   -28305   -28306   -28313   -28320   -28323   -28316   -28314 
  -28314   -28308   -28309   -28329   -28358   -28379   -28393   -28402 
  -28409   -28417   -28429   -28448   -28472   -28494   -28506   -28512 
  -28521   -28532   -28537   -28539   -28547   -28549   -28533   -28513 
  -28507   -28510   -28509   -28503   -28498   -28493   -28486   -28482 
  -28479   -28476   -28479   -28487   -28498   -28513   -28530   -28551 
  -28572   -28588   -28597   -28603   -28602   -28591   -28580   -28572 
  -28561   -28548   -28537   -28529   -28525   -28521   -28516   -28516 
  -28516   -28514   -28516   -28516   -28507   -28487   -28459   -28428 
  -28401   -28372   -28343   -28321   -28313   -28301   -28282   -28263 
  -28246   -28217   -28186   -28175   -28188   -28198   -28196   -28200 
  -28217   -28228   -28223   -28221   -28236   -28252   -28262   -28273 
  -28287   -28297   -28300   -28304   -28313   -28327   -28344   -28371 
  -28401   -28414   -28424   -28444   -28463   -28472   -28474   -28476 
  -28482   -28478   -28462   -28441   -28421   -28393   -28362   -28333 
  -28309   -28286   -28263   -28242   -28221   -28205   -28201   -28213 
  -28228   -28235   -28244   -28264   -28291   -28309   -28314   -28318 
  -28325   -28317   -28305   -28313   -28332   -28344   -28352   -28359 
  -28363   -28360   -28351   -28345   -28351   -28368   -28389   -28409 
  -28435   -28460   -28483   -28502   -28510   -28505   -28498   -28497 
  -28502   -28503   -28497   -28489   -28483   -28476   -28471   -28471 
  -28463   -28449   -28437   -28431   -28422   -28413   -28402   -28391 
  -28377   -28355   -28335   -28312   -28281   -28252   -28231   -28213 
  -28198   -28185   -28174   -28167   -28159   -28146   -28129   -28116 
  -28108   -28101   -28097   -28093   -28085   -28078   -28077   -28077 
  -28075   -28078   -28089   -28101   -28109   -28120   -28135   -28151 
  -28166   -28181   -28196   -28208   -28215   -28215   -28220   -28235 
  -28248   -28259   -28273   -28291   -28306   -28314   -28333   -28364 
  -28398   -28432   -28467   -28499   -28517   -28517   -28513   -28512 
  -28506   -28495   -28483   -28480   -28485   -28483   -28474   -28463 
  -28451   -28435   -28420   -28408   -28391   -28366   -28337   -28314 
  -28305   -28300   -28294   -28290   -28285   -28281   -28282   -28290 
  -28294   -28294   -28291   -28296   -28305   -28317   -28333   -28358 
  -28383   -28404   -28425   -28451   -28479   -28510   -28529   -28532 
  -28526   -28517   -28495   -28466   -28441   -28426   -28417   -28404 
  -28386   -28367   -28341   -28310   -28287   -28279   -28282   -28290 
  -28301   -28317   -28336   -28344   -28345   -28347   -28352   -28360 
  -28375   -28395   -28417   -28436   -28449   -28467   -28490   -28502 
  -28499   -28501   -28518   -28539   -28551   -28555   -28557   -28555 
  -28548   -28547   -28549   -28547   -28537   -28526   -28517   -28506 
  -28489   -28474   -28475   -28487   -28493   -28490   -28485   -28478 
  -28471   -28467   -28468   -28472   -28475   -28480   -28482   -28480 
  -28472   -28464   -28458   -28449   -28439   -28429   -28417   -28401 
  -28386   -28389   -28408   -28425   -28429   -28425   -28421   -28418 
  -28418   -28429   -28444   -28460   -28480   -28495   -28494   -28489 
  -28489   -28497   -28509   -28528   -28548   -28567   -28582   -28590 
  -28601   -28617   -28629   -28629   -28630   -28629   -28625   -28622 
  -28621   -28614   -28605   -28593   -28578   -28563   -28540   -28510 
  -28483   -28451   -28424   -28409   -28399   -28381   -28359   -28336 
  -28317   -28308   -28298   -28278   -28248   -28217   -28190   -28165 
  -28140   -28121   -28111   -28100   -28081   -28063   -28048   -28021 
  -27988   -27966   -27961   -27954   -27947   -27953   -27972   -27992 
  -28005   -28019   -28035   -28053   -28077   -28107   -28134   -28156 
  -28182   -28208   -28235   -28259   -28275   -28296   -28324   -28350 
  -28375   -28406   -28433   -28448   -28455   -28463   -28474   -28478 
  -28479   -28486   -28490   -28493   -28493   -28494   -28498   -28502 
  -28501   -28494   -28483   -28483   -28494   -28503   -28512   -28518 
  -28517   -28513   -28517   -28521   -28520   -28517   -28516   -28521 
  -28530   -28537   -28539   -28539   -28539   -28539   -28549   -28570 
  -28587   -28605   -28628   -28647   -28656   -28660   -28671   -28690 
  -28699   -28707   -28718   -28723   -28725   -28721   -28714   -28717 
  -28722   -28719   -28713   -28706   -28694   -28668   -28636   -28610 
  -28586   -28555   -28521   -28495   -28472   -28448   -28431   -28417 
  -28394   -28367   -28350   -28332   -28310   -28289   -28271   -28252 
  -28225   -28190   -28156   -28132   -28109   -28088   -28070   -28061 
  -28054   -28047   -28044   -28050   -28058   -28062   -28062   -28062 
  -28061   -28059   -28061   -28066   -28077   -28094   -28109   -28123 
  -28138   -28158   -28183   -28215   -28255   -28300   -28341   -28383 
  -28420   -28443   -28466   -28487   -28501   -28512   -28525   -28536 
  -28548   -28556   -28551   -28539   -28524   -28502   -28480   -28460 
  -28443   -28432   -28416   -28395   -28386   -28385   -28383   -28378 
  -28374   -28375   -28372   -28362   -28354   -28351   -28351   -28356 
  -28359   -28360   -28368   -28377   -28381   -28389   -28405   -28424 
  -28444   -28463   -28478   -28490   -28503   -28513   -28522   -28530 
  -28532   -28532   -28529   -28525   -28522   -28521   -28520   -28520 
  -28516   -28509   -28503   -28493   -28478   -28471   -28466   -28452 
  -28439   -28440   -28440   -28425   -28414   -28412   -28408   -28399 
  -28390   -28386   -28390   -28391   -28390   -28382   -28367   -28354 
  -28351   -28347   -28332   -28314   -28304   -28291   -28275   -28271 
  -28283   -28290   -28287   -28286   -28282   -28271   -28264   -28266 
  -28274   -28277   -28277   -28279   -28286   -28289   -28300   -28314 
  -28324   -28324   -28321   -28317   -28313   -28306   -28301   -28294 
  -28282   -28270   -28258   -28247   -28240   -28229   -28213   -28196 
  -28183   -28174   -28159   -28147   -28146   -28140   -28129   -28121 
  -28115   -28109   -28097   -28081   -28074   -28077   -28077   -28074 
  -28075   -28078   -28078   -28075   -28078   -28082   -28084   -28093 
  -28116   -28140   -28158   -28178   -28204   -28225   -28240   -28258 
  -28278   -28293   -28300   -28308   -28323   -28336   -28351   -28374 
  -28399   -28420   -28431   -28439   -28451   -28462   -28464   -28467 
  -28475   -28483   -28491   -28509   -28528   -28541   -28555   -28571 
  -28586   -28597   -28602   -28614   -28633   -28642   -28645   -28649 
  -28656   -28661   -28669   -28683   -28701   -28709   -28709   -28706 
  -28701   -28694   -28694   -28703   -28717   -28723   -28732   -28742 
  -28752   -28763   -28776   -28784   -28784   -28783   -28788   -28796 
  -28799   -28804   -28818   -28830   -28831   -28831   -28837   -28845 
  -28842   -28829   -28823   -28823   -28813   -28787   -28763   -28740 
  -28715   -28690   -28657   -28618   -28587   -28557   -28516   -28463 
  -28421   -28393   -28352   -28305   -28271   -28246   -28215   -28183 
  -28158   -28138   -28120   -28101   -28085   -28078   -28067   -28050 
  -28036   -28028   -28020   -28013   -28009   -28012   -28012   -28008 
  -27997   -27985   -27967   -27943   -27924   -27912   -27904   -27900 
  -27895   -27893   -27897   -27896   -27892   -27903   -27927   -27951 
  -27976   -28001   -28028   -28047   -28050   -28047   -28053   -28065 
  -28077   -28086   -28093   -28098   -28107   -28119   -28132   -28152 
  -28174   -28192   -28208   -28227   -28248   -28267   -28285   -28300 
  -28305   -28304   -28302   -28304   -28298   -28294   -28294   -28294 
  -28289   -28282   -28279   -28282   -28287   -28298   -28306   -28308 
  -28305   -28304   -28309   -28320   -28328   -28337   -28351   -28359 
  -28364   -28379   -28405   -28432   -28458   -28491   -28528   -28557 
  -28578   -28602   -28633   -28663   -28684   -28703   -28718   -28726 
  -28733   -28741   -28736   -28719   -28699   -28683   -28676   -28676 
  -28674   -28663   -28652   -28645   -28630   -28606   -28582   -28564 
  -28551   -28540   -28525   -28509   -28493   -28474   -28448   -28424 
  -28402   -28377   -28348   -28323   -28294   -28270   -28248   -28224 
  -28205   -28198   -28201   -28208   -28213   -28213   -28221   -28236 
  -28252   -28271   -28287   -28308   -28337   -28363   -28378   -28394 
  -28416   -28440   -28464   -28487   -28507   -28526   -28539   -28547 
  -28556   -28552   -28536   -28517   -28499   -28479   -28458   -28432 
  -28406   -28386   -28370   -28359   -28352   -28343   -28329   -28317 
  -28306   -28298   -28289   -28287   -28291   -28289   -28278   -28270 
  -28264   -28260   -28260   -28258   -28250   -28236   -28221   -28212 
  -28206   -28196   -28185   -28182   -28186   -28198   -28219   -28239 
  -28255   -28269   -28282   -28301   -28323   -28341   -28368   -28404 
  -28429   -28451   -28480   -28512   -28544   -28574   -28594   -28609 
  -28620   -28618   -28609   -28594   -28575   -28556   -28541   -28528 
  -28512   -28493   -28478   -28459   -28432   -28399   -28375   -28356 
  -28345   -28341   -28335   -28317   -28298   -28286   -28281   -28273 
  -28266   -28263   -28259   -28248   -28225   -28198   -28177   -28161 
  -28152   -28151   -28146   -28136   -28127   -28119   -28107   -28090 
  -28077   -28069   -28065   -28055   -28036   -28015   -27999   -27981 
  -27959   -27940   -27923   -27911   -27901   -27899   -27905   -27916 
  -27928   -27945   -27966   -27990   -28020   -28055   -28098   -28140 
  -28181   -28225   -28270   -28313   -28354   -28389   -28431   -28480 
  -28526   -28570   -28614   -28655   -28683   -28706   -28734   -28763 
  -28783   -28804   -28825   -28829   -28823   -28819   -28814   -28810 
  -28799   -28780   -28757   -28733   -28705   -28675   -28647   -28620 
  -28591   -28567   -28548   -28530   -28512   -28489   -28462   -28437 
  -28420   -28402   -28385   -28370   -28359   -28345   -28333   -28323 
  -28305   -28287   -28274   -28260   -28248   -28246   -28246   -28248 
  -28254   -28254   -28251   -28254   -28260   -28263   -28264   -28269 
  -28271   -28269   -28264   -28267   -28277   -28285   -28289   -28298 
  -28312   -28320   -28325   -28329   -28331   -28325   -28320   -28320 
  -28318   -28313   -28313   -28318   -28328   -28337   -28354   -28381 
  -28402   -28421   -28447   -28470   -28491   -28512   -28529   -28547 
  -28561   -28572   -28586   -28598   -28605   -28611   -28613   -28602 
  -28590   -28583   -28579   -28574   -28568   -28561   -28551   -28530 
  -28502   -28472   -28451   -28431   -28404   -28371   -28335   -28298 
  -28263   -28225   -28193   -28163   -28131   -28096   -28067   -28047 
  -28032   -28019   -27997   -27969   -27938   -27911   -27888   -27868 
  -27853   -27843   -27842   -27847   -27857   -27873   -27895   -27920 
  -27953   -27999   -28051   -28111   -28171   -28229   -28277   -28324 
  -28377   -28426   -28470   -28510   -28545   -28578   -28609   -28636 
  -28660   -28680   -28688   -28694   -28699   -28701   -28695   -28687 
  -28671   -28637   -28597   -28559   -28514   -28462   -28416   -28381 
  -28348   -28318   -28297   -28286   -28281   -28273   -28273   -28283 
  -28297   -28314   -28337   -28366   -28391   -28412   -28429   -28448 
  -28464   -28479   -28494   -28505   -28518   -28534   -28552   -28572 
  -28597   -28628   -28660   -28690   -28722   -28760   -28796   -28829 
  -28861   -28896   -28927   -28949   -28969   -28991   -29008   -29018 
  -29019   -29014   -29007   -28993   -28975   -28958   -28945   -28937 
  -28937   -28942   -28944   -28937   -28933   -28934   -28930   -28919 
  -28906   -28883   -28852   -28817   -28777   -28738   -28695   -28644 
  -28590   -28534   -28480   -28429   -28378   -28324   -28275   -28232 
  -28192   -28155   -28125   -28100   -28074   -28048   -28026   -28012 
  -28007   -28001   -28001   -28015   -28036   -28057   -28085   -28123 
  -28161   -28194   -28233   -28277   -28320   -28360   -28401   -28440 
  -28476   -28505   -28525   -28544   -28564   -28567   -28555   -28544 
  -28528   -28491   -28449   -28406   -28360   -28313   -28267   -28217 
  -28169   -28124   -28082   -28046   -28017   -27996   -27985   -27980 
  -27977   -27977   -27978   -27981   -27988   -27996   -28009   -28030 
  -28046   -28058   -28070   -28080   -28082   -28085   -28086   -28089 
  -28088   -28080   -28063   -28038   -28007   -27967   -27913   -27857 
  -27803   -27750   -27699   -27649   -27596   -27545   -27499   -27452 
  -27406   -27369   -27340   -27319   -27306   -27305   -27313   -27324 
  -27334   -27357   -27383   -27409   -27434   -27464   -27504   -27550 
  -27595   -27641   -27691   -27739   -27789   -27847   -27909   -27967 
  -28026   -28085   -28150   -28217   -28287   -28355   -28421   -28487 
  -28544   -28588   -28632   -28675   -28717   -28760   -28806   -28845 
  -28879   -28914   -28946   -28973   -29002   -29033   -29069   -29108 
  -29139   -29169   -29196   -29220   -29242   -29263   -29284   -29295 
  -29297   -29300   -29301   -29296   -29282   -29276   -29270   -29255 
  -29235   -29216   -29199   -29174   -29145   -29112   -29081   -29047 
  -29011   -28977   -28942   -28902   -28863   -28821   -28776   -28729 
  -28676   -28629   -28583   -28530   -28479   -28437   -28397   -28356 
  -28316   -28277   -28239   -28193   -28150   -28111   -28067   -28020 
  -27981   -27946   -27912   -27886   -27872   -27859   -27854   -27857 
  -27864   -27877   -27893   -27908   -27926   -27945   -27966   -27989 
  -28012   -28034   -28055   -28077   -28092   -28105   -28116   -28124 
  -28129   -28136   -28151   -28165   -28174   -28189   -28210   -28237 
  -28266   -28293   -28329   -28377   -28425   -28476   -28530   -28587 
  -28647   -28705   -28757   -28799   -28830   -28853   -28871   -28877 
  -28876   -28869   -28857   -28836   -28800   -28765   -28729   -28688 
  -28647   -28606   -28561   -28513   -28464   -28422   -28390   -28362 
  -28339   -28324   -28313   -28308   -28301   -28290   -28286   -28285 
  -28283   -28279   -28277   -28275   -28273   -28269   -28271   -28277 
  -28278   -28275   -28269   -28255   -28242   -28223   -28202   -28188 
  -28170   -28151   -28139   -28131   -28121   -28115   -28119   -28125 
  -28134   -28143   -28162   -28189   -28219   -28251   -28289   -28328 
  -28363   -28405   -28456   -28502   -28541   -28578   -28613   -28638 
  -28656   -28668   -28675   -28679   -28682   -28688   -28691   -28687 
  -28687   -28686   -28672   -28657   -28642   -28621   -28595   -28568 
  -28541   -28520   -28502   -28479   -28448   -28418   -28395   -28372 
  -28352   -28339   -28329   -28325   -28327   -28328   -28331   -28335 
  -28339   -28339   -28344   -28354   -28363   -28372   -28389   -28401 
  -28402   -28402   -28404   -28402   -28398   -28391   -28382   -28368 
  -28351   -28331   -28313   -28296   -28279   -28270   -28263   -28252 
  -28243   -28236   -28227   -28217   -28212   -28210   -28209   -28206 
  -28200   -28198   -28198   -28193   -28185   -28179   -28173   -28166 
  -28163   -28165   -28167   -28174   -28183   -28190   -28197   -28204 
  -28210   -28221   -28236   -28248   -28263   -28275   -28285   -28297 
  -28305   -28310   -28323   -28337   -28354   -28375   -28399   -28418 
  -28433   -28449   -28468   -28489   -28506   -28521   -28543   -28560 
  -28572   -28590   -28610   -28630   -28647   -28660   -28671   -28680 
  -28684   -28687   -28691   -28694   -28694   -28694   -28698   -28695 
  -28686   -28679   -28668   -28647   -28622   -28598   -28570   -28540 
  -28512   -28489   -28472   -28453   -28436   -28424   -28412   -28402 
  -28390   -28375   -28363   -28351   -28341   -28335   -28328   -28327 
  -28333   -28341   -28348   -28354   -28360   -28368   -28377   -28386 
  -28398   -28410   -28420   -28428   -28439   -28445   -28451   -28459 
  -28464   -28459   -28452   -28441   -28422   -28401   -28379   -28356 
  -28329   -28301   -28270   -28242   -28217   -28198   -28181   -28165 
  -28148   -28131   -28112   -28092   -28069   -28042   -28016   -27994 
  -27974   -27946   -27915   -27889   -27862   -27842   -27832   -27830 
  -27834   -27849   -27870   -27904   -27951   -28009   -28070   -28134 
  -28208   -28287   -28364   -28441   -28520   -28595   -28665   -28738 
  -28813   -28883   -28948   -29007   -29056   -29093   -29124   -29150 
  -29169   -29177   -29181   -29181   -29173   -29154   -29128   -29099 
  -29068   -29027   -28980   -28937   -28891   -28840   -28796   -28752 
  -28701   -28649   -28601   -28548   -28498   -28451   -28409   -28370 
  -28332   -28294   -28252   -28213   -28181   -28155   -28131   -28104 
  -28074   -28050   -28032   -28013   -27999   -27993   -27990   -27993 
  -28011   -28038   -28066   -28093   -28123   -28154   -28185   -28216 
  -28246   -28281   -28317   -28347   -28378   -28406   -28422   -28435 
  -28445   -28453   -28458   -28451   -28432   -28413   -28391   -28363 
  -28333   -28305   -28275   -28243   -28212   -28181   -28148   -28116 
  -28084   -28055   -28035   -28015   -27992   -27972   -27953   -27935 
  -27920   -27905   -27893   -27885   -27884   -27882   -27880   -27886 
  -27905   -27924   -27949   -27981   -28017   -28053   -28092   -28138 
  -28186   -28233   -28286   -28343   -28395   -28444   -28499   -28555 
  -28602   -28644   -28690   -28734   -28769   -28800   -28833   -28865 
  -28891   -28910   -28927   -28946   -28964   -28979   -29000   -29020 
  -29039   -29060   -29076   -29081   -29084   -29085   -29080   -29068 
  -29054   -29034   -29007   -28973   -28931   -28880   -28823   -28759 
  -28692   -28624   -28549   -28475   -28402   -28333   -28273   -28213 
  -28159   -28115   -28077   -28046   -28023   -28012   -28008   -28000 
  -27996   -27997   -27994   -27984   -27972   -27967   -27965   -27959 
  -27951   -27942   -27928   -27915   -27905   -27897   -27884   -27865 
  -27851   -27849   -27850   -27854   -27857   -27866   -27886   -27909 
  -27930   -27957   -27985   -28015   -28051   -28090   -28124   -28154 
  -28178   -28200   -28219   -28231   -28243   -28256   -28264   -28263 
  -28255   -28244   -28232   -28216   -28197   -28179   -28159   -28134 
  -28105   -28074   -28048   -28030   -28013   -27999   -27989   -27982 
  -27980   -27978   -27982   -27992   -28007   -28023   -28036   -28053 
  -28077   -28102   -28131   -28162   -28197   -28231   -28262   -28297 
