Origin Time       2025/01/13 21:19:00
Lat.              31.8
Long.             131.6
Depth. (km)       30
Mag.              6.9
Station Code      OKYH09
Station Lat.      35.1809
Station Long.     133.6765
Station Height(m) 405
Record Time       2025/01/13 21:21:29
Sampling Freq(Hz) 100Hz
Duration Time(s)  120
Dir.              4
Scale Factor      7845(gal)/8223790
Max. Acc. (gal)   0.409
Last Correction   2025/01/13 21:21:30
Memo.             
[...]
    4229     4201     4186     4189     4214     4234     4237     4257 
    4307     4344     4337     4275     4198     4174     4217     4270 
    4284     4255     4197     4136     4104     4118     4168     4217 
    4257     4303     4353     4375     4328     4225     4131     4075 
    4064     4101     4175     4270     4363     4414     4390     4310 
    4233     4199     4201     4226     4271     4318     4355     4355 
    4309     4249     4216     4206     4201     4193     4205     4248 
    4279     4247     4180     4139     4144     4164     4176     4195 
    4236     4279     4295     4257     4178     4104     4064     4067 
    4098     4131     4158     4187     4224     4245     4225     4167 
    4104     4055     4048     4097     4164     4216     4248     4259 
    4241     4189     4106     4025     4010     4060     4126     4194 
    4264     4322     4340     4286     4183     4098     4077     4106 
    4167     4230     4266     4270     4259     4229     4172     4102 
    4044     4032     4083     4175     4263     4313     4303     4248 
    4198     4186     4193     4199     4221     4267     4325     4378 
    4401     4375     4305     4218     4155     4148     4194     4253 
    4294     4326     4360     4382     4365     4311     4249     4201 
    4171     4190     4257     4322     4340     4309     4272     4275 
    4293     4278     4236     4214     4244     4318     4379     4371 
    4301     4241     4234     4252     4255     4252     4268     4301 
    4320     4318     4315     4310     4270     4212     4202     4253 
    4309     4324     4294     4260     4267     4297     4303     4274 
    4228     4193     4191     4214     4209     4156     4108     4112 
    4167     4237     4274     4266     4232     4199     4182     4168 
    4156     4156     4174     4201     4232     4243     4220     4185 
    4159     4136     4120     4137     4183     4218     4234     4236 
    4229     4229     4240     4239     4228     4233     4259     4290 
    4321     4324     4279     4225     4210     4239     4299     4364 
    4382     4345     4298     4272     4263     4257     4236     4209 
    4216     4267     4328     4359     4345     4297     4256     4251 
    4270     4288     4299     4303     4295     4280     4270     4266 
    4266     4249     4212     4168     4144     4155     4172     4145 
    4083     4047     4068     4118     4148     4140     4124     4125 
    4155     4185     4186     4166     4155     4159     4176     4207 
    4226     4220     4212     4207     4207     4214     4213     4205 
    4203     4217     4249     4287     4306     4301     4290     4282 
    4263     4232     4191     4160     4141     4124     4117     4131 
    4160     4199     4232     4228     4186     4129     4098     4118 
    4159     4171     4171     4198     4251     4280     4266     4224 
    4178     4149     4147     4164     4199     4237     4256     4259 
    4259     4252     4239     4226     4220     4225     4244     4266 
    4261     4237     4213     4185     4159     4152     4164     4195 
    4239     4260     4241     4203     4172     4159     4155     4153 
    4163     4194     4239     4267     4275     4268     4237     4197 
    4183     4195     4232     4279     4301     4282     4251     4247 
    4272     4290     4280     4266     4271     4313     4359     4342 
    4270     4213     4216     4256     4297     4324     4347     4368 
    4382     4384     4376     4375     4388     4403     4418     4422 
    4409     4394     4380     4338     4270     4217     4207     4230 
    4257     4268     4263     4253     4249     4245     4220     4179 
    4158     4155     4155     4158     4167     4176     4189     4185 
    4152     4118     4126     4176     4226     4248     4240     4229 
    4240     4260     4264     4251     4244     4248     4261     4283 
    4299     4309     4310     4288     4257     4237     4234     4252 
    4279     4302     4317     4322     4320     4313     4297     4272 
    4249     4229     4214     4225     4264     4311     4338     4318 
    4259     4212     4199     4209     4226     4245     4272     4320 
    4352     4345     4315     4274     4224     4199     4202     4212 
    4230     4259     4276     4276     4256     4221     4187     4172 
    4179     4209     4260     4305     4328     4324     4288     4224 
    4163     4137     4147     4170     4193     4218     4239     4241 
    4222     4178     4124     4087     4094     4145     4207     4236 
    4210     4158     4117     4101     4086     4083     4108     4145 
    4182     4206     4202     4171     4132     4093     4059     4050 
    4085     4159     4228     4243     4199     4139     4106     4105 
    4106     4095     4093     4114     4153     4190     4201     4174 
    4121     4068     4048     4075     4124     4149     4145     4133 
    4140     4168     4193     4183     4139     4104     4128     4199 
    4270     4301     4288     4260     4255     4274     4291     4287 
    4261     4232     4230     4266     4311     4344     4355     4348 
    4341     4347     4355     4352     4340     4320     4303     4314 
    4342     4365     4388     4410     4401     4361     4332     4336 
    4363     4387     4378     4340     4328     4364     4409     4429 
    4419     4368     4294     4257     4270     4295     4310     4306 
    4299     4320     4357     4378     4361     4322     4284     4271 
    4297     4336     4355     4345     4317     4288     4264     4237 
    4213     4205     4212     4229     4251     4266     4267     4255 
    4228     4182     4132     4114     4136     4159     4156     4126 
    4091     4081     4091     4094     4083     4075     4087     4120 
    4149     4159     4160     4170     4185     4191     4197     4216 
    4249     4286     4307     4302     4283     4274     4267     4260 
    4252     4240     4225     4224     4239     4248     4236     4206 
    4168     4139     4126     4124     4117     4106     4097     4091 
    4086     4079     4067     4048     4031     4023     4013     4010 
    4027     4044     4060     4083     4099     4090     4066     4045 
    4041     4055     4070     4071     4067     4086     4125     4163 
    4182     4172     4153     4171     4216     4259     4291     4311 
    4313     4306     4299     4293     4299     4325     4353     4376 
    4401     4419     4415     4394     4364     4330     4318     4340 
    4379     4421     4459     4468     4440     4387     4336     4310 
    4311     4317     4310     4305     4321     4349     4357     4321 
    4256     4205     4198     4228     4251     4245     4233     4232 
    4233     4233     4226     4209     4197     4214     4264     4322 
    4372     4411     4429     4425     4415     4407     4402     4413 
    4432     4445     4457     4476     4499     4518     4518     4486 
    4445     4422     4426     4445     4467     4483     4492     4492 
    4476     4440     4390     4355     4344     4347     4360     4383 
    4398     4396     4386     4365     4336     4317     4328     4360 
    4392     4409     4402     4378     4349     4318     4284     4257 
    4243     4247     4261     4271     4270     4255     4233     4224 
    4234     4251     4275     4295     4294     4268     4245     4233 
    4230     4228     4220     4203     4202     4216     4212     4179 
    4128     4075     4035     4027     4044     4072     4106     4132 
    4131     4102     4058     4014     3986     3971     3963     3967 
    3985     4006     4023     4016     3996     3983     3989     4004 
    4028     4064     4106     4136     4140     4121     4114     4144 
    4193     4234     4253     4249     4233     4224     4225     4222 
    4216     4230     4278     4340     4388     4402     4376     4337 
    4315     4328     4360     4382     4391     4413     4446     4468 
    4460     4426     4387     4375     4396     4426     4445     4452 
    4449     4440     4421     4391     4356     4333     4330     4345 
    4363     4363     4334     4298     4272     4253     4239     4243 
    4261     4288     4320     4336     4313     4261     4217     4202 
    4220     4249     4270     4282     4293     4286     4253     4206 
    4159     4137     4148     4178     4214     4245     4256     4247 
    4225     4194     4158     4140     4151     4176     4207     4229 
    4216     4167     4117     4083     4067     4063     4062     4067 
    4093     4121     4118     4082     4045     4024     4018     4032 
    4055     4079     4098     4110     4108     4091     4066     4048 
    4050     4062     4074     4085     4095     4095     4082     4068 
    4060     4058     4064     4077     4085     4091     4095     4086 
    4066     4040     4018     4010     4023     4039     4041     4031 
    4014     4002     3991     3962     3924     3919     3948     3989 
    4021     4039     4043     4045     4052     4059     4064     4075 
    4095     4122     4155     4185     4198     4193     4187     4199 
    4230     4263     4284     4301     4321     4338     4342     4337 
    4326     4315     4317     4336     4352     4356     4348     4333 
    4320     4310     4303     4299     4305     4326     4355     4374 
    4379     4368     4351     4333     4302     4259     4230     4244 
    4293     4345     4368     4361     4344     4326     4315     4301 
    4280     4270     4280     4310     4349     4375     4374     4353 
    4324     4294     4284     4302     4333     4357     4367     4364 
    4357     4351     4336     4315     4310     4328     4353     4375 
    4382     4374     4363     4353     4347     4353     4371     4391 
    4411     4414     4396     4371     4344     4332     4342     4357 
    4367     4372     4380     4396     4402     4379     4337     4301 
    4295     4324     4357     4369     4361     4353     4352     4356 
    4357     4341     4309     4276     4251     4237     4226     4199 
    4162     4129     4098     4078     4078     4090     4102     4116 
    4124     4128     4136     4147     4153     4151     4148     4163 
    4201     4255     4309     4344     4347     4337     4329     4322 
    4309     4302     4322     4361     4406     4449     4465     4441 
    4395     4351     4320     4309     4311     4325     4356     4394 
    4419     4417     4387     4349     4322     4315     4334     4361 
    4378     4387     4396     4399     4383     4340     4282     4239 
    4221     4217     4214     4199     4174     4141     4112     4083 
    4054     4029     4025     4052     4097     4132     4148     4153 
    4159     4160     4162     4172     4191     4218     4249     4276 
    4310     4345     4363     4361     4363     4372     4391     4414 
    4428     4430     4436     4442     4441     4432     4413     4405 
    4406     4399     4386     4374     4363     4357     4349     4329 
    4315     4313     4314     4311     4298     4271     4244     4224 
    4214     4225     4239     4237     4220     4203     4199     4209 
    4214     4205     4194     4201     4221     4233     4230     4217 
    4199     4197     4199     4185     4162     4147     4141     4139 
    4133     4122     4109     4098     4083     4067     4055     4045 
    4035     4023     4018     4024     4036     4054     4064     4054 
    4028     4010     4009     4028     4063     4095     4124     4152 
    4182     4210     4229     4244     4261     4286     4311     4330 
    4344     4359     4376     4391     4402     4418     4446     4479 
    4510     4527     4521     4509     4509     4514     4519     4527 
    4531     4542     4560     4564     4550     4531     4513     4499 
    4491     4475     4463     4468     4477     4475     4453     4415 
    4375     4347     4333     4322     4307     4294     4287     4271 
    4243     4203     4158     4129     4129     4141     4148     4148 
    4147     4148     4143     4117     4079     4054     4050     4055 
    4058     4040     4004     3973     3947     3920     3910     3921 
    3936     3958     3986     4005     4001     3983     3969     3973 
    4005     4051     4091     4131     4172     4205     4210     4189 
    4153     4128     4126     4151     4171     4170     4159     4149 
    4140     4132     4120     4104     4108     4135     4162     4176 
    4178     4166     4155     4156     4171     4193     4216     4236 
    4256     4272     4274     4263     4244     4229     4232     4252 
    4274     4293     4299     4284     4253     4214     4179     4166 
    4175     4195     4212     4230     4249     4255     4240     4209 
    4174     4156     4166     4195     4226     4248     4255     4248 
    4225     4198     4178     4170     4178     4195     4207     4220 
    4237     4240     4226     4209     4193     4185     4190     4198 
    4199     4199     4198     4194     4185     4171     4159     4149 
    4155     4174     4195     4210     4220     4225     4225     4224 
    4226     4229     4230     4237     4251     4266     4284     4291 
    4288     4291     4303     4315     4322     4325     4328     4328 
    4325     4322     4315     4310     4309     4306     4302     4306 
    4317     4326     4330     4334     4351     4374     4391     4405 
    4423     4455     4492     4523     4552     4584     4623     4657 
    4666     4646     4614     4581     4553     4531     4511     4490 
    4465     4436     4394     4340     4282     4229     4183     4149 
    4129     4124     4124     4114     4091     4058     4023     3994 
    3975     3966     3971     3989     4009     4027     4031     4025 
    4014     3994     3981     3985     3997     4016     4051     4094 
    4133     4152     4149     4141     4145     4164     4194     4220 
    4243     4266     4288     4306     4313     4314     4324     4340 
    4352     4348     4340     4341     4351     4359     4359     4356 
    4363     4382     4406     4425     4429     4414     4399     4402 
    4413     4411     4403     4398     4391     4383     4367     4334 
    4301     4275     4249     4229     4214     4195     4174     4149 
    4118     4090     4063     4045     4045     4056     4067     4083 
    4109     4137     4162     4180     4199     4214     4229     4255 
    4288     4322     4353     4382     4403     4418     4423     4418 
    4411     4405     4390     4374     4367     4372     4379     4376 
    4365     4347     4324     4303     4290     4278     4261     4241 
    4226     4218     4214     4205     4190     4174     4158     4143 
    4147     4164     4179     4187     4187     4183     4183     4190 
    4197     4206     4222     4236     4245     4253     4261     4267 
    4275     4287     4303     4330     4374     4417     4437     4428 
    4402     4379     4361     4345     4328     4307     4295     4299 
    4302     4288     4264     4233     4210     4199     4195     4194 
    4201     4217     4229     4226     4214     4199     4187     4185 
    4191     4206     4224     4234     4234     4229     4226     4224 
    4213     4209     4225     4245     4257     4266     4264     4256 
    4245     4224     4195     4172     4164     4159     4144     4122 
    4097     4077     4059     4037     4006     3975     3954     3940 
    3927     3913     3900     3893     3897     3908     3920     3928 
    3937     3943     3946     3952     3966     3983     4009     4044 
    4081     4118     4153     4185     4214     4233     4240     4248 
    4256     4268     4290     4317     4337     4353     4369     4383 
    4396     4413     4421     4419     4422     4422     4419     4413 
    4401     4390     4388     4396     4401     4392     4379     4356 
    4329     4310     4306     4305     4301     4297     4299     4298 
    4279     4243     4199     4163     4140     4129     4131     4129 
    4112     4078     4039     4004     3979     3963     3956     3960 
    3973     3982     3989     3981     3958     3933     3912     3894 
    3892     3908     3935     3969     4001     4020     4031     4047 
    4068     4094     4120     4143     4164     4190     4212     4222 
    4225     4225     4228     4237     4255     4272     4290     4306 
    4311     4302     4293     4286     4290     4311     4345     4384 
    4417     4437     4449     4456     4457     4453     4440     4437 
    4460     4499     4529     4537     4521     4490     4459     4428 
    4391     4364     4347     4337     4340     4338     4313     4266 
    4203     4140     4094     4072     4063     4060     4062     4064 
    4064     4051     4012     3962     3925     3917     3937     3979 
    4025     4064     4094     4105     4094     4075     4070     4086 
    4125     4179     4237     4294     4340     4360     4353     4332 
    4309     4298     4307     4330     4360     4383     4394     4392 
    4376     4348     4321     4302     4298     4305     4311     4321 
    4328     4325     4317     4311     4302     4286     4274     4272 
    4276     4283     4293     4294     4295     4302     4315     4329 
    4333     4330     4324     4320     4328     4342     4352     4355 
    4365     4386     4402     4402     4387     4364     4345     4336 
    4336     4341     4348     4356     4367     4374     4374     4367 
    4355     4340     4324     4314     4317     4326     4344     4369 
    4390     4401     4409     4417     4422     4426     4434     4452 
    4479     4507     4534     4553     4561     4558     4548     4536 
    4526     4521     4522     4526     4526     4523     4509     4488 
    4468     4445     4419     4395     4375     4364     4361     4352 
    4334     4311     4291     4288     4297     4301     4298     4297 
    4301     4309     4309     4295     4283     4279     4286     4303 
    4322     4338     4348     4353     4357     4361     4361     4356 
    4357     4374     4396     4418     4430     4432     4423     4410 
    4394     4379     4363     4348     4334     4317     4295     4266 
    4225     4187     4159     4136     4112     4098     4098     4094 
    4085     4078     4075     4074     4070     4058     4032     4001 
    3974     3947     3924     3916     3920     3927     3939     3951 
    3952     3942     3923     3900     3881     3878     3896     3933 
    3977     4009     4027     4035     4040     4048     4056     4067 
    4089     4124     4160     4198     4229     4241     4241     4247 
    4261     4283     4306     4334     4353     4353     4333     4302 
    4274     4253     4239     4229     4229     4226     4217     4207 
    4187     4153     4118     4090     4078     4089     4117     4141 
    4149     4141     4126     4120     4114     4108     4109     4125 
    4149     4175     4194     4195     4186     4183     4190     4209 
    4234     4259     4280     4290     4286     4274     4253     4226 
    4206     4203     4218     4243     4263     4271     4268     4257 
    4243     4229     4220     4230     4260     4291     4311     4321 
    4317     4305     4287     4274     4266     4268     4290     4318 
    4344     4371     4387     4387     4376     4365     4360     4365 
