Origin Time       2025/01/13 21:19:00
Lat.              31.8
Long.             131.6
Depth. (km)       30
Mag.              6.9
Station Code      OKYH13
Station Lat.      34.7283
Station Long.     134.2744
Station Height(m) 2.83
Record Time       2025/01/13 21:21:02
Sampling Freq(Hz) 100Hz
Duration Time(s)  120
Dir.              5
Scale Factor      7845(gal)/8223790
Max. Acc. (gal)   0.431
Last Correction   2025/01/13 21:21:03
Memo.             
[...]
    5883     5869     5852     5838     5830     5827     5826     5813 
    5787     5764     5741     5729     5725     5713     5703     5699 
    5688     5667     5648     5640     5643     5638     5628     5625 
    5628     5621     5610     5609     5607     5605     5606     5609 
    5602     5583     5568     5566     5563     5551     5543     5545 
    5547     5540     5530     5517     5508     5495     5471     5448 
    5445     5452     5462     5471     5482     5495     5508     5513 
    5510     5501     5485     5467     5454     5441     5421     5393 
    5370     5360     5355     5340     5320     5310     5306     5294 
    5282     5281     5277     5271     5260     5244     5238     5242 
    5239     5228     5220     5215     5204     5196     5197     5206 
    5225     5247     5258     5259     5259     5269     5285     5296 
    5289     5286     5298     5319     5331     5325     5317     5327 
    5335     5329     5331     5344     5358     5378     5398     5413 
    5420     5421     5432     5439     5427     5413     5405     5395 
    5391     5389     5387     5401     5421     5435     5440     5445 
    5452     5463     5476     5485     5482     5481     5490     5498 
    5501     5501     5503     5516     5530     5536     5545     5566 
    5580     5591     5622     5665     5701     5726     5751     5755 
    5742     5742     5756     5767     5775     5786     5794     5805 
    5814     5815     5809     5800     5786     5776     5779     5784 
    5786     5790     5800     5815     5823     5818     5805     5794 
    5788     5780     5765     5753     5753     5759     5768     5779 
    5778     5769     5769     5772     5761     5736     5714     5703 
    5690     5672     5671     5680     5688     5691     5691     5691 
    5692     5698     5701     5698     5695     5692     5687     5679 
    5674     5668     5663     5655     5640     5624     5616     5614 
    5613     5609     5602     5598     5593     5587     5579     5568 
    5562     5567     5572     5571     5574     5582     5593     5609 
    5625     5637     5645     5651     5648     5643     5636     5629 
    5629     5637     5634     5618     5609     5611     5613     5614 
    5622     5621     5616     5624     5626     5607     5593     5590 
    5593     5601     5618     5634     5637     5633     5634     5641 
    5653     5664     5668     5679     5695     5707     5714     5714 
    5719     5725     5729     5741     5742     5729     5718     5705 
    5692     5690     5676     5652     5638     5632     5616     5594 
    5582     5580     5570     5548     5525     5505     5497     5494 
    5485     5478     5482     5490     5497     5495     5487     5491 
    5502     5514     5530     5541     5541     5543     5547     5548 
    5551     5559     5567     5571     5576     5579     5580     5582 
    5582     5587     5587     5578     5567     5559     5557     5564 
    5564     5562     5568     5579     5587     5598     5605     5603 
    5605     5611     5616     5617     5614     5605     5584     5563 
    5553     5545     5525     5505     5495     5479     5455     5441 
    5436     5424     5409     5400     5397     5391     5374     5354 
    5346     5336     5323     5302     5278     5263     5262     5267 
    5277     5277     5267     5256     5244     5231     5220     5212 
    5212     5219     5221     5223     5231     5236     5239     5246 
    5258     5266     5269     5273     5285     5301     5308     5305 
    5301     5297     5290     5275     5263     5259     5251     5243 
    5240     5231     5211     5190     5182     5184     5185     5182 
    5181     5185     5184     5178     5170     5161     5150     5146 
    5140     5140     5148     5154     5159     5167     5173     5181 
    5198     5221     5239     5251     5262     5275     5296     5317 
    5331     5336     5351     5368     5370     5362     5363     5378 
    5397     5416     5440     5463     5475     5489     5508     5520 
    5530     5544     5555     5557     5555     5552     5553     5562 
    5566     5564     5576     5598     5606     5603     5603     5601 
    5595     5597     5609     5614     5611     5617     5626     5632 
    5638     5645     5648     5651     5656     5659     5659     5655 
    5652     5652     5652     5643     5638     5647     5656     5665 
    5679     5690     5690     5686     5686     5690     5690     5686 
    5684     5691     5703     5713     5714     5719     5732     5746 
    5759     5760     5749     5741     5737     5733     5728     5715 
    5695     5678     5674     5679     5679     5665     5647     5634 
    5625     5618     5620     5616     5610     5607     5602     5591 
    5579     5575     5584     5584     5575     5576     5586     5590 
    5595     5605     5611     5616     5620     5625     5633     5636 
    5634     5633     5628     5621     5617     5616     5614     5609 
    5603     5595     5583     5567     5548     5528     5506     5481 
    5464     5462     5463     5459     5445     5427     5412     5408 
    5410     5412     5405     5406     5414     5418     5427     5439 
    5447     5452     5459     5472     5489     5501     5512     5524 
    5533     5535     5529     5529     5532     5526     5520     5521 
    5525     5524     5522     5528     5533     5536     5549     5568 
    5580     5583     5580     5586     5597     5603     5602     5599 
    5601     5599     5593     5594     5597     5595     5595     5591 
    5586     5583     5578     5574     5574     5571     5568     5575 
    5576     5571     5571     5566     5556     5544     5521     5497 
    5482     5463     5443     5428     5416     5404     5393     5387 
    5385     5381     5375     5374     5377     5386     5393     5393 
    5397     5416     5437     5459     5485     5510     5530     5544 
    5560     5591     5625     5655     5690     5733     5768     5796 
    5826     5852     5871     5883     5892     5906     5915     5914 
    5908     5907     5906     5899     5896     5903     5915     5929 
    5933     5922     5907     5895     5884     5864     5838     5810 
    5779     5753     5733     5703     5672     5647     5620     5594 
    5566     5528     5499     5476     5443     5414     5402     5383 
    5351     5324     5308     5292     5271     5258     5246     5227 
    5213     5212     5213     5213     5213     5227     5247     5262 
    5275     5283     5282     5282     5282     5270     5248     5227 
    5213     5209     5215     5227     5235     5247     5270     5286 
    5297     5309     5327     5351     5379     5408     5439     5466 
    5489     5505     5524     5544     5562     5575     5595     5620 
    5638     5657     5680     5711     5734     5749     5760     5769 
    5776     5786     5799     5813     5826     5834     5845     5864 
    5872     5871     5873     5871     5852     5826     5799     5773 
    5740     5705     5672     5637     5602     5574     5545     5513 
    5476     5441     5410     5382     5356     5336     5321     5313 
    5306     5297     5290     5287     5285     5281     5283     5290 
    5294     5296     5300     5306     5309     5312     5313     5309 
    5305     5302     5305     5319     5340     5362     5387     5414 
    5436     5452     5468     5493     5520     5548     5572     5590 
    5609     5633     5659     5676     5691     5707     5722     5736 
    5746     5753     5761     5768     5773     5791     5814     5825 
    5832     5838     5845     5853     5857     5856     5857     5857 
    5854     5854     5863     5869     5871     5875     5873     5860 
    5844     5826     5809     5794     5773     5744     5713     5692 
    5684     5679     5672     5665     5664     5670     5678     5684 
    5687     5686     5683     5682     5682     5688     5690     5687 
    5688     5695     5701     5703     5697     5678     5655     5630 
    5606     5579     5541     5502     5478     5452     5421     5404 
    5397     5395     5400     5405     5410     5420     5425     5424 
    5424     5417     5395     5378     5363     5344     5328     5316 
    5297     5273     5248     5221     5193     5174     5162     5155 
    5154     5161     5178     5192     5198     5209     5221     5240 
    5263     5279     5300     5327     5347     5367     5389     5401 
    5406     5418     5428     5432     5443     5456     5471     5487 
    5503     5518     5533     5549     5563     5574     5583     5593 
    5606     5614     5620     5630     5640     5634     5620     5602 
    5583     5566     5551     5535     5518     5501     5485     5474 
    5464     5458     5455     5458     5460     5460     5459     5463 
    5468     5467     5466     5474     5476     5478     5490     5499 
    5498     5495     5493     5494     5498     5495     5494     5501 
    5508     5508     5501     5494     5497     5506     5522     5544 
    5563     5574     5583     5602     5624     5643     5665     5690 
    5706     5715     5725     5741     5751     5751     5759     5769 
    5780     5792     5803     5811     5819     5822     5822     5819 
    5814     5809     5802     5794     5783     5773     5764     5756 
    5749     5740     5728     5718     5711     5707     5701     5694 
    5688     5672     5656     5651     5648     5637     5626     5624 
    5625     5625     5625     5626     5626     5625     5620     5614 
    5614     5606     5590     5586     5584     5572     5557     5548 
    5539     5533     5530     5524     5512     5497     5486     5481 
    5472     5459     5448     5444     5443     5443     5439     5432 
    5421     5410     5409     5409     5404     5402     5406     5406 
    5406     5404     5400     5404     5418     5440     5455     5470 
    5489     5508     5529     5551     5562     5570     5587     5605 
    5614     5624     5640     5657     5663     5665     5680     5699 
    5714     5725     5730     5738     5748     5755     5764     5778 
    5788     5799     5809     5817     5823     5829     5840     5852 
    5864     5876     5890     5903     5910     5910     5915     5927 
    5933     5933     5926     5911     5895     5879     5860     5837 
    5813     5784     5760     5742     5722     5691     5653     5621 
    5589     5555     5530     5513     5490     5470     5458     5441 
    5414     5385     5363     5348     5336     5320     5306     5302 
    5306     5310     5313     5320     5336     5351     5363     5383 
    5408     5432     5464     5499     5530     5562     5594     5622 
    5647     5674     5699     5722     5738     5748     5751     5748 
    5740     5733     5722     5701     5675     5656     5638     5624 
    5616     5603     5589     5576     5574     5576     5578     5580 
    5589     5593     5589     5582     5580     5584     5593     5605 
    5616     5628     5644     5657     5665     5667     5668     5680 
    5692     5695     5694     5692     5688     5683     5671     5652 
    5632     5613     5593     5571     5552     5537     5518     5493 
    5475     5463     5448     5429     5408     5387     5367     5350 
    5337     5321     5289     5256     5236     5221     5201     5179 
    5171     5175     5179     5185     5201     5213     5221     5232 
    5244     5256     5270     5283     5294     5304     5309     5314 
    5319     5319     5317     5313     5305     5293     5281     5266 
    5254     5243     5232     5224     5227     5233     5242     5260 
    5282     5301     5321     5348     5370     5386     5402     5420 
    5433     5448     5468     5487     5503     5520     5533     5549 
    5575     5597     5614     5637     5660     5671     5676     5690 
    5699     5702     5706     5715     5726     5726     5719     5715 
    5699     5676     5664     5660     5655     5647     5629     5617 
    5617     5614     5601     5593     5587     5580     5579     5578 
    5571     5568     5570     5568     5563     5567     5578     5593 
    5613     5633     5643     5645     5649     5651     5645     5636 
    5629     5625     5616     5606     5594     5582     5570     5562 
    5549     5536     5525     5520     5513     5505     5498     5493 
    5485     5483     5490     5494     5495     5502     5508     5512 
    5518     5522     5522     5525     5533     5540     5539     5532 
    5525     5525     5524     5526     5532     5532     5535     5544 
    5548     5555     5560     5556     5548     5539     5536     5535 
    5526     5517     5510     5503     5494     5486     5475     5464 
    5460     5452     5437     5428     5428     5433     5437     5436 
    5435     5432     5432     5436     5439     5440     5441     5448 
    5456     5458     5451     5448     5454     5456     5454     5458 
    5464     5471     5476     5479     5474     5467     5462     5454 
    5440     5424     5405     5385     5364     5347     5327     5306 
    5290     5270     5248     5228     5206     5194     5190     5181 
    5166     5163     5167     5174     5189     5209     5223     5240 
    5269     5298     5332     5370     5408     5443     5474     5502 
    5535     5571     5606     5638     5664     5684     5709     5738 
    5765     5788     5815     5836     5848     5859     5880     5903 
    5915     5922     5935     5950     5965     5983     5996     6002 
    6002     5998     5988     5975     5960     5940     5913     5886 
    5863     5836     5809     5786     5761     5733     5705     5686 
    5671     5657     5649     5643     5632     5620     5614     5613 
    5614     5618     5618     5614     5616     5620     5624     5629 
    5637     5643     5641     5643     5655     5671     5680     5686 
    5691     5701     5709     5715     5721     5721     5715     5713 
    5711     5707     5699     5686     5670     5651     5630     5611 
    5589     5559     5528     5505     5482     5455     5436     5417 
    5393     5368     5348     5333     5327     5316     5302     5292 
    5289     5293     5296     5298     5305     5314     5323     5328 
    5335     5341     5347     5356     5375     5394     5412     5428 
    5439     5444     5451     5463     5474     5482     5490     5499 
    5505     5508     5510     5513     5513     5512     5513     5513 
    5513     5514     5516     5513     5513     5517     5520     5525 
    5535     5543     5545     5544     5541     5541     5551     5556 
    5549     5540     5539     5537     5532     5526     5520     5508 
    5497     5491     5494     5498     5497     5499     5513     5526 
    5535     5548     5564     5580     5602     5630     5659     5682 
    5699     5718     5742     5765     5784     5798     5806     5813 
    5823     5836     5845     5850     5857     5865     5875     5883 
    5888     5892     5902     5911     5922     5933     5946     5957 
    5961     5967     5977     5985     5987     5992     5995     5991 
    5983     5975     5964     5950     5935     5921     5906     5888 
    5863     5832     5805     5780     5752     5721     5690     5667 
    5648     5630     5613     5598     5583     5570     5560     5547 
    5533     5526     5522     5517     5508     5502     5506     5510 
    5513     5513     5512     5512     5516     5518     5522     5528 
    5530     5530     5533     5532     5525     5518     5517     5517 
    5513     5508     5503     5502     5499     5495     5486     5470 
    5451     5435     5420     5405     5397     5387     5374     5366 
    5363     5360     5363     5371     5381     5391     5405     5417 
    5422     5425     5433     5444     5455     5468     5481     5489 
    5499     5513     5520     5522     5528     5532     5535     5537 
    5532     5522     5521     5520     5520     5524     5526     5526 
    5530     5535     5537     5537     5535     5537     5540     5547 
    5556     5570     5579     5582     5586     5593     5601     5603 
    5602     5599     5597     5595     5594     5591     5594     5599 
    5601     5603     5607     5610     5614     5621     5625     5625 
    5625     5622     5618     5617     5618     5622     5617     5609 
    5610     5610     5602     5594     5587     5580     5575     5570 
    5567     5570     5571     5566     5560     5560     5560     5553 
    5548     5549     5548     5540     5537     5539     5540     5540 
    5537     5539     5539     5535     5530     5524     5514     5503 
    5494     5487     5479     5466     5459     5452     5444     5437 
    5432     5425     5421     5414     5408     5405     5404     5395 
    5391     5393     5397     5400     5398     5398     5395     5387 
    5381     5374     5366     5362     5364     5359     5351     5354 
    5362     5366     5375     5387     5398     5410     5427     5435 
    5443     5454     5466     5483     5498     5510     5522     5535 
    5543     5549     5557     5564     5572     5586     5597     5602 
    5606     5616     5622     5624     5625     5630     5634     5634 
    5632     5629     5629     5629     5636     5644     5644     5641 
    5645     5651     5656     5663     5671     5682     5691     5694 
    5692     5687     5683     5684     5687     5687     5682     5679 
    5680     5671     5660     5652     5644     5640     5641     5641 
    5644     5648     5652     5649     5636     5629     5626     5618 
    5610     5602     5597     5595     5598     5598     5599     5603 
    5605     5607     5611     5611     5611     5617     5625     5632 
    5638     5640     5640     5640     5640     5640     5638     5632 
    5621     5613     5609     5605     5602     5606     5613     5622 
    5637     5651     5657     5661     5661     5657     5655     5652 
    5648     5641     5638     5637     5634     5628     5624     5625 
    5629     5628     5622     5618     5616     5613     5610     5606 
    5609     5616     5620     5628     5636     5636     5640     5647 
    5651     5655     5663     5668     5676     5684     5686     5684 
    5680     5676     5682     5690     5694     5698     5703     5707 
    5707     5711     5714     5710     5703     5701     5698     5697 
    5698     5692     5684     5680     5678     5668     5663     5667 
    5668     5665     5661     5664     5668     5668     5671     5674 
    5671     5665     5665     5664     5657     5651     5648     5645 
    5638     5632     5626     5621     5616     5611     5611     5605 
    5591     5579     5568     5557     5548     5536     5522     5512 
    5502     5491     5485     5482     5482     5481     5472     5463 
    5455     5451     5443     5431     5422     5420     5420     5420 
    5422     5433     5445     5456     5468     5476     5478     5479 
    5485     5489     5487     5483     5483     5489     5490     5479 
    5471     5468     5458     5440     5429     5417     5401     5385 
    5373     5363     5354     5344     5336     5337     5343     5344 
    5346     5346     5352     5363     5368     5370     5371     5373 
    5377     5381     5379     5378     5374     5370     5368     5366 
