Origin Time       2025/01/13 21:19:00
Lat.              31.8
Long.             131.6
Depth. (km)       30
Mag.              6.9
Station Code      OKYH05
Station Lat.      34.8684
Station Long.     133.8527
Station Height(m) 320
Record Time       2025/01/13 21:20:54
Sampling Freq(Hz) 100Hz
Duration Time(s)  127
Dir.              4
Scale Factor      7845(gal)/8223790
Max. Acc. (gal)   0.504
Last Correction   2025/01/13 21:20:55
Memo.             
[...]
    1098     1089     1082     1047     1001      999     1020     1011 
     967      926      909      920      951      994     1021     1023 
    1024     1023     1009      997      982      954      945      959 
     969      977     1005     1031     1032     1021     1023     1047 
    1053     1011      966      957      969      993     1019     1040 
    1062     1040      962      905      932      994     1015      993 
     977      969      970     1008     1070     1108     1108     1092 
    1070     1061     1069     1077     1088     1105     1109     1080 
    1028      990      986      984      974      981      985      958 
     934      947      982     1003      982      918      846      828 
     897     1008     1098     1150     1156     1117     1074     1067 
    1098     1146     1200     1235     1223     1177     1148     1158 
    1166     1152     1142     1152     1159     1159     1175     1219 
    1256     1269     1275     1290     1283     1256     1247     1247 
    1233     1229     1250     1256     1232     1209     1217     1250 
    1269     1244     1185     1116     1059     1034     1048     1090 
    1148     1196     1209     1209     1212     1212     1223     1256 
    1294     1312     1310     1317     1336     1354     1355     1331 
    1302     1300     1309     1305     1296     1281     1252     1223 
    1200     1182     1173     1175     1181     1174     1155     1142 
    1124     1104     1096     1113     1156     1194     1220     1258 
    1279     1255     1233     1254     1294     1314     1298     1259 
    1223     1188     1148     1127     1132     1144     1139     1102 
    1055     1020     1000     1003     1026     1032      996      932 
     889      900      943      976      985      980      959      939 
     949      969      959      935      919      893      874      904 
     951      957      932      923      939      967     1003     1031 
    1035     1031     1043     1062     1071     1077     1082     1077 
    1059     1042     1034     1050     1075     1070     1036     1008 
     990      972      966      989     1020     1024     1004      970 
     930      913      951     1021     1075     1093     1077     1030 
     994     1013     1042     1039     1038     1051     1058     1050 
    1024     1012     1042     1071     1063     1035     1023     1020 
    1013     1019     1036     1031      988      942      924      919 
     915      928      947      949      949      966      981      977 
     974      976      980     1013     1074     1125     1125     1065 
    1003      985      999     1035     1088     1116     1109     1094 
    1075     1046     1039     1074     1108     1108     1097     1089 
    1066     1030     1016     1028     1050     1054     1031     1012 
    1017     1028     1032     1050     1074     1074     1043     1016 
    1011     1008     1009     1024     1036     1030      996      940 
     912      945      989      981      942      922      927      928 
     912      892      884      895      916      928      940      957 
     966      977     1027     1102     1150     1156     1150     1158 
    1198     1273     1366     1429     1418     1360     1316     1291 
    1266     1246     1255     1297     1317     1277     1215     1177 
    1150     1128     1125     1135     1132     1123     1113     1123 
    1162     1201     1208     1194     1177     1155     1136     1143 
    1174     1182     1152     1128     1135     1154     1174     1186 
    1182     1170     1162     1163     1158     1146     1138     1129 
    1120     1127     1159     1204     1229     1209     1144     1088 
    1088     1124     1159     1181     1171     1135     1101     1081 
    1065     1063     1080     1089     1077     1054     1046     1054 
    1065     1055     1026      997      994     1020     1050     1058 
    1032      985      930      885      873      905      965     1019 
    1054     1055     1013      958      940      984     1039     1065 
    1071     1075     1071     1070     1092     1144     1201     1228 
    1223     1206     1193     1181     1178     1194     1208     1185 
    1117     1032      967      928      905      900      909      913 
     886      839      799      776      781      819      870      915 
     951      973      965      945      942      977     1035     1088 
    1115     1120     1116     1113     1111     1116     1136     1151 
    1142     1112     1080     1063     1080     1120     1166     1204 
    1223     1204     1159     1134     1163     1228     1275     1297 
    1312     1314     1310     1316     1327     1352     1387     1397 
    1367     1333     1336     1375     1408     1416     1420     1424 
    1416     1393     1359     1340     1360     1402     1429     1426 
    1401     1358     1310     1281     1285     1302     1316     1324 
    1327     1310     1273     1260     1305     1379     1428     1441 
    1452     1464     1460     1437     1418     1409     1393     1372 
    1344     1290     1225     1173     1135     1102     1062     1023 
    1004      986      959      927      900      881      881      892 
     901      908      913      904      900      924      966      999 
    1017     1031     1042     1043     1039     1055     1094     1127 
    1129     1102     1074     1070     1082     1093     1085     1055 
    1017      974      927      896      892      905      909      904 
     900      895      878      851      816      791      795      819 
     853      896      923      930      931      923      908      912 
     939      966      984      997     1008     1004      986      970 
     963      966      985     1005      996      955      918      901 
     909      930      953      958      932      907      904      922 
     959      992      997      981      966      958      957      978 
    1026     1063     1067     1054     1055     1086     1119     1128 
    1121     1112     1102     1097     1089     1088     1113     1152 
    1154     1120     1097     1094     1105     1111     1109     1127 
    1155     1154     1115     1067     1051     1073     1102     1120 
    1117     1089     1050     1013      994     1003     1024     1038 
    1030     1003      965      930      920      938      965      989 
    1003     1000      993     1005     1028     1053     1081     1112 
    1139     1167     1190     1202     1205     1209     1208     1192 
    1177     1173     1179     1194     1224     1260     1279     1262 
    1232     1216     1201     1181     1162     1134     1090     1044 
    1021     1042     1080     1104     1109     1117     1134     1144 
    1158     1192     1232     1255     1260     1259     1248     1239 
    1256     1304     1341     1336     1314     1308     1309     1313 
    1316     1309     1289     1266     1259     1279     1309     1323 
    1302     1248     1198     1179     1185     1194     1210     1221 
    1213     1200     1197     1196     1189     1189     1192     1183 
    1173     1166     1156     1135     1112     1105     1102     1093 
    1069     1040     1034     1050     1082     1108     1108     1102 
    1111     1115     1113     1115     1113     1124     1151     1171 
    1189     1224     1274     1313     1324     1320     1335     1370 
    1401     1425     1440     1424     1375     1324     1301     1324 
    1358     1362     1332     1267     1181     1119     1112     1135 
    1154     1152     1129     1090     1050     1011      967      920 
     878      850      837      823      808      797      789      777 
     764      751      731      702      683      687      703      703 
     676      641      607      598      622      658      680      683 
     691      718      750      785      835      885      911      922 
     953      997     1035     1065     1093     1121     1147     1177 
    1217     1260     1293     1302     1289     1267     1254     1259 
    1277     1274     1237     1198     1174     1161     1144     1111 
    1074     1051     1034     1008      985      974      973      974 
     986     1001     1000      992      997     1008     1012     1013 
    1011      996      969      939      918      908      897      870 
     823      772      727      689      650      625      634      660 
     668      661      658      662      673      689      710      737 
     765      795      824      842      862      895      919      924 
     922      920      927      939      939      932      942      961 
     962      946      935      934      936      946      963      984 
    1011     1047     1090     1134     1179     1227     1255     1266 
    1290     1327     1364     1397     1424     1445     1460     1475 
    1502     1524     1528     1530     1530     1516     1485     1455 
    1431     1405     1394     1406     1408     1393     1386     1387 
    1374     1333     1286     1267     1282     1296     1279     1250 
    1237     1242     1247     1250     1255     1259     1258     1254 
    1244     1224     1217     1235     1259     1270     1262     1223 
    1151     1097     1094     1125     1147     1139     1111     1078 
    1046     1024     1026     1034     1030     1015      986      954 
     935      931      932      931      934      931      909      877 
     853      849      859      876      889      886      870      865 
     878      904      931      961      992     1020     1036     1047 
    1073     1111     1140     1150     1138     1119     1105     1098 
    1098     1096     1086     1071     1051     1028     1008      994 
    1000     1020     1040     1039     1015      988      976      980 
     996     1017     1032     1024      986      943      936      967 
    1001     1024     1042     1059     1077     1086     1104     1138 
    1171     1198     1229     1258     1275     1274     1244     1209 
    1197     1198     1183     1144     1085     1023      974      943 
     922      916      919      911      892      881      886      899 
     920      955     1005     1065     1120     1159     1173     1161 
    1158     1192     1237     1264     1274     1260     1225     1186 
    1156     1136     1123     1109     1100     1084     1061     1050 
    1054     1042     1008      976      966      984     1026     1062 
    1070     1054     1023      989      980     1009     1058     1086 
    1084     1070     1061     1065     1086     1121     1155     1174 
    1170     1146     1113     1093     1094     1116     1142     1159 
    1163     1148     1116     1089     1092     1115     1125     1108 
    1080     1061     1048     1043     1046     1040     1019     1004 
     997      988      985      993      989      974      976     1004 
    1043     1067     1067     1051     1026     1008     1023     1069 
    1109     1121     1129     1147     1161     1177     1209     1252 
    1273     1263     1254     1256     1270     1289     1304     1308 
    1294     1273     1260     1260     1248     1213     1163     1111 
    1067     1046     1046     1038     1003      969      957      947 
     931      930      942      957      984     1031     1080     1097 
    1084     1067     1066     1086     1124     1148     1152     1158 
    1163     1156     1128     1082     1042     1036     1057     1080 
    1096     1101     1093     1071     1046     1042     1080     1125 
    1138     1125     1128     1148     1162     1171     1190     1217 
    1229     1233     1251     1282     1310     1321     1300     1262 
    1243     1248     1259     1271     1273     1244     1185     1123 
    1074     1039     1012      984      949      911      886      882 
     881      870      862      872      895      919      931      950 
     992     1054     1120     1170     1196     1219     1256     1306 
    1354     1401     1451     1490     1502     1497     1490     1491 
    1494     1485     1458     1410     1354     1298     1254     1225 
    1215     1201     1166     1120     1093     1084     1062     1028 
    1016     1036     1070     1092     1092     1092     1104     1117 
    1128     1144     1175     1216     1248     1266     1278     1294 
    1313     1318     1300     1289     1304     1312     1296     1264 
    1227     1177     1123     1074     1038     1016     1015     1026 
    1023      999      970      940      907      884      861      828 
     800      764      714      675      662      657      635      603 
     596      622      648      654      656      654      657      669 
     695      741      796      835      853      866      881      903 
     927      942      953      984     1027     1069     1112     1144 
    1161     1170     1175     1182     1193     1200     1209     1225 
    1235     1232     1227     1227     1231     1235     1242     1252 
    1260     1270     1296     1327     1344     1343     1328     1309 
    1291     1279     1275     1285     1301     1308     1305     1305 
    1309     1304     1283     1267     1263     1264     1270     1282 
    1294     1305     1313     1313     1314     1328     1341     1354 
    1363     1358     1328     1296     1275     1267     1256     1235 
    1209     1175     1120     1053      992      940      896      842 
     780      735      718      703      677      646      616      594 
     579      568      556      554      568      589      621      662 
     708      743      772      805      830      839      859      909 
     966     1000     1009     1012     1021     1038     1047     1048 
    1040     1035     1031     1019     1004      999      990      970 
     945      926      913      905      900      893      878      855 
     842      854      878      901      926      951      976      996 
    1013     1021     1007      988      992     1017     1050     1074 
    1077     1061     1038     1030     1042     1071     1111     1147 
    1169     1175     1166     1154     1155     1169     1186     1201 
    1205     1196     1171     1136     1097     1061     1040     1035 
    1030     1020     1004      976      935      904      892      881 
     858      839      839      858      881      889      872      838 
     800      773      781      814      841      838      820      815 
     815      811      814      823      834      853      877      903 
     927      954      993     1050     1105     1146     1177     1212 
    1255     1302     1344     1382     1421     1467     1507     1532 
    1543     1549     1544     1516     1474     1444     1437     1433 
    1426     1418     1399     1360     1318     1283     1254     1236 
    1225     1201     1169     1144     1127     1119     1120     1112 
    1084     1050     1027     1024     1034     1040     1034     1003 
     970      962      970      976      977      981      981      962 
     932      904      886      881      881      888      895      888 
     870      851      834      823      820      818      820      831 
     847      862      876      882      888      900      918      935 
     943      950      969      997     1026     1057     1085     1098 
    1100     1100     1111     1131     1154     1178     1198     1204 
    1198     1189     1175     1161     1154     1155     1165     1169 
    1162     1147     1135     1128     1138     1154     1163     1169 
    1161     1129     1090     1053     1024     1011     1016     1028 
    1030     1019     1005      990      977      977      992     1007 
    1009     1012     1019     1019     1007      994      999     1012 
    1016     1017     1023     1011      977      950      945      955 
     972      993     1005     1001      994      992      993     1004 
    1038     1078     1113     1143     1166     1190     1224     1256 
    1282     1321     1367     1389     1394     1412     1449     1490 
    1514     1528     1536     1530     1521     1529     1549     1567 
    1567     1548     1520     1490     1474     1468     1463     1449 
    1431     1401     1367     1343     1325     1306     1290     1275 
    1259     1237     1216     1205     1194     1169     1135     1104 
    1081     1061     1043     1042     1047     1038     1016      994 
     977      959      946      935      930      928      927      911 
     884      862      855      857      849      835      822      810 
     793      772      758      756      751      742      738      739 
     741      735      722      708      704      718      745      772 
     795      811      818      828      861      904      946      982 
     996      980      967      982     1016     1055     1092     1109 
    1092     1059     1040     1047     1071     1100     1116     1116 
    1104     1090     1081     1074     1066     1066     1071     1070 
    1058     1034     1001      969      954      957      965      965 
     949      923      893      872      864      868      876      878 
     865      842      828      834      851      869      873      869 
     876      884      886      892      907      927      950      973 
     982      976      961      962      984     1008     1021     1023 
    1017     1015     1024     1042     1057     1069     1080     1093 
    1116     1136     1150     1161     1169     1185     1213     1236 
    1246     1246     1235     1225     1232     1256     1279     1285 
    1274     1266     1266     1277     1294     1302     1293     1285 
    1290     1294     1291     1290     1298     1312     1324     1336 
    1348     1360     1366     1356     1340     1329     1332     1345 
    1367     1383     1383     1370     1356     1345     1331     1314 
    1301     1291     1290     1302     1310     1297     1269     1235 
    1204     1177     1159     1155     1162     1169     1169     1161 
    1140     1112     1089     1086     1097     1101     1093     1090 
    1092     1082     1061     1036     1016     1005      999      985 
     962      932      907      892      891      895      895      891 
     885      885      892      901      897      876      861      865 
     877      896      918      930      930      924      926      940 
     958      980     1008     1032     1043     1047     1050     1054 
    1067     1092     1117     1128     1129     1129     1124     1116 
    1112     1121     1136     1139     1116     1081     1047     1024 
    1021     1038     1054     1062     1059     1053     1048     1047 
    1050     1061     1071     1075     1069     1057     1054     1071 
    1096     1102     1086     1061     1034     1015     1012     1019 
    1020     1013     1000      969      936      931      946      962 
     963      949      932      927      928      942      973     1012 
    1039     1053     1057     1070     1097     1121     1146     1178 
    1212     1242     1266     1286     1302     1317     1318     1310 
    1301     1304     1320     1331     1323     1308     1294     1278 
    1255     1231     1216     1202     1185     1167     1146     1125 
    1112     1108     1113     1121     1120     1115     1108     1101 
    1092     1086     1092     1104     1116     1125     1139     1147 
