Origin Time       2025/01/13 21:19:00
Lat.              31.8
Long.             131.6
Depth. (km)       30
Mag.              6.9
Station Code      OKYH13
Station Lat.      34.7283
Station Long.     134.2744
Station Height(m) -100.17
Record Time       2025/01/13 21:21:02
Sampling Freq(Hz) 100Hz
Duration Time(s)  120
Dir.              2
Scale Factor      2942(gal)/8224139
Max. Acc. (gal)   0.381
Last Correction   2025/01/13 21:21:03
Memo.             
[...]
  236382   236385   236379   236367   236341   236304   236262   236228 
  236197   236169   236147   236132   236100   236050   236009   235986 
  235966   235944   235923   235899   235878   235863   235846   235827 
  235815   235809   235799   235785   235781   235780   235777   235776 
  235769   235753   235737   235722   235703   235674   235645   235622 
  235596   235562   235527   235500   235488   235491   235495   235492 
  235483   235476   235477   235481   235479   235467   235452   235440 
  235429   235419   235402   235369   235329   235295   235261   235222 
  235186   235155   235120   235076   235037   235014   234997   234975 
  234947   234916   234885   234866   234855   234837   234809   234778 
  234752   234744   234750   234763   234783   234804   234812   234809 
  234816   234850   234885   234901   234909   234916   234920   234932 
  234940   234941   234949   234964   234978   234981   234983   234995 
  235014   235035   235057   235075   235090   235098   235095   235103 
  235122   235132   235138   235156   235165   235160   235167   235187 
  235202   235213   235224   235232   235252   235296   235337   235357 
  235371   235390   235414   235438   235461   235480   235504   235529 
  235549   235565   235579   235592   235606   235631   235678   235731 
  235773   235811   235851   235889   235916   235947   235985   236021 
  236062   236094   236115   236136   236154   236159   236160   236156 
  236150   236152   236163   236170   236171   236174   236187   236198 
  236197   236197   236204   236206   236214   236220   236210   236198 
  236190   236185   236191   236201   236205   236201   236200   236204 
  236202   236187   236164   236142   236115   236086   236070   236063 
  236052   236034   236015   236002   236004   236005   235990   235974 
  235963   235948   235934   235932   235928   235917   235908   235893 
  235880   235874   235870   235861   235847   235823   235799   235789 
  235784   235778   235776   235770   235769   235776   235780   235782 
  235785   235786   235795   235805   235815   235822   235832   235840 
  235839   235834   235836   235840   235839   235834   235823   235804 
  235780   235765   235766   235781   235792   235788   235781   235788 
  235793   235792   235789   235792   235801   235811   235820   235827 
  235823   235816   235827   235846   235858   235870   235881   235896 
  235921   235943   235951   235954   235961   235977   236008   236039 
  236054   236050   236043   236039   236036   236020   235994   235969 
  235936   235904   235877   235845   235813   235789   235758   235712 
  235664   235624   235595   235570   235550   235523   235499   235483 
  235468   235452   235448   235457   235461   235464   235475   235494 
  235516   235539   235558   235575   235595   235616   235638   235658 
  235674   235681   235680   235678   235692   235700   235693   235692 
  235696   235696   235695   235692   235685   235681   235684   235692 
  235700   235708   235719   235727   235734   235750   235773   235796 
  235805   235803   235796   235781   235762   235747   235724   235685 
  235639   235581   235519   235476   235448   235413   235368   235317 
  235267   235224   235180   235138   235109   235086   235059   235026 
  234995   234970   234951   234943   234939   234932   234920   234904 
  234879   234850   234829   234820   234816   234810   234804   234797 
  234793   234787   234786   234796   234812   234825   234833   234844 
  234860   234879   234883   234883   234894   234906   234905   234897 
  234886   234866   234837   234814   234797   234763   234719   234685 
  234663   234659   234661   234651   234644   234644   234638   234634 
  234634   234630   234624   234617   234605   234593   234585   234586 
  234598   234609   234624   234652   234682   234708   234738   234774 
  234806   234835   234870   234909   234940   234964   234993   235024 
  235043   235047   235055   235080   235118   235152   235183   235206 
  235226   235255   235286   235313   235336   235359   235381   235398 
  235402   235399   235398   235411   235435   235453   235477   235512 
  235542   235568   235595   235616   235634   235658   235685   235700 
  235707   235720   235749   235781   235812   235834   235842   235855 
  235877   235894   235905   235908   235909   235912   235913   235909 
  235908   235911   235919   235935   235957   235978   235990   235997 
  236005   236012   236019   236032   236044   236054   236061   236058 
  236054   236067   236093   236113   236131   236146   236158   236166 
  236167   236163   236158   236147   236120   236085   236055   236034 
  236011   235985   235951   235919   235893   235865   235840   235820 
  235793   235764   235739   235714   235692   235677   235662   235642 
  235619   235607   235600   235603   235618   235626   235627   235633 
  235646   235665   235688   235705   235716   235728   235738   235743 
  235755   235765   235762   235757   235755   235755   235745   235718 
  235692   235670   235639   235608   235592   235579   235560   235537 
  235510   235481   235461   235449   235434   235427   235421   235402 
  235387   235387   235380   235365   235356   235350   235346   235350 
  235371   235395   235413   235437   235458   235462   235460   235461 
  235465   235467   235477   235491   235491   235488   235496   235514 
  235529   235538   235557   235585   235610   235627   235642   235653 
  235668   235681   235684   235685   235689   235683   235674   235678 
  235685   235693   235701   235700   235693   235689   235676   235658 
  235650   235642   235642   235649   235649   235645   235637   235623 
  235603   235575   235543   235510   235473   235437   235408   235383 
  235350   235314   235290   235272   235265   235267   235264   235260 
  235268   235283   235291   235295   235299   235311   235333   235361 
  235395   235433   235473   235514   235564   235622   235680   235741 
  235808   235870   235940   236017   236086   236156   236231   236289 
  236336   236386   236418   236430   236448   236470   236474   236472 
  236471   236471   236479   236493   236495   236480   236457   236432 
  236402   236375   236347   236309   236267   236225   236185   236139 
  236085   236029   235978   235924   235869   235820   235761   235689 
  235630   235588   235537   235472   235413   235359   235303   235248 
  235192   235138   235084   235030   234986   234955   234921   234890 
  234873   234860   234856   234858   234854   234851   234852   234852 
  234850   234839   234819   234798   234782   234774   234775   234779 
  234782   234785   234792   234802   234816   234837   234874   234921 
  234981   235048   235114   235175   235234   235291   235357   235431 
  235494   235542   235595   235651   235703   235753   235807   235857 
  235900   235951   236001   236038   236070   236098   236123   236150 
  236177   236191   236208   236233   236254   236267   236279   236281 
  236278   236270   236251   236220   236179   236124   236065   236007 
  235944   235876   235801   235728   235660   235584   235507   235433 
  235363   235303   235257   235207   235160   235126   235097   235068 
  235047   235030   235021   235017   235010   234999   234990   234986 
  234985   234982   234985   234982   234974   234974   234985   235005 
  235033   235060   235080   235103   235124   235149   235191   235248 
  235305   235363   235422   235472   235518   235573   235634   235691 
  235749   235808   235867   235927   235973   236005   236031   236052 
  236074   236101   236132   236160   236181   236202   236236   236266 
  236287   236310   236332   236349   236358   236363   236380   236405 
  236424   236437   236451   236459   236461   236460   236455   236443 
  236420   236376   236335   236305   236277   236251   236229   236202 
  236177   236158   236143   236124   236101   236073   236042   236017 
  235993   235962   235931   235900   235870   235845   235824   235811 
  235796   235781   235762   235734   235701   235665   235623   235577 
  235531   235489   235448   235407   235375   235354   235346   235340 
  235336   235341   235349   235360   235371   235376   235373   235364 
  235348   235323   235291   235245   235190   235134   235076   235012 
  234951   234891   234840   234793   234746   234712   234693   234678 
  234669   234667   234667   234682   234705   234731   234767   234812 
  234858   234913   234976   235033   235080   235128   235175   235217 
  235260   235305   235346   235386   235423   235464   235507   235546 
  235577   235610   235642   235669   235687   235700   235718   235732 
  235737   235732   235723   235710   235689   235665   235643   235619 
  235596   235570   235542   235518   235496   235476   235467   235461 
  235452   235441   235433   235422   235415   235408   235403   235403 
  235400   235396   235395   235398   235396   235391   235391   235398 
  235408   235418   235425   235431   235434   235427   235421   235418 
  235415   235418   235435   235453   235469   235491   235512   235538 
  235579   235630   235681   235732   235773   235807   235849   235893 
  235927   235959   235998   236038   236067   236094   236127   236163 
  236194   236217   236240   236258   236272   236286   236295   236294 
  236289   236279   236263   236245   236227   236205   236185   236163 
  236140   236120   236101   236082   236058   236020   235973   235936 
  235915   235894   235877   235867   235857   235839   235826   235822 
  235818   235819   235824   235830   235838   235847   235845   235838 
  235835   235827   235812   235796   235778   235759   235741   235720 
  235703   235670   235623   235585   235552   235510   235464   235426 
  235396   235364   235334   235309   235279   235248   235232   235218 
  235195   235178   235163   235147   235140   235133   235132   235145 
  235168   235192   235224   235260   235295   235326   235364   235415 
  235464   235506   235552   235600   235646   235688   235730   235766 
  235793   235823   235863   235907   235938   235963   235988   236009 
  236032   236056   236081   236108   236131   236155   236183   236202 
  236218   236248   236277   236298   236326   236356   236383   236416 
  236445   236463   236482   236502   236518   236536   236549   236549 
  236548   236537   236517   236499   236475   236434   236391   236352 
  236309   236248   236177   236109   236047   235985   235919   235842 
  235765   235707   235647   235569   235491   235426   235361   235299 
  235246   235191   235136   235089   235052   235026   235006   234994 
  234994   235002   235017   235040   235071   235109   235155   235210 
  235267   235321   235383   235453   235519   235581   235647   235712 
  235766   235813   235858   235893   235920   235934   235935   235927 
  235908   235885   235869   235855   235838   235815   235795   235777 
  235758   235746   235746   235745   235738   235738   235747   235759 
  235777   235796   235813   235835   235859   235877   235889   235897 
  235908   235926   235951   235980   236007   236024   236028   236027 
  236027   236020   236002   235980   235953   235917   235874   235830 
  235788   235746   235701   235654   235606   235553   235499   235448 
  235400   235352   235311   235282   235251   235209   235152   235097 
  235049   235005   234962   234925   234898   234882   234863   234848 
  234844   234843   234839   234839   234844   234858   234879   234901 
  234914   234922   234933   234947   234958   234964   234972   234979 
  234972   234959   234947   234928   234904   234881   234851   234824 
  234806   234789   234773   234765   234767   234782   234801   234832 
  234874   234912   234952   234998   235043   235093   235155   235213 
  235265   235321   235381   235437   235487   235534   235581   235635 
  235691   235737   235781   235830   235866   235892   235919   235944 
  235965   235977   235984   235978   235957   235939   235923   235899 
  235881   235867   235846   235820   235796   235770   235746   235726 
  235707   235695   235683   235665   235658   235661   235661   235666 
  235670   235680   235701   235727   235749   235772   235789   235801 
  235813   235822   235826   235828   235827   235823   235820   235809 
  235795   235773   235745   235720   235696   235665   235639   235619 
  235595   235572   235546   235518   235498   235485   235477   235472 
  235469   235469   235472   235484   235496   235502   235507   235519 
  235530   235539   235546   235539   235531   235525   235514   235506 
  235502   235494   235484   235483   235492   235504   235508   235506 
  235511   235523   235538   235552   235561   235565   235564   235564 
  235556   235541   235534   235527   235510   235489   235476   235472 
  235476   235477   235473   235468   235460   235448   235449   235462 
  235471   235479   235487   235484   235481   235476   235467   235456 
  235444   235423   235404   235398   235383   235357   235338   235315 
  235288   235267   235244   235217   235186   235151   235121   235087 
  235055   235026   234991   234954   234917   234877   234836   234797 
  234758   234727   234701   234677   234661   234652   234654   234671 
  234697   234723   234747   234777   234823   234878   234937   235010 
  235090   235170   235246   235314   235390   235475   235552   235624 
  235701   235768   235830   235897   235965   236028   236092   236155 
  236209   236254   236304   236358   236399   236434   236476   236515 
  236547   236579   236614   236637   236652   236667   236675   236671 
  236657   236638   236607   236572   236533   236488   236441   236390 
  236335   236282   236227   236175   236133   236092   236044   236001 
  235961   235920   235886   235865   235847   235835   235832   235828 
  235826   235826   235827   235840   235859   235869   235870   235878 
  235897   235919   235938   235955   235965   235974   235985   235993 
  235998   236002   235997   235993   235989   235980   235965   235943 
  235917   235894   235866   235832   235795   235758   235718   235673 
  235624   235573   235523   235477   235427   235371   235315   235267 
  235221   235175   235130   235099   235068   235039   235026   235026 
  235021   235018   235024   235035   235041   235051   235072   235089 
  235111   235148   235186   235215   235240   235267   235299   235329 
  235357   235383   235400   235413   235426   235434   235440   235448 
  235452   235452   235460   235465   235458   235452   235448   235444 
  235442   235441   235441   235448   235458   235472   235480   235483 
  235488   235494   235499   235502   235499   235502   235514   235521 
  235523   235529   235531   235534   235535   235539   235545   235550 
  235557   235568   235579   235593   235608   235623   235650   235684 
  235712   235742   235778   235818   235862   235911   235958   236001 
  236044   236092   236129   236159   236189   236214   236229   236248 
  236267   236281   236298   236314   236331   236352   236374   236397 
  236424   236455   236480   236497   236515   236537   236556   236579 
  236599   236614   236634   236649   236656   236663   236667   236665 
  236661   236650   236633   236609   236576   236540   236505   236466 
  236418   236362   236302   236241   236181   236124   236066   236008 
  235954   235908   235867   235835   235805   235772   235741   235712 
  235683   235658   235637   235624   235615   235597   235583   235575 
  235565   235554   235542   235526   235508   235498   235491   235484 
  235473   235465   235457   235449   235445   235444   235441   235442 
  235446   235444   235437   235422   235406   235391   235369   235342 
  235319   235296   235276   235252   235225   235207   235195   235188 
  235192   235201   235209   235221   235232   235240   235256   235278 
  235299   235322   235353   235380   235404   235435   235468   235489 
  235508   235530   235550   235564   235573   235576   235577   235579 
  235580   235580   235579   235576   235572   235566   235566   235565 
  235565   235568   235570   235573   235575   235580   235593   235604 
  235612   235633   235657   235676   235692   235703   235710   235719 
  235727   235735   235743   235751   235759   235772   235788   235797 
  235797   235800   235801   235803   235800   235793   235789   235785 
  235780   235778   235776   235770   235765   235753   235737   235722 
  235712   235710   235704   235693   235687   235683   235677   235670 
  235665   235664   235660   235656   235656   235651   235643   235635 
  235623   235615   235611   235612   235615   235610   235599   235592 
  235589   235584   235566   235546   235530   235510   235487   235462 
  235441   235426   235414   235390   235365   235349   235340   235333 
  235327   235326   235325   235327   235327   235319   235317   235317 
  235309   235302   235294   235278   235256   235238   235222   235199 
  235172   235156   235137   235111   235093   235082   235080   235089 
  235097   235107   235128   235141   235152   235172   235198   235229 
  235264   235298   235330   235363   235392   235418   235449   235485 
  235518   235548   235580   235615   235637   235649   235668   235681 
  235693   235707   235718   235727   235737   235743   235751   235761 
  235769   235780   235789   235796   235807   235818   235827   235840 
  235857   235876   235889   235899   235905   235912   235919   235927 
  235938   235944   235946   235946   235943   235940   235936   235926 
  235915   235919   235926   235921   235915   235908   235905   235896 
  235889   235888   235877   235866   235862   235855   235842   235830 
  235820   235812   235807   235805   235804   235804   235804   235803 
  235805   235811   235816   235824   235831   235836   235838   235831 
  235827   235827   235827   235828   235822   235811   235804   235797 
  235793   235789   235784   235785   235788   235789   235795   235807 
  235819   235830   235839   235849   235851   235858   235869   235869 
  235865   235861   235854   235855   235859   235853   235843   235839 
  235835   235831   235820   235815   235815   235812   235803   235800 
  235808   235811   235812   235820   235832   235843   235854   235870 
  235892   235907   235915   235927   235938   235944   235961   235981 
  235997   236005   236011   236020   236032   236043   236050   236048 
  236043   236039   236035   236024   236011   235994   235973   235953 
  235932   235916   235903   235892   235881   235873   235865   235851 
  235843   235847   235850   235843   235836   235832   235831   235832 
  235831   235831   235827   235820   235819   235815   235804   235801 
  235805   235801   235795   235784   235759   235737   235723   235708 
  235691   235666   235637   235614   235592   235568   235553   235546 
  235539   235527   235512   235499   235485   235469   235452   235435 
  235418   235404   235392   235377   235361   235349   235348   235345 
  235342   235346   235348   235349   235357   235363   235364   235373 
  235383   235387   235387   235387   235387   235380   235369   235363 
  235354   235344   235329   235309   235291   235273   235249   235226 
  235207   235194   235183   235176   235172   235168   235163   235163 
  235163   235155   235151   235153   235155   235156   235157   235152 
  235140   235129   235121   235109   235098   235091   235079   235070 
