Origin Time       2025/01/13 21:19:00
Lat.              31.8
Long.             131.6
Depth. (km)       30
Mag.              6.9
Station Code      OKYH03
Station Lat.      34.7783
Station Long.     133.7890
Station Height(m) 100
Record Time       2025/01/13 21:20:56
Sampling Freq(Hz) 100Hz
Duration Time(s)  120
Dir.              4
Scale Factor      7845(gal)/8223790
Max. Acc. (gal)   0.649
Last Correction   2025/01/13 21:20:57
Memo.             
[...]
    1348     1474     1561     1544     1480     1479     1545     1624 
    1690     1719     1710     1698     1678     1624     1552     1483 
    1413     1356     1347     1382     1425     1455     1478     1509 
    1568     1649     1717     1729     1683     1614     1572     1590 
    1657     1737     1780     1748     1678     1641     1618     1555 
    1476     1440     1460     1506     1521     1462     1381     1368 
    1420     1483     1545     1582     1579     1571     1566     1559 
    1583     1633     1661     1645     1602     1575     1583     1582 
    1528     1453     1436     1486     1566     1644     1692     1688 
    1644     1580     1505     1443     1409     1381     1345     1310 
    1286     1302     1366     1413     1428     1451     1480     1497 
    1539     1602     1621     1590     1563     1576     1617     1655 
    1672     1692     1738     1772     1738     1660     1601     1580 
    1580     1572     1559     1557     1567     1561     1525     1470 
    1424     1408     1425     1470     1529     1593     1638     1661 
    1669     1676     1683     1682     1671     1659     1652     1630 
    1575     1487     1398     1348     1350     1368     1393     1429 
    1462     1491     1528     1541     1502     1448     1449     1553 
    1714     1842     1906     1917     1876     1786     1672     1575 
    1516     1480     1463     1456     1449     1453     1476     1483 
    1447     1375     1306     1293     1337     1367     1356     1371 
    1470     1613     1707     1710     1665     1607     1547     1501 
    1485     1478     1447     1389     1337     1323     1337     1360 
    1372     1385     1429     1522     1644     1748     1791     1773 
    1741     1730     1714     1659     1582     1530     1521     1541 
    1560     1549     1498     1448     1463     1545     1606     1582 
    1533     1541     1593     1645     1680     1669     1606     1517 
    1451     1440     1451     1451     1456     1478     1498     1512 
    1525     1553     1629     1733     1786     1752     1692     1672 
    1683     1699     1725     1753     1771     1782     1763     1692 
    1593     1503     1470     1502     1560     1615     1675     1711 
    1696     1657     1618     1570     1532     1529     1547     1547 
    1536     1544     1547     1521     1520     1564     1628     1694 
    1730     1699     1620     1534     1472     1460     1489     1516 
    1518     1501     1468     1432     1402     1387     1401     1435 
    1462     1475     1472     1435     1389     1385     1410     1435 
    1467     1505     1524     1534     1549     1582     1628     1660 
    1656     1598     1490     1399     1374     1382     1398     1431 
    1482     1557     1648     1719     1748     1752     1744     1718 
    1675     1626     1594     1584     1568     1514     1459     1452 
    1482     1503     1483     1424     1390     1422     1486     1520 
    1509     1485     1468     1466     1460     1448     1439     1437 
    1447     1476     1513     1526     1526     1541     1580     1629 
    1659     1636     1578     1534     1518     1507     1476     1405 
    1331     1301     1308     1324     1337     1350     1405     1533 
    1672     1757     1782     1773     1760     1742     1696     1624 
    1559     1530     1545     1572     1575     1571     1582     1597 
    1617     1651     1676     1692     1713     1725     1725     1714 
    1699     1695     1686     1655     1640     1647     1637     1602 
    1579     1610     1683     1718     1678     1595     1530     1528 
    1564     1582     1584     1610     1634     1598     1518     1460 
    1444     1490     1602     1721     1777     1775     1756     1725 
    1686     1649     1622     1610     1607     1593     1560     1529 
    1517     1522     1544     1575     1598     1603     1586     1553 
    1517     1479     1441     1418     1414     1414     1402     1378 
    1352     1344     1358     1416     1530     1656     1730     1753 
    1760     1776     1798     1802     1780     1757     1729     1679 
    1636     1613     1582     1530     1472     1426     1421     1451 
    1472     1452     1402     1370     1383     1420     1459     1486 
    1471     1435     1437     1463     1470     1470     1486     1520 
    1556     1578     1574     1560     1553     1553     1529     1475 
    1418     1383     1367     1364     1368     1386     1413     1413 
    1378     1356     1370     1366     1329     1328     1408     1512 
    1568     1561     1520     1468     1429     1394     1333     1250 
    1183     1161     1165     1193     1246     1296     1332     1370 
    1410     1451     1486     1498     1464     1405     1359     1332 
    1312     1300     1313     1350     1387     1404     1394     1358 
    1308     1285     1316     1389     1472     1544     1590     1624 
    1645     1649     1638     1628     1621     1607     1578     1534 
    1493     1470     1478     1514     1572     1641     1695     1713 
    1710     1728     1771     1815     1822     1794     1780     1796 
    1822     1836     1822     1819     1857     1883     1858     1804 
    1752     1718     1702     1696     1705     1732     1780     1836 
    1865     1856     1831     1827     1834     1819     1796     1792 
    1795     1783     1761     1723     1688     1684     1688     1659 
    1591     1516     1466     1456     1470     1487     1491     1470 
    1437     1431     1466     1516     1549     1557     1548     1536 
    1545     1578     1602     1603     1591     1584     1587     1594 
    1609     1620     1606     1563     1502     1455     1453     1480 
    1489     1467     1440     1425     1420     1432     1464     1487 
    1482     1455     1425     1424     1448     1445     1394     1352 
    1367     1428     1502     1556     1574     1564     1534     1491 
    1463     1464     1480     1514     1578     1674     1773     1825 
    1795     1711     1628     1574     1530     1476     1410     1347 
    1304     1296     1331     1381     1417     1459     1534     1632 
    1705     1732     1749     1796     1856     1881     1858     1823 
    1821     1857     1899     1899     1861     1809     1761     1736 
    1714     1667     1602     1544     1518     1541     1594     1645 
    1675     1669     1622     1541     1456     1422     1447     1472 
    1460     1428     1408     1417     1445     1476     1509     1539 
    1559     1588     1628     1630     1586     1536     1499     1478 
    1471     1479     1507     1547     1588     1634     1663     1649 
    1605     1564     1560     1587     1613     1622     1610     1583 
    1556     1533     1510     1490     1460     1416     1381     1359 
    1335     1317     1309     1297     1282     1277     1281     1301 
    1344     1386     1413     1440     1485     1541     1583     1575 
    1516     1462     1462     1491     1514     1537     1574     1611 
    1637     1652     1661     1665     1668     1668     1671     1688 
    1726     1755     1744     1698     1640     1584     1545     1522 
    1506     1487     1464     1445     1436     1432     1432     1421 
    1409     1417     1445     1474     1486     1499     1536     1580 
    1610     1630     1660     1702     1737     1728     1667     1603 
    1584     1597     1611     1609     1591     1595     1634     1683 
    1730     1772     1811     1853     1890     1900     1892     1891 
    1908     1926     1918     1888     1854     1826     1791     1755 
    1738     1746     1763     1780     1804     1837     1880     1933 
    1961     1957     1953     1954     1942     1907     1850     1776 
    1690     1606     1532     1478     1464     1487     1491     1444 
    1375     1325     1294     1262     1220     1183     1178     1202 
    1227     1240     1244     1239     1225     1200     1158     1108 
    1057     1012      985      990     1036     1112     1201     1308 
    1424     1524     1591     1617     1626     1657     1711     1773 
    1840     1888     1910     1908     1888     1854     1822     1795 
    1775     1757     1726     1686     1665     1659     1644     1610 
    1563     1521     1506     1506     1507     1494     1449     1405 
    1413     1460     1497     1493     1460     1429     1413     1394 
    1368     1350     1336     1313     1283     1251     1215     1183 
    1161     1147     1144     1144     1135     1135     1146     1140 
    1125     1134     1163     1197     1221     1240     1267     1294 
    1309     1327     1370     1431     1480     1505     1514     1517 
    1513     1513     1526     1551     1584     1640     1710     1771 
    1811     1848     1879     1898     1918     1935     1934     1926 
    1907     1853     1783     1713     1640     1586     1561     1540 
    1522     1520     1521     1532     1559     1587     1611     1622 
    1610     1590     1583     1587     1583     1559     1520     1490 
    1485     1498     1513     1526     1553     1595     1645     1692 
    1714     1714     1710     1695     1667     1652     1664     1675 
    1657     1629     1620     1634     1660     1680     1686     1692 
    1714     1734     1733     1719     1715     1725     1734     1733 
    1711     1669     1632     1618     1626     1630     1611     1572 
    1525     1487     1467     1464     1476     1499     1533     1575 
    1607     1614     1614     1637     1682     1714     1723     1730 
    1756     1788     1794     1755     1696     1648     1613     1586 
    1561     1543     1521     1490     1444     1386     1332     1294 
    1271     1262     1274     1310     1344     1343     1314     1302 
    1316     1341     1377     1418     1459     1503     1557     1611 
    1647     1665     1682     1718     1782     1840     1863     1873 
    1900     1935     1956     1942     1887     1809     1738     1679 
    1618     1557     1505     1471     1444     1408     1364     1345 
    1355     1378     1398     1408     1420     1448     1467     1453 
    1422     1393     1352     1290     1209     1138     1104     1107 
    1120     1142     1194     1273     1362     1458     1547     1609 
    1664     1726     1761     1761     1746     1725     1696     1667 
    1630     1605     1594     1578     1548     1517     1502     1514 
    1544     1574     1586     1575     1561     1568     1584     1594 
    1587     1545     1479     1425     1397     1382     1371     1363 
    1364     1389     1439     1501     1559     1605     1642     1668 
    1665     1638     1607     1599     1620     1651     1675     1695 
    1713     1721     1717     1707     1691     1676     1665     1645 
    1614     1601     1617     1653     1691     1711     1710     1715 
    1742     1765     1761     1734     1713     1721     1759     1799 
    1818     1831     1854     1869     1854     1822     1779     1725 
    1679     1649     1637     1648     1671     1682     1683     1696 
    1730     1760     1768     1771     1777     1784     1795     1796 
    1769     1714     1652     1602     1572     1567     1568     1553 
    1514     1455     1394     1337     1273     1188     1109     1081 
    1117     1174     1201     1193     1173     1161     1159     1169 
    1189     1212     1217     1217     1235     1262     1285     1305 
    1323     1329     1327     1320     1313     1291     1250     1212 
    1201     1204     1200     1208     1248     1302     1359     1424 
    1478     1506     1521     1529     1532     1530     1525     1520 
    1534     1576     1615     1624     1618     1634     1667     1684 
    1692     1726     1784     1846     1907     1956     1984     2003 
    2018     2027     2041     2052     2052     2050     2053     2052 
    2031     1993     1958     1938     1921     1890     1833     1757 
    1661     1560     1486     1456     1460     1483     1513     1552 
    1606     1651     1661     1632     1566     1486     1421     1374 
    1355     1367     1393     1410     1417     1428     1437     1433 
    1421     1418     1440     1489     1547     1606     1667     1721 
    1748     1736     1703     1674     1656     1649     1641     1637 
    1647     1665     1684     1684     1657     1626     1609     1602 
    1601     1599     1591     1576     1557     1530     1510     1503 
    1499     1498     1491     1466     1436     1435     1476     1549 
    1621     1659     1655     1622     1576     1526     1489     1476 
    1483     1494     1495     1483     1474     1493     1540     1593 
    1640     1683     1734     1795     1844     1867     1857     1810 
    1734     1661     1606     1568     1549     1547     1560     1603 
    1679     1764     1833     1888     1934     1971     1991     1988 
    1965     1933     1903     1880     1861     1836     1787     1718 
    1652     1613     1594     1578     1560     1549     1552     1566 
    1574     1583     1625     1692     1750     1776     1769     1752 
    1742     1730     1696     1647     1602     1587     1610     1660 
    1721     1773     1809     1846     1895     1925     1914     1879 
    1840     1802     1760     1714     1674     1647     1638     1636 
    1614     1575     1543     1518     1493     1456     1405     1358 
    1327     1309     1297     1274     1240     1205     1165     1113 
    1054      992      932      888      873      878      884      908 
     961     1024     1082     1128     1162     1192     1232     1278 
    1314     1336     1345     1351     1360     1378     1395     1408 
    1428     1471     1526     1566     1579     1579     1574     1572 
    1572     1578     1594     1613     1621     1614     1594     1560 
    1509     1445     1385     1329     1291     1283     1302     1336 
    1375     1414     1458     1509     1571     1630     1661     1661 
    1649     1651     1672     1694     1686     1651     1614     1584 
    1549     1503     1432     1339     1264     1229     1209     1189 
    1181     1197     1227     1264     1318     1377     1421     1445 
    1456     1471     1510     1571     1618     1614     1570     1514 
    1447     1363     1278     1215     1182     1171     1165     1155 
    1156     1173     1192     1209     1227     1242     1252     1256 
    1254     1250     1247     1243     1248     1270     1304     1337 
    1368     1398     1440     1501     1574     1649     1721     1788 
    1848     1892     1922     1946     1973     2000     2029     2056 
    2073     2085     2092     2092     2089     2092     2110     2137 
    2151     2135     2095     2041     1984     1930     1876     1826 
    1773     1713     1645     1584     1537     1499     1456     1391 
    1308     1233     1193     1173     1150     1128     1119     1125 
    1151     1193     1243     1285     1316     1340     1364     1399 
    1441     1475     1483     1468     1451     1440     1422     1394 
    1377     1387     1421     1467     1518     1570     1610     1636 
    1647     1661     1692     1736     1768     1780     1777     1773 
    1775     1777     1765     1721     1651     1583     1530     1487 
    1439     1374     1300     1232     1185     1158     1148     1151 
    1167     1205     1250     1294     1336     1372     1391     1399 
    1406     1421     1449     1486     1525     1571     1617     1664 
    1711     1745     1756     1756     1764     1795     1846     1895 
    1930     1953     1958     1939     1906     1873     1850     1841 
    1831     1806     1777     1768     1769     1757     1722     1664 
    1602     1552     1510     1463     1398     1321     1251     1194 
    1147     1123     1138     1181     1231     1279     1331     1391 
    1464     1525     1563     1587     1614     1645     1656     1640 
    1621     1621     1641     1661     1659     1648     1651     1660 
    1667     1691     1741     1795     1831     1844     1838     1829 
    1830     1849     1877     1902     1922     1939     1957     1964 
    1945     1917     1896     1892     1899     1908     1908     1892 
    1867     1841     1823     1817     1813     1803     1783     1744 
    1688     1622     1551     1478     1408     1332     1263     1217 
    1193     1179     1161     1115     1047     1000      996     1021 
    1048     1057     1047     1050     1071     1100     1136     1170 
    1193     1205     1223     1256     1305     1355     1404     1459 
    1528     1606     1688     1756     1803     1827     1841     1858 
    1881     1906     1917     1912     1906     1892     1868     1850 
    1849     1863     1873     1865     1834     1794     1748     1705 
    1669     1647     1648     1669     1694     1705     1696     1683 
    1686     1706     1725     1732     1730     1722     1701     1672 
    1649     1636     1618     1584     1540     1497     1455     1414 
    1371     1324     1285     1266     1285     1340     1417     1503 
    1597     1684     1764     1840     1895     1919     1929     1933 
    1930     1926     1922     1915     1902     1880     1848     1802 
    1753     1721     1709     1713     1721     1730     1737     1734 
    1722     1695     1652     1601     1553     1521     1497     1471 
    1443     1425     1416     1404     1385     1358     1325     1294 
    1271     1256     1242     1235     1235     1240     1258     1282 
    1298     1306     1304     1285     1255     1239     1240     1247 
    1246     1220     1167     1102     1044     1001      974      963 
     972      994     1039     1100     1158     1201     1247     1309 
    1378     1443     1509     1576     1637     1690     1732     1767 
    1806     1846     1873     1890     1910     1930     1938     1937 
    1935     1944     1964     1987     1993     1979     1950     1908 
    1849     1779     1723     1694     1687     1698     1710     1707 
    1690     1660     1628     1603     1591     1580     1566     1551 
    1541     1537     1539     1548     1567     1588     1617     1652 
    1684     1711     1738     1756     1755     1734     1701     1657 
    1613     1574     1551     1549     1570     1607     1652     1691 
    1714     1723     1732     1746     1764     1779     1790     1796 
    1799     1792     1773     1756     1746     1742     1740     1730 
    1714     1695     1671     1644     1628     1629     1633     1632 
    1622     1602     1584     1575     1578     1594     1610     1629 
    1656     1674     1665     1642     1611     1574     1528     1482 
    1443     1405     1358     1298     1237     1183     1146     1120 
    1100     1071     1028      988      962      942      919      895 
     884      889      915      962     1020     1082     1161     1252 
    1339     1405     1451     1478     1490     1497     1505     1529 
    1567     1603     1628     1638     1634     1618     1595     1566 
    1534     1505     1486     1478     1480     1497     1525     1557 
    1580     1590     1587     1576     1571     1578     1587     1609 
    1642     1671     1684     1680     1661     1622     1582     1553 
    1530     1503     1472     1428     1370     1320     1285     1263 
