Origin Time       2025/01/13 21:19:00
Lat.              31.8
Long.             131.6
Depth. (km)       30
Mag.              6.9
Station Code      OKYH05
Station Lat.      34.8684
Station Long.     133.8527
Station Height(m) 320
Record Time       2025/01/13 21:20:54
Sampling Freq(Hz) 100Hz
Duration Time(s)  127
Dir.              5
Scale Factor      7845(gal)/8223790
Max. Acc. (gal)   0.572
Last Correction   2025/01/13 21:20:55
Memo.             
[...]
    1733     1675     1561     1470     1447     1524     1647     1709 
    1695     1682     1668     1591     1478     1412     1425     1517 
    1659     1780     1809     1728     1588     1448     1348     1317 
    1370     1480     1564     1591     1610     1626     1622     1598 
    1561     1544     1556     1553     1512     1468     1490     1588 
    1702     1777     1786     1741     1701     1682     1644     1588 
    1568     1587     1593     1559     1533     1557     1611     1649 
    1661     1656     1637     1640     1682     1714     1719     1736 
    1748     1715     1641     1541     1463     1459     1518     1580 
    1606     1587     1532     1448     1352     1310     1364     1458 
    1522     1539     1517     1486     1491     1551     1629     1696 
    1734     1711     1634     1553     1513     1510     1526     1587 
    1678     1723     1714     1707     1710     1695     1679     1703 
    1749     1765     1738     1710     1730     1787     1817     1795 
    1745     1674     1580     1517     1525     1579     1621     1615 
    1582     1561     1539     1479     1431     1459     1520     1541 
    1552     1588     1638     1671     1671     1660     1657     1622 
    1561     1533     1551     1579     1595     1601     1607     1611 
    1590     1559     1559     1580     1576     1571     1603     1621 
    1583     1551     1594     1682     1721     1691     1640     1578 
    1520     1494     1513     1571     1637     1688     1718     1709 
    1671     1642     1652     1705     1780     1818     1769     1657 
    1557     1507     1499     1537     1603     1640     1638     1622 
    1595     1576     1605     1676     1734     1740     1710     1661 
    1593     1520     1502     1575     1688     1768     1788     1738 
    1632     1528     1474     1468     1479     1493     1510     1516 
    1503     1479     1456     1445     1431     1410     1426     1475 
    1493     1447     1386     1382     1437     1491     1513     1525 
    1544     1537     1485     1397     1320     1325     1416     1499 
    1506     1470     1456     1470     1474     1474     1495     1526 
    1530     1505     1489     1495     1505     1516     1532     1549 
    1595     1669     1699     1651     1588     1568     1582     1609 
    1640     1645     1606     1559     1513     1445     1399     1417 
    1449     1452     1443     1431     1429     1455     1493     1534 
    1606     1671     1674     1642     1648     1679     1694     1713 
    1763     1784     1732     1663     1638     1660     1706     1741 
    1734     1683     1588     1480     1426     1460     1553     1656 
    1713     1694     1647     1632     1659     1686     1690     1680 
    1665     1645     1626     1613     1648     1737     1795     1768 
    1713     1680     1653     1617     1602     1620     1653     1686 
    1692     1648     1586     1560     1584     1628     1668     1714 
    1767     1810     1830     1840     1846     1834     1818     1844 
    1902     1939     1958     1946     1876     1814     1809     1802 
    1768     1763     1784     1786     1782     1791     1804     1825 
    1838     1821     1813     1844     1868     1867     1871     1876 
    1876     1900     1941     1948     1917     1896     1899     1918 
    1953     1987     1989     1948     1883     1838     1822     1803 
    1775     1753     1725     1664     1590     1549     1556     1582 
    1578     1559     1584     1652     1696     1688     1638     1584 
    1551     1518     1474     1433     1409     1387     1386     1433 
    1486     1493     1476     1445     1409     1418     1479     1530 
    1555     1560     1507     1399     1310     1279     1275     1294 
    1351     1405     1412     1398     1386     1381     1371     1332 
    1279     1258     1259     1242     1213     1221     1274     1341 
    1386     1393     1363     1320     1298     1317     1340     1347 
    1367     1383     1367     1344     1356     1406     1467     1506 
    1512     1506     1510     1524     1547     1571     1582     1568 
    1570     1613     1676     1759     1856     1900     1857     1767 
    1672     1603     1579     1587     1620     1653     1663     1660 
    1659     1675     1714     1752     1756     1744     1759     1790 
    1780     1738     1733     1755     1746     1750     1823     1892 
    1873     1804     1745     1682     1625     1625     1652     1644 
    1621     1605     1583     1583     1615     1651     1686     1721 
    1733     1705     1644     1556     1468     1452     1514     1576 
    1610     1622     1601     1551     1497     1463     1468     1517 
    1590     1637     1626     1570     1507     1486     1536     1620 
    1674     1686     1680     1667     1632     1593     1601     1649 
    1672     1657     1657     1680     1698     1699     1711     1734 
    1733     1714     1711     1715     1713     1696     1637     1552 
    1533     1597     1640     1625     1620     1626     1609     1594 
    1598     1578     1537     1512     1491     1444     1408     1422 
    1448     1443     1436     1452     1470     1471     1467     1471 
    1474     1467     1480     1521     1536     1498     1445     1406 
    1394     1410     1448     1470     1447     1412     1397     1381 
    1356     1377     1429     1439     1418     1432     1455     1433 
    1405     1424     1466     1505     1551     1588     1598     1605 
    1611     1590     1549     1529     1540     1549     1536     1517 
    1513     1514     1521     1543     1584     1626     1647     1647 
    1628     1603     1590     1593     1628     1684     1726     1737 
    1711     1663     1637     1653     1667     1648     1609     1572 
    1545     1525     1522     1549     1575     1548     1491     1455 
    1445     1437     1445     1485     1517     1513     1471     1394 
    1313     1277     1278     1293     1321     1351     1351     1335 
    1323     1318     1333     1383     1443     1472     1463     1425 
    1390     1405     1480     1570     1628     1641     1614     1563 
    1525     1524     1557     1615     1668     1698     1703     1678 
    1634     1602     1597     1618     1659     1699     1717     1723 
    1721     1688     1651     1647     1669     1711     1767     1809 
    1815     1791     1757     1738     1752     1788     1809     1803 
    1804     1817     1815     1807     1798     1794     1810     1834 
    1829     1796     1749     1683     1613     1578     1591     1633 
    1678     1691     1653     1587     1541     1528     1539     1571 
    1597     1611     1640     1680     1713     1722     1717     1719 
    1746     1786     1807     1787     1736     1691     1667     1655 
    1663     1702     1737     1725     1687     1667     1678     1715 
    1749     1746     1722     1701     1676     1659     1674     1723 
    1790     1852     1888     1902     1903     1892     1868     1846 
    1826     1796     1763     1741     1733     1728     1721     1706 
    1688     1682     1676     1638     1578     1532     1513     1499 
    1497     1514     1536     1552     1584     1636     1686     1721 
    1744     1746     1725     1702     1698     1713     1733     1733 
    1707     1683     1691     1714     1722     1709     1682     1664 
    1675     1701     1705     1675     1640     1630     1634     1640 
    1652     1674     1683     1672     1657     1642     1606     1549 
    1516     1520     1525     1512     1512     1539     1571     1582 
    1571     1552     1540     1539     1545     1556     1556     1541 
    1521     1501     1478     1456     1437     1418     1399     1382 
    1363     1358     1356     1344     1328     1310     1289     1266 
    1263     1294     1348     1402     1443     1478     1505     1518 
    1518     1507     1495     1502     1517     1529     1552     1574 
    1547     1482     1443     1445     1459     1474     1489     1493 
    1482     1455     1418     1391     1386     1390     1402     1418 
    1426     1439     1463     1487     1495     1497     1507     1524 
    1532     1532     1534     1560     1605     1644     1661     1669 
    1690     1715     1707     1660     1603     1560     1540     1556 
    1617     1699     1744     1723     1652     1566     1520     1526 
    1543     1537     1518     1509     1505     1494     1480     1487 
    1526     1575     1595     1590     1595     1626     1663     1683 
    1706     1741     1768     1787     1810     1825     1831     1849 
    1881     1912     1915     1892     1872     1858     1836     1811 
    1787     1746     1692     1661     1679     1711     1726     1740 
    1755     1744     1711     1690     1675     1642     1601     1579 
    1587     1606     1618     1621     1615     1599     1568     1533 
    1513     1514     1522     1528     1534     1539     1525     1507 
    1513     1516     1485     1449     1447     1472     1510     1540 
    1545     1540     1545     1539     1520     1517     1524     1517 
    1516     1536     1567     1578     1551     1498     1458     1445 
    1431     1399     1383     1389     1372     1317     1259     1229 
    1233     1256     1277     1274     1256     1243     1221     1181 
    1155     1177     1246     1313     1332     1313     1283     1246 
    1212     1206     1251     1325     1382     1397     1395     1406 
    1425     1433     1429     1429     1445     1470     1497     1521 
    1532     1528     1516     1495     1472     1456     1447     1440 
    1444     1466     1501     1541     1570     1583     1595     1617 
    1641     1655     1648     1629     1621     1625     1640     1653 
    1642     1588     1507     1426     1374     1367     1394     1429 
    1449     1452     1455     1460     1463     1467     1482     1514 
    1555     1582     1588     1580     1561     1539     1529     1544 
    1568     1579     1564     1530     1485     1435     1404     1409 
    1435     1471     1522     1583     1613     1613     1628     1663 
    1692     1728     1771     1802     1804     1777     1752     1750 
    1760     1779     1814     1844     1850     1838     1830     1836 
    1848     1869     1895     1895     1872     1849     1819     1787 
    1773     1783     1792     1777     1734     1683     1642     1613 
    1587     1568     1549     1536     1548     1578     1597     1603 
    1617     1647     1668     1668     1657     1648     1644     1653 
    1674     1701     1741     1783     1799     1794     1802     1825 
    1849     1873     1896     1915     1929     1929     1921     1927 
    1953     1975     1971     1942     1918     1910     1918     1921 
    1887     1837     1815     1803     1787     1800     1838     1841 
    1817     1813     1837     1875     1917     1931     1908     1880 
    1867     1853     1827     1810     1815     1822     1803     1773 
    1749     1722     1679     1630     1606     1607     1595     1572 
    1563     1561     1556     1559     1574     1575     1537     1468 
    1413     1410     1445     1474     1487     1489     1460     1421 
    1390     1355     1317     1293     1275     1248     1225     1210 
    1204     1194     1156     1111     1104     1134     1170     1197 
    1216     1225     1206     1175     1169     1192     1225     1258 
    1282     1289     1281     1293     1356     1437     1502     1561 
    1626     1669     1667     1645     1632     1625     1626     1644 
    1644     1598     1537     1499     1478     1463     1456     1449 
    1440     1436     1435     1428     1424     1414     1378     1320 
    1279     1262     1246     1239     1254     1281     1298     1305 
    1317     1333     1350     1378     1426     1497     1578     1632 
    1641     1636     1638     1645     1655     1665     1671     1672 
    1678     1694     1709     1710     1692     1679     1691     1722 
    1757     1782     1799     1813     1819     1831     1871     1907 
    1922     1931     1939     1935     1927     1914     1883     1844 
    1811     1786     1772     1777     1792     1804     1814     1827 
    1834     1826     1827     1844     1848     1821     1779     1752 
    1738     1726     1729     1752     1768     1767     1768     1782 
    1790     1794     1788     1763     1717     1674     1653     1661 
    1698     1750     1791     1796     1776     1755     1733     1699 
    1656     1633     1642     1657     1656     1637     1607     1571 
    1541     1537     1560     1598     1633     1649     1659     1672 
    1676     1679     1705     1740     1763     1788     1819     1846 
    1853     1845     1850     1877     1907     1918     1899     1864 
    1825     1787     1760     1755     1772     1796     1804     1792 
    1776     1772     1775     1769     1753     1733     1719     1726 
    1752     1773     1779     1775     1765     1753     1755     1761 
    1741     1701     1668     1638     1595     1552     1521     1498 
    1479     1458     1435     1432     1441     1426     1389     1375 
    1398     1424     1436     1452     1472     1487     1514     1547 
    1556     1551     1544     1524     1472     1425     1428     1467 
    1495     1497     1485     1470     1441     1410     1398     1397 
    1387     1371     1360     1354     1343     1312     1273     1239 
    1200     1148     1107     1075     1046     1023     1008     1004 
    1015     1030     1030     1020     1020     1036     1065     1096 
    1127     1166     1223     1289     1352     1409     1460     1494 
    1506     1512     1522     1541     1567     1599     1636     1674 
    1723     1780     1819     1826     1814     1817     1846     1881 
    1888     1867     1838     1809     1784     1776     1788     1795 
    1788     1773     1750     1738     1745     1755     1764     1787 
    1798     1768     1713     1671     1657     1663     1665     1655 
    1644     1648     1655     1649     1638     1629     1614     1591 
    1583     1598     1618     1626     1634     1656     1688     1715 
    1728     1736     1741     1733     1709     1699     1722     1753 
    1769     1777     1786     1780     1763     1745     1740     1763 
    1802     1818     1819     1850     1899     1922     1911     1884 
    1849     1817     1804     1821     1853     1875     1872     1849 
    1815     1779     1740     1706     1694     1694     1679     1645 
    1603     1563     1534     1526     1526     1512     1483     1455 
    1431     1413     1413     1428     1447     1456     1449     1445 
    1453     1470     1502     1544     1595     1653     1711     1756 
    1794     1833     1853     1831     1787     1752     1723     1691 
    1663     1647     1636     1630     1628     1611     1568     1526 
    1518     1521     1509     1502     1512     1536     1575     1622 
    1663     1692     1715     1723     1714     1690     1664     1651 
    1652     1668     1690     1707     1722     1736     1750     1777 
    1810     1830     1842     1863     1879     1873     1854     1838 
    1829     1818     1802     1787     1775     1767     1765     1772 
    1784     1787     1764     1713     1649     1593     1557     1547 
    1557     1579     1587     1570     1541     1521     1509     1489 
    1463     1432     1382     1324     1290     1293     1308     1312 
    1298     1282     1267     1244     1216     1190     1179     1190 
    1228     1270     1291     1296     1301     1308     1308     1308 
    1327     1366     1401     1420     1431     1429     1405     1377 
    1367     1375     1393     1410     1413     1405     1395     1389 
    1394     1408     1422     1441     1452     1440     1414     1404 
    1425     1474     1525     1552     1552     1548     1552     1566 
    1583     1605     1611     1601     1609     1656     1715     1753 
    1769     1786     1792     1776     1757     1748     1749     1760 
    1777     1794     1807     1821     1827     1825     1822     1819 
    1813     1809     1814     1822     1829     1841     1852     1864 
    1892     1927     1941     1927     1910     1891     1871     1875 
    1906     1931     1929     1895     1842     1782     1736     1714 
    1705     1711     1729     1726     1695     1659     1634     1618 
    1603     1576     1525     1470     1433     1424     1437     1466 
    1483     1466     1404     1324     1270     1244     1235     1242 
    1247     1237     1224     1224     1236     1250     1260     1262 
    1243     1210     1179     1158     1155     1173     1208     1246 
    1264     1260     1246     1239     1243     1258     1293     1335 
    1367     1395     1437     1482     1516     1539     1552     1561 
    1582     1609     1636     1665     1696     1707     1692     1674 
    1648     1614     1597     1607     1629     1652     1684     1722 
    1746     1760     1777     1791     1799     1810     1827     1844 
    1850     1854     1868     1891     1910     1926     1935     1921 
    1898     1894     1902     1915     1945     1987     2029     2060 
    2072     2065     2050     2050     2053     2046     2038     2037 
    2027     2002     1968     1923     1869     1830     1813     1798 
    1782     1776     1784     1786     1765     1745     1738     1732 
    1707     1678     1649     1613     1576     1556     1544     1534 
    1543     1567     1586     1580     1561     1540     1525     1522 
    1528     1540     1549     1543     1532     1529     1530     1526 
    1518     1509     1498     1478     1445     1413     1401     1408 
    1426     1443     1445     1444     1448     1458     1474     1499 
    1525     1534     1525     1499     1468     1453     1452     1432 
    1406     1406     1432     1459     1459     1431     1394     1355 
    1313     1266     1227     1201     1198     1221     1256     1289 
    1321     1340     1329     1308     1304     1329     1368     1389 
    1386     1378     1379     1391     1413     1436     1460     1478 
    1486     1487     1494     1514     1539     1553     1559     1572 
    1601     1628     1634     1632     1626     1614     1601     1598 
    1610     1629     1651     1668     1671     1656     1642     1640 
    1651     1671     1701     1737     1760     1742     1699     1657 
    1624     1603     1597     1602     1611     1603     1576     1551 
    1530     1506     1480     1466     1468     1476     1486     1499 
    1524     1552     1568     1563     1553     1564     1588     1609 
    1613     1607     1603     1599     1597     1611     1644     1678 
    1705     1721     1729     1730     1726     1710     1696     1688 
    1682     1686     1695     1705     1710     1711     1709     1713 
    1730     1750     1752     1744     1741     1741     1742     1745 
    1756     1775     1788     1788     1795     1809     1811     1796 
    1782     1786     1806     1817     1803     1775     1756     1761 
    1788     1814     1819     1809     1798     1790     1787     1799 
    1821     1830     1819     1796     1773     1760     1759     1757 
    1745     1733     1729     1721     1706     1684     1656     1636 
