Origin Time       2025/01/13 21:19:00
Lat.              31.8
Long.             131.6
Depth. (km)       30
Mag.              6.9
Station Code      OKYH09
Station Lat.      35.1809
Station Long.     133.6765
Station Height(m) 305
Record Time       2025/01/13 21:21:29
Sampling Freq(Hz) 100Hz
Duration Time(s)  120
Dir.              2
Scale Factor      2942(gal)/8224139
Max. Acc. (gal)   0.378
Last Correction   2025/01/13 21:21:30
Memo.             
[...]
  -51590   -51574   -51564   -51560   -51555   -51545   -51536   -51526 
  -51517   -51511   -51510   -51509   -51513   -51525   -51532   -51534 
  -51533   -51526   -51518   -51513   -51507   -51505   -51506   -51511 
  -51516   -51507   -51494   -51489   -51487   -51478   -51466   -51455 
  -51440   -51414   -51393   -51379   -51366   -51354   -51351   -51352 
  -51349   -51343   -51329   -51316   -51304   -51289   -51277   -51267 
  -51258   -51248   -51232   -51213   -51201   -51190   -51169   -51142 
  -51124   -51113   -51105   -51097   -51084   -51070   -51065   -51065 
  -51062   -51058   -51057   -51054   -51051   -51048   -51039   -51028 
  -51020   -51011   -51004   -51003   -51003   -50997   -50989   -50981 
  -50974   -50965   -50955   -50953   -50953   -50953   -50959   -50969 
  -50977   -50986   -50992   -50993   -50996   -51001   -51005   -51009 
  -51009   -51004   -50997   -50985   -50971   -50954   -50935   -50916 
  -50897   -50877   -50855   -50832   -50812   -50792   -50772   -50749 
  -50720   -50689   -50665   -50649   -50635   -50619   -50602   -50581 
  -50565   -50556   -50549   -50554   -50565   -50577   -50595   -50618 
  -50639   -50666   -50695   -50724   -50751   -50774   -50799   -50827 
  -50854   -50884   -50913   -50942   -50971   -51000   -51025   -51052 
  -51078   -51106   -51138   -51159   -51181   -51214   -51258   -51305 
  -51359   -51410   -51456   -51507   -51560   -51605   -51646   -51687 
  -51722   -51748   -51772   -51799   -51830   -51854   -51873   -51885 
  -51889   -51885   -51876   -51867   -51857   -51841   -51822   -51804 
  -51791   -51779   -51767   -51752   -51732   -51710   -51690   -51673 
  -51655   -51637   -51624   -51614   -51607   -51609   -51614   -51619 
  -51624   -51629   -51633   -51638   -51646   -51656   -51661   -51661 
  -51661   -51661   -51659   -51655   -51652   -51652   -51648   -51640 
  -51636   -51640   -51648   -51655   -51660   -51663   -51664   -51669 
  -51679   -51691   -51709   -51723   -51738   -51760   -51788   -51815 
  -51841   -51865   -51888   -51911   -51935   -51952   -51964   -51979 
  -51992   -52004   -52011   -52015   -52018   -52012   -52002   -51989 
  -51980   -51968   -51948   -51926   -51912   -51900   -51884   -51873 
  -51867   -51860   -51853   -51844   -51840   -51842   -51841   -51842 
  -51853   -51864   -51867   -51869   -51880   -51887   -51888   -51899 
  -51916   -51938   -51957   -51976   -51996   -52016   -52038   -52054 
  -52065   -52074   -52084   -52099   -52116   -52132   -52146   -52151 
  -52149   -52146   -52145   -52137   -52123   -52105   -52085   -52068 
  -52049   -52022   -51987   -51956   -51931   -51908   -51884   -51861 
  -51833   -51806   -51783   -51760   -51734   -51711   -51696   -51679 
  -51657   -51636   -51613   -51586   -51560   -51534   -51507   -51482 
  -51451   -51413   -51374   -51339   -51306   -51275   -51251   -51231 
  -51210   -51194   -51186   -51182   -51182   -51185   -51193   -51208 
  -51227   -51248   -51270   -51291   -51318   -51348   -51382   -51418 
  -51457   -51498   -51533   -51565   -51592   -51615   -51645   -51678 
  -51702   -51719   -51729   -51733   -51733   -51729   -51721   -51710 
  -51702   -51702   -51703   -51696   -51684   -51667   -51648   -51630 
  -51613   -51594   -51570   -51549   -51534   -51517   -51497   -51483 
  -51476   -51468   -51455   -51439   -51428   -51414   -51398   -51383 
  -51374   -51367   -51356   -51343   -51328   -51314   -51304   -51294 
  -51285   -51281   -51281   -51279   -51274   -51267   -51266   -51273 
  -51286   -51308   -51331   -51349   -51370   -51398   -51429   -51459 
  -51482   -51503   -51528   -51549   -51571   -51588   -51603   -51622 
  -51640   -51660   -51682   -51694   -51705   -51718   -51723   -51730 
  -51742   -51750   -51757   -51768   -51777   -51780   -51777   -51776 
  -51779   -51784   -51788   -51794   -51792   -51786   -51776   -51764 
  -51748   -51729   -51705   -51673   -51640   -51610   -51584   -51557 
  -51529   -51498   -51463   -51424   -51389   -51360   -51333   -51308 
  -51285   -51268   -51258   -51248   -51237   -51231   -51237   -51243 
  -51244   -51247   -51258   -51271   -51274   -51271   -51267   -51264 
  -51256   -51246   -51232   -51219   -51206   -51192   -51177   -51163 
  -51150   -51135   -51115   -51088   -51058   -51031   -51007   -50984 
  -50962   -50944   -50930   -50922   -50917   -50915   -50913   -50911 
  -50908   -50907   -50908   -50915   -50924   -50940   -50963   -50985 
  -51007   -51028   -51051   -51079   -51113   -51146   -51177   -51209 
  -51248   -51293   -51336   -51378   -51421   -51456   -51489   -51522 
  -51555   -51584   -51610   -51637   -51665   -51687   -51702   -51710 
  -51719   -51732   -51741   -51744   -51745   -51749   -51752   -51753 
  -51759   -51764   -51765   -51765   -51764   -51763   -51768   -51777 
  -51790   -51800   -51808   -51815   -51826   -51838   -51846   -51853 
  -51849   -51831   -51814   -51796   -51776   -51754   -51732   -51703 
  -51672   -51637   -51597   -51552   -51507   -51466   -51428   -51387 
  -51348   -51314   -51282   -51251   -51228   -51212   -51197   -51183 
  -51171   -51167   -51174   -51185   -51196   -51209   -51231   -51258 
  -51287   -51321   -51359   -51387   -51409   -51433   -51455   -51474 
  -51494   -51514   -51530   -51549   -51570   -51582   -51587   -51591 
  -51595   -51603   -51615   -51628   -51638   -51649   -51652   -51652 
  -51649   -51645   -51641   -51630   -51615   -51599   -51583   -51567 
  -51552   -51537   -51525   -51517   -51509   -51498   -51487   -51483 
  -51486   -51491   -51499   -51509   -51521   -51540   -51563   -51587 
  -51611   -51638   -51664   -51694   -51729   -51760   -51783   -51803 
  -51821   -51830   -51831   -51825   -51815   -51796   -51767   -51732 
  -51695   -51661   -51630   -51595   -51560   -51525   -51484   -51440 
  -51406   -51381   -51356   -51343   -51335   -51325   -51316   -51310 
  -51314   -51329   -51347   -51362   -51372   -51382   -51398   -51417 
  -51432   -51445   -51463   -51480   -51493   -51498   -51498   -51497 
  -51498   -51493   -51480   -51466   -51447   -51425   -51413   -51405 
  -51391   -51376   -51364   -51349   -51333   -51318   -51301   -51290 
  -51282   -51274   -51263   -51250   -51237   -51229   -51221   -51209 
  -51198   -51189   -51181   -51173   -51165   -51155   -51147   -51139 
  -51133   -51129   -51120   -51113   -51109   -51097   -51079   -51063 
  -51050   -51031   -51008   -50989   -50973   -50961   -50951   -50946 
  -50936   -50930   -50930   -50930   -50934   -50943   -50955   -50967 
  -50989   -51015   -51038   -51065   -51098   -51132   -51169   -51202 
  -51237   -51277   -51316   -51351   -51387   -51422   -51449   -51479 
  -51507   -51530   -51552   -51576   -51602   -51629   -51657   -51687 
  -51710   -51727   -51745   -51768   -51790   -51807   -51823   -51838 
  -51852   -51867   -51873   -51873   -51873   -51868   -51853   -51837 
  -51821   -51799   -51771   -51740   -51710   -51678   -51640   -51603 
  -51564   -51520   -51475   -51440   -51408   -51375   -51345   -51316 
  -51289   -51264   -51243   -51225   -51210   -51200   -51196   -51194 
  -51197   -51204   -51212   -51217   -51223   -51228   -51235   -51247 
  -51262   -51281   -51301   -51322   -51349   -51383   -51418   -51453 
  -51493   -51524   -51551   -51579   -51605   -51625   -51640   -51649 
  -51648   -51642   -51636   -51618   -51592   -51565   -51532   -51494 
  -51451   -51405   -51362   -51316   -51266   -51216   -51165   -51117 
  -51081   -51046   -51008   -50970   -50935   -50904   -50878   -50850 
  -50822   -50800   -50781   -50764   -50749   -50738   -50728   -50719 
  -50708   -50706   -50704   -50703   -50706   -50710   -50710   -50716 
  -50730   -50745   -50765   -50788   -50811   -50835   -50862   -50892 
  -50927   -50965   -51009   -51057   -51097   -51131   -51165   -51197 
  -51228   -51256   -51279   -51297   -51310   -51317   -51318   -51324 
  -51332   -51336   -51341   -51348   -51355   -51364   -51375   -51390 
  -51405   -51420   -51435   -51452   -51470   -51486   -51503   -51521 
  -51536   -51544   -51548   -51552   -51556   -51559   -51560   -51553 
  -51534   -51513   -51494   -51464   -51428   -51390   -51348   -51308 
  -51279   -51251   -51220   -51196   -51177   -51160   -51146   -51131 
  -51116   -51111   -51112   -51121   -51132   -51147   -51165   -51181 
  -51194   -51214   -51237   -51262   -51286   -51308   -51329   -51356 
  -51383   -51410   -51439   -51468   -51494   -51522   -51552   -51574 
  -51598   -51625   -51649   -51676   -51705   -51733   -51765   -51802 
  -51838   -51875   -51912   -51942   -51970   -52003   -52030   -52058 
  -52093   -52128   -52159   -52188   -52209   -52226   -52234   -52236 
  -52242   -52242   -52236   -52235   -52235   -52232   -52227   -52218 
  -52200   -52181   -52164   -52146   -52124   -52104   -52081   -52054 
  -52026   -51988   -51945   -51902   -51854   -51803   -51750   -51696 
  -51648   -51605   -51561   -51514   -51466   -51421   -51379   -51343 
  -51317   -51301   -51291   -51283   -51281   -51290   -51305   -51320 
  -51337   -51359   -51382   -51408   -51436   -51463   -51491   -51521 
  -51545   -51567   -51587   -51598   -51609   -51622   -51633   -51645 
  -51659   -51672   -51682   -51695   -51706   -51713   -51721   -51732 
  -51738   -51741   -51737   -51730   -51727   -51725   -51715   -51699 
  -51684   -51672   -51655   -51632   -51613   -51592   -51572   -51553 
  -51530   -51505   -51486   -51468   -51448   -51430   -51418   -51405 
  -51387   -51366   -51348   -51343   -51339   -51336   -51333   -51332 
  -51325   -51316   -51312   -51313   -51312   -51313   -51320   -51325 
  -51327   -51333   -51348   -51360   -51371   -51387   -51402   -51416 
  -51429   -51444   -51456   -51472   -51491   -51506   -51521   -51540 
  -51557   -51565   -51570   -51570   -51570   -51572   -51571   -51568 
  -51563   -51553   -51543   -51529   -51514   -51494   -51471   -51449 
  -51426   -51408   -51393   -51374   -51354   -51339   -51325   -51317 
  -51309   -51301   -51295   -51293   -51298   -51310   -51329   -51356 
  -51389   -51420   -51455   -51491   -51529   -51567   -51603   -51638 
  -51675   -51717   -51756   -51792   -51830   -51860   -51883   -51900 
  -51910   -51918   -51921   -51921   -51921   -51912   -51898   -51884 
  -51867   -51842   -51815   -51790   -51765   -51742   -51719   -51698 
  -51678   -51664   -51656   -51649   -51644   -51638   -51636   -51637 
  -51637   -51638   -51640   -51641   -51646   -51653   -51661   -51673 
  -51680   -51682   -51686   -51690   -51691   -51688   -51684   -51682 
  -51678   -51669   -51656   -51642   -51622   -51598   -51578   -51556 
  -51526   -51497   -51470   -51440   -51409   -51381   -51354   -51329 
  -51301   -51273   -51252   -51235   -51214   -51198   -51187   -51174 
  -51167   -51165   -51163   -51167   -51174   -51181   -51189   -51201 
  -51216   -51227   -51233   -51239   -51250   -51264   -51278   -51290 
  -51298   -51302   -51302   -51295   -51285   -51274   -51260   -51240 
  -51216   -51190   -51166   -51142   -51115   -51089   -51067   -51051 
  -51031   -51007   -50988   -50969   -50950   -50938   -50927   -50917 
  -50915   -50922   -50932   -50954   -50986   -51023   -51067   -51117 
  -51162   -51205   -51252   -51302   -51347   -51390   -51433   -51472 
  -51501   -51522   -51537   -51547   -51548   -51543   -51529   -51509 
  -51482   -51451   -51416   -51383   -51352   -51318   -51279   -51241 
  -51212   -51187   -51170   -51156   -51147   -51140   -51138   -51138 
  -51139   -51146   -51156   -51166   -51174   -51187   -51200   -51213 
  -51229   -51240   -51244   -51247   -51251   -51251   -51247   -51241 
  -51235   -51229   -51227   -51227   -51223   -51217   -51216   -51219 
  -51227   -51237   -51252   -51267   -51281   -51297   -51314   -51331 
  -51344   -51355   -51363   -51376   -51394   -51409   -51424   -51435 
  -51443   -51456   -51474   -51486   -51490   -51495   -51502   -51506 
  -51511   -51511   -51507   -51510   -51516   -51510   -51505   -51510 
  -51516   -51516   -51517   -51520   -51524   -51530   -51533   -51537 
  -51547   -51560   -51572   -51584   -51601   -51622   -51638   -51651 
  -51663   -51673   -51682   -51694   -51700   -51703   -51706   -51709 
  -51710   -51707   -51700   -51688   -51671   -51645   -51609   -51567 
  -51526   -51484   -51443   -51397   -51348   -51301   -51251   -51200 
  -51146   -51090   -51038   -50988   -50938   -50895   -50857   -50823 
  -50792   -50774   -50766   -50762   -50764   -50770   -50776   -50785 
  -50803   -50824   -50847   -50866   -50885   -50907   -50931   -50957 
  -50980   -50997   -51009   -51015   -51017   -51020   -51017   -51013 
  -51009   -51000   -50986   -50971   -50958   -50942   -50924   -50905 
  -50888   -50869   -50851   -50839   -50831   -50827   -50824   -50826 
  -50832   -50843   -50853   -50866   -50884   -50897   -50913   -50936 
  -50962   -50990   -51023   -51054   -51079   -51105   -51131   -51148 
  -51156   -51170   -51185   -51200   -51213   -51221   -51225   -51231 
  -51236   -51244   -51255   -51262   -51268   -51278   -51283   -51291 
  -51306   -51321   -51340   -51366   -51389   -51412   -51439   -51470 
  -51505   -51548   -51597   -51648   -51700   -51754   -51810   -51861 
  -51910   -51962   -52012   -52062   -52115   -52169   -52220   -52267 
  -52309   -52348   -52384   -52411   -52435   -52456   -52473   -52482 
  -52492   -52496   -52498   -52501   -52498   -52494   -52492   -52490 
  -52489   -52489   -52486   -52479   -52477   -52474   -52466   -52461 
  -52456   -52444   -52424   -52405   -52382   -52353   -52323   -52293 
  -52258   -52218   -52174   -52130   -52083   -52037   -51993   -51949 
  -51903   -51857   -51810   -51763   -51717   -51671   -51629   -51587 
  -51544   -51507   -51476   -51441   -51412   -51386   -51360   -51332 
  -51305   -51282   -51259   -51233   -51209   -51183   -51155   -51125 
  -51094   -51058   -51023   -50988   -50950   -50922   -50896   -50872 
  -50851   -50832   -50816   -50807   -50803   -50803   -50812   -50830 
  -50850   -50873   -50901   -50936   -50974   -51011   -51050   -51096 
  -51146   -51197   -51252   -51309   -51363   -51412   -51460   -51506 
  -51551   -51590   -51618   -51642   -51665   -51682   -51698   -51709 
  -51710   -51711   -51707   -51695   -51678   -51660   -51638   -51611 
  -51579   -51551   -51526   -51495   -51460   -51432   -51403   -51372 
  -51343   -51317   -51290   -51263   -51240   -51220   -51204   -51192 
  -51182   -51174   -51166   -51162   -51163   -51167   -51177   -51185 
  -51197   -51212   -51227   -51241   -51260   -51281   -51302   -51329 
  -51359   -51386   -51412   -51435   -51463   -51494   -51522   -51547 
  -51575   -51607   -51636   -51661   -51687   -51709   -51726   -51740 
  -51750   -51757   -51763   -51769   -51771   -51765   -51763   -51759 
  -51748   -51736   -51719   -51702   -51683   -51659   -51633   -51605 
  -51575   -51545   -51516   -51480   -51451   -51421   -51385   -51354 
  -51331   -51308   -51287   -51270   -51255   -51240   -51229   -51219 
  -51212   -51208   -51202   -51200   -51202   -51206   -51210   -51212 
  -51212   -51216   -51223   -51232   -51240   -51247   -51254   -51262 
  -51274   -51285   -51294   -51309   -51327   -51344   -51366   -51385 
  -51402   -51422   -51437   -51449   -51466   -51479   -51486   -51494 
  -51499   -51498   -51495   -51489   -51478   -51464   -51455   -51443 
  -51426   -51409   -51391   -51366   -51340   -51321   -51301   -51275 
  -51251   -51225   -51202   -51185   -51166   -51143   -51115   -51092 
  -51073   -51054   -51038   -51025   -51016   -51007   -50997   -50993 
  -50992   -50993   -51001   -51009   -51013   -51021   -51035   -51044 
  -51052   -51067   -51084   -51098   -51113   -51124   -51129   -51138 
  -51146   -51150   -51154   -51158   -51159   -51159   -51163   -51165 
  -51160   -51154   -51140   -51124   -51112   -51097   -51078   -51065 
  -51051   -51038   -51028   -51021   -51015   -51008   -51001   -51000 
  -51003   -51004   -51004   -51004   -51003   -51005   -51008   -51008 
  -51007   -51003   -50996   -50990   -50985   -50981   -50978   -50978 
  -50984   -50989   -50993   -50998   -51005   -51008   -51015   -51024 
  -51038   -51052   -51070   -51088   -51105   -51124   -51142   -51160 
  -51183   -51205   -51225   -51247   -51271   -51295   -51322   -51347 
  -51368   -51390   -51412   -51439   -51463   -51483   -51507   -51529 
  -51547   -51564   -51583   -51599   -51617   -51637   -51653   -51667 
  -51684   -51705   -51723   -51745   -51768   -51788   -51804   -51823 
  -51842   -51860   -51881   -51902   -51922   -51941   -51958   -51969 
  -51979   -51991   -52002   -52008   -52014   -52020   -52026   -52026 
  -52029   -52030   -52029   -52033   -52029   -52019   -52012   -52002 
  -51991   -51981   -51968   -51953   -51937   -51919   -51900   -51879 
  -51852   -51822   -51790   -51756   -51719   -51683   -51646   -51607 
  -51567   -51524   -51476   -51435   -51394   -51349   -51306   -51264 
  -51225   -51187   -51152   -51116   -51079   -51042   -51008   -50974 
  -50942   -50917   -50899   -50877   -50858   -50843   -50827   -50815 
  -50811   -50809   -50803   -50797   -50793   -50787   -50781   -50777 
  -50774   -50770   -50769   -50770   -50776   -50787   -50796   -50804 
  -50811   -50822   -50835   -50850   -50869   -50890   -50913   -50938 
  -50965   -50994   -51028   -51066   -51100   -51131   -51163   -51200 
  -51236   -51268   -51300   -51332   -51362   -51387   -51413   -51441 
  -51467   -51491   -51514   -51533   -51549   -51563   -51570   -51580 
  -51597   -51613   -51629   -51645   -51663   -51682   -51699   -51718 
  -51734   -51754   -51775   -51792   -51810   -51825   -51838   -51849 
  -51856   -51862   -51869   -51865   -51853   -51837   -51819   -51802 
  -51779   -51752   -51727   -51699   -51667   -51632   -51594   -51556 
  -51521   -51482   -51444   -51410   -51379   -51349   -51322   -51297 
  -51278   -51263   -51250   -51246   -51250   -51254   -51260   -51271 
  -51283   -51297   -51310   -51321   -51336   -51352   -51363   -51374 
  -51381   -51386   -51393   -51401   -51405   -51408   -51408   -51401 
  -51394   -51390   -51385   -51378   -51376   -51376   -51374   -51374 
  -51368   -51363   -51362   -51358   -51352   -51351   -51351   -51352 
  -51356   -51366   -51375   -51383   -51391   -51405   -51424   -51441 
  -51460   -51483   -51502   -51521   -51545   -51568   -51590   -51613 
  -51634   -51655   -51676   -51698   -51718   -51738   -51760   -51776 
  -51794   -51814   -51834   -51853   -51872   -51885   -51899   -51911 
  -51918   -51921   -51922   -51919   -51915   -51908   -51900   -51889 
  -51883   -51876   -51861   -51845   -51833   -51815   -51799   -51784 
  -51768   -51749   -51734   -51721   -51706   -51688   -51675   -51660 
  -51640   -51622   -51607   -51590   -51568   -51549   -51532   -51509 
  -51484   -51466   -51451   -51439   -51425   -51412   -51402   -51395 
  -51389   -51382   -51379   -51379   -51379   -51378   -51382   -51393 
  -51401   -51406   -51412   -51418   -51425   -51433   -51440   -51445 
  -51449   -51455   -51463   -51467   -51468   -51475   -51479   -51475 
  -51472   -51475   -51475   -51474   -51475   -51475   -51475   -51479 
