Origin Time       2025/01/13 21:19:00
Lat.              31.8
Long.             131.6
Depth. (km)       30
Mag.              6.9
Station Code      OKYH13
Station Lat.      34.7283
Station Long.     134.2744
Station Height(m) 2.83
Record Time       2025/01/13 21:21:02
Sampling Freq(Hz) 100Hz
Duration Time(s)  120
Dir.              6
Scale Factor      7845(gal)/8223790
Max. Acc. (gal)   0.512
Last Correction   2025/01/13 21:21:03
Memo.             
[...]
   -6575    -6570    -6573    -6581    -6581    -6579    -6575    -6566 
   -6561    -6556    -6542    -6529    -6527    -6517    -6498    -6485 
   -6477    -6474    -6473    -6470    -6478    -6496    -6505    -6508 
   -6517    -6528    -6535    -6543    -6548    -6547    -6548    -6556 
   -6563    -6570    -6577    -6583    -6589    -6596    -6604    -6608 
   -6605    -6600    -6600    -6600    -6596    -6594    -6594    -6586 
   -6578    -6571    -6561    -6550    -6546    -6538    -6532    -6535 
   -6536    -6531    -6521    -6511    -6498    -6493    -6498    -6504 
   -6500    -6497    -6501    -6504    -6502    -6500    -6494    -6485 
   -6481    -6482    -6474    -6469    -6478    -6489    -6492    -6490 
   -6486    -6473    -6462    -6463    -6471    -6478    -6481    -6485 
   -6488    -6490    -6500    -6508    -6516    -6531    -6539    -6543 
   -6551    -6566    -6581    -6589    -6593    -6597    -6598    -6600 
   -6601    -6600    -6598    -6601    -6604    -6605    -6606    -6610 
   -6619    -6625    -6627    -6627    -6627    -6617    -6608    -6609 
   -6619    -6631    -6639    -6643    -6652    -6659    -6659    -6663 
   -6669    -6659    -6646    -6632    -6620    -6616    -6610    -6602 
   -6600    -6602    -6604    -6600    -6592    -6589    -6581    -6563 
   -6551    -6552    -6555    -6554    -6552    -6556    -6565    -6577 
   -6586    -6589    -6589    -6589    -6583    -6579    -6578    -6577 
   -6571    -6563    -6554    -6552    -6562    -6570    -6575    -6582 
   -6589    -6593    -6596    -6598    -6596    -6596    -6602    -6609 
   -6615    -6624    -6640    -6651    -6659    -6666    -6664    -6662 
   -6660    -6659    -6660    -6664    -6674    -6681    -6677    -6675 
   -6679    -6678    -6675    -6670    -6662    -6659    -6659    -6655 
   -6647    -6643    -6636    -6620    -6605    -6597    -6586    -6573 
   -6563    -6555    -6547    -6540    -6534    -6532    -6539    -6547 
   -6546    -6539    -6534    -6531    -6529    -6531    -6531    -6529 
   -6531    -6532    -6523    -6509    -6504    -6501    -6497    -6498 
   -6500    -6498    -6504    -6515    -6516    -6512    -6517    -6529 
   -6546    -6562    -6574    -6581    -6582    -6579    -6575    -6571 
   -6571    -6569    -6563    -6552    -6539    -6523    -6511    -6502 
   -6489    -6469    -6448    -6430    -6419    -6416    -6411    -6403 
   -6399    -6400    -6400    -6397    -6397    -6403    -6411    -6421 
   -6432    -6435    -6432    -6430    -6431    -6434    -6434    -6430 
   -6427    -6427    -6426    -6421    -6416    -6416    -6416    -6412 
   -6409    -6409    -6411    -6419    -6423    -6417    -6416    -6424 
   -6430    -6430    -6427    -6420    -6416    -6412    -6404    -6397 
   -6393    -6392    -6393    -6394    -6389    -6389    -6399    -6409 
   -6415    -6415    -6416    -6423    -6423    -6417    -6421    -6431 
   -6438    -6446    -6450    -6453    -6461    -6465    -6467    -6466 
   -6469    -6480    -6494    -6508    -6517    -6528    -6539    -6548 
   -6556    -6563    -6571    -6581    -6586    -6590    -6596    -6604 
   -6613    -6624    -6635    -6643    -6644    -6644    -6644    -6643 
   -6642    -6642    -6646    -6650    -6648    -6646    -6647    -6647 
   -6647    -6650    -6648    -6643    -6637    -6633    -6636    -6639 
   -6640    -6648    -6655    -6658    -6663    -6666    -6670    -6679 
   -6679    -6673    -6664    -6659    -6659    -6662    -6664    -6674 
   -6687    -6700    -6702    -6700    -6698    -6691    -6678    -6666 
   -6658    -6650    -6644    -6637    -6628    -6613    -6602    -6596 
   -6586    -6574    -6569    -6566    -6566    -6573    -6578    -6581 
   -6593    -6606    -6615    -6625    -6637    -6650    -6664    -6675 
   -6678    -6678    -6681    -6682    -6677    -6673    -6677    -6678 
   -6677    -6674    -6667    -6662    -6662    -6658    -6647    -6637 
   -6628    -6624    -6628    -6631    -6625    -6616    -6606    -6602 
   -6601    -6602    -6602    -6598    -6596    -6594    -6590    -6582 
   -6573    -6565    -6558    -6550    -6543    -6534    -6523    -6512 
   -6498    -6485    -6470    -6455    -6447    -6448    -6451    -6450 
   -6448    -6450    -6450    -6448    -6450    -6444    -6432    -6434 
   -6439    -6440    -6448    -6462    -6473    -6481    -6488    -6490 
   -6489    -6490    -6488    -6478    -6469    -6461    -6453    -6443 
   -6431    -6416    -6396    -6380    -6365    -6346    -6331    -6326 
   -6326    -6324    -6324    -6326    -6330    -6342    -6353    -6358 
   -6369    -6384    -6397    -6411    -6427    -6440    -6448    -6459 
   -6470    -6469    -6463    -6461    -6462    -6463    -6466    -6466 
   -6458    -6455    -6457    -6450    -6440    -6442    -6446    -6444 
   -6451    -6465    -6478    -6501    -6519    -6525    -6538    -6554 
   -6569    -6585    -6604    -6612    -6610    -6613    -6617    -6616 
   -6616    -6616    -6612    -6604    -6596    -6585    -6575    -6570 
   -6566    -6558    -6556    -6559    -6559    -6558    -6551    -6547 
   -6547    -6544    -6536    -6531    -6523    -6517    -6517    -6509 
   -6502    -6504    -6498    -6494    -6498    -6498    -6494    -6490 
   -6484    -6474    -6470    -6474    -6480    -6473    -6463    -6461 
   -6458    -6448    -6440    -6436    -6431    -6420    -6413    -6413 
   -6417    -6428    -6443    -6454    -6461    -6467    -6469    -6465 
   -6466    -6467    -6467    -6475    -6485    -6490    -6498    -6509 
   -6517    -6525    -6536    -6547    -6558    -6567    -6574    -6588 
   -6602    -6612    -6625    -6643    -6658    -6667    -6673    -6671 
   -6671    -6681    -6687    -6686    -6682    -6675    -6667    -6660 
   -6652    -6646    -6644    -6643    -6635    -6621    -6612    -6609 
   -6601    -6586    -6581    -6575    -6565    -6556    -6550    -6546 
   -6544    -6540    -6531    -6519    -6511    -6511    -6512    -6507 
   -6504    -6508    -6511    -6512    -6512    -6511    -6513    -6521 
   -6535    -6543    -6546    -6548    -6551    -6551    -6547    -6543 
   -6539    -6536    -6534    -6532    -6536    -6539    -6539    -6542 
   -6546    -6543    -6540    -6539    -6540    -6542    -6547    -6556 
   -6566    -6574    -6579    -6588    -6596    -6602    -6609    -6619 
   -6631    -6650    -6666    -6673    -6678    -6687    -6693    -6701 
   -6712    -6720    -6724    -6727    -6728    -6727    -6723    -6718 
   -6712    -6701    -6689    -6675    -6660    -6647    -6635    -6632 
   -6633    -6631    -6633    -6636    -6632    -6631    -6636    -6633 
   -6628    -6625    -6621    -6612    -6597    -6582    -6574    -6571 
   -6567    -6558    -6550    -6542    -6535    -6525    -6515    -6507 
   -6500    -6497    -6493    -6485    -6478    -6482    -6490    -6498 
   -6502    -6504    -6504    -6504    -6505    -6508    -6505    -6502 
   -6501    -6494    -6485    -6484    -6488    -6489    -6486    -6485 
   -6489    -6498    -6512    -6523    -6527    -6527    -6532    -6536 
   -6536    -6538    -6542    -6546    -6552    -6561    -6573    -6592 
   -6613    -6629    -6643    -6658    -6677    -6697    -6710    -6718 
   -6727    -6729    -6732    -6741    -6745    -6737    -6731    -6727 
   -6718    -6716    -6716    -6713    -6708    -6701    -6696    -6686 
   -6674    -6664    -6651    -6633    -6615    -6594    -6578    -6561 
   -6539    -6520    -6511    -6502    -6485    -6471    -6467    -6455 
   -6442    -6435    -6428    -6420    -6421    -6426    -6427    -6435 
   -6451    -6459    -6463    -6474    -6485    -6496    -6504    -6511 
   -6521    -6529    -6535    -6544    -6551    -6563    -6582    -6601 
   -6621    -6633    -6635    -6639    -6650    -6656    -6659    -6662 
   -6659    -6651    -6640    -6636    -6636    -6632    -6628    -6621 
   -6610    -6604    -6597    -6586    -6578    -6567    -6550    -6535 
   -6531    -6532    -6532    -6531    -6532    -6535    -6539    -6546 
   -6548    -6546    -6536    -6524    -6519    -6513    -6508    -6508 
   -6508    -6501    -6494    -6490    -6485    -6480    -6470    -6458 
   -6451    -6448    -6447    -6444    -6439    -6442    -6447    -6444 
   -6443    -6446    -6446    -6442    -6439    -6439    -6439    -6436 
   -6434    -6430    -6423    -6423    -6420    -6411    -6403    -6399 
   -6392    -6382    -6374    -6367    -6366    -6370    -6374    -6374 
   -6380    -6389    -6404    -6421    -6435    -6450    -6463    -6470 
   -6481    -6492    -6496    -6501    -6513    -6527    -6536    -6544 
   -6558    -6570    -6579    -6593    -6604    -6609    -6615    -6621 
   -6625    -6629    -6635    -6640    -6643    -6644    -6648    -6647 
   -6637    -6625    -6609    -6594    -6581    -6561    -6543    -6528 
   -6511    -6493    -6481    -6470    -6461    -6453    -6444    -6436 
   -6427    -6417    -6409    -6401    -6400    -6405    -6413    -6420 
   -6423    -6423    -6420    -6419    -6424    -6428    -6424    -6424 
   -6430    -6435    -6439    -6450    -6466    -6480    -6490    -6502 
   -6512    -6515    -6521    -6529    -6532    -6534    -6536    -6532 
   -6527    -6523    -6516    -6513    -6513    -6508    -6498    -6493 
   -6488    -6482    -6485    -6492    -6493    -6496    -6500    -6502 
   -6508    -6513    -6521    -6532    -6544    -6556    -6573    -6589 
   -6609    -6628    -6644    -6666    -6685    -6702    -6721    -6735 
   -6745    -6759    -6775    -6789    -6795    -6797    -6801    -6806 
   -6808    -6808    -6809    -6810    -6812    -6808    -6801    -6797 
   -6798    -6795    -6791    -6786    -6777    -6768    -6764    -6759 
   -6744    -6727    -6709    -6694    -6677    -6658    -6640    -6628 
   -6617    -6605    -6590    -6571    -6550    -6534    -6517    -6500 
   -6484    -6467    -6450    -6438    -6427    -6417    -6404    -6388 
   -6374    -6365    -6353    -6345    -6338    -6331    -6323    -6312 
   -6303    -6299    -6299    -6300    -6301    -6304    -6309    -6316 
   -6322    -6331    -6340    -6346    -6347    -6355    -6365    -6370 
   -6373    -6370    -6365    -6358    -6349    -6346    -6350    -6347 
   -6345    -6350    -6355    -6362    -6369    -6369    -6369    -6370 
   -6370    -6374    -6382    -6390    -6397    -6401    -6407    -6419 
   -6434    -6446    -6458    -6470    -6482    -6494    -6508    -6525 
   -6547    -6570    -6596    -6624    -6652    -6682    -6713    -6737 
   -6758    -6775    -6787    -6802    -6814    -6820    -6817    -6810 
   -6801    -6795    -6790    -6785    -6772    -6756    -6745    -6733 
   -6718    -6698    -6673    -6647    -6625    -6605    -6590    -6574 
   -6559    -6547    -6531    -6512    -6497    -6482    -6469    -6461 
   -6453    -6446    -6444    -6439    -6432    -6435    -6440    -6443 
   -6447    -6446    -6447    -6451    -6453    -6453    -6455    -6461 
   -6462    -6462    -6462    -6459    -6458    -6463    -6470    -6475 
   -6482    -6494    -6508    -6519    -6529    -6546    -6563    -6582 
   -6601    -6623    -6642    -6660    -6677    -6691    -6710    -6725 
   -6736    -6750    -6762    -6770    -6779    -6790    -6795    -6793 
   -6790    -6789    -6785    -6775    -6767    -6758    -6741    -6725 
   -6710    -6701    -6698    -6698    -6698    -6702    -6712    -6717 
   -6724    -6736    -6751    -6766    -6783    -6801    -6817    -6832 
   -6844    -6847    -6847    -6847    -6844    -6837    -6833    -6829 
   -6820    -6806    -6791    -6775    -6755    -6735    -6716    -6696 
   -6674    -6651    -6631    -6609    -6586    -6565    -6544    -6525 
   -6508    -6494    -6484    -6473    -6463    -6455    -6448    -6436 
   -6423    -6412    -6408    -6407    -6404    -6403    -6400    -6397 
   -6399    -6408    -6413    -6419    -6430    -6439    -6447    -6459 
   -6475    -6490    -6507    -6525    -6539    -6556    -6575    -6592 
   -6602    -6613    -6619    -6620    -6621    -6619    -6612    -6598 
   -6581    -6567    -6550    -6534    -6519    -6504    -6486    -6474 
   -6463    -6454    -6446    -6439    -6438    -6443    -6453    -6467 
   -6489    -6507    -6525    -6554    -6581    -6604    -6633    -6663 
   -6690    -6717    -6741    -6760    -6771    -6774    -6775    -6777 
   -6777    -6775    -6772    -6768    -6759    -6744    -6727    -6705 
   -6679    -6652    -6629    -6604    -6567    -6532    -6502    -6471 
   -6436    -6405    -6384    -6367    -6351    -6334    -6319    -6309 
   -6300    -6292    -6293    -6300    -6307    -6312    -6318    -6327 
   -6342    -6355    -6365    -6380    -6401    -6420    -6438    -6457 
   -6475    -6493    -6504    -6509    -6513    -6519    -6521    -6523 
   -6527    -6529    -6532    -6534    -6534    -6532    -6532    -6529 
   -6531    -6538    -6542    -6546    -6554    -6562    -6571    -6588 
   -6606    -6625    -6643    -6656    -6670    -6687    -6708    -6728 
   -6743    -6762    -6789    -6810    -6826    -6844    -6855    -6866 
   -6882    -6891    -6893    -6893    -6890    -6883    -6876    -6867 
   -6853    -6839    -6821    -6797    -6770    -6745    -6723    -6698 
   -6671    -6646    -6623    -6597    -6573    -6551    -6529    -6508 
   -6484    -6462    -6447    -6435    -6419    -6400    -6382    -6367 
   -6354    -6340    -6326    -6313    -6299    -6282    -6266    -6246 
   -6224    -6208    -6191    -6165    -6141    -6120    -6100    -6081 
   -6068    -6052    -6035    -6025    -6022    -6022    -6022    -6019 
   -6016    -6012    -6011    -6011    -6014    -6023    -6041    -6057 
   -6069    -6085    -6104    -6122    -6141    -6165    -6193    -6224 
   -6253    -6278    -6303    -6326    -6351    -6377    -6401    -6424 
   -6444    -6458    -6463    -6467    -6471    -6474    -6473    -6469 
   -6459    -6451    -6444    -6435    -6421    -6409    -6400    -6394 
   -6386    -6381    -6380    -6374    -6376    -6389    -6399    -6405 
   -6421    -6439    -6457    -6478    -6500    -6523    -6550    -6575 
   -6604    -6637    -6664    -6683    -6704    -6725    -6747    -6768 
   -6793    -6818    -6837    -6855    -6875    -6891    -6899    -6906 
   -6913    -6917    -6920    -6924    -6924    -6920    -6910    -6898 
   -6885    -6871    -6859    -6843    -6825    -6808    -6790    -6772 
   -6752    -6735    -6727    -6721    -6714    -6714    -6718    -6721 
   -6724    -6729    -6736    -6744    -6752    -6760    -6766    -6768 
   -6777    -6787    -6793    -6794    -6793    -6793    -6789    -6779 
   -6770    -6756    -6745    -6737    -6729    -6720    -6708    -6694 
   -6681    -6667    -6652    -6633    -6615    -6597    -6575    -6559 
   -6546    -6532    -6521    -6513    -6509    -6511    -6512    -6511 
   -6513    -6516    -6516    -6519    -6524    -6532    -6540    -6547 
   -6550    -6550    -6550    -6552    -6551    -6548    -6546    -6543 
   -6544    -6544    -6543    -6542    -6540    -6540    -6538    -6534 
   -6532    -6532    -6532    -6531    -6527    -6523    -6517    -6516 
   -6521    -6525    -6532    -6540    -6547    -6552    -6559    -6562 
   -6561    -6561    -6561    -6558    -6555    -6550    -6539    -6531 
   -6528    -6521    -6515    -6515    -6512    -6513    -6515    -6511 
   -6511    -6513    -6509    -6507    -6504    -6501    -6501    -6501 
   -6497    -6490    -6480    -6469    -6458    -6454    -6450    -6443 
   -6438    -6436    -6439    -6446    -6455    -6467    -6488    -6508 
   -6528    -6551    -6569    -6588    -6610    -6633    -6656    -6674 
   -6685    -6691    -6693    -6690    -6683    -6674    -6664    -6651 
   -6635    -6617    -6600    -6578    -6558    -6539    -6515    -6494 
   -6478    -6455    -6436    -6420    -6400    -6377    -6355    -6334 
   -6311    -6291    -6277    -6266    -6253    -6239    -6227    -6218 
   -6212    -6212    -6216    -6227    -6242    -6258    -6280    -6303 
   -6326    -6354    -6381    -6409    -6439    -6470    -6502    -6538 
   -6574    -6610    -6647    -6678    -6705    -6729    -6748    -6770 
   -6790    -6804    -6814    -6826    -6840    -6848    -6853    -6856 
   -6853    -6847    -6844    -6836    -6822    -6810    -6795    -6772 
   -6750    -6732    -6709    -6683    -6658    -6632    -6608    -6588 
   -6565    -6538    -6516    -6496    -6473    -6454    -6440    -6426 
   -6411    -6393    -6378    -6369    -6358    -6349    -6346    -6350 
   -6357    -6359    -6358    -6363    -6373    -6382    -6390    -6400 
   -6412    -6427    -6438    -6454    -6471    -6485    -6501    -6517 
   -6532    -6547    -6563    -6577    -6583    -6586    -6592    -6600 
   -6608    -6616    -6624    -6636    -6646    -6651    -6656    -6664 
   -6673    -6683    -6694    -6704    -6718    -6735    -6745    -6754 
   -6762    -6768    -6774    -6779    -6782    -6783    -6781    -6781 
   -6778    -6774    -6772    -6768    -6758    -6752    -6755    -6751 
   -6741    -6732    -6723    -6720    -6718    -6713    -6705    -6694 
   -6687    -6679    -6667    -6663    -6658    -6650    -6640    -6631 
   -6620    -6608    -6593    -6581    -6577    -6575    -6571    -6562 
   -6554    -6546    -6534    -6520    -6508    -6496    -6488    -6484 
   -6478    -6470    -6459    -6453    -6442    -6427    -6417    -6411 
   -6407    -6409    -6416    -6423    -6428    -6434    -6439    -6446 
   -6455    -6463    -6471    -6481    -6489    -6497    -6504    -6511 
   -6516    -6525    -6534    -6540    -6550    -6561    -6571    -6579 
   -6583    -6589    -6590    -6586    -6586    -6592    -6600    -6606 
   -6609    -6613    -6621    -6624    -6623    -6620    -6615    -6609 
   -6605    -6601    -6592    -6579    -6569    -6559    -6552    -6547 
   -6535    -6524    -6517    -6511    -6497    -6482    -6474    -6465 
   -6455    -6446    -6435    -6427    -6419    -6411    -6405    -6407 
   -6411    -6412    -6415    -6419    -6420    -6421    -6426    -6432 
   -6439    -6448    -6461    -6471    -6477    -6486    -6498    -6511 
   -6523    -6531    -6534    -6538    -6542    -6546    -6548    -6544 
   -6540    -6538    -6529    -6520    -6509    -6496    -6486    -6480 
   -6470    -6463    -6458    -6451    -6448    -6453    -6457    -6458 
   -6462    -6466    -6469    -6473    -6475    -6477    -6480    -6485 
   -6490    -6497    -6505    -6509    -6515    -6523    -6525    -6525 
   -6523    -6524    -6525    -6524    -6523    -6524    -6524    -6524 
   -6525    -6529    -6538    -6550    -6562    -6578    -6594    -6605 
   -6613    -6621    -6631    -6639    -6650    -6659    -6666    -6664 
   -6664    -6666    -6664    -6660    -6656    -6647    -6636    -6625 
   -6610    -6596    -6585    -6573    -6561    -6550    -6539    -6525 
   -6512    -6504    -6496    -6485    -6480    -6474    -6474    -6480 
   -6482    -6486    -6498    -6509    -6513    -6521    -6532    -6532 
   -6531    -6539    -6544    -6543    -6547    -6551    -6550    -6548 
   -6547    -6547    -6550    -6548    -6547    -6551    -6552    -6554 
   -6556    -6561    -6565    -6567    -6573    -6581    -6589    -6592 
   -6597    -6602    -6606    -6612    -6619    -6624    -6629    -6639 
   -6643    -6644    -6650    -6654    -6655    -6658    -6658    -6654 
   -6651    -6651    -6646    -6636    -6628    -6624    -6617    -6608 
   -6604    -6600    -6593    -6586    -6585    -6581    -6577    -6575 
