Origin Time       2025/01/13 21:19:00
Lat.              31.8
Long.             131.6
Depth. (km)       30
Mag.              6.9
Station Code      OKYH02
Station Lat.      34.7501
Station Long.     134.0702
Station Height(m) -170
Record Time       2025/01/13 21:20:55
Sampling Freq(Hz) 100Hz
Duration Time(s)  126
Dir.              1
Scale Factor      3923(gal)/8224838
Max. Acc. (gal)   0.583
Last Correction   2025/01/13 21:20:56
Memo.             
[...]
   65286    65284    65314    65372    65418    65399    65365    65364 
   65350    65338    65361    65367    65357    65372    65376    65389 
   65452    65502    65516    65541    65560    65550    65556    65578 
   65573    65543    65522    65520    65523    65516    65496    65472 
   65439    65416    65415    65396    65345    65314    65315    65329 
   65367    65410    65415    65408    65419    65421    65412    65408 
   65395    65398    65431    65431    65385    65348    65300    65242 
   65225    65218    65192    65207    65246    65245    65252    65296 
   65344    65389    65438    65470    65470    65452    65450    65449 
   65418    65395    65394    65387    65402    65415    65373    65341 
   65373    65395    65388    65399    65394    65367    65348    65325 
   65317    65350    65399    65448    65484    65491    65472    65437 
   65404    65387    65357    65326    65313    65294    65287    65313 
   65335    65373    65431    65443    65426    65437    65435    65404 
   65399    65407    65396    65388    65385    65354    65308    65300 
   65333    65369    65407    65456    65472    65431    65394    65383 
   65349    65298    65290    65307    65322    65341    65348    65334 
   65326    65322    65326    65360    65395    65403    65402    65381 
   65356    65369    65398    65402    65418    65458    65481    65462 
   65421    65369    65335    65365    65414    65407    65379    65368 
   65356    65357    65385    65414    65418    65408    65418    65419 
   65372    65326    65306    65267    65252    65288    65283    65252 
   65268    65263    65227    65226    65221    65195    65184    65171 
   65164    65167    65148    65122    65126    65159    65209    65252 
   65269    65283    65277    65256    65260    65261    65249    65273 
   65307    65303    65306    65308    65287    65292    65317    65304 
   65300    65348    65377    65375    65411    65449    65415    65377 
   65389    65372    65323    65315    65330    65340    65362    65361 
   65326    65321    65350    65377    65388    65380    65371    65362 
   65352    65358    65354    65323    65337    65392    65421    65439 
   65468    65492    65529    65551    65538    65539    65568    65588 
   65611    65634    65614    65572    65557    65554    65539    65546 
   65573    65585    65593    65610    65597    65577    65580    65576 
   65549    65512    65476    65446    65416    65391    65402    65437 
   65462    65503    65546    65535    65503    65506    65488    65425 
   65395    65402    65375    65353    65375    65380    65376    65392 
   65375    65337    65322    65308    65299    65311    65314    65303 
   65292    65280    65287    65321    65362    65392    65402    65387 
   65353    65330    65349    65383    65400    65408    65406    65399 
   65394    65365    65322    65303    65304    65294    65260    65229 
   65219    65226    65259    65303    65311    65291    65291    65303 
   65310    65326    65354    65404    65473    65529    65568    65593 
   65589    65580    65588    65597    65603    65601    65591    65583 
   65581    65576    65570    65577    65603    65618    65601    65578 
   65565    65562    65562    65547    65523    65512    65511    65520 
   65534    65524    65510    65519    65527    65518    65510    65506 
   65480    65449    65448    65450    65437    65445    65470    65457 
   65430    65431    65429    65415    65418    65421    65406    65403 
   65414    65415    65406    65404    65394    65365    65353    65348 
   65335    65349    65388    65416    65433    65448    65448    65427 
   65396    65381    65392    65396    65385    65375    65356    65331 
   65325    65325    65313    65300    65303    65313    65311    65319 
   65353    65368    65361    65376    65394    65391    65379    65346 
   65307    65304    65329    65349    65365    65377    65379    65368 
   65349    65330    65325    65318    65319    65338    65333    65280 
   65244    65253    65264    65259    65267    65277    65254    65227 
   65230    65225    65202    65210    65234    65237    65237    65260 
   65281    65276    65263    65265    65277    65276    65267    65269 
   65281    65306    65338    65356    65358    65361    65348    65327 
   65340    65372    65392    65416    65457    65487    65504    65534 
   65558    65558    65568    65589    65577    65556    65547    65538 
   65558    65588    65576    65570    65593    65588    65573    65568 
   65518    65462    65461    65439    65377    65357    65368    65372 
   65381    65380    65358    65342    65341    65344    65353    65362 
   65369    65368    65362    65372    65375    65348    65345    65377 
   65394    65400    65402    65377    65356    65362    65373    65376 
   65385    65395    65403    65422    65446    65443    65425    65411 
   65394    65385    65415    65430    65403    65402    65421    65410 
   65407    65434    65434    65408    65375    65317    65264    65249 
   65245    65234    65219    65205    65203    65205    65188    65176 
   65187    65206    65215    65211    65206    65225    65268    65313 
   65331    65325    65322    65340    65348    65345    65350    65354 
   65365    65388    65399    65396    65416    65441    65435    65418 
   65422    65431    65408    65377    65371    65372    65367    65358 
   65337    65318    65322    65331    65335    65342    65352    65358 
   65362    65367    65367    65367    65389    65445    65504    65527 
   65529    65549    65574    65581    65583    65578    65570    65580 
   65600    65618    65627    65614    65589    65574    65572    65587 
   65611    65614    65600    65622    65659    65659    65659    65684 
   65682    65669    65680    65673    65630    65607    65616    65628 
   65642    65649    65639    65628    65616    65588    65547    65512 
   65510    65524    65539    65568    65577    65550    65537    65538 
   65512    65477    65458    65449    65442    65430    65426    65441 
   65445    65443    65473    65502    65481    65460    65476    65491 
   65491    65506    65520    65504    65476    65470    65484    65483 
   65469    65469    65476    65465    65446    65435    65426    65412 
   65392    65362    65341    65335    65327    65299    65279    65280 
   65280    65272    65273    65272    65263    65259    65245    65225 
   65219    65213    65207    65203    65173    65133    65103    65053 
   65013    65013    64995    64953    64935    64913    64875    64859 
   64848    64822    64812    64813    64801    64785    64783    64786 
   64790    64805    64828    64841    64858    64908    64966    64987 
   65003    65047    65092    65129    65159    65183    65195    65199 
   65217    65254    65292    65327    65349    65350    65365    65395 
   65415    65433    65452    65481    65523    65534    65535    65577 
   65619    65634    65666    65696    65693    65708    65736    65740 
   65751    65772    65780    65785    65801    65819    65820    65807 
   65803    65816    65824    65832    65850    65838    65788    65754 
   65749    65749    65747    65757    65773    65770    65758    65743 
   65713    65699    65713    65730    65742    65747    65738    65736 
   65732    65719    65730    65732    65685    65641    65611    65577 
   65557    65537    65516    65533    65541    65511    65491    65464 
   65416    65396    65373    65335    65335    65333    65314    65323 
   65318    65279    65260    65256    65249    65260    65265    65248 
   65234    65227    65218    65222    65237    65253    65272    65281 
   65267    65257    65259    65249    65253    65290    65308    65311 
   65330    65323    65281    65267    65269    65253    65250    65257 
   65238    65230    65246    65249    65252    65272    65286    65302 
   65318    65313    65311    65319    65310    65302    65303    65287 
   65264    65261    65263    65246    65233    65230    65223    65213 
   65210    65213    65203    65187    65194    65210    65203    65207 
   65236    65246    65241    65254    65271    65271    65276    65281 
   65264    65252    65257    65245    65229    65238    65245    65248 
   65264    65265    65253    65252    65242    65230    65238    65232 
   65213    65218    65222    65207    65211    65219    65226    65252 
   65276    65280    65292    65323    65353    65379    65404    65435 
   65457    65470    65497    65516    65512    65534    65580    65605 
   65635    65676    65693    65712    65743    65746    65736    65753 
   65769    65766    65763    65755    65746    65739    65736    65751 
   65778    65794    65797    65788    65773    65772    65773    65772 
   65774    65772    65754    65734    65728    65720    65692    65680 
   65677    65651    65638    65627    65587    65581    65593    65549 
   65522    65539    65527    65506    65506    65485    65458    65456 
   65457    65461    65470    65473    65477    65480    65481    65495 
   65493    65476    65485    65512    65518    65518    65524    65527 
   65538    65561    65584    65596    65595    65574    65554    65550 
   65553    65549    65542    65516    65481    65470    65473    65462 
   65458    65462    65445    65435    65449    65433    65399    65398 
   65399    65384    65380    65367    65335    65317    65303    65284 
   65268    65259    65271    65294    65277    65244    65230    65205 
   65163    65145    65137    65121    65119    65134    65129    65115 
   65124    65132    65130    65152    65182    65182    65172    65183 
   65221    65265    65292    65319    65357    65373    65391    65433 
   65453    65460    65497    65520    65520    65550    65572    65572 
   65595    65615    65619    65631    65623    65605    65612    65616 
   65615    65628    65632    65626    65634    65639    65638    65641 
   65641    65642    65649    65647    65632    65614    65585    65562 
   65556    65534    65503    65499    65492    65457    65435    65414 
   65369    65352    65365    65356    65335    65337    65341    65346 
   65358    65353    65345    65371    65406    65419    65426    65434 
   65435    65433    65434    65437    65431    65418    65406    65400 
   65387    65360    65331    65296    65257    65227    65194    65157 
   65130    65099    65068    65055    65037    65028    65033    65016 
   65016    65059    65070    65060    65078    65079    65070    65087 
   65097    65082    65078    65090    65094    65079    65067    65070 
   65067    65064    65095    65119    65113    65121    65155    65188 
   65217    65236    65260    65294    65304    65291    65286    65290 
   65300    65294    65269    65256    65246    65233    65226    65210 
   65187    65183    65168    65142    65134    65115    65098    65126 
   65153    65146    65136    65122    65109    65119    65125    65107 
   65097    65106    65130    65159    65182    65227    65292    65340 
   65395    65468    65508    65524    65546    65554    65549    65564 
   65574    65557    65543    65543    65526    65507    65514    65510 
   65483    65483    65496    65495    65514    65549    65550    65542 
   65545    65545    65565    65600    65607    65611    65632    65650 
   65676    65699    65678    65659    65659    65645    65641    65655 
   65657    65647    65632    65614    65610    65597    65560    65538 
   65546    65547    65535    65519    65496    65489    65503    65507 
   65504    65508    65508    65495    65484    65481    65465    65441 
   65439    65438    65416    65402    65391    65395    65423    65439 
   65443    65466    65495    65524    65565    65595    65628    65678 
   65709    65727    65747    65755    65770    65792    65786    65792 
   65809    65789    65765    65762    65734    65703    65704    65695 
   65669    65647    65607    65561    65537    65518    65489    65468 
   65445    65410    65373    65352    65340    65333    65342    65372 
   65408    65434    65446    65456    65460    65454    65453    65449 
   65433    65435    65453    65454    65458    65472    65464    65464 
   65504    65539    65561    65589    65604    65611    65630    65638 
   65624    65611    65587    65554    65535    65523    65497    65470 
   65454    65445    65438    65414    65379    65358    65340    65317 
   65294    65249    65200    65171    65137    65092    65056    65024 
   65009    65016    65022    65029    65059    65118    65184    65238 
   65280    65325    65353    65372    65402    65427    65453    65484 
   65500    65518    65549    65556    65554    65576    65597    65610 
   65622    65631    65647    65677    65718    65769    65820    65855 
   65893    65928    65944    65952    65959    65967    65992    66019 
   66035    66051    66056    66051    66048    66042    66033    66029 
   66023    66015    66002    65989    65974    65948    65913    65880 
   65850    65819    65784    65751    65734    65719    65697    65672 
   65646    65632    65618    65578    65546    65543    65543    65543 
   65558    65576    65592    65607    65620    65635    65650    65649 
   65645    65659    65672    65673    65676    65681    65686    65703 
   65707    65692    65682    65680    65681    65689    65682    65657 
   65639    65611    65560    65523    65491    65435    65387    65342 
   65272    65205    65153    65095    65044    64997    64943    64889 
   64829    64768    64714    64652    64584    64519    64453    64382 
   64322    64270    64230    64211    64200    64185    64189    64208 
   64218    64231    64265    64284    64296    64331    64351    64357 
   64390    64423    64446    64489    64532    64569    64611    64647 
   64667    64686    64714    64750    64773    64794    64841    64890 
   64920    64953    64987    65017    65064    65113    65140    65153 
   65165    65191    65225    65245    65264    65286    65303    65326 
   65350    65358    65367    65377    65388    65411    65422    65410 
   65406    65418    65435    65462    65492    65514    65541    65573 
   65593    65616    65665    65718    65769    65835    65888    65916 
   65956    66010    66042    66059    66081    66094    66109    66139 
   66172    66205    66239    66268    66295    66322    66339    66343 
   66336    66329    66333    66326    66302    66285    66275    66270 
   66280    66287    66264    66243    66239    66224    66212    66214 
   66195    66167    66158    66131    66078    66043    66005    65944 
   65901    65867    65816    65773    65763    65761    65739    65705 
   65673    65647    65628    65619    65589    65543    65524    65522 
   65506    65492    65473    65431    65407    65406    65400    65384 
   65371    65362    65365    65365    65362    65365    65369    65373 
   65375    65356    65330    65325    65329    65327    65323    65313 
   65299    65296    65295    65286    65277    65263    65249    65245 
   65236    65221    65213    65214    65223    65230    65244    65267 
   65264    65253    65267    65283    65302    65329    65344    65358 
   65381    65403    65435    65461    65458    65458    65466    65450 
   65425    65400    65358    65321    65291    65242    65210    65199 
   65173    65142    65121    65109    65115    65134    65146    65155 
   65152    65142    65165    65200    65211    65221    65236    65241 
   65261    65287    65281    65272    65286    65296    65294    65287 
   65271    65246    65238    65240    65222    65196    65176    65149 
   65133    65140    65128    65099    65094    65103    65115    65137 
   65155    65184    65242    65291    65318    65345    65371    65392 
   65415    65427    65431    65437    65439    65435    65429    65411 
   65388    65369    65341    65319    65304    65263    65210    65167 
   65106    65040    64998    64953    64897    64872    64868    64854 
   64852    64860    64858    64875    64920    64943    64943    64951 
   64960    64972    64993    64998    64976    64967    64972    64966 
   64967    64987    65002    65022    65044    65047    65044    65053 
   65057    65057    65070    65078    65082    65098    65122    65157 
   65186    65203    65240    65281    65307    65341    65354    65338 
   65354    65387    65383    65389    65422    65443    65479    65530 
   65549    65553    65584    65626    65649    65664    65682    65692 
   65704    65730    65739    65736    65772    65816    65832    65855 
   65877    65873    65874    65884    65871    65853    65846    65850 
   65851    65846    65840    65828    65815    65823    65819    65784 
   65758    65730    65665    65612    65583    65537    65489    65456 
   65408    65361    65349    65331    65286    65264    65268    65253 
   65232    65223    65210    65187    65169    65153    65118    65082 
   65060    65030    65010    65017    65013    64999    65011    65018 
   65010    65014    65020    65024    65041    65045    65029    65037 
   65067    65094    65115    65134    65168    65206    65248    65317 
   65358    65365    65399    65433    65442    65485    65535    65551 
   65587    65638    65659    65664    65673    65693    65713    65732 
   65758    65782    65808    65847    65881    65904    65936    65966 
   65996    66039    66074    66093    66121    66151    66175    66202 
   66214    66210    66213    66224    66225    66205    66181    66159 
   66135    66120    66110    66091    66066    66040    66015    66009 
   66015    66000    65975    65967    65966    65958    65948    65951 
   65952    65939    65931    65927    65898    65866    65847    65819 
   65778    65738    65697    65664    65638    65614    65576    65534 
   65510    65475    65421    65380    65341    65291    65252    65213 
   65156    65101    65032    64970    64945    64914    64870    64854 
   64836    64820    64836    64841    64822    64808    64806    64814 
   64825    64827    64843    64863    64867    64878    64894    64897 
   64912    64936    64949    64953    64952    64951    64959    64967 
   64970    64968    64964    64968    64975    64975    64970    64962 
   64955    64959    64967    64968    64962    64943    64928    64936 
   64959    64976    64979    64982    65001    65032    65074    65110 
   65129    65157    65198    65211    65221    65240    65234    65223 
   65234    65218    65178    65167    65159    65125    65103    65091 
   65063    65030    64999    64974    64952    64932    64925    64941 
   64956    64960    64972    64994    65017    65051    65079    65098 
   65114    65130    65152    65186    65214    65236    65264    65294 
   65319    65342    65350    65350    65376    65415    65421    65431 
   65483    65526    65560    65614    65647    65664    65719    65773 
   65785    65801    65831    65853    65873    65893    65905    65916 
   65931    65958    65992    66015    66033    66060    66089    66116 
   66152    66179    66194    66210    66224    66231    66243    66245 
   66231    66212    66204    66205    66213    66208    66189    66172 
   66152    66112    66062    66028    65990    65928    65878    65848 
   65800    65747    65709    65658    65599    65551    65491    65423 
   65375    65318    65249    65188    65136    65097    65057    65011 
   64989    64959    64903    64875    64856    64821    64809    64816 
