Origin Time       2025/01/13 21:19:00
Lat.              31.8
Long.             131.6
Depth. (km)       30
Mag.              6.9
Station Code      OKYH07
Station Lat.      35.0493
Station Long.     133.3169
Station Height(m) 463.5
Record Time       2025/01/13 21:21:01
Sampling Freq(Hz) 100Hz
Duration Time(s)  120
Dir.              2
Scale Factor      3923(gal)/8224838
Max. Acc. (gal)   0.682
Last Correction   2025/01/13 21:21:02
Memo.             
[...]
   29963    29961    29957    29953    29956    29972    29987    29991 
   29994    29999    30002    30007    30018    30030    30042    30056 
   30063    30067    30079    30092    30099    30100    30100    30105 
   30107    30103    30092    30083    30079    30078    30082    30086 
   30080    30068    30056    30045    30032    30024    30026    30032 
   30029    30015    30002    29986    29968    29952    29938    29910 
   29866    29825    29798    29776    29767    29778    29797    29809 
   29818    29830    29835    29829    29826    29835    29843    29841 
   29840    29844    29851    29856    29868    29882    29884    29878 
   29878    29884    29893    29898    29903    29910    29918    29922 
   29929    29938    29941    29938    29926    29907    29893    29882 
   29871    29868    29876    29887    29901    29911    29924    29936 
   29940    29940    29944    29949    29956    29967    29971    29967 
   29961    29959    29959    29961    29970    29987    30009    30030 
   30053    30076    30092    30102    30106    30113    30113    30100 
   30092    30096    30109    30129    30153    30169    30172    30173 
   30175    30175    30167    30149    30130    30121    30111    30107 
   30113    30115    30106    30092    30080    30071    30060    30046 
   30030    30018    30009    30005    30007    30021    30041    30053 
   30051    30037    30030    30030    30024    30013    30005    30002 
   30009    30017    30029    30046    30056    30056    30053    30055 
   30067    30079    30082    30080    30079    30078    30078    30072 
   30065    30067    30071    30072    30071    30068    30061    30051 
   30048    30048    30038    30028    30019    30013    30005    30003 
   30011    30021    30015    30006    30007    30014    30022    30042 
   30071    30091    30100    30111    30122    30123    30117    30106 
   30090    30072    30060    30064    30080    30091    30095    30095 
   30088    30082    30082    30075    30059    30040    30018    29994 
   29972    29960    29959    29955    29937    29917    29905    29897 
   29880    29863    29848    29836    29833    29848    29866    29875 
   29884    29902    29917    29922    29924    29926    29932    29938 
   29949    29970    29994    30010    30018    30029    30048    30073 
   30096    30117    30136    30148    30154    30160    30161    30150 
   30136    30125    30118    30113    30105    30087    30057    30024 
   29991    29967    29955    29949    29933    29911    29902    29895 
   29886    29884    29890    29893    29905    29929    29947    29953 
   29959    29963    29965    29967    29970    29970    29967    29961 
   29967    29986    30003    30021    30042    30065    30087    30110 
   30129    30137    30125    30105    30090    30080    30076    30082 
   30087    30078    30057    30036    30018    30009    30015    30032 
   30036    30025    30010    29983    29945    29916    29901    29889 
   29870    29852    29849    29848    29833    29821    29818    29810 
   29802    29806    29818    29828    29835    29847    29855    29853 
   29853    29851    29836    29816    29806    29805    29809    29817 
   29826    29833    29835    29830    29825    29818    29810    29797 
   29785    29790    29816    29845    29868    29879    29884    29887 
   29884    29876    29866    29856    29855    29860    29862    29848 
   29824    29808    29808    29805    29793    29783    29779    29782 
   29789    29793    29798    29808    29812    29814    29825    29837 
   29848    29862    29868    29868    29872    29889    29913    29938 
   29957    29964    29964    29964    29964    29970    29988    30015 
   30037    30053    30073    30091    30102    30109    30109    30099 
   30087    30076    30067    30053    30029    29995    29951    29901 
   29857    29826    29798    29781    29768    29754    29735    29725 
   29729    29740    29741    29733    29727    29724    29717    29708 
   29710    29729    29759    29791    29829    29871    29907    29937 
   29964    29999    30036    30069    30105    30138    30168    30196 
   30215    30230    30248    30265    30281    30279    30244    30194 
   30150    30117    30094    30080    30073    30071    30057    30036 
   30021    30003    29975    29952    29938    29918    29890    29862 
   29841    29828    29821    29818    29821    29829    29837    29847 
   29856    29871    29897    29929    29970    30015    30053    30084 
   30110    30138    30169    30195    30213    30219    30217    30208 
   30199    30190    30180    30173    30171    30179    30194    30199 
   30194    30172    30138    30105    30090    30103    30133    30159 
   30179    30199    30214    30218    30222    30231    30242    30261 
   30285    30308    30327    30333    30323    30311    30304    30307 
   30308    30298    30280    30262    30238    30214    30191    30165 
   30138    30113    30103    30107    30102    30082    30063    30052 
   30046    30034    30018    30010    30002    29994    29992    29994 
   29991    29984    29975    29968    29967    29963    29959    29964 
   29978    29991    29997    29998    30005    30011    30022    30038 
   30049    30053    30055    30057    30055    30044    30034    30028 
   30022    30018    30013    30003    29987    29971    29965    29965 
   29960    29945    29930    29926    29920    29906    29893    29879 
   29872    29871    29875    29884    29893    29899    29911    29929 
   29949    29968    29983    29997    30009    30015    30019    30019 
   30017    30028    30044    30048    30042    30034    30028    30025 
   30025    30021    30018    30024    30033    30038    30042    30049 
   30056    30065    30075    30082    30090    30091    30084    30088 
   30095    30088    30079    30073    30069    30063    30049    30025 
   29995    29960    29925    29897    29878    29871    29883    29909 
   29933    29953    29979    30003    30015    30019    30025    30028 
   30024    30017    30011    30009    30010    30014    30018    30024 
   30029    30038    30046    30053    30061    30073    30090    30106 
   30119    30134    30152    30171    30196    30226    30248    30261 
   30277    30294    30302    30299    30296    30289    30283    30287 
   30302    30307    30295    30276    30264    30261    30261    30262 
   30273    30291    30304    30303    30295    30287    30291    30307 
   30329    30348    30368    30381    30391    30396    30395    30400 
   30418    30438    30453    30464    30481    30496    30503    30505 
   30512    30527    30545    30555    30557    30557    30557    30553 
   30541    30528    30518    30508    30499    30487    30466    30441 
   30422    30407    30388    30370    30357    30346    30334    30325 
   30318    30303    30279    30260    30245    30230    30211    30191 
   30175    30163    30153    30145    30137    30121    30109    30102 
   30090    30073    30065    30060    30055    30056    30059    30049 
   30037    30033    30032    30021    30010    30001    29990    29974 
   29955    29945    29937    29920    29898    29879    29860    29839 
   29816    29801    29786    29767    29755    29752    29743    29721 
   29698    29681    29666    29650    29631    29619    29616    29619 
   29623    29625    29628    29635    29646    29663    29683    29704 
   29727    29751    29771    29787    29808    29822    29829    29839 
   29856    29871    29872    29862    29841    29820    29793    29763 
   29735    29718    29709    29704    29704    29700    29690    29690 
   29695    29698    29704    29708    29701    29694    29693    29694 
   29693    29681    29677    29687    29701    29708    29713    29716 
   29712    29706    29706    29702    29686    29670    29663    29662 
   29663    29677    29701    29720    29733    29751    29767    29778 
   29790    29803    29813    29814    29813    29822    29828    29824 
   29820    29825    29837    29852    29875    29899    29916    29922 
   29922    29917    29909    29907    29911    29909    29905    29909 
   29910    29903    29894    29890    29889    29876    29862    29852 
   29835    29812    29802    29798    29790    29776    29770    29768 
   29762    29751    29758    29771    29775    29775    29785    29798 
   29802    29805    29813    29822    29826    29830    29835    29833 
   29830    29830    29832    29835    29844    29855    29863    29866 
   29863    29860    29857    29853    29851    29851    29849    29843 
   29839    29841    29840    29835    29826    29821    29816    29816 
   29828    29848    29870    29897    29929    29960    29991    30021 
   30045    30067    30090    30110    30126    30142    30153    30159 
   30167    30172    30177    30179    30176    30175    30177    30180 
   30179    30179    30176    30173    30176    30186    30196    30203 
   30211    30229    30244    30250    30254    30249    30234    30214 
   30198    30186    30180    30181    30186    30179    30167    30159 
   30149    30137    30127    30129    30136    30140    30145    30164 
   30181    30194    30202    30200    30191    30184    30181    30184 
   30187    30190    30194    30192    30184    30173    30165    30160 
   30150    30138    30129    30118    30105    30102    30106    30107 
   30103    30103    30100    30094    30083    30073    30076    30087 
   30090    30090    30105    30125    30134    30132    30130    30142 
   30161    30183    30203    30222    30235    30244    30254    30265 
   30280    30298    30314    30329    30338    30337    30329    30314 
   30299    30291    30288    30277    30257    30238    30229    30215 
   30196    30176    30156    30137    30113    30084    30064    30049 
   30037    30025    30009    29992    29983    29980    29979    29978 
   29984    29992    29995    29992    29990    29990    29992    30001 
   30018    30032    30037    30033    30019    30006    30002    30010 
   30015    30007    29998    29999    29997    29984    29972    29968 
   29959    29934    29906    29886    29867    29851    29841    29837 
   29830    29828    29832    29836    29839    29843    29849    29849 
   29841    29829    29820    29817    29814    29816    29817    29814 
   29812    29817    29817    29817    29829    29851    29871    29887 
   29909    29937    29961    29980    30007    30038    30061    30082 
   30102    30119    30134    30146    30160    30172    30184    30190 
   30184    30177    30177    30181    30188    30195    30195    30184 
   30171    30157    30146    30133    30118    30107    30096    30080 
   30065    30048    30024    29994    29961    29929    29899    29871 
   29835    29791    29743    29686    29628    29583    29543    29493 
   29439    29393    29351    29311    29278    29263    29262    29258 
   29251    29249    29246    29247    29255    29270    29293    29322 
   29354    29389    29416    29435    29458    29492    29525    29550 
   29569    29590    29608    29621    29640    29664    29681    29686 
   29691    29701    29704    29708    29716    29721    29721    29718 
   29717    29721    29729    29743    29763    29778    29791    29816 
   29840    29849    29857    29871    29886    29898    29916    29936 
   29953    29974    29994    30013    30033    30049    30060    30060 
   30049    30032    30015    30007    29994    29967    29930    29897 
   29860    29822    29789    29755    29721    29690    29662    29646 
   29636    29635    29643    29659    29683    29712    29739    29767 
   29798    29828    29857    29891    29924    29952    29974    29997 
   30030    30065    30098    30133    30169    30200    30229    30267 
   30318    30369    30411    30453    30501    30547    30585    30622 
   30661    30699    30732    30761    30786    30797    30796    30793 
   30786    30771    30748    30721    30696    30663    30624    30588 
   30549    30492    30430    30379    30326    30262    30192    30125 
   30059    29988    29916    29853    29794    29727    29663    29613 
   29570    29531    29494    29459    29425    29397    29377    29366 
   29362    29362    29362    29370    29388    29409    29431    29461 
   29493    29528    29570    29616    29667    29724    29776    29824 
   29872    29916    29953    29987    30018    30051    30083    30115 
   30145    30171    30186    30190    30192    30187    30168    30149 
   30137    30118    30095    30075    30056    30028    29997    29974 
   29964    29956    29952    29959    29967    29971    29978    29990 
   30007    30028    30051    30075    30088    30090    30087    30088 
   30083    30060    30033    30017    30003    29990    29975    29963 
   29947    29932    29924    29920    29914    29914    29925    29943 
   29955    29963    29982    30003    30024    30052    30084    30110 
   30130    30149    30176    30206    30233    30262    30295    30319 
   30331    30346    30365    30381    30397    30415    30426    30427 
   30430    30441    30450    30451    30451    30454    30453    30447 
   30446    30447    30447    30443    30437    30427    30416    30406 
   30396    30391    30389    30379    30356    30337    30318    30291 
   30261    30237    30215    30191    30157    30117    30071    30018 
   29953    29882    29806    29725    29647    29560    29462    29365 
   29269    29166    29068    28981    28900    28825    28755    28695 
   28645    28606    28582    28571    28567    28575    28603    28652 
   28710    28772    28845    28926    29011    29106    29215    29334 
   29455    29578    29705    29837    29961    30076    30190    30292 
   30381    30462    30538    30604    30661    30707    30739    30761 
   30771    30778    30780    30770    30757    30736    30707    30678 
   30657    30632    30601    30569    30538    30518    30504    30488 
   30469    30454    30441    30429    30431    30446    30457    30465 
   30481    30497    30503    30501    30504    30508    30503    30488 
   30473    30453    30416    30379    30341    30292    30226    30152 
   30076    29997    29913    29830    29754    29678    29597    29516 
   29446    29385    29335    29297    29268    29246    29238    29238 
   29239    29251    29281    29324    29374    29428    29489    29556 
   29631    29701    29767    29829    29889    29948    30003    30049 
   30090    30126    30157    30181    30200    30218    30233    30245 
   30249    30238    30223    30207    30184    30157    30133    30106 
   30068    30024    29976    29926    29874    29818    29764    29717 
   29667    29616    29571    29529    29482    29434    29389    29353 
   29319    29289    29266    29241    29222    29215    29211    29207 
   29211    29215    29218    29220    29224    29226    29226    29227 
   29235    29250    29263    29281    29303    29326    29350    29371 
   29398    29436    29475    29515    29558    29600    29641    29683 
   29728    29775    29817    29855    29902    29957    30013    30069 
   30129    30186    30240    30292    30339    30376    30404    30422 
   30438    30454    30466    30474    30480    30483    30483    30474 
   30462    30446    30424    30399    30369    30330    30291    30256 
   30214    30165    30117    30069    30022    29979    29937    29898 
   29867    29841    29817    29793    29770    29748    29731    29714 
   29698    29683    29675    29673    29670    29666    29673    29690 
   29704    29717    29735    29755    29776    29795    29813    29832 
   29848    29864    29882    29894    29907    29932    29961    29987 
   30013    30044    30080    30114    30150    30198    30245    30292 
   30345    30404    30469    30531    30591    30646    30696    30738 
   30774    30800    30816    30825    30838    30851    30859    30859 
   30852    30834    30808    30786    30763    30723    30672    30619 
   30569    30524    30480    30431    30384    30339    30300    30269 
   30242    30218    30202    30190    30179    30157    30129    30103 
   30078    30049    30022    29995    29957    29913    29870    29828 
   29782    29732    29687    29641    29594    29552    29511    29469 
   29436    29415    29398    29385    29376    29384    29401    29420 
   29452    29497    29542    29590    29643    29698    29758    29817 
   29879    29940    29999    30059    30107    30145    30177    30208 
   30241    30265    30275    30276    30275    30268    30254    30240 
   30226    30213    30194    30180    30177    30172    30165    30165 
   30171    30183    30196    30214    30231    30245    30257    30276 
   30298    30318    30338    30357    30380    30408    30435    30458 
   30481    30507    30532    30547    30554    30562    30562    30555 
   30551    30543    30522    30491    30457    30422    30385    30350 
   30316    30281    30242    30200    30157    30114    30064    30014 
   29971    29929    29887    29849    29817    29785    29751    29720 
   29693    29667    29646    29629    29620    29609    29592    29570 
   29546    29521    29497    29471    29447    29425    29400    29373 
   29346    29322    29304    29288    29269    29255    29249    29241 
   29231    29226    29223    29219    29220    29230    29243    29262 
   29289    29323    29355    29393    29440    29490    29540    29594 
   29655    29710    29762    29806    29848    29895    29938    29972 
   30007    30037    30061    30080    30096    30107    30119    30136 
   30152    30156    30156    30160    30159    30152    30148    30152 
   30153    30152    30152    30157    30165    30173    30177    30186 
   30202    30223    30244    30257    30271    30288    30302    30314 
   30327    30333    30331    30331    30326    30314    30296    30276 
   30248    30208    30164    30113    30052    29986    29916    29839 
   29759    29683    29606    29535    29474    29423    29380    29344 
   29317    29299    29290    29293    29311    29340    29377    29420 
   29470    29519    29570    29621    29666    29710    29758    29799 
   29836    29867    29893    29910    29924    29937    29952    29968 
   29987    30006    30021    30040    30065    30094    30122    30153 
   30180    30208    30240    30272    30307    30345    30380    30414 
   30443    30470    30495    30518    30541    30562    30580    30597 
   30612    30628    30642    30651    30665    30677    30685    30692 
   30696    30701    30701    30692    30680    30665    30650    30636 
   30623    30611    30597    30584    30577    30569    30555    30545 
   30538    30534    30526    30512    30500    30493    30488    30478 
   30470    30466    30465    30461    30457    30453    30446    30438 
   30429    30414    30393    30377    30361    30337    30307    30277 
   30246    30211    30171    30138    30105    30069    30037    30009 
   29983    29965    29956    29952    29952    29955    29960    29970 
   29982    29998    30014    30033    30055    30080    30100    30111 
   30119    30130    30132    30126    30122    30109    30086    30059 
   30029    29998    29963    29922    29876    29830    29789    29749 
   29709    29670    29632    29602    29581    29566    29554    29542 
   29533    29528    29531    29539    29552    29571    29592    29613 
