Origin Time       2025/01/13 21:19:00
Lat.              31.8
Long.             131.6
Depth. (km)       30
Mag.              6.9
Station Code      OKYH13
Station Lat.      34.7283
Station Long.     134.2744
Station Height(m) 2.83
Record Time       2025/01/13 21:21:02
Sampling Freq(Hz) 100Hz
Duration Time(s)  120
Dir.              4
Scale Factor      7845(gal)/8223790
Max. Acc. (gal)   0.480
Last Correction   2025/01/13 21:21:03
Memo.             
[...]
   31953    31962    31976    31981    31986    32013    32046    32057 
   32063    32077    32085    32090    32101    32109    32116    32120 
   32123    32125    32130    32130    32121    32124    32132    32130 
   32121    32121    32124    32128    32124    32113    32104    32103 
   32103    32103    32105    32104    32097    32094    32100    32104 
   32104    32108    32119    32128    32140    32154    32157    32151 
   32151    32158    32163    32175    32196    32201    32194    32194 
   32206    32211    32208    32216    32231    32240    32244    32251 
   32259    32259    32258    32263    32267    32265    32258    32251 
   32235    32212    32189    32166    32150    32140    32130    32112 
   32086    32050    32015    31986    31957    31930    31903    31866 
   31828    31801    31769    31735    31711    31688    31662    31649 
   31639    31626    31615    31606    31592    31581    31575    31568 
   31561    31556    31554    31556    31561    31575    31591    31602 
   31614    31631    31656    31689    31716    31727    31733    31749 
   31768    31788    31810    31822    31828    31838    31847    31851 
   31851    31845    31833    31831    31839    31853    31862    31854 
   31826    31799    31781    31770    31757    31745    31738    31730 
   31719    31710    31698    31681    31671    31669    31665    31661 
   31664    31675    31679    31680    31692    31706    31712    31729 
   31746    31757    31768    31788    31816    31843    31864    31881 
   31899    31919    31947    31973    31992    32005    32015    32024 
   32028    32028    32035    32038    32034    32035    32040    32039 
   32034    32034    32040    32046    32043    32035    32026    32012 
   31995    31974    31946    31908    31872    31838    31812    31785 
   31750    31722    31695    31662    31635    31618    31602    31585 
   31575    31572    31565    31554    31552    31550    31548    31548 
   31550    31561    31577    31595    31607    31621    31645    31675 
   31700    31720    31737    31749    31761    31779    31807    31833 
   31849    31862    31873    31884    31900    31923    31942    31950 
   31947    31939    31936    31935    31923    31908    31903    31895 
   31887    31891    31897    31900    31903    31908    31920    31931 
   31931    31924    31915    31908    31909    31908    31901    31904 
   31899    31878    31864    31854    31842    31831    31818    31806 
   31795    31779    31762    31743    31727    31719    31710    31699 
   31700    31704    31700    31692    31684    31679    31677    31671 
   31668    31672    31671    31668    31673    31676    31675    31675 
   31676    31687    31703    31716    31730    31737    31742    31760 
   31781    31801    31826    31858    31892    31919    31939    31958 
   31985    32013    32036    32051    32069    32081    32077    32070 
   32071    32066    32059    32057    32054    32046    32032    32022 
   32017    32008    31989    31972    31954    31926    31900    31881 
   31857    31833    31820    31807    31788    31772    31758    31746 
   31738    31733    31729    31723    31723    31727    31726    31725 
   31733    31738    31733    31725    31720    31722    31729    31741 
   31762    31787    31811    31843    31877    31899    31918    31949 
   31986    32015    32038    32061    32082    32097    32115    32130 
   32134    32134    32135    32131    32121    32117    32117    32117 
   32107    32096    32085    32071    32058    32050    32040    32028 
   32015    31995    31970    31947    31919    31889    31862    31833 
   31795    31756    31719    31680    31639    31604    31581    31553 
   31522    31510    31507    31496    31488    31492    31496    31494 
   31492    31503    31519    31531    31546    31567    31590    31612 
   31635    31662    31687    31712    31741    31762    31777    31792 
   31811    31826    31833    31837    31850    31870    31891    31908 
   31920    31928    31931    31930    31931    31936    31943    31945 
   31947    31954    31954    31943    31928    31920    31914    31905 
   31897    31888    31873    31861    31858    31857    31857    31860 
   31860    31869    31885    31892    31900    31914    31920    31923 
   31922    31916    31905    31895    31884    31876    31862    31853 
   31853    31854    31847    31841    31837    31830    31816    31806 
   31801    31796    31787    31772    31752    31733    31715    31692 
   31669    31649    31631    31618    31607    31595    31577    31556 
   31537    31522    31504    31490    31483    31479    31468    31452 
   31432    31406    31384    31376    31374    31371    31367    31359 
   31356    31365    31379    31391    31398    31407    31426    31445 
   31468    31491    31511    31540    31577    31615    31653    31691 
   31723    31754    31791    31831    31870    31901    31932    31961 
   31981    31999    32016    32031    32044    32053    32049    32039 
   32031    32032    32038    32035    32026    32019    32005    31986 
   31963    31934    31901    31868    31839    31818    31800    31784 
   31765    31738    31722    31725    31726    31722    31720    31722 
   31723    31734    31752    31769    31780    31789    31801    31818 
   31837    31857    31878    31903    31923    31945    31968    31988 
   32013    32040    32058    32078    32105    32131    32162    32194 
   32219    32233    32244    32248    32254    32269    32277    32279 
   32290    32306    32316    32325    32331    32320    32296    32273 
   32250    32224    32200    32175    32147    32121    32103    32078 
   32054    32039    32028    32016    32007    31986    31954    31927 
   31908    31892    31880    31877    31878    31876    31869    31865 
   31862    31862    31858    31846    31835    31833    31826    31823 
   31824    31814    31803    31801    31797    31793    31791    31787 
   31784    31783    31774    31764    31754    31749    31743    31738 
   31733    31733    31733    31733    31734    31727    31712    31710 
   31719    31723    31726    31722    31712    31699    31685    31675 
   31664    31649    31644    31644    31637    31626    31619    31617 
   31621    31625    31630    31637    31645    31654    31664    31679 
   31702    31727    31753    31777    31810    31847    31873    31889 
   31907    31934    31961    31981    31996    32015    32034    32044 
   32054    32069    32084    32092    32098    32103    32103    32107 
   32113    32116    32117    32117    32113    32108    32098    32081 
   32063    32042    32007    31973    31950    31924    31888    31847 
   31814    31783    31743    31699    31669    31644    31617    31588 
   31558    31530    31514    31499    31476    31463    31457    31445 
   31426    31415    31411    31406    31401    31407    31419    31429 
   31426    31423    31430    31442    31455    31467    31486    31513 
   31536    31553    31569    31583    31594    31608    31625    31637 
   31650    31665    31673    31679    31691    31708    31725    31742 
   31756    31765    31780    31799    31811    31819    31826    31834 
   31843    31853    31864    31882    31899    31905    31908    31911 
   31914    31926    31942    31954    31970    31988    31992    31989 
   31996    32003    32001    32001    32004    32003    31993    31984 
   31969    31953    31939    31926    31905    31882    31858    31828 
   31797    31766    31734    31706    31691    31681    31661    31639 
   31626    31612    31600    31592    31580    31569    31563    31558 
   31557    31554    31554    31558    31557    31549    31546    31546 
   31546    31545    31548    31556    31563    31568    31569    31567 
   31572    31581    31590    31594    31595    31604    31621    31634 
   31645    31660    31680    31700    31720    31741    31757    31773 
   31793    31811    31826    31846    31873    31892    31905    31927 
   31954    31973    31988    32011    32038    32062    32086    32117 
   32148    32169    32181    32200    32221    32243    32266    32278 
   32277    32271    32262    32252    32243    32232    32219    32208 
   32197    32179    32157    32130    32108    32088    32066    32055 
   32055    32053    32053    32055    32059    32061    32069    32074 
   32073    32080    32090    32092    32096    32104    32098    32094 
   32097    32090    32082    32082    32085    32086    32090    32098 
   32105    32108    32108    32104    32098    32097    32093    32084 
   32076    32073    32067    32053    32035    32017    31996    31973 
   31957    31939    31923    31914    31907    31899    31892    31880 
   31869    31865    31860    31849    31834    31822    31808    31791 
   31776    31762    31749    31745    31750    31753    31757    31760 
   31754    31746    31746    31750    31743    31733    31739    31754 
   31760    31761    31768    31773    31773    31770    31761    31753 
   31760    31772    31779    31788    31800    31811    31824    31835 
   31841    31850    31869    31881    31892    31907    31916    31920 
   31927    31931    31928    31923    31923    31930    31934    31931 
   31922    31909    31908    31912    31908    31905    31903    31893 
   31885    31878    31870    31865    31862    31850    31834    31816 
   31796    31776    31753    31723    31698    31672    31646    31626 
   31603    31577    31554    31537    31517    31500    31490    31487 
   31482    31477    31473    31465    31455    31450    31450    31453 
   31457    31460    31468    31473    31473    31479    31488    31492 
   31502    31517    31533    31549    31564    31581    31596    31602 
   31604    31617    31630    31642    31652    31657    31661    31665 
   31676    31691    31699    31706    31720    31733    31738    31743 
   31749    31752    31754    31762    31773    31783    31797    31816 
   31835    31850    31857    31868    31882    31895    31908    31926 
   31935    31942    31954    31961    31961    31962    31969    31969 
   31959    31951    31945    31938    31935    31930    31923    31922 
   31920    31914    31908    31904    31899    31889    31878    31873 
   31869    31865    31861    31855    31850    31847    31846    31846 
   31853    31864    31872    31876    31878    31888    31905    31930 
   31951    31965    31972    31978    31988    31996    32003    32009 
   32016    32020    32019    32017    32022    32030    32038    32047 
   32057    32063    32070    32076    32085    32097    32101    32100 
   32098    32098    32097    32090    32076    32059    32043    32027 
   32009    31997    31986    31966    31938    31912    31892    31872 
   31849    31823    31800    31776    31752    31734    31720    31706 
   31698    31687    31669    31657    31650    31646    31644    31642 
   31637    31634    31637    31642    31648    31654    31660    31664 
   31672    31685    31693    31706    31719    31725    31735    31752 
   31758    31768    31789    31810    31820    31831    31845    31864 
   31884    31903    31923    31942    31955    31963    31974    31984 
   31992    31996    31995    31992    31986    31978    31966    31955 
   31950    31939    31927    31911    31895    31878    31862    31847 
   31837    31834    31826    31812    31801    31793    31784    31769 
   31754    31743    31735    31727    31719    31722    31725    31715 
   31704    31702    31700    31699    31699    31700    31703    31706 
   31707    31707    31707    31706    31703    31702    31702    31691 
   31671    31653    31642    31633    31622    31610    31603    31602 
   31596    31588    31583    31580    31576    31565    31554    31550 
   31552    31552    31552    31548    31542    31542    31544    31542 
   31546    31553    31556    31554    31556    31557    31560    31561 
   31563    31568    31569    31571    31584    31610    31630    31638 
   31648    31666    31687    31706    31718    31722    31729    31742 
   31757    31770    31784    31795    31806    31822    31841    31858 
   31872    31884    31895    31903    31912    31923    31936    31954 
   31968    31969    31974    31995    32007    32011    32019    32023 
   32026    32034    32035    32031    32034    32044    32050    32053 
   32054    32054    32055    32055    32047    32034    32019    32009 
   32007    31999    31986    31982    31980    31970    31959    31951 
   31943    31935    31926    31915    31896    31874    31853    31831 
   31808    31777    31746    31723    31702    31677    31652    31629 
   31610    31592    31572    31556    31541    31519    31499    31487 
   31475    31467    31464    31461    31459    31460    31460    31465 
   31476    31483    31488    31496    31498    31496    31500    31514 
   31531    31549    31569    31588    31606    31626    31648    31665 
   31679    31692    31707    31720    31729    31737    31750    31761 
   31769    31780    31783    31773    31766    31760    31750    31741 
   31729    31719    31716    31714    31711    31716    31718    31707 
   31696    31695    31687    31676    31679    31685    31683    31683 
   31689    31696    31711    31729    31745    31761    31776    31791 
   31807    31824    31843    31862    31888    31918    31949    31980 
   32005    32032    32058    32085    32113    32140    32163    32186 
   32204    32221    32246    32270    32285    32293    32302    32310 
   32316    32321    32328    32332    32332    32333    32332    32325 
   32324    32329    32328    32320    32313    32306    32297    32285 
   32271    32256    32246    32238    32225    32211    32194    32182 
   32170    32161    32151    32135    32112    32097    32088    32074 
   32054    32030    32005    31982    31965    31946    31926    31911 
   31899    31878    31855    31837    31816    31799    31783    31764 
   31743    31723    31706    31680    31648    31622    31604    31587 
   31567    31548    31525    31506    31490    31475    31463    31455 
   31441    31432    31433    31428    31415    31409    31410    31411 
   31411    31418    31433    31448    31459    31467    31475    31495 
   31515    31530    31549    31567    31585    31608    31626    31639 
   31654    31668    31684    31699    31706    31714    31725    31734 
   31738    31742    31749    31754    31757    31760    31761    31761 
   31761    31761    31761    31760    31756    31749    31743    31739 
   31735    31735    31737    31738    31738    31745    31752    31753 
   31756    31761    31765    31766    31769    31768    31765    31768 
   31773    31772    31770    31777    31779    31776    31780    31784 
   31781    31781    31787    31791    31795    31793    31791    31795 
   31797    31788    31784    31788    31783    31779    31781    31781 
   31776    31773    31773    31769    31760    31753    31753    31757 
   31762    31765    31762    31762    31764    31766    31772    31779 
   31785    31793    31804    31812    31816    31820    31827    31834 
   31839    31846    31851    31858    31866    31880    31887    31887 
   31888    31892    31899    31905    31907    31908    31914    31919 
   31924    31930    31934    31935    31935    31932    31928    31927 
   31927    31928    31930    31930    31931    31932    31927    31923 
   31916    31901    31891    31889    31884    31874    31869    31861 
   31850    31841    31837    31831    31823    31815    31811    31811 
   31812    31815    31819    31826    31835    31849    31860    31866 
   31872    31880    31889    31903    31915    31926    31936    31950 
   31965    31980    31996    32011    32023    32031    32040    32055 
   32071    32078    32080    32082    32084    32084    32090    32101 
   32105    32107    32111    32113    32117    32116    32108    32101 
   32098    32089    32073    32058    32044    32030    32015    31999 
   31978    31955    31939    31926    31909    31891    31872    31855 
   31835    31815    31801    31791    31776    31765    31754    31738 
   31723    31711    31702    31699    31699    31696    31698    31703 
   31706    31712    31723    31730    31739    31754    31764    31772 
   31789    31806    31822    31838    31851    31869    31888    31897 
   31909    31932    31951    31962    31972    31976    31977    31980 
   31980    31981    31984    31982    31978    31974    31973    31968 
   31957    31945    31930    31914    31903    31896    31888    31877 
   31868    31851    31834    31816    31797    31777    31760    31743 
   31730    31718    31704    31687    31675    31665    31660    31658 
   31657    31653    31650    31648    31648    31650    31652    31649 
   31646    31648    31650    31656    31665    31680    31692    31702 
   31711    31720    31729    31738    31747    31756    31765    31773 
   31776    31781    31796    31806    31812    31822    31833    31842 
   31847    31849    31849    31853    31860    31864    31865    31865 
   31865    31865    31864    31862    31858    31854    31858    31865 
   31868    31868    31872    31873    31876    31887    31900    31912 
   31924    31930    31928    31930    31936    31943    31947    31951 
   31955    31957    31957    31963    31970    31969    31969    31974 
   31980    31981    31981    31982    31980    31966    31954    31946 
   31938    31931    31927    31916    31897    31881    31865    31847 
   31828    31812    31799    31784    31769    31757    31742    31729 
   31723    31718    31714    31715    31722    31727    31729    31735 
   31743    31752    31764    31779    31796    31819    31842    31864 
   31884    31901    31916    31932    31951    31968    31986    32004 
   32012    32019    32032    32043    32050    32057    32061    32063 
   32063    32066    32071    32073    32069    32062    32055    32050 
   32040    32026    32011    31992    31970    31951    31935    31920 
   31907    31892    31874    31855    31839    31826    31810    31792 
   31780    31768    31752    31738    31726    31710    31695    31683 
   31669    31654    31639    31626    31617    31611    31607    31600 
   31591    31584    31583    31579    31576    31580    31583    31584 
   31585    31594    31603    31607    31617    31629    31639    31653 
   31673    31693    31711    31727    31745    31761    31776    31793 
   31815    31833    31853    31876    31891    31899    31912    31922 
   31924    31932    31943    31943    31941    31943    31941    31935 
   31934    31932    31928    31927    31926    31919    31909    31900 
   31892    31881    31865    31847    31835    31824    31814    31803 
   31789    31774    31762    31747    31735    31730    31726    31719 
   31718    31716    31715    31715    31714    31718    31729    31741 
   31756    31772    31783    31793    31812    31831    31849    31868 
   31884    31900    31916    31928    31939    31950    31955    31958 
   31963    31972    31981    31990    31995    31992    31989    31995 
   32000    32001    32001    31996    31984    31974    31970    31966 
   31961    31954    31945    31936    31930    31916    31900    31885 
   31872    31857    31842    31830    31819    31806    31793    31784 
   31779    31773    31768    31768    31770    31772    31776    31785 
