Origin Time       2025/01/13 21:19:00
Lat.              31.8
Long.             131.6
Depth. (km)       30
Mag.              6.9
Station Code      OKYH03
Station Lat.      34.7783
Station Long.     133.7890
Station Height(m) 100
Record Time       2025/01/13 21:20:56
Sampling Freq(Hz) 100Hz
Duration Time(s)  120
Dir.              5
Scale Factor      7845(gal)/8223790
Max. Acc. (gal)   0.730
Last Correction   2025/01/13 21:20:57
Memo.             
[...]
     996     1036     1061     1058     1036      986      893      805 
     783      803      815      828      857      888      958     1081 
    1170     1170     1136     1128     1151     1179     1162     1092 
    1032     1036     1074     1092     1085     1067     1031      972 
     907      864      846      859      918      980      981      913 
     819      751      751      824      936     1065     1170     1210 
    1202     1185     1177     1181     1166     1108     1024      911 
     791      731      743      792      839      830      751      679 
     664      693      777      915     1063     1178     1227     1200 
    1139     1097     1109     1183     1264     1277     1219     1139 
    1066      993      938      945     1011     1080     1128     1142 
    1115     1077     1036      976      907      839      787      796 
     866      931      973     1044     1147     1216     1194     1089 
     962      891      908      992     1080     1136     1175     1182 
    1104      946      788      722      772      849      855      807 
     765      753      760      777      812      874      988     1124 
    1217     1264     1320     1379     1440     1487     1451     1317 
    1166     1034      880      711      596      585      669      792 
     888      938      988     1071     1167     1232     1225     1155 
    1082     1050     1036     1026     1048     1123     1216     1285 
    1289     1232     1173     1142     1108     1062     1019      986 
     986     1007     1019     1040     1062     1036      969      912 
     877      850      851      923     1046     1151     1221     1247 
    1239     1242     1243     1202     1150     1142     1196     1269 
    1290     1219     1113     1062     1073     1073     1015      938 
     905      884      796      697      703      820      973     1104 
    1177     1201     1208     1182     1120     1065     1057     1090 
    1125     1124     1092     1067     1077     1084     1058     1008 
     957      934      939      932      899      893      947     1021 
    1085     1162     1260     1341     1371     1343     1273     1183 
    1084     1003     1000     1108     1283     1437     1499     1460 
    1359     1242     1155     1135     1156     1179     1205     1216 
    1177     1135     1161     1219     1254     1252     1200     1100 
     973      822      696      668      745      865      976     1044 
    1043      982      891      796      776      889     1082     1244 
    1323     1329     1301     1256     1181     1109     1093     1109 
    1121     1121     1084     1013      982     1021     1090     1161 
    1232     1274     1244     1138      997      880      805      768 
     765      804      880      970     1042     1089     1117     1101 
    1028      950      949     1046     1171     1243     1260     1266 
    1250     1179     1077     1017     1046     1116     1152     1117 
    1019      930      915      953      982      978      970      973 
     953      891      822      788      805      876      949      963 
     949      961      970      920      850      842      896      955 
     985      989      990     1000     1023     1057     1077     1084 
    1094     1108     1119     1125     1113     1080     1065     1097 
    1147     1173     1188     1212     1213     1147     1000      828 
     714      660      615      581      596      660      746      845 
     946     1026     1082     1131     1156     1165     1200     1258 
    1274     1213     1105     1007      955      946      947      949 
     961      992     1028     1058     1053      969      815      679 
     637      673      749      865      997     1081     1078      994 
     904      874      900      972     1086     1217     1337     1389 
    1317     1182     1085     1038     1008     1009     1040     1061 
    1043      994      962      970      980     1011     1120     1225 
    1227     1175     1135     1098     1082     1077     1048     1023 
    1023      999      934      882      873      880      881      908 
     984     1061     1070     1012      958      936      919      904 
     940     1035     1100     1086     1028      980      974      999 
    1008      993      974      963      955      939      913      901 
     922      989     1085     1151     1155     1135     1128     1121 
    1094     1061     1038     1026     1021     1005      980      981 
    1024     1092     1147     1155     1120     1058      961      842 
     773      792      870      969     1046     1075     1069     1023 
     915      787      734      808      954     1088     1178     1221 
    1217     1194     1156     1115     1112     1161     1205     1209 
    1173     1128     1105     1066      990      946      974     1017 
    1007      943      882      892      955      997      992      963 
     940      940      951      957      970     1009     1061     1088 
    1059     1012     1017     1062     1065     1053     1080     1089 
    1044     1017     1048     1088     1077     1012      927      870 
     857      868      903      961     1028     1086     1108     1073 
    1026     1007      994      981      993     1030     1047     1020 
     985      990     1021     1019      977      934      884      812 
     757      772      838      904      962     1013     1028     1005 
     985      999     1050     1121     1189     1229     1228     1155 
    1016      889      838      847      859      850      846      859 
     865      857      845      841      865      899      907      900 
     893      881      866      861      878      923      977     1008 
     997      959      927      911      899      878      849      828 
     837      846      832      832      862      900      947     1030 
    1117     1159     1155     1125     1078     1051     1075     1146 
    1229     1274     1242     1144     1030      945      908      908 
     935      988     1043     1074     1085     1105     1127     1109 
    1074     1077     1097     1094     1092     1104     1115     1128 
    1152     1170     1171     1154     1089      972      850      770 
     737      737      760      805      876      940      959      950 
     950      966      984     1005     1053     1109     1138     1143 
    1151     1161     1174     1171     1138     1084     1028     1021 
    1081     1143     1175     1217     1278     1323     1335     1339 
    1375     1432     1468     1474     1459     1433     1416     1416 
    1435     1452     1441     1391     1323     1259     1212     1194 
    1219     1263     1305     1332     1343     1354     1364     1372 
    1386     1402     1401     1390     1374     1339     1301     1277 
    1231     1148     1071     1026     1005     1013     1061     1128 
    1169     1155     1082      990      947      962      973      977 
    1001     1005      953      880      837      832      843      846 
     834      796      718      612      510      433      409      436 
     472      483      467      433      411      438      514      612 
     727      832      907      955      988     1003     1005      999 
     981      959      926      868      796      737      699      670 
     661      679      711      745      765      742      687      662 
     695      743      773      805      864      934      989     1026 
    1063     1107     1127     1123     1127     1127     1109     1085 
    1063     1040     1020     1005     1004     1026     1080     1152 
    1205     1220     1217     1198     1155     1094     1030      999 
    1020     1040     1027     1015     1026     1053     1093     1119 
    1113     1089     1050     1020     1019     1031     1046     1065 
    1085     1090     1069     1044     1039     1046     1061     1080 
    1094     1115     1147     1174     1190     1212     1223     1186 
    1121     1098     1127     1143     1124     1094     1065     1034 
     994      955      939      943      953      958      957      950 
     922      868      834      827      811      787      776      769 
     758      758      783      814      832      855      886      918 
     954     1005     1062     1088     1050      976      912      865 
     851      889      965     1065     1159     1190     1144     1080 
    1042     1038     1046     1057     1071     1071     1050     1050 
    1092     1131     1134     1120     1113     1101     1065     1024 
    1008      997      984      982      990      997      989      970 
     958      959      972      999     1024     1028     1031     1048 
    1042      993      946      946      988     1027     1032     1021 
    1023     1019      972      900      869      888      927      970 
     994      988      962      926      878      841      847      903 
     973     1047     1127     1201     1259     1289     1286     1266 
    1246     1228     1223     1223     1204     1144     1071     1032 
    1039     1067     1080     1057     1013      976      932      891 
     896      949     1004     1038     1016      926      810      706 
     627      585      591      631      693      761      819      869 
     916      953      976      993     1000     1008     1030     1043 
    1030      990      931      870      834      826      845      882 
     908      885      822      757      719      704      708      729 
     766      818      865      900      924      931      915      880 
     828      769      727      700      669      641      627      631 
     675      750      810      830      847      882      920      981 
    1086     1194     1258     1278     1267     1228     1173     1121 
    1090     1081     1061     1004      928      866      820      788 
     796      845      891      919      953     1012     1077     1113 
    1144     1212     1294     1358     1416     1476     1533     1576 
    1588     1582     1587     1595     1576     1528     1448     1350 
    1271     1229     1209     1208     1205     1181     1138     1090 
    1044     1009      997     1016     1058     1089     1096     1096 
    1104     1111     1117     1151     1206     1247     1250     1215 
    1159     1105     1066     1070     1116     1165     1194     1208 
    1204     1186     1165     1136     1108     1086     1050      988 
     918      865      839      845      872      926      996     1042 
    1057     1062     1059     1054     1063     1097     1148     1201 
    1228     1204     1132     1044      959      893      853      816 
     765      718      696      696      703      707      726      778 
     837      877      911      938      962     1019     1115     1217 
    1296     1325     1296     1236     1174     1117     1084     1077 
    1071     1046     1015      996      994     1000     1013     1048 
    1096     1125     1134     1140     1152     1165     1174     1169 
    1135     1077     1016      961      901      828      750      687 
     643      616      618      652      718      818      920     1004 
    1077     1134     1171     1208     1252     1282     1278     1247 
    1198     1129     1051      978      927      896      876      862 
     851      846      834      796      747      696      649      626 
     626      627      626      626      633      645      654      662 
     693      741      777      805      845      893      940      997 
    1067     1142     1204     1239     1247     1231     1185     1116 
    1032      938      864      837      835      841      855      884 
     923      970     1008     1021     1012     1008     1021     1030 
    1016     1001     1008     1027     1039     1053     1092     1143 
    1165     1152     1132     1111     1086     1054     1012      973 
     947      939      943      943      935      928      923      909 
     882      853      822      789      776      783      795      807 
     826      843      853      858      855      834      808      799 
     800      800      793      781      768      753      733      724 
     751      804      859      912      945      947      938      946 
     984     1034     1078     1117     1142     1140     1131     1129 
    1138     1148     1151     1125     1073      993      909      857 
     838      831      843      873      905      945     1000     1050 
    1094     1155     1243     1335     1402     1437     1451     1449 
    1439     1422     1417     1439     1480     1501     1479     1424 
    1350     1271     1206     1158     1119     1082     1054     1040 
    1039     1042     1040     1044     1050     1034      988      947 
     939      953      961      940      893      845      792      724 
     662      641      656      692      738      765      746      703 
     657      607      569      554      550      560      580      594 
     612      661      739      831      905      959     1012     1057 
    1073     1062     1026      963      873      757      637      544 
     502      507      542      571      565      521      459      405 
     375      373      407      476      561      635      687      716 
     739      778      850      943     1039     1115     1159     1190 
    1224     1262     1309     1368     1417     1440     1444     1426 
    1397     1371     1366     1404     1489     1590     1674     1734 
    1769     1779     1772     1765     1763     1734     1664     1580 
    1520     1479     1458     1459     1467     1459     1436     1399 
    1347     1286     1227     1181     1163     1178     1209     1215 
    1173     1100     1019      936      864      820      804      799 
     796      795      787      772      756      741      729      724 
     720      710      703      704      699      693      707      737 
     761      764      762      785      830      895      966     1004 
    1009     1001      988      977      970      972      985      992 
     984      982      990     1001     1016     1053     1119     1209 
    1316     1421     1503     1557     1584     1582     1549     1482 
    1381     1282     1220     1185     1155     1135     1139     1177 
    1251     1332     1387     1413     1409     1382     1339     1286 
    1236     1185     1124     1054      993      945      905      882 
     891      915      935      950      970      996     1019     1031 
    1043     1057     1065     1048      993      916      845      772 
     687      611      564      556      576      599      619      646 
     670      670      654      642      634      621      614      618 
     623      610      588      589      619      660      712      788 
     872      934      970      988     1004     1028     1054     1067 
    1075     1094     1107     1089     1062     1054     1078     1135 
    1208     1271     1306     1320     1318     1291     1256     1240 
    1239     1243     1251     1254     1233     1178     1100     1020 
     940      851      756      668      602      557      514      469 
     453      461      473      500      548      598      634      656 
     665      676      696      727      780      843      889      908 
     912      897      849      769      672      565      457      378 
     341      329      330      349      384      418      456      515 
     599      689      766      816      845      873      909      949 
     984     1001      997      977      957      951      947      953 
     993     1053     1105     1162     1233     1318     1421     1528 
    1614     1661     1678     1669     1655     1645     1642     1648 
    1665     1679     1657     1598     1521     1451     1390     1333 
    1291     1263     1244     1221     1188     1165     1169     1169 
    1135     1078     1021      970      927      899      895      912 
     950     1003     1042     1059     1070     1071     1055     1035 
    1024     1026     1032     1042     1063     1096     1134     1171 
    1208     1246     1290     1341     1387     1431     1476     1510 
    1516     1503     1493     1480     1460     1433     1414     1409 
    1398     1372     1347     1336     1337     1347     1356     1367 
    1383     1387     1366     1331     1306     1298     1304     1317 
    1343     1374     1389     1377     1340     1281     1215     1155 
    1096     1030      963      909      868      822      770      729 
     706      697      699      719      751      792      831      858 
     868      865      859      853      849      839      820      797 
     778      768      753      731      718      714      700      669 
     630      608      611      637      696      788      884      958 
     997     1003      996      986      977      966      953      934 
     907      865      827      807      800      792      777      756 
     739      722      696      672      656      657      685      734 
     783      823      868      919      966     1005     1044     1075 
    1098     1115     1121     1124     1135     1161     1204     1250 
    1273     1273     1267     1255     1225     1174     1111     1055 
    1007      957      911      874      853      857      888      930 
     981     1032     1065     1080     1098     1116     1112     1092 
    1077     1080     1096     1109     1121     1132     1135     1128 
    1128     1152     1197     1246     1293     1337     1359     1355 
    1340     1324     1317     1335     1368     1405     1437     1444 
    1416     1371     1332     1296     1259     1229     1205     1170 
    1109     1032      963      912      882      870      859      854 
     841      795      727      670      649      657      668      677 
     687      684      666      646      639      653      677      693 
     700      702      702      716      760      823      899      976 
    1048     1119     1171     1200     1212     1213     1193     1155 
    1115     1075     1031      985      950      936      949      973 
     990     1001     1004      993      977      976      994     1038 
    1100     1147     1162     1163     1167     1169     1166     1150 
    1119     1089     1058     1013      966      939      935      950 
     982     1015     1035     1042     1043     1040     1036     1023 
    1007     1004     1019     1036     1038     1016      980      947 
     924      915      938      996     1047     1071     1077     1073 
    1070     1077     1088     1113     1161     1205     1227     1216 
    1178     1132     1097     1078     1073     1063     1036      992 
     936      886      855      853      872      896      907      905 
     901      904      913      931      973     1031     1066     1071 
    1062     1036     1011     1011     1030     1048     1061     1069 
    1063     1048     1038     1030     1009      989      976      947 
     911      889      881      892      922      955      978      989 
     992      992      982      965      955      965      980      999 
    1023     1040     1046     1055     1074     1093     1104     1117 
    1139     1151     1139     1113     1090     1071     1061     1069 
    1092     1109     1111     1101     1078     1051     1036     1031 
