Origin Time       2025/01/13 21:19:00
Lat.              31.8
Long.             131.6
Depth. (km)       30
Mag.              6.9
Station Code      OKYH09
Station Lat.      35.1809
Station Long.     133.6765
Station Height(m) 305
Record Time       2025/01/13 21:21:29
Sampling Freq(Hz) 100Hz
Duration Time(s)  120
Dir.              3
Scale Factor      2942(gal)/8224139
Max. Acc. (gal)   0.484
Last Correction   2025/01/13 21:21:30
Memo.             
[...]
  -49330   -49333   -49334   -49341   -49345   -49343   -49341   -49342 
  -49349   -49351   -49351   -49351   -49347   -49338   -49329   -49322 
  -49311   -49292   -49275   -49261   -49250   -49241   -49231   -49218 
  -49199   -49176   -49157   -49142   -49130   -49121   -49110   -49090 
  -49068   -49045   -49026   -49017   -49013   -49014   -49017   -49018 
  -49022   -49027   -49029   -49029   -49027   -49030   -49032   -49032 
  -49037   -49050   -49061   -49065   -49068   -49077   -49091   -49104 
  -49118   -49138   -49165   -49199   -49239   -49284   -49327   -49369 
  -49396   -49415   -49438   -49453   -49458   -49468   -49478   -49478 
  -49476   -49473   -49469   -49464   -49457   -49446   -49438   -49431 
  -49419   -49407   -49397   -49384   -49372   -49366   -49361   -49349 
  -49335   -49324   -49324   -49327   -49324   -49322   -49318   -49306 
  -49297   -49296   -49293   -49295   -49296   -49289   -49280   -49268 
  -49252   -49238   -49226   -49214   -49204   -49196   -49187   -49180 
  -49171   -49157   -49148   -49140   -49126   -49115   -49113   -49118 
  -49121   -49118   -49115   -49115   -49111   -49103   -49096   -49095 
  -49095   -49094   -49094   -49102   -49117   -49127   -49130   -49134 
  -49145   -49157   -49168   -49176   -49184   -49189   -49187   -49180 
  -49173   -49167   -49164   -49164   -49156   -49146   -49133   -49111 
  -49094   -49083   -49075   -49068   -49068   -49071   -49069   -49071 
  -49083   -49100   -49114   -49129   -49145   -49153   -49156   -49165 
  -49175   -49179   -49180   -49185   -49195   -49206   -49218   -49235 
  -49252   -49265   -49275   -49281   -49292   -49308   -49327   -49347 
  -49364   -49374   -49384   -49392   -49396   -49396   -49388   -49377 
  -49370   -49364   -49358   -49360   -49368   -49373   -49369   -49368 
  -49372   -49370   -49362   -49354   -49349   -49343   -49331   -49312 
  -49292   -49275   -49262   -49256   -49254   -49253   -49250   -49249 
  -49252   -49256   -49270   -49291   -49310   -49322   -49329   -49333 
  -49331   -49331   -49333   -49337   -49334   -49323   -49312   -49311 
  -49316   -49319   -49320   -49320   -49319   -49316   -49311   -49310 
  -49308   -49300   -49292   -49287   -49284   -49285   -49283   -49276 
  -49275   -49268   -49252   -49231   -49211   -49194   -49181   -49173 
  -49168   -49162   -49156   -49150   -49142   -49137   -49134   -49129 
  -49126   -49134   -49145   -49153   -49160   -49168   -49176   -49185 
  -49200   -49215   -49229   -49241   -49252   -49257   -49256   -49254 
  -49260   -49262   -49262   -49268   -49273   -49277   -49283   -49293 
  -49307   -49322   -49333   -49335   -49337   -49342   -49349   -49356 
  -49357   -49356   -49358   -49360   -49350   -49338   -49327   -49312 
  -49297   -49283   -49264   -49243   -49223   -49208   -49198   -49189 
  -49181   -49172   -49156   -49137   -49123   -49115   -49104   -49092 
  -49084   -49083   -49088   -49098   -49106   -49110   -49107   -49102 
  -49099   -49100   -49103   -49106   -49108   -49110   -49114   -49119 
  -49122   -49127   -49142   -49158   -49179   -49203   -49226   -49245 
  -49265   -49292   -49322   -49346   -49366   -49391   -49415   -49435 
  -49455   -49478   -49508   -49540   -49569   -49589   -49601   -49612 
  -49623   -49635   -49642   -49640   -49639   -49638   -49632   -49624 
  -49612   -49594   -49570   -49549   -49534   -49523   -49512   -49497 
  -49480   -49464   -49449   -49430   -49407   -49384   -49364   -49349 
  -49330   -49312   -49297   -49285   -49277   -49276   -49273   -49273 
  -49280   -49287   -49288   -49288   -49289   -49292   -49300   -49312 
  -49326   -49339   -49351   -49365   -49380   -49387   -49387   -49387 
  -49385   -49385   -49381   -49370   -49361   -49349   -49333   -49320 
  -49310   -49292   -49272   -49254   -49239   -49225   -49214   -49203 
  -49192   -49184   -49172   -49156   -49144   -49129   -49108   -49087 
  -49071   -49056   -49041   -49027   -49015   -49005   -48992   -48983 
  -48978   -48979   -48982   -48983   -48988   -49002   -49022   -49048 
  -49075   -49102   -49126   -49146   -49164   -49184   -49208   -49234 
  -49264   -49292   -49315   -49338   -49364   -49391   -49416   -49434 
  -49446   -49457   -49464   -49474   -49491   -49507   -49523   -49538 
  -49546   -49550   -49555   -49561   -49561   -49562   -49566   -49563 
  -49559   -49555   -49554   -49550   -49540   -49532   -49526   -49511 
  -49495   -49480   -49462   -49443   -49427   -49414   -49395   -49372 
  -49345   -49319   -49293   -49269   -49248   -49230   -49211   -49189 
  -49172   -49160   -49152   -49145   -49137   -49129   -49121   -49115 
  -49113   -49114   -49122   -49129   -49134   -49138   -49142   -49145 
  -49148   -49154   -49165   -49179   -49192   -49200   -49207   -49223 
  -49245   -49261   -49275   -49292   -49312   -49331   -49343   -49349 
  -49349   -49347   -49343   -49333   -49323   -49316   -49310   -49300 
  -49289   -49279   -49270   -49265   -49261   -49262   -49269   -49280 
  -49291   -49302   -49312   -49315   -49318   -49327   -49333   -49337 
  -49342   -49346   -49350   -49353   -49357   -49362   -49366   -49368 
  -49366   -49365   -49364   -49351   -49335   -49320   -49304   -49287 
  -49275   -49266   -49254   -49242   -49233   -49218   -49198   -49179 
  -49160   -49146   -49138   -49131   -49119   -49107   -49100   -49095 
  -49092   -49092   -49095   -49095   -49095   -49098   -49099   -49100 
  -49108   -49119   -49130   -49146   -49161   -49175   -49184   -49192 
  -49204   -49223   -49241   -49258   -49275   -49283   -49287   -49289 
  -49287   -49287   -49289   -49285   -49283   -49284   -49284   -49279 
  -49270   -49262   -49258   -49254   -49241   -49219   -49203   -49194 
  -49180   -49164   -49149   -49131   -49108   -49081   -49048   -49014 
  -48982   -48946   -48911   -48878   -48851   -48830   -48810   -48789 
  -48778   -48775   -48778   -48784   -48793   -48807   -48826   -48844 
  -48864   -48890   -48924   -48959   -48995   -49033   -49072   -49106 
  -49133   -49157   -49180   -49203   -49221   -49235   -49248   -49254 
  -49257   -49256   -49249   -49243   -49235   -49227   -49223   -49222 
  -49219   -49216   -49216   -49215   -49211   -49203   -49198   -49189 
  -49180   -49173   -49165   -49156   -49144   -49127   -49113   -49106 
  -49104   -49103   -49104   -49107   -49103   -49095   -49088   -49086 
  -49087   -49092   -49100   -49111   -49125   -49134   -49138   -49142 
  -49150   -49162   -49177   -49195   -49211   -49229   -49242   -49258 
  -49277   -49297   -49316   -49339   -49364   -49385   -49407   -49427 
  -49442   -49453   -49458   -49461   -49465   -49468   -49462   -49459 
  -49455   -49442   -49427   -49414   -49403   -49395   -49387   -49374 
  -49362   -49350   -49342   -49339   -49337   -49337   -49339   -49341 
  -49346   -49357   -49364   -49373   -49387   -49399   -49407   -49415 
  -49420   -49426   -49439   -49453   -49468   -49489   -49508   -49520 
  -49540   -49561   -49581   -49603   -49621   -49634   -49646   -49648 
  -49639   -49627   -49613   -49593   -49569   -49542   -49511   -49477 
  -49442   -49405   -49368   -49327   -49289   -49257   -49229   -49199 
  -49173   -49150   -49127   -49104   -49080   -49059   -49038   -49018 
  -49003   -48991   -48982   -48972   -48957   -48946   -48938   -48933 
  -48937   -48946   -48957   -48969   -48990   -49014   -49042   -49075 
  -49107   -49135   -49165   -49195   -49219   -49238   -49254   -49265 
  -49276   -49291   -49302   -49312   -49324   -49330   -49331   -49341 
  -49354   -49369   -49385   -49399   -49410   -49420   -49437   -49457 
  -49476   -49493   -49513   -49536   -49557   -49577   -49604   -49631 
  -49647   -49662   -49678   -49686   -49694   -49698   -49692   -49680 
  -49662   -49639   -49616   -49586   -49547   -49511   -49474   -49428 
  -49383   -49347   -49315   -49285   -49262   -49243   -49229   -49214 
  -49203   -49202   -49203   -49203   -49207   -49214   -49215   -49214 
  -49214   -49215   -49216   -49218   -49216   -49214   -49216   -49216 
  -49212   -49210   -49207   -49206   -49206   -49207   -49202   -49194 
  -49185   -49176   -49165   -49156   -49146   -49130   -49111   -49094 
  -49077   -49064   -49046   -49019   -48992   -48971   -48948   -48924 
  -48903   -48886   -48867   -48849   -48833   -48818   -48810   -48809 
  -48805   -48801   -48801   -48801   -48805   -48816   -48828   -48841 
  -48860   -48882   -48899   -48919   -48948   -48975   -48999   -49030 
  -49059   -49080   -49103   -49127   -49150   -49168   -49181   -49191 
  -49194   -49195   -49194   -49191   -49191   -49189   -49188   -49194 
  -49198   -49200   -49212   -49231   -49248   -49262   -49280   -49296 
  -49307   -49319   -49334   -49343   -49354   -49368   -49378   -49388 
  -49396   -49404   -49415   -49428   -49439   -49445   -49451   -49459 
  -49466   -49470   -49472   -49473   -49473   -49470   -49465   -49457 
  -49446   -49434   -49420   -49407   -49395   -49378   -49362   -49349 
  -49335   -49318   -49303   -49291   -49277   -49264   -49250   -49242 
  -49234   -49225   -49216   -49210   -49202   -49200   -49203   -49207 
  -49211   -49216   -49223   -49235   -49250   -49257   -49262   -49269 
  -49270   -49266   -49266   -49268   -49266   -49264   -49261   -49262 
  -49266   -49270   -49270   -49269   -49268   -49269   -49272   -49273 
  -49272   -49265   -49260   -49254   -49246   -49234   -49223   -49218 
  -49212   -49207   -49207   -49207   -49202   -49196   -49198   -49196 
  -49196   -49200   -49207   -49218   -49230   -49243   -49262   -49289 
  -49316   -49341   -49372   -49403   -49430   -49457   -49484   -49507 
  -49520   -49528   -49534   -49531   -49520   -49500   -49478   -49451 
  -49420   -49387   -49353   -49315   -49275   -49233   -49195   -49160 
  -49126   -49098   -49076   -49061   -49053   -49049   -49046   -49049 
  -49054   -49063   -49069   -49079   -49092   -49106   -49114   -49119 
  -49126   -49133   -49140   -49141   -49135   -49129   -49125   -49117 
  -49108   -49104   -49102   -49098   -49096   -49096   -49091   -49086 
  -49081   -49076   -49075   -49076   -49079   -49086   -49090   -49090 
  -49098   -49106   -49114   -49122   -49130   -49137   -49145   -49153 
  -49161   -49160   -49157   -49156   -49148   -49135   -49122   -49103 
  -49084   -49065   -49040   -49010   -48984   -48955   -48924   -48901 
  -48886   -48871   -48857   -48853   -48852   -48851   -48852   -48861 
  -48879   -48901   -48929   -48961   -48994   -49030   -49071   -49110 
  -49148   -49191   -49237   -49279   -49322   -49368   -49412   -49457 
  -49500   -49543   -49585   -49624   -49655   -49685   -49715   -49740 
  -49762   -49777   -49790   -49804   -49812   -49815   -49816   -49812 
  -49805   -49797   -49788   -49778   -49770   -49762   -49748   -49735 
  -49725   -49719   -49716   -49716   -49715   -49709   -49702   -49696 
  -49693   -49688   -49680   -49667   -49650   -49624   -49594   -49555 
  -49511   -49472   -49431   -49388   -49346   -49304   -49264   -49222 
  -49175   -49129   -49087   -49045   -49006   -48972   -48942   -48914 
  -48890   -48871   -48856   -48843   -48833   -48830   -48833   -48838 
  -48851   -48867   -48880   -48897   -48913   -48925   -48938   -48955 
  -48972   -48990   -49003   -49017   -49029   -49040   -49048   -49059 
  -49071   -49080   -49095   -49117   -49141   -49167   -49192   -49218 
  -49250   -49284   -49316   -49354   -49389   -49422   -49454   -49482 
  -49509   -49538   -49563   -49586   -49608   -49626   -49639   -49648 
  -49659   -49665   -49663   -49663   -49662   -49648   -49635   -49626 
  -49605   -49581   -49563   -49542   -49511   -49482   -49451   -49414 
  -49378   -49346   -49308   -49266   -49230   -49192   -49152   -49114 
  -49076   -49040   -49006   -48972   -48942   -48919   -48901   -48888 
  -48884   -48880   -48876   -48880   -48892   -48907   -48924   -48944 
  -48969   -48996   -49030   -49068   -49103   -49133   -49164   -49196 
  -49229   -49264   -49296   -49330   -49361   -49381   -49401   -49424 
  -49439   -49451   -49462   -49465   -49464   -49458   -49449   -49438 
  -49430   -49418   -49404   -49392   -49378   -49362   -49350   -49338 
  -49326   -49320   -49318   -49314   -49315   -49318   -49318   -49324 
  -49339   -49350   -49361   -49372   -49383   -49396   -49411   -49416 
  -49416   -49416   -49411   -49403   -49392   -49383   -49370   -49354 
  -49341   -49331   -49319   -49311   -49312   -49314   -49318   -49335 
  -49360   -49381   -49408   -49439   -49472   -49507   -49539   -49566 
  -49594   -49620   -49642   -49659   -49670   -49674   -49671   -49665 
  -49655   -49638   -49612   -49584   -49554   -49512   -49468   -49428 
  -49385   -49335   -49284   -49235   -49195   -49157   -49113   -49075 
  -49049   -49026   -49005   -48991   -48987   -48982   -48983   -48991 
  -48995   -48996   -49006   -49017   -49023   -49033   -49041   -49048 
  -49054   -49061   -49067   -49071   -49075   -49076   -49080   -49084 
  -49086   -49087   -49090   -49091   -49095   -49107   -49119   -49133 
  -49146   -49164   -49191   -49225   -49261   -49302   -49346   -49395 
  -49446   -49501   -49557   -49611   -49662   -49715   -49766   -49810 
  -49854   -49894   -49920   -49939   -49952   -49954   -49947   -49932 
  -49905   -49867   -49823   -49767   -49701   -49630   -49551   -49464 
  -49368   -49266   -49160   -49053   -48945   -48836   -48729   -48627 
  -48529   -48436   -48348   -48266   -48192   -48130   -48073   -48022 
  -47981   -47950   -47926   -47908   -47903   -47904   -47910   -47923 
  -47941   -47962   -47992   -48031   -48069   -48107   -48147   -48193 
  -48244   -48297   -48348   -48400   -48456   -48517   -48573   -48631 
  -48693   -48753   -48811   -48867   -48924   -48975   -49025   -49079 
  -49131   -49175   -49219   -49265   -49304   -49342   -49376   -49403 
  -49427   -49447   -49462   -49474   -49482   -49485   -49485   -49486 
  -49485   -49484   -49485   -49488   -49493   -49501   -49511   -49522 
  -49531   -49539   -49553   -49565   -49572   -49580   -49593   -49605 
  -49613   -49619   -49621   -49620   -49615   -49605   -49594   -49577 
  -49554   -49526   -49499   -49469   -49431   -49395   -49360   -49320 
  -49284   -49254   -49225   -49200   -49183   -49169   -49157   -49156 
  -49162   -49176   -49195   -49216   -49242   -49269   -49299   -49329 
  -49356   -49388   -49420   -49449   -49476   -49503   -49528   -49554 
  -49578   -49600   -49623   -49646   -49666   -49684   -49704   -49724 
  -49740   -49755   -49770   -49783   -49798   -49816   -49829   -49848 
  -49866   -49879   -49896   -49913   -49924   -49933   -49944   -49954 
  -49954   -49947   -49936   -49924   -49906   -49879   -49846   -49813 
  -49779   -49742   -49707   -49675   -49639   -49599   -49561   -49526 
  -49488   -49451   -49416   -49376   -49337   -49297   -49253   -49210 
  -49168   -49125   -49080   -49034   -48984   -48936   -48891   -48848 
  -48803   -48760   -48724   -48694   -48667   -48647   -48629   -48618 
  -48616   -48617   -48621   -48636   -48656   -48678   -48705   -48736 
  -48766   -48798   -48836   -48879   -48926   -48975   -49023   -49075 
  -49125   -49176   -49231   -49284   -49331   -49376   -49419   -49457 
  -49492   -49523   -49550   -49572   -49592   -49607   -49617   -49628 
  -49639   -49646   -49648   -49650   -49651   -49648   -49646   -49644 
  -49642   -49631   -49620   -49615   -49608   -49600   -49592   -49586 
  -49584   -49577   -49566   -49553   -49543   -49535   -49519   -49499 
  -49481   -49462   -49443   -49420   -49396   -49369   -49338   -49307 
  -49283   -49258   -49234   -49211   -49194   -49181   -49173   -49167 
  -49164   -49164   -49168   -49177   -49191   -49204   -49216   -49227 
  -49242   -49258   -49269   -49276   -49281   -49285   -49289   -49291 
  -49292   -49295   -49293   -49289   -49292   -49296   -49296   -49295 
  -49296   -49300   -49303   -49303   -49302   -49302   -49306   -49307 
  -49304   -49306   -49306   -49302   -49295   -49287   -49279   -49270 
  -49261   -49250   -49241   -49233   -49225   -49214   -49204   -49196 
  -49194   -49192   -49188   -49187   -49189   -49194   -49195   -49198 
  -49203   -49206   -49210   -49218   -49227   -49238   -49249   -49257 
  -49266   -49280   -49289   -49295   -49302   -49307   -49311   -49318 
  -49324   -49331   -49342   -49356   -49369   -49383   -49393   -49400 
  -49412   -49423   -49431   -49437   -49442   -49449   -49454   -49457 
  -49457   -49459   -49462   -49459   -49455   -49455   -49449   -49437 
  -49427   -49416   -49403   -49388   -49376   -49364   -49350   -49338 
  -49334   -49331   -49326   -49327   -49331   -49334   -49338   -49345 
  -49351   -49360   -49365   -49370   -49373   -49374   -49372   -49365 
  -49362   -49356   -49345   -49333   -49316   -49295   -49269   -49242 
  -49214   -49184   -49152   -49117   -49084   -49053   -49021   -48991 
  -48964   -48938   -48914   -48891   -48870   -48849   -48829   -48809 
  -48789   -48772   -48759   -48744   -48730   -48716   -48703   -48697 
  -48693   -48691   -48689   -48687   -48687   -48689   -48695   -48703 
  -48712   -48721   -48730   -48737   -48745   -48749   -48748   -48751 
  -48749   -48747   -48747   -48745   -48741   -48735   -48726   -48718 
  -48708   -48697   -48689   -48682   -48675   -48670   -48666   -48668 
  -48672   -48674   -48678   -48682   -48686   -48695   -48703   -48712 
  -48721   -48739   -48763   -48786   -48809   -48834   -48863   -48892 
  -48918   -48949   -48986   -49021   -49061   -49104   -49145   -49191 
  -49235   -49276   -49315   -49353   -49387   -49418   -49447   -49470 
  -49486   -49500   -49513   -49522   -49526   -49524   -49516   -49503 
  -49488   -49470   -49449   -49427   -49407   -49384   -49357   -49330 
  -49304   -49275   -49245   -49218   -49194   -49169   -49144   -49115 
  -49086   -49052   -49018   -48986   -48953   -48922   -48895   -48871 
  -48853   -48841   -48828   -48817   -48817   -48820   -48822   -48834 
  -48852   -48870   -48892   -48925   -48957   -48992   -49034   -49079 
  -49127   -49176   -49225   -49276   -49327   -49374   -49423   -49470 
  -49512   -49551   -49585   -49616   -49646   -49673   -49694   -49711 
  -49728   -49743   -49756   -49767   -49774   -49779   -49786   -49790 
  -49794   -49797   -49798   -49801   -49800   -49793   -49790   -49785 
  -49777   -49767   -49759   -49752   -49742   -49729   -49720   -49709 
  -49698   -49689   -49675   -49663   -49653   -49638   -49627   -49619 
  -49608   -49603   -49597   -49590   -49588   -49586   -49586   -49585 
  -49584   -49585   -49584   -49584   -49584   -49580   -49567   -49557 
  -49540   -49523   -49507   -49484   -49457   -49434   -49412   -49388 
  -49364   -49342   -49320   -49303   -49289   -49277   -49262   -49250 
  -49238   -49225   -49211   -49199   -49184   -49171   -49160   -49150 
  -49131   -49110   -49090   -49067   -49038   -49010   -48983   -48955 
  -48932   -48906   -48878   -48853   -48830   -48807   -48787   -48763 
  -48741   -48722   -48708   -48694   -48681   -48671   -48670   -48668 
  -48663   -48664   -48666   -48667   -48674   -48685   -48693   -48705 
  -48717   -48729   -48743   -48757   -48776   -48795   -48814   -48833 
  -48852   -48871   -48890   -48911   -48933   -48957   -48979   -48998 
  -49021   -49048   -49072   -49098   -49126   -49156   -49184   -49211 
