Origin Time       2025/01/13 21:19:00
Lat.              31.8
Long.             131.6
Depth. (km)       30
Mag.              6.9
Station Code      OKYH08
Station Lat.      34.9103
Station Long.     133.4055
Station Height(m) 430
Record Time       2025/01/13 21:20:49
Sampling Freq(Hz) 100Hz
Duration Time(s)  135
Dir.              4
Scale Factor      7845(gal)/8223790
Max. Acc. (gal)   0.727
Last Correction   2025/01/13 21:20:51
Memo.             
[...]
   -7480    -7375    -7250    -7136    -7078    -7110    -7236    -7410 
   -7549    -7592    -7570    -7550    -7565    -7596    -7596    -7541 
   -7474    -7457    -7500    -7570    -7600    -7550    -7458    -7365 
   -7290    -7261    -7303    -7404    -7538    -7645    -7662    -7588 
   -7472    -7383    -7371    -7418    -7464    -7481    -7454    -7357 
   -7217    -7106    -7056    -7076    -7150    -7229    -7277    -7306 
   -7315    -7300    -7261    -7186    -7098    -7064    -7134    -7294 
   -7473    -7581    -7564    -7441    -7291    -7209    -7227    -7307 
   -7398    -7470    -7515    -7526    -7511    -7484    -7450    -7441 
   -7468    -7495    -7483    -7414    -7314    -7261    -7317    -7456 
   -7622    -7754    -7789    -7708    -7560    -7429    -7383    -7429 
   -7512    -7576    -7595    -7577    -7523    -7454    -7403    -7376 
   -7377    -7414    -7456    -7468    -7435    -7360    -7250    -7145 
   -7088    -7098    -7182    -7330    -7481    -7562    -7543    -7449 
   -7333    -7258    -7249    -7290    -7354    -7418    -7464    -7497 
   -7520    -7516    -7484    -7427    -7368    -7349    -7385    -7460 
   -7537    -7555    -7491    -7393    -7331    -7348    -7450    -7569 
   -7601    -7500    -7306    -7109    -6994    -7014    -7137    -7284 
   -7385    -7393    -7331    -7295    -7349    -7453    -7522    -7488 
   -7356    -7211    -7163    -7254    -7453    -7657    -7749    -7685 
   -7511    -7326    -7233    -7294    -7480    -7685    -7786    -7709 
   -7484    -7260    -7171    -7242    -7425    -7619    -7728    -7715 
   -7582    -7383    -7217    -7160    -7194    -7276    -7379    -7461 
   -7468    -7415    -7384    -7438    -7572    -7716    -7766    -7673 
   -7473    -7254    -7114    -7091    -7138    -7196    -7231    -7233 
   -7240    -7281    -7331    -7364    -7396    -7433    -7442    -7430 
   -7430    -7446    -7457    -7447    -7403    -7338    -7317    -7372 
   -7457    -7516    -7522    -7483    -7454    -7452    -7438    -7419 
   -7412    -7383    -7307    -7202    -7103    -7061    -7113    -7242 
   -7416    -7580    -7650    -7589    -7462    -7346    -7263    -7241 
   -7303    -7408    -7523    -7622    -7663    -7642    -7580    -7488 
   -7412    -7396    -7419    -7452    -7479    -7469    -7452    -7474 
   -7518    -7555    -7584    -7543    -7416    -7300    -7248    -7245 
   -7275    -7281    -7240    -7200    -7198    -7217    -7268    -7356 
   -7454    -7534    -7565    -7524    -7442    -7376    -7364    -7416 
   -7533    -7682    -7786    -7774    -7668    -7541    -7457    -7447 
   -7474    -7493    -7492    -7470    -7430    -7379    -7339    -7335 
   -7375    -7438    -7483    -7484    -7454    -7406    -7333    -7245 
   -7195    -7236    -7365    -7527    -7636    -7628    -7516    -7393 
   -7334    -7345    -7403    -7452    -7427    -7339    -7246    -7202 
   -7236    -7319    -7384    -7369    -7272    -7171    -7165    -7275 
   -7427    -7522    -7484    -7323    -7129    -7010    -7020    -7146 
   -7338    -7530    -7670    -7736    -7716    -7626    -7493    -7344 
   -7213    -7161    -7233    -7387    -7522    -7553    -7449    -7280 
   -7150    -7106    -7134    -7210    -7308    -7415    -7474    -7457 
   -7414    -7403    -7416    -7437    -7457    -7462    -7443    -7388 
   -7287    -7168    -7080    -7047    -7064    -7118    -7183    -7231 
   -7258    -7269    -7241    -7165    -7114    -7146    -7236    -7334 
   -7412    -7423    -7373    -7349    -7404    -7522    -7658    -7759 
   -7749    -7601    -7387    -7204    -7121    -7167    -7318    -7488 
   -7603    -7628    -7574    -7506    -7476    -7469    -7452    -7434 
   -7419    -7412    -7449    -7504    -7524    -7518    -7488    -7439 
   -7408    -7418    -7443    -7462    -7479    -7495    -7491    -7452 
   -7391    -7346    -7354    -7422    -7516    -7562    -7516    -7410 
   -7300    -7210    -7134    -7094    -7106    -7148    -7179    -7213 
   -7290    -7387    -7460    -7507    -7527    -7503    -7442    -7358 
   -7264    -7240    -7368    -7576    -7715    -7686    -7481    -7222 
   -7075    -7119    -7318    -7554    -7682    -7634    -7466    -7281 
   -7169    -7200    -7375    -7592    -7701    -7626    -7422    -7227 
   -7153    -7233    -7399    -7564    -7658    -7630    -7476    -7272 
   -7095    -7003    -7044    -7221    -7461    -7668    -7749    -7646 
   -7410    -7182    -7075    -7136    -7342    -7597    -7778    -7807 
   -7669    -7461    -7294    -7187    -7133    -7144    -7223    -7339 
   -7433    -7470    -7472    -7447    -7391    -7339    -7321    -7337 
   -7407    -7511    -7573    -7561    -7503    -7410    -7329    -7307 
   -7337    -7408    -7516    -7604    -7611    -7516    -7344    -7173 
   -7115    -7219    -7426    -7627    -7746    -7735    -7596    -7412 
   -7290    -7300    -7460    -7670    -7769    -7676    -7456    -7244 
   -7149    -7204    -7350    -7481    -7535    -7512    -7477    -7491 
   -7534    -7539    -7484    -7392    -7312    -7303    -7385    -7503 
   -7576    -7553    -7434    -7269    -7150    -7142    -7230    -7353 
   -7456    -7496    -7464    -7368    -7258    -7210    -7240    -7314 
   -7414    -7518    -7569    -7542    -7443    -7302    -7183    -7136 
   -7149    -7198    -7258    -7299    -7330    -7364    -7380    -7377 
   -7389    -7443    -7522    -7572    -7564    -7516    -7468    -7439 
   -7427    -7419    -7406    -7395    -7399    -7404    -7406    -7411 
   -7410    -7385    -7341    -7283    -7230    -7222    -7273    -7341 
   -7371    -7342    -7273    -7210    -7191    -7234    -7307    -7352 
   -7352    -7342    -7354    -7373    -7368    -7321    -7233    -7148 
   -7128    -7200    -7338    -7465    -7515    -7492    -7429    -7350 
   -7298    -7304    -7369    -7461    -7526    -7518    -7443    -7356 
   -7287    -7221    -7130    -7030    -6971    -7009    -7175    -7412 
   -7592    -7622    -7492    -7284    -7123    -7091    -7179    -7342 
   -7507    -7616    -7657    -7614    -7504    -7412    -7384    -7375 
   -7356    -7353    -7392    -7461    -7522    -7538    -7506    -7457 
   -7419    -7392    -7385    -7418    -7477    -7522    -7515    -7437 
   -7310    -7221    -7221    -7283    -7366    -7447    -7489    -7472 
   -7414    -7348    -7292    -7265    -7260    -7248    -7226    -7207 
   -7219    -7284    -7387    -7500    -7568    -7534    -7423    -7333 
   -7325    -7380    -7446    -7450    -7368    -7269    -7222    -7234 
   -7308    -7430    -7535    -7597    -7651    -7686    -7670    -7607 
   -7518    -7416    -7338    -7322    -7360    -7414    -7452    -7468 
   -7489    -7518    -7531    -7542    -7560    -7557    -7515    -7464 
   -7446    -7487    -7582    -7686    -7732    -7688    -7587    -7477 
   -7406    -7423    -7534    -7678    -7773    -7754    -7622    -7443 
   -7303    -7250    -7285    -7354    -7387    -7365    -7333    -7323 
   -7353    -7426    -7508    -7570    -7619    -7628    -7564    -7462 
   -7393    -7375    -7411    -7485    -7543    -7577    -7587    -7550 
   -7489    -7466    -7506    -7578    -7646    -7685    -7670    -7565 
   -7388    -7219    -7134    -7160    -7277    -7422    -7510    -7526 
   -7515    -7493    -7443    -7371    -7303    -7253    -7238    -7292 
   -7438    -7638    -7785    -7789    -7662    -7493    -7368    -7339 
   -7395    -7454    -7465    -7429    -7348    -7248    -7194    -7214 
   -7295    -7404    -7492    -7506    -7427    -7285    -7138    -7055 
   -7072    -7176    -7329    -7484    -7580    -7560    -7457    -7334 
   -7225    -7155    -7161    -7234    -7345    -7460    -7512    -7479 
   -7402    -7334    -7298    -7303    -7335    -7377    -7437    -7519 
   -7604    -7653    -7636    -7570    -7507    -7497    -7554    -7657 
   -7744    -7770    -7740    -7681    -7628    -7614    -7624    -7620 
   -7605    -7595    -7570    -7533    -7503    -7480    -7453    -7415 
   -7376    -7352    -7335    -7306    -7279    -7288    -7327    -7353 
   -7338    -7295    -7268    -7295    -7371    -7453    -7501    -7510 
   -7484    -7423    -7354    -7326    -7357    -7420    -7479    -7484 
   -7425    -7327    -7236    -7191    -7204    -7242    -7256    -7248 
   -7253    -7280    -7290    -7269    -7253    -7273    -7314    -7317 
   -7253    -7159    -7102    -7142    -7284    -7457    -7576    -7595 
   -7514    -7361    -7194    -7083    -7064    -7117    -7187    -7237 
   -7273    -7315    -7371    -7430    -7473    -7474    -7449    -7454 
   -7516    -7588    -7612    -7577    -7527    -7515    -7545    -7587 
   -7619    -7609    -7542    -7462    -7438    -7483    -7561    -7619 
   -7632    -7620    -7614    -7605    -7581    -7543    -7497    -7465 
   -7456    -7438    -7387    -7318    -7268    -7244    -7231    -7218 
   -7202    -7207    -7246    -7295    -7318    -7329    -7349    -7352 
   -7308    -7236    -7182    -7186    -7261    -7360    -7426    -7452 
   -7454    -7456    -7483    -7537    -7577    -7580    -7537    -7466 
   -7408    -7391    -7422    -7488    -7531    -7515    -7454    -7380 
   -7330    -7322    -7327    -7337    -7385    -7462    -7507    -7483 
   -7423    -7398    -7443    -7535    -7632    -7697    -7715    -7708 
   -7700    -7674    -7635    -7600    -7562    -7515    -7479    -7464 
   -7466    -7476    -7487    -7481    -7445    -7381    -7310    -7238 
   -7176    -7118    -7056    -7017    -7017    -7028    -7030    -7025 
   -7009    -6982    -6972    -7003    -7072    -7163    -7245    -7276 
   -7252    -7202    -7161    -7146    -7137    -7113    -7095    -7101 
   -7107    -7094    -7067    -7059    -7088    -7134    -7160    -7149 
   -7103    -7053    -7053    -7123    -7231    -7335    -7396    -7387 
   -7337    -7308    -7322    -7362    -7400    -7392    -7335    -7272 
   -7233    -7214    -7213    -7240    -7284    -7325    -7364    -7392 
   -7393    -7381    -7380    -7406    -7464    -7534    -7566    -7537 
   -7460    -7357    -7263    -7222    -7263    -7366    -7484    -7557 
   -7566    -7526    -7452    -7365    -7308    -7317    -7383    -7465 
   -7535    -7585    -7597    -7560    -7488    -7402    -7318    -7284 
   -7337    -7443    -7546    -7601    -7591    -7535    -7476    -7442 
   -7452    -7514    -7600    -7650    -7641    -7589    -7522    -7466 
   -7449    -7473    -7524    -7592    -7655    -7690    -7689    -7647 
   -7565    -7470    -7393    -7331    -7285    -7269    -7290    -7327 
   -7349    -7349    -7346    -7326    -7283    -7264    -7303    -7377 
   -7453    -7496    -7489    -7452    -7404    -7366    -7373    -7429 
   -7501    -7577    -7638    -7646    -7619    -7600    -7589    -7574 
   -7565    -7570    -7595    -7634    -7672    -7684    -7669    -7638 
   -7595    -7543    -7488    -7429    -7361    -7300    -7285    -7310 
   -7352    -7406    -7450    -7461    -7431    -7373    -7319    -7298 
   -7310    -7353    -7398    -7402    -7364    -7319    -7290    -7268 
   -7261    -7279    -7310    -7330    -7330    -7290    -7223    -7177 
   -7183    -7229    -7273    -7275    -7227    -7163    -7107    -7079 
   -7098    -7175    -7281    -7384    -7452    -7470    -7454    -7437 
   -7445    -7477    -7518    -7554    -7560    -7524    -7469    -7422 
   -7402    -7418    -7460    -7514    -7549    -7546    -7534    -7542 
   -7545    -7522    -7496    -7496    -7530    -7599    -7663    -7677 
   -7646    -7603    -7569    -7547    -7527    -7501    -7477    -7470 
   -7488    -7503    -7481    -7415    -7331    -7267    -7244    -7275 
   -7342    -7414    -7461    -7449    -7365    -7260    -7188    -7157 
   -7165    -7200    -7231    -7240    -7223    -7159    -7067    -7030 
   -7068    -7145    -7238    -7325    -7362    -7342    -7281    -7206 
   -7156    -7172    -7236    -7314    -7380    -7411    -7407    -7387 
   -7372    -7375    -7389    -7410    -7442    -7492    -7545    -7580 
   -7595    -7595    -7595    -7599    -7607    -7609    -7593    -7554 
   -7495    -7414    -7349    -7346    -7384    -7408    -7402    -7371 
   -7337    -7325    -7361    -7438    -7516    -7554    -7530    -7456 
   -7368    -7298    -7273    -7314    -7403    -7506    -7584    -7600 
   -7531    -7410    -7294    -7230    -7230    -7275    -7323    -7344 
   -7331    -7298    -7265    -7263    -7292    -7329    -7344    -7329 
   -7298    -7263    -7234    -7231    -7257    -7292    -7330    -7358 
   -7333    -7248    -7159    -7110    -7095    -7091    -7090    -7106 
   -7179    -7310    -7434    -7500    -7501    -7468    -7445    -7453 
   -7477    -7500    -7512    -7483    -7412    -7334    -7277    -7261 
   -7296    -7360    -7416    -7439    -7408    -7329    -7237    -7155 
   -7091    -7079    -7138    -7242    -7356    -7438    -7456    -7425 
   -7376    -7338    -7349    -7427    -7539    -7626    -7635    -7557 
   -7458    -7434    -7512    -7658    -7825    -7955    -7992    -7935 
   -7823    -7690    -7581    -7553    -7620    -7735    -7808    -7784 
   -7684    -7570    -7508    -7522    -7582    -7645    -7685    -7696 
   -7682    -7663    -7654    -7653    -7642    -7605    -7558    -7533 
   -7549    -7578    -7569    -7504    -7412    -7323    -7253    -7204 
   -7169    -7150    -7155    -7165    -7156    -7118    -7071    -7032 
   -7006    -6986    -6964    -6944    -6926    -6907    -6895    -6891 
   -6868    -6816    -6766    -6759    -6795    -6848    -6864    -6804 
   -6700    -6636    -6663    -6758    -6863    -6940    -6986    -7018 
   -7052    -7098    -7163    -7245    -7322    -7389    -7450    -7497 
   -7514    -7476    -7400    -7342    -7344    -7411    -7518    -7615 
   -7676    -7699    -7696    -7696    -7722    -7769    -7819    -7843 
   -7835    -7797    -7734    -7657    -7591    -7553    -7542    -7553 
   -7580    -7615    -7647    -7681    -7709    -7723    -7712    -7676 
   -7620    -7578    -7574    -7600    -7632    -7676    -7728    -7781 
   -7835    -7869    -7857    -7798    -7716    -7645    -7618    -7624 
   -7623    -7591    -7530    -7464    -7415    -7384    -7365    -7341 
   -7312    -7291    -7273    -7261    -7257    -7258    -7263    -7275 
   -7299    -7327    -7352    -7358    -7327    -7252    -7146    -7052 
   -6990    -6956    -6957    -6990    -7033    -7060    -7055    -7028 
   -7007    -7010    -7032    -7067    -7115    -7173    -7233    -7299 
   -7358    -7393    -7430    -7496    -7569    -7611    -7607    -7561 
   -7483    -7381    -7283    -7230    -7245    -7308    -7373    -7407 
   -7392    -7325    -7222    -7133    -7096    -7122    -7196    -7287 
   -7356    -7406    -7465    -7535    -7609    -7695    -7790    -7870 
   -7917    -7931    -7920    -7902    -7896    -7900    -7908    -7921 
   -7943    -7967    -7985    -7990    -7981    -7950    -7897    -7847 
   -7831    -7843    -7847    -7819    -7763    -7712    -7690    -7692 
   -7699    -7696    -7677    -7655    -7645    -7630    -7596    -7557 
   -7510    -7449    -7391    -7345    -7310    -7290    -7279    -7264 
   -7248    -7244    -7254    -7275    -7283    -7250    -7182    -7122 
   -7096    -7087    -7079    -7063    -7032    -6983    -6918    -6855 
   -6804    -6767    -6744    -6735    -6737    -6754    -6791    -6851 
   -6921    -7001    -7083    -7149    -7188    -7217    -7261    -7318 
   -7365    -7398    -7410    -7402    -7396    -7406    -7443    -7523 
   -7615    -7676    -7703    -7720    -7749    -7804    -7878    -7959 
   -8029    -8078    -8087    -8040    -7932    -7800    -7708    -7699 
   -7755    -7830    -7877    -7870    -7808    -7719    -7632    -7576 
   -7562    -7573    -7578    -7565    -7534    -7481    -7408    -7331 
   -7265    -7221    -7195    -7172    -7126    -7061    -7006    -6979 
   -6988    -7014    -7020    -6993    -6957    -6939    -6939    -6934 
   -6902    -6859    -6825    -6814    -6843    -6898    -6952    -6972 
   -6944    -6876    -6813    -6802    -6871    -6991    -7102    -7160 
   -7171    -7163    -7160    -7168    -7195    -7241    -7296    -7352 
   -7400    -7429    -7426    -7410    -7398    -7391    -7396    -7426 
   -7476    -7534    -7587    -7616    -7608    -7582    -7557    -7542 
   -7555    -7582    -7592    -7582    -7547    -7474    -7377    -7288 
   -7206    -7129    -7078    -7052    -7028    -6986    -6925    -6858 
   -6804    -6778    -6771    -6778    -6812    -6871    -6937    -6987 
   -7010    -7021    -7051    -7107    -7184    -7271    -7337    -7371 
   -7387    -7412    -7457    -7534    -7643    -7753    -7844    -7919 
   -7977    -8013    -8035    -8047    -8048    -8032    -7994    -7936 
   -7867    -7797    -7743    -7711    -7689    -7661    -7622    -7569 
   -7507    -7434    -7353    -7272    -7195    -7144    -7133    -7153 
   -7190    -7238    -7291    -7334    -7371    -7403    -7416    -7403 
   -7381    -7373    -7375    -7369    -7342    -7296    -7248    -7210 
   -7175    -7132    -7069    -7005    -6963    -6971    -7026    -7095 
   -7142    -7159    -7159    -7179    -7249    -7369    -7508    -7619 
   -7669    -7662    -7634    -7634    -7688    -7792    -7901    -7971 
   -7989    -7967    -7924    -7874    -7820    -7755    -7692    -7653 
   -7636    -7619    -7592    -7554    -7511    -7466    -7427    -7406 
   -7416    -7457    -7495    -7491    -7441    -7373    -7319    -7295 
   -7302    -7337    -7389    -7442    -7477    -7489    -7485    -7477 
   -7476    -7491    -7530    -7573    -7596    -7595    -7569    -7533 
   -7499    -7477    -7466    -7457    -7430    -7364    -7261    -7159 
   -7099    -7101    -7149    -7204    -7237    -7231    -7184    -7121 
   -7080    -7083    -7106    -7134    -7169    -7199    -7226    -7263 
   -7311    -7358    -7392    -7408    -7418    -7431    -7445    -7449 
   -7452    -7453    -7443    -7441    -7458    -7469    -7464    -7454 
   -7434    -7406    -7393    -7398    -7400    -7406    -7404    -7393 
   -7387    -7385    -7384    -7380    -7371    -7368    -7384    -7404 
   -7411    -7411    -7404    -7393    -7400    -7438    -7493    -7538 
   -7558    -7545    -7511    -7489    -7503    -7543    -7592    -7634 
   -7669    -7686    -7681    -7676    -7689    -7713    -7743    -7766 
   -7766    -7739    -7697    -7655    -7641    -7657    -7688    -7712 
   -7720    -7708    -7686    -7672    -7658    -7627    -7591    -7562 
   -7547    -7542    -7538    -7528    -7519    -7522    -7545    -7580 
   -7616    -7632    -7612    -7562    -7506    -7450    -7411    -7404 
   -7419    -7433    -7431    -7403    -7354    -7314    -7299    -7302 
   -7302    -7285    -7241    -7168    -7083    -7009    -6964    -6952 
   -6959    -6979    -7011    -7034    -7037    -7024    -7003    -6984 
   -6986    -7022    -7083    -7153    -7206    -7215    -7175    -7103 
   -7034    -7001    -7018    -7074    -7141    -7196    -7225    -7221 
   -7188    -7144    -7102    -7075    -7064    -7063    -7063    -7063 
   -7060    -7051    -7042    -7055    -7087    -7134    -7175    -7186 
   -7165    -7138    -7136    -7173    -7231    -7288    -7330    -7356 
   -7377    -7404    -7439    -7481    -7533    -7591    -7639    -7657 
   -7639    -7612    -7604    -7615    -7636    -7662    -7673    -7668 
   -7661    -7662    -7678    -7708    -7740    -7767    -7780    -7773 
