Origin Time       2025/01/13 21:19:00
Lat.              31.8
Long.             131.6
Depth. (km)       30
Mag.              6.9
Station Code      OKYH09
Station Lat.      35.1809
Station Long.     133.6765
Station Height(m) 405
Record Time       2025/01/13 21:21:29
Sampling Freq(Hz) 100Hz
Duration Time(s)  120
Dir.              5
Scale Factor      7845(gal)/8223790
Max. Acc. (gal)   0.430
Last Correction   2025/01/13 21:21:30
Memo.             
[...]
    2853     2875     2860     2810     2759     2732     2731     2740 
    2752     2770     2790     2805     2810     2798     2762     2718 
    2695     2705     2748     2806     2855     2882     2880     2848 
    2802     2768     2755     2763     2793     2835     2871     2894 
    2899     2895     2882     2863     2851     2855     2876     2902 
    2914     2911     2906     2897     2886     2887     2895     2911 
    2944     2984     3013     3013     2983     2949     2941     2964 
    3007     3048     3061     3038     2998     2957     2932     2925 
    2926     2936     2957     2978     2992     3002     3002     2991 
    2979     2974     2971     2976     2988     3002     3010     3006 
    2980     2948     2932     2940     2964     2998     3026     3032 
    3005     2957     2911     2887     2898     2932     2971     3005 
    3025     3030     3032     3026     3011     2999     3001     3030 
    3076     3115     3136     3134     3118     3105     3110     3138 
    3181     3219     3233     3218     3183     3148     3125     3119 
    3129     3150     3167     3164     3146     3123     3092     3060 
    3033     3002     2965     2944     2940     2955     2984     3014 
    3014     2974     2922     2886     2876     2884     2901     2907 
    2894     2870     2843     2818     2801     2778     2749     2718 
    2689     2677     2677     2667     2646     2620     2592     2571 
    2573     2596     2637     2675     2685     2664     2643     2635 
    2633     2637     2658     2693     2735     2772     2795     2786 
    2749     2702     2660     2646     2664     2708     2752     2787 
    2808     2813     2798     2767     2736     2716     2708     2704 
    2700     2710     2735     2755     2763     2759     2741     2722 
    2713     2710     2727     2760     2785     2789     2787     2785 
    2775     2758     2735     2709     2693     2690     2691     2690 
    2681     2658     2625     2604     2596     2598     2601     2601 
    2600     2605     2602     2592     2581     2579     2587     2597 
    2604     2608     2613     2624     2636     2650     2663     2671 
    2671     2675     2687     2700     2700     2690     2683     2686 
    2687     2677     2663     2651     2641     2636     2632     2624 
    2606     2587     2577     2571     2571     2573     2578     2587 
    2596     2596     2579     2548     2515     2489     2473     2475 
    2508     2558     2608     2625     2597     2546     2501     2488 
    2513     2566     2627     2677     2712     2739     2749     2729 
    2690     2659     2656     2685     2739     2787     2797     2775 
    2743     2705     2673     2675     2713     2766     2818     2857 
    2872     2867     2847     2820     2802     2805     2833     2882 
    2938     2984     3001     2990     2961     2930     2914     2916 
    2933     2961     2982     2980     2948     2887     2828     2794 
    2786     2794     2802     2799     2778     2740     2698     2660 
    2636     2629     2636     2652     2687     2721     2727     2710 
    2686     2666     2666     2685     2712     2739     2762     2783 
    2803     2816     2817     2799     2772     2751     2744     2752 
    2779     2821     2863     2891     2895     2878     2857     2843 
    2830     2828     2840     2863     2893     2920     2928     2920 
    2901     2874     2857     2866     2887     2902     2905     2901 
    2890     2870     2844     2820     2810     2818     2836     2849 
    2841     2814     2782     2749     2722     2693     2664     2647 
    2647     2662     2687     2712     2718     2698     2662     2625 
    2606     2610     2635     2673     2709     2725     2717     2690 
    2656     2636     2633     2647     2675     2708     2729     2739 
    2732     2710     2689     2679     2683     2702     2733     2762 
    2782     2795     2806     2826     2862     2901     2928     2937 
    2937     2937     2945     2955     2949     2933     2924     2924 
    2922     2914     2890     2859     2844     2848     2856     2872 
    2889     2901     2911     2913     2901     2891     2902     2933 
    2968     2991     3001     3002     2998     2990     2978     2964 
    2953     2959     2991     3034     3069     3094     3110     3113 
    3105     3086     3061     3036     3009     2986     2971     2970 
    2980     2995     3002     2995     2976     2947     2906     2867 
    2836     2812     2798     2794     2795     2797     2795     2782 
    2748     2704     2663     2640     2632     2641     2663     2679 
    2678     2670     2662     2655     2647     2637     2632     2637 
    2652     2671     2690     2709     2722     2725     2717     2709 
    2702     2694     2693     2710     2740     2759     2749     2716 
    2675     2640     2619     2614     2619     2624     2631     2643 
    2662     2689     2725     2763     2794     2813     2824     2837 
    2856     2872     2890     2913     2934     2941     2937     2929 
    2928     2933     2936     2930     2916     2886     2851     2836 
    2848     2866     2868     2855     2830     2806     2793     2789 
    2779     2762     2751     2749     2760     2786     2805     2799 
    2778     2752     2733     2727     2728     2729     2729     2733 
    2749     2772     2791     2801     2790     2760     2727     2705 
    2706     2732     2768     2803     2828     2841     2841     2829 
    2808     2790     2783     2793     2820     2856     2884     2887 
    2851     2783     2714     2671     2656     2664     2683     2691 
    2678     2651     2614     2579     2548     2538     2563     2620 
    2683     2727     2751     2760     2762     2771     2802     2844 
    2889     2922     2932     2918     2898     2880     2878     2890 
    2903     2913     2921     2926     2916     2890     2859     2829 
    2806     2789     2778     2779     2793     2808     2814     2798 
    2770     2747     2743     2760     2791     2825     2851     2860 
    2856     2843     2833     2830     2836     2847     2862     2871 
    2872     2866     2860     2852     2840     2839     2855     2883 
    2916     2937     2948     2949     2948     2948     2937     2921 
    2920     2932     2944     2952     2949     2938     2938     2949 
    2960     2968     2971     2975     2987     3005     3015     3025 
    3034     3049     3071     3090     3102     3100     3087     3071 
    3049     3026     3013     2995     2963     2928     2901     2891 
    2898     2897     2880     2852     2821     2801     2794     2795 
    2797     2791     2783     2772     2755     2733     2712     2693 
    2683     2686     2701     2710     2706     2689     2654     2619 
    2601     2605     2624     2641     2647     2647     2650     2646 
    2639     2636     2637     2639     2647     2668     2701     2735 
    2767     2789     2793     2789     2783     2790     2813     2847 
    2883     2918     2953     2972     2963     2933     2902     2883 
    2880     2893     2913     2930     2943     2944     2924     2889 
    2855     2832     2822     2836     2868     2902     2930     2937 
    2911     2871     2833     2799     2772     2758     2741     2718 
    2697     2687     2687     2687     2693     2705     2720     2732 
    2752     2778     2805     2839     2879     2913     2933     2940 
    2940     2940     2948     2967     2990     3007     3019     3026 
    3021     3003     2988     2986     2995     3015     3044     3071 
    3091     3109     3129     3142     3136     3111     3091     3088 
    3096     3114     3134     3141     3136     3119     3092     3063 
    3042     3025     2998     2967     2944     2929     2922     2913 
    2889     2857     2829     2809     2801     2801     2802     2808 
    2816     2826     2835     2845     2859     2870     2879     2890 
    2894     2894     2893     2884     2867     2845     2824     2799 
    2774     2759     2758     2763     2767     2766     2752     2736 
    2735     2748     2778     2818     2849     2866     2874     2875 
    2876     2879     2889     2905     2926     2953     2982     2995 
    2984     2949     2902     2857     2832     2826     2835     2859 
    2894     2918     2920     2899     2855     2808     2778     2768 
    2772     2789     2802     2802     2799     2794     2778     2764 
    2754     2733     2716     2712     2721     2739     2755     2756 
    2737     2705     2670     2643     2624     2609     2596     2581 
    2556     2532     2513     2490     2474     2479     2496     2506 
    2504     2488     2469     2458     2452     2451     2459     2485 
    2520     2555     2581     2585     2569     2542     2515     2506 
    2519     2540     2571     2608     2641     2663     2667     2663 
    2660     2670     2694     2731     2781     2841     2894     2934 
    2956     2952     2934     2917     2910     2918     2936     2951 
    2953     2940     2913     2876     2833     2790     2758     2747 
    2754     2774     2803     2828     2828     2806     2768     2729 
    2701     2689     2693     2710     2733     2754     2763     2751 
    2718     2683     2654     2632     2628     2639     2660     2686 
    2710     2729     2744     2751     2747     2739     2737     2754 
    2786     2825     2866     2893     2894     2874     2845     2821 
    2806     2806     2828     2863     2891     2901     2890     2872 
    2856     2845     2844     2845     2847     2847     2844     2837 
    2833     2828     2821     2814     2814     2828     2847     2863 
    2874     2871     2847     2809     2778     2768     2776     2797 
    2821     2836     2833     2818     2799     2787     2786     2791 
    2805     2821     2836     2851     2853     2843     2829     2816 
    2809     2816     2830     2856     2884     2897     2895     2891 
    2887     2882     2883     2883     2878     2876     2876     2871 
    2860     2847     2835     2830     2826     2812     2781     2735 
    2689     2656     2644     2646     2648     2650     2652     2651 
    2644     2631     2612     2596     2594     2600     2613     2637 
    2660     2678     2694     2705     2712     2717     2720     2716 
    2710     2710     2721     2745     2778     2801     2808     2793 
    2764     2735     2714     2702     2698     2702     2717     2729 
    2733     2729     2721     2710     2704     2698     2698     2704 
    2710     2714     2720     2722     2725     2732     2739     2745 
    2747     2736     2727     2731     2748     2772     2803     2837 
    2864     2886     2902     2909     2909     2905     2905     2911 
    2928     2951     2971     2975     2959     2929     2898     2879 
    2886     2909     2926     2922     2907     2889     2868     2847 
    2826     2821     2829     2849     2872     2890     2891     2878 
    2860     2845     2841     2855     2879     2910     2944     2967 
    2979     2986     2984     2986     2991     2990     2992     3009 
    3029     3052     3067     3060     3040     3021     3005     2991 
    2982     2970     2949     2924     2889     2843     2783     2731 
    2700     2697     2714     2737     2745     2741     2740     2737 
    2736     2747     2767     2795     2837     2882     2921     2957 
    2984     2995     2991     2979     2964     2953     2960     2982 
    3002     3009     2994     2955     2906     2870     2851     2849 
    2862     2872     2878     2882     2887     2889     2887     2880 
    2871     2867     2878     2898     2917     2928     2921     2909 
    2909     2916     2917     2909     2895     2880     2870     2866 
    2860     2845     2832     2821     2812     2799     2785     2772 
    2770     2774     2781     2783     2775     2768     2763     2752 
    2745     2740     2724     2709     2709     2720     2741     2766 
    2781     2786     2779     2768     2767     2779     2794     2801 
    2801     2799     2795     2795     2799     2803     2806     2802 
    2793     2779     2766     2755     2740     2722     2712     2712 
    2718     2732     2748     2762     2771     2774     2770     2762 
    2751     2741     2744     2762     2790     2825     2868     2909 
    2940     2956     2956     2951     2952     2960     2976     3001 
    3030     3061     3091     3110     3115     3105     3082     3057 
    3041     3033     3024     3010     2994     2976     2957     2940 
    2922     2906     2899     2906     2922     2941     2953     2955 
    2948     2933     2925     2934     2957     2986     3018     3046 
    3064     3071     3073     3069     3057     3046     3052     3078 
    3109     3140     3159     3153     3125     3083     3042     3019 
    3010     3003     2994     2982     2965     2947     2926     2918 
    2914     2903     2891     2879     2872     2868     2863     2863 
    2870     2882     2890     2887     2874     2856     2840     2829 
    2820     2810     2805     2809     2826     2847     2857     2847 
    2813     2775     2754     2744     2743     2745     2747     2736 
    2710     2671     2620     2577     2550     2535     2519     2501 
    2484     2469     2458     2452     2444     2428     2408     2392 
    2381     2374     2373     2376     2382     2398     2416     2428 
    2427     2412     2393     2374     2363     2366     2382     2404 
    2420     2430     2428     2416     2398     2390     2397     2420 
    2454     2493     2525     2551     2570     2578     2586     2602 
    2621     2651     2691     2729     2760     2778     2778     2770 
    2772     2791     2816     2839     2856     2866     2866     2863 
    2862     2871     2893     2918     2934     2943     2945     2945 
    2952     2965     2983     3002     3019     3033     3044     3053 
    3060     3064     3075     3095     3118     3132     3133     3121 
    3102     3082     3063     3042     3017     2994     2974     2957 
    2947     2929     2893     2849     2805     2766     2745     2739 
    2735     2732     2722     2697     2662     2629     2610     2608 
    2610     2616     2631     2656     2683     2701     2708     2708 
    2712     2722     2743     2774     2810     2848     2880     2907 
    2932     2949     2957     2951     2941     2940     2947     2968 
    2994     3014     3024     3019     3007     2991     2968     2948 
    2941     2940     2938     2937     2926     2903     2874     2843 
    2820     2808     2795     2782     2768     2754     2740     2727 
    2710     2690     2677     2673     2674     2678     2677     2668 
    2663     2664     2663     2662     2662     2659     2648     2643 
    2654     2673     2694     2717     2737     2751     2759     2756 
    2754     2763     2790     2828     2862     2883     2895     2902 
    2902     2899     2893     2889     2895     2917     2941     2957 
    2959     2943     2917     2894     2884     2886     2894     2907 
    2920     2921     2914     2898     2875     2860     2853     2849 
    2857     2872     2880     2884     2880     2860     2836     2812 
    2791     2786     2795     2803     2808     2806     2797     2778 
    2755     2736     2728     2737     2762     2791     2822     2843 
    2845     2839     2835     2837     2841     2855     2878     2898 
    2917     2932     2936     2930     2922     2917     2926     2948 
    2972     2992     3006     3013     3009     2997     2990     2995 
    3013     3040     3059     3059     3040     3009     2976     2960 
    2953     2949     2951     2957     2959     2953     2940     2914 
    2890     2879     2876     2879     2893     2907     2916     2921 
    2925     2922     2921     2925     2933     2944     2957     2961 
    2956     2943     2930     2936     2956     2980     2999     3011 
    3017     3010     2990     2961     2940     2943     2959     2974 
    2979     2967     2948     2936     2930     2926     2925     2932 
    2944     2956     2970     2979     2983     2983     2979     2972 
    2968     2965     2961     2955     2948     2943     2941     2938 
    2933     2926     2914     2899     2890     2883     2874     2866 
    2859     2862     2870     2874     2875     2867     2844     2818 
    2798     2787     2787     2793     2793     2783     2763     2735 
    2705     2687     2681     2681     2686     2694     2697     2691 
    2674     2646     2619     2600     2598     2612     2624     2627 
    2620     2602     2577     2548     2528     2521     2527     2542 
    2563     2578     2587     2590     2587     2581     2579     2586 
    2596     2602     2601     2597     2594     2598     2612     2625 
    2632     2637     2648     2663     2679     2694     2704     2712 
    2728     2756     2791     2822     2845     2864     2878     2886 
    2895     2905     2922     2952     2975     2984     2995     3010 
    3019     3021     3019     3017     3015     3021     3040     3064 
    3082     3090     3088     3079     3068     3059     3052     3049 
    3048     3053     3063     3068     3071     3073     3072     3064 
    3056     3051     3055     3065     3071     3061     3042     3022 
    3002     2983     2971     2965     2961     2955     2940     2918 
    2894     2866     2836     2813     2801     2802     2810     2816 
    2817     2814     2805     2794     2785     2776     2776     2778 
    2776     2770     2758     2741     2728     2722     2729     2737 
    2740     2740     2733     2714     2690     2670     2654     2644 
    2647     2659     2673     2683     2687     2682     2670     2663 
    2667     2674     2686     2708     2735     2762     2785     2799 
    2812     2820     2828     2835     2839     2852     2872     2886 
    2886     2875     2864     2860     2867     2875     2872     2857 
    2841     2830     2832     2837     2836     2832     2825     2814 
    2803     2794     2785     2785     2795     2813     2835     2857 
    2874     2870     2852     2836     2828     2829     2844     2866 
    2887     2901     2899     2880     2852     2825     2813     2817 
    2830     2847     2860     2868     2867     2856     2847     2837 
    2825     2817     2810     2802     2793     2782     2768     2756 
    2743     2728     2713     2700     2690     2679     2671     2671 
    2675     2674     2668     2656     2640     2629     2624     2619 
    2621     2628     2629     2628     2621     2606     2592     2581 
    2579     2592     2617     2643     2663     2675     2673     2658 
    2644     2639     2643     2659     2686     2713     2731     2744 
    2749     2741     2729     2717     2714     2731     2760     2791 
    2817     2832     2836     2839     2839     2840     2851     2868 
    2886     2898     2907     2911     2907     2891     2870     2853 
    2841     2830     2826     2829     2837     2845     2848     2841 
    2825     2805     2797     2798     2803     2812     2824     2837 
    2841     2833     2820     2803     2791     2790     2797     2814 
    2837     2856     2866     2857     2835     2805     2783     2781 
