Origin Time       2025/01/13 21:19:00
Lat.              31.8
Long.             131.6
Depth. (km)       30
Mag.              6.9
Station Code      OKYH07
Station Lat.      35.0493
Station Long.     133.3169
Station Height(m) 563.5
Record Time       2025/01/13 21:21:01
Sampling Freq(Hz) 100Hz
Duration Time(s)  120
Dir.              5
Scale Factor      7845(gal)/8223790
Max. Acc. (gal)   0.774
Last Correction   2025/01/13 21:21:02
Memo.             
[...]
     824      816      807      805      814      824      832      838 
     839      843      855      865      862      853      842      832 
     837      855      877      895      904      904      899      889 
     885      896      909      916      924      927      913      897 
     882      874      880      888      895      891      865      826 
     795      785      801      828      839      828      805      783 
     768      769      776      773      756      723      689      672 
     666      673      689      708      726      746      769      780 
     784      795      803      808      820      827      823      823 
     826      820      810      801      793      788      792      791 
     783      774      768      770      787      811      828      831 
     819      808      805      800      792      789      783      783 
     796      814      834      847      849      847      843      843 
     853      865      866      861      853      838      828      837 
     847      851      850      857      874      896      918      935 
     939      931      911      888      877      874      881      899 
     919      932      934      924      918      926      946      957 
     943      915      893      893      912      932      935      915 
     889      876      874      873      862      842      822      818 
     835      865      892      901      891      864      839      832 
     845      858      858      838      820      820      838      861 
     873      864      841      828      842      870      896      912 
     920      915      903      888      878      884      892      892 
     880      864      858      858      853      851      854      857 
     868      881      876      857      843      841      841      837 
     828      831      854      885      916      939      947      943 
     934      923      901      869      843      841      855      874 
     893      901      904      912      913      903      885      865 
     855      849      826      801      783      777      797      819 
     819      803      780      773      788      801      799      781 
     761      758      784      814      823      819      810      805 
     808      816      830      841      850      868      885      896 
     900      896      888      886      899      920      943      958 
     950      924      908      901      899      895      884      870 
     855      842      831      812      787      770      774      795 
     812      812      801      801      810      814      822      832 
     828      815      811      823      841      846      838      820 
     807      810      823      837      846      855      869      891 
     911      922      924      926      938      957      954      918 
     865      822      812      837      869      888      870      826 
     784      765      785      834      876      893      881      839 
     792      761      743      727      707      696      699      708 
     724      749      770      777      780      781      783      785 
     778      760      745      739      749      773      787      770 
     739      724      733      750      768      777      781      781 
     769      756      746      734      723      726      749      784 
     818      842      845      818      778      746      730      733 
     746      749      747      756      757      754      756      751 
     735      718      710      726      751      768      777      777 
     780      784      792      804      811      805      799      784 
     764      761      789      841      885      901      893      874 
     861      862      876      893      908      915      916      919 
     916      909      895      869      842      828      824      823 
     822      805      764      720      692      688      696      702 
     706      707      697      687      691      703      707      696 
     680      669      675      685      696      712      733      764 
     810      861      903      927      930      922      931      966 
    1008     1035     1043     1031     1008      989      980      977 
     985      996      993      963      911      855      819      822 
     847      862      853      826      795      783      789      791 
     778      760      741      716      706      716      737      760 
     784      805      820      828      830      828      826      832 
     869      916      949      961      961      961      976     1000 
    1003      985      963      936      920      916      907      901 
     909      919      934      954      962      950      916      877 
     857      865      905      965     1015     1036     1036     1032 
    1030     1026     1023     1015     1005     1009     1021     1028 
    1020     1001      982      977      977      970      950      922 
     904      903      896      881      868      846      838      869 
     908      915      885      838      792      773      781      796 
     810      815      818      828      849      865      868      851 
     826      815      819      828      839      845      845      849 
     853      855      864      866      857      851      861      873 
     878      876      862      841      818      803      803      805 
     804      803      797      793      792      789      783      772 
     765      769      784      796      796      788      780      791 
     816      841      853      854      864      882      896      897 
     886      873      866      873      886      889      882      866 
     842      827      827      835      846      850      850      850 
     853      858      866      868      869      880      893      895 
     888      884      882      880      878      880      882      876 
     858      842      830      811      800      799      791      778 
     764      757      778      824      873      901      905      900 
     905      913      920      918      904      878      851      837 
     839      851      859      859      862      868      880      899 
     915      926      935      946      958      963      966      981 
    1016     1047     1054     1036     1021     1024     1043     1057 
    1032      985      955      962      996     1031     1034      992 
     936      918      938      973     1005     1026     1026     1017 
    1011     1001      994     1000     1012     1030     1047     1046 
    1036     1032     1027     1020     1027     1054     1093     1121 
    1128     1113     1096     1088     1086     1094     1112     1131 
    1147     1152     1146     1131     1116     1108     1100     1086 
    1073     1059     1043     1030     1017     1003      982      969 
     963      954      945      949      958      958      942      923 
     916      919      922      919      911      897      888      889 
     885      870      859      854      853      850      839      830 
     830      841      858      862      850      843      842      849 
     853      846      835      828      818      811      810      807 
     807      797      778      765      754      743      735      726 
     714      702      693      692      681      665      662      666 
     660      637      616      615      635      668      693      693 
     683      692      718      745      761      766      773      783 
     791      785      770      769      774      772      764      745 
     718      692      677      670      661      654      658      664 
     669      673      672      677      685      695      716      731 
     729      714      692      677      681      692      695      688 
     683      689      699      704      702      692      684      681 
     675      661      649      649      666      693      724      750 
     768      776      770      761      760      769      774      773 
     766      758      756      764      772      762      751      751 
     770      805      831      834      824      805      789      781 
     781      785      796      799      784      764      749      745 
     753      758      751      734      712      697      696      711 
     727      735      738      739      735      737      745      753 
     766      784      792      787      785      797      811      814 
     805      795      785      776      774      776      772      765 
     762      762      761      757      754      765      783      792 
     793      788      777      773      776      778      789      801 
     807      810      800      781      781      803      827      850 
     869      891      926      958      967      954      928      918 
     924      926      916      908      903      909      924      930 
     923      919      923      931      934      926      916      913 
     918      928      939      950      958      966      972      976 
     978      980      967      942      908      878      874      901 
     932      943      935      922      915      913      908      909 
     924      932      936      949      955      955      962      966 
     954      931      913      911      923      940      949      943 
     939      936      928      919      912      908      897      885 
     872      868      873      876      873      870      864      855 
     854      854      861      876      892      905      916      928 
     936      940      940      924      915      932      959      982 
     988      980      974      981      997     1019     1030     1036 
    1036     1017      997      990      981      967      962      958 
     954      955      957      953      942      920      896      874 
     862      854      845      839      841      847      851      851 
     854      866      878      892      903      903      893      884 
     877      870      868      873      885      895      896      884 
     864      846      842      847      864      877      873      859 
     847      838      831      827      827      819      792      757 
     731      727      735      746      746      738      737      753 
     778      791      777      760      746      727      718      720 
     720      720      719      716      718      720      727      738 
     751      768      781      797      818      834      851      878 
     900      912      923      932      932      930      932      932 
     931      938      946      946      936      926      912      905 
     920      940      950      953      950      940      930      923 
     923      920      908      892      874      858      837      805 
     777      750      723      703      685      654      610      568 
     533      513      511      511      495      465      436      417 
     410      421      434      440      445      438      427      436 
     456      480      510      537      561      589      621      643 
     656      665      683      704      719      715      696      677 
     672      679      685      683      675      669      666      675 
     689      700      704      704      699      697      703      723 
     749      768      777      778      781      789      800      808 
     810      810      812      824      846      873      891      899 
     905      909      904      897      882      846      811      793 
     789      792      783      751      710      681      677      680 
     679      669      653      642      653      687      723      749 
     772      800      828      851      862      865      866      873 
     895      916      922      912      907      911      932      963 
     988     1007     1023     1042     1070     1108     1144     1175 
    1194     1209     1232     1256     1275     1289     1296     1298 
    1301     1291     1267     1243     1217     1186     1158     1136 
    1113     1093     1088     1082     1061     1026      982      945 
     919      889      851      815      774      734      702      669 
     634      603      575      545      521      506      504      511 
     508      495      484      484      496      518      537      545 
     557      577      599      625      649      670      693      715 
     738      765      803      841      866      877      882      891 
     909      931      947      958      962      959      958      959 
     953      932      899      865      842      826      811      796 
     784      773      764      760      756      764      788      815 
     837      854      864      869      882      905      932      947 
     945      934      916      892      874      861      842      820 
     803      792      793      803      807      808      808      805 
     808      812      819      839      858      865      868      876 
     895      926      963      990      997      999     1003     1013 
    1031     1043     1048     1048     1054     1069     1080     1082 
    1086     1093     1100     1102     1100     1097     1096     1101 
    1105     1098     1077     1055     1035     1019     1019     1034 
    1040     1031     1017     1004      994     1000     1015     1027 
    1027     1011      993      978      961      950      939      918 
     888      855      818      774      729      672      604      538 
     479      426      375      318      253      195      151      124 
     105       86       66       45       33       45       68       91 
     121      149      184      234      295      359      415      461 
     506      564      639      722      801      874      936      996 
    1065     1131     1181     1215     1240     1258     1271     1287 
    1305     1317     1313     1294     1269     1240     1223     1213 
    1198     1171     1135     1101     1082     1078     1077     1070 
    1055     1043     1044     1053     1058     1067     1069     1066 
    1070     1078     1089     1096     1094     1093     1086     1075 
    1059     1038     1017      999      973      943      918      899 
     872      839      807      762      710      660      614      576 
     549      530      507      481      453      430      434      461 
     486      507      529      548      569      603      645      681 
     720      762      799      832      858      877      895      907 
     909      908      909      919      930      935      939      949 
     951      949      955      963      962      955      938      907 
     881      866      850      832      812      781      742      699 
     660      634      611      592      575      556      537      515 
     495      480      468      463      463      460      457      456 
     457      463      473      483      486      488      494      491 
     488      490      483      476      480      491      511      537 
     557      572      585      603      625      653      687      716 
     743      772      793      811      827      847      873      895 
     912      930      947      977     1011     1032     1048     1063 
    1077     1088     1089     1081     1069     1059     1054     1054 
    1051     1047     1043     1038     1034     1031     1021     1007 
     986      959      935      916      897      880      858      831 
     805      780      760      751      741      727      720      710 
     702      697      693      685      673      661      652      652 
     661      670      670      672      683      700      719      737 
     746      749      756      776      796      804      808      815 
     827      843      862      885      909      934      954      969 
     990     1016     1040     1071     1098     1123     1156     1196 
    1233     1260     1279     1298     1308     1308     1300     1282 
    1260     1247     1246     1243     1228     1210     1186     1159 
    1142     1120     1090     1059     1027     1004      996      985 
     973      958      943      939      945      946      940      936 
     934      930      922      907      885      862      843      826 
     805      770      724      684      649      610      571      538 
     506      479      461      452      442      438      445      464 
     486      511      542      583      631      681      730      773 
     808      842      869      893      920      946      969      990 
    1005     1013     1019     1024     1031     1039     1043     1036 
    1019      989      963      943      922      911      903      888 
     882      892      900      911      924      936      947      959 
     977      993     1005     1017     1028     1039     1055     1067 
    1073     1082     1090     1094     1104     1116     1125     1128 
    1123     1111     1097     1088     1082     1075     1055     1030 
    1000      977      962      943      920      907      896      884 
     872      859      847      832      815      799      781      769 
     764      757      747      734      716      697      684      677 
     670      662      656      638      608      575      544      521 
     498      471      448      426      403      386      375      364 
     356      351      352      353      349      345      352      360 
     369      384      406      434      471      506      537      571 
     612      658      704      750      789      820      850      884 
     909      931      951      969      981      989      996     1004 
    1008     1007     1005     1004     1001      999     1000      996 
     981      965      959      962      970      974      967      958 
     951      953      963      974      978      980      984      992 
    1000     1011     1019     1019     1016     1019     1017     1011 
    1003      989      967      943      916      886      853      814 
     764      710      660      612      571      538      508      476 
     450      437      436      445      460      473      484      500 
     518      546      591      634      661      684      707      730 
     756      781      800      812      814      820      832      832 
     823      820      824      831      841      847      851      858 
     870      895      922      943      957      967      986     1012 
    1040     1063     1081     1094     1107     1120     1138     1154 
    1169     1181     1190     1197     1205     1213     1219     1223 
    1228     1231     1228     1227     1225     1225     1224     1223 
    1221     1215     1209     1208     1204     1201     1202     1197 
    1181     1163     1150     1131     1116     1102     1086     1069 
    1047     1024     1013     1012     1013     1013     1008      997 
     992      994     1000      996      982      961      942      926 
     911      900      889      872      853      834      816      814 
     814      814      814      810      808      816      832      849 
     866      882      895      904      916      930      942      954 
     966      974      977      974      966      955      942      927 
     918      905      882      853      819      789      762      734 
     706      675      643      621      602      587      576      565 
     557      558      568      575      585      592      595      606 
