Origin Time       2025/01/13 21:19:00
Lat.              31.8
Long.             131.6
Depth. (km)       30
Mag.              6.9
Station Code      OKYH08
Station Lat.      34.9103
Station Long.     133.4055
Station Height(m) 330
Record Time       2025/01/13 21:20:49
Sampling Freq(Hz) 100Hz
Duration Time(s)  135
Dir.              1
Scale Factor      2942(gal)/8224139
Max. Acc. (gal)   0.544
Last Correction   2025/01/13 21:20:51
Memo.             
[...]
  -97717   -97679   -97634   -97596   -97578   -97588   -97632   -97688 
  -97735   -97748   -97722   -97691   -97672   -97652   -97627   -97606 
  -97605   -97645   -97735   -97849   -97945   -97997   -98015   -98014 
  -97983   -97930   -97888   -97873   -97876   -97889   -97918   -97949 
  -97981   -98022   -98050   -98042   -98015   -97984   -97934   -97864 
  -97803   -97762   -97729   -97699   -97680   -97667   -97650   -97622 
  -97579   -97519   -97449   -97372   -97299   -97245   -97236   -97267 
  -97310   -97341   -97357   -97375   -97402   -97425   -97434   -97440 
  -97464   -97507   -97557   -97606   -97642   -97665   -97684   -97702 
  -97717   -97729   -97740   -97748   -97749   -97748   -97757   -97789 
  -97850   -97922   -97983   -98020   -98014   -97970   -97926   -97892 
  -97887   -97926   -97989   -98032   -98055   -98072   -98085   -98085 
  -98072   -98053   -98027   -97980   -97923   -97872   -97819   -97757 
  -97688   -97627   -97611   -97637   -97646   -97626   -97603   -97580 
  -97557   -97542   -97529   -97517   -97515   -97528   -97563   -97607 
  -97644   -97679   -97721   -97754   -97771   -97781   -97799   -97816 
  -97823   -97825   -97838   -97870   -97908   -97946   -97980   -97978 
  -97910   -97804   -97713   -97652   -97614   -97588   -97580   -97587 
  -97598   -97614   -97627   -97625   -97602   -97563   -97510   -97457 
  -97407   -97368   -97348   -97366   -97440   -97568   -97704   -97807 
  -97865   -97873   -97841   -97827   -97864   -97911   -97924   -97904 
  -97865   -97826   -97818   -97854   -97923   -98001   -98053   -98045 
  -97991   -97914   -97835   -97777   -97734   -97704   -97706   -97718 
  -97710   -97698   -97713   -97773   -97872   -97965   -98011   -98007 
  -97970   -97916   -97850   -97780   -97711   -97659   -97638   -97638 
  -97634   -97622   -97614   -97613   -97611   -97611   -97617   -97625 
  -97630   -97629   -97613   -97586   -97560   -97553   -97582   -97627 
  -97665   -97691   -97713   -97748   -97798   -97843   -97858   -97827 
  -97773   -97715   -97649   -97591   -97553   -97532   -97526   -97530 
  -97541   -97573   -97602   -97602   -97605   -97622   -97630   -97629 
  -97638   -97654   -97671   -97706   -97753   -97792   -97827   -97861 
  -97884   -97903   -97907   -97893   -97889   -97896   -97914   -97951 
  -97983   -97991   -97993   -97974   -97934   -97915   -97908   -97889 
  -97856   -97814   -97765   -97711   -97648   -97583   -97540   -97511 
  -97486   -97491   -97533   -97567   -97569   -97560   -97553   -97567 
  -97627   -97727   -97827   -97895   -97920   -97935   -97978   -98028 
  -98062   -98091   -98107   -98093   -98055   -98019   -97997   -97981 
  -97970   -97968   -97968   -97953   -97922   -97870   -97802   -97737 
  -97700   -97706   -97745   -97796   -97837   -97834   -97787   -97738 
  -97718   -97711   -97696   -97694   -97721   -97741   -97738   -97757 
  -97807   -97837   -97807   -97726   -97629   -97552   -97502   -97474 
  -97480   -97495   -97467   -97407   -97355   -97329   -97333   -97363 
  -97402   -97447   -97514   -97600   -97672   -97700   -97687   -97661 
  -97648   -97652   -97675   -97703   -97708   -97691   -97672   -97672 
  -97677   -97672   -97644   -97596   -97568   -97587   -97614   -97621 
  -97634   -97668   -97704   -97730   -97734   -97711   -97656   -97591 
  -97540   -97502   -97490   -97506   -97514   -97503   -97479   -97434 
  -97416   -97444   -97459   -97428   -97370   -97316   -97274   -97245 
  -97241   -97264   -97268   -97249   -97267   -97351   -97479   -97618 
  -97707   -97738   -97748   -97744   -97745   -97780   -97826   -97852 
  -97864   -97883   -97910   -97920   -97902   -97860   -97789   -97717 
  -97671   -97650   -97664   -97710   -97777   -97854   -97914   -97941 
  -97946   -97935   -97923   -97927   -97938   -97943   -97927   -97888 
  -97857   -97858   -97873   -97883   -97883   -97881   -97876   -97862 
  -97845   -97816   -97771   -97717   -97676   -97659   -97641   -97611 
  -97590   -97584   -97588   -97607   -97625   -97603   -97529   -97436 
  -97382   -97405   -97488   -97580   -97646   -97686   -97696   -97699 
  -97721   -97760   -97791   -97791   -97760   -97713   -97667   -97636 
  -97627   -97653   -97700   -97745   -97754   -97718   -97672   -97652 
  -97664   -97703   -97750   -97789   -97794   -97753   -97684   -97611 
  -97559   -97541   -97551   -97583   -97640   -97696   -97725   -97737 
  -97748   -97756   -97771   -97791   -97818   -97843   -97850   -97848 
  -97845   -97831   -97796   -97744   -97692   -97667   -97652   -97627 
  -97618   -97649   -97707   -97767   -97802   -97784   -97727   -97671 
  -97629   -97607   -97614   -97633   -97646   -97660   -97694   -97749 
  -97802   -97835   -97858   -97876   -97876   -97835   -97767   -97708 
  -97681   -97690   -97733   -97795   -97841   -97852   -97842   -97848 
  -97888   -97947   -97995   -97997   -97954   -97897   -97861   -97862 
  -97883   -97892   -97888   -97869   -97846   -97849   -97879   -97922 
  -97954   -97958   -97947   -97914   -97856   -97800   -97780   -97808 
  -97860   -97884   -97877   -97860   -97841   -97810   -97757   -97687 
  -97637   -97646   -97696   -97729   -97729   -97704   -97659   -97615 
  -97598   -97590   -97583   -97573   -97564   -97556   -97542   -97522 
  -97506   -97494   -97484   -97488   -97507   -97534   -97565   -97583 
  -97572   -97561   -97559   -97552   -97564   -97605   -97636   -97657 
  -97699   -97749   -97788   -97816   -97835   -97843   -97850   -97860 
  -97854   -97822   -97776   -97733   -97703   -97679   -97644   -97613 
  -97606   -97586   -97528   -97479   -97460   -97452   -97452   -97451 
  -97444   -97455   -97492   -97533   -97552   -97541   -97509   -97464 
  -97437   -97451   -97499   -97557   -97595   -97600   -97591   -97586 
  -97598   -97621   -97627   -97625   -97634   -97650   -97672   -97715 
  -97756   -97753   -97680   -97559   -97459   -97424   -97436   -97461 
  -97491   -97519   -97521   -97484   -97440   -97398   -97356   -97349 
  -97391   -97461   -97536   -97594   -97626   -97660   -97702   -97719 
  -97715   -97721   -97741   -97752   -97748   -97756   -97791   -97826 
  -97842   -97839   -97825   -97814   -97812   -97807   -97798   -97780 
  -97756   -97768   -97802   -97796   -97765   -97762   -97779   -97777 
  -97758   -97742   -97726   -97702   -97657   -97592   -97537   -97505 
  -97492   -97501   -97528   -97568   -97602   -97607   -97595   -97575 
  -97565   -97573   -97586   -97619   -97669   -97687   -97669   -97648 
  -97648   -97683   -97742   -97811   -97884   -97934   -97946   -97922 
  -97876   -97842   -97835   -97852   -97866   -97861   -97857   -97891 
  -97958   -98024   -98049   -98028   -97992   -97950   -97896   -97837 
  -97794   -97804   -97873   -97947   -97999   -98035   -98053   -98057 
  -98074   -98119   -98178   -98228   -98253   -98248   -98217   -98178 
  -98146   -98112   -98062   -98007   -97953   -97900   -97853   -97812 
  -97772   -97748   -97753   -97771   -97785   -97802   -97808   -97815 
  -97839   -97868   -97891   -97915   -97927   -97918   -97911   -97927 
  -97964   -98015   -98069   -98119   -98155   -98167   -98150   -98108 
  -98053   -98000   -97951   -97916   -97897   -97883   -97864   -97848 
  -97848   -97861   -97853   -97804   -97722   -97642   -97602   -97613 
  -97675   -97761   -97830   -97875   -97895   -97888   -97875   -97858 
  -97831   -97795   -97762   -97746   -97746   -97768   -97802   -97819 
  -97834   -97858   -97860   -97819   -97756   -97669   -97575   -97501 
  -97445   -97421   -97452   -97513   -97567   -97594   -97595   -97592 
  -97586   -97557   -97519   -97492   -97483   -97495   -97519   -97549 
  -97580   -97600   -97610   -97618   -97619   -97610   -97606   -97619 
  -97644   -97669   -97696   -97737   -97789   -97843   -97897   -97950 
  -98001   -98041   -98061   -98088   -98135   -98185   -98236   -98285 
  -98311   -98311   -98300   -98296   -98296   -98296   -98282   -98242 
  -98200   -98180   -98158   -98113   -98057   -98015   -97985   -97943 
  -97873   -97799   -97749   -97713   -97668   -97638   -97636   -97640 
  -97636   -97626   -97623   -97634   -97661   -97698   -97722   -97731 
  -97725   -97702   -97677   -97652   -97626   -97605   -97576   -97541 
  -97519   -97495   -97456   -97420   -97389   -97352   -97320   -97291 
  -97248   -97216   -97217   -97243   -97290   -97351   -97417   -97484 
  -97519   -97506   -97479   -97459   -97437   -97416   -97402   -97397 
  -97410   -97444   -97476   -97499   -97514   -97518   -97518   -97524 
  -97544   -97578   -97623   -97687   -97757   -97835   -97912   -97973 
  -98015   -98028   -98011   -98008   -98038   -98082   -98142   -98208 
  -98254   -98277   -98288   -98275   -98231   -98172   -98120   -98093 
  -98096   -98100   -98074   -98034   -98005   -97977   -97938   -97887 
  -97831   -97780   -97726   -97665   -97617   -97580   -97544   -97495 
  -97438   -97371   -97306   -97289   -97316   -97353   -97401   -97438 
  -97456   -97484   -97537   -97592   -97644   -97687   -97714   -97729 
  -97744   -97771   -97814   -97860   -97887   -97877   -97853   -97821 
  -97775   -97746   -97742   -97741   -97757   -97794   -97806   -97780 
  -97735   -97704   -97707   -97733   -97765   -97798   -97830   -97883 
  -97951   -98011   -98068   -98131   -98185   -98231   -98274   -98289 
  -98266   -98244   -98235   -98220   -98193   -98142   -98065   -97978 
  -97883   -97761   -97646   -97567   -97513   -97461   -97401   -97333 
  -97268   -97195   -97112   -97048   -97019   -97013   -97011   -96997 
  -96971   -96955   -96970   -97005   -97021   -97005   -96979   -96961 
  -96946   -96925   -96901   -96888   -96897   -96915   -96942   -96970 
  -96985   -96988   -96989   -96993   -97005   -97024   -97052   -97083 
  -97100   -97113   -97156   -97224   -97286   -97330   -97362   -97402 
  -97457   -97511   -97540   -97540   -97541   -97551   -97553   -97549 
  -97551   -97559   -97576   -97603   -97641   -97690   -97726   -97731 
  -97718   -97696   -97676   -97665   -97677   -97718   -97762   -97796 
  -97839   -97891   -97927   -97937   -97915   -97879   -97843   -97816 
  -97794   -97779   -97767   -97756   -97744   -97719   -97699   -97711 
  -97749   -97791   -97826   -97857   -97887   -97910   -97915   -97919 
  -97933   -97935   -97923   -97915   -97911   -97907   -97907   -97923 
  -97969   -98024   -98062   -98092   -98119   -98126   -98123   -98124 
  -98115   -98081   -98028   -97966   -97918   -97896   -97885   -97877 
  -97887   -97902   -97895   -97866   -97837   -97818   -97812   -97800 
  -97768   -97731   -97707   -97687   -97669   -97660   -97650   -97636 
  -97636   -97657   -97703   -97762   -97819   -97868   -97903   -97937 
  -97980   -98022   -98070   -98130   -98185   -98232   -98263   -98281 
  -98298   -98297   -98261   -98203   -98134   -98066   -98018   -97980 
  -97945   -97919   -97900   -97880   -97848   -97803   -97760   -97725 
  -97696   -97679   -97667   -97646   -97627   -97617   -97607   -97603 
  -97606   -97615   -97619   -97599   -97557   -97499   -97438   -97403 
  -97401   -97403   -97402   -97401   -97380   -97337   -97291   -97262 
  -97252   -97270   -97297   -97316   -97344   -97376   -97395   -97414 
  -97460   -97536   -97615   -97665   -97695   -97707   -97710   -97723 
  -97753   -97792   -97845   -97902   -97947   -97980   -98004   -98019 
  -98018   -98004   -98001   -98015   -98024   -98020   -98019   -98023 
  -98032   -98062   -98115   -98169   -98201   -98197   -98182   -98186 
  -98197   -98205   -98223   -98224   -98190   -98149   -98112   -98073 
  -98031   -97978   -97910   -97835   -97754   -97668   -97586   -97511 
  -97438   -97374   -97325   -97287   -97252   -97220   -97195   -97179 
  -97168   -97155   -97143   -97132   -97116   -97096   -97086   -97085 
  -97089   -97101   -97117   -97143   -97187   -97243   -97293   -97339 
  -97387   -97426   -97461   -97495   -97524   -97553   -97602   -97659 
  -97711   -97767   -97827   -97877   -97919   -97960   -97988   -97993 
  -97987   -97987   -98005   -98028   -98034   -98022   -98000   -97974 
  -97953   -97942   -97938   -97934   -97924   -97907   -97891   -97877 
  -97857   -97829   -97811   -97815   -97835   -97875   -97930   -97969 
  -97964   -97923   -97869   -97821   -97789   -97767   -97731   -97696 
  -97680   -97669   -97659   -97656   -97654   -97636   -97607   -97571 
  -97518   -97471   -97444   -97434   -97438   -97447   -97457   -97471 
  -97464   -97433   -97397   -97368   -97343   -97312   -97279   -97270 
  -97285   -97310   -97335   -97356   -97378   -97395   -97407   -97428 
  -97455   -97474   -97501   -97542   -97595   -97660   -97710   -97734 
  -97745   -97754   -97765   -97776   -97769   -97745   -97707   -97641 
  -97557   -97494   -97459   -97438   -97428   -97425   -97426   -97426 
  -97426   -97430   -97438   -97459   -97495   -97530   -97555   -97588 
  -97649   -97730   -97831   -97946   -98064   -98184   -98292   -98365 
  -98404   -98419   -98415   -98413   -98436   -98467   -98475   -98450 
  -98405   -98370   -98355   -98347   -98334   -98313   -98285   -98259 
  -98236   -98209   -98190   -98184   -98177   -98173   -98182   -98190 
  -98188   -98184   -98176   -98169   -98185   -98209   -98203   -98159 
  -98086   -98001   -97924   -97856   -97792   -97723   -97633   -97519 
  -97403   -97301   -97209   -97127   -97051   -96979   -96939   -96917 
  -96870   -96797   -96735   -96682   -96635   -96591   -96527   -96442 
  -96356   -96292   -96256   -96229   -96209   -96199   -96201   -96219 
  -96253   -96298   -96360   -96441   -96535   -96637   -96747   -96855 
  -96943   -97009   -97071   -97139   -97220   -97317   -97426   -97538 
  -97649   -97761   -97864   -97946   -98010   -98072   -98132   -98186 
  -98238   -98280   -98311   -98340   -98375   -98408   -98436   -98450 
  -98451   -98450   -98448   -98455   -98469   -98459   -98421   -98365 
  -98289   -98211   -98162   -98153   -98174   -98216   -98280   -98361 
  -98435   -98493   -98533   -98554   -98551   -98540   -98533   -98510 
  -98458   -98404   -98374   -98336   -98292   -98263   -98235   -98193 
  -98142   -98080   -98010   -97931   -97854   -97794   -97748   -97717 
  -97702   -97676   -97644   -97619   -97588   -97546   -97509   -97464 
  -97399   -97333   -97289   -97266   -97245   -97218   -97182   -97139 
  -97100   -97058   -97008   -96962   -96938   -96934   -96947   -96982 
  -97042   -97110   -97194   -97312   -97438   -97546   -97637   -97706 
  -97735   -97744   -97742   -97741   -97752   -97760   -97754   -97746 
  -97733   -97700   -97640   -97561   -97491   -97437   -97395   -97372 
  -97349   -97316   -97298   -97317   -97366   -97437   -97524   -97606 
  -97686   -97773   -97881   -98018   -98167   -98312   -98446   -98566 
  -98672   -98755   -98828   -98899   -98950   -98975   -98986   -98988 
  -98995   -98986   -98944   -98884   -98833   -98790   -98749   -98706 
  -98658   -98617   -98585   -98560   -98545   -98525   -98497   -98473 
  -98451   -98412   -98355   -98293   -98227   -98153   -98089   -98046 
  -98018   -97993   -97962   -97915   -97862   -97816   -97776   -97742 
  -97715   -97681   -97645   -97605   -97556   -97486   -97391   -97290 
  -97187   -97073   -96959   -96849   -96739   -96639   -96543   -96466 
  -96434   -96435   -96450   -96469   -96491   -96522   -96562   -96615 
  -96678   -96747   -96820   -96901   -96984   -97062   -97150   -97255 
  -97366   -97476   -97594   -97719   -97835   -97937   -98023   -98105 
  -98193   -98284   -98362   -98405   -98423   -98437   -98456   -98490 
  -98544   -98608   -98678   -98745   -98788   -98801   -98794   -98774 
  -98732   -98670   -98601   -98532   -98470   -98427   -98388   -98327 
  -98250   -98166   -98069   -97954   -97843   -97742   -97646   -97556 
  -97470   -97384   -97309   -97258   -97221   -97171   -97102   -97023 
  -96942   -96870   -96800   -96734   -96692   -96669   -96646   -96615 
  -96569   -96514   -96464   -96415   -96377   -96368   -96383   -96410 
  -96449   -96493   -96538   -96591   -96657   -96731   -96801   -96869 
  -96940   -97020   -97096   -97160   -97218   -97283   -97355   -97426 
  -97507   -97599   -97690   -97783   -97873   -97956   -98034   -98103 
  -98162   -98216   -98254   -98284   -98305   -98302   -98273   -98228 
  -98161   -98081   -98008   -97941   -97868   -97775   -97668   -97568 
  -97464   -97344   -97216   -97087   -96959   -96854   -96770   -96701 
  -96665   -96660   -96668   -96687   -96714   -96743   -96772   -96807 
  -96855   -96915   -96975   -97048   -97144   -97256   -97383   -97519 
  -97671   -97845   -98008   -98142   -98266   -98385   -98501   -98610 
  -98686   -98725   -98752   -98761   -98744   -98707   -98651   -98572 
  -98483   -98381   -98261   -98132   -98011   -97900   -97799   -97711 
  -97641   -97584   -97534   -97487   -97444   -97410   -97389   -97383 
  -97398   -97433   -97467   -97487   -97503   -97530   -97568   -97602 
  -97610   -97578   -97514   -97441   -97380   -97344   -97325   -97303 
  -97271   -97240   -97222   -97222   -97243   -97278   -97321   -97378 
  -97444   -97517   -97591   -97668   -97767   -97885   -98011   -98132 
  -98250   -98367   -98479   -98577   -98660   -98724   -98768   -98809 
  -98840   -98851   -98847   -98822   -98774   -98712   -98640   -98555 
  -98463   -98371   -98273   -98166   -98069   -97981   -97892   -97818 
  -97767   -97722   -97680   -97650   -97629   -97609   -97590   -97576 
  -97568   -97578   -97610   -97649   -97684   -97714   -97744   -97784 
  -97830   -97873   -97903   -97911   -97895   -97854   -97796   -97737 
  -97687   -97641   -97591   -97548   -97513   -97471   -97410   -97347 
  -97289   -97233   -97181   -97133   -97098   -97081   -97081   -97098 
  -97131   -97183   -97255   -97329   -97394   -97451   -97499   -97537 
  -97573   -97621   -97675   -97718   -97750   -97783   -97815   -97845 
  -97870   -97877   -97873   -97873   -97877   -97870   -97853   -97833 
  -97814   -97795   -97776   -97752   -97735   -97734   -97734   -97730 
  -97721   -97711   -97710   -97723   -97753   -97783   -97804   -97818 
  -97821   -97818   -97823   -97842   -97873   -97904   -97941   -97991 
  -98046   -98105   -98170   -98243   -98305   -98350   -98379   -98404 
  -98424   -98431   -98429   -98435   -98444   -98451   -98456   -98458 
  -98459   -98464   -98462   -98448   -98435   -98417   -98400   -98383 
  -98356   -98320   -98284   -98244   -98217   -98212   -98212   -98207 
  -98201   -98184   -98154   -98135   -98128   -98109   -98076   -98047 
  -98020   -97987   -97956   -97922   -97883   -97843   -97796   -97737 
  -97675   -97615   -97549   -97474   -97402   -97336   -97272   -97204 
  -97131   -97077   -97040   -97002   -96958   -96921   -96900   -96888 
  -96881   -96886   -96904   -96927   -96952   -96982   -97005   -97019 
  -97028   -97032   -97032   -97040   -97065   -97100   -97135   -97159 
  -97174   -97175   -97159   -97131   -97096   -97066   -97042   -97016 
  -96997   -96988   -96986   -96997   -97015   -97019   -97012   -97008 
  -97016   -97035   -97058   -97087   -97125   -97155   -97182   -97216 
  -97251   -97286   -97326   -97372   -97434   -97511   -97592   -97669 
  -97744   -97814   -97873   -97926   -97973   -98007   -98035   -98062 
  -98077   -98085   -98109   -98139   -98159   -98177   -98203   -98231 
