Origin Time       2025/01/13 21:19:00
Lat.              31.8
Long.             131.6
Depth. (km)       30
Mag.              6.9
Station Code      OKYH08
Station Lat.      34.9103
Station Long.     133.4055
Station Height(m) 430
Record Time       2025/01/13 21:20:49
Sampling Freq(Hz) 100Hz
Duration Time(s)  135
Dir.              6
Scale Factor      7845(gal)/8223790
Max. Acc. (gal)   0.832
Last Correction   2025/01/13 21:20:51
Memo.             
[...]
   11403    11395    11388    11400    11434    11479    11497    11470 
   11449    11462    11485    11510    11541    11562    11578    11599 
   11612    11610    11596    11578    11550    11506    11470    11487 
   11523    11542    11572    11615    11628    11611    11585    11553 
   11533    11529    11518    11504    11506    11515    11523    11535 
   11556    11551    11508    11466    11457    11465    11479    11489 
   11477    11443    11425    11439    11437    11402    11396    11429 
   11445    11442    11426    11385    11352    11360    11395    11414 
   11410    11418    11452    11477    11480    11493    11519    11518 
   11473    11425    11394    11349    11319    11335    11348    11338 
   11341    11348    11342    11350    11356    11340    11329    11325 
   11325    11345    11367    11367    11376    11394    11372    11349 
   11368    11389    11392    11403    11425    11429    11425    11446 
   11493    11529    11534    11530    11535    11554    11570    11576 
   11580    11591    11610    11643    11680    11696    11696    11692 
   11691    11691    11696    11707    11705    11680    11661    11661 
   11649    11614    11592    11597    11607    11593    11553    11519 
   11526    11535    11500    11456    11439    11423    11387    11368 
   11375    11389    11406    11404    11369    11337    11323    11317 
   11323    11334    11322    11310    11315    11323    11345    11385 
   11411    11408    11402    11402    11375    11317    11287    11310 
   11334    11333    11326    11331    11344    11345    11360    11398 
   11418    11403    11384    11383    11400    11427    11452    11473 
   11508    11547    11568    11584    11604    11614    11618    11619 
   11615    11630    11665    11678    11670    11673    11693    11718 
   11720    11703    11691    11688    11678    11668    11653    11638 
   11642    11653    11650    11635    11624    11620    11600    11561 
   11537    11537    11539    11543    11542    11527    11523    11539 
   11549    11551    11560    11546    11506    11476    11475    11483 
   11484    11461    11429    11408    11389    11360    11325    11299 
   11296    11313    11311    11288    11271    11264    11246    11232 
   11234    11244    11248    11256    11280    11314    11341    11364 
   11385    11411    11438    11460    11484    11511    11527    11518 
   11492    11450    11410    11407    11442    11468    11464    11449 
   11435    11425    11416    11411    11419    11446    11460    11430 
   11380    11352    11348    11362    11383    11396    11411    11434 
   11441    11419    11394    11381    11352    11308    11284    11267 
   11245    11230    11221    11215    11210    11206    11217    11222 
   11219    11236    11264    11272    11269    11287    11325    11350 
   11346    11345    11380    11421    11435    11453    11480    11493 
   11502    11534    11573    11604    11637    11682    11722    11730 
   11724    11739    11762    11774    11794    11819    11826    11819 
   11809    11799    11782    11766    11769    11794    11809    11801 
   11786    11789    11796    11772    11718    11674    11649    11622 
   11599    11589    11592    11599    11611    11627    11632    11619 
   11605    11608    11603    11558    11496    11458    11456    11469 
   11476    11473    11473    11469    11457    11449    11430    11402 
   11391    11385    11372    11358    11356    11367    11375    11362 
   11345    11348    11365    11362    11346    11365    11416    11456 
   11480    11511    11550    11573    11573    11566    11554    11526 
   11504    11496    11475    11442    11429    11430    11415    11381 
   11369    11391    11406    11406    11430    11469    11491    11497 
   11506    11522    11537    11534    11531    11535    11533    11527 
   11522    11496    11453    11418    11400    11381    11352    11322 
   11303    11295    11296    11303    11327    11358    11379    11398 
   11422    11430    11427    11439    11445    11416    11392    11400 
   11410    11395    11362    11340    11344    11352    11352    11357 
   11369    11384    11394    11384    11380    11392    11396    11394 
   11395    11395    11399    11399    11388    11391    11412    11430 
   11443    11453    11461    11491    11524    11535    11549    11587 
   11616    11612    11601    11618    11643    11641    11615    11591 
   11583    11580    11569    11561    11576    11600    11620    11634 
   11630    11619    11622    11627    11627    11634    11649    11677 
   11716    11745    11763    11778    11793    11807    11796    11751 
   11704    11662    11618    11584    11564    11545    11530    11514 
   11499    11485    11468    11456    11450    11430    11408    11400 
   11377    11331    11287    11257    11249    11252    11238    11227 
   11237    11223    11183    11176    11205    11229    11245    11257 
   11259    11249    11227    11207    11206    11214    11217    11215 
   11206    11202    11218    11226    11218    11221    11241    11275 
   11315    11337    11350    11387    11407    11399    11403    11429 
   11452    11469    11488    11503    11511    11520    11531    11527 
   11511    11504    11518    11535    11545    11551    11564    11581 
   11604    11622    11630    11632    11628    11620    11619    11616 
   11615    11639    11670    11686    11693    11695    11688    11682 
   11674    11657    11626    11583    11549    11529    11497    11476 
   11492    11511    11499    11492    11511    11527    11531    11543 
   11562    11587    11603    11612    11632    11661    11682    11695 
   11691    11689    11712    11738    11736    11727    11731    11727 
   11700    11673    11655    11646    11638    11616    11592    11578 
   11570    11561    11553    11550    11546    11537    11526    11522 
   11520    11527    11549    11562    11566    11587    11612    11618 
   11603    11576    11558    11549    11530    11519    11523    11526 
   11526    11523    11493    11446    11422    11418    11402    11372 
   11344    11319    11291    11259    11219    11205    11234    11280 
   11308    11313    11303    11307    11326    11344    11353    11365 
   11387    11410    11412    11403    11407    11421    11419    11412 
   11415    11425    11433    11439    11449    11462    11468    11469 
   11484    11503    11518    11537    11561    11585    11610    11631 
   11634    11620    11615    11612    11592    11573    11565    11557 
   11537    11502    11473    11465    11452    11421    11412    11431 
   11435    11418    11404    11394    11381    11373    11354    11322 
   11294    11273    11257    11252    11259    11273    11303    11346 
   11392    11429    11443    11449    11465    11477    11479    11485 
   11491    11488    11502    11516    11503    11479    11466    11460 
   11445    11426    11406    11385    11373    11373    11377    11375 
   11365    11364    11369    11360    11335    11323    11314    11287 
   11264    11259    11254    11245    11241    11242    11238    11232 
   11234    11246    11250    11250    11265    11280    11284    11306 
   11353    11396    11421    11453    11496    11516    11516    11524 
   11541    11549    11545    11529    11516    11512    11511    11524 
   11560    11595    11611    11615    11614    11612    11612    11612 
   11605    11608    11641    11681    11704    11722    11753    11790 
   11815    11834    11867    11909    11935    11944    11951    11955 
   11947    11917    11886    11873    11866    11838    11793    11747 
   11712    11682    11653    11623    11588    11539    11488    11446 
   11408    11373    11349    11330    11300    11261    11238    11238 
   11230    11207    11202    11213    11215    11219    11244    11276 
   11288    11287    11300    11311    11300    11287    11273    11250 
   11236    11221    11190    11159    11130    11106    11094    11071 
   11041    11048    11064    11053    11040    11053    11084    11114 
   11137    11163    11199    11230    11246    11261    11283    11326 
   11394    11446    11472    11502    11545    11583    11611    11647 
   11699    11742    11759    11767    11778    11773    11745    11708 
   11677    11666    11669    11668    11657    11643    11638    11645 
   11645    11631    11635    11659    11674    11677    11682    11682 
   11674    11668    11670    11681    11692    11681    11659    11642 
   11622    11607    11607    11597    11583    11577    11560    11524 
   11488    11466    11464    11464    11464    11464    11454    11442 
   11431    11408    11384    11377    11384    11391    11385    11373 
   11379    11394    11404    11415    11422    11419    11403    11371 
   11338    11319    11306    11287    11268    11263    11261    11244 
   11219    11192    11168    11167    11173    11164    11161    11183 
   11202    11200    11203    11230    11250    11234    11205    11184 
   11160    11141    11134    11114    11097    11106    11115    11109 
   11109    11126    11151    11172    11190    11219    11257    11283 
   11302    11334    11373    11406    11430    11450    11464    11484 
   11518    11556    11596    11650    11715    11782    11839    11870 
   11905    11943    11950    11940    11955    11978    11989    11983 
   11970    11978    12005    12021    12027    12031    12042    12058 
   12074    12089    12106    12132    12164    12202    12233    12264 
   12290    12302    12301    12283    12251    12217    12179    12132 
   12093    12050    11986    11923    11878    11840    11805    11781 
   11767    11759    11749    11732    11719    11701    11665    11618 
   11573    11535    11497    11446    11395    11358    11314    11250 
   11196    11149    11095    11041    10995    10962    10941    10926 
   10918    10918    10922    10925    10929    10930    10933    10945 
   10966    10976    10978    10986    11001    11010    11011    11011 
   11025    11048    11053    11055    11065    11078    11091    11117 
   11145    11176    11222    11271    11315    11356    11395    11456 
   11526    11581    11627    11677    11724    11757    11770    11778 
   11794    11823    11857    11884    11898    11909    11911    11901 
   11889    11881    11874    11867    11861    11859    11863    11848 
   11816    11786    11755    11709    11664    11626    11577    11522 
   11477    11446    11410    11367    11337    11321    11300    11276 
   11257    11250    11253    11264    11281    11300    11313    11327 
   11348    11350    11330    11307    11295    11277    11242    11213 
   11200    11200    11206    11206    11195    11187    11182    11168 
   11156    11163    11178    11190    11203    11230    11264    11290 
   11303    11307    11314    11326    11337    11345    11350    11346 
   11342    11341    11327    11307    11296    11296    11291    11273 
   11252    11230    11205    11171    11142    11128    11125    11130 
   11152    11175    11192    11213    11242    11286    11331    11364 
   11388    11416    11454    11493    11519    11533    11543    11551 
   11556    11549    11534    11530    11535    11542    11557    11566 
   11573    11599    11627    11638    11649    11672    11691    11709 
   11727    11736    11750    11757    11749    11740    11734    11716 
   11700    11693    11692    11693    11689    11684    11688    11699 
   11700    11689    11682    11677    11668    11661    11664    11662 
   11664    11666    11647    11615    11588    11550    11500    11458 
   11410    11358    11327    11296    11252    11219    11199    11171 
   11130    11088    11057    11038    11026    11007    10979    10962 
   10966    10967    10974    10995    11024    11052    11079    11105 
   11144    11200    11259    11315    11369    11418    11475    11535 
   11584    11612    11645    11695    11745    11776    11790    11793 
   11807    11830    11835    11824    11820    11816    11805    11801 
   11794    11782    11782    11800    11811    11817    11834    11848 
   11865    11882    11898    11923    11948    11955    11952    11954 
   11959    11958    11951    11947    11948    11947    11939    11925 
   11902    11877    11850    11819    11778    11735    11699    11666 
   11627    11580    11541    11514    11487    11462    11450    11438 
   11418    11408    11408    11399    11380    11373    11376    11384 
   11389    11383    11358    11337    11323    11300    11267    11249 
   11256    11265    11263    11271    11306    11357    11396    11421 
   11441    11458    11475    11488    11496    11493    11492    11489 
   11473    11449    11439    11449    11457    11446    11425    11410 
   11395    11371    11345    11326    11311    11291    11273    11273 
   11277    11276    11283    11296    11303    11308    11329    11352 
   11361    11362    11369    11389    11414    11443    11481    11518 
   11549    11588    11632    11665    11684    11705    11735    11754 
   11758    11766    11780    11782    11782    11786    11790    11792 
   11794    11805    11819    11826    11817    11800    11780    11750 
   11715    11693    11680    11654    11619    11584    11553    11530 
   11512    11497    11479    11452    11418    11384    11360    11338 
   11308    11272    11245    11214    11175    11137    11099    11056 
   11016    10974    10929    10881    10832    10787    10747    10710 
   10683    10658    10635    10624    10615    10605    10611    10627 
   10648    10678    10728    10793    10855    10918    10995    11076 
   11146    11213    11281    11345    11399    11454    11518    11574 
   11622    11676    11738    11797    11847    11898    11948    11993 
   12043    12097    12132    12147    12162    12170    12163    12152 
   12137    12116    12094    12078    12050    12008    11975    11954 
   11929    11897    11863    11842    11834    11821    11808    11800 
   11786    11761    11738    11724    11711    11693    11678    11666 
   11641    11607    11584    11570    11554    11530    11502    11473 
   11438    11402    11380    11365    11341    11314    11292    11268 
   11236    11200    11176    11159    11140    11119    11110    11105 
   11097    11086    11079    11075    11072    11076    11079    11084 
   11105    11128    11133    11130    11141    11164    11180    11184 
   11186    11195    11213    11227    11236    11245    11257    11271 
   11284    11288    11292    11313    11341    11358    11376    11392 
   11399    11406    11414    11419    11434    11454    11468    11472 
   11477    11487    11495    11503    11512    11527    11543    11546 
   11542    11550    11566    11576    11587    11597    11599    11601 
   11603    11595    11591    11604    11626    11650    11673    11685 
   11695    11718    11734    11731    11727    11731    11730    11723 
   11719    11718    11720    11726    11727    11724    11726    11728 
   11726    11718    11709    11701    11700    11707    11712    11715 
   11724    11739    11746    11742    11735    11732    11732    11723 
   11709    11701    11695    11682    11661    11634    11618    11607 
   11596    11588    11580    11566    11554    11547    11542    11533 
   11527    11526    11518    11503    11497    11499    11491    11473 
   11464    11469    11472    11469    11475    11483    11491    11496 
   11497    11502    11515    11531    11541    11541    11534    11533 
   11541    11546    11539    11537    11545    11543    11530    11519 
   11519    11512    11497    11488    11488    11487    11483    11489 
   11515    11551    11581    11603    11620    11631    11641    11651 
   11657    11655    11654    11649    11642    11631    11619    11615 
   11611    11592    11573    11565    11554    11535    11512    11485 
   11460    11431    11406    11388    11375    11361    11348    11340 
   11330    11319    11306    11294    11292    11296    11295    11290 
   11290    11295    11303    11313    11318    11311    11306    11304 
   11296    11281    11273    11273    11276    11273    11271    11273 
   11276    11279    11288    11303    11317    11330    11345    11360 
   11381    11408    11429    11446    11468    11489    11507    11523 
   11531    11530    11538    11560    11576    11585    11599    11620 
   11645    11669    11696    11716    11722    11720    11724    11727 
   11727    11727    11724    11719    11715    11712    11699    11670 
   11641    11603    11557    11516    11475    11427    11388    11358 
   11322    11279    11237    11203    11173    11137    11101    11078 
   11063    11056    11064    11074    11078    11088    11113    11138 
   11161    11194    11234    11272    11303    11326    11348    11373 
   11389    11402    11422    11448    11473    11497    11518    11539 
   11561    11580    11596    11605    11608    11605    11601    11595 
   11580    11560    11547    11541    11533    11527    11520    11507 
   11492    11473    11449    11426    11408    11394    11383    11376 
   11364    11346    11326    11311    11303    11298    11287    11276 
   11269    11265    11259    11257    11265    11279    11295    11310 
   11327    11348    11371    11395    11427    11456    11476    11500 
   11531    11554    11568    11584    11597    11607    11612    11619 
   11631    11646    11661    11685    11713    11734    11754    11778 
   11793    11796    11792    11792    11796    11797    11794    11793 
   11792    11785    11769    11750    11734    11720    11708    11693 
   11676    11658    11641    11622    11601    11587    11577    11570 
   11557    11541    11527    11515    11502    11488    11476    11468 
   11464    11454    11445    11450    11462    11466    11466    11473 
   11475    11462    11439    11418    11415    11422    11416    11406 
   11396    11387    11372    11352    11327    11314    11311    11306 
   11292    11277    11254    11234    11226    11217    11203    11196 
   11194    11183    11167    11155    11141    11122    11110    11103 
   11088    11075    11071    11072    11076    11074    11068    11065 
   11060    11045    11030    11022    11021    11028    11037    11047 
   11065    11091    11117    11140    11163    11188    11218    11253 
   11292    11333    11372    11404    11430    11453    11473    11488 
   11504    11518    11518    11512    11514    11518    11516    11516 
   11518    11519    11523    11526    11526    11524    11520    11516 
   11515    11522    11534    11547    11569    11595    11620    11654 
   11693    11724    11738    11751    11770    11788    11805    11828 
   11848    11863    11875    11886    11884    11874    11869    11862 
   11848    11830    11809    11786    11754    11715    11676    11638 
   11605    11581    11561    11538    11516    11499    11481    11458 
   11433    11410    11387    11369    11356    11340    11322    11304 
   11290    11279    11269    11256    11240    11227    11223    11221 
   11213    11206    11207    11210    11213    11217    11226    11236 
   11241    11248    11252    11252    11254    11261    11264    11267 
   11272    11276    11279    11281    11286    11295    11308    11321 
   11333    11350    11372    11395    11416    11437    11457    11483 
