Origin Time       2025/01/13 21:19:00
Lat.              31.8
Long.             131.6
Depth. (km)       30
Mag.              6.9
Station Code      OKYH02
Station Lat.      34.7501
Station Long.     134.0702
Station Height(m) -170
Record Time       2025/01/13 21:20:55
Sampling Freq(Hz) 100Hz
Duration Time(s)  126
Dir.              3
Scale Factor      3923(gal)/8224838
Max. Acc. (gal)   0.393
Last Correction   2025/01/13 21:20:56
Memo.             
[...]
  -54938   -54942   -54943   -54932   -54926   -54940   -54959   -54970 
  -54984   -54985   -54974   -54993   -55020   -55026   -55050   -55086 
  -55098   -55123   -55171   -55205   -55233   -55248   -55231   -55225 
  -55250   -55266   -55262   -55256   -55256   -55248   -55232   -55228 
  -55235   -55229   -55212   -55197   -55185   -55179   -55178   -55173 
  -55162   -55146   -55129   -55120   -55112   -55105   -55085   -55059 
  -55055   -55058   -55034   -55004   -54984   -54962   -54947   -54946 
  -54928   -54904   -54891   -54874   -54854   -54849   -54841   -54831 
  -54846   -54849   -54828   -54816   -54801   -54791   -54799   -54804 
  -54815   -54838   -54839   -54830   -54839   -54850   -54854   -54870 
  -54880   -54873   -54874   -54888   -54892   -54882   -54864   -54845 
  -54828   -54820   -54832   -54847   -54851   -54846   -54835   -54828 
  -54818   -54803   -54804   -54796   -54776   -54770   -54758   -54733 
  -54716   -54695   -54668   -54658   -54653   -54646   -54645   -54627 
  -54603   -54603   -54608   -54612   -54625   -54626   -54625   -54648 
  -54673   -54691   -54708   -54710   -54702   -54710   -54716   -54718 
  -54729   -54739   -54746   -54751   -54757   -54761   -54762   -54760 
  -54751   -54742   -54742   -54743   -54739   -54730   -54715   -54697 
  -54683   -54670   -54680   -54708   -54741   -54784   -54831   -54858 
  -54873   -54891   -54900   -54915   -54950   -54970   -54969   -54999 
  -55044   -55063   -55082   -55101   -55094   -55092   -55107   -55112 
  -55116   -55139   -55170   -55182   -55175   -55186   -55201   -55189 
  -55181   -55174   -55148   -55134   -55131   -55125   -55134   -55152 
  -55156   -55148   -55147   -55146   -55124   -55098   -55082   -55058 
  -55034   -55027   -55030   -55039   -55057   -55065   -55063   -55059 
  -55050   -55042   -55043   -55044   -55043   -55053   -55055   -55035 
  -55019   -55023   -55024   -55028   -55047   -55063   -55075   -55097 
  -55125   -55146   -55154   -55170   -55197   -55221   -55228   -55239 
  -55256   -55259   -55267   -55283   -55283   -55296   -55325   -55335 
  -55341   -55356   -55352   -55351   -55362   -55364   -55364   -55370 
  -55371   -55363   -55345   -55317   -55293   -55281   -55271   -55255 
  -55233   -55209   -55171   -55131   -55096   -55065   -55040   -55017 
  -54986   -54962   -54940   -54909   -54882   -54858   -54831   -54820 
  -54814   -54796   -54791   -54780   -54750   -54749   -54753   -54730 
  -54726   -54726   -54697   -54685   -54688   -54670   -54652   -54643 
  -54649   -54664   -54672   -54681   -54697   -54707   -54716   -54733 
  -54743   -54761   -54785   -54803   -54816   -54823   -54822   -54820 
  -54824   -54832   -54834   -54834   -54851   -54870   -54882   -54900 
  -54903   -54880   -54865   -54858   -54843   -54831   -54819   -54807 
  -54819   -54839   -54846   -54866   -54886   -54881   -54870   -54869 
  -54872   -54881   -54876   -54870   -54874   -54872   -54868   -54872 
  -54870   -54857   -54841   -54822   -54803   -54785   -54766   -54745 
  -54727   -54716   -54715   -54730   -54753   -54774   -54793   -54823 
  -54850   -54862   -54874   -54886   -54900   -54920   -54934   -54926 
  -54924   -54932   -54926   -54913   -54907   -54893   -54882   -54878 
  -54868   -54854   -54838   -54804   -54765   -54743   -54730   -54710 
  -54691   -54681   -54680   -54680   -54675   -54670   -54670   -54676 
  -54693   -54706   -54692   -54691   -54722   -54747   -54769   -54805 
  -54822   -54819   -54827   -54834   -54831   -54841   -54858   -54882 
  -54907   -54913   -54911   -54903   -54886   -54877   -54868   -54842 
  -54814   -54804   -54815   -54824   -54827   -54837   -54842   -54843 
  -54858   -54874   -54882   -54899   -54916   -54938   -54972   -54990 
  -54989   -55007   -55030   -55032   -55050   -55089   -55113   -55142 
  -55179   -55204   -55223   -55246   -55270   -55290   -55290   -55278 
  -55275   -55271   -55277   -55294   -55300   -55296   -55296   -55281 
  -55267   -55277   -55285   -55285   -55285   -55270   -55240   -55217 
  -55200   -55177   -55146   -55112   -55075   -55040   -55016   -54992 
  -54965   -54957   -54954   -54938   -54922   -54908   -54897   -54893 
  -54874   -54846   -54835   -54824   -54795   -54768   -54741   -54703 
  -54681   -54669   -54656   -54650   -54630   -54595   -54584   -54575 
  -54557   -54562   -54560   -54549   -54569   -54584   -54580   -54599 
  -54623   -54626   -54639   -54673   -54707   -54743   -54796   -54847 
  -54893   -54943   -55005   -55069   -55120   -55169   -55221   -55269 
  -55304   -55329   -55350   -55359   -55355   -55351   -55363   -55381 
  -55381   -55371   -55362   -55350   -55327   -55305   -55290   -55260 
  -55213   -55170   -55127   -55071   -55021   -54972   -54907   -54851 
  -54820   -54792   -54769   -54758   -54739   -54722   -54733   -54749 
  -54754   -54777   -54816   -54849   -54876   -54904   -54924   -54935 
  -54943   -54954   -54966   -54981   -55000   -55007   -54992   -54992 
  -54996   -54982   -54977   -54976   -54947   -54920   -54915   -54901 
  -54878   -54870   -54865   -54854   -54845   -54837   -54832   -54828 
  -54830   -54835   -54835   -54841   -54857   -54876   -54901   -54916 
  -54920   -54938   -54942   -54932   -54945   -54945   -54924   -54913 
  -54907   -54897   -54882   -54855   -54839   -54839   -54834   -54838 
  -54851   -54850   -54853   -54859   -54839   -54816   -54815   -54804 
  -54791   -54791   -54781   -54769   -54773   -54783   -54796   -54814 
  -54831   -54854   -54884   -54904   -54913   -54926   -54942   -54965 
  -54997   -55027   -55055   -55088   -55115   -55123   -55129   -55152 
  -55177   -55208   -55236   -55252   -55275   -55309   -55329   -55339 
  -55351   -55355   -55362   -55370   -55351   -55312   -55274   -55231 
  -55196   -55179   -55163   -55150   -55142   -55125   -55112   -55104 
  -55096   -55093   -55088   -55082   -55088   -55084   -55082   -55100 
  -55107   -55089   -55080   -55086   -55080   -55065   -55074   -55089 
  -55081   -55077   -55085   -55082   -55082   -55092   -55094   -55093 
  -55105   -55120   -55124   -55138   -55159   -55177   -55193   -55204 
  -55219   -55250   -55269   -55273   -55281   -55283   -55285   -55293 
  -55291   -55286   -55283   -55274   -55258   -55237   -55209   -55188 
  -55165   -55128   -55088   -55054   -55012   -54961   -54918   -54878 
  -54827   -54788   -54769   -54733   -54696   -54683   -54660   -54637 
  -54634   -54629   -54607   -54585   -54564   -54535   -54504   -54486 
  -54486   -54494   -54498   -54517   -54549   -54572   -54610   -54666 
  -54706   -54742   -54780   -54805   -54838   -54888   -54942   -55005 
  -55073   -55131   -55196   -55269   -55331   -55377   -55413   -55437 
  -55452   -55462   -55458   -55445   -55449   -55453   -55441   -55436 
  -55425   -55398   -55382   -55371   -55343   -55321   -55306   -55273 
  -55239   -55212   -55182   -55161   -55138   -55107   -55088   -55062 
  -55026   -55008   -54993   -54965   -54943   -54928   -54896   -54862 
  -54839   -54828   -54820   -54807   -54796   -54792   -54789   -54796 
  -54805   -54805   -54801   -54804   -54816   -54816   -54807   -54818 
  -54818   -54800   -54793   -54783   -54768   -54760   -54742   -54723 
  -54710   -54691   -54675   -54670   -54653   -54630   -54625   -54618 
  -54607   -54608   -54599   -54576   -54568   -54567   -54568   -54583 
  -54604   -54627   -54657   -54688   -54722   -54753   -54765   -54768 
  -54774   -54778   -54781   -54789   -54787   -54765   -54756   -54760 
  -54745   -54727   -54737   -54733   -54708   -54715   -54723   -54711 
  -54724   -54741   -54737   -54746   -54764   -54777   -54807   -54834 
  -54845   -54853   -54853   -54855   -54878   -54896   -54895   -54903 
  -54909   -54907   -54915   -54922   -54918   -54916   -54907   -54903 
  -54907   -54889   -54874   -54884   -54869   -54826   -54804   -54787 
  -54745   -54715   -54699   -54668   -54649   -54658   -54654   -54642 
  -54664   -54692   -54707   -54734   -54766   -54778   -54791   -54824 
  -54845   -54843   -54857   -54881   -54896   -54905   -54916   -54922 
  -54920   -54915   -54918   -54915   -54899   -54891   -54889   -54877 
  -54864   -54855   -54843   -54839   -54837   -54830   -54838   -54855 
  -54869   -54895   -54930   -54958   -55005   -55071   -55116   -55156 
  -55212   -55247   -55275   -55318   -55339   -55340   -55354   -55367 
  -55362   -55345   -55335   -55318   -55289   -55260   -55231   -55178 
  -55121   -55088   -55055   -55013   -54976   -54938   -54897   -54858 
  -54819   -54777   -54738   -54726   -54723   -54710   -54702   -54695 
  -54683   -54685   -54697   -54692   -54693   -54707   -54704   -54700 
  -54712   -54699   -54679   -54689   -54696   -54697   -54718   -54730 
  -54731   -54742   -54743   -54726   -54704   -54693   -54685   -54664 
  -54638   -54634   -54627   -54603   -54598   -54600   -54588   -54589 
  -54610   -54623   -54639   -54662   -54677   -54685   -54685   -54691 
  -54711   -54729   -54729   -54738   -54760   -54778   -54792   -54810 
  -54834   -54857   -54869   -54888   -54911   -54930   -54954   -54969 
  -54973   -54996   -55015   -55012   -55015   -55019   -55008   -55000 
  -54997   -55004   -55024   -55047   -55062   -55073   -55085   -55111 
  -55150   -55182   -55209   -55246   -55278   -55293   -55304   -55323 
  -55350   -55372   -55386   -55405   -55421   -55417   -55401   -55391 
  -55379   -55362   -55355   -55351   -55344   -55348   -55355   -55347 
  -55340   -55344   -55340   -55324   -55309   -55300   -55286   -55269 
  -55244   -55228   -55233   -55250   -55254   -55255   -55270   -55286 
  -55304   -55327   -55340   -55351   -55367   -55371   -55378   -55398 
  -55412   -55424   -55444   -55453   -55464   -55471   -55462   -55463 
  -55464   -55453   -55452   -55447   -55436   -55451   -55460   -55445 
  -55455   -55472   -55459   -55456   -55466   -55453   -55459   -55479 
  -55474   -55466   -55464   -55455   -55441   -55424   -55416   -55413 
  -55398   -55387   -55378   -55348   -55320   -55300   -55270   -55239 
  -55200   -55154   -55123   -55081   -55024   -54974   -54924   -54880 
  -54841   -54792   -54747   -54704   -54664   -54638   -54595   -54537 
  -54504   -54483   -54456   -54434   -54421   -54406   -54402   -54411 
  -54411   -54402   -54399   -54400   -54407   -54419   -54423   -54418 
  -54403   -54391   -54382   -54360   -54336   -54321   -54311   -54314 
  -54324   -54329   -54329   -54334   -54345   -54353   -54363   -54382 
  -54392   -54395   -54407   -54423   -54436   -54448   -54457   -54476 
  -54504   -54527   -54540   -54549   -54575   -54604   -54627   -54652 
  -54675   -54691   -54718   -54751   -54785   -54824   -54862   -54895 
  -54946   -55007   -55050   -55088   -55128   -55163   -55188   -55217 
  -55250   -55267   -55287   -55331   -55362   -55378   -55404   -55433 
  -55468   -55503   -55537   -55572   -55598   -55622   -55651   -55683 
  -55705   -55710   -55718   -55728   -55725   -55728   -55733   -55725 
  -55718   -55709   -55695   -55688   -55684   -55678   -55672   -55671 
  -55668   -55659   -55641   -55614   -55591   -55570   -55541   -55518 
  -55498   -55475   -55451   -55425   -55405   -55379   -55348   -55325 
  -55297   -55256   -55236   -55227   -55206   -55192   -55181   -55162 
  -55152   -55142   -55124   -55104   -55075   -55050   -55031   -55007 
  -54980   -54954   -54924   -54896   -54866   -54837   -54814   -54787 
  -54750   -54711   -54669   -54623   -54573   -54531   -54495   -54464 
  -54436   -54400   -54365   -54337   -54314   -54284   -54245   -54218 
  -54206   -54201   -54199   -54190   -54174   -54176   -54195   -54209 
  -54222   -54240   -54252   -54259   -54268   -54284   -54301   -54321 
  -54356   -54392   -54422   -54456   -54481   -54498   -54523   -54534 
  -54534   -54557   -54588   -54607   -54623   -54638   -54646   -54650 
  -54657   -54664   -54661   -54653   -54658   -54670   -54675   -54683 
  -54695   -54691   -54693   -54704   -54706   -54710   -54708   -54691 
  -54687   -54702   -54715   -54731   -54751   -54766   -54787   -54807 
  -54824   -54845   -54861   -54880   -54895   -54892   -54903   -54928 
  -54947   -54959   -54963   -54965   -54967   -54970   -54978   -54990 
  -55004   -55013   -55020   -55031   -55044   -55062   -55073   -55080 
  -55098   -55112   -55120   -55134   -55132   -55124   -55124   -55115 
  -55104   -55090   -55055   -55021   -54992   -54947   -54912   -54895 
  -54862   -54820   -54780   -54731   -54688   -54660   -54634   -54602 
  -54561   -54526   -54508   -54507   -54508   -54502   -54498   -54496 
  -54499   -54507   -54502   -54488   -54488   -54499   -54523   -54552 
  -54569   -54580   -54596   -54616   -54634   -54653   -54666   -54675 
  -54692   -54720   -54742   -54758   -54785   -54819   -54855   -54891 
  -54922   -54955   -54993   -55013   -55019   -55028   -55031   -55023 
  -55023   -55023   -55016   -55015   -55012   -55011   -55013   -54996 
  -54981   -54988   -54972   -54947   -54943   -54932   -54923   -54927 
  -54923   -54918   -54924   -54926   -54920   -54911   -54905   -54911 
  -54916   -54909   -54900   -54891   -54884   -54893   -54909   -54916 
  -54931   -54953   -54965   -54973   -54986   -54999   -55011   -55023 
  -55042   -55067   -55086   -55119   -55161   -55179   -55196   -55229 
  -55263   -55304   -55344   -55371   -55414   -55467   -55509   -55556 
  -55599   -55630   -55665   -55698   -55725   -55752   -55767   -55768 
  -55777   -55777   -55760   -55750   -55737   -55710   -55686   -55653 
  -55614   -55588   -55557   -55524   -55505   -55475   -55439   -55429 
  -55425   -55410   -55404   -55401   -55404   -55406   -55406   -55412 
  -55402   -55379   -55374   -55371   -55356   -55348   -55348   -55352 
  -55356   -55367   -55374   -55363   -55358   -55367   -55367   -55359 
  -55359   -55351   -55331   -55325   -55323   -55312   -55310   -55304 
  -55285   -55282   -55273   -55243   -55225   -55205   -55177   -55162 
  -55142   -55108   -55094   -55089   -55075   -55070   -55059   -55036 
  -55012   -54986   -54970   -54955   -54924   -54895   -54878   -54859 
  -54835   -54815   -54788   -54769   -54769   -54758   -54739   -54730 
  -54714   -54689   -54672   -54649   -54627   -54608   -54584   -54556 
  -54522   -54488   -54454   -54421   -54400   -54391   -54378   -54369 
  -54376   -54378   -54382   -54392   -54390   -54383   -54391   -54396 
  -54392   -54392   -54390   -54383   -54384   -54387   -54386   -54382 
  -54384   -54405   -54417   -54414   -54425   -54436   -54429   -54442 
  -54463   -54467   -54473   -54479   -54468   -54473   -54499   -54510 
  -54508   -54522   -54550   -54581   -54618   -54664   -54708   -54743 
  -54780   -54818   -54854   -54895   -54931   -54957   -54984   -55016 
  -55053   -55089   -55116   -55134   -55152   -55175   -55186   -55196 
  -55208   -55198   -55175   -55165   -55163   -55151   -55129   -55119 
  -55112   -55102   -55108   -55117   -55109   -55107   -55117   -55116 
  -55113   -55125   -55124   -55112   -55116   -55117   -55113   -55124 
  -55138   -55144   -55155   -55163   -55165   -55173   -55192   -55208 
  -55221   -55233   -55247   -55267   -55285   -55289   -55291   -55298 
  -55306   -55308   -55296   -55282   -55260   -55227   -55201   -55175 
  -55136   -55098   -55073   -55036   -54985   -54932   -54881   -54823 
  -54770   -54724   -54679   -54633   -54598   -54564   -54535   -54518 
  -54503   -54488   -54491   -54503   -54511   -54529   -54556   -54581 
  -54603   -54629   -54673   -54727   -54769   -54805   -54845   -54874 
  -54896   -54924   -54953   -54978   -55012   -55051   -55082   -55102 
  -55127   -55148   -55158   -55170   -55185   -55196   -55202   -55209 
  -55209   -55204   -55189   -55177   -55177   -55167   -55152   -55144 
  -55128   -55112   -55108   -55104   -55097   -55096   -55093   -55088 
  -55081   -55070   -55050   -55035   -55027   -55008   -54989   -54976 
  -54961   -54949   -54939   -54928   -54915   -54901   -54903   -54899 
  -54892   -54904   -54908   -54897   -54911   -54926   -54915   -54915 
  -54938   -54961   -54982   -55008   -55020   -55017   -55020   -55031 
  -55034   -55043   -55063   -55066   -55051   -55050   -55054   -55053 
  -55057   -55059   -55051   -55050   -55054   -55048   -55044   -55044 
  -55046   -55047   -55044   -55044   -55044   -55036   -55034   -55032 
  -55020   -55009   -55008   -55012   -55013   -54999   -54984   -54980 
  -54970   -54954   -54938   -54920   -54900   -54878   -54858   -54822 
  -54780   -54750   -54723   -54685   -54649   -54634   -54623   -54607 
  -54602   -54600   -54589   -54584   -54592   -54600   -54608   -54619 
  -54633   -54652   -54672   -54687   -54707   -54723   -54735   -54751 
  -54765   -54772   -54784   -54807   -54826   -54839   -54855   -54866 
  -54861   -54851   -54850   -54861   -54861   -54851   -54859   -54868 
  -54864   -54874   -54885   -54878   -54880   -54896   -54912   -54934 
  -54967   -54994   -55016   -55043   -55078   -55113   -55146   -55177 
  -55212   -55250   -55287   -55321   -55352   -55379   -55395   -55405 
  -55414   -55425   -55439   -55452   -55467   -55479   -55487   -55495 
  -55498   -55497   -55493   -55489   -55487   -55485   -55474   -55462 
  -55445   -55432   -55422   -55408   -55394   -55383   -55368   -55356 
  -55337   -55309   -55281   -55250   -55217   -55183   -55150   -55127 
  -55107   -55081   -55062   -55039   -55005   -54981   -54966   -54950 
  -54939   -54932   -54920   -54912   -54909   -54899   -54881   -54865 
  -54849   -54838   -54828   -54812   -54800   -54791   -54773   -54768 
  -54768   -54747   -54724   -54720   -54729   -54742   -54753   -54765 
  -54792   -54812   -54834   -54876   -54909   -54923   -54958   -55001 
  -55026   -55059   -55104   -55132   -55151   -55169   -55188   -55209 
  -55229   -55252   -55270   -55269   -55270   -55278   -55277   -55281 
  -55290   -55286   -55285   -55279   -55256   -55235   -55223   -55210 
  -55189   -55161   -55144   -55142   -55125   -55097   -55075   -55063 
  -55054   -55038   -55012   -54989   -54967   -54949   -54938   -54928 
  -54904   -54876   -54858   -54845   -54838   -54831   -54812   -54803 
  -54799   -54787   -54780   -54774   -54774   -54776   -54756   -54729 
  -54714   -54692   -54668   -54653   -54627   -54595   -54581   -54572 
  -54554   -54544   -54531   -54513   -54504   -54506   -54508   -54508 
  -54507   -54508   -54513   -54518   -54521   -54526   -54534   -54538 
  -54540   -54546   -54560   -54569   -54576   -54587   -54591   -54589 
  -54600   -54610   -54614   -54627   -54648   -54662   -54679   -54702 
  -54714   -54719   -54743   -54769   -54781   -54800   -54824   -54839 
  -54841   -54849   -54868   -54880   -54891   -54907   -54909   -54912 
  -54936   -54961   -54985   -55012   -55021   -55031   -55057   -55081 
  -55104   -55127   -55143   -55166   -55188   -55201   -55212   -55225 
  -55235   -55236   -55228   -55224   -55227   -55219   -55204   -55186 
  -55163   -55135   -55108   -55084   -55061   -55031   -54997   -54967 
  -54942   -54919   -54903   -54895   -54893   -54895   -54899   -54915 
  -54934   -54942   -54962   -55000   -55019   -55030   -55044   -55051 
  -55066   -55094   -55109   -55121   -55140   -55152   -55166   -55181 
  -55186   -55185   -55182   -55165   -55142   -55131   -55121   -55112 
