Origin Time       2025/01/13 21:19:00
Lat.              31.8
Long.             131.6
Depth. (km)       30
Mag.              6.9
Station Code      OKYH05
Station Lat.      34.8684
Station Long.     133.8527
Station Height(m) 320
Record Time       2025/01/13 21:20:54
Sampling Freq(Hz) 100Hz
Duration Time(s)  127
Dir.              6
Scale Factor      7845(gal)/8223790
Max. Acc. (gal)   0.365
Last Correction   2025/01/13 21:20:55
Memo.             
[...]
   18914    18910    18877    18874    18908    18935    18941    18937 
   18940    18951    18963    18960    18937    18917    18917    18933 
   18944    18944    18941    18933    18932    18948    18978    18998 
   18978    18928    18901    18922    18951    18928    18852    18809 
   18852    18925    18958    18941    18917    18928    18967    18979 
   18949    18925    18949    18993    19001    18964    18925    18918 
   18937    18945    18929    18902    18885    18887    18901    18916 
   18939    18959    18952    18921    18913    18944    18959    18920 
   18868    18862    18895    18922    18918    18893    18878    18905 
   18941    18931    18889    18860    18871    18927    18962    18922 
   18863    18846    18866    18894    18904    18877    18835    18825 
   18873    18941    18960    18917    18874    18883    18936    18979 
   18979    18954    18944    18959    18975    18983    18978    18966 
   18949    18928    18929    18971    19002    18989    18956    18931 
   18939    18971    18970    18920    18879    18898    18937    18922 
   18866    18844    18873    18910    18921    18905    18908    18954 
   19002    19002    18962    18936    18964    19001    19002    18993 
   19005    19037    19063    19056    19036    19059    19120    19156 
   19129    19072    19062    19109    19147    19138    19105    19074 
   19071    19094    19102    19066    19020    19013    19036    19055 
   19041    19003    18982    19009    19057    19075    19047    19001 
   18982    19009    19049    19055    19010    18963    18975    19018 
   19025    18981    18935    18928    18952    18983    18987    18952 
   18932    18962    18997    18994    18956    18932    18949    18974 
   18951    18883    18843    18860    18886    18868    18806    18748 
   18750    18782    18782    18744    18706    18696    18704    18712 
   18708    18694    18697    18719    18736    18755    18778    18790 
   18802    18827    18855    18885    18912    18921    18908    18883 
   18886    18927    18952    18925    18885    18871    18885    18913 
   18920    18885    18864    18883    18912    18935    18948    18924 
   18881    18882    18917    18933    18924    18910    18900    18894 
   18890    18881    18878    18893    18916    18931    18927    18917 
   18916    18936    18962    18960    18935    18917    18920    18933 
   18949    18959    18962    18955    18952    18978    19016    19044 
   19057    19060    19056    19049    19051    19060    19071    19072 
   19049    19014    19001    19024    19047    19040    19036    19045 
   19028    18994    18998    19040    19078    19087    19089    19089 
   19074    19072    19098    19109    19089    19072    19082    19102 
   19106    19091    19066    19049    19067    19087    19067    19029 
   19005    19010    19021    18995    18945    18922    18937    18959 
   18963    18947    18931    18936    18958    18970    18959    18943 
   18945    18956    18948    18929    18927    18939    18947    18949 
   18948    18937    18933    18940    18937    18936    18964    18999 
   19002    18976    18974    19016    19040    19013    18978    18975 
   19001    19012    18979    18932    18922    18956    18978    18937 
   18868    18852    18887    18904    18881    18840    18814    18836 
   18898    18925    18877    18823    18821    18833    18829    18819 
   18793    18769    18779    18801    18796    18787    18806    18820 
   18812    18798    18781    18778    18785    18762    18728    18724 
   18743    18755    18755    18742    18723    18721    18747    18759 
   18733    18712    18732    18762    18763    18771    18809    18837 
   18848    18855    18862    18875    18904    18921    18912    18891 
   18904    18956    19003    19014    19003    18998    19021    19071 
   19111    19105    19062    19030    19041    19067    19063    19021 
   18982    18976    18993    18999    18989    18971    18970    18991 
   19001    18983    18962    18962    18985    19002    18994    18979 
   18978    18999    19024    19040    19049    19040    19032    19057 
   19086    19074    19051    19057    19075    19079    19071    19049 
   19025    19026    19037    19024    18991    18962    18937    18914 
   18895    18878    18858    18835    18819    18801    18783    18783 
   18794    18786    18778    18783    18787    18794    18800    18786 
   18769    18781    18813    18837    18840    18832    18843    18891 
   18947    18966    18947    18929    18941    18964    18970    18954 
   18939    18940    18949    18956    18960    18967    18975    18991 
   19018    19047    19075    19101    19121    19136    19136    19124 
   19132    19159    19163    19141    19134    19156    19190    19211 
   19211    19205    19222    19251    19260    19244    19219    19211 
   19221    19228    19209    19175    19147    19124    19095    19067 
   19035    18982    18940    18931    18924    18901    18867    18832 
   18810    18801    18801    18808    18810    18816    18827    18835 
   18846    18868    18886    18881    18870    18867    18883    18928 
   18956    18952    18952    18968    18993    19018    19021    19001 
   18985    18990    19010    19028    19032    19028    19029    19036 
   19041    19040    19037    19040    19045    19048    19047    19037 
   19030    19039    19056    19059    19043    19024    19012    18994 
   18970    18955    18940    18916    18906    18913    18901    18871 
   18858    18862    18867    18868    18864    18858    18866    18881 
   18887    18887    18890    18895    18894    18891    18887    18874 
   18859    18854    18840    18810    18787    18789    18796    18789 
   18766    18739    18740    18765    18770    18746    18711    18689 
   18706    18755    18779    18755    18739    18777    18841    18878 
   18871    18854    18866    18908    18947    18956    18941    18940 
   18967    18997    19012    19020    19040    19071    19094    19098 
   19105    19128    19157    19175    19175    19170    19186    19224 
   19248    19229    19194    19180    19192    19201    19183    19141 
   19101    19084    19087    19079    19051    19017    19003    19021 
   19021    18985    18958    18970    18987    18974    18940    18927 
   18945    18976    18981    18956    18939    18943    18951    18945 
   18931    18939    18976    19008    18997    18967    18971    19005 
   19026    19010    18972    18958    18978    19001    18989    18949 
   18929    18945    18967    18954    18917    18910    18937    18968 
   18985    18982    18971    18985    19025    19055    19059    19057 
   19063    19074    19084    19091    19098    19101    19098    19086 
   19067    19049    19039    19024    19012    19010    19006    18986 
   18962    18943    18916    18873    18831    18798    18777    18763 
   18742    18709    18681    18675    18696    18721    18727    18724 
   18747    18783    18805    18812    18817    18825    18839    18858 
   18883    18902    18901    18898    18906    18910    18908    18906 
   18901    18895    18897    18887    18867    18851    18843    18843 
   18844    18833    18809    18792    18797    18806    18794    18767 
   18756    18774    18794    18797    18781    18769    18785    18817 
   18828    18829    18846    18864    18879    18898    18916    18925 
   18937    18956    18981    19006    19026    19041    19062    19082 
   19101    19121    19144    19170    19188    19195    19201    19214 
   19219    19209    19197    19199    19214    19232    19236    19211 
   19184    19191    19217    19226    19201    19164    19159    19186 
   19201    19176    19140    19122    19133    19147    19144    19136 
   19143    19153    19151    19138    19130    19132    19141    19141 
   19121    19099    19101    19114    19117    19105    19082    19055 
   19029    18998    18955    18904    18848    18793    18755    18727 
   18688    18640    18603    18588    18594    18601    18603    18604 
   18604    18600    18596    18603    18620    18625    18619    18619 
   18634    18670    18705    18708    18693    18693    18724    18769 
   18790    18774    18743    18731    18750    18766    18755    18735 
   18732    18747    18758    18758    18754    18759    18775    18786 
   18781    18766    18774    18813    18835    18809    18779    18778 
   18790    18797    18802    18805    18808    18817    18836    18856 
   18860    18856    18855    18852    18836    18819    18816    18823 
   18819    18797    18778    18770    18773    18789    18801    18802 
   18809    18833    18867    18886    18882    18881    18904    18933 
   18933    18908    18900    18914    18933    18949    18948    18940 
   18958    18991    19003    18999    19002    19022    19047    19051 
   19035    19020    19013    19010    18994    18962    18943    18944 
   18936    18901    18859    18835    18835    18844    18844    18832 
   18816    18805    18804    18814    18819    18820    18825    18833 
   18843    18866    18891    18900    18886    18878    18897    18922 
   18932    18927    18917    18914    18917    18918    18908    18891 
   18886    18897    18908    18913    18920    18929    18940    18958 
   18978    18991    18995    18995    19008    19035    19049    19049 
   19064    19095    19118    19126    19134    19147    19157    19171 
   19184    19197    19207    19214    19214    19213    19195    19156 
   19134    19144    19148    19128    19101    19084    19080    19089 
   19089    19063    19029    19016    19025    19043    19039    18998 
   18959    18962    18985    18990    18970    18941    18920    18925 
   18962    18991    18979    18952    18956    18989    19008    19001 
   18995    19002    19012    19026    19036    19026    19012    19021 
   19040    19035    19012    19014    19035    19040    19032    19024 
   19030    19057    19082    19072    19045    19047    19078    19106 
   19105    19086    19080    19105    19137    19153    19140    19116 
   19117    19143    19147    19113    19066    19035    19041    19064 
   19060    19025    18997    18999    19018    19029    19026    19024 
   19040    19072    19098    19106    19103    19097    19097    19105 
   19107    19111    19126    19138    19134    19129    19128    19133 
   19136    19125    19107    19097    19099    19116    19128    19126 
   19116    19093    19078    19084    19094    19089    19066    19039 
   19035    19052    19066    19068    19052    19025    19014    19022 
   19022    19006    18986    18963    18943    18928    18922    18932 
   18941    18941    18937    18945    18960    18971    18975    18978 
   18987    19009    19029    19028    19022    19026    19030    19026 
   19009    18986    18987    19001    18990    18962    18939    18928 
   18928    18918    18878    18828    18808    18805    18786    18751 
   18720    18708    18709    18705    18685    18667    18678    18706 
   18724    18719    18711    18732    18777    18817    18833    18836 
   18858    18905    18949    18975    18990    19012    19040    19062 
   19066    19062    19048    19028    19005    18978    18958    18949 
   18941    18922    18900    18877    18856    18846    18840    18835 
   18823    18797    18775    18775    18782    18790    18798    18798 
   18796    18805    18831    18860    18879    18881    18878    18882 
   18897    18904    18893    18881    18879    18874    18852    18832 
   18824    18821    18828    18835    18814    18785    18783    18802 
   18804    18782    18766    18777    18812    18840    18846    18839 
   18840    18863    18902    18927    18927    18927    18943    18979 
   19018    19028    19017    19021    19048    19084    19116    19130 
   19144    19170    19198    19217    19222    19226    19228    19226 
   19228    19226    19218    19215    19217    19207    19198    19190 
   19182    19175    19170    19159    19151    19144    19120    19089 
   19067    19062    19063    19048    19012    18983    18989    19001 
   18985    18945    18916    18906    18905    18890    18858    18819 
   18794    18789    18775    18738    18698    18688    18700    18709 
   18697    18662    18640    18650    18667    18662    18631    18603 
   18600    18615    18617    18603    18589    18597    18619    18627 
   18619    18617    18624    18628    18628    18627    18628    18631 
   18635    18643    18654    18655    18644    18640    18654    18667 
   18670    18667    18671    18688    18704    18706    18701    18706 
   18733    18756    18758    18756    18769    18781    18785    18787 
   18801    18823    18839    18852    18859    18856    18863    18885 
   18898    18891    18879    18879    18894    18906    18890    18863 
   18854    18864    18879    18881    18863    18843    18844    18858 
   18866    18856    18847    18855    18871    18882    18885    18885 
   18885    18886    18891    18901    18905    18908    18918    18928 
   18937    18962    18990    18989    18976    18991    19035    19071 
   19083    19075    19071    19084    19105    19111    19099    19086 
   19090    19106    19111    19110    19118    19128    19133    19138 
   19134    19122    19117    19124    19128    19116    19099    19095 
   19110    19133    19149    19153    19161    19178    19195    19214 
   19226    19221    19218    19234    19251    19251    19242    19246 
   19272    19299    19303    19291    19283    19290    19313    19329 
   19323    19310    19310    19317    19315    19303    19283    19267 
   19253    19236    19217    19195    19172    19149    19126    19102 
   19076    19044    19005    18974    18960    18960    18948    18916 
   18878    18858    18870    18893    18895    18873    18844    18836 
   18854    18873    18863    18828    18809    18819    18835    18835 
   18813    18790    18790    18812    18829    18828    18817    18816 
   18835    18860    18870    18867    18867    18879    18898    18913 
   18921    18925    18920    18912    18909    18909    18914    18920 
   18905    18881    18867    18859    18851    18847    18844    18835 
   18824    18819    18812    18798    18785    18782    18786    18786 
   18785    18793    18805    18824    18848    18878    18894    18901 
   18921    18959    19003    19041    19053    19056    19083    19128 
   19159    19170    19175    19188    19209    19226    19232    19219 
   19209    19215    19221    19211    19192    19168    19144    19132 
   19125    19113    19095    19070    19044    19032    19022    19005 
   18986    18971    18968    18971    18962    18940    18928    18935 
   18941    18933    18910    18891    18895    18916    18924    18910 
   18891    18891    18902    18908    18901    18885    18871    18871 
   18875    18878    18885    18887    18871    18841    18820    18821 
   18828    18820    18806    18808    18821    18836    18837    18824 
   18809    18809    18824    18839    18844    18839    18832    18829 
   18833    18843    18860    18870    18866    18868    18891    18918 
   18940    18947    18949    18979    19030    19063    19053    19035 
   19037    19053    19060    19052    19037    19026    19029    19036 
   19021    18997    18993    19003    19001    18979    18964    18967 
   18972    18967    18948    18922    18913    18925    18936    18918 
   18878    18852    18860    18878    18882    18875    18873    18889 
   18914    18922    18912    18908    18913    18916    18914    18910 
   18905    18909    18924    18951    18972    18975    18971    18982 
   19002    19030    19060    19070    19053    19037    19048    19072 
   19082    19074    19060    19057    19068    19087    19102    19101 
   19091    19091    19105    19117    19129    19141    19149    19157 
   19171    19190    19210    19221    19221    19224    19234    19248 
   19263    19272    19263    19251    19257    19271    19272    19257 
   19233    19219    19225    19230    19218    19194    19175    19168 
   19164    19149    19129    19114    19110    19113    19110    19090 
   19060    19051    19062    19066    19045    19010    18987    18983 
   18975    18951    18918    18890    18871    18856    18832    18794 
   18758    18732    18715    18689    18652    18630    18627    18623 
   18612    18611    18621    18636    18644    18647    18652    18670 
   18692    18701    18698    18696    18706    18716    18711    18702 
   18711    18735    18758    18771    18777    18779    18790    18808 
   18817    18809    18790    18773    18762    18751    18735    18716 
   18694    18667    18648    18639    18632    18624    18619    18612 
   18603    18594    18582    18573    18573    18578    18584    18589 
   18597    18601    18604    18612    18623    18640    18659    18674 
   18686    18698    18705    18716    18736    18760    18777    18775 
   18770    18781    18809    18835    18844    18840    18839    18854 
   18885    18910    18922    18931    18941    18966    18991    19003 
   18999    18998    19017    19043    19055    19051    19041    19044 
   19059    19067    19062    19056    19060    19072    19079    19068 
   19064    19075    19089    19089    19080    19079    19087    19093 
   19087    19078    19070    19067    19066    19057    19047    19041 
   19041    19035    19020    19006    18999    18991    18976    18967 
   18964    18956    18939    18922    18916    18914    18909    18908 
   18909    18910    18914    18920    18925    18929    18922    18916 
   18918    18920    18917    18914    18913    18914    18920    18920 
   18913    18905    18902    18904    18905    18898    18890    18890 
   18897    18902    18894    18877    18868    18883    18902    18908 
   18901    18900    18913    18932    18939    18932    18924    18925 
   18943    18959    18958    18945    18947    18963    18982    18994 
   19001    19001    19003    19014    19032    19041    19040    19033 
   19029    19037    19055    19063    19051    19035    19029    19039 
   19051    19044    19014    18989    18994    19013    19016    19001 
   18983    18970    18966    18968    18958    18933    18924    18931 
   18929    18913    18901    18894    18882    18879    18883    18871 
   18855    18854    18863    18870    18866    18860    18864    18875 
   18891    18904    18904    18901    18904    18912    18921    18927 
   18929    18929    18929    18928    18921    18917    18912    18904 
   18897    18894    18889    18879    18868    18866    18863    18854 
   18848    18852    18852    18846    18839    18835    18833    18835 
   18837    18841    18847    18852    18856    18863    18870    18878 
   18887    18894    18894    18902    18922    18947    18967    18978 
   18983    18997    19014    19026    19032    19041    19062    19087 
   19102    19109    19124    19149    19170    19171    19163    19161 
   19165    19172    19171    19157    19147    19148    19147    19137 
   19128    19114    19099    19093    19090    19084    19079    19074 
   19068    19067    19071    19075    19076    19076    19075    19068 
   19060    19055    19048    19036    19029    19033    19036    19030 
   19028    19033    19032    19017    19001    18991    18994    19006 
