Origin Time       2025/01/13 21:19:00
Lat.              31.8
Long.             131.6
Depth. (km)       30
Mag.              6.9
Station Code      OKYH07
Station Lat.      35.0493
Station Long.     133.3169
Station Height(m) 563.5
Record Time       2025/01/13 21:21:01
Sampling Freq(Hz) 100Hz
Duration Time(s)  120
Dir.              4
Scale Factor      7845(gal)/8223790
Max. Acc. (gal)   0.515
Last Correction   2025/01/13 21:21:02
Memo.             
[...]
   -6249    -6264    -6268    -6261    -6254    -6262    -6289    -6312 
   -6315    -6297    -6266    -6239    -6231    -6242    -6249    -6239 
   -6227    -6223    -6227    -6247    -6274    -6296    -6303    -6299 
   -6293    -6281    -6266    -6257    -6237    -6203    -6169    -6149 
   -6151    -6164    -6168    -6166    -6161    -6149    -6143    -6149 
   -6150    -6139    -6127    -6124    -6130    -6131    -6124    -6124 
   -6139    -6153    -6161    -6169    -6176    -6174    -6165    -6156 
   -6150    -6143    -6138    -6137    -6123    -6100    -6084    -6075 
   -6072    -6080    -6091    -6097    -6102    -6114    -6145    -6174 
   -6189    -6187    -6164    -6131    -6110    -6102    -6106    -6106 
   -6103    -6116    -6138    -6147    -6142    -6123    -6104    -6110 
   -6135    -6160    -6157    -6126    -6089    -6065    -6064    -6083 
   -6100    -6093    -6080    -6077    -6088    -6115    -6141    -6146 
   -6149    -6162    -6176    -6183    -6178    -6165    -6154    -6156 
   -6174    -6201    -6208    -6184    -6147    -6129    -6130    -6150 
   -6185    -6215    -6219    -6210    -6212    -6231    -6251    -6266 
   -6272    -6266    -6255    -6250    -6254    -6262    -6266    -6269 
   -6268    -6268    -6268    -6261    -6247    -6238    -6243    -6268 
   -6284    -6269    -6239    -6223    -6230    -6247    -6259    -6255 
   -6254    -6264    -6282    -6300    -6305    -6297    -6286    -6281 
   -6285    -6284    -6272    -6258    -6250    -6242    -6232    -6231 
   -6234    -6231    -6231    -6238    -6238    -6235    -6232    -6224 
   -6218    -6204    -6181    -6146    -6103    -6069    -6056    -6061 
   -6079    -6088    -6089    -6084    -6070    -6057    -6041    -6026 
   -6025    -6037    -6060    -6087    -6104    -6108    -6112    -6126 
   -6149    -6165    -6169    -6168    -6176    -6185    -6188    -6187 
   -6183    -6170    -6158    -6166    -6197    -6231    -6249    -6243 
   -6232    -6243    -6259    -6262    -6254    -6230    -6195    -6170 
   -6157    -6137    -6104    -6081    -6073    -6070    -6070    -6064 
   -6048    -6043    -6054    -6066    -6084    -6100    -6108    -6111 
   -6122    -6143    -6168    -6176    -6165    -6147    -6138    -6143 
   -6162    -6188    -6203    -6196    -6187    -6184    -6181    -6181 
   -6184    -6188    -6200    -6214    -6226    -6239    -6259    -6280 
   -6289    -6288    -6276    -6264    -6257    -6254    -6258    -6249 
   -6219    -6195    -6188    -6193    -6200    -6196    -6181    -6168 
   -6164    -6160    -6157    -6151    -6135    -6111    -6091    -6079 
   -6070    -6058    -6043    -6031    -6031    -6042    -6050    -6057 
   -6065    -6068    -6054    -6038    -6030    -6037    -6053    -6066 
   -6069    -6052    -6029    -6021    -6027    -6052    -6077    -6083 
   -6080    -6076    -6075    -6091    -6116    -6129    -6119    -6108 
   -6100    -6092    -6096    -6107    -6108    -6107    -6115    -6134 
   -6158    -6176    -6195    -6220    -6239    -6253    -6276    -6297 
   -6305    -6303    -6291    -6264    -6232    -6208    -6199    -6199 
   -6204    -6201    -6192    -6184    -6181    -6180    -6166    -6151 
   -6143    -6130    -6116    -6106    -6093    -6093    -6107    -6123 
   -6135    -6135    -6134    -6145    -6165    -6187    -6199    -6199 
   -6197    -6201    -6216    -6237    -6257    -6273    -6281    -6289 
   -6311    -6332    -6328    -6304    -6276    -6243    -6214    -6191 
   -6166    -6157    -6169    -6180    -6177    -6165    -6145    -6118 
   -6096    -6092    -6103    -6123    -6145    -6164    -6180    -6195 
   -6210    -6211    -6196    -6189    -6199    -6210    -6216    -6218 
   -6216    -6218    -6228    -6247    -6261    -6265    -6264    -6273 
   -6297    -6318    -6313    -6284    -6250    -6237    -6247    -6265 
   -6273    -6255    -6219    -6196    -6197    -6205    -6212    -6216 
   -6219    -6223    -6227    -6222    -6208    -6197    -6199    -6218 
   -6243    -6251    -6246    -6237    -6224    -6224    -6231    -6223 
   -6204    -6185    -6172    -6168    -6173    -6177    -6177    -6187 
   -6207    -6223    -6220    -6208    -6199    -6199    -6218    -6251 
   -6280    -6297    -6301    -6292    -6284    -6284    -6288    -6296 
   -6303    -6293    -6276    -6266    -6272    -6285    -6297    -6301 
   -6299    -6281    -6266    -6280    -6296    -6288    -6274    -6266 
   -6258    -6253    -6246    -6224    -6183    -6134    -6102    -6100 
   -6110    -6106    -6102    -6095    -6080    -6077    -6091    -6100 
   -6100    -6089    -6061    -6026    -6002    -6004    -6021    -6025 
   -6014    -5998    -5983    -5972    -5960    -5945    -5937    -5931 
   -5921    -5922    -5949    -5985    -6022    -6049    -6060    -6066 
   -6079    -6102    -6134    -6160    -6164    -6162    -6168    -6185 
   -6204    -6208    -6201    -6201    -6207    -6218    -6234    -6250 
   -6257    -6257    -6255    -6253    -6251    -6250    -6247    -6253 
   -6257    -6255    -6259    -6273    -6284    -6280    -6265    -6246 
   -6235    -6247    -6269    -6278    -6276    -6264    -6253    -6254 
   -6261    -6259    -6249    -6249    -6258    -6264    -6265    -6264 
   -6265    -6268    -6278    -6297    -6322    -6350    -6374    -6389 
   -6392    -6389    -6390    -6404    -6415    -6421    -6421    -6411 
   -6399    -6393    -6386    -6370    -6351    -6340    -6335    -6332 
   -6330    -6318    -6299    -6276    -6253    -6239    -6235    -6224 
   -6208    -6187    -6165    -6153    -6154    -6147    -6120    -6087 
   -6064    -6054    -6052    -6052    -6045    -6027    -6011    -5994 
   -5979    -5975    -5977    -5983    -5989    -5989    -5985    -5994 
   -6018    -6041    -6049    -6045    -6031    -6015    -6008    -6006 
   -6006    -6025    -6049    -6064    -6072    -6083    -6097    -6127 
   -6177    -6223    -6242    -6251    -6268    -6282    -6293    -6291 
   -6281    -6285    -6291    -6289    -6289    -6281    -6268    -6249 
   -6223    -6207    -6199    -6184    -6170    -6156    -6139    -6129 
   -6126    -6129    -6131    -6130    -6134    -6141    -6147    -6158 
   -6166    -6170    -6172    -6178    -6188    -6183    -6168    -6154 
   -6149    -6156    -6169    -6188    -6211    -6226    -6227    -6223 
   -6226    -6239    -6251    -6255    -6245    -6224    -6216    -6226 
   -6231    -6231    -6228    -6230    -6238    -6245    -6245    -6238 
   -6227    -6215    -6205    -6199    -6195    -6195    -6200    -6207 
   -6208    -6201    -6193    -6187    -6187    -6192    -6195    -6197 
   -6199    -6192    -6181    -6169    -6156    -6150    -6146    -6138 
   -6126    -6108    -6096    -6104    -6126    -6142    -6150    -6146 
   -6141    -6135    -6133    -6139    -6151    -6157    -6156    -6146 
   -6129    -6119    -6122    -6137    -6154    -6153    -6131    -6106 
   -6084    -6076    -6080    -6080    -6068    -6045    -6027    -6034 
   -6045    -6043    -6043    -6042    -6027    -6010    -6000    -6006 
   -6019    -6025    -6025    -6023    -6016    -6015    -6022    -6019 
   -6010    -6007    -6012    -6026    -6045    -6053    -6053    -6054 
   -6068    -6087    -6103    -6106    -6107    -6116    -6137    -6160 
   -6174    -6174    -6173    -6174    -6178    -6191    -6201    -6203 
   -6201    -6203    -6203    -6210    -6232    -6253    -6255    -6246 
   -6238    -6237    -6242    -6251    -6262    -6265    -6265    -6270 
   -6284    -6300    -6303    -6304    -6316    -6328    -6331    -6335 
   -6342    -6351    -6363    -6369    -6363    -6358    -6357    -6363 
   -6374    -6372    -6358    -6347    -6339    -6332    -6335    -6334 
   -6328    -6330    -6335    -6339    -6354    -6378    -6397    -6404 
   -6401    -6394    -6400    -6416    -6435    -6442    -6434    -6419 
   -6407    -6393    -6385    -6378    -6361    -6345    -6340    -6340 
   -6334    -6318    -6300    -6291    -6289    -6282    -6270    -6257 
   -6235    -6204    -6178    -6151    -6120    -6093    -6072    -6058 
   -6052    -6037    -6018    -6004    -5995    -6000    -6014    -6019 
   -6016    -6008    -6016    -6035    -6043    -6039    -6026    -6010 
   -6010    -6026    -6034    -6021    -5995    -5961    -5933    -5919 
   -5911    -5907    -5907    -5907    -5913    -5927    -5944    -5953 
   -5950    -5948    -5960    -5985    -6016    -6045    -6062    -6060 
   -6045    -6039    -6045    -6054    -6062    -6072    -6076    -6076 
   -6077    -6088    -6104    -6120    -6131    -6134    -6134    -6139 
   -6149    -6161    -6177    -6187    -6176    -6154    -6133    -6118 
   -6112    -6114    -6110    -6103    -6100    -6100    -6100    -6111 
   -6124    -6141    -6160    -6168    -6160    -6143    -6133    -6133 
   -6139    -6150    -6160    -6164    -6166    -6180    -6196    -6215 
   -6245    -6284    -6316    -6335    -6349    -6362    -6380    -6409 
   -6438    -6442    -6428    -6412    -6405    -6409    -6409    -6399 
   -6376    -6342    -6312    -6301    -6305    -6308    -6300    -6280 
   -6255    -6237    -6232    -6234    -6230    -6218    -6212    -6210 
   -6192    -6173    -6157    -6134    -6106    -6084    -6072    -6061 
   -6049    -6031    -6018    -6015    -6019    -6038    -6068    -6088 
   -6096    -6097    -6108    -6133    -6161    -6183    -6200    -6210 
   -6218    -6232    -6249    -6254    -6253    -6251    -6254    -6259 
   -6261    -6255    -6251    -6251    -6251    -6247    -6237    -6215 
   -6195    -6180    -6166    -6149    -6129    -6111    -6102    -6108 
   -6124    -6133    -6130    -6122    -6112    -6110    -6116    -6119 
   -6114    -6108    -6103    -6097    -6095    -6095    -6095    -6092 
   -6088    -6076    -6065    -6058    -6052    -6054    -6066    -6076 
   -6081    -6089    -6102    -6123    -6154    -6181    -6196    -6205 
   -6214    -6227    -6250    -6282    -6301    -6300    -6304    -6312 
   -6312    -6319    -6326    -6320    -6307    -6285    -6265    -6249 
   -6232    -6212    -6188    -6166    -6153    -6149    -6151    -6150 
   -6138    -6126    -6119    -6114    -6115    -6119    -6122    -6116 
   -6103    -6091    -6091    -6096    -6103    -6110    -6116    -6118 
   -6111    -6096    -6080    -6068    -6072    -6085    -6093    -6092 
   -6080    -6062    -6045    -6031    -6027    -6022    -6014    -6007 
   -6004    -5998    -5991    -5983    -5973    -5969    -5969    -5964 
   -5967    -5976    -5981    -5991    -5999    -6007    -6016    -6021 
   -6027    -6046    -6069    -6096    -6127    -6153    -6178    -6214 
   -6246    -6268    -6285    -6308    -6335    -6358    -6376    -6378 
   -6370    -6367    -6373    -6381    -6381    -6370    -6361    -6354 
   -6342    -6328    -6313    -6299    -6291    -6289    -6281    -6259 
   -6239    -6231    -6230    -6224    -6215    -6207    -6207    -6210 
   -6208    -6199    -6185    -6174    -6169    -6174    -6180    -6173 
   -6160    -6143    -6127    -6122    -6126    -6120    -6102    -6081 
   -6073    -6083    -6106    -6127    -6143    -6153    -6161    -6172 
   -6185    -6201    -6207    -6204    -6199    -6187    -6178    -6178 
   -6172    -6162    -6157    -6153    -6150    -6145    -6134    -6133 
   -6133    -6129    -6123    -6123    -6129    -6137    -6145    -6151 
   -6156    -6156    -6162    -6173    -6188    -6201    -6212    -6222 
   -6237    -6259    -6277    -6292    -6304    -6311    -6319    -6331 
   -6342    -6354    -6359    -6351    -6331    -6312    -6304    -6301 
   -6296    -6285    -6257    -6222    -6195    -6176    -6166    -6160 
   -6149    -6133    -6118    -6108    -6095    -6075    -6057    -6037 
   -6011    -5988    -5968    -5950    -5944    -5944    -5949    -5948 
   -5933    -5918    -5913    -5917    -5930    -5945    -5965    -5987 
   -6010    -6041    -6079    -6108    -6131    -6156    -6183    -6211 
   -6239    -6258    -6264    -6261    -6258    -6266    -6278    -6284 
   -6284    -6284    -6281    -6277    -6277    -6276    -6265    -6247 
   -6226    -6204    -6189    -6178    -6161    -6135    -6102    -6061 
   -6038    -6026    -6014    -6008    -6011    -6022    -6039    -6061 
   -6085    -6111    -6139    -6169    -6195    -6222    -6253    -6282 
   -6303    -6313    -6320    -6326    -6331    -6334    -6338    -6342 
   -6338    -6338    -6346    -6353    -6363    -6376    -6386    -6405 
   -6426    -6436    -6451    -6470    -6486    -6511    -6529    -6532 
   -6532    -6539    -6550    -6562    -6561    -6548    -6529    -6511 
   -6500    -6494    -6489    -6490    -6496    -6505    -6515    -6515 
   -6500    -6480    -6465    -6454    -6442    -6417    -6377    -6332 
   -6297    -6270    -6243    -6204    -6153    -6106    -6069    -6045 
   -6026    -6000    -5969    -5941    -5930    -5933    -5933    -5935 
   -5938    -5940    -5944    -5948    -5957    -5967    -5973    -5984 
   -6002    -6027    -6056    -6085    -6119    -6153    -6184    -6211 
   -6232    -6255    -6284    -6304    -6316    -6322    -6312    -6301 
   -6301    -6293    -6277    -6254    -6218    -6180    -6150    -6123 
   -6093    -6066    -6038    -6015    -5996    -5971    -5944    -5927 
   -5917    -5913    -5917    -5918    -5921    -5923    -5927    -5935 
   -5941    -5942    -5942    -5945    -5956    -5965    -5962    -5954 
   -5944    -5935    -5937    -5941    -5940    -5930    -5915    -5894 
   -5868    -5844    -5818    -5786    -5749    -5715    -5686    -5668 
   -5660    -5652    -5644    -5637    -5640    -5644    -5652    -5653 
   -5652    -5661    -5680    -5702    -5728    -5749    -5769    -5792 
   -5809    -5834    -5872    -5910    -5950    -5991    -6023    -6052 
   -6080    -6115    -6154    -6181    -6201    -6216    -6227    -6246 
   -6277    -6307    -6328    -6345    -6357    -6370    -6386    -6401 
   -6413    -6427    -6440    -6457    -6473    -6481    -6484    -6488 
   -6496    -6515    -6532    -6543    -6554    -6562    -6571    -6582 
   -6592    -6600    -6609    -6616    -6621    -6620    -6612    -6601 
   -6588    -6579    -6571    -6555    -6538    -6527    -6516    -6505 
   -6496    -6480    -6465    -6453    -6443    -6435    -6428    -6419 
   -6401    -6380    -6355    -6330    -6303    -6270    -6239    -6207 
   -6180    -6162    -6147    -6130    -6110    -6088    -6070    -6053 
   -6031    -6011    -5984    -5953    -5931    -5918    -5902    -5888 
   -5888    -5894    -5904    -5925    -5942    -5957    -5973    -5988 
   -6004    -6026    -6042    -6048    -6052    -6057    -6062    -6068 
   -6070    -6068    -6060    -6052    -6049    -6054    -6062    -6075 
   -6095    -6115    -6130    -6151    -6181    -6207    -6235    -6265 
   -6295    -6327    -6365    -6401    -6431    -6448    -6461    -6463 
   -6458    -6454    -6447    -6426    -6401    -6378    -6361    -6340 
   -6318    -6300    -6284    -6270    -6264    -6255    -6242    -6228 
   -6210    -6191    -6176    -6166    -6166    -6173    -6181    -6188 
   -6189    -6189    -6193    -6193    -6189    -6189    -6184    -6172 
   -6160    -6145    -6134    -6133    -6127    -6112    -6095    -6073 
   -6056    -6045    -6031    -6016    -6002    -5984    -5984    -6003 
   -6016    -6029    -6043    -6057    -6077    -6107    -6137    -6161 
   -6183    -6203    -6226    -6250    -6269    -6284    -6301    -6323 
   -6340    -6357    -6363    -6355    -6349    -6346    -6335    -6323 
   -6312    -6300    -6297    -6293    -6282    -6272    -6258    -6246 
   -6234    -6215    -6192    -6169    -6154    -6149    -6145    -6150 
   -6158    -6150    -6138    -6138    -6135    -6138    -6142    -6139 
   -6139    -6143    -6149    -6161    -6169    -6166    -6165    -6170 
   -6180    -6192    -6196    -6188    -6176    -6166    -6160    -6157 
   -6154    -6143    -6127    -6112    -6103    -6104    -6104    -6102 
   -6102    -6100    -6096    -6097    -6102    -6100    -6091    -6080 
   -6073    -6070    -6070    -6068    -6062    -6065    -6070    -6076 
   -6080    -6079    -6075    -6075    -6081    -6091    -6102    -6116 
   -6129    -6139    -6149    -6150    -6149    -6150    -6154    -6165 
   -6176    -6187    -6193    -6188    -6183    -6191    -6200    -6203 
   -6203    -6201    -6197    -6200    -6207    -6208    -6208    -6215 
   -6227    -6237    -6246    -6257    -6259    -6262    -6268    -6270 
   -6280    -6292    -6295    -6293    -6289    -6285    -6281    -6278 
   -6276    -6272    -6265    -6261    -6259    -6254    -6243    -6231 
   -6215    -6195    -6180    -6168    -6157    -6150    -6147    -6147 
   -6153    -6157    -6162    -6176    -6189    -6193    -6188    -6181 
   -6177    -6180    -6187    -6193    -6205    -6222    -6241    -6264 
   -6278    -6282    -6289    -6304    -6327    -6346    -6351    -6349 
   -6339    -6328    -6322    -6313    -6303    -6285    -6261    -6235 
   -6214    -6195    -6174    -6156    -6138    -6120    -6106    -6089 
   -6073    -6058    -6045    -6035    -6026    -6011    -5991    -5967 
   -5937    -5911    -5891    -5872    -5849    -5825    -5806    -5790 
   -5782    -5786    -5792    -5805    -5819    -5841    -5872    -5913 
   -5960    -6018    -6084    -6149    -6208    -6273    -6338    -6397 
   -6448    -6490    -6520    -6548    -6586    -6627    -6659    -6685 
   -6697    -6694    -6690    -6686    -6686    -6686    -6679    -6664 
   -6640    -6609    -6578    -6548    -6517    -6484    -6448    -6415 
   -6378    -6345    -6319    -6295    -6272    -6250    -6219    -6185 
   -6151    -6119    -6100    -6087    -6068    -6048    -6023    -6003 
   -5995    -5999    -6004    -5999    -5989    -5981    -5976    -5975 
   -5977    -5976    -5972    -5975    -5987    -6010    -6035    -6053 
   -6064    -6070    -6077    -6092    -6110    -6126    -6145    -6164 
   -6174    -6181    -6188    -6192    -6193    -6200    -6204    -6203 
   -6196    -6184    -6172    -6164    -6151    -6137    -6124    -6112 
   -6095    -6079    -6069    -6058    -6045    -6030    -6015    -6007 
   -6004    -6000    -5995    -5985    -5976    -5969    -5968    -5972 
   -5980    -5984    -5989    -5996    -6012    -6035    -6060    -6085 
   -6107    -6123    -6141    -6161    -6183    -6197    -6210    -6226 
   -6243    -6265    -6285    -6303    -6320    -6334    -6345    -6355 
   -6363    -6373    -6386    -6396    -6399    -6399    -6404    -6411 
   -6413    -6426    -6440    -6455    -6475    -6497    -6515    -6519 
   -6513    -6513    -6515    -6509    -6500    -6485    -6461    -6434 
   -6400    -6362    -6326    -6284    -6239    -6201    -6166    -6127 
   -6092    -6062    -6041    -6027    -6016    -6004    -5995    -5984 
   -5977    -5976    -5980    -5984    -5988    -5987    -5979    -5965 
   -5954    -5949    -5944    -5937    -5927    -5917    -5907    -5894 
   -5884    -5883    -5880    -5872    -5863    -5859    -5865    -5877 
   -5894    -5914    -5933    -5950    -5972    -5998    -6021    -6041 
   -6061    -6076    -6091    -6102    -6103    -6100    -6096    -6087 
   -6076    -6073    -6069    -6057    -6045    -6029    -6012    -6004 
   -6003    -6002    -5995    -5981    -5967    -5956    -5949    -5948 
   -5950    -5953    -5957    -5958    -5961    -5972    -5988    -6014 
   -6041    -6061    -6075    -6087    -6103    -6129    -6153    -6173 
