Origin Time       2025/01/13 21:19:00
Lat.              31.8
Long.             131.6
Depth. (km)       30
Mag.              6.9
Station Code      OKYH03
Station Lat.      34.7783
Station Long.     133.7890
Station Height(m) -101.3
Record Time       2025/01/13 21:20:56
Sampling Freq(Hz) 100Hz
Duration Time(s)  120
Dir.              2
Scale Factor      3923(gal)/8224838
Max. Acc. (gal)   0.608
Last Correction   2025/01/13 21:20:57
Memo.             
[...]
  -16559   -16545   -16540   -16559   -16613   -16676   -16714   -16725 
  -16741   -16771   -16792   -16796   -16795   -16784   -16753   -16714 
  -16690   -16700   -16717   -16696   -16664   -16656   -16667   -16672 
  -16654   -16629   -16622   -16636   -16652   -16652   -16641   -16641 
  -16648   -16650   -16654   -16664   -16680   -16698   -16706   -16695 
  -16672   -16648   -16630   -16627   -16648   -16691   -16738   -16771 
  -16784   -16799   -16829   -16853   -16856   -16845   -16839   -16834 
  -16818   -16785   -16744   -16715   -16695   -16688   -16717   -16754 
  -16761   -16758   -16757   -16740   -16695   -16641   -16613   -16626 
  -16649   -16646   -16618   -16576   -16544   -16537   -16551   -16563 
  -16568   -16587   -16609   -16611   -16609   -16622   -16646   -16675 
  -16691   -16683   -16665   -16668   -16688   -16702   -16704   -16696 
  -16673   -16644   -16618   -16595   -16591   -16618   -16654   -16675 
  -16680   -16698   -16726   -16741   -16737   -16727   -16737   -16757 
  -16745   -16702   -16660   -16621   -16595   -16588   -16584   -16568 
  -16540   -16515   -16524   -16565   -16607   -16663   -16753   -16838 
  -16864   -16826   -16752   -16688   -16659   -16638   -16634   -16646 
  -16642   -16629   -16640   -16656   -16650   -16623   -16607   -16621 
  -16632   -16610   -16567   -16537   -16542   -16571   -16599   -16618 
  -16617   -16605   -16605   -16614   -16623   -16610   -16560   -16514 
  -16495   -16483   -16482   -16495   -16511   -16545   -16586   -16590 
  -16564   -16529   -16488   -16455   -16449   -16463   -16491   -16530 
  -16549   -16548   -16542   -16519   -16479   -16457   -16459   -16463 
  -16461   -16456   -16467   -16483   -16483   -16497   -16540   -16572 
  -16569   -16538   -16522   -16538   -16534   -16497   -16483   -16521 
  -16563   -16567   -16557   -16572   -16587   -16587   -16595   -16614 
  -16633   -16657   -16686   -16707   -16711   -16698   -16681   -16657 
  -16618   -16575   -16548   -16540   -16526   -16490   -16441   -16418 
  -16437   -16464   -16474   -16502   -16556   -16579   -16542   -16480 
  -16424   -16389   -16403   -16449   -16476   -16486   -16479   -16434 
  -16366   -16309   -16278   -16264   -16263   -16256   -16243   -16218 
  -16187   -16171   -16170   -16167   -16200   -16268   -16330   -16367 
  -16395   -16425   -16453   -16478   -16502   -16532   -16579   -16641 
  -16691   -16717   -16717   -16688   -16650   -16625   -16611   -16607 
  -16618   -16644   -16672   -16675   -16654   -16638   -16637   -16632 
  -16609   -16568   -16515   -16468   -16441   -16429   -16434   -16464 
  -16495   -16513   -16542   -16572   -16573   -16567   -16556   -16526 
  -16513   -16526   -16528   -16526   -16551   -16583   -16607   -16626 
  -16640   -16634   -16600   -16551   -16521   -16518   -16519   -16513 
  -16506   -16495   -16483   -16502   -16548   -16576   -16592   -16615 
  -16626   -16611   -16587   -16568   -16569   -16592   -16623   -16637 
  -16636   -16641   -16645   -16654   -16673   -16686   -16695   -16711 
  -16731   -16772   -16814   -16831   -16827   -16821   -16823   -16826 
  -16814   -16792   -16768   -16738   -16707   -16683   -16660   -16637 
  -16625   -16622   -16618   -16610   -16614   -16621   -16603   -16567 
  -16541   -16549   -16594   -16648   -16687   -16718   -16750   -16767 
  -16762   -16752   -16727   -16702   -16683   -16669   -16663   -16654 
  -16641   -16640   -16659   -16687   -16717   -16735   -16727   -16704 
  -16696   -16710   -16721   -16719   -16713   -16703   -16702   -16695 
  -16681   -16690   -16717   -16729   -16744   -16773   -16785   -16781 
  -16767   -16738   -16719   -16731   -16735   -16721   -16714   -16713 
  -16714   -16723   -16718   -16700   -16695   -16687   -16663   -16644 
  -16634   -16633   -16660   -16696   -16703   -16671   -16614   -16561 
  -16522   -16495   -16495   -16513   -16518   -16518   -16526   -16529 
  -16514   -16499   -16506   -16525   -16542   -16576   -16625   -16659 
  -16657   -16638   -16615   -16588   -16575   -16591   -16638   -16686 
  -16690   -16665   -16652   -16654   -16650   -16641   -16642   -16671 
  -16713   -16754   -16791   -16816   -16826   -16821   -16795   -16765 
  -16753   -16754   -16756   -16748   -16733   -16718   -16699   -16671 
  -16638   -16614   -16592   -16580   -16590   -16610   -16629   -16638 
  -16638   -16630   -16625   -16633   -16641   -16632   -16605   -16572 
  -16544   -16532   -16528   -16518   -16524   -16560   -16595   -16607 
  -16603   -16590   -16586   -16611   -16652   -16680   -16696   -16711 
  -16722   -16727   -16731   -16717   -16681   -16660   -16657   -16650 
  -16641   -16636   -16641   -16656   -16650   -16637   -16636   -16627 
  -16607   -16598   -16599   -16605   -16603   -16595   -16587   -16563 
  -16540   -16545   -16561   -16559   -16541   -16521   -16513   -16533 
  -16572   -16599   -16598   -16583   -16573   -16587   -16606   -16610 
  -16626   -16656   -16663   -16664   -16668   -16649   -16627   -16632 
  -16654   -16691   -16723   -16737   -16741   -16733   -16711   -16686 
  -16661   -16648   -16644   -16636   -16619   -16596   -16573   -16571 
  -16587   -16603   -16609   -16613   -16629   -16650   -16665   -16680 
  -16695   -16711   -16748   -16803   -16849   -16856   -16826   -16784 
  -16756   -16748   -16745   -16742   -16729   -16699   -16677   -16679 
  -16679   -16668   -16671   -16686   -16703   -16722   -16738   -16745 
  -16733   -16707   -16692   -16700   -16722   -16750   -16765   -16750 
  -16722   -16710   -16718   -16740   -16779   -16814   -16831   -16845 
  -16849   -16835   -16819   -16810   -16814   -16833   -16849   -16857 
  -16870   -16887   -16892   -16888   -16872   -16854   -16860   -16880 
  -16892   -16895   -16892   -16883   -16880   -16873   -16842   -16816 
  -16811   -16806   -16787   -16765   -16740   -16714   -16696   -16680 
  -16663   -16656   -16664   -16667   -16660   -16653   -16636   -16603 
  -16573   -16555   -16545   -16538   -16536   -16534   -16530   -16534 
  -16542   -16542   -16528   -16492   -16459   -16445   -16448   -16471 
  -16507   -16538   -16567   -16592   -16611   -16618   -16622   -16636 
  -16648   -16650   -16648   -16642   -16644   -16652   -16654   -16660 
  -16677   -16700   -16713   -16721   -16733   -16740   -16733   -16711 
  -16679   -16665   -16673   -16677   -16677   -16692   -16700   -16679 
  -16636   -16575   -16503   -16440   -16375   -16308   -16252   -16220 
  -16195   -16166   -16144   -16136   -16116   -16083   -16063   -16048 
  -16042   -16051   -16059   -16044   -16012   -15984   -15969   -15959 
  -15951   -15944   -15936   -15920   -15917   -15932   -15928   -15911 
  -15916   -15930   -15930   -15931   -15939   -15963   -16000   -16039 
  -16077   -16108   -16131   -16154   -16164   -16174   -16193   -16206 
  -16206   -16217   -16248   -16287   -16321   -16348   -16390   -16437 
  -16470   -16495   -16533   -16584   -16637   -16688   -16754   -16831 
  -16903   -16962   -17008   -17034   -17057   -17091   -17127   -17167 
  -17208   -17240   -17270   -17301   -17323   -17335   -17336   -17325 
  -17315   -17309   -17307   -17305   -17294   -17275   -17265   -17262 
  -17261   -17266   -17278   -17285   -17274   -17243   -17205   -17185 
  -17177   -17169   -17163   -17157   -17140   -17111   -17082   -17072 
  -17072   -17072   -17074   -17072   -17058   -17045   -17049   -17055 
  -17037   -17004   -16983   -16973   -16965   -16945   -16910   -16875 
  -16843   -16810   -16765   -16700   -16636   -16594   -16567   -16542 
  -16537   -16545   -16552   -16563   -16576   -16573   -16556   -16536 
  -16522   -16507   -16486   -16476   -16490   -16513   -16524   -16526 
  -16529   -16532   -16532   -16533   -16545   -16565   -16578   -16571 
  -16559   -16553   -16545   -16534   -16528   -16524   -16510   -16491 
  -16483   -16486   -16490   -16490   -16471   -16438   -16429   -16443 
  -16445   -16428   -16414   -16405   -16401   -16405   -16411   -16422 
  -16449   -16478   -16505   -16537   -16564   -16590   -16619   -16648 
  -16676   -16707   -16727   -16742   -16764   -16789   -16819   -16849 
  -16856   -16843   -16843   -16865   -16887   -16887   -16877   -16880 
  -16899   -16927   -16962   -16988   -16987   -16954   -16910   -16858 
  -16807   -16761   -16723   -16704   -16700   -16688   -16671   -16660 
  -16649   -16634   -16625   -16614   -16602   -16594   -16573   -16548 
  -16538   -16537   -16534   -16536   -16537   -16537   -16533   -16515 
  -16495   -16492   -16505   -16518   -16528   -16537   -16546   -16563 
  -16586   -16613   -16644   -16665   -16680   -16706   -16735   -16740 
  -16726   -16710   -16691   -16673   -16668   -16671   -16680   -16699 
  -16723   -16749   -16764   -16767   -16767   -16771   -16779   -16787 
  -16794   -16806   -16814   -16810   -16800   -16785   -16757   -16722 
  -16696   -16679   -16650   -16614   -16582   -16544   -16499   -16475 
  -16472   -16476   -16476   -16471   -16464   -16463   -16468   -16479 
  -16499   -16525   -16545   -16571   -16595   -16602   -16599   -16605 
  -16615   -16633   -16657   -16684   -16719   -16754   -16776   -16791 
  -16795   -16796   -16808   -16825   -16831   -16837   -16846   -16853 
  -16856   -16853   -16849   -16842   -16848   -16865   -16883   -16892 
  -16879   -16854   -16846   -16849   -16838   -16829   -16830   -16835 
  -16839   -16850   -16876   -16912   -16933   -16927   -16920   -16922 
  -16933   -16945   -16950   -16953   -16970   -17000   -17028   -17053 
  -17086   -17134   -17176   -17194   -17200   -17200   -17184   -17153 
  -17130   -17122   -17122   -17118   -17100   -17074   -17054   -17043 
  -17035   -17020   -16997   -16980   -16969   -16962   -16961   -16958 
  -16947   -16923   -16891   -16857   -16822   -16798   -16800   -16808 
  -16792   -16757   -16723   -16690   -16652   -16609   -16564   -16524 
  -16484   -16451   -16411   -16357   -16299   -16254   -16210   -16166 
  -16136   -16114   -16082   -16056   -16052   -16046   -16021   -15996 
  -15975   -15955   -15942   -15939   -15940   -15947   -15951   -15950 
  -15955   -15971   -16000   -16033   -16062   -16100   -16140   -16159 
  -16164   -16187   -16233   -16283   -16325   -16364   -16391   -16401 
  -16414   -16433   -16441   -16438   -16444   -16453   -16459   -16461 
  -16471   -16486   -16499   -16515   -16532   -16538   -16546   -16557 
  -16560   -16556   -16551   -16545   -16544   -16537   -16526   -16525 
  -16517   -16488   -16470   -16470   -16465   -16457   -16464   -16478 
  -16497   -16528   -16557   -16576   -16595   -16611   -16626   -16649 
  -16667   -16675   -16691   -16722   -16754   -16776   -16791   -16795 
  -16795   -16798   -16799   -16792   -16785   -16776   -16769   -16773 
  -16783   -16789   -16792   -16783   -16762   -16741   -16722   -16704 
  -16686   -16664   -16636   -16609   -16584   -16563   -16548   -16542 
  -16537   -16528   -16513   -16502   -16507   -16521   -16545   -16584 
  -16632   -16675   -16714   -16752   -16781   -16811   -16841   -16865 
  -16879   -16891   -16897   -16887   -16862   -16841   -16825   -16802 
  -16765   -16730   -16706   -16688   -16677   -16686   -16702   -16710 
  -16714   -16710   -16699   -16690   -16679   -16672   -16681   -16703 
  -16725   -16738   -16745   -16754   -16779   -16804   -16834   -16876 
  -16919   -16954   -16993   -17037   -17074   -17104   -17122   -17127 
  -17119   -17096   -17068   -17038   -16997   -16951   -16915   -16889 
  -16861   -16837   -16830   -16838   -16850   -16858   -16857   -16843 
  -16827   -16818   -16816   -16810   -16788   -16765   -16752   -16750 
  -16754   -16748   -16727   -16710   -16691   -16669   -16654   -16645 
  -16640   -16642   -16640   -16634   -16636   -16637   -16638   -16644 
  -16645   -16652   -16668   -16676   -16676   -16664   -16640   -16614 
  -16595   -16582   -16575   -16576   -16591   -16610   -16630   -16665 
  -16717   -16761   -16791   -16811   -16830   -16843   -16856   -16873 
  -16895   -16920   -16945   -16954   -16951   -16943   -16937   -16933 
  -16935   -16942   -16946   -16943   -16937   -16923   -16904   -16896 
  -16900   -16911   -16934   -16957   -16961   -16958   -16954   -16942 
  -16930   -16915   -16899   -16888   -16876   -16860   -16838   -16819 
  -16821   -16842   -16869   -16888   -16902   -16912   -16908   -16889 
  -16869   -16845   -16808   -16762   -16718   -16673   -16625   -16587 
  -16565   -16551   -16532   -16501   -16467   -16437   -16401   -16349 
  -16301   -16266   -16233   -16205   -16189   -16181   -16179   -16182 
  -16178   -16173   -16156   -16131   -16108   -16092   -16073   -16059 
  -16063   -16093   -16147   -16216   -16281   -16332   -16380   -16428 
  -16471   -16518   -16561   -16598   -16637   -16673   -16698   -16713 
  -16731   -16756   -16792   -16830   -16860   -16887   -16922   -16965 
  -17019   -17076   -17127   -17174   -17209   -17226   -17238   -17242 
  -17236   -17226   -17203   -17176   -17163   -17166   -17170   -17176 
  -17182   -17192   -17204   -17217   -17226   -17220   -17208   -17199 
  -17205   -17223   -17247   -17273   -17292   -17298   -17305   -17316 
  -17323   -17323   -17316   -17315   -17323   -17327   -17325   -17323 
  -17320   -17308   -17277   -17239   -17213   -17184   -17136   -17082 
  -17026   -16961   -16892   -16826   -16758   -16686   -16611   -16541 
  -16463   -16375   -16290   -16204   -16120   -16043   -15966   -15885 
  -15807   -15741   -15681   -15623   -15574   -15538   -15496   -15450 
  -15410   -15381   -15372   -15375   -15387   -15421   -15454   -15477 
  -15514   -15564   -15614   -15676   -15746   -15811   -15882   -15971 
  -16058   -16133   -16200   -16251   -16297   -16351   -16418   -16491 
  -16557   -16618   -16679   -16740   -16796   -16845   -16888   -16924 
  -16961   -16999   -17045   -17101   -17150   -17181   -17200   -17207 
  -17208   -17204   -17197   -17189   -17182   -17172   -17155   -17143 
  -17131   -17111   -17080   -17037   -16984   -16939   -16910   -16887 
  -16858   -16819   -16777   -16726   -16669   -16609   -16545   -16490 
  -16437   -16380   -16343   -16335   -16325   -16313   -16312   -16310 
  -16308   -16299   -16272   -16243   -16216   -16187   -16160   -16132 
  -16100   -16085   -16092   -16102   -16116   -16132   -16150   -16175 
  -16206   -16233   -16259   -16286   -16316   -16345   -16379   -16417 
  -16452   -16484   -16522   -16560   -16586   -16598   -16605   -16618 
  -16636   -16650   -16675   -16706   -16740   -16777   -16814   -16843 
  -16870   -16896   -16915   -16933   -16953   -16972   -16999   -17030 
  -17058   -17089   -17123   -17153   -17178   -17200   -17227   -17258 
  -17280   -17286   -17285   -17286   -17297   -17311   -17315   -17305 
  -17289   -17278   -17270   -17257   -17240   -17219   -17193   -17170 
  -17150   -17116   -17064   -17008   -16961   -16919   -16876   -16838 
  -16803   -16767   -16730   -16686   -16633   -16575   -16509   -16443 
  -16386   -16332   -16285   -16255   -16248   -16268   -16309   -16357 
  -16413   -16471   -16530   -16591   -16642   -16679   -16715   -16757 
  -16795   -16819   -16846   -16887   -16929   -16966   -16996   -17018 
  -17041   -17058   -17069   -17081   -17091   -17092   -17099   -17119 
  -17146   -17174   -17205   -17236   -17270   -17307   -17329   -17336 
  -17346   -17365   -17388   -17400   -17404   -17402   -17396   -17393 
  -17397   -17401   -17401   -17394   -17381   -17359   -17331   -17304 
  -17273   -17239   -17207   -17167   -17119   -17068   -17016   -16953 
  -16872   -16783   -16695   -16611   -16528   -16448   -16380   -16325 
  -16278   -16239   -16206   -16168   -16124   -16090   -16067   -16044 
  -16025   -16006   -15985   -15967   -15959   -15952   -15944   -15938 
  -15930   -15920   -15923   -15936   -15950   -15962   -15982   -16015 
  -16059   -16106   -16154   -16190   -16213   -16233   -16260   -16285 
  -16310   -16344   -16380   -16418   -16452   -16476   -16482   -16463 
  -16441   -16425   -16406   -16386   -16360   -16332   -16303   -16279 
  -16258   -16229   -16195   -16168   -16141   -16117   -16104   -16097 
  -16079   -16055   -16038   -16023   -16004   -15985   -15969   -15957 
  -15951   -15944   -15935   -15927   -15923   -15928   -15940   -15958 
  -15978   -16000   -16024   -16044   -16051   -16062   -16075   -16085 
  -16092   -16100   -16106   -16120   -16144   -16174   -16209   -16247 
  -16283   -16324   -16370   -16414   -16456   -16507   -16561   -16600 
  -16626   -16654   -16683   -16704   -16722   -16745   -16780   -16816 
  -16852   -16883   -16908   -16934   -16966   -17003   -17047   -17082 
  -17104   -17123   -17135   -17145   -17166   -17185   -17190   -17185 
  -17173   -17151   -17122   -17085   -17047   -17016   -16991   -16968 
  -16951   -16941   -16939   -16947   -16954   -16961   -16962   -16956 
  -16943   -16937   -16946   -16972   -17000   -17023   -17046   -17068 
  -17086   -17103   -17111   -17105   -17099   -17091   -17077   -17057 
  -17041   -17035   -17037   -17034   -17027   -17018   -17011   -17000 
  -16983   -16956   -16922   -16880   -16835   -16792   -16744   -16694 
  -16652   -16619   -16598   -16587   -16586   -16582   -16573   -16569 
  -16560   -16545   -16530   -16513   -16492   -16479   -16465   -16452 
  -16440   -16424   -16411   -16409   -16405   -16397   -16393   -16394 
  -16405   -16424   -16444   -16455   -16453   -16448   -16443   -16436 
  -16426   -16413   -16395   -16379   -16360   -16337   -16308   -16270 
  -16222   -16171   -16128   -16104   -16094   -16087   -16083   -16079 
  -16067   -16059   -16065   -16074   -16079   -16083   -16096   -16121 
  -16156   -16190   -16221   -16258   -16305   -16359   -16414   -16467 
  -16521   -16583   -16646   -16707   -16767   -16818   -16861   -16903 
  -16951   -17004   -17049   -17088   -17126   -17159   -17181   -17185 
  -17184   -17184   -17180   -17163   -17140   -17123   -17111   -17100 
  -17088   -17074   -17057   -17047   -17045   -17039   -17034   -17032 
  -17024   -17000   -16962   -16920   -16877   -16842   -16819   -16798 
  -16776   -16760   -16744   -16721   -16706   -16700   -16690   -16671 
  -16653   -16641   -16634   -16629   -16630   -16634   -16632   -16626 
  -16626   -16627   -16625   -16615   -16599   -16584   -16576   -16568 
  -16556   -16552   -16555   -16557   -16561   -16564   -16561   -16564 
  -16572   -16580   -16587   -16594   -16599   -16606   -16605   -16599 
  -16592   -16588   -16588   -16587   -16590   -16591   -16590   -16587 
  -16580   -16568   -16561   -16564   -16575   -16587   -16584   -16572 
  -16572   -16578   -16583   -16590   -16602   -16618   -16634   -16642 
  -16640   -16640   -16644   -16649   -16657   -16668   -16676   -16681 
  -16684   -16680   -16671   -16661   -16654   -16644   -16634   -16630 
  -16621   -16609   -16600   -16600   -16605   -16605   -16607   -16614 
  -16626   -16650   -16680   -16698   -16706   -16706   -16698   -16692 
  -16683   -16664   -16652   -16648   -16644   -16646   -16659   -16672 
  -16688   -16702   -16708   -16715   -16722   -16725   -16722   -16719 
  -16722   -16726   -16721   -16710   -16700   -16692   -16679   -16660 
  -16648   -16649   -16650   -16646   -16637   -16625   -16610   -16599 
  -16592   -16584   -16572   -16556   -16541   -16528   -16511   -16501 
  -16498   -16492   -16487   -16488   -16494   -16505   -16519   -16540 
