Origin Time       2025/01/13 21:19:00
Lat.              31.8
Long.             131.6
Depth. (km)       30
Mag.              6.9
Station Code      OKYH13
Station Lat.      34.7283
Station Long.     134.2744
Station Height(m) -100.17
Record Time       2025/01/13 21:21:02
Sampling Freq(Hz) 100Hz
Duration Time(s)  120
Dir.              3
Scale Factor      2942(gal)/8224139
Max. Acc. (gal)   0.504
Last Correction   2025/01/13 21:21:03
Memo.             
[...]
  234523   234513   234504   234516   234534   234547   234565   234581 
  234597   234613   234627   234646   234670   234700   234727   234746 
  234762   234778   234787   234793   234786   234765   234732   234704 
  234685   234674   234658   234639   234624   234615   234607   234596 
  234578   234555   234534   234507   234477   234461   234453   234447 
  234451   234458   234461   234459   234465   234484   234507   234527 
  234543   234550   234557   234578   234607   234625   234636   234646 
  234651   234647   234652   234675   234702   234717   234727   234731 
  234724   234716   234715   234721   234735   234740   234742   234754 
  234773   234782   234777   234766   234769   234783   234793   234793 
  234792   234794   234798   234797   234793   234792   234783   234763 
  234746   234732   234713   234692   234675   234655   234623   234588 
  234562   234546   234531   234513   234499   234495   234499   234488 
  234470   234465   234466   234470   234469   234459   234451   234446 
  234438   234427   234426   234432   234430   234412   234401   234399 
  234395   234385   234369   234349   234334   234316   234301   234297 
  234301   234315   234335   234357   234385   234416   234435   234439 
  234445   234454   234468   234481   234489   234499   234513   234535 
  234561   234573   234569   234567   234566   234554   234544   234532 
  234520   234516   234508   234499   234497   234503   234516   234530 
  234536   234544   234550   234547   234538   234523   234509   234503 
  234497   234495   234488   234472   234451   234442   234443   234434 
  234412   234393   234373   234354   234341   234333   234323   234306 
  234289   234284   234280   234274   234269   234269   234273   234266 
  234252   234254   234276   234296   234306   234312   234316   234323 
  234333   234353   234381   234409   234439   234469   234504   234542 
  234576   234593   234600   234603   234604   234613   234624   234628 
  234632   234636   234634   234631   234634   234638   234643   234654 
  234671   234689   234700   234709   234716   234725   234735   234732 
  234721   234716   234713   234712   234700   234671   234644   234625 
  234613   234596   234573   234550   234538   234528   234523   234535 
  234553   234567   234585   234605   234628   234658   234693   234731 
  234775   234821   234862   234898   234927   234954   234975   234989 
  234995   234999   234998   234986   234967   234951   234940   234929 
  234913   234900   234891   234889   234890   234898   234906   234908 
  234906   234909   234917   234928   234936   234947   234962   234966 
  234956   234952   234956   234955   234947   234937   234932   234936 
  234943   234945   234952   234960   234970   234976   234979   234983 
  234990   234999   235003   235002   234994   234985   234981   234979 
  234970   234958   234954   234945   234927   234910   234904   234897 
  234886   234875   234866   234859   234852   234836   234812   234789 
  234767   234742   234716   234692   234673   234659   234636   234605 
  234584   234567   234550   234538   234528   234508   234484   234459 
  234427   234400   234389   234385   234377   234372   234369   234364 
  234358   234361   234364   234357   234349   234345   234341   234335 
  234341   234353   234358   234353   234345   234337   234337   234342 
  234343   234335   234322   234307   234293   234284   234279   234279 
  234280   234281   234283   234284   234279   234272   234265   234252 
  234231   234215   234207   234207   234215   234233   234261   234292 
  234315   234342   234374   234401   234424   234451   234474   234488 
  234497   234513   234535   234553   234553   234534   234516   234503 
  234489   234470   234446   234411   234374   234346   234323   234301 
  234283   234272   234264   234261   234261   234262   234264   234265 
  234262   234262   234273   234297   234324   234343   234355   234361 
  234361   234370   234381   234392   234404   234414   234419   234426 
  234434   234445   234454   234455   234459   234466   234476   234497 
  234519   234540   234567   234597   234625   234655   234684   234716 
  234751   234782   234806   234819   234827   234846   234863   234868 
  234870   234878   234885   234890   234895   234898   234894   234882 
  234871   234862   234844   234820   234792   234769   234756   234751 
  234752   234756   234766   234782   234802   234833   234868   234898 
  234932   234970   235005   235041   235075   235105   235129   235149 
  235170   235179   235172   235159   235147   235132   235111   235082 
  235048   235012   234974   234936   234902   234874   234854   234844 
  234844   234846   234843   234839   234837   234836   234839   234850 
  234859   234864   234870   234868   234864   234864   234862   234847 
  234820   234789   234756   234723   234682   234634   234588   234554 
  234522   234490   234465   234445   234424   234415   234411   234405 
  234404   234418   234439   234465   234490   234516   234531   234535 
  234542   234563   234585   234593   234593   234588   234585   234600 
  234625   234639   234642   234646   234654   234662   234677   234696 
  234713   234728   234732   234727   234724   234732   234744   234756 
  234766   234771   234781   234798   234812   234817   234825   234839 
  234852   234871   234891   234912   234929   234935   234928   234918 
  234910   234898   234881   234862   234841   234827   234817   234808 
  234801   234796   234790   234775   234759   234744   234724   234700 
  234674   234644   234615   234592   234566   234530   234493   234465 
  234434   234401   234378   234361   234335   234307   234288   234274 
  234264   234262   234269   234277   234285   234295   234306   234320 
  234342   234355   234368   234388   234399   234403   234422   234450 
  234473   234492   234516   234535   234550   234566   234578   234593 
  234621   234654   234673   234677   234678   234686   234697   234702 
  234705   234706   234706   234705   234697   234684   234669   234655 
  234640   234628   234619   234615   234617   234625   234631   234639 
  234646   234646   234648   234654   234648   234640   234643   234647 
  234640   234632   234628   234617   234605   234598   234586   234569 
  234553   234526   234501   234489   234476   234450   234423   234392 
  234361   234334   234311   234283   234256   234235   234219   234204 
  234188   234172   234161   234156   234156   234162   234179   234202 
  234227   234252   234281   234304   234323   234347   234369   234378 
  234387   234393   234397   234400   234395   234385   234387   234395 
  234401   234416   234434   234446   234463   234488   234507   234524 
  234542   234559   234580   234600   234619   234639   234661   234682 
  234701   234720   234733   234735   234731   234731   234732   234731 
  234725   234720   234716   234716   234717   234723   234732   234746 
  234755   234759   234760   234762   234765   234767   234769   234756 
  234738   234725   234716   234704   234689   234674   234657   234642 
  234630   234620   234607   234582   234561   234539   234512   234478 
  234441   234397   234347   234299   234256   234220   234191   234157 
  234129   234115   234110   234106   234104   234106   234108   234111 
  234118   234130   234144   234153   234168   234185   234206   234235 
  234269   234301   234342   234385   234427   234476   234526   234571 
  234620   234671   234719   234760   234792   234819   234851   234879 
  234897   234910   234922   234929   234933   234929   234916   234902 
  234890   234873   234851   234825   234797   234763   234731   234700 
  234681   234665   234639   234597   234555   234519   234486   234454 
  234416   234372   234335   234312   234299   234295   234293   234292 
  234293   234299   234310   234327   234347   234372   234396   234416 
  234438   234462   234481   234503   234539   234574   234596   234616 
  234638   234651   234659   234663   234655   234644   234639   234635 
  234632   234634   234640   234652   234670   234682   234694   234709 
  234720   234727   234742   234760   234779   234798   234819   234835 
  234850   234862   234871   234875   234879   234881   234883   234889 
  234889   234889   234894   234906   234913   234917   234922   234931 
  234939   234945   234955   234962   234964   234974   234993   235010 
  235022   235032   235036   235037   235035   235025   235010   234991 
  234964   234936   234914   234890   234858   234823   234790   234763 
  234742   234720   234697   234671   234654   234642   234624   234605 
  234582   234551   234523   234500   234474   234451   234439   234430 
  234415   234401   234385   234370   234358   234357   234373   234400 
  234424   234447   234485   234535   234585   234628   234671   234720 
  234765   234800   234824   234840   234862   234885   234901   234918 
  234941   234958   234964   234964   234964   234966   234962   234949 
  234939   234928   234916   234913   234917   234920   234918   234913 
  234901   234882   234858   234831   234802   234773   234744   234719 
  234694   234678   234671   234663   234657   234655   234651   234647 
  234652   234665   234675   234684   234697   234720   234738   234744 
  234750   234755   234758   234760   234765   234762   234752   234738 
  234717   234694   234670   234639   234603   234565   234523   234477 
  234428   234381   234331   234284   234238   234192   234144   234098 
  234058   234027   233995   233965   233942   233929   233921   233913 
  233907   233909   233913   233917   233921   233922   233922   233929 
  233937   233950   233971   233988   234006   234030   234057   234085 
  234115   234144   234175   234212   234253   234292   234337   234387 
  234436   234482   234524   234566   234612   234659   234704   234747 
  234787   234824   234859   234900   234944   234979   235006   235030 
  235049   235068   235093   235118   235149   235179   235201   235218 
  235228   235232   235236   235240   235236   235222   235210   235198 
  235184   235174   235160   235137   235117   235105   235091   235079 
  235078   235086   235094   235102   235114   235128   235136   235136 
  235134   235132   235128   235118   235107   235093   235076   235063 
  235051   235037   235026   235017   235002   234985   234966   234943 
  234918   234898   234871   234831   234786   234740   234696   234648 
  234590   234526   234458   234389   234316   234241   234168   234106 
  234053   233998   233950   233922   233906   233892   233887   233886 
  233894   233913   233933   233960   233987   234019   234064   234110 
  234154   234203   234253   234304   234357   234403   234442   234482 
  234534   234586   234636   234682   234729   234775   234817   234850 
  234879   234908   234922   234924   234924   234931   234935   234933 
  234927   234913   234897   234886   234879   234863   234847   234839 
  234833   234829   234828   234821   234809   234797   234781   234763 
  234750   234727   234692   234658   234621   234580   234531   234481 
  234432   234384   234330   234279   234231   234189   234150   234115 
  234080   234049   234021   233991   233972   233968   233969   233965 
  233964   233972   233990   234023   234067   234108   234144   234172 
  234196   234219   234231   234233   234227   234215   234192   234161 
  234127   234090   234050   234010   233967   233926   233890   233863 
  233844   233828   233815   233818   233828   233838   233859   233883 
  233907   233941   233980   234021   234061   234111   234169   234229 
  234284   234338   234392   234442   234493   234549   234604   234647 
  234682   234716   234747   234777   234808   234841   234874   234904 
  234931   234954   234975   234993   235009   235022   235026   235017 
  235006   235002   234994   234972   234947   234918   234882   234840 
  234801   234760   234716   234670   234621   234574   234531   234493 
  234461   234432   234412   234405   234408   234422   234445   234474 
  234505   234536   234580   234631   234673   234706   234744   234781 
  234810   234836   234852   234859   234859   234854   234829   234794 
  234758   234713   234651   234585   234519   234445   234365   234291 
  234226   234162   234106   234065   234038   234018   234006   234000 
  233998   234002   234017   234040   234069   234108   234157   234210 
  234264   234330   234411   234489   234565   234650   234739   234825 
  234900   234964   235026   235086   235138   235179   235203   235226 
  235246   235256   235255   235249   235232   235205   235174   235141 
  235110   235074   235026   234979   234939   234891   234844   234802 
  234763   234732   234708   234686   234667   234658   234652   234648 
  234647   234648   234648   234651   234654   234654   234651   234644 
  234635   234627   234619   234607   234590   234567   234536   234503 
  234468   234424   234378   234334   234288   234243   234196   234148 
  234092   234036   233991   233948   233896   233847   233802   233764 
  233737   233717   233702   233698   233707   233729   233757   233790 
  233828   233874   233922   233968   234019   234084   234150   234212 
  234274   234339   234404   234466   234523   234577   234630   234682 
  234738   234786   234835   234889   234947   234993   235030   235072 
  235113   235156   235201   235246   235290   235330   235373   235426 
  235477   235525   235570   235618   235665   235710   235753   235797 
  235839   235873   235900   235924   235946   235967   235985   235996 
  236005   236012   236007   235997   235984   235959   235930   235901 
  235863   235818   235770   235719   235665   235604   235534   235472 
  235410   235340   235268   235195   235124   235062   235006   234954 
  234905   234863   234835   234819   234809   234809   234814   234824 
  234843   234864   234889   234914   234941   234970   235005   235039 
  235055   235063   235072   235072   235063   235041   235013   234979 
  234940   234898   234850   234796   234740   234673   234594   234520 
  234453   234384   234314   234243   234176   234118   234064   234006 
  233948   233895   233844   233795   233748   233706   233674   233647 
  233625   233606   233593   233591   233599   233612   233635   233668 
  233702   233740   233790   233841   233890   233937   233983   234022 
  234060   234096   234129   234153   234166   234172   234168   234157 
  234145   234131   234119   234108   234091   234068   234046   234026 
  234010   234000   233991   233983   233984   233998   234011   234023 
  234040   234061   234084   234110   234141   234166   234193   234227 
  234265   234306   234349   234392   234432   234478   234523   234558 
  234588   234617   234643   234662   234671   234675   234679   234678 
  234675   234673   234670   234662   234648   234638   234631   234621 
  234605   234593   234594   234596   234592   234598   234603   234598 
  234601   234608   234608   234607   234611   234616   234621   234624 
  234627   234634   234644   234652   234662   234670   234674   234675 
  234673   234663   234655   234648   234634   234616   234603   234590 
  234580   234580   234585   234589   234596   234605   234617   234632 
  234651   234671   234685   234689   234696   234705   234708   234705 
  234704   234705   234706   234712   234716   234720   234729   234738 
  234743   234755   234774   234796   234819   234841   234856   234864 
  234870   234871   234863   234841   234813   234783   234747   234702 
  234650   234590   234534   234480   234423   234370   234326   234288 
  234257   234237   234229   234235   234252   234272   234296   234330 
  234370   234415   234463   234515   234566   234617   234669   234719 
  234771   234825   234874   234921   234974   235032   235087   235137 
  235182   235225   235273   235321   235365   235396   235418   235441 
  235453   235449   235444   235434   235406   235363   235307   235245 
  235184   235121   235048   234971   234889   234805   234717   234625 
  234534   234446   234361   234277   234200   234130   234069   234017 
  233965   233919   233886   233855   233830   233818   233815   233815 
  233820   233833   233853   233875   233906   233946   233987   234030 
  234080   234137   234196   234258   234322   234378   234435   234497 
  234557   234615   234671   234728   234777   234824   234873   234920 
  234963   235001   235039   235070   235089   235103   235122   235136 
  235140   235130   235113   235098   235080   235055   235029   235006 
  234979   234943   234902   234866   234828   234782   234739   234704 
  234667   234628   234597   234570   234539   234516   234500   234474 
  234446   234423   234400   234380   234364   234341   234316   234292 
  234260   234229   234206   234179   234144   234114   234088   234061 
  234034   234013   233998   233990   233986   233982   233977   233973 
  233979   233987   233992   234003   234019   234038   234058   234073 
  234085   234100   234119   234139   234158   234175   234195   234219 
  234242   234264   234287   234311   234335   234360   234385   234412 
  234439   234463   234485   234504   234523   234539   234551   234565 
  234585   234605   234627   234655   234684   234705   234721   234740 
  234766   234792   234817   234846   234873   234893   234910   234922 
  234931   234935   234931   234918   234904   234886   234870   234851 
  234829   234805   234782   234759   234739   234719   234697   234675 
  234658   234644   234631   234613   234590   234566   234547   234531 
  234515   234499   234489   234480   234468   234458   234451   234431 
  234408   234396   234389   234380   234380   234387   234393   234405 
  234423   234439   234457   234484   234517   234549   234577   234600 
  234624   234657   234690   234720   234755   234790   234817   234847 
  234877   234901   234922   234944   234960   234967   234974   234981 
  234981   234976   234974   234971   234963   234951   234939   234922 
  234901   234875   234852   234829   234800   234769   234744   234720 
  234697   234678   234662   234651   234644   234640   234636   234639 
  234650   234666   234690   234713   234733   234756   234781   234800 
  234817   234829   234835   234843   234850   234847   234844   234839 
  234827   234816   234810   234805   234793   234777   234760   234742 
  234720   234701   234681   234665   234657   234652   234646   234640 
  234636   234635   234642   234648   234647   234648   234648   234646 
  234638   234621   234597   234570   234542   234513   234484   234446 
  234412   234384   234358   234338   234322   234303   234291   234283 
  234272   234276   234287   234297   234319   234345   234369   234403 
  234439   234470   234505   234542   234571   234601   234638   234670 
  234700   234727   234748   234765   234779   234785   234783   234781 
  234769   234750   234729   234709   234688   234671   234655   234639 
  234624   234616   234613   234608   234600   234594   234590   234586 
  234588   234585   234578   234573   234569   234565   234557   234550 
  234547   234542   234528   234509   234495   234488   234482   234468 
  234454   234446   234434   234422   234412   234399   234381   234369 
  234360   234349   234342   234342   234342   234338   234342   234349 
  234355   234365   234378   234393   234411   234428   234443   234462 
  234480   234492   234503   234513   234522   234528   234532   234538 
