Origin Time       2025/01/13 21:19:00
Lat.              31.8
Long.             131.6
Depth. (km)       30
Mag.              6.9
Station Code      OKYH03
Station Lat.      34.7783
Station Long.     133.7890
Station Height(m) 100
Record Time       2025/01/13 21:20:56
Sampling Freq(Hz) 100Hz
Duration Time(s)  120
Dir.              6
Scale Factor      7845(gal)/8223790
Max. Acc. (gal)   0.621
Last Correction   2025/01/13 21:20:57
Memo.             
[...]
   15091    15097    15174    15271    15344    15372    15342    15260 
   15163    15097    15083    15122    15180    15232    15275    15295 
   15261    15190    15106    15033    15013    15068    15171    15265 
   15295    15223    15074    14909    14773    14717    14804    15007 
   15238    15407    15456    15396    15298    15202    15141    15149 
   15187    15188    15134    15020    14877    14797    14851    15022 
   15236    15385    15404    15319    15207    15111    15033    14979 
   14983    15051    15160    15264    15310    15296    15261    15210 
   15115    14978    14833    14742    14760    14901    15099    15264 
   15322    15255    15134    15044    15022    15083    15202    15295 
   15326    15338    15348    15327    15302    15304    15334    15367 
   15371    15326    15261    15207    15168    15137    15098    15048 
   15025    15071    15192    15345    15449    15449    15356    15238 
   15148    15103    15151    15265    15325    15272    15168    15067 
   15018    15059    15149    15222    15271    15302    15318    15329 
   15303    15217    15121    15078    15099    15153    15207    15248 
   15249    15188    15103    15022    14994    15066    15171    15234 
   15279    15290    15228    15144    15082    15045    15061    15160 
   15310    15425    15461    15433    15350    15238    15125    15040 
   15013    15030    15070    15144    15246    15333    15369    15352 
   15314    15286    15271    15287    15360    15457    15496    15458 
   15379    15279    15160    15037    14944    14948    15075    15248 
   15364    15399    15396    15376    15330    15249    15137    15029 
   14994    15055    15148    15191    15171    15148    15169    15228 
   15288    15309    15302    15302    15296    15261    15195    15117 
   15070    15080    15140    15229    15313    15346    15299    15172 
   15018    14914    14914    14994    15064    15086    15088    15111 
   15165    15211    15198    15160    15156    15167    15168    15186 
   15215    15202    15142    15103    15115    15159    15206    15209 
   15153    15097    15098    15163    15238    15282    15296    15291 
   15286    15298    15317    15311    15260    15176    15124    15153 
   15253    15372    15471    15502    15407    15221    15057    14971 
   14959    15013    15105    15198    15276    15303    15234    15118 
   15037    15014    15055    15159    15290    15411    15496    15504 
   15430    15321    15238    15222    15263    15302    15313    15284 
   15207    15113    15045    15034    15090    15182    15273    15329 
   15299    15184    15045    14951    14944    15036    15186    15327 
   15410    15421    15354    15210    15055    14987    15014    15059 
   15078    15076    15099    15191    15334    15456    15495    15439 
   15344    15261    15225    15236    15260    15267    15260    15248 
   15223    15171    15087    15016    15006    15063    15174    15302 
   15381    15380    15304    15171    15026    14932    14913    14966 
   15080    15237    15369    15414    15388    15338    15256    15144 
   15044    14982    14960    14994    15088    15218    15314    15338 
   15317    15294    15265    15223    15171    15107    15070    15090 
   15115    15105    15083    15078    15094    15115    15099    15063 
   15040    15003    14941    14891    14882    14928    15033    15194 
   15365    15473    15483    15412    15327    15288    15288    15290 
   15276    15283    15313    15303    15221    15097    14975    14916 
   14960    15093    15275    15448    15535    15500    15368    15207 
   15084    15014    14989    15002    15051    15129    15218    15261 
   15226    15159    15141    15211    15307    15299    15167    15030 
   14956    14932    14958    15021    15094    15178    15299    15433 
   15511    15507    15434    15326    15238    15209    15211    15186 
   15137    15120    15124    15111    15093    15091    15106    15138 
   15191    15241    15260    15242    15211    15188    15176    15148 
   15098    15053    15034    15041    15066    15121    15219    15321 
   15373    15361    15286    15191    15130    15114    15122    15148 
   15190    15238    15294    15336    15342    15342    15357    15350 
   15295    15213    15118    15033    15006    15036    15086    15129 
   15164    15180    15174    15167    15165    15168    15188    15195 
   15168    15151    15142    15110    15060    15014    14994    15017 
   15066    15091    15068    15045    15097    15182    15223    15226 
   15202    15148    15120    15151    15213    15276    15317    15300 
   15209    15080    14967    14901    14909    15001    15118    15191 
   15201    15144    15029    14928    14914    14979    15084    15183 
   15214    15184    15148    15117    15079    15053    15080    15171 
   15292    15371    15331    15206    15099    15066    15097    15174 
   15267    15338    15371    15348    15265    15190    15179    15211 
   15259    15306    15292    15203    15137    15145    15191    15249 
   15313    15337    15292    15210    15122    15067    15078    15132 
   15209    15291    15313    15261    15214    15191    15167    15151 
   15165    15211    15265    15303    15325    15354    15410    15439 
   15410    15373    15376    15395    15365    15249    15107    15021 
   14997    15016    15067    15130    15195    15246    15273    15283 
   15291    15296    15290    15248    15148    15020    14951    14974 
   15043    15120    15194    15252    15292    15290    15232    15176 
   15175    15210    15255    15284    15272    15210    15141    15097 
   15087    15125    15190    15246    15277    15276    15271    15282 
   15290    15283    15272    15263    15256    15249    15228    15149 
   15020    14936    14937    15005    15126    15238    15263    15221 
   15161    15093    15025    15002    15060    15179    15310    15402 
   15415    15376    15309    15213    15130    15113    15136    15160 
   15163    15133    15109    15129    15171    15196    15194    15172 
   15176    15228    15280    15299    15284    15256    15272    15350 
   15423    15434    15394    15322    15228    15149    15140    15191 
   15271    15383    15477    15472    15375    15265    15174    15121 
   15151    15242    15336    15398    15410    15346    15223    15098 
   15030    15033    15087    15174    15271    15350    15383    15365 
   15323    15276    15225    15175    15153    15160    15167    15163 
   15144    15107    15068    15022    15002    15053    15167    15309 
   15415    15406    15288    15164    15094    15095    15171    15276 
   15344    15350    15303    15207    15071    14955    14928    15003 
   15132    15250    15311    15304    15248    15176    15114    15052 
   14997    15005    15088    15174    15209    15195    15147    15110 
   15105    15107    15122    15168    15218    15223    15165    15075 
   15017    15024    15066    15113    15176    15244    15275    15255 
   15205    15169    15164    15172    15207    15245    15225    15180 
   15159    15151    15172    15230    15295    15350    15350    15273 
   15195    15164    15152    15129    15110    15122    15161    15211 
   15277    15348    15375    15348    15300    15267    15252    15237 
   15215    15195    15190    15209    15253    15309    15337    15326 
   15302    15276    15250    15249    15277    15322    15367    15380 
   15326    15191    15016    14891    14875    14948    15079    15237 
   15369    15406    15340    15218    15087    14994    14980    15036 
   15106    15161    15203    15205    15160    15117    15121    15178 
   15244    15292    15313    15268    15168    15087    15075    15126 
   15211    15300    15365    15380    15334    15259    15198    15148 
   15113    15130    15175    15202    15217    15211    15186    15183 
   15225    15299    15387    15446    15437    15367    15283    15225 
   15199    15198    15223    15280    15327    15326    15294    15257 
   15222    15214    15238    15267    15276    15257    15192    15095 
   15021    14999    15018    15045    15084    15148    15218    15268 
   15304    15329    15323    15303    15273    15222    15160    15125 
   15118    15120    15138    15184    15244    15306    15352    15353 
   15300    15198    15061    14928    14848    14858    14955    15097 
   15237    15327    15354    15344    15299    15219    15156    15160 
   15213    15260    15267    15213    15102    14983    14905    14883 
   14925    15018    15114    15174    15188    15164    15121    15094 
   15098    15126    15167    15195    15196    15196    15206    15218 
   15242    15277    15314    15346    15372    15394    15395    15325 
   15209    15129    15120    15148    15175    15184    15195    15217 
   15221    15202    15186    15186    15195    15215    15245    15269 
   15267    15215    15144    15109    15110    15138    15198    15242 
   15244    15223    15182    15130    15113    15125    15132    15132 
   15141    15147    15115    15064    15056    15102    15148    15145 
   15101    15049    15013    15003    15029    15093    15184    15259 
   15265    15207    15137    15117    15159    15242    15333    15390 
   15394    15337    15229    15124    15059    15032    15030    15040 
   15047    15053    15066    15080    15109    15164    15223    15275 
   15323    15334    15276    15182    15091    15036    15041    15083 
   15111    15118    15113    15099    15076    15066    15101    15169 
   15233    15264    15264    15241    15201    15147    15071    15006 
   15002    15061    15151    15233    15260    15234    15191    15137 
   15093    15101    15142    15160    15132    15080    15044    15039 
   15056    15078    15093    15106    15134    15184    15230    15238 
   15214    15190    15188    15219    15271    15327    15361    15345 
   15287    15217    15160    15137    15151    15191    15236    15252 
   15219    15155    15105    15107    15159    15234    15303    15326 
   15336    15373    15400    15381    15352    15334    15323    15317 
   15307    15300    15314    15336    15354    15373    15380    15368 
   15344    15318    15309    15321    15344    15356    15346    15318 
   15276    15233    15215    15221    15228    15229    15213    15163 
   15124    15126    15145    15174    15240    15322    15375    15385 
   15352    15280    15195    15115    15049    15036    15098    15195 
   15268    15291    15273    15234    15180    15113    15056    15049 
   15105    15184    15223    15191    15117    15057    15012    14967 
   14951    14976    15022    15061    15063    15028    14997    14993 
   15013    15040    15060    15070    15052    15005    14966    14975 
   15039    15113    15161    15184    15176    15128    15059    15010 
   15016    15071    15138    15176    15180    15160    15129    15098 
   15075    15066    15059    15041    15036    15067    15120    15148 
   15136    15115    15099    15072    15056    15070    15094    15115 
   15130    15142    15169    15211    15253    15298    15337    15360 
   15360    15327    15292    15277    15265    15245    15228    15213 
   15229    15299    15384    15431    15434    15404    15349    15298 
   15294    15325    15346    15338    15318    15300    15290    15291 
   15314    15345    15367    15384    15403    15408    15392    15363 
   15334    15302    15264    15241    15242    15264    15302    15356 
   15400    15411    15392    15349    15283    15215    15188    15209 
   15234    15228    15210    15213    15236    15272    15306    15318 
   15310    15304    15299    15287    15272    15242    15207    15198 
   15196    15165    15120    15115    15164    15225    15269    15298 
   15296    15279    15263    15246    15241    15252    15259    15260 
   15268    15282    15296    15303    15284    15246    15195    15111 
   15016    14951    14918    14910    14929    14964    15010    15057 
   15079    15066    15044    15034    15041    15067    15078    15028 
   14931    14855    14827    14831    14875    14958    15029    15059 
   15048    15021    14991    14963    14951    14979    15030    15068 
   15067    15024    14963    14918    14894    14881    14877    14886 
   14909    14932    14947    14962    14976    15005    15048    15094 
   15134    15174    15206    15226    15242    15269    15321    15387 
   15445    15466    15429    15348    15248    15152    15113    15145 
   15199    15249    15275    15253    15201    15137    15063    15003 
   14999    15044    15105    15171    15230    15267    15275    15272 
   15268    15273    15313    15379    15431    15458    15469    15469 
   15464    15456    15448    15458    15481    15498    15477    15410 
   15322    15250    15218    15230    15275    15317    15327    15306 
   15252    15184    15137    15120    15142    15190    15217    15203 
   15163    15103    15032    14963    14921    14928    14971    15025 
   15070    15088    15090    15088    15082    15068    15063    15076 
   15097    15097    15066    15026    14993    14971    14983    15034 
   15099    15155    15176    15149    15093    15037    14997    14959 
   14905    14848    14820    14824    14859    14905    14941    14976 
   15032    15095    15137    15167    15195    15233    15284    15326 
   15349    15388    15465    15565    15661    15735    15785    15808 
   15813    15826    15840    15838    15819    15795    15766    15730 
   15695    15674    15666    15655    15637    15607    15561    15510 
   15462    15421    15385    15348    15304    15264    15223    15184 
   15151    15120    15091    15072    15070    15088    15109    15106 
   15088    15070    15029    14968    14918    14898    14901    14908 
   14891    14856    14837    14859    14936    15053    15161    15217 
   15230    15207    15144    15071    15053    15105    15192    15276 
   15322    15331    15323    15302    15275    15273    15300    15334 
   15350    15346    15337    15338    15337    15327    15337    15367 
   15394    15398    15390    15377    15365    15356    15349    15337 
   15322    15315    15302    15257    15183    15102    15049    15039 
   15051    15067    15070    15055    15025    14978    14932    14916 
   14917    14910    14912    14916    14887    14825    14759    14728 
   14755    14824    14890    14932    14951    14943    14912    14882 
   14883    14913    14937    14947    14959    14982    15006    15028 
   15055    15094    15142    15184    15210    15219    15238    15294 
   15371    15439    15488    15511    15515    15511    15507    15512 
   15530    15557    15576    15566    15533    15495    15458    15418 
   15368    15310    15255    15218    15202    15207    15241    15294 
   15337    15354    15345    15303    15242    15184    15148    15141 
   15151    15153    15138    15113    15099    15098    15098    15098 
   15111    15138    15167    15171    15152    15138    15136    15132 
   15142    15175    15213    15244    15260    15253    15215    15148 
   15078    15039    15030    15045    15082    15117    15145    15178 
   15199    15195    15191    15213    15257    15299    15330    15352 
   15361    15364    15367    15377    15395    15404    15396    15376 
   15344    15303    15257    15210    15161    15121    15111    15137 
   15169    15179    15163    15137    15113    15094    15071    15032 
   14987    14943    14891    14847    14816    14790    14787    14801 
   14810    14835    14885    14931    14970    15007    15030    15039 
   15043    15041    15032    15022    15010    14994    14975    14962 
   14966    14998    15044    15082    15114    15147    15175    15190 
   15195    15199    15213    15230    15236    15223    15203    15184 
   15169    15160    15159    15171    15203    15245    15273    15287 
   15300    15321    15350    15398    15469    15545    15591    15600 
   15591    15580    15583    15595    15600    15600    15608    15624 
   15635    15623    15591    15553    15520    15498    15492    15483 
   15453    15410    15360    15307    15267    15267    15300    15338 
   15350    15341    15327    15325    15342    15381    15429    15472 
   15503    15514    15488    15434    15379    15352    15363    15391 
   15417    15427    15435    15457    15479    15479    15464    15445 
   15427    15418    15422    15434    15444    15433    15398    15341 
   15265    15175    15098    15057    15059    15083    15114    15125 
   15093    15017    14913    14806    14720    14663    14638    14644 
   14675    14708    14717    14710    14708    14715    14727    14754 
   14808    14867    14916    14948    14974    14997    14999    14972 
   14936    14913    14932    14987    15025    15020    14983    14926 
   14872    14840    14832    14862    14928    15012    15098    15159 
   15184    15190    15182    15186    15233    15299    15357    15408 
   15442    15431    15381    15330    15306    15309    15326    15348 
   15361    15358    15331    15271    15210    15183    15183    15198 
   15207    15195    15169    15144    15128    15128    15122    15095 
   15064    15037    14997    14951    14917    14890    14871    14860 
   14843    14808    14756    14692    14621    14562    14539    14558 
   14600    14643    14678    14690    14679    14673    14679    14709 
   14755    14802    14841    14871    14886    14887    14894    14929 
   14990    15059    15133    15196    15236    15256    15264    15259 
   15250    15237    15214    15192    15168    15136    15118    15137 
   15179    15207    15206    15190    15175    15164    15159    15168 
   15191    15211    15213    15198    15172    15140    15109    15087 
   15088    15115    15149    15174    15194    15221    15228    15192 
   15128    15072    15052    15068    15099    15132    15160    15186 
   15213    15237    15252    15260    15267    15267    15255    15245 
   15259    15310    15391    15468    15515    15516    15464    15380 
   15306    15269    15275    15302    15319    15313    15294    15288 
   15317    15375    15452    15530    15585    15606    15589    15549 
   15502    15450    15392    15344    15325    15326    15322    15314 
   15321    15331    15325    15314    15322    15344    15371    15402 
   15427    15448    15453    15441    15421    15408    15421    15450 
   15480    15506    15531    15556    15574    15587    15579    15543 
   15506    15492    15500    15518    15543    15576    15600    15606 
   15600    15591    15583    15585    15596    15607    15599    15569 
   15553    15572    15615    15657    15680    15680    15662    15624 
   15569    15503    15437    15390    15364    15345    15331    15321 
   15299    15263    15211    15152    15098    15061    15052    15068 
   15094    15124    15148    15175    15219    15273    15310    15326 
   15329    15327    15317    15296    15280    15271    15259    15246 
   15228    15213    15215    15223    15211    15175    15117    15047 
   14982    14941    14920    14910    14904    14891    14881    14867 
   14844    14827    14823    14824    14831    14831    14816    14804 
   14809    14828    14862    14908    14944    14963    14980    14991 
