Origin Time       2025/01/13 21:19:00
Lat.              31.8
Long.             131.6
Depth. (km)       30
Mag.              6.9
Station Code      OKYH08
Station Lat.      34.9103
Station Long.     133.4055
Station Height(m) 430
Record Time       2025/01/13 21:20:49
Sampling Freq(Hz) 100Hz
Duration Time(s)  135
Dir.              5
Scale Factor      7845(gal)/8223790
Max. Acc. (gal)   0.777
Last Correction   2025/01/13 21:20:51
Memo.             
[...]
    1491     1499     1418     1291     1182     1127     1144     1228 
    1305     1318     1297     1264     1223     1200     1204     1224 
    1243     1220     1165     1140     1169     1235     1312     1370 
    1366     1293     1223     1228     1304     1389     1399     1298 
    1142     1003      934      972     1111     1286     1410     1424 
    1345     1231     1132     1119     1232     1425     1580     1622 
    1570     1472     1360     1273     1246     1264     1301     1340 
    1351     1314     1254     1209     1204     1239     1294     1323 
    1302     1263     1232     1216     1208     1201     1193     1182 
    1173     1181     1210     1267     1358     1453     1505     1505 
    1471     1424     1393     1368     1305     1210     1152     1161 
    1201     1251     1305     1337     1314     1247     1158     1074 
    1039     1075     1159     1255     1309     1278     1179     1067 
    1001     1046     1188     1316     1351     1293     1193     1129 
    1151     1244     1370     1470     1505     1482     1421     1328 
    1237     1189     1206     1297     1424     1517     1534     1486 
    1405     1350     1358     1379     1341     1254     1178     1163 
    1231     1333     1370     1331     1275     1225     1206     1258 
    1339     1408     1478     1556     1610     1610     1549     1449 
    1350     1269     1217     1210     1252     1324     1387     1404 
    1350     1258     1198     1228     1329     1409     1381     1236 
    1059      958      970     1065     1173     1247     1289     1312 
    1358     1448     1514     1495     1425     1320     1167     1030 
    1008     1119     1305     1507     1633     1591     1405     1206 
    1120     1154     1235     1297     1287     1194     1093     1071 
    1151     1305     1478     1590     1576     1470     1378     1336 
    1297     1231     1139     1071     1078     1156     1291     1422 
    1433     1294     1119     1026     1065     1216     1367     1408 
    1344     1267     1258     1333     1441     1505     1482     1390 
    1306     1297     1339     1367     1367     1354     1331     1305 
    1316     1381     1458     1506     1498     1410     1297     1233 
    1206     1188     1158     1078      978      959     1062     1246 
    1412     1444     1324     1150     1051     1111     1282     1462 
    1555     1487     1270     1030      907      966     1181     1424 
    1568     1548     1367     1139     1017     1039     1150     1281 
    1352     1314     1239     1224     1271     1332     1372     1351 
    1259     1148     1090     1102     1156     1223     1297     1368 
    1402     1364     1266     1170     1138     1194     1313     1429 
    1509     1529     1478     1381     1278     1181     1102     1043 
    1007     1024     1113     1232     1335     1417     1467     1462 
    1398     1313     1264     1266     1294     1351     1391     1348 
    1248     1166     1125     1151     1252     1356     1395     1374 
    1308     1232     1210     1240     1290     1337     1335     1269 
    1204     1181     1200     1250     1301     1341     1408     1516 
    1605     1599     1494     1344     1200     1098     1084     1144 
    1206     1219     1166     1086     1063     1120     1201     1243 
    1186     1043      936      943     1023     1146     1278     1356 
    1383     1420     1506     1610     1655     1586     1398     1158 
     972      905      942     1046     1179     1297     1371     1383 
    1329     1266     1255     1285     1286     1219     1109     1055 
    1134     1301     1435     1466     1416     1318     1200     1129 
    1154     1223     1289     1347     1360     1297     1198     1128 
    1104     1155     1309     1482     1534     1452     1320     1200 
    1121     1084     1059     1051     1088     1166     1264     1355 
    1399     1371     1269     1154     1105     1134     1202     1287 
    1340     1310     1228     1147     1084     1077     1138     1240 
    1362     1464     1528     1563     1551     1494     1464     1487 
    1510     1507     1495     1485     1467     1431     1363     1286 
    1251     1270     1301     1327     1356     1366     1344     1331 
    1345     1374     1395     1405     1418     1456     1490     1475 
    1416     1351     1289     1209     1121     1065     1074     1171 
    1321     1441     1466     1409     1328     1285     1314     1385 
    1424     1398     1321     1250     1262     1371     1480     1506 
    1462     1413     1394     1420     1478     1526     1539     1522 
    1471     1383     1293     1248     1260     1304     1339     1351 
    1345     1331     1329     1360     1412     1460     1476     1445 
    1410     1405     1395     1359     1318     1296     1294     1332 
    1405     1478     1509     1489     1414     1318     1248     1233 
    1267     1302     1274     1196     1139     1140     1190     1269 
    1318     1305     1258     1209     1167     1154     1182     1189 
    1119     1039     1034     1086     1159     1251     1324     1323 
    1267     1216     1186     1186     1219     1262     1293     1305 
    1304     1302     1293     1270     1277     1347     1443     1503 
    1509     1476     1428     1375     1324     1293     1313     1394 
    1512     1618     1674     1659     1570     1413     1244     1158 
    1200     1335     1498     1606     1586     1460     1336     1256 
    1216     1239     1337     1472     1570     1560     1433     1263 
    1131     1080     1132     1259     1395     1490     1513     1467 
    1387     1302     1231     1190     1181     1190     1220     1271 
    1335     1391     1424     1436     1414     1335     1243     1237 
    1343     1507     1640     1668     1602     1482     1350     1274 
    1286     1333     1377     1399     1390     1371     1363     1360 
    1354     1328     1278     1233     1224     1246     1283     1314 
    1318     1281     1225     1206     1243     1312     1391     1471 
    1524     1540     1510     1437     1372     1367     1397     1413 
    1409     1408     1398     1344     1259     1208     1225     1306 
    1422     1510     1524     1472     1390     1314     1275     1277 
    1310     1366     1416     1441     1455     1467     1441     1358 
    1252     1175     1165     1231     1320     1351     1318     1262 
    1197     1131     1082     1070     1100     1158     1204     1200 
    1166     1127     1088     1093     1154     1197     1192     1197 
    1251     1312     1341     1332     1275     1208     1208     1287 
    1393     1459     1445     1359     1236     1143     1128     1169 
    1204     1219     1215     1202     1200     1221     1264     1312 
    1321     1277     1232     1229     1263     1313     1341     1332 
    1320     1325     1323     1304     1279     1262     1267     1302 
    1352     1398     1417     1399     1367     1366     1406     1455 
    1485     1489     1443     1344     1256     1213     1186     1177 
    1197     1210     1188     1136     1088     1080     1150     1274 
    1377     1418     1408     1359     1309     1290     1300     1305 
    1271     1188     1081      996      988     1081     1200     1263 
    1269     1236     1189     1173     1213     1254     1232     1177 
    1159     1210     1313     1424     1476     1436     1336     1251 
    1219     1235     1264     1279     1277     1258     1233     1219 
    1224     1235     1224     1190     1166     1181     1235     1300 
    1351     1370     1352     1323     1308     1294     1273     1266 
    1287     1331     1383     1416     1389     1286     1159     1094 
    1119     1198     1286     1335     1332     1290     1235     1201 
    1190     1185     1201     1246     1318     1420     1505     1524 
    1476     1393     1314     1285     1318     1412     1528     1598 
    1579     1502     1410     1314     1247     1247     1304     1381 
    1458     1520     1556     1572     1563     1525     1470     1399 
    1339     1325     1358     1390     1389     1341     1275     1220 
    1192     1227     1339     1448     1474     1409     1282     1154 
    1112     1182     1309     1416     1441     1378     1279     1192 
    1125     1092     1102     1132     1140     1139     1163     1209 
    1250     1262     1239     1185     1104     1019      972     1003 
    1100     1193     1216     1163     1073      999      976     1005 
    1038     1031      997      946      888      853      841      843 
     866      888      896      918      953      981      999      999 
     955      907      908      943      966      989     1021     1054 
    1089     1134     1174     1206     1231     1228     1190     1159 
    1171     1219     1283     1355     1386     1321     1201     1115 
    1094     1134     1228     1324     1332     1254     1185     1183 
    1243     1340     1437     1476     1447     1405     1404     1464 
    1570     1661     1695     1669     1605     1547     1539     1580 
    1648     1702     1696     1626     1563     1552     1571     1609 
    1649     1652     1617     1587     1572     1553     1526     1499 
    1459     1413     1377     1351     1327     1304     1287     1287 
    1283     1252     1200     1147     1113     1105     1113     1108 
    1073     1028      994      967      943      928      943      996 
    1061     1109     1151     1188     1215     1252     1285     1296 
    1316     1368     1417     1441     1455     1452     1424     1381 
    1351     1366     1428     1516     1602     1663     1682     1675 
    1656     1644     1665     1711     1733     1696     1609     1502 
    1425     1413     1444     1468     1479     1480     1462     1431 
    1406     1379     1324     1264     1254     1300     1367     1431 
    1460     1416     1297     1174     1112     1115     1140     1159 
    1152     1119     1082     1067     1077     1094     1094     1066 
    1023      986      986     1020     1073     1131     1161     1158 
    1163     1190     1233     1296     1359     1398     1401     1356 
    1297     1264     1266     1281     1309     1351     1375     1371 
    1356     1333     1308     1305     1329     1364     1416     1476 
    1532     1579     1602     1568     1498     1428     1386     1387 
    1425     1471     1517     1530     1489     1424     1393     1416 
    1480     1571     1653     1683     1660     1609     1530     1439 
    1355     1289     1259     1281     1324     1358     1359     1285 
    1150     1036      985      990     1036     1067     1053     1020 
     996      986      990      994     1003     1017     1020     1008 
     994      978      959      939      919      907      916      942 
     984     1031     1055     1042     1009      963      926      926 
     939      942      950      965     1000     1084     1185     1246 
    1258     1229     1173     1132     1134     1177     1255     1337 
    1382     1385     1368     1370     1412     1494     1588     1659 
    1674     1633     1548     1448     1368     1323     1310     1332 
    1378     1432     1464     1449     1394     1337     1324     1350 
    1382     1405     1401     1354     1285     1233     1206     1186 
    1173     1163     1139     1108     1101     1135     1186     1231 
    1251     1236     1190     1138     1096     1070     1078     1124 
    1182     1223     1237     1231     1206     1166     1144     1185 
    1279     1391     1479     1499     1453     1393     1360     1378 
    1433     1474     1452     1389     1336     1316     1337     1387 
    1433     1452     1444     1428     1408     1364     1306     1269 
    1246     1233     1260     1344     1449     1529     1557     1533 
    1464     1372     1302     1291     1336     1393     1420     1404 
    1360     1331     1347     1387     1393     1321     1202     1107 
    1080     1123     1198     1240     1208     1140     1081     1031 
    1003     1008     1031     1051     1067     1090     1120     1140 
    1154     1181     1205     1196     1155     1097     1039     1007 
    1000     1001      992      980      978      982      966      928 
     881      827      785      805      904     1013     1080     1098 
    1071     1031     1038     1113     1201     1243     1229     1186 
    1151     1148     1154     1142     1105     1070     1070     1107 
    1156     1192     1175     1120     1071     1059     1071     1092 
    1115     1135     1150     1177     1215     1232     1219     1200 
    1205     1237     1269     1287     1304     1313     1313     1329 
    1366     1422     1513     1618     1694     1718     1702     1680 
    1680     1705     1741     1768     1745     1657     1552     1486 
    1456     1452     1460     1445     1386     1309     1232     1152 
    1074     1016      997     1020     1059     1090     1096     1065 
     993      922      897      924      978     1040     1084     1086 
    1077     1096     1138     1179     1205     1188     1104      990 
     911      895      923      977     1044     1104     1123     1102 
    1066     1023      988      974      982     1000     1031     1075 
    1129     1186     1229     1255     1285     1332     1395     1474 
    1555     1621     1674     1718     1746     1761     1791     1848 
    1918     1980     2022     2054     2084     2103     2091     2057 
    2035     2029     2018     2006     2007     2003     1972     1917 
    1838     1729     1602     1479     1368     1263     1169     1097 
    1046     1004      973      970      982      992     1005     1030 
    1044     1055     1090     1155     1231     1308     1379     1439 
    1486     1512     1518     1516     1510     1514     1518     1490 
    1414     1323     1246     1210     1227     1259     1269     1246 
    1198     1143     1109     1107     1120     1132     1138     1143 
    1162     1213     1283     1329     1337     1331     1328     1343 
    1386     1432     1441     1414     1375     1340     1320     1313 
    1314     1332     1352     1344     1308     1277     1267     1290 
    1341     1378     1354     1264     1143     1039      984      990 
    1040     1098     1138     1169     1196     1209     1221     1258 
    1309     1368     1416     1422     1389     1343     1310     1309 
    1325     1345     1362     1377     1398     1424     1447     1463 
    1468     1479     1525     1610     1721     1834     1908     1922 
    1912     1912     1915     1910     1902     1883     1844     1787 
    1726     1667     1614     1551     1463     1364     1267     1183 
    1128     1089     1057     1031      997      935      854      764 
     680      621      604      642      711      769      811      845 
     862      857      835      787      703      619      576      580 
     612      646      661      642      598      558      544      558 
     599      648      677      687      697      719      742      769 
     804      857      951     1085     1210     1294     1325     1309 
    1279     1278     1293     1296     1287     1278     1271     1258 
    1236     1213     1194     1179     1186     1236     1328     1431 
    1507     1551     1551     1516     1487     1495     1532     1586 
    1649     1692     1696     1674     1638     1605     1590     1599 
    1613     1603     1560     1502     1443     1390     1362     1351 
    1343     1347     1374     1417     1462     1498     1529     1553 
    1559     1552     1539     1513     1493     1501     1528     1549 
    1547     1505     1436     1386     1398     1468     1552     1617 
    1636     1593     1513     1439     1385     1354     1345     1355 
    1364     1347     1286     1192     1082      994      965     1001 
    1070     1125     1136     1102     1043      977      924      901 
     919      976     1043     1094     1123     1120     1088     1053 
    1034     1030     1035     1042     1040     1030     1031     1067 
    1124     1178     1221     1240     1228     1201     1177     1178 
    1225     1283     1321     1332     1314     1283     1266     1263 
    1259     1251     1246     1229     1198     1174     1171     1182 
    1190     1186     1170     1139     1098     1066     1040     1013 
     985      963      958      978     1019     1065     1104     1132 
    1151     1190     1274     1390     1494     1544     1533     1476 
    1398     1347     1348     1371     1378     1368     1354     1331 
    1312     1312     1318     1325     1344     1372     1399     1417 
    1414     1389     1356     1341     1348     1366     1367     1343 
    1305     1281     1291     1340     1414     1474     1491     1466 
    1408     1343     1298     1269     1225     1178     1150     1146 
    1150     1147     1127     1086     1042     1020     1030     1065 
    1097     1102     1088     1071     1048     1023     1023     1053 
    1093     1132     1152     1144     1120     1092     1071     1081 
    1115     1154     1186     1212     1247     1308     1389     1467 
    1514     1529     1536     1541     1541     1548     1560     1556 
    1544     1539     1532     1526     1526     1520     1512     1516 
    1539     1572     1601     1617     1614     1595     1568     1555 
    1575     1617     1642     1634     1597     1537     1480     1455 
    1475     1530     1590     1611     1584     1534     1490     1462 
    1452     1452     1439     1399     1340     1274     1205     1138 
    1071     1008      945      896      881      904      936      945 
     928      900      874      858      858      878      930     1007 
    1088     1154     1202     1232     1259     1306     1383     1472 
    1555     1621     1660     1674     1687     1707     1710     1698 
    1687     1680     1686     1705     1726     1733     1711     1667 
    1621     1587     1571     1580     1617     1657     1682     1687 
    1680     1676     1691     1728     1772     1804     1815     1807 
    1799     1799     1796     1780     1764     1767     1787     1811 
    1836     1840     1804     1750     1705     1682     1683     1694 
    1691     1672     1645     1621     1598     1578     1567     1567 
    1564     1549     1520     1482     1444     1428     1452     1507 
    1582     1660     1730     1769     1767     1761     1767     1763 
    1755     1749     1728     1691     1669     1655     1618     1566 
    1513     1459     1399     1344     1302     1275     1269     1269 
    1258     1223     1162     1086     1016      949      882      831 
     801      799      824      857      872      865      849      837 
     843      873      919      955      954      930      927      955 
     990     1013     1016      997      965      940      947      976 
    1005     1019     1004      962      913      882      885      922 
     972      994      973      923      874      854      868      897 
     918      916      905      905      923      951      976      985 
     980      980     1004     1058     1125     1167     1171     1154 
    1127     1094     1062     1036     1021     1011      997      988 
