Origin Time       2025/01/13 21:19:00
Lat.              31.8
Long.             131.6
Depth. (km)       30
Mag.              6.9
Station Code      OKYH13
Station Lat.      34.7283
Station Long.     134.2744
Station Height(m) -100.17
Record Time       2025/01/13 21:21:02
Sampling Freq(Hz) 100Hz
Duration Time(s)  120
Dir.              1
Scale Factor      2942(gal)/8224139
Max. Acc. (gal)   0.469
Last Correction   2025/01/13 21:21:03
Memo.             
[...]
  137687   137735   137768   137798   137840   137884   137929   137975 
  138011   138045   138082   138109   138125   138138   138153   138164 
  138172   138183   138198   138206   138211   138213   138207   138198 
  138191   138184   138181   138177   138176   138179   138169   138146 
  138136   138134   138130   138127   138130   138137   138153   138172 
  138188   138207   138217   138215   138217   138225   138245   138271 
  138299   138327   138346   138366   138393   138418   138441   138469 
  138495   138519   138542   138564   138578   138582   138574   138570 
  138569   138551   138530   138512   138480   138442   138403   138360 
  138326   138294   138256   138213   138168   138119   138067   138018 
  137968   137906   137843   137771   137698   137629   137556   137488 
  137417   137346   137284   137222   137161   137112   137066   137029 
  136993   136958   136937   136919   136894   136867   136842   136821 
  136810   136809   136810   136811   136817   136837   136873   136919 
  136964   137007   137049   137095   137139   137177   137211   137239 
  137263   137295   137322   137343   137358   137370   137376   137381 
  137389   137397   137400   137398   137394   137377   137355   137343 
  137332   137312   137292   137270   137245   137216   137189   137160 
  137139   137128   137108   137083   137072   137068   137064   137069 
  137084   137091   137100   137116   137141   137169   137197   137236 
  137288   137338   137382   137427   137473   137516   137559   137606 
  137652   137691   137724   137748   137767   137785   137801   137818 
  137830   137843   137853   137855   137851   137853   137864   137870 
  137866   137853   137837   137829   137818   137793   137758   137714 
  137667   137616   137560   137506   137448   137388   137331   137277 
  137227   137188   137151   137114   137083   137054   137025   137003 
  136988   136966   136945   136931   136919   136908   136912   136912 
  136904   136908   136922   136945   136979   137010   137041   137070 
  137099   137131   137174   137220   137263   137301   137334   137361 
  137390   137425   137457   137478   137500   137520   137528   137535 
  137550   137556   137558   137559   137551   137544   137548   137550 
  137548   137552   137563   137575   137585   137593   137597   137594 
  137597   137604   137608   137604   137593   137582   137573   137566 
  137559   137548   137536   137519   137493   137463   137427   137388 
  137346   137301   137265   137242   137215   137185   137157   137128 
  137107   137095   137081   137068   137062   137052   137043   137046 
  137045   137049   137056   137057   137060   137066   137076   137092 
  137107   137126   137154   137182   137211   137246   137288   137334 
  137389   137447   137505   137570   137639   137704   137762   137824 
  137876   137910   137944   137971   137978   137975   137971   137963 
  137948   137926   137899   137870   137836   137803   137774   137743 
  137712   137678   137647   137617   137583   137556   137539   137517 
  137494   137474   137451   137430   137407   137380   137354   137324 
  137296   137274   137259   137243   137231   137219   137211   137205 
  137195   137189   137197   137211   137232   137266   137304   137340 
  137376   137412   137462   137529   137598   137656   137712   137767 
  137814   137857   137897   137933   137965   137988   138003   138013 
  138025   138037   138048   138059   138071   138082   138088   138086 
  138078   138078   138083   138078   138065   138048   138025   137999 
  137968   137922   137867   137806   137732   137651   137570   137478 
  137385   137305   137223   137139   137069   137006   136945   136891 
  136845   136800   136759   136729   136710   136698   136695   136694 
  136695   136706   136723   136749   136783   136818   136856   136899 
  136937   136969   137006   137041   137072   137099   137119   137133 
  137151   137174   137199   137232   137272   137307   137340   137384 
  137430   137474   137515   137546   137579   137612   137627   137629 
  137631   137633   137639   137644   137647   137647   137643   137636 
  137621   137608   137609   137614   137616   137617   137623   137628 
  137636   137646   137648   137639   137621   137602   137581   137559 
  137538   137516   137498   137482   137466   137452   137439   137421 
  137403   137389   137386   137386   137388   137392   137390   137377 
  137355   137328   137305   137274   137231   137185   137139   137092 
  137049   137015   136973   136921   136872   136829   136791   136757 
  136723   136688   136648   136605   136561   136517   136476   136443 
  136421   136401   136371   136345   136333   136335   136347   136362 
  136370   136385   136413   136445   136482   136521   136567   136618 
  136668   136726   136792   136849   136910   136980   137041   137099 
  137160   137218   137284   137351   137411   137471   137532   137589 
  137643   137690   137729   137760   137794   137824   137843   137860 
  137868   137857   137837   137812   137781   137739   137694   137652 
  137600   137547   137498   137443   137389   137350   137316   137295 
  137281   137266   137259   137259   137261   137268   137278   137295 
  137316   137339   137370   137404   137440   137482   137524   137571 
  137616   137655   137698   137745   137790   137836   137883   137924 
  137965   138010   138052   138095   138141   138176   138203   138235 
  138273   138308   138343   138383   138424   138464   138500   138532 
  138555   138570   138580   138578   138568   138551   138526   138493 
  138457   138410   138361   138315   138265   138222   138180   138132 
  138090   138040   137982   137934   137890   137843   137809   137775 
  137733   137682   137636   137614   137589   137552   137536   137524 
  137498   137481   137471   137459   137444   137428   137411   137396 
  137381   137371   137358   137339   137331   137326   137308   137289 
  137269   137245   137227   137214   137193   137177   137166   137157 
  137154   137153   137146   137143   137149   137151   137157   137153 
  137138   137127   137111   137087   137066   137049   137027   137002 
  136969   136939   136922   136912   136904   136898   136895   136896 
  136904   136918   136931   136953   136989   137027   137066   137116 
  137178   137242   137305   137377   137451   137523   137590   137654 
  137712   137768   137818   137860   137899   137938   137976   138007 
  138030   138046   138059   138075   138091   138102   138114   138132 
  138130   138114   138098   138076   138046   138007   137955   137897 
  137841   137774   137701   137632   137558   137475   137400   137332 
  137272   137208   137139   137073   137015   136958   136908   136867 
  136830   136798   136765   136734   136701   136664   136637   136617 
  136593   136566   136541   136520   136497   136475   136463   136456 
  136451   136448   136445   136448   136464   136489   136513   136539 
  136567   136602   136645   136692   136738   136779   136818   136857 
  136896   136937   136977   137019   137064   137110   137155   137203 
  137254   137301   137344   137388   137425   137457   137486   137515 
  137543   137569   137587   137602   137616   137629   137644   137656 
  137663   137668   137673   137673   137675   137683   137691   137700 
  137713   137720   137717   137710   137697   137682   137667   137648 
  137621   137590   137554   137511   137463   137408   137343   137286 
  137241   137189   137141   137097   137046   137003   136976   136949 
  136927   136915   136896   136875   136857   136838   136815   136795 
  136771   136742   136719   136696   136676   136671   136667   136660 
  136657   136657   136656   136651   136652   136660   136655   136659 
  136683   136703   136723   136755   136784   136823   136875   136921 
  136975   137034   137087   137145   137207   137257   137308   137367 
  137430   137486   137529   137574   137628   137677   137727   137782 
  137835   137882   137936   138002   138069   138117   138159   138204 
  138250   138300   138348   138385   138422   138446   138458   138473 
  138485   138489   138487   138477   138468   138457   138437   138407 
  138375   138352   138333   138308   138287   138269   138248   138229 
  138214   138203   138196   138195   138195   138192   138187   138188 
  138191   138184   138176   138164   138148   138127   138110   138090 
  138065   138049   138038   138019   138007   138001   137997   137995 
  137998   138001   138005   138003   138003   138005   137999   137991 
  137988   137976   137956   137940   137926   137906   137878   137848 
  137822   137803   137787   137767   137747   137728   137704   137675 
  137644   137604   137556   137509   137461   137411   137369   137338 
  137307   137281   137259   137231   137203   137187   137178   137164 
  137150   137146   137145   137151   137165   137173   137187   137207 
  137223   137239   137254   137266   137285   137304   137316   137330 
  137346   137359   137366   137374   137390   137407   137425   137448 
  137471   137496   137520   137542   137556   137569   137577   137579 
  137579   137579   137574   137566   137560   137556   137554   137551 
  137543   137538   137540   137540   137525   137512   137512   137505 
  137488   137475   137458   137424   137386   137350   137308   137266 
  137222   137173   137128   137085   137037   136988   136946   136902 
  136856   136813   136769   136725   136686   136653   136617   136583 
  136555   136524   136499   136485   136471   136459   136456   136455 
  136458   136471   136486   136509   136536   136560   136593   136628 
  136660   136701   136742   136771   136798   136831   136869   136911 
  136945   136962   136975   136992   137004   137014   137029   137041 
  137052   137065   137081   137095   137115   137139   137165   137193 
  137220   137245   137276   137308   137339   137369   137390   137412 
  137436   137455   137477   137504   137524   137540   137562   137581 
  137601   137617   137629   137648   137667   137677   137685   137691 
  137690   137690   137695   137701   137702   137702   137701   137697 
  137689   137683   137678   137664   137650   137639   137625   137602 
  137586   137579   137566   137551   137550   137552   137551   137551 
  137552   137558   137570   137585   137598   137616   137635   137651 
  137670   137689   137716   137743   137760   137768   137781   137798 
  137810   137821   137833   137847   137863   137879   137897   137917 
  137936   137956   137979   137995   138005   138015   138018   138011 
  138006   137999   137984   137971   137964   137955   137938   137920 
  137898   137876   137852   137821   137787   137752   137713   137667 
  137616   137567   137517   137462   137408   137357   137304   137253 
  137208   137172   137145   137123   137099   137077   137062   137054 
  137045   137034   137031   137033   137035   137049   137070   137089 
  137104   137127   137157   137181   137207   137235   137258   137284 
  137316   137342   137366   137397   137427   137454   137486   137516 
  137546   137577   137606   137633   137658   137677   137689   137695 
  137694   137689   137679   137663   137641   137620   137598   137573 
  137542   137512   137489   137466   137444   137425   137411   137398 
  137385   137370   137355   137342   137326   137301   137273   137245 
  137222   137200   137181   137162   137143   137130   137118   137108 
  137103   137097   137093   137095   137103   137106   137101   137092 
  137081   137072   137061   137045   137022   137000   136983   136958 
  136934   136917   136898   136880   136868   136856   136846   136844 
  136838   136834   136831   136831   136831   136833   136833   136827 
  136818   136813   136814   136811   136807   136813   136822   136822 
  136819   136819   136821   136817   136810   136806   136800   136798 
  136804   136817   136834   136850   136867   136892   136927   136956 
  136983   137010   137030   137050   137077   137099   137122   137151 
  137173   137195   137228   137266   137295   137316   137347   137385 
  137421   137458   137498   137542   137581   137617   137647   137681 
  137721   137755   137778   137799   137824   137847   137864   137874 
  137880   137886   137895   137903   137913   137924   137929   137932 
  137932   137929   137925   137918   137906   137893   137883   137874 
  137856   137839   137826   137813   137789   137760   137741   137722 
  137691   137656   137619   137574   137525   137469   137408   137354 
  137303   137245   137189   137139   137084   137037   136998   136952 
  136906   136865   136827   136794   136765   136748   136733   136715 
  136705   136696   136686   136682   136676   136671   136668   136663 
  136656   136655   136655   136664   136680   136696   136717   136738 
  136756   136772   136794   136821   136846   136879   136910   136937 
  136969   136992   137010   137038   137064   137087   137104   137114 
  137122   137130   137128   137127   137130   137128   137122   137120 
  137118   137110   137104   137101   137092   137085   137089   137091 
  137092   137099   137110   137119   137120   137128   137146   137165 
  137188   137215   137238   137265   137297   137332   137365   137401 
  137440   137485   137535   137582   137625   137675   137733   137787 
  137844   137906   137970   138032   138092   138142   138194   138245 
  138291   138334   138372   138414   138461   138501   138539   138578 
  138613   138634   138651   138676   138696   138709   138726   138734 
  138732   138734   138736   138730   138712   138696   138682   138659 
  138634   138604   138568   138527   138488   138451   138415   138375 
  138331   138291   138258   138219   138172   138119   138071   138029 
  137988   137941   137894   137847   137801   137752   137697   137640 
  137589   137542   137490   137436   137385   137335   137278   137224 
  137172   137114   137057   137006   136957   136906   136853   136803 
  136755   136706   136663   136618   136575   136537   136501   136466 
  136439   136416   136399   136386   136379   136382   136382   136382 
  136391   136405   136416   136433   136455   136479   136509   136543 
  136574   136603   136636   136665   136695   136726   136757   136792 
  136827   136860   136894   136929   136961   136992   137023   137056 
  137080   137092   137112   137131   137142   137155   137169   137174 
  137176   137177   137176   137180   137188   137195   137200   137208 
  137218   137226   137234   137243   137253   137262   137278   137290 
  137296   137304   137311   137317   137327   137327   137322   137326 
  137332   137330   137324   137323   137323   137323   137330   137339 
  137342   137342   137346   137347   137339   137336   137340   137342 
  137346   137349   137344   137343   137342   137340   137340   137334 
  137328   137328   137324   137320   137320   137317   137312   137311 
  137316   137323   137326   137332   137339   137347   137355   137359 
  137367   137385   137403   137423   137442   137459   137482   137501 
  137513   137529   137544   137555   137563   137571   137579   137586 
  137592   137596   137601   137606   137612   137616   137619   137623 
  137625   137628   137628   137623   137617   137612   137604   137602 
  137602   137593   137586   137583   137571   137562   137556   137548 
  137539   137528   137517   137504   137486   137469   137454   137438 
  137424   137416   137408   137404   137405   137403   137404   137412 
  137419   137428   137436   137444   137459   137475   137494   137519 
  137548   137574   137594   137617   137647   137681   137714   137744 
  137775   137806   137835   137866   137895   137924   137951   137968 
  137982   138001   138022   138044   138061   138078   138096   138111 
  138121   138130   138137   138145   138145   138141   138138   138123 
  138105   138091   138063   138025   137995   137961   137922   137883 
  137839   137791   137745   137697   137650   137602   137560   137525 
  137484   137440   137403   137361   137322   137284   137247   137220 
  137199   137176   137158   137157   137155   137145   137146   137158 
  137172   137188   137203   137215   137235   137261   137290   137319 
  137346   137377   137408   137438   137474   137513   137547   137577 
  137609   137639   137660   137678   137695   137712   137725   137733 
  137739   137743   137743   137744   137747   137744   137733   137725 
  137720   137702   137682   137667   137646   137616   137587   137559 
  137524   137486   137444   137400   137357   137315   137273   137231 
  137185   137151   137126   137095   137069   137043   137019   137007 
  136995   136979   136973   136972   136966   136962   136966   136965 
  136968   136983   136998   137011   137026   137045   137072   137093 
  137108   137133   137168   137199   137220   137245   137270   137295 
  137322   137342   137359   137381   137392   137397   137413   137425 
  137427   137431   137439   137442   137444   137444   137443   137446 
  137448   137448   137447   137454   137462   137462   137469   137482 
  137486   137500   137529   137558   137578   137593   137609   137635 
  137660   137678   137697   137713   137725   137735   137744   137751 
  137756   137759   137762   137764   137766   137774   137783   137787 
  137790   137789   137781   137770   137762   137749   137732   137716 
  137691   137655   137623   137593   137558   137527   137497   137463 
  137428   137397   137370   137344   137322   137301   137284   137268 
  137261   137258   137255   137255   137258   137265   137277   137300 
  137324   137349   137378   137408   137436   137473   137506   137536 
  137582   137629   137659   137694   137733   137758   137783   137817 
  137841   137856   137874   137897   137914   137925   137936   137948 
  137960   137967   137970   137970   137964   137955   137944   137922 
  137893   137868   137839   137802   137774   137743   137709   137671 
  137629   137590   137548   137504   137461   137420   137380   137340 
  137299   137254   137214   137176   137137   137099   137065   137031 
  136999   136971   136945   136919   136894   136873   136853   136837 
  136830   136827   136823   136818   136818   136825   136836   136845 
  136858   136876   136899   136925   136953   136987   137018   137049 
  137084   137124   137166   137204   137245   137286   137324   137363 
  137401   137435   137467   137496   137519   137540   137560   137579 
  137597   137609   137614   137621   137625   137620   137619   137629 
  137631   137619   137612   137605   137594   137583   137570   137552 
  137533   137515   137494   137471   137444   137415   137385   137354 
  137322   137297   137280   137269   137253   137232   137223   137214 
  137201   137199   137204   137214   137228   137247   137266   137282 
  137303   137335   137369   137398   137432   137466   137496   137523 
  137550   137574   137592   137610   137631   137648   137667   137686 
  137701   137716   137729   137740   137756   137774   137786   137793 
  137793   137790   137791   137789   137785   137783   137781   137774 
  137766   137754   137736   137713   137694   137674   137650   137624 
  137593   137563   137539   137509   137477   137442   137407   137382 
  137365   137347   137336   137331   137324   137323   137327   137328 
