Origin Time       2025/01/13 21:19:00
Lat.              31.8
Long.             131.6
Depth. (km)       30
Mag.              6.9
Station Code      OKYH02
Station Lat.      34.7501
Station Long.     134.0702
Station Height(m) -170
Record Time       2025/01/13 21:20:55
Sampling Freq(Hz) 100Hz
Duration Time(s)  126
Dir.              2
Scale Factor      3923(gal)/8224838
Max. Acc. (gal)   0.570
Last Correction   2025/01/13 21:20:56
Memo.             
[...]
  -20817   -20817   -20802   -20827   -20860   -20849   -20837   -20844 
  -20842   -20845   -20860   -20862   -20839   -20826   -20819   -20794 
  -20784   -20810   -20835   -20877   -20941   -20981   -21011   -21034 
  -21016   -20993   -21010   -21033   -21047   -21057   -21047   -21035 
  -21038   -21039   -21043   -21057   -21065   -21060   -21047   -21041 
  -21035   -21027   -21016   -20997   -20974   -20956   -20933   -20912 
  -20912   -20926   -20927   -20915   -20893   -20869   -20862   -20869 
  -20875   -20877   -20873   -20858   -20854   -20848   -20842   -20873 
  -20915   -20941   -20984   -21024   -21031   -21030   -21030   -21016 
  -21006   -21012   -21026   -21030   -21030   -21035   -21045   -21035 
  -21018   -21023   -21028   -20999   -20970   -20968   -20964   -20950 
  -20937   -20916   -20914   -20934   -20935   -20919   -20918   -20911 
  -20896   -20889   -20884   -20892   -20915   -20922   -20908   -20896 
  -20891   -20898   -20912   -20922   -20925   -20933   -20950   -20957 
  -20957   -20958   -20958   -20960   -20968   -20995   -21035   -21051 
  -21038   -21038   -21047   -21045   -21046   -21045   -21039   -21049 
  -21051   -21045   -21064   -21082   -21085   -21093   -21103   -21112 
  -21142   -21170   -21166   -21158   -21166   -21166   -21161   -21159 
  -21145   -21122   -21119   -21118   -21108   -21116   -21131   -21126 
  -21114   -21107   -21097   -21103   -21122   -21115   -21091   -21073 
  -21066   -21065   -21062   -21064   -21073   -21070   -21062   -21058 
  -21042   -21033   -21046   -21058   -21073   -21099   -21095   -21047 
  -21012   -21007   -20995   -20970   -20957   -20964   -20976   -20968 
  -20942   -20934   -20946   -20954   -20958   -20973   -20983   -20977 
  -20966   -20958   -20949   -20937   -20926   -20938   -20947   -20919 
  -20871   -20829   -20795   -20773   -20746   -20704   -20683   -20682 
  -20661   -20650   -20672   -20687   -20694   -20718   -20736   -20738 
  -20733   -20727   -20730   -20729   -20722   -20722   -20737   -20748 
  -20750   -20764   -20777   -20790   -20821   -20826   -20791   -20775 
  -20769   -20744   -20742   -20767   -20777   -20788   -20807   -20810 
  -20814   -20823   -20811   -20794   -20777   -20746   -20710   -20690 
  -20676   -20661   -20638   -20614   -20603   -20609   -20621   -20637 
  -20661   -20682   -20695   -20725   -20771   -20802   -20825   -20858 
  -20889   -20925   -20964   -20985   -20995   -20995   -20991   -21023 
  -21092   -21146   -21181   -21212   -21235   -21276   -21321   -21330 
  -21331   -21363   -21382   -21388   -21402   -21392   -21359   -21343 
  -21319   -21300   -21313   -21321   -21311   -21301   -21286   -21273 
  -21265   -21253   -21249   -21251   -21236   -21208   -21186   -21172 
  -21163   -21168   -21165   -21141   -21120   -21130   -21151   -21163 
  -21157   -21141   -21135   -21136   -21143   -21176   -21207   -21195 
  -21161   -21136   -21111   -21082   -21064   -21057   -21066   -21084 
  -21097   -21114   -21135   -21147   -21150   -21141   -21127   -21107 
  -21066   -21034   -21028   -21026   -21015   -21001   -20980   -20952 
  -20919   -20877   -20841   -20833   -20834   -20821   -20798   -20775 
  -20745   -20718   -20726   -20748   -20754   -20764   -20767   -20746 
  -20719   -20695   -20672   -20659   -20649   -20648   -20660   -20672 
  -20672   -20680   -20702   -20723   -20761   -20807   -20833   -20857 
  -20891   -20911   -20926   -20950   -20964   -20960   -20957   -20969 
  -20992   -21012   -21026   -21041   -21065   -21078   -21072   -21082 
  -21103   -21101   -21099   -21097   -21084   -21068   -21046   -21028 
  -21016   -20985   -20952   -20938   -20926   -20906   -20895   -20900 
  -20911   -20926   -20937   -20945   -20968   -20985   -20980   -20973 
  -20973   -20962   -20961   -20970   -20953   -20937   -20937   -20923 
  -20902   -20889   -20873   -20875   -20900   -20911   -20910   -20933 
  -20973   -20995   -20999   -21008   -21018   -21014   -21019   -21050 
  -21066   -21058   -21061   -21058   -21041   -21051   -21072   -21062 
  -21049   -21054   -21058   -21058   -21070   -21081   -21074   -21080 
  -21118   -21134   -21119   -21126   -21141   -21134   -21128   -21142 
  -21155   -21162   -21172   -21170   -21159   -21180   -21204   -21203 
  -21207   -21212   -21213   -21230   -21242   -21224   -21193   -21177 
  -21163   -21131   -21093   -21055   -21019   -21016   -21035   -21030 
  -21016   -21028   -21039   -21037   -21039   -21035   -21019   -21010 
  -20985   -20941   -20911   -20896   -20876   -20862   -20857   -20854 
  -20862   -20866   -20854   -20852   -20857   -20850   -20852   -20872 
  -20889   -20902   -20925   -20937   -20937   -20942   -20956   -20987 
  -21022   -21034   -21053   -21084   -21081   -21073   -21099   -21115 
  -21120   -21138   -21142   -21141   -21151   -21147   -21130   -21130 
  -21123   -21104   -21107   -21114   -21099   -21082   -21064   -21045 
  -21047   -21053   -21051   -21058   -21047   -21008   -20972   -20947 
  -20926   -20919   -20926   -20929   -20937   -20935   -20904   -20889 
  -20900   -20902   -20908   -20915   -20911   -20910   -20911   -20919 
  -20937   -20943   -20946   -20962   -20979   -20995   -21022   -21046 
  -21057   -21061   -21070   -21084   -21088   -21092   -21101   -21103 
  -21100   -21089   -21064   -21038   -21010   -20972   -20938   -20914 
  -20892   -20884   -20866   -20826   -20802   -20807   -20808   -20803 
  -20811   -20817   -20812   -20825   -20846   -20865   -20885   -20895 
  -20883   -20871   -20864   -20841   -20804   -20783   -20773   -20760 
  -20754   -20761   -20768   -20767   -20757   -20753   -20761   -20779 
  -20794   -20804   -20821   -20848   -20869   -20876   -20873   -20873 
  -20881   -20891   -20893   -20891   -20888   -20888   -20889   -20903 
  -20927   -20929   -20907   -20910   -20923   -20915   -20923   -20942 
  -20919   -20885   -20883   -20885   -20879   -20875   -20872   -20864 
  -20860   -20854   -20830   -20800   -20784   -20768   -20749   -20757 
  -20780   -20787   -20792   -20812   -20826   -20823   -20826   -20834 
  -20845   -20873   -20903   -20900   -20884   -20873   -20849   -20812 
  -20788   -20769   -20749   -20744   -20745   -20738   -20737   -20742 
  -20749   -20752   -20748   -20744   -20742   -20734   -20726   -20713 
  -20692   -20683   -20671   -20656   -20657   -20649   -20623   -20621 
  -20633   -20633   -20650   -20690   -20714   -20727   -20756   -20791 
  -20821   -20850   -20881   -20899   -20906   -20925   -20943   -20954 
  -20973   -21006   -21024   -21030   -21054   -21095   -21115   -21130 
  -21165   -21176   -21151   -21139   -21138   -21136   -21141   -21143 
  -21138   -21124   -21103   -21091   -21097   -21123   -21163   -21208 
  -21246   -21273   -21296   -21328   -21363   -21384   -21404   -21436 
  -21469   -21500   -21524   -21541   -21566   -21591   -21613   -21639 
  -21652   -21639   -21602   -21546   -21485   -21440   -21390   -21316 
  -21259   -21222   -21172   -21138   -21105   -21042   -20993   -20961 
  -20916   -20884   -20873   -20841   -20802   -20780   -20768   -20773 
  -20788   -20783   -20777   -20787   -20795   -20808   -20822   -20815 
  -20821   -20848   -20868   -20898   -20954   -21000   -21033   -21078 
  -21123   -21155   -21193   -21223   -21243   -21263   -21271   -21277 
  -21303   -21334   -21351   -21367   -21379   -21373   -21369   -21373 
  -21348   -21307   -21277   -21238   -21184   -21168   -21173   -21153 
  -21132   -21127   -21107   -21091   -21095   -21081   -21058   -21051 
  -21035   -21011   -20997   -20981   -20973   -20991   -21016   -21041 
  -21060   -21070   -21072   -21061   -21066   -21091   -21096   -21095 
  -21107   -21104   -21099   -21115   -21124   -21128   -21159   -21197 
  -21219   -21239   -21262   -21276   -21273   -21267   -21261   -21243 
  -21227   -21211   -21177   -21153   -21146   -21134   -21128   -21132 
  -21120   -21107   -21114   -21124   -21130   -21132   -21138   -21135 
  -21123   -21122   -21128   -21122   -21120   -21126   -21114   -21091 
  -21089   -21101   -21095   -21082   -21081   -21078   -21066   -21043 
  -21020   -21020   -21038   -21058   -21085   -21123   -21157   -21172 
  -21180   -21185   -21186   -21196   -21213   -21236   -21266   -21292 
  -21307   -21312   -21312   -21332   -21358   -21365   -21375   -21392 
  -21382   -21367   -21358   -21335   -21308   -21301   -21303   -21305 
  -21324   -21346   -21339   -21309   -21290   -21277   -21271   -21288 
  -21296   -21286   -21284   -21270   -21239   -21224   -21219   -21203 
  -21185   -21165   -21149   -21141   -21120   -21089   -21061   -21023 
  -20991   -20976   -20960   -20931   -20907   -20904   -20914   -20926 
  -20949   -20976   -21000   -21035   -21066   -21088   -21118   -21151 
  -21174   -21195   -21207   -21209   -21224   -21244   -21249   -21244 
  -21243   -21231   -21207   -21184   -21169   -21143   -21107   -21065 
  -20991   -20908   -20858   -20787   -20686   -20623   -20579   -20510 
  -20452   -20420   -20380   -20329   -20286   -20251   -20216   -20186 
  -20155   -20108   -20059   -20028   -20019   -20029   -20042   -20047 
  -20066   -20089   -20106   -20137   -20173   -20200   -20228   -20252 
  -20277   -20309   -20332   -20347   -20359   -20355   -20348   -20344 
  -20331   -20335   -20352   -20348   -20340   -20355   -20375   -20390 
  -20413   -20441   -20463   -20482   -20503   -20514   -20525   -20557 
  -20596   -20632   -20677   -20723   -20758   -20791   -20808   -20827 
  -20861   -20898   -20941   -20977   -20997   -21037   -21092   -21134 
  -21177   -21222   -21253   -21286   -21315   -21323   -21334   -21352 
  -21361   -21374   -21392   -21402   -21420   -21443   -21451   -21458 
  -21482   -21510   -21519   -21517   -21512   -21475   -21448   -21452 
  -21440   -21423   -21428   -21417   -21405   -21433   -21458   -21448 
  -21447   -21465   -21478   -21493   -21512   -21520   -21529   -21546 
  -21560   -21564   -21563   -21568   -21578   -21585   -21593   -21595 
  -21571   -21524   -21474   -21435   -21402   -21366   -21330   -21296 
  -21262   -21219   -21170   -21124   -21078   -21034   -20995   -20942 
  -20879   -20827   -20781   -20737   -20714   -20700   -20671   -20650 
  -20650   -20646   -20650   -20664   -20664   -20672   -20692   -20706 
  -20715   -20726   -20729   -20719   -20715   -20726   -20733   -20738 
  -20757   -20779   -20795   -20815   -20842   -20858   -20864   -20879 
  -20880   -20869   -20883   -20899   -20900   -20919   -20952   -20976 
  -21015   -21068   -21101   -21122   -21146   -21168   -21182   -21199 
  -21220   -21242   -21255   -21269   -21289   -21307   -21317   -21336 
  -21355   -21374   -21402   -21424   -21447   -21486   -21520   -21529 
  -21536   -21541   -21521   -21490   -21463   -21429   -21390   -21361 
  -21331   -21289   -21246   -21207   -21163   -21119   -21077   -21034 
  -20997   -20970   -20947   -20934   -20925   -20896   -20864   -20852 
  -20841   -20821   -20810   -20800   -20792   -20803   -20808   -20802 
  -20808   -20815   -20814   -20818   -20818   -20806   -20790   -20780 
  -20771   -20754   -20736   -20721   -20696   -20683   -20694   -20702 
  -20702   -20719   -20733   -20722   -20718   -20729   -20719   -20702 
  -20700   -20696   -20680   -20667   -20657   -20649   -20656   -20675 
  -20679   -20672   -20677   -20682   -20675   -20675   -20672   -20655 
  -20636   -20625   -20621   -20618   -20606   -20592   -20598   -20599 
  -20592   -20607   -20637   -20671   -20709   -20737   -20761   -20780 
  -20779   -20764   -20758   -20761   -20763   -20772   -20784   -20788 
  -20804   -20829   -20838   -20850   -20873   -20884   -20891   -20906 
  -20926   -20935   -20943   -20965   -20980   -20995   -21020   -21020 
  -21022   -21050   -21065   -21064   -21068   -21073   -21082   -21096 
  -21100   -21101   -21101   -21088   -21072   -21062   -21047   -21035 
  -21027   -21010   -20992   -20992   -21001   -21014   -21034   -21057 
  -21070   -21080   -21091   -21093   -21097   -21124   -21151   -21178 
  -21212   -21243   -21274   -21312   -21350   -21388   -21408   -21416 
  -21423   -21415   -21402   -21400   -21393   -21381   -21373   -21365 
  -21359   -21352   -21336   -21330   -21338   -21340   -21328   -21313 
  -21297   -21263   -21227   -21201   -21166   -21132   -21124   -21105 
  -21070   -21055   -21042   -21014   -20995   -20973   -20931   -20892 
  -20869   -20848   -20825   -20794   -20752   -20707   -20675   -20656 
  -20623   -20584   -20563   -20537   -20495   -20470   -20447   -20413 
  -20397   -20386   -20376   -20399   -20425   -20430   -20443   -20471 
  -20495   -20517   -20551   -20595   -20623   -20648   -20683   -20709 
  -20727   -20753   -20773   -20795   -20835   -20877   -20916   -20961 
  -21000   -21030   -21064   -21100   -21131   -21159   -21185   -21201 
  -21211   -21228   -21247   -21251   -21255   -21267   -21286   -21309 
  -21317   -21320   -21335   -21327   -21300   -21294   -21312   -21332 
  -21350   -21370   -21398   -21425   -21444   -21467   -21487   -21493 
  -21493   -21490   -21475   -21458   -21443   -21431   -21415   -21400 
  -21398   -21390   -21370   -21366   -21374   -21377   -21375   -21362 
  -21346   -21338   -21319   -21284   -21242   -21192   -21147   -21107 
  -21053   -21003   -20965   -20923   -20887   -20850   -20811   -20785 
  -20753   -20709   -20667   -20621   -20568   -20510   -20445   -20387 
  -20335   -20270   -20202   -20131   -20056   -19992   -19934   -19885 
  -19855   -19827   -19797   -19782   -19778   -19789   -19811   -19828 
  -19851   -19886   -19923   -19961   -19993   -20000   -20005   -20036 
  -20069   -20090   -20119   -20148   -20173   -20200   -20228   -20247 
  -20254   -20262   -20281   -20317   -20364   -20391   -20416   -20472 
  -20525   -20559   -20606   -20667   -20722   -20777   -20837   -20884 
  -20918   -20958   -21000   -21028   -21047   -21068   -21091   -21109 
  -21127   -21142   -21153   -21170   -21180   -21185   -21205   -21216 
  -21215   -21226   -21246   -21262   -21278   -21296   -21309   -21324 
  -21344   -21358   -21381   -21428   -21467   -21490   -21516   -21543 
  -21559   -21566   -21575   -21581   -21573   -21564   -21563   -21552 
  -21525   -21493   -21467   -21444   -21429   -21419   -21386   -21342 
  -21317   -21290   -21250   -21226   -21208   -21174   -21151   -21136 
  -21111   -21088   -21064   -21019   -20987   -20984   -20981   -20968 
  -20950   -20918   -20875   -20839   -20808   -20772   -20742   -20719 
  -20695   -20671   -20663   -20667   -20664   -20655   -20661   -20683 
  -20704   -20740   -20784   -20811   -20845   -20895   -20930   -20984 
  -21068   -21119   -21145   -21197   -21246   -21274   -21308   -21335 
  -21347   -21363   -21378   -21384   -21385   -21396   -21412   -21419 
  -21424   -21428   -21423   -21417   -21404   -21381   -21365   -21348 
  -21330   -21311   -21294   -21277   -21266   -21250   -21227   -21211 
  -21190   -21155   -21124   -21093   -21070   -21055   -21022   -20988 
  -20970   -20947   -20926   -20925   -20926   -20918   -20915   -20908 
  -20887   -20879   -20888   -20884   -20865   -20856   -20865   -20875 
  -20868   -20857   -20845   -20822   -20796   -20777   -20761   -20749 
  -20745   -20733   -20719   -20730   -20741   -20733   -20740   -20758 
  -20771   -20788   -20807   -20819   -20834   -20853   -20868   -20885 
  -20900   -20912   -20941   -20970   -20980   -20981   -20989   -20989 
  -20977   -20976   -20983   -20985   -20993   -21000   -20996   -21003 
  -21023   -21031   -21033   -21038   -21035   -21037   -21053   -21066 
  -21069   -21070   -21081   -21100   -21111   -21123   -21149   -21170 
  -21190   -21222   -21254   -21284   -21312   -21340   -21367   -21385 
  -21394   -21406   -21411   -21408   -21412   -21409   -21397   -21390 
  -21378   -21354   -21325   -21297   -21262   -21226   -21193   -21157 
  -21120   -21093   -21068   -21047   -21041   -21033   -21020   -21033 
  -21058   -21064   -21060   -21066   -21076   -21084   -21097   -21112 
  -21116   -21114   -21118   -21127   -21136   -21155   -21180   -21195 
  -21219   -21254   -21278   -21298   -21328   -21347   -21355   -21359 
  -21357   -21352   -21348   -21343   -21335   -21320   -21305   -21274 
  -21230   -21201   -21172   -21128   -21080   -21022   -20970   -20933 
  -20887   -20844   -20818   -20796   -20773   -20765   -20764   -20757 
  -20749   -20748   -20752   -20760   -20775   -20781   -20771   -20765 
  -20764   -20744   -20719   -20696   -20663   -20641   -20633   -20614 
  -20598   -20583   -20563   -20547   -20532   -20520   -20513   -20506 
  -20495   -20483   -20480   -20483   -20474   -20452   -20440   -20443 
  -20444   -20453   -20476   -20483   -20490   -20521   -20552   -20567 
  -20586   -20615   -20646   -20679   -20723   -20761   -20783   -20818 
  -20868   -20918   -20970   -21019   -21049   -21062   -21077   -21093 
  -21107   -21123   -21141   -21153   -21162   -21165   -21155   -21147 
  -21150   -21149   -21139   -21130   -21118   -21114   -21112   -21099 
  -21084   -21080   -21081   -21092   -21111   -21127   -21147   -21168 
  -21195   -21228   -21251   -21261   -21280   -21305   -21324   -21328 
  -21331   -21343   -21348   -21354   -21365   -21361   -21346   -21336 
  -21335   -21335   -21319   -21293   -21280   -21263   -21246   -21243 
  -21238   -21216   -21201   -21196   -21188   -21176   -21154   -21127 
  -21111   -21095   -21069   -21047   -21039   -21033   -21020   -21016 
  -21022   -21023   -21016   -21014   -21008   -20992   -20977   -20968 
  -20960   -20953   -20935   -20908   -20898   -20887   -20860   -20833 
  -20807   -20773   -20746   -20727   -20709   -20690   -20671   -20641 
  -20606   -20579   -20556   -20545   -20549   -20548   -20534   -20532 
  -20544   -20556   -20569   -20592   -20619   -20644   -20683   -20740 
  -20788   -20835   -20899   -20952   -20988   -21027   -21066   -21099 
  -21122   -21136   -21138   -21132   -21139   -21147   -21143   -21130 
  -21115   -21099   -21084   -21068   -21042   -21018   -20999   -20970 
  -20935   -20899   -20866   -20835   -20803   -20783   -20773   -20764 
  -20768   -20771   -20748   -20731   -20741   -20741   -20731   -20744 
  -20750   -20745   -20752   -20756   -20752   -20757   -20769   -20775 
  -20773   -20791   -20821   -20826   -20839   -20875   -20910   -20943 
  -20979   -21014   -21042   -21061   -21076   -21082   -21076   -21070 
  -21062   -21051   -21047   -21042   -21030   -21022   -21019   -21008 
  -20997   -20989   -20973   -20945   -20915   -20893   -20864   -20825 
  -20808   -20806   -20785   -20763   -20754   -20752   -20741   -20725 
  -20715   -20709   -20706   -20715   -20727   -20734   -20740   -20749 
  -20767   -20788   -20804   -20817   -20834   -20861   -20884   -20895 
  -20892   -20875   -20860   -20856   -20846   -20842   -20844   -20826 
  -20799   -20773   -20736   -20695   -20672   -20646   -20614   -20592 
  -20572   -20561   -20555   -20534   -20522   -20529   -20536   -20547 
  -20561   -20568   -20575   -20590   -20609   -20630   -20657   -20684 
  -20725   -20757   -20769   -20796   -20829   -20834   -20844   -20871 
  -20879   -20881   -20898   -20911   -20919   -20930   -20933   -20931 
  -20939   -20945   -20949   -20953   -20945   -20931   -20938   -20953 
  -20964   -20979   -20987   -20999   -21028   -21055   -21074   -21092 
