Origin Time       2025/01/13 21:19:00
Lat.              31.8
Long.             131.6
Depth. (km)       30
Mag.              6.9
Station Code      OKYH03
Station Lat.      34.7783
Station Long.     133.7890
Station Height(m) -101.3
Record Time       2025/01/13 21:20:56
Sampling Freq(Hz) 100Hz
Duration Time(s)  120
Dir.              3
Scale Factor      3923(gal)/8224838
Max. Acc. (gal)   0.500
Last Correction   2025/01/13 21:20:57
Memo.             
[...]
  -55533   -55509   -55479   -55455   -55435   -55414   -55387   -55352 
  -55314   -55285   -55252   -55215   -55186   -55178   -55181   -55198 
  -55223   -55233   -55237   -55242   -55233   -55212   -55198   -55206 
  -55219   -55220   -55224   -55237   -55246   -55246   -55243   -55240 
  -55246   -55252   -55243   -55229   -55227   -55227   -55223   -55224 
  -55228   -55228   -55232   -55239   -55242   -55252   -55278   -55312 
  -55337   -55347   -55359   -55377   -55398   -55420   -55429   -55426 
  -55426   -55435   -55448   -55460   -55466   -55472   -55479   -55478 
  -55476   -55478   -55472   -55460   -55458   -55456   -55453   -55452 
  -55447   -55426   -55409   -55408   -55404   -55386   -55374   -55372 
  -55375   -55378   -55378   -55370   -55360   -55359   -55371   -55399 
  -55443   -55479   -55505   -55533   -55559   -55575   -55590   -55606 
  -55622   -55645   -55679   -55718   -55753   -55783   -55806   -55829 
  -55854   -55873   -55887   -55896   -55900   -55898   -55895   -55895 
  -55898   -55895   -55880   -55868   -55864   -55857   -55856   -55858 
  -55854   -55856   -55873   -55895   -55906   -55903   -55903   -55906 
  -55907   -55910   -55907   -55894   -55890   -55890   -55873   -55849 
  -55829   -55811   -55799   -55790   -55769   -55729   -55676   -55626 
  -55587   -55559   -55544   -55536   -55516   -55486   -55462   -55441 
  -55428   -55425   -55433   -55451   -55474   -55487   -55499   -55517 
  -55528   -55529   -55529   -55530   -55526   -55522   -55517   -55501 
  -55476   -55456   -55443   -55425   -55395   -55363   -55336   -55312 
  -55290   -55269   -55248   -55231   -55212   -55193   -55174   -55162 
  -55170   -55183   -55192   -55197   -55196   -55201   -55220   -55243 
  -55264   -55285   -55306   -55332   -55370   -55421   -55468   -55509 
  -55548   -55578   -55598   -55611   -55626   -55647   -55665   -55678 
  -55688   -55703   -55715   -55723   -55738   -55761   -55790   -55821 
  -55848   -55860   -55864   -55861   -55845   -55826   -55811   -55794 
  -55761   -55730   -55717   -55705   -55695   -55701   -55714   -55718 
  -55722   -55738   -55765   -55790   -55799   -55802   -55800   -55803 
  -55803   -55792   -55780   -55769   -55746   -55721   -55696   -55660 
  -55606   -55548   -55495   -55436   -55363   -55286   -55205   -55112 
  -55024   -54950   -54877   -54812   -54758   -54710   -54670   -54639 
  -54614   -54588   -54568   -54569   -54581   -54602   -54627   -54657 
  -54689   -54716   -54734   -54760   -54791   -54819   -54849   -54889 
  -54946   -55009   -55069   -55128   -55193   -55259   -55327   -55390 
  -55441   -55497   -55556   -55610   -55653   -55688   -55721   -55748 
  -55772   -55794   -55809   -55819   -55834   -55850   -55856   -55856 
  -55860   -55860   -55849   -55836   -55826   -55809   -55777   -55748 
  -55717   -55678   -55640   -55594   -55540   -55494   -55458   -55425 
  -55397   -55377   -55363   -55352   -55340   -55331   -55328   -55317 
  -55296   -55279   -55266   -55251   -55244   -55244   -55243   -55239 
  -55231   -55221   -55217   -55217   -55229   -55256   -55283   -55317 
  -55362   -55410   -55458   -55502   -55541   -55575   -55613   -55657 
  -55703   -55755   -55809   -55854   -55891   -55927   -55966   -55996 
  -56019   -56046   -56081   -56123   -56150   -56153   -56149   -56142 
  -56127   -56120   -56123   -56119   -56107   -56095   -56083   -56073 
  -56058   -56033   -55995   -55945   -55892   -55850   -55810   -55764 
  -55711   -55644   -55564   -55485   -55414   -55358   -55305   -55248 
  -55196   -55148   -55107   -55070   -55040   -55021   -55015   -55005 
  -54999   -55001   -55005   -55012   -55023   -55030   -55031   -55036 
  -55054   -55085   -55125   -55171   -55213   -55252   -55287   -55316 
  -55337   -55360   -55383   -55412   -55443   -55468   -55485   -55505 
  -55533   -55567   -55595   -55618   -55633   -55637   -55642   -55653 
  -55659   -55660   -55655   -55640   -55629   -55622   -55609   -55595 
  -55580   -55560   -55534   -55516   -55503   -55495   -55497   -55505 
  -55512   -55520   -55536   -55553   -55559   -55544   -55529   -55514 
  -55485   -55445   -55418   -55399   -55377   -55359   -55356   -55352 
  -55344   -55343   -55344   -55343   -55344   -55351   -55371   -55394 
  -55398   -55397   -55402   -55417   -55443   -55468   -55490   -55514 
  -55543   -55568   -55599   -55636   -55671   -55698   -55726   -55761 
  -55800   -55848   -55898   -55944   -55977   -55992   -55995   -56004 
  -56020   -56031   -56041   -56052   -56058   -56052   -56035   -56010 
  -55972   -55934   -55902   -55868   -55834   -55800   -55768   -55749 
  -55737   -55725   -55709   -55687   -55668   -55652   -55628   -55606 
  -55593   -55576   -55560   -55555   -55552   -55537   -55512   -55483 
  -55452   -55410   -55367   -55341   -55320   -55287   -55255   -55221 
  -55185   -55154   -55124   -55092   -55047   -54994   -54945   -54904 
  -54877   -54859   -54846   -54838   -54838   -54843   -54855   -54872 
  -54889   -54904   -54920   -54946   -54978   -55001   -55021   -55042 
  -55057   -55073   -55093   -55111   -55124   -55135   -55139   -55146 
  -55162   -55178   -55179   -55174   -55165   -55150   -55136   -55127 
  -55120   -55112   -55102   -55098   -55100   -55098   -55094   -55093 
  -55090   -55090   -55093   -55092   -55085   -55080   -55085   -55100 
  -55112   -55131   -55163   -55194   -55223   -55264   -55325   -55390 
  -55458   -55532   -55603   -55672   -55740   -55804   -55861   -55915 
  -55965   -56011   -56054   -56097   -56134   -56162   -56184   -56199 
  -56207   -56201   -56188   -56177   -56173   -56165   -56155   -56142 
  -56120   -56097   -56073   -56046   -56022   -56003   -55993   -55991 
  -55988   -55989   -55993   -55989   -55981   -55977   -55972   -55962 
  -55952   -55938   -55911   -55875   -55834   -55784   -55726   -55667 
  -55607   -55549   -55491   -55435   -55386   -55344   -55306   -55278 
  -55252   -55237   -55228   -55216   -55208   -55201   -55193   -55189 
  -55193   -55206   -55231   -55263   -55300   -55336   -55377   -55426 
  -55483   -55543   -55595   -55648   -55705   -55759   -55810   -55860 
  -55908   -55962   -56022   -56072   -56119   -56173   -56224   -56259 
  -56289   -56319   -56342   -56363   -56389   -56416   -56439   -56454 
  -56463   -56462   -56440   -56411   -56380   -56340   -56297   -56266 
  -56245   -56211   -56168   -56120   -56069   -56022   -55976   -55929 
  -55891   -55856   -55821   -55790   -55759   -55726   -55706   -55692 
  -55676   -55663   -55656   -55657   -55667   -55679   -55684   -55682 
  -55678   -55669   -55659   -55652   -55637   -55614   -55594   -55582 
  -55571   -55556   -55541   -55541   -55553   -55557   -55548   -55541 
  -55540   -55534   -55529   -55521   -55505   -55491   -55474   -55453 
  -55441   -55428   -55414   -55405   -55404   -55412   -55421   -55425 
  -55422   -55406   -55387   -55374   -55362   -55350   -55344   -55345 
  -55341   -55332   -55327   -55323   -55308   -55296   -55287   -55277 
  -55266   -55254   -55227   -55198   -55178   -55163   -55155   -55151 
  -55142   -55125   -55111   -55094   -55075   -55059   -55047   -55043 
  -55050   -55054   -55057   -55065   -55074   -55085   -55101   -55117 
  -55129   -55140   -55152   -55151   -55139   -55124   -55117   -55112 
  -55096   -55074   -55055   -55036   -55021   -55012   -55001   -54988 
  -54974   -54959   -54943   -54931   -54930   -54928   -54924   -54913 
  -54901   -54889   -54873   -54850   -54830   -54811   -54783   -54750 
  -54723   -54697   -54673   -54654   -54643   -54635   -54629   -54626 
  -54629   -54633   -54639   -54652   -54664   -54668   -54677   -54699 
  -54735   -54787   -54849   -54908   -54965   -55020   -55075   -55125 
  -55170   -55215   -55262   -55306   -55344   -55377   -55406   -55433 
  -55455   -55468   -55474   -55470   -55462   -55452   -55444   -55441 
  -55441   -55447   -55455   -55463   -55479   -55498   -55514   -55536 
  -55567   -55607   -55652   -55698   -55744   -55790   -55834   -55869 
  -55898   -55926   -55960   -55992   -56023   -56057   -56088   -56110 
  -56114   -56115   -56118   -56118   -56122   -56134   -56142   -56139 
  -56128   -56106   -56070   -56027   -55988   -55952   -55918   -55887 
  -55860   -55831   -55810   -55795   -55768   -55729   -55694   -55665 
  -55633   -55597   -55566   -55534   -55509   -55502   -55505   -55503 
  -55494   -55475   -55452   -55433   -55426   -55435   -55444   -55447 
  -55448   -55452   -55464   -55482   -55495   -55503   -55512   -55516 
  -55522   -55534   -55540   -55539   -55539   -55537   -55539   -55549 
  -55561   -55575   -55590   -55601   -55614   -55629   -55645   -55659 
  -55661   -55665   -55680   -55694   -55711   -55738   -55771   -55804 
  -55834   -55856   -55872   -55890   -55902   -55904   -55895   -55884 
  -55877   -55867   -55848   -55826   -55800   -55765   -55729   -55694 
  -55656   -55615   -55578   -55536   -55489   -55448   -55420   -55389 
  -55352   -55316   -55282   -55258   -55242   -55231   -55227   -55220 
  -55210   -55206   -55209   -55213   -55216   -55216   -55220   -55228 
  -55239   -55255   -55270   -55283   -55296   -55305   -55318   -55341 
  -55364   -55390   -55425   -55467   -55506   -55541   -55583   -55626 
  -55665   -55702   -55737   -55764   -55788   -55815   -55845   -55880 
  -55915   -55945   -55965   -55976   -55985   -55991   -55989   -55983 
  -55976   -55969   -55957   -55939   -55921   -55892   -55857   -55818 
  -55779   -55742   -55707   -55669   -55628   -55575   -55512   -55447 
  -55387   -55335   -55278   -55224   -55179   -55138   -55094   -55057 
  -55024   -54996   -54970   -54947   -54927   -54904   -54884   -54877 
  -54877   -54885   -54907   -54927   -54947   -54972   -54994   -55020 
  -55057   -55094   -55134   -55169   -55200   -55236   -55281   -55328 
  -55377   -55429   -55479   -55530   -55580   -55637   -55692   -55728 
  -55744   -55755   -55759   -55763   -55767   -55768   -55765   -55757 
  -55745   -55734   -55730   -55730   -55728   -55722   -55719   -55721 
  -55723   -55719   -55715   -55714   -55710   -55709   -55718   -55732 
  -55745   -55761   -55777   -55794   -55813   -55831   -55850   -55872 
  -55896   -55922   -55945   -55962   -55983   -56002   -56016   -56029 
  -56038   -56042   -56042   -56035   -56019   -55998   -55973   -55952 
  -55933   -55927   -55931   -55941   -55960   -55988   -56020   -56050 
  -56073   -56091   -56103   -56111   -56118   -56115   -56103   -56085 
  -56066   -56049   -56035   -56014   -55975   -55926   -55872   -55813 
  -55752   -55696   -55655   -55617   -55579   -55549   -55518   -55490 
  -55474   -55466   -55456   -55445   -55433   -55424   -55420   -55416 
  -55413   -55413   -55424   -55439   -55453   -55467   -55479   -55486 
  -55486   -55475   -55460   -55448   -55428   -55395   -55364   -55335 
  -55301   -55264   -55225   -55190   -55156   -55119   -55085   -55058 
  -55032   -55012   -54989   -54963   -54946   -54932   -54909   -54880 
  -54850   -54827   -54811   -54797   -54788   -54783   -54777   -54783 
  -54797   -54814   -54837   -54870   -54904   -54938   -54969   -55004 
  -55043   -55085   -55129   -55179   -55229   -55277   -55318   -55360 
  -55399   -55431   -55456   -55480   -55499   -55514   -55525   -55528 
  -55524   -55510   -55495   -55494   -55495   -55489   -55479   -55464 
  -55448   -55431   -55410   -55390   -55371   -55354   -55347   -55347 
  -55356   -55370   -55372   -55374   -55375   -55372   -55368   -55363 
  -55368   -55387   -55408   -55428   -55456   -55486   -55513   -55536 
  -55552   -55567   -55576   -55583   -55587   -55594   -55601   -55607 
  -55613   -55618   -55625   -55629   -55634   -55640   -55642   -55642 
  -55642   -55648   -55657   -55664   -55669   -55672   -55665   -55656 
  -55649   -55656   -55667   -55672   -55684   -55698   -55701   -55699 
  -55703   -55706   -55709   -55713   -55717   -55721   -55726   -55732 
  -55734   -55734   -55732   -55730   -55730   -55725   -55717   -55711 
  -55702   -55684   -55669   -55660   -55651   -55637   -55621   -55601 
  -55579   -55553   -55522   -55490   -55455   -55417   -55382   -55348 
  -55316   -55282   -55243   -55208   -55185   -55162   -55134   -55111 
  -55093   -55074   -55059   -55055   -55058   -55061   -55066   -55071 
  -55081   -55096   -55117   -55146   -55177   -55209   -55240   -55274 
  -55314   -55356   -55391   -55432   -55482   -55533   -55580   -55622 
  -55656   -55686   -55710   -55732   -55752   -55765   -55775   -55786 
  -55784   -55769   -55746   -55721   -55690   -55655   -55615   -55575 
  -55532   -55490   -55452   -55418   -55389   -55366   -55343   -55317 
  -55287   -55255   -55225   -55197   -55178   -55167   -55155   -55142 
  -55129   -55113   -55100   -55097   -55094   -55084   -55074   -55062 
  -55046   -55026   -54997   -54965   -54938   -54911   -54882   -54854 
  -54824   -54792   -54758   -54724   -54691   -54664   -54638   -54610 
  -54581   -54561   -54548   -54540   -54534   -54535   -54544   -54557 
  -54573   -54594   -54621   -54657   -54702   -54750   -54808   -54869 
  -54924   -54981   -55040   -55098   -55163   -55228   -55287   -55351 
  -55421   -55493   -55559   -55622   -55684   -55744   -55802   -55856 
  -55903   -55948   -55991   -56029   -56065   -56095   -56122   -56146 
  -56155   -56168   -56191   -56215   -56239   -56269   -56295   -56315 
  -56335   -56357   -56374   -56386   -56397   -56412   -56423   -56432 
  -56448   -56469   -56488   -56504   -56517   -56532   -56548   -56556 
  -56552   -56542   -56524   -56505   -56488   -56465   -56443   -56419 
  -56386   -56350   -56309   -56269   -56231   -56192   -56145   -56096 
  -56047   -55991   -55933   -55888   -55848   -55802   -55756   -55709 
  -55661   -55618   -55576   -55533   -55499   -55470   -55440   -55413 
  -55393   -55372   -55358   -55350   -55343   -55337   -55333   -55333 
  -55340   -55350   -55358   -55374   -55393   -55399   -55406   -55416 
  -55424   -55431   -55444   -55459   -55466   -55464   -55462   -55464 
  -55470   -55476   -55482   -55476   -55464   -55445   -55421   -55395 
  -55375   -55358   -55341   -55333   -55323   -55308   -55297   -55296 
  -55300   -55306   -55317   -55343   -55385   -55435   -55490   -55552 
  -55620   -55690   -55755   -55818   -55880   -55941   -56003   -56065 
  -56118   -56158   -56185   -56203   -56218   -56234   -56247   -56243 
  -56222   -56196   -56160   -56114   -56060   -55999   -55939   -55888 
  -55838   -55784   -55726   -55671   -55622   -55576   -55530   -55480 
  -55429   -55383   -55351   -55321   -55287   -55262   -55244   -55236 
  -55239   -55252   -55269   -55298   -55336   -55375   -55417   -55466 
  -55518   -55566   -55610   -55655   -55692   -55726   -55767   -55800 
  -55815   -55827   -55844   -55852   -55849   -55841   -55825   -55799 
  -55767   -55729   -55683   -55633   -55588   -55543   -55495   -55445 
  -55394   -55340   -55286   -55228   -55173   -55121   -55075   -55042 
  -55016   -54996   -54978   -54967   -54969   -54974   -54973   -54970 
  -54969   -54973   -54982   -54993   -55012   -55034   -55058   -55086 
  -55119   -55156   -55202   -55250   -55293   -55333   -55374   -55410 
  -55444   -55483   -55524   -55552   -55575   -55599   -55615   -55622 
  -55625   -55622   -55615   -55602   -55576   -55541   -55506   -55470 
  -55422   -55370   -55317   -55267   -55216   -55165   -55115   -55067 
  -55017   -54969   -54920   -54873   -54835   -54805   -54776   -54756 
  -54746   -54743   -54745   -54753   -54765   -54788   -54819   -54850 
  -54884   -54919   -54953   -54992   -55039   -55092   -55151   -55212 
  -55274   -55333   -55395   -55462   -55525   -55575   -55614   -55653 
  -55680   -55705   -55737   -55764   -55784   -55804   -55826   -55841 
  -55852   -55860   -55865   -55868   -55868   -55865   -55861   -55857 
  -55853   -55848   -55840   -55833   -55827   -55823   -55825   -55830 
  -55834   -55834   -55834   -55840   -55850   -55858   -55863   -55868 
  -55875   -55877   -55880   -55888   -55892   -55888   -55883   -55873 
  -55863   -55852   -55837   -55821   -55802   -55780   -55756   -55730 
  -55709   -55690   -55671   -55656   -55644   -55633   -55629   -55625 
  -55622   -55625   -55630   -55640   -55657   -55676   -55692   -55711 
  -55734   -55753   -55772   -55794   -55811   -55825   -55838   -55850 
  -55856   -55857   -55853   -55844   -55826   -55806   -55782   -55760 
  -55738   -55713   -55682   -55651   -55620   -55593   -55570   -55548 
  -55528   -55507   -55487   -55471   -55463   -55456   -55445   -55435 
  -55425   -55412   -55397   -55389   -55385   -55382   -55381   -55377 
  -55371   -55372   -55367   -55364   -55374   -55393   -55412   -55426 
  -55443   -55467   -55491   -55512   -55533   -55551   -55561   -55566 
  -55571   -55578   -55580   -55586   -55594   -55599   -55602   -55606 
  -55606   -55606   -55610   -55611   -55609   -55609   -55605   -55595 
  -55587   -55580   -55574   -55570   -55566   -55557   -55549   -55541 
  -55532   -55522   -55516   -55510   -55509   -55513   -55517   -55520 
  -55517   -55514   -55514   -55513   -55507   -55505   -55505   -55501 
  -55495   -55491   -55491   -55489   -55486   -55493   -55503   -55512 
  -55526   -55549   -55571   -55587   -55602   -55617   -55628   -55628 
  -55624   -55618   -55615   -55610   -55599   -55587   -55579   -55574 
  -55567   -55557   -55549   -55539   -55526   -55514   -55497   -55479 
  -55462   -55444   -55428   -55408   -55386   -55368   -55354   -55340 
  -55328   -55320   -55314   -55310   -55304   -55293   -55282   -55273 
  -55264   -55251   -55231   -55215   -55200   -55186   -55175   -55156 
  -55135   -55119   -55108   -55100   -55090   -55081   -55081   -55085 
  -55092   -55108   -55127   -55143   -55162   -55185   -55213   -55243 
  -55270   -55301   -55333   -55359   -55386   -55413   -55440   -55470 
  -55497   -55520   -55543   -55567   -55591   -55614   -55632   -55647 
  -55660   -55676   -55690   -55705   -55718   -55729   -55732   -55733 
  -55733   -55728   -55722   -55723   -55728   -55736   -55745   -55759 
  -55768   -55773   -55780   -55787   -55790   -55796   -55806   -55813 
  -55817   -55821   -55827   -55829   -55822   -55815   -55815   -55815 
  -55811   -55802   -55795   -55787   -55775   -55764   -55756   -55749 
  -55736   -55718   -55698   -55672   -55645   -55618   -55583   -55547 
  -55514   -55480   -55448   -55420   -55395   -55374   -55358   -55337 
  -55316   -55301   -55290   -55279   -55270   -55264   -55262   -55266 
  -55277   -55283   -55285   -55294   -55310   -55328   -55347   -55366 
  -55383   -55399   -55420   -55443   -55463   -55482   -55494   -55505 
  -55520   -55532   -55540   -55549   -55557   -55567   -55574   -55572 
  -55564   -55560   -55559   -55555   -55549   -55541   -55526   -55509 
  -55490   -55464   -55440   -55420   -55402   -55387   -55370   -55356 
  -55340   -55317   -55300   -55296   -55291   -55287   -55289   -55291 
  -55296   -55305   -55313   -55318   -55324   -55327   -55321   -55320 
  -55328   -55339   -55350   -55360   -55375   -55393   -55409   -55429 
  -55447   -55456   -55466   -55476   -55485   -55491   -55503   -55516 
  -55528   -55544   -55555   -55560   -55567   -55578   -55587   -55597 
  -55609   -55621   -55629   -55641   -55660   -55678   -55691   -55701 
