Origin Time       2025/01/13 21:19:00
Lat.              31.8
Long.             131.6
Depth. (km)       30
Mag.              6.9
Station Code      OKYH02
Station Lat.      34.7501
Station Long.     134.0702
Station Height(m) 30
Record Time       2025/01/13 21:20:55
Sampling Freq(Hz) 100Hz
Duration Time(s)  126
Dir.              6
Scale Factor      7845(gal)/8223790
Max. Acc. (gal)   0.464
Last Correction   2025/01/13 21:20:56
Memo.             
[...]
    4773     4781     4793     4815     4833     4827     4811     4784 
    4770     4788     4810     4816     4823     4816     4800     4799 
    4811     4826     4831     4824     4812     4804     4806     4806 
    4812     4828     4831     4819     4819     4826     4826     4827 
    4826     4826     4831     4835     4837     4843     4846     4837 
    4834     4845     4846     4835     4826     4830     4834     4824 
    4820     4827     4819     4808     4815     4818     4820     4842 
    4865     4873     4874     4874     4882     4892     4900     4912 
    4912     4914     4928     4942     4938     4926     4920     4905 
    4881     4873     4862     4839     4818     4787     4764     4760 
    4750     4733     4725     4730     4739     4742     4752     4776 
    4793     4800     4812     4826     4823     4820     4830     4845 
    4858     4858     4851     4854     4857     4846     4828     4823 
    4827     4822     4806     4788     4781     4785     4791     4784 
    4774     4784     4797     4793     4789     4780     4774     4787 
    4792     4796     4810     4814     4820     4826     4814     4792 
    4785     4793     4800     4803     4804     4804     4806     4816 
    4831     4845     4861     4869     4872     4887     4897     4901 
    4907     4901     4880     4851     4830     4819     4819     4816 
    4803     4785     4766     4750     4753     4757     4742     4739 
    4753     4766     4785     4803     4810     4816     4841     4860 
    4855     4855     4861     4864     4866     4855     4835     4812 
    4787     4770     4761     4765     4776     4781     4781     4774 
    4760     4758     4776     4784     4788     4803     4819     4833 
    4833     4824     4826     4828     4833     4849     4861     4864 
    4860     4851     4853     4853     4843     4833     4816     4797 
    4783     4780     4779     4770     4761     4752     4750     4750 
    4742     4741     4741     4741     4752     4762     4762     4768 
    4785     4807     4819     4822     4838     4868     4884     4893 
    4903     4901     4895     4899     4900     4897     4884     4858 
    4841     4838     4827     4814     4808     4796     4776     4764 
    4756     4743     4737     4731     4731     4735     4733     4731 
    4734     4733     4734     4741     4739     4731     4723     4723 
    4726     4720     4715     4719     4716     4714     4725     4735 
    4747     4768     4779     4780     4785     4792     4803     4826 
    4838     4841     4846     4847     4850     4857     4861     4861 
    4849     4820     4806     4797     4777     4760     4739     4720 
    4710     4698     4696     4699     4689     4683     4673     4648 
    4630     4633     4634     4644     4654     4648     4653     4665 
    4653     4649     4661     4668     4673     4687     4696     4704 
    4710     4711     4720     4730     4726     4730     4741     4750 
    4769     4784     4799     4828     4839     4831     4837     4841 
    4845     4869     4889     4889     4889     4892     4885     4880 
    4881     4892     4905     4908     4905     4904     4891     4885 
    4897     4897     4880     4862     4853     4849     4843     4835 
    4842     4853     4850     4851     4853     4846     4833     4815 
    4806     4806     4812     4822     4830     4843     4865     4872 
    4865     4868     4876     4880     4887     4895     4908     4930 
    4939     4943     4961     4978     4992     5007     5001     4986 
    4988     4990     4992     4995     4990     4986     4984     4963 
    4947     4946     4935     4922     4923     4915     4900     4901 
    4903     4897     4903     4915     4927     4945     4954     4958 
    4969     4977     4969     4957     4950     4950     4946     4939 
    4939     4932     4923     4922     4928     4931     4919     4900 
    4885     4865     4845     4835     4828     4814     4799     4788 
    4780     4780     4770     4746     4727     4725     4715     4699 
    4704     4719     4725     4730     4739     4745     4739     4726 
    4716     4704     4689     4680     4673     4673     4675     4683 
    4700     4715     4727     4737     4735     4738     4742     4742 
    4747     4754     4753     4749     4750     4757     4772     4787 
    4784     4773     4776     4774     4768     4772     4777     4779 
    4784     4789     4792     4793     4785     4780     4781     4772 
    4756     4742     4730     4726     4725     4712     4698     4687 
    4679     4665     4645     4634     4634     4638     4634     4622 
    4604     4588     4580     4584     4583     4571     4565     4571 
    4577     4583     4584     4588     4599     4612     4619     4631 
    4650     4662     4675     4692     4707     4731     4761     4779 
    4796     4810     4812     4826     4837     4843     4865     4878 
    4885     4911     4930     4930     4939     4950     4951     4957 
    4962     4961     4966     4980     4985     4978     4976     4981 
    4980     4972     4968     4957     4947     4947     4936     4920 
    4924     4927     4930     4943     4947     4935     4918     4900 
    4888     4880     4872     4872     4874     4866     4861     4868 
    4880     4887     4881     4866     4862     4861     4849     4839 
    4845     4849     4847     4849     4850     4849     4843     4831 
    4823     4826     4830     4827     4820     4824     4841     4850 
    4858     4884     4908     4912     4909     4909     4915     4931 
    4939     4936     4932     4931     4922     4903     4884     4874 
    4864     4839     4814     4793     4777     4768     4764     4761 
    4766     4773     4777     4796     4815     4823     4842     4858 
    4874     4900     4912     4915     4931     4946     4951     4955 
    4955     4961     4972     4973     4973     4981     4988     4993 
    4992     4978     4969     4958     4930     4912     4909     4893 
    4882     4885     4869     4847     4831     4822     4824     4824 
    4819     4824     4831     4837     4847     4850     4851     4860 
    4866     4866     4862     4860     4866     4873     4873     4873 
    4866     4851     4850     4851     4846     4846     4841     4828 
    4830     4822     4793     4780     4772     4747     4739     4729 
    4700     4685     4679     4661     4652     4646     4635     4623 
    4606     4599     4600     4591     4581     4580     4580     4584 
    4595     4611     4638     4660     4668     4689     4720     4730 
    4729     4735     4749     4770     4781     4785     4799     4806 
    4801     4803     4799     4797     4801     4795     4793     4806 
    4811     4823     4842     4854     4872     4896     4911     4922 
    4936     4957     4977     4996     5015     5032     5040     5042 
    5046     5051     5053     5053     5051     5050     5049     5035 
    5017     5012     5004     4993     4984     4959     4931     4911 
    4880     4858     4845     4819     4796     4774     4742     4723 
    4703     4672     4649     4619     4587     4567     4542     4515 
    4507     4515     4518     4530     4549     4561     4587     4618 
    4638     4665     4700     4734     4770     4795     4812     4842 
    4873     4899     4926     4953     4965     4962     4959     4955 
    4946     4935     4927     4918     4904     4885     4865     4846 
    4827     4810     4797     4795     4796     4792     4789     4792 
    4792     4795     4800     4792     4791     4811     4834     4845 
    4855     4865     4869     4872     4877     4874     4868     4862 
    4851     4842     4853     4860     4849     4846     4851     4843 
    4831     4828     4828     4830     4824     4818     4823     4831 
    4835     4833     4822     4822     4834     4835     4838     4850 
    4853     4860     4884     4897     4903     4905     4897     4896 
    4907     4915     4922     4922     4905     4895     4891     4881 
    4876     4878     4880     4869     4857     4847     4833     4816 
    4810     4808     4801     4789     4776     4760     4739     4715 
    4696     4685     4673     4662     4656     4649     4642     4638 
    4635     4634     4638     4639     4645     4654     4662     4672 
    4684     4691     4698     4702     4704     4718     4738     4750 
    4749     4750     4756     4752     4741     4739     4742     4746 
    4752     4760     4760     4752     4750     4758     4757     4754 
    4768     4779     4772     4770     4777     4776     4769     4754 
    4742     4733     4719     4706     4696     4687     4671     4652 
    4639     4635     4626     4612     4596     4580     4571     4571 
    4575     4580     4585     4598     4612     4622     4642     4680 
    4703     4714     4739     4770     4785     4800     4823     4841 
    4854     4872     4892     4914     4935     4953     4972     4995 
    5016     5028     5030     5030     5031     5034     5034     5031 
    5027     5017     5016     5019     5011     5008     5008     4997 
    4990     4981     4957     4931     4909     4878     4850     4820 
    4780     4741     4718     4689     4649     4617     4592     4564 
    4540     4518     4496     4482     4475     4476     4490     4507 
    4519     4534     4553     4572     4587     4604     4623     4642 
    4661     4679     4695     4711     4725     4734     4749     4766 
    4777     4785     4800     4820     4831     4841     4858     4885 
    4900     4905     4911     4907     4896     4891     4895     4899 
    4903     4907     4912     4919     4922     4920     4915     4911 
    4907     4893     4885     4891     4889     4891     4909     4919 
    4923     4945     4959     4963     4978     4995     5005     5015 
    5023     5024     5026     5026     5016     5000     4988     4974 
    4951     4932     4927     4927     4928     4934     4934     4930 
    4939     4947     4936     4942     4966     4976     4981     5003 
    5012     5000     4993     4999     5001     4986     4962     4938 
    4916     4896     4888     4882     4876     4878     4884     4880 
    4881     4882     4880     4881     4874     4861     4858     4853 
    4834     4819     4812     4800     4793     4788     4781     4785 
    4796     4807     4822     4834     4854     4889     4922     4942 
    4958     4973     4982     4984     4982     4978     4968     4957 
    4951     4941     4924     4901     4874     4854     4841     4820 
    4799     4788     4769     4753     4756     4762     4768     4780 
    4791     4807     4826     4838     4858     4880     4893     4908 
    4927     4939     4951     4961     4958     4957     4951     4931 
    4916     4903     4873     4842     4820     4791     4753     4712 
    4676     4646     4611     4579     4564     4550     4540     4540 
    4536     4538     4557     4572     4592     4622     4645     4672 
    4707     4731     4760     4797     4826     4841     4851     4869 
    4885     4895     4909     4918     4916     4926     4942     4946 
    4951     4961     4959     4953     4949     4941     4932     4928 
    4919     4916     4916     4907     4904     4914     4922     4928 
    4932     4935     4950     4959     4959     4970     4974     4972 
    4976     4974     4966     4970     4976     4974     4978     4982 
    4982     4982     4982     4988     4999     5001     4992     4982 
    4970     4958     4947     4932     4923     4916     4893     4874 
    4865     4839     4823     4822     4801     4787     4792     4784 
    4777     4787     4796     4800     4807     4815     4830     4834 
    4826     4827     4824     4811     4807     4801     4785     4772 
    4754     4730     4712     4695     4679     4664     4641     4619 
    4610     4599     4588     4585     4584     4577     4564     4556 
    4552     4536     4519     4517     4518     4526     4548     4561 
    4565     4579     4592     4603     4626     4645     4646     4648 
    4644     4638     4653     4664     4662     4661     4650     4634 
    4623     4608     4592     4579     4557     4550     4552     4540 
    4542     4549     4538     4537     4546     4546     4553     4561 
    4563     4572     4581     4581     4588     4594     4591     4603 
    4612     4615     4631     4635     4627     4629     4622     4615 
    4626     4618     4604     4603     4592     4581     4575     4565 
    4567     4577     4584     4602     4618     4623     4641     4661 
    4680     4704     4726     4745     4770     4795     4816     4841 
    4866     4893     4920     4943     4969     4997     5011     5024 
    5035     5040     5047     5049     5050     5063     5073     5073 
    5078     5086     5092     5100     5104     5101     5108     5116 
    5120     5132     5146     5157     5171     5178     5174     5170 
    5173     5171     5162     5148     5138     5130     5119     5103 
    5092     5080     5062     5054     5050     5046     5044     5042 
    5043     5046     5036     5027     5019     5007     5001     4996 
    4980     4963     4950     4935     4919     4900     4878     4862 
    4842     4816     4800     4787     4768     4752     4739     4723 
    4708     4695     4684     4668     4644     4626     4611     4580 
    4549     4525     4488     4450     4422     4399     4386     4372 
    4351     4337     4333     4328     4332     4344     4351     4359 
    4367     4375     4388     4402     4407     4411     4419     4426 
    4433     4440     4441     4444     4453     4464     4473     4479 
    4486     4495     4504     4523     4552     4573     4588     4607 
    4629     4650     4660     4665     4675     4683     4691     4693 
    4699     4718     4735     4746     4754     4773     4800     4814 
    4816     4828     4843     4855     4865     4874     4884     4896 
    4911     4926     4943     4968     4985     4997     5013     5038 
    5063     5085     5111     5138     5159     5178     5200     5217 
    5233     5248     5256     5265     5277     5281     5278     5278 
    5271     5254     5236     5221     5205     5185     5165     5142 
    5117     5104     5101     5093     5081     5076     5074     5070 
    5065     5062     5059     5055     5051     5053     5058     5049 
    5031     5015     4996     4982     4970     4947     4931     4922 
    4900     4896     4904     4895     4895     4899     4880     4868 
    4870     4866     4854     4847     4839     4830     4827     4833 
    4833     4822     4820     4830     4826     4822     4820     4811 
    4808     4807     4801     4814     4826     4816     4810     4815 
    4815     4814     4811     4807     4796     4780     4770     4770 
    4764     4764     4765     4750     4752     4766     4760     4754 
    4761     4761     4765     4770     4780     4803     4826     4839 
    4862     4884     4899     4924     4947     4957     4973     4988 
    4995     5011     5028     5036     5044     5054     5059     5067 
    5071     5063     5057     5050     5039     5028     5022     5011 
    5001     4990     4976     4968     4966     4961     4945     4924 
    4912     4903     4887     4869     4857     4842     4833     4830 
    4822     4810     4801     4796     4796     4789     4779     4777 
    4779     4784     4799     4799     4799     4811     4808     4804 
    4818     4819     4815     4822     4815     4808     4810     4803 
    4804     4815     4814     4816     4826     4823     4820     4828 
    4830     4831     4839     4845     4855     4862     4872     4892 
    4897     4885     4891     4889     4874     4864     4849     4837 
    4830     4812     4797     4781     4754     4738     4720     4684 
    4664     4645     4608     4585     4571     4540     4514     4496 
    4469     4450     4436     4406     4382     4371     4361     4352 
    4341     4333     4342     4355     4361     4375     4391     4411 
    4438     4461     4483     4509     4523     4537     4557     4567 
    4571     4581     4588     4599     4608     4607     4608     4612 
    4614     4612     4607     4607     4614     4607     4599     4599 
    4596     4591     4592     4603     4618     4625     4623     4626 
    4625     4621     4635     4650     4644     4649     4657     4646 
    4652     4664     4660     4668     4675     4671     4677     4684 
    4689     4704     4710     4716     4735     4746     4761     4788 
    4800     4804     4815     4822     4830     4838     4842     4843 
    4845     4849     4858     4860     4861     4873     4881     4881 
    4893     4912     4927     4943     4965     4984     5004     5030 
    5057     5078     5086     5098     5119     5127     5135     5147 
    5144     5142     5151     5152     5154     5152     5143     5143 
    5150     5143     5132     5124     5113     5108     5107     5098 
    5094     5096     5090     5090     5093     5086     5086     5090 
    5089     5089     5085     5077     5067     5055     5050     5044 
    5028     5013     4999     4978     4958     4936     4912     4900 
    4887     4857     4839     4824     4799     4781     4768     4746 
    4730     4726     4716     4702     4693     4691     4684     4680 
    4679     4677     4671     4673     4687     4693     4699     4711 
    4711     4714     4723     4730     4745     4756     4757     4764 
    4770     4770     4779     4787     4774     4768     4776     4779 
    4773     4770     4760     4747     4738     4725     4710     4695 
    4680     4668     4656     4634     4622     4618     4608     4599 
    4590     4587     4592     4592     4596     4611     4630     4657 
    4684     4708     4742     4776     4806     4835     4866     4895 
    4927     4962     4990     5015     5035     5055     5074     5086 
    5089     5090     5086     5076     5061     5050     5032     5013 
    4996     4972     4942     4912     4893     4876     4850     4830 
    4814     4791     4768     4752     4741     4730     4722     4716 
    4708     4695     4689     4681     4671     4677     4684     4679 
    4680     4688     4691     4685     4687     4688     4687     4696 
    4703     4699     4703     4714     4716     4718     4727     4742 
    4754     4761     4773     4784     4791     4797     4807     4818 
    4824     4828     4835     4838     4834     4835     4831     4822 
    4822     4824     4822     4816     4814     4815     4810     4800 
    4791     4789     4796     4799     4800     4810     4815     4810 
    4803     4801     4797     4796     4800     4803     4803     4807 
    4803     4799     4803     4804     4803     4806     4806     4800 
    4795     4789     4788     4787     4784     4789     4785     4768 
    4764     4764     4757     4753     4753     4757     4758     4762 
    4770     4774     4781     4799     4811     4823     4845     4872 
    4893     4911     4928     4945     4957     4972     4988     4999 
    5000     4997     4997     4992     4985     4985     4976     4961 
    4957     4949     4931     4922     4918     4911     4904     4892 
    4882     4881     4870     4860     4865     4865     4861     4868 
