Origin Time       2025/01/13 21:19:00
Lat.              31.8
Long.             131.6
Depth. (km)       30
Mag.              6.9
Station Code      OKYH05
Station Lat.      34.8684
Station Long.     133.8527
Station Height(m) 220
Record Time       2025/01/13 21:20:54
Sampling Freq(Hz) 100Hz
Duration Time(s)  127
Dir.              2
Scale Factor      3923(gal)/8224838
Max. Acc. (gal)   0.539
Last Correction   2025/01/13 21:20:55
Memo.             
[...]
   14256    14250    14262    14264    14238    14207    14193    14180 
   14152    14139    14152    14162    14162    14149    14135    14145 
   14156    14160    14165    14176    14193    14202    14193    14184 
   14181    14193    14222    14247    14270    14295    14304    14311 
   14334    14361    14382    14395    14384    14361    14342    14326 
   14316    14319    14332    14331    14315    14315    14335    14355 
   14374    14386    14380    14362    14361    14370    14372    14368 
   14358    14326    14280    14250    14233    14204    14180    14164 
   14145    14118    14095    14087    14077    14077    14091    14102 
   14125    14170    14215    14241    14251    14258    14253    14253 
   14264    14270    14274    14272    14280    14312    14341    14358 
   14374    14392    14405    14409    14420    14453    14492    14521 
   14540    14551    14554    14544    14521    14504    14504    14500 
   14473    14435    14399    14369    14338    14310    14284    14251 
   14233    14219    14210    14222    14234    14234    14231    14230 
   14238    14257    14277    14293    14305    14311    14295    14265 
   14257    14265    14270    14277    14280    14266    14258    14269 
   14283    14283    14278    14278    14278    14274    14278    14289 
   14296    14292    14288    14296    14305    14300    14301    14303 
   14299    14311    14337    14351    14365    14384    14399    14408 
   14408    14408    14416    14420    14424    14423    14407    14395 
   14391    14378    14357    14347    14349    14353    14364    14374 
   14382    14389    14391    14385    14365    14350    14354    14364 
   14370    14370    14361    14350    14338    14318    14293    14269 
   14234    14192    14165    14149    14129    14108    14080    14045 
   14027    14023    14019    14013    14002    13992    13991    13987 
   13984    13983    13990    14000    14003    14008    14023    14031 
   14040    14041    14025    14011    14008    14008    14007    14008 
   14010    14008    14007    14015    14034    14061    14087    14099 
   14096    14096    14116    14145    14170    14195    14210    14207 
   14207    14224    14251    14273    14284    14284    14256    14211 
   14179    14146    14112    14094    14083    14064    14044    14040 
   14048    14056    14068    14088    14108    14133    14166    14206 
   14234    14272    14328    14372    14399    14426    14447    14462 
   14477    14482    14467    14443    14426    14408    14385    14372 
   14365    14350    14334    14323    14326    14332    14343    14354 
   14353    14364    14388    14404    14412    14413    14416    14427 
   14438    14445    14455    14461    14461    14459    14455    14442 
   14426    14418    14412    14397    14385    14389    14382    14366 
   14368    14374    14374    14392    14434    14469    14489    14517 
   14554    14596    14642    14683    14724    14762    14790    14812 
   14825    14832    14832    14816    14790    14773    14769    14769 
   14760    14754    14752    14758    14763    14771    14781    14785 
   14785    14785    14790    14800    14814    14837    14856    14872 
   14894    14910    14929    14947    14952    14964    14970    14958 
   14941    14914    14877    14843    14810    14773    14729    14693 
   14659    14611    14558    14515    14474    14446    14423    14396 
   14372    14346    14323    14310    14296    14280    14257    14223 
   14189    14164    14141    14110    14072    14038    14007    13992 
   13995    13996    13994    13991    13987    13976    13967    13964 
   13950    13921    13894    13872    13852    13830    13813    13797 
   13776    13748    13734    13738    13743    13737    13733    13725 
   13701    13671    13655    13643    13637    13644    13652    13653 
   13657    13652    13640    13647    13674    13702    13729    13748 
   13763    13788    13819    13851    13882    13909    13930    13957 
   13990    14027    14069    14119    14177    14227    14270    14316 
   14346    14370    14403    14426    14438    14458    14480    14490 
   14489    14482    14482    14493    14500    14493    14488    14494 
   14503    14508    14516    14546    14582    14596    14600    14616 
   14629    14635    14631    14623    14617    14613    14608    14598 
   14584    14569    14546    14509    14480    14467    14459    14442 
   14424    14413    14403    14393    14391    14380    14366    14364 
   14362    14350    14332    14316    14304    14295    14284    14268 
   14253    14246    14249    14251    14247    14230    14210    14200 
   14204    14215    14226    14241    14258    14277    14295    14308 
   14332    14358    14364    14364    14372    14385    14399    14409 
   14422    14440    14450    14449    14447    14453    14454    14451 
   14442    14434    14432    14424    14416    14412    14407    14403 
   14403    14399    14382    14355    14337    14310    14277    14256 
   14237    14216    14196    14179    14153    14119    14094    14071 
   14050    14044    14040    14038    14044    14050    14053    14049 
   14042    14033    14021    14014    14013    14008    13994    13973 
   13956    13942    13932    13918    13906    13900    13898    13896 
   13892    13884    13887    13900    13909    13915    13926    13940 
   13959    13988    14018    14045    14073    14088    14092    14098 
   14108    14125    14130    14135    14149    14160    14166    14173 
   14179    14179    14179    14188    14210    14229    14247    14277 
   14310    14337    14358    14369    14364    14353    14345    14337 
   14326    14316    14307    14299    14293    14276    14243    14215 
   14192    14168    14148    14134    14118    14092    14067    14050 
   14040    14030    14017    13990    13950    13915    13891    13861 
   13834    13824    13817    13813    13815    13819    13828    13836 
   13844    13857    13873    13895    13922    13959    13998    14025 
   14041    14061    14085    14114    14148    14179    14202    14231 
   14261    14277    14293    14312    14326    14339    14351    14362 
   14380    14400    14413    14426    14443    14461    14473    14480 
   14488    14505    14519    14526    14544    14561    14566    14580 
   14601    14617    14629    14650    14673    14686    14692    14694 
   14690    14683    14674    14658    14639    14625    14616    14605 
   14590    14573    14554    14531    14499    14459    14420    14388 
   14369    14361    14353    14349    14350    14351    14355    14365 
   14377    14396    14427    14463    14485    14499    14515    14526 
   14534    14543    14548    14543    14535    14527    14515    14508 
   14504    14497    14492    14490    14489    14493    14501    14512 
   14521    14531    14543    14567    14600    14629    14663    14696 
   14716    14736    14751    14756    14751    14742    14735    14723 
   14692    14665    14647    14623    14586    14538    14489    14453 
   14415    14369    14330    14303    14283    14262    14250    14256 
   14268    14287    14314    14341    14358    14376    14401    14423 
   14442    14462    14476    14488    14505    14515    14516    14516 
   14512    14505    14499    14486    14472    14469    14470    14477 
   14488    14486    14480    14476    14463    14457    14455    14447 
   14434    14409    14391    14380    14358    14338    14324    14305 
   14287    14269    14243    14218    14204    14189    14173    14165 
   14152    14131    14116    14104    14094    14079    14060    14042 
   14026    14006    13987    13973    13953    13922    13895    13868 
   13836    13806    13787    13787    13792    13792    13799    13815 
   13824    13833    13857    13890    13923    13971    14017    14046 
   14069    14088    14094    14089    14089    14094    14092    14083 
   14068    14049    14034    14025    14017    13999    13976    13950 
   13919    13899    13898    13903    13913    13923    13932    13944 
   13954    13963    13975    13992    14023    14064    14104    14137 
   14161    14188    14223    14260    14296    14326    14350    14364 
   14368    14373    14381    14386    14391    14389    14382    14372 
   14359    14343    14324    14310    14292    14261    14234    14215 
   14193    14173    14158    14149    14149    14158    14176    14196 
   14218    14239    14260    14285    14322    14368    14420    14474 
   14524    14573    14617    14659    14701    14740    14770    14791 
   14804    14805    14802    14783    14756    14739    14723    14698 
   14669    14642    14617    14590    14570    14561    14550    14534 
   14513    14497    14490    14484    14473    14463    14449    14423 
   14389    14355    14326    14293    14269    14253    14239    14229 
   14223    14216    14204    14187    14165    14138    14123    14127 
   14127    14115    14098    14080    14069    14062    14061    14068 
   14072    14067    14057    14042    14030    14022    14007    13995 
   13981    13961    13936    13909    13880    13857    13836    13811 
   13784    13759    13734    13713    13691    13667    13639    13612 
   13585    13562    13545    13537    13539    13545    13549    13551 
   13548    13551    13564    13579    13597    13614    13630    13651 
   13674    13699    13732    13768    13798    13824    13851    13872 
   13895    13925    13949    13973    14000    14018    14029    14041 
   14054    14061    14068    14089    14111    14126    14146    14169 
   14193    14222    14243    14260    14278    14295    14310    14324 
   14334    14343    14350    14345    14328    14308    14280    14249 
   14220    14188    14152    14118    14084    14058    14046    14042 
   14044    14049    14058    14072    14091    14119    14150    14180 
   14200    14210    14216    14220    14222    14219    14206    14193 
   14180    14154    14127    14111    14107    14119    14135    14148 
   14160    14173    14191    14216    14256    14305    14349    14386 
   14428    14474    14521    14569    14608    14635    14656    14679 
   14698    14720    14742    14755    14771    14778    14773    14767 
   14762    14751    14743    14736    14716    14686    14655    14621 
   14588    14566    14543    14511    14476    14435    14400    14373 
   14353    14335    14322    14310    14297    14291    14292    14300 
   14315    14332    14342    14350    14372    14401    14423    14443 
   14469    14493    14521    14555    14594    14646    14700    14744 
   14783    14818    14850    14881    14901    14910    14917    14926 
   14937    14948    14953    14949    14931    14910    14893    14885 
   14881    14867    14845    14824    14809    14801    14800    14794 
   14783    14779    14785    14794    14802    14805    14802    14787 
   14760    14729    14700    14663    14621    14581    14535    14489 
   14453    14419    14386    14350    14312    14280    14251    14230 
   14210    14188    14168    14150    14134    14112    14091    14071 
   14048    14030    14023    14003    13979    13956    13926    13890 
   13845    13798    13757    13714    13663    13618    13582    13541 
   13513    13505    13501    13493    13482    13471    13473    13485 
   13493    13504    13522    13539    13549    13572    13609    13645 
   13679    13726    13775    13818    13865    13926    13988    14046 
   14104    14156    14191    14215    14233    14242    14242    14237 
   14222    14195    14161    14130    14102    14075    14046    14008 
   13967    13929    13895    13867    13838    13809    13779    13748 
   13716    13690    13670    13655    13647    13648    13663    13693 
   13733    13775    13817    13864    13918    13981    14052    14118 
   14172    14222    14264    14300    14337    14366    14388    14409 
   14430    14451    14476    14496    14519    14546    14574    14607 
   14647    14688    14727    14760    14786    14813    14843    14866 
   14872    14881    14895    14898    14894    14891    14885    14878 
   14871    14868    14867    14867    14871    14870    14860    14858 
   14855    14847    14835    14813    14793    14777    14755    14733 
   14723    14712    14697    14678    14661    14642    14623    14602 
   14585    14584    14593    14597    14590    14573    14550    14527 
   14511    14500    14489    14473    14459    14446    14428    14409 
   14397    14380    14359    14343    14334    14328    14326    14319 
   14305    14304    14323    14342    14369    14408    14439    14463 
   14503    14544    14577    14615    14656    14692    14720    14742 
   14758    14771    14779    14786    14783    14778    14777    14775 
   14770    14769    14764    14755    14750    14748    14739    14737 
   14744    14746    14746    14746    14735    14724    14719    14705 
   14692    14682    14667    14648    14625    14594    14557    14513 
   14470    14424    14376    14328    14278    14229    14181    14130 
   14084    14049    14018    13991    13972    13957    13946    13944 
   13949    13956    13960    13965    13977    13983    13981    13981 
   13986    13986    13979    13971    13957    13936    13910    13892 
   13888    13884    13875    13863    13846    13826    13803    13779 
   13757    13734    13703    13670    13637    13605    13560    13509 
   13454    13400    13348    13306    13271    13240    13212    13189 
   13173    13167    13178    13204    13238    13274    13320    13378 
   13447    13518    13599    13680    13752    13826    13902    13975 
   14050    14123    14191    14264    14334    14395    14454    14511 
   14562    14609    14646    14671    14688    14701    14720    14736 
   14740    14742    14739    14731    14728    14723    14710    14701 
   14697    14690    14675    14658    14640    14625    14612    14602 
   14590    14575    14561    14544    14521    14496    14476    14457 
   14434    14420    14418    14416    14415    14408    14395    14388 
   14393    14401    14413    14436    14455    14462    14473    14489 
   14504    14517    14528    14534    14540    14544    14542    14540 
   14548    14569    14585    14593    14607    14623    14639    14654 
   14666    14674    14682    14686    14696    14710    14717    14721 
   14725    14721    14715    14709    14696    14681    14667    14648 
   14624    14594    14555    14516    14484    14453    14415    14372 
   14330    14293    14258    14226    14202    14179    14148    14115 
   14095    14079    14064    14060    14064    14069    14083    14114 
   14152    14188    14229    14273    14314    14353    14395    14435 
   14472    14496    14501    14496    14486    14470    14451    14424 
   14392    14362    14328    14293    14262    14235    14216    14207 
   14202    14196    14188    14187    14199    14218    14241    14265 
   14289    14316    14338    14359    14388    14404    14411    14422 
   14438    14459    14488    14512    14542    14577    14608    14634 
   14659    14682    14705    14728    14742    14750    14754    14754 
   14750    14739    14729    14716    14690    14661    14639    14621 
   14596    14562    14523    14490    14459    14424    14395    14372 
   14346    14315    14281    14241    14189    14142    14096    14049 
   14000    13956    13910    13865    13824    13783    13744    13706 
   13674    13652    13643    13641    13639    13635    13640    13651 
   13660    13679    13702    13721    13745    13767    13782    13802 
   13822    13836    13849    13864    13872    13872    13871    13867 
   13861    13861    13860    13852    13845    13841    13837    13838 
   13849    13863    13879    13900    13925    13946    13973    14002 
   14031    14064    14095    14118    14141    14166    14197    14235 
   14268    14301    14343    14382    14415    14443    14467    14488 
   14504    14516    14534    14550    14561    14567    14580    14593 
   14601    14611    14619    14621    14620    14621    14631    14639 
   14651    14673    14700    14733    14771    14802    14824    14841 
   14856    14877    14899    14914    14917    14912    14899    14879 
   14852    14824    14787    14743    14696    14647    14598    14553 
   14505    14465    14423    14376    14323    14268    14216    14176 
   14141    14114    14091    14060    14018    13981    13950    13913 
   13878    13848    13814    13787    13767    13747    13728    13709 
   13686    13671    13655    13633    13622    13614    13602    13591 
   13585    13576    13568    13567    13567    13560    13554    13562 
   13578    13595    13620    13647    13674    13703    13740    13786 
   13830    13873    13925    13977    14027    14076    14121    14158 
   14192    14227    14257    14285    14316    14343    14366    14391 
   14412    14430    14445    14462    14486    14516    14543    14571 
   14609    14644    14677    14706    14736    14774    14809    14831 
   14851    14871    14883    14898    14920    14944    14963    14978 
   14991    15010    15029    15047    15067    15083    15091    15102 
   15110    15113    15110    15102    15086    15061    15030    15001 
   14967    14925    14886    14847    14804    14764    14727    14683 
   14648    14616    14586    14561    14534    14499    14463    14427 
   14389    14354    14319    14283    14254    14237    14216    14199 
   14192    14183    14170    14157    14139    14126    14127    14130 
   14126    14123    14121    14116    14112    14104    14089    14075 
   14058    14042    14037    14037    14034    14029    14022    14014 
   14010    14017    14030    14041    14053    14068    14083    14100 
   14112    14115    14116    14127    14137    14135    14131    14127 
   14112    14085    14054    14021    13981    13944    13910    13876 
   13848    13826    13803    13782    13764    13749    13747    13755 
   13761    13768    13782    13788    13792    13805    13824    13844 
   13868    13892    13915    13941    13967    13995    14022    14050 
   14080    14111    14139    14170    14199    14226    14250    14268 
   14281    14297    14312    14320    14328    14339    14341    14337 
   14343    14353    14358    14368    14380    14389    14399    14403 
   14403    14408    14411    14404    14403    14403    14392    14380 
   14365    14343    14318    14285    14250    14220    14202    14188 
   14172    14160    14154    14150    14149    14148    14148    14157 
   14169    14181    14199    14223    14246    14266    14278    14287 
   14299    14312    14323    14341    14366    14389    14412    14431 
   14443    14451    14459    14469    14478    14485    14492    14497 
   14504    14513    14519    14526    14534    14539    14548    14557 
   14563    14574    14580    14584    14590    14594    14596    14597 
   14593    14586    14588    14597    14600    14598    14600    14598 
   14594    14597    14600    14604    14612    14617    14624    14629 
   14638    14651    14663    14669    14669    14670    14671    14670 
   14670    14670    14663    14654    14644    14634    14619    14598 
   14570    14539    14516    14500    14482    14462    14442    14422 
   14396    14370    14351    14331    14310    14289    14272    14256 
