Origin Time       2025/01/13 21:19:00
Lat.              31.8
Long.             131.6
Depth. (km)       30
Mag.              6.9
Station Code      OKYH08
Station Lat.      34.9103
Station Long.     133.4055
Station Height(m) 330
Record Time       2025/01/13 21:20:49
Sampling Freq(Hz) 100Hz
Duration Time(s)  135
Dir.              3
Scale Factor      2942(gal)/8224139
Max. Acc. (gal)   0.751
Last Correction   2025/01/13 21:20:51
Memo.             
[...]
  -89047   -89081   -89082   -89059   -89019   -88969   -88912   -88858 
  -88827   -88823   -88827   -88820   -88800   -88770   -88744   -88739 
  -88736   -88719   -88689   -88666   -88666   -88688   -88719   -88743 
  -88747   -88738   -88728   -88719   -88709   -88696   -88676   -88663 
  -88673   -88688   -88699   -88719   -88747   -88786   -88842   -88890 
  -88912   -88916   -88917   -88925   -88942   -88965   -88992   -89009 
  -89005   -88987   -88963   -88939   -88940   -88977   -89019   -89056 
  -89079   -89082   -89060   -89021   -88986   -88974   -88982   -88997 
  -89016   -89033   -89039   -89024   -89005   -88987   -88963   -88950 
  -88974   -89036   -89106   -89162   -89199   -89222   -89225   -89209 
  -89187   -89176   -89167   -89158   -89162   -89172   -89167   -89141 
  -89120   -89116   -89122   -89132   -89128   -89101   -89078   -89078 
  -89077   -89058   -89043   -89047   -89047   -89029   -89006   -88978 
  -88948   -88925   -88897   -88865   -88834   -88798   -88751   -88704 
  -88657   -88607   -88566   -88537   -88501   -88458   -88415   -88379 
  -88358   -88365   -88391   -88416   -88431   -88438   -88450   -88479 
  -88507   -88522   -88539   -88574   -88624   -88666   -88692   -88730 
  -88786   -88838   -88879   -88916   -88946   -88967   -88998   -89047 
  -89108   -89163   -89195   -89206   -89216   -89236   -89262   -89279 
  -89289   -89293   -89287   -89271   -89263   -89272   -89283   -89271 
  -89232   -89189   -89168   -89160   -89149   -89149   -89168   -89194 
  -89222   -89237   -89236   -89229   -89220   -89203   -89179   -89147 
  -89114   -89078   -89029   -88978   -88920   -88852   -88796   -88769 
  -88758   -88740   -88699   -88638   -88577   -88541   -88526   -88519 
  -88515   -88528   -88546   -88543   -88528   -88516   -88501   -88487 
  -88479   -88470   -88454   -88435   -88431   -88452   -88477   -88499 
  -88516   -88535   -88545   -88538   -88530   -88539   -88562   -88587 
  -88608   -88631   -88642   -88639   -88638   -88650   -88673   -88699 
  -88724   -88751   -88774   -88784   -88789   -88815   -88867   -88933 
  -88997   -89044   -89079   -89114   -89147   -89179   -89217   -89256 
  -89297   -89345   -89386   -89401   -89403   -89401   -89387   -89368 
  -89359   -89356   -89344   -89306   -89248   -89187   -89144   -89109 
  -89073   -89033   -88994   -88967   -88959   -88951   -88936   -88931 
  -88938   -88958   -88996   -89041   -89086   -89120   -89131   -89128 
  -89144   -89189   -89233   -89262   -89276   -89272   -89248   -89218 
  -89197   -89182   -89167   -89156   -89149   -89137   -89118   -89101 
  -89078   -89060   -89062   -89083   -89110   -89127   -89141   -89172 
  -89213   -89252   -89286   -89318   -89332   -89321   -89307   -89310 
  -89321   -89336   -89341   -89320   -89293   -89280   -89264   -89233 
  -89203   -89191   -89187   -89164   -89117   -89056   -88982   -88894 
  -88813   -88742   -88670   -88599   -88528   -88454   -88377   -88296 
  -88219   -88169   -88142   -88121   -88099   -88078   -88057   -88042 
  -88033   -88028   -88030   -88047   -88086   -88144   -88196   -88236 
  -88280   -88327   -88364   -88389   -88415   -88447   -88487   -88524 
  -88562   -88601   -88632   -88649   -88659   -88676   -88699   -88726 
  -88746   -88761   -88771   -88782   -88800   -88831   -88863   -88888 
  -88902   -88908   -88909   -88912   -88919   -88938   -88967   -89002 
  -89040   -89073   -89091   -89102   -89125   -89160   -89179   -89167 
  -89133   -89102   -89077   -89046   -89019   -89005   -88989   -88951 
  -88894   -88842   -88807   -88785   -88774   -88771   -88782   -88816 
  -88862   -88905   -88942   -88978   -89017   -89050   -89071   -89087 
  -89094   -89081   -89059   -89041   -89029   -89020   -89010   -88993 
  -88966   -88938   -88920   -88921   -88938   -88963   -88987   -89008 
  -89036   -89067   -89090   -89114   -89144   -89171   -89190   -89199 
  -89206   -89212   -89201   -89163   -89117   -89085   -89067   -89060 
  -89054   -89036   -89016   -89006   -89008   -89013   -89035   -89067 
  -89087   -89083   -89070   -89060   -89062   -89070   -89073   -89074 
  -89075   -89062   -89046   -89041   -89043   -89040   -89048   -89062 
  -89077   -89087   -89083   -89063   -89048   -89040   -89033   -89017 
  -88983   -88948   -88921   -88889   -88846   -88794   -88751   -88720 
  -88686   -88653   -88630   -88622   -88616   -88601   -88574   -88542 
  -88515   -88510   -88528   -88551   -88564   -88564   -88554   -88545 
  -88530   -88512   -88496   -88492   -88496   -88489   -88479   -88479 
  -88484   -88484   -88472   -88452   -88433   -88426   -88435   -88462 
  -88508   -88550   -88580   -88608   -88650   -88695   -88734   -88766 
  -88790   -88809   -88827   -88844   -88862   -88885   -88912   -88956 
  -89016   -89075   -89135   -89198   -89245   -89267   -89280   -89301 
  -89329   -89361   -89399   -89442   -89482   -89506   -89521   -89540 
  -89571   -89598   -89617   -89640   -89668   -89694   -89703   -89689 
  -89673   -89667   -89653   -89626   -89598   -89577   -89567   -89540 
  -89490   -89428   -89356   -89283   -89224   -89174   -89132   -89093 
  -89059   -89029   -89002   -88969   -88929   -88886   -88842   -88800 
  -88763   -88739   -88713   -88670   -88612   -88558   -88516   -88484 
  -88458   -88435   -88408   -88377   -88344   -88314   -88299   -88295 
  -88304   -88326   -88342   -88348   -88364   -88389   -88418   -88450 
  -88489   -88534   -88580   -88639   -88709   -88771   -88816   -88850 
  -88867   -88861   -88831   -88793   -88757   -88717   -88672   -88628 
  -88593   -88564   -88527   -88474   -88425   -88393   -88362   -88325 
  -88308   -88327   -88352   -88365   -88373   -88387   -88411   -88441 
  -88470   -88512   -88560   -88595   -88623   -88654   -88690   -88728 
  -88761   -88794   -88821   -88830   -88820   -88805   -88790   -88778 
  -88771   -88761   -88743   -88713   -88678   -88645   -88609   -88573 
  -88550   -88555   -88584   -88615   -88643   -88673   -88705   -88736 
  -88766   -88801   -88851   -88921   -89002   -89073   -89127   -89175 
  -89216   -89251   -89289   -89320   -89347   -89371   -89392   -89405 
  -89395   -89364   -89333   -89303   -89274   -89248   -89229   -89217 
  -89203   -89185   -89164   -89149   -89139   -89129   -89122   -89120 
  -89122   -89124   -89112   -89086   -89050   -88998   -88944   -88900 
  -88850   -88794   -88743   -88699   -88665   -88639   -88622   -88611 
  -88609   -88624   -88643   -88655   -88681   -88724   -88758   -88776 
  -88789   -88805   -88823   -88834   -88827   -88816   -88821   -88847 
  -88884   -88917   -88946   -88969   -88992   -89019   -89046   -89067 
  -89090   -89112   -89125   -89143   -89160   -89171   -89174   -89178 
  -89172   -89154   -89135   -89125   -89121   -89114   -89098   -89078 
  -89064   -89058   -89056   -89058   -89064   -89075   -89081   -89087 
  -89102   -89118   -89133   -89148   -89163   -89175   -89174   -89159 
  -89156   -89164   -89156   -89141   -89140   -89148   -89168   -89202 
  -89243   -89282   -89310   -89325   -89330   -89338   -89349   -89363 
  -89376   -89392   -89405   -89398   -89372   -89332   -89291   -89259 
  -89237   -89220   -89198   -89168   -89125   -89074   -89024   -88983 
  -88950   -88920   -88894   -88878   -88867   -88854   -88835   -88815 
  -88789   -88754   -88708   -88653   -88591   -88533   -88474   -88412 
  -88365   -88334   -88299   -88253   -88204   -88159   -88129   -88111 
  -88087   -88060   -88052   -88056   -88060   -88064   -88075   -88098 
  -88128   -88159   -88195   -88245   -88299   -88342   -88381   -88430 
  -88488   -88557   -88635   -88704   -88753   -88780   -88797   -88813 
  -88825   -88836   -88858   -88884   -88901   -88911   -88919   -88924 
  -88923   -88920   -88929   -88956   -88986   -89002   -89014   -89046 
  -89086   -89131   -89190   -89270   -89357   -89441   -89522   -89613 
  -89714   -89810   -89895   -89972   -90042   -90104   -90150   -90173 
  -90188   -90201   -90196   -90167   -90126   -90084   -90032   -89959 
  -89869   -89764   -89650   -89538   -89430   -89332   -89241   -89148 
  -89048   -88948   -88857   -88781   -88713   -88647   -88595   -88565 
  -88553   -88541   -88530   -88528   -88538   -88546   -88545   -88546 
  -88555   -88576   -88601   -88618   -88609   -88584   -88551   -88516 
  -88480   -88442   -88406   -88366   -88327   -88294   -88263   -88217 
  -88159   -88109   -88080   -88071   -88078   -88091   -88103   -88126 
  -88169   -88230   -88300   -88371   -88441   -88520   -88600   -88674 
  -88743   -88804   -88871   -88943   -89008   -89067   -89122   -89168 
  -89210   -89256   -89297   -89330   -89364   -89388   -89402   -89417 
  -89433   -89444   -89442   -89438   -89430   -89413   -89386   -89367 
  -89370   -89384   -89398   -89407   -89415   -89429   -89449   -89464 
  -89468   -89472   -89486   -89503   -89513   -89510   -89510   -89522 
  -89534   -89542   -89549   -89563   -89575   -89581   -89580   -89579 
  -89590   -89614   -89631   -89626   -89606   -89584   -89563   -89534 
  -89498   -89457   -89410   -89357   -89299   -89236   -89167   -89101 
  -89041   -88985   -88929   -88875   -88827   -88770   -88704   -88639 
  -88578   -88514   -88454   -88410   -88381   -88354   -88319   -88271 
  -88217   -88167   -88119   -88079   -88056   -88045   -88033   -88021 
  -88009   -87994   -87972   -87932   -87867   -87783   -87691   -87609 
  -87536   -87459   -87377   -87288   -87196   -87116   -87053   -87000 
  -86958   -86931   -86918   -86911   -86911   -86933   -86988   -87069 
  -87160   -87249   -87331   -87412   -87492   -87569   -87655   -87754 
  -87851   -87941   -88025   -88114   -88214   -88315   -88416   -88537 
  -88682   -88839   -88998   -89155   -89309   -89456   -89592   -89714 
  -89831   -89943   -90036   -90111   -90174   -90232   -90281   -90310 
  -90325   -90332   -90325   -90302   -90269   -90229   -90188   -90153 
  -90131   -90119   -90108   -90096   -90081   -90054   -90022   -90001 
  -89991   -89980   -89965   -89943   -89914   -89873   -89818   -89746 
  -89658   -89557   -89457   -89357   -89255   -89147   -89033   -88909 
  -88776   -88638   -88508   -88393   -88298   -88213   -88128   -88052 
  -87997   -87952   -87913   -87886   -87864   -87847   -87836   -87829 
  -87835   -87859   -87897   -87945   -88002   -88059   -88111   -88163 
  -88226   -88303   -88381   -88461   -88554   -88647   -88734   -88819 
  -88911   -88992   -89047   -89089   -89124   -89149   -89166   -89171 
  -89160   -89141   -89133   -89135   -89140   -89147   -89163   -89197 
  -89232   -89259   -89287   -89321   -89363   -89414   -89478   -89556 
  -89635   -89703   -89750   -89776   -89785   -89785   -89775   -89758 
  -89738   -89712   -89683   -89640   -89583   -89527   -89471   -89409 
  -89357   -89322   -89291   -89263   -89243   -89237   -89244   -89262 
  -89287   -89320   -89352   -89384   -89426   -89472   -89517   -89554 
  -89588   -89619   -89641   -89645   -89641   -89634   -89621   -89602 
  -89576   -89541   -89491   -89417   -89329   -89257   -89187   -89101 
  -89014   -88943   -88881   -88834   -88792   -88744   -88697   -88669 
  -88658   -88646   -88634   -88630   -88638   -88643   -88639   -88631 
  -88614   -88589   -88565   -88541   -88512   -88496   -88495   -88492 
  -88491   -88492   -88487   -88474   -88461   -88445   -88425   -88408 
  -88402   -88399   -88395   -88384   -88368   -88354   -88341   -88322 
  -88306   -88298   -88296   -88314   -88342   -88372   -88408   -88460 
  -88514   -88573   -88645   -88720   -88796   -88879   -88970   -89067 
  -89171   -89275   -89374   -89467   -89553   -89638   -89719   -89792 
  -89854   -89903   -89951   -89995   -90026   -90045   -90051   -90047 
  -90035   -89997   -89932   -89851   -89762   -89675   -89588   -89486 
  -89367   -89244   -89125   -89016   -88909   -88796   -88692   -88611 
  -88542   -88481   -88431   -88391   -88364   -88356   -88353   -88353 
  -88358   -88362   -88365   -88365   -88357   -88339   -88325   -88312 
  -88294   -88269   -88245   -88218   -88177   -88128   -88078   -88025 
  -87970   -87913   -87859   -87821   -87797   -87766   -87731   -87710 
  -87710   -87720   -87728   -87739   -87752   -87779   -87821   -87871 
  -87929   -87998   -88067   -88136   -88209   -88283   -88360   -88439 
  -88516   -88589   -88657   -88719   -88782   -88843   -88893   -88928 
  -88954   -88977   -88992   -89005   -89019   -89035   -89066   -89112 
  -89152   -89182   -89209   -89241   -89271   -89295   -89320   -89347 
  -89372   -89390   -89388   -89376   -89363   -89340   -89310   -89279 
  -89249   -89218   -89187   -89163   -89144   -89129   -89117   -89113 
  -89110   -89106   -89106   -89116   -89128   -89132   -89127   -89133 
  -89152   -89170   -89191   -89218   -89240   -89255   -89266   -89270 
  -89263   -89249   -89236   -89224   -89208   -89182   -89154   -89125 
  -89097   -89064   -89024   -88982   -88936   -88881   -88813   -88732 
  -88647   -88572   -88499   -88426   -88360   -88298   -88242   -88192 
  -88138   -88083   -88034   -87995   -87971   -87964   -87960   -87963 
  -87978   -88001   -88024   -88048   -88075   -88110   -88150   -88200 
  -88258   -88321   -88387   -88450   -88508   -88566   -88630   -88690 
  -88750   -88811   -88874   -88940   -89010   -89075   -89143   -89220 
  -89303   -89383   -89461   -89544   -89625   -89708   -89799   -89888 
  -89978   -90074   -90177   -90285   -90386   -90482   -90574   -90667 
  -90763   -90849   -90917   -90963   -90987   -91000   -90994   -90954 
  -90895   -90822   -90734   -90633   -90510   -90374   -90235   -90089 
  -89926   -89754   -89591   -89437   -89283   -89133   -88978   -88816 
  -88658   -88504   -88358   -88229   -88102   -87975   -87856   -87756 
  -87670   -87589   -87516   -87447   -87389   -87353   -87339   -87340 
  -87349   -87369   -87403   -87447   -87498   -87546   -87585   -87620 
  -87656   -87694   -87736   -87781   -87822   -87863   -87903   -87939 
  -87961   -87980   -88007   -88047   -88099   -88160   -88229   -88303 
  -88377   -88453   -88528   -88596   -88658   -88726   -88801   -88884 
  -88970   -89058   -89152   -89244   -89328   -89403   -89475   -89537 
  -89599   -89657   -89708   -89762   -89815   -89856   -89887   -89907 
  -89915   -89916   -89915   -89918   -89920   -89919   -89908   -89891 
  -89873   -89847   -89814   -89780   -89748   -89711   -89675   -89640 
  -89606   -89571   -89537   -89503   -89472   -89437   -89397   -89359 
  -89320   -89278   -89239   -89205   -89176   -89147   -89113   -89083 
  -89063   -89050   -89035   -89014   -88996   -88979   -88956   -88932 
  -88909   -88886   -88861   -88832   -88800   -88776   -88754   -88730 
  -88708   -88696   -88690   -88686   -88676   -88663   -88655   -88647 
  -88635   -88615   -88589   -88564   -88541   -88518   -88487   -88454 
  -88427   -88400   -88366   -88333   -88306   -88287   -88271   -88254 
  -88240   -88237   -88240   -88240   -88238   -88236   -88230   -88223 
  -88217   -88213   -88209   -88202   -88199   -88196   -88194   -88195 
  -88204   -88219   -88231   -88245   -88271   -88303   -88334   -88364 
  -88395   -88434   -88476   -88518   -88557   -88603   -88649   -88678 
  -88700   -88717   -88726   -88728   -88730   -88723   -88715   -88719 
  -88730   -88735   -88738   -88742   -88747   -88758   -88773   -88785 
  -88796   -88805   -88813   -88821   -88832   -88848   -88863   -88871 
  -88875   -88881   -88881   -88870   -88854   -88838   -88825   -88823 
  -88830   -88839   -88843   -88850   -88862   -88877   -88888   -88893 
  -88893   -88889   -88878   -88861   -88838   -88804   -88757   -88707 
  -88657   -88603   -88549   -88499   -88458   -88430   -88404   -88373 
  -88356   -88358   -88366   -88384   -88415   -88456   -88495   -88537 
  -88587   -88645   -88701   -88762   -88824   -88888   -88960   -89032 
  -89093   -89148   -89203   -89252   -89301   -89347   -89378   -89401 
  -89419   -89430   -89441   -89455   -89461   -89460   -89460   -89459 
  -89448   -89430   -89415   -89403   -89388   -89376   -89364   -89352 
  -89344   -89336   -89325   -89314   -89299   -89286   -89275   -89264 
  -89252   -89232   -89193   -89148   -89109   -89070   -89033   -89009 
  -88989   -88958   -88919   -88881   -88843   -88809   -88785   -88763 
  -88735   -88701   -88666   -88632   -88599   -88566   -88539   -88515 
  -88487   -88453   -88418   -88389   -88368   -88346   -88330   -88331 
  -88344   -88361   -88385   -88418   -88457   -88508   -88569   -88631 
  -88703   -88785   -88875   -88970   -89062   -89154   -89248   -89343 
  -89425   -89499   -89569   -89641   -89708   -89764   -89807   -89842 
  -89866   -89881   -89884   -89873   -89850   -89820   -89784   -89739 
  -89683   -89619   -89556   -89487   -89413   -89334   -89256   -89181 
  -89112   -89050   -88993   -88936   -88879   -88825   -88777   -88736 
  -88704   -88676   -88646   -88619   -88600   -88592   -88595   -88600 
  -88603   -88612   -88631   -88658   -88689   -88722   -88757   -88798 
  -88843   -88890   -88944   -89005   -89071   -89133   -89189   -89241 
  -89284   -89322   -89356   -89382   -89403   -89417   -89419   -89418 
  -89414   -89402   -89386   -89372   -89353   -89322   -89278   -89232 
  -89190   -89141   -89081   -89021   -88962   -88904   -88854   -88805 
  -88761   -88720   -88674   -88622   -88566   -88514   -88469   -88434 
  -88398   -88354   -88311   -88269   -88227   -88186   -88146   -88114 
  -88092   -88079   -88076   -88083   -88091   -88101   -88115   -88138 
  -88168   -88203   -88244   -88281   -88322   -88366   -88408   -88443 
  -88481   -88520   -88561   -88607   -88655   -88690   -88715   -88736 
  -88755   -88781   -88808   -88828   -88843   -88851   -88859   -88867 
  -88867   -88862   -88863   -88873   -88885   -88892   -88890   -88892 
  -88898   -88908   -88927   -88956   -88994   -89036   -89078   -89113 
  -89147   -89182   -89218   -89259   -89305   -89355   -89397   -89429 
  -89461   -89486   -89511   -89540   -89568   -89599   -89630   -89652 
  -89680   -89718   -89748   -89769   -89795   -89820   -89846   -89870 
  -89895   -89924   -89958   -89988   -90005   -90018   -90030   -90038 
  -90039   -90035   -90026   -90015   -90004   -89989   -89968   -89939 
  -89896   -89841   -89776   -89699   -89623   -89553   -89482   -89410 
  -89340   -89260   -89171   -89082   -89009   -88951   -88900   -88857 
  -88821   -88788   -88753   -88728   -88717   -88712   -88711   -88713 
  -88719   -88726   -88732   -88735   -88726   -88712   -88689   -88658 
  -88631   -88605   -88573   -88538   -88496   -88445   -88392   -88342 
  -88290   -88237   -88186   -88137   -88092   -88064   -88053   -88045 
  -88036   -88029   -88026   -88029   -88048   -88079   -88119   -88168 
  -88215   -88261   -88314   -88368   -88423   -88485   -88546   -88604 
  -88669   -88732   -88786   -88832   -88869   -88902   -88936   -88966 
  -88997   -89031   -89066   -89104   -89139   -89168   -89194   -89213 
  -89239   -89274   -89306   -89330   -89352   -89376   -89399   -89415 
  -89434   -89459   -89478   -89495   -89517   -89538   -89560   -89580 
  -89594   -89598   -89598   -89602   -89606   -89608   -89603   -89588 
  -89567   -89552   -89534   -89505   -89472   -89441   -89406   -89363 
  -89313   -89257   -89202   -89144   -89078   -89006   -88933   -88861 
