Origin Time       2025/01/13 21:19:00
Lat.              31.8
Long.             131.6
Depth. (km)       30
Mag.              6.9
Station Code      OKYH02
Station Lat.      34.7501
Station Long.     134.0702
Station Height(m) 30
Record Time       2025/01/13 21:20:55
Sampling Freq(Hz) 100Hz
Duration Time(s)  126
Dir.              5
Scale Factor      7845(gal)/8223790
Max. Acc. (gal)   0.574
Last Correction   2025/01/13 21:20:56
Memo.             
[...]
    3191     3169     3119     3110     3142     3165     3160     3150 
    3157     3190     3225     3240     3245     3265     3294     3312 
    3322     3310     3261     3200     3156     3127     3106     3080 
    3048     3028     3025     3024     3024     3034     3063     3099 
    3102     3080     3083     3095     3094     3126     3181     3210 
    3225     3238     3235     3211     3186     3181     3200     3215 
    3213     3196     3159     3111     3095     3121     3160     3173 
    3157     3140     3141     3173     3215     3226     3225     3242 
    3238     3199     3177     3167     3134     3125     3159     3196 
    3226     3244     3238     3221     3203     3177     3153     3140 
    3152     3198     3240     3248     3246     3252     3256     3252 
    3241     3230     3217     3195     3177     3156     3118     3088 
    3083     3109     3149     3159     3137     3136     3148     3138 
    3121     3123     3152     3179     3171     3152     3165     3186 
    3190     3191     3202     3221     3234     3229     3221     3215 
    3215     3221     3215     3206     3204     3194     3181     3190 
    3202     3211     3227     3238     3231     3226     3221     3217 
    3223     3237     3258     3285     3294     3280     3256     3221 
    3202     3219     3248     3264     3267     3250     3235     3222 
    3191     3152     3130     3125     3119     3107     3084     3061 
    3063     3073     3080     3105     3123     3102     3083     3105 
    3140     3173     3208     3227     3230     3238     3230     3192 
    3173     3187     3183     3169     3192     3217     3208     3199 
    3206     3229     3245     3235     3218     3207     3200     3207 
    3203     3183     3199     3250     3277     3272     3256     3250 
    3272     3295     3300     3307     3315     3326     3337     3341 
    3358     3391     3411     3412     3396     3370     3356     3333 
    3303     3296     3299     3287     3275     3260     3245     3267 
    3300     3288     3234     3184     3150     3132     3122     3113 
    3096     3072     3064     3067     3055     3041     3041     3067 
    3127     3186     3208     3202     3163     3106     3075     3075 
    3095     3130     3160     3172     3183     3210     3244     3261 
    3257     3252     3265     3292     3310     3298     3262     3246 
    3257     3256     3235     3226     3221     3199     3179     3168 
    3163     3163     3161     3142     3122     3121     3118     3109 
    3110     3126     3152     3161     3142     3122     3100     3072 
    3061     3079     3091     3095     3107     3114     3103     3094 
    3106     3130     3138     3134     3150     3183     3211     3227 
    3238     3233     3208     3181     3145     3094     3063     3065 
    3084     3109     3118     3100     3087     3086     3087     3105 
    3133     3157     3188     3221     3233     3221     3202     3199 
    3210     3210     3206     3226     3260     3275     3254     3223 
    3219     3240     3248     3229     3198     3172     3154     3142 
    3134     3134     3121     3105     3117     3127     3118     3122 
    3140     3137     3123     3114     3100     3083     3091     3121 
    3129     3111     3102     3109     3129     3144     3142     3141 
    3145     3142     3133     3123     3110     3095     3095     3115 
    3157     3188     3179     3140     3092     3059     3059     3072 
    3076     3086     3113     3142     3161     3149     3119     3113 
    3115     3106     3107     3132     3154     3169     3186     3179 
    3149     3136     3161     3210     3238     3227     3210     3214 
    3227     3230     3218     3192     3149     3114     3110     3125 
    3146     3164     3167     3152     3123     3092     3083     3090 
    3102     3127     3144     3127     3115     3113     3092     3078 
    3096     3121     3118     3086     3063     3064     3073     3073 
    3060     3045     3044     3048     3045     3048     3065     3083 
    3107     3129     3117     3086     3071     3069     3084     3107 
    3123     3142     3161     3159     3149     3136     3107     3084 
    3086     3096     3100     3099     3102     3105     3109     3125 
    3140     3149     3168     3186     3187     3191     3198     3192 
    3177     3168     3168     3181     3184     3167     3159     3167 
    3163     3153     3163     3188     3210     3237     3279     3310 
    3304     3284     3276     3275     3254     3223     3214     3215 
    3217     3223     3227     3211     3186     3160     3145     3157 
    3171     3156     3126     3113     3105     3090     3088     3106 
    3119     3121     3115     3099     3094     3109     3125     3126 
    3117     3096     3079     3073     3072     3083     3110     3130 
    3127     3125     3134     3156     3192     3229     3241     3231 
    3225     3223     3217     3217     3252     3291     3298     3279 
    3248     3222     3210     3208     3215     3211     3187     3161 
    3145     3132     3121     3106     3086     3069     3064     3067 
    3078     3094     3103     3092     3079     3080     3080     3087 
    3125     3168     3180     3181     3183     3168     3157     3176 
    3208     3233     3234     3213     3199     3208     3215     3207 
    3199     3206     3214     3206     3186     3173     3165     3157 
    3150     3146     3154     3164     3150     3133     3130     3129 
    3119     3111     3115     3136     3154     3145     3118     3100 
    3092     3088     3083     3079     3086     3096     3098     3098 
    3107     3107     3087     3063     3060     3072     3087     3096 
    3080     3048     3041     3053     3053     3056     3064     3064 
    3065     3071     3068     3075     3094     3106     3098     3080 
    3067     3061     3065     3072     3072     3065     3064     3075 
    3092     3098     3099     3113     3132     3137     3138     3157 
    3184     3198     3192     3175     3152     3125     3110     3118 
    3130     3134     3141     3138     3123     3118     3121     3127 
    3140     3146     3145     3154     3177     3191     3196     3217 
    3245     3269     3298     3316     3314     3307     3304     3306 
    3323     3341     3334     3315     3302     3310     3326     3315 
    3289     3280     3271     3252     3233     3221     3231     3253 
    3256     3254     3267     3264     3257     3271     3281     3265 
    3242     3233     3226     3219     3214     3223     3235     3226 
    3213     3215     3235     3254     3257     3260     3269     3273 
    3284     3311     3327     3339     3357     3366     3368     3362 
    3360     3364     3370     3368     3349     3318     3283     3253 
    3229     3202     3167     3121     3075     3048     3029     3026 
    3032     3013     2988     2984     2982     2983     3002     3006 
    2990     2975     2964     2968     2974     2953     2929     2926 
    2934     2947     2955     2952     2953     2964     2975     2994 
    3013     3014     3009     3011     3009     3009     3018     3024 
    3017     3005     2997     2997     2997     2994     3001     3013 
    3017     3010     3015     3053     3090     3091     3080     3080 
    3078     3069     3063     3068     3086     3087     3072     3076 
    3105     3140     3167     3181     3190     3191     3175     3148 
    3141     3152     3154     3149     3138     3132     3142     3156 
    3167     3177     3175     3161     3165     3195     3235     3267 
    3283     3298     3312     3308     3296     3304     3312     3316 
    3337     3362     3366     3341     3308     3289     3283     3279 
    3283     3283     3273     3272     3277     3276     3277     3284 
    3275     3244     3211     3200     3194     3168     3148     3138 
    3134     3137     3129     3105     3083     3067     3061     3072 
    3072     3072     3092     3094     3072     3079     3099     3109 
    3127     3134     3129     3146     3161     3152     3145     3136 
    3130     3153     3173     3181     3198     3208     3196     3181 
    3171     3165     3173     3184     3173     3152     3145     3153 
    3156     3154     3173     3207     3225     3226     3231     3241 
    3240     3240     3246     3229     3186     3153     3136     3121 
    3107     3082     3048     3051     3069     3065     3053     3046 
    3034     3025     3022     3017     3019     3029     3025     3017 
    3026     3040     3046     3045     3033     3028     3033     3028 
    3007     2994     2990     2991     2995     2997     3013     3048 
    3064     3053     3051     3056     3063     3073     3082     3087 
    3109     3125     3117     3109     3113     3110     3107     3122 
    3141     3157     3181     3206     3218     3223     3225     3219 
    3215     3214     3203     3187     3177     3175     3179     3171 
    3153     3145     3136     3122     3129     3146     3148     3142 
    3136     3129     3142     3160     3160     3153     3142     3130 
    3123     3122     3125     3123     3122     3132     3145     3145 
    3132     3109     3082     3059     3048     3052     3063     3068 
    3064     3063     3068     3079     3094     3119     3136     3134 
    3130     3132     3144     3165     3171     3167     3184     3207 
    3210     3214     3214     3208     3226     3258     3279     3291 
    3298     3295     3281     3261     3241     3223     3202     3179 
    3159     3140     3115     3083     3057     3045     3037     3022 
    3011     3014     3030     3051     3068     3092     3109     3106 
    3113     3133     3148     3160     3169     3165     3163     3163 
    3154     3159     3172     3169     3167     3173     3186     3210 
    3225     3210     3211     3237     3254     3268     3276     3269 
    3267     3267     3261     3268     3277     3264     3246     3248 
    3258     3264     3258     3257     3273     3289     3288     3277 
    3268     3264     3249     3223     3219     3219     3207     3206 
    3208     3191     3171     3160     3153     3154     3152     3145 
    3149     3163     3167     3164     3157     3156     3164     3159 
    3150     3161     3188     3222     3248     3265     3288     3298 
    3280     3264     3262     3258     3246     3225     3208     3208 
    3204     3192     3194     3203     3211     3217     3227     3230 
    3215     3194     3188     3202     3214     3208     3199     3194 
    3186     3172     3159     3165     3196     3233     3264     3288 
    3300     3310     3323     3333     3339     3343     3349     3356 
    3349     3334     3330     3319     3299     3298     3306     3298 
    3283     3265     3242     3226     3218     3213     3214     3211 
    3195     3179     3172     3176     3176     3159     3136     3119 
    3095     3073     3087     3107     3107     3092     3067     3045 
    3040     3041     3041     3046     3061     3078     3091     3106 
    3117     3123     3146     3176     3190     3190     3184     3164 
    3141     3127     3105     3073     3040     2994     2941     2883 
    2824     2798     2793     2781     2789     2801     2789     2787 
    2801     2810     2836     2868     2895     2940     2980     2997 
    3011     3036     3071     3115     3150     3173     3191     3202 
    3206     3206     3202     3195     3186     3176     3179     3184 
    3175     3157     3152     3154     3172     3192     3200     3202 
    3196     3183     3180     3181     3176     3168     3148     3115 
    3084     3049     3017     2998     2984     2971     2960     2945 
    2945     2961     2972     2984     3010     3032     3045     3061 
    3073     3067     3060     3067     3069     3049     3022     3007 
    3001     3006     3018     3021     3015     3009     3010     3029 
    3059     3080     3102     3136     3163     3173     3184     3203 
    3219     3226     3231     3235     3223     3194     3156     3119 
    3088     3063     3041     3032     3025     3013     2998     2991 
    2999     3014     3015     2997     2978     2972     2971     2972 
    2979     2987     2999     3018     3034     3053     3064     3057 
    3061     3080     3098     3113     3114     3090     3071     3072 
    3073     3082     3103     3106     3087     3078     3075     3084 
    3118     3142     3150     3157     3156     3149     3152     3149 
    3133     3118     3109     3095     3082     3072     3060     3049 
    3046     3038     3014     2983     2956     2934     2916     2903 
    2905     2911     2901     2887     2894     2895     2880     2880 
    2894     2910     2937     2960     2972     3002     3030     3042 
    3055     3057     3052     3064     3076     3073     3060     3045 
    3036     3025     3013     3010     3003     2998     3001     3002 
    3007     3029     3052     3068     3078     3086     3105     3119 
    3121     3133     3156     3168     3176     3184     3186     3192 
    3198     3181     3163     3161     3160     3148     3123     3090 
    3063     3045     3013     2971     2949     2948     2951     2959 
    2965     2964     2957     2965     2990     3018     3038     3060 
    3100     3144     3179     3217     3240     3258     3298     3348 
    3395     3443     3483     3518     3557     3596     3631     3658 
    3684     3715     3740     3754     3754     3743     3730     3719 
    3708     3690     3677     3670     3645     3597     3545     3493 
    3454     3431     3411     3400     3400     3389     3365     3345 
    3333     3327     3335     3353     3369     3388     3407     3420 
    3431     3433     3418     3410     3418     3412     3393     3379 
    3360     3333     3302     3262     3235     3225     3208     3184 
    3168     3161     3153     3149     3146     3148     3154     3165 
    3168     3167     3156     3136     3130     3127     3106     3071 
    3032     3003     2995     2979     2944     2916     2905     2901 
    2899     2894     2889     2898     2910     2913     2917     2929 
    2937     2933     2928     2936     2951     2956     2956     2961 
    2960     2944     2922     2909     2897     2875     2847     2824 
    2821     2833     2841     2833     2817     2801     2785     2778 
    2779     2787     2803     2824     2852     2889     2916     2928 
    2948     2988     3034     3082     3121     3144     3169     3200 
    3217     3229     3248     3267     3287     3306     3319     3334 
    3339     3326     3323     3327     3311     3294     3289     3280 
    3269     3261     3248     3235     3229     3218     3217     3219 
    3221     3238     3256     3260     3267     3273     3269     3267 
    3265     3256     3254     3254     3242     3214     3191     3176 
    3160     3149     3140     3114     3088     3064     3028     2999 
    2986     2963     2932     2903     2871     2851     2855     2855 
    2855     2866     2874     2876     2879     2882     2891     2901 
    2903     2914     2932     2949     2964     2970     2967     2972 
    2980     2987     3001     3018     3025     3025     3025     3021 
    3018     3025     3038     3055     3075     3099     3118     3137 
    3163     3183     3191     3199     3204     3215     3238     3268 
    3292     3314     3333     3345     3357     3366     3368     3372 
    3372     3366     3373     3389     3396     3389     3384     3387 
    3391     3389     3391     3397     3384     3364     3354     3333 
    3299     3279     3272     3272     3272     3252     3227     3221 
    3223     3227     3238     3253     3269     3275     3273     3276 
    3275     3275     3292     3308     3326     3349     3356     3352 
    3361     3373     3379     3389     3399     3400     3395     3379 
    3352     3326     3294     3254     3217     3187     3167     3150 
    3140     3137     3136     3125     3110     3094     3090     3109 
    3126     3122     3113     3106     3103     3118     3132     3123 
    3111     3113     3121     3125     3114     3106     3114     3122 
    3125     3132     3126     3122     3129     3130     3126     3121 
    3110     3102     3103     3103     3102     3105     3105     3098 
    3091     3088     3083     3076     3069     3057     3034     3014 
    3006     2992     2975     2963     2948     2930     2913     2887 
    2862     2845     2833     2832     2840     2845     2848     2853 
    2868     2907     2947     2959     2967     2984     3006     3026 
    3040     3046     3061     3078     3072     3060     3063     3069 
    3082     3095     3095     3096     3105     3102     3106     3127 
    3156     3187     3211     3229     3253     3280     3302     3329 
    3370     3415     3445     3465     3484     3493     3492     3493 
    3504     3514     3519     3522     3516     3508     3500     3485 
    3468     3460     3454     3443     3422     3396     3381     3376 
    3366     3357     3346     3326     3304     3284     3265     3254 
    3244     3233     3227     3219     3213     3203     3184     3160 
    3134     3113     3096     3079     3056     3032     2995     2955 
    2934     2920     2891     2866     2845     2826     2820     2821 
    2818     2822     2835     2859     2895     2914     2913     2910 
    2901     2891     2887     2879     2872     2868     2860     2855 
    2856     2862     2878     2897     2909     2916     2909     2903 
    2916     2929     2933     2943     2956     2961     2967     2978 
    2998     3025     3046     3064     3088     3123     3157     3187 
    3221     3267     3318     3365     3402     3431     3472     3519 
    3554     3581     3612     3630     3639     3654     3666     3681 
    3692     3692     3696     3701     3705     3712     3719     3727 
    3740     3748     3746     3742     3739     3727     3713     3709 
    3703     3693     3677     3647     3623     3611     3599     3585 
    3572     3551     3524     3501     3481     3469     3456     3427 
    3399     3381     3364     3338     3298     3250     3217     3194 
    3160     3121     3095     3076     3051     3026     3006     2986 
    2974     2970     2968     2970     2983     2994     3001     3024 
    3053     3073     3086     3088     3076     3064     3061     3059 
    3051     3042     3026     3006     2987     2961     2928     2899 
    2876     2856     2836     2806     2778     2772     2781     2786 
    2795     2813     2837     2870     2910     2947     2968     2987 
    3009     3025     3046     3078     3099     3109     3125     3144 
    3153     3164     3184     3196     3202     3219     3234     3241 
    3248     3265     3283     3292     3299     3311     3314     3304 
    3298     3302     3314     3323     3321     3303     3285     3275 
    3256     3231     3207     3171     3136     3114     3083     3052 
    3042     3022     2983     2955     2940     2925     2901     2872 
    2851     2828     2810     2813     2825     2835     2839     2835 
    2836     2845     2859     2875     2901     2936     2951     2944 
    2948     2967     2982     2991     3001     3011     3029     3052 
