Origin Time       2025/01/13 21:19:00
Lat.              31.8
Long.             131.6
Depth. (km)       30
Mag.              6.9
Station Code      OKYH05
Station Lat.      34.8684
Station Long.     133.8527
Station Height(m) 220
Record Time       2025/01/13 21:20:54
Sampling Freq(Hz) 100Hz
Duration Time(s)  127
Dir.              3
Scale Factor      3923(gal)/8224838
Max. Acc. (gal)   0.352
Last Correction   2025/01/13 21:20:55
Memo.             
[...]
    3586     3596     3593     3585     3576     3568     3566     3570 
    3580     3597     3611     3623     3636     3642     3639     3634 
    3616     3589     3564     3538     3516     3501     3492     3496 
    3516     3532     3549     3581     3611     3623     3635     3647 
    3647     3642     3634     3620     3604     3588     3577     3569 
    3558     3545     3538     3538     3541     3543     3543     3546 
    3555     3578     3596     3597     3591     3577     3561     3545 
    3530     3526     3531     3534     3538     3542     3542     3537 
    3524     3514     3503     3493     3492     3496     3496     3497 
    3501     3496     3478     3462     3458     3461     3473     3484 
    3493     3507     3528     3547     3557     3569     3581     3593 
    3611     3628     3646     3659     3663     3655     3645     3636 
    3635     3638     3635     3630     3632     3631     3623     3613 
    3600     3585     3573     3559     3547     3541     3537     3526 
    3516     3515     3511     3515     3532     3553     3581     3613 
    3631     3643     3661     3673     3677     3681     3693     3708 
    3719     3735     3767     3801     3824     3848     3874     3890 
    3904     3910     3913     3917     3923     3923     3917     3905 
    3886     3866     3846     3819     3796     3785     3777     3763 
    3758     3761     3758     3758     3758     3753     3743     3734 
    3731     3732     3727     3723     3720     3704     3685     3676 
    3676     3673     3666     3663     3658     3653     3653     3654 
    3654     3657     3663     3661     3654     3649     3631     3601 
    3573     3539     3497     3456     3418     3383     3352     3316 
    3280     3257     3241     3213     3179     3152     3127     3111 
    3107     3113     3123     3142     3168     3199     3233     3277 
    3331     3385     3434     3472     3493     3515     3541     3553 
    3553     3557     3555     3543     3528     3520     3519     3520 
    3527     3535     3545     3553     3559     3562     3565     3570 
    3572     3565     3559     3554     3545     3531     3524     3520 
    3507     3497     3507     3514     3519     3538     3559     3576 
    3582     3577     3573     3576     3577     3578     3578     3578 
    3591     3608     3628     3655     3685     3715     3744     3771 
    3789     3798     3808     3817     3816     3807     3794     3781 
    3775     3778     3770     3761     3761     3765     3761     3762 
    3769     3770     3777     3797     3816     3829     3843     3854 
    3861     3862     3863     3873     3886     3894     3890     3889 
    3894     3892     3879     3862     3842     3828     3811     3788 
    3765     3740     3711     3678     3653     3632     3620     3613 
    3613     3615     3613     3605     3601     3612     3619     3616 
    3620     3620     3615     3609     3599     3585     3584     3589 
    3591     3586     3580     3589     3600     3603     3620     3653 
    3676     3688     3699     3715     3732     3735     3723     3712 
    3701     3685     3669     3647     3624     3609     3582     3553 
    3534     3510     3484     3470     3464     3457     3449     3441 
    3437     3438     3435     3424     3414     3396     3370     3348 
    3333     3319     3308     3306     3308     3311     3316     3322 
    3322     3311     3291     3269     3249     3230     3217     3210 
    3206     3202     3198     3188     3180     3179     3183     3184 
    3186     3198     3217     3238     3265     3295     3333     3373 
    3406     3434     3457     3473     3487     3504     3527     3558 
    3593     3622     3657     3703     3742     3766     3792     3815 
    3824     3824     3816     3797     3782     3769     3751     3731 
    3713     3699     3689     3682     3681     3681     3685     3693 
    3696     3690     3688     3688     3688     3692     3700     3708 
    3719     3735     3753     3770     3786     3802     3815     3828 
    3842     3851     3856     3861     3862     3855     3848     3842 
    3821     3796     3770     3738     3700     3659     3609     3568 
    3527     3477     3431     3395     3362     3338     3322     3311 
    3308     3303     3299     3294     3287     3287     3292     3296 
    3296     3300     3318     3349     3377     3410     3457     3507 
    3543     3568     3581     3593     3608     3613     3611     3611 
    3605     3605     3611     3611     3619     3643     3672     3705 
    3746     3792     3839     3885     3921     3951     3971     3983 
    4000     4013     4018     4024     4036     4058     4085     4109 
    4132     4158     4175     4175     4174     4174     4168     4158 
    4140     4120     4093     4055     4008     3946     3871     3804 
    3746     3682     3616     3558     3515     3476     3430     3384 
    3357     3346     3339     3338     3350     3368     3383     3399 
    3420     3438     3450     3464     3480     3496     3522     3554 
    3582     3608     3632     3649     3665     3684     3694     3705 
    3720     3721     3719     3734     3750     3755     3767     3785 
    3790     3790     3790     3789     3792     3793     3796     3802 
    3807     3808     3804     3796     3784     3759     3724     3692 
    3659     3622     3586     3558     3534     3511     3488     3472 
    3462     3460     3461     3457     3457     3465     3474     3483 
    3488     3492     3496     3497     3496     3491     3483     3469 
    3454     3433     3404     3377     3356     3334     3307     3277 
    3250     3230     3215     3196     3177     3167     3157     3154 
    3161     3177     3208     3248     3284     3323     3360     3389 
    3424     3464     3495     3520     3555     3589     3619     3653 
    3686     3716     3744     3774     3807     3839     3869     3904 
    3937     3966     4000     4033     4062     4086     4099     4109 
    4118     4120     4113     4098     4070     4033     4004     3975 
    3936     3894     3863     3836     3809     3784     3763     3746 
    3727     3701     3676     3663     3657     3650     3649     3645 
    3643     3649     3645     3631     3622     3615     3605     3607 
    3616     3627     3643     3658     3667     3670     3672     3681 
    3684     3680     3680     3677     3667     3661     3653     3642 
    3636     3632     3620     3608     3609     3618     3623     3638 
    3659     3685     3712     3736     3759     3785     3808     3829 
    3851     3866     3875     3881     3885     3879     3862     3844 
    3827     3802     3781     3761     3738     3713     3682     3651 
    3620     3578     3522     3460     3403     3353     3299     3249 
    3217     3196     3179     3167     3165     3173     3191     3218 
    3254     3287     3308     3331     3360     3384     3406     3430 
    3456     3478     3499     3508     3515     3522     3518     3512 
    3510     3500     3481     3460     3431     3404     3383     3358 
    3337     3327     3315     3299     3288     3279     3273     3272 
    3267     3269     3281     3284     3284     3295     3310     3323 
    3342     3369     3400     3433     3466     3501     3532     3562 
    3600     3638     3676     3719     3763     3805     3852     3902 
    3942     3974     4006     4041     4075     4098     4112     4125 
    4139     4147     4151     4152     4149     4144     4143     4140 
    4136     4128     4120     4110     4094     4078     4067     4058 
    4051     4041     4032     4024     4023     4024     4027     4029 
    4032     4033     4036     4033     4027     4016     4004     3997 
    3986     3970     3958     3948     3927     3892     3852     3807 
    3744     3665     3578     3492     3404     3319     3238     3163 
    3096     3038     2994     2961     2937     2925     2920     2921 
    2925     2926     2928     2933     2947     2961     2976     2998 
    3022     3045     3071     3102     3132     3159     3181     3199 
    3211     3222     3226     3230     3231     3223     3218     3223 
    3227     3227     3233     3237     3242     3248     3250     3254 
    3261     3267     3272     3280     3291     3296     3289     3285 
    3287     3291     3300     3316     3338     3358     3376     3396 
    3408     3411     3412     3404     3389     3379     3364     3350 
    3341     3323     3307     3303     3306     3315     3330     3349 
    3370     3399     3424     3447     3470     3492     3507     3518 
    3528     3537     3547     3557     3564     3578     3605     3630 
    3651     3674     3694     3716     3732     3743     3754     3759 
    3754     3738     3715     3692     3673     3646     3608     3564 
    3526     3497     3464     3434     3415     3392     3370     3358 
    3349     3337     3331     3335     3342     3354     3376     3395 
    3418     3446     3474     3499     3518     3526     3534     3545 
    3550     3550     3549     3543     3538     3532     3524     3523 
    3532     3537     3537     3553     3578     3596     3615     3638 
    3662     3684     3701     3721     3742     3762     3790     3824 
    3858     3892     3924     3954     3982     4012     4044     4072 
    4098     4117     4131     4137     4133     4124     4108     4078 
    4047     4023     4001     3978     3948     3919     3898     3879 
    3856     3838     3817     3794     3770     3746     3720     3703 
    3689     3666     3642     3626     3611     3603     3604     3601 
    3601     3611     3620     3627     3645     3662     3673     3692 
    3716     3731     3742     3758     3774     3785     3792     3790 
    3786     3788     3784     3777     3774     3774     3778     3782 
    3786     3798     3811     3817     3828     3840     3851     3862 
    3878     3896     3916     3936     3952     3963     3969     3962 
    3946     3927     3904     3877     3850     3823     3800     3781 
    3766     3758     3758     3762     3771     3785     3804     3829 
    3855     3877     3893     3904     3913     3919     3924     3931 
    3936     3946     3958     3967     3977     3982     3977     3971 
    3970     3967     3963     3958     3959     3958     3946     3929 
    3913     3896     3879     3861     3840     3829     3821     3813 
    3805     3796     3790     3786     3778     3769     3759     3748 
    3730     3699     3667     3646     3624     3609     3607     3604 
    3605     3622     3635     3643     3658     3673     3689     3712 
    3734     3748     3762     3769     3767     3767     3773     3767 
    3748     3735     3723     3701     3674     3649     3615     3577 
    3538     3495     3443     3389     3338     3292     3254     3211 
    3168     3142     3126     3107     3094     3092     3098     3106 
    3122     3148     3177     3211     3250     3295     3341     3392 
    3447     3503     3561     3620     3672     3719     3755     3775 
    3784     3780     3761     3738     3711     3682     3650     3613 
    3581     3553     3522     3493     3462     3429     3402     3376 
    3352     3334     3319     3306     3299     3298     3302     3316 
    3343     3370     3393     3412     3433     3451     3465     3474 
    3485     3485     3476     3468     3457     3438     3426     3410 
    3391     3379     3364     3343     3334     3327     3315     3308 
    3307     3304     3303     3310     3329     3354     3384     3418 
    3449     3480     3515     3547     3578     3611     3646     3678 
    3705     3736     3769     3800     3834     3877     3925     3971 
    4017     4060     4097     4126     4147     4158     4164     4171 
    4166     4155     4155     4155     4145     4135     4124     4109 
    4089     4074     4058     4031     4000     3971     3942     3908 
    3874     3843     3815     3785     3753     3728     3707     3674 
    3639     3608     3574     3530     3487     3447     3400     3348 
    3306     3264     3219     3180     3153     3130     3107     3088 
    3076     3063     3042     3025     3010     2995     2976     2960 
    2953     2948     2941     2944     2948     2948     2957     2971 
    2975     2980     2983     2974     2967     2968     2970     2972 
    2972     2970     2975     2984     2990     3002     3015     3028 
    3041     3055     3065     3076     3091     3106     3125     3153 
    3177     3198     3223     3246     3265     3283     3306     3327 
    3349     3375     3399     3422     3445     3462     3473     3484 
    3496     3504     3505     3507     3510     3503     3493     3487 
    3470     3451     3439     3430     3426     3423     3418     3416 
    3423     3431     3438     3445     3453     3460     3461     3468 
    3478     3484     3485     3491     3505     3527     3549     3573 
    3600     3630     3658     3685     3717     3750     3780     3807 
    3831     3848     3861     3871     3881     3886     3894     3902 
    3908     3921     3935     3944     3952     3958     3960     3962 
    3964     3963     3955     3944     3939     3932     3927     3933 
    3948     3964     3981     4000     4025     4052     4075     4095 
    4117     4133     4148     4167     4183     4198     4214     4233 
    4251     4267     4287     4302     4310     4318     4329     4337 
    4344     4345     4342     4336     4325     4307     4287     4266 
    4236     4194     4155     4121     4081     4031     3978     3925 
    3871     3824     3780     3730     3676     3631     3595     3558 
    3524     3500     3478     3460     3450     3442     3431     3418 
    3402     3385     3369     3356     3345     3334     3325     3319 
    3316     3315     3318     3326     3337     3352     3370     3387 
    3407     3430     3447     3464     3485     3507     3527     3535 
    3537     3542     3547     3545     3539     3534     3523     3514 
    3503     3485     3465     3447     3430     3414     3399     3381 
    3364     3345     3326     3312     3302     3289     3288     3296 
    3303     3321     3354     3389     3424     3468     3512     3558 
    3607     3658     3709     3761     3811     3855     3898     3944 
    3987     4021     4050     4074     4094     4109     4116     4117 
    4114     4105     4089     4068     4047     4021     3986     3955 
    3931     3902     3867     3835     3807     3774     3744     3721 
    3694     3672     3655     3643     3636     3628     3613     3601 
    3595     3584     3573     3562     3557     3554     3553     3554 
    3554     3549     3541     3532     3520     3507     3500     3496 
    3488     3480     3468     3451     3434     3412     3393     3379 
    3366     3362     3364     3361     3358     3360     3361     3360 
    3364     3372     3372     3373     3376     3376     3381     3387 
    3389     3402     3422     3439     3458     3485     3516     3553 
    3597     3642     3684     3726     3765     3794     3813     3827 
    3829     3824     3819     3808     3792     3774     3762     3751 
    3732     3713     3700     3689     3678     3663     3653     3640 
    3620     3601     3584     3555     3532     3515     3493     3470 
    3451     3435     3427     3429     3438     3450     3462     3477 
    3492     3504     3514     3522     3527     3530     3528     3534 
    3549     3566     3581     3600     3626     3655     3678     3703 
    3732     3753     3773     3800     3817     3831     3847     3856 
    3865     3871     3878     3889     3894     3897     3901     3906 
    3913     3924     3937     3954     3973     3994     4017     4043 
    4068     4089     4110     4133     4149     4163     4178     4187 
    4199     4212     4221     4228     4232     4225     4217     4212 
    4201     4187     4172     4158     4140     4121     4101     4078 
    4056     4036     4014     3998     3981     3958     3940     3927 
    3910     3890     3869     3846     3815     3777     3740     3703 
    3658     3608     3562     3518     3464     3407     3354     3295 
    3231     3172     3115     3068     3032     2999     2971     2957 
    2953     2952     2959     2972     2986     3002     3019     3036 
    3052     3065     3073     3080     3092     3107     3121     3136 
    3156     3179     3204     3233     3258     3275     3287     3299 
    3300     3288     3265     3241     3214     3181     3148     3119 
    3092     3059     3030     3015     3001     2976     2960     2949 
    2930     2913     2909     2905     2899     2901     2906     2914 
    2928     2943     2961     2980     2999     3026     3052     3075 
    3095     3115     3141     3169     3191     3214     3242     3267 
    3288     3310     3330     3350     3368     3387     3414     3441 
    3468     3500     3538     3569     3600     3630     3654     3676 
    3697     3713     3732     3754     3770     3780     3788     3796 
    3800     3807     3813     3819     3828     3839     3844     3850 
    3855     3856     3862     3869     3873     3875     3875     3873 
    3865     3856     3854     3852     3848     3839     3827     3816 
    3805     3789     3771     3754     3734     3715     3696     3678 
    3663     3646     3624     3607     3589     3574     3569     3568 
    3564     3565     3570     3574     3578     3577     3570     3565 
    3564     3561     3555     3551     3549     3545     3541     3535 
    3524     3516     3510     3501     3493     3485     3480     3476 
    3470     3462     3458     3461     3464     3472     3481     3488 
    3503     3515     3524     3532     3542     3555     3568     3573 
    3581     3589     3597     3609     3624     3635     3651     3673 
    3696     3715     3730     3742     3754     3767     3780     3792 
    3798     3801     3808     3815     3816     3815     3811     3805 
    3797     3788     3778     3765     3753     3746     3734     3715 
    3697     3680     3663     3643     3620     3604     3585     3564 
    3545     3530     3511     3488     3472     3462     3453     3446 
    3441     3438     3439     3441     3445     3456     3469     3483 
    3499     3518     3535     3550     3561     3566     3570     3574 
    3574     3568     3562     3557     3549     3541     3528     3510 
    3496     3491     3478     3461     3446     3438     3431     3422 
    3416     3412     3403     3392     3385     3379     3376     3379 
    3384     3389     3400     3412     3423     3441     3454     3466 
    3489     3514     3535     3562     3589     3619     3655     3685 
    3707     3735     3766     3789     3812     3838     3862     3893 
    3927     3959     3989     4014     4033     4045     4055     4058 
    4051     4043     4036     4029     4020     4002     3982     3967 
    3951     3932     3917     3909     3897     3885     3881     3875 
    3867     3867     3863     3861     3861     3856     3844     3835 
    3825     3812     3804     3797     3784     3774     3771     3758 
    3742     3735     3724     3708     3700     3693     3685     3684 
    3689     3694     3701     3715     3731     3753     3774     3790 
