Origin Time       2025/01/13 21:19:00
Lat.              31.8
Long.             131.6
Depth. (km)       30
Mag.              6.9
Station Code      SAGH04
Station Lat.      33.3654
Station Long.     130.4046
Station Height(m) 55
Record Time       2025/01/13 21:20:04
Sampling Freq(Hz) 100Hz
Duration Time(s)  132
Dir.              4
Scale Factor      7845(gal)/8223790
Max. Acc. (gal)   1.892
Last Correction   2025/01/13 21:20:04
Memo.             
[...]
    9526     9423     9356     9354     9427     9570     9747     9892 
    9960     9940     9837     9671     9483     9306     9161     9092 
    9113     9198     9327     9478     9617     9710     9753     9767 
    9771     9759     9707     9613     9499     9405     9337     9279 
    9234     9219     9235     9261     9292     9335     9386     9441 
    9494     9545     9598     9639     9653     9636     9593     9528 
    9429     9308     9208     9161     9158     9180     9213     9243 
    9267     9292     9312     9335     9370     9418     9471     9510 
    9539     9575     9628     9679     9699     9684     9653     9620 
    9594     9587     9609     9670     9759     9850     9918     9944 
    9903     9775     9572     9343     9143     9004     8953     8999 
    9120     9281     9444     9563     9616     9601     9526     9408 
    9266     9124     9004     8932     8920     8962     9035     9120 
    9202     9269     9316     9343     9328     9263     9170     9063 
    8951     8868     8853     8937     9117     9366     9645     9909 
   10115    10238    10253    10172    10035     9891     9782     9737 
    9759     9836     9938    10019    10039     9967     9818     9645 
    9502     9417     9394     9425     9499     9583     9653     9699 
    9687     9593     9421     9193     8942     8721     8561     8479 
    8487     8588     8746     8908     9036     9099     9099     9062 
    9011     8962     8951     9003     9104     9221     9315     9347 
    9308     9223     9136     9085     9108     9224     9412     9630 
    9841    10003    10081    10054     9929     9745     9552     9385 
    9266     9217     9261     9390     9576     9753     9848     9836 
    9738     9583     9412     9265     9174     9162     9229     9350 
    9504     9683     9848     9937     9931     9846     9715     9582 
    9479     9429     9444     9514     9617     9721     9790     9788 
    9714     9602     9504     9451     9448     9494     9570     9643 
    9695     9717     9705     9674     9640     9610     9586     9578 
    9605     9679     9790     9907    10003    10062    10077    10039 
    9960     9852     9737     9633     9539     9458     9398     9360 
    9348     9367     9390     9390     9362     9305     9225     9138 
    9059     8993     8949     8920     8905     8918     8959     9008 
    9032     9015     8954     8845     8684     8496     8324     8217 
    8206     8286     8444     8665     8931     9212     9462     9641 
    9741     9771     9745     9670     9555     9440     9363     9339 
    9373     9452     9543     9609     9628     9589     9498     9363 
    9200     9054     8969     8959     9027     9159     9328     9505 
    9653     9732     9724     9640     9495     9313     9116     8923 
    8761     8695     8768     8958     9207     9447     9625     9698 
    9645     9474     9232     8985     8799     8719     8750     8868 
    9046     9250     9447     9591     9655     9641     9579     9512 
    9474     9471     9514     9602     9717     9836     9950    10054 
   10131    10165    10149    10076     9945     9767     9568     9373 
    9207     9105     9070     9100     9188     9319     9485     9659 
    9809     9919     9988    10006     9975     9909     9825     9728 
    9620     9529     9481     9472     9495     9536     9574     9582 
    9548     9475     9381     9302     9266     9262     9273     9281 
    9270     9238     9212     9227     9298     9427     9593     9774 
    9937    10050    10089    10038     9896     9699     9490     9306 
    9184     9138     9166     9256     9390     9544     9691     9813 
    9890     9900     9832     9705     9560     9458     9445     9545 
    9726     9960    10227    10486    10685    10771    10710    10500 
   10177     9798     9410     9081     8883     8838     8930     9120 
    9347     9547     9667     9663     9522     9274     8964     8652 
    8402     8276     8317     8513     8823     9202     9587     9907 
   10107    10168    10107     9946     9701     9408     9130     8930 
    8850     8896     9042     9252     9486     9695     9848     9919 
    9896     9788     9626     9455     9317     9244     9252     9350 
    9510     9680     9809     9848     9787     9660     9508     9366 
    9290     9325     9498     9786    10110    10377    10535    10551 
   10420    10170     9852     9513     9205     8977     8846     8802 
    8831     8904     8989     9085     9178     9228     9220     9165 
    9076     8977     8903     8874     8893     8942     8999     9063 
    9136     9209     9265     9296     9323     9362     9424     9510 
    9618     9720     9786     9799     9752     9660     9559     9485 
    9456     9474     9512     9535     9516     9448     9347     9239 
    9140     9065     9008     8968     8947     8950     8985     9058 
    9154     9250     9306     9298     9231     9111     8957     8810 
    8707     8681     8742     8884     9078     9282     9440     9512 
    9494     9410     9283     9139     9008     8916     8892     8954 
    9080     9228     9373     9508     9632     9736     9814     9850 
    9821     9717     9559     9402     9297     9275     9337     9462 
    9612     9755     9864     9925     9915     9826     9678     9499 
    9323     9178     9077     9012     8982     8984     8996     9000 
    9004     9035     9107     9209     9315     9404     9470     9512 
    9524     9521     9528     9549     9574     9591     9591     9566 
    9516     9466     9435     9433     9458     9486     9505     9502 
    9463     9391     9315     9254     9234     9270     9370     9520 
    9679     9799     9834     9765     9614     9413     9194     9000 
    8872     8827     8869     8974     9099     9215     9315     9386 
    9435     9475     9517     9560     9594     9603     9582     9543 
    9513     9495     9479     9470     9468     9451     9417     9385 
    9373     9398     9460     9543     9648     9769     9873     9926 
    9918     9855     9760     9674     9632     9648     9717     9826 
    9953    10066    10131    10118    10022     9864     9686     9521 
    9396     9333     9355     9460     9613     9764     9879     9931 
    9910     9815     9656     9468     9313     9240     9282     9444 
    9697     9984    10237    10380    10359    10149     9779     9335 
    8938     8684     8618     8737     8997     9320     9625     9850 
    9958     9946     9849     9698     9521     9364     9263     9238 
    9302     9451     9644     9832     9980    10064    10058     9963 
    9782     9552     9337     9186     9123     9166     9305     9502 
    9724     9933    10093    10191    10215    10173    10080     9956 
    9830     9733     9683     9671     9663     9634     9578     9475 
    9335     9181     9034     8912     8835     8820     8874     8978 
    9116     9262     9401     9532     9634     9688     9699     9679 
    9639     9589     9535     9475     9417     9362     9297     9215 
    9130     9069     9051     9073     9123     9197     9286     9375 
    9454     9512     9541     9544     9532     9506     9467     9412 
    9351     9297     9258     9220     9167     9093     8996     8887 
    8777     8679     8621     8615     8652     8727     8829     8927 
    9008     9078     9135     9188     9246     9289     9289     9246 
    9174     9089     9018     8981     8980     9000     9027     9054 
    9081     9119     9162     9204     9244     9279     9305     9325 
    9352     9390     9440     9479     9499     9518     9543     9562 
    9566     9552     9510     9448     9387     9348     9340     9366 
    9408     9445     9477     9502     9512     9509     9508     9516 
    9545     9594     9634     9651     9644     9616     9556     9460 
    9342     9223     9124     9049     8993     8970     8974     8991 
    9004     9007     8986     8942     8891     8864     8896     8996 
    9153     9325     9466     9539     9537     9478     9394     9315 
    9243     9185     9155     9162     9205     9281     9377     9486 
    9609     9734     9840     9917     9975    10022    10048    10053 
   10049    10045    10045    10046    10037    10010     9963     9873 
    9745     9616     9525     9518     9620     9809    10039    10276 
   10463    10558    10547    10440    10247    10000     9728     9444 
    9178     8961     8812     8748     8757     8807     8864     8900 
    8892     8830     8719     8584     8452     8356     8328     8378 
    8506     8699     8919     9127     9302     9435     9506     9512 
    9464     9401     9370     9405     9513     9668     9832     9967 
   10046    10053     9983     9850     9686     9524     9408     9367 
    9406     9524     9706     9902    10064    10152    10142    10045 
    9869     9634     9367     9096     8845     8656     8572     8618 
    8793     9074     9409     9733     9983    10116    10118     9999 
    9801     9576     9382     9236     9143     9111     9132     9184 
    9235     9259     9235     9162     9058     8945     8838     8756 
    8716     8743     8835     8988     9174     9356     9501     9591 
    9610     9560     9479     9406     9374     9410     9518     9671 
    9833     9973    10060    10073    10029     9965     9911     9877 
    9879     9919     9969    10000    10002     9961     9873     9748 
    9601     9447     9298     9157     9018     8881     8756     8662 
    8618     8634     8708     8827     8985     9154     9297     9413 
    9497     9539     9540     9514     9481     9458     9450     9433 
    9398     9352     9309     9289     9312     9382     9495     9637 
    9774     9864     9876     9802     9672     9543     9454     9435 
    9491     9590     9684     9740     9726     9637     9497     9340 
    9202     9123     9127     9201     9319     9458     9591     9697 
    9755     9753     9698     9609     9517     9441     9394     9377 
    9364     9336     9302     9270     9231     9181     9117     9034 
    8932     8835     8764     8723     8734     8810     8941     9111 
    9293     9454     9572     9636     9633     9574     9481     9377 
    9279     9205     9153     9108     9059     8986     8877     8748 
    8618     8509     8453     8480     8598     8802     9074     9373 
    9644     9849     9963     9963     9850     9663     9445     9251 
    9123     9073     9103     9212     9379     9583     9802    10006 
   10156    10239    10247    10170    10012     9809     9593     9385 
    9202     9070     9011     9020     9062     9104     9132     9128 
    9086     9011     8926     8857     8815     8789     8766     8756 
    8766     8795     8837     8903     9016     9189     9413     9670 
    9915    10098    10206    10243    10218    10161    10118    10129 
   10215    10366    10546    10712    10820    10828    10729    10542 
   10299    10046     9818     9640     9525     9459     9418     9381 
    9315     9196     9009     8753     8442     8116     7821     7607 
    7500     7511     7634     7844     8112     8422     8749     9065 
    9354     9601     9796     9937    10022    10081    10137    10170 
   10170    10146    10110    10072    10038    10008     9988     9983 
    9988     9985     9953     9884     9779     9644     9487     9325 
    9190     9111     9084     9097     9142     9215     9309     9416 
    9531     9649     9775     9902    10027    10143    10235    10291 
   10305    10287    10247    10195    10134    10062     9981     9904 
    9844     9811     9818     9865     9956    10081    10215    10323 
   10372    10336    10212    10027     9819     9626     9489     9423 
    9435     9514     9633     9757     9855     9894     9876     9809 
    9691     9531     9337     9128     8930     8766     8660     8626 
    8661     8757     8905     9092     9281     9443     9558     9606 
    9587     9520     9433     9344     9263     9207     9184     9186 
    9205     9220     9216     9200     9178     9163     9161     9166 
    9175     9180     9166     9139     9119     9121     9139     9153 
    9159     9150     9120     9070     9007     8946     8900     8869 
    8860     8873     8910     8989     9096     9204     9306     9396 
    9460     9516     9579     9661     9772     9910    10030    10091 
   10076     9979     9821     9647     9483     9346     9248     9209 
    9242     9348     9516     9717     9922    10100    10219    10268 
   10255    10197    10110    10010     9913     9813     9718     9632 
    9549     9479     9435     9421     9432     9462     9512     9571 
    9610     9601     9551     9468     9352     9221     9117     9074 
    9116     9263     9498     9783    10093    10401    10659    10832 
   10905    10879    10763    10588    10400    10246    10153    10138 
   10185    10251    10289    10255    10127     9910     9625     9308 
    9007     8758     8572     8452     8397     8395     8428     8476 
    8536     8588     8627     8648     8668     8711     8797     8935 
    9136     9385     9645     9879    10052    10146    10154    10077 
    9933     9757     9589     9462     9400     9412     9478     9563 
    9622     9609     9497     9283     8989     8657     8345     8094 
    7925     7847     7848     7905     7992     8075     8114     8090 
    8004     7865     7704     7560     7464     7442     7519     7703 
    7990     8357     8769     9192     9585     9907    10127    10228 
   10227    10150    10033     9926     9871     9888     9977    10111 
   10251    10355    10386    10332    10215    10064     9906     9771 
    9663     9585     9535     9491     9420     9308     9167     9016 
    8862     8707     8553     8406     8267     8148     8073     8062 
    8122     8233     8390     8586     8787     8970     9132     9270 
    9394     9516     9637     9755     9853     9919     9944     9917 
    9837     9720     9590     9460     9350     9278     9234     9204 
    9200     9228     9289     9383     9517     9684     9867    10039 
   10183    10276    10307    10276    10189    10066     9934     9805 
    9691     9609     9559     9541     9562     9613     9683     9755 
    9810     9826     9788     9697     9570     9428     9296     9193 
    9132     9123     9159     9219     9281     9347     9420     9506 
    9610     9738     9894    10058    10210    10326    10399    10413 
   10355    10228    10054     9871     9717     9609     9560     9579 
    9663     9786     9915    10030    10111    10138    10095     9987 
    9836     9657     9471     9306     9174     9089     9062     9096 
    9171     9278     9398     9506     9578     9599     9566     9483 
    9374     9251     9136     9038     8962     8928     8949     9020 
    9124     9242     9347     9420     9456     9448     9401     9332 
    9251     9165     9084     9024     9000     9016     9072     9170 
    9305     9441     9559     9649     9707     9729     9721     9694 
    9668     9666     9688     9717     9720     9675     9562     9379 
    9151     8903     8656     8444     8297     8233     8262     8375 
    8546     8727     8873     8959     8958     8862     8689     8475 
    8267     8120     8067     8113     8257     8487     8764     9051 
    9321     9541     9694     9779     9805     9787     9747     9702 
    9676     9699     9778     9887    10000    10099    10169    10189 
   10153    10069     9950     9818     9699     9618     9587     9589 
    9599     9603     9583     9524     9435     9343     9288     9288 
    9348     9456     9595     9745     9875     9973    10035    10041 
    9975     9845     9672     9485     9320     9205     9159     9190 
    9294     9455     9647     9837     9987    10081    10123    10131 
   10122    10103    10079    10060    10044    10011     9949     9853 
    9718     9543     9358     9202     9099     9047     9046     9077 
    9115     9123     9077     8978     8831     8656     8478     8313 
    8187     8118     8114     8176     8286     8411     8530     8625 
    8692     8742     8791     8864     8980     9139     9323     9512 
    9691     9845     9963    10042    10085    10100    10095    10076 
   10049    10021     9991     9972     9964     9949     9914     9861 
    9792     9710     9614     9525     9460     9429     9435     9466 
    9504     9529     9521     9471     9393     9302     9216     9157 
    9139     9169     9246     9354     9482     9620     9752     9861 
    9944     9991     9994     9957     9891     9806     9732     9680 
    9640     9593     9528     9433     9312     9184     9065     8966 
    8889     8830     8791     8766     8752     8758     8791     8841 
    8896     8942     8958     8932     8861     8749     8608     8460 
    8344     8290     8313     8411     8565     8727     8864     8961 
    9016     9047     9094     9192     9352     9572     9823    10064 
   10253    10361    10380    10328    10230    10102     9972     9869 
    9814     9819     9895    10044    10247    10473    10681    10813 
   10816    10674    10395    10012     9599     9239     8986     8870 
    8881     8986     9143     9294     9383     9387     9302     9144 
    8954     8780     8667     8634     8689     8820     8996     9180 
    9324     9398     9402     9343     9224     9073     8934     8845 
    8838     8915     9061     9248     9427     9541     9582     9559 
    9491     9402     9315     9251     9234     9267     9348     9456 
    9568     9664     9721     9732     9706     9667     9630     9610 
    9622     9668     9740     9836     9957    10083    10180    10228 
   10212    10125     9994     9871     9790     9771     9825     9929 
   10056    10168    10233    10237    10170    10019     9807     9587 
    9409     9308     9279     9313     9393     9489     9564     9590 
    9556     9481     9371     9231     9092     8964     8833     8714 
    8630     8606     8661     8804     9004     9221     9417     9562 
    9640     9643     9579     9478     9356     9224     9107     9027 
    8984     8970     8988     9028     9078     9126     9167     9208 
    9256     9323     9397     9467     9529     9582     9620     9637 
    9630     9601     9547     9468     9379     9296     9229     9188 
    9181     9208     9266     9336     9387     9406     9389     9343 
    9270     9188     9112     9054     9018     8999     8986     8973 
    8955     8919     8861     8792     8716     8633     8560     8507 
    8473     8471     8498     8552     8634     8742     8878     9042 
    9208     9364     9508     9637     9749     9845     9938    10033 
   10127    10230    10324    10384    10408    10397    10351    10292 
   10227    10142    10035     9922     9814     9718     9630     9553 
    9499     9463     9439     9437     9450     9456     9454     9428 
    9360     9247     9103     8953     8837     8787     8806     8887 
    9011     9155     9298     9408     9475     9493     9475     9448 
    9429     9435     9474     9540     9629     9730     9823     9904 
    9965     9979     9929     9836     9707     9537     9350     9186 
