Origin Time       2025/01/13 21:19:00
Lat.              31.8
Long.             131.6
Depth. (km)       30
Mag.              6.9
Station Code      SAGH02
Station Lat.      33.2656
Station Long.     129.8798
Station Height(m) 31
Record Time       2025/01/13 21:20:13
Sampling Freq(Hz) 100Hz
Duration Time(s)  167
Dir.              6
Scale Factor      7845(gal)/8223790
Max. Acc. (gal)   0.778
Last Correction   2025/01/13 21:20:14
Memo.             
[...]
   -3252    -3210    -3167    -3127    -3107    -3106    -3118    -3142 
   -3171    -3202    -3240    -3277    -3312    -3350    -3387    -3404 
   -3408    -3416    -3426    -3424    -3407    -3381    -3354    -3325 
   -3292    -3260    -3234    -3213    -3192    -3177    -3168    -3150 
   -3125    -3105    -3100    -3111    -3127    -3144    -3159    -3177 
   -3202    -3227    -3248    -3268    -3284    -3298    -3310    -3318 
   -3318    -3318    -3311    -3298    -3280    -3265    -3260    -3268 
   -3283    -3300    -3322    -3353    -3391    -3424    -3469    -3522 
   -3568    -3603    -3632    -3654    -3674    -3705    -3739    -3773 
   -3797    -3811    -3823    -3839    -3846    -3847    -3854    -3863 
   -3870    -3866    -3855    -3851    -3861    -3874    -3886    -3893 
   -3892    -3889    -3883    -3869    -3854    -3846    -3834    -3821 
   -3819    -3816    -3821    -3835    -3846    -3846    -3846    -3852 
   -3865    -3888    -3913    -3925    -3925    -3920    -3912    -3893 
   -3865    -3828    -3778    -3720    -3662    -3600    -3538    -3472 
   -3397    -3312    -3227    -3152    -3078    -3009    -2957    -2914 
   -2875    -2847    -2828    -2813    -2801    -2793    -2783    -2776 
   -2779    -2782    -2785    -2787    -2789    -2797    -2806    -2806 
   -2801    -2797    -2794    -2793    -2795    -2803    -2810    -2810 
   -2809    -2810    -2813    -2809    -2801    -2801    -2813    -2828 
   -2843    -2863    -2879    -2883    -2886    -2895    -2907    -2911 
   -2903    -2890    -2880    -2883    -2893    -2901    -2899    -2897 
   -2898    -2903    -2907    -2899    -2882    -2872    -2871    -2874 
   -2876    -2876    -2880    -2891    -2909    -2928    -2943    -2947 
   -2952    -2964    -2975    -2982    -2983    -2978    -2974    -2971 
   -2965    -2961    -2963    -2968    -2972    -2975    -2980    -2988 
   -3002    -3014    -3015    -3003    -2992    -2984    -2978    -2984 
   -3010    -3041    -3065    -3092    -3127    -3177    -3240    -3291 
   -3326    -3356    -3388    -3419    -3446    -3465    -3481    -3503 
   -3524    -3542    -3550    -3549    -3539    -3522    -3500    -3472 
   -3435    -3403    -3381    -3361    -3342    -3319    -3292    -3265 
   -3245    -3233    -3219    -3206    -3196    -3194    -3192    -3191 
   -3184    -3175    -3165    -3157    -3152    -3145    -3140    -3141 
   -3152    -3161    -3164    -3164    -3165    -3165    -3161    -3157 
   -3157    -3159    -3159    -3157    -3160    -3163    -3154    -3149 
   -3152    -3156    -3153    -3141    -3122    -3110    -3096    -3080 
   -3057    -3029    -2995    -2960    -2921    -2879    -2839    -2802 
   -2771    -2743    -2728    -2733    -2748    -2776    -2817    -2855 
   -2880    -2909    -2943    -2974    -3002    -3036    -3075    -3119 
   -3168    -3218    -3261    -3306    -3357    -3408    -3451    -3480 
   -3501    -3523    -3543    -3564    -3581    -3599    -3612    -3612 
   -3604    -3599    -3592    -3578    -3554    -3524    -3496    -3470 
   -3451    -3437    -3423    -3415    -3415    -3423    -3434    -3439 
   -3446    -3460    -3473    -3481    -3491    -3501    -3510    -3520 
   -3530    -3532    -3534    -3537    -3534    -3531    -3527    -3514 
   -3487    -3457    -3423    -3396    -3380    -3370    -3364    -3352 
   -3338    -3331    -3333    -3334    -3333    -3326    -3315    -3304 
   -3292    -3279    -3256    -3219    -3172    -3122    -3072    -3019 
   -2978    -2948    -2922    -2897    -2879    -2868    -2866    -2868 
   -2880    -2907    -2948    -2991    -3038    -3091    -3140    -3179 
   -3213    -3246    -3287    -3330    -3362    -3388    -3411    -3430 
   -3443    -3449    -3446    -3441    -3435    -3429    -3420    -3414 
   -3408    -3412    -3427    -3446    -3465    -3488    -3512    -3542 
   -3569    -3584    -3589    -3593    -3600    -3601    -3595    -3584 
   -3573    -3562    -3549    -3531    -3510    -3489    -3474    -3458 
   -3443    -3437    -3434    -3435    -3433    -3423    -3411    -3400 
   -3392    -3387    -3384    -3384    -3387    -3396    -3407    -3422 
   -3435    -3449    -3462    -3476    -3488    -3507    -3524    -3532 
   -3532    -3524    -3505    -3477    -3443    -3408    -3366    -3322 
   -3285    -3250    -3217    -3188    -3167    -3148    -3130    -3119 
   -3110    -3096    -3092    -3094    -3088    -3087    -3094    -3099 
   -3109    -3121    -3129    -3141    -3156    -3164    -3173    -3183 
   -3191    -3207    -3222    -3233    -3253    -3283    -3314    -3343 
   -3364    -3379    -3393    -3408    -3416    -3416    -3415    -3411 
   -3408    -3407    -3406    -3399    -3385    -3369    -3346    -3325 
   -3302    -3277    -3256    -3234    -3208    -3187    -3168    -3145 
   -3127    -3114    -3102    -3088    -3078    -3065    -3046    -3026 
   -3009    -2988    -2968    -2943    -2911    -2879    -2844    -2803 
   -2760    -2720    -2690    -2667    -2650    -2641    -2641    -2641 
   -2643    -2648    -2650    -2646    -2644    -2637    -2621    -2604 
   -2593    -2593    -2604    -2627    -2655    -2681    -2708    -2739 
   -2764    -2790    -2818    -2853    -2895    -2937    -2970    -2997 
   -3024    -3056    -3088    -3114    -3134    -3149    -3161    -3173 
   -3187    -3204    -3225    -3246    -3271    -3295    -3319    -3337 
   -3339    -3335    -3329    -3310    -3289    -3273    -3254    -3240 
   -3238    -3240    -3240    -3238    -3226    -3208    -3194    -3172 
   -3149    -3136    -3133    -3136    -3149    -3169    -3196    -3226 
   -3257    -3284    -3303    -3318    -3329    -3335    -3338    -3334 
   -3319    -3298    -3271    -3244    -3214    -3187    -3164    -3144 
   -3122    -3105    -3088    -3068    -3055    -3045    -3038    -3040 
   -3045    -3045    -3042    -3044    -3057    -3076    -3091    -3105 
   -3125    -3146    -3161    -3173    -3180    -3181    -3187    -3195 
   -3199    -3200    -3203    -3204    -3206    -3211    -3214    -3210 
   -3199    -3181    -3164    -3145    -3118    -3091    -3069    -3051 
   -3037    -3026    -3007    -2983    -2960    -2944    -2922    -2897 
   -2880    -2872    -2870    -2874    -2884    -2903    -2926    -2951 
   -2978    -3009    -3046    -3082    -3111    -3138    -3163    -3181 
   -3194    -3204    -3214    -3225    -3234    -3235    -3235    -3238 
   -3235    -3227    -3217    -3203    -3194    -3190    -3186    -3180 
   -3177    -3177    -3186    -3203    -3225    -3253    -3298    -3350 
   -3397    -3443    -3489    -3532    -3562    -3584    -3600    -3609 
   -3622    -3635    -3643    -3653    -3659    -3662    -3662    -3665 
   -3666    -3665    -3658    -3649    -3646    -3647    -3645    -3640 
   -3639    -3636    -3631    -3632    -3638    -3646    -3649    -3639 
   -3623    -3601    -3576    -3547    -3519    -3491    -3465    -3441 
   -3418    -3396    -3372    -3350    -3342    -3341    -3335    -3329 
   -3321    -3310    -3296    -3283    -3269    -3258    -3254    -3250 
   -3241    -3227    -3211    -3183    -3146    -3111    -3076    -3048 
   -3026    -3001    -2972    -2944    -2918    -2898    -2883    -2871 
   -2863    -2860    -2855    -2845    -2832    -2818    -2798    -2778 
   -2759    -2740    -2727    -2720    -2721    -2727    -2737    -2755 
   -2774    -2789    -2806    -2825    -2848    -2878    -2909    -2948 
   -3001    -3052    -3105    -3165    -3230    -3296    -3362    -3427 
   -3492    -3557    -3612    -3653    -3685    -3720    -3757    -3785 
   -3802    -3817    -3831    -3848    -3869    -3879    -3877    -3867 
   -3858    -3844    -3817    -3781    -3747    -3704    -3661    -3623 
   -3589    -3561    -3538    -3515    -3487    -3457    -3429    -3408 
   -3393    -3380    -3368    -3357    -3346    -3335    -3322    -3306 
   -3288    -3269    -3242    -3217    -3192    -3163    -3133    -3114 
   -3095    -3079    -3073    -3075    -3076    -3078    -3078    -3073 
   -3068    -3063    -3056    -3052    -3052    -3052    -3052    -3046 
   -3040    -3029    -3018    -3006    -2991    -2974    -2961    -2955 
   -2949    -2944    -2941    -2940    -2933    -2928    -2920    -2905 
   -2890    -2874    -2853    -2837    -2826    -2816    -2808    -2798 
   -2791    -2787    -2787    -2787    -2785    -2785    -2785    -2776 
   -2766    -2755    -2741    -2725    -2713    -2701    -2690    -2686 
   -2681    -2674    -2667    -2660    -2664    -2677    -2690    -2713 
   -2745    -2779    -2810    -2845    -2880    -2910    -2934    -2957 
   -2979    -2997    -3018    -3044    -3068    -3099    -3140    -3183 
   -3233    -3287    -3327    -3364    -3400    -3431    -3458    -3484 
   -3503    -3516    -3532    -3551    -3573    -3597    -3623    -3646 
   -3673    -3692    -3701    -3711    -3724    -3726    -3716    -3704 
   -3686    -3666    -3649    -3632    -3615    -3593    -3564    -3528 
   -3495    -3461    -3427    -3396    -3369    -3349    -3337    -3330 
   -3325    -3319    -3311    -3308    -3310    -3308    -3318    -3338 
   -3358    -3385    -3418    -3451    -3484    -3507    -3522    -3534 
   -3545    -3549    -3545    -3538    -3532    -3526    -3523    -3524 
   -3528    -3541    -3551    -3558    -3565    -3561    -3545    -3526 
   -3503    -3474    -3445    -3418    -3399    -3380    -3352    -3311 
   -3267    -3231    -3198    -3161    -3127    -3094    -3055    -3017 
   -2979    -2938    -2899    -2870    -2845    -2824    -2805    -2797 
   -2794    -2791    -2794    -2801    -2799    -2794    -2786    -2775 
   -2764    -2752    -2744    -2745    -2755    -2767    -2779    -2794 
   -2809    -2821    -2832    -2847    -2866    -2880    -2895    -2909 
   -2913    -2918    -2925    -2926    -2925    -2924    -2924    -2924 
   -2925    -2932    -2941    -2947    -2947    -2945    -2941    -2938 
   -2940    -2948    -2959    -2976    -2997    -3014    -3034    -3059 
   -3075    -3087    -3096    -3094    -3080    -3067    -3049    -3032 
   -3022    -3018    -3014    -3015    -3028    -3048    -3071    -3098 
   -3129    -3165    -3210    -3258    -3307    -3362    -3411    -3449 
   -3484    -3518    -3546    -3574    -3603    -3628    -3643    -3643 
   -3631    -3611    -3586    -3562    -3537    -3510    -3478    -3449 
   -3423    -3403    -3391    -3387    -3392    -3402    -3411    -3418 
   -3423    -3426    -3430    -3437    -3438    -3437    -3433    -3420 
   -3404    -3385    -3358    -3331    -3300    -3267    -3237    -3210 
   -3184    -3163    -3142    -3123    -3106    -3090    -3078    -3065 
   -3051    -3041    -3037    -3037    -3042    -3045    -3041    -3036 
   -3028    -3015    -3005    -2992    -2976    -2959    -2940    -2918 
   -2897    -2872    -2851    -2835    -2821    -2812    -2803    -2797 
   -2791    -2791    -2802    -2818    -2830    -2844    -2866    -2891 
   -2917    -2943    -2965    -2994    -3030    -3069    -3109    -3136 
   -3157    -3184    -3211    -3240    -3276    -3318    -3357    -3391 
   -3420    -3445    -3469    -3497    -3523    -3539    -3549    -3555 
   -3561    -3569    -3580    -3592    -3607    -3623    -3634    -3640 
   -3654    -3665    -3672    -3681    -3688    -3686    -3680    -3669 
   -3657    -3653    -3661    -3663    -3659    -3651    -3646    -3638 
   -3622    -3604    -3592    -3586    -3584    -3581    -3578    -3584 
   -3589    -3595    -3599    -3601    -3597    -3586    -3570    -3558 
   -3546    -3530    -3505    -3478    -3456    -3439    -3423    -3403 
   -3392    -3388    -3388    -3402    -3415    -3418    -3420    -3426 
   -3433    -3441    -3442    -3435    -3426    -3414    -3389    -3364 
   -3331    -3294    -3257    -3222    -3187    -3153    -3126    -3107 
   -3092    -3079    -3065    -3048    -3036    -3029    -3022    -3013 
   -3003    -2994    -2980    -2967    -2957    -2947    -2936    -2929 
   -2917    -2901    -2887    -2876    -2867    -2866    -2859    -2849 
   -2845    -2839    -2828    -2818    -2810    -2812    -2824    -2836 
   -2844    -2853    -2867    -2879    -2889    -2894    -2893    -2891 
   -2891    -2886    -2883    -2882    -2879    -2882    -2893    -2903 
   -2907    -2906    -2899    -2893    -2886    -2874    -2864    -2867 
   -2875    -2889    -2909    -2933    -2961    -2999    -3042    -3082 
   -3111    -3138    -3159    -3165    -3167    -3169    -3171    -3172 
   -3176    -3177    -3173    -3163    -3153    -3142    -3129    -3113 
   -3095    -3079    -3067    -3063    -3064    -3067    -3069    -3067 
   -3060    -3052    -3040    -3025    -3013    -2995    -2974    -2959 
   -2951    -2944    -2937    -2926    -2913    -2902    -2898    -2889 
   -2875    -2863    -2849    -2839    -2833    -2822    -2814    -2814 
   -2813    -2806    -2801    -2798    -2798    -2799    -2805    -2821 
   -2844    -2871    -2905    -2943    -2980    -3018    -3055    -3088 
   -3121    -3144    -3160    -3175    -3192    -3215    -3237    -3253 
   -3269    -3292    -3315    -3330    -3346    -3368    -3384    -3396 
   -3412    -3423    -3427    -3434    -3447    -3465    -3480    -3496 
   -3519    -3542    -3564    -3585    -3601    -3613    -3628    -3640 
   -3647    -3650    -3657    -3663    -3670    -3673    -3672    -3670 
   -3665    -3659    -3658    -3658    -3657    -3653    -3649    -3642 
   -3634    -3632    -3640    -3654    -3676    -3701    -3728    -3758 
   -3786    -3821    -3867    -3910    -3942    -3970    -3998    -4014 
   -4020    -4028    -4036    -4036    -4033    -4032    -4027    -4016 
   -4004    -3985    -3954    -3921    -3883    -3836    -3789    -3739 
   -3685    -3628    -3570    -3508    -3446    -3385    -3323    -3268 
   -3219    -3169    -3127    -3094    -3061    -3034    -3013    -2991 
   -2967    -2945    -2924    -2895    -2857    -2813    -2766    -2731 
   -2697    -2663    -2641    -2627    -2610    -2602    -2608    -2613 
   -2620    -2631    -2639    -2641    -2647    -2655    -2663    -2671 
   -2683    -2697    -2714    -2737    -2756    -2770    -2781    -2787 
   -2793    -2797    -2803    -2810    -2812    -2805    -2789    -2768 
   -2748    -2729    -2720    -2716    -2712    -2709    -2709    -2709 
   -2714    -2725    -2737    -2756    -2779    -2801    -2825    -2856 
   -2884    -2910    -2940    -2967    -2984    -2994    -3001    -3010 
   -3018    -3025    -3034    -3052    -3080    -3114    -3146    -3179 
   -3219    -3262    -3298    -3327    -3354    -3379    -3406    -3431 
   -3458    -3481    -3497    -3511    -3523    -3535    -3546    -3562 
   -3581    -3593    -3608    -3627    -3651    -3680    -3707    -3731 
   -3755    -3775    -3793    -3813    -3827    -3839    -3855    -3874 
   -3894    -3913    -3920    -3913    -3902    -3889    -3877    -3863 
   -3850    -3842    -3832    -3823    -3821    -3823    -3823    -3827 
   -3834    -3840    -3854    -3867    -3873    -3882    -3897    -3909 
   -3917    -3921    -3921    -3924    -3917    -3901    -3888    -3874 
   -3855    -3829    -3800    -3773    -3750    -3728    -3712    -3704 
   -3707    -3715    -3732    -3751    -3771    -3792    -3811    -3823 
   -3825    -3828    -3831    -3824    -3811    -3793    -3773    -3754 
   -3735    -3711    -3676    -3634    -3592    -3545    -3493    -3446 
   -3402    -3348    -3291    -3235    -3180    -3125    -3073    -3029 
   -2987    -2941    -2898    -2857    -2818    -2786    -2755    -2724 
   -2697    -2674    -2652    -2635    -2625    -2619    -2619    -2625 
   -2631    -2640    -2659    -2675    -2689    -2706    -2724    -2743 
   -2767    -2791    -2813    -2840    -2867    -2884    -2893    -2897 
   -2903    -2909    -2906    -2894    -2878    -2860    -2841    -2824 
   -2803    -2779    -2754    -2729    -2708    -2682    -2659    -2651 
   -2651    -2658    -2668    -2681    -2697    -2718    -2744    -2768 
   -2789    -2810    -2836    -2860    -2879    -2895    -2906    -2917 
   -2932    -2945    -2956    -2967    -2982    -3003    -3030    -3056 
   -3082    -3109    -3140    -3171    -3198    -3226    -3257    -3285 
   -3319    -3356    -3389    -3426    -3469    -3503    -3531    -3564 
   -3593    -3615    -3635    -3658    -3681    -3707    -3731    -3751 
   -3765    -3775    -3788    -3792    -3789    -3789    -3790    -3790 
   -3793    -3794    -3792    -3785    -3786    -3793    -3797    -3798 
   -3796    -3789    -3784    -3777    -3762    -3748    -3740    -3727 
   -3708    -3692    -3673    -3651    -3630    -3608    -3588    -3568 
   -3549    -3537    -3524    -3507    -3492    -3485    -3483    -3478 
   -3468    -3457    -3446    -3429    -3406    -3387    -3370    -3356 
   -3335    -3314    -3292    -3272    -3252    -3229    -3202    -3165 
   -3129    -3098    -3076    -3060    -3045    -3034    -3019    -2999 
   -2982    -2963    -2940    -2916    -2894    -2871    -2843    -2822 
   -2808    -2790    -2775    -2766    -2754    -2737    -2724    -2712 
   -2710    -2717    -2725    -2740    -2764    -2787    -2814    -2840 
   -2852    -2864    -2874    -2876    -2876    -2871    -2857    -2845 
   -2833    -2814    -2797    -2782    -2771    -2764    -2760    -2758 
   -2760    -2763    -2764    -2770    -2776    -2779    -2783    -2786 
   -2783    -2783    -2789    -2791    -2795    -2805    -2816    -2832 
   -2859    -2891    -2928    -2975    -3030    -3082    -3127    -3171 
   -3215    -3250    -3285    -3322    -3353    -3387    -3423    -3456 
   -3485    -3518    -3543    -3564    -3585    -3604    -3618    -3624 
   -3628    -3628    -3623    -3609    -3595    -3576    -3551    -3526 
   -3503    -3485    -3470    -3454    -3435    -3420    -3404    -3388 
   -3373    -3357    -3342    -3330    -3316    -3307    -3298    -3280 
   -3267    -3260    -3249    -3238    -3233    -3233    -3231    -3231 
   -3230    -3229    -3225    -3219    -3215    -3211    -3204    -3199 
   -3188    -3171    -3153    -3134    -3111    -3088    -3064    -3038 
   -3011    -2984    -2964    -2953    -2945    -2936    -2926    -2925 
   -2928    -2934    -2949    -2965    -2982    -3006    -3032    -3053 
   -3076    -3098    -3119    -3137    -3154    -3177    -3203    -3223 
   -3244    -3265    -3285    -3307    -3331    -3353    -3372    -3391 
   -3408    -3427    -3443    -3456    -3473    -3491    -3504    -3518 
   -3538    -3562    -3586    -3605    -3622    -3636    -3646    -3650 
   -3659    -3670    -3680    -3689    -3701    -3712    -3723    -3734 
   -3742    -3750    -3759    -3763    -3763    -3762    -3751    -3732 
   -3715    -3693    -3665    -3638    -3613    -3592    -3570    -3550 
   -3530    -3515    -3508    -3500    -3488    -3473    -3457    -3446 
   -3445    -3437    -3416    -3395    -3379    -3366    -3350    -3325 
   -3298    -3275    -3248    -3217    -3184    -3152    -3118    -3072 
   -3025    -2983    -2940    -2899    -2864    -2830    -2802    -2786 
   -2781    -2783    -2778    -2762    -2752    -2762    -2785    -2803 
   -2809    -2817    -2840    -2870    -2893    -2906    -2911    -2920 
   -2929    -2932    -2925    -2925    -2938    -2955    -2965    -2976 
   -2990    -3005    -3015    -3025    -3036    -3055    -3078    -3102 
   -3122    -3149    -3180    -3210    -3237    -3265    -3291    -3319 
   -3345    -3362    -3375    -3383    -3391    -3404    -3412    -3408 
