Origin Time       2025/01/13 21:19:00
Lat.              31.8
Long.             131.6
Depth. (km)       30
Mag.              6.9
Station Code      SAGH04
Station Lat.      33.3654
Station Long.     130.4046
Station Height(m) -145
Record Time       2025/01/13 21:20:04
Sampling Freq(Hz) 100Hz
Duration Time(s)  132
Dir.              2
Scale Factor      3923(gal)/8224838
Max. Acc. (gal)   1.304
Last Correction   2025/01/13 21:20:04
Memo.             
[...]
    -942     -978    -1017    -1042    -1046    -1024     -980     -926 
    -870     -822     -781     -749     -730     -727     -739     -766 
    -808     -858     -909     -961    -1007    -1048    -1085    -1111 
   -1125    -1132    -1140    -1165    -1209    -1270    -1339    -1410 
   -1474    -1516    -1541    -1557    -1566    -1576    -1597    -1624 
   -1661    -1702    -1734    -1765    -1794    -1811    -1806    -1775 
   -1734    -1686    -1629    -1564    -1498    -1444    -1408    -1382 
   -1355    -1321    -1287    -1252    -1216    -1189    -1174    -1167 
   -1167    -1171    -1178    -1201    -1243    -1281    -1304    -1313 
   -1312    -1302    -1293    -1283    -1281    -1283    -1277    -1256 
   -1219    -1158    -1084    -1000     -911     -838     -784     -737 
    -699     -676     -666     -668     -676     -683     -689     -711 
    -750     -793     -828     -847     -851     -842     -816     -783 
    -761     -757     -777     -822     -884     -946     -996    -1027 
   -1040    -1038    -1028    -1024    -1031    -1048    -1078    -1112 
   -1140    -1174    -1209    -1235    -1251    -1256    -1248    -1248 
   -1262    -1271    -1273    -1252    -1220    -1193    -1181    -1183 
   -1206    -1248    -1287    -1312    -1308    -1266    -1193    -1113 
   -1035     -961     -901     -861     -834     -827     -832     -835 
    -834     -823     -804     -787     -778     -774     -765     -756 
    -756     -766     -788     -812     -839     -876     -915     -955 
    -990    -1023    -1058    -1090    -1105    -1107    -1101    -1090 
   -1082    -1080    -1082    -1090    -1105    -1127    -1147    -1165 
   -1189    -1220    -1256    -1293    -1328    -1368    -1412    -1449 
   -1480    -1506    -1529    -1552    -1576    -1598    -1617    -1630 
   -1634    -1626    -1613    -1605    -1613    -1625    -1628    -1620 
   -1606    -1598    -1595    -1580    -1545    -1502    -1470    -1456 
   -1452    -1443    -1432    -1431    -1443    -1462    -1464    -1447 
   -1420    -1385    -1341    -1289    -1235    -1185    -1146    -1117 
   -1090    -1062    -1038    -1015     -988     -955     -916     -870 
    -819     -754     -675     -585     -494     -407     -332     -274 
    -236     -213     -209     -214     -220     -244     -295     -360 
    -433     -511     -587     -662     -733     -787     -824     -850 
    -866     -872     -868     -864     -858     -850     -841     -835 
    -842     -866     -895     -923     -961    -1007    -1058    -1105 
   -1142    -1171    -1200    -1217    -1225    -1225    -1229    -1237 
   -1251    -1264    -1269    -1263    -1259    -1248    -1232    -1223 
   -1217    -1217    -1225    -1237    -1244    -1244    -1240    -1228 
   -1208    -1182    -1148    -1119    -1100    -1084    -1059    -1028 
    -999     -980     -970     -973     -994    -1026    -1059    -1096 
   -1119    -1131    -1147    -1166    -1189    -1220    -1246    -1254 
   -1244    -1224    -1192    -1148    -1094    -1042     -993     -959 
    -946     -940     -934     -938     -946     -947     -950     -966 
    -985    -1003    -1017    -1019     -999     -966     -926     -874 
    -815     -753     -681     -606     -544     -494     -464     -460 
    -476     -500     -526     -557     -599     -653     -710     -770 
    -835     -908     -990    -1069    -1144    -1212    -1267    -1305 
   -1324    -1328    -1333    -1339    -1339    -1339    -1343    -1354 
   -1374    -1409    -1453    -1506    -1556    -1601    -1644    -1684 
   -1715    -1734    -1733    -1718    -1705    -1686    -1660    -1634 
   -1601    -1557    -1518    -1472    -1420    -1370    -1323    -1277 
   -1227    -1170    -1124    -1088    -1048    -1008     -969     -924 
    -880     -849     -830     -824     -841     -872     -899     -913 
    -920     -915     -901     -880     -853     -831     -824     -837 
    -861     -886     -922     -970    -1015    -1042    -1048    -1036 
   -1019    -1012    -1019    -1032    -1053    -1084    -1115    -1144 
   -1166    -1177    -1185    -1189    -1189    -1183    -1177    -1171 
   -1181    -1212    -1247    -1281    -1318    -1360    -1404    -1444 
   -1480    -1516    -1548    -1583    -1624    -1665    -1709    -1750 
   -1775    -1773    -1757    -1736    -1711    -1688    -1671    -1665 
   -1679    -1710    -1741    -1757    -1759    -1746    -1726    -1702 
   -1671    -1640    -1610    -1570    -1520    -1460    -1391    -1318 
   -1252    -1204    -1174    -1154    -1138    -1123    -1098    -1061 
   -1023     -990     -969     -957     -942     -923     -909     -905 
    -912     -919     -923     -927     -935     -957     -984    -1007 
   -1034    -1062    -1080    -1080    -1057    -1013     -966     -922 
    -880     -841     -808     -778     -747     -707     -664     -626 
    -594     -577     -580     -592     -618     -666     -727     -788 
    -842     -880     -889     -874     -839     -796     -756     -722 
    -692     -657     -618     -580     -529     -461     -390     -325 
    -270     -222     -184     -156     -133     -125     -136     -148 
    -159     -176     -189     -195     -207     -220     -228     -232 
    -241     -260     -274     -284     -305     -333     -375     -426 
    -472     -515     -558     -604     -657     -718     -788     -866 
    -957    -1054    -1143    -1223    -1302    -1378    -1448    -1513 
   -1566    -1610    -1648    -1667    -1664    -1651    -1641    -1632 
   -1628    -1633    -1649    -1665    -1682    -1692    -1688    -1668 
   -1645    -1617    -1580    -1543    -1498    -1451    -1401    -1335 
   -1256    -1165    -1059     -947     -834     -711     -587     -461 
    -341     -233     -135      -41       33       91      124      130 
     126      114       90       56       10      -43     -103     -164 
    -221     -261     -287     -301     -303     -298     -290     -286 
    -272     -244     -214     -191     -171     -153     -137     -118 
    -108     -103      -98     -108     -133     -175     -238     -313 
    -382     -449     -521     -599     -679     -757     -837     -920 
   -1012    -1113    -1223    -1354    -1498    -1645    -1794    -1933 
   -2057    -2177    -2289    -2394    -2489    -2570    -2639    -2694 
   -2732    -2754    -2760    -2751    -2729    -2708    -2685    -2664 
   -2660    -2664    -2670    -2670    -2662    -2647    -2636    -2620 
   -2590    -2544    -2492    -2434    -2369    -2303    -2241    -2176 
   -2106    -2030    -1945    -1850    -1752    -1659    -1570    -1485 
   -1414    -1356    -1309    -1270    -1237    -1213    -1201    -1189 
   -1170    -1152    -1142    -1142    -1147    -1148    -1147    -1150 
   -1156    -1158    -1154    -1150    -1155    -1183    -1233    -1306 
   -1398    -1499    -1610    -1723    -1815    -1884    -1941    -1993 
   -2034    -2057    -2068    -2076    -2083    -2085    -2079    -2062 
   -2045    -2023    -1989    -1942    -1888    -1840    -1792    -1737 
   -1669    -1595    -1514    -1426    -1336    -1248    -1171    -1104 
   -1048    -1003     -961     -920     -882     -850     -815     -764 
    -699     -625     -545     -465     -398     -353     -338     -342 
    -361     -394     -433     -477     -513     -527     -530     -534 
    -542     -546     -545     -552     -561     -583     -619     -650 
    -662     -660     -643     -623     -610     -606     -614     -635 
    -653     -660     -657     -653     -648     -650     -658     -668 
    -683     -711     -743     -777     -816     -857     -895     -931 
    -961     -985    -1008    -1027    -1038    -1039    -1032    -1026 
   -1021    -1013    -1007    -1009    -1016    -1027    -1042    -1040 
   -1024    -1001     -978     -969     -969     -981    -1009    -1050 
   -1102    -1167    -1235    -1298    -1368    -1443    -1521    -1601 
   -1672    -1732    -1772    -1783    -1764    -1728    -1679    -1620 
   -1555    -1493    -1433    -1389    -1367    -1366    -1386    -1421 
   -1460    -1506    -1561    -1610    -1648    -1683    -1710    -1728 
   -1738    -1726    -1688    -1632    -1557    -1476    -1404    -1336 
   -1277    -1228    -1190    -1158    -1129    -1093    -1048    -1007 
    -970     -927     -882     -846     -819     -800     -788     -768 
    -735     -695     -653     -606     -564     -545     -548     -568 
    -603     -645     -684     -723     -762     -791     -818     -853 
    -889     -923     -946     -955     -961     -963     -966     -980 
   -1000    -1021    -1047    -1061    -1053    -1042    -1043    -1053 
   -1070    -1097    -1132    -1173    -1213    -1239    -1243    -1240 
   -1237    -1231    -1229    -1232    -1237    -1259    -1286    -1305 
   -1320    -1325    -1317    -1300    -1271    -1231    -1185    -1139 
   -1098    -1065    -1031    -1001     -982     -966     -946     -916 
    -877     -832     -787     -743     -703     -675     -661     -660 
    -664     -669     -684     -714     -756     -814     -886     -965 
   -1043    -1125    -1194    -1242    -1279    -1312    -1347    -1378 
   -1405    -1435    -1468    -1501    -1525    -1547    -1574    -1609 
   -1653    -1709    -1764    -1821    -1880    -1931    -1976    -2018 
   -2047    -2066    -2073    -2064    -2045    -2025    -1993    -1953 
   -1908    -1857    -1809    -1775    -1752    -1738    -1742    -1757 
   -1772    -1779    -1779    -1763    -1733    -1694    -1640    -1566 
   -1480    -1389    -1296    -1204    -1117    -1044     -986     -931 
    -878     -834     -793     -754     -722     -699     -685     -685 
    -700     -719     -733     -741     -738     -723     -702     -679 
    -654     -633     -615     -599     -583     -575     -568     -554 
    -546     -557     -579     -608     -642     -677     -712     -743 
    -769     -793     -822     -853     -877     -892     -897     -900 
    -909     -927     -953     -980    -1013    -1054    -1096    -1129 
   -1163    -1198    -1242    -1289    -1344    -1413    -1494    -1579 
   -1661    -1733    -1795    -1852    -1899    -1926    -1927    -1915 
   -1890    -1842    -1777    -1702    -1614    -1516    -1417    -1321 
   -1229    -1154    -1100    -1067    -1057    -1063    -1086    -1127 
   -1178    -1237    -1298    -1363    -1426    -1476    -1512    -1529 
   -1536    -1533    -1517    -1485    -1439    -1382    -1320    -1259 
   -1194    -1123    -1048     -984     -920     -857     -797     -741 
    -688     -639     -588     -542     -513     -500     -508     -535 
    -575     -619     -669     -707     -727     -734     -729     -715 
    -700     -677     -650     -625     -606     -589     -572     -556 
    -544     -537     -531     -534     -549     -567     -584     -603 
    -618     -627     -637     -649     -666     -691     -718     -753 
    -793     -830     -862     -889     -911     -935     -966     -997 
   -1024    -1058    -1100    -1147    -1201    -1262    -1328    -1399 
   -1471    -1537    -1597    -1653    -1698    -1733    -1748    -1736 
   -1725    -1722    -1715    -1713    -1717    -1718    -1717    -1706 
   -1680    -1642    -1598    -1545    -1486    -1432    -1383    -1348 
   -1323    -1301    -1281    -1252    -1215    -1165    -1104    -1043 
    -984     -927     -869     -796     -703     -603     -500     -390 
    -282     -186     -103      -35       12       44       66       68 
      63       60       52       40       25       -2      -29      -47 
     -54      -48      -37      -28      -25      -43      -85     -149 
    -237     -338     -444     -556     -675     -796     -919    -1034 
   -1138    -1227    -1301    -1363    -1413    -1455    -1487    -1506 
   -1516    -1509    -1474    -1421    -1352    -1264    -1159    -1048 
    -946     -853     -774     -716     -676     -649     -631     -627 
    -635     -662     -708     -761     -822     -889     -962    -1040 
   -1121    -1202    -1279    -1350    -1404    -1443    -1472    -1495 
   -1512    -1528    -1537    -1530    -1505    -1466    -1413    -1354 
   -1287    -1219    -1152    -1085    -1020     -958     -891     -822 
    -760     -696     -635     -581     -535     -491     -449     -414 
    -386     -365     -360     -376     -414     -467     -541     -629 
    -716     -803     -886     -962    -1028    -1086    -1135    -1179 
   -1216    -1247    -1275    -1302    -1328    -1358    -1390    -1417 
   -1433    -1444    -1449    -1445    -1429    -1394    -1345    -1296 
   -1247    -1198    -1158    -1131    -1111    -1089    -1069    -1048 
   -1028    -1009     -986     -957     -923     -882     -830     -776 
    -726     -692     -683     -693     -724     -772     -824     -884 
    -950    -1017    -1085    -1169    -1271    -1383    -1499    -1617 
   -1734    -1846    -1948    -2035    -2118    -2195    -2265    -2317 
   -2365    -2423    -2490    -2563    -2643    -2720    -2793    -2863 
   -2920    -2960    -2991    -3011    -3015    -3003    -2978    -2940 
   -2898    -2847    -2786    -2713    -2627    -2532    -2430    -2315 
   -2189    -2058    -1941    -1838    -1742    -1657    -1586    -1522 
   -1464    -1417    -1379    -1341    -1305    -1262    -1210    -1154 
   -1096    -1039     -985     -934     -882     -827     -769     -710 
    -650     -589     -527     -464     -391     -299     -201      -91 
      31      172      329      498      665      823      974     1120 
    1244     1344     1431     1506     1566     1609     1633     1632 
    1610     1574     1521     1451     1370     1289     1208     1120 
    1024      922      814      707      598      480      353      217 
      68      -82     -228     -378     -519     -649     -770     -891 
   -1011    -1139    -1273    -1404    -1526    -1647    -1759    -1857 
   -1950    -2045    -2131    -2211    -2281    -2324    -2350    -2367 
   -2376    -2377    -2373    -2359    -2338    -2307    -2265    -2209 
   -2141    -2069    -1993    -1922    -1863    -1811    -1769    -1744 
   -1725    -1709    -1706    -1707    -1709    -1709    -1710    -1730 
   -1775    -1834    -1919    -2027    -2145    -2269    -2386    -2494 
   -2590    -2664    -2721    -2766    -2797    -2821    -2851    -2899 
   -2968    -3064    -3184    -3319    -3462    -3597    -3704    -3778 
   -3813    -3797    -3738    -3645    -3522    -3375    -3213    -3046 
   -2879    -2710    -2539    -2366    -2199    -2037    -1876    -1717 
   -1566    -1428    -1301    -1192    -1094     -999     -908     -822 
    -734     -652     -585     -526     -475     -441     -411     -372 
    -329     -282     -233     -180     -124      -76      -35       13 
      67      122      179      234      290      341      387      430 
     461      481      495      502      507      506      507      519 
     545      583      631      685      735      777      810      824 
     824      816      795      757      710      656      587      508 
     425      336      244      144       35      -82     -201     -314 
    -418     -518     -612     -696     -776     -857     -940    -1023 
   -1102    -1171    -1223    -1259    -1286    -1316    -1348    -1383 
   -1426    -1472    -1505    -1521    -1525    -1517    -1510    -1498 
   -1478    -1452    -1420    -1381    -1341    -1301    -1266    -1242 
   -1217    -1181    -1140    -1100    -1061    -1026     -994     -961 
    -928     -904     -888     -877     -873     -876     -886     -899 
    -905     -908     -896     -868     -842     -815     -791     -785 
    -799     -820     -851     -897     -959    -1031    -1109    -1194 
   -1283    -1379    -1482    -1584    -1691    -1800    -1910    -2020 
   -2127    -2232    -2349    -2475    -2612    -2752    -2891    -3025 
   -3140    -3229    -3298    -3352    -3396    -3431    -3464    -3487 
   -3488    -3466    -3427    -3366    -3281    -3179    -3065    -2947 
   -2829    -2720    -2604    -2475    -2335    -2184    -2022    -1856 
   -1688    -1522    -1371    -1231    -1098     -982     -881     -783 
    -688     -600     -510     -411     -311     -205      -91       18 
     125      228      318      392      449      483      506      526 
     541      548      545      529      503      468      421      365 
     301      230      160       86       14      -41      -86     -120 
    -144     -167     -193     -226     -274     -329     -388     -459 
    -531     -604     -685     -765     -839     -918    -1000    -1078 
   -1142    -1189    -1217    -1224    -1208    -1174    -1125    -1069 
   -1001     -930     -859     -792     -733     -680     -630     -584 
    -546     -513     -484     -459     -434     -415     -399     -384 
    -379     -379     -384     -398     -410     -415     -413     -398 
    -373     -344     -313     -290     -278     -282     -313     -369 
    -442     -522     -607     -697     -792     -886     -980    -1070 
   -1152    -1223    -1283    -1340    -1395    -1451    -1510    -1575 
   -1645    -1721    -1798    -1871    -1935    -1985    -2020    -2047 
   -2065    -2064    -2046    -2014    -1962    -1899    -1830    -1759 
   -1696    -1634    -1582    -1544    -1512    -1489    -1483    -1489 
   -1499    -1509    -1516    -1520    -1516    -1509    -1507    -1507 
   -1501    -1486    -1466    -1448    -1429    -1401    -1364    -1317 
   -1259    -1190    -1105    -1008     -909     -814     -724     -648 
    -587     -537     -494     -459     -427     -396     -372     -356 
    -342     -334     -336     -342     -355     -375     -406     -440 
    -473     -507     -526     -525     -515     -496     -469     -438 
    -402     -364     -328     -290     -259     -233     -211     -203 
    -205     -206     -210     -216     -228     -256     -306     -378 
    -465     -560     -657     -754     -845     -927     -999    -1059 
   -1115    -1162    -1201    -1233    -1256    -1275    -1302    -1337 
   -1378    -1424    -1480    -1539    -1586    -1626    -1653    -1659 
   -1649    -1633    -1613    -1590    -1571    -1552    -1532    -1512 
   -1493    -1470    -1440    -1406    -1364    -1318    -1273    -1232 
   -1197    -1173    -1165    -1161    -1150    -1135    -1104    -1058 
   -1007     -955     -907     -865     -831     -803     -778     -757 
    -741     -743     -764     -797     -841     -893     -958    -1038 
   -1120    -1202    -1287    -1370    -1455    -1545    -1634    -1728 
   -1822    -1912    -2003    -2097    -2184    -2266    -2349    -2421 
   -2479    -2524    -2556    -2577    -2585    -2583    -2573    -2555 
   -2529    -2501    -2467    -2427    -2381    -2335    -2288    -2239 
   -2185    -2120    -2046    -1960    -1864    -1775    -1699    -1636 
   -1594    -1566    -1540    -1521    -1503    -1490    -1478    -1462 
   -1437    -1408    -1364    -1304    -1229    -1140    -1039     -938 
    -846     -758     -681     -618     -562     -515     -473     -430 
    -395     -367     -342     -328     -328     -346     -372     -406 
    -450     -499     -548     -598     -650     -711     -776     -841 
    -899     -942     -967     -982     -990     -992     -999    -1016 
   -1043    -1084    -1132    -1182    -1228    -1269    -1302    -1317 
   -1306    -1277    -1227    -1156    -1075     -989     -905     -837 
