Origin Time       2025/01/13 21:19:00
Lat.              31.8
Long.             131.6
Depth. (km)       30
Mag.              6.9
Station Code      SAGH03
Station Lat.      33.4098
Station Long.     130.2329
Station Height(m) 375
Record Time       2025/01/13 21:20:33
Sampling Freq(Hz) 100Hz
Duration Time(s)  120
Dir.              5
Scale Factor      7845(gal)/8223790
Max. Acc. (gal)   1.731
Last Correction   2025/01/13 21:20:33
Memo.             
[...]
    7592     7380     7213     7145     7207     7384     7624     7888 
    8145     8367     8517     8563     8496     8332     8100     7830 
    7565     7350     7219     7202     7304     7507     7774     8046 
    8260     8380     8406     8371     8317     8267     8243     8253 
    8289     8309     8249     8075     7793     7468     7187     7018 
    7010     7161     7419     7708     7962     8143     8248     8303 
    8329     8309     8221     8078     7921     7801     7751     7767 
    7817     7861     7869     7850     7821     7777     7716     7655 
    7618     7614     7636     7672     7711     7759     7815     7866 
    7889     7881     7854     7827     7819     7843     7894     7952 
    7983     7967     7897     7794     7684     7584     7492     7404 
    7335     7323     7395     7558     7782     8017     8225     8371 
    8434     8433     8402     8376     8375     8387     8379     8341 
    8278     8178     8033     7854     7663     7485     7342     7269 
    7294     7396     7541     7692     7803     7855     7842     7750 
    7585     7398     7241     7157     7163     7245     7376     7522 
    7645     7726     7757     7742     7709     7693     7715     7774 
    7852     7927     7996     8058     8087     8066     7987     7861 
    7707     7561     7460     7437     7520     7715     7992     8297 
    8571     8757     8818     8743     8544     8259     7956     7704 
    7542     7479     7501     7592     7715     7823     7881     7884 
    7842     7782     7746     7778     7900     8079     8256     8370 
    8375     8252     8029     7773     7554     7429     7422     7515 
    7661     7809     7905     7908     7836     7713     7542     7356 
    7199     7109     7114     7217     7407     7651     7889     8066 
    8149     8132     8029     7888     7769     7724     7780     7932 
    8159     8406     8602     8698     8677     8557     8372     8181 
    8036     7956     7931     7920     7884     7804     7688     7545 
    7398     7264     7164     7132     7199     7373     7631     7917 
    8160     8306     8321     8209     8023     7839     7707     7647 
    7634     7628     7609     7578     7562     7584     7642     7713 
    7767     7781     7753     7701     7669     7696     7793     7927 
    8066     8191     8289     8348     8363     8311     8195     8036 
    7870     7735     7668     7674     7722     7759     7743     7668 
    7570     7489     7441     7434     7465     7523     7596     7672 
    7735     7778     7797     7798     7808     7855     7944     8055 
    8156     8224     8225     8147     8006     7842     7708     7645 
    7653     7720     7834     7970     8089     8148     8122     8023 
    7884     7731     7588     7492     7484     7578     7766     8023 
    8290     8514     8656     8691     8613     8438     8202     7956 
    7751     7627     7592     7626     7685     7724     7720     7678 
    7616     7572     7582     7669     7811     7940     8008     8000 
    7925     7820     7723     7665     7663     7711     7785     7866 
    7938     7977     7983     7959     7898     7823     7757     7730 
    7759     7820     7877     7920     7943     7944     7948     7966 
    7989     8012     8025     8019     7998     7969     7924     7877 
    7842     7827     7838     7877     7940     8012     8070     8079 
    8012     7888     7754     7658     7614     7608     7612     7605 
    7585     7560     7551     7592     7693     7840     8009     8172 
    8307     8413     8487     8510     8448     8293     8081     7866 
    7688     7573     7528     7545     7600     7677     7762     7854 
    7947     8020     8060     8081     8089     8097     8114     8136 
    8152     8156     8135     8064     7936     7769     7597     7465 
    7412     7447     7546     7651     7709     7697     7620     7512 
    7419     7380     7420     7539     7699     7852     7971     8036 
    8047     8017     7966     7916     7874     7851     7859     7906 
    7970     7997     7955     7835     7647     7429     7237     7130 
    7142     7271     7477     7722     7958     8140     8245     8268 
    8214     8104     7960     7823     7728     7699     7731     7811 
    7915     8009     8068     8083     8059     8001     7919     7827 
    7757     7734     7755     7797     7842     7885     7929     7979 
    8044     8129     8233     8344     8441     8495     8484     8410 
    8284     8121     7932     7735     7557     7439     7403     7434 
    7503     7589     7685     7784     7875     7962     8029     8060 
    8040     7959     7823     7658     7500     7376     7308     7296 
    7322     7365     7414     7466     7524     7599     7690     7792 
    7890     7966     8006     8017     8006     7987     7977     7977 
    7977     7969     7966     7990     8046     8127     8213     8275 
    8294     8263     8171     8013     7824     7657     7537     7474 
    7458     7479     7528     7599     7685     7796     7920     8027 
    8106     8163     8187     8175     8141     8094     8027     7931 
    7786     7596     7406     7263     7194     7209     7299     7457 
    7681     7960     8262     8522     8683     8707     8595     8378 
    8112     7862     7680     7582     7574     7647     7769     7913 
    8050     8148     8206     8240     8256     8243     8197     8113 
    7979     7808     7624     7430     7222     7014     6835     6717 
    6698     6814     7056     7372     7707     8001     8209     8314 
    8324     8247     8106     7933     7763     7641     7604     7651 
    7742     7835     7898     7925     7933     7933     7950     8012 
    8140     8321     8519     8692     8800     8815     8727     8549 
    8310     8058     7855     7746     7738     7815     7936     8044 
    8093     8048     7909     7701     7469     7272     7152     7111 
    7141     7226     7353     7506     7674     7844     7996     8104 
    8149     8141     8106     8068     8046     8056     8095     8140 
    8175     8185     8154     8091     8016     7936     7865     7820 
    7801     7800     7819     7852     7865     7825     7716     7555 
    7391     7280     7258     7333     7485     7677     7851     7967 
    8021     8033     8027     8019     8027     8041     8039     8002 
    7919     7792     7642     7495     7375     7308     7325     7434 
    7618     7842     8082     8313     8514     8677     8789     8837 
    8803     8694     8527     8333     8148     8004     7906     7847 
    7793     7712     7605     7518     7488     7522     7600     7690 
    7771     7836     7870     7865     7831     7767     7665     7531 
    7398     7291     7231     7230     7280     7362     7442     7489 
    7495     7480     7468     7461     7473     7520     7584     7632 
    7654     7658     7658     7654     7657     7690     7765     7879 
    8032     8199     8359     8475     8515     8490     8414     8298 
    8156     8000     7831     7669     7546     7492     7515     7593 
    7693     7771     7800     7784     7742     7686     7626     7562 
    7499     7457     7461     7514     7592     7659     7690     7680 
    7646     7623     7638     7700     7797     7900     7974     8008 
    7993     7928     7827     7705     7592     7508     7466     7472 
    7510     7564     7616     7647     7654     7641     7611     7574 
    7550     7558     7620     7740     7892     8036     8149     8221 
    8243     8217     8149     8036     7886     7711     7526     7368 
    7280     7288     7384     7531     7681     7790     7844     7859 
    7867     7898     7956     8014     8044     8024     7951     7835 
    7699     7574     7493     7462     7473     7518     7589     7674 
    7747     7782     7777     7740     7708     7726     7832     8027 
    8263     8476     8627     8700     8689     8614     8496     8357 
    8209     8060     7921     7812     7739     7708     7723     7777 
    7855     7956     8090     8256     8417     8532     8569     8506 
    8337     8100     7838     7604     7442     7364     7360     7410 
    7491     7584     7674     7750     7804     7854     7902     7950 
    7996     8043     8093     8140     8160     8137     8083     8017 
    7954     7905     7874     7870     7909     7983     8052     8093 
    8089     8039     7955     7859     7766     7701     7693     7751 
    7850     7956     8037     8068     8041     7973     7889     7819 
    7788     7809     7875     7987     8140     8299     8426     8500 
    8526     8514     8467     8394     8321     8260     8190     8086 
    7946     7786     7623     7466     7338     7254     7231     7273 
    7368     7497     7643     7789     7917     8012     8047     8010 
    7915     7782     7631     7477     7339     7231     7165     7152 
    7198     7292     7412     7545     7677     7805     7931     8058 
    8183     8295     8371     8392     8352     8262     8141     8009 
    7885     7780     7699     7632     7576     7528     7501     7488 
    7483     7472     7445     7415     7395     7399     7433     7488 
    7557     7627     7672     7674     7642     7588     7526     7457 
    7385     7325     7291     7302     7366     7484     7647     7823 
    7966     8047     8056     7996     7890     7782     7700     7659 
    7670     7731     7825     7940     8055     8155     8218     8236 
    8222     8202     8189     8185     8190     8199     8203     8194 
    8163     8116     8055     7982     7909     7869     7886     7960 
    8083     8233     8375     8482     8540     8541     8490     8386 
    8243     8085     7942     7846     7824     7881     7989     8102 
    8179     8181     8105     7990     7875     7796     7762     7750 
    7732     7697     7645     7588     7557     7569     7630     7727 
    7850     7985     8122     8253     8361     8424     8410     8332 
    8210     8067     7912     7758     7609     7481     7391     7353 
    7373     7452     7573     7722     7877     8009     8091     8108 
    8050     7925     7753     7557     7375     7234     7155     7145 
    7200     7302     7419     7531     7622     7686     7727     7755 
    7781     7798     7794     7755     7695     7631     7581     7568 
    7608     7703     7843     8020     8208     8376     8494     8526 
    8465     8321     8118     7893     7678     7488     7341     7245 
    7191     7188     7238     7333     7454     7582     7697     7784 
    7843     7870     7863     7820     7732     7604     7454     7302 
    7167     7069     7015     7003     7029     7091     7204     7381 
    7601     7831     8021     8128     8136     8059     7931     7793 
    7677     7596     7549     7539     7576     7657     7763     7866 
    7956     8036     8109     8189     8283     8380     8464     8515 
    8522     8479     8403     8326     8275     8267     8313     8398 
    8500     8611     8725     8826     8903     8946     8955     8939 
    8901     8845     8780     8699     8598     8478     8337     8191 
    8063     7954     7851     7743     7611     7456     7279     7094 
    6936     6824     6756     6733     6755     6816     6903     7003 
    7092     7156     7195     7223     7260     7325     7408     7493 
    7569     7632     7695     7765     7842     7931     8036     8145 
    8247     8341     8422     8480     8500     8469     8384     8263 
    8127     8008     7929     7893     7898     7927     7962     8005 
    8048     8078     8087     8062     8001     7916     7821     7742 
    7689     7647     7592     7507     7391     7271     7183     7155 
    7209     7329     7479     7630     7754     7831     7862     7866 
    7852     7831     7805     7777     7743     7705     7668     7626 
    7576     7537     7538     7581     7672     7820     8016     8235 
    8448     8621     8723     8725     8611     8387     8073     7711 
    7357     7067     6879     6810     6864     7025     7267     7554 
    7854     8131     8348     8484     8533     8496     8382     8193 
    7939     7643     7346     7095     6921     6840     6864     6995 
    7213     7484     7777     8055     8275     8402     8413     8309 
    8118     7884     7645     7433     7264     7145     7084     7090 
    7155     7267     7410     7568     7722     7858     7982     8106 
    8229     8340     8429     8483     8499     8472     8397     8289 
    8172     8056     7959     7911     7925     8002     8132     8301 
    8476     8621     8715     8749     8727     8673     8599     8506 
    8405     8306     8221     8159     8117     8089     8060     8021 
    7962     7888     7816     7761     7739     7762     7817     7871 
    7908     7923     7929     7943     7971     8009     8055     8109 
    8167     8232     8306     8382     8455     8514     8544     8530 
    8472     8384     8284     8183     8095     8031     8000     8019 
    8089     8190     8307     8409     8461     8448     8364     8218 
    8036     7846     7666     7503     7350     7207     7068     6949 
    6882     6891     6995     7188     7453     7747     8033     8282 
    8460     8544     8517     8380     8151     7859     7542     7244 
    6998     6818     6717     6694     6744     6866     7051     7275 
    7508     7722     7884     7960     7944     7843     7669     7438 
    7171     6890     6617     6374     6177     6053     6029     6122 
    6328     6621     6957     7291     7581     7803     7939     7989 
    7960     7863     7715     7554     7435     7391     7427     7533 
    7689     7866     8032     8172     8286     8371     8414     8407 
    8368     8336     8333     8374     8456     8546     8594     8572 
    8476     8317     8129     7955     7830     7763     7740     7751 
    7797     7869     7952     8047     8149     8248     8340     8426 
    8495     8537     8519     8417     8229     7971     7669     7379 
    7153     7024     6991     7040     7141     7265     7393     7520 
    7647     7766     7862     7920     7925     7888     7812     7709 
    7603     7522     7477     7480     7539     7653     7800     7970 
    8140     8289     8398     8455     8459     8421     8340     8221 
    8085     7946     7825     7742     7699     7704     7757     7850 
    7971     8106     8239     8361     8467     8540     8575     8575 
    8548     8495     8419     8324     8218     8113     8025     7979 
    7992     8048     8135     8229     8310     8364     8376     8355 
    8330     8328     8337     8341     8334     8302     8235     8135 
    8023     7917     7832     7782     7784     7832     7912     8005 
    8098     8172     8214     8221     8203     8185     8175     8172 
    8172     8172     8158     8122     8075     8037     8021     8035 
    8090     8164     8228     8274     8286     8251     8176     8090 
    8024     7989     7986     8009     8035     8027     7960     7842 
    7685     7514     7366     7272     7238     7253     7296     7349 
    7393     7411     7408     7411     7430     7462     7510     7566 
    7624     7680     7732     7776     7803     7805     7773     7709 
    7641     7605     7630     7723     7869     8033     8183     8293 
    8348     8343     8282     8187     8068     7932     7796     7670 
    7564     7479     7407     7342     7269     7188     7118     7083 
    7106     7188     7329     7504     7674     7808     7888     7897 
    7842     7738     7599     7450     7325     7245     7229     7290 
    7412     7574     7754     7924     8068     8187     8280     8349 
    8388     8405     8411     8415     8417     8405     8372     8310 
    8224     8136     8063     8021     8020     8052     8104     8158 
    8194     8206     8197     8167     8125     8077     8037     8023 
    8028     8037     8041     8024     7970     7873     7751     7626 
    7519     7452     7423     7419     7427     7443     7461     7484 
    7518     7554     7588     7609     7608     7577     7528     7472 
    7420     7380     7348     7321     7299     7283     7280     7292 
    7318     7360     7416     7474     7519     7543     7547     7531 
    7495     7449     7411     7389     7392     7434     7514     7616 
    7719     7803     7854     7871     7865     7844     7812     7778 
    7759     7751     7751     7763     7786     7808     7820     7827 
    7831     7823     7798     7751     7678     7589     7496     7415 
    7361     7327     7299     7265     7226     7180     7153     7168 
    7229     7335     7470     7601     7720     7815     7874     7896 
    7877     7815     7732     7657     7607     7597     7630     7685 
    7744     7789     7813     7825     7838     7855     7898     7974 
    8079     8214     8361     8496     8604     8683     8721     8712 
    8665     8581     8471     8359     8266     8198     8156     8124 
    8085     8028     7948     7859     7784     7732     7715     7732 
    7774     7816     7832     7809     7738     7622     7485     7356 
    7250     7176     7130     7090     7034     6966     6890     6817 
    6777     6785     6843     6957     7128     7327     7531     7723 
    7886     8002     8066     8082     8063     8017     7965     7928 
    7909     7909     7931     7982     8070     8190     8324     8453 
    8556     8619     8638     8630     8618     8615     8641     8692 
    8752     8806     8831     8814     8758     8665     8541     8410 
    8283     8167     8073     8000     7947     7909     7888     7890 
    7923     7975     8043     8122     8199     8262     8302     8310 
    8283     8220     8120     8001     7877     7770     7700     7670 
    7666     7681     7722     7785     7871     7966     8041     8077 
    8051     7954     7805     7631     7452     7295     7179     7106 
    7096     7160     7281     7449     7635     7798     7920     7985 
    7985     7940     7855     7726     7564     7392     7231     7099 
    7022     7024     7098     7229     7399     7584     7754     7892 
    7990     8041     8048     8028     7990     7939     7885     7827 
    7763     7695     7627     7566     7530     7533     7573     7651 
    7765     7897     8035     8156     8236     8270     8249     8168 
    8048     7911     7767     7646     7564     7530     7566     7666 
    7797     7947     8085     8179     8226     8226     8175     8077 
    7947     7800     7650     7506     7376     7275     7207     7165 
    7141     7132     7130     7138     7164     7213     7290     7392 
    7520     7668     7823     7977     8120     8233     8309     8344 
    8341     8307     8255     8193     8137     8102     8093     8104 
    8132     8175     8225     8279     8344     8421     8511     8606 
    8672     8684     8619     8464     8230     7940     7627     7352 
    7161     7079     7114     7253     7461     7692     7896     8033 
    8089     8055     7940     7763     7558     7354     7176     7042 
    6959     6929     6951     7007     7095     7222     7387     7585 
    7815     8059     8298     8513     8675     8750     8723     8604 
    8409     8159     7901     7684     7541     7495     7546     7677 
