Origin Time       2025/01/13 21:19:00
Lat.              31.8
Long.             131.6
Depth. (km)       30
Mag.              6.9
Station Code      SAGH02
Station Lat.      33.2656
Station Long.     129.8798
Station Height(m) 31
Record Time       2025/01/13 21:20:13
Sampling Freq(Hz) 100Hz
Duration Time(s)  167
Dir.              4
Scale Factor      7845(gal)/8223790
Max. Acc. (gal)   1.232
Last Correction   2025/01/13 21:20:14
Memo.             
[...]
    4178     4106     4070     4067     4087     4116     4133     4125 
    4090     4039     3983     3942     3924     3935     3970     4017 
    4055     4068     4060     4039     4018     4017     4051     4120 
    4205     4278     4325     4330     4294     4233     4183     4171 
    4209     4283     4360     4418     4448     4445     4421     4401 
    4396     4415     4460     4514     4552     4557     4525     4461 
    4379     4302     4249     4222     4230     4268     4309     4333 
    4332     4303     4251     4185     4126     4089     4068     4059 
    4060     4070     4079     4086     4090     4098     4117     4151 
    4205     4266     4320     4359     4376     4361     4330     4295 
    4255     4216     4187     4166     4152     4140     4126     4106 
    4072     4032     3994     3963     3940     3932     3933     3944 
    3964     3990     4016     4044     4070     4102     4148     4195 
    4237     4270     4295     4329     4379     4442     4499     4527 
    4515     4465     4382     4272     4162     4074     4009     3970 
    3950     3933     3910     3877     3835     3782     3732     3703 
    3703     3739     3801     3873     3940     3981     3994     3989 
    3975     3977     4009     4064     4128     4186     4222     4222 
    4205     4189     4190     4221     4274     4333     4398     4460 
    4509     4534     4536     4509     4444     4345     4236     4129 
    4040     3985     3964     3969     3975     3974     3962     3943 
    3916     3890     3870     3856     3855     3866     3885     3905 
    3923     3943     3973     4010     4050     4083     4102     4102 
    4086     4068     4063     4074     4108     4159     4216     4256 
    4266     4228     4152     4072     4018     4008     4052     4140 
    4241     4333     4398     4426     4423     4395     4360     4338 
    4338     4363     4402     4441     4468     4468     4444     4414 
    4387     4376     4395     4433     4479     4525     4561     4571 
    4553     4511     4449     4383     4326     4278     4234     4201 
    4167     4122     4059     3979     3888     3784     3684     3603 
    3538     3484     3450     3437     3446     3476     3526     3588 
    3650     3701     3746     3790     3844     3913     3996     4079 
    4149     4194     4212     4203     4172     4133     4102     4090 
    4109     4156     4222     4294     4355     4394     4401     4372 
    4324     4261     4202     4163     4152     4170     4214     4266 
    4307     4334     4340     4332     4329     4338     4363     4401 
    4440     4465     4471     4444     4383     4299     4205     4112 
    4035     3989     3989     4037     4120     4209     4288     4342 
    4353     4325     4274     4209     4141     4085     4033     3977 
    3917     3856     3800     3759     3744     3754     3782     3834 
    3894     3954     3993     4004     3993     3981     3977     3990 
    4029     4089     4162     4237     4307     4363     4398     4414 
    4415     4413     4415     4429     4450     4479     4511     4545 
    4581     4625     4671     4719     4772     4815     4834     4828 
    4792     4729     4664     4608     4563     4530     4511     4491 
    4461     4419     4365     4299     4234     4182     4145     4132 
    4136     4140     4135     4114     4072     4013     3956     3919 
    3906     3921     3962     4010     4047     4067     4068     4056 
    4047     4050     4077     4125     4178     4220     4232     4205 
    4145     4068     3998     3958     3952     3977     4021     4067 
    4090     4093     4085     4074     4079     4102     4133     4162 
    4178     4176     4152     4109     4064     4040     4048     4095 
    4167     4253     4332     4380     4394     4375     4332     4295 
    4282     4293     4338     4406     4468     4509     4515     4491 
    4444     4388     4348     4336     4342     4360     4378     4384 
    4387     4386     4374     4365     4367     4369     4368     4365 
    4360     4349     4341     4334     4328     4320     4314     4313 
    4313     4322     4336     4348     4352     4338     4303     4237 
    4147     4051     3958     3877     3820     3780     3757     3755 
    3775     3813     3856     3892     3912     3915     3901     3874 
    3843     3816     3797     3794     3809     3836     3858     3866 
    3856     3835     3817     3820     3848     3893     3940     3971 
    3977     3955     3917     3877     3839     3815     3813     3829 
    3867     3927     3996     4067     4136     4186     4218     4249 
    4284     4318     4349     4361     4348     4311     4260     4207 
    4171     4160     4170     4185     4190     4179     4151     4109 
    4068     4050     4064     4104     4145     4174     4175     4153 
    4122     4097     4086     4098     4128     4158     4171     4153 
    4097     4009     3910     3829     3784     3773     3786     3798 
    3788     3736     3649     3551     3478     3460     3496     3572 
    3665     3750     3811     3856     3893     3932     3987     4059 
    4122     4162     4172     4147     4086     4006     3939     3908 
    3917     3963     4033     4104     4153     4175     4158     4105 
    4036     3962     3898     3866     3870     3901     3954     4002 
    4028     4017     3969     3898     3828     3782     3773     3798 
    3850     3912     3970     4009     4024     4027     4037     4067 
    4124     4205     4294     4371     4405     4386     4325     4244 
    4168     4132     4144     4187     4239     4267     4248     4180 
    4077     3963     3866     3805     3796     3825     3879     3929 
    3952     3952     3944     3947     3981     4047     4139     4237 
    4315     4363     4369     4337     4282     4225     4187     4185 
    4224     4290     4353     4391     4384     4328     4230     4117 
    4009     3933     3905     3919     3971     4052     4145     4236 
    4321     4396     4460     4515     4568     4617     4661     4711 
    4768     4834     4912     4989     5046     5066     5039     4955 
    4839     4718     4607     4526     4487     4479     4486     4491 
    4490     4483     4473     4471     4484     4511     4552     4600 
    4646     4685     4715     4735     4743     4741     4729     4711 
    4689     4662     4625     4572     4503     4419     4333     4270 
    4248     4280     4357     4459     4560     4626     4637     4588 
    4496     4384     4282     4220     4209     4248     4329     4433 
    4541     4627     4683     4699     4679     4629     4564     4503 
    4459     4434     4432     4441     4444     4428     4387     4318 
    4230     4145     4079     4039     4031     4054     4091     4132 
    4160     4172     4175     4175     4180     4206     4252     4313 
    4376     4429     4452     4433     4360     4243     4101     3960 
    3854     3801     3805     3863     3955     4048     4114     4139 
    4113     4051     3971     3890     3820     3774     3746     3720 
    3688     3639     3572     3495     3427     3379     3360     3375 
    3419     3477     3530     3568     3582     3578     3577     3604 
    3674     3789     3942     4113     4279     4421     4523     4584 
    4619     4635     4634     4635     4648     4657     4653     4633 
    4587     4521     4453     4387     4326     4291     4283     4284 
    4284     4276     4257     4225     4191     4163     4153     4160 
    4172     4187     4189     4153     4083     3994     3896     3801 
    3734     3701     3699     3716     3742     3753     3731     3682 
    3616     3549     3504     3497     3531     3599     3681     3754 
    3804     3825     3824     3817     3831     3870     3935     4014 
    4094     4151     4174     4166     4137     4101     4075     4066 
    4066     4072     4071     4047     3994     3921     3829     3734 
    3659     3616     3603     3618     3655     3696     3716     3715 
    3692     3661     3636     3639     3676     3732     3786     3821 
    3828     3812     3784     3771     3793     3847     3932     4035 
    4132     4210     4279     4336     4384     4436     4486     4527 
    4552     4550     4519     4465     4395     4322     4260     4218 
    4201     4203     4221     4234     4233     4221     4199     4170 
    4147     4136     4132     4140     4159     4179     4199     4228 
    4260     4290     4318     4337     4344     4340     4322     4284 
    4237     4186     4135     4099     4085     4083     4105     4149 
    4206     4274     4353     4433     4507     4568     4604     4629 
    4642     4645     4646     4654     4662     4661     4639     4591 
    4519     4436     4355     4293     4271     4297     4357     4425 
    4468     4465     4409     4303     4180     4077     4009     3991 
    4017     4059     4093     4106     4085     4031     3964     3904 
    3861     3844     3851     3871     3902     3943     3990     4045 
    4104     4156     4197     4217     4202     4159     4097     4028 
    3975     3955     3969     4008     4062     4109     4128     4101 
    4035     3948     3863     3811     3816     3873     3969     4089 
    4209     4305     4369     4410     4432     4449     4479     4523 
    4579     4639     4693     4734     4765     4785     4797     4806 
    4812     4815     4808     4800     4793     4788     4779     4770 
    4761     4747     4742     4756     4779     4800     4816     4818 
    4781     4704     4600     4484     4368     4276     4220     4185 
    4163     4144     4110     4045     3959     3862     3757     3654 
    3564     3488     3431     3388     3354     3330     3321     3333 
    3361     3403     3456     3507     3545     3568     3580     3581 
    3584     3603     3642     3694     3757     3825     3897     3963 
    4024     4072     4098     4101     4090     4079     4082     4106 
    4166     4256     4364     4477     4576     4639     4657     4634 
    4585     4530     4491     4482     4495     4522     4553     4571 
    4560     4515     4446     4367     4295     4252     4245     4279 
    4345     4419     4487     4536     4561     4572     4576     4587 
    4610     4637     4662     4681     4679     4638     4569     4476 
    4367     4270     4201     4159     4149     4172     4218     4275 
    4336     4392     4440     4476     4502     4517     4522     4518 
    4502     4484     4472     4457     4438     4417     4382     4318 
    4233     4135     4025     3929     3870     3843     3844     3859 
    3866     3851     3813     3758     3705     3677     3694     3765 
    3875     4002     4114     4187     4209     4185     4139     4086 
    4044     4032     4045     4066     4083     4082     4051     3986 
    3901     3813     3748     3716     3727     3781     3861     3950 
    4037     4104     4140     4147     4133     4108     4085     4079 
    4099     4141     4205     4274     4326     4344     4322     4261 
    4172     4072     3977     3892     3817     3751     3699     3662 
    3632     3609     3592     3578     3578     3597     3638     3704 
    3792     3886     3963     4014     4036     4031     4004     3971 
    3946     3929     3919     3912     3902     3882     3846     3797 
    3742     3690     3651     3636     3653     3700     3773     3865 
    3962     4041     4098     4125     4125     4114     4112     4128 
    4167     4221     4279     4317     4321     4286     4216     4116 
    4008     3908     3824     3766     3742     3744     3758     3770 
    3777     3770     3747     3717     3693     3678     3681     3700 
    3723     3744     3757     3751     3738     3732     3748     3807 
    3902     4028     4172     4321     4450     4554     4633     4695 
    4752     4807     4864     4919     4976     5027     5058     5062 
    5043     5004     4946     4887     4847     4838     4866     4935 
    5024     5112     5186     5232     5248     5247     5239     5236 
    5247     5270     5301     5321     5310     5250     5136     4985 
    4815     4648     4517     4437     4411     4426     4453     4467 
    4450     4395     4307     4213     4133     4074     4037     4023 
    4023     4023     4009     3982     3946     3905     3865     3842 
    3846     3862     3885     3909     3915     3900     3874     3843 
    3820     3821     3851     3902     3962     4021     4067     4091 
    4105     4120     4132     4149     4172     4180     4168     4129 
    4062     3971     3874     3786     3717     3680     3666     3655 
    3632     3600     3555     3500     3450     3406     3358     3308 
    3253     3188     3117     3048     2998     2976     2978     2997 
    3019     3040     3051     3044     3021     2992     2961     2936 
    2929     2944     2975     3013     3051     3086     3121     3156 
    3186     3202     3211     3222     3244     3281     3341     3424 
    3528     3645     3763     3869     3948     3994     4009     3993 
    3962     3936     3928     3948     4002     4089     4206     4345 
    4495     4645     4774     4868     4919     4922     4885     4823 
    4746     4672     4617     4587     4580     4600     4645     4700 
    4764     4838     4920     5009     5096     5167     5217     5246 
    5262     5266     5262     5262     5267     5273     5286     5314 
    5346     5381     5421     5447     5449     5429     5390     5341 
    5292     5244     5198     5143     5067     4970     4860     4750 
    4669     4626     4625     4657     4706     4738     4738     4702 
    4638     4571     4518     4486     4472     4471     4463     4432 
    4380     4317     4236     4143     4058     3978     3906     3858 
    3836     3835     3852     3879     3910     3947     3990     4039 
    4098     4164     4226     4280     4326     4363     4391     4411 
    4417     4406     4378     4336     4287     4244     4221     4221 
    4237     4267     4297     4310     4298     4264     4213     4152 
    4095     4054     4018     3987     3960     3925     3892     3874 
    3874     3893     3932     3977     4012     4027     4014     3983 
    3954     3933     3920     3920     3931     3942     3943     3936 
    3927     3921     3928     3956     4001     4048     4079     4085 
    4054     3989     3913     3844     3789     3751     3727     3699 
    3655     3591     3504     3403     3310     3246     3233     3273 
    3356     3450     3528     3568     3557     3511     3449     3387 
    3339     3318     3321     3331     3329     3306     3268     3226 
    3199     3207     3256     3343     3464     3599     3726     3832 
    3912     3964     3987     3990     3981     3963     3943     3927 
    3927     3943     3974     4018     4075     4135     4187     4225 
    4239     4226     4201     4170     4145     4140     4158     4185 
    4209     4222     4222     4214     4203     4193     4189     4191 
    4201     4222     4256     4297     4341     4390     4430     4456 
    4468     4467     4453     4426     4394     4360     4325     4286 
    4245     4205     4159     4120     4099     4108     4147     4210 
    4280     4342     4384     4391     4357     4288     4202     4121 
    4056     4023     4025     4055     4104     4163     4222     4271 
    4309     4332     4342     4356     4368     4379     4401     4430 
    4464     4504     4553     4608     4668     4730     4788     4834 
    4862     4870     4862     4850     4834     4815     4800     4780 
    4746     4698     4642     4577     4510     4459     4436     4425 
    4423     4433     4441     4441     4437     4433     4436     4453 
    4486     4527     4571     4599     4614     4614     4594     4561 
    4527     4492     4446     4386     4315     4232     4133     4036 
    3956     3898     3861     3844     3835     3817     3788     3750 
    3709     3677     3655     3639     3616     3580     3519     3435 
    3335     3241     3175     3150     3163     3207     3265     3319 
    3364     3395     3412     3424     3439     3456     3480     3516 
    3553     3586     3618     3636     3642     3638     3631     3627 
    3630     3640     3661     3681     3693     3685     3655     3605 
    3543     3487     3453     3449     3476     3528     3596     3666 
    3724     3761     3777     3777     3769     3762     3765     3785 
    3817     3865     3923     3978     4016     4033     4025     3996 
    3958     3917     3886     3875     3886     3909     3933     3940 
    3929     3901     3861     3823     3801     3800     3828     3885 
    3955     4025     4093     4155     4213     4278     4364     4465 
    4575     4687     4785     4860     4901     4918     4918     4905 
    4901     4918     4954     5016     5101     5189     5263     5313 
    5331     5317     5281     5228     5173     5127     5092     5067 
    5049     5030     5011     4992     4974     4963     4957     4954 
    4951     4947     4939     4926     4903     4874     4841     4795 
    4738     4676     4619     4569     4527     4494     4463     4423 
    4368     4299     4212     4105     3989     3877     3781     3712 
    3674     3667     3686     3716     3755     3796     3827     3847 
    3858     3854     3842     3824     3808     3801     3809     3832 
    3867     3901     3913     3898     3861     3807     3751     3713 
    3704     3730     3782     3842     3892     3923     3928     3923 
    3912     3902     3910     3936     3971     4012     4048     4078 
    4110     4151     4210     4295     4396     4498     4583     4641 
    4665     4664     4660     4668     4691     4742     4819     4897 
    4955     4984     4974     4927     4861     4789     4722     4664 
    4618     4575     4534     4490     4438     4391     4360     4349 
    4364     4409     4472     4536     4584     4602     4595     4571 
    4533     4488     4448     4417     4394     4374     4357     4348 
    4342     4345     4355     4368     4386     4402     4407     4405 
    4391     4372     4363     4368     4382     4396     4405     4395 
    4360     4303     4239     4180     4135     4109     4108     4124 
    4145     4166     4179     4186     4186     4189     4198     4210 
    4218     4218     4203     4170     4120     4058     3985     3906 
    3821     3735     3657     3584     3522     3474     3437     3407 
    3381     3362     3348     3330     3304     3269     3222     3168 
    3121     3091     3084     3105     3149     3198     3242     3277 
    3304     3319     3334     3358     3389     3419     3451     3488 
    3524     3561     3604     3653     3711     3780     3854     3932 
    4009     4074     4120     4149     4158     4155     4155     4163 
    4175     4191     4202     4201     4183     4155     4121     4091 
    4071     4058     4052     4050     4039     4016     3981     3932 
    3878     3819     3762     3727     3719     3735     3769     3809 
    3839     3850     3843     3828     3820     3834     3888     3983 
    4106     4237     4356     4448     4509     4550     4588     4631 
    4687     4764     4857     4955     5059     5157     5231     5282 
