Origin Time       2025/01/13 21:19:00
Lat.              31.8
Long.             131.6
Depth. (km)       30
Mag.              6.9
Station Code      SAGH03
Station Lat.      33.4098
Station Long.     130.2329
Station Height(m) 375
Record Time       2025/01/13 21:20:33
Sampling Freq(Hz) 100Hz
Duration Time(s)  120
Dir.              6
Scale Factor      7845(gal)/8223790
Max. Acc. (gal)   0.967
Last Correction   2025/01/13 21:20:33
Memo.             
[...]
  -10643   -10671   -10706   -10731   -10732   -10717   -10710   -10727 
  -10760   -10795   -10814   -10808   -10777   -10733   -10687   -10640 
  -10596   -10570   -10573   -10590   -10606   -10612   -10600   -10577 
  -10557   -10538   -10527   -10538   -10571   -10621   -10679   -10725 
  -10739   -10710   -10651   -10602   -10594   -10629   -10697   -10763 
  -10801   -10802   -10778   -10744   -10710   -10687   -10697   -10735 
  -10785   -10831   -10848   -10832   -10800   -10768   -10751   -10751 
  -10766   -10787   -10806   -10822   -10843   -10859   -10868   -10885 
  -10912   -10947   -10986   -11016   -11007   -10948   -10851   -10759 
  -10720   -10756   -10848   -10955   -11024   -11029   -10980   -10922 
  -10899   -10928   -11001   -11097   -11179   -11218   -11209   -11151 
  -11070   -10995   -10949   -10930   -10928   -10933   -10937   -10936 
  -10933   -10932   -10925   -10908   -10879   -10843   -10798   -10744 
  -10685   -10627   -10579   -10554   -10554   -10582   -10638   -10704 
  -10759   -10804   -10835   -10841   -10824   -10782   -10720   -10652 
  -10606   -10592   -10597   -10606   -10616   -10619   -10625   -10651 
  -10698   -10754   -10791   -10793   -10764   -10732   -10713   -10710 
  -10728   -10762   -10795   -10818   -10833   -10843   -10852   -10864 
  -10878   -10891   -10905   -10905   -10886   -10862   -10849   -10860 
  -10893   -10936   -10967   -10966   -10933   -10882   -10841   -10828 
  -10836   -10856   -10870   -10855   -10805   -10729   -10636   -10539 
  -10449   -10374   -10330   -10334   -10389   -10470   -10544   -10578 
  -10557   -10493   -10412   -10339   -10297   -10301   -10347   -10436 
  -10563   -10713   -10859   -10964   -11007   -10982   -10910   -10829 
  -10759   -10716   -10712   -10731   -10763   -10804   -10841   -10855 
  -10841   -10802   -10740   -10665   -10597   -10557   -10552   -10590 
  -10660   -10727   -10751   -10714   -10628   -10536   -10484   -10482 
  -10517   -10573   -10632   -10682   -10719   -10739   -10737   -10708 
  -10669   -10651   -10682   -10766   -10883   -11005   -11101   -11148 
  -11138   -11076   -10991   -10909   -10852   -10849   -10909   -11001 
  -11086   -11133   -11126   -11070   -10975   -10872   -10794   -10760 
  -10789   -10876   -11006   -11140   -11233   -11256   -11200   -11082 
  -10949   -10854   -10821   -10856   -10933   -11009   -11044   -11020 
  -10945   -10844   -10743   -10670   -10635   -10633   -10655   -10678 
  -10693   -10706   -10713   -10709   -10700   -10671   -10612   -10532 
  -10457   -10407   -10408   -10465   -10550   -10639   -10716   -10764 
  -10778   -10767   -10748   -10752   -10801   -10885   -10982   -11061 
  -11102   -11106   -11083   -11047   -11018   -11014   -11040   -11091 
  -11148   -11178   -11156   -11075   -10959   -10849   -10790   -10797 
  -10840   -10870   -10856   -10804   -10740   -10690   -10671   -10678 
  -10698   -10721   -10739   -10755   -10777   -10798   -10802   -10770 
  -10700   -10605   -10508   -10434   -10400   -10426   -10513   -10640 
  -10782   -10905   -10986   -11016   -10987   -10918   -10837   -10768 
  -10729   -10719   -10721   -10725   -10727   -10725   -10728   -10741 
  -10758   -10760   -10737   -10689   -10636   -10612   -10628   -10673 
  -10733   -10775   -10764   -10708   -10636   -10581   -10575   -10624 
  -10704   -10793   -10862   -10899   -10918   -10920   -10902   -10881 
  -10864   -10851   -10832   -10798   -10740   -10656   -10554   -10459 
  -10405   -10401   -10435   -10481   -10503   -10482   -10416   -10318 
  -10230   -10189   -10210   -10284   -10380   -10466   -10525   -10544 
  -10516   -10443   -10332   -10215   -10139   -10134   -10195   -10300 
  -10401   -10458   -10465   -10435   -10397   -10366   -10346   -10338 
  -10332   -10330   -10341   -10349   -10341   -10326   -10309   -10301 
  -10307   -10328   -10374   -10442   -10528   -10627   -10719   -10790 
  -10828   -10824   -10783   -10719   -10644   -10588   -10565   -10577 
  -10620   -10679   -10736   -10779   -10801   -10801   -10790   -10785 
  -10787   -10797   -10809   -10822   -10843   -10868   -10895   -10924 
  -10955   -10979   -10993   -11001   -11010   -11018   -11016   -10998 
  -10978   -10964   -10959   -10964   -10974   -10968   -10948   -10925 
  -10914   -10935   -10990   -11068   -11152   -11214   -11237   -11217 
  -11171   -11126   -11110   -11128   -11168   -11210   -11227   -11210 
  -11160   -11095   -11032   -10989   -10986   -11026   -11088   -11148 
  -11165   -11119   -11032   -10940   -10882   -10887   -10956   -11061 
  -11157   -11215   -11223   -11188   -11134   -11092   -11078   -11097 
  -11140   -11192   -11241   -11265   -11256   -11222   -11171   -11113 
  -11075   -11071   -11091   -11118   -11141   -11153   -11161   -11175 
  -11206   -11249   -11291   -11327   -11348   -11340   -11317   -11291 
  -11276   -11287   -11327   -11391   -11452   -11488   -11488   -11449 
  -11379   -11292   -11203   -11126   -11074   -11053   -11053   -11051 
  -11021   -10952   -10843   -10712   -10596   -10520   -10496   -10511 
  -10539   -10544   -10511   -10436   -10322   -10191   -10087   -10034 
  -10045   -10107   -10185   -10243   -10260   -10230   -10164   -10085 
  -10033   -10029   -10079   -10170   -10278   -10368   -10417   -10423 
  -10393   -10357   -10334   -10347   -10403   -10477   -10542   -10589 
  -10604   -10586   -10559   -10546   -10559   -10597   -10638   -10659 
  -10646   -10602   -10561   -10547   -10575   -10639   -10724   -10808 
  -10866   -10895   -10912   -10940   -10997   -11074   -11148   -11199 
  -11217   -11192   -11125   -11048   -10993   -10974   -10991   -11026 
  -11051   -11049   -11025   -10987   -10944   -10894   -10835   -10774 
  -10717   -10675   -10663   -10677   -10701   -10714   -10696   -10647 
  -10585   -10530   -10507   -10521   -10566   -10617   -10646   -10642 
  -10604   -10547   -10494   -10473   -10496   -10558   -10640   -10728 
  -10795   -10822   -10800   -10727   -10631   -10559   -10548   -10615 
  -10739   -10859   -10916   -10890   -10791   -10654   -10532   -10459 
  -10436   -10458   -10508   -10563   -10608   -10617   -10571   -10477 
  -10351   -10228   -10139   -10106   -10129   -10185   -10246   -10292 
  -10315   -10309   -10284   -10255   -10238   -10247   -10296   -10374 
  -10463   -10536   -10581   -10601   -10601   -10597   -10605   -10627 
  -10650   -10666   -10670   -10663   -10651   -10648   -10667   -10702 
  -10748   -10793   -10816   -10817   -10820   -10843   -10886   -10951 
  -11021   -11078   -11107   -11106   -11087   -11064   -11034   -11002 
  -10976   -10959   -10943   -10922   -10889   -10835   -10768   -10713 
  -10685   -10679   -10683   -10678   -10655   -10615   -10570   -10535 
  -10523   -10538   -10581   -10639   -10697   -10743   -10762   -10746 
  -10713   -10685   -10681   -10716   -10791   -10898   -11025   -11144 
  -11226   -11260   -11244   -11207   -11187   -11200   -11254   -11337 
  -11412   -11450   -11454   -11427   -11383   -11340   -11300   -11267 
  -11252   -11246   -11248   -11264   -11280   -11276   -11248   -11187 
  -11098   -11003   -10913   -10848   -10820   -10828   -10862   -10897 
  -10905   -10863   -10764   -10627   -10486   -10384   -10350   -10385 
  -10462   -10546   -10611   -10636   -10617   -10565   -10489   -10417 
  -10372   -10363   -10407   -10501   -10620   -10732   -10806   -10831 
  -10821   -10797   -10793   -10818   -10862   -10922   -10989   -11044 
  -11083   -11106   -11111   -11099   -11083   -11074   -11070   -11075 
  -11088   -11099   -11103   -11111   -11141   -11184   -11225   -11238 
  -11200   -11114   -11002   -10899   -10837   -10835   -10885   -10966 
  -11055   -11133   -11183   -11194   -11171   -11134   -11102   -11092 
  -11110   -11142   -11176   -11194   -11179   -11140   -11076   -10993 
  -10912   -10854   -10813   -10795   -10801   -10813   -10810   -10787 
  -10743   -10681   -10617   -10575   -10566   -10589   -10636   -10694 
  -10751   -10795   -10818   -10825   -10821   -10814   -10820   -10833 
  -10849   -10878   -10899   -10914   -10933   -10955   -10978   -11011 
  -11049   -11076   -11090   -11091   -11083   -11060   -11020   -10972 
  -10939   -10930   -10953   -10999   -11044   -11067   -11053   -11003 
  -10928   -10849   -10787   -10747   -10724   -10705   -10674   -10627 
  -10565   -10497   -10446   -10422   -10420   -10434   -10455   -10474 
  -10489   -10509   -10531   -10544   -10547   -10525   -10484   -10435 
  -10382   -10346   -10341   -10354   -10369   -10373   -10357   -10314 
  -10254   -10193   -10139   -10100   -10087   -10108   -10154   -10216 
  -10280   -10323   -10346   -10342   -10307   -10246   -10185   -10146 
  -10138   -10164   -10214   -10258   -10272   -10254   -10224   -10197 
  -10191   -10211   -10253   -10307   -10359   -10400   -10420   -10422 
  -10408   -10393   -10390   -10401   -10424   -10451   -10485   -10512 
  -10527   -10544   -10571   -10604   -10652   -10713   -10777   -10829 
  -10863   -10875   -10875   -10864   -10855   -10863   -10886   -10920 
  -10952   -10967   -10963   -10944   -10909   -10878   -10860   -10856 
  -10872   -10903   -10928   -10936   -10943   -10949   -10963   -10995 
  -11040   -11090   -11133   -11163   -11180   -11184   -11171   -11140 
  -11094   -11034   -10978   -10940   -10933   -10953   -10991   -11022 
  -11024   -10998   -10947   -10874   -10804   -10746   -10697   -10663 
  -10638   -10608   -10577   -10548   -10515   -10480   -10444   -10415 
  -10411   -10430   -10451   -10466   -10461   -10424   -10369   -10323 
  -10314   -10345   -10400   -10466   -10525   -10569   -10601   -10625 
  -10638   -10638   -10632   -10627   -10628   -10647   -10685   -10732 
  -10785   -10836   -10883   -10917   -10926   -10913   -10890   -10871 
  -10870   -10898   -10953   -11025   -11099   -11160   -11191   -11190 
  -11157   -11109   -11061   -11037   -11038   -11065   -11110   -11155 
  -11178   -11176   -11153   -11124   -11098   -11076   -11065   -11072 
  -11086   -11097   -11106   -11094   -11045   -10972   -10902   -10854 
  -10835   -10854   -10905   -10966   -11017   -11055   -11076   -11071 
  -11044   -11001   -10943   -10885   -10840   -10821   -10828   -10854 
  -10891   -10932   -10959   -10953   -10906   -10821   -10714   -10621 
  -10559   -10538   -10551   -10586   -10633   -10678   -10698   -10692 
  -10654   -10600   -10558   -10546   -10589   -10690   -10814   -10933 
  -11030   -11098   -11141   -11159   -11152   -11128   -11095   -11071 
  -11070   -11095   -11149   -11217   -11277   -11303   -11286   -11241 
  -11176   -11106   -11040   -10978   -10932   -10905   -10887   -10876 
  -10863   -10829   -10768   -10682   -10592   -10517   -10463   -10434 
  -10419   -10401   -10376   -10347   -10315   -10285   -10262   -10249 
  -10237   -10224   -10216   -10219   -10241   -10272   -10308   -10349 
  -10388   -10427   -10476   -10527   -10566   -10593   -10612   -10628 
  -10647   -10663   -10667   -10662   -10647   -10629   -10623   -10632 
  -10652   -10687   -10725   -10755   -10768   -10763   -10747   -10740 
  -10751   -10787   -10858   -10939   -11011   -11065   -11088   -11079 
  -11045   -11005   -10976   -10964   -10970   -10989   -11007   -11013 
  -10994   -10951   -10895   -10848   -10822   -10824   -10847   -10875 
  -10887   -10874   -10840   -10795   -10747   -10704   -10674   -10647 
  -10615   -10585   -10552   -10515   -10476   -10442   -10423   -10424 
  -10446   -10478   -10497   -10482   -10435   -10362   -10281   -10224 
  -10204   -10223   -10269   -10319   -10358   -10388   -10411   -10435 
  -10461   -10470   -10453   -10415   -10372   -10336   -10327   -10347 
  -10380   -10401   -10408   -10409   -10419   -10442   -10474   -10501 
  -10513   -10520   -10542   -10594   -10671   -10760   -10836   -10879 
  -10889   -10887   -10889   -10909   -10955   -11016   -11080   -11138 
  -11168   -11173   -11163   -11145   -11140   -11161   -11206   -11257 
  -11300   -11314   -11283   -11221   -11145   -11072   -11030   -11028 
  -11051   -11079   -11099   -11098   -11078   -11055   -11034   -11013 
  -10989   -10955   -10908   -10852   -10800   -10758   -10724   -10693 
  -10662   -10629   -10612   -10613   -10624   -10643   -10658   -10654 
  -10646   -10642   -10632   -10623   -10616   -10602   -10592   -10589 
  -10589   -10594   -10608   -10631   -10665   -10696   -10716   -10717 
  -10701   -10673   -10647   -10642   -10658   -10690   -10732   -10773 
  -10808   -10835   -10843   -10829   -10797   -10748   -10689   -10632 
  -10596   -10584   -10600   -10633   -10666   -10683   -10677   -10635 
  -10559   -10476   -10401   -10343   -10314   -10314   -10326   -10339 
  -10349   -10358   -10373   -10389   -10395   -10390   -10395   -10413 
  -10442   -10480   -10520   -10551   -10582   -10617   -10652   -10685 
  -10708   -10717   -10714   -10705   -10702   -10714   -10740   -10779 
  -10822   -10866   -10909   -10943   -10959   -10970   -10983   -11007 
  -11059   -11136   -11209   -11253   -11261   -11244   -11218   -11213 
  -11252   -11335   -11435   -11524   -11580   -11577   -11527   -11453 
  -11377   -11323   -11307   -11307   -11310   -11304   -11277   -11225 
  -11167   -11118   -11087   -11076   -11071   -11047   -10994   -10910 
  -10804   -10696   -10612   -10559   -10544   -10563   -10586   -10589 
  -10555   -10477   -10363   -10234   -10110   -10014    -9963    -9956 
   -9975   -10006   -10026   -10014    -9965    -9894    -9818    -9767 
   -9757    -9790    -9853    -9933   -10015   -10092   -10161   -10222 
  -10287   -10362   -10442   -10524   -10601   -10665   -10706   -10727 
  -10737   -10754   -10787   -10844   -10920   -10993   -11048   -11086 
  -11095   -11075   -11051   -11032   -11025   -11038   -11067   -11090 
  -11098   -11092   -11076   -11056   -11037   -11017   -10991   -10967 
  -10951   -10947   -10953   -10953   -10926   -10876   -10810   -10740 
  -10679   -10633   -10600   -10573   -10546   -10517   -10496   -10489 
  -10504   -10543   -10596   -10644   -10677   -10690   -10687   -10678 
  -10670   -10666   -10669   -10687   -10721   -10766   -10816   -10859 
  -10885   -10898   -10909   -10921   -10940   -10964   -10989   -11014 
  -11043   -11067   -11082   -11083   -11064   -11028   -10991   -10966 
  -10953   -10956   -10962   -10953   -10924   -10879   -10821   -10751 
  -10682   -10631   -10598   -10585   -10581   -10571   -10551   -10517 
  -10465   -10404   -10346   -10299   -10277   -10288   -10322   -10368 
  -10412   -10438   -10442   -10435   -10430   -10434   -10454   -10493 
  -10542   -10601   -10673   -10739   -10785   -10809   -10813   -10813 
  -10825   -10848   -10883   -10928   -10974   -11026   -11082   -11130 
  -11169   -11194   -11198   -11190   -11175   -11157   -11142   -11144 
  -11160   -11179   -11196   -11202   -11190   -11161   -11124   -11086 
  -11063   -11057   -11067   -11087   -11106   -11106   -11078   -11024 
  -10957   -10897   -10863   -10855   -10863   -10872   -10871   -10854 
  -10824   -10785   -10746   -10709   -10675   -10654   -10644   -10646 
  -10659   -10678   -10686   -10679   -10652   -10601   -10536   -10469 
  -10407   -10359   -10327   -10301   -10280   -10262   -10262   -10288 
  -10338   -10396   -10444   -10467   -10462   -10436   -10408   -10390 
  -10393   -10412   -10442   -10481   -10528   -10575   -10621   -10658 
  -10671   -10666   -10650   -10639   -10647   -10675   -10714   -10748 
  -10760   -10748   -10717   -10675   -10639   -10619   -10621   -10647 
  -10686   -10720   -10739   -10750   -10756   -10767   -10789   -10820 
  -10847   -10866   -10871   -10856   -10833   -10817   -10820   -10843 
  -10878   -10916   -10943   -10947   -10916   -10841   -10735   -10620 
  -10517   -10444   -10407   -10397   -10390   -10372   -10342   -10307 
  -10273   -10254   -10254   -10270   -10295   -10327   -10363   -10403 
  -10451   -10515   -10585   -10656   -10724   -10775   -10812   -10837 
  -10859   -10890   -10941   -11002   -11063   -11117   -11151   -11164 
  -11171   -11176   -11187   -11209   -11234   -11257   -11277   -11294 
  -11311   -11334   -11365   -11392   -11411   -11419   -11410   -11396 
  -11392   -11391   -11391   -11391   -11381   -11362   -11344   -11325 
  -11303   -11280   -11254   -11218   -11173   -11130   -11099   -11076 
  -11057   -11029   -10990   -10939   -10878   -10821   -10789   -10782 
  -10789   -10800   -10809   -10814   -10804   -10777   -10740   -10696 
  -10652   -10616   -10597   -10605   -10631   -10656   -10673   -10679 
  -10674   -10665   -10666   -10679   -10701   -10728   -10756   -10782 
  -10801   -10810   -10804   -10787   -10763   -10740   -10727   -10729 
  -10736   -10740   -10737   -10723   -10698   -10674   -10656   -10650 
  -10651   -10656   -10662   -10660   -10646   -10620   -10588   -10551 
  -10531   -10531   -10550   -10584   -10615   -10623   -10606   -10573 
  -10531   -10497   -10482   -10493   -10527   -10567   -10596   -10605 
  -10598   -10584   -10577   -10577   -10578   -10577   -10569   -10550 
  -10521   -10490   -10471   -10465   -10470   -10484   -10486   -10466 
  -10426   -10369   -10305   -10266   -10266   -10314   -10397   -10494 
  -10570   -10606   -10598   -10554   -10503   -10478   -10500   -10566 
  -10654   -10729   -10775   -10786   -10762   -10721   -10690   -10686 
  -10720   -10781   -10845   -10891   -10901   -10868   -10813   -10763 
  -10746   -10774   -10828   -10885   -10924   -10932   -10913   -10886 
  -10875   -10889   -10925   -10980   -11030   -11048   -11033   -10999 
  -10967   -10952   -10968   -11010   -11052   -11075   -11075   -11055 
  -11021   -10982   -10955   -10948   -10963   -10999   -11044   -11082 
  -11106   -11107   -11091   -11070   -11051   -11041   -11047   -11067 
  -11083   -11080   -11053   -10997   -10920   -10844   -10795   -10781 
  -10795   -10827   -10860   -10878   -10875   -10855   -10825   -10798 
  -10777   -10764   -10766   -10783   -10813   -10845   -10876   -10902 
  -10913   -10914   -10912   -10906   -10899   -10899   -10901   -10901 
  -10905   -10908   -10903   -10897   -10891   -10898   -10918   -10943 
  -10955   -10940   -10901   -10858   -10824   -10805   -10801   -10804 
  -10804   -10798   -10786   -10771   -10754   -10737   -10725   -10727 
  -10746   -10775   -10810   -10840   -10854   -10855   -10852   -10849 
  -10854   -10874   -10902   -10932   -10951   -10956   -10952   -10953 
  -10968   -11002   -11052   -11106   -11160   -11207   -11252   -11292 
  -11327   -11356   -11380   -11408   -11438   -11475   -11519   -11560 
  -11589   -11605   -11600   -11578   -11550   -11515   -11476   -11446 
  -11430   -11422   -11418   -11410   -11387   -11338   -11275   -11214 
  -11153   -11098   -11044   -10983   -10920   -10859   -10809   -10775 
  -10754   -10732   -10706   -10678   -10640   -10600   -10567   -10538 
  -10505   -10482   -10466   -10454   -10455   -10463   -10471   -10484 
  -10492   -10493   -10493   -10494   -10503   -10519   -10542   -10569 
  -10597   -10621   -10642   -10663   -10683   -10701   -10716   -10733 
  -10751   -10764   -10768   -10750   -10714   -10677   -10646   -10633 
  -10648   -10681   -10719   -10744   -10752   -10741   -10709   -10655 
  -10590   -10530   -10488   -10469   -10466   -10473   -10474   -10455 
  -10415   -10361   -10305   -10260   -10235   -10231   -10242   -10262 
