Origin Time       2025/01/13 21:19:00
Lat.              31.8
Long.             131.6
Depth. (km)       30
Mag.              6.9
Station Code      SAGH01
Station Lat.      33.5080
Station Long.     129.8877
Station Height(m) 118
Record Time       2025/01/13 21:20:16
Sampling Freq(Hz) 100Hz
Duration Time(s)  146
Dir.              6
Scale Factor      7845(gal)/8223790
Max. Acc. (gal)   0.749
Last Correction   2025/01/13 21:20:16
Memo.             
[...]
   17011    17038    17055    17068    17085    17109    17138    17163 
   17185    17197    17204    17211    17209    17203    17196    17185 
   17163    17134    17096    17055    17008    16950    16896    16854 
   16825    16804    16794    16791    16788    16784    16780    16780 
   16785    16794    16796    16796    16804    16829    16861    16893 
   16923    16947    16972    16995    17010    17022    17037    17050 
   17059    17061    17058    17054    17050    17046    17034    17020 
   17016    17020    17022    17016    17011    17001    16984    16965 
   16950    16934    16918    16916    16931    16953    16977    17010 
   17042    17058    17057    17038    17005    16970    16941    16915 
   16895    16884    16887    16888    16883    16879    16881    16891 
   16899    16893    16881    16872    16872    16887    16915    16941 
   16956    16954    16945    16934    16929    16927    16923    16923 
   16923    16916    16915    16916    16911    16902    16902    16911 
   16924    16938    16956    16973    16984    16999    17016    17028 
   17038    17054    17077    17096    17119    17153    17185    17208 
   17230    17253    17275    17297    17320    17340    17346    17338 
   17321    17309    17300    17284    17261    17232    17213    17213 
   17224    17236    17242    17239    17239    17242    17244    17242 
   17234    17223    17209    17199    17201    17215    17232    17248 
   17257    17266    17278    17286    17290    17290    17284    17278 
   17275    17267    17250    17226    17199    17170    17136    17100 
   17064    17020    16969    16923    16870    16814    16773    16742 
   16708    16680    16656    16637    16637    16649    16657    16653 
   16644    16638    16640    16636    16627    16632    16649    16676 
   16704    16725    16737    16758    16788    16818    16841    16861 
   16877    16883    16879    16879    16881    16895    16931    16977 
   17008    17035    17066    17093    17116    17138    17158    17172 
   17196    17234    17263    17282    17300    17313    17319    17309 
   17286    17253    17213    17174    17139    17095    17046    17011 
   16985    16953    16919    16893    16875    16858    16843    16821 
   16791    16776    16779    16781    16773    16761    16753    16750 
   16758    16772    16784    16794    16808    16833    16868    16907 
   16942    16969    16991    17014    17031    17039    17045    17054 
   17054    17046    17041    17035    17032    17027    17020    17007 
   16985    16953    16918    16884    16861    16864    16891    16929 
   16960    16984    17010    17037    17059    17077    17093    17100 
   17099    17103    17107    17104    17099    17097    17096    17097 
   17101    17095    17073    17039    17001    16976    16962    16954 
   16950    16947    16945    16945    16951    16972    16997    17026 
   17051    17065    17074    17093    17116    17130    17138    17143 
   17146    17153    17167    17182    17197    17215    17228    17240 
   17253    17258    17253    17248    17244    17236    17221    17211 
   17204    17196    17189    17178    17161    17140    17118    17088 
   17049    16995    16934    16880    16838    16807    16788    16787 
   16800    16826    16858    16896    16933    16966    17001    17043 
   17089    17134    17184    17238    17278    17301    17315    17320 
   17311    17290    17261    17219    17178    17150    17127    17104 
   17077    17047    17018    16996    16980    16969    16956    16938 
   16926    16920    16914    16903    16881    16854    16843    16845 
   16841    16837    16835    16834    16834    16837    16837    16829 
   16812    16789    16765    16742    16722    16706    16694    16687 
   16688    16696    16708    16718    16721    16718    16708    16703 
   16704    16710    16713    16718    16737    16767    16803    16845 
   16884    16915    16947    16981    17010    17031    17045    17047 
   17050    17055    17053    17034    17011    16984    16962    16953 
   16949    16945    16931    16916    16916    16926    16938    16954 
   16966    16970    16977    16991    17003    17014    17022    17020 
   17014    17014    17015    17011    16997    16977    16947    16922 
   16912    16919    16938    16965    16993    17019    17042    17064 
   17086    17103    17107    17109    17108    17100    17088    17070 
   17050    17031    17018    17014    17012    17011    17007    16993 
   16974    16964    16958    16954    16956    16951    16943    16941 
   16943    16950    16964    16981    16992    16995    16996    16999 
   16999    16997    17000    17001    16999    16996    16991    16974 
   16950    16926    16896    16868    16845    16827    16816    16818 
   16830    16839    16846    16854    16864    16879    16892    16904 
   16915    16927    16943    16960    16972    16984    16985    16974 
   16958    16935    16912    16893    16875    16856    16846    16846 
   16858    16884    16911    16933    16950    16964    16976    16991 
   17014    17035    17045    17043    17039    17030    17011    16985 
   16953    16912    16868    16825    16789    16769    16765    16776 
   16789    16803    16825    16853    16880    16902    16918    16933 
   16953    16983    17018    17058    17097    17135    17161    17176 
   17180    17172    17166    17161    17157    17151    17138    17120 
   17111    17107    17103    17103    17108    17115    17123    17124 
   17116    17108    17105    17099    17091    17084    17072    17057 
   17045    17030    17019    17016    17012    16997    16969    16941 
   16919    16904    16896    16892    16888    16887    16888    16899 
   16918    16939    16966    17001    17041    17088    17135    17176 
   17212    17240    17266    17286    17292    17288    17286    17288 
   17286    17281    17274    17263    17251    17236    17227    17231 
   17243    17257    17274    17294    17316    17340    17358    17367 
   17369    17365    17358    17346    17321    17290    17261    17242 
   17228    17211    17186    17157    17132    17113    17097    17084 
   17065    17047    17031    17008    16991    16977    16957    16935 
   16912    16889    16873    16864    16856    16850    16852    16858 
   16877    16907    16941    16984    17026    17061    17101    17146 
   17184    17217    17254    17284    17307    17328    17339    17335 
   17313    17277    17236    17193    17145    17099    17061    17032 
   17015    17005    16993    16984    16976    16966    16962    16958 
   16950    16943    16943    16946    16950    16947    16935    16918 
   16897    16880    16868    16864    16864    16864    16860    16857 
   16850    16842    16834    16823    16810    16794    16767    16731 
   16696    16661    16633    16613    16598    16587    16582    16582 
   16591    16606    16623    16650    16680    16710    16745    16787 
   16825    16858    16884    16899    16906    16904    16896    16885 
   16866    16837    16798    16761    16733    16711    16694    16683 
   16675    16671    16672    16675    16676    16681    16690    16700 
   16715    16733    16749    16762    16773    16787    16808    16834 
   16862    16884    16889    16888    16880    16870    16872    16875 
   16862    16845    16827    16799    16771    16749    16723    16694 
   16665    16641    16623    16614    16615    16626    16642    16664 
   16696    16744    16795    16848    16902    16949    16988    17026 
   17058    17092    17126    17149    17167    17189    17213    17234 
   17251    17269    17278    17277    17275    17270    17261    17251 
   17242    17234    17231    17231    17231    17240    17258    17273 
   17277    17263    17242    17223    17208    17194    17176    17159 
   17149    17146    17157    17170    17180    17184    17189    17205 
   17228    17240    17234    17208    17174    17150    17138    17130 
   17123    17109    17085    17061    17041    17020    16999    16972 
   16938    16899    16864    16839    16827    16823    16827    16831 
   16838    16848    16853    16856    16858    16860    16869    16881 
   16892    16897    16899    16895    16892    16888    16881    16870 
   16861    16848    16830    16814    16802    16794    16794    16799 
   16806    16806    16802    16806    16825    16845    16854    16857 
   16861    16872    16885    16903    16920    16935    16953    16972 
   16991    17008    17023    17034    17049    17064    17078    17093 
   17116    17146    17178    17215    17253    17286    17321    17356 
   17378    17389    17396    17397    17396    17392    17382    17363 
   17339    17317    17297    17266    17223    17173    17118    17059 
   17011    16969    16930    16893    16864    16839    16827    16831 
   16845    16857    16868    16875    16880    16888    16893    16891 
   16888    16892    16895    16891    16888    16887    16885    16885 
   16891    16904    16922    16946    16966    16984    17004    17024 
   17038    17053    17074    17103    17127    17147    17169    17186 
   17194    17194    17181    17158    17135    17115    17095    17074 
   17058    17046    17035    17026    17019    17019    17028    17038 
   17045    17055    17069    17088    17123    17163    17200    17232 
   17259    17282    17307    17331    17347    17351    17354    17361 
   17367    17371    17375    17379    17382    17379    17378    17379 
   17375    17373    17374    17379    17396    17415    17432    17448 
   17455    17447    17437    17425    17412    17394    17367    17334 
   17294    17261    17236    17219    17197    17170    17149    17140 
   17139    17142    17145    17145    17149    17159    17170    17184 
   17193    17193    17184    17162    17139    17119    17099    17080 
   17058    17028    16999    16973    16950    16929    16906    16873 
   16835    16794    16750    16707    16667    16637    16615    16594 
   16576    16569    16567    16569    16573    16565    16556    16549 
   16545    16552    16556    16548    16538    16534    16540    16552 
   16563    16564    16567    16580    16599    16629    16667    16695 
   16706    16713    16721    16726    16740    16761    16779    16794 
   16810    16819    16829    16837    16839    16842    16841    16838 
   16837    16838    16843    16857    16881    16912    16949    16983 
   17015    17049    17085    17122    17147    17166    17182    17188 
   17181    17167    17142    17105    17062    17019    16978    16945 
   16911    16873    16829    16788    16757    16734    16721    16717 
   16725    16744    16764    16791    16823    16853    16885    16916 
   16939    16956    16969    16981    16996    17007    17012    17018 
   17034    17057    17085    17119    17150    17174    17199    17215 
   17221    17227    17235    17238    17235    17232    17228    17224 
   17220    17219    17212    17203    17196    17192    17190    17200 
   17215    17230    17247    17266    17285    17302    17319    17327 
   17331    17331    17332    17329    17319    17302    17284    17259 
   17234    17213    17189    17158    17127    17097    17070    17050 
   17035    17024    17015    17001    16992    16984    16972    16961 
   16957    16953    16947    16938    16924    16911    16900    16891 
   16892    16897    16900    16902    16895    16879    16864    16843 
   16811    16779    16744    16703    16664    16632    16607    16594 
   16583    16572    16559    16549    16549    16556    16565    16584 
   16611    16638    16664    16695    16734    16769    16800    16833 
   16868    16896    16920    16939    16954    16970    16992    17018 
   17043    17070    17100    17126    17154    17181    17199    17211 
   17219    17223    17221    17220    17217    17209    17205    17208 
   17213    17220    17230    17244    17258    17265    17265    17253 
   17226    17194    17161    17124    17097    17077    17059    17046 
   17031    17020    17022    17031    17045    17059    17072    17084 
   17100    17119    17138    17159    17185    17209    17234    17255 
   17267    17278    17288    17294    17298    17296    17288    17280 
   17270    17258    17240    17216    17192    17177    17167    17161 
   17154    17143    17128    17113    17103    17092    17082    17074 
   17072    17068    17058    17050    17042    17032    17026    17024 
   17027    17035    17057    17078    17085    17088    17099    17105 
   17107    17099    17073    17035    17000    16970    16946    16916 
   16881    16839    16796    16756    16719    16684    16656    16629 
   16606    16590    16578    16576    16583    16592    16599    16610 
   16623    16629    16638    16657    16673    16692    16713    16730 
   16749    16773    16808    16845    16877    16906    16934    16968 
   17007    17038    17068    17096    17109    17116    17126    17135 
   17138    17138    17143    17149    17157    17174    17194    17216 
   17238    17259    17282    17302    17321    17344    17373    17402 
   17439    17479    17518    17562    17609    17653    17691    17721 
   17745    17761    17763    17752    17736    17718    17689    17651 
   17609    17559    17500    17436    17365    17288    17215    17142 
   17065    16992    16924    16856    16789    16737    16687    16633 
   16583    16528    16468    16416    16364    16320    16279    16243 
   16218    16213    16220    16236    16262    16297    16329    16360 
   16399    16444    16488    16530    16576    16625    16677    16730 
   16773    16807    16841    16872    16897    16919    16934    16939 
   16942    16945    16942    16934    16930    16930    16926    16919 
   16920    16941    16968    16993    17022    17046    17068    17091 
   17111    17120    17126    17134    17145    17153    17159    17165 
   17169    17173    17176    17173    17176    17178    17177    17178 
   17178    17176    17173    17161    17145    17130    17109    17086 
   17066    17051    17035    17024    17019    17011    17000    16995 
   16999    17005    17008    17011    17018    17022    17022    17015 
   16999    16978    16953    16931    16914    16897    16883    16875 
   16868    16865    16870    16876    16877    16877    16885    16897 
   16912    16937    16966    16997    17027    17054    17081    17105 
   17119    17130    17140    17143    17136    17132    17136    17146 
   17162    17177    17190    17208    17228    17253    17285    17319 
   17352    17378    17402    17424    17436    17437    17436    17432 
   17420    17401    17383    17370    17361    17350    17336    17320 
   17304    17285    17267    17253    17236    17212    17178    17149 
   17122    17093    17065    17038    17010    16987    16962    16938 
   16916    16893    16872    16858    16853    16856    16858    16860 
   16866    16866    16868    16868    16852    16825    16792    16757 
   16722    16687    16650    16626    16615    16610    16606    16607 
   16618    16636    16654    16676    16703    16730    16754    16780 
   16808    16831    16850    16876    16902    16924    16942    16951 
   16958    16964    16970    16970    16966    16964    16962    16961 
   16961    16960    16957    16953    16954    16962    16969    16974 
   16983    16991    17000    17007    17007    17004    17003    16997 
   16993    16992    16988    16991    16996    16996    16996    17005 
   17018    17034    17054    17072    17092    17118    17142    17169 
   17194    17216    17240    17261    17265    17255    17240    17223 
   17200    17174    17149    17119    17089    17069    17053    17037 
   17022    17014    17022    17037    17049    17065    17084    17097 
   17113    17135    17158    17176    17193    17208    17220    17230 
   17231    17235    17246    17259    17278    17301    17327    17352 
   17374    17393    17409    17420    17424    17421    17416    17406 
   17394    17385    17373    17356    17343    17327    17301    17278 
   17253    17220    17189    17157    17119    17077    17027    16973 
   16916    16861    16804    16740    16679    16630    16584    16548 
   16519    16497    16483    16483    16497    16511    16524    16548 
   16579    16615    16657    16692    16719    16752    16780    16795 
   16802    16808    16819    16831    16845    16857    16869    16885 
   16912    16943    16973    17000    17022    17030    17038    17050 
   17062    17081    17111    17139    17166    17192    17216    17242 
   17265    17289    17311    17324    17332    17335    17334    17327 
   17319    17316    17317    17315    17311    17311    17308    17300 
   17296    17293    17294    17305    17311    17315    17327    17338 
   17344    17348    17347    17342    17334    17316    17296    17270 
   17242    17220    17205    17194    17192    17193    17203    17213 
   17223    17235    17246    17250    17250    17244    17231    17208 
   17176    17139    17100    17057    17010    16954    16902    16857 
   16814    16775    16740    16704    16672    16646    16626    16611 
   16609    16619    16629    16633    16641    16646    16652    16661 
   16669    16672    16673    16676    16681    16691    16700    16711 
   16718    16723    16731    16741    16745    16744    16746    16750 
   16756    16761    16757    16752    16750    16749    16748    16748 
   16745    16738    16731    16729    16729    16731    16731    16733 
   16737    16737    16745    16757    16767    16779    16794    16799 
   16802    16808    16818    16826    16833    16835    16835    16843 
   16852    16849    16842    16837    16827    16816    16807    16796 
   16787    16772    16754    16738    16717    16692    16669    16644 
   16617    16596    16578    16565    16563    16560    16563    16575 
   16594    16614    16641    16675    16718    16764    16811    16860 
   16900    16935    16972    17012    17047    17080    17111    17142 
   17169    17196    17223    17253    17281    17302    17323    17342 
   17346    17340    17331    17317    17301    17281    17259    17244 
   17232    17221    17221    17234    17246    17253    17261    17267 
   17267    17269    17282    17292    17292    17289    17286    17278 
   17262    17240    17220    17201    17180    17158    17135    17108 
   17084    17064    17053    17053    17050    17047    17050    17054 
   17053    17051    17043    17020    16999    16984    16968    16947 
   16926    16907    16888    16870    16857    16845    16837    16827 
   16811    16792    16776    16758    16731    16706    16683    16652 
   16622    16602    16584    16559    16541    16530    16519    16518 
   16526    16532    16538    16551    16564    16571    16576    16580 
   16584    16591    16598    16600    16602    16602    16600    16598 
   16599    16606    16618    16632    16646    16665    16694    16723 
   16752    16788    16827    16865    16904    16945    16981    17011 
   17031    17041    17042    17035    17020    17000    16978    16951 
   16920    16891    16864    16842    16826    16818    16815    16818 
   16826    16842    16856    16870    16889    16904    16916    16935 
   16956    16970    16988    17003    17019    17035    17046    17058 
