Origin Time       2025/01/13 21:19:00
Lat.              31.8
Long.             131.6
Depth. (km)       30
Mag.              6.9
Station Code      SAGH05
Station Lat.      33.1806
Station Long.     130.1046
Station Height(m) 18
Record Time       2025/01/13 21:20:04
Sampling Freq(Hz) 100Hz
Duration Time(s)  201
Dir.              5
Scale Factor      7845(gal)/8223790
Max. Acc. (gal)   1.823
Last Correction   2025/01/13 21:20:04
Memo.             
[...]
  -22909   -22881   -22856   -22837   -22824   -22820   -22821   -22817 
  -22816   -22821   -22833   -22858   -22897   -22956   -23035   -23126 
  -23222   -23323   -23425   -23517   -23595   -23653   -23684   -23693 
  -23687   -23668   -23639   -23607   -23581   -23562   -23549   -23544 
  -23545   -23548   -23546   -23541   -23529   -23506   -23468   -23419 
  -23365   -23306   -23248   -23199   -23163   -23134   -23112   -23091 
  -23076   -23064   -23052   -23051   -23066   -23089   -23120   -23164 
  -23210   -23251   -23288   -23323   -23355   -23380   -23399   -23418 
  -23433   -23442   -23456   -23467   -23471   -23469   -23469   -23468 
  -23465   -23461   -23464   -23464   -23458   -23454   -23453   -23458 
  -23471   -23483   -23490   -23490   -23479   -23460   -23438   -23417 
  -23398   -23383   -23371   -23367   -23371   -23380   -23394   -23407 
  -23415   -23427   -23441   -23452   -23460   -23468   -23469   -23458 
  -23440   -23413   -23379   -23344   -23306   -23269   -23236   -23210 
  -23187   -23164   -23149   -23145   -23149   -23161   -23174   -23183 
  -23184   -23178   -23170   -23167   -23170   -23179   -23202   -23240 
  -23299   -23376   -23465   -23565   -23672   -23781   -23886   -23981 
  -24055   -24105   -24131   -24133   -24124   -24108   -24085   -24057 
  -24028   -23993   -23951   -23907   -23862   -23822   -23780   -23733 
  -23685   -23635   -23580   -23518   -23446   -23371   -23291   -23210 
  -23130   -23053   -22983   -22918   -22859   -22808   -22762   -22721 
  -22682   -22643   -22599   -22551   -22511   -22477   -22437   -22404 
  -22389   -22381   -22380   -22393   -22419   -22450   -22481   -22522 
  -22569   -22616   -22670   -22731   -22789   -22842   -22893   -22945 
  -22994   -23040   -23086   -23130   -23167   -23190   -23199   -23194 
  -23170   -23129   -23082   -23039   -22999   -22967   -22944   -22932 
  -22929   -22935   -22950   -22968   -22985   -23002   -23017   -23031 
  -23047   -23066   -23089   -23118   -23149   -23188   -23233   -23278 
  -23326   -23382   -23441   -23502   -23566   -23638   -23716   -23800 
  -23889   -23978   -24057   -24127   -24187   -24231   -24258   -24268 
  -24260   -24233   -24187   -24129   -24067   -24005   -23944   -23886 
  -23827   -23768   -23715   -23664   -23615   -23572   -23527   -23488 
  -23464   -23454   -23460   -23467   -23475   -23485   -23495   -23495 
  -23481   -23456   -23422   -23384   -23344   -23305   -23269   -23245 
  -23232   -23230   -23244   -23272   -23310   -23355   -23403   -23453 
  -23502   -23548   -23589   -23623   -23652   -23677   -23697   -23711 
  -23718   -23722   -23724   -23727   -23734   -23749   -23769   -23795 
  -23826   -23857   -23884   -23913   -23944   -23976   -24008   -24035 
  -24048   -24046   -24038   -24021   -23992   -23958   -23919   -23873 
  -23820   -23760   -23695   -23630   -23565   -23499   -23434   -23379 
  -23326   -23275   -23225   -23171   -23113   -23053   -22989   -22920 
  -22848   -22783   -22721   -22658   -22596   -22542   -22497   -22459 
  -22432   -22423   -22426   -22435   -22450   -22472   -22503   -22542 
  -22585   -22627   -22663   -22694   -22720   -22738   -22751   -22770 
  -22790   -22810   -22832   -22852   -22864   -22866   -22858   -22844 
  -22828   -22808   -22788   -22771   -22756   -22750   -22755   -22774 
  -22802   -22840   -22886   -22932   -22977   -23021   -23066   -23116 
  -23171   -23232   -23296   -23361   -23425   -23488   -23544   -23592 
  -23635   -23672   -23708   -23746   -23782   -23820   -23866   -23912 
  -23957   -24005   -24061   -24109   -24151   -24186   -24208   -24217 
  -24216   -24206   -24187   -24163   -24138   -24112   -24084   -24059 
  -24040   -24021   -24005   -23990   -23971   -23947   -23923   -23890 
  -23849   -23799   -23741   -23676   -23604   -23535   -23472   -23411 
  -23355   -23307   -23271   -23240   -23210   -23188   -23172   -23153 
  -23133   -23114   -23095   -23083   -23082   -23089   -23101   -23121 
  -23148   -23183   -23220   -23249   -23272   -23290   -23295   -23290 
  -23282   -23271   -23260   -23247   -23238   -23241   -23248   -23260 
  -23276   -23292   -23310   -23329   -23344   -23356   -23359   -23360 
  -23361   -23363   -23361   -23357   -23352   -23350   -23355   -23361 
  -23375   -23388   -23398   -23400   -23396   -23386   -23368   -23349 
  -23329   -23307   -23288   -23272   -23256   -23238   -23218   -23195 
  -23170   -23136   -23103   -23072   -23039   -23008   -22978   -22950 
  -22929   -22909   -22887   -22867   -22843   -22810   -22775   -22740 
  -22707   -22675   -22647   -22620   -22597   -22576   -22554   -22534 
  -22512   -22485   -22459   -22434   -22407   -22380   -22358   -22338 
  -22323   -22316   -22319   -22331   -22350   -22373   -22397   -22423 
  -22450   -22481   -22519   -22557   -22589   -22626   -22665   -22705 
  -22748   -22790   -22833   -22886   -22947   -23010   -23079   -23155 
  -23236   -23317   -23394   -23468   -23531   -23583   -23619   -23638 
  -23643   -23641   -23633   -23625   -23622   -23630   -23647   -23666 
  -23687   -23711   -23733   -23747   -23764   -23780   -23793   -23805 
  -23820   -23836   -23855   -23877   -23903   -23935   -23969   -23998 
  -24023   -24032   -24031   -24023   -24007   -23985   -23966   -23946 
  -23919   -23889   -23859   -23827   -23792   -23753   -23711   -23668 
  -23623   -23577   -23535   -23502   -23473   -23450   -23427   -23399 
  -23369   -23334   -23292   -23252   -23214   -23180   -23151   -23134 
  -23129   -23134   -23148   -23167   -23193   -23215   -23233   -23247 
  -23257   -23265   -23272   -23284   -23296   -23314   -23342   -23380 
  -23425   -23476   -23530   -23584   -23639   -23691   -23734   -23765 
  -23785   -23797   -23797   -23789   -23778   -23766   -23749   -23733 
  -23724   -23724   -23734   -23758   -23789   -23828   -23878   -23931 
  -23982   -24031   -24075   -24109   -24135   -24148   -24147   -24136 
  -24113   -24082   -24042   -23992   -23938   -23888   -23841   -23803 
  -23773   -23750   -23738   -23739   -23750   -23773   -23804   -23832 
  -23855   -23877   -23889   -23895   -23893   -23882   -23863   -23841 
  -23818   -23801   -23789   -23781   -23782   -23787   -23789   -23793 
  -23797   -23803   -23811   -23818   -23824   -23832   -23832   -23822 
  -23803   -23769   -23716   -23650   -23573   -23488   -23394   -23298 
  -23206   -23120   -23043   -22974   -22920   -22882   -22855   -22831 
  -22815   -22798   -22781   -22763   -22746   -22725   -22707   -22693 
  -22686   -22688   -22705   -22739   -22788   -22851   -22927   -23012 
  -23101   -23183   -23259   -23329   -23390   -23441   -23480   -23508 
  -23526   -23538   -23544   -23546   -23553   -23569   -23592   -23626 
  -23666   -23704   -23735   -23760   -23776   -23791   -23803   -23807 
  -23809   -23808   -23796   -23776   -23750   -23716   -23673   -23620 
  -23564   -23502   -23436   -23371   -23306   -23245   -23190   -23144 
  -23107   -23082   -23064   -23052   -23047   -23047   -23048   -23055 
  -23067   -23082   -23103   -23128   -23153   -23178   -23199   -23214 
  -23218   -23215   -23207   -23197   -23179   -23159   -23139   -23114 
  -23086   -23058   -23032   -23001   -22966   -22927   -22879   -22820 
  -22754   -22680   -22599   -22519   -22442   -22373   -22316   -22273 
  -22239   -22218   -22211   -22215   -22230   -22254   -22288   -22327 
  -22372   -22419   -22476   -22536   -22593   -22653   -22719   -22789 
  -22866   -22944   -23022   -23107   -23194   -23278   -23368   -23461 
  -23549   -23637   -23727   -23816   -23900   -23978   -24051   -24111 
  -24162   -24198   -24210   -24204   -24178   -24129   -24063   -23990 
  -23909   -23824   -23743   -23669   -23602   -23545   -23499   -23463 
  -23436   -23418   -23406   -23395   -23388   -23387   -23379   -23365 
  -23349   -23322   -23286   -23245   -23203   -23161   -23122   -23095 
  -23083   -23080   -23086   -23099   -23118   -23133   -23140   -23141 
  -23137   -23134   -23132   -23128   -23133   -23157   -23193   -23247 
  -23325   -23419   -23531   -23654   -23778   -23900   -24016   -24120 
  -24202   -24268   -24322   -24359   -24378   -24383   -24375   -24354 
  -24318   -24271   -24213   -24148   -24079   -24000   -23912   -23823 
  -23734   -23649   -23571   -23499   -23436   -23380   -23326   -23275 
  -23226   -23178   -23130   -23083   -23036   -22990   -22952   -22923 
  -22901   -22889   -22889   -22900   -22917   -22937   -22963   -22994 
  -23024   -23059   -23102   -23152   -23206   -23265   -23328   -23384 
  -23434   -23477   -23508   -23526   -23533   -23525   -23504   -23484 
  -23465   -23448   -23444   -23456   -23481   -23521   -23571   -23623 
  -23676   -23727   -23768   -23797   -23822   -23838   -23843   -23841 
  -23826   -23800   -23770   -23738   -23706   -23673   -23653   -23642 
  -23639   -23647   -23665   -23681   -23693   -23701   -23711   -23711 
  -23703   -23696   -23687   -23670   -23653   -23637   -23622   -23608 
  -23598   -23584   -23572   -23564   -23557   -23553   -23554   -23561 
  -23569   -23575   -23581   -23593   -23604   -23608   -23602   -23588 
  -23562   -23522   -23472   -23415   -23355   -23288   -23214   -23147 
  -23085   -23031   -22985   -22945   -22916   -22898   -22887   -22883 
  -22879   -22877   -22871   -22866   -22858   -22850   -22840   -22825 
  -22809   -22796   -22781   -22767   -22761   -22756   -22756   -22761 
  -22769   -22777   -22785   -22793   -22797   -22796   -22792   -22786 
  -22781   -22767   -22755   -22755   -22761   -22775   -22806   -22847 
  -22890   -22936   -22983   -23024   -23058   -23082   -23090   -23080 
  -23064   -23040   -23002   -22955   -22901   -22846   -22793   -22744 
  -22698   -22662   -22632   -22609   -22593   -22590   -22596   -22611 
  -22632   -22658   -22682   -22702   -22715   -22720   -22719   -22715 
  -22713   -22713   -22721   -22739   -22759   -22785   -22824   -22871 
  -22923   -22985   -23059   -23137   -23225   -23319   -23418   -23517 
  -23611   -23699   -23773   -23832   -23880   -23912   -23930   -23936 
  -23932   -23917   -23900   -23886   -23873   -23868   -23869   -23863 
  -23857   -23846   -23823   -23793   -23757   -23715   -23672   -23630 
  -23596   -23576   -23579   -23598   -23634   -23692   -23768   -23858 
  -23955   -24050   -24138   -24214   -24277   -24320   -24340   -24344 
  -24339   -24318   -24289   -24256   -24219   -24177   -24132   -24079 
  -24031   -23993   -23966   -23954   -23955   -23971   -23997   -24023 
  -24050   -24078   -24098   -24115   -24129   -24140   -24147   -24160 
  -24177   -24193   -24213   -24231   -24243   -24251   -24246   -24228 
  -24209   -24186   -24163   -24144   -24131   -24123   -24111   -24093 
  -24070   -24032   -23974   -23903   -23815   -23706   -23595   -23484 
  -23368   -23252   -23144   -23041   -22941   -22848   -22755   -22661 
  -22567   -22470   -22374   -22285   -22195   -22111   -22038   -21969 
  -21906   -21852   -21799   -21753   -21714   -21678   -21654   -21641 
  -21644   -21656   -21678   -21710   -21753   -21806   -21875   -21957 
  -22052   -22161   -22289   -22426   -22566   -22716   -22862   -22997 
  -23126   -23241   -23338   -23421   -23491   -23548   -23589   -23622 
  -23641   -23652   -23660   -23662   -23660   -23664   -23679   -23693 
  -23714   -23739   -23762   -23787   -23808   -23816   -23815   -23801 
  -23770   -23730   -23684   -23633   -23580   -23534   -23492   -23457 
  -23441   -23442   -23458   -23495   -23549   -23616   -23691   -23768 
  -23836   -23899   -23947   -23977   -23992   -24001   -24003   -23996 
  -23986   -23973   -23957   -23940   -23922   -23899   -23874   -23849 
  -23820   -23789   -23755   -23715   -23672   -23626   -23573   -23522 
  -23471   -23421   -23379   -23337   -23301   -23276   -23265   -23261 
  -23268   -23283   -23299   -23317   -23336   -23350   -23364   -23376 
  -23387   -23398   -23411   -23421   -23423   -23417   -23398   -23368 
  -23325   -23269   -23213   -23159   -23113   -23082   -23066   -23062 
  -23070   -23079   -23089   -23095   -23099   -23098   -23094   -23093 
  -23093   -23093   -23091   -23089   -23089   -23094   -23105   -23120 
  -23134   -23153   -23174   -23188   -23199   -23210   -23217   -23221 
  -23220   -23215   -23211   -23210   -23210   -23211   -23217   -23224 
  -23225   -23226   -23236   -23248   -23268   -23291   -23318   -23353 
  -23392   -23430   -23475   -23523   -23568   -23616   -23665   -23710 
  -23754   -23800   -23843   -23881   -23913   -23939   -23954   -23959 
  -23957   -23943   -23922   -23896   -23866   -23834   -23800   -23762 
  -23722   -23674   -23626   -23571   -23506   -23438   -23369   -23301 
  -23234   -23171   -23113   -23066   -23025   -22993   -22968   -22950 
  -22932   -22920   -22913   -22910   -22917   -22932   -22954   -22978 
  -23008   -23035   -23056   -23071   -23082   -23086   -23080   -23070 
  -23062   -23055   -23056   -23063   -23074   -23089   -23105   -23121 
  -23134   -23141   -23149   -23159   -23168   -23183   -23203   -23229 
  -23260   -23295   -23336   -23377   -23418   -23465   -23512   -23561 
  -23615   -23677   -23746   -23820   -23901   -23988   -24074   -24159 
  -24233   -24297   -24349   -24382   -24394   -24387   -24354   -24304 
  -24241   -24166   -24086   -24005   -23917   -23826   -23727   -23620 
  -23506   -23384   -23261   -23136   -23002   -22870   -22742   -22611 
  -22482   -22360   -22241   -22129   -22022   -21924   -21830   -21747 
  -21672   -21609   -21556   -21510   -21477   -21456   -21444   -21443 
  -21454   -21473   -21497   -21529   -21570   -21620   -21675   -21741 
  -21816   -21898   -21998   -22115   -22248   -22396   -22554   -22719 
  -22886   -23049   -23203   -23348   -23473   -23583   -23681   -23766 
  -23842   -23911   -23976   -24035   -24088   -24138   -24177   -24208 
  -24233   -24251   -24262   -24268   -24270   -24264   -24255   -24247 
  -24241   -24239   -24243   -24256   -24277   -24308   -24345   -24386 
  -24432   -24479   -24522   -24563   -24601   -24629   -24646   -24651 
  -24645   -24625   -24591   -24552   -24505   -24455   -24406   -24368 
  -24340   -24321   -24317   -24322   -24336   -24358   -24378   -24395 
  -24416   -24432   -24444   -24456   -24462   -24466   -24468   -24464 
  -24453   -24443   -24430   -24409   -24379   -24349   -24314   -24271 
  -24224   -24173   -24113   -24047   -23976   -23897   -23815   -23728 
  -23634   -23531   -23426   -23319   -23210   -23093   -22975   -22863 
  -22752   -22646   -22549   -22461   -22385   -22322   -22264   -22219 
  -22184   -22149   -22121   -22098   -22077   -22063   -22050   -22041 
  -22044   -22050   -22065   -22092   -22126   -22168   -22212   -22257 
  -22297   -22339   -22384   -22426   -22464   -22501   -22531   -22551 
  -22569   -22576   -22570   -22551   -22523   -22484   -22437   -22381 
  -22322   -22261   -22200   -22144   -22088   -22032   -21982   -21937 
  -21898   -21874   -21871   -21879   -21909   -21960   -22023   -22104 
  -22198   -22295   -22399   -22504   -22609   -22715   -22813   -22908 
  -22994   -23072   -23148   -23218   -23286   -23353   -23415   -23476 
  -23538   -23602   -23669   -23733   -23792   -23849   -23896   -23932 
  -23962   -23988   -24012   -24035   -24054   -24079   -24112   -24143 
  -24167   -24197   -24229   -24263   -24298   -24335   -24370   -24402 
  -24424   -24432   -24426   -24406   -24372   -24328   -24273   -24214 
  -24162   -24108   -24055   -24013   -23981   -23951   -23922   -23890 
  -23857   -23822   -23777   -23719   -23654   -23587   -23521   -23461 
  -23407   -23367   -23340   -23322   -23314   -23313   -23315   -23319 
  -23321   -23318   -23313   -23303   -23292   -23282   -23268   -23253 
  -23238   -23222   -23206   -23191   -23174   -23157   -23145   -23140 
  -23145   -23159   -23183   -23214   -23252   -23292   -23332   -23363 
  -23386   -23403   -23409   -23402   -23390   -23375   -23355   -23332 
  -23307   -23282   -23264   -23249   -23232   -23218   -23209   -23201 
  -23199   -23202   -23211   -23226   -23252   -23287   -23326   -23375 
  -23431   -23487   -23545   -23603   -23656   -23700   -23745   -23789 
  -23828   -23861   -23889   -23912   -23928   -23935   -23931   -23916 
  -23886   -23847   -23799   -23745   -23693   -23642   -23593   -23557 
  -23525   -23496   -23475   -23458   -23449   -23446   -23448   -23456 
  -23464   -23469   -23476   -23481   -23480   -23477   -23469   -23457 
  -23441   -23421   -23398   -23377   -23359   -23340   -23328   -23319 
  -23309   -23296   -23291   -23282   -23267   -23247   -23220   -23180 
  -23133   -23082   -23025   -22968   -22917   -22866   -22815   -22774 
  -22743   -22713   -22692   -22682   -22682   -22690   -22704   -22725 
  -22755   -22792   -22833   -22877   -22920   -22966   -23009   -23044 
  -23076   -23106   -23134   -23164   -23188   -23210   -23225   -23232 
  -23234   -23236   -23228   -23214   -23201   -23190   -23180   -23171 
  -23156   -23141   -23120   -23089   -23058   -23022   -22986   -22950 
  -22916   -22882   -22855   -22835   -22820   -22812   -22808   -22802 
  -22802   -22804   -22802   -22808   -22819   -22831   -22850   -22882 
  -22918   -22956   -23001   -23049   -23093   -23136   -23182   -23221 
  -23251   -23272   -23288   -23294   -23288   -23279   -23267   -23249 
  -23230   -23211   -23195   -23186   -23183   -23182   -23186   -23203 
  -23226   -23247   -23268   -23291   -23306   -23315   -23322   -23326 
  -23325   -23322   -23326   -23332   -23340   -23355   -23372   -23395 
  -23423   -23448   -23475   -23504   -23529   -23548   -23558   -23560 
  -23553   -23542   -23530   -23508   -23483   -23463   -23440   -23410 
  -23380   -23352   -23325   -23298   -23274   -23255   -23240   -23236 
  -23234   -23232   -23233   -23241   -23245   -23244   -23240   -23230 
  -23214   -23201   -23193   -23187   -23187   -23198   -23222   -23256 
  -23294   -23337   -23390   -23444   -23495   -23548   -23596   -23633 
  -23661   -23684   -23697   -23699   -23691   -23674   -23652   -23623 
  -23591   -23561   -23531   -23502   -23484   -23480   -23481   -23492 
  -23514   -23544   -23579   -23616   -23658   -23706   -23745   -23776 
  -23797   -23807   -23805   -23795   -23777   -23757   -23741   -23734 
  -23741   -23758   -23787   -23822   -23862   -23905   -23949   -23985 
  -24020   -24055   -24086   -24112   -24138   -24163   -24185   -24197 
  -24204   -24205   -24198   -24187   -24170   -24139   -24096   -24047 
  -23992   -23924   -23854   -23780   -23703   -23623   -23542   -23458 
  -23375   -23287   -23195   -23101   -23006   -22917   -22832   -22754 
  -22682   -22620   -22572   -22530   -22493   -22468   -22451   -22442 
  -22446   -22462   -22489   -22528   -22573   -22623   -22675   -22731 
  -22788   -22844   -22898   -22947   -22986   -23020   -23048   -23070 
  -23087   -23103   -23122   -23149   -23179   -23220   -23265   -23314 
  -23368   -23427   -23480   -23529   -23577   -23625   -23666   -23707 
  -23745   -23776   -23805   -23832   -23859   -23885   -23912   -23940 
  -23971   -24007   -24047   -24089   -24129   -24171   -24204   -24220 
  -24224   -24212   -24182   -24136   -24077   -24008   -23926   -23841 
  -23755   -23668   -23581   -23502   -23426   -23357   -23298   -23247 
  -23198   -23164   -23140   -23117   -23099   -23089   -23079   -23070 
