Origin Time       2025/01/13 21:19:00
Lat.              31.8
Long.             131.6
Depth. (km)       30
Mag.              6.9
Station Code      SAGH05
Station Lat.      33.1806
Station Long.     130.1046
Station Height(m) -185
Record Time       2025/01/13 21:20:04
Sampling Freq(Hz) 100Hz
Duration Time(s)  201
Dir.              3
Scale Factor      2942(gal)/8224139
Max. Acc. (gal)   1.066
Last Correction   2025/01/13 21:20:04
Memo.             
[...]
   39627    39615    39573    39499    39399    39280    39151    39016 
   38885    38763    38654    38556    38466    38392    38329    38273 
   38225    38176    38115    38044    37962    37871    37789    37724 
   37677    37652    37659    37696    37759    37845    37943    38037 
   38122    38195    38253    38311    38380    38458    38541    38628 
   38715    38789    38850    38900    38940    38970    38983    38990 
   38992    38985    38971    38959    38950    38939    38924    38904 
   38884    38867    38858    38866    38888    38920    38952    38977 
   38985    38977    38959    38938    38907    38866    38816    38765 
   38718    38672    38634    38611    38600    38600    38611    38619 
   38616    38596    38560    38516    38475    38435    38403    38394 
   38406    38442    38506    38591    38692    38803    38908    38998 
   39069    39118    39151    39166    39171    39172    39171    39171 
   39182    39204    39229    39259    39295    39341    39394    39442 
   39480    39510    39540    39575    39610    39640    39652    39649 
   39638    39618    39584    39542    39491    39430    39363    39294 
   39226    39156    39086    39016    38939    38855    38765    38665 
   38564    38468    38375    38292    38233    38194    38163    38145 
   38142    38151    38168    38198    38240    38291    38342    38400 
   38461    38516    38565    38599    38614    38612    38599    38573 
   38541    38504    38465    38422    38369    38311    38253    38198 
   38151    38114    38083    38063    38049    38030    38009    37979 
   37930    37864    37779    37675    37570    37484    37419    37382 
   37376    37399    37453    37531    37628    37736    37847    37962 
   38082    38214    38357    38507    38658    38808    38952    39093 
   39231    39360    39478    39588    39691    39785    39881    39976 
   40062    40135    40190    40232    40269    40297    40316    40324 
   40323    40313    40288    40242    40181    40109    40027    39943 
   39865    39788    39712    39640    39568    39498    39428    39356 
   39279    39201    39125    39062    39012    38970    38928    38881 
   38830    38772    38711    38657    38615    38587    38570    38572 
   38591    38632    38696    38780    38880    38993    39121    39262 
   39410    39567    39725    39887    40042    40177    40284    40355 
   40397    40414    40410    40386    40347    40294    40234    40180 
   40131    40081    40030    39978    39911    39825    39726    39614 
   39502    39394    39278    39151    39025    38904    38781    38658 
   38539    38429    38322    38222    38126    38041    37971    37912 
   37860    37820    37789    37766    37752    37750    37752    37770 
   37797    37817    37840    37867    37887    37905    37926    37953 
   37986    38028    38075    38132    38202    38277    38356    38433 
   38497    38543    38564    38564    38549    38519    38476    38418 
   38348    38264    38171    38074    37975    37876    37782    37685 
   37579    37471    37362    37249    37137    37038    36960    36900 
   36856    36834    36830    36838    36861    36904    36967    37042 
   37125    37211    37295    37376    37451    37521    37592    37663 
   37727    37790    37856    37928    38010    38097    38186    38275 
   38361    38438    38504    38560    38604    38643    38688    38746 
   38811    38874    38940    38997    39043    39079    39109    39132 
   39154    39167    39172    39171    39154    39117    39069    39010 
   38947    38888    38838    38804    38785    38784    38800    38819 
   38830    38834    38830    38820    38803    38773    38743    38730 
   38719    38704    38677    38637    38581    38508    38414    38306 
   38187    38067    37953    37848    37751    37673    37608    37554 
   37516    37497    37490    37496    37515    37542    37579    37629 
   37686    37754    37825    37893    37955    38021    38094    38172 
   38263    38367    38479    38587    38692    38799    38908    39012 
   39102    39178    39235    39270    39283    39282    39267    39244 
   39216    39189    39164    39139    39110    39074    39025    38965 
   38897    38827    38758    38692    38634    38588    38549    38511 
   38476    38446    38426    38418    38422    38442    38481    38535 
   38607    38689    38776    38873    38981    39087    39195    39305 
   39402    39491    39573    39649    39723    39798    39868    39947 
   40031    40107    40170    40221    40252    40259    40248    40216 
   40165    40095    40014    39928    39849    39769    39699    39641 
   39596    39563    39536    39513    39495    39480    39464    39437 
   39398    39345    39285    39221    39156    39098    39051    39008 
   38965    38925    38894    38874    38862    38855    38847    38832 
   38808    38767    38709    38634    38541    38429    38304    38182 
   38061    37948    37855    37779    37719    37670    37635    37616 
   37608    37609    37627    37656    37690    37728    37767    37805 
   37847    37890    37933    37986    38051    38126    38213    38311 
   38425    38553    38688    38835    38993    39152    39306    39452 
   39584    39703    39808    39897    39973    40042    40103    40154 
   40205    40252    40297    40342    40389    40439    40495    40552 
   40605    40647    40671    40675    40660    40628    40578    40509 
   40423    40323    40213    40099    39982    39866    39754    39648 
   39546    39449    39360    39275    39187    39098    39008    38908 
   38803    38699    38591    38477    38373    38283    38210    38157 
   38126    38118    38130    38156    38187    38226    38265    38304 
   38348    38392    38429    38454    38465    38466    38462    38452 
   38437    38422    38400    38373    38345    38315    38287    38263 
   38238    38207    38178    38148    38119    38094    38067    38034 
   37994    37948    37895    37837    37778    37719    37659    37605 
   37557    37513    37480    37458    37451    37455    37469    37486 
   37508    37527    37542    37555    37567    37575    37577    37566 
   37548    37527    37508    37501    37515    37550    37604    37670 
   37754    37851    37955    38060    38164    38260    38342    38414 
   38473    38518    38551    38583    38603    38612    38626    38634 
   38634    38635    38630    38605    38568    38518    38452    38372 
   38286    38192    38097    38003    37910    37820    37737    37669 
   37612    37567    37543    37531    37525    37530    37540    37551 
   37563    37585    37625    37685    37755    37837    37930    38029 
   38136    38248    38357    38461    38554    38631    38697    38751 
   38789    38813    38828    38835    38840    38854    38877    38913 
   38962    39021    39090    39164    39241    39317    39390    39459 
   39518    39571    39614    39644    39650    39640    39622    39596 
   39564    39537    39514    39491    39474    39461    39453    39453 
   39457    39461    39465    39463    39452    39432    39405    39375 
   39340    39298    39258    39222    39191    39166    39143    39120 
   39097    39070    39039    39005    38970    38942    38923    38916 
   38923    38940    38971    39009    39044    39071    39083    39081 
   39066    39043    39020    38992    38962    38935    38908    38885 
   38871    38865    38858    38857    38858    38854    38848    38843 
   38836    38826    38812    38794    38781    38765    38749    38742 
   38740    38746    38761    38776    38788    38800    38812    38827 
   38843    38857    38869    38878    38880    38877    38873    38869 
   38869    38875    38888    38911    38946    38990    39044    39104 
   39170    39237    39302    39359    39399    39417    39409    39380 
   39336    39278    39210    39137    39064    38989    38901    38805 
   38709    38612    38515    38433    38360    38288    38226    38173 
   38124    38078    38034    37989    37937    37886    37843    37808 
   37785    37778    37790    37812    37839    37867    37891    37912 
   37928    37936    37936    37936    37933    37933    37936    37941 
   37944    37941    37932    37916    37894    37872    37855    37840 
   37836    37847    37867    37902    37963    38038    38109    38169 
   38225    38273    38315    38352    38389    38427    38461    38499 
   38526    38546    38570    38596    38620    38650    38681    38705 
   38734    38772    38816    38866    38920    38975    39024    39064 
   39102    39135    39162    39191    39225    39258    39295    39333 
   39368    39405    39447    39491    39540    39596    39657    39727 
   39810    39897    39991    40086    40174    40252    40313    40354 
   40377    40382    40369    40340    40298    40246    40192    40144 
   40105    40084    40089    40111    40142    40184    40231    40278 
   40317    40342    40348    40336    40312    40274    40217    40149 
   40077    39999    39918    39850    39803    39772    39754    39752 
   39761    39776    39789    39800    39808    39806    39791    39771 
   39745    39718    39688    39660    39640    39622    39604    39586 
   39568    39552    39534    39519    39509    39503    39506    39510 
   39513    39519    39519    39510    39499    39484    39467    39453 
   39441    39432    39428    39426    39421    39406    39379    39339 
   39285    39214    39127    39013    38873    38711    38535    38349 
   38157    37968    37779    37593    37417    37257    37111    36990 
   36890    36809    36742    36691    36656    36633    36620    36620 
   36636    36668    36711    36768    36838    36917    37002    37088 
   37174    37260    37347    37435    37519    37605    37696    37790 
   37887    37980    38061    38130    38187    38226    38245    38242 
   38221    38187    38141    38086    38037    37998    37968    37947 
   37944    37955    37976    38010    38047    38084    38128    38165 
   38191    38213    38233    38250    38263    38265    38264    38269 
   38277    38287    38303    38329    38364    38407    38458    38522 
   38592    38664    38735    38807    38869    38919    38961    38992 
   39016    39037    39054    39066    39075    39086    39093    39093 
   39094    39096    39101    39114    39136    39162    39199    39243 
   39285    39321    39349    39366    39370    39363    39355    39348 
   39341    39341    39344    39337    39317    39285    39237    39175 
   39108    39044    38990    38950    38921    38897    38873    38844 
   38805    38759    38703    38641    38578    38519    38469    38431 
   38392    38348    38298    38234    38153    38059    37955    37837 
   37717    37600    37490    37400    37332    37289    37276    37287 
   37315    37355    37404    37457    37509    37562    37615    37663 
   37710    37756    37794    37833    37876    37922    37971    38029 
   38090    38151    38218    38295    38372    38450    38530    38599 
   38658    38704    38730    38746    38754    38750    38742    38734 
   38727    38726    38738    38765    38805    38859    38920    38979 
   39037    39085    39120    39140    39140    39132    39121    39105 
   39089    39079    39073    39074    39090    39112    39139    39177 
   39224    39279    39348    39426    39511    39600    39688    39766 
   39841    39911    39972    40020    40066    40108    40146    40189 
   40232    40279    40336    40402    40479    40564    40659    40759 
   40861    40957    41044    41118    41169    41195    41200    41180 
   41130    41058    40969    40868    40763    40664    40570    40489 
   40423    40365    40315    40271    40228    40180    40127    40068 
   40005    39943    39881    39820    39764    39710    39658    39613 
   39571    39533    39498    39461    39413    39357    39293    39213 
   39129    39047    38961    38877    38800    38723    38645    38562 
   38472    38377    38275    38157    38029    37894    37758    37627 
   37503    37385    37280    37183    37092    37008    36938    36882 
   36836    36802    36783    36774    36771    36765    36753    36736 
   36710    36683    36670    36672    36693    36736    36806    36896 
   37000    37111    37224    37330    37432    37531    37620    37709 
   37798    37889    37987    38094    38200    38308    38418    38534 
   38657    38781    38908    39036    39162    39286    39406    39518 
   39619    39707    39781    39849    39906    39953    39992    40026 
   40051    40069    40082    40088    40080    40059    40026    39980 
   39924    39858    39784    39711    39637    39560    39490    39422 
   39361    39313    39272    39240    39218    39195    39172    39156 
   39144    39133    39135    39152    39181    39218    39268    39330 
   39399    39472    39546    39617    39691    39768    39847    39928 
   40011    40097    40185    40274    40369    40467    40563    40655 
   40744    40824    40895    40952    40991    41015    41026    41019 
   40991    40942    40883    40807    40710    40598    40481    40358 
   40228    40095    39960    39818    39671    39523    39370    39205 
   39029    38851    38670    38485    38303    38129    37960    37797 
   37640    37486    37338    37199    37066    36944    36837    36747 
   36668    36598    36532    36474    36421    36364    36308    36252 
   36194    36134    36076    36022    35968    35919    35877    35839 
   35807    35779    35756    35743    35743    35746    35756    35773 
   35788    35802    35822    35850    35885    35928    35976    36031 
   36093    36157    36217    36275    36332    36381    36424    36470 
   36513    36548    36583    36621    36659    36707    36769    36848 
   36948    37071    37210    37361    37524    37694    37867    38041 
   38213    38381    38547    38711    38870    39024    39170    39307 
   39433    39541    39634    39707    39768    39816    39852    39880 
   39908    39938    39976    40022    40078    40139    40208    40288 
   40366    40439    40510    40572    40620    40653    40672    40679 
   40668    40643    40605    40559    40508    40451    40394    40340 
   40284    40227    40176    40130    40080    40026    39974    39927 
   39877    39834    39798    39761    39726    39700    39679    39660 
   39641    39626    39610    39591    39571    39545    39514    39484 
   39459    39444    39440    39447    39459    39472    39482    39487 
   39486    39478    39465    39451    39433    39415    39398    39388 
   39394    39415    39448    39487    39532    39580    39625    39656 
   39672    39679    39671    39646    39606    39549    39480    39409 
   39333    39262    39197    39141    39098    39066    39039    39024 
   39023    39032    39044    39058    39063    39062    39048    39013 
   38966    38909    38834    38749    38658    38558    38453    38348 
   38246    38152    38063    37979    37909    37847    37790    37744 
   37713    37696    37682    37675    37675    37677    37681    37689 
   37694    37697    37704    37713    37725    37741    37756    37774 
   37793    37806    37821    37833    37845    37856    37856    37854 
   37852    37849    37847    37845    37840    37831    37816    37790 
   37759    37727    37687    37647    37608    37565    37523    37481 
   37440    37404    37374    37349    37331    37320    37316    37316 
   37323    37332    37343    37358    37377    37401    37435    37473 
   37520    37571    37620    37666    37704    37735    37760    37786 
   37813    37841    37872    37916    37967    38021    38080    38141 
   38196    38242    38281    38310    38323    38325    38319    38307 
   38295    38287    38295    38326    38383    38461    38556    38661 
   38773    38886    38997    39113    39235    39352    39467    39582 
   39687    39785    39883    39974    40066    40158    40247    40335 
   40421    40505    40590    40668    40736    40794    40840    40869 
   40888    40899    40899    40899    40899    40886    40869    40852 
   40826    40794    40765    40740    40718    40699    40678    40659 
   40639    40609    40574    40531    40482    40428    40369    40306 
   40247    40188    40131    40081    40034    39989    39945    39899 
   39850    39795    39737    39676    39604    39529    39455    39379 
   39305    39235    39166    39091    39019    38944    38861    38776 
   38691    38603    38516    38431    38348    38267    38190    38117 
   38051    37989    37935    37887    37844    37800    37758    37716 
   37673    37624    37563    37494    37413    37318    37212    37100 
   36983    36859    36728    36610    36506    36416    36343    36285 
   36238    36198    36171    36151    36136    36127    36120    36113 
   36103    36089    36077    36067    36063    36072    36088    36117 
   36159    36202    36248    36297    36336    36366    36391    36406 
   36408    36400    36389    36381    36373    36373    36383    36408 
   36448    36506    36579    36663    36761    36868    36972    37075 
   37173    37265    37353    37440    37528    37617    37712    37812 
   37918    38028    38141    38263    38385    38512    38639    38762 
   38878    38989    39093    39193    39283    39367    39445    39519 
   39588    39653    39715    39773    39823    39864    39897    39923 
   39935    39934    39927    39912    39889    39861    39826    39787 
   39748    39703    39657    39615    39580    39549    39518    39488 
   39461    39437    39418    39407    39410    39430    39464    39513 
   39584    39668    39760    39864    39973    40086    40197    40301 
   40402    40501    40598    40694    40784    40873    40961    41038 
   41107    41168    41216    41253    41277    41285    41283    41272 
   41251    41224    41191    41153    41108    41057    41006    40954 
   40902    40852    40806    40763    40725    40689    40647    40602 
   40554    40489    40409    40316    40201    40069    39922    39756 
   39575    39384    39191    38996    38800    38615    38438    38264 
   38101    37951    37806    37667    37540    37426    37312    37208 
   37120    37038    36956    36877    36806    36732    36655    36583 
   36509    36435    36375    36325    36279    36243    36219    36205 
   36202    36212    36229    36256    36289    36327    36371    36421 
   36471    36517    36560    36601    36630    36647    36656    36663 
   36666    36668    36675    36686    36699    36717    36745    36778 
   36817    36867    36922    36981    37045    37112    37181    37255 
   37328    37404    37488    37575    37663    37752    37845    37941 
   38038    38136    38233    38327    38419    38507    38589    38665 
   38734    38799    38862    38921    38978    39032    39083    39132 
   39177    39212    39244    39275    39303    39333    39361    39391 
   39420    39445    39467    39486    39499    39503    39503    39505 
   39503    39501    39507    39521    39546    39583    39629    39687 
   39762    39842    39930    40023    40108    40184    40250    40302 
   40346    40374    40389    40400    40402    40397    40394    40390 
   40379    40370    40359    40344    40321    40294    40255    40207 
   40149    40078    39995    39903    39802    39691    39579    39467 
