Origin Time       2025/01/13 21:19:00
Lat.              31.8
Long.             131.6
Depth. (km)       30
Mag.              6.9
Station Code      SAGH03
Station Lat.      33.4098
Station Long.     130.2329
Station Height(m) 272
Record Time       2025/01/13 21:20:33
Sampling Freq(Hz) 100Hz
Duration Time(s)  120
Dir.              3
Scale Factor      2942(gal)/8224139
Max. Acc. (gal)   0.900
Last Correction   2025/01/13 21:20:33
Memo.             
[...]
  -54228   -54230   -54253   -54284   -54324   -54372   -54417   -54460 
  -54506   -54549   -54581   -54614   -54648   -54672   -54689   -54706 
  -54712   -54714   -54714   -54700   -54680   -54652   -54608   -54552 
  -54500   -54460   -54426   -54394   -54364   -54346   -54342   -54346 
  -54360   -54379   -54399   -54419   -54440   -54461   -54488   -54515 
  -54540   -54553   -54560   -54569   -54577   -54581   -54591   -54607 
  -54629   -54654   -54683   -54710   -54733   -54756   -54776   -54792 
  -54808   -54818   -54820   -54824   -54828   -54837   -54857   -54882 
  -54905   -54926   -54945   -54957   -54972   -54990   -55008   -55017 
  -55019   -55016   -55017   -55023   -55030   -55030   -55030   -55039 
  -55054   -55069   -55088   -55112   -55146   -55188   -55235   -55290 
  -55354   -55413   -55462   -55502   -55540   -55570   -55582   -55576 
  -55555   -55520   -55478   -55422   -55354   -55283   -55213   -55139 
  -55066   -54989   -54907   -54822   -54741   -54668   -54600   -54544 
  -54499   -54469   -54452   -54448   -54454   -54472   -54500   -54531 
  -54552   -54565   -54576   -54581   -54577   -54565   -54542   -54517 
  -54500   -54492   -54491   -54492   -54492   -54498   -54518   -54553 
  -54591   -54630   -54672   -54716   -54761   -54810   -54858   -54904 
  -54949   -54997   -55043   -55080   -55111   -55139   -55159   -55170 
  -55170   -55159   -55142   -55113   -55077   -55042   -54999   -54954 
  -54927   -54908   -54889   -54874   -54858   -54839   -54819   -54796 
  -54761   -54711   -54652   -54583   -54502   -54419   -54338   -54256 
  -54179   -54112   -54054   -54006   -53977   -53960   -53947   -53941 
  -53952   -53974   -54008   -54059   -54125   -54201   -54287   -54378 
  -54483   -54596   -54702   -54795   -54877   -54943   -54993   -55027 
  -55042   -55040   -55030   -55012   -54986   -54953   -54908   -54853 
  -54788   -54724   -54666   -54604   -54533   -54461   -54396   -54344 
  -54310   -54291   -54282   -54276   -54278   -54291   -54318   -54349 
  -54384   -54423   -54464   -54508   -54553   -54595   -54637   -54691 
  -54762   -54842   -54919   -54992   -55058   -55115   -55159   -55190 
  -55202   -55205   -55204   -55194   -55183   -55173   -55161   -55152 
  -55151   -55152   -55156   -55163   -55175   -55196   -55228   -55269 
  -55317   -55368   -55425   -55479   -55525   -55564   -55593   -55593 
  -55570   -55536   -55486   -55425   -55358   -55279   -55194   -55107 
  -55015   -54920   -54826   -54738   -54664   -54600   -54550   -54502 
  -54456   -54414   -54371   -54332   -54299   -54268   -54240   -54222 
  -54209   -54203   -54220   -54259   -54315   -54390   -54476   -54567 
  -54656   -54738   -54820   -54909   -54994   -55071   -55147   -55219 
  -55286   -55359   -55429   -55490   -55540   -55567   -55571   -55561 
  -55536   -55494   -55437   -55370   -55294   -55216   -55144   -55081 
  -55015   -54945   -54876   -54814   -54761   -54716   -54680   -54661 
  -54661   -54662   -54658   -54656   -54650   -54634   -54607   -54572 
  -54527   -54488   -54463   -54449   -54450   -54473   -54518   -54576 
  -54642   -54718   -54791   -54846   -54878   -54891   -54891   -54876 
  -54847   -54812   -54777   -54742   -54711   -54681   -54654   -54629 
  -54604   -54583   -54558   -54533   -54506   -54483   -54476   -54479 
  -54487   -54504   -54522   -54542   -54573   -54608   -54646   -54695 
  -54753   -54805   -54853   -54891   -54918   -54928   -54923   -54900 
  -54858   -54796   -54719   -54634   -54545   -54453   -54355   -54249 
  -54145   -54044   -53950   -53870   -53801   -53743   -53697   -53666 
  -53651   -53651   -53661   -53670   -53676   -53670   -53661   -53655 
  -53646   -53624   -53597   -53570   -53546   -53531   -53524   -53526 
  -53541   -53565   -53593   -53627   -53659   -53682   -53698   -53712 
  -53715   -53711   -53704   -53697   -53696   -53705   -53732   -53785 
  -53855   -53940   -54032   -54126   -54221   -54305   -54382   -54452 
  -54504   -54533   -54544   -54541   -54526   -54502   -54473   -54449 
  -54434   -54430   -54441   -54465   -54502   -54552   -54611   -54676 
  -54746   -54815   -54872   -54927   -54984   -55032   -55075   -55117 
  -55162   -55198   -55225   -55246   -55262   -55273   -55277   -55271 
  -55259   -55244   -55227   -55209   -55202   -55212   -55233   -55263 
  -55306   -55355   -55409   -55474   -55540   -55602   -55667   -55730 
  -55782   -55823   -55858   -55883   -55900   -55910   -55907   -55904 
  -55896   -55875   -55848   -55818   -55784   -55748   -55711   -55678 
  -55642   -55611   -55586   -55563   -55551   -55547   -55551   -55571 
  -55603   -55638   -55668   -55698   -55736   -55769   -55794   -55817 
  -55831   -55837   -55844   -55848   -55840   -55833   -55825   -55813 
  -55811   -55823   -55840   -55860   -55891   -55931   -55973   -56022 
  -56077   -56130   -56177   -56227   -56273   -56312   -56351   -56393 
  -56430   -56457   -56477   -56481   -56465   -56424   -56363   -56288 
  -56197   -56083   -55938   -55777   -55609   -55432   -55251   -55066 
  -54880   -54702   -54537   -54382   -54237   -54106   -53985   -53878 
  -53784   -53701   -53628   -53572   -53527   -53495   -53470   -53453 
  -53438   -53426   -53414   -53399   -53387   -53377   -53366   -53358 
  -53360   -53373   -53397   -53424   -53457   -53497   -53554   -53620 
  -53688   -53754   -53820   -53885   -53947   -54004   -54060   -54120 
  -54172   -54220   -54260   -54294   -54326   -54356   -54384   -54413 
  -54446   -54486   -54534   -54589   -54653   -54724   -54805   -54891 
  -54976   -55062   -55143   -55215   -55275   -55329   -55370   -55399 
  -55421   -55425   -55406   -55382   -55355   -55321   -55286   -55247 
  -55198   -55140   -55071   -54994   -54915   -54834   -54753   -54670 
  -54587   -54513   -54448   -54390   -54346   -54321   -54305   -54295 
  -54298   -54306   -54307   -54311   -54321   -54330   -54341   -54353 
  -54367   -54382   -54400   -54423   -54446   -54463   -54472   -54480 
  -54491   -54507   -54519   -54527   -54537   -54544   -54545   -54544 
  -54544   -54540   -54525   -54506   -54483   -54450   -54407   -54357 
  -54301   -54234   -54162   -54082   -54002   -53917   -53829   -53744 
  -53666   -53590   -53516   -53460   -53416   -53381   -53362   -53362 
  -53379   -53412   -53461   -53523   -53593   -53667   -53752   -53847 
  -53941   -54041   -54137   -54226   -54311   -54388   -54456   -54514 
  -54558   -54580   -54591   -54595   -54589   -54581   -54576   -54580 
  -54602   -54635   -54681   -54745   -54819   -54900   -54986   -55070 
  -55146   -55210   -55266   -55305   -55331   -55348   -55352   -55337 
  -55310   -55273   -55225   -55167   -55093   -55008   -54927   -54843 
  -54758   -54675   -54594   -54522   -54461   -54409   -54365   -54338 
  -54326   -54326   -54341   -54361   -54388   -54427   -54481   -54548 
  -54626   -54718   -54816   -54916   -55026   -55143   -55264   -55393 
  -55528   -55656   -55776   -55885   -55977   -56049   -56099   -56127 
  -56143   -56143   -56130   -56110   -56084   -56057   -56033   -56011 
  -55995   -55979   -55964   -55954   -55937   -55907   -55867   -55814 
  -55750   -55682   -55601   -55505   -55394   -55275   -55158   -55036 
  -54911   -54787   -54668   -54553   -54449   -54360   -54286   -54228 
  -54183   -54148   -54120   -54103   -54099   -54109   -54135   -54178 
  -54232   -54297   -54380   -54477   -54583   -54689   -54796   -54897 
  -54993   -55090   -55182   -55262   -55332   -55397   -55449   -55494 
  -55537   -55576   -55609   -55629   -55637   -55637   -55633   -55633 
  -55633   -55630   -55629   -55626   -55622   -55613   -55595   -55561 
  -55517   -55474   -55440   -55413   -55395   -55391   -55397   -55412 
  -55441   -55480   -55520   -55556   -55594   -55629   -55655   -55671 
  -55676   -55675   -55665   -55642   -55611   -55572   -55516   -55445 
  -55364   -55273   -55170   -55063   -54966   -54878   -54799   -54730 
  -54675   -54629   -54588   -54567   -54561   -54565   -54577   -54600 
  -54631   -54662   -54696   -54734   -54773   -54807   -54845   -54893 
  -54946   -55000   -55059   -55119   -55177   -55232   -55289   -55344 
  -55397   -55441   -55476   -55503   -55521   -55528   -55528   -55521 
  -55499   -55470   -55439   -55401   -55359   -55310   -55251   -55186 
  -55119   -55040   -54953   -54859   -54765   -54670   -54579   -54490 
  -54399   -54310   -54224   -54143   -54072   -54010   -53950   -53900 
  -53852   -53798   -53747   -53700   -53650   -53603   -53557   -53515 
  -53478   -53445   -53411   -53380   -53349   -53319   -53289   -53261 
  -53239   -53226   -53223   -53231   -53250   -53283   -53319   -53349 
  -53376   -53401   -53423   -53442   -53454   -53462   -53461   -53453 
  -53447   -53445   -53442   -53439   -53439   -53446   -53461   -53482 
  -53512   -53553   -53592   -53628   -53671   -53720   -53766   -53813 
  -53865   -53920   -53974   -54027   -54076   -54128   -54183   -54240 
  -54299   -54365   -54441   -54522   -54606   -54687   -54765   -54839 
  -54905   -54961   -54997   -55019   -55031   -55038   -55036   -55026 
  -55008   -54988   -54963   -54938   -54913   -54892   -54873   -54858 
  -54851   -54859   -54880   -54911   -54959   -55023   -55096   -55177 
  -55256   -55331   -55397   -55453   -55497   -55526   -55548   -55563 
  -55566   -55560   -55548   -55526   -55495   -55459   -55418   -55372 
  -55317   -55255   -55183   -55100   -55009   -54911   -54804   -54696 
  -54588   -54481   -54382   -54294   -54214   -54136   -54060   -53990 
  -53929   -53881   -53846   -53821   -53809   -53808   -53815   -53833 
  -53865   -53900   -53940   -53994   -54056   -54129   -54207   -54283 
  -54363   -54444   -54519   -54592   -54665   -54727   -54777   -54830 
  -54884   -54934   -54981   -55035   -55093   -55152   -55217   -55289 
  -55358   -55420   -55476   -55528   -55574   -55611   -55638   -55660 
  -55672   -55680   -55684   -55687   -55687   -55688   -55687   -55683 
  -55676   -55661   -55647   -55629   -55602   -55570   -55530   -55482 
  -55435   -55393   -55355   -55321   -55289   -55266   -55256   -55256 
  -55263   -55277   -55298   -55325   -55354   -55375   -55394   -55405 
  -55404   -55389   -55371   -55348   -55314   -55274   -55221   -55161 
  -55093   -55017   -54931   -54832   -54723   -54608   -54492   -54382 
  -54286   -54205   -54144   -54105   -54089   -54091   -54116   -54164 
  -54229   -54311   -54414   -54534   -54670   -54824   -54986   -55146 
  -55301   -55449   -55583   -55696   -55792   -55872   -55926   -55962 
  -55989   -56000   -55999   -55991   -55962   -55917   -55863   -55791 
  -55699   -55594   -55486   -55372   -55252   -55124   -54996   -54873 
  -54751   -54634   -54521   -54407   -54301   -54197   -54091   -53995 
  -53910   -53827   -53758   -53700   -53644   -53605   -53578   -53557 
  -53550   -53555   -53570   -53597   -53636   -53684   -53738   -53797 
  -53862   -53929   -54001   -54070   -54133   -54191   -54243   -54287 
  -54326   -54356   -54380   -54406   -54426   -54449   -54479   -54513 
  -54546   -54589   -54637   -54692   -54756   -54823   -54895   -54969 
  -55046   -55124   -55201   -55269   -55327   -55372   -55406   -55429 
  -55437   -55426   -55404   -55368   -55327   -55285   -55239   -55189 
  -55140   -55101   -55063   -55026   -54989   -54949   -54905   -54861 
  -54812   -54761   -54711   -54665   -54618   -54569   -54521   -54467 
  -54407   -54348   -54288   -54226   -54156   -54081   -54004   -53923 
  -53836   -53754   -53676   -53604   -53538   -53481   -53438   -53414 
  -53410   -53427   -53464   -53509   -53565   -53620   -53669   -53713 
  -53752   -53784   -53800   -53802   -53797   -53792   -53789   -53790 
  -53797   -53811   -53839   -53881   -53933   -53994   -54060   -54129 
  -54205   -54284   -54371   -54459   -54548   -54638   -54723   -54800 
  -54877   -54953   -55027   -55107   -55182   -55254   -55328   -55404 
  -55476   -55545   -55607   -55661   -55707   -55745   -55769   -55784 
  -55799   -55809   -55811   -55811   -55800   -55783   -55760   -55734 
  -55707   -55678   -55647   -55613   -55576   -55536   -55482   -55420 
  -55350   -55264   -55174   -55080   -54982   -54888   -54801   -54723 
  -54649   -54581   -54529   -54486   -54445   -54413   -54387   -54360 
  -54340   -54319   -54299   -54282   -54268   -54264   -54274   -54290 
  -54313   -54348   -54392   -54434   -54473   -54514   -54554   -54589 
  -54625   -54656   -54687   -54724   -54760   -54789   -54815   -54838 
  -54854   -54861   -54858   -54847   -54822   -54792   -54760   -54718 
  -54670   -54621   -54568   -54510   -54448   -54380   -54307   -54229 
  -54152   -54076   -54005   -53940   -53887   -53847   -53819   -53805 
  -53798   -53801   -53813   -53832   -53856   -53882   -53908   -53940 
  -53981   -54020   -54054   -54093   -54139   -54180   -54218   -54259 
  -54297   -54333   -54369   -54400   -54438   -54481   -54525   -54571 
  -54619   -54673   -54746   -54831   -54922   -55026   -55140   -55259 
  -55382   -55512   -55638   -55756   -55864   -55965   -56062   -56149 
  -56224   -56289   -56343   -56385   -56409   -56413   -56400   -56373 
  -56338   -56301   -56258   -56209   -56160   -56106   -56045   -55981 
  -55914   -55834   -55741   -55640   -55526   -55409   -55291   -55171 
  -55044   -54920   -54803   -54685   -54568   -54452   -54332   -54211 
  -54094   -53971   -53838   -53693   -53542   -53380   -53211   -53048 
  -52884   -52725   -52582   -52461   -52362   -52290   -52251   -52250 
  -52288   -52362   -52473   -52610   -52779   -52974   -53179   -53393 
  -53616   -53831   -54035   -54230   -54414   -54583   -54737   -54878 
  -55011   -55136   -55251   -55350   -55433   -55505   -55560   -55602 
  -55629   -55641   -55644   -55638   -55625   -55605   -55583   -55556 
  -55525   -55493   -55456   -55414   -55374   -55329   -55273   -55213 
  -55154   -55084   -55007   -54928   -54845   -54757   -54666   -54576 
  -54484   -54396   -54314   -54238   -54176   -54129   -54089   -54058 
  -54041   -54032   -54028   -54036   -54051   -54074   -54106   -54143 
  -54186   -54238   -54311   -54398   -54492   -54599   -54719   -54841 
  -54961   -55080   -55190   -55290   -55381   -55456   -55514   -55557 
  -55587   -55605   -55603   -55584   -55553   -55509   -55452   -55386 
  -55309   -55229   -55151   -55070   -54984   -54900   -54814   -54720 
  -54622   -54525   -54423   -54321   -54217   -54118   -54032   -53958 
  -53896   -53847   -53812   -53789   -53778   -53784   -53804   -53838 
  -53881   -53936   -54000   -54067   -54147   -54230   -54313   -54399 
  -54488   -54572   -54656   -54735   -54808   -54877   -54942   -55004 
  -55058   -55108   -55156   -55205   -55250   -55296   -55341   -55391 
  -55443   -55493   -55537   -55576   -55611   -55641   -55661   -55676 
  -55686   -55684   -55676   -55664   -55645   -55625   -55605   -55582 
  -55559   -55536   -55512   -55490   -55470   -55448   -55425   -55399 
  -55377   -55355   -55335   -55309   -55277   -55235   -55188   -55135 
  -55078   -55013   -54946   -54880   -54814   -54742   -54670   -54602 
  -54530   -54453   -54378   -54301   -54222   -54139   -54051   -53966 
  -53883   -53805   -53738   -53682   -53632   -53596   -53580   -53573 
  -53573   -53590   -53615   -53642   -53677   -53721   -53769   -53821 
  -53877   -53933   -53991   -54052   -54113   -54171   -54233   -54298 
  -54360   -54413   -54460   -54498   -54522   -54537   -54544   -54538 
  -54529   -54519   -54503   -54487   -54476   -54471   -54471   -54481 
  -54499   -54521   -54549   -54583   -54626   -54679   -54733   -54792 
  -54858   -54924   -54985   -55040   -55085   -55116   -55129   -55125 
  -55101   -55054   -54986   -54899   -54795   -54673   -54537   -54395 
  -54249   -54105   -53970   -53846   -53736   -53650   -53584   -53532 
  -53500   -53493   -53504   -53534   -53586   -53658   -53744   -53844 
  -53954   -54074   -54199   -54326   -54453   -54581   -54704   -54818 
  -54927   -55028   -55116   -55198   -55281   -55358   -55429   -55495 
  -55560   -55628   -55696   -55768   -55848   -55933   -56016   -56101 
  -56185   -56272   -56362   -56446   -56517   -56577   -56623   -56651 
  -56663   -56658   -56640   -56616   -56585   -56543   -56492   -56435 
  -56371   -56301   -56224   -56145   -56053   -55950   -55842   -55726 
  -55605   -55480   -55364   -55255   -55154   -55067   -54997   -54935 
  -54882   -54839   -54801   -54762   -54726   -54692   -54660   -54627 
  -54599   -54579   -54567   -54562   -54572   -54591   -54615   -54643 
  -54679   -54714   -54749   -54783   -54814   -54837   -54851   -54859 
  -54858   -54839   -54810   -54773   -54727   -54670   -54614   -54558 
  -54507   -54457   -54417   -54383   -54345   -54313   -54282   -54245 
  -54210   -54182   -54149   -54120   -54095   -54085   -54081   -54078 
  -54082   -54094   -54109   -54125   -54140   -54157   -54178   -54197 
  -54213   -54229   -54243   -54256   -54270   -54279   -54279   -54270 
  -54253   -54232   -54202   -54167   -54133   -54093   -54049   -54008 
  -53968   -53933   -53897   -53867   -53840   -53811   -53781   -53762 
  -53758   -53762   -53777   -53806   -53850   -53900   -53962   -54032 
  -54103   -54179   -54256   -54326   -54390   -54452   -54514   -54571 
  -54619   -54662   -54704   -54745   -54780   -54811   -54838   -54859 
  -54878   -54897   -54915   -54931   -54939   -54947   -54957   -54962 
  -54972   -54982   -54988   -55003   -55026   -55051   -55085   -55120 
  -55147   -55174   -55200   -55219   -55231   -55236   -55239   -55243 
  -55240   -55231   -55223   -55216   -55205   -55197   -55192   -55186 
  -55181   -55181   -55182   -55186   -55192   -55197   -55208   -55224 
  -55240   -55262   -55286   -55306   -55324   -55339   -55345   -55344 
  -55339   -55329   -55314   -55291   -55270   -55250   -55231   -55217 
  -55209   -55205   -55198   -55192   -55186   -55186   -55189   -55196 
  -55204   -55210   -55220   -55231   -55242   -55251   -55260   -55267 
  -55270   -55275   -55281   -55279   -55275   -55266   -55247   -55227 
  -55205   -55177   -55147   -55120   -55089   -55057   -55027   -54997 
  -54963   -54930   -54901   -54876   -54850   -54830   -54818   -54803 
  -54789   -54781   -54772   -54760   -54758   -54764   -54772   -54785 
  -54805   -54827   -54853   -54882   -54912   -54949   -54985   -55015 
  -55047   -55089   -55132   -55174   -55219   -55273   -55331   -55391 
  -55463   -55543   -55624   -55709   -55798   -55891   -55988   -56085 
  -56181   -56274   -56361   -56442   -56517   -56582   -56636   -56681 
  -56710   -56724   -56718   -56702   -56675   -56631   -56579   -56519 
  -56444   -56363   -56281   -56192   -56092   -55988   -55881   -55771 
  -55659   -55544   -55426   -55309   -55190   -55070   -54951   -54834 
  -54726   -54625   -54527   -54438   -54356   -54282   -54221   -54170 
  -54130   -54103   -54089   -54078   -54072   -54074   -54079   -54081 
  -54089   -54098   -54103   -54117   -54141   -54170   -54203   -54244 
  -54292   -54351   -54409   -54468   -54527   -54579   -54623   -54662 
  -54692   -54716   -54738   -54753   -54761   -54766   -54773   -54773 
  -54768   -54758   -54741   -54718   -54693   -54660   -54612   -54557 
  -54488   -54410   -54329   -54243   -54155   -54070   -53983   -53901 
