Origin Time       2025/01/13 21:19:00
Lat.              31.8
Long.             131.6
Depth. (km)       30
Mag.              6.9
Station Code      SAGH05
Station Lat.      33.1806
Station Long.     130.1046
Station Height(m) -185
Record Time       2025/01/13 21:20:04
Sampling Freq(Hz) 100Hz
Duration Time(s)  201
Dir.              1
Scale Factor      2942(gal)/8224139
Max. Acc. (gal)   1.361
Last Correction   2025/01/13 21:20:04
Memo.             
[...]
   60097    60073    60056    60045    60046    60053    60053    60049 
   60038    60018    59976    59908    59815    59695    59562    59427 
   59301    59189    59092    59012    58942    58880    58824    58772 
   58739    58729    58731    58750    58776    58804    58843    58891 
   58945    58996    59036    59061    59070    59066    59049    59023 
   58988    58941    58885    58822    58757    58699    58649    58606 
   58573    58553    58538    58521    58498    58469    58437    58401 
   58361    58320    58276    58233    58193    58153    58124    58093 
   58059    58029    57998    57964    57929    57897    57871    57850 
   57828    57801    57762    57720    57685    57655    57643    57653 
   57680    57720    57780    57862    57963    58089    58234    58392 
   58553    58716    58868    58999    59105    59186    59247    59292 
   59327    59359    59386    59414    59445    59475    59506    59536 
   59570    59616    59670    59728    59786    59830    59857    59864 
   59846    59811    59769    59732    59710    59711    59738    59791 
   59859    59937    60025    60120    60230    60355    60489    60620 
   60744    60852    60947    61022    61076    61117    61146    61163 
   61169    61168    61156    61138    61125    61110    61083    61056 
   61030    61002    60968    60926    60874    60812    60737    60655 
   60575    60501    60436    60385    60351    60335    60334    60345 
   60369    60401    60436    60473    60511    60551    60593    60628 
   60650    60655    60643    60609    60567    60513    60447    60377 
   60299    60212    60123    60029    59925    59817    59703    59583 
   59459    59329    59200    59081    58980    58895    58835    58800 
   58784    58784    58799    58819    58850    58892    58935    58984 
   59040    59101    59169    59242    59316    59381    59436    59481 
   59516    59540    59553    59566    59579    59583    59580    59564 
   59520    59452    59370    59265    59139    59001    58858    58710 
   58565    58426    58293    58170    58056    57950    57855    57767 
   57686    57613    57545    57472    57403    57341    57285    57244 
   57217    57207    57215    57242    57291    57364    57457    57566 
   57686    57802    57910    58017    58122    58226    58328    58434 
   58541    58645    58760    58887    59016    59152    59290    59421 
   59547    59664    59763    59842    59898    59919    59906    59864 
   59798    59707    59601    59476    59332    59166    58984    58785 
   58588    58401    58229    58090    57989    57925    57905    57932 
   58002    58118    58279    58473    58703    58955    59215    59475 
   59729    59964    60170    60343    60480    60575    60631    60655 
   60654    60627    60583    60532    60470    60400    60320    60242 
   60170    60104    60052    60019    59999    59984    59981    59992 
   60004    60025    60054    60096    60151    60222    60300    60389 
   60486    60589    60691    60786    60870    60933    60975    61005 
   61025    61038    61049    61067    61094    61121    61141    61146 
   61129    61096    61052    60998    60941    60889    60836    60779 
   60727    60671    60605    60532    60451    60357    60251    60138 
   60016    59888    59765    59656    59560    59475    59402    59339 
   59277    59216    59157    59088    59011    58930    58846    58761 
   58675    58592    58517    58446    58378    58303    58220    58125 
   58023    57916    57802    57681    57561    57445    57333    57229 
   57134    57053    56983    56925    56875    56828    56787    56758 
   56733    56717    56718    56731    56743    56755    56763    56755 
   56727    56691    56651    56606    56567    56540    56525    56527 
   56550    56589    56637    56691    56754    56822    56897    56980 
   57079    57194    57327    57480    57653    57843    58047    58255 
   58464    58675    58874    59047    59200    59336    59449    59541 
   59616    59672    59719    59753    59772    59782    59784    59783 
   59780    59780    59782    59786    59788    59798    59821    59859 
   59910    59972    60052    60142    60238    60338    60436    60535 
   60633    60732    60831    60933    61036    61129    61214    61294 
   61365    61431    61501    61572    61645    61717    61777    61821 
   61851    61858    61842    61815    61774    61724    61673    61624 
   61584    61561    61561    61585    61634    61711    61808    61915 
   62024    62120    62193    62245    62274    62276    62257    62217 
   62162    62091    62010    61923    61832    61739    61650    61565 
   61483    61411    61344    61269    61192    61114    61030    60948 
   60867    60786    60712    60636    60562    60494    60430    60374 
   60331    60297    60262    60223    60184    60142    60089    60031 
   59967    59888    59800    59710    59611    59513    59412    59297 
   59177    59054    58922    58784    58648    58507    58365    58226 
   58090    57960    57840    57731    57634    57547    57473    57412 
   57360    57316    57287    57271    57269    57280    57302    57342 
   57393    57449    57504    57558    57605    57646    57681    57709 
   57726    57738    57754    57767    57780    57796    57815    57832 
   57846    57859    57865    57869    57875    57883    57893    57910 
   57933    57950    57963    57974    57979    57983    57989    57997 
   58018    58055    58102    58159    58218    58283    58352    58414 
   58459    58490    58504    58496    58473    58440    58399    58357 
   58321    58291    58261    58233    58202    58163    58121    58086 
   58058    58036    58028    58025    58023    58024    58032    58045 
   58062    58091    58141    58216    58318    58448    58604    58784 
   58982    59189    59394    59591    59779    59937    60057    60150 
   60212    60238    60239    60218    60169    60102    60023    59929 
   59817    59692    59563    59435    59312    59200    59109    59046 
   59008    58990    58995    59027    59084    59157    59250    59362 
   59486    59618    59749    59869    59980    60075    60142    60181 
   60193    60174    60127    60056    59964    59865    59771    59682 
   59601    59526    59459    59397    59335    59277    59221    59171 
   59134    59109    59104    59119    59147    59184    59229    59282 
   59329    59370    59409    59443    59466    59486    59506    59525 
   59544    59563    59578    59583    59584    59578    59562    59536 
   59506    59475    59439    59395    59347    59292    59228    59159 
   59104    59067    59047    59051    59085    59142    59216    59301 
   59393    59487    59583    59672    59751    59821    59879    59926 
   59967    60006    60049    60093    60143    60203    60266    60330 
   60392    60448    60493    60525    60544    60546    60532    60513 
   60486    60444    60396    60339    60276    60214    60153    60095 
   60042    59991    59945    59900    59849    59796    59738    59672 
   59602    59529    59452    59378    59309    59244    59184    59128 
   59077    59027    58977    58936    58903    58872    58853    58845 
   58841    58849    58872    58905    58953    59013    59086    59171 
   59265    59358    59451    59545    59632    59705    59773    59826 
   59850    59852    59832    59790    59733    59670    59606    59548 
   59502    59475    59474    59498    59541    59597    59663    59733 
   59798    59868    59941    60003    60062    60119    60160    60192 
   60220    60242    60259    60280    60305    60339    60370    60399 
   60427    60453    60469    60471    60471    60469    60457    60436 
   60412    60378    60340    60307    60273    60238    60211    60197 
   60192    60196    60208    60222    60228    60226    60212    60195 
   60162    60111    60050    59980    59904    59827    59748    59672 
   59610    59563    59532    59512    59498    59482    59445    59381 
   59287    59158    59000    58822    58622    58413    58212    58024 
   57851    57712    57613    57554    57530    57545    57592    57658 
   57740    57827    57906    57981    58045    58097    58141    58183 
   58226    58272    58318    58355    58383    58396    58391    58375 
   58338    58275    58195    58101    57986    57855    57713    57565 
   57416    57276    57149    57045    56965    56916    56897    56905 
   56932    56972    57025    57082    57134    57181    57217    57235 
   57244    57242    57230    57217    57207    57196    57181    57171 
   57163    57153    57146    57152    57175    57219    57287    57375 
   57480    57592    57707    57821    57936    58051    58160    58261 
   58355    58440    58519    58587    58644    58702    58764    58826 
   58892    58968    59054    59150    59258    59377    59503    59634 
   59767    59900    60029    60146    60259    60369    60473    60577 
   60679    60777    60867    60949    61025    61101    61173    61246 
   61326    61412    61501    61584    61662    61732    61789    61824 
   61838    61824    61790    61739    61677    61614    61555    61508 
   61476    61461    61462    61476    61497    61523    61543    61549 
   61537    61504    61450    61375    61283    61176    61067    60959 
   60848    60737    60624    60507    60390    60272    60145    60014 
   59881    59738    59587    59435    59283    59138    59004    58891 
   58803    58739    58703    58692    58706    58747    58814    58899 
   59003    59119    59233    59337    59428    59494    59536    59556 
   59560    59548    59521    59479    59420    59341    59259    59171 
   59084    59001    58919    58837    58757    58672    58588    58511 
   58446    58407    58399    58428    58495    58594    58716    58855 
   59001    59146    59277    59391    59489    59567    59625    59668 
   59692    59701    59702    59692    59667    59632    59587    59522 
   59447    59366    59275    59188    59111    59042    58978    58923 
   58868    58811    58754    58695    58630    58564    58496    58426 
   58356    58290    58229    58171    58117    58068    58024    57985 
   57952    57937    57946    57975    58031    58114    58224    58353 
   58496    58652    58818    58982    59148    59316    59472    59618 
   59753    59880    60008    60143    60286    60435    60585    60737 
   60885    61013    61119    61209    61269    61302    61310    61290 
   61240    61164    61061    60940    60808    60670    60525    60378 
   60235    60102    59980    59872    59783    59721    59686    59675 
   59692    59738    59803    59883    59972    60069    60174    60288 
   60412    60546    60682    60820    60953    61084    61211    61325 
   61419    61496    61546    61560    61535    61476    61381    61258 
   61115    60955    60786    60610    60428    60249    60073    59899 
   59722    59543    59355    59158    58947    58729    58510    58287 
   58062    57847    57639    57437    57256    57103    56975    56868 
   56774    56685    56601    56513    56425    56347    56278    56223 
   56180    56146    56123    56104    56097    56110    56135    56176 
   56235    56309    56392    56486    56592    56700    56813    56933 
   57056    57179    57294    57392    57473    57537    57584    57618 
   57636    57636    57623    57595    57554    57512    57468    57423 
   57385    57358    57343    57352    57379    57424    57492    57574 
   57676    57797    57933    58082    58244    58418    58600    58791 
   58984    59171    59348    59512    59661    59796    59913    60014 
   60103    60181    60245    60295    60330    60347    60346    60328 
   60295    60249    60201    60160    60130    60120    60129    60157 
   60204    60259    60327    60403    60478    60561    60648    60729 
   60810    60886    60943    60986    61015    61024    61013    60988 
   60956    60921    60886    60858    60836    60818    60809    60813 
   60829    60853    60880    60907    60932    60951    60960    60970 
   60986    61011    61048    61101    61163    61234    61311    61389 
   61465    61531    61584    61628    61665    61686    61701    61716 
   61723    61727    61727    61711    61681    61635    61569    61483 
   61377    61260    61133    60999    60871    60748    60631    60524 
   60424    60332    60249    60170    60089    60007    59923    59841 
   59759    59680    59605    59533    59468    59409    59352    59292 
   59228    59163    59098    59039    58988    58939    58904    58881 
   58855    58833    58811    58787    58768    58752    58735    58716 
   58696    58661    58617    58571    58510    58428    58330    58222 
   58104    57982    57862    57743    57627    57520    57419    57322 
   57231    57152    57083    57022    56970    56929    56895    56868 
   56847    56826    56806    56786    56764    56745    56725    56708 
   56697    56698    56705    56718    56748    56791    56841    56899 
   56964    57028    57088    57140    57186    57235    57289    57343 
   57404    57473    57542    57609    57674    57724    57754    57767 
   57766    57758    57753    57750    57751    57759    57781    57816 
   57867    57936    58031    58156    58305    58473    58665    58869 
   59078    59294    59508    59726    59954    60184    60417    60658 
   60899    61141    61376    61599    61808    62008    62194    62361 
   62513    62650    62768    62866    62953    63023    63074    63109 
   63124    63115    63084    63032    62965    62887    62802    62714 
   62623    62537    62452    62363    62276    62197    62128    62073 
   62028    61992    61965    61943    61917    61886    61844    61786 
   61723    61655    61587    61514    61443    61381    61319    61253 
   61183    61105    61013    60903    60775    60632    60480    60316 
   60150    59985    59818    59652    59489    59337    59197    59063 
   58945    58846    58761    58695    58649    58621    58607    58604 
   58607    58614    58618    58612    58599    58576    58545    58507 
   58468    58432    58395    58360    58333    58314    58302    58299 
   58307    58326    58353    58376    58392    58407    58421    58423 
   58413    58386    58337    58272    58197    58112    58027    57952 
   57892    57844    57813    57801    57813    57848    57906    57982 
   58071    58174    58282    58387    58488    58580    58653    58711 
   58752    58768    58765    58741    58689    58615    58517    58394 
   58249    58086    57902    57712    57519    57326    57137    56955 
   56785    56631    56492    56374    56281    56209    56158    56130 
   56126    56141    56174    56226    56292    56376    56465    56555 
   56646    56731    56802    56864    56914    56949    56965    56963 
   56937    56893    56830    56759    56687    56628    56594    56597 
   56639    56725    56849    57009    57191    57388    57592    57801 
   58012    58212    58405    58603    58795    58974    59159    59344 
   59521    59694    59863    60018    60168    60311    60438    60550 
   60640    60705    60741    60750    60732    60686    60616    60524 
   60415    60292    60168    60056    59961    59884    59834    59810 
   59818    59860    59930    60029    60153    60299    60465    60644 
   60832    61029    61236    61449    61666    61881    62089    62287 
   62467    62622    62757    62864    62942    62986    63001    62985 
   62938    62870    62783    62673    62552    62421    62272    62108 
   61929    61735    61524    61300    61064    60821    60578    60334 
   60093    59867    59651    59447    59259    59090    58942    58819 
   58729    58669    58642    58645    58669    58715    58774    58833 
   58887    58938    58982    59024    59061    59093    59124    59159 
   59192    59216    59228    59227    59206    59162    59100    59022 
   58930    58819    58693    58554    58403    58245    58087    57935 
   57786    57643    57507    57373    57242    57127    57034    56957 
   56901    56871    56868    56886    56929    56991    57073    57177 
   57295    57422    57558    57694    57827    57951    58060    58156 
   58237    58306    58365    58422    58486    58557    58638    58726 
   58824    58926    59024    59121    59217    59302    59373    59432 
   59479    59520    59553    59578    59595    59617    59637    59657 
   59682    59707    59733    59768    59805    59845    59891    59931 
   59964    59989    60003    60010    60015    60015    60022    60034 
   60048    60065    60084    60089    60081    60061    60021    59953 
   59865    59765    59648    59521    59397    59282    59177    59089 
   59027    58986    58957    58941    58938    58941    58946    58951 
   58949    58943    58938    58939    58951    58978    59027    59094 
   59182    59289    59410    59547    59695    59845    59998    60139 
   60254    60347    60413    60442    60434    60397    60328    60231 
   60115    59983    59836    59678    59510    59343    59175    59008 
   58855    58716    58587    58476    58390    58328    58294    58286 
   58303    58353    58425    58521    58642    58787    58951    59136 
   59336    59548    59767    59989    60211    60427    60640    60841 
   61022    61180    61306    61400    61464    61491    61496    61485 
   61458    61419    61375    61322    61265    61209    61152    61092 
   61034    60975    60910    60845    60790    60740    60696    60658 
   60628    60604    60589    60582    60579    60586    60602    60620 
   60643    60671    60700    60723    60737    60741    60727    60690 
   60635    60566    60481    60389    60293    60191    60091    59996 
   59900    59798    59691    59583    59474    59366    59258    59157 
   59067    58990    58931    58887    58853    58831    58824    58826 
   58842    58870    58905    58946    58989    59031    59067    59098 
   59117    59119    59101    59058    58992    58911    58818    58722 
   58637    58568    58518    58491    58488    58507    58546    58600 
   58662    58730    58799    58865    58922    58970    59008    59039 
   59067    59089    59104    59115    59125    59132    59132    59130 
   59125    59121    59115    59101    59081    59057    59019    58973 
   58928    58876    58815    58758    58710    58665    58630    58611 
   58602    58602    58610    58623    58637    58649    58661    58672 
   58681    58698    58711    58725    58743    58757    58769    58781 
   58784    58776    58761    58738    58706    58668    58629    58580 
   58526    58464    58394    58311    58212    58091    57959    57815 
   57657    57487    57307    57126    56951    56782    56625    56488 
   56371    56274    56192    56119    56062    56015    55969    55931 
   55910    55900    55904    55935    55993    56066    56164    56286 
   56425    56579    56755    56943    57130    57321    57504    57680 
   57847    57996    58126    58249    58357    58448    58523    58585 
   58631    58662    58684    58698    58712    58723    58733    58747 
   58769    58787    58803    58822    58845    58872    58904    58943 
   58992    59051    59120    59193    59275    59368    59468    59570 
   59672    59769    59860    59941    60015    60081    60142    60201 
   60259    60315    60380    60444    60502    60556    60600    60625 
