Origin Time       2025/01/13 21:19:00
Lat.              31.8
Long.             131.6
Depth. (km)       30
Mag.              6.9
Station Code      SAGH04
Station Lat.      33.3654
Station Long.     130.4046
Station Height(m) -145
Record Time       2025/01/13 21:20:04
Sampling Freq(Hz) 100Hz
Duration Time(s)  132
Dir.              3
Scale Factor      3923(gal)/8224838
Max. Acc. (gal)   1.123
Last Correction   2025/01/13 21:20:04
Memo.             
[...]
  -45318   -45281   -45296   -45357   -45428   -45458   -45436   -45382 
  -45304   -45219   -45150   -45108   -45088   -45067   -45023   -44959 
  -44887   -44833   -44805   -44806   -44825   -44834   -44832   -44837 
  -44855   -44876   -44894   -44907   -44923   -44926   -44898   -44872 
  -44894   -44961   -45033   -45080   -45100   -45104   -45096   -45077 
  -45065   -45063   -45064   -45075   -45096   -45115   -45133   -45144 
  -45141   -45130   -45117   -45096   -45072   -45045   -45014   -44982 
  -44948   -44922   -44913   -44911   -44914   -44934   -44979   -45044 
  -45129   -45219   -45295   -45358   -45411   -45432   -45418   -45378 
  -45337   -45320   -45327   -45335   -45327   -45295   -45242   -45176 
  -45100   -45018   -44953   -44915   -44895   -44876   -44844   -44784 
  -44707   -44645   -44621   -44636   -44674   -44695   -44683   -44639 
  -44582   -44547   -44559   -44614   -44687   -44749   -44787   -44814 
  -44861   -44952   -45064   -45162   -45234   -45276   -45297   -45308 
  -45310   -45308   -45316   -45322   -45307   -45266   -45212   -45157 
  -45096   -45034   -44988   -44971   -44996   -45049   -45095   -45110 
  -45085   -45042   -45017   -45018   -45037   -45069   -45114   -45150 
  -45173   -45184   -45165   -45118   -45069   -45050   -45065   -45094 
  -45114   -45119   -45106   -45071   -45029   -45002   -45007   -45045 
  -45099   -45145   -45162   -45137   -45069   -44994   -44952   -44961 
  -45010   -45069   -45114   -45139   -45156   -45171   -45175   -45157 
  -45131   -45118   -45119   -45131   -45158   -45200   -45245   -45289 
  -45333   -45357   -45358   -45349   -45333   -45319   -45314   -45303 
  -45274   -45234   -45192   -45157   -45134   -45115   -45099   -45083 
  -45064   -45044   -45036   -45042   -45058   -45077   -45081   -45056 
  -45025   -45017   -45044   -45094   -45149   -45192   -45206   -45179 
  -45123   -45054   -44980   -44926   -44913   -44929   -44953   -44973 
  -44991   -45007   -45025   -45044   -45056   -45064   -45071   -45071 
  -45068   -45064   -45058   -45060   -45075   -45112   -45169   -45215 
  -45229   -45214   -45183   -45154   -45134   -45131   -45149   -45158 
  -45135   -45080   -45009   -44953   -44926   -44926   -44933   -44930 
  -44914   -44887   -44856   -44832   -44838   -44887   -44948   -44995 
  -45027   -45063   -45104   -45142   -45183   -45243   -45323   -45393 
  -45435   -45450   -45443   -45435   -45446   -45474   -45509   -45536 
  -45535   -45499   -45442   -45384   -45333   -45289   -45258   -45235 
  -45195   -45131   -45050   -44953   -44853   -44775   -44718   -44693 
  -44712   -44753   -44779   -44778   -44757   -44729   -44716   -44736 
  -44779   -44821   -44852   -44864   -44845   -44815   -44811   -44833 
  -44871   -44910   -44940   -44963   -44982   -44990   -45006   -45046 
  -45100   -45154   -45207   -45249   -45274   -45284   -45272   -45243 
  -45210   -45171   -45129   -45091   -45068   -45072   -45096   -45123 
  -45148   -45169   -45180   -45184   -45191   -45200   -45211   -45237 
  -45264   -45277   -45269   -45239   -45203   -45180   -45173   -45175 
  -45158   -45108   -45027   -44930   -44841   -44780   -44745   -44725 
  -44725   -44737   -44757   -44797   -44853   -44909   -44957   -44999 
  -45034   -45060   -45077   -45099   -45135   -45187   -45235   -45273 
  -45304   -45330   -45345   -45357   -45360   -45349   -45327   -45300 
  -45266   -45239   -45218   -45196   -45175   -45161   -45149   -45134 
  -45111   -45084   -45072   -45076   -45091   -45108   -45122   -45131 
  -45145   -45169   -45215   -45273   -45333   -45385   -45416   -45415 
  -45384   -45333   -45280   -45234   -45198   -45173   -45156   -45125 
  -45084   -45049   -45010   -44959   -44901   -44844   -44799   -44779 
  -44794   -44849   -44933   -45015   -45069   -45080   -45061   -45046 
  -45054   -45092   -45150   -45204   -45231   -45238   -45230   -45223 
  -45233   -45252   -45265   -45258   -45230   -45195   -45165   -45144 
  -45126   -45106   -45084   -45067   -45064   -45085   -45119   -45156 
  -45191   -45219   -45250   -45293   -45338   -45370   -45388   -45391 
  -45400   -45418   -45434   -45446   -45442   -45409   -45362   -45330 
  -45324   -45350   -45403   -45454   -45482   -45477   -45438   -45376 
  -45300   -45235   -45207   -45215   -45242   -45268   -45277   -45258 
  -45223   -45181   -45144   -45125   -45126   -45137   -45149   -45160 
  -45166   -45161   -45131   -45088   -45037   -44982   -44936   -44906 
  -44886   -44869   -44853   -44840   -44848   -44883   -44921   -44944 
  -44959   -44964   -44961   -44963   -44976   -45000   -45040   -45083 
  -45121   -45160   -45211   -45273   -45337   -45391   -45431   -45462 
  -45490   -45523   -45551   -45567   -45562   -45531   -45478   -45414 
  -45346   -45289   -45254   -45231   -45208   -45183   -45156   -45127 
  -45096   -45067   -45029   -44987   -44961   -44955   -44959   -44968 
  -44976   -44971   -44957   -44948   -44934   -44914   -44902   -44898 
  -44896   -44901   -44906   -44901   -44891   -44895   -44905   -44911 
  -44926   -44946   -44968   -44984   -44990   -44982   -44959   -44932 
  -44914   -44910   -44914   -44926   -44952   -44983   -45014   -45038 
  -45050   -45045   -45041   -45056   -45100   -45175   -45254   -45307 
  -45318   -45301   -45280   -45280   -45311   -45369   -45438   -45490 
  -45513   -45499   -45459   -45420   -45395   -45388   -45392   -45392 
  -45373   -45328   -45262   -45191   -45125   -45075   -45040   -45000 
  -44959   -44925   -44896   -44874   -44856   -44832   -44791   -44740 
  -44697   -44670   -44658   -44668   -44694   -44720   -44745   -44782 
  -44824   -44872   -44921   -44959   -44979   -44976   -44963   -44964 
  -44983   -45009   -45027   -45023   -45000   -44971   -44938   -44915 
  -44913   -44921   -44930   -44941   -44949   -44948   -44938   -44923 
  -44917   -44922   -44925   -44915   -44907   -44907   -44910   -44917 
  -44928   -44946   -44977   -45017   -45056   -45091   -45131   -45179 
  -45220   -45254   -45289   -45322   -45354   -45392   -45427   -45446 
  -45449   -45427   -45388   -45351   -45331   -45326   -45326   -45327 
  -45334   -45341   -45354   -45391   -45445   -45504   -45559   -45593 
  -45600   -45600   -45607   -45619   -45640   -45646   -45608   -45538 
  -45445   -45339   -45252   -45185   -45125   -45065   -45003   -44934 
  -44865   -44805   -44755   -44717   -44693   -44676   -44672   -44683 
  -44712   -44755   -44807   -44864   -44919   -44968   -45010   -45050 
  -45088   -45118   -45146   -45179   -45215   -45256   -45293   -45327 
  -45357   -45373   -45373   -45357   -45323   -45285   -45254   -45233 
  -45220   -45223   -45220   -45192   -45142   -45077   -44995   -44922 
  -44872   -44847   -44840   -44834   -44817   -44788   -44759   -44741 
  -44748   -44771   -44799   -44826   -44857   -44892   -44937   -44984 
  -45023   -45054   -45084   -45103   -45104   -45088   -45052   -45013 
  -44980   -44952   -44933   -44918   -44902   -44891   -44882   -44871 
  -44864   -44857   -44855   -44860   -44869   -44884   -44909   -44929 
  -44940   -44937   -44928   -44930   -44952   -44994   -45048   -45108 
  -45169   -45216   -45250   -45274   -45288   -45301   -45333   -45378 
  -45424   -45462   -45503   -45544   -45576   -45598   -45616   -45631 
  -45651   -45678   -45711   -45735   -45743   -45731   -45705   -45674 
  -45652   -45652   -45670   -45682   -45674   -45642   -45590   -45530 
  -45478   -45446   -45434   -45422   -45391   -45339   -45281   -45222 
  -45175   -45150   -45133   -45110   -45088   -45076   -45083   -45102 
  -45129   -45152   -45161   -45153   -45133   -45106   -45075   -45052 
  -45045   -45050   -45056   -45056   -45046   -45029   -45006   -44983 
  -44961   -44946   -44945   -44961   -44986   -45006   -45010   -44996 
  -44982   -44983   -45000   -45040   -45103   -45166   -45204   -45219 
  -45219   -45207   -45192   -45179   -45169   -45166   -45175   -45199 
  -45230   -45245   -45247   -45250   -45253   -45272   -45314   -45357 
  -45389   -45411   -45416   -45419   -45445   -45495   -45565   -45647 
  -45717   -45755   -45770   -45767   -45752   -45748   -45752   -45748 
  -45731   -45698   -45657   -45611   -45566   -45535   -45512   -45478 
  -45418   -45327   -45233   -45149   -45073   -44995   -44911   -44821 
  -44717   -44606   -44501   -44419   -44367   -44338   -44315   -44296 
  -44277   -44258   -44250   -44266   -44311   -44382   -44473   -44552 
  -44610   -44658   -44687   -44710   -44739   -44770   -44815   -44875 
  -44929   -44973   -45006   -45023   -45040   -45058   -45080   -45107 
  -45134   -45150   -45144   -45123   -45104   -45096   -45106   -45127 
  -45153   -45180   -45199   -45206   -45212   -45216   -45208   -45184 
  -45153   -45123   -45102   -45085   -45073   -45063   -45049   -45052 
  -45083   -45137   -45202   -45270   -45333   -45380   -45428   -45495 
  -45576   -45661   -45729   -45766   -45767   -45743   -45716   -45697 
  -45692   -45688   -45659   -45598   -45523   -45441   -45364   -45300 
  -45241   -45179   -45119   -45069   -45034   -45019   -45022   -45031 
  -45034   -45027   -45010   -44998   -44995   -45002   -45011   -45011 
  -44994   -44967   -44930   -44891   -44855   -44809   -44756   -44712 
  -44670   -44622   -44583   -44548   -44508   -44473   -44444   -44423 
  -44409   -44409   -44419   -44429   -44443   -44459   -44473   -44489 
  -44509   -44531   -44554   -44583   -44628   -44693   -44764   -44833 
  -44901   -44960   -45010   -45050   -45083   -45112   -45142   -45166 
  -45177   -45179   -45176   -45173   -45169   -45164   -45164   -45166 
  -45168   -45164   -45146   -45110   -45071   -45045   -45036   -45037 
  -45045   -45060   -45073   -45069   -45044   -45010   -44976   -44945 
  -44925   -44922   -44923   -44923   -44930   -44940   -44944   -44949 
  -44961   -44977   -45004   -45045   -45084   -45117   -45146   -45179 
  -45223   -45291   -45373   -45455   -45534   -45607   -45667   -45721 
  -45773   -45816   -45847   -45864   -45870   -45874   -45897   -45951 
  -46028   -46102   -46148   -46160   -46147   -46114   -46072   -46032 
  -45989   -45936   -45874   -45802   -45721   -45639   -45561   -45480 
  -45388   -45296   -45212   -45135   -45061   -44995   -44937   -44883 
  -44834   -44795   -44778   -44790   -44814   -44840   -44860   -44872 
  -44883   -44891   -44899   -44913   -44930   -44944   -44952   -44950 
  -44937   -44915   -44899   -44891   -44884   -44878   -44884   -44905 
  -44933   -44964   -44984   -44982   -44968   -44957   -44949   -44941 
  -44933   -44929   -44925   -44917   -44910   -44910   -44903   -44886 
  -44874   -44868   -44859   -44849   -44851   -44861   -44872   -44887 
  -44903   -44911   -44921   -44937   -44950   -44965   -44988   -45019 
  -45053   -45092   -45133   -45162   -45180   -45184   -45180   -45187 
  -45208   -45235   -45265   -45292   -45306   -45312   -45316   -45318 
  -45328   -45343   -45353   -45360   -45360   -45342   -45307   -45264 
  -45215   -45161   -45108   -45064   -45031   -45019   -45022   -45027 
  -45029   -45038   -45061   -45090   -45131   -45187   -45242   -45289 
  -45327   -45350   -45360   -45372   -45388   -45401   -45408   -45403 
  -45385   -45366   -45355   -45346   -45337   -45328   -45320   -45314 
  -45301   -45289   -45281   -45276   -45277   -45283   -45285   -45280 
  -45266   -45242   -45220   -45200   -45175   -45150   -45131   -45125 
  -45133   -45150   -45172   -45202   -45225   -45234   -45231   -45223 
  -45207   -45176   -45133   -45081   -45022   -44950   -44868   -44779 
  -44689   -44608   -44541   -44491   -44447   -44400   -44346   -44289 
  -44230   -44176   -44138   -44127   -44143   -44177   -44221   -44274 
  -44334   -44396   -44462   -44532   -44597   -44663   -44728   -44786 
  -44841   -44905   -44980   -45064   -45149   -45226   -45292   -45345 
  -45382   -45411   -45426   -45426   -45412   -45393   -45373   -45355 
  -45341   -45326   -45319   -45316   -45306   -45293   -45276   -45243 
  -45210   -45175   -45129   -45083   -45034   -44977   -44911   -44842 
  -44779   -44724   -44682   -44656   -44639   -44618   -44597   -44571 
  -44545   -44529   -44517   -44516   -44539   -44577   -44624   -44675 
  -44724   -44774   -44837   -44915   -44998   -45060   -45098   -45115 
  -45114   -45100   -45079   -45053   -45021   -44975   -44915   -44851 
  -44787   -44732   -44687   -44656   -44641   -44635   -44637   -44648 
  -44653   -44641   -44620   -44587   -44551   -44524   -44506   -44494 
  -44493   -44504   -44517   -44527   -44548   -44591   -44647   -44705 
  -44768   -44828   -44883   -44942   -44988   -45013   -45022   -45023 
  -45031   -45046   -45061   -45072   -45079   -45067   -45044   -45027 
  -45026   -45038   -45064   -45092   -45119   -45131   -45122   -45111 
  -45111   -45112   -45122   -45141   -45154   -45158   -45154   -45144 
  -45137   -45135   -45139   -45150   -45157   -45160   -45158   -45150 
  -45130   -45092   -45036   -44968   -44899   -44837   -44784   -44747 
  -44722   -44701   -44676   -44659   -44645   -44629   -44621   -44632 
  -44662   -44710   -44774   -44841   -44899   -44946   -44991   -45031 
  -45065   -45103   -45145   -45187   -45223   -45250   -45280   -45328 
  -45392   -45466   -45553   -45638   -45713   -45783   -45852   -45916 
  -45982   -46062   -46153   -46251   -46348   -46441   -46525   -46597 
  -46665   -46734   -46809   -46890   -46986   -47085   -47170   -47240 
  -47291   -47320   -47341   -47364   -47390   -47421   -47448   -47459 
  -47451   -47421   -47364   -47286   -47194   -47098   -47004   -46909 
  -46819   -46730   -46635   -46535   -46433   -46332   -46230   -46133 
  -46043   -45956   -45870   -45779   -45679   -45571   -45454   -45339 
  -45233   -45131   -45042   -44979   -44933   -44899   -44878   -44857 
  -44837   -44818   -44797   -44772   -44755   -44743   -44734   -44725 
  -44721   -44728   -44733   -44736   -44737   -44739   -44737   -44734 
  -44733   -44730   -44712   -44675   -44631   -44572   -44506   -44435 
  -44352   -44262   -44176   -44096   -44020   -43956   -43899   -43849 
  -43811   -43791   -43787   -43796   -43816   -43834   -43842   -43857 
  -43880   -43907   -43942   -43981   -44030   -44089   -44153   -44227 
  -44307   -44377   -44437   -44490   -44529   -44556   -44577   -44605 
  -44643   -44678   -44712   -44743   -44772   -44807   -44855   -44914 
  -44983   -45058   -45135   -45202   -45254   -45301   -45349   -45385 
  -45414   -45447   -45485   -45524   -45569   -45615   -45665   -45715 
  -45750   -45769   -45781   -45785   -45782   -45774   -45760   -45743 
  -45715   -45675   -45639   -45601   -45549   -45489   -45424   -45351 
  -45274   -45195   -45115   -45034   -44945   -44852   -44759   -44671 
  -44601   -44551   -44508   -44459   -44405   -44352   -44305   -44262 
  -44220   -44186   -44157   -44126   -44097   -44080   -44064   -44053 
  -44049   -44055   -44081   -44115   -44155   -44209   -44267   -44320 
  -44375   -44435   -44498   -44571   -44641   -44710   -44778   -44833 
  -44878   -44918   -44952   -44982   -45007   -45017   -45015   -45009 
  -44994   -44980   -44969   -44952   -44938   -44941   -44956   -44980 
  -45017   -45054   -45079   -45090   -45095   -45100   -45114   -45141 
  -45183   -45235   -45291   -45339   -45378   -45418   -45458   -45501 
  -45547   -45592   -45639   -45686   -45729   -45770   -45819   -45875 
  -45933   -45989   -46037   -46079   -46103   -46113   -46116   -46107 
  -46091   -46074   -46045   -46008   -45963   -45906   -45844   -45781 
  -45709   -45630   -45549   -45466   -45388   -45318   -45250   -45184 
  -45123   -45075   -45037   -45002   -44973   -44960   -44946   -44930 
  -44922   -44906   -44884   -44874   -44865   -44863   -44879   -44902 
  -44926   -44952   -44971   -44984   -44994   -44999   -45011   -45026 
  -45037   -45045   -45046   -45041   -45033   -45023   -45009   -44984 
  -44955   -44917   -44869   -44815   -44755   -44695   -44647   -44604 
  -44568   -44541   -44521   -44510   -44512   -44523   -44540   -44564 
  -44606   -44658   -44714   -44776   -44841   -44903   -44965   -45015 
  -45052   -45080   -45099   -45103   -45095   -45077   -45056   -45033 
  -45017   -45011   -45015   -45022   -45036   -45052   -45061   -45067 
  -45072   -45073   -45076   -45079   -45092   -45118   -45139   -45164 
  -45195   -45220   -45237   -45247   -45242   -45223   -45204   -45189 
  -45184   -45181   -45179   -45177   -45181   -45179   -45177   -45179 
  -45175   -45176   -45181   -45185   -45191   -45196   -45203   -45218 
  -45243   -45276   -45318   -45373   -45438   -45512   -45592   -45670 
  -45750   -45829   -45906   -45979   -46043   -46098   -46151   -46197 
  -46233   -46259   -46276   -46286   -46290   -46299   -46315   -46329 
  -46336   -46336   -46317   -46280   -46240   -46203   -46168   -46143 
  -46124   -46105   -46094   -46087   -46074   -46055   -46022   -45971 
  -45922   -45877   -45827   -45783   -45746   -45702   -45665   -45631 
  -45593   -45557   -45513   -45458   -45392   -45316   -45237   -45162 
  -45094   -45027   -44972   -44921   -44863   -44798   -44732   -44672 
  -44621   -44585   -44562   -44544   -44528   -44502   -44464   -44424 
  -44388   -44358   -44331   -44317   -44312   -44305   -44305   -44313 
  -44321   -44336   -44352   -44367   -44390   -44415   -44439   -44473 
  -44512   -44550   -44586   -44620   -44647   -44668   -44678   -44682 
  -44683   -44676   -44667   -44663   -44660   -44662   -44666   -44672 
  -44678   -44672   -44655   -44633   -44613   -44594   -44578   -44560 
  -44539   -44514   -44494   -44481   -44471   -44460   -44451   -44450 
  -44451   -44448   -44446   -44437   -44428   -44425   -44421   -44419 
  -44429   -44452   -44489   -44533   -44586   -44651   -44721   -44788 
  -44851   -44902   -44942   -44979   -45007   -45022   -45027   -45027 
  -45019   -45011   -45004   -44994   -44975   -44945   -44901   -44847 
  -44788   -44728   -44668   -44618   -44574   -44521   -44474   -44444 
  -44427   -44420   -44424   -44428   -44428   -44428   -44427   -44429 
  -44452   -44493   -44548   -44621   -44703   -44795   -44895   -44998 
  -45106   -45214   -45318   -45424   -45530   -45625   -45716   -45805 
  -45887   -45971   -46053   -46133   -46210   -46282   -46344   -46399 
  -46438   -46462   -46475   -46469   -46448   -46404   -46342   -46273 
  -46203   -46133   -46066   -46001   -45944   -45891   -45835   -45777 
  -45723   -45675   -45631   -45596   -45569   -45543   -45517   -45489 
  -45454   -45423   -45399   -45372   -45345   -45320   -45293   -45266 
  -45241   -45215   -45189   -45166   -45148   -45117   -45076   -45033 
  -44991   -44949   -44905   -44848   -44783   -44709   -44628   -44545 
  -44466   -44394   -44331   -44281   -44247   -44224   -44216   -44226 
  -44246   -44285   -44344   -44409   -44483   -44564   -44645   -44725 
  -44801   -44875   -44946   -45014   -45081   -45150   -45218   -45285 
  -45347   -45404   -45453   -45485   -45504   -45512   -45507   -45484 
  -45447   -45397   -45342   -45277   -45199   -45115   -45025   -44918 
  -44802   -44687   -44568   -44448   -44335   -44227   -44126   -44039 
  -43966   -43907   -43869   -43854   -43857   -43879   -43919   -43978 
  -44054   -44146   -44244   -44344   -44447   -44545   -44637   -44718 
