Origin Time       2025/01/13 21:19:00
Lat.              31.8
Long.             131.6
Depth. (km)       30
Mag.              6.9
Station Code      SAGH01
Station Lat.      33.5080
Station Long.     129.8877
Station Height(m) 118
Record Time       2025/01/13 21:20:16
Sampling Freq(Hz) 100Hz
Duration Time(s)  146
Dir.              4
Scale Factor      7845(gal)/8223790
Max. Acc. (gal)   1.238
Last Correction   2025/01/13 21:20:16
Memo.             
[...]
   16148    16140    16156    16190    16224    16248    16268    16276 
   16282    16294    16313    16343    16389    16434    16464    16478 
   16476    16467    16461    16467    16483    16505    16533    16563 
   16579    16576    16555    16517    16476    16452    16461    16509 
   16582    16649    16691    16694    16654    16595    16533    16483 
   16451    16432    16421    16410    16389    16345    16291    16235 
   16187    16163    16168    16204    16258    16302    16328    16332 
   16313    16282    16258    16249    16268    16317    16389    16475 
   16559    16622    16657    16673    16677    16680    16696    16726 
   16761    16788    16799    16785    16745    16681    16607    16536 
   16484    16463    16479    16526    16591    16654    16692    16691 
   16652    16587    16521    16464    16424    16403    16395    16389 
   16378    16368    16363    16362    16366    16380    16405    16429 
   16447    16457    16461    16461    16460    16464    16487    16532 
   16583    16625    16640    16619    16568    16505    16449    16410 
   16387    16386    16398    16406    16402    16384    16345    16290 
   16225    16152    16082    16033    16009    16002    16001    15996 
   15977    15948    15917    15892    15878    15888    15924    15982 
   16044    16098    16137    16154    16154    16146    16144    16170 
   16228    16313    16409    16498    16567    16600    16592    16540 
   16457    16371    16299    16255    16248    16270    16301    16335 
   16355    16351    16321    16275    16232    16205    16195    16205 
   16227    16243    16251    16248    16227    16189    16148    16110 
   16074    16042    16009    15967    15915    15867    15834    15824 
   15862    15946    16066    16212    16357    16468    16538    16575 
   16587    16591    16605    16626    16657    16695    16727    16742 
   16750    16762    16783    16818    16870    16931    16989    17034 
   17053    17039    16997    16937    16860    16779    16703    16638 
   16584    16534    16483    16428    16370    16312    16251    16187 
   16128    16075    16028    15996    15981    15994    16038    16101 
   16175    16240    16283    16306    16309    16302    16303    16324 
   16360    16413    16482    16549    16599    16625    16625    16595 
   16544    16486    16432    16394    16378    16380    16386    16376 
   16355    16325    16287    16252    16232    16217    16206    16204 
   16195    16174    16147    16127    16113    16104    16109    16117 
   16106    16082    16048    16009    15970    15935    15904    15880 
   15866    15863    15862    15865    15873    15880    15881    15885 
   15900    15927    15967    16012    16058    16101    16140    16175 
   16212    16255    16310    16374    16436    16492    16534    16553 
   16551    16534    16513    16487    16464    16452    16452    16459 
   16472    16495    16525    16553    16573    16592    16605    16599 
   16582    16552    16505    16451    16399    16352    16318    16302 
   16297    16305    16314    16305    16283    16248    16194    16135 
   16087    16055    16040    16047    16062    16071    16075    16071 
   16058    16038    16008    15974    15952    15947    15959    15988 
   16031    16085    16140    16190    16240    16291    16343    16394 
   16437    16465    16476    16479    16480    16482    16494    16526 
   16564    16588    16584    16545    16476    16389    16297    16216 
   16152    16110    16092    16086    16089    16089    16082    16070 
   16055    16039    16020    15997    15971    15938    15894    15858 
   15840    15849    15888    15955    16038    16117    16183    16228 
   16252    16266    16281    16303    16339    16389    16443    16487 
   16518    16532    16525    16502    16476    16452    16436    16430 
   16436    16444    16449    16453    16452    16444    16434    16426 
   16416    16401    16384    16371    16357    16345    16339    16337 
   16333    16325    16316    16308    16306    16316    16344    16390 
   16452    16522    16582    16609    16613    16602    16580    16565 
   16575    16609    16663    16731    16800    16857    16889    16897 
   16880    16845    16803    16765    16737    16719    16713    16706 
   16680    16638    16586    16525    16475    16451    16448    16467 
   16505    16549    16587    16613    16625    16629    16627    16629 
   16640    16656    16661    16646    16611    16555    16480    16405 
   16339    16287    16263    16264    16282    16309    16340    16359 
   16370    16374    16366    16356    16349    16335    16313    16290 
   16262    16231    16202    16178    16162    16156    16160    16173 
   16195    16218    16244    16275    16310    16349    16398    16456 
   16522    16591    16645    16676    16679    16659    16622    16576 
   16532    16502    16484    16471    16463    16451    16420    16371 
   16316    16260    16212    16181    16170    16175    16193    16214 
   16229    16237    16232    16214    16194    16177    16163    16159 
   16164    16170    16171    16167    16156    16140    16125    16123 
   16137    16173    16225    16286    16345    16409    16468    16515 
   16555    16591    16626    16659    16688    16723    16777    16849 
   16922    17000    17082    17158    17224    17288    17342    17381 
   17402    17401    17378    17340    17293    17247    17215    17193 
   17173    17143    17104    17058    17004    16942    16875    16808 
   16750    16692    16634    16569    16491    16401    16309    16221 
   16141    16077    16023    15971    15928    15894    15873    15873 
   15894    15936    15988    16038    16086    16137    16191    16249 
   16308    16360    16406    16434    16437    16413    16371    16320 
   16271    16231    16202    16190    16186    16177    16151    16100 
   16025    15943    15866    15808    15780    15774    15784    15803 
   15817    15820    15816    15801    15786    15782    15792    15811 
   15840    15876    15905    15923    15936    15948    15958    15967 
   15967    15950    15915    15858    15795    15746    15718    15707 
   15712    15728    15746    15768    15800    15849    15912    15988 
   16069    16141    16201    16249    16291    16333    16382    16430 
   16479    16524    16552    16559    16552    16537    16518    16499 
   16484    16476    16465    16453    16447    16441    16443    16452 
   16471    16497    16521    16541    16546    16525    16480    16417 
   16343    16272    16213    16167    16137    16114    16094    16071 
   16044    16027    16024    16036    16069    16123    16187    16260 
   16333    16405    16478    16555    16636    16717    16787    16838 
   16876    16896    16899    16889    16875    16861    16857    16857 
   16865    16880    16896    16907    16897    16862    16814    16757 
   16699    16664    16654    16663    16680    16695    16692    16661 
   16603    16519    16424    16332    16256    16202    16167    16144 
   16125    16096    16052    16008    15965    15919    15885    15867 
   15865    15865    15859    15854    15849    15838    15834    15843 
   15866    15903    15952    16015    16075    16127    16170    16201 
   16221    16232    16236    16241    16249    16254    16258    16270 
   16286    16305    16332    16357    16372    16380    16375    16351 
   16312    16266    16214    16177    16159    16151    16152    16159 
   16156    16143    16124    16101    16078    16056    16038    16021 
   16012    16016    16036    16066    16097    16119    16136    16147 
   16150    16159    16181    16213    16252    16298    16343    16379 
   16409    16438    16476    16528    16590    16660    16727    16775 
   16799    16798    16769    16729    16694    16675    16672    16673 
   16668    16646    16602    16533    16455    16386    16333    16294 
   16271    16255    16237    16212    16171    16125    16081    16035 
   15992    15961    15943    15942    15958    15984    16017    16062 
   16121    16198    16287    16382    16474    16553    16607    16633 
   16640    16636    16626    16627    16640    16654    16680    16713 
   16745    16779    16816    16848    16864    16866    16854    16829 
   16791    16748    16710    16679    16656    16650    16659    16673 
   16696    16723    16745    16760    16768    16767    16762    16762 
   16772    16789    16814    16839    16858    16865    16860    16841 
   16812    16777    16738    16699    16657    16614    16573    16532 
   16492    16456    16418    16390    16367    16340    16312    16291 
   16281    16282    16294    16313    16344    16386    16424    16460 
   16497    16533    16567    16592    16599    16584    16551    16492 
   16422    16356    16303    16266    16252    16255    16266    16285 
   16306    16325    16335    16326    16297    16243    16171    16094 
   16029    15984    15961    15961    15975    15993    16008    16016 
   16012    16012    16025    16047    16079    16125    16178    16233 
   16281    16316    16336    16330    16306    16268    16224    16181 
   16143    16106    16075    16046    16012    15978    15947    15920 
   15904    15896    15884    15869    15851    15823    15781    15726 
   15664    15611    15581    15576    15593    15630    15677    15727 
   15773    15805    15828    15849    15869    15892    15921    15950 
   15982    16021    16063    16113    16174    16237    16305    16379 
   16457    16538    16621    16702    16776    16837    16881    16924 
   16960    16981    16999    17003    16989    16965    16918    16841 
   16746    16644    16551    16476    16432    16414    16409    16405 
   16394    16367    16317    16255    16187    16129    16090    16069 
   16056    16054    16056    16056    16054    16055    16063    16074 
   16090    16110    16124    16136    16147    16156    16175    16204 
   16236    16278    16318    16344    16362    16374    16378    16387 
   16402    16411    16416    16410    16395    16382    16376    16379 
   16397    16428    16468    16515    16559    16591    16610    16614 
   16607    16594    16576    16564    16565    16572    16572    16563 
   16541    16509    16472    16434    16398    16366    16329    16275 
   16210    16146    16086    16039    16016    16023    16054    16102 
   16150    16173    16162    16120    16060    16005    15974    15978 
   16015    16066    16121    16171    16204    16224    16243    16267 
   16299    16344    16389    16429    16460    16468    16448    16410 
   16366    16321    16282    16256    16244    16240    16240    16229 
   16198    16156    16100    16027    15958    15904    15863    15834 
   15812    15790    15763    15726    15680    15642    15620    15615 
   15622    15643    15673    15707    15749    15800    15859    15931 
   16012    16097    16182    16262    16324    16362    16379    16387 
   16395    16406    16429    16472    16533    16600    16675    16749 
   16811    16856    16885    16896    16889    16873    16850    16816 
   16773    16725    16672    16621    16584    16568    16573    16591 
   16611    16621    16615    16586    16537    16487    16447    16416 
   16401    16399    16402    16405    16406    16416    16434    16463 
   16502    16552    16609    16671    16731    16795    16862    16924 
   16974    17012    17032    17041    17039    17039    17037    17023 
   16999    16968    16930    16897    16888    16902    16926    16957 
   16984    16993    16988    16976    16961    16951    16946    16938 
   16923    16895    16845    16773    16694    16611    16534    16460 
   16394    16337    16289    16244    16208    16183    16173    16171 
   16170    16166    16164    16171    16190    16225    16270    16314 
   16345    16357    16359    16351    16341    16339    16343    16341 
   16325    16291    16247    16195    16140    16089    16047    16015 
   15994    15986    15986    15996    16008    16011    16002    15988 
   15970    15952    15939    15931    15924    15917    15908    15888 
   15861    15834    15805    15780    15755    15728    15704    15691 
   15691    15711    15755    15812    15874    15934    15977    16002 
   16012    16009    16001    15988    15970    15948    15916    15878 
   15839    15805    15780    15769    15777    15801    15828    15854 
   15878    15900    15917    15928    15944    15969    16004    16054 
   16114    16179    16243    16301    16347    16380    16411    16444 
   16478    16514    16549    16569    16578    16568    16541    16511 
   16499    16501    16511    16532    16555    16568    16578    16587 
   16598    16611    16632    16654    16680    16710    16745    16783 
   16830    16883    16934    16978    17015    17043    17073    17101 
   17130    17163    17197    17223    17231    17230    17221    17200 
   17169    17132    17081    17018    16947    16870    16796    16738 
   16698    16672    16656    16640    16618    16587    16544    16488 
   16434    16393    16363    16352    16363    16389    16417    16441 
   16456    16452    16438    16418    16402    16399    16414    16434 
   16457    16483    16505    16514    16521    16533    16548    16565 
   16580    16588    16582    16560    16530    16491    16449    16414 
   16378    16333    16278    16210    16129    16033    15936    15844 
   15751    15658    15564    15466    15371    15282    15202    15136 
   15086    15055    15047    15056    15075    15103    15137    15164 
   15179    15195    15221    15250    15286    15333    15395    15471 
   15558    15654    15761    15870    15966    16046    16108    16148 
   16167    16177    16186    16193    16195    16200    16198    16190 
   16185    16185    16190    16209    16243    16287    16337    16387 
   16432    16463    16475    16470    16453    16429    16398    16371 
   16357    16360    16371    16387    16406    16417    16416    16403 
   16393    16393    16402    16422    16452    16479    16498    16505 
   16501    16494    16491    16497    16514    16532    16534    16524 
   16509    16487    16464    16452    16461    16488    16515    16538 
   16548    16532    16491    16447    16414    16401    16410    16444 
   16487    16522    16536    16521    16482    16433    16391    16359 
   16339    16330    16328    16313    16279    16228    16162    16093 
   16029    15979    15958    15961    15982    16019    16059    16100 
   16137    16177    16220    16271    16332    16390    16447    16502 
   16548    16590    16637    16687    16735    16783    16818    16837 
   16838    16829    16816    16803    16794    16792    16795    16795 
   16789    16777    16750    16714    16672    16625    16578    16529 
   16480    16434    16383    16329    16278    16228    16187    16162 
   16148    16148    16158    16164    16168    16174    16175    16175 
   16178    16187    16202    16220    16236    16243    16244    16243 
   16247    16256    16279    16321    16371    16407    16432    16437 
   16420    16389    16355    16328    16318    16318    16330    16355 
   16379    16402    16424    16433    16432    16425    16414    16406 
   16406    16411    16424    16436    16441    16440    16434    16426 
   16417    16409    16410    16417    16428    16444    16456    16455 
   16444    16422    16393    16364    16341    16324    16310    16297 
   16282    16260    16239    16218    16201    16189    16190    16200 
   16210    16217    16218    16216    16214    16214    16221    16239 
   16268    16303    16339    16366    16383    16386    16378    16368 
   16368    16382    16410    16455    16509    16556    16587    16598 
   16590    16569    16548    16533    16532    16534    16546    16569 
   16592    16611    16627    16645    16664    16684    16707    16733 
   16761    16794    16823    16849    16873    16899    16922    16938 
   16951    16965    16968    16966    16972    16978    16984    16996 
   17003    17001    16996    16991    16983    16976    16985    17012 
   17043    17068    17085    17082    17054    17001    16929    16838 
   16745    16660    16588    16537    16506    16486    16474    16457 
   16425    16383    16335    16282    16224    16173    16128    16090 
   16060    16038    16015    15990    15959    15917    15873    15827 
   15780    15735    15693    15653    15616    15584    15564    15557 
   15565    15592    15633    15681    15741    15804    15869    15938 
   16000    16055    16106    16144    16170    16193    16216    16236 
   16254    16272    16291    16309    16321    16328    16333    16337 
   16335    16324    16303    16271    16233    16202    16171    16141 
   16120    16101    16079    16055    16031    16011    15994    15989 
   15996    16008    16028    16059    16098    16146    16202    16263 
   16317    16366    16414    16453    16480    16498    16509    16503 
   16486    16460    16422    16378    16335    16294    16252    16216 
   16182    16151    16119    16089    16069    16054    16033    16005 
   15982    15959    15934    15923    15935    15961    15998    16047 
   16094    16141    16190    16232    16260    16276    16281    16275 
   16259    16240    16232    16233    16240    16267    16317    16370 
   16420    16465    16499    16513    16510    16497    16478    16465 
   16470    16491    16526    16561    16588    16607    16614    16605 
   16592    16590    16588    16595    16615    16633    16642    16648 
   16653    16661    16664    16667    16676    16683    16683    16679 
   16669    16660    16646    16623    16600    16580    16567    16563 
   16564    16563    16556    16540    16517    16492    16465    16434 
   16398    16357    16313    16266    16210    16152    16104    16067 
   16047    16038    16039    16046    16051    16050    16040    16023 
   15998    15975    15963    15963    15986    16032    16087    16151 
   16212    16259    16297    16322    16330    16328    16322    16321 
   16318    16316    16316    16318    16313    16302    16295    16286 
   16275    16268    16264    16263    16263    16260    16255    16249 
   16243    16232    16224    16225    16237    16267    16309    16351 
   16389    16416    16424    16416    16401    16387    16384    16399 
   16434    16484    16549    16614    16668    16706    16726    16729 
   16718    16700    16681    16664    16654    16650    16646    16640 
   16630    16623    16622    16621    16625    16634    16642    16645 
   16633    16602    16553    16495    16434    16380    16341    16320 
   16303    16278    16245    16209    16166    16114    16071    16044 
   16029    16028    16033    16040    16047    16052    16050    16044 
   16042    16043    16056    16083    16116    16151    16179    16202 
   16214    16220    16225    16239    16262    16295    16339    16378 
   16398    16399    16371    16321    16263    16206    16158    16125 
   16105    16092    16075    16052    16020    15977    15930    15893 
   15873    15874    15901    15943    15986    16031    16066    16078 
   16078    16077    16086    16112    16148    16190    16243    16295 
   16337    16370    16398    16424    16449    16479    16510    16536 
   16555    16572    16586    16594    16600    16615    16633    16654 
