Origin Time       2025/01/13 21:19:00
Lat.              31.8
Long.             131.6
Depth. (km)       30
Mag.              6.9
Station Code      SAGH01
Station Lat.      33.5080
Station Long.     129.8877
Station Height(m) 118
Record Time       2025/01/13 21:20:16
Sampling Freq(Hz) 100Hz
Duration Time(s)  146
Dir.              5
Scale Factor      7845(gal)/8223790
Max. Acc. (gal)   0.991
Last Correction   2025/01/13 21:20:16
Memo.             
[...]
   -6835    -6835    -6798    -6739    -6678    -6637    -6633    -6660 
   -6704    -6744    -6772    -6777    -6760    -6737    -6709    -6686 
   -6683    -6700    -6729    -6758    -6759    -6727    -6667    -6602 
   -6552    -6542    -6573    -6628    -6691    -6747    -6783    -6799 
   -6799    -6789    -6783    -6789    -6816    -6876    -6966    -7061 
   -7150    -7226    -7280    -7312    -7333    -7342    -7331    -7307 
   -7295    -7300    -7321    -7348    -7365    -7357    -7323    -7279 
   -7237    -7207    -7203    -7211    -7215    -7211    -7192    -7159 
   -7121    -7080    -7048    -7029    -7022    -7022    -7029    -7040 
   -7047    -7040    -7022    -6987    -6930    -6853    -6764    -6682 
   -6627    -6597    -6597    -6627    -6674    -6733    -6790    -6833 
   -6864    -6876    -6872    -6862    -6851    -6844    -6841    -6843 
   -6837    -6828    -6825    -6836    -6859    -6883    -6902    -6918 
   -6936    -6964    -7003    -7064    -7152    -7253    -7349    -7426 
   -7466    -7468    -7439    -7398    -7365    -7357    -7375    -7416 
   -7464    -7488    -7473    -7426    -7361    -7298    -7254    -7249 
   -7279    -7334    -7396    -7438    -7439    -7399    -7326    -7252 
   -7207    -7200    -7233    -7285    -7327    -7334    -7296    -7214 
   -7106    -6990    -6883    -6799    -6748    -6729    -6735    -6747 
   -6752    -6744    -6717    -6674    -6619    -6563    -6519    -6492 
   -6484    -6492    -6507    -6521    -6531    -6539    -6550    -6567 
   -6596    -6640    -6708    -6791    -6876    -6956    -7018    -7055 
   -7071    -7083    -7099    -7126    -7164    -7206    -7244    -7252 
   -7219    -7146    -7034    -6905    -6786    -6691    -6636    -6621 
   -6631    -6647    -6655    -6644    -6612    -6570    -6536    -6517 
   -6519    -6544    -6585    -6625    -6656    -6664    -6655    -6637 
   -6617    -6609    -6623    -6654    -6691    -6727    -6754    -6764 
   -6759    -6745    -6727    -6712    -6712    -6728    -6762    -6808 
   -6856    -6894    -6912    -6902    -6871    -6835    -6808    -6798 
   -6812    -6849    -6902    -6953    -6998    -7032    -7051    -7056 
   -7055    -7049    -7049    -7052    -7051    -7041    -7025    -6999 
   -6964    -6926    -6893    -6863    -6833    -6806    -6779    -6755 
   -6740    -6737    -6748    -6778    -6825    -6879    -6936    -6987 
   -7040    -7091    -7136    -7179    -7229    -7285    -7348    -7403 
   -7442    -7464    -7473    -7472    -7469    -7468    -7473    -7484 
   -7491    -7480    -7457    -7416    -7361    -7306    -7253    -7207 
   -7182    -7175    -7179    -7183    -7175    -7149    -7111    -7075 
   -7048    -7036    -7040    -7052    -7061    -7061    -7048    -7024 
   -6994    -6966    -6952    -6959    -6976    -7001    -7025    -7032 
   -7010    -6972    -6928    -6887    -6859    -6852    -6867    -6897 
   -6933    -6971    -7006    -7030    -7040    -7044    -7042    -7030 
   -7017    -7009    -7010    -7030    -7063    -7107    -7159    -7200 
   -7219    -7217    -7196    -7169    -7145    -7130    -7141    -7167 
   -7194    -7211    -7213    -7198    -7171    -7144    -7126    -7121 
   -7126    -7134    -7129    -7110    -7091    -7079    -7075    -7087 
   -7110    -7138    -7161    -7175    -7175    -7161    -7137    -7105 
   -7067    -7034    -7009    -6997    -7001    -7022    -7064    -7114 
   -7157    -7184    -7182    -7146    -7087    -7018    -6956    -6917 
   -6909    -6936    -6982    -7025    -7047    -7041    -7020    -6997 
   -6980    -6983    -7007    -7040    -7074    -7101    -7110    -7096 
   -7068    -7038    -7021    -7021    -7037    -7056    -7055    -7026 
   -6974    -6912    -6858    -6825    -6825    -6843    -6862    -6874 
   -6870    -6848    -6813    -6768    -6727    -6694    -6669    -6659 
   -6663    -6671    -6677    -6673    -6652    -6620    -6582    -6547 
   -6512    -6470    -6427    -6382    -6330    -6273    -6218    -6170 
   -6141    -6142    -6173    -6224    -6281    -6338    -6386    -6423 
   -6454    -6477    -6493    -6507    -6513    -6521    -6543    -6573 
   -6616    -6666    -6705    -6728    -6733    -6717    -6693    -6675 
   -6670    -6675    -6691    -6718    -6750    -6779    -6812    -6847 
   -6874    -6895    -6916    -6934    -6948    -6952    -6944    -6932 
   -6921    -6921    -6932    -6957    -6993    -7029    -7068    -7109 
   -7142    -7164    -7171    -7169    -7161    -7150    -7148    -7153 
   -7163    -7179    -7206    -7240    -7277    -7317    -7354    -7385 
   -7411    -7439    -7483    -7539    -7599    -7663    -7723    -7758 
   -7766    -7749    -7708    -7658    -7612    -7573    -7546    -7530 
   -7507    -7472    -7425    -7365    -7298    -7233    -7184    -7157 
   -7153    -7165    -7179    -7179    -7161    -7125    -7082    -7052 
   -7045    -7060    -7094    -7133    -7163    -7169    -7153    -7123 
   -7091    -7065    -7055    -7061    -7076    -7095    -7113    -7123 
   -7128    -7115    -7090    -7056    -7017    -6967    -6912    -6860 
   -6817    -6775    -6735    -6693    -6644    -6581    -6502    -6415 
   -6331    -6266    -6223    -6201    -6195    -6184    -6164    -6139 
   -6116    -6103    -6110    -6135    -6180    -6239    -6307    -6378 
   -6443    -6490    -6525    -6548    -6569    -6590    -6619    -6654 
   -6686    -6710    -6733    -6755    -6775    -6799    -6833    -6871 
   -6917    -6972    -7034    -7102    -7168    -7238    -7304    -7358 
   -7402    -7431    -7441    -7429    -7398    -7353    -7304    -7260 
   -7231    -7223    -7227    -7234    -7233    -7211    -7167    -7111 
   -7061    -7025    -7014    -7028    -7057    -7090    -7111    -7114 
   -7096    -7065    -7037    -7018    -7022    -7056    -7111    -7175 
   -7223    -7240    -7223    -7179    -7114    -7052    -6998    -6955 
   -6939    -6944    -6964    -7003    -7051    -7092    -7122    -7145 
   -7175    -7207    -7242    -7280    -7303    -7303    -7288    -7260 
   -7221    -7188    -7173    -7176    -7204    -7260    -7325    -7388 
   -7435    -7443    -7415    -7360    -7295    -7242    -7214    -7213 
   -7233    -7248    -7238    -7200    -7132    -7045    -6971    -6922 
   -6906    -6913    -6929    -6939    -6933    -6913    -6880    -6848 
   -6826    -6826    -6845    -6875    -6902    -6914    -6912    -6893 
   -6863    -6841    -6832    -6832    -6847    -6868    -6889    -6912 
   -6928    -6932    -6926    -6901    -6864    -6825    -6783    -6748 
   -6721    -6691    -6658    -6628    -6594    -6556    -6529    -6511 
   -6492    -6477    -6459    -6435    -6403    -6367    -6339    -6322 
   -6315    -6320    -6339    -6370    -6412    -6462    -6509    -6554 
   -6594    -6625    -6652    -6678    -6716    -6768    -6832    -6901 
   -6960    -6997    -7020    -7030    -7032    -7042    -7069    -7111 
   -7171    -7231    -7271    -7281    -7265    -7229    -7186    -7152 
   -7138    -7155    -7192    -7244    -7304    -7360    -7402    -7427 
   -7434    -7425    -7407    -7388    -7376    -7368    -7354    -7323 
   -7275    -7209    -7121    -7025    -6934    -6859    -6808    -6782 
   -6774    -6767    -6755    -6740    -6720    -6704    -6705    -6725 
   -6760    -6809    -6862    -6903    -6940    -6971    -6993    -7017 
   -7059    -7115    -7172    -7226    -7267    -7283    -7279    -7265 
   -7258    -7256    -7260    -7277    -7298    -7302    -7285    -7249 
   -7192    -7121    -7052    -6998    -6966    -6945    -6932    -6924 
   -6913    -6894    -6880    -6886    -6909    -6948    -6994    -7029 
   -7036    -7005    -6944    -6874    -6813    -6778    -6774    -6798 
   -6832    -6859    -6867    -6856    -6839    -6826    -6822    -6837 
   -6866    -6901    -6937    -6964    -6971    -6972    -6974    -6971 
   -6966    -6960    -6956    -6953    -6945    -6940    -6948    -6974 
   -7010    -7052    -7091    -7113    -7125    -7132    -7130    -7136 
   -7149    -7161    -7173    -7184    -7182    -7173    -7156    -7132 
   -7109    -7086    -7072    -7068    -7057    -7030    -6993    -6941 
   -6872    -6795    -6718    -6642    -6570    -6507    -6461    -6436 
   -6435    -6444    -6455    -6473    -6489    -6496    -6500    -6511 
   -6527    -6551    -6582    -6615    -6646    -6669    -6678    -6681 
   -6679    -6685    -6693    -6693    -6694    -6701    -6713    -6732 
   -6755    -6772    -6781    -6777    -6755    -6721    -6686    -6648 
   -6604    -6565    -6534    -6507    -6484    -6465    -6454    -6448 
   -6446    -6454    -6467    -6481    -6497    -6515    -6535    -6561 
   -6594    -6637    -6701    -6774    -6852    -6937    -7020    -7090 
   -7146    -7191    -7222    -7241    -7253    -7260    -7267    -7272 
   -7277    -7283    -7291    -7306    -7331    -7371    -7420    -7473 
   -7520    -7555    -7573    -7576    -7562    -7539    -7518    -7496 
   -7465    -7420    -7364    -7296    -7218    -7137    -7060    -6997 
   -6949    -6909    -6879    -6860    -6852    -6852    -6860    -6880 
   -6918    -6980    -7064    -7160    -7253    -7325    -7360    -7350 
   -7310    -7252    -7195    -7161    -7164    -7195    -7249    -7318 
   -7372    -7392    -7381    -7346    -7296    -7249    -7210    -7173 
   -7137    -7096    -7052    -6999    -6944    -6898    -6864    -6835 
   -6809    -6783    -6758    -6727    -6689    -6650    -6605    -6550 
   -6497    -6450    -6408    -6385    -6385    -6401    -6420    -6436 
   -6447    -6450    -6447    -6448    -6470    -6521    -6609    -6725 
   -6849    -6961    -7052    -7121    -7180    -7240    -7304    -7383 
   -7469    -7553    -7626    -7680    -7705    -7713    -7709    -7696 
   -7680    -7659    -7627    -7581    -7518    -7441    -7354    -7271 
   -7196    -7122    -7047    -6974    -6890    -6802    -6733    -6677 
   -6637    -6620    -6617    -6624    -6632    -6628    -6612    -6593 
   -6585    -6604    -6651    -6712    -6767    -6808    -6828    -6829 
   -6821    -6808    -6794    -6783    -6771    -6750    -6713    -6658 
   -6590    -6524    -6474    -6455    -6473    -6523    -6583    -6639 
   -6681    -6709    -6720    -6717    -6720    -6747    -6795    -6860 
   -6939    -7017    -7080    -7113    -7115    -7096    -7063    -7026 
   -6995    -6974    -6968    -6984    -7011    -7037    -7060    -7074 
   -7076    -7068    -7059    -7051    -7042    -7036    -7036    -7033 
   -7028    -7021    -7006    -6986    -6972    -6971    -6986    -7015 
   -7061    -7115    -7165    -7200    -7213    -7199    -7171    -7141 
   -7118    -7109    -7118    -7140    -7159    -7163    -7153    -7141 
   -7138    -7150    -7187    -7241    -7294    -7335    -7366    -7380 
   -7373    -7357    -7335    -7303    -7265    -7226    -7183    -7138 
   -7098    -7065    -7048    -7047    -7068    -7107    -7155    -7207 
   -7258    -7294    -7304    -7290    -7249    -7187    -7113    -7038 
   -6968    -6905    -6856    -6821    -6795    -6772    -6754    -6745 
   -6750    -6766    -6801    -6849    -6903    -6957    -7009    -7049 
   -7080    -7110    -7144    -7180    -7218    -7246    -7253    -7234 
   -7190    -7129    -7063    -6998    -6930    -6863    -6805    -6751 
   -6696    -6646    -6604    -6561    -6517    -6475    -6428    -6373 
   -6316    -6265    -6226    -6203    -6196    -6211    -6238    -6268 
   -6305    -6346    -6380    -6411    -6434    -6448    -6467    -6493 
   -6521    -6559    -6602    -6647    -6702    -6763    -6828    -6902 
   -6980    -7053    -7122    -7183    -7227    -7258    -7287    -7303 
   -7303    -7287    -7245    -7184    -7109    -7026    -6951    -6893 
   -6855    -6837    -6828    -6818    -6810    -6808    -6816    -6840 
   -6885    -6944    -7001    -7044    -7063    -7059    -7041    -7020 
   -6999    -6982    -6964    -6943    -6914    -6876    -6837    -6806 
   -6775    -6751    -6740    -6739    -6741    -6747    -6748    -6755 
   -6772    -6795    -6826    -6864    -6899    -6934    -6966    -6994 
   -7033    -7082    -7138    -7196    -7246    -7279    -7292    -7288 
   -7271    -7254    -7248    -7246    -7250    -7258    -7256    -7233 
   -7191    -7142    -7099    -7074    -7074    -7091    -7123    -7161 
   -7182    -7177    -7164    -7142    -7110    -7084    -7076    -7068 
   -7063    -7067    -7068    -7063    -7051    -7032    -7006    -6979 
   -6960    -6951    -6955    -6971    -6988    -7011    -7037    -7052 
   -7057    -7061    -7060    -7053    -7045    -7041    -7033    -7010 
   -6967    -6907    -6839    -6775    -6728    -6698    -6679    -6667 
   -6644    -6605    -6551    -6480    -6399    -6324    -6261    -6215 
   -6193    -6180    -6169    -6164    -6156    -6146    -6145    -6153 
   -6170    -6197    -6228    -6255    -6274    -6286    -6293    -6304 
   -6338    -6394    -6473    -6574    -6679    -6770    -6836    -6872 
   -6874    -6849    -6816    -6783    -6764    -6763    -6767    -6774 
   -6772    -6758    -6736    -6714    -6690    -6663    -6635    -6609 
   -6588    -6569    -6555    -6547    -6540    -6538    -6543    -6552 
   -6567    -6589    -6615    -6642    -6673    -6708    -6743    -6768 
   -6794    -6824    -6843    -6852    -6860    -6864    -6863    -6862 
   -6851    -6837    -6826    -6818    -6814    -6818    -6833    -6862 
   -6898    -6947    -7002    -7051    -7103    -7164    -7221    -7281 
   -7350    -7426    -7508    -7597    -7688    -7774    -7851    -7913 
   -7960    -7987    -7992    -7977    -7950    -7909    -7855    -7796 
   -7739    -7688    -7639    -7593    -7550    -7504    -7454    -7408 
   -7368    -7327    -7288    -7254    -7218    -7183    -7161    -7148 
   -7141    -7144    -7149    -7146    -7137    -7118    -7090    -7059 
   -7028    -7003    -6986    -6970    -6944    -6897    -6835    -6764 
   -6694    -6629    -6578    -6538    -6508    -6489    -6469    -6436 
   -6396    -6358    -6324    -6308    -6312    -6330    -6362    -6397 
   -6416    -6431    -6457    -6486    -6527    -6583    -6652    -6725 
   -6793    -6837    -6859    -6859    -6847    -6832    -6832    -6855 
   -6894    -6939    -6986    -7024    -7042    -7053    -7060    -7061 
   -7075    -7106    -7146    -7195    -7254    -7314    -7366    -7416 
   -7466    -7516    -7558    -7592    -7620    -7649    -7678    -7713 
   -7747    -7773    -7785    -7781    -7761    -7723    -7669    -7607 
   -7534    -7461    -7392    -7331    -7275    -7221    -7160    -7095 
   -7029    -6971    -6928    -6905    -6903    -6916    -6929    -6930 
   -6910    -6864    -6798    -6732    -6677    -6647    -6651    -6677 
   -6704    -6723    -6732    -6736    -6739    -6750    -6795    -6885 
   -7001    -7126    -7238    -7318    -7356    -7354    -7333    -7315 
   -7310    -7326    -7369    -7422    -7464    -7479    -7460    -7403 
   -7322    -7240    -7168    -7109    -7064    -7034    -7011    -6994 
   -6980    -6963    -6937    -6905    -6872    -6847    -6833    -6831 
   -6831    -6840    -6849    -6849    -6839    -6820    -6793    -6763 
   -6737    -6718    -6713    -6725    -6743    -6756    -6759    -6750 
   -6727    -6697    -6677    -6674    -6686    -6709    -6735    -6754 
   -6756    -6739    -6709    -6682    -6664    -6662    -6677    -6706 
   -6737    -6759    -6774    -6787    -6798    -6824    -6858    -6891 
   -6928    -6960    -6978    -6987    -6987    -6991    -7002    -7015 
   -7033    -7055    -7075    -7094    -7117    -7137    -7148    -7155 
   -7159    -7161    -7160    -7148    -7137    -7136    -7141    -7160 
   -7194    -7226    -7252    -7257    -7241    -7215    -7190    -7164 
   -7144    -7128    -7115    -7105    -7090    -7074    -7059    -7048 
   -7044    -7044    -7048    -7061    -7074    -7083    -7091    -7092 
   -7088    -7078    -7061    -7044    -7028    -7010    -6994    -6975 
   -6956    -6941    -6922    -6893    -6853    -6812    -6758    -6696 
   -6636    -6588    -6548    -6520    -6507    -6501    -6494    -6490 
   -6477    -6447    -6413    -6381    -6366    -6374    -6400    -6444 
   -6498    -6547    -6579    -6594    -6601    -6604    -6608    -6623 
   -6655    -6705    -6768    -6840    -6916    -6990    -7052    -7106 
   -7156    -7195    -7230    -7263    -7287    -7310    -7325    -7314 
   -7284    -7241    -7179    -7109    -7041    -6983    -6941    -6918 
   -6909    -6910    -6916    -6920    -6920    -6912    -6897    -6885 
   -6875    -6872    -6878    -6886    -6894    -6899    -6902    -6909 
   -6916    -6921    -6930    -6943    -6943    -6926    -6898    -6860 
   -6813    -6764    -6723    -6686    -6662    -6651    -6647    -6652 
   -6667    -6687    -6716    -6758    -6804    -6851    -6897    -6939 
   -6979    -7015    -7047    -7075    -7101    -7118    -7132    -7148 
   -7172    -7200    -7230    -7263    -7284    -7294    -7295    -7284 
   -7264    -7246    -7230    -7221    -7218    -7215    -7218    -7219 
   -7211    -7195    -7167    -7133    -7106    -7080    -7063    -7061 
   -7067    -7068    -7072    -7071    -7063    -7053    -7047    -7038 
   -7024    -7003    -6979    -6945    -6905    -6860    -6813    -6766 
   -6728    -6698    -6671    -6648    -6628    -6600    -6567    -6542 
   -6523    -6513    -6525    -6556    -6601    -6656    -6717    -6771 
   -6812    -6835    -6844    -6848    -6862    -6887    -6925    -6967 
   -7002    -7024    -7028    -7015    -6995    -6975    -6967    -6970 
   -6974    -6975    -6967    -6943    -6907    -6872    -6836    -6808 
   -6798    -6797    -6802    -6824    -6849    -6868    -6876    -6885 
   -6903    -6930    -6961    -6999    -7040    -7082    -7126    -7167 
   -7204    -7248    -7281    -7303    -7317    -7331    -7350    -7364 
   -7377    -7396    -7408    -7403    -7392    -7383    -7368    -7354 
   -7349    -7349    -7352    -7349    -7327    -7290    -7249    -7207 
   -7165    -7134    -7115    -7107    -7099    -7082    -7044    -6988 
   -6926    -6871    -6828    -6805    -6804    -6813    -6822    -6831 
   -6833    -6832    -6828    -6821    -6822    -6844    -6872    -6902 
   -6932    -6949    -6947    -6936    -6924    -6913    -6906    -6909 
   -6922    -6947    -6971    -6993    -7011    -7026    -7033    -7037 
   -7036    -7036    -7037    -7037    -7036    -7037    -7038    -7040 
   -7048    -7051    -7041    -7038    -7041    -7040    -7038    -7040 
   -7041    -7045    -7048    -7044    -7037    -7030    -7021    -7003 
   -6983    -6968    -6956    -6944    -6926    -6901    -6872    -6843 
   -6814    -6793    -6786    -6785    -6791    -6802    -6801    -6794 
   -6785    -6764    -6741    -6728    -6728    -6752    -6801    -6862 
   -6929    -6990    -7026    -7036    -7030    -7022    -7015    -7014 
   -7020    -7028    -7029    -7020    -6998    -6970    -6945    -6936 
   -6943    -6964    -6998    -7030    -7051    -7052    -7034    -7002 
   -6963    -6932    -6909    -6891    -6886    -6891    -6891    -6887 
   -6879    -6870    -6853    -6836    -6822    -6813    -6814    -6832 
   -6864    -6907    -6955    -6997    -7026    -7042    -7052    -7063 
   -7072    -7084    -7102    -7125    -7148    -7160    -7165    -7175 
   -7183    -7192    -7211    -7238    -7272    -7304    -7329    -7346 
   -7357    -7353    -7342    -7333    -7323    -7314    -7302    -7281 
