Origin Time       2025/01/13 21:19:00
Lat.              31.8
Long.             131.6
Depth. (km)       30
Mag.              6.9
Station Code      SAGH03
Station Lat.      33.4098
Station Long.     130.2329
Station Height(m) 272
Record Time       2025/01/13 21:20:33
Sampling Freq(Hz) 100Hz
Duration Time(s)  120
Dir.              2
Scale Factor      2942(gal)/8224139
Max. Acc. (gal)   0.870
Last Correction   2025/01/13 21:20:33
Memo.             
[...]
  -84589   -84627   -84669   -84720   -84775   -84827   -84878   -84928 
  -84974   -85012   -85047   -85077   -85089   -85090   -85087   -85081 
  -85082   -85085   -85083   -85074   -85059   -85031   -84993   -84950 
  -84906   -84867   -84842   -84832   -84827   -84828   -84846   -84874 
  -84900   -84919   -84925   -84920   -84910   -84908   -84916   -84933 
  -84960   -84994   -85031   -85071   -85106   -85133   -85159   -85183 
  -85197   -85205   -85216   -85230   -85243   -85260   -85279   -85297 
  -85317   -85337   -85349   -85353   -85359   -85363   -85361   -85369 
  -85383   -85387   -85379   -85357   -85324   -85280   -85226   -85160 
  -85085   -85010   -84940   -84866   -84788   -84707   -84632   -84565 
  -84500   -84441   -84385   -84333   -84285   -84246   -84214   -84196 
  -84191   -84181   -84167   -84145   -84113   -84073   -84029   -83987 
  -83952   -83921   -83894   -83876   -83875   -83887   -83906   -83925 
  -83941   -83953   -83959   -83959   -83955   -83953   -83959   -83968 
  -83974   -83975   -83980   -83997   -84025   -84071   -84136   -84200 
  -84260   -84322   -84372   -84403   -84420   -84429   -84430   -84423 
  -84411   -84402   -84397   -84396   -84402   -84414   -84431   -84460 
  -84503   -84541   -84569   -84596   -84622   -84635   -84636   -84631 
  -84626   -84627   -84642   -84673   -84721   -84780   -84843   -84908 
  -84978   -85048   -85114   -85168   -85209   -85236   -85259   -85276 
  -85290   -85305   -85315   -85310   -85295   -85291   -85283   -85257 
  -85226   -85197   -85160   -85110   -85054   -84990   -84921   -84852 
  -84801   -84762   -84732   -84716   -84708   -84707   -84715   -84716 
  -84709   -84709   -84720   -84739   -84766   -84793   -84817   -84836 
  -84854   -84877   -84901   -84921   -84942   -84963   -84986   -85009 
  -85036   -85081   -85133   -85185   -85239   -85293   -85341   -85388 
  -85438   -85484   -85531   -85569   -85591   -85596   -85592   -85585 
  -85569   -85545   -85525   -85507   -85491   -85476   -85456   -85426 
  -85386   -85334   -85284   -85237   -85194   -85155   -85113   -85064 
  -85006   -84929   -84840   -84747   -84646   -84538   -84435   -84334 
  -84227   -84123   -84018   -83909   -83798   -83700   -83610   -83524 
  -83440   -83366   -83301   -83241   -83181   -83127   -83079   -83034 
  -83003   -82991   -82991   -83002   -83031   -83079   -83135   -83207 
  -83300   -83416   -83547   -83687   -83835   -83982   -84132   -84288 
  -84446   -84603   -84755   -84901   -85037   -85163   -85274   -85364 
  -85437   -85502   -85558   -85607   -85652   -85683   -85696   -85695 
  -85675   -85638   -85595   -85546   -85490   -85430   -85369   -85306 
  -85248   -85199   -85156   -85121   -85087   -85045   -84993   -84923 
  -84842   -84758   -84673   -84591   -84516   -84449   -84391   -84348 
  -84308   -84279   -84257   -84237   -84231   -84245   -84271   -84308 
  -84353   -84395   -84431   -84462   -84495   -84530   -84569   -84609 
  -84658   -84708   -84751   -84793   -84831   -84858   -84882   -84917 
  -84966   -85029   -85099   -85179   -85259   -85325   -85375   -85395 
  -85375   -85325   -85252   -85164   -85068   -84969   -84871   -84789 
  -84728   -84688   -84670   -84678   -84703   -84731   -84755   -84773 
  -84785   -84784   -84769   -84754   -84738   -84719   -84709   -84703 
  -84696   -84699   -84704   -84704   -84719   -84747   -84774   -84804 
  -84839   -84873   -84910   -84950   -84977   -84990   -84991   -84981 
  -84966   -84960   -84959   -84966   -84987   -85014   -85045   -85090 
  -85140   -85187   -85228   -85257   -85271   -85276   -85268   -85244 
  -85212   -85182   -85149   -85117   -85079   -85036   -84986   -84927 
  -84862   -84797   -84723   -84639   -84562   -84493   -84430   -84369 
  -84304   -84238   -84164   -84083   -84007   -83936   -83863   -83802 
  -83758   -83724   -83704   -83698   -83700   -83705   -83710   -83710 
  -83704   -83698   -83704   -83720   -83745   -83776   -83813   -83855 
  -83891   -83917   -83933   -83949   -83961   -83979   -84005   -84025 
  -84040   -84057   -84068   -84065   -84059   -84051   -84030   -84003 
  -83974   -83937   -83906   -83890   -83882   -83887   -83905   -83922 
  -83941   -83960   -83972   -83979   -83980   -83976   -83965   -83955 
  -83949   -83943   -83936   -83932   -83934   -83948   -83978   -84026 
  -84091   -84169   -84262   -84369   -84469   -84555   -84626   -84672 
  -84697   -84712   -84713   -84709   -84707   -84704   -84712   -84740 
  -84778   -84825   -84894   -84978   -85068   -85158   -85237   -85307 
  -85371   -85419   -85452   -85475   -85495   -85506   -85510   -85523 
  -85546   -85579   -85626   -85683   -85745   -85815   -85893   -85977 
  -86065   -86154   -86238   -86308   -86358   -86393   -86414   -86422 
  -86424   -86418   -86405   -86385   -86364   -86346   -86325   -86304 
  -86266   -86217   -86161   -86086   -86005   -85928   -85846   -85762 
  -85680   -85591   -85488   -85376   -85256   -85132   -85006   -84875 
  -84746   -84626   -84512   -84410   -84319   -84241   -84171   -84105 
  -84036   -83976   -83928   -83876   -83824   -83781   -83731   -83671 
  -83616   -83573   -83536   -83516   -83517   -83540   -83589   -83663 
  -83755   -83848   -83945   -84045   -84138   -84219   -84296   -84373 
  -84451   -84532   -84613   -84690   -84759   -84819   -84877   -84933 
  -84978   -85023   -85072   -85113   -85143   -85166   -85178   -85182 
  -85176   -85155   -85120   -85078   -85029   -84981   -84937   -84901 
  -84870   -84843   -84824   -84807   -84778   -84750   -84723   -84686 
  -84649   -84611   -84578   -84546   -84505   -84457   -84404   -84341 
  -84269   -84200   -84144   -84096   -84055   -84029   -84013   -83994 
  -83975   -83951   -83911   -83864   -83809   -83744   -83679   -83619 
  -83565   -83528   -83504   -83488   -83484   -83492   -83502   -83517 
  -83532   -83551   -83574   -83597   -83627   -83664   -83708   -83760 
  -83810   -83853   -83899   -83938   -83963   -83987   -84003   -84006 
  -84007   -84007   -83995   -83978   -83965   -83957   -83952   -83949 
  -83952   -83967   -83990   -84017   -84044   -84067   -84082   -84084 
  -84083   -84080   -84072   -84059   -84046   -84033   -84017   -84001 
  -83986   -83975   -83978   -83998   -84033   -84090   -84160   -84235 
  -84315   -84392   -84461   -84531   -84611   -84699   -84793   -84886 
  -84975   -85062   -85143   -85216   -85276   -85325   -85357   -85376 
  -85390   -85402   -85414   -85430   -85445   -85456   -85459   -85437 
  -85395   -85342   -85276   -85198   -85118   -85044   -84974   -84912 
  -84861   -84820   -84796   -84781   -84777   -84789   -84812   -84842 
  -84882   -84939   -85004   -85074   -85143   -85197   -85239   -85274 
  -85294   -85298   -85293   -85293   -85290   -85286   -85295   -85318 
  -85337   -85347   -85355   -85351   -85326   -85293   -85245   -85190 
  -85136   -85075   -85008   -84947   -84892   -84835   -84781   -84727 
  -84669   -84609   -84559   -84515   -84465   -84424   -84388   -84348 
  -84314   -84283   -84246   -84214   -84181   -84148   -84111   -84067 
  -84024   -83986   -83941   -83891   -83845   -83812   -83797   -83791 
  -83802   -83843   -83895   -83952   -84021   -84091   -84157   -84226 
  -84291   -84349   -84411   -84484   -84568   -84663   -84766   -84869 
  -84970   -85062   -85139   -85212   -85272   -85318   -85364   -85415 
  -85475   -85530   -85580   -85630   -85669   -85689   -85703   -85712 
  -85723   -85738   -85754   -85769   -85784   -85789   -85788   -85777 
  -85747   -85707   -85662   -85614   -85564   -85514   -85469   -85433 
  -85394   -85359   -85329   -85295   -85259   -85229   -85194   -85155 
  -85124   -85101   -85078   -85056   -85035   -85017   -85005   -84997 
  -84997   -85009   -85032   -85056   -85071   -85090   -85118   -85144 
  -85176   -85224   -85271   -85313   -85359   -85403   -85441   -85475 
  -85502   -85515   -85518   -85514   -85502   -85488   -85479   -85472 
  -85459   -85437   -85409   -85380   -85355   -85324   -85290   -85253 
  -85209   -85153   -85087   -85012   -84932   -84847   -84761   -84678 
  -84593   -84507   -84422   -84339   -84260   -84180   -84109   -84044 
  -83982   -83932   -83894   -83862   -83837   -83825   -83818   -83821 
  -83836   -83853   -83874   -83899   -83929   -83964   -84006   -84055 
  -84111   -84175   -84242   -84311   -84380   -84449   -84523   -84608 
  -84708   -84825   -84960   -85108   -85252   -85392   -85530   -85646 
  -85743   -85820   -85874   -85914   -85938   -85945   -85939   -85926 
  -85900   -85864   -85823   -85770   -85700   -85622   -85540   -85442 
  -85332   -85217   -85094   -84962   -84829   -84700   -84573   -84447 
  -84322   -84187   -84045   -83909   -83781   -83658   -83547   -83457 
  -83381   -83323   -83288   -83268   -83259   -83265   -83277   -83299 
  -83332   -83366   -83400   -83434   -83459   -83479   -83496   -83508 
  -83520   -83536   -83556   -83582   -83612   -83644   -83682   -83732 
  -83790   -83840   -83887   -83945   -83999   -84049   -84114   -84177 
  -84227   -84288   -84350   -84406   -84477   -84565   -84645   -84720 
  -84801   -84882   -84954   -85017   -85072   -85120   -85156   -85179 
  -85198   -85218   -85233   -85247   -85259   -85264   -85274   -85283 
  -85286   -85297   -85310   -85324   -85338   -85345   -85352   -85363 
  -85361   -85356   -85353   -85341   -85328   -85318   -85302   -85287 
  -85271   -85251   -85229   -85205   -85174   -85147   -85122   -85097 
  -85078   -85062   -85037   -85006   -84966   -84927   -84885   -84834 
  -84781   -84738   -84699   -84662   -84628   -84600   -84581   -84569 
  -84566   -84570   -84573   -84572   -84569   -84573   -84578   -84578 
  -84578   -84582   -84589   -84607   -84630   -84654   -84686   -84728 
  -84774   -84824   -84879   -84940   -85008   -85083   -85160   -85236 
  -85307   -85367   -85410   -85436   -85444   -85438   -85413   -85369 
  -85322   -85268   -85207   -85151   -85094   -85039   -84981   -84925 
  -84870   -84812   -84750   -84678   -84600   -84519   -84442   -84361 
  -84276   -84196   -84115   -84033   -83964   -83907   -83864   -83845 
  -83843   -83855   -83889   -83938   -83987   -84036   -84087   -84126 
  -84161   -84200   -84242   -84291   -84349   -84414   -84489   -84578 
  -84667   -84754   -84835   -84902   -84963   -85020   -85066   -85106 
  -85144   -85174   -85189   -85193   -85185   -85162   -85132   -85101 
  -85066   -85027   -84997   -84974   -84955   -84943   -84925   -84905 
  -84883   -84847   -84794   -84731   -84669   -84612   -84554   -84504 
  -84466   -84441   -84424   -84423   -84433   -84446   -84469   -84496 
  -84518   -84538   -84562   -84585   -84611   -84640   -84669   -84700 
  -84731   -84757   -84784   -84813   -84834   -84839   -84839   -84836 
  -84817   -84789   -84765   -84739   -84711   -84686   -84673   -84666 
  -84670   -84682   -84701   -84727   -84766   -84823   -84882   -84942 
  -85001   -85055   -85098   -85125   -85135   -85135   -85126   -85116 
  -85101   -85079   -85063   -85064   -85072   -85085   -85116   -85158 
  -85199   -85249   -85311   -85364   -85405   -85444   -85471   -85477 
  -85480   -85480   -85476   -85479   -85488   -85492   -85491   -85487 
  -85477   -85459   -85429   -85384   -85333   -85266   -85183   -85093 
  -84985   -84859   -84731   -84603   -84470   -84342   -84219   -84106 
  -84006   -83916   -83830   -83758   -83693   -83632   -83581   -83543 
  -83523   -83524   -83540   -83585   -83652   -83728   -83813   -83905 
  -83986   -84051   -84100   -84138   -84164   -84183   -84199   -84211 
  -84223   -84245   -84268   -84295   -84335   -84384   -84435   -84492 
  -84554   -84612   -84667   -84719   -84751   -84771   -84784   -84770 
  -84739   -84703   -84646   -84573   -84500   -84422   -84333   -84245 
  -84157   -84079   -84019   -83968   -83918   -83878   -83844   -83814 
  -83790   -83771   -83759   -83755   -83752   -83759   -83778   -83810 
  -83852   -83903   -83963   -84029   -84096   -84163   -84222   -84268 
  -84302   -84315   -84318   -84318   -84310   -84303   -84312   -84331 
  -84361   -84407   -84451   -84489   -84520   -84541   -84555   -84565 
  -84562   -84557   -84555   -84551   -84546   -84553   -84565   -84574 
  -84592   -84623   -84657   -84693   -84735   -84781   -84823   -84861 
  -84892   -84902   -84893   -84856   -84797   -84723   -84640   -84558 
  -84481   -84412   -84349   -84288   -84241   -84206   -84169   -84142 
  -84141   -84150   -84167   -84196   -84229   -84264   -84308   -84361 
  -84420   -84491   -84554   -84611   -84670   -84724   -84770   -84816 
  -84854   -84878   -84888   -84886   -84881   -84875   -84869   -84856 
  -84846   -84842   -84842   -84846   -84855   -84866   -84875   -84892 
  -84912   -84933   -84966   -85006   -85041   -85075   -85118   -85164 
  -85209   -85260   -85318   -85374   -85429   -85483   -85525   -85554 
  -85573   -85571   -85537   -85487   -85426   -85342   -85253   -85167 
  -85072   -84966   -84851   -84724   -84589   -84450   -84312   -84179 
  -84052   -83934   -83839   -83762   -83698   -83650   -83623   -83606 
  -83594   -83586   -83578   -83565   -83552   -83540   -83535   -83536 
  -83542   -83554   -83579   -83616   -83658   -83714   -83778   -83843 
  -83921   -84017   -84121   -84235   -84370   -84518   -84673   -84831 
  -84983   -85133   -85279   -85422   -85571   -85727   -85887   -86044 
  -86198   -86344   -86479   -86605   -86722   -86827   -86921   -87003 
  -87066   -87102   -87111   -87096   -87052   -86979   -86880   -86760 
  -86628   -86490   -86348   -86204   -86059   -85919   -85779   -85634 
  -85492   -85349   -85212   -85089   -84975   -84875   -84784   -84697 
  -84628   -84558   -84477   -84403   -84326   -84242   -84167   -84102 
  -84049   -84013   -83980   -83968   -83994   -84034   -84090   -84164 
  -84241   -84314   -84375   -84419   -84449   -84470   -84489   -84507 
  -84522   -84535   -84546   -84551   -84547   -84542   -84534   -84520 
  -84508   -84497   -84488   -84493   -84514   -84541   -84574   -84609 
  -84645   -84673   -84686   -84688   -84680   -84665   -84646   -84612 
  -84561   -84496   -84420   -84327   -84229   -84130   -84025   -83918 
  -83822   -83739   -83675   -83632   -83610   -83612   -83631   -83664 
  -83713   -83768   -83832   -83902   -83974   -84051   -84132   -84211 
  -84292   -84379   -84456   -84534   -84620   -84707   -84797   -84892 
  -84982   -85077   -85178   -85271   -85352   -85428   -85488   -85529 
  -85560   -85577   -85575   -85558   -85537   -85504   -85463   -85419 
  -85376   -85337   -85298   -85268   -85257   -85256   -85259   -85274 
  -85298   -85322   -85345   -85368   -85391   -85410   -85426   -85445 
  -85459   -85459   -85453   -85441   -85413   -85382   -85349   -85301 
  -85245   -85191   -85131   -85060   -84987   -84917   -84851   -84792 
  -84742   -84701   -84673   -84653   -84634   -84615   -84595   -84568 
  -84528   -84477   -84422   -84365   -84303   -84242   -84186   -84136 
  -84092   -84048   -84002   -83961   -83922   -83886   -83855   -83832 
  -83822   -83833   -83855   -83886   -83934   -83994   -84055   -84117 
  -84184   -84250   -84308   -84364   -84424   -84487   -84547   -84609 
  -84674   -84743   -84808   -84869   -84929   -84987   -85032   -85062 
  -85081   -85095   -85110   -85114   -85109   -85098   -85086   -85067 
  -85037   -85005   -84971   -84932   -84888   -84839   -84785   -84732 
  -84685   -84645   -84609   -84584   -84565   -84549   -84535   -84524 
  -84505   -84476   -84439   -84388   -84329   -84271   -84213   -84152 
  -84099   -84056   -84021   -83997   -83978   -83972   -83983   -83999 
  -84018   -84045   -84075   -84109   -84152   -84206   -84265   -84325 
  -84383   -84439   -84491   -84524   -84541   -84546   -84543   -84523 
  -84492   -84458   -84422   -84388   -84358   -84331   -84319   -84325 
  -84337   -84357   -84388   -84422   -84447   -84468   -84480   -84483 
  -84476   -84461   -84445   -84422   -84397   -84384   -84376   -84372 
  -84373   -84381   -84395   -84400   -84395   -84387   -84373   -84356 
  -84341   -84325   -84304   -84285   -84267   -84241   -84208   -84177 
  -84144   -84105   -84072   -84051   -84032   -84019   -84022   -84034 
  -84056   -84091   -84140   -84194   -84244   -84294   -84346   -84395 
  -84441   -84489   -84538   -84588   -84642   -84704   -84773   -84846 
  -84917   -84994   -85071   -85140   -85201   -85252   -85288   -85314 
  -85333   -85338   -85333   -85320   -85294   -85264   -85236   -85202 
  -85166   -85136   -85108   -85078   -85056   -85047   -85032   -85014 
  -85001   -84982   -84959   -84937   -84919   -84900   -84885   -84875 
  -84870   -84861   -84852   -84847   -84840   -84838   -84827   -84808 
  -84786   -84759   -84731   -84707   -84681   -84663   -84657   -84659 
  -84669   -84690   -84715   -84739   -84767   -84790   -84805   -84816 
  -84823   -84817   -84796   -84767   -84736   -84703   -84669   -84645 
  -84638   -84650   -84673   -84705   -84747   -84794   -84839   -84886 
  -84933   -84981   -85027   -85066   -85101   -85125   -85135   -85131 
  -85117   -85094   -85062   -85027   -84982   -84925   -84863   -84800 
  -84730   -84657   -84576   -84491   -84406   -84314   -84221   -84134 
  -84046   -83956   -83875   -83816   -83779   -83763   -83771   -83798 
  -83839   -83883   -83930   -83983   -84041   -84103   -84164   -84222 
  -84279   -84327   -84361   -84388   -84407   -84415   -84426   -84441 
  -84456   -84474   -84491   -84504   -84514   -84516   -84514   -84501 
  -84477   -84446   -84404   -84361   -84316   -84261   -84200   -84137 
  -84067   -84001   -83941   -83882   -83832   -83789   -83748   -83713 
  -83681   -83654   -83636   -83625   -83620   -83616   -83610   -83612 
  -83610   -83601   -83592   -83589   -83586   -83585   -83590   -83605 
  -83625   -83655   -83698   -83744   -83791   -83843   -83902   -83976 
  -84061   -84160   -84276   -84403   -84541   -84685   -84834   -84983 
  -85126   -85266   -85403   -85533   -85650   -85764   -85869   -85963 
  -86047   -86123   -86194   -86262   -86321   -86375   -86414   -86436 
  -86440   -86425   -86387   -86324   -86239   -86140   -86026   -85889 
  -85746   -85598   -85436   -85267   -85109   -84962   -84827   -84711 
  -84608   -84514   -84433   -84361   -84295   -84240   -84194   -84148 
  -84105   -84071   -84034   -83992   -83948   -83898   -83847   -83794 
  -83743   -83698   -83663   -83640   -83633   -83643   -83666   -83704 
  -83747   -83794   -83844   -83886   -83920   -83951   -83987   -84030 
  -84076   -84125   -84183   -84238   -84287   -84333   -84369   -84385 
  -84391   -84388   -84373   -84348   -84304   -84244   -84173   -84094 
  -84010   -83924   -83836   -83755   -83678   -83609   -83560   -83532 
  -83520   -83525   -83550   -83586   -83636   -83697   -83767   -83847 
  -83934   -84029   -84132   -84227   -84321   -84415   -84505   -84599 
  -84696   -84794   -84909   -85037   -85167   -85311   -85469   -85625 
  -85777   -85926   -86065   -86198   -86319   -86421   -86513   -86599 
  -86679   -86753   -86823   -86880   -86930   -86972   -86992   -86992 
  -86981   -86950   -86902   -86846   -86786   -86718   -86648   -86571 
  -86483   -86389   -86290   -86185   -86080   -85974   -85869   -85770 
  -85680   -85598   -85525   -85455   -85380   -85307   -85230   -85147 
