Origin Time       2025/01/13 21:19:00
Lat.              31.8
Long.             131.6
Depth. (km)       30
Mag.              6.9
Station Code      SAGH04
Station Lat.      33.3654
Station Long.     130.4046
Station Height(m) 55
Record Time       2025/01/13 21:20:04
Sampling Freq(Hz) 100Hz
Duration Time(s)  132
Dir.              5
Scale Factor      7845(gal)/8223790
Max. Acc. (gal)   2.291
Last Correction   2025/01/13 21:20:04
Memo.             
[...]
    6859     6934     6959     6890     6750     6597     6480     6428 
    6457     6552     6696     6845     6968     7037     7030     6951 
    6841     6758     6732     6750     6786     6812     6799     6741 
    6643     6513     6374     6247     6174     6192     6299     6459 
    6627     6760     6837     6849     6810     6762     6752     6813 
    6941     7111     7264     7345     7323     7202     7014     6812 
    6655     6593     6637     6775     6964     7142     7253     7256 
    7150     6974     6777     6615     6538     6562     6662     6805 
    6936     6997     6953     6810     6596     6357     6151     6014 
    5948     5956     6038     6188     6386     6605     6798     6932 
    6997     7007     6990     6960     6930     6921     6951     7026 
    7142     7285     7435     7564     7654     7723     7771     7788 
    7763     7697     7596     7483     7388     7334     7329     7339 
    7315     7233     7103     6952     6808     6686     6574     6466 
    6373     6286     6185     6058     5923     5809     5757     5809 
    5960     6180     6411     6588     6683     6706     6681     6637 
    6600     6570     6561     6598     6679     6772     6851     6878 
    6833     6745     6670     6647     6693     6786     6893     6988 
    7060     7090     7079     7036     6966     6875     6781     6712 
    6705     6782     6914     7056     7161     7195     7160     7075 
    6967     6870     6816     6828     6902     7011     7126     7215 
    7248     7206     7098     6951     6806     6708     6700     6790 
    6952     7149     7319     7407     7391     7272     7072     6826 
    6574     6370     6269     6284     6394     6569     6751     6878 
    6914     6870     6772     6655     6539     6448     6397     6399 
    6467     6612     6813     7018     7183     7277     7284     7200 
    7047     6847     6640     6480     6413     6451     6565     6704 
    6818     6879     6871     6821     6772     6733     6700     6662 
    6600     6508     6385     6262     6172     6120     6119     6192 
    6335     6524     6727     6913     7055     7123     7114     7042 
    6936     6835     6764     6744     6768     6821     6890     6964 
    7025     7063     7076     7060     7009     6916     6778     6615 
    6473     6400     6401     6461     6561     6677     6790     6893 
    6971     6999     6967     6891     6790     6686     6612     6590 
    6627     6728     6901     7113     7319     7476     7542     7515 
    7426     7312     7210     7149     7136     7163     7227     7325 
    7434     7523     7553     7497     7358     7171     6986     6855 
    6801     6809     6856     6925     6991     7029     7030     6994 
    6933     6885     6875     6913     6993     7092     7192     7284 
    7364     7425     7450     7437     7389     7330     7295     7310 
    7379     7476     7568     7616     7605     7531     7414     7277 
    7134     6983     6831     6687     6571     6507     6508     6554 
    6608     6635     6609     6527     6413     6305     6223     6173 
    6149     6130     6106     6075     6045     6037     6069     6149 
    6277     6428     6559     6619     6592     6508     6399     6312 
    6300     6382     6546     6763     6982     7148     7238     7242 
    7160     7034     6917     6860     6901     7033     7227     7441 
    7628     7750     7771     7704     7584     7460     7381     7376 
    7434     7516     7572     7566     7493     7381     7275     7200 
    7167     7177     7221     7277     7330     7373     7400     7412 
    7418     7429     7457     7518     7616     7750     7901     8039 
    8121     8124     8040     7881     7662     7411     7160     6929 
    6724     6546     6399     6278     6192     6142     6130     6157 
    6204     6250     6282     6289     6261     6192     6085     5952 
    5807     5679     5586     5537     5555     5649     5788     5933 
    6052     6123     6134     6079     5981     5883     5819     5805 
    5848     5945     6073     6223     6372     6492     6570     6604 
    6593     6561     6539     6546     6593     6670     6754     6820 
    6862     6870     6841     6782     6702     6613     6540     6507 
    6529     6619     6750     6878     6976     7024     7011     6944 
    6840     6725     6613     6532     6507     6534     6600     6687 
    6778     6862     6925     6941     6890     6766     6590     6407 
    6268     6197     6193     6237     6301     6362     6403     6426 
    6443     6453     6447     6427     6403     6370     6327     6284 
    6255     6258     6303     6373     6453     6536     6615     6683 
    6743     6801     6864     6951     7078     7244     7433     7615 
    7744     7788     7747     7624     7437     7240     7084     6993 
    6963     6968     6974     6960     6933     6899     6882     6914 
    6994     7088     7164     7198     7187     7132     7032     6898 
    6759     6642     6571     6566     6627     6750     6922     7117 
    7285     7388     7393     7318     7215     7138     7117     7142 
    7171     7163     7111     7042     6984     6953     6961     6999 
    7041     7071     7075     7052     7006     6948     6893     6862 
    6863     6895     6948     7017     7101     7186     7257     7296 
    7277     7202     7088     6960     6855     6793     6778     6795 
    6828     6868     6917     6961     6990     6998     6970     6890 
    6772     6632     6489     6386     6351     6372     6416     6451 
    6450     6403     6318     6219     6131     6076     6061     6102 
    6203     6347     6505     6647     6752     6805     6809     6778 
    6717     6633     6539     6454     6404     6404     6448     6507 
    6546     6548     6523     6488     6459     6451     6475     6528 
    6601     6690     6786     6874     6944     6988     7021     7038 
    7034     7021     7009     7009     7045     7136     7263     7399 
    7519     7582     7573     7516     7449     7399     7368     7342 
    7303     7234     7130     7014     6910     6833     6794     6790 
    6813     6845     6868     6867     6835     6771     6685     6586 
    6501     6438     6396     6380     6376     6376     6396     6444 
    6519     6601     6660     6675     6632     6550     6467     6428 
    6470     6616     6840     7084     7283     7381     7360     7246 
    7087     6930     6826     6798     6839     6937     7074     7215 
    7322     7371     7356     7290     7187     7071     6970     6898 
    6858     6849     6858     6863     6852     6826     6795     6778 
    6783     6798     6808     6810     6801     6779     6754     6731 
    6709     6691     6683     6693     6723     6767     6817     6853 
    6856     6809     6724     6628     6567     6574     6646     6754 
    6866     6945     6974     6941     6836     6675     6496     6331 
    6212     6154     6154     6203     6272     6336     6380     6389 
    6353     6274     6161     6039     5952     5926     5967     6058 
    6187     6328     6462     6573     6648     6685     6687     6682 
    6700     6771     6902     7082     7283     7460     7582     7638 
    7626     7564     7479     7393     7329     7310     7329     7366 
    7407     7434     7420     7362     7271     7164     7064     6991 
    6953     6951     6971     6995     6999     6978     6932     6870 
    6809     6770     6777     6832     6930     7059     7179     7246 
    7252     7196     7095     6979     6878     6808     6781     6793 
    6822     6843     6841     6820     6783     6735     6679     6620 
    6559     6509     6480     6459     6436     6397     6332     6235 
    6122     6016     5940     5918     5950     6006     6068     6124 
    6160     6168     6158     6154     6181     6255     6376     6534 
    6714     6890     7047     7173     7267     7339     7392     7422 
    7430     7423     7404     7364     7294     7195     7078     6949 
    6820     6710     6650     6656     6731     6859     7005     7138 
    7229     7238     7164     7025     6862     6714     6615     6581 
    6617     6712     6836     6951     7017     7014     6949     6844 
    6721     6620     6559     6544     6575     6644     6732     6831 
    6939     7037     7113     7161     7182     7182     7175     7153 
    7102     7022     6928     6836     6768     6737     6739     6763 
    6805     6856     6899     6918     6901     6847     6777     6712 
    6663     6632     6615     6601     6593     6612     6678     6795 
    6948     7098     7202     7236     7199     7105     6979     6855 
    6760     6702     6686     6717     6774     6841     6912     6960 
    6971     6952     6897     6804     6683     6547     6404     6276 
    6180     6135     6156     6234     6355     6488     6605     6704 
    6777     6814     6822     6810     6789     6777     6795     6849 
    6941     7072     7231     7388     7522     7627     7713     7794 
    7885     7992     8110     8213     8270     8267     8203     8087 
    7929     7753     7592     7473     7403     7366     7346     7319 
    7252     7129     6971     6817     6706     6659     6683     6759 
    6851     6922     6945     6899     6795     6652     6492     6338 
    6207     6111     6072     6099     6192     6339     6504     6656 
    6778     6853     6897     6910     6893     6856     6818     6791 
    6789     6832     6922     7032     7133     7198     7213     7184 
    7121     7030     6928     6836     6763     6704     6660     6636 
    6623     6608     6574     6504     6394     6250     6089     5958 
    5896     5934     6073     6277     6494     6689     6839     6936 
    6991     7018     7014     6976     6899     6794     6686     6605 
    6585     6644     6779     6967     7179     7376     7526     7604 
    7616     7578     7518     7462     7427     7414     7416     7414 
    7387     7331     7254     7157     7055     6975     6932     6925 
    6955     7014     7086     7153     7209     7245     7253     7222 
    7144     7025     6880     6724     6590     6523     6536     6632 
    6793     6983     7169     7300     7339     7281     7150     6983 
    6820     6706     6673     6718     6826     6979     7153     7318 
    7454     7546     7573     7546     7483     7379     7217     6999 
    6750     6498     6284     6141     6079     6083     6114     6131 
    6099     6007     5880     5744     5626     5556     5537     5549 
    5579     5625     5674     5724     5772     5815     5842     5854 
    5856     5844     5829     5833     5861     5907     5973     6054 
    6141     6227     6320     6415     6502     6574     6617     6625 
    6598     6552     6513     6523     6592     6716     6885     7063 
    7209     7306     7341     7312     7237     7130     6998     6863 
    6752     6675     6651     6681     6741     6817     6887     6939 
    6988     7063     7171     7322     7504     7693     7862     7993 
    8093     8174     8244     8313     8372     8430     8494     8563 
    8642     8737     8830     8896     8905     8846     8723     8553 
    8352     8137     7948     7808     7713     7651     7611     7582 
    7549     7501     7449     7393     7329     7238     7109     6949 
    6786     6620     6463     6330     6212     6111     6038     5998 
    5991     6007     6029     6031     6000     5934     5838     5725 
    5622     5547     5514     5537     5594     5659     5724     5783 
    5845     5913     5983     6046     6095     6124     6150     6197 
    6278     6386     6521     6667     6814     6955     7083     7190 
    7258     7279     7245     7169     7074     6971     6872     6798 
    6755     6739     6724     6681     6592     6435     6210     5953 
    5713     5525     5418     5408     5479     5584     5676     5728 
    5719     5655     5553     5431     5287     5139     5004     4904 
    4858     4881     4976     5139     5362     5629     5923     6224 
    6511     6767     6986     7159     7276     7334     7337     7306 
    7276     7273     7321     7431     7595     7773     7920     8008 
    8014     7929     7777     7597     7425     7281     7180     7119 
    7083     7055     7013     6940     6849     6763     6706     6709 
    6787     6943     7152     7375     7587     7770     7904     7977 
    8000     7983     7942     7900     7882     7900     7950     8024 
    8100     8148     8167     8164     8143     8100     8052     8019 
    7997     7990     8000     8019     8035     8033     7990     7894 
    7747     7562     7364     7177     7030     6939     6893     6868 
    6843     6804     6741     6664     6579     6497     6432     6405 
    6420     6475     6556     6648     6720     6747     6733     6690 
    6624     6532     6420     6299     6189     6112     6087     6135 
    6258     6430     6610     6766     6874     6932     6948     6934 
    6916     6916     6953     7022     7109     7195     7261     7302 
    7319     7310     7279     7242     7215     7210     7227     7249 
    7248     7203     7105     6959     6787     6632     6546     6558 
    6655     6808     6966     7071     7086     6997     6809     6559 
    6295     6058     5869     5738     5676     5675     5703     5733 
    5740     5710     5633     5516     5385     5243     5092     4939 
    4785     4629     4498     4432     4460     4603     4854     5182 
    5530     5837     6068     6216     6295     6327     6350     6393 
    6473     6596     6755     6926     7098     7268     7429     7577 
    7704     7793     7839     7847     7824     7784     7747     7734 
    7750     7794     7866     7944     8000     8006     7946     7827 
    7676     7519     7392     7321     7306     7344     7426     7541 
    7672     7800     7900     7948     7951     7919     7847     7736 
    7603     7462     7327     7217     7155     7130     7126     7134 
    7149     7161     7168     7168     7163     7149     7128     7094 
    7049     7002     6952     6895     6824     6740     6655     6581 
    6525     6498     6504     6542     6605     6683     6771     6870 
    6967     7051     7121     7183     7252     7331     7418     7522 
    7642     7762     7854     7893     7873     7804     7701     7576 
    7437     7299     7169     7059     6991     6971     6988     7022 
    7044     7034     7003     6964     6928     6909     6912     6918 
    6907     6868     6794     6674     6507     6309     6108     5935 
    5817     5760     5764     5821     5915     6037     6168     6281 
    6332     6299     6187     6025     5861     5741     5690     5717 
    5829     6010     6235     6465     6662     6806     6901     6948 
    6972     6991     7005     7013     7014     6997     6951     6868 
    6759     6639     6523     6430     6382     6399     6484     6617 
    6771     6906     6979     6988     6953     6903     6880     6917 
    7013     7142     7275     7377     7429     7437     7418     7389 
    7373     7380     7406     7445     7497     7560     7615     7641 
    7632     7591     7514     7411     7308     7230     7200     7229 
    7300     7388     7460     7484     7460     7411     7358     7319 
    7312     7341     7377     7414     7443     7452     7442     7416 
    7368     7307     7240     7165     7091     7024     6976     6949 
    6940     6936     6924     6906     6887     6875     6880     6898 
    6906     6880     6817     6720     6601     6481     6390     6350 
    6362     6411     6473     6525     6552     6536     6466     6357 
    6234     6126     6076     6102     6195     6332     6481     6606 
    6702     6777     6828     6853     6858     6848     6828     6797 
    6771     6766     6791     6853     6947     7057     7172     7279 
    7369     7435     7466     7457     7408     7329     7230     7128 
    7033     6951     6887     6836     6786     6724     6629     6498 
    6342     6187     6050     5945     5879     5840     5802     5760 
    5718     5659     5594     5555     5549     5575     5628     5691 
    5738     5749     5728     5687     5648     5644     5694     5795 
    5942     6126     6320     6502     6652     6747     6783     6771 
    6729     6682     6651     6648     6673     6729     6813     6910 
    7018     7117     7165     7145     7064     6957     6863     6816 
    6832     6894     6975     7045     7086     7107     7129     7159 
    7198     7250     7304     7345     7369     7364     7321     7261 
    7196     7134     7096     7099     7134     7195     7267     7318 
    7331     7304     7238     7130     6990     6844     6705     6586 
    6502     6447     6412     6394     6392     6412     6465     6543 
    6633     6723     6801     6856     6872     6852     6797     6717 
    6632     6567     6531     6535     6592     6693     6824     6970 
    7102     7198     7244     7233     7180     7101     7002     6906 
    6840     6826     6872     6971     7101     7231     7325     7354 
    7311     7199     7038     6860     6701     6593     6556     6586 
    6659     6755     6848     6921     6964     6978     6978     6972 
    6968     6984     7022     7078     7156     7237     7290     7310 
    7302     7268     7223     7190     7172     7163     7155     7145 
    7136     7114     7075     7030     6984     6947     6924     6910 
    6886     6851     6808     6756     6709     6670     6620     6556 
    6500     6467     6474     6527     6613     6708     6789     6848 
    6876     6871     6839     6789     6724     6655     6600     6570 
    6565     6577     6586     6581     6565     6538     6496     6443 
    6385     6316     6243     6187     6162     6170     6200     6238 
    6268     6280     6269     6254     6243     6232     6222     6227 
    6258     6312     6381     6457     6525     6578     6617     6654 
    6693     6733     6772     6817     6870     6937     7020     7121 
    7234     7353     7468     7565     7628     7655     7665     7678 
    7705     7742     7786     7819     7821     7796     7749     7688 
    7622     7558     7515     7487     7474     7487     7515     7530 
    7511     7461     7379     7261     7128     7005     6905     6831 
    6779     6752     6743     6724     6687     6635     6574     6519 
    6477     6447     6427     6413     6393     6369     6351     6335 
    6316     6319     6362     6448     6562     6683     6786     6840 
    6832     6772     6685     6609     6573     6582     6639     6729 
    6826     6902     6944     6933     6862     6755     6651     6575 
    6547     6582     6678     6816     6971     7118     7236     7304 
    7315     7271     7198     7133     7084     7049     7030     7029 
    7034     7047     7061     7068     7049     7003     6944     6874 
    6794     6712     6627     6547     6471     6399     6328     6261 
    6199     6146     6107     6080     6052     6018     5980     5931 
    5875     5825     5794     5794     5826     5895     6000     6135 
    6282     6421     6532     6606     6637     6635     6612     6579 
    6547     6527     6527     6555     6610     6674     6737     6798 
