Origin Time       2025/01/13 21:19:00
Lat.              31.8
Long.             131.6
Depth. (km)       30
Mag.              6.9
Station Code      SAGH05
Station Lat.      33.1806
Station Long.     130.1046
Station Height(m) 18
Record Time       2025/01/13 21:20:04
Sampling Freq(Hz) 100Hz
Duration Time(s)  201
Dir.              4
Scale Factor      7845(gal)/8223790
Max. Acc. (gal)   2.546
Last Correction   2025/01/13 21:20:04
Memo.             
[...]
    5242     5204     5184     5174     5170     5177     5194     5219 
    5248     5278     5298     5312     5321     5321     5310     5287 
    5248     5190     5124     5057     4992     4928     4868     4808 
    4756     4714     4688     4681     4692     4712     4737     4770 
    4815     4861     4908     4955     5005     5054     5092     5117 
    5136     5146     5148     5143     5131     5117     5100     5067 
    5026     4981     4939     4901     4874     4855     4847     4857 
    4873     4887     4903     4914     4908     4888     4862     4826 
    4774     4711     4642     4580     4525     4477     4438     4413 
    4406     4417     4436     4457     4475     4487     4492     4495 
    4496     4504     4527     4564     4615     4687     4776     4877 
    4992     5117     5244     5363     5478     5591     5692     5786 
    5867     5938     6003     6061     6119     6170     6210     6234 
    6249     6259     6270     6277     6277     6273     6276     6286 
    6292     6284     6264     6235     6200     6161     6122     6088 
    6066     6060     6065     6076     6088     6096     6104     6116 
    6134     6153     6173     6191     6208     6222     6228     6237 
    6246     6251     6251     6242     6216     6170     6111     6037 
    5945     5845     5745     5648     5559     5478     5409     5358 
    5316     5281     5247     5208     5174     5148     5125     5112 
    5109     5120     5143     5171     5206     5251     5300     5358 
    5412     5462     5520     5580     5644     5705     5757     5810 
    5861     5904     5937     5954     5964     5960     5934     5895 
    5846     5782     5701     5610     5510     5404     5297     5186 
    5066     4955     4858     4772     4700     4644     4599     4576 
    4575     4590     4615     4642     4676     4715     4757     4801 
    4843     4874     4896     4918     4941     4957     4972     4989 
    5012     5034     5053     5071     5088     5090     5086     5084 
    5078     5067     5059     5051     5043     5039     5034     5016 
    4985     4946     4900     4846     4791     4729     4660     4587 
    4514     4444     4384     4337     4307     4293     4295     4318 
    4357     4410     4475     4552     4637     4727     4837     4955 
    5080     5208     5335     5458     5576     5684     5779     5865 
    5940     6006     6061     6097     6122     6137     6137     6123 
    6099     6058     6006     5941     5867     5786     5699     5607 
    5512     5416     5319     5224     5131     5043     4969     4912 
    4866     4833     4816     4810     4812     4831     4873     4935 
    5011     5096     5196     5308     5424     5536     5638     5730 
    5806     5863     5900     5919     5919     5906     5880     5844 
    5799     5751     5701     5652     5611     5586     5571     5562 
    5571     5595     5630     5680     5746     5826     5914     6008 
    6102     6196     6288     6376     6453     6517     6569     6605 
    6632     6648     6654     6647     6629     6600     6565     6524 
    6469     6403     6327     6243     6150     6052     5956     5861 
    5767     5680     5599     5521     5452     5387     5317     5244 
    5166     5084     4996     4900     4804     4711     4615     4523 
    4445     4375     4315     4275     4249     4226     4209     4199 
    4187     4171     4158     4147     4139     4137     4144     4152 
    4159     4163     4162     4153     4141     4126     4109     4091 
    4071     4055     4047     4044     4048     4054     4058     4066 
    4074     4077     4081     4091     4113     4143     4167     4197 
    4233     4272     4322     4382     4440     4498     4554     4602 
    4642     4680     4710     4730     4749     4765     4774     4788 
    4806     4827     4858     4899     4957     5032     5121     5223 
    5331     5443     5559     5678     5796     5915     6027     6133 
    6223     6293     6343     6373     6382     6374     6351     6322 
    6285     6255     6231     6204     6183     6164     6141     6115 
    6085     6053     6022     5992     5965     5946     5940     5945 
    5961     5991     6027     6065     6103     6139     6168     6189 
    6210     6231     6255     6280     6307     6335     6365     6397 
    6423     6439     6454     6467     6480     6489     6498     6515 
    6538     6570     6610     6660     6717     6772     6821     6863 
    6897     6924     6941     6947     6940     6920     6885     6837 
    6778     6709     6636     6559     6486     6413     6338     6259 
    6177     6091     6004     5906     5800     5691     5574     5449 
    5321     5194     5073     4959     4853     4757     4671     4596 
    4534     4492     4467     4453     4450     4455     4464     4480 
    4492     4503     4525     4554     4583     4607     4626     4641 
    4652     4654     4648     4637     4619     4600     4576     4549 
    4522     4496     4472     4452     4434     4418     4405     4387 
    4367     4356     4351     4352     4360     4378     4410     4459 
    4519     4591     4665     4739     4808     4872     4930     4977 
    5012     5036     5054     5069     5074     5074     5071     5063 
    5054     5040     5023     5005     4985     4963     4949     4939 
    4936     4939     4943     4955     4974     4990     5005     5013 
    5015     5016     5013     5009     5007     5009     5017     5026 
    5034     5049     5073     5097     5119     5142     5159     5163 
    5158     5144     5127     5111     5094     5077     5059     5042 
    5026     5005     4980     4958     4945     4934     4930     4930 
    4934     4943     4961     4982     5016     5065     5116     5174 
    5244     5323     5402     5487     5575     5661     5737     5799 
    5848     5880     5899     5915     5927     5933     5937     5944 
    5940     5926     5906     5872     5823     5767     5701     5637 
    5578     5526     5497     5486     5490     5513     5552     5602 
    5656     5705     5746     5780     5806     5823     5830     5823 
    5811     5784     5733     5661     5576     5479     5370     5258 
    5155     5062     4977     4900     4831     4766     4715     4680 
    4653     4635     4631     4635     4649     4673     4704     4749 
    4800     4857     4919     4981     5039     5097     5152     5200 
    5244     5290     5336     5385     5440     5499     5559     5617 
    5671     5722     5771     5809     5837     5860     5873     5875 
    5869     5863     5861     5867     5883     5914     5962     6019 
    6072     6116     6151     6170     6170     6153     6126     6092 
    6050     6006     5961     5919     5877     5838     5809     5794 
    5790     5792     5806     5823     5838     5857     5876     5892 
    5902     5907     5907     5899     5881     5852     5807     5755 
    5692     5622     5543     5452     5360     5274     5188     5101 
    5016     4935     4862     4793     4738     4696     4658     4623 
    4594     4565     4525     4479     4434     4384     4330     4278 
    4226     4185     4160     4149     4159     4190     4241     4309 
    4390     4482     4584     4698     4823     4954     5088     5223 
    5354     5476     5583     5676     5757     5826     5884     5937 
    5988     6043     6103     6161     6224     6288     6351     6408 
    6457     6502     6538     6561     6582     6606     6625     6643 
    6658     6666     6664     6650     6624     6585     6532     6474 
    6407     6335     6265     6196     6127     6057     5987     5910 
    5823     5721     5605     5485     5367     5258     5167     5092 
    5032     4999     4981     4982     4996     5015     5039     5061 
    5077     5085     5078     5061     5036     5001     4963     4932 
    4911     4899     4893     4899     4911     4928     4951     4980 
    5015     5051     5085     5108     5115     5104     5076     5026 
    4959     4884     4803     4730     4665     4610     4573     4553 
    4541     4544     4564     4596     4630     4664     4703     4741 
    4773     4796     4811     4822     4826     4823     4815     4797 
    4774     4753     4722     4679     4627     4572     4514     4456 
    4405     4359     4315     4276     4243     4209     4175     4144 
    4117     4093     4072     4058     4051     4051     4055     4059 
    4059     4060     4068     4075     4082     4099     4124     4151 
    4189     4233     4284     4342     4401     4460     4526     4598 
    4675     4752     4828     4907     4985     5062     5136     5209 
    5287     5370     5452     5533     5618     5707     5796     5879 
    5958     6034     6103     6166     6230     6291     6346     6401 
    6463     6520     6574     6639     6710     6779     6849     6920 
    6984     7042     7096     7149     7192     7221     7242     7256 
    7252     7238     7217     7183     7141     7095     7045     6991 
    6934     6867     6785     6691     6592     6488     6388     6288 
    6196     6120     6056     6002     5954     5915     5879     5841 
    5796     5745     5690     5624     5547     5462     5368     5263 
    5151     5036     4912     4779     4641     4502     4361     4225 
    4099     3987     3892     3821     3775     3751     3751     3770 
    3801     3846     3904     3982     4075     4180     4302     4434 
    4576     4729     4878     5023     5165     5292     5401     5494 
    5575     5645     5702     5751     5795     5836     5871     5896 
    5910     5907     5884     5845     5792     5726     5648     5560 
    5474     5390     5314     5256     5216     5192     5193     5215 
    5250     5292     5339     5391     5440     5481     5510     5532 
    5551     5563     5563     5560     5556     5547     5530     5508 
    5485     5455     5428     5401     5363     5331     5309     5286 
    5266     5251     5238     5227     5217     5202     5177     5148 
    5116     5070     5012     4946     4869     4787     4704     4626 
    4558     4504     4463     4440     4434     4446     4471     4509 
    4563     4626     4693     4777     4874     4977     5092     5220 
    5352     5490     5630     5773     5919     6068     6216     6365 
    6516     6669     6824     6980     7130     7268     7393     7503 
    7588     7646     7668     7654     7609     7537     7430     7296 
    7146     6979     6801     6619     6442     6272     6110     5960 
    5826     5714     5628     5555     5491     5443     5397     5354 
    5314     5273     5228     5186     5150     5117     5088     5053 
    5011     4965     4915     4854     4791     4730     4671     4615 
    4563     4517     4480     4452     4437     4436     4432     4430 
    4433     4432     4422     4405     4382     4352     4309     4256 
    4199     4133     4066     4000     3935     3878     3828     3785 
    3750     3716     3684     3655     3627     3601     3581     3564 
    3543     3530     3528     3535     3549     3573     3608     3657 
    3720     3794     3881     3979     4087     4202     4318     4432 
    4549     4665     4779     4891     5003     5109     5211     5306 
    5400     5482     5551     5616     5667     5703     5729     5742 
    5742     5737     5728     5713     5698     5683     5670     5656 
    5640     5624     5614     5620     5645     5686     5742     5809 
    5880     5950     6019     6080     6135     6180     6215     6247 
    6273     6291     6301     6300     6296     6288     6270     6246 
    6212     6166     6119     6065     6010     5961     5918     5884 
    5863     5856     5864     5879     5902     5933     5967     6006 
    6045     6080     6118     6151     6176     6192     6199     6200 
    6195     6178     6153     6122     6096     6077     6065     6061 
    6058     6049     6039     6026     6002     5973     5944     5913 
    5876     5837     5798     5768     5752     5751     5756     5775 
    5802     5830     5863     5892     5914     5931     5945     5958 
    5975     5992     6012     6031     6048     6058     6052     6029 
    5991     5935     5868     5795     5719     5643     5564     5498 
    5443     5386     5332     5286     5242     5200     5155     5108 
    5059     5013     4970     4928     4888     4854     4820     4788 
    4754     4714     4677     4645     4615     4591     4576     4569 
    4567     4564     4564     4563     4561     4565     4571     4584 
    4608     4637     4669     4702     4730     4754     4770     4776 
    4768     4741     4696     4637     4564     4480     4390     4305 
    4224     4155     4101     4054     4017     3993     3966     3939 
    3913     3892     3881     3879     3885     3900     3920     3947 
    3981     4017     4055     4090     4125     4167     4212     4261 
    4322     4392     4472     4563     4665     4774     4889     5003 
    5112     5216     5313     5401     5479     5545     5598     5640 
    5670     5688     5699     5688     5664     5634     5595     5549 
    5498     5447     5395     5348     5309     5282     5270     5274 
    5296     5336     5394     5464     5548     5645     5749     5859 
    5980     6111     6249     6396     6544     6693     6833     6968 
    7094     7202     7300     7392     7472     7547     7616     7681 
    7747     7816     7881     7936     7977     8001     8005     7982 
    7929     7855     7765     7663     7560     7453     7346     7245 
    7152     7063     6979     6898     6813     6727     6632     6532 
    6431     6326     6219     6114     6014     5914     5811     5705 
    5590     5472     5358     5238     5124     5022     4924     4842 
    4770     4706     4654     4611     4568     4530     4494     4452 
    4401     4344     4284     4217     4152     4086     4021     3977 
    3947     3925     3921     3935     3963     4004     4050     4098 
    4153     4213     4272     4333     4401     4475     4556     4649 
    4745     4839     4932     5015     5090     5157     5205     5236 
    5247     5243     5233     5208     5169     5121     5061     4992 
    4919     4843     4766     4695     4639     4591     4549     4522 
    4500     4483     4473     4467     4457     4445     4434     4422 
    4407     4391     4371     4347     4325     4298     4263     4222 
    4174     4114     4050     3982     3915     3851     3802     3767 
    3739     3730     3732     3739     3757     3782     3808     3842 
    3877     3913     3955     3996     4037     4083     4124     4159 
    4190     4221     4249     4272     4291     4305     4321     4342 
    4360     4379     4410     4440     4477     4522     4571     4627 
    4693     4769     4850     4936     5034     5132     5229     5335 
    5443     5557     5680     5807     5945     6085     6220     6354 
    6480     6590     6685     6767     6835     6891     6945     6991 
    7030     7069     7107     7138     7157     7164     7160     7140 
    7103     7055     6993     6917     6828     6729     6632     6528 
    6417     6304     6193     6084     5987     5902     5826     5776 
    5753     5748     5764     5806     5868     5946     6031     6120 
    6215     6305     6390     6470     6543     6609     6663     6704 
    6732     6747     6751     6741     6721     6689     6640     6578 
    6505     6419     6318     6203     6076     5938     5794     5651 
    5508     5366     5233     5111     4990     4873     4766     4671 
    4583     4513     4459     4418     4396     4391     4401     4414 
    4434     4463     4483     4494     4507     4513     4514     4517 
    4523     4536     4556     4585     4619     4657     4691     4718 
    4739     4760     4773     4770     4756     4734     4702     4654 
    4598     4531     4460     4380     4297     4210     4124     4037 
    3952     3875     3811     3758     3716     3688     3677     3690 
    3723     3778     3855     3947     4055     4175     4301     4432 
    4560     4681     4797     4912     5026     5136     5247     5363 
    5482     5611     5746     5877     6003     6122     6228     6315 
    6388     6453     6508     6555     6604     6648     6683     6716 
    6745     6766     6770     6766     6762     6752     6731     6702 
    6667     6623     6565     6492     6408     6315     6218     6119 
    6018     5915     5821     5726     5629     5529     5421     5308 
    5188     5055     4915     4768     4621     4483     4357     4244 
    4152     4085     4036     4002     3993     4004     4025     4055 
    4094     4147     4205     4261     4320     4387     4461     4538 
    4621     4714     4816     4928     5046     5166     5292     5422 
    5555     5684     5807     5927     6039     6134     6208     6265 
    6297     6304     6293     6265     6220     6170     6110     6042 
    5973     5902     5830     5761     5697     5638     5587     5549 
    5525     5513     5509     5508     5512     5526     5541     5552 
    5567     5586     5606     5638     5678     5722     5773     5834 
    5902     5972     6041     6107     6169     6220     6258     6288 
    6312     6323     6327     6330     6328     6324     6316     6304 
    6288     6270     6253     6232     6212     6189     6166     6141 
    6114     6089     6064     6035     6015     5992     5965     5941 
    5923     5908     5888     5865     5844     5821     5794     5763 
    5730     5691     5648     5605     5557     5503     5452     5402 
    5348     5290     5233     5178     5121     5065     5011     4962 
    4914     4870     4834     4801     4781     4764     4746     4734 
    4726     4723     4723     4725     4727     4731     4735     4741 
    4743     4745     4747     4749     4745     4735     4719     4699 
    4668     4633     4608     4585     4569     4573     4591     4619 
    4661     4715     4772     4827     4888     4947     5001     5051 
    5097     5142     5182     5215     5244     5266     5281     5296 
    5312     5324     5336     5351     5371     5390     5405     5417 
    5428     5433     5427     5410     5386     5346     5292     5233 
    5163     5090     5027     4969     4915     4877     4846     4827 
    4822     4828     4842     4860     4889     4932     4977     5017 
    5055     5089     5116     5134     5136     5119     5092     5063 
    5027     4986     4946     4899     4847     4791     4725     4652 
    4564     4461     4353     4241     4129     4023     3921     3832 
    3757     3696     3655     3634     3628     3630     3642     3662 
    3685     3713     3748     3792     3848     3916     3994     4087 
    4195     4315     4445     4588     4745     4912     5085     5255 
    5421     5582     5734     5871     5992     6091     6174     6243 
    6292     6323     6339     6339     6328     6308     6276     6231 
    6178     6120     6060     5999     5942     5892     5849     5813 
    5778     5741     5705     5667     5621     5571     5520     5472 
    5428     5385     5350     5323     5306     5302     5310     5327 
    5350     5382     5427     5474     5525     5583     5649     5719 
