Origin Time       2025/01/13 21:19:00
Lat.              31.8
Long.             131.6
Depth. (km)       30
Mag.              6.9
Station Code      SAGH03
Station Lat.      33.4098
Station Long.     130.2329
Station Height(m) 272
Record Time       2025/01/13 21:20:33
Sampling Freq(Hz) 100Hz
Duration Time(s)  120
Dir.              1
Scale Factor      2942(gal)/8224139
Max. Acc. (gal)   1.076
Last Correction   2025/01/13 21:20:33
Memo.             
[...]
  143019   142971   142936   142911   142894   142892   142900   142909 
  142916   142919   142916   142913   142906   142898   142900   142902 
  142902   142909   142917   142919   142920   142929   142943   142960 
  142985   143016   143054   143093   143133   143174   143209   143245 
  143284   143328   143374   143428   143482   143540   143602   143668 
  143737   143811   143885   143961   144039   144116   144193   144270 
  144337   144397   144451   144494   144528   144552   144563   144564 
  144558   144541   144517   144495   144474   144451   144429   144401 
  144366   144325   144278   144224   144162   144093   144023   143951 
  143881   143810   143737   143664   143591   143519   143453   143397 
  143353   143320   143294   143280   143274   143263   143247   143232 
  143224   143217   143213   143217   143228   143240   143253   143267 
  143280   143294   143311   143334   143360   143391   143429   143465 
  143498   143526   143546   143550   143538   143514   143484   143455 
  143430   143405   143379   143357   143334   143311   143291   143280 
  143279   143283   143290   143293   143289   143274   143252   143224 
  143183   143135   143078   143010   142942   142875   142821   142781 
  142747   142726   142724   142740   142767   142800   142832   142865 
  142896   142923   142942   142948   142943   142925   142902   142877 
  142847   142813   142780   142751   142730   142719   142707   142693 
  142678   142651   142611   142568   142518   142460   142400   142338 
  142271   142209   142159   142122   142099   142094   142102   142119 
  142138   142159   142180   142200   142210   142215   142227   142244 
  142264   142291   142317   142335   142349   142362   142379   142402 
  142430   142461   142492   142523   142547   142553   142542   142519 
  142488   142447   142402   142350   142294   142240   142187   142128 
  142063   141997   141930   141868   141816   141772   141740   141717 
  141694   141673   141651   141621   141585   141547   141508   141469 
  141436   141412   141393   141377   141369   141369   141370   141374 
  141389   141416   141461   141524   141596   141674   141755   141826 
  141890   141945   141986   142020   142052   142078   142096   142126 
  142164   142202   142240   142283   142334   142383   142430   142474 
  142514   142541   142553   142551   142537   142503   142464   142425 
  142389   142361   142346   142348   142360   142377   142389   142392 
  142393   142391   142384   142379   142379   142384   142395   142412 
  142438   142470   142514   142569   142632   142705   142781   142850 
  142911   142966   143012   143048   143079   143104   143117   143121 
  143118   143108   143093   143082   143079   143090   143121   143171 
  143229   143291   143352   143406   143453   143498   143544   143584 
  143618   143650   143677   143698   143718   143738   143757   143779 
  143799   143818   143838   143862   143893   143937   143985   144031 
  144076   144109   144138   144163   144188   144217   144254   144286 
  144312   144331   144335   144324   144306   144282   144254   144224 
  144190   144144   144082   144011   143930   143839   143746   143654 
  143569   143498   143438   143392   143359   143329   143301   143275 
  143249   143225   143199   143175   143151   143128   143106   143087 
  143074   143063   143062   143060   143051   143036   143014   142986 
  142951   142904   142847   142788   142724   142662   142609   142566 
  142533   142512   142511   142520   142538   142560   142578   142595 
  142607   142614   142619   142631   142655   142689   142726   142765 
  142809   142858   142908   142959   143004   143036   143062   143079 
  143090   143097   143105   143117   143133   143155   143189   143237 
  143295   143360   143430   143506   143584   143662   143737   143806 
  143864   143915   143961   144003   144036   144065   144092   144116 
  144143   144169   144196   144224   144247   144262   144267   144258 
  144236   144200   144153   144103   144054   144005   143961   143924 
  143897   143868   143834   143796   143746   143683   143615   143548 
  143476   143402   143330   143260   143190   143112   143028   142943 
  142855   142762   142665   142564   142460   142353   142249   142153 
  142065   141984   141912   141852   141812   141785   141768   141760 
  141758   141758   141758   141760   141768   141778   141790   141813 
  141836   141856   141878   141901   141925   141948   141970   141987 
  141997   141999   142003   142006   142002   141991   141975   141956 
  141930   141898   141860   141824   141785   141743   141708   141677 
  141650   141633   141629   141639   141670   141720   141790   141878 
  141974   142079   142186   142287   142383   142469   142546   142615 
  142673   142723   142776   142834   142893   142956   143025   143093 
  143155   143206   143243   143259   143259   143253   143237   143213 
  143187   143160   143127   143098   143083   143079   143085   143097 
  143114   143133   143151   143162   143164   143164   143155   143141 
  143129   143112   143089   143073   143064   143062   143063   143064 
  143059   143048   143028   143005   142994   142987   142986   142994 
  143012   143033   143048   143056   143056   143043   143016   142987 
  142958   142925   142890   142844   142793   142747   142703   142668 
  142646   142635   142631   142636   142647   142659   142672   142682 
  142688   142688   142678   142657   142623   142584   142541   142493 
  142452   142415   142381   142349   142318   142294   142273   142258 
  142256   142265   142284   142314   142342   142366   142388   142400 
  142400   142391   142372   142348   142321   142288   142257   142242 
  142240   142250   142273   142300   142327   142356   142379   142400 
  142418   142434   142453   142473   142497   142533   142573   142618 
  142673   142743   142821   142906   142996   143086   143179   143274 
  143364   143452   143537   143627   143725   143829   143942   144066 
  144196   144325   144447   144549   144632   144693   144730   144749 
  144751   144733   144710   144683   144655   144626   144595   144560 
  144522   144483   144441   144393   144332   144261   144184   144100 
  144015   143926   143834   143746   143667   143590   143521   143468 
  143425   143387   143353   143322   143284   143239   143185   143121 
  143044   142962   142881   142807   142742   142681   142620   142555 
  142491   142420   142346   142272   142204   142137   142068   142005 
  141947   141893   141845   141809   141794   141802   141831   141887 
  141968   142071   142195   142330   142466   142599   142723   142831 
  142919   142989   143036   143062   143073   143075   143067   143058 
  143052   143050   143055   143075   143104   143132   143159   143186 
  143212   143237   143262   143282   143299   143313   143317   143311 
  143301   143289   143278   143271   143271   143272   143268   143260 
  143247   143225   143193   143149   143098   143041   142981   142921 
  142871   142827   142790   142759   142734   142708   142682   142665 
  142658   142659   142674   142696   142717   142744   142765   142778 
  142786   142785   142785   142790   142798   142813   142834   142855 
  142878   142900   142919   142940   142963   142978   142983   142985 
  142977   142962   142946   142928   142913   142908   142897   142877 
  142858   142838   142808   142777   142749   142720   142688   142657 
  142627   142599   142576   142558   142545   142542   142551   142576 
  142619   142676   142749   142835   142929   143025   143118   143205 
  143278   143332   143365   143380   143376   143356   143320   143270 
  143216   143164   143116   143074   143047   143037   143050   143078 
  143124   143179   143248   143329   143411   143503   143604   143706 
  143808   143918   144028   144138   144247   144360   144471   144568 
  144651   144724   144782   144826   144860   144882   144891   144887 
  144863   144822   144763   144682   144586   144477   144356   144228 
  144094   143957   143812   143652   143478   143299   143114   142924 
  142734   142537   142330   142126   141924   141723   141529   141353 
  141191   141048   140923   140815   140722   140637   140559   140485 
  140412   140343   140281   140224   140173   140130   140092   140059 
  140038   140024   140019   140024   140043   140080   140132   140201 
  140287   140387   140497   140603   140709   140807   140892   140967 
  141033   141089   141143   141207   141284   141380   141501   141648 
  141816   141998   142188   142376   142553   142712   142854   142982 
  143095   143195   143282   143359   143429   143488   143536   143576 
  143613   143644   143673   143702   143725   143743   143757   143765 
  143768   143773   143780   143787   143791   143791   143792   143792 
  143792   143797   143808   143819   143833   143845   143856   143866 
  143876   143880   143884   143900   143930   143970   144015   144066 
  144124   144184   144242   144300   144354   144405   144451   144493 
  144528   144549   144551   144535   144502   144450   144379   144306 
  144229   144150   144081   144027   143985   143961   143950   143947 
  143955   143964   143957   143934   143887   143814   143718   143600 
  143464   143317   143162   143005   142847   142690   142545   142414 
  142299   142204   142132   142076   142034   142002   141978   141955 
  141939   141929   141922   141918   141922   141939   141967   142013 
  142078   142159   142254   142358   142465   142582   142711   142846 
  142977   143098   143206   143298   143370   143424   143460   143480 
  143492   143502   143509   143515   143523   143529   143536   143544 
  143544   143533   143517   143491   143446   143390   143330   143264 
  143187   143106   143019   142917   142808   142693   142566   142433 
  142298   142161   142030   141913   141805   141710   141631   141561 
  141498   141448   141411   141380   141357   141339   141330   141332 
  141350   141386   141442   141512   141593   141683   141783   141895 
  142013   142129   142244   142350   142449   142538   142612   142677 
  142734   142782   142820   142855   142892   142924   142952   142981 
  143009   143032   143052   143063   143058   143046   143028   143006 
  142987   142970   142955   142948   142947   142951   142963   142982 
  143004   143023   143043   143063   143082   143101   143116   143133 
  143155   143170   143186   143209   143229   143251   143279   143303 
  143329   143357   143388   143418   143437   143448   143455   143453 
  143441   143415   143378   143334   143290   143247   143212   143185 
  143159   143132   143104   143073   143033   142985   142927   142862 
  142794   142727   142663   142604   142557   142524   142508   142507 
  142516   142534   142560   142596   142641   142690   142736   142781 
  142825   142863   142897   142929   142960   142993   143032   143081 
  143135   143190   143240   143283   143316   143333   143334   143318 
  143286   143241   143191   143133   143075   143020   142962   142893 
  142824   142754   142677   142600   142530   142457   142379   142296 
  142210   142118   142021   141922   141822   141714   141600   141488 
  141378   141273   141178   141100   141043   141006   140988   140987 
  141000   141029   141065   141108   141153   141196   141245   141295 
  141339   141380   141417   141454   141498   141555   141625   141710 
  141808   141918   142033   142149   142263   142369   142468   142555 
  142628   142700   142773   142840   142909   142985   143059   143131 
  143206   143278   143343   143403   143460   143509   143541   143556 
  143552   143522   143464   143387   143294   143189   143078   142969 
  142865   142769   142682   142597   142512   142430   142350   142272 
  142199   142133   142083   142048   142021   142011   142020   142040 
  142075   142121   142175   142230   142288   142349   142412   142476 
  142541   142605   142672   142738   142807   142871   142935   142998 
  143052   143101   143149   143202   143252   143297   143344   143397 
  143445   143494   143548   143600   143646   143692   143731   143756 
  143773   143785   143788   143788   143793   143799   143803   143808 
  143812   143814   143816   143815   143810   143806   143804   143803 
  143804   143810   143822   143841   143861   143887   143920   143953 
  143981   144008   144026   144031   144022   144003   143973   143934 
  143891   143849   143806   143761   143722   143683   143638   143591 
  143541   143494   143445   143386   143317   143240   143155   143063 
  142967   142870   142773   142669   142560   142450   142339   142225 
  142115   142009   141902   141797   141691   141586   141489   141404 
  141334   141276   141228   141193   141161   141130   141104   141085 
  141077   141079   141084   141095   141112   141134   141164   141205 
  141253   141313   141385   141462   141547   141646   141755   141872 
  141998   142129   142254   142372   142487   142597   142703   142805 
  142909   143008   143097   143183   143266   143332   143387   143430 
  143460   143476   143484   143484   143476   143463   143448   143437 
  143426   143419   143425   143438   143463   143503   143559   143626 
  143706   143793   143891   143992   144093   144200   144313   144431 
  144552   144683   144819   144954   145087   145210   145316   145415 
  145503   145579   145650   145714   145768   145818   145858   145887 
  145908   145912   145897   145867   145818   145743   145650   145543 
  145424   145291   145146   144990   144819   144640   144462   144279 
  144099   143926   143758   143596   143441   143289   143137   142990 
  142852   142722   142599   142483   142372   142264   142163   142074 
  141994   141924   141870   141826   141793   141762   141733   141710 
  141694   141679   141669   141670   141677   141679   141683   141693 
  141698   141697   141691   141678   141659   141635   141602   141566 
  141527   141488   141444   141392   141331   141264   141188   141106 
  141021   140938   140864   140802   140759   140732   140717   140714 
  140725   140748   140780   140817   140860   140910   140961   141011 
  141070   141137   141203   141272   141345   141417   141496   141579 
  141663   141750   141841   141937   142042   142149   142256   142364 
  142473   142578   142681   142777   142871   142966   143064   143170 
  143280   143397   143521   143654   143792   143931   144063   144185 
  144293   144385   144456   144508   144537   144555   144568   144575 
  144576   144576   144579   144582   144585   144585   144580   144570 
  144552   144525   144487   144433   144366   144288   144197   144101 
  144005   143910   143814   143714   143618   143523   143430   143347 
  143270   143195   143131   143073   143017   142973   142939   142912 
  142896   142894   142902   142916   142936   142958   142973   142982 
  142983   142970   142947   142919   142888   142861   142839   142828 
  142830   142839   142862   142900   142940   142983   143025   143059 
  143081   143091   143087   143071   143046   143012   142974   142935 
  142893   142854   142821   142796   142773   142758   142750   142746 
  142747   142754   142759   142767   142771   142770   142769   142766 
  142762   142761   142763   142769   142777   142788   142800   142812 
  142821   142832   142843   142851   142857   142858   142855   142847 
  142838   142824   142812   142804   142803   142811   142827   142847 
  142874   142904   142929   142954   142974   142989   143006   143021 
  143031   143041   143052   143056   143058   143058   143055   143046 
  143027   143005   142975   142940   142905   142871   142839   142811 
  142780   142751   142719   142681   142641   142599   142549   142499 
  142450   142403   142360   142317   142279   142249   142221   142196 
  142177   142165   142161   142163   142168   142179   142192   142210 
  142231   142253   142279   142310   142341   142379   142427   142484 
  142550   142627   142712   142798   142885   142970   143050   143122 
  143190   143251   143306   143360   143413   143461   143509   143554 
  143600   143644   143684   143725   143765   143799   143826   143849 
  143865   143869   143857   143833   143799   143754   143702   143645 
  143583   143521   143464   143410   143357   143313   143274   143239 
  143210   143189   143166   143140   143118   143097   143071   143044 
  143013   142973   142931   142885   142832   142778   142727   142674 
  142619   142565   142514   142460   142406   142361   142319   142279 
  142246   142221   142196   142179   142167   142159   142152   142150 
  142149   142149   142153   142164   142175   142186   142200   142218 
  142240   142261   142284   142311   142339   142366   142400   142439 
  142476   142510   142542   142573   142604   142634   142662   142686 
  142711   142730   142744   142758   142763   142763   142757   142747 
  142738   142726   142712   142699   142681   142663   142646   142619 
  142587   142546   142495   142437   142383   142331   142284   142245 
  142215   142192   142179   142177   142183   142192   142207   142229 
  142254   142280   142310   142344   142383   142425   142469   142520 
  142576   142628   142682   142735   142784   142830   142869   142901 
  142928   142950   142970   142990   143013   143037   143064   143097 
  143135   143170   143202   143233   143259   143280   143297   143307 
  143318   143333   143349   143372   143405   143442   143479   143519 
  143560   143595   143627   143661   143694   143725   143756   143781 
  143802   143822   143833   143831   143824   143808   143784   143757 
  143725   143687   143646   143604   143563   143522   143487   143461 
  143438   143418   143405   143401   143397   143388   143383   143379 
  143365   143351   143337   143320   143301   143286   143272   143257 
  143248   143243   143239   143232   143220   143206   143191   143174 
  143156   143143   143129   143120   143113   143106   143102   143105 
  143109   143113   143118   143121   143121   143122   143127   143137 
  143152   143168   143189   143214   143239   143263   143286   143301 
  143305   143309   143309   143301   143289   143274   143255   143236 
  143217   143197   143178   143155   143129   143104   143077   143048 
  143016   142979   142940   142897   142844   142789   142731   142670 
  142614   142558   142504   142454   142408   142365   142333   142308 
  142287   142273   142263   142253   142256   142267   142279   142291 
  142306   142322   142335   142350   142366   142383   142400   142418 
  142437   142456   142476   142497   142523   142549   142574   142597 
  142620   142646   142669   142690   142713   142736   142754   142773 
  142794   142807   142812   142819   142823   142820   142813   142803 
  142789   142776   142766   142757   142750   142746   142746   142750 
  142758   142770   142789   142812   142840   142873   142902   142936 
  142974   143004   143028   143048   143062   143068   143068   143068 
  143067   143062   143051   143037   143025   143016   143006   142997 
  142987   142978   142963   142939   142908   142874   142839   142803 
  142767   142740   142722   142712   142709   142713   142722   142732 
  142743   142750   142755   142765   142770   142769   142766   142757 
