Origin Time       2025/01/13 21:19:00
Lat.              31.8
Long.             131.6
Depth. (km)       30
Mag.              6.9
Station Code      SAGH01
Station Lat.      33.5080
Station Long.     129.8877
Station Height(m) -82
Record Time       2025/01/13 21:20:16
Sampling Freq(Hz) 100Hz
Duration Time(s)  146
Dir.              3
Scale Factor      2942(gal)/8224139
Max. Acc. (gal)   0.552
Last Correction   2025/01/13 21:20:16
Memo.             
[...]
  -20314   -20308   -20298   -20287   -20271   -20254   -20235   -20214 
  -20197   -20185   -20177   -20170   -20171   -20183   -20200   -20221 
  -20248   -20272   -20290   -20298   -20301   -20302   -20301   -20298 
  -20298   -20294   -20289   -20285   -20274   -20255   -20228   -20189 
  -20148   -20112   -20069   -20017   -19970   -19932   -19905   -19886 
  -19874   -19863   -19855   -19854   -19857   -19858   -19867   -19888 
  -19921   -19965   -20011   -20054   -20097   -20146   -20198   -20248 
  -20299   -20352   -20403   -20452   -20494   -20521   -20534   -20536 
  -20525   -20507   -20487   -20466   -20448   -20436   -20425   -20413 
  -20402   -20391   -20374   -20349   -20317   -20278   -20243   -20209 
  -20177   -20155   -20140   -20129   -20127   -20132   -20146   -20169 
  -20196   -20223   -20252   -20277   -20285   -20289   -20289   -20277 
  -20259   -20240   -20221   -20212   -20210   -20217   -20227   -20239 
  -20250   -20260   -20268   -20271   -20271   -20270   -20274   -20285 
  -20301   -20321   -20340   -20358   -20375   -20389   -20393   -20394 
  -20390   -20372   -20356   -20348   -20340   -20336   -20337   -20347 
  -20355   -20355   -20351   -20336   -20317   -20306   -20304   -20304 
  -20312   -20321   -20332   -20345   -20356   -20359   -20352   -20339 
  -20320   -20297   -20268   -20236   -20197   -20151   -20104   -20052 
  -20004   -19965   -19931   -19905   -19888   -19866   -19836   -19805 
  -19773   -19738   -19701   -19662   -19626   -19593   -19560   -19530 
  -19502   -19469   -19441   -19422   -19407   -19394   -19387   -19384 
  -19388   -19399   -19411   -19423   -19438   -19450   -19461   -19468 
  -19472   -19480   -19487   -19495   -19506   -19518   -19527   -19538 
  -19548   -19554   -19557   -19556   -19560   -19572   -19587   -19606 
  -19634   -19670   -19714   -19762   -19818   -19881   -19951   -20024 
  -20097   -20171   -20245   -20324   -20402   -20475   -20548   -20619 
  -20687   -20745   -20800   -20852   -20896   -20933   -20969   -20996 
  -21006   -21004   -20999   -20981   -20957   -20934   -20908   -20881 
  -20849   -20811   -20775   -20742   -20710   -20679   -20650   -20619 
  -20582   -20542   -20505   -20464   -20414   -20366   -20317   -20267 
  -20221   -20177   -20124   -20065   -20009   -19951   -19894   -19846 
  -19804   -19774   -19751   -19737   -19731   -19734   -19743   -19757 
  -19777   -19803   -19830   -19859   -19897   -19936   -19977   -20023 
  -20070   -20120   -20174   -20225   -20268   -20309   -20345   -20376 
  -20407   -20440   -20468   -20495   -20522   -20549   -20571   -20579 
  -20576   -20568   -20553   -20532   -20502   -20470   -20441   -20412 
  -20383   -20356   -20331   -20305   -20278   -20254   -20232   -20206 
  -20186   -20179   -20185   -20208   -20243   -20279   -20314   -20348 
  -20370   -20378   -20383   -20380   -20375   -20363   -20345   -20322 
  -20295   -20262   -20224   -20181   -20139   -20102   -20070   -20038 
  -20017   -20004   -19989   -19980   -19980   -19980   -19977   -19973 
  -19969   -19962   -19953   -19946   -19939   -19934   -19932   -19938 
  -19942   -19948   -19958   -19962   -19962   -19962   -19958   -19951 
  -19944   -19938   -19930   -19917   -19900   -19882   -19863   -19843 
  -19828   -19819   -19812   -19805   -19801   -19800   -19796   -19793 
  -19789   -19782   -19777   -19777   -19778   -19782   -19793   -19813 
  -19835   -19861   -19890   -19924   -19963   -20009   -20058   -20100 
  -20136   -20169   -20190   -20202   -20205   -20204   -20201   -20198 
  -20187   -20173   -20152   -20119   -20074   -20020   -19957   -19892 
  -19834   -19782   -19742   -19711   -19692   -19681   -19677   -19676 
  -19680   -19687   -19700   -19724   -19757   -19795   -19840   -19900 
  -19963   -20029   -20094   -20159   -20224   -20286   -20347   -20401 
  -20449   -20495   -20530   -20556   -20576   -20584   -20578   -20572 
  -20571   -20569   -20575   -20591   -20611   -20630   -20650   -20672 
  -20690   -20702   -20714   -20725   -20737   -20753   -20777   -20804 
  -20831   -20860   -20881   -20892   -20902   -20903   -20887   -20864 
  -20834   -20796   -20756   -20715   -20672   -20630   -20586   -20538 
  -20490   -20443   -20391   -20343   -20298   -20262   -20237   -20225 
  -20218   -20218   -20228   -20237   -20244   -20250   -20255   -20262 
  -20271   -20278   -20286   -20291   -20291   -20287   -20281   -20275 
  -20267   -20252   -20239   -20229   -20214   -20197   -20185   -20179 
  -20179   -20179   -20179   -20177   -20169   -20152   -20131   -20108 
  -20085   -20067   -20054   -20046   -20043   -20038   -20027   -20017 
  -20002   -19986   -19975   -19967   -19961   -19962   -19971   -19986 
  -20009   -20036   -20066   -20098   -20128   -20150   -20166   -20182 
  -20197   -20216   -20237   -20264   -20290   -20310   -20324   -20336 
  -20344   -20345   -20343   -20344   -20341   -20332   -20325   -20322 
  -20318   -20316   -20314   -20314   -20318   -20328   -20343   -20359 
  -20374   -20387   -20401   -20414   -20429   -20444   -20460   -20478 
  -20494   -20506   -20513   -20507   -20498   -20480   -20451   -20422 
  -20399   -20382   -20371   -20371   -20379   -20393   -20413   -20436 
  -20456   -20472   -20482   -20483   -20475   -20460   -20441   -20420 
  -20394   -20370   -20347   -20318   -20293   -20268   -20244   -20228 
  -20224   -20227   -20239   -20260   -20293   -20335   -20375   -20410 
  -20440   -20457   -20467   -20467   -20463   -20456   -20445   -20430 
  -20420   -20406   -20387   -20363   -20339   -20306   -20266   -20221 
  -20175   -20128   -20083   -20038   -19994   -19955   -19919   -19884 
  -19853   -19826   -19804   -19792   -19793   -19804   -19819   -19838 
  -19861   -19892   -19921   -19947   -19970   -19989   -20007   -20023 
  -20038   -20050   -20061   -20067   -20071   -20075   -20074   -20074 
  -20077   -20082   -20085   -20086   -20088   -20090   -20094   -20100 
  -20105   -20110   -20109   -20104   -20090   -20069   -20043   -20016 
  -19982   -19947   -19912   -19876   -19836   -19803   -19772   -19747 
  -19724   -19700   -19677   -19656   -19631   -19607   -19585   -19568 
  -19548   -19529   -19515   -19499   -19480   -19458   -19434   -19413 
  -19394   -19376   -19368   -19371   -19380   -19400   -19427   -19456 
  -19485   -19512   -19535   -19556   -19581   -19615   -19651   -19688 
  -19724   -19766   -19805   -19838   -19872   -19908   -19939   -19969 
  -19998   -20028   -20058   -20090   -20121   -20150   -20178   -20198 
  -20217   -20240   -20260   -20274   -20279   -20278   -20270   -20254 
  -20228   -20193   -20150   -20101   -20048   -19988   -19928   -19876 
  -19826   -19781   -19753   -19731   -19722   -19727   -19741   -19758 
  -19778   -19799   -19822   -19849   -19874   -19896   -19917   -19938 
  -19958   -19980   -20002   -20024   -20047   -20069   -20090   -20116 
  -20144   -20178   -20217   -20263   -20312   -20359   -20405   -20451 
  -20487   -20517   -20547   -20574   -20599   -20628   -20657   -20690 
  -20722   -20756   -20788   -20819   -20842   -20860   -20879   -20891 
  -20898   -20904   -20907   -20906   -20906   -20903   -20899   -20893 
  -20883   -20871   -20854   -20835   -20819   -20802   -20788   -20780 
  -20771   -20760   -20753   -20749   -20746   -20741   -20734   -20731 
  -20730   -20727   -20730   -20744   -20769   -20798   -20827   -20858 
  -20889   -20910   -20920   -20923   -20914   -20895   -20876   -20854 
  -20827   -20796   -20758   -20718   -20680   -20646   -20618   -20598 
  -20582   -20565   -20551   -20542   -20540   -20542   -20552   -20574 
  -20601   -20630   -20665   -20707   -20750   -20791   -20829   -20865 
  -20895   -20918   -20930   -20934   -20931   -20914   -20880   -20837 
  -20784   -20721   -20644   -20563   -20479   -20390   -20301   -20214 
  -20128   -20042   -19962   -19889   -19823   -19765   -19719   -19684 
  -19656   -19635   -19624   -19614   -19606   -19600   -19593   -19581 
  -19564   -19545   -19529   -19518   -19515   -19523   -19535   -19553 
  -19577   -19597   -19610   -19614   -19611   -19606   -19600   -19600 
  -19604   -19606   -19610   -19618   -19626   -19634   -19647   -19662 
  -19674   -19685   -19693   -19703   -19715   -19726   -19745   -19776 
  -19811   -19851   -19903   -19957   -20013   -20071   -20125   -20175 
  -20225   -20272   -20317   -20360   -20398   -20433   -20467   -20499 
  -20526   -20551   -20572   -20590   -20609   -20623   -20636   -20642 
  -20644   -20644   -20640   -20632   -20625   -20619   -20615   -20609 
  -20598   -20584   -20576   -20564   -20545   -20532   -20524   -20510 
  -20498   -20491   -20482   -20466   -20452   -20443   -20428   -20406 
  -20382   -20353   -20321   -20286   -20254   -20224   -20193   -20162 
  -20136   -20109   -20073   -20038   -19998   -19953   -19911   -19866 
  -19815   -19766   -19727   -19695   -19668   -19643   -19620   -19602 
  -19584   -19566   -19552   -19543   -19538   -19541   -19560   -19592 
  -19634   -19685   -19745   -19805   -19869   -19932   -19993   -20048 
  -20102   -20160   -20214   -20267   -20321   -20371   -20413   -20448 
  -20479   -20501   -20505   -20503   -20501   -20487   -20470   -20448 
  -20425   -20403   -20378   -20352   -20321   -20291   -20266   -20237 
  -20210   -20190   -20169   -20147   -20131   -20109   -20079   -20052 
  -20028   -20001   -19978   -19957   -19936   -19923   -19915   -19904 
  -19893   -19888   -19884   -19881   -19881   -19882   -19888   -19894 
  -19905   -19923   -19938   -19946   -19948   -19947   -19935   -19908 
  -19873   -19832   -19778   -19724   -19672   -19612   -19556   -19504 
  -19454   -19413   -19375   -19338   -19305   -19280   -19260   -19241 
  -19229   -19222   -19215   -19214   -19213   -19207   -19199   -19192 
  -19186   -19175   -19164   -19160   -19160   -19159   -19157   -19157 
  -19157   -19160   -19164   -19168   -19180   -19201   -19225   -19253 
  -19287   -19325   -19360   -19399   -19441   -19483   -19523   -19564 
  -19602   -19638   -19673   -19715   -19762   -19807   -19854   -19908 
  -19961   -20009   -20056   -20101   -20142   -20182   -20227   -20270 
  -20312   -20353   -20397   -20439   -20487   -20537   -20591   -20648 
  -20709   -20775   -20842   -20906   -20965   -21020   -21069   -21114 
  -21157   -21193   -21222   -21242   -21259   -21266   -21269   -21269 
  -21258   -21238   -21215   -21190   -21166   -21143   -21118   -21095 
  -21070   -21041   -21011   -20977   -20943   -20915   -20889   -20862 
  -20835   -20807   -20781   -20757   -20736   -20722   -20713   -20703 
  -20699   -20692   -20683   -20673   -20660   -20638   -20610   -20572 
  -20530   -20488   -20437   -20382   -20324   -20264   -20209   -20156 
  -20110   -20074   -20046   -20025   -20019   -20023   -20035   -20059 
  -20089   -20121   -20158   -20194   -20229   -20264   -20299   -20332 
  -20362   -20390   -20413   -20424   -20430   -20439   -20437   -20430 
  -20424   -20420   -20414   -20407   -20401   -20393   -20379   -20364 
  -20348   -20324   -20289   -20254   -20214   -20166   -20113   -20058 
  -20004   -19957   -19912   -19874   -19846   -19819   -19795   -19777 
  -19762   -19745   -19731   -19723   -19714   -19711   -19714   -19714 
  -19708   -19700   -19688   -19669   -19649   -19624   -19599   -19577 
  -19560   -19541   -19523   -19508   -19499   -19492   -19492   -19502 
  -19514   -19525   -19539   -19556   -19577   -19603   -19629   -19658 
  -19693   -19731   -19774   -19820   -19866   -19917   -19974   -20031 
  -20088   -20139   -20181   -20223   -20254   -20272   -20291   -20309 
  -20321   -20335   -20351   -20363   -20374   -20382   -20395   -20414 
  -20434   -20461   -20499   -20540   -20583   -20629   -20672   -20713 
  -20752   -20787   -20821   -20854   -20887   -20915   -20945   -20969 
  -20988   -21001   -21003   -20997   -20987   -20966   -20943   -20915 
  -20879   -20837   -20790   -20734   -20672   -20609   -20542   -20475 
  -20405   -20328   -20256   -20194   -20133   -20082   -20040   -20000 
  -19973   -19958   -19942   -19923   -19911   -19897   -19874   -19850 
  -19830   -19809   -19792   -19776   -19765   -19757   -19747   -19734 
  -19727   -19726   -19726   -19731   -19745   -19757   -19766   -19776 
  -19782   -19791   -19800   -19818   -19838   -19851   -19859   -19865 
  -19861   -19847   -19828   -19807   -19784   -19761   -19741   -19722 
  -19701   -19677   -19654   -19634   -19614   -19593   -19576   -19565 
  -19558   -19550   -19548   -19552   -19560   -19572   -19592   -19616 
  -19638   -19664   -19691   -19716   -19741   -19764   -19788   -19812 
  -19831   -19849   -19865   -19880   -19897   -19916   -19932   -19944 
  -19958   -19971   -19981   -19992   -20002   -20005   -20007   -20013 
  -20019   -20027   -20044   -20071   -20106   -20146   -20189   -20232 
  -20268   -20304   -20340   -20372   -20399   -20428   -20460   -20491 
  -20524   -20559   -20596   -20636   -20680   -20730   -20777   -20821 
  -20860   -20896   -20931   -20960   -20979   -20987   -20985   -20980 
  -20965   -20939   -20912   -20880   -20839   -20800   -20761   -20722 
  -20686   -20646   -20603   -20556   -20506   -20449   -20386   -20329 
  -20275   -20218   -20169   -20123   -20077   -20035   -19998   -19959 
  -19920   -19880   -19834   -19785   -19737   -19684   -19633   -19579 
  -19522   -19461   -19392   -19315   -19236   -19155   -19074   -18998 
  -18932   -18867   -18808   -18760   -18721   -18684   -18654   -18636 
  -18628   -18631   -18643   -18663   -18698   -18747   -18802   -18867 
  -18952   -19049   -19153   -19269   -19399   -19538   -19685   -19835 
  -19989   -20150   -20313   -20472   -20632   -20784   -20925   -21050 
  -21159   -21258   -21348   -21425   -21485   -21536   -21581   -21612 
  -21633   -21649   -21656   -21654   -21641   -21612   -21573   -21528 
  -21473   -21406   -21340   -21277   -21208   -21139   -21076   -21010 
  -20941   -20873   -20806   -20737   -20671   -20613   -20559   -20507 
  -20460   -20418   -20380   -20344   -20302   -20262   -20220   -20177 
  -20142   -20113   -20085   -20061   -20039   -20019   -19997   -19971 
  -19947   -19924   -19901   -19878   -19855   -19836   -19824   -19812 
  -19801   -19791   -19784   -19778   -19772   -19768   -19773   -19786 
  -19807   -19839   -19874   -19908   -19938   -19961   -19975   -19988 
  -19993   -19997   -20004   -20011   -20017   -20028   -20046   -20067 
  -20093   -20123   -20155   -20185   -20217   -20245   -20267   -20289 
  -20309   -20322   -20333   -20339   -20347   -20358   -20364   -20368 
  -20371   -20372   -20374   -20367   -20355   -20341   -20321   -20293 
  -20266   -20239   -20214   -20197   -20182   -20170   -20160   -20144 
  -20120   -20088   -20044   -19996   -19946   -19888   -19826   -19766 
  -19710   -19650   -19591   -19534   -19480   -19430   -19383   -19338 
  -19300   -19267   -19236   -19207   -19180   -19155   -19140   -19137 
  -19143   -19159   -19182   -19209   -19238   -19269   -19306   -19345 
  -19386   -19433   -19484   -19538   -19599   -19660   -19718   -19777 
  -19832   -19886   -19938   -19982   -20034   -20086   -20136   -20186 
  -20239   -20286   -20329   -20368   -20403   -20437   -20470   -20501 
  -20533   -20565   -20599   -20634   -20664   -20691   -20715   -20736 
  -20754   -20775   -20796   -20818   -20841   -20865   -20885   -20895 
  -20899   -20896   -20876   -20844   -20811   -20777   -20740   -20702 
  -20669   -20641   -20613   -20587   -20561   -20536   -20517   -20498 
  -20479   -20464   -20447   -20428   -20409   -20391   -20375   -20358 
  -20343   -20331   -20318   -20306   -20298   -20294   -20298   -20305 
  -20309   -20313   -20318   -20318   -20316   -20309   -20298   -20286 
  -20267   -20244   -20216   -20177   -20136   -20096   -20052   -20009 
  -19966   -19928   -19890   -19851   -19819   -19793   -19768   -19743 
  -19731   -19728   -19724   -19730   -19741   -19753   -19769   -19788 
  -19804   -19823   -19842   -19858   -19877   -19890   -19899   -19905 
  -19903   -19886   -19867   -19849   -19823   -19795   -19769   -19747 
  -19726   -19705   -19689   -19670   -19650   -19624   -19593   -19560 
  -19522   -19477   -19431   -19390   -19346   -19309   -19283   -19261 
  -19244   -19237   -19234   -19236   -19251   -19273   -19294   -19322 
  -19360   -19400   -19448   -19499   -19550   -19604   -19666   -19731 
  -19800   -19873   -19954   -20038   -20123   -20209   -20294   -20376 
  -20456   -20532   -20609   -20682   -20749   -20817   -20881   -20943 
  -21000   -21050   -21096   -21135   -21165   -21189   -21200   -21195 
  -21180   -21154   -21109   -21055   -20996   -20925   -20846   -20765 
  -20679   -20591   -20506   -20422   -20344   -20275   -20216   -20160 
  -20116   -20083   -20055   -20028   -20004   -19975   -19944   -19915 
  -19877   -19835   -19799   -19759   -19715   -19673   -19641   -19608 
  -19577   -19554   -19538   -19522   -19510   -19503   -19499   -19502 
  -19506   -19508   -19518   -19523   -19519   -19510   -19488   -19458 
  -19425   -19387   -19356   -19330   -19313   -19306   -19309   -19317 
  -19333   -19350   -19368   -19384   -19394   -19402   -19408   -19410 
  -19404   -19398   -19392   -19388   -19390   -19396   -19413   -19434 
  -19462   -19502   -19553   -19611   -19677   -19747   -19824   -19909 
  -19998   -20085   -20169   -20258   -20347   -20433   -20520   -20606 
  -20682   -20752   -20819   -20880   -20937   -20988   -21034   -21076 
  -21109   -21136   -21155   -21166   -21168   -21163   -21153   -21141 
  -21127   -21111   -21095   -21084   -21078   -21078   -21084   -21092 
  -21096   -21092   -21087   -21077   -21057   -21031   -21004   -20979 
  -20953   -20920   -20885   -20854   -20819   -20785   -20757   -20726 
  -20704   -20692   -20682   -20680   -20686   -20686   -20684   -20687 
  -20692   -20695   -20696   -20704   -20711   -20715   -20725   -20733 
  -20736   -20736   -20733   -20725   -20721   -20715   -20710   -20706 
  -20703   -20703   -20704   -20710   -20723   -20740   -20757   -20781 
  -20808   -20833   -20857   -20880   -20899   -20914   -20925   -20927 
  -20926   -20920   -20914   -20904   -20893   -20883   -20866   -20842 
  -20811   -20779   -20742   -20703   -20661   -20614   -20567   -20515 
  -20455   -20383   -20309   -20231   -20148   -20065   -19985   -19907 
  -19832   -19766   -19710   -19662   -19626   -19600   -19585   -19577 
  -19573   -19570   -19565   -19556   -19545   -19534   -19519   -19503 
  -19488   -19475   -19464   -19456   -19450   -19445   -19445   -19449 
  -19454   -19465   -19475   -19484   -19503   -19521   -19531   -19543 
  -19554   -19557   -19562   -19570   -19581   -19595   -19612   -19642 
  -19678   -19720   -19768   -19824   -19886   -19944   -20002   -20063 
  -20113   -20159   -20204   -20243   -20283   -20328   -20370   -20413 
  -20464   -20517   -20569   -20625   -20673   -20719   -20768   -20817 
  -20858   -20903   -20946   -20984   -21022   -21054   -21084   -21114 
  -21136   -21155   -21176   -21195   -21209   -21224   -21238   -21249 
  -21259   -21273   -21282   -21282   -21278   -21270   -21253   -21227 
  -21201   -21176   -21143   -21116   -21095   -21072   -21053   -21034 
  -21011   -20984   -20956   -20923   -20887   -20848   -20807   -20768 
  -20726   -20680   -20638   -20599   -20560   -20524   -20491   -20463 
