Origin Time       2025/01/13 21:19:00
Lat.              31.8
Long.             131.6
Depth. (km)       30
Mag.              6.9
Station Code      SAGH03
Station Lat.      33.4098
Station Long.     130.2329
Station Height(m) 375
Record Time       2025/01/13 21:20:33
Sampling Freq(Hz) 100Hz
Duration Time(s)  120
Dir.              4
Scale Factor      7845(gal)/8223790
Max. Acc. (gal)   1.591
Last Correction   2025/01/13 21:20:33
Memo.             
[...]
   -7686    -7762    -7863    -7990    -8124    -8247    -8355    -8436 
   -8484    -8495    -8455    -8363    -8229    -8067    -7902    -7765 
   -7665    -7596    -7538    -7483    -7442    -7422    -7427    -7466 
   -7551    -7663    -7781    -7879    -7942    -7960    -7952    -7935 
   -7917    -7897    -7881    -7869    -7859    -7852    -7847    -7842 
   -7832    -7813    -7780    -7740    -7690    -7628    -7565    -7511 
   -7464    -7437    -7435    -7456    -7488    -7514    -7520    -7508 
   -7470    -7411    -7354    -7319    -7304    -7304    -7302    -7281 
   -7234    -7164    -7091    -7052    -7071    -7137    -7229    -7322 
   -7398    -7441    -7460    -7468    -7479    -7499    -7523    -7542 
   -7543    -7518    -7472    -7434    -7438    -7491    -7580    -7688 
   -7798    -7897    -7966    -8004    -8025    -8035    -8027    -8004 
   -7969    -7917    -7850    -7774    -7697    -7620    -7543    -7477 
   -7435    -7425    -7446    -7506    -7593    -7690    -7781    -7851 
   -7879    -7867    -7832    -7790    -7767    -7755    -7730    -7684 
   -7618    -7538    -7454    -7379    -7327    -7307    -7326    -7389 
   -7489    -7614    -7746    -7867    -7958    -8014    -8046    -8059 
   -8064    -8062    -8046    -8021    -7983    -7928    -7865    -7803 
   -7765    -7763    -7793    -7843    -7913    -7996    -8081    -8171 
   -8253    -8307    -8321    -8295    -8241    -8166    -8067    -7952 
   -7834    -7713    -7595    -7488    -7393    -7321    -7298    -7341 
   -7439    -7576    -7746    -7932    -8113    -8278    -8403    -8469 
   -8473    -8421    -8326    -8217    -8125    -8071    -8070    -8128 
   -8224    -8322    -8411    -8484    -8533    -8573    -8608    -8614 
   -8580    -8507    -8390    -8247    -8108    -7990    -7909    -7875 
   -7871    -7875    -7867    -7835    -7788    -7754    -7754    -7796 
   -7882    -7990    -8086    -8141    -8144    -8097    -8013    -7920 
   -7862    -7871    -7965    -8125    -8310    -8479    -8608    -8691 
   -8729    -8733    -8721    -8711    -8727    -8775    -8827    -8851 
   -8822    -8734    -8599    -8437    -8276    -8152    -8083    -8078 
   -8132    -8222    -8316    -8397    -8451    -8490    -8533    -8580 
   -8630    -8679    -8714    -8718    -8672    -8553    -8351    -8078 
   -7767    -7468    -7233    -7094    -7068    -7148    -7306    -7515 
   -7740    -7940    -8106    -8239    -8334    -8406    -8453    -8452 
   -8397    -8286    -8127    -7952    -7801    -7709    -7696    -7766 
   -7906    -8093    -8301    -8495    -8640    -8718    -8718    -8645 
   -8514    -8338    -8145    -7963    -7809    -7700    -7634    -7599 
   -7587    -7597    -7631    -7685    -7755    -7836    -7909    -7956 
   -7960    -7920    -7844    -7759    -7688    -7638    -7626    -7646 
   -7680    -7722    -7762    -7805    -7866    -7952    -8056    -8145 
   -8185    -8155    -8046    -7861    -7631    -7404    -7213    -7086 
   -7040    -7061    -7125    -7210    -7294    -7365    -7425    -7476 
   -7522    -7561    -7593    -7603    -7574    -7511    -7422    -7317 
   -7203    -7102    -7032    -6999    -7009    -7060    -7142    -7229 
   -7298    -7335    -7348    -7348    -7354    -7393    -7474    -7587 
   -7707    -7807    -7869    -7886    -7871    -7861    -7879    -7942 
   -8046    -8170    -8280    -8343    -8325    -8224    -8059    -7867 
   -7689    -7558    -7485    -7457    -7454    -7457    -7442    -7410 
   -7385    -7399    -7473    -7626    -7838    -8063    -8264    -8415 
   -8500    -8521    -8500    -8472    -8449    -8424    -8386    -8332 
   -8253    -8156    -8050    -7942    -7842    -7749    -7666    -7605 
   -7576    -7566    -7576    -7614    -7673    -7744    -7820    -7879 
   -7909    -7917    -7900    -7859    -7805    -7735    -7654    -7574 
   -7514    -7488    -7497    -7539    -7595    -7655    -7719    -7776 
   -7812    -7830    -7828    -7801    -7747    -7663    -7549    -7416 
   -7280    -7152    -7056    -7007    -7006    -7049    -7126    -7223 
   -7333    -7439    -7543    -7635    -7704    -7750    -7771    -7761 
   -7722    -7668    -7601    -7534    -7484    -7458    -7462    -7492 
   -7535    -7584    -7626    -7659    -7693    -7740    -7807    -7897 
   -8005    -8113    -8212    -8287    -8322    -8318    -8293    -8264 
   -8252    -8263    -8293    -8329    -8368    -8399    -8413    -8407 
   -8390    -8371    -8363    -8372    -8399    -8429    -8449    -8444 
   -8394    -8301    -8185    -8064    -7963    -7901    -7881    -7892 
   -7921    -7952    -7982    -8004    -8024    -8067    -8131    -8203 
   -8280    -8340    -8371    -8376    -8368    -8355    -8337    -8318 
   -8309    -8313    -8340    -8392    -8461    -8546    -8640    -8721 
   -8780    -8806    -8784    -8712    -8600    -8464    -8314    -8158 
   -8013    -7888    -7761    -7628    -7496    -7365    -7260    -7207 
   -7217    -7284    -7406    -7564    -7722    -7843    -7909    -7919 
   -7878    -7808    -7732    -7668    -7622    -7604    -7618    -7663 
   -7739    -7835    -7943    -8056    -8172    -8278    -8360    -8407 
   -8399    -8320    -8176    -7986    -7761    -7531    -7326    -7180 
   -7115    -7137    -7240    -7400    -7591    -7792    -7982    -8136 
   -8243    -8302    -8317    -8307    -8287    -8255    -8201    -8114 
   -7989    -7832    -7658    -7484    -7334    -7238    -7223    -7299 
   -7464    -7689    -7927    -8132    -8276    -8360    -8394    -8399 
   -8403    -8417    -8434    -8437    -8401    -8310    -8174    -8021 
   -7877    -7766    -7711    -7704    -7727    -7767    -7809    -7861 
   -7927    -8008    -8102    -8197    -8267    -8302    -8298    -8257 
   -8194    -8128    -8078    -8048    -8033    -8019    -7993    -7959 
   -7928    -7911    -7923    -7978    -8078    -8201    -8324    -8419 
   -8476    -8496    -8478    -8411    -8298    -8141    -7954    -7755 
   -7573    -7438    -7361    -7349    -7419    -7558    -7732    -7916 
   -8075    -8176    -8221    -8206    -8124    -8002    -7858    -7689 
   -7518    -7354    -7198    -7063    -6963    -6894    -6858    -6844 
   -6833    -6814    -6789    -6766    -6752    -6755    -6794    -6886 
   -7028    -7207    -7406    -7592    -7747    -7867    -7946    -7970 
   -7948    -7890    -7808    -7711    -7611    -7520    -7446    -7395 
   -7389    -7431    -7512    -7627    -7763    -7894    -7994    -8059 
   -8093    -8098    -8070    -8009    -7917    -7800    -7677    -7577 
   -7527    -7557    -7688    -7905    -8179    -8469    -8722    -8891 
   -8958    -8931    -8827    -8688    -8544    -8401    -8274    -8167 
   -8077    -7998    -7931    -7892    -7898    -7954    -8050    -8178 
   -8311    -8403    -8419    -8348    -8190    -7962    -7700    -7443 
   -7222    -7060    -6959    -6912    -6914    -6972    -7095    -7284 
   -7534    -7827    -8124    -8386    -8576    -8658    -8625    -8488 
   -8268    -8014    -7777    -7585    -7458    -7399    -7387    -7400 
   -7433    -7483    -7557    -7673    -7821    -7979    -8117    -8193 
   -8186    -8104    -7983    -7863    -7780    -7757    -7796    -7874 
   -7967    -8055    -8118    -8158    -8170    -8156    -8136    -8112 
   -8082    -8051    -8014    -7969    -7913    -7854    -7790    -7711 
   -7624    -7545    -7487    -7461    -7474    -7526    -7604    -7686 
   -7750    -7793    -7823    -7843    -7863    -7890    -7923    -7946 
   -7951    -7938    -7909    -7877    -7854    -7851    -7875    -7927 
   -8008    -8110    -8214    -8309    -8390    -8440    -8456    -8437 
   -8380    -8291    -8187    -8081    -7975    -7890    -7835    -7807 
   -7803    -7811    -7808    -7781    -7727    -7657    -7582    -7511 
   -7452    -7411    -7391    -7392    -7408    -7438    -7487    -7553 
   -7641    -7755    -7893    -8043    -8187    -8316    -8402    -8425 
   -8380    -8266    -8089    -7874    -7645    -7425    -7227    -7057 
   -6917    -6813    -6748    -6721    -6731    -6775    -6841    -6907 
   -6968    -7009    -7024    -7015    -6997    -6983    -6986    -7010 
   -7047    -7087    -7136    -7195    -7271    -7381    -7538    -7734 
   -7951    -8163    -8347    -8479    -8556    -8595    -8625    -8664 
   -8722    -8800    -8885    -8950    -8976    -8969    -8949    -8943 
   -8976    -9063    -9201    -9351    -9467    -9513    -9467    -9335 
   -9142    -8923    -8718    -8550    -8425    -8344    -8310    -8321 
   -8375    -8472    -8610    -8770    -8941    -9093    -9200    -9248 
   -9225    -9123    -8951    -8722    -8456    -8189    -7958    -7786 
   -7693    -7690    -7773    -7912    -8086    -8267    -8414    -8509 
   -8548    -8521    -8430    -8282    -8078    -7836    -7574    -7310 
   -7061    -6856    -6712    -6637    -6646    -6729    -6866    -7034 
   -7218    -7403    -7578    -7742    -7885    -7994    -8063    -8091 
   -8079    -8032    -7970    -7904    -7842    -7794    -7765    -7739 
   -7708    -7677    -7642    -7600    -7557    -7510    -7460    -7408 
   -7356    -7304    -7257    -7219    -7198    -7187    -7190    -7202 
   -7209    -7210    -7206    -7190    -7160    -7121    -7084    -7063 
   -7055    -7061    -7079    -7095    -7114    -7140    -7187    -7280 
   -7422    -7599    -7793    -7979    -8122    -8197    -8199    -8133 
   -8010    -7859    -7699    -7541    -7404    -7304    -7248    -7260 
   -7349    -7508    -7731    -8004    -8301    -8592    -8856    -9069 
   -9220    -9306    -9317    -9243    -9094    -8873    -8586    -8264 
   -7946    -7662    -7452    -7335    -7310    -7358    -7460    -7596 
   -7740    -7874    -7989    -8074    -8125    -8145    -8128    -8068 
   -7963    -7816    -7636    -7446    -7271    -7136    -7063    -7069 
   -7157    -7308    -7496    -7695    -7874    -8008    -8081    -8093 
   -8054    -7982    -7898    -7811    -7719    -7634    -7581    -7570 
   -7604    -7686    -7815    -7978    -8162    -8341    -8506    -8650 
   -8770    -8873    -8964    -9032    -9065    -9058    -9012    -8924 
   -8799    -8654    -8514    -8401    -8334    -8318    -8329    -8356 
   -8384    -8399    -8405    -8392    -8355    -8286    -8185    -8058 
   -7908    -7739    -7565    -7407    -7277    -7196    -7171    -7196 
   -7267    -7376    -7520    -7688    -7859    -8019    -8149    -8243 
   -8297    -8306    -8266    -8189    -8091    -7979    -7870    -7782 
   -7722    -7681    -7669    -7682    -7711    -7749    -7796    -7843 
   -7884    -7905    -7900    -7870    -7820    -7746    -7665    -7585 
   -7504    -7420    -7339    -7276    -7244    -7252    -7300    -7387 
   -7499    -7616    -7730    -7832    -7911    -7960    -7986    -7997 
   -7994    -7979    -7956    -7936    -7927    -7948    -8009    -8102 
   -8216    -8316    -8376    -8391    -8359    -8280    -8181    -8082 
   -7998    -7946    -7928    -7935    -7955    -7982    -8002    -8014 
   -8017    -8008    -7983    -7950    -7900    -7831    -7744    -7651 
   -7566    -7510    -7493    -7514    -7564    -7639    -7730    -7823 
   -7897    -7933    -7924    -7875    -7805    -7722    -7642    -7587 
   -7568    -7588    -7645    -7731    -7836    -7950    -8068    -8187 
   -8295    -8387    -8456    -8507    -8537    -8541    -8523    -8488 
   -8437    -8379    -8329    -8298    -8283    -8291    -8329    -8399 
   -8502    -8630    -8775    -8923    -9059    -9170    -9234    -9238 
   -9178    -9062    -8900    -8706    -8498    -8286    -8081    -7917 
   -7812    -7771    -7797    -7881    -8008    -8160    -8316    -8449 
   -8536    -8559    -8502    -8367    -8172    -7938    -7690    -7462 
   -7275    -7140    -7064    -7045    -7076    -7145    -7245    -7372 
   -7512    -7653    -7780    -7885    -7960    -8001    -7998    -7954 
   -7878    -7777    -7680    -7612    -7588    -7615    -7705    -7855 
   -8040    -8230    -8399    -8537    -8634    -8691    -8715    -8721 
   -8704    -8658    -8583    -8480    -8352    -8206    -8064    -7952 
   -7885    -7861    -7874    -7909    -7944    -7955    -7932    -7877 
   -7805    -7736    -7680    -7639    -7607    -7572    -7530    -7485 
   -7441    -7412    -7412    -7437    -7479    -7524    -7553    -7558 
   -7547    -7526    -7508    -7503    -7514    -7534    -7555    -7572 
   -7574    -7560    -7527    -7485    -7450    -7434    -7431    -7438 
   -7445    -7439    -7418    -7385    -7358    -7362    -7416    -7522 
   -7662    -7807    -7915    -7967    -7965    -7906    -7820    -7730 
   -7641    -7564    -7495    -7422    -7341    -7264    -7209    -7194 
   -7233    -7331    -7474    -7631    -7782    -7900    -7969    -7987 
   -7978    -7965    -7965    -7981    -8012    -8047    -8070    -8089 
   -8114    -8155    -8213    -8294    -8390    -8480    -8548    -8587 
   -8604    -8610    -8613    -8623    -8645    -8664    -8673    -8681 
   -8691    -8702    -8710    -8711    -8704    -8685    -8657    -8623 
   -8591    -8569    -8559    -8554    -8550    -8538    -8510    -8475 
   -8437    -8397    -8356    -8314    -8270    -8214    -8147    -8068 
   -7970    -7858    -7735    -7612    -7507    -7427    -7381    -7375 
   -7399    -7443    -7493    -7537    -7564    -7569    -7554    -7534 
   -7520    -7522    -7543    -7585    -7647    -7719    -7781    -7831 
   -7866    -7884    -7892    -7900    -7902    -7896    -7875    -7830 
   -7740    -7603    -7434    -7250    -7076    -6929    -6809    -6714 
   -6636    -6558    -6470    -6384    -6309    -6253    -6223    -6230 
   -6274    -6345    -6423    -6497    -6555    -6594    -6621    -6640 
   -6664    -6704    -6756    -6824    -6905    -6991    -7082    -7175 
   -7275    -7380    -7492    -7618    -7755    -7902    -8050    -8187 
   -8317    -8430    -8514    -8565    -8581    -8557    -8500    -8426 
   -8351    -8287    -8239    -8208    -8197    -8191    -8185    -8179 
   -8179    -8190    -8214    -8256    -8307    -8348    -8364    -8349 
   -8303    -8239    -8174    -8132    -8133    -8171    -8226    -8294 
   -8360    -8410    -8442    -8465    -8484    -8510    -8544    -8577 
   -8607    -8635    -8661    -8689    -8722    -8752    -8768    -8775 
   -8785    -8806    -8835    -8884    -8947    -9007    -9040    -9039 
   -8996    -8904    -8777    -8638    -8499    -8367    -8247    -8141 
   -8059    -8006    -7986    -8004    -8063    -8160    -8272    -8371 
   -8437    -8455    -8413    -8325    -8212    -8087    -7958    -7828 
   -7696    -7569    -7456    -7357    -7281    -7244    -7249    -7296 
   -7375    -7457    -7523    -7565    -7566    -7522    -7430    -7298 
   -7146    -6999    -6864    -6762    -6705    -6704    -6756    -6856 
   -6994    -7153    -7310    -7450    -7573    -7659    -7705    -7716 
   -7689    -7628    -7543    -7447    -7358    -7292    -7265    -7292 
   -7380    -7518    -7692    -7879    -8060    -8214    -8330    -8407 
   -8451    -8468    -8459    -8426    -8376    -8307    -8217    -8106 
   -7979    -7844    -7712    -7593    -7499    -7435    -7400    -7389 
   -7398    -7425    -7470    -7533    -7620    -7740    -7879    -8014 
   -8131    -8212    -8240    -8213    -8140    -8033    -7901    -7757 
   -7623    -7507    -7414    -7362    -7361    -7411    -7514    -7669 
   -7865    -8083    -8301    -8487    -8619    -8680    -8653    -8549 
   -8382    -8164    -7925    -7693    -7491    -7333    -7231    -7198 
   -7225    -7304    -7433    -7593    -7769    -7944    -8095    -8203 
   -8268    -8290    -8270    -8228    -8175    -8113    -8050    -7994 
   -7950    -7915    -7893    -7886    -7902    -7944    -7997    -8041 
   -8078    -8090    -8059    -7990    -7898    -7803    -7719    -7653 
   -7607    -7578    -7561    -7554    -7565    -7593    -7643    -7716 
   -7808    -7906    -8006    -8109    -8202    -8284    -8352    -8407 
   -8446    -8468    -8464    -8426    -8363    -8286    -8199    -8121 
   -8063    -8029    -8019    -8028    -8062    -8116    -8185    -8259 
   -8328    -8386    -8421    -8421    -8383    -8311    -8199    -8056 
   -7906    -7761    -7635    -7555    -7522    -7530    -7577    -7647 
   -7723    -7790    -7835    -7846    -7825    -7784    -7720    -7645 
   -7568    -7499    -7446    -7408    -7389    -7400    -7434    -7481 
   -7539    -7604    -7666    -7716    -7751    -7776    -7785    -7778 
   -7758    -7730    -7686    -7630    -7577    -7549    -7545    -7569 
   -7634    -7728    -7835    -7935    -8021    -8093    -8145    -8178 
   -8193    -8182    -8135    -8052    -7938    -7804    -7670    -7562 
   -7503    -7496    -7539    -7628    -7750    -7892    -8041    -8183 
   -8309    -8414    -8490    -8529    -8530    -8500    -8440    -8349 
   -8249    -8156    -8071    -8004    -7959    -7943    -7950    -7966 
   -7985    -8008    -8031    -8055    -8091    -8140    -8183    -8216 
   -8232    -8222    -8189    -8133    -8064    -7992    -7924    -7859 
   -7801    -7763    -7738    -7719    -7715    -7727    -7754    -7797 
   -7854    -7916    -7975    -8023    -8046    -8040    -8008    -7967 
   -7931    -7912    -7919    -7951    -7994    -8037    -8078    -8108 
   -8128    -8152    -8190    -8235    -8286    -8344    -8397    -8430 
   -8444    -8442    -8422    -8391    -8353    -8305    -8249    -8182 
   -8098    -8006    -7913    -7820    -7736    -7670    -7623    -7588 
   -7561    -7547    -7547    -7557    -7580    -7616    -7665    -7723 
   -7786    -7847    -7896    -7929    -7948    -7958    -7955    -7942 
   -7925    -7904    -7871    -7827    -7774    -7716    -7661    -7615 
   -7589    -7591    -7616    -7655    -7700    -7732    -7738    -7713 
   -7663    -7592    -7512    -7437    -7375    -7335    -7317    -7307 
   -7307    -7318    -7341    -7376    -7430    -7515    -7620    -7731 
   -7834    -7915    -7965    -7986    -7979    -7954    -7928    -7908 
   -7896    -7894    -7900    -7905    -7906    -7894    -7859    -7815 
   -7767    -7726    -7697    -7684    -7684    -7699    -7723    -7749 
   -7773    -7796    -7813    -7820    -7820    -7811    -7790    -7767 
   -7749    -7738    -7734    -7735    -7738    -7744    -7753    -7758 
   -7763    -7774    -7782    -7790    -7793    -7788    -7776    -7758 
   -7734    -7713    -7700    -7682    -7661    -7641    -7615    -7576 
   -7537    -7512    -7506    -7522    -7560    -7614    -7680    -7750 
   -7821    -7892    -7954    -8004    -8043    -8071    -8093    -8113 
   -8127    -8136    -8147    -8156    -8167    -8178    -8189    -8202 
   -8224    -8251    -8276    -8302    -8320    -8318    -8298    -8260 
   -8206    -8145    -8083    -8028    -7981    -7944    -7919    -7898 
   -7877    -7861    -7858    -7865    -7885    -7921    -7969    -8012 
   -8048    -8074    -8087    -8085    -8060    -8024    -7985    -7943 
   -7901    -7870    -7852    -7840    -7835    -7844    -7870    -7902 
   -7940    -7982    -8021    -8051    -8068    -8073    -8066    -8056 
   -8047    -8032    -8019    -8004    -7981    -7951    -7921    -7888 
   -7863    -7857    -7861    -7867    -7862    -7839    -7803    -7755 
   -7703    -7658    -7624    -7605    -7599    -7607    -7630    -7662 
   -7700    -7753    -7817    -7888    -7962    -8037    -8098    -8136 
   -8155    -8151    -8120    -8073    -8017    -7960    -7915    -7889 
