Origin Time       2025/01/13 21:19:00
Lat.              31.8
Long.             131.6
Depth. (km)       30
Mag.              6.9
Station Code      SAGH02
Station Lat.      33.2656
Station Long.     129.8798
Station Height(m) -71.5
Record Time       2025/01/13 21:20:13
Sampling Freq(Hz) 100Hz
Duration Time(s)  167
Dir.              1
Scale Factor      3923(gal)/8224838
Max. Acc. (gal)   1.034
Last Correction   2025/01/13 21:20:14
Memo.             
[...]
  -46596   -46592   -46589   -46588   -46588   -46593   -46612   -46637 
  -46665   -46697   -46726   -46745   -46754   -46751   -46735   -46719 
  -46703   -46685   -46669   -46661   -46660   -46660   -46657   -46653 
  -46646   -46645   -46643   -46638   -46631   -46624   -46619   -46614 
  -46610   -46611   -46615   -46623   -46637   -46651   -46668   -46683 
  -46695   -46711   -46734   -46753   -46769   -46785   -46789   -46788 
  -46784   -46772   -46757   -46747   -46741   -46734   -46719   -46701 
  -46685   -46661   -46631   -46610   -46589   -46570   -46565   -46566 
  -46566   -46568   -46570   -46572   -46579   -46595   -46615   -46639 
  -46670   -46697   -46719   -46741   -46768   -46796   -46818   -46838 
  -46854   -46857   -46853   -46847   -46838   -46824   -46812   -46799 
  -46786   -46778   -46770   -46765   -46754   -46731   -46700   -46664 
  -46623   -46580   -46537   -46494   -46445   -46387   -46332   -46286 
  -46246   -46211   -46186   -46168   -46159   -46159   -46167   -46179 
  -46194   -46207   -46221   -46234   -46241   -46245   -46252   -46263 
  -46280   -46309   -46342   -46380   -46425   -46473   -46516   -46550 
  -46575   -46593   -46604   -46604   -46602   -46595   -46585   -46572 
  -46558   -46548   -46538   -46533   -46535   -46548   -46564   -46584 
  -46607   -46629   -46649   -46662   -46670   -46677   -46678   -46676 
  -46678   -46687   -46696   -46708   -46730   -46750   -46768   -46791 
  -46813   -46830   -46847   -46861   -46866   -46865   -46854   -46835 
  -46809   -46774   -46730   -46688   -46650   -46612   -46584   -46564 
  -46545   -46541   -46546   -46550   -46558   -46577   -46599   -46622 
  -46645   -46666   -46684   -46703   -46724   -46745   -46769   -46797 
  -46826   -46857   -46889   -46920   -46947   -46969   -46982   -46992 
  -47002   -47012   -47011   -47001   -46992   -46980   -46957   -46934 
  -46913   -46888   -46855   -46816   -46773   -46726   -46678   -46635 
  -46596   -46564   -46537   -46516   -46499   -46484   -46476   -46475 
  -46481   -46496   -46515   -46537   -46568   -46602   -46631   -46660 
  -46693   -46731   -46773   -46816   -46859   -46893   -46921   -46950 
  -46969   -46980   -46988   -46993   -46998   -47001   -47004   -47005 
  -46997   -46975   -46946   -46913   -46881   -46849   -46820   -46796 
  -46776   -46755   -46734   -46718   -46701   -46681   -46658   -46635 
  -46608   -46579   -46549   -46519   -46492   -46468   -46441   -46415 
  -46392   -46373   -46360   -46342   -46326   -46313   -46290   -46256 
  -46221   -46184   -46149   -46121   -46103   -46095   -46090   -46090 
  -46101   -46116   -46140   -46172   -46207   -46246   -46290   -46336 
  -46384   -46438   -46494   -46550   -46611   -46678   -46755   -46839 
  -46924   -47008   -47090   -47162   -47225   -47290   -47349   -47393 
  -47422   -47445   -47460   -47464   -47461   -47455   -47445   -47428 
  -47402   -47376   -47337   -47290   -47236   -47174   -47115   -47062 
  -47005   -46951   -46903   -46853   -46803   -46755   -46716   -46684 
  -46656   -46631   -46610   -46587   -46561   -46534   -46512   -46494 
  -46476   -46469   -46469   -46469   -46471   -46469   -46469   -46473 
  -46477   -46485   -46502   -46515   -46530   -46543   -46553   -46558 
  -46556   -46543   -46523   -46499   -46475   -46456   -46444   -46440 
  -46442   -46453   -46473   -46503   -46543   -46589   -46635   -46680 
  -46722   -46759   -46792   -46822   -46845   -46866   -46886   -46913 
  -46948   -46984   -47011   -47035   -47055   -47063   -47058   -47044 
  -47023   -46993   -46957   -46920   -46878   -46828   -46785   -46745 
  -46700   -46656   -46614   -46570   -46525   -46471   -46413   -46353 
  -46284   -46209   -46130   -46051   -45974   -45905   -45850   -45805 
  -45771   -45754   -45751   -45755   -45770   -45794   -45821   -45851 
  -45883   -45917   -45945   -45967   -45993   -46024   -46055   -46087 
  -46128   -46175   -46230   -46287   -46349   -46415   -46481   -46543 
  -46604   -46657   -46701   -46734   -46754   -46768   -46773   -46766 
  -46762   -46764   -46772   -46788   -46812   -46839   -46866   -46890 
  -46909   -46927   -46940   -46944   -46943   -46932   -46912   -46885 
  -46857   -46832   -46816   -46807   -46813   -46834   -46853   -46873 
  -46894   -46909   -46921   -46927   -46921   -46911   -46892   -46867 
  -46832   -46785   -46738   -46695   -46653   -46614   -46576   -46534 
  -46495   -46456   -46415   -46373   -46333   -46298   -46267   -46240 
  -46221   -46205   -46194   -46191   -46184   -46171   -46163   -46157 
  -46151   -46144   -46137   -46125   -46114   -46107   -46099   -46093 
  -46095   -46110   -46132   -46155   -46174   -46191   -46206   -46215 
  -46225   -46237   -46252   -46273   -46307   -46348   -46395   -46445 
  -46499   -46552   -46606   -46662   -46708   -46746   -46781   -46805 
  -46823   -46842   -46858   -46878   -46909   -46938   -46966   -47001 
  -47031   -47055   -47088   -47120   -47147   -47174   -47198   -47216 
  -47225   -47235   -47248   -47263   -47275   -47285   -47290   -47290 
  -47291   -47294   -47291   -47290   -47291   -47285   -47271   -47251 
  -47225   -47206   -47177   -47139   -47109   -47073   -47027   -46985 
  -46946   -46904   -46867   -46834   -46796   -46764   -46738   -46712 
  -46688   -46670   -46657   -46646   -46637   -46634   -46637   -46641 
  -46646   -46658   -46674   -46683   -46691   -46701   -46714   -46726 
  -46739   -46754   -46770   -46786   -46805   -46820   -46827   -46835 
  -46846   -46853   -46861   -46874   -46892   -46916   -46947   -46984 
  -47029   -47074   -47112   -47151   -47187   -47221   -47251   -47274 
  -47294   -47305   -47308   -47305   -47299   -47295   -47298   -47304 
  -47309   -47313   -47316   -47310   -47293   -47264   -47225   -47173 
  -47116   -47066   -47017   -46971   -46936   -46912   -46899   -46893 
  -46896   -46901   -46913   -46926   -46936   -46950   -46962   -46970 
  -46980   -46997   -47021   -47044   -47065   -47082   -47094   -47101 
  -47097   -47081   -47058   -47031   -46996   -46962   -46928   -46893 
  -46866   -46850   -46836   -46828   -46824   -46819   -46804   -46786 
  -46765   -46735   -46705   -46680   -46660   -46647   -46641   -46645 
  -46660   -46676   -46696   -46722   -46743   -46762   -46782   -46800 
  -46813   -46827   -46836   -46840   -46842   -46842   -46842   -46845 
  -46847   -46851   -46858   -46859   -46855   -46847   -46832   -46808 
  -46780   -46757   -46735   -46716   -46707   -46705   -46707   -46708 
  -46710   -46707   -46700   -46683   -46658   -46635   -46606   -46570 
  -46539   -46508   -46471   -46435   -46402   -46357   -46300   -46238 
  -46172   -46099   -46026   -45962   -45908   -45868   -45844   -45832 
  -45824   -45816   -45810   -45804   -45797   -45787   -45773   -45758 
  -45746   -45732   -45719   -45711   -45696   -45677   -45667   -45659 
  -45648   -45644   -45647   -45650   -45658   -45665   -45674   -45700 
  -45735   -45771   -45810   -45848   -45882   -45902   -45910   -45912 
  -45906   -45897   -45891   -45895   -45906   -45922   -45945   -45974 
  -46006   -46043   -46075   -46098   -46110   -46117   -46114   -46098 
  -46078   -46060   -46043   -46029   -46018   -46010   -46009   -46013 
  -46014   -46021   -46035   -46047   -46062   -46086   -46116   -46147 
  -46180   -46217   -46251   -46286   -46318   -46346   -46368   -46381 
  -46394   -46399   -46402   -46410   -46421   -46430   -46448   -46469 
  -46494   -46530   -46575   -46622   -46669   -46710   -46742   -46770 
  -46786   -46791   -46789   -46782   -46777   -46774   -46772   -46778 
  -46800   -46827   -46863   -46913   -46973   -47039   -47106   -47173 
  -47237   -47298   -47352   -47399   -47441   -47478   -47506   -47530 
  -47555   -47571   -47584   -47605   -47621   -47625   -47622   -47609 
  -47579   -47530   -47471   -47399   -47318   -47236   -47159   -47078 
  -46998   -46921   -46843   -46768   -46697   -46633   -46569   -46510 
  -46461   -46421   -46381   -46346   -46317   -46295   -46279   -46267 
  -46260   -46259   -46256   -46253   -46252   -46253   -46263   -46283 
  -46317   -46360   -46415   -46480   -46543   -46603   -46660   -46712 
  -46761   -46807   -46849   -46892   -46932   -46974   -47017   -47058 
  -47098   -47139   -47181   -47229   -47277   -47317   -47352   -47379 
  -47395   -47409   -47416   -47409   -47402   -47397   -47389   -47375 
  -47355   -47329   -47301   -47268   -47233   -47200   -47173   -47150 
  -47125   -47109   -47098   -47090   -47085   -47083   -47089   -47097 
  -47108   -47120   -47133   -47150   -47171   -47196   -47221   -47248 
  -47277   -47309   -47339   -47364   -47393   -47421   -47441   -47459 
  -47478   -47488   -47488   -47486   -47479   -47455   -47414   -47367 
  -47310   -47237   -47160   -47089   -47015   -46940   -46878   -46823 
  -46774   -46732   -46696   -46664   -46631   -46597   -46564   -46526 
  -46492   -46467   -46444   -46430   -46427   -46431   -46442   -46457 
  -46473   -46496   -46516   -46526   -46531   -46533   -46529   -46518 
  -46503   -46489   -46479   -46465   -46456   -46454   -46453   -46450 
  -46450   -46449   -46445   -46434   -46413   -46384   -46352   -46310 
  -46269   -46233   -46192   -46156   -46129   -46105   -46082   -46064 
  -46059   -46056   -46055   -46060   -46068   -46072   -46072   -46072 
  -46071   -46063   -46048   -46035   -46024   -46022   -46033   -46057 
  -46091   -46133   -46186   -46242   -46305   -46372   -46438   -46498 
  -46556   -46610   -46654   -46700   -46745   -46781   -46818   -46857 
  -46892   -46924   -46948   -46961   -46959   -46953   -46946   -46931 
  -46915   -46900   -46884   -46872   -46862   -46853   -46849   -46849 
  -46854   -46861   -46872   -46889   -46913   -46939   -46973   -47007 
  -47031   -47047   -47056   -47063   -47059   -47044   -47020   -46994 
  -46962   -46924   -46882   -46839   -46799   -46759   -46714   -46660 
  -46600   -46530   -46452   -46371   -46286   -46203   -46125   -46053 
  -45985   -45918   -45862   -45813   -45765   -45719   -45674   -45623 
  -45569   -45520   -45478   -45442   -45418   -45411   -45418   -45438 
  -45472   -45520   -45578   -45639   -45704   -45774   -45844   -45912 
  -45982   -46053   -46125   -46203   -46290   -46380   -46481   -46591 
  -46700   -46807   -46913   -47015   -47104   -47185   -47256   -47324 
  -47382   -47430   -47475   -47515   -47555   -47596   -47634   -47663 
  -47686   -47700   -47699   -47686   -47660   -47629   -47594   -47551 
  -47503   -47460   -47417   -47367   -47312   -47254   -47193   -47127 
  -47051   -46971   -46893   -46818   -46742   -46664   -46589   -46525 
  -46464   -46404   -46350   -46303   -46257   -46219   -46186   -46155 
  -46134   -46121   -46110   -46103   -46099   -46091   -46082   -46072 
  -46060   -46043   -46021   -46001   -45982   -45968   -45958   -45955 
  -45959   -45968   -45985   -46005   -46032   -46064   -46099   -46136 
  -46172   -46195   -46211   -46224   -46222   -46211   -46195   -46175 
  -46156   -46145   -46141   -46138   -46138   -46149   -46170   -46188 
  -46213   -46246   -46275   -46299   -46330   -46359   -46384   -46413 
  -46440   -46467   -46502   -46543   -46587   -46629   -46674   -46720 
  -46762   -46801   -46842   -46877   -46911   -46943   -46971   -46996 
  -47019   -47039   -47058   -47077   -47090   -47097   -47101   -47101 
  -47092   -47081   -47067   -47051   -47035   -47017   -47005   -46998 
  -46988   -46974   -46966   -46954   -46940   -46931   -46920   -46912 
  -46912   -46912   -46909   -46908   -46908   -46901   -46892   -46874 
  -46855   -46831   -46803   -46777   -46754   -46739   -46731   -46730 
  -46747   -46780   -46816   -46863   -46913   -46955   -46998   -47042 
  -47074   -47104   -47133   -47156   -47178   -47194   -47206   -47220 
  -47231   -47241   -47254   -47267   -47275   -47282   -47290   -47298 
  -47305   -47312   -47317   -47320   -47318   -47318   -47316   -47310 
  -47304   -47293   -47274   -47255   -47235   -47204   -47178   -47158 
  -47136   -47120   -47113   -47104   -47088   -47073   -47056   -47039 
  -47024   -47008   -46993   -46989   -46988   -46989   -47000   -47020 
  -47035   -47046   -47059   -47071   -47075   -47075   -47079   -47086 
  -47092   -47100   -47117   -47137   -47163   -47200   -47240   -47274 
  -47304   -47332   -47347   -47348   -47335   -47308   -47268   -47220 
  -47160   -47093   -47021   -46943   -46858   -46773   -46692   -46608 
  -46526   -46444   -46357   -46264   -46168   -46071   -45974   -45875 
  -45782   -45693   -45604   -45516   -45434   -45357   -45283   -45215 
  -45160   -45107   -45061   -45019   -44982   -44946   -44915   -44892 
  -44884   -44890   -44905   -44930   -44964   -45006   -45048   -45088 
  -45127   -45164   -45196   -45234   -45273   -45312   -45360   -45415 
  -45473   -45540   -45620   -45706   -45798   -45894   -45990   -46084 
  -46175   -46259   -46337   -46407   -46476   -46548   -46616   -46681 
  -46745   -46809   -46870   -46920   -46967   -47011   -47043   -47067 
  -47085   -47093   -47089   -47078   -47062   -47043   -47021   -47001 
  -46981   -46966   -46957   -46950   -46953   -46963   -46978   -47002 
  -47034   -47061   -47088   -47120   -47151   -47185   -47225   -47270 
  -47321   -47378   -47430   -47490   -47560   -47629   -47700   -47776 
  -47850   -47918   -47981   -48039   -48091   -48138   -48182   -48230 
  -48278   -48331   -48388   -48446   -48498   -48550   -48598   -48641 
  -48685   -48721   -48752   -48780   -48803   -48818   -48829   -48834 
  -48834   -48828   -48813   -48783   -48730   -48663   -48589   -48502 
  -48404   -48305   -48212   -48122   -48039   -47968   -47899   -47829 
  -47758   -47684   -47602   -47511   -47407   -47286   -47155   -47012 
  -46870   -46742   -46620   -46510   -46417   -46341   -46279   -46225 
  -46168   -46110   -46055   -45994   -45921   -45850   -45774   -45692 
  -45611   -45534   -45463   -45397   -45337   -45283   -45235   -45189 
  -45152   -45117   -45080   -45046   -45015   -44977   -44937   -44896 
  -44851   -44809   -44771   -44732   -44698   -44671   -44644   -44628 
  -44625   -44625   -44635   -44656   -44680   -44709   -44745   -44790 
  -44834   -44883   -44937   -44992   -45053   -45117   -45183   -45250 
  -45320   -45396   -45473   -45547   -45619   -45688   -45756   -45833 
  -45914   -46003   -46095   -46183   -46272   -46361   -46437   -46502 
  -46564   -46615   -46654   -46691   -46722   -46741   -46750   -46753 
  -46743   -46730   -46712   -46689   -46662   -46638   -46616   -46595 
  -46570   -46553   -46543   -46537   -46533   -46529   -46519   -46503 
  -46483   -46465   -46446   -46431   -46430   -46437   -46449   -46480 
  -46515   -46548   -46588   -46626   -46653   -46676   -46692   -46700 
  -46703   -46703   -46700   -46696   -46693   -46688   -46678   -46672 
  -46670   -46670   -46676   -46687   -46705   -46730   -46757   -46786 
  -46815   -46845   -46874   -46907   -46943   -46974   -47005   -47035 
  -47062   -47090   -47121   -47154   -47190   -47235   -47282   -47333 
  -47387   -47436   -47483   -47529   -47569   -47609   -47646   -47676 
  -47707   -47744   -47783   -47822   -47864   -47915   -47969   -48022 
  -48072   -48119   -48158   -48193   -48223   -48240   -48250   -48251 
  -48242   -48222   -48193   -48159   -48118   -48069   -48023   -47985 
  -47954   -47923   -47898   -47877   -47857   -47830   -47794   -47752 
  -47699   -47633   -47557   -47479   -47401   -47328   -47258   -47189 
  -47129   -47075   -47020   -46962   -46903   -46842   -46784   -46730 
  -46673   -46620   -46581   -46552   -46527   -46512   -46498   -46487 
  -46481   -46471   -46457   -46444   -46426   -46408   -46398   -46387 
  -46381   -46384   -46394   -46408   -46431   -46457   -46483   -46511 
  -46535   -46546   -46546   -46545   -46538   -46526   -46515   -46510 
  -46511   -46516   -46526   -46538   -46552   -46566   -46581   -46591 
  -46600   -46599   -46588   -46575   -46560   -46538   -46515   -46494 
  -46476   -46462   -46452   -46442   -46427   -46407   -46381   -46348 
  -46302   -46251   -46194   -46126   -46059   -45989   -45914   -45847 
  -45785   -45728   -45681   -45644   -45616   -45592   -45574   -45565 
  -45558   -45550   -45549   -45553   -45557   -45570   -45588   -45605 
  -45628   -45651   -45677   -45708   -45736   -45760   -45787   -45813 
  -45833   -45851   -45877   -45901   -45924   -45952   -45983   -46014 
  -46049   -46091   -46134   -46179   -46224   -46273   -46325   -46379 
  -46441   -46514   -46592   -46672   -46751   -46835   -46916   -46993 
  -47071   -47147   -47220   -47295   -47372   -47444   -47513   -47578 
  -47634   -47683   -47729   -47765   -47798   -47822   -47838   -47852 
  -47864   -47877   -47889   -47904   -47923   -47943   -47957   -47966 
  -47969   -47965   -47957   -47942   -47916   -47889   -47860   -47825 
  -47794   -47764   -47737   -47718   -47710   -47704   -47700   -47704 
  -47709   -47707   -47704   -47692   -47677   -47667   -47657   -47644 
  -47637   -47634   -47632   -47628   -47621   -47607   -47588   -47561 
  -47532   -47499   -47464   -47432   -47406   -47379   -47360   -47353 
  -47351   -47348   -47348   -47353   -47355   -47355   -47352   -47341 
  -47328   -47312   -47289   -47264   -47235   -47200   -47167   -47135 
  -47101   -47069   -47024   -46973   -46930   -46882   -46823   -46765 
  -46704   -46637   -46573   -46507   -46435   -46359   -46271   -46178 
  -46078   -45966   -45846   -45724   -45605   -45493   -45391   -45301 
  -45226   -45160   -45104   -45063   -45033   -45014   -44999   -44986 
  -44976   -44972   -44965   -44960   -44955   -44956   -44968   -44983 
  -45002   -45027   -45058   -45091   -45122   -45156   -45188   -45215 
  -45242   -45274   -45303   -45331   -45362   -45400   -45443   -45495 
  -45557   -45634   -45721   -45821   -45928   -46035   -46138   -46241 
  -46334   -46425   -46510   -46585   -46660   -46734   -46797   -46858 
  -46917   -46973   -47024   -47070   -47115   -47148   -47173   -47196 
  -47213   -47224   -47232   -47243   -47251   -47255   -47259   -47264 
  -47264   -47259   -47258   -47256   -47250   -47239   -47233   -47232 
  -47227   -47218   -47212   -47204   -47186   -47163   -47133   -47092 
  -47039   -46975   -46909   -46843   -46777   -46714   -46645   -46577 
  -46511   -46442   -46369   -46298   -46228   -46160   -46093   -46029 
  -45972   -45927   -45885   -45850   -45825   -45804   -45794   -45794 
  -45797   -45804   -45813   -45820   -45821   -45824   -45829   -45831 
  -45828   -45833   -45841   -45851   -45871   -45897   -45924   -45958 
  -45993   -46025   -46057   -46084   -46106   -46124   -46136   -46145 
  -46159   -46170   -46182   -46201   -46218   -46233   -46252   -46267 
  -46279   -46288   -46292   -46295   -46296   -46299   -46307   -46319 
  -46327   -46342   -46364   -46384   -46400   -46410   -46421   -46430 
  -46433   -46434   -46441   -46446   -46454   -46471   -46489   -46512 
  -46539   -46566   -46596   -46627   -46658   -46689   -46728   -46770 
  -46812   -46861   -46915   -46963   -47013   -47066   -47121   -47179 
  -47245   -47316   -47389   -47468   -47553   -47636   -47723   -47808 
  -47887   -47961   -48031   -48091   -48142   -48185   -48217   -48244 
  -48265   -48278   -48282   -48281   -48274   -48258   -48235   -48203 
