Origin Time       2025/01/13 21:19:00
Lat.              31.8
Long.             131.6
Depth. (km)       30
Mag.              6.9
Station Code      SAGH01
Station Lat.      33.5080
Station Long.     129.8877
Station Height(m) -82
Record Time       2025/01/13 21:20:16
Sampling Freq(Hz) 100Hz
Duration Time(s)  146
Dir.              1
Scale Factor      2942(gal)/8224139
Max. Acc. (gal)   0.846
Last Correction   2025/01/13 21:20:16
Memo.             
[...]
   65493    65539    65596    65655    65709    65758    65804    65848 
   65894    65934    65963    65990    66019    66043    66067    66091 
   66113    66137    66158    66170    66179    66189    66197    66205 
   66208    66208    66216    66218    66212    66206    66195    66178 
   66159    66139    66124    66113    66101    66089    66081    66077 
   66077    66083    66091    66094    66090    66087    66090    66094 
   66100    66108    66118    66132    66148    66164    66178    66189 
   66195    66202    66208    66213    66226    66239    66245    66256 
   66260    66251    66236    66221    66209    66197    66181    66168 
   66167    66170    66172    66185    66197    66212    66235    66258 
   66280    66305    66318    66321    66318    66310    66290    66267 
   66247    66222    66201    66187    66175    66168    66162    66164 
   66175    66179    66181    66189    66195    66202    66213    66214 
   66204    66195    66187    66170    66150    66132    66110    66083 
   66058    66035    66005    65967    65931    65896    65847    65790 
   65738    65686    65631    65576    65529    65485    65443    65414 
   65394    65371    65353    65341    65331    65319    65304    65290 
   65273    65260    65259    65263    65273    65296    65321    65346 
   65383    65422    65460    65500    65539    65574    65611    65642 
   65664    65682    65699    65707    65707    65708    65708    65703 
   65701    65712    65723    65738    65765    65794    65823    65848 
   65865    65873    65867    65843    65809    65769    65719    65664 
   65611    65564    65526    65499    65489    65495    65507    65529 
   65561    65593    65626    65662    65695    65719    65743    65767 
   65786    65799    65801    65807    65826    65854    65882    65917 
   65967    66023    66078    66136    66199    66266    66333    66403 
   66479    66549    66617    66681    66730    66766    66796    66816 
   66823    66820    66810    66796    66776    66744    66702    66656 
   66606    66550    66490    66426    66364    66299    66228    66154 
   66081    66016    65965    65919    65877    65847    65831    65817 
   65808    65807    65808    65808    65816    65830    65844    65866 
   65894    65917    65931    65935    65934    65925    65916    65911 
   65904    65901    65893    65874    65858    65842    65808    65772 
   65732    65677    65620    65561    65496    65435    65375    65311 
   65250    65191    65142    65109    65080    65060    65049    65043 
   65045    65060    65078    65097    65125    65155    65183    65225 
   65265    65299    65340    65377    65398    65410    65419    65421 
   65414    65396    65373    65352    65330    65310    65300    65294 
   65291    65304    65327    65360    65404    65452    65504    65564 
   65626    65688    65751    65812    65865    65912    65956    65982 
   65997    66006    65997    65977    65952    65924    65890    65850 
   65809    65773    65732    65692    65655    65618    65581    65551 
   65529    65510    65496    65491    65491    65495    65503    65506 
   65507    65516    65522    65520    65524    65530    65533    65538 
   65543    65543    65546    65543    65531    65519    65503    65480 
   65465    65461    65465    65477    65492    65504    65527    65557 
   65588    65626    65661    65693    65732    65770    65800    65823 
   65838    65843    65840    65827    65804    65767    65722    65672 
   65616    65558    65506    65460    65423    65396    65379    65368 
   65361    65357    65367    65384    65402    65421    65443    65469 
   65499    65523    65542    65556    65562    65568    65578    65580 
   65581    65592    65600    65601    65614    65632    65651    65674 
   65695    65712    65731    65753    65780    65808    65839    65874 
   65913    65956    66001    66039    66073    66106    66127    66139 
   66145    66141    66137    66143    66152    66156    66162    66172 
   66185    66204    66224    66239    66256    66276    66293    66309 
   66325    66341    66361    66378    66393    66417    66444    66474 
   66509    66540    66565    66590    66613    66627    66630    66630 
   66630    66631    66630    66625    66625    66626    66629    66638 
   66656    66671    66683    66696    66700    66692    66677    66648 
   66606    66559    66503    66442    66384    66333    66287    66239 
   66197    66160    66118    66083    66058    66027    65996    65978 
   65965    65939    65907    65878    65853    65816    65777    65743 
   65705    65668    65643    65624    65607    65599    65599    65607 
   65627    65657    65700    65754    65815    65869    65917    65965 
   65997    66015    66027    66033    66025    66013    65997    65965 
   65929    65890    65844    65799    65751    65709    65674    65646 
   65634    65630    65635    65650    65669    65693    65727    65766 
   65807    65848    65892    65939    65979    66008    66028    66040 
   66037    66019    65992    65962    65924    65882    65844    65805 
   65772    65755    65747    65747    65762    65786    65821    65870 
   65935    66016    66108    66210    66321    66434    66556    66679 
   66798    66914    67031    67140    67236    67331    67420    67493 
   67547    67587    67614    67633    67639    67629    67610    67583 
   67551    67516    67481    67448    67412    67369    67327    67281 
   67227    67170    67111    67046    66973    66900    66826    66746 
   66661    66575    66491    66402    66314    66236    66160    66082 
   66009    65936    65869    65809    65749    65697    65649    65591 
   65538    65487    65429    65379    65338    65294    65256    65227 
   65198    65173    65163    65152    65134    65126    65122    65115 
   65105    65102    65102    65092    65078    65061    65038    65011 
   64986    64953    64922    64898    64874    64859    64858    64854 
   64851    64860    64870    64874    64872    64862    64845    64820 
   64789    64762    64729    64693    64655    64620    64598    64582 
   64566    64563    64571    64585    64615    64654    64698    64756 
   64825    64901    64979    65052    65128    65198    65259    65315 
   65368    65415    65452    65481    65514    65542    65558    65574 
   65592    65603    65620    65641    65658    65686    65722    65755 
   65796    65839    65881    65928    65973    66012    66048    66075 
   66087    66090    66078    66056    66035    66012    65989    65974 
   65962    65951    65948    65951    65961    65978    65993    66016 
   66046    66069    66091    66125    66150    66174    66206    66243 
   66279    66313    66352    66393    66426    66460    66499    66541 
   66580    66618    66658    66698    66727    66757    66789    66812 
   66825    66834    66830    66808    66780    66746    66699    66646 
   66600    66545    66476    66411    66345    66262    66167    66077 
   65988    65892    65797    65709    65624    65545    65475    65415 
   65361    65307    65260    65222    65182    65140    65102    65071 
   65044    65025    65014    65005    64995    64995    65003    65002 
   65006    65018    65017    65020    65032    65040    65053    65068 
   65084    65117    65160    65198    65238    65288    65344    65392 
   65437    65481    65524    65558    65588    65618    65643    65659 
   65674    65688    65686    65680    65677    65665    65643    65622 
   65593    65560    65526    65487    65452    65422    65394    65373 
   65356    65342    65341    65345    65360    65392    65425    65464 
   65519    65573    65627    65692    65747    65794    65844    65885 
   65924    65966    65998    66033    66078    66116    66152    66197 
   66235    66260    66282    66301    66310    66306    66293    66276 
   66249    66214    66183    66148    66108    66074    66040    66001 
   65966    65936    65908    65888    65877    65875    65875    65878 
   65893    65911    65924    65946    65973    65997    66027    66060 
   66090    66123    66162    66198    66235    66274    66313    66351 
   66390    66425    66455    66483    66506    66525    66544    66557 
   66563    66561    66564    66568    66565    66568    66577    66587 
   66603    66629    66658    66692    66727    66758    66792    66823 
   66841    66849    66849    66842    66825    66798    66771    66745 
   66711    66677    66656    66627    66590    66557    66523    66484 
   66442    66403    66370    66341    66313    66291    66279    66267 
   66262    66263    66252    66241    66240    66232    66222    66225 
   66225    66231    66245    66259    66270    66278    66280    66275 
   66266    66252    66235    66222    66218    66218    66225    66236 
   66245    66252    66253    66245    66232    66206    66162    66106 
   66042    65959    65871    65785    65699    65612    65534    65460 
   65389    65333    65288    65249    65219    65188    65155    65125 
   65094    65064    65038    65007    64975    64949    64922    64894 
   64875    64862    64852    64841    64827    64816    64810    64798 
   64782    64766    64751    64733    64716    64700    64690    64689 
   64689    64690    64705    64721    64732    64750    64774    64787 
   64787    64798    64808    64808    64816    64827    64829    64848 
   64878    64903    64948    65009    65067    65132    65215    65311 
   65412    65519    65631    65745    65855    65965    66063    66150 
   66231    66297    66343    66374    66394    66394    66383    66367 
   66344    66320    66294    66268    66244    66218    66189    66158 
   66128    66098    66066    66033    66005    65979    65952    65925 
   65896    65862    65828    65794    65753    65701    65662    65630 
   65592    65565    65550    65535    65526    65523    65522    65516 
   65519    65527    65534    65545    65561    65578    65601    65624 
   65647    65672    65695    65727    65770    65812    65848    65888 
   65929    65965    66000    66028    66051    66074    66102    66133 
   66168    66204    66232    66252    66274    66280    66264    66251 
   66233    66201    66162    66118    66073    66029    65982    65934 
   65897    65867    65840    65815    65794    65777    65765    65758 
   65747    65735    65732    65720    65704    65692    65678    65659 
   65642    65626    65608    65589    65573    65557    65539    65522 
   65499    65479    65464    65450    65439    65429    65415    65396 
   65372    65354    65335    65311    65291    65269    65250    65236 
   65218    65205    65199    65191    65180    65175    65169    65163 
   65156    65144    65130    65121    65107    65086    65070    65059 
   65044    65034    65034    65034    65036    65044    65056    65063 
   65072    65095    65115    65128    65148    65176    65207    65245 
   65291    65344    65402    65458    65520    65585    65650    65716 
   65776    65834    65892    65938    65982    66033    66071    66108 
   66154    66193    66220    66248    66272    66291    66307    66321 
   66330    66341    66361    66375    66382    66399    66413    66422 
   66448    66474    66494    66522    66561    66603    66650    66703 
   66756    66808    66857    66895    66923    66945    66953    66949 
   66937    66920    66904    66876    66846    66825    66800    66781 
   66776    66780    66791    66816    66858    66916    66989    67070 
   67157    67243    67319    67381    67427    67451    67463    67460 
   67444    67423    67390    67340    67282    67213    67134    67050 
   66954    66849    66749    66646    66534    66430    66339    66253 
   66178    66118    66070    66029    65997    65975    65955    65935 
   65920    65900    65873    65846    65816    65781    65743    65708 
   65676    65638    65593    65549    65502    65454    65410    65365 
   65313    65260    65214    65172    65138    65115    65099    65084 
   65068    65055    65040    65018    64991    64953    64908    64863 
   64812    64762    64717    64675    64643    64624    64611    64602 
   64606    64620    64633    64650    64670    64690    64713    64728 
   64737    64741    64744    64744    64743    64736    64728    64723 
   64719    64716    64717    64725    64733    64739    64752    64770 
   64787    64802    64816    64829    64848    64863    64882    64913 
   64945    64979    65029    65084    65140    65205    65275    65348 
   65427    65504    65584    65668    65747    65826    65912    65997 
   66075    66159    66253    66337    66409    66482    66550    66606 
   66657    66700    66731    66757    66784    66806    66818    66829 
   66852    66873    66891    66920    66953    66974    67009    67057 
   67096    67139    67193    67238    67273    67321    67370    67396 
   67416    67446    67466    67474    67481    67481    67466    67436 
   67393    67336    67269    67193    67117    67041    66962    66891 
   66827    66771    66726    66691    66656    66627    66609    66590 
   66576    66568    66548    66528    66515    66502    66487    66474 
   66456    66441    66424    66406    66388    66364    66337    66310 
   66279    66240    66186    66123    66052    65967    65870    65770 
   65670    65564    65457    65358    65257    65152    65052    64953 
   64852    64754    64658    64574    64488    64401    64331    64258 
   64183    64114    64034    63952    63877    63796    63718    63653 
   63597    63551    63518    63497    63489    63497    63524    63562 
   63605    63657    63718    63784    63857    63936    64004    64076 
   64162    64242    64318    64399    64480    64569    64659    64747 
   64844    64948    65052    65156    65263    65367    65464    65551 
   65628    65693    65746    65785    65808    65824    65832    65831 
   65823    65808    65790    65790    65797    65799    65813    65838 
   65861    65888    65920    65955    65996    66042    66083    66127 
   66174    66217    66255    66293    66324    66357    66388    66410 
   66425    66438    66438    66429    66414    66390    66360    66330 
   66297    66263    66233    66202    66172    66148    66131    66118 
   66106    66090    66077    66062    66044    66028    66012    65992 
   65962    65931    65900    65863    65824    65780    65730    65682 
   65634    65588    65550    65516    65500    65503    65506    65520 
   65549    65583    65626    65674    65724    65774    65826    65875 
   65917    65956    65996    66021    66046    66064    66070    66081 
   66093    66098    66105    66120    66141    66162    66179    66202 
   66224    66247    66270    66285    66298    66310    66314    66318 
   66322    66314    66305    66295    66275    66256    66241    66213 
   66175    66135    66086    66033    65981    65925    65865    65804 
   65751    65701    65655    65614    65580    65551    65533    65523 
   65520    65523    65531    65547    65569    65591    65611    65631 
   65653    65677    65701    65727    65750    65774    65803    65832 
   65862    65894    65928    65961    65996    66033    66070    66109 
   66151    66190    66224    66255    66278    66294    66305    66313 
   66317    66313    66306    66302    66301    66294    66279    66258 
   66228    66190    66150    66104    66047    65992    65943    65892 
   65842    65799    65762    65726    65689    65659    65643    65631 
   65624    65624    65626    65626    65630    65632    65634    65634 
   65635    65637    65637    65632    65638    65653    65665    65681 
   65700    65720    65745    65769    65793    65821    65842    65862 
   65888    65909    65928    65950    65967    65989    66024    66063 
   66113    66175    66245    66325    66407    66498    66594    66681 
   66764    66842    66912    66973    67024    67077    67127    67166 
   67209    67252    67289    67323    67350    67367    67382    67401 
   67414    67420    67429    67446    67451    67452    67447    67432 
   67408    67375    67332    67279    67217    67154    67092    67028 
   66964    66904    66849    66798    66752    66704    66652    66600 
   66560    66514    66456    66401    66345    66280    66214    66144 
   66062    65970    65882    65788    65678    65572    65470    65365 
   65263    65167    65071    64994    64929    64862    64814    64789 
   64767    64756    64759    64771    64789    64805    64829    64858 
   64879    64903    64932    64949    64970    64991    65003    65025 
   65053    65067    65078    65102    65121    65138    65164    65186 
   65200    65219    65237    65249    65267    65283    65288    65295 
   65310    65314    65311    65321    65323    65318    65327    65335 
   65337    65348    65361    65376    65396    65412    65433    65456 
   65473    65489    65506    65516    65523    65527    65533    65541 
   65543    65535    65529    65526    65522    65512    65508    65515 
   65523    65526    65537    65556    65572    65587    65607    65627 
   65639    65651    65666    65674    65680    65684    65686    65685 
   65677    65665    65651    65634    65611    65588    65566    65546 
   65527    65516    65510    65506    65511    65522    65538    65565 
   65588    65614    65657    65695    65727    65767    65808    65839 
   65870    65901    65929    65962    65997    66033    66074    66120 
   66164    66213    66264    66307    66349    66387    66417    66442 
   66464    66482    66494    66494    66490    66486    66476    66463 
   66456    66445    66428    66413    66399    66382    66363    66345 
   66328    66306    66285    66260    66229    66198    66159    66114 
   66077    66037    65989    65940    65898    65851    65800    65759 
   65718    65676    65639    65601    65564    65530    65502    65476 
   65446    65422    65407    65395    65388    65387    65389    65398 
   65410    65423    65438    65452    65466    65483    65496    65508 
   65519    65524    65522    65518    65518    65512    65506    65508 
   65508    65507    65516    65526    65534    65550    65573    65595 
   65619    65645    65672    65700    65732    65763    65790    65813 
   65840    65865    65888    65911    65936    65963    65989    66016 
   66046    66073    66100    66133    66156    66179    66210    66237 
   66266    66301    66334    66366    66393    66425    66459    66487 
   66517    66548    66573    66598    66617    66623    66623    66614 
   66591    66561    66521    66468    66420    66363    66295    66235 
   66171    66106    66047    65992    65942    65890    65843    65807 
   65766    65724    65691    65657    65620    65595    65568    65537 
   65506    65476    65446    65422    65399    65377    65369    65365 
   65356    65358    65371    65380    65394    65406    65415    65415 
   65412    65416    65416    65410    65400    65394    65387    65373 
   65352    65334    65321    65308    65296    65283    65276    65271 
   65267    65265    65265    65265    65265    65272    65286    65288 
   65288    65300    65315    65326    65338    65350    65365    65385 
   65406    65427    65457    65491    65527    65568    65610    65649 
   65684    65722    65761    65793    65826    65863    65902    65943 
   65978    66013    66055    66089    66118    66151    66179    66199 
