Origin Time       2025/01/13 21:19:00
Lat.              31.8
Long.             131.6
Depth. (km)       30
Mag.              6.9
Station Code      SAGH05
Station Lat.      33.1806
Station Long.     130.1046
Station Height(m) 18
Record Time       2025/01/13 21:20:04
Sampling Freq(Hz) 100Hz
Duration Time(s)  201
Dir.              6
Scale Factor      7845(gal)/8223790
Max. Acc. (gal)   1.265
Last Correction   2025/01/13 21:20:04
Memo.             
[...]
   10463    10507    10550    10579    10590    10590    10577    10551 
   10521    10484    10444    10407    10362    10311    10255    10193 
   10129    10064     9999     9934     9868     9807     9747     9688 
    9640     9601     9570     9553     9553     9564     9590     9630 
    9676     9715     9741     9759     9774     9783     9794     9811 
    9832     9856     9886     9917     9952     9992    10030    10058 
   10077    10088    10096    10106    10115    10125    10131    10129 
   10115    10098    10076    10053    10037    10025    10015    10014 
   10018    10022    10027    10038    10048    10058    10066    10066 
   10062    10060    10064    10072    10080    10089    10093    10083 
   10064    10042    10019     9999     9980     9964     9953     9949 
    9949     9952     9963     9984    10012    10045    10085    10127 
   10164    10195    10226    10258    10284    10299    10312    10323 
   10330    10336    10338    10334    10326    10309    10282    10247 
   10208    10162    10114    10072    10039    10022    10012    10014 
   10031    10061    10095    10137    10181    10227    10270    10308 
   10338    10359    10376    10395    10411    10419    10417    10404 
   10380    10350    10314    10268    10215    10166    10126    10093 
   10072    10060    10046    10035    10026    10010     9990     9975 
    9960     9941     9923     9907     9884     9856     9829     9803 
    9784     9779     9787     9805     9829     9860     9891     9925 
    9957     9985    10010    10021    10015     9999     9973     9942 
    9902     9850     9799     9741     9676     9616     9558     9508 
    9471     9445     9427     9416     9416     9424     9435     9451 
    9471     9487     9506     9528     9555     9591     9637     9693 
    9757     9828     9902     9981    10060    10133    10195    10257 
   10324    10395    10463    10532    10596    10646    10686    10720 
   10744    10758    10759    10748    10732    10720    10706    10687 
   10665    10643    10627    10617    10616    10619    10620    10620 
   10621    10617    10600    10570    10528    10480    10432    10388 
   10341    10288    10231    10177    10125    10076    10027     9973 
    9914     9863     9822     9798     9787     9786     9792     9806 
    9830     9860     9900     9958    10027    10100    10180    10258 
   10335    10407    10476    10547    10617    10683    10748    10810 
   10862    10901    10928    10944    10941    10921    10885    10832 
   10773    10708    10639    10567    10494    10428    10368    10305 
   10249    10192    10129    10065    10006     9945     9887     9832 
    9782     9738     9694     9653     9614     9578     9549     9533 
    9526     9525     9536     9560     9594     9632     9670     9706 
    9742     9776     9806     9834     9863     9887     9917     9949 
    9973     9990    10002    10007    10006    10006    10010    10018 
   10026    10033    10041    10050    10052    10048    10038    10019 
    9991     9950     9900     9844     9783     9718     9648     9580 
    9516     9454     9397     9347     9301     9258     9223     9193 
    9167     9150     9139     9134     9136     9157     9189     9227 
    9271     9323     9373     9423     9475     9536     9605     9676 
    9751     9819     9877     9930     9971    10003    10033    10058 
   10077    10100    10125    10142    10154    10157    10154    10142 
   10116    10081    10042    10002     9958     9925     9902     9888 
    9884     9891     9907     9933     9964    10003    10048    10092 
   10139    10187    10230    10269    10299    10318    10326    10319 
   10301    10282    10264    10243    10220    10199    10176    10146 
   10108    10062    10014     9961     9909     9864     9822     9783 
    9745     9703     9657     9610     9566     9524     9489     9459 
    9436     9421     9414     9414     9423     9441     9464     9491 
    9525     9570     9621     9674     9726     9780     9834     9886 
    9937     9988    10034    10076    10115    10154    10193    10234 
   10269    10300    10328    10354    10373    10389    10408    10423 
   10426    10422    10407    10380    10342    10297    10247    10196 
   10147    10100    10053    10010     9968     9926     9886     9845 
    9802     9763     9730     9706     9687     9672     9664     9667 
    9682     9706     9745     9799     9863     9940    10029    10123 
   10222    10320    10423    10530    10628    10713    10781    10824 
   10844    10847    10829    10801    10771    10744    10719    10702 
   10690    10681    10677    10674    10666    10654    10633    10600 
   10565    10525    10485    10449    10419    10392    10373    10368 
   10366    10368    10376    10388    10403    10416    10424    10419 
   10401    10376    10342    10305    10273    10238    10204    10172 
   10130    10084    10039     9992     9948     9909     9864     9815 
    9769     9720     9670     9624     9578     9532     9486     9439 
    9398     9370     9355     9351     9358     9374     9404     9445 
    9495     9552     9612     9676     9742     9802     9855     9906 
    9952     9994    10035    10076    10119    10166    10215    10266 
   10318    10370    10423    10474    10528    10582    10632    10682 
   10732    10777    10820    10858    10885    10906    10921    10932 
   10932    10922    10908    10887    10864    10837    10809    10778 
   10739    10696    10651    10606    10559    10512    10465    10412 
   10358    10304    10250    10196    10141    10081    10025     9972 
    9922     9880     9845     9810     9778     9747     9711     9672 
    9637     9606     9580     9564     9558     9564     9582     9610 
    9652     9698     9748     9798     9852     9904     9950     9991 
   10021    10037    10038    10026    10002     9973     9946     9918 
    9890     9863     9836     9811     9790     9775     9768     9763 
    9761     9761     9759     9749     9732     9710     9680     9640 
    9597     9549     9499     9455     9412     9374     9346     9323 
    9309     9305     9310     9328     9355     9386     9425     9470 
    9517     9566     9617     9666     9711     9756     9799     9840 
    9877     9911     9944     9980    10015    10044    10065    10087 
   10114    10141    10165    10189    10211    10227    10231    10226 
   10212    10187    10156    10116    10069    10018     9960     9900 
    9849     9801     9752     9709     9671     9637     9610     9590 
    9574     9555     9541     9529     9514     9504     9499     9506 
    9525     9553     9589     9629     9668     9707     9744     9776 
    9809     9842     9875     9907     9940     9969     9996    10022 
   10050    10076    10099    10116    10133    10150    10166    10184 
   10201    10222    10239    10258    10281    10300    10309    10318 
   10323    10324    10328    10339    10354    10368    10384    10403 
   10413    10420    10424    10419    10400    10373    10345    10318 
   10292    10266    10239    10216    10195    10174    10164    10160 
   10162    10174    10189    10203    10214    10220    10224    10223 
   10220    10218    10212    10204    10200    10192    10180    10170 
   10157    10131    10104    10076    10046    10019     9995     9977 
    9967     9961     9957     9963     9972     9981     9992    10006 
   10021    10038    10060    10081    10100    10118    10137    10154 
   10173    10192    10210    10223    10228    10233    10237    10237 
   10234    10230    10227    10223    10219    10218    10215    10210 
   10206    10201    10193    10184    10173    10160    10150    10152 
   10162    10181    10211    10249    10291    10330    10366    10399 
   10427    10447    10459    10465    10462    10459    10453    10440 
   10426    10411    10389    10359    10319    10266    10207    10139 
   10066     9985     9904     9828     9752     9683     9624     9572 
    9533     9506     9489     9482     9481     9481     9485     9498 
    9516     9536     9556     9572     9585     9598     9612     9628 
    9649     9679     9715     9748     9774     9796     9811     9817 
    9822     9828     9828     9832     9833     9833     9832     9823 
    9806     9783     9759     9737     9718     9703     9693     9687 
    9688     9694     9703     9725     9749     9778     9810     9842 
    9871     9903     9938     9971    10006    10044    10077    10103 
   10122    10137    10143    10141    10134    10122    10104    10085 
   10069    10056    10048    10044    10045    10048    10057    10072 
   10087    10110    10143    10181    10222    10268    10307    10341 
   10373    10404    10428    10453    10478    10503    10528    10557 
   10588    10620    10648    10674    10701    10727    10747    10759 
   10766    10770    10774    10777    10775    10779    10789    10802 
   10820    10837    10854    10862    10864    10863    10854    10835 
   10809    10775    10739    10705    10673    10642    10613    10584 
   10555    10532    10512    10498    10490    10482    10477    10466 
   10446    10423    10400    10376    10350    10328    10305    10284 
   10272    10261    10245    10231    10222    10212    10204    10199 
   10195    10196    10201    10212    10230    10250    10272    10301 
   10331    10354    10372    10382    10374    10355    10330    10292 
   10243    10195    10143    10089    10037     9987     9941     9895 
    9850     9807     9759     9709     9657     9609     9560     9513 
    9470     9425     9381     9346     9317     9302     9304     9312 
    9324     9340     9354     9367     9381     9391     9402     9414 
    9428     9440     9450     9463     9483     9509     9535     9566 
    9602     9634     9666     9694     9715     9740     9767     9787 
    9803     9815     9821     9821     9817     9806     9795     9782 
    9767     9753     9742     9733     9720     9706     9695     9686 
    9678     9678     9684     9698     9722     9753     9792     9842 
    9902     9971    10049    10130    10206    10277    10341    10397 
   10443    10473    10489    10498    10489    10461    10424    10380 
   10327    10270    10212    10156    10103    10049     9998     9952 
    9911     9876     9850     9833     9822     9817     9817     9825 
    9840     9865     9898     9937     9983    10027    10069    10107 
   10133    10152    10160    10162    10162    10158    10160    10168 
   10176    10183    10187    10185    10181    10172    10154    10134 
   10119    10104    10089    10077    10065    10053    10044    10029 
   10012     9995     9976     9958     9945     9933     9925     9919 
    9913     9902     9883     9861     9840     9813     9783     9757 
    9733     9710     9688     9672     9664     9657     9651     9644 
    9640     9632     9618     9606     9595     9587     9585     9586 
    9593     9603     9616     9633     9660     9690     9724     9765 
    9813     9856     9900     9946     9991    10035    10077    10110 
   10135    10157    10170    10179    10183    10179    10170    10166 
   10168    10169    10173    10184    10197    10210    10226    10242 
   10255    10265    10269    10272    10270    10269    10272    10273 
   10276    10278    10277    10276    10278    10280    10280    10284 
   10296    10314    10336    10373    10417    10461    10509    10562 
   10616    10670    10727    10785    10845    10906    10963    11017 
   11061    11094    11119    11138    11145    11138    11122    11095 
   11057    11010    10956    10897    10839    10781    10724    10671 
   10616    10561    10511    10466    10423    10389    10361    10335 
   10318    10308    10307    10311    10323    10346    10368    10388 
   10412    10439    10462    10482    10497    10507    10513    10512 
   10507    10498    10481    10450    10411    10359    10293    10214 
   10131    10046     9963     9887     9813     9737     9661     9593 
    9525     9458     9394     9336     9283     9244     9215     9193 
    9181     9171     9169     9169     9165     9163     9170     9181 
    9198     9217     9232     9246     9252     9252     9246     9232 
    9217     9201     9190     9192     9207     9228     9262     9302 
    9348     9397     9450     9508     9566     9624     9688     9761 
    9840     9917    10000    10089    10179    10272    10365    10455 
   10547    10632    10709    10775    10824    10859    10883    10893 
   10885    10864    10837    10804    10763    10721    10681    10636 
   10592    10551    10516    10482    10453    10424    10397    10369 
   10347    10323    10300    10278    10257    10239    10223    10210 
   10204    10201    10203    10206    10201    10196    10195    10193 
   10195    10204    10218    10238    10266    10300    10339    10382 
   10428    10473    10520    10563    10601    10644    10689    10728 
   10771    10816    10854    10887    10917    10937    10949    10952 
   10947    10937    10925    10910    10894    10876    10858    10835 
   10808    10777    10740    10696    10639    10577    10511    10443 
   10374    10299    10220    10142    10062     9980     9894     9806 
    9722     9640     9560     9490     9427     9371     9321     9275 
    9232     9188     9146     9104     9053     8999     8950     8904 
    8862     8820     8784     8757     8735     8723     8721     8718 
    8723     8738     8754     8775     8797     8822     8846     8869 
    8897     8931     8970     9012     9054     9100     9143     9178 
    9208     9231     9247     9258     9263     9270     9277     9279 
    9281     9283     9283     9289     9297     9313     9337     9364 
    9401     9445     9491     9544     9602     9666     9740     9821 
    9906     9992    10075    10147    10214    10272    10319    10355 
   10386    10408    10422    10432    10434    10426    10415    10400 
   10381    10361    10342    10324    10312    10311    10318    10326 
   10342    10362    10380    10396    10407    10415    10423    10434 
   10449    10466    10488    10511    10531    10557    10585    10606 
   10629    10650    10669    10683    10698    10712    10719    10724 
   10731    10729    10728    10725    10710    10693    10674    10652 
   10632    10615    10601    10593    10584    10578    10570    10552 
   10527    10493    10450    10401    10341    10280    10222    10166 
   10125    10096    10085    10095    10119    10160    10204    10251 
   10309    10366    10412    10454    10485    10505    10515    10516 
   10516    10517    10517    10513    10512    10516    10512    10504 
   10493    10473    10449    10416    10372    10326    10277    10224 
   10172    10122    10076    10035     9999     9971     9949     9929 
    9911     9896     9883     9867     9848     9825     9796     9767 
    9736     9706     9678     9651     9622     9597     9575     9551 
    9525     9502     9481     9460     9440     9424     9418     9418 
    9424     9436     9460     9494     9535     9579     9626     9671 
    9713     9756     9794     9828     9860     9891     9921     9942 
    9957     9968     9971     9968     9960     9941     9921     9898 
    9868     9832     9795     9756     9715     9678     9643     9609 
    9579     9556     9536     9520     9508     9497     9493     9493 
    9494     9498     9504     9509     9512     9512     9509     9504 
    9497     9490     9485     9483     9485     9490     9501     9517 
    9539     9560     9589     9625     9664     9703     9741     9776 
    9809     9832     9852     9876     9903     9929     9956     9983 
   10008    10033    10061    10087    10111    10134    10153    10168 
   10189    10218    10251    10295    10345    10403    10463    10525 
   10585    10639    10694    10751    10806    10856    10899    10939 
   10971    10993    11007    11013    11006    10993    10970    10936 
   10897    10854    10808    10760    10721    10683    10640    10604 
   10571    10539    10516    10500    10485    10478    10482    10492 
   10509    10531    10557    10585    10608    10625    10629    10620 
   10598    10563    10517    10465    10400    10332    10268    10203 
   10145    10095    10057    10027    10004     9996     9999    10011 
   10033    10060    10088    10119    10153    10184    10212    10239 
   10266    10288    10304    10309    10305    10293    10269    10233 
   10183    10126    10066    10000     9937     9879     9817     9755 
    9698     9637     9575     9514     9450     9383     9320     9259 
    9208     9162     9123     9089     9062     9045     9034     9026 
    9024     9023     9024     9036     9050     9066     9088     9108 
    9128     9154     9184     9220     9262     9302     9342     9379 
    9414     9440     9452     9458     9458     9450     9436     9417 
    9393     9360     9327     9294     9256     9220     9184     9148 
    9113     9080     9049     9023     9005     8995     8989     8992 
    9005     9032     9076     9132     9202     9286     9379     9481 
    9589     9693     9795     9902     9996    10087    10177    10254 
   10319    10381    10438    10488    10532    10573    10608    10633 
   10651    10659    10650    10627    10589    10544    10492    10431 
   10366    10303    10242    10189    10150    10123    10106    10100 
   10106    10119    10141    10166    10189    10216    10245    10268 
   10291    10311    10327    10345    10365    10392    10417    10440 
   10463    10489    10516    10550    10585    10623    10662    10701 
   10740    10775    10809    10844    10878    10909    10939    10971 
   11005    11043    11084    11133    11184    11232    11269    11302 
   11323    11330    11333    11325    11302    11279    11252    11221 
   11190    11157    11119    11079    11038    10997    10948    10899 
   10849    10790    10725    10666    10601    10534    10471    10407 
   10338    10269    10195    10111    10022     9930     9830     9726 
    9625     9522     9423     9333     9251     9175     9111     9055 
    9005     8962     8931     8914     8901     8899     8908     8924 
    8947     8974     9004     9028     9050     9067     9080     9090 
    9100     9105     9109     9113     9113     9113     9116     9120 
    9128     9140     9155     9171     9184     9193     9201     9208 
    9211     9215     9221     9224     9221     9220     9221     9224 
    9224     9227     9236     9252     9269     9289     9312     9337 
    9366     9394     9425     9458     9493     9532     9572     9612 
    9651     9691     9734     9782     9825     9867     9909     9949 
    9990    10026    10061    10095    10126    10158    10193    10228 
   10261    10292    10323    10349    10370    10389    10400    10401 
   10397    10389    10382    10374    10368    10372    10384    10401 
   10426    10459    10500    10547    10598    10654    10709    10764 
   10816    10864    10906    10940    10970    10995    11017    11037 
   11053    11063    11070    11071    11065    11053    11030    11003 
   10974    10932    10881    10827    10764    10696    10620    10543 
