Origin Time       2025/01/13 21:19:00
Lat.              31.8
Long.             131.6
Depth. (km)       30
Mag.              6.9
Station Code      SAGH05
Station Lat.      33.1806
Station Long.     130.1046
Station Height(m) -185
Record Time       2025/01/13 21:20:04
Sampling Freq(Hz) 100Hz
Duration Time(s)  201
Dir.              2
Scale Factor      2942(gal)/8224139
Max. Acc. (gal)   1.210
Last Correction   2025/01/13 21:20:04
Memo.             
[...]
  236673   236668   236667   236676   236686   236696   236711   236725 
  236733   236733   236723   236706   236684   236668   236663   236664 
  236679   236709   236748   236790   236825   236857   236884   236903 
  236920   236939   236964   236997   237043   237093   237151   237213 
  237269   237317   237354   237377   237386   237386   237381   237371 
  237358   237339   237324   237319   237323   237344   237386   237450 
  237535   237645   237772   237905   238040   238173   238292   238396 
  238481   238547   238597   238628   238639   238635   238612   238574 
  238518   238441   238346   238237   238113   237979   237841   237695 
  237539   237382   237234   237096   236970   236853   236741   236640 
  236552   236476   236412   236356   236310   236271   236248   236245 
  236263   236294   236333   236379   236422   236459   236495   236528 
  236559   236594   236630   236671   236706   236729   236737   236723 
  236682   236614   236521   236412   236299   236190   236088   235998 
  235917   235840   235769   235705   235660   235629   235616   235622 
  235637   235656   235676   235692   235704   235718   235735   235765 
  235807   235863   235939   236029   236128   236232   236335   236429 
  236511   236579   236622   236644   236653   236650   236638   236628 
  236625   236630   236636   236641   236641   236630   236618   236607 
  236596   236587   236583   236578   236565   236551   236532   236509 
  236486   236463   236439   236418   236403   236390   236380   236375 
  236370   236366   236366   236367   236374   236389   236406   236420 
  236436   236459   236486   236522   236568   236621   236672   236719 
  236760   236798   236833   236877   236931   236988   237050   237120 
  237200   237292   237394   237501   237604   237697   237771   237822 
  237851   237860   237864   237872   237890   237924   237968   238023 
  238094   238172   238250   238331   238408   238468   238512   238542 
  238558   238561   238550   238524   238476   238403   238310   238196 
  238060   237910   237755   237601   237452   237312   237184   237066 
  236961   236869   236790   236719   236656   236602   236553   236509 
  236467   236417   236355   236286   236210   236137   236071   236012 
  235965   235931   235901   235881   235867   235853   235836   235818 
  235792   235761   235724   235685   235653   235626   235604   235589 
  235583   235587   235607   235637   235677   235724   235777   235832 
  235884   235930   235970   236001   236031   236067   236109   236152 
  236196   236240   236282   236318   236345   236371   236399   236428 
  236464   236510   236559   236614   236677   236744   236803   236864 
  236933   237008   237078   237138   237188   237238   237281   237311 
  237335   237355   237367   237379   237398   237427   237469   237519 
  237578   237639   237693   237730   237741   237730   237706   237663 
  237608   237546   237478   237405   237338   237288   237255   237240 
  237246   237261   237281   237308   237338   237365   237389   237413 
  237433   237448   237448   237436   237421   237400   237369   237335 
  237296   237254   237224   237205   237201   237219   237249   237286 
  237339   237411   237486   237567   237656   237744   237832   237925 
  238019   238114   238210   238302   238392   238474   238547   238620 
  238694   238761   238823   238881   238924   238948   238952   238937 
  238906   238864   238821   238778   238734   238690   238651   238615 
  238582   238549   238508   238459   238393   238302   238187   238048 
  237887   237710   237532   237361   237207   237082   236987   236922 
  236883   236858   236842   236831   236815   236788   236756   236717 
  236676   236638   236601   236557   236510   236460   236401   236340 
  236274   236197   236119   236044   235973   235909   235853   235804 
  235765   235732   235705   235689   235681   235678   235683   235684 
  235678   235676   235683   235699   235728   235776   235836   235901 
  235973   236043   236105   236159   236204   236250   236295   236347 
  236407   236474   236541   236615   236691   236761   236826   236885 
  236935   236974   236999   237015   237027   237037   237042   237047 
  237049   237046   237041   237030   237012   236991   236968   236938 
  236907   236873   236841   236812   236785   236760   236741   236730 
  236727   236727   236736   236753   236767   236773   236769   236744 
  236698   236633   236551   236459   236356   236237   236110   235981 
  235849   235722   235604   235496   235404   235333   235275   235236 
  235218   235221   235244   235290   235352   235426   235510   235597 
  235684   235757   235813   235853   235878   235889   235892   235896 
  235901   235904   235911   235924   235946   235971   235990   236001 
  235998   235978   235944   235908   235876   235849   235826   235809 
  235789   235766   235742   235712   235681   235654   235635   235620 
  235610   235608   235614   235627   235657   235700   235753   235815 
  235876   235936   236001   236070   236140   236210   236282   236352 
  236424   236501   236580   236657   236730   236795   236854   236896 
  236910   236900   236871   236821   236760   236696   236636   236588 
  236553   236533   236533   236549   236584   236638   236707   236784 
  236868   236947   237022   237088   237134   237155   237158   237149 
  237124   237088   237053   237027   237008   236995   236989   236989 
  236989   236991   236993   236999   237010   237030   237053   237077 
  237105   237130   237145   237155   237159   237153   237135   237111 
  237076   237033   236985   236933   236880   236829   236780   236737 
  236702   236675   236656   236640   236628   236621   236619   236618 
  236618   236623   236630   236634   236640   236660   236688   236719 
  236764   236822   236889   236968   237053   237153   237270   237405 
  237552   237712   237880   238053   238218   238357   238469   238550 
  238597   238616   238611   238584   238542   238492   238432   238369 
  238310   238253   238204   238172   238149   238129   238115   238107 
  238094   238076   238053   238021   237984   237941   237894   237848 
  237801   237749   237690   237620   237537   237442   237336   237235 
  237145   237065   237008   236979   236983   237019   237082   237172 
  237276   237379   237474   237558   237620   237663   237683   237679 
  237656   237610   237546   237467   237374   237274   237180   237092 
  237011   236939   236879   236822   236758   236692   236622   236549 
  236479   236416   236364   236325   236301   236294   236299   236314 
  236337   236360   236382   236402   236416   236417   236416   236402 
  236366   236313   236245   236162   236077   236004   235942   235893 
  235866   235853   235843   235838   235834   235824   235808   235793 
  235781   235773   235772   235773   235778   235795   235818   235846 
  235886   235936   235984   236028   236075   236120   236160   236200 
  236236   236267   236291   236306   236312   236305   236286   236255 
  236218   236179   236143   236113   236093   236082   236079   236089 
  236104   236127   236160   236200   236245   236308   236376   236444 
  236518   236594   236671   236753   236841   236929   237015   237097 
  237174   237243   237292   237316   237324   237308   237273   237232 
  237186   237138   237093   237050   237006   236972   236947   236922 
  236904   236893   236885   236877   236864   236838   236796   236740 
  236673   236607   236545   236491   236449   236424   236403   236390 
  236394   236401   236409   236424   236445   236470   236497   236530 
  236565   236596   236623   236644   236649   236648   236640   236629 
  236619   236614   236610   236618   236637   236665   236706   236758 
  236811   236866   236927   236987   237046   237103   237151   237192 
  237224   237239   237236   237216   237185   237150   237119   237095 
  237084   237081   237077   237074   237074   237072   237061   237042 
  237019   236996   236968   236933   236893   236857   236821   236783 
  236758   236741   236729   236740   236769   236810   236872   236954 
  237046   237147   237255   237359   237455   237544   237617   237678 
  237726   237766   237802   237837   237871   237902   237929   237959 
  237992   238023   238057   238088   238110   238134   238167   238202 
  238238   238279   238315   238347   238374   238391   238404   238418 
  238426   238435   238441   238441   238434   238422   238400   238365 
  238319   238260   238184   238095   238006   237925   237855   237797 
  237755   237722   237687   237652   237616   237573   237521   237469 
  237415   237359   237300   237242   237189   237138   237085   237035 
  236988   236937   236877   236812   236749   236692   236649   236618 
  236603   236609   236629   236652   236683   236718   236740   236748 
  236740   236707   236644   236556   236441   236298   236136   235959 
  235776   235599   235440   235306   235209   235148   235121   235128 
  235157   235203   235256   235306   235359   235414   235467   235525 
  235579   235623   235664   235688   235692   235687   235666   235629 
  235576   235514   235441   235359   235269   235176   235080   234993 
  234916   234847   234796   234765   234748   234744   234754   234770 
  234787   234805   234824   234848   234879   234924   234986   235063 
  235159   235275   235406   235549   235704   235859   236013   236163 
  236306   236441   236564   236673   236772   236860   236938   237015 
  237091   237163   237238   237307   237366   237423   237474   237517 
  237551   237578   237601   237625   237660   237701   237751   237816 
  237891   237978   238075   238176   238280   238377   238459   238526 
  238569   238586   238585   238569   238540   238501   238453   238405 
  238358   238314   238273   238230   238189   238154   238123   238095 
  238081   238079   238079   238075   238063   238038   237999   237951 
  237888   237813   237735   237659   237582   237512   237447   237375 
  237303   237232   237154   237070   236987   236902   236821   236745 
  236673   236606   236537   236466   236395   236333   236282   236243 
  236220   236216   236228   236250   236268   236279   236277   236263 
  236237   236201   236156   236115   236082   236054   236034   236034 
  236055   236094   236151   236224   236309   236403   236498   236587 
  236664   236725   236771   236806   236825   236834   236839   236842 
  236841   236841   236845   236849   236845   236837   236825   236800 
  236768   236729   236683   236638   236602   236578   236576   236599 
  236638   236688   236745   236795   236831   236856   236872   236887 
  236898   236911   236933   236954   236968   236977   236983   236984 
  236988   236997   237014   237038   237066   237097   237128   237158 
  237184   237203   237215   237222   237230   237240   237251   237269 
  237292   237309   237325   237346   237363   237379   237396   237413 
  237431   237447   237451   237450   237438   237404   237354   237290 
  237208   237108   236995   236862   236718   236568   236416   236268 
  236125   235988   235865   235758   235664   235589   235538   235502 
  235480   235476   235483   235495   235512   235531   235553   235583 
  235616   235661   235723   235799   235886   235981   236073   236163 
  236252   236339   236416   236484   236551   236611   236671   236727 
  236781   236829   236865   236887   236889   236881   236861   236833 
  236799   236764   236742   236740   236752   236781   236833   236895 
  236964   237039   237124   237223   237327   237431   237537   237644 
  237743   237830   237907   237964   238005   238027   238032   238026 
  238015   237994   237964   237930   237883   237817   237739   237647 
  237536   237409   237277   237141   236997   236854   236722   236596 
  236482   236380   236301   236245   236213   236204   236213   236232 
  236252   236274   236297   236326   236363   236407   236463   236525 
  236591   236663   236744   236833   236926   237023   237127   237230 
  237330   237427   237513   237594   237676   237749   237816   237887 
  237961   238032   238107   238181   238250   238319   238385   238445 
  238493   238534   238573   238616   238663   238719   238775   238832 
  238887   238932   238958   238960   238937   238890   238821   238728 
  238620   238508   238399   238293   238192   238098   238005   237913 
  237820   237724   237627   237535   237447   237373   237311   237253 
  237204   237162   237122   237089   237066   237049   237037   237022 
  236991   236938   236860   236750   236614   236451   236254   236032 
  235796   235545   235286   235032   234793   234577   234395   234243 
  234126   234044   233988   233960   233950   233955   233968   233984 
  233999   234017   234030   234041   234056   234075   234096   234122 
  234149   234171   234184   234192   234187   234168   234139   234104 
  234072   234046   234031   234029   234045   234083   234139   234215 
  234310   234419   234544   234679   234817   234962   235110   235257 
  235410   235570   235734   235897   236059   236220   236380   236540 
  236699   236853   237001   237136   237262   237379   237486   237581 
  237670   237749   237820   237883   237940   237986   238026   238064 
  238098   238134   238175   238215   238262   238319   238381   238449 
  238516   238577   238632   238680   238723   238766   238815   238871 
  238937   239017   239107   239206   239313   239423   239541   239661 
  239781   239896   240000   240088   240158   240204   240229   240235 
  240214   240170   240109   240028   239927   239814   239691   239572 
  239460   239352   239253   239161   239062   238958   238854   238740 
  238624   238512   238401   238295   238195   238104   238021   237951 
  237892   237853   237833   237825   237829   237847   237865   237882 
  237886   237870   237833   237779   237706   237617   237514   237405 
  237284   237147   237001   236852   236692   236533   236380   236240 
  236117   236015   235930   235858   235799   235749   235699   235653 
  235603   235549   235496   235441   235381   235325   235283   235257 
  235249   235261   235290   235327   235372   235408   235430   235444 
  235446   235438   235431   235425   235417   235419   235434   235461 
  235510   235580   235664   235759   235867   235985   236104   236221 
  236328   236417   236497   236568   236626   236673   236707   236723 
  236722   236709   236687   236665   236646   236633   236625   236623 
  236623   236617   236605   236588   236572   236553   236538   236530 
  236522   236517   236515   236521   236532   236552   236586   236629 
  236680   236740   236798   236849   236888   236911   236910   236888 
  236845   236787   236719   236644   236561   236482   236403   236333 
  236274   236231   236197   236173   236163   236167   236179   236208 
  236256   236314   236380   236455   236533   236610   236688   236764 
  236830   236887   236933   236965   236980   236977   236958   236925 
  236879   236823   236768   236715   236657   236598   236541   236487 
  236437   236394   236352   236313   236285   236266   236258   236263 
  236279   236309   236359   236426   236507   236606   236717   236830 
  236949   237073   237195   237313   237431   237550   237668   237782 
  237890   237990   238076   238148   238202   238239   238257   238257 
  238235   238198   238152   238100   238042   237984   237926   237867 
  237799   237721   237632   237540   237448   237361   237285   237232 
  237200   237180   237174   237177   237177   237170   237163   237157 
  237150   237149   237153   237163   237181   237200   237219   237235 
  237250   237265   237282   237301   237323   237348   237377   237408 
  237435   237458   237471   237471   237456   237431   237393   237346 
  237297   237249   237205   237169   237132   237103   237088   237077 
  237070   237082   237111   237147   237201   237271   237347   237421 
  237493   237554   237597   237620   237628   237617   237587   237544 
  237489   237432   237381   237336   237303   237280   237269   237270 
  237277   237282   237282   237277   237263   237242   237211   237176 
  237132   237089   237054   237026   237010   237010   237020   237039 
  237066   237097   237123   237138   237151   237162   237169   237174 
  237177   237180   237182   237182   237177   237173   237169   237165 
  237165   237168   237168   237168   237169   237168   237170   237177 
  237186   237196   237205   237212   237208   237189   237162   237127 
  237081   237027   236970   236914   236862   236823   236796   236781 
  236776   236775   236780   236790   236800   236811   236823   236835 
  236848   236858   236862   236862   236856   236838   236814   236780 
  236734   236676   236610   236530   236434   236336   236239   236143 
  236062   235996   235939   235896   235862   235824   235784   235741 
  235685   235623   235558   235491   235429   235373   235315   235256 
  235202   235147   235094   235044   234999   234963   234933   234906 
  234889   234882   234885   234897   234927   234968   235025   235101 
  235187   235280   235380   235484   235591   235700   235809   235917 
  236027   236142   236256   236364   236467   236564   236644   236710 
  236764   236808   236848   236876   236895   236914   236931   236935 
  236934   236927   236914   236906   236906   236911   236926   236950 
  236981   237024   237072   237122   237177   237243   237315   237389 
  237469   237550   237628   237697   237760   237816   237861   237897 
  237929   237960   237992   238026   238060   238096   238134   238162 
  238183   238202   238210   238202   238183   238149   238090   238006 
  237901   237775   237633   237475   237316   237161   237015   236887 
  236780   236692   236618   236563   236521   236483   236452   236433 
  236417   236401   236394   236393   236391   236393   236390   236380 
  236372   236353   236320   236285   236247   236206   236167   236128 
  236090   236054   236020   235994   235973   235951   235938   235935 
  235936   235943   235958   235981   236011   236048   236089   236132 
  236179   236220   236245   236254   236247   236232   236205   236160 
  236105   236039   235955   235861   235762   235657   235552   235450 
  235361   235287   235222   235168   235129   235099   235079   235067 
  235059   235057   235062   235059   235049   235029   234991   234939 
  234874   234796   234711   234627   234551   234481   234422   234382 
  234360   234355   234370   234404   234454   234516   234588   234665 
  234750   234839   234922   235005   235084   235153   235209   235248 
  235271   235278   235273   235265   235252   235246   235257   235284 
  235330   235396   235487   235595   235719   235862   236021   236198 
  236394   236601   236817   237043   237273   237504   237732   237952 
  238168   238370   238550   238712   238854   238972   239068   239141 
  239194   239236   239261   239272   239278   239276   239271   239264 
  239255   239248   239248   239251   239261   239287   239322   239363 
  239410   239460   239506   239549   239595   239637   239674   239708 
  239735   239761   239787   239801   239804   239792   239762   239710 
  239633   239535   239419   239280   239122   238950   238766   238572 
  238369   238164   237961   237767   237583   237412   237265   237136 
