Origin Time       2025/01/13 21:19:00
Lat.              31.8
Long.             131.6
Depth. (km)       30
Mag.              6.9
Station Code      SAGH02
Station Lat.      33.2656
Station Long.     129.8798
Station Height(m) -71.5
Record Time       2025/01/13 21:20:13
Sampling Freq(Hz) 100Hz
Duration Time(s)  167
Dir.              3
Scale Factor      3923(gal)/8224838
Max. Acc. (gal)   0.730
Last Correction   2025/01/13 21:20:14
Memo.             
[...]
   -8544    -8523    -8505    -8499    -8500    -8506    -8523    -8561 
   -8608    -8652    -8694    -8731    -8765    -8803    -8846    -8884 
   -8907    -8915    -8912    -8905    -8885    -8849    -8815    -8793 
   -8754    -8702    -8649    -8596    -8546    -8496    -8445    -8407 
   -8384    -8371    -8367    -8360    -8349    -8363    -8387    -8399 
   -8418    -8456    -8488    -8503    -8521    -8549    -8569    -8588 
   -8613    -8634    -8652    -8668    -8683    -8702    -8727    -8756 
   -8785    -8823    -8873    -8928    -8980    -9040    -9100    -9144 
   -9202    -9269    -9317    -9369    -9421    -9464    -9509    -9553 
   -9594    -9632    -9663    -9693    -9721    -9738    -9751    -9763 
   -9774    -9783    -9787    -9790    -9791    -9794    -9798    -9801 
   -9799    -9794    -9786    -9772    -9759    -9745    -9728    -9709 
   -9695    -9682    -9666    -9655    -9649    -9648    -9652    -9655 
   -9653    -9659    -9670    -9676    -9678    -9672    -9657    -9629 
   -9583    -9529    -9466    -9386    -9301    -9209    -9101    -8986 
   -8873    -8757    -8635    -8505    -8392    -8291    -8185    -8098 
   -8032    -7958    -7898    -7859    -7817    -7781    -7750    -7722 
   -7704    -7690    -7674    -7666    -7662    -7658    -7662    -7665 
   -7669    -7682    -7685    -7682    -7684    -7681    -7676    -7678 
   -7680    -7674    -7676    -7680    -7681    -7686    -7690    -7700 
   -7715    -7732    -7758    -7786    -7808    -7827    -7848    -7873 
   -7893    -7915    -7939    -7959    -7973    -7990    -8004    -8002 
   -7993    -7983    -7974    -7956    -7938    -7917    -7893    -7871 
   -7854    -7839    -7824    -7819    -7824    -7834    -7851    -7870 
   -7884    -7900    -7924    -7948    -7969    -7990    -8008    -8021 
   -8037    -8055    -8074    -8091    -8110    -8124    -8133    -8141 
   -8147    -8154    -8163    -8170    -8182    -8201    -8212    -8220 
   -8241    -8275    -8309    -8351    -8406    -8472    -8533    -8590 
   -8662    -8735    -8793    -8864    -8932    -8980    -9027    -9074 
   -9096    -9105    -9117    -9107    -9082    -9055    -9013    -8965 
   -8915    -8857    -8799    -8756    -8715    -8671    -8634    -8599 
   -8564    -8537    -8510    -8486    -8469    -8456    -8449    -8445 
   -8432    -8407    -8394    -8390    -8378    -8360    -8344    -8334 
   -8328    -8317    -8318    -8328    -8321    -8321    -8338    -8341 
   -8336    -8349    -8353    -8340    -8351    -8363    -8348    -8337 
   -8334    -8316    -8297    -8294    -8280    -8253    -8228    -8195 
   -8151    -8109    -8060    -8005    -7955    -7900    -7846    -7801 
   -7765    -7743    -7732    -7731    -7743    -7763    -7800    -7848 
   -7897    -7948    -8002    -8059    -8116    -8172    -8229    -8291 
   -8363    -8438    -8509    -8580    -8668    -8757    -8842    -8937 
   -9019    -9082    -9150    -9205    -9240    -9270    -9294    -9294 
   -9279    -9258    -9225    -9188    -9146    -9101    -9055    -9009 
   -8969    -8934    -8904    -8891    -8895    -8895    -8897    -8935 
   -8976    -8996    -9028    -9067    -9085    -9097    -9112    -9112 
   -9108    -9108    -9104    -9096    -9088    -9076    -9065    -9054 
   -9042    -9030    -9015    -8999    -8980    -8964    -8945    -8923 
   -8903    -8868    -8824    -8803    -8770    -8721    -8672    -8619 
   -8567    -8515    -8445    -8372    -8307    -8249    -8194    -8128 
   -8066    -8028    -7993    -7956    -7940    -7938    -7946    -7971 
   -8002    -8039    -8086    -8140    -8201    -8263    -8329    -8402 
   -8472    -8529    -8581    -8644    -8700    -8746    -8784    -8816 
   -8847    -8862    -8872    -8897    -8919    -8924    -8932    -8955 
   -8976    -8986    -9004    -9035    -9059    -9082    -9112    -9138 
   -9166    -9196    -9215    -9236    -9255    -9263    -9265    -9254 
   -9238    -9216    -9188    -9157    -9128    -9101    -9078    -9058 
   -9040    -9024    -9011    -9003    -8996    -8988    -8977    -8969 
   -8955    -8938    -8928    -8918    -8900    -8900    -8895    -8881 
   -8891    -8911    -8911    -8910    -8930    -8943    -8938    -8943 
   -8951    -8926    -8900    -8887    -8842    -8784    -8753    -8725 
   -8676    -8631    -8599    -8561    -8521    -8490    -8459    -8426 
   -8401    -8371    -8329    -8297    -8280    -8251    -8224    -8220 
   -8213    -8202    -8209    -8220    -8232    -8259    -8290    -8321 
   -8357    -8406    -8455    -8502    -8567    -8637    -8689    -8734 
   -8777    -8827    -8874    -8908    -8931    -8949    -8962    -8969 
   -8957    -8945    -8939    -8912    -8887    -8883    -8850    -8803 
   -8779    -8750    -8703    -8664    -8627    -8583    -8542    -8507 
   -8473    -8441    -8405    -8367    -8325    -8268    -8209    -8159 
   -8095    -8027    -7969    -7904    -7843    -7794    -7751    -7716 
   -7686    -7658    -7632    -7597    -7561    -7531    -7500    -7468 
   -7437    -7410    -7377    -7345    -7319    -7298    -7283    -7279 
   -7280    -7292    -7319    -7356    -7403    -7460    -7526    -7597 
   -7670    -7739    -7805    -7874    -7939    -8000    -8055    -8106 
   -8155    -8197    -8230    -8263    -8289    -8316    -8344    -8365 
   -8390    -8418    -8432    -8451    -8483    -8499    -8495    -8499 
   -8513    -8514    -8513    -8529    -8534    -8518    -8510    -8511 
   -8513    -8511    -8507    -8517    -8533    -8523    -8503    -8496 
   -8494    -8490    -8496    -8517    -8538    -8546    -8561    -8590 
   -8611    -8629    -8650    -8667    -8673    -8673    -8668    -8654 
   -8633    -8602    -8560    -8517    -8472    -8418    -8367    -8324 
   -8276    -8229    -8205    -8183    -8152    -8139    -8129    -8113 
   -8109    -8109    -8106    -8106    -8108    -8113    -8121    -8139 
   -8167    -8198    -8232    -8270    -8303    -8337    -8367    -8392 
   -8419    -8430    -8437    -8456    -8461    -8449    -8437    -8433 
   -8437    -8437    -8424    -8403    -8395    -8395    -8374    -8337 
   -8309    -8286    -8252    -8210    -8176    -8139    -8095    -8067 
   -8036    -8001    -7981    -7966    -7959    -7971    -7990    -8012 
   -8046    -8079    -8110    -8147    -8183    -8216    -8244    -8274 
   -8302    -8325    -8348    -8364    -8365    -8379    -8401    -8401 
   -8409    -8437    -8445    -8436    -8434    -8449    -8464    -8469 
   -8475    -8495    -8530    -8568    -8618    -8675    -8723    -8776 
   -8847    -8923    -8986    -9049    -9112    -9171    -9227    -9271 
   -9310    -9344    -9370    -9391    -9410    -9421    -9425    -9423 
   -9421    -9412    -9400    -9390    -9377    -9362    -9348    -9336 
   -9329    -9327    -9324    -9317    -9308    -9294    -9281    -9267 
   -9251    -9232    -9209    -9184    -9161    -9132    -9103    -9078 
   -9049    -9015    -8986    -8953    -8905    -8858    -8822    -8775 
   -8715    -8679    -8657    -8627    -8604    -8591    -8571    -8553 
   -8548    -8541    -8521    -8486    -8441    -8395    -8347    -8294 
   -8239    -8178    -8121    -8071    -8020    -7975    -7938    -7898 
   -7865    -7832    -7796    -7761    -7726    -7689    -7653    -7615 
   -7581    -7558    -7542    -7534    -7539    -7554    -7573    -7601 
   -7631    -7663    -7709    -7765    -7824    -7896    -7978    -8068 
   -8164    -8266    -8375    -8494    -8617    -8731    -8835    -8942 
   -9051    -9159    -9262    -9347    -9429    -9510    -9574    -9629 
   -9679    -9715    -9742    -9757    -9763    -9761    -9749    -9726 
   -9694    -9649    -9598    -9547    -9490    -9432    -9381    -9329 
   -9278    -9231    -9186    -9139    -9092    -9043    -8988    -8927 
   -8861    -8803    -8756    -8704    -8652    -8613    -8581    -8550 
   -8517    -8480    -8452    -8426    -8402    -8388    -8375    -8345 
   -8328    -8330    -8320    -8298    -8299    -8299    -8282    -8276 
   -8275    -8255    -8244    -8233    -8203    -8176    -8149    -8118 
   -8095    -8064    -8027    -8002    -7979    -7962    -7952    -7948 
   -7952    -7956    -7959    -7956    -7954    -7947    -7931    -7912 
   -7890    -7867    -7843    -7816    -7786    -7753    -7724    -7701 
   -7680    -7659    -7645    -7626    -7604    -7589    -7573    -7561 
   -7551    -7537    -7523    -7515    -7503    -7487    -7476    -7468 
   -7462    -7465    -7470    -7481    -7499    -7514    -7534    -7558 
   -7581    -7609    -7645    -7677    -7709    -7749    -7789    -7824 
   -7861    -7905    -7958    -8016    -8077    -8141    -8218    -8302 
   -8384    -8473    -8567    -8648    -8722    -8804    -8883    -8950 
   -9034    -9121    -9190    -9259    -9336    -9398    -9451    -9504 
   -9543    -9570    -9590    -9598    -9598    -9601    -9597    -9589 
   -9576    -9552    -9522    -9487    -9444    -9396    -9343    -9288 
   -9232    -9173    -9115    -9066    -9019    -8976    -8943    -8912 
   -8888    -8884    -8868    -8853    -8868    -8881    -8881    -8901 
   -8939    -8974    -8999    -9031    -9077    -9105    -9123    -9144 
   -9151    -9144    -9139    -9127    -9113    -9105    -9101    -9101 
   -9096    -9089    -9085    -9081    -9076    -9063    -9046    -9019 
   -8988    -8953    -8901    -8835    -8775    -8719    -8649    -8573 
   -8499    -8413    -8328    -8251    -8168    -8090    -8016    -7947 
   -7886    -7830    -7778    -7738    -7703    -7670    -7645    -7623 
   -7604    -7587    -7573    -7561    -7551    -7546    -7546    -7551 
   -7560    -7568    -7573    -7581    -7591    -7599    -7607    -7618 
   -7628    -7641    -7654    -7668    -7682    -7703    -7724    -7736 
   -7753    -7776    -7796    -7815    -7832    -7844    -7858    -7873 
   -7882    -7892    -7905    -7916    -7931    -7958    -7987    -8013 
   -8041    -8064    -8077    -8097    -8117    -8131    -8147    -8159 
   -8160    -8163    -8164    -8155    -8144    -8135    -8128    -8125 
   -8127    -8136    -8158    -8183    -8220    -8270    -8326    -8386 
   -8463    -8552    -8633    -8710    -8803    -8883    -8947    -9028 
   -9107    -9158    -9205    -9252    -9278    -9294    -9312    -9315 
   -9308    -9296    -9275    -9248    -9217    -9186    -9161    -9132 
   -9109    -9093    -9078    -9066    -9058    -9049    -9039    -9032 
   -9023    -9005    -8989    -8969    -8939    -8914    -8876    -8823 
   -8789    -8754    -8700    -8657    -8614    -8569    -8537    -8499 
   -8455    -8424    -8397    -8372    -8355    -8334    -8310    -8299 
   -8284    -8253    -8236    -8221    -8190    -8172    -8156    -8124 
   -8100    -8074    -8036    -8004    -7974    -7942    -7915    -7894 
   -7879    -7866    -7861    -7858    -7851    -7851    -7867    -7882 
   -7889    -7897    -7906    -7909    -7911    -7921    -7942    -7963 
   -7992    -8033    -8078    -8124    -8171    -8221    -8271    -8325 
   -8380    -8426    -8472    -8540    -8606    -8653    -8699    -8745 
   -8781    -8823    -8873    -8918    -8947    -8966    -8991    -9018 
   -9031    -9042    -9065    -9081    -9094    -9119    -9140    -9162 
   -9185    -9204    -9225    -9244    -9254    -9265    -9277    -9282 
   -9288    -9293    -9296    -9298    -9300    -9304    -9315    -9332 
   -9351    -9370    -9389    -9405    -9418    -9432    -9440    -9436 
   -9425    -9405    -9375    -9336    -9290    -9243    -9198    -9150 
   -9097    -9050    -9011    -8973    -8942    -8918    -8889    -8870 
   -8870    -8858    -8845    -8856    -8874    -8880    -8881    -8885 
   -8897    -8897    -8883    -8870    -8864    -8837    -8791    -8753 
   -8723    -8680    -8621    -8565    -8509    -8445    -8382    -8325 
   -8271    -8214    -8166    -8125    -8082    -8041    -8010    -7978 
   -7958    -7954    -7947    -7948    -7956    -7965    -7974    -7981 
   -7979    -7977    -7973    -7959    -7935    -7915    -7890    -7859 
   -7834    -7816    -7807    -7807    -7808    -7817    -7838    -7859 
   -7882    -7906    -7927    -7946    -7960    -7971    -7979    -7981 
   -7983    -7987    -7992    -7998    -8009    -8019    -8028    -8037 
   -8039    -8033    -8031    -8024    -8012    -8002    -7996    -7986 
   -7987    -7997    -8004    -8019    -8047    -8082    -8121    -8166 
   -8214    -8263    -8306    -8344    -8376    -8397    -8409    -8422 
   -8417    -8398    -8390    -8379    -8347    -8307    -8278    -8252 
   -8210    -8167    -8137    -8105    -8067    -8036    -8005    -7977 
   -7958    -7936    -7919    -7902    -7888    -7877    -7867    -7851 
   -7836    -7823    -7809    -7796    -7784    -7774    -7763    -7749 
   -7734    -7720    -7703    -7684    -7668    -7649    -7632    -7622 
   -7619    -7620    -7630    -7646    -7665    -7686    -7715    -7747 
   -7782    -7819    -7857    -7904    -7954    -8000    -8051    -8104 
   -8155    -8208    -8260    -8313    -8365    -8414    -8453    -8500 
   -8565    -8625    -8662    -8704    -8750    -8795    -8849    -8916 
   -8980    -9032    -9089    -9150    -9201    -9248    -9298    -9339 
   -9371    -9400    -9420    -9433    -9443    -9450    -9450    -9448 
   -9451    -9450    -9444    -9439    -9433    -9429    -9424    -9414 
   -9410    -9405    -9397    -9396    -9396    -9389    -9387    -9396 
   -9408    -9418    -9435    -9460    -9495    -9533    -9576    -9621 
   -9668    -9721    -9772    -9821    -9867    -9911    -9950    -9979 
  -10003   -10023   -10034   -10042   -10046   -10045   -10034   -10015 
   -9987    -9952    -9906    -9849    -9784    -9707    -9621    -9531 
   -9435    -9333    -9228    -9117    -9004    -8893    -8783    -8661 
   -8550    -8465    -8379    -8282    -8191    -8117    -8051    -7981 
   -7923    -7879    -7827    -7773    -7734    -7697    -7659    -7622 
   -7585    -7553    -7520    -7489    -7462    -7438    -7415    -7398 
   -7389    -7384    -7391    -7406    -7422    -7443    -7474    -7507 
   -7535    -7564    -7595    -7620    -7636    -7654    -7668    -7672 
   -7673    -7672    -7658    -7638    -7616    -7592    -7564    -7533 
   -7500    -7466    -7435    -7411    -7393    -7389    -7396    -7415 
   -7450    -7489    -7527    -7572    -7618    -7670    -7723    -7767 
   -7813    -7861    -7897    -7938    -7981    -8013    -8046    -8091 
   -8135    -8182    -8232    -8280    -8333    -8387    -8441    -8506 
   -8563    -8604    -8664    -8727    -8781    -8837    -8880    -8914 
   -8961    -9004    -9024    -9054    -9094    -9117    -9140    -9175 
   -9204    -9236    -9277    -9321    -9377    -9432    -9487    -9547 
   -9603    -9656    -9707    -9748    -9783    -9815    -9838    -9853 
   -9861    -9860    -9853    -9842    -9825    -9803    -9778    -9745 
   -9711    -9687    -9666    -9647    -9636    -9632    -9633    -9640 
   -9649    -9667    -9688    -9709    -9730    -9759    -9791    -9819 
   -9841    -9861    -9876    -9883    -9887    -9884    -9875    -9867 
   -9856    -9836    -9815    -9795    -9774    -9756    -9745    -9738 
   -9734    -9738    -9751    -9761    -9768    -9772    -9778    -9780 
   -9774    -9759    -9742    -9720    -9686    -9647    -9601    -9547 
   -9485    -9418    -9347    -9273    -9196    -9108    -9019    -8932 
   -8842    -8741    -8630    -8532    -8446    -8347    -8235    -8129 
   -8032    -7936    -7835    -7739    -7655    -7569    -7487    -7416 
   -7356    -7304    -7267    -7244    -7230    -7222    -7229    -7248 
   -7276    -7311    -7346    -7385    -7430    -7479    -7535    -7592 
   -7641    -7689    -7747    -7798    -7844    -7894    -7929    -7955 
   -7983    -7998    -7994    -7986    -7967    -7939    -7906    -7870 
   -7831    -7797    -7763    -7730    -7704    -7685    -7668    -7651 
   -7647    -7651    -7658    -7670    -7688    -7701    -7711    -7726 
   -7739    -7746    -7754    -7765    -7771    -7782    -7797    -7813 
   -7830    -7851    -7884    -7920    -7963    -8013    -8068    -8133 
   -8199    -8264    -8334    -8405    -8471    -8533    -8595    -8668 
   -8737    -8806    -8880    -8950    -9016    -9084    -9150    -9208 
   -9259    -9316    -9364    -9405    -9451    -9489    -9518    -9548 
   -9571    -9591    -9610    -9628    -9645    -9655    -9659    -9657 
   -9651    -9634    -9614    -9595    -9570    -9543    -9518    -9494 
   -9468    -9447    -9427    -9402    -9379    -9359    -9336    -9317 
   -9302    -9282    -9262    -9247    -9236    -9223    -9209    -9200 
   -9192    -9181    -9167    -9155    -9139    -9120    -9103    -9082 
   -9059    -9039    -9018    -8992    -8964    -8932    -8900    -8865 
   -8816    -8772    -8739    -8692    -8642    -8603    -8548    -8491 
   -8438    -8378    -8321    -8266    -8199    -8136    -8086    -8033 
   -7977    -7928    -7878    -7825    -7778    -7736    -7700    -7666 
   -7631    -7603    -7573    -7545    -7524    -7510    -7497    -7489 
   -7488    -7493    -7506    -7520    -7537    -7557    -7576    -7592 
   -7611    -7631    -7646    -7654    -7658    -7654    -7647    -7638 
   -7618    -7596    -7577    -7553    -7531    -7512    -7497    -7488 
   -7484    -7485    -7495    -7507    -7522    -7539    -7555    -7570 
   -7585    -7601    -7623    -7646    -7670    -7701    -7746    -7796 
   -7852    -7921    -7998    -8075    -8158    -8249    -8343    -8442 
   -8540    -8623    -8704    -8791    -8868    -8935    -8999    -9061 
   -9128    -9182    -9228    -9283    -9329    -9369    -9412    -9439 
   -9456    -9471    -9472    -9466    -9452    -9432    -9409    -9378 
   -9342    -9306    -9267    -9221    -9177    -9131    -9081    -9031 
   -8981    -8928    -8873    -8823    -8787    -8749    -8703    -8662 
   -8623    -8583    -8556    -8529    -8492    -8463    -8442    -8424 
   -8409    -8401    -8383    -8360    -8351    -8343    -8317    -8294 
   -8284    -8262    -8225    -8206    -8186    -8145    -8117    -8094 
   -8059    -8033    -8013    -7992    -7979    -7973    -7973    -7982 
   -8000    -8023    -8051    -8085    -8121    -8156    -8194    -8236 
   -8280    -8326    -8375    -8429    -8475    -8509    -8552    -8602 
   -8645    -8683    -8711    -8735    -8775    -8808    -8831    -8856 
   -8873    -8883    -8908    -8939    -8951    -8968    -9001    -9027 
   -9046    -9078    -9111    -9136    -9174    -9213    -9247    -9288 
   -9327    -9364    -9405    -9440    -9474    -9505    -9535    -9567 
   -9593    -9610    -9624    -9634    -9641    -9636    -9621    -9602 
   -9570    -9529    -9487    -9443    -9391    -9339    -9285    -9234 
   -9186    -9139    -9092    -9046    -9000    -8961    -8920    -8880 
   -8841    -8792    -8748    -8722    -8683    -8627    -8584    -8540 
   -8487    -8438    -8397    -8359    -8305    -8243    -8199    -8160 
   -8106    -8059    -8017    -7977    -7942    -7911    -7881    -7854 
   -7830    -7808    -7792    -7786    -7781    -7774    -7778    -7790 
   -7803    -7823    -7847    -7869    -7892    -7921    -7944    -7963 
   -7986    -8005    -8019    -8032    -8047    -8060    -8077    -8094 
   -8113    -8136    -8163    -8195    -8229    -8267    -8306    -8345 
   -8383    -8426    -8478    -8511    -8538    -8580    -8611    -8638 
   -8680    -8711    -8733    -8760    -8781    -8793    -8804    -8804 
