Origin Time       2025/01/13 21:19:00
Lat.              31.8
Long.             131.6
Depth. (km)       30
Mag.              6.9
Station Code      SAGH04
Station Lat.      33.3654
Station Long.     130.4046
Station Height(m) 55
Record Time       2025/01/13 21:20:04
Sampling Freq(Hz) 100Hz
Duration Time(s)  132
Dir.              6
Scale Factor      7845(gal)/8223790
Max. Acc. (gal)   1.255
Last Correction   2025/01/13 21:20:04
Memo.             
[...]
    4617     4581     4612     4712     4853     4976     5023     4969 
    4847     4746     4745     4839     4970     5105     5236     5323 
    5329     5282     5247     5256     5293     5320     5316     5252 
    5127     5003     4946     4955     4963     4926     4884     4903 
    4978     5059     5143     5250     5340     5340     5242     5116 
    5020     4951     4919     4938     4984     5008     4985     4953 
    4945     4951     4958     4969     4990     5022     5046     5062 
    5080     5090     5076     5051     5050     5082     5124     5140 
    5142     5146     5138     5080     4963     4815     4664     4531 
    4449     4441     4502     4627     4797     4950     5027     5036 
    5038     5081     5157     5233     5304     5359     5390     5381 
    5316     5208     5123     5135     5242     5370     5440     5408 
    5301     5189     5131     5159     5248     5312     5277     5147 
    4985     4887     4909     5001     5071     5063     4949     4754 
    4596     4577     4681     4835     4974     5040     5035     5012 
    4997     5015     5077     5151     5196     5208     5213     5201 
    5152     5073     4982     4930     4961     5053     5120     5113 
    5053     4976     4928     4915     4900     4870     4834     4823 
    4889     5017     5120     5134     5088     5028     4959     4923 
    4988     5119     5198     5169     5047     4903     4823     4850 
    4966     5117     5225     5240     5171     5076     5000     4969 
    4972     4966     4915     4830     4768     4769     4808     4851 
    4878     4895     4914     4934     4935     4911     4901     4931 
    4973     4988     4972     4938     4918     4926     4963     5023 
    5074     5093     5094     5104     5125     5138     5121     5090 
    5066     5047     5015     4969     4936     4942     4963     4978 
    4966     4922     4873     4876     4953     5082     5204     5263 
    5267     5250     5193     5098     5022     4990     4981     4970 
    4970     4972     4959     4938     4924     4935     4946     4926 
    4899     4884     4872     4849     4845     4920     5058     5170 
    5227     5238     5197     5121     5074     5096     5170     5265 
    5328     5306     5216     5131     5100     5098     5084     5055 
    5030     4995     4919     4820     4764     4787     4861     4916 
    4915     4870     4792     4692     4626     4626     4679     4756 
    4828     4861     4818     4725     4684     4749     4877     5003 
    5086     5112     5093     5073     5082     5124     5190     5266 
    5324     5358     5377     5364     5304     5220     5155     5143 
    5196     5281     5348     5346     5270     5186     5147     5143 
    5152     5163     5142     5070     4977     4899     4868     4872 
    4862     4839     4850     4880     4881     4862     4866     4889 
    4907     4923     4936     4949     4977     5036     5119     5194 
    5229     5206     5135     5039     4935     4837     4766     4737 
    4752     4808     4866     4880     4854     4828     4854     4943 
    5043     5108     5135     5134     5123     5130     5175     5252 
    5335     5385     5381     5329     5242     5150     5103     5097 
    5081     5031     4965     4907     4881     4897     4932     4963 
    4962     4916     4861     4823     4789     4764     4764     4784 
    4828     4914     5016     5103     5158     5186     5190     5159 
    5109     5080     5063     5039     5017     5013     5013     4990 
    4936     4857     4779     4738     4739     4776     4812     4796 
    4752     4738     4768     4820     4912     5044     5154     5198 
    5179     5131     5078     5028     4997     4990     4984     4978 
    5016     5105     5206     5285     5316     5269     5136     4958 
    4800     4727     4757     4851     4949     4988     4953     4891 
    4874     4928     5026     5119     5158     5132     5078     5027 
    5007     5022     5046     5050     5034     5005     4966     4927 
    4887     4846     4819     4808     4811     4830     4849     4858 
    4855     4843     4831     4835     4843     4827     4783     4743 
    4735     4780     4891     5027     5111     5094     4989     4853 
    4743     4687     4693     4762     4861     4958     5040     5082 
    5069     5020     4959     4912     4909     4961     5043     5123 
    5171     5182     5177     5174     5163     5136     5098     5055 
    5013     5001     5030     5082     5136     5167     5170     5161 
    5138     5088     5013     4943     4903     4893     4911     4932 
    4947     4966     4978     4978     4968     4950     4938     4922 
    4888     4837     4780     4738     4727     4727     4692     4626 
    4603     4664     4787     4924     5032     5100     5135     5142 
    5140     5134     5097     5044     5024     5039     5067     5109 
    5161     5192     5175     5142     5120     5096     5055     5020 
    5013     5034     5051     5054     5051     5046     5035     5028 
    5049     5092     5124     5144     5175     5197     5197     5175 
    5142     5117     5113     5115     5105     5094     5086     5078 
    5086     5096     5071     5027     5000     5000     5026     5062 
    5076     5012     4865     4704     4607     4592     4649     4734 
    4789     4792     4772     4742     4708     4706     4760     4864 
    4978     5044     5034     4977     4935     4949     5009     5086 
    5155     5192     5193     5188     5197     5201     5182     5159 
    5162     5171     5173     5193     5236     5283     5306     5293 
    5251     5196     5152     5140     5134     5093     5034     4997 
    4990     5011     5059     5101     5084     5026     4970     4938 
    4947     5000     5070     5139     5193     5212     5197     5158 
    5097     5026     4968     4947     4966     5007     5053     5105 
    5150     5179     5196     5185     5150     5097     5011     4899 
    4812     4776     4780     4806     4835     4869     4900     4922 
    4920     4895     4858     4828     4824     4858     4909     4969 
    5011     5007     4969     4922     4868     4828     4815     4796 
    4743     4664     4579     4523     4531     4604     4702     4764 
    4762     4727     4720     4787     4919     5073     5200     5275 
    5305     5320     5339     5352     5356     5351     5336     5308 
    5265     5229     5209     5177     5120     5054     4999     4957 
    4912     4857     4808     4781     4783     4823     4889     4935 
    4939     4920     4899     4895     4914     4934     4939     4946 
    4977     5032     5104     5162     5175     5138     5071     5016 
    5009     5062     5136     5197     5213     5167     5096     5054 
    5053     5093     5158     5206     5209     5167     5104     5049 
    5017     5008     5005     4984     4936     4892     4884     4922 
    4984     5069     5174     5271     5327     5327     5277     5200 
    5138     5105     5081     5054     5031     5026     5055     5109 
    5161     5171     5135     5077     5023     4980     4965     4993 
    5035     5050     5022     4953     4858     4770     4726     4731 
    4756     4772     4784     4785     4779     4785     4803     4795 
    4762     4727     4700     4693     4711     4718     4710     4704 
    4708     4726     4760     4783     4781     4766     4743     4730 
    4745     4781     4831     4899     4961     4982     4962     4922 
    4881     4877     4927     4995     5036     5044     5032     5034 
    5073     5112     5109     5065     5000     4935     4896     4901 
    4945     4997     5039     5063     5069     5051     5019     4992 
    4984     5001     5036     5071     5112     5155     5171     5140 
    5074     4996     4927     4909     4949     4988     4995     4992 
    4985     4963     4943     4931     4920     4918     4920     4936 
    4972     5020     5054     5047     5011     4977     4965     4973 
    4986     4978     4920     4820     4725     4661     4627     4625 
    4638     4634     4603     4558     4519     4519     4563     4629 
    4700     4765     4793     4779     4770     4808     4868     4911 
    4919     4897     4868     4855     4882     4968     5097     5223 
    5314     5368     5398     5428     5472     5522     5566     5574 
    5535     5462     5383     5319     5286     5293     5319     5343 
    5354     5327     5260     5177     5111     5100     5135     5167 
    5177     5161     5117     5054     4985     4928     4897     4904 
    4931     4945     4945     4946     4941     4934     4950     4985 
    5011     5004     4957     4892     4851     4851     4873     4900 
    4918     4923     4938     4986     5061     5131     5175     5179 
    5132     5053     4988     4950     4919     4873     4812     4749 
    4700     4684     4711     4741     4718     4634     4534     4464 
    4460     4530     4649     4768     4849     4895     4939     5003 
    5074     5134     5165     5165     5158     5165     5193     5223 
    5220     5179     5115     5050     4996     4962     4950     4962 
    4985     5019     5057     5078     5093     5117     5162     5232 
    5301     5350     5386     5404     5394     5362     5314     5270 
    5256     5275     5304     5324     5325     5297     5265     5254 
    5258     5243     5204     5161     5127     5096     5070     5062 
    5073     5074     5049     5009     4988     4988     4993     5004 
    5034     5070     5097     5103     5082     5057     5036     5013 
    4988     4970     4976     4996     5005     4999     4993     5004 
    5036     5089     5138     5142     5108     5069     5019     4973 
    4968     5004     5062     5132     5200     5247     5266     5256 
    5231     5205     5174     5132     5092     5057     5012     4947 
    4880     4833     4822     4834     4835     4816     4780     4727 
    4693     4689     4679     4633     4557     4469     4390     4347 
    4363     4428     4490     4506     4475     4422     4388     4407 
    4476     4567     4635     4660     4656     4654     4675     4714 
    4762     4811     4855     4897     4947     5022     5103     5157 
    5166     5135     5088     5053     5057     5094     5142     5173 
    5179     5170     5157     5138     5115     5081     5047     5049 
    5078     5097     5098     5094     5094     5127     5186     5239 
    5273     5274     5232     5167     5104     5054     5031     5040 
    5078     5117     5128     5104     5074     5078     5115     5158 
    5194     5212     5198     5169     5151     5146     5142     5136 
    5119     5084     5046     5008     4974     4962     4955     4934 
    4915     4912     4919     4919     4904     4888     4882     4889 
    4918     4966     4999     4997     4981     4946     4885     4824 
    4784     4776     4811     4877     4936     4981     5031     5084 
    5135     5188     5231     5248     5243     5229     5219     5215 
    5206     5173     5109     5023     4935     4866     4827     4803 
    4764     4706     4644     4602     4600     4645     4726     4816 
    4887     4930     4947     4945     4951     4976     4986     4968 
    4931     4897     4885     4896     4914     4926     4935     4945 
    4942     4939     4938     4923     4895     4878     4891     4924 
    4957     4974     4985     5003     5022     5023     5023     5034 
    5036     5038     5057     5078     5084     5077     5078     5090 
    5108     5147     5216     5302     5395     5483     5544     5562 
    5547     5520     5495     5485     5494     5518     5548     5557 
    5526     5462     5383     5320     5283     5260     5235     5200 
    5157     5100     5028     4955     4897     4845     4787     4745 
    4727     4718     4723     4750     4772     4772     4762     4753 
    4752     4768     4796     4823     4861     4918     4977     5020 
    5053     5085     5123     5157     5171     5166     5148     5123 
    5089     5061     5058     5078     5121     5185     5259     5324 
    5362     5377     5389     5397     5390     5368     5341     5309 
    5278     5254     5220     5184     5161     5146     5134     5109 
    5047     4966     4911     4905     4942     5003     5063     5103 
    5117     5119     5123     5138     5162     5194     5227     5255 
    5273     5282     5286     5286     5296     5317     5348     5389 
    5427     5428     5398     5355     5296     5229     5173     5131 
    5101     5080     5059     5040     5028     5022     5015     5005 
    4980     4942     4920     4936     4974     5000     4989     4962 
    4943     4949     4982     5034     5078     5103     5111     5100 
    5078     5070     5085     5108     5130     5127     5085     5030 
    4981     4945     4928     4932     4936     4922     4891     4861 
    4843     4842     4861     4903     4966     5040     5127     5225 
    5314     5381     5420     5425     5386     5317     5254     5215 
    5205     5212     5228     5248     5256     5240     5192     5103 
    5004     4927     4877     4851     4834     4811     4797     4807 
    4838     4893     4959     4999     4966     4874     4756     4631 
    4542     4507     4482     4441     4399     4356     4298     4212 
    4108     4005     3916     3858     3835     3829     3834     3825 
    3794     3755     3721     3693     3689     3736     3815     3888 
    3954     4017     4056     4058     4040     4031     4048     4086 
    4120     4153     4205     4256     4286     4305     4329     4368 
    4425     4506     4596     4668     4722     4768     4810     4858 
    4922     4993     5066     5138     5197     5247     5296     5339 
    5355     5339     5300     5243     5192     5169     5162     5161 
    5159     5139     5104     5080     5059     5035     5013     5012 
    5034     5070     5119     5175     5233     5290     5341     5382 
    5421     5444     5439     5436     5460     5503     5560     5621 
    5674     5711     5728     5730     5733     5740     5742     5722 
    5688     5657     5632     5617     5628     5645     5638     5603 
    5553     5512     5475     5428     5371     5313     5269     5242 
    5232     5239     5247     5242     5223     5185     5132     5094 
    5084     5074     5051     5023     5003     4989     4974     4959 
    4949     4932     4903     4861     4816     4772     4730     4688 
    4639     4594     4540     4476     4438     4436     4449     4476 
    4510     4531     4546     4552     4552     4577     4626     4676 
    4739     4824     4912     4993     5071     5147     5213     5266 
    5309     5358     5418     5478     5522     5545     5559     5572 
    5589     5609     5618     5605     5583     5567     5555     5543 
    5522     5501     5486     5467     5448     5431     5406     5377 
    5335     5275     5209     5150     5103     5078     5070     5066 
    5065     5076     5107     5150     5189     5223     5250     5259 
    5248     5217     5173     5130     5098     5081     5076     5082 
    5085     5081     5070     5046     5000     4939     4893     4878 
    4889     4919     4955     4977     4966     4923     4854     4785 
    4738     4718     4715     4714     4698     4673     4645     4604 
    4557     4517     4473     4429     4392     4356     4332     4334 
    4360     4399     4444     4490     4533     4571     4604     4637 
    4676     4726     4781     4837     4900     4970     5027     5065 
    5094     5111     5119     5134     5151     5177     5209     5240 
    5273     5292     5292     5282     5259     5235     5221     5205 
    5181     5159     5132     5086     5044     5019     4997     4976 
    4961     4950     4938     4930     4916     4897     4905     4938 
    4970     5008     5053     5089     5113     5134     5159     5197 
    5247     5290     5319     5335     5333     5312     5279     5232 
    5167     5103     5059     5040     5040     5049     5054     5050 
    5044     5049     5061     5081     5112     5140     5152     5159 
    5170     5188     5213     5238     5242     5225     5198     5159 
    5103     5044     4995     4946     4914     4901     4892     4884 
    4882     4874     4865     4858     4831     4779     4729     4689 
    4677     4711     4773     4846     4916     4958     4973     4985 
    4993     4988     4989     5004     5016     5023     5039     5046 
    5028     5005     4985     4961     4939     4918     4880     4822 
    4754     4685     4617     4563     4529     4495     4459     4438 
    4430     4421     4415     4421     4426     4425     4432     4446 
    4465     4496     4527     4530     4507     4487     4480     4477 
    4477     4482     4484     4488     4491     4492     4490     4479 
    4463     4464     4503     4569     4644     4714     4766     4791 
    4808     4835     4858     4860     4853     4846     4841     4850 
    4887     4951     5030     5096     5140     5163     5157     5135 
    5131     5155     5206     5283     5362     5410     5429     5429 
    5418     5402     5398     5410     5428     5436     5422     5390 
    5363     5362     5377     5387     5383     5360     5328     5305 
    5297     5302     5327     5359     5385     5393     5385     5366 
    5341     5313     5287     5275     5279     5282     5283     5279 
    5258     5216     5166     5124     5101     5096     5109     5139 
    5166     5173     5175     5192     5219     5259     5312     5363 
    5390     5381     5359     5347     5336     5329     5339     5362 
    5382     5386     5371     5341     5305     5270     5244     5216 
    5177     5139     5105     5066     5026     4986     4951     4922 
    4897     4885     4893     4922     4965     5016     5062     5094 
    5119     5148     5188     5239     5302     5363     5409     5447 
    5472     5489     5520     5560     5576     5568     5541     5487 
    5428     5387     5362     5329     5285     5221     5139     5055 
    4985     4908     4822     4747     4684     4619     4564     4517 
    4457     4399     4361     4342     4332     4340     4353     4351 
    4351     4365     4387     4411     4430     4445     4468     4495 
    4518     4546     4577     4606     4633     4648     4642     4627 
    4607     4588     4581     4599     4633     4685     4749     4800 
    4833     4857     4882     4897     4903     4918     4924     4905 
    4880     4866     4874     4903     4939     4970     4995     5016 
    5032     5054     5094     5148     5202     5243     5269     5290 
    5317     5356     5404     5456     5508     5540     5553     5566 
    5571     5566     5552     5521     5479     5437     5379     5310 
    5256     5224     5198     5169     5135     5093     5049     5009 
    4966     4911     4851     4796     4731     4666     4619     4585 
    4571     4580     4617     4673     4739     4806     4860     4904 
    4955     5016     5093     5190     5302     5414     5518     5611 
    5694     5765     5822     5854     5868     5860     5822     5767 
    5705     5647     5594     5541     5486     5427     5359     5292 
