Origin Time       2025/01/13 21:19:00
Lat.              31.8
Long.             131.6
Depth. (km)       30
Mag.              6.9
Station Code      SAGH04
Station Lat.      33.3654
Station Long.     130.4046
Station Height(m) -145
Record Time       2025/01/13 21:20:04
Sampling Freq(Hz) 100Hz
Duration Time(s)  132
Dir.              1
Scale Factor      3923(gal)/8224838
Max. Acc. (gal)   0.823
Last Correction   2025/01/13 21:20:04
Memo.             
[...]
   50210    50240    50272    50303    50322    50325    50313    50294 
   50280    50272    50261    50260    50275    50294    50315    50337 
   50357    50380    50406    50431    50449    50448    50427    50403 
   50386    50372    50348    50309    50257    50202    50151    50112 
   50086    50078    50097    50137    50183    50236    50284    50323 
   50353    50368    50357    50329    50299    50274    50248    50226 
   50217    50228    50264    50313    50350    50365    50365    50369 
   50379    50382    50371    50349    50328    50319    50329    50337 
   50330    50328    50346    50379    50411    50436    50444    50452 
   50473    50495    50496    50476    50442    50395    50344    50287 
   50236    50205    50190    50190    50210    50247    50295    50340 
   50357    50345    50307    50253    50193    50122    50041    49962 
   49897    49854    49831    49816    49801    49786    49770    49742 
   49692    49634    49585    49553    49539    49540    49557    49594 
   49654    49732    49813    49886    49954    50022    50089    50156 
   50232    50309    50375    50417    50427    50425    50425    50426 
   50434    50457    50494    50546    50615    50679    50724    50751 
   50760    50751    50734    50701    50660    50612    50561    50511 
   50460    50395    50325    50256    50199    50159    50125    50093 
   50067    50059    50074    50099    50114    50103    50072    50040 
   50008    49955    49881    49805    49743    49705    49692    49696 
   49712    49744    49796    49855    49917    49970    50013    50059 
   50102    50136    50167    50199    50224    50238    50238    50221 
   50199    50183    50163    50143    50133    50124    50113    50114 
   50128    50149    50182    50215    50242    50267    50302    50350 
   50400    50438    50473    50508    50533    50544    50544    50530 
   50511    50494    50475    50446    50419    50414    50434    50468 
   50506    50548    50595    50646    50695    50727    50738    50743 
   50757    50780    50814    50850    50882    50912    50935    50942 
   50938    50934    50931    50927    50923    50909    50892    50877 
   50854    50815    50768    50714    50662    50634    50622    50604 
   50575    50529    50468    50390    50294    50191    50093    50002 
   49921    49847    49767    49686    49612    49543    49477    49419 
   49364    49307    49250    49195    49144    49104    49091    49106 
   49146    49210    49281    49347    49405    49457    49492    49509 
   49516    49518    49515    49513    49515    49520    49524    49540 
   49573    49613    49657    49696    49728    49765    49819    49881 
   49947    50021    50098    50161    50211    50244    50251    50244 
   50233    50207    50174    50137    50105    50076    50047    50006 
   49959    49921    49909    49923    49948    49982    50018    50049 
   50068    50062    50028    49977    49925    49885    49858    49843 
   49848    49875    49916    49970    50032    50101    50175    50259 
   50345    50429    50506    50571    50612    50634    50635    50623 
   50604    50573    50531    50483    50431    50386    50344    50303 
   50271    50249    50237    50233    50244    50274    50319    50369 
   50411    50436    50441    50431    50419    50411    50402    50391 
   50388    50399    50426    50463    50502    50535    50557    50568 
   50562    50545    50517    50481    50446    50426    50421    50433 
   50452    50467    50469    50464    50452    50423    50377    50325 
   50282    50263    50263    50264    50263    50261    50269    50294 
   50321    50341    50355    50365    50376    50384    50384    50388 
   50406    50441    50492    50550    50611    50674    50746    50822 
   50885    50934    50969    50994    51008    51009    50994    50976 
   50959    50953    50940    50911    50880    50854    50820    50772 
   50707    50627    50548    50472    50410    50353    50301    50257 
   50233    50214    50198    50183    50164    50152    50155    50157 
   50144    50114    50070    50024    49986    49945    49898    49860 
   49840    49835    49835    49833    49832    49832    49837    49842 
   49839    49836    49839    49848    49856    49852    49843    49847 
   49870    49910    49960    50020    50102    50209    50323    50437 
   50539    50630    50712    50784    50832    50850    50847    50831 
   50805    50777    50751    50724    50707    50703    50696    50676 
   50650    50619    50575    50523    50477    50437    50402    50372 
   50333    50278    50218    50167    50137    50130    50137    50152 
   50175    50202    50220    50221    50210    50188    50157    50122 
   50086    50044    50009    49985    49959    49931    49904    49874 
   49852    49847    49850    49858    49874    49893    49916    49944 
   49971    49994    50013    50025    50028    50022    50014    49995 
   49954    49889    49806    49717    49621    49531    49455    49399 
   49360    49345    49347    49354    49369    49392    49418    49451 
   49499    49551    49612    49673    49725    49785    49844    49900 
   49959    50016    50063    50102    50129    50149    50176    50209 
   50242    50282    50328    50383    50441    50495    50546    50589 
   50625    50653    50672    50677    50669    50656    50645    50635 
   50627    50615    50600    50584    50565    50556    50560    50565 
   50571    50573    50572    50564    50548    50514    50472    50430 
   50383    50330    50272    50202    50121    50044    49975    49909 
   49850    49800    49762    49740    49732    49735    49751    49774 
   49800    49824    49842    49847    49848    49850    49844    49833 
   49824    49820    49816    49804    49786    49773    49763    49758 
   49754    49742    49734    49734    49735    49740    49750    49762 
   49788    49820    49851    49879    49909    49943    49978    50006 
   50028    50045    50064    50094    50124    50148    50174    50190 
   50193    50194    50194    50187    50187    50202    50225    50259 
   50288    50310    50329    50345    50361    50383    50404    50426 
   50442    50452    50464    50481    50496    50512    50529    50529 
   50508    50479    50446    50422    50413    50409    50413    50440 
   50483    50534    50591    50649    50703    50758    50812    50855 
   50881    50895    50900    50904    50917    50935    50944    50955 
   50966    50967    50961    50957    50961    50977    51007    51044 
   51082    51117    51135    51131    51109    51066    51000    50932 
   50862    50781    50695    50604    50517    50438    50372    50307 
   50252    50207    50168    50143    50129    50122    50121    50129 
   50151    50180    50210    50249    50295    50340    50380    50404 
   50404    50386    50357    50321    50276    50224    50171    50132 
   50107    50087    50070    50058    50052    50055    50070    50086 
   50093    50086    50068    50044    50012    49968    49912    49856 
   49806    49762    49724    49690    49666    49659    49671    49698 
   49734    49775    49827    49891    49959    50021    50079    50144 
   50215    50292    50365    50426    50473    50506    50522    50519 
   50499    50465    50426    50390    50357    50322    50286    50259 
   50244    50237    50226    50211    50198    50195    50199    50199 
   50180    50145    50099    50040    49972    49904    49831    49754 
   49689    49638    49593    49567    49563    49569    49578    49589 
   49594    49594    49597    49607    49619    49635    49653    49670 
   49692    49719    49746    49770    49792    49804    49809    49813 
   49819    49829    49848    49874    49912    49964    50020    50089 
   50172    50257    50338    50422    50507    50580    50637    50674 
   50692    50692    50681    50665    50643    50615    50583    50549 
   50514    50467    50413    50353    50282    50210    50148    50105 
   50076    50059    50052    50044    50035    50025    50012    49987 
   49955    49918    49881    49843    49802    49758    49727    49719 
   49725    49736    49751    49771    49804    49848    49897    49951 
   50020    50098    50184    50284    50388    50485    50566    50634 
   50685    50719    50737    50743    50743    50741    50754    50792 
   50850    50927    51013    51098    51178    51246    51287    51291 
   51260    51205    51135    51050    50951    50843    50728    50611 
   50495    50380    50259    50134    50013    49900    49800    49709 
   49632    49577    49542    49527    49527    49534    49542    49555 
   49567    49570    49567    49562    49559    49570    49596    49635 
   49682    49732    49778    49823    49862    49893    49917    49939 
   49966    49999    50045    50109    50183    50264    50356    50452 
   50538    50611    50669    50701    50708    50689    50647    50593 
   50538    50490    50450    50426    50417    50421    50431    50445 
   50454    50460    50463    50465    50464    50452    50429    50386 
   50325    50260    50191    50125    50063    50001    49941    49887 
   49839    49793    49742    49689    49648    49619    49609    49615 
   49627    49648    49680    49720    49770    49823    49869    49913 
   49960    50006    50040    50064    50080    50089    50098    50117 
   50141    50171    50205    50242    50284    50330    50379    50427 
   50476    50525    50571    50607    50630    50637    50627    50602 
   50564    50522    50475    50427    50395    50380    50377    50386 
   50400    50415    50423    50419    50407    50394    50377    50353 
   50321    50278    50228    50176    50118    50059    50004    49959 
   49929    49916    49920    49950    50006    50074    50145    50211 
   50267    50306    50334    50355    50367    50379    50392    50403 
   50409    50409    50404    50398    50395    50388    50375    50359 
   50340    50314    50288    50271    50255    50242    50236    50238 
   50244    50245    50242    50240    50237    50236    50232    50221 
   50201    50172    50145    50124    50101    50079    50060    50047 
   50039    50033    50031    50032    50033    50043    50063    50087 
   50109    50118    50112    50087    50044    49987    49917    49828 
   49724    49626    49540    49474    49432    49423    49447    49504 
   49592    49698    49816    49943    50067    50179    50275    50349 
   50399    50434    50445    50429    50394    50346    50287    50225 
   50172    50132    50099    50075    50064    50059    50049    50035 
   50012    49977    49932    49879    49823    49775    49746    49727 
   49719    49719    49723    49734    49747    49755    49752    49743 
   49728    49701    49666    49638    49615    49603    49603    49615 
   49643    49686    49742    49800    49860    49925    49993    50068 
   50153    50240    50337    50444    50557    50677    50793    50892 
   50980    51058    51123    51174    51212    51239    51258    51266 
   51260    51235    51182    51117    51040    50944    50836    50712 
   50573    50431    50291    50156    50032    49920    49823    49750 
   49709    49696    49700    49723    49765    49808    49847    49886 
   49923    49947    49963    49971    49972    49967    49963    49964 
   49972    49995    50032    50083    50152    50229    50303    50372 
   50438    50494    50531    50554    50564    50554    50535    50519 
   50504    50499    50506    50517    50535    50560    50591    50629 
   50665    50697    50731    50770    50812    50847    50868    50870 
   50857    50835    50814    50793    50785    50793    50811    50842 
   50885    50927    50962    50990    51009    51023    51030    51031 
   51023    51012    51000    50981    50963    50954    50940    50926 
   50915    50903    50885    50868    50845    50809    50757    50695 
   50637    50583    50539    50514    50504    50508    50531    50573 
   50619    50668    50716    50749    50760    50753    50724    50676 
   50611    50529    50437    50340    50236    50132    50040    49977 
   49933    49896    49858    49824    49786    49739    49685    49634 
   49592    49563    49551    49549    49551    49561    49580    49600 
   49613    49615    49612    49613    49613    49608    49600    49592 
   49590    49596    49601    49604    49616    49646    49689    49735 
   49766    49782    49790    49788    49769    49736    49693    49648 
   49617    49600    49593    49609    49653    49716    49798    49897 
   50004    50116    50241    50364    50476    50584    50683    50757 
   50808    50838    50845    50835    50818    50797    50778    50770 
   50774    50787    50803    50814    50819    50820    50808    50782 
   50754    50720    50692    50673    50658    50652    50668    50707 
   50762    50831    50912    50996    51071    51144    51208    51260 
   51302    51337    51364    51381    51382    51367    51343    51317 
   51290    51260    51228    51196    51167    51133    51089    51027 
   50940    50834    50715    50581    50440    50296    50159    50031 
   49913    49808    49720    49653    49600    49551    49505    49469 
   49439    49412    49393    49381    49377    49389    49414    49445 
   49484    49526    49567    49609    49640    49651    49646    49624 
   49592    49559    49527    49495    49466    49441    49416    49395 
   49356    49297    49233    49152    49053    48952    48844    48735 
   48637    48555    48500    48478    48478    48504    48555    48617 
   48682    48751    48816    48874    48933    48995    49059    49127 
   49199    49275    49356    49432    49500    49566    49638    49709 
   49785    49873    49970    50072    50178    50276    50360    50426 
   50479    50511    50529    50538    50529    50502    50457    50396 
   50325    50248    50170    50094    50025    49968    49921    49875 
   49835    49812    49805    49810    49833    49867    49908    49962 
   50013    50049    50079    50107    50136    50160    50182    50202 
   50224    50248    50275    50305    50341    50388    50448    50519 
   50600    50684    50769    50853    50930    50990    51031    51051 
   51058    51063    51062    51048    51023    50992    50954    50908 
   50854    50792    50730    50668    50604    50546    50490    50430 
   50379    50326    50265    50205    50140    50074    50013    49952 
   49891    49840    49802    49785    49792    49813    49846    49893 
   49945    49997    50043    50075    50097    50116    50134    50148 
   50156    50167    50178    50186    50201    50229    50268    50318 
   50375    50434    50491    50539    50573    50591    50593    50588 
   50584    50581    50575    50577    50593    50619    50650    50680 
   50706    50724    50734    50737    50728    50712    50693    50670 
   50645    50622    50593    50562    50535    50515    50499    50484 
   50464    50431    50388    50340    50283    50215    50137    50062 
   49998    49950    49917    49898    49898    49917    49952    50002 
   50059    50124    50197    50274    50355    50436    50507    50562 
   50603    50618    50607    50583    50544    50490    50433    50377 
   50328    50283    50238    50193    50149    50106    50070    50037 
   50005    49978    49962    49944    49921    49897    49867    49829 
   49789    49751    49720    49698    49684    49671    49663    49669 
   49688    49715    49748    49793    49844    49893    49932    49960 
   49971    49972    49971    49963    49955    49962    49986    50029 
   50087    50147    50195    50233    50260    50271    50267    50259 
   50251    50252    50267    50290    50323    50361    50400    50434 
   50452    50450    50431    50387    50313    50220    50116    50012 
   49923    49848    49786    49748    49735    49747    49790    49863 
   49964    50089    50230    50382    50522    50633    50711    50754 
   50757    50727    50676    50610    50544    50485    50431    50390 
   50359    50325    50290    50253    50206    50147    50079    50005 
   49935    49875    49829    49797    49767    49735    49704    49669 
   49624    49574    49526    49488    49457    49437    49431    49432 
   49435    49437    49438    49443    49457    49477    49501    49534 
   49574    49624    49688    49756    49827    49898    49967    50035 
   50098    50152    50205    50259    50313    50364    50410    50449 
   50490    50529    50569    50606    50627    50634    50633    50616 
   50583    50537    50479    50415    50363    50322    50288    50268 
   50260    50260    50271    50292    50311    50328    50346    50368 
   50390    50413    50436    50464    50494    50522    50546    50572 
   50603    50634    50668    50708    50745    50776    50805    50832 
   50854    50876    50890    50892    50878    50851    50804    50738 
   50658    50562    50456    50336    50201    50052    49898    49738 
   49566    49393    49233    49094    48983    48905    48855    48837 
   48852    48891    48937    48987    49044    49106    49168    49233 
   49300    49373    49457    49561    49688    49829    49985    50152 
   50321    50481    50630    50762    50873    50957    51011    51032 
   51028    51012    50984    50939    50880    50815    50746    50680 
   50622    50564    50511    50468    50426    50388    50360    50329 
   50295    50265    50234    50198    50161    50122    50082    50045 
   50004    49951    49897    49848    49800    49751    49704    49661 
   49623    49590    49573    49566    49566    49578    49600    49631 
   49677    49734    49796    49860    49920    49967    50002    50025 
   50043    50056    50070    50086    50109    50137    50171    50206 
   50233    50249    50269    50290    50309    50340    50387    50449 
   50529    50612    50687    50751    50811    50854    50876    50884 
   50884    50884    50888    50889    50892    50901    50909    50908 
   50900    50882    50851    50816    50784    50742    50700    50669 
   50634    50595    50557    50514    50471    50438    50418    50410 
   50406    50403    50404    50399    50386    50365    50333    50282 
   50215    50134    50045    49959    49878    49809    49754    49708 
   49680    49671    49671    49685    49716    49761    49816    49877 
   49937    49999    50053    50098    50134    50153    50148    50128 
   50098    50058    50006    49952    49906    49862    49817    49771 
   49720    49669    49623    49581    49546    49516    49496    49484 
   49477    49472    49461    49442    49418    49389    49357    49322 
   49280    49237    49199    49168    49137    49108    49090    49080 
   49075    49075    49087    49111    49144    49184    49234    49289 
   49353    49427    49511    49609    49715    49823    49929    50029 
   50121    50203    50280    50356    50433    50504    50573    50646 
   50711    50760    50800    50835    50862    50885    50916    50951 
   50989    51027    51058    51074    51071    51054    51027    50984 
   50936    50884    50823    50765    50704    50642    50585    50523 
   50461    50410    50365    50321    50284    50252    50221    50193 
   50166    50132    50087    50036    49985    49937    49896    49866 
   49840    49810    49783    49758    49731    49711    49702    49716 
