Origin Time       2025/01/13 21:19:00
Lat.              31.8
Long.             131.6
Depth. (km)       30
Mag.              6.9
Station Code      SAGH02
Station Lat.      33.2656
Station Long.     129.8798
Station Height(m) 31
Record Time       2025/01/13 21:20:13
Sampling Freq(Hz) 100Hz
Duration Time(s)  167
Dir.              5
Scale Factor      7845(gal)/8223790
Max. Acc. (gal)   1.291
Last Correction   2025/01/13 21:20:14
Memo.             
[...]
      78      102       83       43       -9      -72     -129     -171 
    -193     -187     -157     -122      -97     -105     -156     -240 
    -345     -450     -533     -581     -589     -564     -521     -471 
    -423     -390     -360     -325     -282     -220     -135      -47 
      25       75       94       93       97      106      126      160 
     197      229      253      260      248      226      197      167 
     139      103       68       33        0      -28      -51      -76 
    -108     -139     -168     -189     -199     -207     -224     -247 
    -271     -287     -276     -222     -141      -54       18       48 
      28      -31     -118     -205     -265     -295     -290     -252 
    -203     -159     -124      -95      -70      -48      -24        4 
      35       74      121      162      182      168      113       24 
     -74     -149     -178     -159     -101      -29       21       27 
     -16      -94     -180     -241     -257     -236     -184     -116 
     -55      -18       -8      -20      -45      -68      -74      -44 
      21      103      164      172      108      -17     -171     -309 
    -395     -425     -410     -373     -334     -311     -311     -326 
    -340     -334     -307     -264     -222     -206     -240     -321 
    -415     -487     -522     -510     -453     -378     -306     -247 
    -211     -207     -230     -283     -352     -418     -469     -503 
    -515     -513     -502     -472     -418     -351     -283     -237 
    -226     -237     -251     -257     -243     -211     -184     -171 
    -178     -195     -202     -194     -172     -156     -163     -194 
    -234     -265     -267     -230     -168      -98      -37        0 
      16       24       40       67       97      132      170      202 
     224      238      237      218      178      117       41      -33 
     -87     -106      -93      -47       16       60       68       56 
      36       25       49      108      182      252      306      324 
     305      257      190      117       60       36       52       99 
     152      184      191      174      145      132      147      191 
     255      328      390      421      421      398      367      337 
     322      328      340      357      365      337      278      201 
     114       33      -28      -76     -120     -171     -222     -260 
    -283     -295     -299     -307     -324     -346     -372     -399 
    -423     -442     -450     -445     -436     -434     -450     -483 
    -529     -580     -615     -629     -623     -598     -561     -537 
    -523     -517     -515     -510     -490     -448     -383     -292 
    -183      -66       36      110      159      184      189      184 
     179      166      151      135      118      101       81       52 
      22       -2      -10       13       71      149      228      279 
     287      247      167       75        2      -44      -59      -47 
     -27       -8       -4      -16      -32      -54      -81     -103 
    -122     -139     -140     -133     -121     -110     -105     -108 
    -118     -137     -164     -198     -230     -256     -261     -240 
    -206     -174     -163     -183     -224     -259     -270     -245 
    -199     -148     -112     -103     -122     -156     -191     -213 
    -211     -187     -145     -105      -79      -85     -128     -199 
    -271     -315     -317     -274     -202     -132      -95     -110 
    -163     -228     -275     -284     -255     -199     -143     -106 
     -94      -98     -106     -102      -74      -16       60      133 
     186      210      201      170      130       97       78       70 
      64       51       25      -13      -62     -102     -121     -112 
     -78      -22       39       87      114      112       78       27 
     -25      -59      -64      -39        9       63       99      108 
      93       78       81      112      174      255      337      406 
     429      388      288      152       14      -87     -145     -162 
    -163     -178     -220     -283     -349     -399     -417     -391 
    -329     -241     -157      -98      -72      -76      -93     -103 
     -85      -29       47      125      183      216      214      180 
     130       82       48       37       44       49       32      -12 
     -68     -124     -166     -183     -175     -157     -153     -176 
    -225     -291     -355     -395     -410     -405     -386     -373 
    -376     -394     -422     -453     -469     -469     -450     -411 
    -357     -297     -243     -206     -175     -143     -116      -86 
     -49      -27      -27      -48      -90     -148     -214     -275 
    -328     -373     -411     -438     -444     -422     -383     -330 
    -278     -240     -226     -247     -305     -383     -459     -521 
    -562     -581     -594     -610     -622     -629     -629     -604 
    -553     -488     -419     -361     -321     -309     -325     -355 
    -379     -382     -357     -301     -225     -147      -71       -4 
      45       76      102      120      122      103       62        1 
     -63     -114     -130     -103      -44       21       67       86 
      87       83       86      114      168      233      307      387 
     459      521      572      598      603      602      606      629 
     685      758      824      858      842      777      687      603 
     545      521      531      553      565      556      522      461 
     378      288      217      167      136      116       98       70 
      22      -33      -87     -137     -175     -197     -206     -199 
    -178     -145     -101      -55      -17        5       12        8 
      -8      -25      -25       -1       52      125      202      265 
     299      302      286      270      270      292      333      380 
     419      434      422      384      328      264      211      163 
     102       28      -66     -180     -294     -394     -479     -544 
    -587     -615     -625     -623     -625     -622     -615     -606 
    -587     -549     -487     -409     -336     -286     -268     -286 
    -328     -375     -418     -456     -487     -517     -554     -594 
    -622     -643     -654     -642     -602     -534     -449     -365 
    -297     -256     -256     -291     -341     -386     -407     -399 
    -364     -319     -286     -272     -284     -321     -375     -437 
    -502     -564     -619     -660     -683     -687     -679     -668 
    -656     -653     -657     -658     -649     -623     -576     -510 
    -440     -376     -322     -282     -247     -205     -152      -93 
     -41       -9        0      -10      -28      -40      -44      -40 
     -25       -5       16       36       54       75      103      143 
     190      234      270      292      298      284      260      241 
     233      244      283      342      406      469      519      544 
     553      554      546      544      558      581      604      622 
     622      592      523      425      326      253      222      234 
     280      332      353      334      276      187       86        5 
     -27       -2       70      166      251      303      315      292 
     256      237      253      306      375      442      486      484 
     440      359      256      155       74       20       -4       -6 
      -4      -10      -37      -89     -153     -216     -257     -275 
    -263     -228     -189     -157     -148     -164     -194     -233 
    -278     -326     -379     -432     -481     -533     -572     -584 
    -573     -550     -527     -515     -525     -556     -596     -625 
    -629     -608     -573     -545     -542     -579     -650     -742 
    -832     -893     -901     -858     -783     -699     -637     -603 
    -592     -588     -571     -529     -457     -365     -275     -209 
    -180     -191     -234     -284     -317     -314     -280     -234 
    -207     -217     -263     -325     -368     -359     -284     -170 
     -33       85      145      151      125       95       91      126 
     179      224      226      167       58      -76     -210     -314 
    -375     -400     -406     -407     -411     -421     -440     -465 
    -490     -510     -534     -560     -584     -612     -646     -670 
    -676     -662     -621     -542     -442     -344     -265     -225 
    -230     -272     -336     -402     -461     -507     -530     -537 
    -522     -484     -426     -359     -298     -255     -228     -205 
    -170      -98       13      148      280      382      430      430 
     398      355      337      359      419      502      579      619 
     614      564      483      399      346      341      383      453 
     530      592      618      610      585      572      588      642 
     722      810      888      945      977      992     1000     1011 
    1024     1030     1007      946      854      747      645      573 
     541      534      525      491      426      330      216      106 
      20      -41      -82     -102     -118     -155     -217     -307 
    -414     -510     -569     -583     -558     -518     -498     -523 
    -602     -724     -868     -997    -1074    -1081    -1017     -905 
    -781     -681     -619     -603     -615     -621     -602     -568 
    -527     -494     -494     -527     -575     -622     -652     -645 
    -604     -546     -487     -441     -422     -426     -437     -440 
    -419     -371     -306     -247     -201     -182     -193     -216 
    -241     -264     -280     -287     -286     -275     -267     -272 
    -294     -333     -395     -460     -507     -526     -514     -473 
    -418     -359     -298     -238     -180     -118      -52        4 
      32       29       -4      -54      -94     -112      -95      -45 
       8       31        0      -93     -232     -388     -523     -608 
    -635     -615     -568     -519     -486     -475     -472     -463 
    -442     -396     -319     -232     -157     -109     -101     -137 
    -202     -264     -303     -310     -282     -228     -170     -129 
    -112     -118     -153     -209     -275     -348     -406     -437 
    -437     -398     -324     -236     -144      -55       31      113 
     189      245      286      305      306      297      283      268 
     264      274      295      324      353      371      369      345 
     301      237      166       97       39        0      -14       -6 
      28       79      129      172      202      213      213      224 
     249      294      353      406      430      422      369      286 
     197      114       62       58       90      136      183      211 
     203      166      112       62       33       33       59      102 
     139      151      145      126       98       78       71       76 
      86       94       93       81       60       35       13        6 
      21       58      109      166      214      247      257      252 
     236      222      226      249      290      349      415      464 
     477      457      411      342      268      207      168      148 
     140      133      125      109       79       43        1      -43 
     -82     -103     -106      -97      -85      -83      -99     -143 
    -202     -272     -346     -410     -464     -503     -515     -490 
    -430     -344     -240     -141      -78      -63      -95     -157 
    -224     -270     -286     -274     -245     -214     -187     -168 
    -143     -105      -64      -25        5        5      -29      -83 
    -148     -205     -236     -240     -222     -193     -164     -147 
    -141     -140     -141     -140     -139     -136     -133     -149 
    -183     -225     -270     -306     -317     -291     -244     -194 
    -163     -171     -225     -311     -409     -488     -523     -514 
    -473     -421     -378     -367     -383     -407     -430     -438 
    -421     -386     -356     -344     -356     -394     -441     -476 
    -480     -450     -388     -306     -225     -171     -156     -186 
    -259     -353     -441     -503     -529     -510     -467     -430 
    -406     -399     -399     -391     -359     -303     -238     -179 
    -130      -98      -86      -85      -81      -64      -24       35 
      98      151      184      191      187      189      198      224 
     265      309      348      371      365      336      291      237 
     189      160      156      167      178      172      137       70 
     -22     -124     -210     -267     -295     -306     -302     -287 
    -270     -255     -251     -260     -280     -307     -333     -349 
    -341     -311     -274     -240     -226     -243     -282     -329 
    -371     -394     -400     -407     -429     -480     -558     -649 
    -737     -799     -824     -816     -787     -751     -715     -673 
    -629     -580     -523     -469     -434     -418     -422     -440 
    -456     -452     -421     -359     -278     -195     -116      -43 
      20       83      166      275      396      519      621      683 
     696      670      629      592      576      589      627      670 
     696      692      650      567      459      346      245      164 
     108       72       45       21       -9      -54     -116     -191 
    -278     -368     -457     -546     -634     -727     -834     -950 
   -1066    -1170    -1247    -1294    -1314    -1320    -1325    -1340 
   -1367    -1398    -1428    -1445    -1431    -1381    -1297    -1183 
   -1062     -943     -831     -734     -650     -573     -502     -445 
    -409     -396     -410     -448     -491     -518     -513     -468 
    -391     -302     -218     -159     -128     -114     -103      -82 
     -40       28      116      206      284      334      352      344 
     319      292      276      280      303      340      386      433 
     471      499      519      537      565      615      676      739 
     803      853      884      895      889      881      878      882 
     893      908      922      922      908      880      832      774 
     711      642      580      533      506      507      537      583 
     639      696      738      758      758      742      718      697 
     696      716      761      814      862      891      886      845 
     764      661      561      484      445      445      469      499 
     519      506      453      369      275      199      163      166 
     198      241      263      248      193       99       -6     -102 
    -170     -201     -193     -157     -124     -106     -106     -135 
    -194     -260     -317     -353     -355     -322     -278     -232 
    -195     -175     -174     -184     -191     -190     -183     -171 
    -155     -144     -140     -144     -156     -172     -191     -218 
    -251     -287     -332     -379     -421     -453     -479     -498 
    -517     -549     -589     -627     -656     -672     -669     -649 
    -614     -572     -529     -490     -465     -454     -453     -453 
    -438     -402     -346     -279     -211     -162     -136     -136 
    -164     -210     -261     -324     -398     -473     -552     -638 
    -735     -827     -897     -931     -913     -843     -742     -634 
    -544     -495     -492     -522     -564     -587     -576     -522 
    -432     -328     -238     -187     -179     -213     -282     -356 
    -406     -415     -383     -313     -216     -118      -36       24 
      56       64       64       70       87      122      172      218 
     245      245      218      175      126       81       64       79 
     106      140      167      160      108       14     -110     -263 
    -417     -557     -677     -766     -827     -866     -886     -891 
    -882     -861     -830     -789     -730     -654     -568     -475 
    -391     -325     -283     -263     -248     -220     -167      -78 
      31      139      228      271      252      184       89       -6 
     -78     -117     -124     -114     -108     -118     -147     -174 
    -184     -168     -117      -35       64      167      252      313 
     357      390      422      473      542      627      726      826 
     905      950      953      909      828      724      619      523 
     449      398      367      353      349      346      351      360 
     372      387      400      402      388      355      301      236 
     172      114       59        6      -41      -89     -130     -164 
    -186     -202     -221     -245     -276     -310     -345     -375 
    -390     -388     -372     -348     -318     -290     -270     -263 
    -265     -272     -267     -236     -184     -128      -72      -37 
     -48     -106     -193     -286     -363     -402     -402     -383 
    -365     -376     -433     -526     -634     -727     -776     -772 
    -727     -657     -585     -527     -476     -421     -355     -276 
    -201     -144     -118     -128     -157     -190     -207     -199 
    -170     -130      -98      -87     -114     -179     -271     -368 
    -446     -491     -488     -436     -352     -263     -182     -128 
    -110     -126     -156     -180     -184     -144      -56       59 
     187      311      399      446      464      467      467      481 
     517      567      623      681      726      742      726      680 
     618      560      518      507      530      577      623      650 
     650      615      556      491      442      417      418      441 
     464      472      452      395      318      245      197      186 
     214      271      330      368      375      353      313      275 
     253      245      245      243      216      155       60      -54 
    -167     -264     -338     -387     -421     -456     -498     -545 
    -595     -627     -630     -607     -567     -519     -479     -456 
    -453     -457     -460     -461     -459     -453     -457     -479 
    -510     -545     -573     -580     -554     -508     -456     -403 
    -360     -333     -328     -334     -344     -352     -356     -340 
    -302     -253     -198     -139      -79      -27       17       60 
      98      129      153      175      189      199      205      199 
     189      180      176      182      195      218      252      290 
     322      349      372      388      394      392      388      380 
     368      353      337      319      295      261      217      156 
      94       45       16       13       37       75      118      160 
     190      205      206      201      189      164      121       66 
      -2      -87     -172     -237     -279     -291     -276     -245 
    -203     -166     -153     -164     -189     -221     -251     -253 
    -222     -166     -101      -49      -25      -24      -47      -81 
     -97      -89      -70      -56      -62      -98     -162     -232 
    -287     -311     -298     -256     -207     -171     -139     -110 
     -81      -32       28       89      137      160      149      112 
      68       45       55      102      182      274      346      386 
     392      363      307      249      205      176      167      174 
     189      201      201      182      143       91       39       -8 
     -51      -93     -137     -195     -275     -378     -496     -615 
