Origin Time       2025/01/13 21:19:00
Lat.              31.8
Long.             131.6
Depth. (km)       30
Mag.              6.9
Station Code      SAGH01
Station Lat.      33.5080
Station Long.     129.8877
Station Height(m) -82
Record Time       2025/01/13 21:20:16
Sampling Freq(Hz) 100Hz
Duration Time(s)  146
Dir.              2
Scale Factor      2942(gal)/8224139
Max. Acc. (gal)   0.485
Last Correction   2025/01/13 21:20:16
Memo.             
[...]
   54454    54444    54445    54446    54454    54473    54498    54514 
   54525    54533    54531    54517    54488    54452    54413    54364 
   54310    54252    54189    54128    54076    54032    53994    53962 
   53935    53912    53893    53879    53874    53879    53892    53904 
   53919    53933    53944    53959    53974    53979    53982    53991 
   54005    54012    54016    54020    54018    54009    54001    53991 
   53974    53952    53932    53913    53898    53883    53871    53867 
   53870    53879    53898    53928    53960    53995    54032    54066 
   54095    54124    54149    54175    54201    54218    54236    54255 
   54267    54275    54282    54294    54307    54318    54334    54363 
   54391    54426    54467    54504    54540    54572    54599    54618 
   54635    54654    54679    54710    54749    54797    54846    54885 
   54918    54945    54958    54955    54938    54909    54876    54842 
   54808    54780    54761    54746    54730    54712    54689    54657 
   54616    54576    54533    54488    54441    54392    54353    54317 
   54275    54225    54170    54106    54036    53967    53906    53856 
   53821    53801    53789    53786    53794    53802    53808    53811 
   53812    53811    53806    53802    53804    53809    53816    53817 
   53817    53812    53802    53794    53785    53774    53774    53788 
   53811    53851    53909    53977    54044    54109    54171    54225 
   54270    54311    54355    54386    54409    54432    54445    54450 
   54459    54467    54475    54486    54500    54513    54527    54540 
   54544    54534    54507    54464    54407    54342    54265    54183 
   54105    54033    53962    53898    53847    53797    53751    53715 
   53684    53662    53651    53650    53653    53663    53678    53693 
   53705    53711    53711    53705    53694    53682    53669    53649 
   53620    53592    53562    53528    53499    53478    53472    53476 
   53485    53503    53534    53570    53608    53650    53700    53752 
   53801    53847    53894    53939    53977    54013    54048    54081 
   54116    54151    54186    54229    54278    54326    54375    54421 
   54463    54496    54519    54530    54529    54517    54500    54477 
   54456    54440    54425    54411    54403    54399    54398    54409 
   54432    54456    54487    54529    54567    54599    54629    54657 
   54681    54700    54716    54734    54749    54766    54781    54793 
   54805    54816    54820    54814    54803    54783    54753    54720 
   54688    54656    54625    54595    54569    54553    54548    54545 
   54549    54558    54572    54584    54599    54610    54616    54625 
   54637    54649    54661    54683    54708    54727    54743    54756 
   54762    54757    54743    54726    54704    54677    54645    54611 
   54577    54542    54503    54459    54410    54360    54309    54261 
   54224    54189    54164    54160    54168    54184    54213    54244 
   54278    54314    54348    54376    54399    54417    54430    54441 
   54442    54440    54437    54423    54394    54348    54283    54201 
   54109    54014    53927    53855    53796    53751    53725    53712 
   53701    53697    53697    53697    53690    53677    53667    53658 
   53647    53635    53623    53609    53592    53569    53549    53531 
   53514    53496    53484    53480    53478    53478    53488    53501 
   53518    53538    53562    53585    53608    53638    53677    53721 
   53774    53835    53902    53975    54051    54121    54182    54232 
   54270    54297    54307    54305    54290    54268    54240    54209 
   54179    54148    54118    54091    54068    54051    54041    54036 
   54039    54045    54052    54062    54067    54064    54058    54051 
   54037    54018    53995    53974    53955    53939    53919    53901 
   53885    53869    53856    53852    53854    53859    53866    53881 
   53900    53914    53931    53946    53952    53948    53937    53921 
   53901    53873    53838    53805    53782    53763    53750    53743 
   53735    53732    53736    53739    53743    53748    53744    53739 
   53740    53742    53746    53758    53774    53797    53820    53840 
   53860    53875    53883    53885    53881    53869    53854    53843 
   53838    53835    53848    53875    53908    53947    53986    54021 
   54056    54091    54122    54153    54184    54206    54221    54234 
   54238    54237    54238    54241    54244    54251    54265    54290 
   54325    54372    54430    54492    54558    54627    54691    54753 
   54815    54869    54918    54967    55020    55075    55136    55200 
   55262    55318    55370    55412    55444    55464    55471    55467 
   55463    55456    55447    55440    55437    55433    55429    55418 
   55401    55378    55347    55309    55274    55244    55212    55185 
   55167    55154    55142    55128    55115    55100    55086    55069 
   55046    55019    54989    54954    54916    54877    54830    54781 
   54734    54684    54637    54595    54557    54525    54495    54469 
   54448    54426    54402    54373    54337    54297    54257    54217 
   54172    54128    54082    54039    53991    53944    53900    53862 
   53825    53786    53744    53697    53649    53596    53542    53491 
   53445    53397    53356    53319    53284    53254    53233    53207 
   53183    53165    53148    53137    53137    53141    53146    53157 
   53168    53175    53181    53188    53195    53207    53231    53258 
   53287    53316    53339    53361    53383    53404    53420    53435 
   53449    53472    53503    53539    53574    53611    53647    53678 
   53708    53739    53770    53801    53835    53865    53894    53925 
   53955    53981    54009    54036    54063    54099    54143    54189 
   54240    54301    54363    54426    54492    54556    54618    54685 
   54757    54827    54901    54974    55043    55111    55177    55231 
   55269    55298    55317    55324    55323    55312    55291    55263 
   55227    55188    55151    55116    55086    55059    55030    55001 
   54970    54935    54893    54843    54785    54719    54648    54576 
   54503    54427    54351    54279    54211    54145    54085    54036 
   53998    53966    53944    53932    53923    53919    53919    53920 
   53923    53932    53944    53959    53978    54000    54022    54045 
   54066    54082    54093    54093    54079    54059    54031    53989 
   53948    53912    53875    53842    53817    53805    53801    53808 
   53828    53862    53904    53955    54005    54048    54085    54110 
   54120    54120    54108    54083    54049    54005    53951    53896 
   53835    53771    53717    53671    53635    53616    53604    53600 
   53609    53624    53639    53658    53676    53685    53693    53697 
   53698    53704    53715    53727    53746    53773    53805    53836 
   53865    53893    53913    53919    53916    53909    53897    53883 
   53871    53862    53860    53863    53869    53882    53900    53917 
   53939    53968    54001    54032    54067    54102    54143    54186 
   54229    54270    54310    54346    54379    54407    54426    54444 
   54460    54469    54476    54486    54499    54519    54544    54568 
   54591    54614    54637    54658    54681    54710    54745    54788 
   54839    54896    54954    55013    55063    55097    55120    55134 
   55131    55121    55108    55090    55070    55051    55026    54997 
   54974    54953    54928    54905    54881    54855    54830    54799 
   54766    54727    54680    54619    54553    54486    54418    54349 
   54280    54207    54135    54062    53990    53920    53854    53793 
   53740    53698    53663    53636    53617    53605    53601    53601 
   53611    53636    53667    53709    53767    53832    53902    53978 
   54045    54112    54172    54214    54244    54270    54284    54292 
   54295    54290    54274    54249    54218    54184    54151    54120 
   54098    54087    54081    54082    54087    54090    54089    54087 
   54081    54067    54048    54025    54002    53978    53950    53921 
   53897    53873    53846    53823    53804    53792    53790    53797 
   53812    53839    53871    53909    53952    53995    54039    54082 
   54122    54164    54206    54243    54276    54303    54328    54351 
   54365    54369    54371    54365    54352    54338    54328    54307 
   54278    54244    54207    54171    54140    54110    54085    54063 
   54043    54029    54031    54036    54045    54066    54093    54118 
   54147    54174    54199    54225    54245    54261    54275    54284 
   54287    54275    54248    54216    54174    54124    54068    54006 
   53937    53867    53804    53751    53705    53670    53651    53649 
   53662    53690    53734    53789    53850    53917    53994    54074 
   54151    54229    54305    54378    54456    54531    54603    54677 
   54749    54810    54869    54928    54976    55015    55046    55067 
   55085    55100    55111    55120    55127    55134    55142    55152 
   55167    55178    55188    55194    55201    55204    55206    55206 
   55206    55202    55190    55178    55169    55155    55139    55134 
   55136    55146    55162    55182    55210    55243    55271    55300 
   55325    55333    55332    55318    55285    55229    55154    55059 
   54953    54841    54723    54606    54495    54388    54290    54199 
   54116    54036    53959    53886    53820    53755    53692    53634 
   53580    53531    53482    53434    53389    53345    53303    53268 
   53238    53217    53204    53203    53210    53226    53250    53283 
   53323    53368    53416    53472    53527    53578    53626    53669 
   53711    53747    53775    53801    53823    53836    53843    53848 
   53852    53858    53865    53870    53875    53878    53885    53897 
   53908    53917    53927    53935    53944    53955    53962    53964 
   53967    53966    53960    53960    53966    53973    53979    53993 
   54009    54024    54040    54054    54063    54067    54067    54068 
   54074    54082    54098    54124    54164    54211    54264    54324 
   54391    54467    54548    54627    54706    54778    54843    54899 
   54935    54950    54951    54939    54907    54854    54795    54727 
   54648    54561    54469    54372    54278    54189    54102    54021 
   53948    53881    53821    53774    53734    53701    53678    53665 
   53661    53665    53673    53686    53700    53715    53732    53751 
   53765    53784    53804    53824    53848    53871    53892    53913 
   53940    53970    54000    54036    54082    54132    54184    54240 
   54291    54340    54390    54440    54488    54541    54592    54638 
   54683    54726    54762    54795    54820    54838    54847    54849 
   54839    54820    54799    54777    54754    54734    54720    54710 
   54700    54691    54677    54662    54649    54634    54615    54595 
   54575    54557    54542    54527    54514    54500    54484    54460 
   54434    54411    54387    54359    54321    54278    54234    54191 
   54147    54109    54079    54058    54044    54039    54037    54037 
   54041    54049    54054    54054    54052    54054    54056    54058 
   54064    54075    54085    54090    54089    54082    54068    54049 
   54025    53998    53964    53920    53873    53825    53771    53717 
   53665    53616    53574    53543    53528    53526    53534    53555 
   53582    53615    53655    53696    53731    53763    53786    53793 
   53788    53770    53742    53708    53667    53627    53593    53569 
   53559    53570    53593    53631    53681    53740    53811    53892 
   53975    54058    54135    54201    54256    54301    54328    54338 
   54334    54318    54291    54259    54224    54187    54147    54108 
   54072    54044    54024    54012    54005    54006    54012    54020 
   54035    54055    54082    54110    54144    54187    54243    54298 
   54356    54421    54494    54571    54648    54730    54815    54896 
   54976    55050    55115    55170    55220    55258    55283    55301 
   55310    55313    55312    55305    55296    55286    55275    55258 
   55235    55201    55152    55094    55024    54938    54845    54747 
   54646    54545    54450    54364    54290    54232    54194    54171 
   54157    54159    54171    54190    54216    54243    54272    54302 
   54328    54341    54345    54341    54330    54313    54292    54272 
   54251    54222    54197    54178    54163    54159    54167    54184 
   54214    54255    54297    54338    54386    54433    54476    54515 
   54550    54581    54608    54627    54641    54653    54653    54645 
   54634    54612    54580    54545    54498    54444    54391    54332 
   54272    54218    54166    54110    54059    54012    53970    53936 
   53908    53885    53871    53860    53852    53851    53855    53862 
   53867    53871    53875    53873    53863    53856    53846    53831 
   53816    53804    53790    53777    53769    53762    53759    53763 
   53775    53796    53824    53855    53892    53933    53971    54006 
   54039    54063    54074    54079    54078    54067    54049    54028 
   54002    53978    53958    53939    53935    53943    53956    53983 
   54024    54066    54117    54174    54233    54301    54379    54459 
   54541    54631    54723    54816    54909    55000    55089    55175 
   55252    55323    55383    55433    55475    55509    55534    55556 
   55568    55576    55584    55586    55578    55570    55557    55541 
   55520    55495    55475    55460    55448    55440    55429    55414 
   55398    55374    55345    55313    55271    55220    55163    55102 
   55044    54989    54935    54889    54857    54837    54826    54824 
   54831    54847    54865    54877    54889    54899    54900    54888 
   54869    54845    54811    54774    54739    54707    54675    54646 
   54623    54604    54591    54583    54580    54581    54584    54595 
   54606    54616    54630    54641    54645    54643    54637    54621 
   54595    54561    54519    54468    54407    54337    54263    54182 
   54095    54012    53925    53835    53743    53658    53582    53511 
   53442    53380    53320    53265    53217    53171    53125    53084 
   53048    53014    52986    52968    52951    52934    52930    52937 
   52942    52959    52990    53023    53063    53109    53158    53206 
   53253    53300    53345    53384    53420    53455    53492    53538 
   53592    53654    53725    53809    53901    53991    54075    54155 
   54228    54291    54352    54406    54457    54506    54550    54598 
   54645    54687    54729    54773    54814    54846    54870    54892 
   54907    54912    54912    54912    54907    54895    54884    54868 
   54845    54816    54783    54739    54692    54641    54588    54534 
   54486    54440    54394    54356    54324    54288    54255    54221 
   54180    54139    54093    54041    53986    53932    53873    53811 
   53751    53697    53643    53590    53542    53499    53458    53419 
   53387    53358    53331    53306    53285    53268    53253    53238 
   53218    53195    53176    53157    53138    53130    53122    53115 
   53117    53125    53140    53169    53210    53261    53325    53401 
   53485    53573    53667    53766    53866    53962    54049    54137 
   54216    54279    54328    54365    54394    54413    54422    54422 
   54414    54400    54379    54349    54317    54275    54228    54178 
   54125    54068    54014    53964    53920    53886    53860    53839 
   53824    53816    53812    53813    53819    53833    53858    53882 
   53909    53943    53979    54010    54040    54074    54105    54135 
   54167    54199    54229    54259    54286    54310    54333    54351 
   54365    54373    54375    54376    54376    54369    54360    54352 
   54345    54345    54346    54351    54360    54372    54394    54421 
   54450    54484    54519    54554    54587    54611    54627    54635 
   54631    54618    54602    54579    54552    54526    54506    54487 
   54468    54457    54453    54448    54445    54442    54437    54430 
   54419    54407    54400    54387    54368    54346    54322    54288 
   54253    54216    54171    54120    54064    54012    53960    53908 
   53859    53820    53784    53755    53736    53723    53720    53725 
   53736    53755    53779    53804    53835    53865    53890    53919 
   53940    53955    53968    53978    53981    53983    53983    53981 
   53978    53973    53971    53974    53977    53986    54001    54018 
   54044    54081    54124    54174    54226    54276    54328    54373 
   54415    54453    54486    54519    54557    54598    54638    54677 
   54714    54754    54799    54838    54873    54912    54949    54984 
   55013    55036    55058    55078    55092    55100    55100    55092 
   55073    55043    55005    54955    54897    54831    54756    54675 
   54595    54515    54441    54379    54326    54282    54249    54229 
   54217    54214    54220    54228    54236    54245    54255    54260 
   54260    54260    54255    54243    54228    54210    54186    54163 
   54143    54124    54112    54103    54101    54103    54113    54130 
   54153    54180    54206    54236    54265    54290    54314    54337 
   54359    54378    54395    54410    54422    54434    54448    54452 
   54449    54444    54433    54418    54402    54384    54369    54355 
   54342    54328    54311    54299    54280    54253    54229    54201 
   54166    54135    54106    54078    54054    54036    54022    54012 
   54006    54002    53998    53994    53993    53991    53987    53982 
   53975    53964    53951    53935    53917    53904    53894    53887 
   53878    53867    53858    53846    53838    53835    53836    53850 
   53871    53900    53940    53991    54052    54120    54190    54263 
   54338    54411    54486    54558    54627    54687    54735    54774 
   54804    54823    54832    54837    54837    54832    54820    54804 
   54788    54766    54733    54695    54657    54618    54579    54538 
   54499    54463    54425    54386    54348    54315    54288    54263 
   54238    54218    54203    54189    54176    54168    54162    54155 
   54149    54145    54143    54145    54147    54149    54157    54168 
   54174    54182    54193    54205    54218    54230    54243    54257 
   54267    54264    54253    54232    54194    54148    54091    54021 
   53943    53862    53781    53698    53617    53542    53470    53403 
   53343    53295    53253    53212    53181    53165    53164    53177 
   53204    53245    53299    53364    53437    53518    53605    53693 
   53784    53875    53968    54056    54141    54225    54299    54360 
   54409    54446    54472    54490    54495    54492    54486    54476 
   54464    54450    54438    54423    54405    54383    54363    54338 
   54306    54274    54240    54201    54159    54117    54072    54032 
   53998    53964    53932    53909    53894    53890    53896    53904 
   53917    53944    53973    54000    54028    54051    54068    54086 
   54095    54101    54109    54117    54125    54135    54147    54160 
   54178    54195    54213    54233    54257    54283    54307    54332 
   54355    54378    54395    54411    54430    54442    54445    54444 
