Origin Time       2025/01/13 21:19:00
Lat.              31.8
Long.             131.6
Depth. (km)       30
Mag.              6.9
Station Code      SAGH02
Station Lat.      33.2656
Station Long.     129.8798
Station Height(m) -71.5
Record Time       2025/01/13 21:20:13
Sampling Freq(Hz) 100Hz
Duration Time(s)  167
Dir.              2
Scale Factor      3923(gal)/8224838
Max. Acc. (gal)   0.989
Last Correction   2025/01/13 21:20:14
Memo.             
[...]
  -33288   -33268   -33250   -33235   -33224   -33214   -33203   -33195 
  -33187   -33176   -33170   -33173   -33183   -33199   -33223   -33259 
  -33307   -33359   -33413   -33466   -33513   -33559   -33598   -33620 
  -33627   -33625   -33616   -33602   -33586   -33563   -33536   -33508 
  -33470   -33434   -33400   -33359   -33311   -33264   -33215   -33157 
  -33102   -33050   -32994   -32940   -32890   -32841   -32805   -32786 
  -32776   -32773   -32786   -32805   -32825   -32850   -32877   -32898 
  -32918   -32942   -32971   -33002   -33039   -33076   -33110   -33146 
  -33180   -33210   -33238   -33259   -33266   -33269   -33270   -33274 
  -33282   -33297   -33315   -33332   -33346   -33350   -33349   -33347 
  -33336   -33320   -33301   -33272   -33235   -33200   -33172   -33143 
  -33118   -33097   -33079   -33058   -33042   -33033   -33029   -33027 
  -33026   -33019   -33010   -33003   -32992   -32979   -32971   -32975 
  -32983   -32992   -33011   -33038   -33066   -33096   -33120   -33139 
  -33161   -33185   -33199   -33204   -33205   -33201   -33196   -33192 
  -33191   -33192   -33195   -33193   -33185   -33174   -33166   -33161 
  -33164   -33173   -33187   -33201   -33219   -33237   -33250   -33268 
  -33291   -33312   -33335   -33366   -33407   -33450   -33492   -33538 
  -33586   -33632   -33669   -33694   -33705   -33705   -33697   -33686 
  -33682   -33679   -33682   -33693   -33713   -33744   -33781   -33810 
  -33835   -33849   -33851   -33835   -33808   -33778   -33748   -33718 
  -33690   -33663   -33639   -33628   -33620   -33608   -33597   -33586 
  -33565   -33538   -33511   -33489   -33471   -33455   -33439   -33421 
  -33404   -33392   -33380   -33365   -33349   -33330   -33304   -33274 
  -33245   -33212   -33176   -33142   -33114   -33080   -33039   -33000 
  -32961   -32922   -32888   -32853   -32823   -32805   -32784   -32764 
  -32752   -32746   -32749   -32761   -32778   -32792   -32805   -32811 
  -32823   -32842   -32856   -32859   -32854   -32852   -32852   -32850 
  -32850   -32853   -32849   -32842   -32832   -32817   -32799   -32787 
  -32779   -32772   -32763   -32751   -32734   -32721   -32707   -32690 
  -32674   -32657   -32641   -32628   -32616   -32601   -32580   -32556 
  -32529   -32501   -32476   -32454   -32436   -32422   -32413   -32412 
  -32427   -32455   -32491   -32536   -32584   -32632   -32686   -32745 
  -32810   -32879   -32945   -33012   -33087   -33160   -33227   -33297 
  -33370   -33435   -33494   -33556   -33612   -33663   -33712   -33754 
  -33790   -33813   -33822   -33829   -33832   -33831   -33832   -33841 
  -33853   -33862   -33868   -33875   -33878   -33876   -33870   -33847 
  -33817   -33782   -33732   -33673   -33616   -33561   -33505   -33454 
  -33407   -33354   -33299   -33247   -33196   -33145   -33096   -33046 
  -33000   -32965   -32931   -32894   -32863   -32842   -32826   -32818 
  -32817   -32815   -32811   -32810   -32817   -32827   -32834   -32840 
  -32845   -32846   -32838   -32832   -32837   -32849   -32865   -32886 
  -32907   -32927   -32946   -32964   -32987   -33014   -33041   -33072 
  -33106   -33134   -33151   -33165   -33180   -33191   -33200   -33207 
  -33211   -33216   -33227   -33241   -33255   -33274   -33299   -33320 
  -33335   -33346   -33354   -33358   -33363   -33372   -33373   -33365 
  -33358   -33351   -33343   -33339   -33336   -33335   -33334   -33332 
  -33334   -33340   -33351   -33369   -33388   -33399   -33407   -33413 
  -33412   -33412   -33413   -33407   -33400   -33397   -33386   -33369 
  -33353   -33332   -33312   -33293   -33272   -33250   -33231   -33210 
  -33193   -33173   -33143   -33116   -33088   -33052   -33018   -32989 
  -32967   -32952   -32937   -32919   -32907   -32899   -32892   -32896 
  -32902   -32902   -32902   -32903   -32906   -32910   -32919   -32926 
  -32933   -32942   -32953   -32962   -32968   -32967   -32964   -32957 
  -32942   -32921   -32899   -32873   -32840   -32807   -32786   -32769 
  -32761   -32767   -32778   -32790   -32809   -32833   -32861   -32886 
  -32910   -32937   -32962   -32989   -33011   -33030   -33054   -33084 
  -33118   -33156   -33192   -33224   -33254   -33278   -33291   -33296 
  -33300   -33295   -33281   -33262   -33235   -33200   -33166   -33138 
  -33111   -33084   -33061   -33043   -33033   -33029   -33026   -33023 
  -33025   -33025   -33023   -33022   -33023   -33033   -33052   -33077 
  -33114   -33157   -33196   -33238   -33291   -33345   -33394   -33446 
  -33489   -33524   -33555   -33574   -33583   -33589   -33585   -33575 
  -33565   -33548   -33529   -33508   -33486   -33466   -33446   -33434 
  -33428   -33420   -33420   -33424   -33419   -33412   -33415   -33417 
  -33426   -33439   -33450   -33457   -33465   -33470   -33474   -33485 
  -33505   -33528   -33555   -33583   -33610   -33648   -33694   -33740 
  -33786   -33828   -33864   -33895   -33924   -33944   -33960   -33974 
  -33979   -33984   -33994   -33999   -34005   -34010   -34010   -34006 
  -33997   -33975   -33940   -33889   -33822   -33747   -33670   -33593 
  -33521   -33453   -33390   -33338   -33300   -33273   -33254   -33239 
  -33220   -33196   -33168   -33141   -33115   -33084   -33049   -33014 
  -32980   -32949   -32917   -32883   -32850   -32811   -32764   -32711 
  -32655   -32594   -32539   -32487   -32428   -32362   -32296   -32229 
  -32161   -32094   -32035   -31978   -31922   -31869   -31820   -31773 
  -31730   -31693   -31669   -31658   -31657   -31665   -31681   -31708 
  -31746   -31787   -31831   -31881   -31938   -32001   -32070   -32142 
  -32220   -32304   -32391   -32481   -32567   -32645   -32713   -32771 
  -32819   -32861   -32896   -32925   -32954   -32989   -33023   -33054 
  -33079   -33093   -33097   -33091   -33073   -33048   -33022   -32991 
  -32956   -32918   -32875   -32829   -32786   -32749   -32718   -32690 
  -32668   -32652   -32636   -32620   -32605   -32601   -32602   -32607 
  -32624   -32649   -32686   -32730   -32783   -32852   -32927   -33006 
  -33087   -33170   -33253   -33330   -33408   -33481   -33550   -33617 
  -33679   -33729   -33774   -33820   -33860   -33893   -33917   -33937 
  -33952   -33964   -33979   -33988   -33990   -33990   -33984   -33968 
  -33948   -33920   -33885   -33855   -33829   -33808   -33799   -33809 
  -33828   -33851   -33882   -33912   -33934   -33951   -33966   -33971 
  -33961   -33947   -33932   -33912   -33890   -33878   -33871   -33867 
  -33862   -33863   -33866   -33863   -33860   -33862   -33860   -33860 
  -33860   -33856   -33856   -33860   -33866   -33875   -33886   -33890 
  -33890   -33886   -33875   -33859   -33837   -33812   -33785   -33754 
  -33718   -33682   -33640   -33590   -33539   -33485   -33431   -33376 
  -33323   -33274   -33222   -33170   -33124   -33081   -33037   -32999 
  -32973   -32953   -32938   -32929   -32918   -32910   -32898   -32877 
  -32850   -32817   -32771   -32717   -32659   -32594   -32524   -32455 
  -32391   -32329   -32271   -32223   -32179   -32142   -32116   -32100 
  -32093   -32093   -32097   -32105   -32116   -32124   -32135   -32152 
  -32169   -32189   -32215   -32243   -32274   -32312   -32356   -32402 
  -32447   -32489   -32521   -32545   -32566   -32576   -32576   -32570 
  -32559   -32541   -32526   -32514   -32501   -32491   -32493   -32493 
  -32498   -32508   -32518   -32536   -32555   -32567   -32575   -32589 
  -32606   -32625   -32655   -32686   -32714   -32753   -32803   -32850 
  -32892   -32937   -32976   -33010   -33046   -33084   -33119   -33165 
  -33223   -33284   -33342   -33400   -33459   -33513   -33559   -33602 
  -33644   -33678   -33704   -33728   -33754   -33781   -33809   -33837 
  -33866   -33902   -33945   -33987   -34032   -34078   -34117   -34148 
  -34180   -34207   -34223   -34236   -34245   -34249   -34245   -34229 
  -34210   -34190   -34171   -34155   -34137   -34122   -34103   -34075 
  -34036   -33998   -33960   -33926   -33894   -33864   -33843   -33822 
  -33799   -33782   -33768   -33745   -33718   -33690   -33654   -33613 
  -33570   -33517   -33461   -33407   -33353   -33299   -33250   -33207 
  -33173   -33142   -33110   -33084   -33070   -33066   -33068   -33077 
  -33097   -33123   -33149   -33176   -33211   -33250   -33288   -33332 
  -33385   -33444   -33517   -33597   -33677   -33758   -33832   -33894 
  -33937   -33964   -33975   -33960   -33932   -33905   -33875   -33847 
  -33831   -33826   -33836   -33856   -33883   -33907   -33917   -33913 
  -33901   -33880   -33852   -33818   -33778   -33728   -33675   -33620 
  -33561   -33498   -33439   -33385   -33334   -33282   -33222   -33151 
  -33076   -32992   -32899   -32805   -32711   -32613   -32513   -32422 
  -32346   -32282   -32228   -32184   -32151   -32130   -32116   -32105 
  -32092   -32078   -32065   -32050   -32034   -32013   -31988   -31954 
  -31916   -31877   -31837   -31791   -31745   -31700   -31650   -31603 
  -31568   -31544   -31525   -31517   -31513   -31509   -31507   -31510 
  -31518   -31533   -31557   -31595   -31645   -31702   -31770   -31850 
  -31938   -32036   -32140   -32247   -32364   -32483   -32593   -32695 
  -32792   -32883   -32971   -33058   -33150   -33243   -33335   -33428 
  -33521   -33621   -33725   -33824   -33922   -34013   -34087   -34150 
  -34199   -34231   -34253   -34257   -34244   -34237   -34238   -34237 
  -34240   -34248   -34252   -34248   -34240   -34230   -34217   -34196 
  -34175   -34155   -34134   -34118   -34105   -34091   -34086   -34084 
  -34074   -34063   -34052   -34034   -34015   -33997   -33971   -33947 
  -33914   -33874   -33831   -33781   -33733   -33698   -33663   -33636 
  -33627   -33620   -33616   -33627   -33636   -33643   -33650   -33654 
  -33648   -33636   -33617   -33594   -33570   -33546   -33523   -33504 
  -33489   -33474   -33454   -33428   -33399   -33367   -33334   -33303 
  -33284   -33276   -33280   -33296   -33318   -33346   -33382   -33419 
  -33455   -33490   -33520   -33546   -33561   -33573   -33583   -33592 
  -33598   -33602   -33602   -33604   -33608   -33613   -33610   -33608 
  -33602   -33589   -33567   -33543   -33516   -33485   -33453   -33426 
  -33409   -33409   -33420   -33436   -33462   -33494   -33520   -33538 
  -33552   -33554   -33540   -33519   -33485   -33439   -33385   -33332 
  -33282   -33235   -33196   -33164   -33129   -33089   -33052   -33002 
  -32944   -32879   -32809   -32736   -32668   -32609   -32562   -32532 
  -32517   -32514   -32524   -32539   -32551   -32559   -32562   -32562 
  -32559   -32555   -32557   -32560   -32563   -32567   -32568   -32570 
  -32579   -32595   -32611   -32634   -32664   -32690   -32707   -32722 
  -32734   -32738   -32737   -32737   -32734   -32722   -32711   -32705 
  -32697   -32695   -32697   -32701   -32710   -32722   -32730   -32742 
  -32756   -32765   -32772   -32778   -32776   -32771   -32768   -32771 
  -32778   -32784   -32799   -32818   -32832   -32844   -32860   -32868 
  -32865   -32857   -32845   -32827   -32809   -32783   -32752   -32718 
  -32686   -32653   -32617   -32574   -32535   -32497   -32460   -32435 
  -32420   -32412   -32410   -32416   -32422   -32435   -32449   -32460 
  -32467   -32474   -32485   -32498   -32518   -32544   -32572   -32606 
  -32648   -32684   -32718   -32757   -32796   -32834   -32876   -32927 
  -32983   -33045   -33115   -33184   -33242   -33295   -33339   -33367 
  -33386   -33397   -33403   -33408   -33413   -33420   -33434   -33457 
  -33481   -33511   -33542   -33559   -33563   -33555   -33528   -33485 
  -33434   -33385   -33339   -33299   -33276   -33265   -33262   -33273 
  -33291   -33311   -33332   -33350   -33365   -33370   -33362   -33349 
  -33327   -33299   -33276   -33259   -33259   -33272   -33296   -33331 
  -33369   -33404   -33432   -33451   -33455   -33454   -33450   -33440 
  -33431   -33432   -33442   -33461   -33486   -33516   -33550   -33582 
  -33609   -33635   -33658   -33673   -33682   -33687   -33690   -33698 
  -33710   -33725   -33741   -33760   -33778   -33787   -33790   -33787 
  -33772   -33747   -33717   -33681   -33647   -33628   -33620   -33617 
  -33628   -33642   -33651   -33664   -33679   -33682   -33681   -33671 
  -33648   -33623   -33601   -33583   -33573   -33571   -33577   -33583 
  -33586   -33585   -33573   -33550   -33521   -33488   -33448   -33405 
  -33354   -33295   -33232   -33166   -33096   -33026   -32957   -32896 
  -32844   -32794   -32755   -32726   -32706   -32691   -32675   -32656 
  -32641   -32622   -32602   -32587   -32575   -32572   -32583   -32603 
  -32634   -32678   -32725   -32773   -32822   -32871   -32914   -32954 
  -32998   -33038   -33080   -33127   -33173   -33219   -33266   -33311 
  -33350   -33393   -33434   -33465   -33492   -33516   -33536   -33554 
  -33577   -33610   -33646   -33686   -33727   -33766   -33808   -33849 
  -33891   -33936   -33979   -34020   -34056   -34086   -34110   -34125 
  -34136   -34155   -34172   -34186   -34199   -34209   -34215   -34221 
  -34215   -34200   -34177   -34140   -34090   -34026   -33949   -33860 
  -33758   -33642   -33520   -33401   -33281   -33162   -33053   -32952 
  -32853   -32764   -32682   -32603   -32521   -32436   -32356   -32279 
  -32202   -32138   -32086   -32043   -32017   -32012   -32019   -32039 
  -32073   -32119   -32175   -32242   -32306   -32381   -32468   -32557 
  -32647   -32746   -32854   -32972   -33108   -33255   -33409   -33569 
  -33727   -33879   -34029   -34173   -34311   -34443   -34569   -34689 
  -34803   -34904   -34990   -35067   -35135   -35186   -35224   -35243 
  -35240   -35220   -35182   -35128   -35066   -35001   -34936   -34869 
  -34804   -34738   -34665   -34591   -34514   -34427   -34337   -34246 
  -34146   -34038   -33937   -33831   -33725   -33624   -33527   -33435 
  -33347   -33265   -33192   -33126   -33069   -33018   -32969   -32930 
  -32896   -32852   -32811   -32772   -32719   -32670   -32625   -32568 
  -32510   -32452   -32386   -32314   -32242   -32167   -32098   -32039 
  -31990   -31951   -31916   -31880   -31843   -31810   -31774   -31733 
  -31689   -31648   -31607   -31575   -31554   -31536   -31529   -31531 
  -31536   -31550   -31577   -31600   -31617   -31627   -31637   -31644 
  -31645   -31644   -31644   -31646   -31653   -31660   -31672   -31689 
  -31702   -31708   -31719   -31731   -31741   -31750   -31758   -31768 
  -31781   -31788   -31789   -31791   -31792   -31793   -31797   -31807 
  -31823   -31849   -31877   -31908   -31945   -31985   -32028   -32081 
  -32138   -32198   -32262   -32323   -32385   -32449   -32512   -32568 
  -32622   -32672   -32717   -32760   -32805   -32848   -32894   -32942 
  -32989   -33037   -33085   -33130   -33169   -33204   -33231   -33253 
  -33268   -33272   -33270   -33270   -33269   -33266   -33268   -33272 
  -33269   -33268   -33268   -33269   -33269   -33274   -33291   -33313 
  -33336   -33362   -33390   -33416   -33442   -33474   -33504   -33524 
  -33544   -33562   -33581   -33604   -33628   -33658   -33690   -33723 
  -33754   -33786   -33818   -33851   -33879   -33903   -33917   -33918 
  -33910   -33890   -33866   -33836   -33801   -33771   -33743   -33717 
  -33698   -33690   -33693   -33708   -33732   -33768   -33818   -33872 
  -33926   -33975   -34013   -34041   -34064   -34083   -34103   -34128 
  -34159   -34195   -34225   -34256   -34288   -34310   -34321   -34325 
  -34312   -34284   -34248   -34210   -34164   -34111   -34061   -34013 
  -33961   -33912   -33860   -33806   -33751   -33702   -33652   -33600 
  -33546   -33494   -33444   -33390   -33335   -33281   -33227   -33174 
  -33126   -33081   -33039   -33000   -32964   -32926   -32892   -32867 
  -32840   -32818   -32811   -32814   -32825   -32854   -32898   -32952 
  -33025   -33106   -33185   -33269   -33350   -33423   -33492   -33558 
  -33625   -33693   -33755   -33809   -33855   -33901   -33949   -33990 
  -34024   -34044   -34048   -34034   -34003   -33952   -33890   -33820 
  -33743   -33663   -33586   -33516   -33453   -33392   -33336   -33292 
  -33257   -33222   -33187   -33156   -33126   -33093   -33064   -33038 
  -33011   -32983   -32957   -32929   -32895   -32861   -32830   -32798 
  -32760   -32721   -32674   -32616   -32547   -32471   -32389   -32304 
  -32221   -32142   -32065   -31996   -31935   -31882   -31845   -31820 
  -31806   -31793   -31793   -31796   -31796   -31799   -31810   -31826 
  -31850   -31884   -31932   -31989   -32055   -32136   -32223   -32305 
  -32389   -32476   -32552   -32621   -32683   -32734   -32775   -32806 
  -32833   -32865   -32898   -32930   -32967   -33010   -33060   -33115 
  -33174   -33237   -33301   -33361   -33421   -33477   -33515   -33539 
  -33555   -33555   -33542   -33524   -33502   -33482   -33471   -33466 
  -33466   -33473   -33488   -33509   -33532   -33551   -33570   -33589 
  -33605   -33621   -33643   -33666   -33690   -33725   -33770   -33810 
  -33847   -33883   -33912   -33925   -33932   -33932   -33921   -33903 
  -33886   -33863   -33826   -33791   -33758   -33710   -33662   -33620 
  -33579   -33538   -33500   -33474   -33453   -33438   -33434   -33432 
  -33431   -33436   -33440   -33442   -33443   -33439   -33435   -33431 
  -33428   -33423   -33417   -33413   -33405   -33388   -33365   -33336 
  -33300   -33258   -33211   -33157   -33100   -33042   -32980   -32914 
  -32840   -32763   -32686   -32602   -32518   -32440   -32364   -32296 
  -32235   -32177   -32127   -32084   -32044   -32016   -31996   -31980 
  -31976   -31982   -31992   -32005   -32022   -32043   -32067   -32090 
  -32115   -32138   -32154   -32169   -32177   -32182   -32190   -32198 
  -32208   -32224   -32240   -32255   -32273   -32287   -32302   -32324 
  -32347   -32371   -32409   -32454   -32499   -32553   -32613   -32674 
  -32738   -32803   -32865   -32931   -32999   -33065   -33126   -33183 
  -33231   -33278   -33331   -33380   -33428   -33477   -33524   -33563 
  -33598   -33636   -33670   -33709   -33755   -33791   -33818   -33843 
  -33855   -33852   -33848   -33840   -33818   -33793   -33771   -33748 
  -33723   -33704   -33689   -33673   -33658   -33650   -33636   -33616 
  -33593   -33565   -33531   -33488   -33432   -33370   -33303   -33232 
  -33161   -33091   -33033   -32980   -32931   -32891   -32857   -32827 
  -32802   -32772   -32738   -32702   -32665   -32622   -32572   -32526 
  -32485   -32444   -32410   -32383   -32367   -32360   -32360   -32363 
  -32370   -32378   -32389   -32400   -32408   -32420   -32435   -32448 
  -32464   -32482   -32502   -32528   -32556   -32587   -32622   -32657 
  -32697   -32736   -32773   -32818   -32869   -32921   -32977   -33038 
  -33091   -33139   -33189   -33232   -33264   -33288   -33304   -33318 
  -33328   -33340   -33354   -33362   -33372   -33384   -33394   -33409 
  -33423   -33436   -33455   -33466   -33462   -33459   -33453   -33435 
  -33423   -33417   -33409   -33408   -33413   -33419   -33423   -33431 
  -33442   -33453   -33461   -33463   -33457   -33440   -33413   -33377 
  -33336   -33291   -33243   -33200   -33166   -33137   -33103   -33072 
  -33042   -33011   -32979   -32945   -32911   -32875   -32836   -32798 
  -32765   -32740   -32718   -32698   -32682   -32668   -32655   -32638 
  -32625   -32610   -32601   -32595   -32593   -32597   -32607   -32625 
  -32655   -32694   -32744   -32810   -32883   -32956   -33034   -33118 
