Origin Time       2025/01/13 21:19:00
Lat.              31.8
Long.             131.6
Depth. (km)       30
Mag.              6.9
Station Code      SIGH03
Station Lat.      34.8530
Station Long.     136.0316
Station Height(m) 160
Record Time       2025/01/13 21:22:33
Sampling Freq(Hz) 100Hz
Duration Time(s)  120
Dir.              3
Scale Factor      3923(gal)/8224838
Max. Acc. (gal)   0.105
Last Correction   2025/01/13 21:22:34
Memo.             
  -39775   -39780   -39787   -39789   -39793   -39798   -39799   -39803 
  -39806   -39807   -39811   -39814   -39814   -39812   -39812   -39812 
  -39812   -39812   -39811   -39808   -39808   -39808   -39807   -39808 
  -39810   -39806   -39806   -39808   -39806   -39803   -39803   -39804 
  -39803   -39803   -39804   -39804   -39804   -39804   -39806   -39807 
  -39807   -39808   -39811   -39811   -39812   -39816   -39818   -39818 
  -39822   -39827   -39827   -39829   -39833   -39837   -39838   -39841 
  -39843   -39843   -39847   -39852   -39852   -39853   -39854   -39858 
  -39861   -39861   -39861   -39861   -39865   -39866   -39864   -39864 
  -39868   -39868   -39866   -39869   -39865   -39864   -39866   -39865 
  -39864   -39865   -39865   -39861   -39857   -39853   -39849   -39846 
  -39841   -39834   -39831   -39829   -39823   -39820   -39818   -39812 
  -39810   -39808   -39804   -39802   -39800   -39799   -39796   -39795 
  -39796   -39796   -39792   -39791   -39793   -39795   -39796   -39796 
  -39798   -39799   -39800   -39800   -39803   -39804   -39807   -39810 
  -39811   -39811   -39814   -39816   -39816   -39814   -39816   -39819 
  -39815   -39812   -39812   -39812   -39811   -39807   -39802   -39799 
  -39793   -39788   -39785   -39780   -39777   -39776   -39772   -39766 
  -39764   -39762   -39760   -39756   -39752   -39748   -39748   -39746 
  -39741   -39737   -39735   -39735   -39734   -39730   -39730   -39730 
  -39726   -39726   -39727   -39726   -39726   -39727   -39726   -39726 
  -39726   -39725   -39726   -39726   -39722   -39722   -39725   -39726 
  -39726   -39725   -39725   -39726   -39730   -39731   -39733   -39738 
  -39741   -39742   -39744   -39746   -39750   -39753   -39754   -39753 
  -39754   -39758   -39758   -39758   -39762   -39764   -39764   -39762 
  -39761   -39762   -39764   -39764   -39761   -39760   -39758   -39756 
  -39753   -39749   -39748   -39746   -39739   -39735   -39734   -39730 
  -39725   -39721   -39715   -39708   -39706   -39702   -39695   -39690 
  -39685   -39679   -39676   -39673   -39665   -39661   -39660   -39656 
  -39649   -39648   -39646   -39645   -39641   -39640   -39640   -39638 
  -39638   -39641   -39641   -39638   -39638   -39640   -39640   -39641 
  -39645   -39648   -39650   -39653   -39656   -39656   -39660   -39667 
  -39669   -39671   -39675   -39677   -39679   -39683   -39688   -39690 
  -39692   -39695   -39696   -39699   -39703   -39708   -39711   -39714 
  -39717   -39718   -39721   -39723   -39727   -39733   -39735   -39737 
  -39739   -39739   -39742   -39746   -39749   -39750   -39750   -39754 
  -39758   -39760   -39761   -39764   -39765   -39766   -39772   -39773 
  -39772   -39773   -39775   -39775   -39776   -39777   -39777   -39783 
  -39785   -39781   -39779   -39781   -39777   -39776   -39779   -39780 
  -39780   -39780   -39780   -39781   -39780   -39777   -39779   -39779 
  -39779   -39781   -39780   -39777   -39776   -39779   -39780   -39779 
  -39781   -39781   -39783   -39783   -39779   -39776   -39776   -39775 
  -39775   -39772   -39769   -39772   -39773   -39775   -39773   -39772 
  -39775   -39776   -39775   -39775   -39772   -39771   -39776   -39777 
  -39772   -39775   -39779   -39776   -39776   -39779   -39780   -39784 
  -39784   -39784   -39787   -39787   -39787   -39788   -39791   -39793 
  -39798   -39799   -39800   -39802   -39804   -39808   -39812   -39815 
  -39819   -39823   -39826   -39831   -39834   -39838   -39843   -39849 
  -39853   -39858   -39862   -39866   -39873   -39879   -39883   -39887 
  -39889   -39892   -39897   -39901   -39906   -39908   -39912   -39918 
  -39922   -39920   -39922   -39927   -39928   -39928   -39928   -39928 
  -39930   -39930   -39927   -39926   -39924   -39922   -39919   -39918 
  -39916   -39914   -39911   -39908   -39906   -39901   -39896   -39892 
  -39885   -39879   -39870   -39866   -39862   -39853   -39846   -39839 
  -39833   -39829   -39825   -39815   -39806   -39798   -39791   -39785 
  -39777   -39768   -39762   -39757   -39748   -39739   -39733   -39726 
  -39719   -39715   -39710   -39702   -39695   -39691   -39688   -39683 
  -39680   -39677   -39676   -39671   -39668   -39668   -39667   -39664 
  -39665   -39667   -39667   -39668   -39669   -39671   -39676   -39677 
  -39677   -39680   -39684   -39688   -39695   -39698   -39699   -39706 
  -39710   -39712   -39719   -39726   -39729   -39733   -39737   -39741 
  -39745   -39748   -39752   -39754   -39757   -39758   -39757   -39760 
  -39765   -39765   -39762   -39765   -39765   -39764   -39765   -39766 
  -39766   -39765   -39762   -39764   -39762   -39761   -39761   -39758 
  -39754   -39753   -39754   -39753   -39752   -39750   -39748   -39745 
  -39742   -39739   -39738   -39737   -39733   -39730   -39727   -39722 
  -39718   -39717   -39711   -39707   -39706   -39700   -39694   -39691 
  -39685   -39680   -39676   -39672   -39668   -39669   -39665   -39658 
  -39657   -39656   -39654   -39654   -39650   -39650   -39650   -39648 
  -39648   -39649   -39649   -39650   -39653   -39653   -39653   -39656 
  -39660   -39664   -39667   -39669   -39673   -39679   -39684   -39688 
  -39691   -39694   -39698   -39702   -39704   -39707   -39712   -39718 
  -39722   -39726   -39729   -39733   -39735   -39739   -39744   -39744 
  -39746   -39749   -39749   -39752   -39754   -39757   -39758   -39760 
  -39764   -39764   -39764   -39766   -39766   -39765   -39765   -39762 
  -39762   -39764   -39765   -39766   -39766   -39765   -39764   -39762 
  -39760   -39760   -39761   -39762   -39764   -39765   -39765   -39764 
  -39764   -39766   -39769   -39769   -39766   -39766   -39769   -39769 
  -39771   -39775   -39776   -39773   -39776   -39780   -39779   -39777 
  -39780   -39781   -39779   -39779   -39784   -39785   -39783   -39783 
  -39788   -39789   -39788   -39787   -39788   -39789   -39788   -39787 
  -39784   -39781   -39779   -39781   -39781   -39777   -39772   -39768 
  -39765   -39765   -39765   -39765   -39761   -39758   -39757   -39754 
  -39756   -39757   -39757   -39756   -39754   -39749   -39750   -39750 
  -39749   -39752   -39752   -39750   -39753   -39754   -39754   -39754 
  -39753   -39752   -39753   -39754   -39757   -39758   -39758   -39758 
  -39764   -39765   -39762   -39764   -39768   -39769   -39771   -39775 
  -39776   -39776   -39779   -39780   -39781   -39785   -39791   -39793 
  -39799   -39802   -39803   -39808   -39812   -39812   -39815   -39819 
  -39822   -39825   -39827   -39831   -39837   -39839   -39839   -39843 
  -39847   -39850   -39853   -39857   -39860   -39864   -39865   -39865 
  -39868   -39870   -39869   -39868   -39870   -39872   -39872   -39872 
  -39872   -39874   -39874   -39873   -39870   -39868   -39866   -39864 
  -39861   -39861   -39860   -39857   -39853   -39849   -39846   -39842 
  -39835   -39829   -39826   -39819   -39812   -39811   -39806   -39798 
  -39791   -39784   -39777   -39769   -39764   -39758   -39750   -39741 
  -39735   -39730   -39721   -39714   -39706   -39696   -39688   -39683 
  -39675   -39667   -39657   -39649   -39642   -39637   -39631   -39625 
  -39614   -39607   -39604   -39599   -39595   -39588   -39579   -39572 
  -39572   -39569   -39563   -39559   -39553   -39550   -39550   -39546 
  -39541   -39541   -39541   -39537   -39538   -39540   -39537   -39536 
  -39534   -39536   -39537   -39537   -39537   -39540   -39541   -39542 
  -39545   -39549   -39552   -39552   -39556   -39563   -39567   -39569 
  -39573   -39577   -39580   -39584   -39591   -39595   -39602   -39606 
  -39610   -39617   -39619   -39623   -39631   -39637   -39640   -39642 
  -39648   -39656   -39660   -39663   -39668   -39675   -39673   -39676 
  -39683   -39687   -39692   -39698   -39700   -39703   -39707   -39711 
  -39714   -39717   -39719   -39723   -39725   -39726   -39731   -39737 
  -39741   -39742   -39744   -39750   -39754   -39756   -39760   -39760 
  -39762   -39768   -39771   -39769   -39769   -39771   -39772   -39773 
  -39775   -39777   -39779   -39779   -39780   -39783   -39779   -39776 
  -39777   -39777   -39777   -39777   -39775   -39773   -39773   -39775 
  -39776   -39775   -39776   -39777   -39775   -39775   -39779   -39779 
  -39781   -39781   -39779   -39783   -39787   -39787   -39787   -39788 
  -39791   -39795   -39796   -39793   -39795   -39799   -39799   -39802 
  -39804   -39804   -39804   -39804   -39806   -39810   -39812   -39811 
  -39810   -39812   -39816   -39816   -39815   -39814   -39816   -39819 
  -39822   -39825   -39825   -39825   -39826   -39825   -39826   -39829 
  -39830   -39830   -39829   -39830   -39830   -39827   -39830   -39831 
  -39827   -39825   -39826   -39827   -39825   -39820   -39820   -39818 
  -39814   -39814   -39812   -39808   -39806   -39804   -39802   -39799 
  -39796   -39793   -39791   -39789   -39788   -39784   -39779   -39776 
  -39775   -39775   -39771   -39768   -39768   -39764   -39758   -39757 
  -39754   -39749   -39748   -39748   -39745   -39741   -39741   -39739 
  -39734   -39733   -39734   -39730   -39730   -39729   -39725   -39723 
  -39722   -39722   -39723   -39723   -39722   -39722   -39723   -39726 
  -39727   -39727   -39727   -39730   -39730   -39729   -39730   -39735 
  -39739   -39739   -39741   -39744   -39745   -39745   -39745   -39748 
  -39750   -39750   -39750   -39752   -39752   -39752   -39750   -39750 
  -39750   -39750   -39752   -39750   -39748   -39746   -39746   -39748 
  -39745   -39744   -39744   -39744   -39742   -39741   -39741   -39741 
  -39741   -39739   -39739   -39739   -39741   -39741   -39738   -39741 
  -39744   -39742   -39744   -39745   -39748   -39753   -39754   -39754 
  -39756   -39757   -39761   -39766   -39768   -39771   -39773   -39775 
  -39777   -39779   -39780   -39783   -39783   -39783   -39787   -39788 
  -39787   -39788   -39789   -39791   -39791   -39788   -39788   -39789 
  -39789   -39789   -39788   -39785   -39780   -39780   -39779   -39776 
  -39775   -39771   -39766   -39765   -39762   -39760   -39761   -39757 
  -39752   -39749   -39746   -39745   -39742   -39739   -39738   -39735 
  -39734   -39734   -39729   -39722   -39722   -39725   -39722   -39717 
  -39712   -39711   -39708   -39708   -39707   -39703   -39699   -39699 
  -39698   -39696   -39695   -39692   -39688   -39687   -39687   -39687 
  -39688   -39690   -39690   -39690   -39690   -39690   -39690   -39687 
  -39688   -39690   -39691   -39692   -39690   -39690   -39694   -39694 
  -39692   -39694   -39694   -39694   -39695   -39692   -39692   -39696 
  -39695   -39694   -39692   -39691   -39691   -39690   -39688   -39690 
  -39687   -39683   -39683   -39681   -39676   -39672   -39671   -39668 
  -39668   -39668   -39663   -39660   -39658   -39658   -39660   -39657 
  -39653   -39656   -39656   -39656   -39658   -39661   -39665   -39668 
  -39671   -39673   -39677   -39681   -39687   -39692   -39698   -39706 
  -39712   -39717   -39726   -39735   -39742   -39748   -39754   -39761 
  -39768   -39775   -39783   -39791   -39796   -39804   -39811   -39818 
  -39822   -39827   -39834   -39839   -39845   -39849   -39854   -39858 
  -39860   -39861   -39866   -39872   -39874   -39873   -39874   -39877 
  -39880   -39880   -39877   -39874   -39873   -39873   -39870   -39868 
  -39866   -39864   -39858   -39854   -39852   -39847   -39842   -39837 
  -39833   -39826   -39818   -39812   -39808   -39800   -39793   -39788 
  -39781   -39776   -39769   -39764   -39758   -39754   -39750   -39745 
  -39742   -39739   -39734   -39731   -39729   -39726   -39726   -39723 
  -39718   -39719   -39719   -39719   -39718   -39718   -39719   -39721 
  -39718   -39719   -39721   -39721   -39725   -39726   -39726   -39730 
  -39730   -39730   -39735   -39738   -39741   -39742   -39742   -39746 
  -39750   -39752   -39753   -39754   -39758   -39760   -39760   -39761 
  -39761   -39761   -39760   -39761   -39762   -39762   -39761   -39761 
  -39762   -39761   -39760   -39761   -39760   -39756   -39757   -39757 
  -39756   -39754   -39753   -39754   -39754   -39752   -39752   -39750 
  -39749   -39749   -39750   -39749   -39748   -39745   -39746   -39746 
  -39746   -39745   -39742   -39741   -39741   -39741   -39741   -39741 
  -39738   -39737   -39738   -39735   -39734   -39733   -39733   -39731 
  -39730   -39730   -39730   -39730   -39730   -39729   -39727   -39729 
  -39729   -39729   -39729   -39730   -39730   -39730   -39733   -39735 
  -39739   -39741   -39741   -39745   -39748   -39750   -39753   -39756 
  -39758   -39761   -39762   -39761   -39761   -39762   -39764   -39762 
  -39764   -39764   -39764   -39764   -39765   -39764   -39762   -39764 
  -39764   -39758   -39757   -39754   -39752   -39752   -39750   -39749 
  -39746   -39741   -39738   -39738   -39735   -39727   -39726   -39725 
  -39717   -39714   -39712   -39706   -39699   -39698   -39695   -39690 
  -39684   -39681   -39679   -39675   -39672   -39668   -39664   -39664 
  -39663   -39657   -39656   -39654   -39652   -39652   -39648   -39648 
  -39649   -39646   -39646   -39650   -39649   -39649   -39652   -39650 
  -39649   -39652   -39653   -39657   -39660   -39660   -39667   -39672 
  -39669   -39672   -39679   -39681   -39683   -39685   -39690   -39694 
  -39698   -39699   -39703   -39707   -39711   -39714   -39715   -39717 
  -39719   -39721   -39725   -39729   -39729   -39731   -39735   -39735 
  -39738   -39741   -39745   -39749   -39748   -39750   -39756   -39753 
  -39753   -39760   -39761   -39760   -39764   -39764   -39764   -39766 
  -39766   -39765   -39766   -39769   -39766   -39765   -39769   -39766 
  -39762   -39764   -39764   -39761   -39762   -39762   -39758   -39756 
  -39752   -39749   -39746   -39746   -39746   -39742   -39741   -39741 
  -39738   -39734   -39733   -39730   -39729   -39730   -39727   -39723 
  -39722   -39725   -39722   -39718   -39714   -39712   -39712   -39711 
  -39708   -39707   -39706   -39704   -39703   -39702   -39698   -39695 
  -39694   -39692   -39691   -39690   -39687   -39684   -39679   -39679 
  -39684   -39681   -39675   -39676   -39680   -39680   -39677   -39676 
  -39676   -39679   -39680   -39680   -39680   -39683   -39687   -39688 
  -39690   -39692   -39694   -39698   -39700   -39703   -39706   -39708 
  -39712   -39717   -39718   -39722   -39729   -39733   -39738   -39745 
  -39750   -39753   -39756   -39762   -39769   -39773   -39779   -39785 
  -39792   -39798   -39803   -39807   -39812   -39820   -39827   -39833 
  -39835   -39839   -39845   -39850   -39854   -39858   -39860   -39862 
  -39868   -39868   -39869   -39874   -39873   -39873   -39876   -39872 
  -39873   -39876   -39872   -39868   -39868   -39866   -39865   -39862 
  -39857   -39854   -39856   -39856   -39853   -39846   -39842   -39842 
  -39838   -39834   -39831   -39830   -39827   -39825   -39822   -39820 
  -39816   -39815   -39815   -39811   -39811   -39812   -39808   -39807 
  -39806   -39804   -39806   -39806   -39804   -39802   -39800   -39802 
  -39802   -39799   -39800   -39803   -39800   -39796   -39795   -39793 
  -39792   -39792   -39792   -39789   -39788   -39788   -39788   -39785 
  -39780   -39777   -39779   -39779   -39773   -39768   -39765   -39764 
  -39761   -39757   -39754   -39753   -39750   -39746   -39744   -39744 
  -39738   -39734   -39734   -39730   -39727   -39729   -39726   -39722 
  -39721   -39721   -39718   -39715   -39715   -39712   -39708   -39711 
  -39711   -39708   -39707   -39706   -39704   -39704   -39704   -39703 
  -39704   -39707   -39706   -39706   -39707   -39707   -39710   -39712 
  -39712   -39715   -39721   -39725   -39725   -39727   -39733   -39735 
  -39738   -39744   -39746   -39749   -39753   -39756   -39758   -39764 
  -39765   -39768   -39771   -39771   -39772   -39776   -39777   -39777 
  -39777   -39780   -39780   -39777   -39776   -39776   -39776   -39775 
  -39773   -39773   -39776   -39776   -39772   -39769   -39769   -39768 
  -39766   -39769   -39766   -39761   -39758   -39758   -39756   -39753 
  -39750   -39750   -39746   -39742   -39739   -39737   -39733   -39729 
  -39726   -39723   -39722   -39719   -39715   -39711   -39708   -39703 
  -39702   -39700   -39696   -39691   -39691   -39691   -39687   -39683 
  -39683   -39680   -39677   -39679   -39679   -39677   -39677   -39676 
  -39676   -39679   -39681   -39681   -39679   -39679   -39683   -39684 
  -39685   -39688   -39688   -39688   -39692   -39695   -39695   -39698 
  -39698   -39699   -39703   -39707   -39706   -39706   -39708   -39708 
  -39707   -39708   -39708   -39710   -39714   -39718   -39719   -39721 
  -39721   -39721   -39722   -39725   -39725   -39725   -39730   -39731 
  -39733   -39737   -39739   -39741   -39744   -39749   -39753   -39756 
  -39758   -39761   -39761   -39762   -39766   -39769   -39773   -39776 
  -39777   -39779   -39781   -39781   -39784   -39789   -39792   -39793 
  -39796   -39796   -39796   -39796   -39798   -39802   -39806   -39803 
  -39803   -39806   -39807   -39810   -39811   -39811   -39814   -39819 
  -39820   -39820   -39822   -39826   -39830   -39831   -39833   -39835 
  -39838   -39839   -39838   -39839   -39841   -39841   -39842   -39842 
  -39841   -39842   -39841   -39839   -39838   -39838   -39837   -39835 
  -39834   -39829   -39825   -39825   -39826   -39822   -39819   -39819 
  -39818   -39816   -39814   -39814   -39814   -39808   -39807   -39807 
  -39807   -39808   -39806   -39800   -39802   -39803   -39800   -39800 
  -39799   -39798   -39798   -39796   -39795   -39793   -39792   -39791 
  -39791   -39788   -39784   -39783   -39783   -39779   -39775   -39775 
  -39771   -39765   -39765   -39762   -39757   -39752   -39749   -39744 
  -39738   -39734   -39730   -39727   -39725   -39719   -39715   -39715 
  -39708   -39703   -39702   -39698   -39692   -39687   -39684   -39680 
  -39675   -39673   -39669   -39663   -39660   -39656   -39650   -39649 
  -39646   -39644   -39642   -39640   -39638   -39637   -39636   -39637 
  -39634   -39631   -39631   -39631   -39634   -39634   -39633   -39638 
  -39642   -39644   -39646   -39652   -39656   -39658   -39663   -39668 
  -39672   -39677   -39684   -39691   -39695   -39702   -39708   -39715 
  -39722   -39730   -39737   -39746   -39756   -39762   -39771   -39779 
  -39787   -39791   -39798   -39807   -39814   -39820   -39827   -39835 
  -39842   -39846   -39853   -39857   -39862   -39869   -39876   -39881 
  -39885   -39888   -39895   -39899   -39901   -39906   -39908   -39908 
  -39912   -39916   -39916   -39918   -39922   -39922   -39920   -39923 
  -39923   -39922   -39919   -39919   -39918   -39915   -39912   -39910 
  -39907   -39906   -39903   -39897   -39893   -39889   -39888   -39887 
  -39884   -39879   -39876   -39874   -39869   -39865   -39862   -39861 
  -39857   -39852   -39847   -39846   -39843   -39838   -39834   -39831 
  -39827   -39825   -39822   -39819   -39815   -39810   -39807   -39806 
  -39800   -39795   -39796   -39795   -39789   -39785   -39784   -39781 
  -39779   -39777   -39775   -39768   -39764   -39762   -39761   -39757 
  -39753   -39750   -39746   -39744   -39742   -39739   -39737   -39735 
  -39735   -39730   -39727   -39725   -39719   -39717   -39715   -39711 
  -39708   -39706   -39699   -39698   -39699   -39695   -39690   -39687 
  -39687   -39684   -39680   -39679   -39679   -39677   -39677   -39676 
  -39676   -39676   -39676   -39676   -39677   -39677   -39676   -39676 
