Origin Time       2025/01/13 21:19:00
Lat.              31.8
Long.             131.6
Depth. (km)       30
Mag.              6.9
Station Code      SIGH03
Station Lat.      34.8530
Station Long.     136.0316
Station Height(m) 360
Record Time       2025/01/13 21:22:33
Sampling Freq(Hz) 100Hz
Duration Time(s)  120
Dir.              5
Scale Factor      7845(gal)/8223790
Max. Acc. (gal)   0.234
Last Correction   2025/01/13 21:22:34
Memo.             
[...]
    1760     1760     1763     1763     1760     1763     1765     1765 
    1765     1771     1775     1777     1786     1796     1803     1806 
    1811     1817     1819     1821     1819     1818     1815     1814 
    1811     1807     1807     1809     1804     1802     1800     1795 
    1788     1780     1769     1761     1757     1750     1748     1746 
    1745     1745     1744     1744     1744     1745     1742     1742 
    1745     1745     1745     1748     1749     1752     1761     1771 
    1782     1795     1809     1819     1833     1844     1850     1853 
    1857     1863     1864     1868     1875     1879     1884     1898 
    1914     1925     1939     1958     1976     1988     1999     2006 
    2012     2020     2023     2027     2037     2045     2049     2052 
    2056     2054     2047     2035     2025     2010     1995     1981 
    1968     1954     1942     1933     1925     1917     1908     1899 
    1890     1880     1868     1854     1841     1829     1814     1800 
    1791     1780     1769     1756     1745     1740     1737     1733 
    1734     1738     1741     1744     1748     1750     1750     1756 
    1761     1764     1768     1776     1783     1788     1792     1800 
    1809     1818     1827     1837     1846     1854     1864     1877 
    1892     1906     1918     1929     1935     1938     1937     1934 
    1929     1925     1915     1904     1896     1887     1876     1869 
    1865     1864     1865     1867     1873     1879     1880     1881 
    1884     1885     1891     1894     1894     1892     1892     1891 
    1888     1883     1880     1880     1876     1869     1868     1867 
    1864     1861     1861     1861     1863     1867     1871     1873 
    1875     1871     1865     1860     1852     1848     1848     1844 
    1838     1838     1833     1825     1821     1817     1815     1817 
    1815     1817     1821     1822     1826     1834     1844     1853 
    1861     1871     1879     1884     1887     1888     1890     1891 
    1892     1894     1894     1891     1887     1883     1877     1873 
    1864     1853     1844     1830     1818     1807     1795     1783 
    1772     1763     1753     1746     1740     1733     1725     1717 
    1713     1715     1713     1710     1707     1705     1702     1699 
    1699     1698     1696     1698     1698     1695     1695     1698 
    1701     1703     1710     1719     1729     1741     1752     1761 
    1769     1773     1777     1780     1782     1787     1792     1795 
    1802     1807     1813     1818     1819     1819     1821     1819 
    1815     1811     1806     1800     1800     1803     1806     1807 
    1811     1817     1822     1825     1831     1842     1852     1858 
    1869     1877     1879     1883     1890     1895     1899     1902 
    1903     1906     1911     1915     1919     1926     1934     1942 
    1952     1962     1971     1981     1991     1995     1995     1992 
    1989     1988     1987     1983     1977     1975     1972     1968 
    1964     1961     1957     1953     1948     1939     1937     1935 
    1930     1922     1917     1912     1906     1900     1895     1888 
    1881     1876     1875     1871     1869     1869     1872     1873 
    1877     1881     1883     1883     1881     1881     1881     1880 
    1879     1883     1890     1896     1907     1922     1935     1948 
    1962     1976     1985     1992     1993     1993     1989     1981 
    1976     1971     1966     1964     1958     1954     1952     1948 
    1942     1938     1931     1919     1910     1898     1883     1871 
    1858     1848     1841     1837     1834     1834     1837     1837 
    1834     1833     1833     1830     1830     1829     1827     1827 
    1833     1840     1842     1848     1852     1856     1858     1861 
    1864     1871     1879     1885     1894     1903     1911     1917 
    1921     1923     1925     1923     1923     1918     1912     1910 
    1907     1900     1892     1884     1873     1861     1849     1838 
    1827     1822     1817     1811     1803     1796     1787     1776 
    1765     1759     1749     1741     1737     1733     1730     1728 
    1726     1729     1733     1736     1737     1741     1745     1744 
    1744     1750     1756     1760     1763     1768     1775     1786 
    1795     1804     1815     1823     1834     1848     1861     1872 
    1880     1891     1903     1911     1915     1921     1925     1929 
    1930     1933     1937     1938     1937     1934     1930     1926 
    1922     1915     1906     1899     1891     1879     1871     1865 
    1858     1848     1837     1826     1815     1803     1792     1784 
    1773     1764     1756     1749     1742     1733     1725     1719 
    1713     1706     1699     1692     1688     1686     1682     1682 
    1684     1687     1692     1699     1706     1713     1719     1725 
    1730     1736     1741     1748     1755     1761     1771     1777 
    1787     1794     1799     1804     1810     1814     1817     1823 
    1829     1834     1841     1848     1854     1863     1865     1865 
    1867     1871     1869     1868     1869     1871     1872     1875 
    1872     1869     1869     1865     1861     1854     1850     1848 
    1845     1846     1846     1846     1848     1846     1842     1841 
    1837     1834     1831     1829     1825     1822     1819     1821 
    1826     1830     1836     1840     1845     1850     1854     1860 
    1867     1871     1873     1880     1887     1891     1896     1899 
    1899     1900     1898     1891     1887     1884     1876     1863 
    1854     1849     1842     1833     1827     1825     1817     1806 
    1798     1790     1782     1777     1773     1767     1760     1757 
    1755     1755     1759     1765     1769     1775     1780     1786 
    1795     1806     1815     1827     1842     1857     1869     1884 
    1900     1910     1918     1925     1929     1931     1935     1937 
    1941     1950     1958     1962     1966     1972     1977     1981 
    1979     1977     1976     1972     1968     1964     1958     1956 
    1949     1938     1934     1930     1923     1918     1914     1908 
    1904     1899     1895     1891     1884     1876     1868     1856 
    1841     1827     1821     1814     1806     1799     1794     1788 
    1786     1783     1779     1776     1776     1776     1777     1780 
    1784     1788     1790     1790     1788     1786     1784     1783 
    1786     1787     1794     1802     1810     1821     1833     1842 
    1854     1868     1879     1891     1903     1911     1917     1923 
    1929     1931     1933     1931     1934     1937     1935     1934 
    1935     1935     1933     1927     1921     1915     1912     1908 
    1904     1899     1892     1890     1885     1879     1873     1869 
    1864     1857     1850     1842     1833     1825     1818     1811 
    1802     1792     1786     1783     1782     1777     1775     1776 
    1779     1779     1780     1784     1791     1799     1806     1814 
    1823     1834     1842     1850     1856     1860     1865     1872 
    1876     1877     1883     1885     1887     1888     1892     1898 
    1900     1904     1912     1922     1926     1930     1935     1939 
    1942     1942     1942     1942     1941     1939     1939     1934 
    1925     1917     1911     1906     1903     1902     1896     1894 
    1894     1894     1891     1888     1884     1884     1881     1877 
    1875     1877     1877     1876     1877     1879     1877     1876 
    1873     1868     1867     1864     1861     1861     1860     1857 
    1856     1854     1850     1845     1841     1840     1838     1834 
    1830     1827     1825     1822     1823     1827     1830     1830 
    1831     1830     1825     1819     1813     1807     1800     1794 
    1786     1776     1769     1761     1750     1745     1742     1736 
    1730     1728     1725     1723     1722     1719     1719     1721 
    1722     1725     1728     1725     1725     1725     1721     1717 
    1714     1707     1703     1702     1699     1696     1701     1709 
    1715     1722     1729     1736     1741     1748     1750     1753 
    1759     1765     1772     1777     1782     1787     1791     1795 
    1796     1799     1799     1800     1800     1796     1795     1794 
    1791     1791     1792     1794     1796     1796     1796     1799 
    1802     1803     1804     1809     1813     1815     1822     1826 
    1829     1834     1840     1841     1846     1852     1856     1861 
    1868     1875     1880     1885     1891     1896     1903     1911 
    1918     1922     1926     1931     1934     1938     1944     1948 
    1948     1949     1950     1948     1941     1937     1930     1922 
    1912     1903     1894     1885     1877     1868     1857     1849 
    1841     1831     1826     1822     1818     1814     1810     1809 
    1807     1802     1796     1792     1791     1791     1792     1795 
    1802     1811     1822     1836     1850     1865     1881     1896 
    1907     1923     1941     1954     1966     1983     1999     2011 
    2015     2019     2029     2031     2033     2039     2046     2047 
    2049     2050     2053     2054     2053     2053     2049     2042 
    2034     2022     2008     1999     1989     1976     1964     1954 
    1945     1938     1935     1929     1921     1914     1906     1900 
    1894     1887     1887     1888     1884     1884     1884     1880 
    1879     1877     1872     1869     1868     1864     1861     1860 
    1858     1860     1860     1858     1856     1853     1853     1854 
    1854     1853     1852     1852     1852     1850     1852     1852 
    1849     1848     1848     1848     1845     1845     1845     1845 
    1846     1845     1844     1844     1841     1838     1840     1837 
    1836     1836     1833     1827     1822     1814     1806     1800 
    1791     1782     1775     1763     1753     1748     1740     1736 
    1733     1726     1718     1714     1707     1702     1696     1694 
    1691     1688     1687     1686     1687     1688     1688     1690 
    1694     1699     1705     1710     1718     1726     1734     1744 
    1752     1760     1772     1784     1796     1814     1830     1844 
    1861     1877     1892     1908     1919     1929     1939     1948 
    1953     1960     1964     1965     1965     1964     1961     1958 
    1953     1948     1944     1937     1923     1910     1898     1883 
    1869     1854     1838     1826     1815     1807     1798     1790 
    1783     1779     1777     1780     1780     1779     1780     1782 
    1784     1787     1791     1795     1798     1802     1809     1815 
    1819     1825     1834     1842     1849     1854     1856     1860 
    1865     1868     1869     1869     1871     1872     1871     1871 
    1872     1872     1868     1865     1864     1863     1860     1858 
    1860     1858     1854     1853     1856     1856     1854     1854 
    1854     1856     1860     1863     1864     1869     1877     1883 
    1887     1895     1903     1908     1914     1922     1926     1927 
    1927     1929     1926     1921     1919     1919     1914     1907 
    1900     1892     1883     1875     1868     1864     1861     1856 
    1850     1845     1838     1834     1829     1825     1822     1819 
    1817     1811     1807     1807     1806     1804     1804     1807 
    1810     1814     1822     1831     1837     1841     1848     1849 
    1849     1850     1849     1852     1856     1857     1861     1867 
    1872     1876     1876     1877     1880     1883     1881     1879 
    1879     1883     1885     1890     1895     1904     1911     1915 
    1921     1925     1927     1931     1937     1938     1942     1946 
    1949     1954     1961     1965     1968     1973     1979     1981 
    1981     1979     1973     1971     1971     1969     1964     1960 
    1958     1954     1948     1945     1942     1939     1934     1927 
    1919     1912     1906     1900     1895     1888     1880     1873 
    1869     1863     1856     1853     1852     1849     1846     1849 
    1853     1853     1858     1868     1871     1875     1881     1884 
    1887     1892     1896     1900     1903     1907     1911     1911 
    1911     1914     1915     1918     1922     1925     1926     1931 
    1935     1937     1938     1941     1939     1935     1933     1931 
    1927     1922     1917     1914     1910     1904     1900     1898 
    1892     1884     1877     1871     1864     1860     1858     1856 
    1852     1849     1846     1841     1841     1842     1844     1844 
    1845     1845     1841     1836     1836     1833     1826     1821 
    1817     1814     1813     1813     1809     1806     1806     1803 
    1799     1796     1794     1791     1790     1787     1787     1791 
    1794     1796     1800     1802     1806     1814     1819     1825 
    1831     1841     1850     1860     1868     1877     1884     1887 
    1890     1892     1894     1896     1899     1898     1898     1904 
    1907     1908     1912     1914     1914     1912     1907     1903 
    1899     1891     1883     1875     1867     1856     1842     1829 
    1815     1802     1787     1773     1756     1738     1725     1710 
    1696     1684     1672     1661     1653     1647     1642     1640 
    1638     1634     1629     1624     1621     1617     1613     1611 
    1614     1618     1624     1632     1642     1655     1665     1675 
    1687     1699     1711     1726     1742     1761     1782     1796 
    1811     1827     1842     1856     1873     1891     1907     1922 
    1935     1948     1960     1972     1983     1992     2000     2006 
    2008     2010     2008     2004     2002     1998     1992     1985 
    1977     1966     1957     1946     1937     1927     1918     1907 
    1896     1890     1885     1881     1875     1869     1867     1861 
    1853     1848     1849     1850     1849     1852     1854     1857 
    1861     1868     1872     1877     1885     1894     1899     1903 
    1910     1912     1914     1918     1921     1923     1926     1933 
    1939     1944     1948     1956     1964     1969     1977     1987 
    1992     1999     2008     2018     2025     2030     2033     2034 
    2035     2038     2039     2042     2045     2045     2045     2045 
    2043     2041     2039     2035     2026     2018     2014     2007 
    1999     1988     1980     1972     1962     1953     1945     1934 
    1926     1918     1908     1902     1892     1879     1868     1858 
    1848     1838     1830     1822     1813     1807     1802     1794 
    1791     1791     1791     1791     1795     1799     1800     1804 
    1810     1815     1823     1831     1837     1842     1848     1852 
    1854     1854     1857     1857     1858     1860     1861     1864 
    1865     1863     1863     1864     1860     1856     1857     1858 
    1856     1854     1853     1850     1850     1853     1853     1852 
    1852     1853     1853     1853     1853     1854     1854     1856 
    1860     1863     1861     1863     1863     1860     1856     1854 
    1852     1848     1846     1846     1846     1844     1845     1848 
    1845     1845     1848     1849     1849     1850     1854     1854 
    1856     1858     1860     1856     1854     1850     1845     1840 
    1834     1827     1821     1815     1813     1809     1806     1806 
    1806     1806     1806     1804     1803     1803     1804     1804 
    1800     1799     1798     1795     1795     1798     1799     1799 
    1802     1804     1804     1804     1806     1809     1810     1810 
    1811     1811     1810     1813     1815     1815     1813     1814 
    1817     1822     1827     1834     1837     1837     1840     1840 
    1837     1836     1834     1829     1825     1822     1819     1819 
    1822     1827     1834     1841     1846     1850     1853     1854 
    1856     1861     1863     1860     1861     1865     1869     1872 
    1876     1880     1880     1881     1887     1890     1890     1887 
    1887     1885     1880     1877     1876     1873     1872     1867 
    1863     1861     1860     1860     1858     1857     1856     1854 
    1854     1849     1846     1848     1849     1848     1848     1846 
    1841     1840     1837     1833     1829     1827     1825     1822 
    1823     1825     1826     1825     1821     1818     1818     1815 
    1813     1811     1807     1806     1807     1803     1800     1800 
    1799     1798     1799     1798     1796     1796     1796     1795 
    1794     1794     1794     1791     1788     1786     1782     1779 
    1776     1773     1772     1773     1775     1773     1775     1777 
    1779     1780     1783     1786     1790     1795     1798     1802 
    1807     1811     1814     1817     1821     1823     1822     1821 
    1825     1827     1827     1831     1836     1840     1842     1842 
    1844     1845     1845     1844     1841     1840     1837     1830 
    1827     1825     1821     1818     1815     1811     1813     1813 
    1811     1813     1813     1811     1810     1811     1810     1807 
    1810     1811     1813     1814     1817     1819     1823     1826 
    1830     1834     1837     1844     1849     1854     1858     1863 
    1865     1865     1865     1872     1879     1880     1884     1891 
    1896     1903     1910     1918     1923     1929     1934     1939 
    1944     1946     1952     1952     1953     1954     1954     1954 
    1954     1953     1953     1953     1952     1949     1950     1950 
    1950     1950     1950     1950     1950     1950     1950     1950 
    1948     1945     1944     1939     1934     1933     1931     1925 
    1921     1917     1911     1904     1900     1896     1892     1891 
    1887     1881     1880     1877     1876     1876     1873     1868 
    1863     1856     1849     1842     1836     1829     1823     1815 
    1811     1811     1809     1804     1807     1807     1804     1803 
    1806     1809     1807     1804     1803     1804     1803     1800 
    1802     1802     1799     1800     1803     1802     1799     1799 
    1799     1796     1795     1796     1796     1796     1795     1792 
    1792     1792     1791     1790     1792     1794     1794     1799 
    1807     1814     1822     1830     1837     1849     1860     1868 
    1879     1892     1900     1908     1917     1921     1925     1931 
    1939     1946     1949     1954     1964     1969     1972     1973 
    1976     1977     1975     1972     1968     1957     1946     1935 
    1925     1915     1906     1898     1891     1884     1876     1869 
    1860     1850     1842     1834     1827     1821     1815     1813 
    1811     1810     1809     1810     1810     1813     1817     1818 
    1818     1822     1826     1830     1836     1840     1841     1845 
    1850     1853     1856     1861     1865     1868     1872     1875 
    1875     1876     1880     1879     1877     1876     1873     1871 
    1872     1872     1868     1868     1869     1875     1880     1885 
    1890     1894     1894     1898     1900     1900     1900     1903 
