Origin Time       2025/01/13 21:19:00
Lat.              31.8
Long.             131.6
Depth. (km)       30
Mag.              6.9
Station Code      SIGH03
Station Lat.      34.8530
Station Long.     136.0316
Station Height(m) 160
Record Time       2025/01/13 21:22:33
Sampling Freq(Hz) 100Hz
Duration Time(s)  120
Dir.              2
Scale Factor      3923(gal)/8224838
Max. Acc. (gal)   0.101
Last Correction   2025/01/13 21:22:34
Memo.             
[...]
  -40794   -40801   -40807   -40814   -40819   -40825   -40829   -40833 
  -40840   -40846   -40851   -40855   -40860   -40864   -40867   -40873 
  -40882   -40886   -40888   -40892   -40896   -40903   -40906   -40905 
  -40906   -40909   -40911   -40914   -40917   -40917   -40918   -40919 
  -40921   -40922   -40921   -40919   -40919   -40918   -40917   -40918 
  -40915   -40913   -40914   -40911   -40906   -40905   -40899   -40892 
  -40891   -40888   -40883   -40879   -40873   -40868   -40865   -40863 
  -40856   -40851   -40849   -40846   -40844   -40841   -40837   -40833 
  -40832   -40828   -40825   -40824   -40822   -40822   -40821   -40817 
  -40815   -40815   -40811   -40807   -40809   -40810   -40807   -40805 
  -40803   -40802   -40801   -40803   -40805   -40805   -40806   -40807 
  -40809   -40809   -40810   -40811   -40814   -40815   -40817   -40818 
  -40818   -40821   -40826   -40825   -40825   -40832   -40834   -40836 
  -40838   -40840   -40841   -40844   -40846   -40849   -40851   -40852 
  -40857   -40861   -40863   -40864   -40868   -40872   -40875   -40878 
  -40879   -40882   -40884   -40888   -40894   -40896   -40896   -40902 
  -40906   -40909   -40914   -40917   -40919   -40926   -40933   -40937 
  -40945   -40949   -40950   -40956   -40961   -40965   -40973   -40979 
  -40981   -40987   -40992   -40995   -40998   -40999   -41003   -41008 
  -41008   -41010   -41014   -41019   -41019   -41022   -41025   -41026 
  -41027   -41031   -41033   -41034   -41034   -41034   -41037   -41040 
  -41041   -41041   -41041   -41041   -41040   -41037   -41034   -41033 
  -41031   -41027   -41022   -41019   -41017   -41011   -41004   -40998 
  -40991   -40987   -40980   -40969   -40961   -40952   -40945   -40940 
  -40932   -40925   -40918   -40911   -40902   -40894   -40890   -40882 
  -40875   -40873   -40867   -40857   -40853   -40849   -40844   -40840 
  -40834   -40830   -40829   -40825   -40818   -40815   -40811   -40803 
  -40799   -40795   -40791   -40786   -40783   -40779   -40775   -40771 
  -40770   -40767   -40764   -40760   -40759   -40756   -40755   -40752 
  -40749   -40747   -40745   -40743   -40741   -40738   -40733   -40733 
  -40732   -40728   -40729   -40732   -40730   -40729   -40732   -40734 
  -40730   -40728   -40730   -40732   -40732   -40732   -40730   -40730 
  -40732   -40730   -40728   -40726   -40726   -40725   -40726   -40728 
  -40726   -40726   -40726   -40728   -40729   -40732   -40733   -40733 
  -40736   -40738   -40740   -40740   -40743   -40745   -40747   -40751 
  -40753   -40753   -40753   -40755   -40755   -40755   -40756   -40759 
  -40759   -40760   -40763   -40764   -40765   -40767   -40768   -40770 
  -40772   -40775   -40772   -40772   -40775   -40778   -40778   -40779 
  -40778   -40776   -40779   -40783   -40783   -40783   -40786   -40788 
  -40786   -40787   -40792   -40795   -40797   -40799   -40803   -40810 
  -40813   -40814   -40818   -40825   -40826   -40830   -40837   -40841 
  -40844   -40851   -40855   -40857   -40861   -40864   -40867   -40871 
  -40875   -40879   -40883   -40886   -40886   -40890   -40894   -40896 
  -40899   -40899   -40896   -40899   -40903   -40905   -40906   -40907 
  -40910   -40911   -40913   -40913   -40913   -40914   -40915   -40915 
  -40917   -40917   -40917   -40917   -40915   -40917   -40921   -40921 
  -40921   -40919   -40921   -40922   -40923   -40923   -40926   -40926 
  -40926   -40929   -40927   -40922   -40923   -40923   -40922   -40922 
  -40922   -40922   -40922   -40921   -40919   -40921   -40921   -40921 
  -40921   -40919   -40919   -40919   -40919   -40922   -40923   -40923 
  -40922   -40923   -40923   -40925   -40925   -40923   -40925   -40926 
  -40926   -40927   -40927   -40929   -40932   -40932   -40930   -40933 
  -40936   -40938   -40941   -40940   -40941   -40946   -40946   -40950 
  -40954   -40954   -40959   -40961   -40965   -40967   -40968   -40969 
  -40972   -40975   -40977   -40980   -40983   -40986   -40987   -40987 
  -40990   -40991   -40991   -40991   -40991   -40991   -40987   -40984 
  -40984   -40980   -40976   -40975   -40972   -40972   -40972   -40969 
  -40967   -40964   -40960   -40956   -40954   -40950   -40946   -40945 
  -40941   -40937   -40934   -40929   -40926   -40925   -40919   -40915 
  -40913   -40907   -40900   -40896   -40894   -40892   -40891   -40887 
  -40882   -40879   -40878   -40875   -40871   -40867   -40863   -40863 
  -40861   -40859   -40859   -40857   -40856   -40857   -40857   -40859 
  -40861   -40863   -40863   -40864   -40865   -40864   -40865   -40867 
  -40871   -40871   -40871   -40875   -40876   -40875   -40879   -40882 
  -40879   -40880   -40884   -40884   -40884   -40887   -40886   -40887 
  -40891   -40890   -40890   -40890   -40890   -40887   -40884   -40886 
  -40887   -40883   -40880   -40882   -40882   -40878   -40875   -40872 
  -40869   -40869   -40869   -40865   -40863   -40861   -40860   -40860 
  -40859   -40852   -40846   -40846   -40845   -40842   -40840   -40836 
  -40829   -40826   -40826   -40824   -40822   -40821   -40817   -40813 
  -40813   -40810   -40809   -40810   -40809   -40805   -40805   -40803 
  -40803   -40802   -40801   -40802   -40802   -40799   -40801   -40803 
  -40806   -40805   -40803   -40806   -40807   -40810   -40813   -40811 
  -40813   -40818   -40822   -40819   -40819   -40822   -40826   -40828 
  -40829   -40830   -40830   -40834   -40840   -40840   -40838   -40841 
  -40844   -40845   -40846   -40848   -40849   -40853   -40852   -40852 
  -40856   -40859   -40855   -40853   -40855   -40857   -40857   -40857 
  -40859   -40859   -40859   -40860   -40863   -40865   -40865   -40864 
  -40867   -40869   -40868   -40868   -40869   -40871   -40873   -40873 
  -40873   -40873   -40875   -40875   -40875   -40873   -40869   -40869 
  -40871   -40867   -40867   -40868   -40861   -40857   -40857   -40857 
  -40855   -40853   -40853   -40851   -40849   -40851   -40851   -40851 
  -40849   -40848   -40846   -40849   -40849   -40848   -40848   -40848 
  -40846   -40846   -40846   -40846   -40845   -40845   -40846   -40846 
  -40845   -40846   -40848   -40848   -40848   -40848   -40846   -40845 
  -40842   -40841   -40840   -40838   -40838   -40838   -40834   -40829 
  -40830   -40830   -40824   -40819   -40821   -40819   -40815   -40814 
  -40814   -40813   -40807   -40806   -40809   -40807   -40806   -40807 
  -40806   -40802   -40801   -40799   -40801   -40799   -40795   -40794 
  -40794   -40792   -40790   -40788   -40788   -40787   -40786   -40784 
  -40786   -40786   -40786   -40787   -40787   -40788   -40788   -40788 
  -40790   -40792   -40794   -40795   -40801   -40806   -40807   -40809 
  -40813   -40818   -40825   -40829   -40832   -40837   -40841   -40844 
  -40849   -40855   -40860   -40867   -40872   -40876   -40884   -40892 
  -40896   -40902   -40907   -40915   -40921   -40922   -40930   -40938 
  -40941   -40945   -40950   -40953   -40959   -40964   -40967   -40972 
  -40975   -40979   -40983   -40987   -40990   -40992   -40999   -41006 
  -41008   -41010   -41015   -41023   -41026   -41030   -41034   -41034 
  -41037   -41041   -41045   -41049   -41053   -41053   -41056   -41056 
  -41057   -41058   -41056   -41056   -41056   -41052   -41050   -41052 
  -41049   -41045   -41042   -41040   -41038   -41035   -41030   -41029 
  -41025   -41019   -41014   -41008   -41003   -40998   -40995   -40994 
  -40990   -40981   -40977   -40976   -40971   -40967   -40965   -40964 
  -40960   -40957   -40954   -40952   -40949   -40944   -40940   -40938 
  -40937   -40934   -40929   -40922   -40921   -40919   -40913   -40909 
  -40906   -40903   -40899   -40896   -40895   -40891   -40888   -40888 
  -40886   -40880   -40878   -40878   -40878   -40873   -40871   -40869 
  -40867   -40867   -40867   -40868   -40865   -40864   -40864   -40863 
  -40863   -40861   -40857   -40855   -40855   -40851   -40851   -40849 
  -40845   -40841   -40841   -40840   -40836   -40833   -40832   -40829 
  -40826   -40822   -40821   -40818   -40813   -40810   -40810   -40810 
  -40807   -40806   -40805   -40799   -40797   -40798   -40795   -40792 
  -40794   -40792   -40790   -40790   -40790   -40787   -40786   -40784 
  -40782   -40780   -40778   -40776   -40776   -40772   -40770   -40770 
  -40765   -40761   -40759   -40753   -40748   -40745   -40740   -40736 
  -40733   -40724   -40718   -40717   -40709   -40703   -40702   -40698 
  -40691   -40689   -40684   -40679   -40675   -40672   -40674   -40674 
  -40671   -40671   -40671   -40670   -40672   -40675   -40676   -40680 
  -40684   -40684   -40686   -40691   -40698   -40703   -40705   -40707 
  -40711   -40717   -40721   -40725   -40732   -40738   -40743   -40748 
  -40755   -40760   -40765   -40771   -40779   -40786   -40792   -40799 
  -40805   -40810   -40819   -40826   -40832   -40840   -40848   -40852 
  -40857   -40864   -40869   -40875   -40880   -40886   -40891   -40895 
  -40900   -40906   -40910   -40914   -40918   -40925   -40933   -40937 
  -40938   -40942   -40949   -40953   -40957   -40963   -40964   -40968 
  -40975   -40980   -40980   -40980   -40988   -40994   -40990   -40996 
  -41003   -41000   -40999   -41003   -41006   -41006   -41006   -41006 
  -41008   -41010   -41008   -41007   -41006   -41006   -41006   -41006 
  -41004   -41000   -40998   -40996   -40991   -40988   -40986   -40983 
  -40980   -40976   -40969   -40965   -40961   -40956   -40956   -40953 
  -40946   -40941   -40938   -40936   -40930   -40925   -40922   -40918 
  -40914   -40911   -40909   -40903   -40899   -40898   -40895   -40891 
  -40888   -40886   -40882   -40880   -40880   -40879   -40876   -40876 
  -40876   -40875   -40871   -40872   -40873   -40871   -40871   -40869 
  -40871   -40871   -40869   -40872   -40873   -40873   -40875   -40875 
  -40876   -40880   -40879   -40876   -40875   -40875   -40875   -40876 
  -40876   -40876   -40873   -40875   -40875   -40871   -40871   -40872 
  -40871   -40868   -40867   -40865   -40863   -40863   -40863   -40861 
  -40857   -40855   -40853   -40853   -40852   -40849   -40846   -40846 
  -40845   -40840   -40837   -40837   -40837   -40833   -40834   -40836 
  -40833   -40832   -40833   -40832   -40830   -40829   -40832   -40833 
  -40832   -40829   -40828   -40828   -40829   -40832   -40832   -40829 
  -40830   -40832   -40832   -40832   -40830   -40828   -40829   -40830 
  -40829   -40828   -40826   -40826   -40828   -40828   -40828   -40829 
  -40829   -40828   -40829   -40829   -40830   -40832   -40833   -40833 
  -40833   -40838   -40840   -40840   -40840   -40838   -40842   -40848 
  -40851   -40852   -40852   -40852   -40853   -40856   -40859   -40856 
  -40857   -40859   -40856   -40857   -40857   -40853   -40855   -40855 
  -40849   -40852   -40855   -40851   -40844   -40844   -40844   -40841 
  -40837   -40833   -40830   -40826   -40822   -40818   -40817   -40814 
  -40810   -40806   -40805   -40801   -40795   -40791   -40787   -40784 
  -40780   -40780   -40778   -40772   -40770   -40768   -40763   -40761 
  -40760   -40753   -40749   -40749   -40748   -40748   -40748   -40747 
  -40744   -40743   -40743   -40743   -40740   -40737   -40736   -40734 
  -40738   -40740   -40734   -40734   -40737   -40734   -40730   -40734 
  -40734   -40732   -40736   -40738   -40736   -40737   -40738   -40737 
  -40741   -40743   -40744   -40747   -40747   -40748   -40752   -40753 
  -40755   -40757   -40757   -40757   -40760   -40761   -40763   -40767 
  -40768   -40767   -40771   -40774   -40774   -40775   -40779   -40779 
  -40779   -40782   -40783   -40788   -40792   -40791   -40792   -40797 
  -40798   -40799   -40802   -40805   -40805   -40809   -40813   -40811 
  -40813   -40817   -40818   -40819   -40821   -40825   -40828   -40828 
  -40829   -40833   -40836   -40838   -40840   -40842   -40845   -40845 
  -40846   -40851   -40852   -40851   -40852   -40853   -40855   -40856 
  -40856   -40857   -40860   -40860   -40860   -40863   -40867   -40867 
  -40864   -40864   -40865   -40867   -40868   -40869   -40867   -40867 
  -40869   -40871   -40871   -40872   -40872   -40873   -40873   -40876 
  -40879   -40880   -40883   -40886   -40888   -40890   -40891   -40891 
  -40894   -40896   -40898   -40900   -40905   -40907   -40909   -40911 
  -40915   -40918   -40919   -40921   -40923   -40926   -40930   -40938 
  -40941   -40945   -40952   -40952   -40954   -40963   -40968   -40972 
  -40977   -40983   -40988   -40994   -41000   -41007   -41011   -41019 
  -41026   -41030   -41038   -41045   -41046   -41049   -41054   -41058 
  -41061   -41062   -41061   -41061   -41065   -41065   -41061   -41060 
  -41060   -41056   -41053   -41050   -41045   -41042   -41040   -41033 
  -41027   -41021   -41014   -41010   -41006   -40999   -40991   -40986 
  -40979   -40971   -40965   -40960   -40954   -40948   -40940   -40934 
  -40929   -40917   -40907   -40906   -40898   -40886   -40878   -40873 
  -40867   -40857   -40849   -40844   -40836   -40828   -40822   -40817 
  -40811   -40806   -40798   -40791   -40787   -40782   -40778   -40772 
  -40767   -40761   -40757   -40755   -40753   -40752   -40749   -40745 
  -40743   -40743   -40740   -40736   -40736   -40736   -40736   -40734 
  -40732   -40728   -40729   -40732   -40729   -40726   -40726   -40726 
  -40725   -40724   -40724   -40721   -40717   -40717   -40714   -40710 
  -40709   -40705   -40698   -40695   -40694   -40689   -40683   -40680 
  -40676   -40672   -40668   -40666   -40663   -40657   -40655   -40655 
  -40652   -40649   -40649   -40648   -40645   -40645   -40647   -40647 
  -40645   -40647   -40647   -40645   -40645   -40648   -40649   -40652 
  -40656   -40662   -40664   -40668   -40675   -40682   -40687   -40691 
  -40698   -40705   -40710   -40717   -40722   -40729   -40737   -40744 
  -40749   -40756   -40764   -40772   -40775   -40779   -40786   -40791 
  -40795   -40803   -40810   -40813   -40817   -40819   -40825   -40832 
  -40834   -40836   -40841   -40846   -40851   -40853   -40855   -40859 
  -40861   -40861   -40863   -40867   -40868   -40871   -40871   -40869 
  -40872   -40875   -40872   -40872   -40876   -40875   -40871   -40872 
  -40871   -40869   -40869   -40868   -40867   -40867   -40864   -40863 
  -40861   -40861   -40861   -40860   -40859   -40856   -40856   -40856 
  -40857   -40859   -40857   -40855   -40856   -40857   -40857   -40857 
  -40859   -40863   -40864   -40864   -40867   -40869   -40871   -40875 
  -40879   -40879   -40880   -40886   -40887   -40887   -40887   -40888 
  -40892   -40891   -40891   -40895   -40896   -40895   -40898   -40899 
  -40896   -40898   -40898   -40899   -40902   -40902   -40902   -40903 
  -40906   -40906   -40906   -40907   -40910   -40914   -40913   -40910 
  -40915   -40918   -40914   -40915   -40921   -40919   -40921   -40922 
  -40921   -40923   -40926   -40925   -40929   -40930   -40929   -40932 
  -40933   -40930   -40930   -40933   -40934   -40933   -40932   -40930 
  -40930   -40929   -40927   -40927   -40926   -40925   -40923   -40922 
  -40919   -40918   -40915   -40911   -40911   -40910   -40909   -40906 
  -40903   -40900   -40900   -40899   -40896   -40894   -40890   -40886 
  -40887   -40883   -40879   -40880   -40879   -40873   -40873   -40872 
  -40869   -40868   -40864   -40860   -40860   -40861   -40863   -40860 
  -40857   -40857   -40856   -40855   -40855   -40855   -40853   -40853 
  -40856   -40859   -40859   -40857   -40860   -40860   -40861   -40861 
  -40861   -40865   -40869   -40867   -40867   -40871   -40875   -40878 
  -40879   -40880   -40883   -40884   -40886   -40887   -40890   -40894 
  -40894   -40895   -40900   -40902   -40899   -40902   -40907   -40909 
  -40909   -40911   -40914   -40917   -40917   -40918   -40921   -40923 
  -40923   -40925   -40929   -40929   -40929   -40930   -40932   -40930 
  -40930   -40933   -40933   -40934   -40936   -40938   -40938   -40938 
  -40938   -40941   -40942   -40944   -40944   -40942   -40941   -40944 
  -40945   -40945   -40945   -40945   -40945   -40946   -40948   -40948 
  -40949   -40952   -40952   -40953   -40953   -40952   -40953   -40954 
  -40954   -40956   -40959   -40959   -40959   -40960   -40959   -40956 
  -40956   -40954   -40952   -40950   -40950   -40952   -40949   -40945 
  -40944   -40944   -40942   -40938   -40934   -40933   -40933   -40932 
  -40927   -40925   -40925   -40922   -40918   -40918   -40917   -40911 
  -40909   -40906   -40905   -40903   -40899   -40895   -40894   -40891 
  -40888   -40886   -40880   -40876   -40873   -40869   -40865   -40863 
  -40857   -40848   -40844   -40841   -40834   -40829   -40825   -40819 
  -40815   -40809   -40802   -40797   -40791   -40790   -40787   -40782 
  -40776   -40772   -40768   -40764   -40759   -40755   -40752   -40747 
  -40743   -40737   -40736   -40738   -40738   -40734   -40730   -40728 
  -40726   -40726   -40726   -40725   -40724   -40722   -40722   -40722 
  -40721   -40722   -40722   -40722   -40725   -40726   -40724   -40726 
  -40732   -40733   -40734   -40738   -40741   -40744   -40748   -40752 
  -40756   -40761   -40767   -40770   -40775   -40783   -40788   -40792 
  -40799   -40805   -40809   -40815   -40819   -40824   -40832   -40837 
  -40841   -40849   -40853   -40856   -40864   -40871   -40875   -40878 
  -40880   -40883   -40890   -40895   -40898   -40900   -40903   -40905 
  -40907   -40910   -40911   -40913   -40913   -40913   -40913   -40914 
  -40914   -40915   -40915   -40915   -40915   -40913   -40913   -40914 
  -40910   -40906   -40907   -40906   -40903   -40902   -40898   -40895 
  -40896   -40895   -40891   -40890   -40890   -40887   -40882   -40880 
  -40876   -40871   -40869   -40869   -40865   -40861   -40860   -40856 
  -40853   -40848   -40845   -40844   -40840   -40836   -40833   -40832 
  -40829   -40825   -40822   -40819   -40815   -40815   -40817   -40814 
  -40813   -40814   -40814   -40809   -40806   -40810   -40813   -40811 
  -40813   -40813   -40815   -40819   -40819   -40819   -40824   -40828 
  -40826   -40828   -40830   -40829   -40829   -40832   -40832   -40833 
  -40836   -40834   -40836   -40836   -40834   -40833   -40833   -40834 
  -40834   -40833   -40833   -40833   -40830   -40832   -40833   -40832 
  -40830   -40829   -40828   -40828   -40826   -40828   -40828   -40826 
  -40825   -40826   -40824   -40822   -40826   -40826   -40825   -40825 
  -40825   -40826   -40826   -40826   -40825   -40828   -40830   -40830 
  -40829   -40832   -40833   -40830   -40830   -40832   -40834   -40836 
  -40834   -40832   -40834   -40836   -40836   -40837   -40836   -40837 
  -40840   -40840   -40842   -40844   -40841   -40841   -40842   -40844 
  -40844   -40848   -40848   -40845   -40849   -40852   -40848   -40849 
  -40855   -40853   -40851   -40851   -40853   -40852   -40851   -40852 
  -40853   -40852   -40849   -40848   -40848   -40849   -40848   -40845 
  -40845   -40846   -40845   -40841   -40841   -40842   -40841   -40840 
  -40838   -40840   -40838   -40836   -40834   -40833   -40833   -40834 
  -40829   -40826   -40830   -40829   -40828   -40829   -40830   -40829 
  -40826   -40825   -40822   -40824   -40824   -40822   -40821   -40821 
  -40818   -40819   -40821   -40819   -40817   -40818   -40821   -40821 
  -40819   -40818   -40817   -40818   -40819   -40818   -40821   -40822 
  -40821   -40822   -40824   -40822   -40822   -40822   -40825   -40828 
