Origin Time       2025/01/13 21:19:00
Lat.              31.8
Long.             131.6
Depth. (km)       30
Mag.              6.9
Station Code      SIGH03
Station Lat.      34.8530
Station Long.     136.0316
Station Height(m) 360
Record Time       2025/01/13 21:22:33
Sampling Freq(Hz) 100Hz
Duration Time(s)  120
Dir.              6
Scale Factor      7845(gal)/8223790
Max. Acc. (gal)   0.113
Last Correction   2025/01/13 21:22:34
Memo.             
  -15020   -15024   -15029   -15032   -15034   -15037   -15039   -15043 
  -15045   -15045   -15044   -15047   -15047   -15045   -15044   -15044 
  -15041   -15037   -15037   -15041   -15047   -15049   -15052   -15055 
  -15056   -15056   -15057   -15057   -15055   -15049   -15049   -15047 
  -15040   -15036   -15034   -15030   -15028   -15029   -15030   -15032 
  -15033   -15037   -15041   -15043   -15045   -15044   -15040   -15040 
  -15041   -15041   -15039   -15037   -15037   -15039   -15041   -15047 
  -15047   -15044   -15047   -15052   -15051   -15049   -15048   -15043 
  -15039   -15036   -15030   -15025   -15025   -15026   -15025   -15028 
  -15033   -15037   -15041   -15045   -15051   -15053   -15052   -15053 
  -15055   -15053   -15052   -15052   -15051   -15049   -15049   -15051 
  -15051   -15048   -15045   -15045   -15041   -15036   -15030   -15026 
  -15024   -15024   -15025   -15024   -15024   -15025   -15022   -15020 
  -15020   -15022   -15021   -15020   -15024   -15028   -15030   -15036 
  -15037   -15040   -15045   -15045   -15044   -15045   -15049   -15052 
  -15051   -15051   -15051   -15048   -15045   -15044   -15043   -15041 
  -15044   -15045   -15048   -15051   -15051   -15053   -15053   -15048 
  -15044   -15037   -15029   -15022   -15016   -15010   -15006   -15002 
  -14995   -14990   -14993   -14993   -14993   -14994   -14995   -14998 
  -15001   -15005   -15007   -15010   -15010   -15012   -15010   -15007 
  -15003   -15003   -15002   -14998   -14993   -14990   -14987   -14983 
  -14983   -14983   -14983   -14983   -14986   -14985   -14983   -14983 
  -14985   -14982   -14976   -14975   -14972   -14971   -14974   -14976 
  -14979   -14982   -14982   -14983   -14987   -14990   -14990   -14990 
  -14991   -14995   -14999   -15005   -15007   -15012   -15012   -15012 
  -15012   -15009   -15006   -15007   -15006   -15006   -15009   -15012 
  -15013   -15017   -15018   -15016   -15014   -15009   -15001   -14994 
  -14990   -14985   -14976   -14971   -14967   -14963   -14962   -14958 
  -14953   -14952   -14949   -14945   -14940   -14939   -14939   -14937 
  -14937   -14939   -14937   -14937   -14939   -14940   -14937   -14939 
  -14943   -14945   -14947   -14948   -14955   -14960   -14964   -14971 
  -14978   -14980   -14983   -14982   -14980   -14980   -14976   -14978 
  -14982   -14982   -14980   -14982   -14983   -14985   -14982   -14978 
  -14975   -14971   -14966   -14960   -14958   -14955   -14952   -14955 
  -14959   -14958   -14958   -14964   -14968   -14970   -14971   -14972 
  -14975   -14979   -14985   -14990   -14993   -14997   -15002   -15006 
  -15010   -15016   -15020   -15020   -15022   -15024   -15026   -15030 
  -15032   -15032   -15033   -15034   -15033   -15032   -15034   -15036 
  -15034   -15032   -15028   -15025   -15025   -15021   -15020   -15020 
  -15016   -15014   -15014   -15009   -15005   -15003   -15003   -15003 
  -15001   -14999   -15003   -15007   -15010   -15010   -15014   -15018 
  -15018   -15022   -15028   -15026   -15025   -15024   -15022   -15020 
  -15018   -15020   -15021   -15024   -15026   -15028   -15028   -15028 
  -15026   -15028   -15030   -15029   -15026   -15028   -15029   -15028 
  -15026   -15026   -15025   -15022   -15024   -15025   -15024   -15021 
  -15020   -15018   -15018   -15018   -15018   -15021   -15025   -15028 
  -15028   -15028   -15029   -15029   -15029   -15032   -15030   -15026 
  -15026   -15029   -15029   -15029   -15030   -15032   -15033   -15037 
  -15040   -15043   -15045   -15045   -15045   -15045   -15044   -15043 
  -15040   -15040   -15041   -15043   -15045   -15049   -15055   -15063 
  -15070   -15074   -15076   -15079   -15084   -15084   -15084   -15086 
  -15084   -15084   -15087   -15087   -15088   -15091   -15090   -15090 
  -15091   -15090   -15090   -15091   -15090   -15086   -15082   -15080 
  -15083   -15082   -15078   -15079   -15078   -15074   -15072   -15071 
  -15064   -15053   -15047   -15041   -15033   -15028   -15022   -15017 
  -15016   -15017   -15016   -15016   -15013   -15012   -15010   -15006 
  -15001   -14999   -14994   -14990   -14990   -14989   -14983   -14982 
  -14978   -14972   -14967   -14963   -14962   -14959   -14953   -14949 
  -14949   -14949   -14948   -14945   -14947   -14945   -14945   -14947 
  -14947   -14947   -14951   -14956   -14960   -14966   -14970   -14975 
  -14979   -14982   -14987   -14994   -14999   -14999   -15002   -15005 
  -15009   -15013   -15016   -15017   -15018   -15022   -15024   -15021 
  -15018   -15018   -15020   -15020   -15021   -15020   -15017   -15013 
  -15009   -15007   -15005   -15001   -15001   -15002   -15001   -14999 
  -14997   -14993   -14993   -14994   -14993   -14993   -14991   -14991 
  -14993   -14991   -14993   -14993   -14993   -14993   -14993   -14989 
  -14985   -14982   -14982   -14983   -14983   -14983   -14980   -14976 
  -14974   -14974   -14974   -14971   -14967   -14966   -14966   -14966 
  -14964   -14966   -14970   -14971   -14971   -14971   -14967   -14963 
  -14963   -14964   -14962   -14960   -14962   -14963   -14962   -14958 
  -14952   -14951   -14953   -14956   -14956   -14953   -14952   -14951 
  -14953   -14956   -14958   -14960   -14960   -14960   -14964   -14967 
  -14968   -14971   -14974   -14980   -14986   -14991   -14995   -14998 
  -15003   -15012   -15013   -15016   -15022   -15025   -15024   -15025 
  -15024   -15024   -15022   -15020   -15013   -15009   -15010   -15009 
  -15007   -15009   -15012   -15013   -15012   -15012   -15010   -15006 
  -15002   -14998   -14990   -14986   -14985   -14982   -14982   -14982 
  -14986   -14991   -14993   -14995   -15001   -15001   -15001   -15003 
  -15007   -15010   -15012   -15013   -15014   -15014   -15018   -15022 
  -15022   -15024   -15025   -15028   -15029   -15029   -15032   -15034 
  -15040   -15045   -15047   -15049   -15053   -15053   -15051   -15051 
  -15049   -15048   -15045   -15041   -15037   -15034   -15030   -15028 
  -15025   -15022   -15020   -15018   -15016   -15013   -15009   -15007 
  -15006   -15003   -14999   -14999   -14999   -15002   -15003   -15002 
  -15002   -15003   -15005   -15006   -15006   -15006   -15007   -15005 
  -14999   -14999   -15001   -15001   -15002   -15002   -15001   -14999 
  -15001   -15001   -14998   -14997   -14999   -14999   -15002   -15006 
  -15009   -15010   -15014   -15020   -15022   -15022   -15021   -15024 
  -15026   -15024   -15021   -15024   -15024   -15022   -15026   -15029 
  -15029   -15032   -15037   -15041   -15043   -15044   -15045   -15045 
  -15043   -15041   -15040   -15039   -15037   -15036   -15033   -15034 
  -15036   -15041   -15047   -15051   -15055   -15060   -15066   -15068 
  -15071   -15074   -15075   -15074   -15070   -15067   -15066   -15063 
  -15060   -15059   -15056   -15053   -15049   -15047   -15043   -15036 
  -15034   -15033   -15026   -15022   -15020   -15016   -15013   -15012 
  -15012   -15010   -15007   -15006   -15003   -14997   -14993   -14995 
  -14993   -14987   -14986   -14986   -14985   -14985   -14986   -14986 
  -14986   -14986   -14987   -14987   -14985   -14978   -14970   -14966 
  -14960   -14955   -14952   -14949   -14947   -14944   -14940   -14937 
  -14935   -14931   -14929   -14926   -14921   -14920   -14916   -14912 
  -14910   -14910   -14906   -14904   -14902   -14901   -14897   -14895 
  -14898   -14897   -14895   -14895   -14895   -14895   -14894   -14890 
  -14890   -14890   -14887   -14886   -14889   -14890   -14887   -14889 
  -14890   -14893   -14895   -14898   -14901   -14902   -14904   -14905 
  -14910   -14916   -14917   -14921   -14925   -14926   -14931   -14937 
  -14944   -14949   -14953   -14959   -14962   -14963   -14968   -14974 
  -14975   -14979   -14980   -14980   -14983   -14987   -14986   -14986 
  -14989   -14989   -14991   -14994   -14993   -14993   -14997   -14998 
  -14998   -14999   -15002   -15005   -15005   -15006   -15012   -15012 
  -15010   -15014   -15016   -15016   -15017   -15018   -15020   -15020 
  -15017   -15018   -15024   -15024   -15021   -15021   -15020   -15021 
  -15022   -15022   -15024   -15025   -15025   -15026   -15028   -15030 
  -15034   -15036   -15036   -15036   -15037   -15040   -15040   -15040 
  -15041   -15041   -15040   -15039   -15037   -15036   -15036   -15036 
  -15033   -15030   -15030   -15028   -15025   -15022   -15018   -15013 
  -15012   -15013   -15014   -15014   -15013   -15014   -15017   -15018 
  -15018   -15020   -15022   -15024   -15024   -15024   -15029   -15033 
  -15033   -15030   -15030   -15033   -15034   -15032   -15030   -15028 
  -15028   -15034   -15039   -15037   -15039   -15040   -15037   -15036 
  -15036   -15033   -15033   -15032   -15030   -15032   -15029   -15028 
  -15030   -15032   -15033   -15034   -15034   -15034   -15033   -15032 
  -15029   -15025   -15025   -15026   -15026   -15024   -15020   -15020 
  -15020   -15017   -15017   -15016   -15013   -15012   -15016   -15014 
  -15009   -15010   -15010   -15007   -15006   -15003   -14998   -14995 
  -14993   -14990   -14986   -14980   -14976   -14975   -14974   -14974 
  -14972   -14976   -14980   -14982   -14980   -14982   -14985   -14983 
  -14979   -14976   -14975   -14974   -14974   -14975   -14978   -14982 
  -14983   -14983   -14990   -14995   -14997   -14997   -14995   -14998 
  -15001   -14997   -14994   -14994   -14993   -14991   -14993   -14997 
  -14998   -15001   -15003   -15006   -15003   -15002   -15001   -14998 
  -14997   -14994   -14993   -14990   -14986   -14985   -14985   -14980 
  -14979   -14979   -14976   -14975   -14978   -14979   -14980   -14987 
  -14991   -14995   -15003   -15007   -15010   -15013   -15014   -15016 
  -15016   -15017   -15018   -15017   -15020   -15025   -15025   -15026 
  -15030   -15034   -15036   -15039   -15041   -15043   -15043   -15044 
  -15044   -15045   -15048   -15051   -15048   -15049   -15052   -15049 
  -15045   -15044   -15044   -15043   -15039   -15034   -15039   -15040 
  -15037   -15034   -15036   -15036   -15036   -15037   -15032   -15025 
  -15021   -15016   -15010   -15005   -15002   -14997   -14993   -14991 
  -14987   -14982   -14979   -14974   -14971   -14970   -14966   -14963 
  -14963   -14963   -14960   -14955   -14955   -14959   -14958   -14956 
  -14959   -14960   -14962   -14963   -14963   -14964   -14964   -14963 
  -14963   -14964   -14962   -14963   -14962   -14960   -14962   -14962 
  -14959   -14960   -14962   -14962   -14963   -14964   -14966   -14968 
  -14971   -14970   -14971   -14972   -14972   -14975   -14976   -14978 
  -14982   -14985   -14983   -14980   -14980   -14980   -14980   -14978 
  -14974   -14971   -14968   -14967   -14966   -14964   -14962   -14960 
  -14959   -14956   -14951   -14947   -14943   -14941   -14940   -14937 
  -14935   -14936   -14940   -14941   -14944   -14947   -14949   -14949 
  -14952   -14959   -14963   -14967   -14972   -14979   -14983   -14986 
  -14989   -14994   -14999   -15003   -15009   -15014   -15018   -15021 
  -15026   -15029   -15033   -15039   -15041   -15043   -15045   -15047 
  -15045   -15045   -15044   -15043   -15041   -15040   -15039   -15040 
  -15043   -15043   -15043   -15044   -15048   -15052   -15055   -15056 
  -15057   -15059   -15061   -15061   -15060   -15061   -15063   -15064 
  -15066   -15068   -15070   -15068   -15067   -15067   -15067   -15063 
  -15056   -15053   -15051   -15044   -15039   -15034   -15030   -15028 
  -15024   -15020   -15020   -15020   -15016   -15010   -15007   -15006 
  -15003   -15001   -14998   -14997   -14999   -14998   -14997   -14997 
  -14997   -14997   -15001   -15002   -15002   -15003   -15002   -15001 
  -15001   -14999   -14998   -14995   -14994   -14995   -14997   -14997 
  -14997   -14995   -14994   -14995   -14997   -14995   -14993   -14991 
  -14990   -14987   -14985   -14983   -14983   -14983   -14983   -14985 
  -14987   -14989   -14987   -14989   -14990   -14989   -14987   -14991 
  -14994   -14990   -14989   -14990   -14990   -14990   -14991   -14991 
  -14987   -14986   -14987   -14987   -14986   -14989   -14991   -14991 
  -14994   -14998   -14998   -14998   -14999   -15001   -15001   -15001 
  -15001   -14999   -14999   -14999   -15001   -15002   -15005   -15006 
  -15007   -15006   -15007   -15007   -15007   -15010   -15014   -15016 
  -15016   -15020   -15021   -15020   -15018   -15020   -15021   -15017 
  -15014   -15014   -15013   -15013   -15013   -15014   -15014   -15013 
  -15012   -15013   -15010   -15007   -15005   -15002   -15001   -15003 
  -15003   -15002   -15005   -15006   -15009   -15012   -15010   -15007 
  -15005   -15003   -14999   -14995   -14994   -14993   -14993   -14995 
  -14994   -14993   -14995   -14998   -14999   -15001   -14999   -14997 
  -14995   -14995   -14995   -14997   -14995   -14993   -14993   -14991 
  -14990   -14991   -14989   -14986   -14985   -14979   -14975   -14974 
  -14968   -14963   -14962   -14958   -14952   -14951   -14947   -14939 
  -14935   -14933   -14931   -14929   -14926   -14926   -14926   -14928 
  -14929   -14931   -14935   -14939   -14939   -14940   -14943   -14941 
  -14940   -14945   -14952   -14958   -14959   -14962   -14967   -14970 
  -14970   -14972   -14974   -14975   -14975   -14975   -14975   -14975 
  -14976   -14974   -14972   -14974   -14976   -14978   -14980   -14983 
  -14985   -14987   -14993   -14997   -14997   -14998   -15002   -15002 
  -15002   -15006   -15010   -15010   -15013   -15014   -15018   -15017 
  -15014   -15014   -15017   -15020   -15018   -15017   -15017   -15020 
  -15018   -15018   -15020   -15018   -15020   -15024   -15022   -15018 
  -15020   -15020   -15016   -15017   -15014   -15009   -15009   -15012 
  -15010   -15007   -15006   -15006   -15006   -15006   -15006   -15003 
  -15001   -15001   -15001   -14998   -14998   -14999   -14999   -15001 
  -14999   -14999   -15001   -14998   -14993   -14991   -14990   -14990 
  -14989   -14987   -14987   -14987   -14986   -14986   -14987   -14986 
  -14983   -14982   -14980   -14978   -14974   -14970   -14968   -14966 
  -14960   -14953   -14952   -14952   -14948   -14945   -14947   -14947 
  -14947   -14951   -14949   -14948   -14949   -14951   -14951   -14952 
  -14952   -14952   -14955   -14958   -14958   -14958   -14962   -14963 
  -14964   -14968   -14970   -14972   -14975   -14979   -14982   -14986 
  -14989   -14991   -14995   -15002   -15007   -15012   -15016   -15020 
  -15022   -15024   -15028   -15032   -15034   -15039   -15043   -15047 
  -15048   -15052   -15056   -15059   -15060   -15061   -15061   -15063 
  -15063   -15064   -15067   -15066   -15066   -15067   -15068   -15072 
  -15071   -15067   -15070   -15072   -15074   -15075   -15072   -15071 
  -15071   -15070   -15067   -15068   -15068   -15066   -15061   -15060 
  -15057   -15053   -15053   -15056   -15056   -15056   -15059   -15056 
  -15056   -15057   -15052   -15049   -15048   -15048   -15048   -15047 
  -15043   -15043   -15041   -15043   -15043   -15040   -15039   -15036 
  -15029   -15026   -15026   -15022   -15020   -15018   -15018   -15020 
  -15018   -15020   -15021   -15016   -15017   -15020   -15016   -15013 
  -15012   -15010   -15007   -15005   -15003   -15002   -14999   -14998 
  -14999   -14999   -14999   -14998   -14997   -14999   -14999   -14995 
  -14994   -14995   -14993   -14991   -14993   -14989   -14985   -14983 
  -14983   -14980   -14975   -14971   -14972   -14971   -14966   -14966 
  -14966   -14960   -14960   -14963   -14964   -14964   -14964   -14966 
  -14968   -14970   -14970   -14968   -14970   -14974   -14975   -14972 
  -14974   -14978   -14978   -14975   -14978   -14982   -14983   -14986 
  -14989   -14990   -14991   -14998   -15005   -15007   -15010   -15013 
  -15016   -15016   -15018   -15020   -15022   -15025   -15028   -15029 
  -15030   -15030   -15030   -15030   -15028   -15022   -15020   -15016 
  -15013   -15012   -15007   -15005   -15006   -15007   -15007   -15007 
  -15009   -15013   -15013   -15010   -15010   -15013   -15013   -15013 
  -15012   -15012   -15010   -15009   -15007   -15007   -15005   -15002 
  -15003   -15006   -15005   -15003   -15003   -15002   -15002   -15003 
  -14998   -14994   -14991   -14986   -14979   -14976   -14975   -14972 
  -14968   -14966   -14964   -14966   -14964   -14962   -14960   -14959 
  -14958   -14955   -14953   -14948   -14948   -14951   -14949   -14948 
  -14951   -14953   -14956   -14958   -14958   -14960   -14963   -14964 
  -14968   -14972   -14975   -14979   -14979   -14979   -14982   -14986 
  -14985   -14986   -14986   -14986   -14985   -14986   -14987   -14987 
  -14986   -14987   -14990   -14990   -14990   -14991   -14993   -14994 
  -14998   -15002   -15002   -15005   -15007   -15009   -15012   -15012 
  -15012   -15014   -15016   -15016   -15016   -15017   -15017   -15017 
  -15018   -15017   -15018   -15020   -15018   -15020   -15021   -15017 
  -15014   -15017   -15016   -15012   -15010   -15012   -15010   -15009 
  -15010   -15014   -15017   -15014   -15014   -15018   -15021   -15022 
  -15022   -15028   -15032   -15033   -15037   -15044   -15047   -15049 
  -15053   -15059   -15063   -15064   -15061   -15061   -15063   -15061 
  -15063   -15063   -15060   -15059   -15059   -15055   -15051   -15048 
  -15047   -15045   -15041   -15041   -15041   -15040   -15039   -15036 
  -15033   -15030   -15028   -15025   -15021   -15020   -15020   -15021 
  -15024   -15025   -15028   -15032   -15033   -15036   -15039   -15037 
  -15037   -15036   -15030   -15030   -15030   -15028   -15028   -15026 
  -15022   -15020   -15020   -15021   -15018   -15016   -15016   -15014 
  -15010   -15009   -15010   -15009   -15006   -15002   -14998   -14995 
  -14994   -14994   -14993   -14990   -14989   -14989   -14987   -14989 
  -14990   -14989   -14991   -14993   -14991   -14993   -14991   -14987 
  -14986   -14985   -14980   -14978   -14976   -14975   -14971   -14970 
  -14967   -14962   -14962   -14960   -14958   -14953   -14951   -14948 
  -14944   -14944   -14947   -14944   -14941   -14944   -14944   -14943 
  -14940   -14940   -14941   -14943   -14943   -14943   -14943   -14944 
  -14947   -14951   -14953   -14956   -14960   -14966   -14968   -14972 
  -14976   -14980   -14987   -14993   -14997   -14999   -15005   -15012 
  -15016   -15017   -15020   -15026   -15032   -15036   -15037   -15043 
  -15045   -15045   -15048   -15052   -15053   -15055   -15060   -15064 
  -15067   -15068   -15071   -15075   -15076   -15076   -15079   -15084 
  -15087   -15088   -15095   -15099   -15099   -15098   -15099   -15099 
  -15098   -15095   -15093   -15091   -15088   -15088   -15090   -15090 
  -15087   -15086   -15086   -15086   -15086   -15086   -15084   -15082 
  -15080   -15078   -15075   -15074   -15072   -15066   -15063   -15067 
  -15064   -15059   -15055   -15053   -15049   -15045   -15037   -15033 
  -15030   -15028   -15024   -15020   -15020   -15017   -15013   -15010 
  -15007   -15006   -15003   -15002   -15001   -14998   -14995   -14995 
  -14990   -14987   -14987   -14985   -14985   -14983   -14982   -14982 
  -14985   -14986   -14985   -14985   -14986   -14990   -14994   -14994 
  -14993   -14993   -14991   -14993   -14994   -14991   -14987   -14987 
  -14989   -14989   -14989   -14987   -14987   -14987   -14986   -14986 
  -14987   -14986   -14983   -14980   -14978   -14974   -14972   -14972 
  -14972   -14974   -14975   -14975   -14978   -14983   -14983   -14985 
