Origin Time       2025/01/13 21:19:00
Lat.              31.8
Long.             131.6
Depth. (km)       30
Mag.              6.9
Station Code      SIGH03
Station Lat.      34.8530
Station Long.     136.0316
Station Height(m) 160
Record Time       2025/01/13 21:22:33
Sampling Freq(Hz) 100Hz
Duration Time(s)  120
Dir.              1
Scale Factor      3923(gal)/8224838
Max. Acc. (gal)   0.144
Last Correction   2025/01/13 21:22:34
Memo.             
[...]
  -53619   -53624   -53627   -53627   -53630   -53631   -53631   -53631 
  -53630   -53627   -53624   -53622   -53616   -53611   -53607   -53601 
  -53593   -53588   -53581   -53570   -53565   -53561   -53554   -53550 
  -53545   -53536   -53532   -53528   -53520   -53515   -53511   -53504 
  -53496   -53491   -53487   -53482   -53477   -53474   -53469   -53462 
  -53457   -53455   -53451   -53447   -53443   -53437   -53431   -53427 
  -53420   -53416   -53412   -53406   -53400   -53396   -53391   -53381 
  -53376   -53372   -53366   -53361   -53356   -53347   -53341   -53337 
  -53331   -53325   -53319   -53315   -53312   -53307   -53303   -53300 
  -53298   -53296   -53298   -53298   -53296   -53295   -53296   -53298 
  -53298   -53296   -53295   -53296   -53298   -53296   -53295   -53296 
  -53296   -53298   -53298   -53296   -53296   -53298   -53300   -53303 
  -53303   -53303   -53303   -53306   -53311   -53312   -53312   -53315 
  -53318   -53318   -53319   -53322   -53323   -53326   -53329   -53331 
  -53333   -53334   -53337   -53335   -53337   -53341   -53343   -53346 
  -53347   -53345   -53346   -53352   -53352   -53350   -53353   -53354 
  -53356   -53357   -53358   -53358   -53357   -53356   -53353   -53352 
  -53354   -53353   -53353   -53352   -53347   -53343   -53341   -53339 
  -53339   -53334   -53330   -53329   -53326   -53322   -53318   -53315 
  -53311   -53306   -53306   -53303   -53296   -53293   -53291   -53285 
  -53283   -53280   -53276   -53272   -53271   -53271   -53266   -53265 
  -53265   -53262   -53257   -53257   -53260   -53258   -53257   -53261 
  -53262   -53261   -53261   -53264   -53266   -53272   -53276   -53280 
  -53283   -53288   -53292   -53299   -53306   -53307   -53314   -53323 
  -53330   -53338   -53343   -53352   -53360   -53365   -53374   -53384 
  -53389   -53397   -53407   -53415   -53424   -53433   -53437   -53442 
  -53447   -53454   -53461   -53466   -53472   -53477   -53481   -53487 
  -53489   -53492   -53493   -53495   -53496   -53496   -53495   -53493 
  -53492   -53489   -53485   -53484   -53482   -53477   -53470   -53468 
  -53462   -53455   -53453   -53447   -53443   -53437   -53428   -53422 
  -53418   -53412   -53408   -53403   -53397   -53393   -53389   -53383 
  -53377   -53374   -53369   -53366   -53364   -53358   -53354   -53352 
  -53349   -53346   -53343   -53342   -53339   -53337   -53334   -53333 
  -53330   -53326   -53323   -53325   -53323   -53320   -53318   -53315 
  -53312   -53310   -53307   -53304   -53304   -53304   -53299   -53296 
  -53296   -53293   -53291   -53291   -53289   -53288   -53289   -53291 
  -53291   -53291   -53291   -53292   -53292   -53293   -53293   -53295 
  -53296   -53296   -53296   -53298   -53300   -53302   -53303   -53302 
  -53304   -53308   -53310   -53311   -53315   -53319   -53323   -53323 
  -53325   -53325   -53329   -53333   -53334   -53337   -53342   -53346 
  -53347   -53352   -53357   -53362   -53369   -53377   -53381   -53387 
  -53396   -53403   -53408   -53418   -53427   -53437   -53443   -53450 
  -53458   -53468   -53477   -53485   -53495   -53504   -53515   -53526 
  -53532   -53539   -53547   -53554   -53559   -53565   -53572   -53577 
  -53584   -53588   -53592   -53596   -53599   -53600   -53600   -53600 
  -53603   -53605   -53603   -53604   -53605   -53601   -53599   -53600 
  -53595   -53586   -53584   -53580   -53572   -53562   -53554   -53545 
  -53535   -53526   -53512   -53500   -53491   -53477   -53464   -53451 
  -53438   -53423   -53408   -53395   -53380   -53365   -53354   -53343 
  -53327   -53314   -53303   -53291   -53277   -53265   -53256   -53245 
  -53233   -53225   -53217   -53206   -53198   -53192   -53188   -53183 
  -53176   -53169   -53163   -53161   -53160   -53156   -53156   -53156 
  -53153   -53153   -53153   -53153   -53156   -53160   -53158   -53160 
  -53165   -53169   -53172   -53172   -53173   -53180   -53187   -53190 
  -53192   -53198   -53204   -53207   -53212   -53219   -53225   -53231 
  -53237   -53242   -53249   -53253   -53257   -53262   -53271   -53276 
  -53281   -53288   -53298   -53306   -53311   -53314   -53320   -53329 
  -53334   -53338   -53345   -53349   -53350   -53357   -53364   -53365 
  -53369   -53376   -53380   -53385   -53389   -53395   -53399   -53403 
  -53411   -53416   -53420   -53426   -53428   -53433   -53439   -53445 
  -53450   -53455   -53458   -53462   -53465   -53468   -53472   -53474 
  -53477   -53481   -53484   -53484   -53487   -53487   -53487   -53488 
  -53488   -53485   -53484   -53482   -53481   -53477   -53473   -53470 
  -53468   -53464   -53457   -53451   -53446   -53439   -53433   -53426 
  -53418   -53410   -53403   -53397   -53391   -53385   -53374   -53365 
  -53358   -53352   -53346   -53338   -53329   -53323   -53318   -53307 
  -53299   -53291   -53283   -53276   -53268   -53257   -53250   -53246 
  -53238   -53229   -53221   -53215   -53210   -53204   -53199   -53194 
  -53188   -53187   -53185   -53180   -53176   -53173   -53172   -53172 
  -53173   -53172   -53168   -53169   -53169   -53172   -53172   -53171 
  -53172   -53176   -53177   -53177   -53177   -53183   -53187   -53187 
  -53191   -53196   -53199   -53200   -53202   -53204   -53208   -53214 
  -53218   -53221   -53225   -53226   -53227   -53231   -53234   -53235 
  -53237   -53238   -53242   -53248   -53252   -53253   -53257   -53261 
  -53265   -53272   -53279   -53283   -53288   -53292   -53298   -53304 
  -53310   -53316   -53323   -53330   -53335   -53341   -53347   -53356 
  -53362   -53369   -53379   -53384   -53389   -53397   -53406   -53411 
  -53416   -53422   -53428   -53434   -53439   -53446   -53450   -53455 
  -53462   -53465   -53466   -53472   -53476   -53478   -53482   -53489 
  -53489   -53491   -53497   -53499   -53499   -53501   -53504   -53505 
  -53505   -53507   -53508   -53508   -53508   -53507   -53505   -53503 
  -53501   -53501   -53501   -53497   -53495   -53493   -53491   -53485 
  -53482   -53478   -53476   -53472   -53466   -53460   -53457   -53453 
  -53447   -53441   -53431   -53423   -53418   -53411   -53401   -53395 
  -53392   -53383   -53376   -53372   -53365   -53360   -53352   -53342 
  -53338   -53334   -53326   -53325   -53322   -53311   -53306   -53303 
  -53296   -53291   -53288   -53284   -53280   -53276   -53273   -53271 
  -53269   -53266   -53264   -53262   -53262   -53261   -53264   -53264 
  -53261   -53264   -53264   -53262   -53264   -53265   -53265   -53266 
  -53271   -53275   -53277   -53280   -53279   -53281   -53285   -53288 
  -53291   -53295   -53299   -53300   -53306   -53311   -53314   -53318 
  -53320   -53320   -53325   -53326   -53327   -53333   -53337   -53339 
  -53339   -53338   -53339   -53338   -53337   -53338   -53339   -53341 
  -53341   -53341   -53341   -53341   -53343   -53345   -53345   -53343 
  -53343   -53347   -53350   -53349   -53352   -53353   -53352   -53352 
  -53352   -53353   -53353   -53352   -53353   -53354   -53353   -53350 
  -53350   -53354   -53356   -53354   -53354   -53356   -53358   -53360 
  -53357   -53361   -53362   -53360   -53361   -53362   -53364   -53364 
  -53364   -53364   -53365   -53365   -53365   -53368   -53370   -53370 
  -53370   -53373   -53377   -53381   -53384   -53387   -53388   -53392 
  -53396   -53400   -53406   -53411   -53416   -53420   -53427   -53434 
  -53437   -53443   -53450   -53453   -53461   -53469   -53470   -53477 
  -53484   -53489   -53493   -53496   -53501   -53508   -53511   -53514 
  -53519   -53520   -53522   -53524   -53527   -53530   -53530   -53531 
  -53532   -53531   -53528   -53528   -53531   -53532   -53528   -53527 
  -53527   -53526   -53526   -53526   -53526   -53526   -53524   -53522 
  -53522   -53522   -53520   -53518   -53516   -53515   -53514   -53512 
  -53509   -53505   -53504   -53501   -53495   -53492   -53489   -53484 
  -53477   -53476   -53468   -53457   -53453   -53449   -53441   -53434 
  -53426   -53418   -53411   -53406   -53397   -53388   -53380   -53369 
  -53361   -53353   -53345   -53339   -53333   -53323   -53318   -53314 
  -53307   -53300   -53295   -53292   -53291   -53287   -53280   -53277 
  -53277   -53275   -53275   -53275   -53273   -53273   -53276   -53276 
  -53276   -53279   -53279   -53279   -53284   -53288   -53287   -53289 
  -53291   -53293   -53298   -53303   -53304   -53303   -53308   -53312 
  -53314   -53316   -53319   -53320   -53325   -53326   -53327   -53329 
  -53327   -53327   -53327   -53331   -53334   -53335   -53334   -53333 
  -53333   -53334   -53334   -53333   -53335   -53334   -53333   -53334 
  -53335   -53335   -53338   -53341   -53341   -53341   -53341   -53343 
  -53346   -53347   -53346   -53347   -53352   -53352   -53352   -53356 
  -53358   -53357   -53357   -53358   -53361   -53364   -53366   -53365 
  -53365   -53366   -53368   -53368   -53369   -53368   -53369   -53372 
  -53374   -53379   -53379   -53379   -53383   -53385   -53385   -53388 
  -53392   -53396   -53399   -53401   -53404   -53406   -53406   -53407 
  -53408   -53408   -53407   -53406   -53404   -53401   -53399   -53396 
  -53392   -53388   -53384   -53377   -53372   -53368   -53365   -53360 
  -53352   -53346   -53341   -53337   -53331   -53325   -53319   -53315 
  -53308   -53303   -53299   -53293   -53287   -53283   -53280   -53277 
  -53273   -53269   -53266   -53265   -53262   -53260   -53254   -53252 
  -53250   -53246   -53244   -53244   -53242   -53239   -53235   -53234 
  -53234   -53233   -53230   -53230   -53231   -53229   -53227   -53229 
  -53230   -53229   -53229   -53230   -53229   -53227   -53227   -53229 
  -53231   -53234   -53235   -53235   -53237   -53239   -53239   -53238 
  -53241   -53246   -53250   -53249   -53249   -53250   -53250   -53250 
  -53253   -53254   -53253   -53253   -53253   -53256   -53256   -53256 
  -53257   -53257   -53256   -53256   -53256   -53257   -53256   -53253 
  -53254   -53257   -53257   -53252   -53249   -53250   -53249   -53248 
  -53249   -53248   -53244   -53242   -53242   -53242   -53241   -53238 
  -53235   -53234   -53233   -53229   -53229   -53227   -53225   -53226 
  -53225   -53222   -53223   -53222   -53219   -53219   -53221   -53221 
  -53219   -53221   -53219   -53222   -53226   -53226   -53225   -53227 
  -53227   -53231   -53237   -53235   -53235   -53241   -53241   -53242 
  -53248   -53249   -53252   -53257   -53258   -53258   -53262   -53266 
  -53266   -53271   -53273   -53275   -53276   -53279   -53281   -53285 
  -53287   -53291   -53295   -53298   -53302   -53306   -53311   -53315 
  -53316   -53320   -53326   -53330   -53334   -53339   -53341   -53343 
  -53347   -53352   -53356   -53361   -53364   -53364   -53369   -53373 
  -53377   -53384   -53389   -53391   -53395   -53403   -53408   -53414 
  -53416   -53420   -53427   -53430   -53433   -53438   -53443   -53449 
  -53455   -53458   -53458   -53461   -53468   -53473   -53473   -53473 
  -53478   -53482   -53481   -53482   -53487   -53487   -53485   -53488 
  -53488   -53488   -53489   -53491   -53489   -53487   -53487   -53485 
  -53484   -53482   -53480   -53476   -53472   -53468   -53466   -53465 
  -53460   -53454   -53453   -53451   -53445   -53438   -53434   -53431 
  -53426   -53419   -53416   -53414   -53408   -53401   -53397   -53392 
  -53388   -53384   -53374   -53368   -53365   -53361   -53354   -53346 
  -53343   -53339   -53331   -53326   -53322   -53314   -53307   -53303 
  -53300   -53293   -53287   -53281   -53277   -53272   -53265   -53258 
  -53254   -53249   -53244   -53241   -53235   -53230   -53227   -53223 
  -53217   -53211   -53207   -53202   -53198   -53195   -53192   -53190 
  -53185   -53181   -53181   -53181   -53179   -53177   -53176   -53176 
  -53177   -53175   -53173   -53177   -53179   -53176   -53180   -53187 
  -53188   -53191   -53195   -53198   -53202   -53208   -53214   -53219 
  -53225   -53233   -53237   -53242   -53249   -53253   -53258   -53268 
  -53277   -53284   -53289   -53298   -53304   -53311   -53320   -53330 
  -53337   -53342   -53349   -53354   -53362   -53372   -53376   -53381 
  -53391   -53399   -53404   -53410   -53415   -53423   -53431   -53434 
  -53438   -53445   -53450   -53453   -53457   -53464   -53466   -53468 
  -53472   -53476   -53480   -53482   -53484   -53485   -53487   -53491 
  -53491   -53488   -53487   -53489   -53488   -53488   -53485   -53481 
  -53481   -53480   -53476   -53474   -53474   -53472   -53469   -53466 
  -53462   -53457   -53454   -53451   -53446   -53438   -53431   -53427 
  -53423   -53414   -53404   -53396   -53389   -53383   -53374   -53364 
  -53354   -53343   -53329   -53318   -53310   -53299   -53287   -53273 
  -53260   -53250   -53239   -53226   -53212   -53202   -53192   -53181 
  -53171   -53157   -53148   -53141   -53131   -53121   -53115   -53109 
  -53099   -53094   -53092   -53088   -53087   -53086   -53082   -53082 
  -53084   -53084   -53083   -53086   -53088   -53092   -53099   -53107 
  -53110   -53114   -53125   -53133   -53142   -53150   -53158   -53171 
  -53181   -53191   -53206   -53217   -53226   -53239   -53253   -53264 
  -53279   -53292   -53303   -53316   -53331   -53341   -53350   -53365 
  -53380   -53391   -53399   -53411   -53424   -53437   -53447   -53458 
  -53466   -53477   -53489   -53497   -53507   -53519   -53527   -53535 
  -53545   -53551   -53558   -53565   -53573   -53578   -53582   -53589 
  -53597   -53604   -53609   -53615   -53622   -53626   -53628   -53635 
  -53640   -53642   -53642   -53647   -53649   -53651   -53655   -53658 
  -53659   -53662   -53665   -53669   -53670   -53670   -53670   -53670 
  -53670   -53669   -53667   -53666   -53662   -53659   -53655   -53653 
  -53650   -53646   -53640   -53635   -53630   -53626   -53619   -53611 
  -53607   -53603   -53597   -53589   -53581   -53576   -53569   -53561 
  -53553   -53547   -53542   -53532   -53524   -53519   -53511   -53500 
  -53488   -53478   -53470   -53464   -53455   -53446   -53437   -53428 
  -53420   -53412   -53406   -53395   -53388   -53380   -53369   -53364 
  -53357   -53345   -53337   -53331   -53326   -53318   -53310   -53303 
  -53298   -53291   -53285   -53283   -53279   -53273   -53271   -53268 
  -53264   -53262   -53261   -53260   -53258   -53258   -53260   -53261 
  -53262   -53262   -53265   -53269   -53272   -53275   -53277   -53283 
  -53287   -53288   -53289   -53293   -53296   -53302   -53307   -53308 
  -53312   -53318   -53320   -53320   -53322   -53325   -53326   -53326 
  -53330   -53335   -53333   -53333   -53338   -53339   -53338   -53343 
  -53345   -53346   -53347   -53352   -53354   -53357   -53358   -53362 
  -53364   -53364   -53366   -53370   -53372   -53374   -53379   -53379 
  -53380   -53384   -53385   -53387   -53391   -53395   -53396   -53397 
  -53401   -53403   -53404   -53406   -53407   -53406   -53406   -53404 
  -53404   -53404   -53401   -53399   -53400   -53401   -53399   -53396 
  -53396   -53396   -53393   -53389   -53391   -53391   -53388   -53384 
  -53385   -53385   -53381   -53379   -53380   -53379   -53377   -53379 
  -53377   -53377   -53379   -53374   -53374   -53376   -53376   -53376 
  -53379   -53379   -53377   -53377   -53377   -53376   -53377   -53380 
  -53379   -53376   -53374   -53373   -53372   -53370   -53369   -53369 
  -53370   -53368   -53366   -53368   -53364   -53360   -53360   -53353 
  -53346   -53346   -53346   -53339   -53334   -53333   -53331   -53329 
  -53326   -53325   -53325   -53320   -53318   -53316   -53314   -53314 
  -53315   -53310   -53308   -53312   -53312   -53312   -53315   -53316 
  -53319   -53319   -53319   -53323   -53327   -53326   -53329   -53334 
  -53334   -53337   -53341   -53341   -53343   -53347   -53346   -53346 
  -53350   -53356   -53358   -53361   -53364   -53365   -53368   -53370 
  -53370   -53374   -53377   -53377   -53381   -53385   -53385   -53387 
  -53392   -53395   -53393   -53397   -53399   -53399   -53403   -53408 
  -53411   -53415   -53418   -53419   -53424   -53428   -53430   -53434 
  -53435   -53439   -53443   -53446   -53449   -53455   -53458   -53461 
  -53464   -53464   -53468   -53473   -53476   -53477   -53480   -53481 
  -53484   -53487   -53485   -53488   -53491   -53493   -53496   -53497 
  -53496   -53500   -53503   -53503   -53503   -53504   -53505   -53507 
  -53505   -53505   -53509   -53509   -53509   -53511   -53511   -53514 
  -53516   -53515   -53514   -53514   -53515   -53515   -53515   -53519 
  -53520   -53519   -53523   -53524   -53522   -53524   -53528   -53528 
  -53526   -53523   -53524   -53524   -53523   -53522   -53520   -53522 
  -53522   -53518   -53512   -53512   -53512   -53509   -53507   -53507 
  -53503   -53500   -53501   -53500   -53495   -53492   -53493   -53496 
  -53495   -53492   -53493   -53496   -53496   -53497   -53499   -53500 
  -53505   -53508   -53511   -53518   -53522   -53523   -53524   -53532 
  -53538   -53538   -53539   -53545   -53549   -53553   -53554   -53555 
  -53557   -53558   -53562   -53565   -53561   -53559   -53562   -53561 
  -53558   -53554   -53549   -53549   -53546   -53538   -53532   -53530 
  -53524   -53520   -53515   -53509   -53503   -53493   -53487   -53482 
  -53476   -53465   -53458   -53450   -53443   -53435   -53424   -53419 
  -53411   -53401   -53393   -53384   -53376   -53369   -53358   -53347 
  -53339   -53331   -53325   -53318   -53311   -53302   -53292   -53285 
  -53280   -53272   -53262   -53257   -53252   -53245   -53238   -53234 
  -53230   -53223   -53218   -53218   -53215   -53208   -53207   -53207 
  -53206   -53202   -53203   -53204   -53206   -53204   -53206   -53210 
  -53215   -53219   -53219   -53221   -53225   -53231   -53239   -53246 
  -53248   -53253   -53264   -53271   -53276   -53284   -53291   -53299 
  -53308   -53316   -53325   -53334   -53341   -53347   -53357   -53365 
  -53372   -53380   -53388   -53395   -53403   -53407   -53411   -53420 
  -53428   -53431   -53437   -53443   -53446   -53451   -53458   -53460 
  -53461   -53466   -53470   -53470   -53473   -53474   -53476   -53476 
  -53476   -53476   -53476   -53476   -53474   -53474   -53473   -53470 
  -53470   -53472   -53468   -53465   -53466   -53465   -53464   -53462 
  -53458   -53455   -53455   -53454   -53450   -53445   -53446   -53447 
  -53443   -53441   -53439   -53438   -53439   -53438   -53431   -53430 
  -53427   -53424   -53426   -53423   -53415   -53414   -53416   -53414 
  -53408   -53404   -53403   -53400   -53399   -53395   -53392   -53391 
  -53387   -53385   -53388   -53383   -53377   -53380   -53381   -53376 
  -53374   -53373   -53369   -53369   -53369   -53366   -53365   -53365 
  -53361   -53360   -53361   -53358   -53356   -53357   -53356   -53353 
  -53353   -53352   -53347   -53346   -53347   -53345   -53345   -53343 
  -53342   -53342   -53341   -53339   -53339   -53339   -53338   -53335 
  -53335   -53337   -53335   -53335   -53338   -53334   -53330   -53333 
  -53334   -53330   -53330   -53333   -53330   -53330   -53331   -53330 
  -53329   -53329   -53330   -53327   -53326   -53326   -53327   -53326 
  -53325   -53322   -53319   -53318   -53319   -53318   -53315   -53311 
  -53312   -53311   -53308   -53311   -53311   -53304   -53307   -53312 
  -53311   -53311   -53314   -53312   -53314   -53316   -53319   -53322 
  -53326   -53330   -53331   -53334   -53338   -53342   -53342   -53347 
  -53354   -53356   -53357   -53360   -53361   -53365   -53373   -53376 
