Origin Time       2025/01/13 21:19:00
Lat.              31.8
Long.             131.6
Depth. (km)       30
Mag.              6.9
Station Code      SIGH03
Station Lat.      34.8530
Station Long.     136.0316
Station Height(m) 360
Record Time       2025/01/13 21:22:33
Sampling Freq(Hz) 100Hz
Duration Time(s)  120
Dir.              4
Scale Factor      7845(gal)/8223790
Max. Acc. (gal)   0.294
Last Correction   2025/01/13 21:22:34
Memo.             
   -5653    -5661    -5676    -5692    -5702    -5710    -5719    -5726 
   -5730    -5730    -5728    -5724    -5719    -5713    -5706    -5697 
   -5686    -5674    -5661    -5652    -5640    -5622    -5606    -5593 
   -5580    -5571    -5568    -5564    -5560    -5557    -5553    -5549 
   -5544    -5541    -5540    -5540    -5545    -5552    -5559    -5563 
   -5568    -5571    -5572    -5576    -5579    -5582    -5587    -5593 
   -5594    -5598    -5605    -5610    -5618    -5628    -5634    -5644 
   -5653    -5664    -5675    -5682    -5683    -5687    -5687    -5686 
   -5682    -5674    -5667    -5660    -5651    -5644    -5641    -5640 
   -5640    -5641    -5638    -5636    -5633    -5626    -5620    -5614 
   -5607    -5602    -5598    -5593    -5586    -5582    -5578    -5571 
   -5570    -5570    -5567    -5562    -5556    -5556    -5556    -5553 
   -5552    -5551    -5547    -5543    -5540    -5537    -5535    -5532 
   -5530    -5528    -5522    -5520    -5520    -5518    -5518    -5520 
   -5521    -5524    -5524    -5520    -5518    -5522    -5525    -5526 
   -5528    -5530    -5535    -5537    -5540    -5544    -5549    -5549 
   -5551    -5551    -5551    -5551    -5551    -5552    -5556    -5559 
   -5564    -5570    -5572    -5572    -5572    -5574    -5574    -5575 
   -5578    -5582    -5589    -5599    -5611    -5621    -5629    -5636 
   -5641    -5649    -5659    -5665    -5671    -5675    -5679    -5684 
   -5687    -5690    -5695    -5701    -5705    -5710    -5713    -5714 
   -5719    -5725    -5729    -5736    -5746    -5752    -5756    -5767 
   -5775    -5778    -5786    -5798    -5807    -5815    -5822    -5825 
   -5825    -5825    -5823    -5821    -5823    -5823    -5819    -5811 
   -5802    -5795    -5792    -5790    -5788    -5787    -5783    -5779 
   -5778    -5773    -5767    -5761    -5757    -5748    -5738    -5729 
   -5715    -5702    -5691    -5675    -5657    -5641    -5622    -5602 
   -5583    -5564    -5547    -5529    -5513    -5502    -5493    -5483 
   -5478    -5478    -5476    -5475    -5476    -5479    -5482    -5486 
   -5494    -5502    -5508    -5517    -5530    -5543    -5555    -5567 
   -5582    -5597    -5610    -5624    -5634    -5643    -5649    -5656 
   -5661    -5665    -5676    -5688    -5697    -5703    -5707    -5707 
   -5707    -5701    -5695    -5692    -5690    -5684    -5676    -5668 
   -5657    -5643    -5628    -5613    -5595    -5578    -5562    -5547 
   -5536    -5528    -5517    -5505    -5497    -5489    -5482    -5475 
   -5464    -5451    -5440    -5435    -5429    -5427    -5432    -5437 
   -5445    -5452    -5458    -5467    -5481    -5493    -5508    -5528 
   -5547    -5567    -5594    -5621    -5644    -5665    -5687    -5709 
   -5728    -5742    -5757    -5773    -5786    -5795    -5805    -5806 
   -5807    -5813    -5814    -5813    -5811    -5805    -5795    -5780 
   -5764    -5746    -5726    -5703    -5680    -5653    -5625    -5599 
   -5572    -5548    -5521    -5497    -5476    -5455    -5432    -5413 
   -5393    -5368    -5351    -5336    -5320    -5312    -5308    -5305 
   -5308    -5316    -5324    -5333    -5348    -5366    -5383    -5401 
   -5417    -5436    -5455    -5474    -5495    -5517    -5537    -5560 
   -5582    -5601    -5618    -5638    -5660    -5682    -5705    -5728 
   -5749    -5764    -5779    -5794    -5803    -5807    -5811    -5810 
   -5802    -5795    -5783    -5768    -5757    -5751    -5741    -5732 
   -5721    -5710    -5703    -5692    -5684    -5675    -5661    -5648 
   -5638    -5630    -5621    -5613    -5609    -5613    -5616    -5618 
   -5625    -5630    -5637    -5645    -5651    -5649    -5647    -5647 
   -5647    -5644    -5645    -5652    -5657    -5663    -5670    -5670 
   -5670    -5675    -5676    -5678    -5678    -5675    -5674    -5672 
   -5667    -5660    -5656    -5649    -5638    -5629    -5620    -5609 
   -5601    -5594    -5584    -5572    -5562    -5552    -5543    -5536 
   -5529    -5522    -5516    -5514    -5509    -5501    -5494    -5490 
   -5486    -5483    -5482    -5483    -5487    -5489    -5490    -5497 
   -5501    -5506    -5514    -5522    -5529    -5536    -5543    -5551 
   -5559    -5567    -5576    -5584    -5595    -5606    -5617    -5625 
   -5632    -5637    -5643    -5647    -5648    -5648    -5647    -5643 
   -5641    -5643    -5644    -5648    -5649    -5648    -5648    -5648 
   -5640    -5632    -5626    -5621    -5613    -5609    -5609    -5606 
   -5602    -5599    -5593    -5584    -5582    -5578    -5572    -5568 
   -5566    -5563    -5557    -5551    -5547    -5543    -5537    -5535 
   -5533    -5530    -5530    -5535    -5540    -5544    -5551    -5560 
   -5571    -5584    -5602    -5621    -5641    -5661    -5682    -5701 
   -5717    -5732    -5745    -5761    -5778    -5792    -5805    -5818 
   -5834    -5852    -5864    -5879    -5894    -5903    -5914    -5919 
   -5919    -5919    -5918    -5910    -5899    -5891    -5879    -5865 
   -5850    -5837    -5821    -5806    -5791    -5779    -5767    -5752 
   -5736    -5717    -5697    -5676    -5655    -5630    -5609    -5587 
   -5562    -5536    -5509    -5482    -5459    -5437    -5418    -5404 
   -5389    -5375    -5367    -5362    -5359    -5355    -5352    -5351 
   -5350    -5347    -5348    -5351    -5354    -5362    -5370    -5379 
   -5391    -5404    -5416    -5428    -5441    -5458    -5471    -5482 
   -5498    -5514    -5528    -5543    -5559    -5570    -5580    -5595 
   -5607    -5614    -5618    -5621    -5622    -5622    -5622    -5624 
   -5621    -5613    -5613    -5613    -5607    -5602    -5601    -5599 
   -5598    -5598    -5595    -5589    -5582    -5576    -5571    -5566 
   -5566    -5564    -5560    -5555    -5549    -5544    -5544    -5545 
   -5545    -5548    -5552    -5549    -5548    -5553    -5557    -5562 
   -5570    -5576    -5580    -5586    -5591    -5597    -5603    -5613 
   -5626    -5641    -5657    -5672    -5687    -5702    -5714    -5726 
   -5737    -5744    -5746    -5751    -5757    -5759    -5760    -5765 
   -5768    -5767    -5765    -5760    -5753    -5751    -5748    -5742 
   -5737    -5732    -5725    -5714    -5703    -5691    -5680    -5675 
   -5674    -5671    -5664    -5656    -5651    -5644    -5636    -5628 
   -5622    -5614    -5605    -5598    -5589    -5579    -5574    -5570 
   -5563    -5556    -5552    -5544    -5537    -5529    -5522    -5516 
   -5512    -5506    -5501    -5497    -5489    -5486    -5487    -5485 
   -5482    -5483    -5485    -5489    -5490    -5491    -5498    -5503 
   -5508    -5509    -5510    -5510    -5509    -5506    -5506    -5506 
   -5506    -5508    -5506    -5503    -5501    -5497    -5493    -5487 
   -5483    -5482    -5482    -5482    -5481    -5481    -5482    -5482 
   -5482    -5485    -5489    -5491    -5491    -5494    -5501    -5508 
   -5517    -5524    -5530    -5540    -5548    -5555    -5563    -5567 
   -5572    -5578    -5582    -5584    -5584    -5587    -5591    -5594 
   -5597    -5597    -5598    -5599    -5595    -5594    -5598    -5597 
   -5595    -5599    -5601    -5601    -5602    -5602    -5599    -5601 
   -5606    -5611    -5614    -5617    -5622    -5625    -5628    -5629 
   -5630    -5636    -5640    -5645    -5652    -5657    -5660    -5667 
   -5675    -5682    -5687    -5695    -5701    -5707    -5717    -5730 
   -5738    -5742    -5746    -5751    -5752    -5751    -5748    -5748 
   -5749    -5749    -5748    -5746    -5748    -5745    -5738    -5737 
   -5734    -5730    -5732    -5734    -5733    -5729    -5722    -5714 
   -5705    -5692    -5680    -5672    -5665    -5659    -5653    -5648 
   -5640    -5629    -5620    -5613    -5605    -5593    -5578    -5564 
   -5553    -5544    -5536    -5533    -5532    -5530    -5529    -5528 
   -5522    -5520    -5516    -5510    -5506    -5502    -5497    -5493 
   -5491    -5489    -5486    -5486    -5487    -5489    -5489    -5491 
   -5495    -5505    -5513    -5514    -5517    -5521    -5518    -5514 
   -5513    -5513    -5513    -5513    -5516    -5518    -5526    -5535 
   -5544    -5555    -5566    -5575    -5587    -5597    -5606    -5617 
   -5628    -5634    -5637    -5640    -5644    -5649    -5652    -5655 
   -5659    -5660    -5659    -5659    -5657    -5659    -5660    -5661 
   -5665    -5668    -5665    -5661    -5657    -5651    -5644    -5638 
   -5630    -5625    -5621    -5613    -5607    -5607    -5603    -5599 
   -5599    -5593    -5583    -5576    -5568    -5560    -5556    -5557 
   -5560    -5559    -5560    -5567    -5572    -5574    -5576    -5582 
   -5590    -5594    -5599    -5603    -5607    -5607    -5607    -5606 
   -5603    -5598    -5593    -5590    -5587    -5586    -5584    -5583 
   -5582    -5582    -5586    -5594    -5602    -5609    -5616    -5624 
   -5629    -5632    -5634    -5634    -5632    -5632    -5637    -5643 
   -5647    -5655    -5661    -5663    -5661    -5660    -5659    -5659 
   -5656    -5653    -5655    -5656    -5657    -5659    -5660    -5660 
   -5660    -5660    -5660    -5661    -5668    -5675    -5682    -5692 
   -5702    -5707    -5714    -5724    -5730    -5736    -5742    -5749 
   -5756    -5761    -5764    -5767    -5768    -5769    -5771    -5771 
   -5768    -5767    -5768    -5768    -5765    -5760    -5757    -5752 
   -5742    -5729    -5717    -5706    -5694    -5680    -5668    -5659 
   -5648    -5641    -5636    -5628    -5621    -5617    -5613    -5610 
   -5605    -5601    -5597    -5590    -5584    -5583    -5578    -5574 
   -5570    -5567    -5566    -5567    -5568    -5568    -5570    -5571 
   -5568    -5568    -5571    -5571    -5572    -5572    -5568    -5567 
   -5560    -5553    -5555    -5559    -5557    -5557    -5559    -5556 
   -5553    -5552    -5548    -5545    -5543    -5539    -5536    -5530 
   -5520    -5514    -5512    -5510    -5512    -5514    -5517    -5521 
   -5526    -5530    -5533    -5536    -5541    -5547    -5549    -5553 
   -5560    -5564    -5567    -5568    -5568    -5571    -5575    -5578 
   -5580    -5586    -5595    -5605    -5614    -5624    -5634    -5644 
   -5653    -5661    -5665    -5670    -5672    -5675    -5679    -5678 
   -5675    -5674    -5672    -5671    -5665    -5660    -5659    -5655 
   -5649    -5647    -5643    -5636    -5629    -5625    -5617    -5607 
   -5598    -5593    -5586    -5579    -5571    -5563    -5555    -5548 
   -5545    -5543    -5541    -5543    -5544    -5544    -5544    -5544 
   -5543    -5543    -5543    -5545    -5551    -5556    -5563    -5568 
   -5574    -5580    -5587    -5594    -5602    -5609    -5620    -5629 
   -5641    -5653    -5667    -5684    -5699    -5713    -5728    -5737 
   -5742    -5752    -5760    -5764    -5765    -5764    -5757    -5749 
   -5738    -5729    -5719    -5710    -5697    -5683    -5671    -5659 
   -5641    -5622    -5606    -5589    -5570    -5551    -5535    -5518 
   -5501    -5482    -5464    -5451    -5439    -5422    -5410    -5402 
   -5393    -5385    -5381    -5381    -5382    -5385    -5389    -5397 
   -5404    -5410    -5416    -5424    -5436    -5447    -5455    -5464 
   -5476    -5489    -5503    -5517    -5530    -5549    -5570    -5586 
   -5599    -5613    -5622    -5629    -5636    -5644    -5653    -5657 
   -5663    -5672    -5676    -5679    -5682    -5684    -5687    -5686 
   -5686    -5683    -5675    -5665    -5660    -5651    -5634    -5621 
   -5606    -5589    -5572    -5556    -5540    -5524    -5508    -5491 
   -5478    -5464    -5454    -5448    -5441    -5431    -5421    -5414 
   -5410    -5405    -5397    -5391    -5390    -5390    -5390    -5391 
   -5397    -5402    -5410    -5424    -5439    -5452    -5470    -5485 
   -5501    -5520    -5539    -5556    -5572    -5587    -5602    -5614 
   -5626    -5637    -5643    -5649    -5655    -5659    -5664    -5671 
   -5675    -5679    -5682    -5682    -5680    -5678    -5672    -5668 
   -5664    -5657    -5653    -5647    -5634    -5628    -5620    -5607 
   -5597    -5589    -5579    -5572    -5564    -5555    -5545    -5536 
   -5524    -5512    -5501    -5493    -5487    -5485    -5485    -5482 
   -5481    -5486    -5487    -5490    -5498    -5505    -5509    -5518 
   -5526    -5533    -5543    -5555    -5566    -5575    -5583    -5595 
   -5611    -5625    -5637    -5655    -5670    -5683    -5698    -5707 
   -5714    -5725    -5733    -5741    -5751    -5757    -5764    -5772 
   -5778    -5779    -5779    -5778    -5776    -5773    -5769    -5764 
   -5761    -5757    -5751    -5742    -5733    -5725    -5715    -5707 
   -5702    -5692    -5682    -5671    -5660    -5645    -5629    -5618 
   -5606    -5594    -5583    -5575    -5564    -5555    -5545    -5535 
   -5526    -5522    -5521    -5521    -5521    -5525    -5529    -5533 
   -5540    -5547    -5553    -5557    -5563    -5570    -5576    -5584 
   -5593    -5601    -5609    -5617    -5622    -5626    -5632    -5633 
   -5637    -5645    -5656    -5665    -5671    -5680    -5687    -5686 
   -5683    -5682    -5675    -5664    -5655    -5644    -5632    -5618 
   -5602    -5584    -5571    -5557    -5539    -5520    -5502    -5482 
   -5466    -5452    -5437    -5425    -5414    -5405    -5402    -5400 
   -5395    -5395    -5397    -5400    -5405    -5412    -5416    -5420 
   -5421    -5424    -5431    -5435    -5440    -5452    -5463    -5471 
   -5483    -5497    -5510    -5524    -5537    -5551    -5564    -5576 
   -5586    -5597    -5607    -5617    -5626    -5636    -5640    -5643 
   -5644    -5644    -5644    -5645    -5647    -5647    -5647    -5647 
   -5645    -5645    -5647    -5647    -5647    -5645    -5644    -5641 
   -5638    -5638    -5638    -5633    -5633    -5634    -5633    -5633 
   -5640    -5641    -5641    -5644    -5647    -5649    -5651    -5653 
   -5653    -5655    -5657    -5660    -5664    -5668    -5671    -5672 
   -5675    -5679    -5683    -5691    -5699    -5707    -5715    -5722 
   -5726    -5730    -5734    -5737    -5738    -5738    -5741    -5742 
   -5738    -5734    -5730    -5722    -5714    -5703    -5695    -5686 
   -5678    -5671    -5668    -5664    -5657    -5649    -5645    -5640 
   -5632    -5622    -5613    -5598    -5582    -5570    -5556    -5540 
   -5524    -5510    -5494    -5481    -5468    -5456    -5441    -5433 
   -5425    -5417    -5410    -5406    -5400    -5391    -5383    -5377 
   -5370    -5364    -5362    -5356    -5351    -5348    -5347    -5346 
   -5346    -5348    -5351    -5356    -5366    -5374    -5382    -5390 
   -5400    -5406    -5414    -5427    -5439    -5452    -5467    -5483 
   -5502    -5520    -5536    -5553    -5568    -5582    -5597    -5610 
   -5621    -5633    -5643    -5652    -5664    -5675    -5686    -5698 
   -5709    -5719    -5732    -5742    -5751    -5759    -5767    -5775 
   -5783    -5787    -5791    -5795    -5796    -5799    -5799    -5799 
   -5798    -5794    -5795    -5798    -5795    -5795    -5796    -5795 
   -5796    -5795    -5792    -5790    -5786    -5782    -5782    -5782 
   -5778    -5776    -5775    -5771    -5765    -5757    -5753    -5753 
   -5749    -5742    -5737    -5734    -5732    -5729    -5725    -5722 
   -5721    -5718    -5717    -5714    -5713    -5714    -5718    -5724 
   -5730    -5734    -5737    -5742    -5744    -5744    -5744    -5742 
   -5742    -5741    -5736    -5728    -5719    -5714    -5707    -5699 
   -5690    -5683    -5676    -5667    -5659    -5655    -5651    -5648 
   -5644    -5640    -5636    -5628    -5618    -5611    -5603    -5594 
   -5587    -5582    -5576    -5572    -5570    -5566    -5563    -5559 
   -5555    -5555    -5557    -5557    -5557    -5559    -5560    -5559 
   -5555    -5553    -5551    -5543    -5536    -5532    -5529    -5528 
   -5529    -5530    -5530    -5532    -5532    -5528    -5525    -5525 
   -5524    -5521    -5520    -5522    -5524    -5522    -5520    -5520 
   -5518    -5518    -5520    -5520    -5522    -5529    -5536    -5543 
   -5548    -5555    -5563    -5575    -5587    -5599    -5611    -5622 
   -5630    -5640    -5649    -5657    -5663    -5670    -5675    -5680 
   -5684    -5687    -5688    -5688    -5686    -5684    -5686    -5687 
   -5688    -5687    -5683    -5680    -5676    -5671    -5663    -5655 
   -5648    -5644    -5640    -5637    -5632    -5625    -5624    -5622 
   -5617    -5614    -5616    -5616    -5616    -5617    -5616    -5610 
   -5605    -5601    -5597    -5593    -5590    -5590    -5591    -5591 
   -5593    -5594    -5594    -5591    -5589    -5589    -5589    -5589 
   -5590    -5593    -5593    -5595    -5601    -5602    -5601    -5605 
   -5613    -5616    -5617    -5622    -5625    -5624    -5625    -5626 
   -5625    -5625    -5625    -5626    -5629    -5630    -5632    -5633 
   -5632    -5632    -5636    -5638    -5640    -5640    -5641    -5640 
   -5636    -5630    -5629    -5625    -5621    -5617    -5611    -5609 
   -5605    -5601    -5597    -5594    -5593    -5589    -5587    -5590 
   -5587    -5583    -5584    -5584    -5582    -5580    -5578    -5571 
   -5563    -5553    -5549    -5547    -5541    -5537    -5539    -5539 
   -5536    -5536    -5535    -5536    -5536    -5535    -5536    -5537 
   -5539    -5543    -5548    -5553    -5560    -5568    -5578    -5589 
   -5597    -5605    -5613    -5620    -5625    -5630    -5637    -5644 
   -5652    -5659    -5663    -5671    -5676    -5676    -5678    -5683 
   -5690    -5691    -5692    -5694    -5694    -5694    -5692    -5690 
   -5687    -5684    -5680    -5676    -5671    -5665    -5659    -5653 
   -5649    -5648    -5645    -5638    -5636    -5637    -5634    -5633 
   -5634    -5636    -5636    -5636    -5637    -5638    -5638    -5641 
   -5643    -5644    -5647    -5651    -5655    -5656    -5657    -5664 
   -5667    -5668    -5672    -5675    -5674    -5676    -5680    -5682 
   -5683    -5688    -5692    -5694    -5698    -5701    -5702    -5703 
   -5703    -5702    -5702    -5703    -5706    -5706    -5706    -5705 
   -5703    -5702    -5699    -5698    -5695    -5691    -5687    -5683 
   -5680    -5678    -5678    -5682    -5686    -5690    -5691    -5692 
   -5698    -5699    -5698    -5695    -5692    -5691    -5691    -5690 
   -5688    -5690    -5690    -5687    -5684    -5684    -5682    -5679 
   -5678    -5672    -5670    -5671    -5667    -5663    -5661    -5661 
   -5660    -5655    -5651    -5651    -5649    -5648    -5649    -5649 
   -5651    -5655    -5659    -5660    -5664    -5668    -5675    -5676 
   -5679    -5687    -5697    -5702    -5706    -5709    -5715    -5725 
   -5730    -5734    -5740    -5742    -5746    -5753    -5757    -5760 
   -5761    -5760    -5760    -5756    -5752    -5748    -5741    -5733 
   -5725    -5715    -5703    -5690    -5674    -5661    -5651    -5636 
   -5624    -5617    -5607    -5599    -5593    -5580    -5571    -5564 
   -5555    -5549    -5544    -5535    -5526    -5521    -5510    -5502 
   -5497    -5489    -5481    -5475    -5470    -5462    -5456    -5452 
   -5451    -5445    -5440    -5440    -5443    -5441    -5443    -5444 
   -5444    -5441    -5440    -5441    -5443    -5444    -5447    -5455 
   -5463    -5467    -5474    -5479    -5485    -5491    -5499    -5508 
   -5518    -5529    -5539    -5552    -5568    -5582    -5597    -5614 
