Origin Time       2025/01/13 21:19:00
Lat.              31.8
Long.             131.6
Depth. (km)       30
Mag.              6.9
Station Code      SMNH02
Station Lat.      35.2235
Station Long.     133.0856
Station Height(m) 239
Record Time       2025/01/13 21:20:58
Sampling Freq(Hz) 100Hz
Duration Time(s)  120
Dir.              2
Scale Factor      2942(gal)/8224139
Max. Acc. (gal)   0.457
Last Correction   2025/01/13 21:21:00
Memo.             
[...]
   76296    76341    76388    76439    76497    76557    76611    76667 
   76720    76770    76824    76877    76924    76967    77006    77037 
   77060    77079    77099    77120    77136    77144    77149    77144 
   77130    77117    77098    77072    77041    76999    76947    76890 
   76831    76779    76735    76696    76661    76626    76582    76535 
   76495    76465    76441    76419    76404    76389    76370    76356 
   76343    76331    76319    76307    76291    76276    76266    76262 
   76264    76265    76266    76270    76283    76303    76331    76366 
   76407    76434    76451    76465    76473    76484    76497    76511 
   76523    76528    76527    76518    76499    76476    76453    76427 
   76407    76384    76354    76319    76281    76241    76202    76162 
   76133    76111    76090    76065    76046    76040    76045    76061 
   76090    76123    76160    76196    76231    76264    76288    76306 
   76320    76331    76342    76351    76358    76360    76364    76370 
   76376    76381    76393    76414    76428    76434    76438    76441 
   76437    76428    76420    76412    76401    76389    76373    76360 
   76347    76327    76306    76285    76254    76222    76189    76153 
   76114    76075    76042    76015    75987    75955    75926    75901 
   75879    75864    75856    75853    75861    75875    75886    75905 
   75932    75956    75983    76015    76044    76068    76094    76118 
   76137    76148    76154    76157    76156    76156    76153    76149 
   76150    76152    76153    76156    76153    76145    76131    76108 
   76081    76059    76038    76029    76027    76032    76044    76067 
   76098    76134    76173    76218    76269    76323    76377    76432 
   76485    76534    76584    76634    76681    76727    76765    76793 
   76817    76837    76847    76847    76843    76829    76806    76777 
   76747    76717    76688    76662    76639    76623    76617    76616 
   76621    76631    76636    76638    76632    76627    76628    76634 
   76642    76658    76680    76707    76735    76761    76786    76815 
   76843    76870    76902    76937    76967    76990    77004    77009 
   77014    77018    77012    76999    76989    76981    76972    76966 
   76962    76955    76937    76914    76891    76863    76831    76796 
   76759    76723    76688    76646    76603    76565    76530    76492 
   76457    76422    76385    76349    76311    76269    76226    76183 
   76140    76100    76068    76045    76029    76018    76011    76009 
   76007    76010    76015    76023    76033    76041    76048    76057 
   76077    76103    76130    76164    76202    76238    76281    76333 
   76380    76424    76465    76491    76505    76511    76504    76488 
   76472    76455    76445    76438    76432    76426    76420    76419 
   76420    76422    76426    76434    76442    76446    76450    76462 
   76476    76489    76501    76511    76519    76527    76535    76542 
   76551    76561    76565    76570    76573    76567    76553    76531 
   76507    76491    76474    76453    76434    76414    76388    76358 
   76327    76296    76270    76241    76198    76150    76102    76052 
   76009    75972    75937    75906    75878    75841    75803    75770 
   75729    75685    75647    75616    75583    75555    75536    75520 
   75502    75486    75475    75465    75451    75433    75421    75413 
   75406    75408    75424    75450    75481    75516    75550    75593 
   75645    75708    75774    75845    75918    75991    76059    76122 
   76180    76233    76280    76324    76368    76408    76443    76466 
   76478    76488    76496    76492    76480    76464    76438    76399 
   76353    76311    76273    76234    76198    76169    76140    76106 
   76076    76042    76003    75967    75930    75890    75852    75818 
   75787    75760    75739    75725    75716    75714    75720    75729 
   75740    75753    75767    75783    75809    75830    75849    75867 
   75876    75883    75891    75897    75902    75906    75907    75914 
   75924    75930    75937    75946    75957    75964    75968    75972 
   75973    75969    75961    75949    75934    75921    75910    75901 
   75895    75888    75884    75890    75901    75915    75938    75968 
   76003    76045    76091    76135    76179    76222    76265    76311 
   76358    76410    76466    76524    76582    76642    76697    76747 
   76792    76837    76878    76910    76935    76952    76964    76967 
   76964    76962    76954    76939    76917    76893    76871    76852 
   76832    76815    76797    76778    76756    76732    76713    76700 
   76686    76670    76657    76640    76620    76605    76596    76585 
   76574    76562    76543    76516    76488    76455    76418    76383 
   76346    76308    76280    76254    76225    76195    76167    76131 
   76092    76057    76027    76005    75990    75987    75994    76007 
   76025    76044    76061    76073    76084    76108    76138    76175 
   76225    76276    76324    76384    76451    76523    76596    76670 
   76748    76832    76913    76989    77060    77126    77186    77242 
   77294    77338    77373    77396    77413    77421    77415    77402 
   77384    77356    77319    77279    77229    77175    77120    77059 
   76997    76939    76879    76821    76765    76702    76639    76582 
   76530    76477    76430    76387    76347    76311    76285    76279 
   76284    76297    76320    76347    76376    76404    76435    76469 
   76504    76543    76576    76601    76624    76639    76643    76642 
   76631    76615    76597    76573    76538    76499    76455    76410 
   76365    76323    76285    76250    76215    76180    76145    76111 
   76076    76045    76019    75998    75982    75968    75959    75948 
   75940    75937    75938    75937    75937    75940    75941    75942 
   75941    75937    75926    75909    75884    75860    75837    75818 
   75807    75803    75805    75809    75817    75828    75838    75849 
   75859    75864    75870    75871    75870    75865    75860    75853 
   75844    75833    75826    75822    75817    75816    75817    75821 
   75825    75826    75834    75853    75872    75895    75928    75967 
   76011    76056    76098    76142    76189    76237    76281    76324 
   76364    76396    76422    76450    76473    76489    76503    76508 
   76507    76504    76497    76486    76473    76454    76432    76411 
   76387    76361    76335    76312    76287    76253    76219    76188 
   76157    76129    76111    76107    76108    76117    76134    76160 
   76192    76233    76276    76326    76380    76441    76501    76562 
   76617    76667    76711    76751    76782    76806    76831    76846 
   76851    76852    76852    76852    76855    76854    76850    76843 
   76829    76810    76790    76763    76734    76704    76671    76632 
   76590    76549    76503    76451    76397    76339    76276    76210 
   76144    76075    76011    75952    75890    75836    75782    75730 
   75689    75648    75606    75574    75547    75520    75500    75489 
   75486    75494    75510    75535    75566    75601    75644    75699 
   75757    75816    75879    75948    76017    76090    76164    76227 
   76281    76329    76366    76393    76420    76445    76465    76480 
   76495    76511    76524    76535    76546    76551    76549    76538 
   76526    76512    76496    76482    76473    76461    76453    76455 
   76465    76486    76515    76542    76567    76597    76627    76653 
   76684    76715    76739    76763    76789    76812    76832    76854 
   76873    76890    76906    76917    76913    76905    76894    76875 
   76848    76819    76779    76732    76681    76631    76574    76513 
   76454    76391    76330    76273    76218    76168    76119    76073 
   76034    75996    75957    75919    75880    75838    75798    75763 
   75726    75693    75663    75647    75639    75635    75637    75651 
   75663    75685    75718    75755    75789    75833    75886    75941 
   75999    76054    76110    76169    76229    76285    76343    76397 
   76447    76493    76536    76573    76603    76632    76661    76686 
   76707    76725    76739    76752    76762    76770    76779    76789 
   76800    76810    76820    76835    76851    76870    76893    76921 
   76950    76979    77004    77022    77039    77048    77052    77053 
   77052    77043    77029    77010    76989    76960    76923    76879 
   76833    76781    76720    76658    76596    76532    76472    76416 
   76368    76331    76304    76284    76270    76265    76275    76295 
   76324    76365    76411    76455    76500    76551    76605    76658 
   76707    76751    76790    76825    76863    76890    76908    76923 
   76932    76933    76927    76904    76869    76821    76761    76694 
   76621    76538    76455    76380    76303    76222    76140    76063 
   75994    75937    75887    75848    75824    75809    75805    75810 
   75821    75843    75882    75928    75976    76029    76086    76144 
   76203    76262    76320    76377    76427    76473    76515    76550 
   76574    76586    76592    76586    76574    76562    76538    76505 
   76469    76424    76368    76306    76237    76161    76081    76002 
   75919    75838    75760    75691    75635    75590    75555    75527 
   75504    75493    75492    75496    75512    75543    75583    75631 
   75686    75752    75822    75897    75973    76046    76117    76187 
   76254    76315    76368    76415    76454    76482    76501    76513 
   76524    76535    76543    76543    76540    76536    76526    76505 
   76489    76477    76469    76462    76462    76470    76478    76488 
   76501    76512    76520    76527    76534    76545    76554    76562 
   76574    76586    76593    76600    76609    76620    76638    76654 
   76667    76677    76684    76684    76678    76662    76636    76603 
   76563    76519    76472    76418    76358    76300    76245    76195 
   76146    76096    76053    76018    75980    75942    75913    75884 
   75859    75844    75833    75825    75826    75833    75838    75847 
   75853    75860    75874    75888    75901    75917    75937    75960 
   75991    76026    76061    76099    76142    76188    76234    76281 
   76330    76373    76415    76459    76497    76532    76567    76603 
   76630    76654    76680    76698    76715    76729    76739    76739 
   76732    76720    76704    76686    76662    76632    76603    76566 
   76530    76503    76482    76470    76468    76474    76488    76508 
   76535    76567    76600    76634    76673    76712    76752    76797 
   76842    76886    76929    76970    77012    77053    77095    77130 
   77159    77183    77201    77214    77222    77222    77218    77207 
   77190    77168    77144    77114    77078    77040    77001    76960 
   76916    76866    76815    76762    76708    76654    76601    76549 
   76493    76438    76387    76337    76283    76233    76183    76126 
   76068    76011    75953    75902    75863    75822    75787    75763 
   75747    75737    75737    75741    75747    75766    75797    75828 
   75870    75924    75976    76026    76069    76111    76148    76175 
   76192    76214    76235    76256    76276    76292    76311    76335 
   76358    76380    76405    76431    76450    76474    76505    76532 
   76554    76581    76609    76635    76659    76685    76707    76725 
   76740    76751    76751    76738    76716    76690    76653    76612 
   76569    76519    76466    76418    76370    76330    76297    76269 
   76243    76216    76191    76169    76150    76142    76135    76125 
   76118    76111    76099    76090    76077    76064    76052    76044 
   76034    76021    76007    75996    75986    75972    75961    75957 
   75955    75952    75957    75969    75986    76005    76030    76059 
   76088    76123    76160    76199    76241    76287    76331    76372 
   76411    76449    76480    76509    76535    76551    76562    76574 
   76584    76588    76594    76605    76619    76634    76647    76659 
   76674    76689    76702    76713    76720    76728    76734    76738 
   76739    76736    76735    76739    76742    76739    76735    76728 
   76717    76707    76698    76685    76667    76654    76634    76609 
   76586    76561    76534    76507    76473    76435    76400    76357 
   76310    76264    76210    76157    76115    76073    76027    75988 
   75956    75930    75907    75888    75874    75860    75844    75834 
   75820    75799    75786    75774    75759    75744    75730    75714 
   75698    75682    75666    75645    75627    75608    75593    75582 
   75574    75568    75567    75568    75573    75579    75598    75627 
   75659    75699    75744    75791    75838    75884    75926    75965 
   76002    76038    76071    76099    76123    76141    76158    76171 
   76173    76173    76169    76165    76162    76157    76149    76142 
   76130    76115    76107    76098    76087    76077    76071    76064 
   76052    76038    76021    75992    75960    75932    75899    75864 
   75829    75791    75752    75721    75698    75674    75660    75663 
   75675    75695    75729    75764    75805    75859    75919    75987 
   76063    76141    76219    76296    76374    76455    76536    76619 
   76702    76789    76875    76959    77039    77114    77186    77249 
   77305    77353    77394    77430    77465    77494    77521    77552 
   77576    77593    77612    77626    77633    77633    77626    77616 
   77603    77583    77556    77523    77487    77449    77411    77369 
   77322    77274    77221    77164    77112    77058    76998    76939 
   76882    76821    76759    76698    76638    76576    76515    76453 
   76389    76331    76276    76219    76169    76125    76083    76045 
   76006    75968    75932    75891    75852    75817    75782    75751 
   75726    75703    75685    75672    75659    75651    75648    75637 
   75627    75625    75622    75621    75629    75643    75660    75685 
   75713    75741    75771    75803    75845    75884    75925    75975 
   76032    76087    76145    76199    76257    76323    76388    76450 
   76516    76580    76636    76689    76740    76792    76836    76878 
   76921    76960    76994    77024    77047    77066    77082    77091 
   77093    77090    77078    77055    77028    76997    76958    76918 
   76885    76852    76819    76786    76754    76723    76692    76657 
   76621    76586    76550    76511    76472    76432    76392    76350 
   76308    76269    76233    76199    76164    76127    76092    76057 
   76018    75978    75936    75897    75856    75814    75775    75735 
   75695    75662    75632    75604    75585    75571    75554    75533 
   75517    75497    75474    75450    75427    75402    75381    75362 
   75347    75338    75332    75334    75342    75348    75357    75375 
   75394    75415    75436    75460    75487    75514    75540    75567 
   75594    75627    75666    75705    75747    75797    75843    75892 
   75946    76000    76056    76121    76188    76256    76327    76403 
   76473    76539    76603    76663    76719    76773    76823    76873 
   76923    76968    77013    77056    77090    77122    77159    77191 
   77215    77240    77261    77275    77286    77290    77283    77272 
   77257    77233    77206    77178    77144    77105    77067    77026 
   76986    76945    76906    76870    76836    76801    76769    76744 
   76727    76709    76696    76689    76682    76675    76675    76674 
   76669    76665    76659    76654    76653    76653    76658    76663 
   76667    76674    76684    76692    76702    76716    76729    76743 
   76754    76763    76778    76794    76813    76832    76851    76873 
   76891    76912    76935    76950    76967    76989    77005    77017 
   77032    77045    77056    77059    77055    77052    77045    77036 
   77029    77020    77009    76995    76977    76959    76941    76924 
   76904    76881    76855    76825    76796    76765    76734    76704 
   76673    76639    76611    76585    76561    76534    76509    76488 
   76462    76432    76410    76385    76354    76322    76293    76264 
   76234    76207    76181    76158    76140    76121    76106    76098 
   76092    76087    76080    76079    76086    76095    76099    76113 
   76138    76165    76194    76229    76266    76307    76349    76389 
   76435    76485    76530    76572    76616    76654    76686    76717 
   76747    76770    76789    76804    76812    76813    76813    76810 
   76805    76796    76786    76778    76767    76754    76738    76713 
   76682    76657    76634    76601    76569    76540    76509    76469 
   76431    76397    76364    76331    76302    76270    76241    76211 
   76181    76154    76134    76118    76107    76095    76086    76086 
   76084    76083    76090    76098    76103    76106    76113    76121 
   76126    76130    76134    76137    76141    76149    76156    76160 
   76168    76177    76188    76200    76214    76227    76239    76252 
   76265    76276    76284    76292    76297    76296    76293    76289 
   76281    76269    76254    76235    76215    76195    76169    76142 
   76119    76098    76072    76041    76015    75996    75976    75955 
   75932    75910    75891    75875    75861    75851    75836    75820 
   75805    75789    75770    75745    75724    75702    75681    75662 
   75654    75647    75645    75655    75667    75683    75709    75735 
   75762    75798    75841    75887    75941    76000    76060    76115 
   76172    76230    76287    76337    76387    76437    76482    76519 
   76547    76572    76594    76612    76627    76640    76650    76653 
   76654    76650    76639    76627    76619    76607    76592    76577 
   76559    76539    76516    76493    76472    76449    76427    76404 
   76378    76357    76339    76316    76295    76280    76265    76250 
   76241    76235    76229    76225    76229    76235    76239    76248 
   76258    76266    76276    76287    76293    76302    76308    76311 
   76314    76318    76323    76334    76345    76353    76357    76362 
   76369    76376    76384    76392    76401    76412    76422    76428 
   76443    76462    76478    76497    76524    76549    76576    76609 
   76644    76678    76715    76755    76793    76831    76871    76912 
   76954    76998    77047    77095    77144    77188    77228    77263 
   77295    77328    77353    77369    77379    77382    77379    77368 
   77342    77313    77282    77244    77201    77155    77105    77051 
   76997    76943    76885    76827    76767    76708    76651    76592 
   76531    76473    76412    76356    76302    76245    76191    76145 
   76102    76060    76023    75988    75953    75924    75898    75874 
   75853    75838    75825    75813    75803    75799    75801    75801 
   75798    75799    75801    75797    75797    75798    75795    75797 
   75797    75793    75787    75779    75772    75771    75764    75757 
   75752    75749    75747    75745    75748    75753    75762    75772 
   75784    75799    75817    75836    75861    75892    75925    75956 
   75984    76022    76060    76092    76127    76161    76191    76221 
   76250    76281    76311    76338    76370    76403    76431    76464 
