Origin Time       2025/01/13 21:19:00
Lat.              31.8
Long.             131.6
Depth. (km)       30
Mag.              6.9
Station Code      SMNH03
Station Lat.      35.2243
Station Long.     132.7223
Station Height(m) 9
Record Time       2025/01/13 21:21:29
Sampling Freq(Hz) 100Hz
Duration Time(s)  120
Dir.              3
Scale Factor      2942(gal)/8224139
Max. Acc. (gal)   1.154
Last Correction   2025/01/13 21:21:29
Memo.             
[...]
   41069    41038    41025    41027    41018    41011    41006    40994 
   40990    40995    40994    40996    41022    41048    41049    41056 
   41095    41131    41139    41160    41188    41197    41206    41212 
   41202    41199    41206    41193    41191    41202    41196    41196 
   41216    41226    41219    41214    41220    41223    41210    41183 
   41164    41160    41150    41131    41135    41149    41141    41133 
   41135    41133    41131    41135    41141    41153    41177    41199 
   41210    41219    41238    41251    41243    41250    41281    41285 
   41284    41307    41315    41312    41316    41323    41319    41316 
   41334    41337    41314    41314    41328    41337    41347    41377 
   41407    41411    41404    41407    41427    41455    41476    41499 
   41546    41596    41648    41701    41739    41793    41847    41879 
   41925    41991    42030    42049    42087    42126    42151    42169 
   42160    42142    42140    42134    42138    42130    42090    42079 
   42071    42034    42017    42009    41985    41968    41958    41925 
   41889    41871    41845    41804    41774    41743    41692    41656 
   41613    41548    41501    41457    41403    41368    41332    41283 
   41226    41172    41129    41065    41002    40967    40918    40851 
   40806    40764    40717    40680    40656    40645    40636    40625 
   40639    40656    40662    40675    40707    40753    40782    40797 
   40841    40895    40914    40940    40986    41017    41054    41095 
   41116    41153    41191    41229    41270    41289    41312    41347 
   41353    41347    41359    41364    41350    41330    41292    41258 
   41237    41202    41166    41150    41122    41072    41037    41014 
   40995    40977    40954    40942    40948    40956    40968    40984 
   41003    41026    41050    41088    41129    41162    41203    41239 
   41269    41315    41349    41362    41400    41440    41455    41473 
   41511    41539    41546    41563    41593    41611    41623    41623 
   41619    41627    41615    41593    41578    41546    41513    41503 
   41482    41455    41449    41457    41465    41474    41477    41470 
   41455    41439    41428    41404    41391    41396    41384    41377 
   41395    41396    41388    41382    41372    41373    41372    41357 
   41369    41374    41345    41327    41308    41278    41261    41231 
   41200    41189    41164    41143    41153    41149    41131    41145 
   41177    41187    41192    41224    41254    41270    41292    41300 
   41300    41310    41310    41316    41332    41331    41330    41345 
   41369    41373    41374    41382    41382    41396    41407    41415 
   41453    41486    41497    41520    41544    41553    41574    41613 
   41639    41658    41688    41693    41685    41700    41712    41719 
   41736    41732    41706    41688    41656    41605    41566    41544 
   41516    41474    41442    41415    41365    41320    41300    41268 
   41215    41170    41146    41152    41165    41162    41177    41204 
   41222    41250    41280    41303    41334    41365    41386    41404 
   41420    41434    41443    41457    41467    41469    41470    41457 
   41435    41434    41428    41412    41393    41359    41322    41292 
   41261    41215    41157    41115    41084    41034    40983    40968 
   40967    40941    40927    40950    40961    40953    40957    40972 
   40991    41021    41044    41071    41116    41141    41154    41197 
   41235    41272    41324    41355    41380    41422    41454    41474 
   41489    41501    41512    41503    41486    41470    41439    41407 
   41378    41346    41324    41292    41243    41215    41204    41189 
   41160    41133    41123    41102    41083    41085    41067    41041 
   41053    41054    41045    41071    41098    41125    41176    41218 
   41237    41272    41324    41350    41366    41405    41446    41486 
   41536    41578    41613    41652    41697    41740    41794    41854 
   41893    41936    41979    42012    42044    42061    42070    42068 
   42045    42026    42014    41993    41972    41953    41922    41893 
   41862    41809    41748    41702    41643    41588    41558    41501 
   41428    41376    41308    41237    41197    41168    41137    41106 
   41071    41050    41046    41035    41029    41037    41034    41034 
   41035    41029    41033    41042    41034    41031    41030    41029 
   41044    41048    41031    41015    41007    41004    40995    40973 
   40945    40917    40886    40856    40832    40798    40770    40753 
   40738    40736    40747    40748    40748    40764    40775    40776 
   40794    40825    40845    40878    40936    40975    40987    41022 
   41069    41106    41154    41216    41273    41324    41370    41427 
   41490    41538    41586    41659    41721    41755    41789    41823 
   41843    41858    41874    41883    41887    41890    41881    41863 
   41843    41820    41808    41793    41756    41716    41682    41646 
   41612    41585    41548    41493    41436    41399    41365    41324 
   41305    41291    41268    41254    41235    41200    41177    41160 
   41139    41131    41106    41058    41022    40994    40976    40957 
   40921    40906    40907    40879    40859    40857    40833    40825 
   40846    40868    40892    40914    40929    40960    40995    41021 
   41053    41083    41107    41137    41141    41138    41164    41173 
   41158    41150    41131    41108    41103    41073    41019    40986 
   40963    40923    40884    40860    40836    40787    40740    40716 
   40675    40613    40581    40572    40549    40514    40495    40481 
   40470    40467    40460    40455    40459    40463    40475    40489 
   40493    40510    40548    40578    40591    40617    40657    40699 
   40738    40780    40822    40861    40902    40944    40987    41023 
   41041    41072    41115    41131    41131    41145    41161    41162 
   41156    41160    41162    41152    41141    41129    41116    41122 
   41126    41121    41134    41145    41142    41157    41176    41188 
   41206    41226    41253    41285    41311    41332    41345    41355 
   41372    41403    41436    41458    41485    41517    41558    41602 
   41624    41655    41702    41735    41756    41769    41785    41810 
   41820    41814    41810    41813    41805    41773    41746    41727 
   41685    41638    41615    41594    41557    41520    41490    41447 
   41409    41400    41386    41378    41385    41392    41397    41411 
   41440    41485    41527    41557    41588    41624    41665    41712 
   41763    41823    41868    41886    41914    41941    41937    41932 
   41932    41902    41860    41824    41777    41725    41671    41601 
   41542    41489    41420    41346    41276    41212    41162    41114 
   41067    41023    40981    40948    40932    40930    40932    40937 
   40942    40950    40971    41003    41044    41096    41146    41196 
   41257    41318    41372    41424    41472    41530    41586    41621 
   41658    41705    41725    41720    41727    41739    41731    41721 
   41713    41682    41656    41643    41602    41554    41532    41501 
   41436    41374    41328    41280    41233    41173    41096    41030 
   40968    40902    40849    40798    40736    40690    40664    40629 
   40605    40609    40617    40625    40648    40676    40707    40751 
   40797    40836    40891    40953    41011    41077    41134    41185 
   41251    41315    41365    41413    41469    41526    41567    41598 
   41646    41692    41710    41727    41750    41758    41764    41777 
   41775    41764    41752    41739    41717    41696    41685    41648 
   41581    41543    41521    41484    41443    41400    41366    41357 
   41347    41330    41318    41304    41296    41304    41311    41326 
   41347    41347    41358    41404    41435    41454    41504    41559 
   41593    41628    41675    41725    41771    41817    41885    41958 
   42002    42032    42080    42134    42160    42179    42209    42236 
   42253    42249    42240    42229    42188    42141    42106    42057 
   41991    41925    41850    41769    41696    41627    41551    41463 
   41373    41310    41250    41157    41085    41044    40979    40922 
   40898    40876    40863    40855    40855    40873    40896    40919 
   40949    40992    41035    41077    41123    41173    41215    41245 
   41277    41314    41327    41331    41346    41357    41355    41342 
   41323    41295    41247    41189    41129    41061    40981    40909 
   40834    40741    40651    40558    40452    40367    40297    40213 
   40131    40063    39997    39951    39926    39897    39891    39914 
   39945    39980    40031    40092    40157    40234    40328    40413 
   40487    40579    40674    40752    40836    40915    40987    41057 
   41111    41149    41191    41229    41247    41260    41262    41253 
   41242    41229    41207    41183    41164    41138    41096    41065 
   41062    41040    41010    41010    40998    40971    40973    40979 
   40980    40986    40995    41011    41025    41041    41076    41123 
   41164    41215    41283    41331    41382    41454    41520    41588 
   41658    41720    41787    41864    41943    42007    42079    42172 
   42236    42291    42361    42403    42433    42480    42523    42556 
   42579    42589    42604    42618    42601    42574    42572    42560 
   42531    42511    42485    42456    42433    42402    42372    42361 
   42345    42321    42315    42311    42291    42283    42283    42268 
   42255    42259    42256    42226    42205    42203    42195    42161 
   42121    42094    42051    41987    41929    41867    41789    41706 
   41623    41531    41412    41276    41160    41034    40891    40763 
   40621    40481    40379    40254    40112    40019    39927    39819 
   39739    39672    39604    39552    39521    39505    39483    39464 
   39468    39495    39528    39542    39569    39622    39663    39711 
   39783    39834    39892    39970    40038    40105    40169    40225 
   40308    40390    40447    40524    40603    40655    40730    40841 
   40922    40992    41084    41166    41235    41322    41423    41509 
   41586    41678    41763    41827    41887    41964    42051    42120 
   42167    42211    42264    42310    42353    42402    42444    42484 
   42529    42554    42577    42610    42623    42638    42664    42666 
   42657    42650    42637    42627    42615    42595    42583    42557 
   42510    42466    42422    42372    42321    42253    42175    42110 
   42041    41953    41866    41773    41658    41553    41442    41297 
   41165    41050    40900    40743    40606    40452    40289    40138 
   39982    39835    39692    39545    39417    39316    39214    39112 
   39037    38975    38908    38862    38847    38844    38854    38889 
   38962    39047    39135    39244    39395    39557    39696    39862 
   40066    40262    40446    40633    40837    41031    41215    41413 
   41605    41770    41933    42087    42223    42358    42483    42589 
   42695    42796    42865    42908    42948    42985    43011    43031 
   43046    43055    43042    43020    43015    42994    42947    42908 
   42869    42820    42763    42692    42624    42562    42491    42426 
   42379    42327    42260    42198    42161    42124    42063    42010 
   41978    41943    41909    41877    41847    41831    41818    41804 
   41794    41783    41779    41778    41786    41797    41782    41775 
   41789    41789    41783    41791    41786    41754    41735    41725 
   41678    41632    41589    41517    41458    41408    41337    41266 
   41202    41130    41069    41002    40919    40853    40806    40730 
   40628    40564    40506    40398    40305    40238    40149    40074 
   40018    39945    39880    39837    39793    39753    39717    39684 
   39671    39667    39653    39636    39611    39596    39600    39588 
   39567    39577    39594    39602    39629    39660    39692    39739 
   39789    39834    39874    39924    39980    40031    40101    40174 
   40228    40290    40367    40444    40520    40591    40663    40743 
   40821    40898    40988    41088    41166    41239    41338    41438 
   41526    41629    41735    41825    41913    41998    42079    42153 
   42214    42282    42348    42387    42407    42429    42457    42465 
   42435    42411    42392    42336    42269    42214    42147    42076 
   41994    41890    41796    41704    41608    41526    41450    41370 
   41296    41226    41164    41111    41060    41026    41007    40981 
   40964    40960    40964    40971    40990    41033    41080    41126 
   41183    41246    41322    41396    41459    41530    41601    41661 
   41729    41810    41887    41966    42043    42121    42205    42282 
   42361    42444    42510    42573    42645    42720    42778    42828 
   42886    42927    42957    42998    43036    43063    43070    43078 
   43104    43114    43098    43083    43075    43065    43043    43011 
   42966    42913    42865    42809    42739    42658    42566    42473 
   42375    42263    42145    42030    41895    41746    41609    41474 
   41328    41184    41033    40880    40748    40610    40468    40347 
   40221    40090    39972    39843    39722    39622    39511    39388 
   39278    39179    39082    38967    38865    38792    38692    38578 
   38504    38437    38354    38283    38223    38172    38133    38101 
   38076    38063    38076    38105    38129    38169    38226    38290 
   38372    38472    38580    38712    38865    39013    39168    39349 
   39550    39752    39943    40153    40377    40583    40786    40995 
   41197    41404    41615    41804    41985    42165    42336    42503 
   42660    42804    42958    43094    43208    43322    43428    43515 
   43607    43704    43783    43856    43933    43983    44020    44058 
   44086    44107    44115    44109    44092    44053    44007    43956 
   43899    43849    43783    43696    43617    43537    43444    43360 
   43278    43177    43078    42992    42896    42796    42708    42622 
   42527    42437    42348    42257    42172    42093    42013    41931 
   41851    41771    41696    41620    41543    41470    41395    41328 
   41265    41192    41129    41067    40999    40953    40903    40830 
   40774    40737    40690    40641    40602    40566    40528    40486 
   40444    40410    40371    40329    40292    40242    40203    40165 
   40112    40078    40042    39988    39955    39919    39870    39827 
   39788    39748    39717    39700    39688    39675    39672    39676 
   39694    39707    39715    39754    39812    39861    39918    39997 
   40095    40201    40308    40416    40531    40662    40786    40896 
   41033    41169    41272    41391    41523    41619    41708    41825 
   41922    41975    42040    42124    42182    42234    42299    42350 
   42392    42441    42485    42526    42583    42641    42693    42745 
   42790    42832    42869    42893    42912    42924    42925    42912 
   42881    42844    42792    42723    42649    42558    42456    42354 
   42241    42117    41995    41868    41732    41598    41469    41349 
   41224    41094    40968    40846    40744    40647    40529    40425 
   40358    40296    40223    40166    40142    40124    40104    40090 
   40088    40095    40092    40089    40103    40120    40139    40157 
   40167    40193    40216    40228    40265    40301    40324    40365 
   40417    40468    40506    40540    40605    40662    40698    40780 
   40849    40867    40926    41007    41044    41089    41158    41204 
   41239    41292    41347    41396    41447    41490    41509    41534 
   41574    41602    41616    41621    41621    41621    41615    41607 
   41602    41588    41566    41555    41548    41535    41504    41476 
   41465    41445    41413    41395    41377    41353    41322    41301 
   41308    41312    41305    41307    41308    41308    41331    41377 
   41405    41434    41486    41513    41542    41624    41683    41694 
   41731    41779    41825    41871    41897    41932    41959    41948 
   41949    41955    41941    41940    41924    41886    41874    41848 
   41791    41746    41693    41636    41584    41516    41466    41411 
   41323    41260    41208    41133    41061    41004    40967    40937 
   40899    40865    40841    40836    40844    40857    40872    40880 
   40895    40921    40941    40968    40998    41013    41035    41081 
   41119    41135    41162    41193    41200    41208    41233    41246 
   41235    41242    41273    41264    41239    41234    41215    41188 
   41168    41138    41108    41076    41052    41031    40990    40957 
   40948    40926    40899    40882    40861    40842    40821    40802 
   40799    40792    40778    40778    40779    40760    40740    40748 
   40775    40794    40791    40783    40783    40792    40809    40807 
   40799    40809    40815    40822    40833    40826    40821    40830 
   40838    40860    40882    40892    40909    40938    40969    40991 
   41023    41084    41139    41181    41229    41288    41359    41422 
   41489    41577    41650    41716    41798    41885    41975    42056 
   42126    42210    42288    42342    42391    42450    42510    42553 
   42584    42618    42657    42685    42699    42712    42726    42723 
   42715    42699    42673    42654    42627    42595    42568    42534 
   42503    42473    42442    42412    42380    42354    42329    42283 
   42265    42271    42244    42210    42205    42199    42183    42165 
   42153    42137    42126    42126    42114    42087    42082    42067 
   42017    41972    41928    41850    41767    41694    41601    41494 
   41381    41251    41129    41011    40871    40729    40591    40441 
   40309    40186    40042    39907    39789    39658    39533    39418 
   39306    39221    39144    39056    38994    38974    38962    38948 
   38958    38982    39015    39070    39132    39199    39295    39390 
   39472    39586    39706    39811    39939    40073    40173    40278 
   40396    40498    40612    40726    40814    40905    40994    41068 
   41148    41224    41289    41338    41359    41396    41439    41458 
   41465    41465    41467    41470    41465    41461    41457    41461 
   41461    41450    41454    41463    41461    41476    41501    41521 
   41542    41562    41594    41635    41663    41704    41750    41785 
   41840    41899    41937    41983    42040    42079    42113    42164 
   42210    42249    42306    42360    42392    42427    42469    42503 
   42541    42587    42618    42638    42658    42678    42708    42728 
   42730    42738    42747    42750    42755    42745    42724    42712 
   42696    42664    42628    42592    42541    42483    42427    42356 
   42280    42213    42138    42063    41979    41889    41809    41728 
   41640    41561    41486    41419    41361    41304    41239    41175 
   41129    41092    41035    40983    40968    40946    40894    40859 
   40840    40813    40778    40744    40717    40683    40653    40640 
   40620    40582    40544    40505    40467    40439    40404    40354 
   40315    40282    40232    40188    40157    40119    40088    40059 
   40007    39962    39931    39880    39834    39799    39750    39696 
