Origin Time       2025/01/13 21:19:00
Lat.              31.8
Long.             131.6
Depth. (km)       30
Mag.              6.9
Station Code      SMNH03
Station Lat.      35.2243
Station Long.     132.7223
Station Height(m) 110
Record Time       2025/01/13 21:21:29
Sampling Freq(Hz) 100Hz
Duration Time(s)  120
Dir.              5
Scale Factor      7845(gal)/8223790
Max. Acc. (gal)   1.230
Last Correction   2025/01/13 21:21:29
Memo.             
[...]
  -11915   -11915   -11917   -11920   -11920   -11916   -11917   -11925 
  -11936   -11947   -11961   -11975   -11988   -12005   -12035   -12066 
  -12098   -12129   -12155   -12171   -12181   -12185   -12186   -12181 
  -12167   -12151   -12139   -12133   -12143   -12166   -12199   -12240 
  -12280   -12328   -12388   -12437   -12469   -12495   -12503   -12495 
  -12479   -12455   -12432   -12414   -12406   -12409   -12422   -12445 
  -12472   -12498   -12517   -12525   -12525   -12518   -12505   -12486 
  -12468   -12445   -12415   -12383   -12352   -12326   -12316   -12318 
  -12326   -12337   -12355   -12370   -12379   -12380   -12367   -12347 
  -12326   -12307   -12290   -12266   -12232   -12190   -12135   -12073 
  -12009   -11938   -11858   -11780   -11713   -11665   -11631   -11603 
  -11588   -11585   -11596   -11616   -11632   -11649   -11669   -11686 
  -11699   -11705   -11707   -11701   -11701   -11711   -11731   -11766 
  -11812   -11867   -11929   -11994   -12055   -12106   -12140   -12160 
  -12174   -12183   -12179   -12164   -12140   -12114   -12089   -12070 
  -12063   -12060   -12058   -12056   -12055   -12059   -12075   -12098 
  -12123   -12152   -12186   -12216   -12245   -12270   -12278   -12274 
  -12260   -12236   -12208   -12186   -12170   -12154   -12143   -12136 
  -12128   -12121   -12117   -12114   -12113   -12112   -12110   -12106 
  -12097   -12091   -12102   -12125   -12152   -12187   -12225   -12259 
  -12289   -12316   -12330   -12337   -12336   -12328   -12326   -12334 
  -12345   -12359   -12382   -12413   -12447   -12482   -12509   -12526 
  -12534   -12534   -12526   -12511   -12492   -12464   -12429   -12397 
  -12367   -12347   -12343   -12353   -12374   -12403   -12436   -12474 
  -12505   -12526   -12538   -12532   -12506   -12472   -12429   -12382 
  -12339   -12298   -12268   -12255   -12252   -12266   -12294   -12336 
  -12384   -12430   -12467   -12503   -12536   -12556   -12563   -12556 
  -12529   -12491   -12452   -12410   -12366   -12324   -12293   -12268 
  -12253   -12248   -12243   -12239   -12243   -12251   -12264   -12280 
  -12294   -12299   -12298   -12297   -12297   -12293   -12285   -12278 
  -12274   -12275   -12282   -12287   -12297   -12302   -12309   -12326 
  -12353   -12379   -12399   -12410   -12410   -12410   -12413   -12407 
  -12387   -12355   -12316   -12276   -12247   -12236   -12241   -12253 
  -12267   -12291   -12322   -12348   -12364   -12371   -12360   -12333 
  -12301   -12258   -12204   -12156   -12123   -12101   -12105   -12131 
  -12167   -12210   -12253   -12294   -12328   -12349   -12359   -12360 
  -12356   -12343   -12326   -12307   -12280   -12248   -12217   -12191 
  -12170   -12148   -12113   -12067   -12017   -11967   -11923   -11888 
  -11861   -11840   -11830   -11830   -11838   -11850   -11853   -11846 
  -11832   -11816   -11808   -11811   -11824   -11844   -11865   -11882 
  -11898   -11915   -11925   -11932   -11940   -11950   -11967   -12000 
  -12035   -12063   -12085   -12096   -12096   -12091   -12091   -12093 
  -12093   -12094   -12097   -12096   -12094   -12100   -12106   -12106 
  -12105   -12106   -12112   -12125   -12143   -12159   -12177   -12202 
  -12229   -12260   -12295   -12326   -12355   -12387   -12424   -12461 
  -12494   -12523   -12553   -12575   -12587   -12595   -12600   -12606 
  -12604   -12592   -12575   -12550   -12521   -12502   -12499   -12513 
  -12541   -12568   -12588   -12603   -12609   -12599   -12576   -12537 
  -12488   -12445   -12410   -12390   -12384   -12391   -12413   -12451 
  -12498   -12556   -12622   -12680   -12722   -12746   -12754   -12749 
  -12737   -12714   -12681   -12642   -12600   -12560   -12523   -12487 
  -12449   -12411   -12372   -12330   -12290   -12252   -12213   -12174 
  -12150   -12136   -12127   -12120   -12105   -12078   -12039   -11989 
  -11925   -11850   -11767   -11688   -11631   -11603   -11603   -11628 
  -11670   -11728   -11796   -11863   -11925   -11981   -12019   -12036 
  -12040   -12033   -12021   -12012   -12008   -12004   -12008   -12016 
  -12028   -12056   -12100   -12148   -12199   -12245   -12279   -12298 
  -12310   -12309   -12293   -12270   -12253   -12252   -12271   -12309 
  -12360   -12415   -12480   -12552   -12626   -12700   -12768   -12825 
  -12870   -12907   -12933   -12945   -12941   -12912   -12869   -12818 
  -12765   -12721   -12690   -12669   -12656   -12649   -12652   -12665 
  -12685   -12711   -12738   -12771   -12799   -12823   -12845   -12862 
  -12873   -12874   -12862   -12834   -12796   -12765   -12738   -12707 
  -12672   -12636   -12599   -12565   -12537   -12514   -12494   -12472 
  -12453   -12440   -12434   -12430   -12421   -12402   -12375   -12334 
  -12279   -12217   -12148   -12070   -11994   -11925   -11865   -11819 
  -11785   -11753   -11723   -11696   -11665   -11628   -11593   -11557 
  -11516   -11475   -11427   -11373   -11321   -11277   -11240   -11218 
  -11218   -11240   -11291   -11369   -11464   -11568   -11669   -11758 
  -11839   -11905   -11950   -11978   -11990   -11990   -11985   -11978 
  -11973   -11971   -11975   -11981   -11994   -12020   -12056   -12104 
  -12162   -12220   -12268   -12302   -12316   -12303   -12272   -12225 
  -12166   -12102   -12044   -11992   -11947   -11916   -11898   -11893 
  -11897   -11912   -11939   -11974   -12013   -12055   -12093   -12118 
  -12135   -12147   -12147   -12145   -12139   -12116   -12086   -12060 
  -12036   -12017   -11997   -11975   -11961   -11956   -11965   -11979 
  -11998   -12016   -12032   -12046   -12056   -12062   -12063   -12067 
  -12077   -12101   -12140   -12189   -12239   -12287   -12334   -12379 
  -12418   -12444   -12456   -12457   -12452   -12440   -12425   -12415 
  -12420   -12436   -12469   -12518   -12577   -12645   -12719   -12795 
  -12866   -12937   -12997   -13042   -13074   -13090   -13100   -13104 
  -13096   -13076   -13053   -13028   -13001   -12970   -12939   -12914 
  -12897   -12889   -12883   -12874   -12868   -12858   -12846   -12833 
  -12820   -12808   -12792   -12772   -12748   -12719   -12687   -12653 
  -12621   -12587   -12557   -12529   -12495   -12459   -12421   -12384 
  -12357   -12339   -12325   -12317   -12320   -12337   -12363   -12395 
  -12428   -12459   -12491   -12521   -12546   -12571   -12592   -12613 
  -12638   -12665   -12692   -12718   -12742   -12750   -12745   -12727 
  -12695   -12648   -12587   -12509   -12418   -12314   -12204   -12090 
  -11979   -11881   -11803   -11739   -11695   -11673   -11670   -11686 
  -11718   -11750   -11778   -11803   -11816   -11823   -11827   -11835 
  -11840   -11848   -11862   -11881   -11905   -11934   -11963   -11996 
  -12027   -12059   -12090   -12117   -12139   -12163   -12193   -12217 
  -12236   -12256   -12274   -12280   -12272   -12249   -12217   -12181 
  -12145   -12117   -12096   -12081   -12078   -12085   -12096   -12105 
  -12110   -12114   -12117   -12123   -12133   -12150   -12159   -12172 
  -12194   -12218   -12247   -12279   -12305   -12329   -12356   -12379 
  -12398   -12417   -12429   -12429   -12418   -12397   -12371   -12351 
  -12336   -12318   -12303   -12290   -12272   -12244   -12213   -12186 
  -12164   -12147   -12133   -12127   -12127   -12128   -12132   -12143 
  -12159   -12177   -12193   -12206   -12214   -12220   -12224   -12222 
  -12213   -12199   -12185   -12171   -12162   -12155   -12147   -12135 
  -12118   -12087   -12043   -11992   -11939   -11884   -11830   -11780 
  -11739   -11712   -11695   -11689   -11693   -11705   -11723   -11742 
  -11758   -11770   -11780   -11786   -11789   -11792   -11796   -11800 
  -11804   -11812   -11826   -11846   -11874   -11905   -11943   -11985 
  -12024   -12062   -12100   -12131   -12148   -12154   -12152   -12151 
  -12148   -12139   -12131   -12124   -12117   -12112   -12113   -12116 
  -12114   -12106   -12100   -12087   -12069   -12051   -12035   -12015 
  -11997   -11989   -11983   -11986   -11997   -12009   -12020   -12032 
  -12040   -12047   -12056   -12064   -12078   -12102   -12135   -12174 
  -12224   -12278   -12329   -12382   -12437   -12487   -12532   -12569 
  -12598   -12614   -12618   -12613   -12598   -12571   -12534   -12495 
  -12459   -12424   -12401   -12386   -12374   -12372   -12379   -12390 
  -12399   -12397   -12384   -12366   -12334   -12295   -12256   -12221 
  -12195   -12179   -12174   -12183   -12205   -12236   -12276   -12325 
  -12371   -12410   -12451   -12488   -12521   -12546   -12572   -12591 
  -12603   -12617   -12636   -12657   -12677   -12699   -12714   -12719 
  -12723   -12723   -12717   -12699   -12669   -12633   -12592   -12549 
  -12509   -12479   -12457   -12447   -12452   -12468   -12491   -12521 
  -12550   -12577   -12600   -12618   -12633   -12648   -12664   -12681 
  -12704   -12725   -12742   -12753   -12749   -12734   -12703   -12654 
  -12596   -12538   -12480   -12422   -12376   -12344   -12329   -12343 
  -12378   -12425   -12490   -12569   -12658   -12750   -12833   -12903 
  -12955   -12988   -13004   -13008   -12999   -12976   -12945   -12910 
  -12877   -12846   -12814   -12781   -12756   -12731   -12704   -12685 
  -12669   -12646   -12621   -12588   -12550   -12517   -12483   -12449 
  -12421   -12399   -12384   -12382   -12386   -12398   -12418   -12445 
  -12484   -12528   -12573   -12622   -12665   -12696   -12718   -12725 
  -12712   -12681   -12638   -12584   -12522   -12452   -12371   -12289 
  -12209   -12137   -12075   -12024   -11988   -11963   -11952   -11951 
  -11962   -11985   -12012   -12040   -12069   -12087   -12096   -12101 
  -12097   -12081   -12062   -12035   -11998   -11952   -11901   -11850 
  -11800   -11746   -11693   -11645   -11596   -11550   -11511   -11479 
  -11456   -11446   -11452   -11477   -11516   -11570   -11634   -11695 
  -11746   -11790   -11821   -11834   -11826   -11793   -11749   -11699 
  -11649   -11604   -11573   -11557   -11558   -11583   -11623   -11677 
  -11739   -11803   -11862   -11913   -11947   -11966   -11965   -11942 
  -11904   -11859   -11811   -11759   -11707   -11661   -11628   -11605 
  -11599   -11603   -11608   -11614   -11623   -11631   -11627   -11618 
  -11603   -11578   -11547   -11522   -11500   -11485   -11484   -11500 
  -11535   -11584   -11650   -11732   -11815   -11902   -11993   -12074 
  -12152   -12228   -12290   -12343   -12388   -12420   -12438   -12453 
  -12457   -12449   -12436   -12418   -12395   -12370   -12341   -12306 
  -12272   -12244   -12222   -12212   -12220   -12240   -12278   -12330 
  -12397   -12471   -12549   -12623   -12687   -12737   -12775   -12800 
  -12815   -12816   -12815   -12806   -12795   -12791   -12788   -12789 
  -12799   -12816   -12837   -12864   -12896   -12931   -12970   -13008 
  -13043   -13072   -13097   -13124   -13142   -13150   -13159   -13169 
  -13176   -13181   -13184   -13176   -13159   -13140   -13119   -13086 
  -13046   -13000   -12946   -12887   -12826   -12761   -12694   -12627 
  -12561   -12502   -12448   -12401   -12356   -12314   -12275   -12240 
  -12209   -12177   -12141   -12101   -12059   -12021   -11986   -11952 
  -11923   -11896   -11871   -11857   -11853   -11857   -11863   -11870 
  -11875   -11878   -11882   -11885   -11884   -11875   -11863   -11847 
  -11830   -11819   -11812   -11801   -11792   -11790   -11790   -11792 
  -11790   -11782   -11761   -11727   -11685   -11631   -11573   -11523 
  -11485   -11460   -11453   -11465   -11495   -11541   -11600   -11666 
  -11732   -11792   -11844   -11888   -11921   -11950   -11971   -11983 
  -11993   -12004   -12009   -12015   -12019   -12017   -12006   -11983 
  -11948   -11896   -11827   -11747   -11665   -11588   -11523   -11479 
  -11456   -11458   -11489   -11547   -11626   -11713   -11799   -11877 
  -11943   -11994   -12024   -12031   -12020   -11994   -11958   -11912 
  -11870   -11834   -11801   -11780   -11773   -11778   -11799   -11828 
  -11869   -11919   -11970   -12016   -12062   -12104   -12144   -12186 
  -12228   -12266   -12301   -12336   -12371   -12409   -12452   -12495 
  -12542   -12596   -12656   -12712   -12768   -12815   -12850   -12874 
  -12888   -12889   -12884   -12877   -12869   -12866   -12874   -12892 
  -12922   -12964   -13011   -13059   -13109   -13157   -13196   -13225 
  -13240   -13239   -13221   -13193   -13157   -13113   -13070   -13032 
  -13007   -12999   -13008   -13035   -13081   -13136   -13185   -13221 
  -13240   -13238   -13209   -13157   -13084   -12999   -12901   -12796 
  -12690   -12590   -12499   -12417   -12343   -12280   -12229   -12191 
  -12166   -12147   -12133   -12121   -12106   -12090   -12073   -12044 
  -12012   -11979   -11948   -11920   -11898   -11881   -11870   -11859 
  -11842   -11817   -11793   -11763   -11732   -11703   -11677   -11653 
  -11630   -11610   -11596   -11587   -11578   -11569   -11558   -11556 
  -11564   -11578   -11601   -11631   -11662   -11691   -11718   -11738 
  -11751   -11758   -11757   -11751   -11739   -11716   -11686   -11654 
  -11623   -11591   -11561   -11539   -11524   -11516   -11520   -11527 
  -11541   -11562   -11576   -11588   -11601   -11611   -11623   -11638 
  -11655   -11684   -11722   -11765   -11813   -11863   -11915   -11955 
  -11988   -12013   -12027   -12021   -12008   -11993   -11975   -11962 
  -11955   -11958   -11973   -12001   -12043   -12096   -12154   -12216 
  -12280   -12347   -12411   -12480   -12546   -12604   -12667   -12737 
  -12806   -12877   -12950   -13022   -13096   -13171   -13244   -13313 
  -13371   -13416   -13455   -13487   -13510   -13525   -13531   -13527 
  -13513   -13491   -13460   -13427   -13397   -13367   -13342   -13328 
  -13323   -13321   -13328   -13335   -13339   -13344   -13339   -13316 
  -13286   -13251   -13205   -13155   -13100   -13041   -12978   -12915 
  -12857   -12806   -12756   -12710   -12669   -12630   -12592   -12553 
  -12517   -12480   -12437   -12387   -12332   -12267   -12198   -12132 
  -12070   -12013   -11963   -11920   -11885   -11862   -11854   -11854 
  -11861   -11884   -11913   -11942   -11973   -12004   -12029   -12052 
  -12067   -12069   -12059   -12040   -12010   -11971   -11927   -11877 
  -11830   -11786   -11746   -11713   -11693   -11674   -11661   -11655 
  -11655   -11662   -11673   -11689   -11709   -11730   -11750   -11765 
  -11767   -11759   -11750   -11740   -11727   -11720   -11724   -11732 
  -11740   -11753   -11770   -11788   -11801   -11815   -11831   -11853 
  -11877   -11902   -11924   -11947   -11969   -11988   -12006   -12028 
  -12047   -12064   -12079   -12087   -12089   -12083   -12070   -12051 
  -12032   -12013   -12000   -11993   -11993   -12005   -12028   -12060 
  -12102   -12150   -12194   -12244   -12298   -12347   -12390   -12433 
  -12469   -12501   -12529   -12557   -12579   -12594   -12606   -12611 
  -12610   -12602   -12588   -12573   -12559   -12540   -12518   -12498 
  -12474   -12441   -12407   -12372   -12334   -12295   -12253   -12218 
  -12186   -12152   -12121   -12091   -12064   -12044   -12024   -12010 
  -12004   -12005   -12015   -12031   -12051   -12075   -12101   -12123 
  -12136   -12137   -12125   -12106   -12078   -12040   -11992   -11942 
  -11888   -11832   -11792   -11762   -11742   -11740   -11761   -11801 
  -11859   -11927   -11992   -12051   -12105   -12150   -12182   -12194 
  -12190   -12175   -12154   -12131   -12105   -12085   -12085   -12100 
  -12128   -12175   -12233   -12302   -12376   -12448   -12515   -12571 
  -12614   -12652   -12684   -12712   -12737   -12754   -12771   -12787 
  -12802   -12811   -12818   -12816   -12804   -12789   -12773   -12746 
  -12712   -12681   -12650   -12614   -12582   -12550   -12515   -12486 
  -12464   -12449   -12437   -12426   -12417   -12410   -12399   -12384 
  -12363   -12330   -12299   -12272   -12244   -12217   -12195   -12182 
  -12177   -12181   -12198   -12221   -12240   -12255   -12263   -12262 
  -12249   -12228   -12193   -12145   -12089   -12028   -11966   -11907 
  -11853   -11808   -11780   -11765   -11766   -11781   -11805   -11839 
  -11877   -11913   -11946   -11971   -11990   -12004   -12012   -12012 
  -12009   -12006   -12008   -12015   -12028   -12050   -12074   -12104 
  -12143   -12187   -12239   -12294   -12348   -12395   -12440   -12480 
  -12514   -12536   -12550   -12561   -12564   -12565   -12569   -12576 
  -12580   -12583   -12586   -12586   -12576   -12560   -12537   -12503 
  -12459   -12410   -12359   -12306   -12255   -12212   -12179   -12162 
  -12159   -12163   -12172   -12193   -12220   -12244   -12262   -12276 
  -12280   -12275   -12266   -12251   -12232   -12213   -12197   -12186 
  -12179   -12178   -12178   -12177   -12177   -12181   -12182   -12174 
  -12159   -12141   -12123   -12104   -12087   -12082   -12082   -12091 
  -12114   -12148   -12186   -12225   -12263   -12295   -12322   -12339 
  -12345   -12349   -12353   -12363   -12379   -12405   -12442   -12487 
  -12540   -12594   -12645   -12692   -12726   -12749   -12761   -12758 
  -12742   -12718   -12687   -12656   -12634   -12618   -12603   -12595 
  -12594   -12591   -12588   -12584   -12571   -12545   -12501   -12444 
  -12382   -12312   -12236   -12158   -12082   -12013   -11956   -11915 
  -11890   -11881   -11880   -11886   -11898   -11917   -11940   -11966 
  -11990   -12013   -12032   -12043   -12047   -12040   -12023   -12001 
  -11979   -11959   -11943   -11935   -11938   -11947   -11963   -11981 
  -11996   -12012   -12027   -12037   -12051   -12064   -12073   -12071 
  -12066   -12055   -12039   -12027   -12020   -12015   -12009   -12012 
  -12025   -12051   -12082   -12112   -12139   -12162   -12177   -12186 
  -12187   -12177   -12159   -12139   -12118   -12098   -12085   -12075 
  -12069   -12064   -12062   -12056   -12040   -12016   -11989   -11952 
  -11905   -11858   -11813   -11770   -11734   -11707   -11691   -11685 
  -11695   -11712   -11735   -11761   -11788   -11811   -11828   -11840 
  -11847   -11853   -11855   -11855   -11865   -11884   -11907   -11938 
  -11977   -12019   -12060   -12110   -12164   -12217   -12267   -12317 
  -12372   -12429   -12486   -12545   -12607   -12664   -12723   -12785 
  -12843   -12900   -12954   -12999   -13032   -13059   -13080   -13086 
  -13078   -13059   -13034   -12999   -12957   -12906   -12849   -12791 
  -12733   -12672   -12619   -12576   -12538   -12513   -12499   -12494 
  -12496   -12506   -12519   -12536   -12552   -12567   -12582   -12594 
  -12609   -12626   -12644   -12664   -12691   -12721   -12752   -12784 
  -12818   -12846   -12874   -12904   -12922   -12924   -12922   -12910 
  -12883   -12843   -12791   -12727   -12658   -12587   -12515   -12449 
  -12388   -12332   -12282   -12236   -12191   -12148   -12106   -12062 
  -12015   -11962   -11911   -11863   -11821   -11788   -11758   -11731 
  -11713   -11703   -11689   -11676   -11662   -11646   -11627   -11604 
  -11580   -11558   -11538   -11523   -11516   -11514   -11514   -11519 
  -11523   -11526   -11531   -11538   -11542   -11543   -11543   -11549 
  -11562   -11577   -11595   -11618   -11646   -11674   -11700   -11724 
  -11749   -11773   -11797   -11823   -11854   -11892   -11931   -11974 
  -12025   -12081   -12137   -12197   -12258   -12317   -12376   -12429 
  -12475   -12517   -12555   -12586   -12609   -12629   -12650   -12671 
  -12685   -12698   -12707   -12710   -12710   -12703   -12680   -12641 
