Origin Time       2025/01/13 21:19:00
Lat.              31.8
Long.             131.6
Depth. (km)       30
Mag.              6.9
Station Code      SMNH10
Station Lat.      35.5579
Station Long.     133.3004
Station Height(m) 9
Record Time       2025/01/13 21:20:58
Sampling Freq(Hz) 100Hz
Duration Time(s)  180
Dir.              5
Scale Factor      3920(gal)/6170801
Max. Acc. (gal)   1.377
Last Correction   2025/01/13 21:20:43
Memo.             
[...]
  -35080   -35100   -35098   -35122   -35143   -35129   -35136   -35155 
  -35152   -35163   -35184   -35195   -35224   -35248   -35257   -35290 
  -35319   -35327   -35353   -35370   -35368   -35384   -35386   -35362 
  -35347   -35318   -35273   -35250   -35218   -35174   -35149   -35107 
  -35048   -35014   -34972   -34910   -34869   -34829   -34782   -34749 
  -34707   -34665   -34647   -34624   -34592   -34573   -34553   -34531 
  -34521   -34500   -34483   -34489   -34480   -34459   -34457   -34454 
  -34442   -34443   -34443   -34437   -34438   -34428   -34408   -34397 
  -34382   -34363   -34359   -34351   -34334   -34322   -34314   -34309 
  -34305   -34299   -34300   -34306   -34311   -34320   -34331   -34334 
  -34335   -34338   -34340   -34346   -34355   -34362   -34375   -34390 
  -34393   -34390   -34395   -34401   -34403   -34411   -34418   -34422 
  -34439   -34459   -34475   -34505   -34538   -34564   -34608   -34658 
  -34699   -34748   -34795   -34831   -34875   -34917   -34949   -34993 
  -35039   -35079   -35121   -35158   -35190   -35231   -35265   -35294 
  -35332   -35358   -35381   -35422   -35451   -35470   -35510   -35542 
  -35561   -35595   -35624   -35642   -35677   -35708   -35728   -35759 
  -35785   -35807   -35835   -35848   -35863   -35894   -35905   -35910 
  -35930   -35933   -35928   -35940   -35934   -35922   -35918   -35891 
  -35865   -35851   -35806   -35760   -35734   -35688   -35647   -35624 
  -35578   -35538   -35525   -35502   -35488   -35487   -35467   -35463 
  -35483   -35480   -35480   -35497   -35501   -35513   -35531   -35529 
  -35541   -35561   -35558   -35570   -35594   -35587   -35593   -35614 
  -35612   -35621   -35634   -35621   -35622   -35631   -35614   -35612 
  -35618   -35607   -35608   -35606   -35583   -35581   -35588   -35575 
  -35573   -35570   -35557   -35568   -35574   -35569   -35598   -35630 
  -35642   -35676   -35714   -35739   -35785   -35825   -35851   -35896 
  -35938   -35964   -36005   -36038   -36057   -36086   -36104   -36114 
  -36144   -36167   -36176   -36196   -36203   -36198   -36210   -36213 
  -36205   -36212   -36217   -36214   -36219   -36213   -36203   -36206 
  -36196   -36183   -36185   -36166   -36132   -36115   -36100   -36078 
  -36063   -36053   -36046   -36050   -36050   -36047   -36053   -36055 
  -36058   -36073   -36085   -36092   -36112   -36127   -36141   -36165 
  -36172   -36163   -36171   -36183   -36184   -36189   -36196   -36199 
  -36206   -36212   -36212   -36216   -36220   -36221   -36222   -36215 
  -36194   -36176   -36155   -36120   -36091   -36065   -36019   -35970 
  -35927   -35878   -35832   -35787   -35737   -35692   -35643   -35596 
  -35569   -35540   -35499   -35474   -35451   -35423   -35416   -35405 
  -35372   -35354   -35347   -35331   -35322   -35310   -35293   -35287 
  -35275   -35252   -35247   -35241   -35224   -35220   -35218   -35213 
  -35229   -35238   -35235   -35253   -35270   -35272   -35296   -35325 
  -35346   -35368   -35377   -35386   -35417   -35437   -35448   -35476 
  -35489   -35493   -35508   -35499   -35476   -35469   -35446   -35418 
  -35404   -35370   -35332   -35314   -35279   -35240   -35221   -35187 
  -35149   -35127   -35091   -35066   -35062   -35044   -35039   -35059 
  -35061   -35070   -35100   -35114   -35134   -35170   -35189   -35219 
  -35261   -35279   -35304   -35330   -35328   -35343   -35362   -35346 
  -35340   -35344   -35323   -35315   -35324   -35307   -35290   -35283 
  -35260   -35243   -35232   -35205   -35189   -35173   -35142   -35129 
  -35121   -35096   -35091   -35091   -35078   -35080   -35076   -35061 
  -35065   -35061   -35036   -35031   -35029   -35012   -35005   -34996 
  -34977   -34974   -34970   -34957   -34961   -34959   -34943   -34943 
  -34941   -34924   -34915   -34897   -34870   -34862   -34845   -34806 
  -34775   -34739   -34692   -34650   -34606   -34561   -34527   -34488 
  -34447   -34423   -34395   -34362   -34338   -34317   -34291   -34273 
  -34259   -34249   -34249   -34251   -34250   -34251   -34252   -34254 
  -34263   -34266   -34261   -34270   -34291   -34304   -34317   -34333 
  -34341   -34348   -34356   -34363   -34383   -34410   -34430   -34460 
  -34499   -34529   -34562   -34601   -34637   -34685   -34735   -34777 
  -34833   -34893   -34930   -34970   -35024   -35078   -35143   -35208 
  -35257   -35310   -35364   -35398   -35440   -35491   -35533   -35578 
  -35616   -35639   -35671   -35697   -35704   -35726   -35742   -35737 
  -35748   -35755   -35738   -35734   -35728   -35704   -35690   -35674 
  -35656   -35653   -35640   -35619   -35615   -35600   -35578   -35582 
  -35583   -35570   -35577   -35578   -35567   -35583   -35596   -35601 
  -35627   -35642   -35650   -35677   -35689   -35700   -35732   -35741 
  -35746   -35775   -35787   -35798   -35836   -35854   -35862   -35893 
  -35912   -35931   -35970   -35995   -36024   -36078   -36112   -36146 
  -36204   -36242   -36284   -36347   -36390   -36431   -36494   -36540 
  -36581   -36630   -36662   -36707   -36760   -36780   -36806   -36848 
  -36861   -36877   -36904   -36901   -36899   -36906   -36887   -36870 
  -36858   -36824   -36795   -36769   -36721   -36681   -36645   -36590 
  -36550   -36511   -36452   -36406   -36367   -36306   -36250   -36199 
  -36132   -36070   -36012   -35939   -35870   -35801   -35720   -35650 
  -35577   -35491   -35414   -35342   -35266   -35201   -35141   -35083 
  -35037   -34992   -34949   -34921   -34887   -34848   -34830   -34815 
  -34790   -34770   -34752   -34730   -34713   -34686   -34657   -34647 
  -34633   -34596   -34554   -34513   -34472   -34437   -34405   -34363 
  -34315   -34268   -34221   -34178   -34134   -34086   -34044   -34003 
  -33958   -33919   -33884   -33849   -33827   -33812   -33799   -33795 
  -33793   -33786   -33791   -33809   -33823   -33844   -33875   -33901 
  -33928   -33963   -33991   -34022   -34061   -34090   -34116   -34148 
  -34176   -34212   -34257   -34291   -34325   -34361   -34394   -34436 
  -34485   -34530   -34587   -34648   -34694   -34748   -34811   -34869 
  -34936   -34995   -35035   -35094   -35160   -35200   -35242   -35287 
  -35319   -35356   -35383   -35395   -35426   -35460   -35480   -35515 
  -35548   -35565   -35601   -35636   -35655   -35703   -35752   -35777 
  -35826   -35882   -35921   -35974   -36022   -36057   -36108   -36145 
  -36164   -36202   -36235   -36252   -36281   -36292   -36291   -36311 
  -36317   -36310   -36327   -36326   -36304   -36303   -36293   -36278 
  -36285   -36272   -36252   -36254   -36240   -36215   -36208   -36184 
  -36160   -36160   -36137   -36108   -36101   -36076   -36049   -36051 
  -36038   -36022   -36023   -36008   -36002   -36016   -36000   -35984 
  -35990   -35974   -35963   -35972   -35960   -35951   -35957   -35941 
  -35926   -35920   -35895   -35877   -35865   -35822   -35781   -35751 
  -35700   -35651   -35611   -35553   -35503   -35463   -35404   -35357 
  -35323   -35277   -35244   -35220   -35179   -35142   -35108   -35061 
  -35022   -34986   -34938   -34901   -34869   -34821   -34778   -34737 
  -34687   -34649   -34620   -34585   -34557   -34529   -34498   -34484 
  -34470   -34448   -34437   -34428   -34410   -34401   -34401   -34397 
  -34394   -34392   -34388   -34391   -34393   -34386   -34382   -34378 
  -34374   -34373   -34366   -34355   -34352   -34351   -34348   -34355 
  -34363   -34359   -34358   -34367   -34373   -34383   -34395   -34402 
  -34414   -34430   -34441   -34457   -34482   -34505   -34535   -34579 
  -34616   -34649   -34684   -34710   -34738   -34768   -34788   -34809 
  -34835   -34846   -34852   -34860   -34853   -34845   -34840   -34815 
  -34790   -34774   -34744   -34718   -34702   -34670   -34643   -34631 
  -34603   -34582   -34583   -34575   -34574   -34589   -34595   -34615 
  -34653   -34677   -34715   -34764   -34785   -34819   -34870   -34902 
  -34940   -34986   -35012   -35054   -35111   -35152   -35206   -35271 
  -35327   -35403   -35488   -35558   -35649   -35749   -35833   -35930 
  -36025   -36106   -36211   -36316   -36395   -36488   -36574   -36637 
  -36717   -36786   -36828   -36889   -36937   -36960   -36997   -37021 
  -37028   -37056   -37071   -37066   -37083   -37094   -37091   -37107 
  -37110   -37097   -37101   -37087   -37056   -37041   -37010   -36966 
  -36934   -36876   -36808   -36761   -36694   -36621   -36564   -36486 
  -36401   -36338   -36256   -36168   -36098   -36014   -35929   -35857 
  -35768   -35677   -35602   -35518   -35441   -35378   -35300   -35216 
  -35139   -35056   -34986   -34925   -34850   -34792   -34756   -34704 
  -34660   -34638   -34608   -34586   -34578   -34560   -34551   -34554 
  -34543   -34539   -34548   -34546   -34552   -34571   -34574   -34572 
  -34574   -34574   -34577   -34575   -34560   -34548   -34534   -34509 
  -34486   -34455   -34414   -34385   -34350   -34293   -34243   -34198 
  -34141   -34084   -34027   -33967   -33912   -33857   -33794   -33741 
  -33696   -33648   -33608   -33578   -33554   -33541   -33539   -33545 
  -33563   -33589   -33620   -33661   -33709   -33763   -33835   -33916 
  -33995   -34083   -34178   -34266   -34356   -34460   -34564   -34673 
  -34794   -34904   -35009   -35123   -35227   -35330   -35444   -35551 
  -35654   -35762   -35854   -35932   -36019   -36100   -36182   -36267 
  -36330   -36389   -36459   -36514   -36561   -36615   -36654   -36695 
  -36739   -36757   -36772   -36796   -36796   -36783   -36778   -36754 
  -36717   -36691   -36654   -36607   -36560   -36501   -36448   -36401 
  -36340   -36290   -36252   -36196   -36148   -36110   -36059   -36024 
  -36004   -35971   -35954   -35947   -35925   -35924   -35930   -35920 
  -35934   -35957   -35958   -35976   -36007   -36023   -36054   -36092 
  -36119   -36158   -36190   -36211   -36256   -36290   -36305   -36347 
  -36384   -36403   -36436   -36451   -36448   -36471   -36487   -36481 
  -36491   -36491   -36478   -36486   -36478   -36450   -36442   -36421 
  -36383   -36361   -36327   -36287   -36265   -36224   -36175   -36147 
  -36102   -36051   -36020   -35976   -35927   -35888   -35834   -35782 
  -35744   -35687   -35631   -35593   -35540   -35493   -35463   -35420 
  -35380   -35359   -35326   -35301   -35288   -35261   -35243   -35241 
  -35227   -35221   -35230   -35228   -35235   -35252   -35258   -35277 
  -35311   -35328   -35346   -35378   -35398   -35420   -35448   -35462 
  -35477   -35494   -35501   -35516   -35532   -35536   -35544   -35553 
  -35553   -35556   -35559   -35552   -35552   -35560   -35555   -35549 
  -35549   -35547   -35549   -35556   -35556   -35563   -35578   -35583 
  -35591   -35615   -35635   -35651   -35680   -35705   -35724   -35750 
  -35772   -35788   -35810   -35826   -35833   -35838   -35833   -35821 
  -35815   -35799   -35771   -35745   -35714   -35683   -35656   -35623 
  -35585   -35552   -35510   -35467   -35433   -35385   -35329   -35286 
  -35239   -35185   -35140   -35085   -35028   -34984   -34926   -34866 
  -34821   -34767   -34716   -34679   -34623   -34561   -34518   -34472 
  -34432   -34403   -34358   -34325   -34314   -34287   -34268   -34272 
  -34262   -34257   -34277   -34288   -34301   -34336   -34361   -34385 
  -34422   -34446   -34479   -34526   -34553   -34586   -34631   -34659 
  -34690   -34727   -34746   -34772   -34802   -34811   -34825   -34839 
  -34831   -34842   -34859   -34843   -34832   -34824   -34792   -34774 
  -34755   -34710   -34680   -34659   -34620   -34592   -34567   -34532 
  -34516   -34503   -34479   -34473   -34469   -34457   -34478   -34497 
  -34492   -34513   -34537   -34544   -34574   -34600   -34607   -34634 
  -34658   -34666   -34687   -34700   -34700   -34717   -34726   -34722 
  -34739   -34749   -34747   -34764   -34769   -34766   -34786   -34795 
  -34793   -34809   -34817   -34822   -34846   -34856   -34861   -34884 
  -34902   -34915   -34938   -34946   -34952   -34973   -34984   -34988 
  -35001   -35003   -35005   -35019   -35027   -35035   -35046   -35043 
  -35046   -35066   -35071   -35069   -35077   -35075   -35070   -35069 
  -35058   -35051   -35051   -35039   -35026   -35023   -35015   -35012 
  -35017   -35014   -35013   -35019   -35019   -35019   -35027   -35038 
  -35050   -35066   -35077   -35084   -35096   -35106   -35120   -35140 
  -35156   -35172   -35195   -35213   -35226   -35243   -35254   -35266 
  -35289   -35299   -35296   -35306   -35317   -35323   -35337   -35344 
  -35342   -35349   -35351   -35342   -35344   -35337   -35319   -35315 
  -35307   -35286   -35275   -35262   -35244   -35239   -35228   -35209 
  -35205   -35197   -35180   -35172   -35157   -35137   -35132   -35116 
  -35092   -35089   -35079   -35061   -35053   -35033   -35016   -35022 
  -35010   -34992   -35001   -34995   -34985   -35000   -35000   -34989 
  -34997   -34991   -34981   -34986   -34972   -34954   -34952   -34932 
  -34911   -34904   -34875   -34846   -34836   -34814   -34795   -34782 
  -34755   -34749   -34758   -34743   -34740   -34761   -34768   -34793 
  -34832   -34855   -34898   -34955   -34992   -35046   -35112   -35158 
  -35223   -35294   -35339   -35398   -35461   -35503   -35564   -35628 
  -35663   -35714   -35774   -35810   -35855   -35903   -35937   -35994 
  -36056   -36101   -36165   -36235   -36289   -36362   -36437   -36500 
  -36582   -36663   -36732   -36817   -36897   -36963   -37046   -37121 
  -37180   -37252   -37313   -37355   -37411   -37449   -37465   -37490 
  -37502   -37499   -37507   -37497   -37471   -37460   -37438   -37403 
  -37381   -37352   -37317   -37287   -37243   -37198   -37168   -37124 
  -37073   -37035   -36987   -36936   -36899   -36852   -36804   -36773 
  -36731   -36681   -36644   -36601   -36557   -36523   -36478   -36436 
  -36406   -36360   -36310   -36274   -36224   -36163   -36111   -36049 
  -35982   -35919   -35844   -35765   -35693   -35611   -35527   -35446 
  -35362   -35281   -35197   -35107   -35029   -34962   -34884   -34805 
  -34736   -34664   -34592   -34532   -34469   -34408   -34363   -34310 
  -34247   -34196   -34151   -34101   -34064   -34035   -34004   -33981 
  -33961   -33941   -33933   -33928   -33918   -33915   -33915   -33921 
  -33934   -33940   -33938   -33951   -33961   -33959   -33968   -33978 
  -33983   -34005   -34026   -34037   -34058   -34078   -34103   -34149 
  -34186   -34219   -34280   -34340   -34385   -34443   -34503   -34560 
  -34630   -34689   -34745   -34820   -34882   -34937   -35007   -35060 
  -35108   -35176   -35228   -35274   -35333   -35372   -35404   -35450 
  -35479   -35502   -35533   -35544   -35556   -35589   -35599   -35607 
  -35638   -35653   -35663   -35691   -35704   -35723   -35758   -35774 
  -35797   -35834   -35848   -35866   -35901   -35918   -35942   -35978 
  -35993   -36015   -36049   -36058   -36074   -36102   -36106   -36111 
  -36130   -36134   -36147   -36159   -36144   -36134   -36130   -36110 
  -36101   -36089   -36052   -36027   -36006   -35963   -35933   -35900 
  -35846   -35813   -35780   -35718   -35676   -35641   -35580   -35529 
  -35486   -35430   -35383   -35333   -35278   -35241   -35198   -35147 
  -35116   -35079   -35029   -35001   -34970   -34929   -34911   -34886 
  -34848   -34834   -34816   -34785   -34772   -34757   -34740   -34741 
  -34738   -34730   -34732   -34732   -34740   -34759   -34761   -34759 
  -34773   -34783   -34788   -34794   -34789   -34787   -34794   -34783 
  -34768   -34760   -34744   -34728   -34716   -34692   -34673   -34665 
  -34654   -34645   -34647   -34648   -34652   -34664   -34680   -34706 
  -34741   -34772   -34810   -34860   -34905   -34952   -35009   -35056 
  -35101   -35156   -35203   -35239   -35282   -35323   -35346   -35371 
  -35396   -35409   -35425   -35441   -35445   -35457   -35468   -35469 
  -35475   -35480   -35483   -35498   -35512   -35517   -35535   -35553 
  -35559   -35576   -35604   -35626   -35654   -35684   -35709   -35743 
  -35767   -35781   -35815   -35849   -35862   -35883   -35904   -35911 
  -35925   -35939   -35946   -35966   -35977   -35972   -35981   -35984 
  -35973   -35971   -35953   -35922   -35909   -35887   -35849   -35825 
  -35789   -35742   -35710   -35667   -35619   -35589   -35550   -35509 
  -35484   -35444   -35406   -35396   -35373   -35345   -35345   -35337 
  -35323   -35327   -35323   -35322   -35336   -35336   -35341   -35359 
  -35354   -35356   -35380   -35386   -35393   -35408   -35398   -35398 
  -35417   -35409   -35408   -35428   -35420   -35412   -35421   -35406 
  -35396   -35398   -35377   -35364   -35359   -35332   -35317   -35311 
  -35279   -35258   -35250   -35221   -35203   -35198   -35175   -35154 
  -35139   -35121   -35123   -35124   -35113   -35123   -35136   -35134 
  -35152   -35174   -35184   -35210   -35236   -35250   -35276   -35293 
  -35301   -35327   -35340   -35334   -35347   -35352   -35333   -35324 
  -35313   -35288   -35268   -35241   -35199   -35164   -35127   -35080 
  -35043   -35002   -34951   -34917   -34885   -34847   -34818   -34787 
  -34755   -34734   -34712   -34693   -34684   -34670   -34657   -34660 
  -34659   -34648   -34653   -34664   -34668   -34676   -34685   -34694 
  -34712   -34728   -34742   -34761   -34777   -34795   -34816   -34829 
  -34836   -34848   -34858   -34870   -34886   -34893   -34898   -34913 
  -34924   -34934   -34957   -34982   -35001   -35025   -35050   -35070 
  -35102   -35137   -35165   -35201   -35237   -35267   -35305   -35347 
  -35381   -35421   -35458   -35483   -35509   -35529   -35535   -35547 
  -35555   -35546   -35543   -35534   -35510   -35491   -35474   -35445 
  -35419   -35390   -35356   -35334   -35309   -35277   -35262   -35246 
  -35218   -35207   -35197   -35172   -35163   -35159   -35143   -35135 
  -35119   -35090   -35075   -35062   -35040   -35030   -35020   -35006 
  -35005   -34989   -34965   -34964   -34959   -34944   -34947   -34946 
  -34933   -34942   -34943   -34932   -34946   -34958   -34959   -34976 
  -34982   -34986   -35007   -35008   -35004   -35026   -35034   -35035 
  -35055   -35057   -35052   -35064   -35058   -35052   -35063   -35054 
  -35048   -35062   -35050   -35038   -35049   -35043   -35045   -35065 
  -35063   -35071   -35105   -35120   -35130   -35157   -35177   -35208 
  -35245   -35264   -35301   -35353   -35377   -35415   -35468   -35493 
  -35521   -35558   -35579   -35612   -35645   -35654   -35677   -35703 
  -35702   -35714   -35732   -35726   -35733   -35744   -35734   -35734 
  -35733   -35715   -35712   -35707   -35688   -35686   -35680   -35657 
  -35649   -35640   -35612   -35597   -35588   -35568   -35554   -35535 
  -35509   -35503   -35495   -35472   -35466   -35462   -35445   -35439 
  -35435   -35424   -35425   -35422   -35403   -35392   -35380   -35364 
  -35362   -35358   -35345   -35341   -35337   -35330   -35328   -35323 
  -35318   -35320   -35313   -35301   -35300   -35297   -35290   -35289 
  -35283   -35268   -35263   -35258   -35248   -35247   -35244   -35232 
  -35224   -35215   -35200   -35195   -35198   -35195   -35192   -35190 
  -35181   -35179   -35187   -35191   -35205   -35225   -35237   -35256 
  -35282   -35300   -35325   -35362   -35393   -35430   -35471   -35502 
  -35541   -35585   -35622   -35671   -35723   -35757   -35802   -35852 
  -35886   -35931   -35984   -36021   -36061   -36102   -36133   -36173 
