Origin Time       2025/01/13 21:19:00
Lat.              31.8
Long.             131.6
Depth. (km)       30
Mag.              6.9
Station Code      SMNH11
Station Lat.      35.4259
Station Long.     132.8008
Station Height(m) -170
Record Time       2025/01/13 21:21:08
Sampling Freq(Hz) 100Hz
Duration Time(s)  149
Dir.              1
Scale Factor      2940(gal)/6170270
Max. Acc. (gal)   0.542
Last Correction   2025/01/13 21:20:53
Memo.             
[...]
  247122   247104   247088   247070   247050   247031   247010   246987 
  246963   246942   246922   246903   246885   246871   246860   246851 
  246840   246830   246824   246817   246811   246807   246800   246795 
  246793   246790   246790   246789   246781   246772   246766   246759 
  246753   246746   246734   246724   246717   246711   246705   246700 
  246696   246697   246702   246707   246714   246722   246729   246736 
  246744   246749   246752   246755   246752   246752   246761   246761 
  246757   246762   246762   246757   246759   246759   246757   246760 
  246764   246765   246768   246770   246770   246772   246774   246775 
  246777   246782   246792   246799   246801   246807   246815   246820 
  246824   246828   246827   246830   246828   246818   246813   246808 
  246793   246776   246763   246745   246723   246702   246678   246648 
  246617   246579   246540   246503   246465   246425   246381   246339 
  246302   246264   246224   246189   246156   246123   246091   246062 
  246035   246007   245983   245964   245945   245926   245912   245901 
  245893   245889   245889   245891   245894   245899   245903   245903 
  245903   245904   245906   245909   245909   245911   245917   245924 
  245929   245938   245948   245955   245960   245964   245966   245968 
  245970   245971   245971   245971   245972   245971   245968   245964 
  245959   245952   245948   245944   245940   245936   245933   245932 
  245931   245929   245928   245924   245919   245911   245897   245883 
  245869   245851   245835   245821   245803   245790   245778   245760 
  245742   245728   245715   245697   245681   245671   245662   245653 
  245647   245638   245630   245623   245618   245615   245612   245606 
  245606   245609   245612   245616   245620   245624   245632   245640 
  245648   245661   245671   245682   245701   245718   245729   245747 
  245766   245780   245796   245814   245831   245849   245871   245895 
  245922   245953   245986   246017   246049   246087   246129   246169 
  246210   246258   246302   246345   246388   246427   246466   246506 
  246541   246573   246605   246635   246665   246692   246716   246738 
  246759   246775   246788   246799   246809   246816   246821   246821 
  246819   246818   246813   246805   246799   246794   246786   246781 
  246779   246772   246765   246766   246767   246763   246759   246753 
  246744   246736   246724   246708   246693   246678   246661   246641 
  246622   246608   246592   246573   246561   246549   246533   246521 
  246509   246494   246484   246475   246464   246459   246454   246444 
  246438   246437   246433   246425   246418   246413   246404   246390 
  246380   246371   246354   246339   246329   246318   246305   246295 
  246285   246275   246271   246264   246255   246253   246252   246249 
  246252   246256   246261   246271   246288   246304   246320   246340 
  246362   246386   246415   246444   246472   246497   246518   246541 
  246563   246577   246590   246604   246610   246615   246624   246625 
  246625   246629   246630   246627   246630   246633   246632   246632 
  246634   246634   246634   246638   246642   246646   246651   246654 
  246659   246666   246672   246678   246686   246692   246693   246694 
  246697   246698   246695   246690   246687   246684   246679   246676 
  246678   246681   246681   246685   246693   246693   246688   246688 
  246683   246674   246666   246652   246635   246622   246607   246587 
  246565   246543   246518   246494   246474   246454   246436   246420 
  246403   246395   246389   246381   246380   246384   246388   246399 
  246414   246427   246446   246466   246485   246509   246537   246563 
  246588   246616   246644   246672   246696   246717   246736   246754 
  246770   246780   246786   246794   246799   246801   246802   246809 
  246815   246818   246824   246830   246835   246843   246849   246854 
  246861   246867   246871   246876   246879   246882   246883   246885 
  246886   246881   246879   246875   246863   246851   246840   246823 
  246805   246785   246758   246728   246701   246668   246628   246590 
  246552   246510   246468   246428   246383   246342   246305   246262 
  246221   246189   246161   246128   246097   246072   246049   246029 
  246014   246000   245991   245984   245976   245971   245971   245970 
  245971   245977   245982   245987   245993   245998   246005   246014 
  246020   246023   246028   246032   246032   246032   246035   246036 
  246035   246037   246037   246038   246042   246045   246050   246060 
  246073   246086   246099   246117   246138   246158   246181   246207 
  246235   246264   246293   246319   246349   246382   246411   246438 
  246466   246489   246508   246526   246542   246555   246566   246574 
  246577   246578   246579   246577   246577   246583   246582   246580 
  246584   246583   246579   246579   246581   246580   246578   246578 
  246578   246574   246571   246570   246568   246568   246571   246575 
  246578   246578   246580   246581   246583   246587   246588   246585 
  246582   246577   246572   246566   246559   246552   246548   246542 
  246530   246519   246513   246504   246492   246485   246481   246476 
  246467   246464   246462   246456   246452   246451   246448   246445 
  246444   246442   246438   246431   246418   246401   246381   246362 
  246337   246307   246278   246245   246212   246182   246148   246116 
  246086   246052   246020   245990   245954   245918   245887   245853 
  245818   245789   245763   245738   245716   245693   245674   245660 
  245645   245632   245624   245616   245610   245608   245611   245612 
  245611   245610   245613   245617   245621   245629   245636   245641 
  245650   245660   245666   245671   245680   245690   245697   245702 
  245709   245716   245727   245737   245742   245750   245761   245770 
  245777   245786   245799   245812   245821   245833   245852   245866 
  245879   245896   245911   245924   245942   245958   245972   245992 
  246013   246028   246045   246064   246083   246106   246128   246142 
  246161   246183   246199   246214   246232   246249   246268   246283 
  246299   246315   246324   246332   246342   246348   246350   246352 
  246352   246347   246344   246342   246335   246329   246326   246316 
  246301   246290   246279   246264   246245   246229   246216   246197 
  246177   246163   246151   246144   246139   246129   246124   246129 
  246132   246136   246142   246149   246158   246164   246169   246180 
  246194   246205   246211   246217   246230   246241   246246   246256 
  246271   246284   246296   246307   246318   246329   246338   246346 
  246357   246366   246371   246379   246391   246397   246402   246409 
  246415   246420   246424   246428   246434   246434   246437   246446 
  246455   246468   246482   246493   246508   246527   246546   246563 
  246581   246598   246612   246627   246645   246664   246680   246694 
  246717   246742   246761   246777   246797   246825   246852   246871 
  246890   246913   246937   246959   246977   246995   247017   247037 
  247053   247069   247085   247101   247119   247132   247144   247159 
  247173   247184   247190   247198   247207   247209   247206   247208 
  247211   247210   247209   247209   247205   247197   247189   247184 
  247177   247166   247155   247142   247128   247110   247089   247069 
  247042   247011   246982   246951   246920   246882   246841   246807 
  246774   246733   246696   246663   246630   246600   246573   246544 
  246516   246491   246468   246447   246428   246413   246400   246392 
  246385   246378   246377   246379   246378   246380   246383   246385 
  246390   246401   246411   246418   246428   246437   246441   246447 
  246452   246453   246458   246462   246463   246462   246459   246455 
  246451   246446   246441   246433   246429   246422   246411   246403 
  246397   246389   246386   246382   246378   246381   246384   246382 
  246387   246394   246394   246392   246394   246394   246386   246374 
  246361   246345   246322   246294   246270   246243   246208   246173 
  246141   246103   246063   246025   245981   245939   245904   245868 
  245832   245805   245779   245752   245729   245716   245707   245699 
  245699   245704   245712   245727   245743   245762   245787   245811 
  245829   245853   245883   245910   245932   245956   245979   245997 
  246013   246029   246044   246059   246072   246087   246100   246107 
  246113   246123   246134   246144   246153   246160   246169   246176 
  246186   246197   246206   246220   246234   246244   246258   246274 
  246285   246298   246314   246330   246344   246362   246379   246391 
  246409   246431   246449   246469   246488   246504   246519   246533 
  246543   246551   246562   246574   246583   246594   246607   246615 
  246620   246627   246633   246636   246638   246639   246641   246642 
  246642   246641   246640   246640   246634   246631   246638   246639 
  246636   246637   246634   246628   246625   246621   246616   246610 
  246603   246597   246589   246579   246571   246561   246550   246538 
  246525   246513   246506   246497   246487   246484   246484   246483 
  246483   246482   246485   246494   246504   246510   246520   246531 
  246538   246544   246552   246557   246564   246573   246575   246576 
  246579   246581   246582   246578   246576   246576   246569   246562 
  246555   246547   246538   246530   246521   246508   246495   246484 
  246473   246463   246453   246445   246439   246430   246419   246408 
  246395   246383   246375   246363   246349   246339   246331   246320 
  246309   246300   246291   246287   246285   246280   246277   246279 
  246282   246289   246299   246312   246321   246333   246353   246370 
  246385   246404   246416   246424   246439   246451   246458   246467 
  246472   246472   246479   246487   246486   246483   246480   246474 
  246467   246456   246444   246431   246420   246407   246391   246378 
  246367   246355   246343   246328   246313   246299   246284   246269 
  246252   246236   246224   246209   246192   246177   246159   246143 
  246132   246118   246107   246100   246094   246086   246078   246078 
  246077   246073   246077   246081   246085   246092   246096   246102 
  246110   246112   246112   246108   246104   246101   246096   246090 
  246084   246076   246068   246060   246051   246046   246043   246036 
  246031   246031   246031   246034   246041   246049   246062   246077 
  246089   246104   246123   246143   246164   246183   246203   246222 
  246242   246263   246282   246298   246323   246352   246373   246387 
  246407   246427   246441   246457   246478   246494   246508   246529 
  246550   246568   246590   246612   246632   246656   246681   246699 
  246716   246737   246758   246774   246785   246796   246805   246809 
  246810   246811   246804   246791   246779   246762   246736   246707 
  246678   246646   246609   246574   246541   246506   246470   246435 
  246401   246369   246337   246309   246285   246263   246244   246226 
  246209   246193   246181   246172   246158   246147   246142   246133 
  246120   246108   246096   246081   246063   246046   246025   246002 
  245980   245952   245922   245892   245859   245824   245794   245764 
  245732   245701   245675   245652   245633   245616   245603   245597 
  245597   245597   245603   245617   245634   245656   245685   245716 
  245746   245782   245818   245853   245888   245926   245965   246003 
  246039   246078   246120   246159   246195   246229   246261   246292 
  246323   246349   246374   246398   246419   246440   246461   246479 
  246498   246516   246529   246544   246562   246575   246589   246606 
  246623   246642   246663   246680   246695   246713   246731   246747 
  246763   246774   246783   246795   246804   246810   246817   246819 
  246819   246822   246824   246824   246819   246812   246805   246798 
  246789   246777   246764   246751   246737   246722   246709   246699 
  246687   246675   246664   246653   246649   246648   246641   246634 
  246632   246632   246631   246634   246640   246644   246649   246656 
  246663   246666   246671   246678   246681   246684   246689   246688 
  246689   246695   246694   246691   246694   246698   246698   246699 
  246706   246711   246710   246712   246714   246715   246719   246720 
  246719   246719   246717   246711   246707   246700   246687   246672 
  246655   246638   246615   246589   246563   246535   246505   246474 
  246439   246400   246364   246327   246287   246244   246205   246165 
  246121   246081   246040   245996   245951   245910   245872   245832 
  245792   245755   245718   245681   245647   245615   245580   245546 
  245514   245484   245460   245438   245417   245399   245386   245377 
  245371   245365   245364   245368   245371   245374   245385   245402 
  245416   245433   245455   245477   245497   245521   245549   245576 
  245601   245631   245660   245684   245712   245744   245771   245798 
  245828   245857   245885   245912   245942   245974   246004   246032 
  246063   246096   246129   246161   246193   246227   246264   246301 
  246338   246377   246416   246456   246498   246539   246581   246623 
  246666   246710   246752   246792   246832   246873   246917   246959 
  246998   247038   247081   247123   247162   247201   247241   247273 
  247302   247339   247370   247398   247431   247453   247465   247481 
  247495   247503   247510   247513   247514   247514   247509   247502 
  247496   247486   247470   247455   247438   247419   247398   247376 
  247351   247321   247288   247257   247225   247190   247152   247109 
  247065   247025   246979   246925   246872   246822   246765   246706 
  246649   246589   246528   246466   246406   246349   246289   246227 
  246173   246119   246060   246007   245959   245913   245870   245831 
  245794   245758   245727   245704   245685   245664   245647   245639 
  245633   245628   245632   245644   245652   245660   245675   245693 
  245708   245728   245748   245767   245790   245809   245828   245852 
  245872   245889   245911   245934   245955   245973   245989   246009 
  246029   246044   246061   246083   246106   246127   246145   246164 
  246183   246200   246221   246242   246258   246275   246294   246312 
  246330   246341   246351   246366   246378   246386   246394   246397 
  246399   246406   246409   246405   246404   246403   246394   246387 
  246382   246375   246367   246362   246355   246347   246338   246325 
  246316   246308   246296   246285   246272   246257   246247   246233 
  246212   246199   246183   246160   246145   246128   246106   246090 
  246071   246049   246025   246003   245982   245957   245930   245906 
  245884   245858   245834   245809   245783   245759   245736   245714 
  245694   245672   245652   245635   245618   245601   245589   245580 
  245570   245562   245561   245565   245568   245576   245589   245603 
  245621   245642   245665   245693   245723   245752   245785   245823 
  245856   245892   245935   245972   246011   246055   246096   246140 
  246189   246233   246278   246325   246367   246413   246463   246506 
  246552   246603   246650   246698   246748   246794   246839   246888 
  246933   246975   247015   247050   247085   247118   247143   247164 
  247184   247197   247207   247213   247216   247217   247213   247206 
  247200   247189   247174   247156   247139   247122   247104   247087 
  247067   247044   247026   247012   246995   246977   246963   246948 
  246934   246925   246912   246899   246893   246886   246877   246874 
  246869   246860   246860   246856   246853   246857   246854   246845 
  246845   246845   246838   246835   246834   246830   246826   246820 
  246814   246808   246802   246795   246785   246777   246768   246758 
  246751   246743   246733   246725   246715   246704   246694   246683 
  246674   246669   246662   246653   246641   246628   246616   246603 
  246588   246575   246556   246531   246513   246496   246470   246446 
  246421   246394   246368   246339   246309   246280   246250   246219 
  246188   246159   246131   246100   246068   246037   246008   245980 
  245953   245926   245902   245881   245856   245830   245811   245793 
  245775   245762   245746   245730   245722   245712   245698   245691 
  245682   245669   245662   245654   245646   245644   245643   245637 
  245633   245634   245637   245635   245635   245639   245645   245654 
  245665   245675   245686   245703   245719   245736   245759   245782 
  245805   245835   245865   245892   245921   245954   245987   246018 
  246053   246089   246120   246151   246187   246215   246242   246273 
  246302   246326   246351   246375   246393   246410   246429   246445 
  246461   246479   246493   246506   246520   246534   246549   246562 
  246570   246580   246593   246605   246618   246633   246649   246667 
  246684   246701   246722   246740   246757   246780   246799   246812 
  246832   246852   246866   246885   246904   246919   246930   246940 
  246952   246960   246967   246974   246977   246981   246983   246978 
  246975   246975   246969   246964   246963   246958   246950   246947 
  246946   246941   246939   246939   246936   246931   246933   246937 
  246938   246941   246944   246944   246946   246948   246947   246949 
  246948   246945   246941   246933   246925   246918   246908   246893 
  246880   246869   246853   246836   246821   246800   246779   246760 
  246734   246707   246683   246657   246627   246598   246568   246535 
  246504   246475   246444   246417   246390   246356   246327   246304 
  246275   246248   246225   246201   246174   246149   246131   246115 
  246094   246076   246063   246051   246037   246029   246021   246014 
  246011   246007   246000   245995   245993   245988   245985   245983 
  245980   245980   245982   245980   245978   245982   245986   245986 
  245991   246001   246007   246014   246029   246045   246062   246082 
  246102   246128   246152   246173   246199   246227   246257   246286 
  246310   246338   246367   246390   246415   246439   246456   246472 
  246490   246506   246516   246522   246530   246538   246545   246547 
  246545   246541   246539   246538   246532   246524   246516   246506 
  246496   246484   246469   246455   246438   246421   246408   246392 
  246377   246365   246347   246331   246319   246305   246297   246290 
  246281   246280   246279   246274   246273   246275   246277   246281 
  246282   246286   246292   246295   246301   246310   246319   246327 
  246332   246339   246345   246348   246353   246359   246363   246367 
  246374   246381   246383   246386   246393   246398   246404   246409 
  246410   246415   246424   246430   246433   246442   246451   246454 
  246457   246462   246463   246464   246465   246461   246458   246458 
  246454   246447   246440   246433   246426   246418   246408   246398 
  246387   246375   246365   246358   246349   246340   246335   246328 
  246322   246320   246319   246317   246313   246309   246311   246315 
  246318   246319   246326   246338   246345   246349   246355   246366 
  246378   246387   246397   246409   246418   246427   246440   246450 
  246458   246465   246472   246477   246484   246493   246496   246498 
