Origin Time       2025/01/13 21:19:00
Lat.              31.8
Long.             131.6
Depth. (km)       30
Mag.              6.9
Station Code      SMNH15
Station Lat.      35.5232
Station Long.     133.0226
Station Height(m) 20
Record Time       2025/01/13 21:21:07
Sampling Freq(Hz) 100Hz
Duration Time(s)  134
Dir.              5
Scale Factor      7845(gal)/8223790
Max. Acc. (gal)   0.692
Last Correction   2025/01/13 21:21:07
Memo.             
[...]
    4533     4513     4492     4477     4472     4472     4477     4491 
    4510     4527     4544     4553     4554     4556     4556     4553 
    4542     4526     4515     4503     4490     4491     4494     4498 
    4509     4513     4503     4490     4473     4455     4434     4414 
    4399     4391     4386     4386     4390     4395     4399     4403 
    4409     4413     4417     4418     4422     4429     4432     4430 
    4430     4433     4437     4445     4450     4448     4445     4434 
    4415     4398     4387     4379     4376     4382     4390     4399 
    4417     4437     4459     4479     4500     4517     4525     4529 
    4530     4519     4503     4488     4468     4445     4423     4403 
    4390     4388     4396     4411     4437     4468     4487     4496 
    4503     4502     4495     4494     4490     4487     4486     4483 
    4477     4475     4475     4477     4484     4492     4495     4494 
    4491     4488     4488     4491     4500     4521     4545     4571 
    4603     4637     4666     4692     4710     4719     4718     4703 
    4681     4658     4634     4619     4611     4608     4615     4627 
    4645     4664     4681     4699     4712     4718     4714     4702 
    4683     4664     4639     4617     4595     4577     4567     4567 
    4575     4591     4619     4654     4687     4718     4749     4777 
    4797     4808     4815     4814     4799     4785     4766     4737 
    4710     4695     4681     4671     4671     4680     4691     4710 
    4742     4773     4803     4834     4858     4872     4882     4888 
    4884     4876     4866     4854     4843     4835     4834     4831 
    4827     4819     4812     4804     4792     4781     4769     4752 
    4739     4731     4729     4733     4742     4758     4781     4800 
    4818     4831     4838     4843     4842     4833     4819     4800 
    4777     4753     4729     4707     4684     4664     4650     4641 
    4639     4642     4646     4653     4660     4669     4673     4675 
    4680     4685     4691     4707     4733     4760     4789     4815 
    4835     4850     4853     4847     4841     4833     4822     4811 
    4804     4800     4795     4787     4776     4762     4750     4737 
    4720     4699     4675     4649     4617     4585     4556     4522 
    4488     4457     4432     4413     4402     4403     4418     4442 
    4468     4499     4526     4548     4572     4594     4606     4614 
    4618     4612     4603     4588     4571     4548     4525     4504 
    4484     4465     4453     4445     4437     4433     4436     4442 
    4453     4465     4480     4496     4504     4509     4517     4517 
    4502     4486     4464     4433     4406     4386     4369     4355 
    4347     4349     4357     4367     4383     4402     4418     4434 
    4453     4469     4479     4486     4488     4486     4480     4476 
    4476     4473     4471     4469     4465     4461     4461     4471 
    4490     4511     4530     4550     4569     4584     4599     4611 
    4615     4621     4630     4641     4653     4666     4680     4688 
    4695     4702     4700     4699     4695     4683     4664     4644 
    4619     4599     4583     4569     4558     4554     4561     4575 
    4592     4619     4652     4684     4722     4756     4780     4796 
    4803     4796     4777     4747     4706     4656     4607     4558 
    4513     4477     4448     4425     4410     4395     4388     4390 
    4396     4409     4428     4448     4472     4495     4515     4533 
    4548     4556     4557     4556     4550     4545     4549     4558 
    4572     4591     4610     4627     4639     4644     4645     4644 
    4644     4639     4631     4618     4602     4587     4576     4572 
    4579     4595     4618     4646     4676     4702     4726     4743 
    4747     4741     4725     4699     4668     4637     4602     4564 
    4536     4511     4491     4479     4475     4465     4455     4448 
    4441     4432     4422     4421     4421     4423     4436     4448 
    4457     4467     4477     4488     4502     4521     4538     4554 
    4569     4577     4575     4568     4556     4537     4514     4487 
    4464     4445     4429     4415     4410     4406     4405     4410 
    4423     4442     4464     4487     4510     4530     4549     4565 
    4576     4581     4583     4575     4560     4534     4503     4473 
    4445     4419     4398     4383     4372     4369     4378     4394 
    4422     4459     4495     4536     4573     4603     4625     4645 
    4656     4653     4637     4617     4594     4568     4545     4529 
    4517     4510     4511     4522     4540     4558     4577     4592 
    4602     4608     4611     4615     4623     4631     4637     4637 
    4634     4630     4623     4612     4595     4577     4564     4549 
    4536     4523     4517     4521     4536     4556     4584     4612 
    4634     4654     4673     4685     4687     4679     4671     4658 
    4639     4622     4607     4590     4573     4560     4548     4537 
    4527     4522     4517     4511     4510     4511     4522     4538 
    4558     4587     4617     4645     4675     4698     4712     4726 
    4733     4729     4718     4702     4684     4665     4645     4631 
    4626     4625     4627     4635     4641     4645     4648     4650 
    4654     4662     4673     4687     4703     4716     4725     4729 
    4723     4704     4672     4630     4577     4515     4450     4388 
    4336     4294     4264     4248     4247     4259     4283     4315 
    4357     4405     4455     4506     4560     4604     4644     4675 
    4698     4714     4723     4729     4729     4727     4730     4735 
    4741     4752     4772     4793     4812     4833     4853     4869 
    4884     4897     4908     4918     4927     4934     4936     4941 
    4941     4939     4938     4938     4936     4938     4943     4947 
    4953     4958     4959     4958     4954     4942     4928     4912 
    4891     4868     4843     4818     4791     4765     4743     4716 
    4684     4657     4633     4608     4585     4560     4540     4527 
    4525     4530     4540     4550     4563     4573     4580     4581 
    4579     4576     4571     4565     4561     4558     4556     4560 
    4571     4584     4604     4629     4652     4665     4676     4685 
    4685     4677     4665     4654     4646     4638     4637     4646 
    4664     4688     4723     4770     4827     4887     4949     5012 
    5071     5119     5148     5163     5161     5140     5111     5071 
    5017     4962     4914     4865     4822     4789     4769     4762 
    4761     4769     4783     4793     4803     4811     4811     4804 
    4795     4783     4765     4738     4712     4691     4665     4638 
    4608     4579     4557     4542     4530     4518     4514     4518 
    4522     4527     4538     4553     4569     4588     4608     4626 
    4646     4666     4683     4700     4716     4727     4734     4733 
    4722     4710     4692     4668     4642     4610     4572     4534 
    4500     4471     4445     4428     4422     4421     4423     4429 
    4429     4430     4436     4436     4434     4434     4428     4417 
    4405     4390     4371     4352     4334     4320     4314     4317 
    4318     4322     4329     4336     4344     4356     4371     4390 
    4409     4426     4448     4464     4475     4488     4504     4514 
    4518     4526     4534     4540     4546     4558     4569     4583 
    4594     4596     4594     4581     4565     4544     4514     4484 
    4460     4437     4417     4399     4391     4384     4379     4383 
    4387     4388     4394     4398     4394     4388     4379     4365 
    4353     4344     4338     4334     4334     4340     4348     4355 
    4364     4374     4386     4394     4409     4428     4444     4464 
    4488     4510     4536     4563     4590     4619     4648     4666 
    4683     4695     4702     4699     4692     4677     4657     4635 
    4611     4590     4573     4561     4552     4545     4541     4537 
    4530     4521     4511     4499     4484     4465     4441     4410 
    4374     4333     4293     4256     4220     4189     4167     4153 
    4144     4143     4140     4137     4135     4133     4129     4126 
    4118     4114     4116     4114     4113     4118     4124     4129 
    4141     4156     4170     4185     4198     4213     4232     4249 
    4267     4291     4318     4341     4361     4383     4403     4419 
    4432     4444     4457     4469     4480     4488     4494     4495 
    4494     4492     4488     4483     4484     4490     4500     4518 
    4544     4576     4614     4657     4703     4746     4784     4818 
    4837     4837     4824     4801     4766     4726     4688     4652 
    4622     4594     4573     4564     4567     4577     4596     4626 
    4662     4700     4734     4765     4789     4807     4818     4828 
    4834     4833     4827     4816     4806     4791     4773     4752 
    4726     4700     4681     4668     4661     4657     4661     4677 
    4695     4715     4743     4769     4793     4820     4843     4864 
    4887     4911     4935     4961     4989     5013     5032     5046 
    5057     5063     5069     5069     5069     5070     5067     5059 
    5051     5044     5042     5038     5038     5042     5044     5049 
    5053     5057     5063     5065     5065     5066     5059     5050 
    5036     5015     4995     4972     4935     4895     4851     4801 
    4747     4696     4642     4591     4542     4494     4455     4423 
    4394     4369     4345     4325     4307     4287     4268     4248 
    4226     4209     4201     4197     4198     4212     4233     4255 
    4278     4302     4325     4347     4368     4391     4411     4432 
    4452     4468     4484     4495     4504     4517     4525     4527 
    4531     4533     4527     4521     4513     4496     4477     4460 
    4438     4410     4375     4336     4298     4261     4226     4197 
    4172     4153     4143     4137     4133     4136     4140     4143 
    4151     4162     4170     4174     4178     4187     4199     4213 
    4228     4241     4253     4266     4275     4283     4288     4287 
    4283     4275     4267     4263     4259     4259     4266     4282 
    4305     4334     4369     4409     4448     4484     4522     4558 
    4587     4618     4652     4679     4702     4722     4731     4734 
    4742     4743     4737     4731     4727     4725     4725     4730 
    4738     4752     4772     4795     4820     4846     4870     4893 
    4916     4936     4957     4973     4981     4986     4988     4986 
    4985     4982     4982     4985     4986     4989     4996     5007 
    5019     5034     5051     5067     5078     5084     5078     5062 
    5040     5008     4966     4924     4884     4846     4820     4806 
    4800     4807     4830     4865     4908     4957     5009     5062 
    5112     5152     5182     5202     5209     5200     5179     5152 
    5119     5082     5047     5016     4992     4977     4968     4966 
    4976     4990     5012     5036     5062     5082     5098     5109 
    5116     5113     5108     5103     5092     5081     5076     5065 
    5049     5028     5005     4977     4946     4920     4897     4877 
    4868     4872     4878     4895     4927     4965     5005     5054 
    5105     5151     5189     5223     5247     5259     5262     5259 
    5246     5220     5189     5154     5112     5063     5012     4962 
    4909     4855     4810     4770     4733     4703     4685     4675 
    4668     4668     4665     4658     4649     4639     4623     4599 
    4569     4538     4506     4471     4437     4407     4382     4357 
    4337     4324     4315     4311     4314     4322     4326     4329 
    4333     4330     4322     4311     4297     4282     4263     4243 
    4229     4224     4226     4243     4270     4305     4349     4396 
    4446     4496     4542     4585     4625     4657     4681     4692 
    4691     4681     4660     4635     4606     4573     4538     4503 
    4468     4438     4413     4392     4379     4372     4374     4375 
    4378     4384     4391     4395     4402     4409     4415     4422 
    4433     4440     4441     4437     4425     4406     4387     4365 
    4341     4318     4303     4293     4283     4279     4282     4287 
    4294     4309     4324     4334     4344     4355     4365     4371 
    4374     4371     4359     4342     4322     4295     4264     4232 
    4202     4171     4144     4122     4102     4089     4090     4098 
    4106     4121     4137     4155     4168     4182     4194     4205 
    4209     4206     4201     4187     4163     4139     4116     4097 
    4082     4067     4059     4055     4052     4055     4066     4077 
    4091     4112     4135     4156     4171     4186     4202     4216 
    4230     4248     4263     4275     4287     4299     4310     4324 
    4340     4355     4374     4396     4415     4433     4449     4461 
    4472     4482     4487     4498     4510     4523     4542     4568 
    4592     4610     4627     4648     4662     4666     4664     4658 
    4654     4645     4633     4621     4608     4592     4577     4563 
    4550     4544     4541     4549     4567     4590     4623     4662 
    4708     4762     4824     4889     4957     5026     5093     5150 
    5200     5246     5277     5297     5313     5327     5335     5335 
    5329     5323     5317     5310     5304     5296     5287     5279 
    5269     5251     5231     5206     5173     5135     5094     5050 
    5000     4949     4900     4858     4819     4788     4766     4746 
    4729     4719     4711     4703     4696     4692     4689     4685 
    4685     4685     4683     4680     4677     4671     4657     4641 
    4625     4604     4581     4558     4542     4534     4537     4553 
    4583     4622     4668     4722     4777     4828     4878     4927 
    4970     5004     5026     5036     5039     5034     5017     4996 
    4972     4947     4919     4896     4876     4861     4850     4837 
    4823     4818     4811     4800     4792     4783     4772     4758 
    4743     4725     4704     4685     4665     4644     4622     4600 
    4580     4557     4531     4506     4480     4450     4423     4398 
    4378     4361     4344     4330     4325     4321     4318     4322 
    4334     4349     4360     4374     4388     4398     4405     4410 
    4409     4406     4402     4392     4380     4371     4360     4353 
    4353     4351     4351     4353     4356     4360     4363     4363 
    4364     4364     4359     4352     4347     4336     4320     4302 
    4284     4270     4256     4244     4236     4228     4217     4207 
    4197     4180     4160     4139     4113     4082     4052     4023 
    3990     3963     3940     3920     3910     3913     3927     3951 
    3985     4018     4055     4097     4143     4187     4232     4274 
    4311     4347     4376     4398     4410     4417     4419     4417 
    4411     4407     4406     4407     4413     4428     4449     4477 
    4517     4565     4617     4673     4731     4788     4842     4893 
    4934     4970     5000     5013     5020     5024     5020     5004 
    4988     4970     4945     4914     4892     4873     4849     4834 
    4831     4835     4843     4861     4884     4905     4926     4949 
    4973     4996     5015     5031     5042     5049     5053     5054 
    5051     5046     5038     5030     5017     5001     4982     4962 
    4941     4920     4900     4880     4865     4855     4850     4847 
    4847     4849     4855     4860     4865     4872     4878     4882 
    4888     4895     4900     4907     4909     4911     4911     4907 
    4903     4897     4882     4862     4846     4824     4800     4784 
    4773     4765     4764     4770     4776     4784     4800     4819 
    4835     4850     4864     4872     4876     4876     4870     4858 
    4841     4823     4801     4772     4745     4716     4681     4652 
    4623     4590     4556     4527     4502     4477     4457     4438 
    4428     4419     4413     4409     4409     4409     4411     4417 
    4422     4428     4437     4446     4456     4464     4472     4480 
    4486     4495     4504     4509     4518     4530     4538     4549 
    4567     4587     4607     4631     4658     4687     4711     4733 
    4753     4769     4783     4793     4806     4811     4810     4808 
    4800     4788     4776     4768     4760     4753     4747     4742 
    4738     4738     4741     4746     4756     4766     4777     4783 
    4785     4783     4774     4756     4729     4699     4660     4615 
    4572     4527     4482     4441     4405     4374     4352     4340 
    4336     4342     4355     4372     4396     4418     4436     4452 
    4464     4473     4475     4472     4464     4446     4428     4409 
    4391     4376     4363     4348     4334     4322     4310     4295 
    4279     4264     4247     4229     4213     4193     4176     4166 
    4153     4148     4151     4159     4170     4186     4203     4222 
    4240     4256     4271     4283     4295     4303     4306     4311 
    4314     4317     4325     4337     4352     4372     4398     4426 
    4456     4487     4518     4545     4576     4606     4630     4654 
    4680     4700     4718     4739     4760     4780     4801     4828 
    4851     4869     4889     4914     4934     4950     4966     4978 
    4985     4988     4988     4986     4981     4969     4958     4949 
    4936     4928     4926     4922     4919     4923     4928     4928 
    4932     4938     4934     4927     4918     4899     4878     4860 
    4833     4806     4780     4756     4734     4719     4706     4698 
    4699     4707     4719     4734     4752     4770     4792     4811 
    4827     4843     4854     4858     4860     4855     4846     4834 
    4819     4797     4773     4750     4720     4689     4662     4634 
    4607     4587     4569     4554     4542     4537     4534     4531 
    4531     4531     4534     4542     4552     4554     4561     4575 
    4580     4581     4584     4581     4579     4575     4571     4567 
    4560     4553     4550     4553     4560     4569     4580     4595 
    4610     4623     4638     4649     4662     4683     4704     4722 
    4743     4768     4787     4803     4818     4828     4839     4850 
    4857     4861     4861     4862     4869     4874     4881     4891 
    4899     4909     4926     4938     4951     4970     4984     4990 
    5000     5005     5004     5001     4996     4986     4978     4969 
    4955     4941     4926     4905     4885     4865     4842     4820 
    4797     4774     4756     4738     4722     4708     4698     4684 
    4673     4662     4646     4626     4603     4573     4540     4502 
    4459     4413     4371     4330     4293     4263     4241     4220 
    4199     4187     4183     4180     4182     4186     4193     4202 
    4210     4216     4218     4217     4213     4209     4199     4185 
    4174     4166     4158     4151     4152     4162     4174     4189 
    4207     4225     4239     4249     4255     4255     4248     4239 
