Origin Time       2025/01/13 21:19:00
Lat.              31.8
Long.             131.6
Depth. (km)       30
Mag.              6.9
Station Code      SMNH11
Station Lat.      35.4259
Station Long.     132.8008
Station Height(m) 30
Record Time       2025/01/13 21:21:08
Sampling Freq(Hz) 100Hz
Duration Time(s)  149
Dir.              4
Scale Factor      3920(gal)/6170801
Max. Acc. (gal)   0.787
Last Correction   2025/01/13 21:20:53
Memo.             
[...]
    2718     2721     2720     2714     2708     2702     2691     2677 
    2662     2646     2626     2599     2566     2526     2481     2435 
    2391     2351     2316     2288     2264     2245     2230     2214 
    2200     2192     2185     2176     2168     2164     2159     2150 
    2144     2139     2130     2118     2104     2090     2074     2053 
    2035     2022     2008     1997     1991     1990     1995     2004 
    2017     2035     2056     2082     2116     2157     2202     2253 
    2306     2356     2399     2433     2456     2471     2481     2486 
    2488     2490     2490     2486     2482     2480     2477     2474 
    2476     2477     2476     2479     2481     2483     2491     2503 
    2512     2519     2522     2520     2511     2496     2474     2450 
    2423     2394     2361     2324     2283     2240     2199     2158 
    2117     2081     2049     2018     1988     1962     1936     1910 
    1885     1857     1823     1784     1742     1697     1648     1596 
    1545     1497     1450     1406     1367     1332     1300     1277 
    1260     1244     1233     1228     1229     1237     1249     1262 
    1276     1288     1299     1312     1328     1345     1362     1377 
    1386     1394     1403     1408     1408     1409     1414     1425 
    1444     1472     1506     1545     1585     1624     1664     1705 
    1742     1771     1793     1808     1817     1816     1806     1791 
    1774     1755     1736     1721     1705     1690     1678     1664 
    1649     1638     1628     1614     1600     1584     1568     1554 
    1539     1521     1508     1495     1481     1467     1454     1437 
    1424     1414     1406     1403     1403     1400     1399     1404 
    1414     1430     1449     1468     1493     1518     1537     1559 
    1583     1609     1642     1677     1710     1744     1780     1819 
    1858     1887     1911     1934     1954     1969     1979     1983 
    1985     1988     1992     1997     2004     2009     2009     2010 
    2012     2018     2027     2035     2039     2040     2040     2039 
    2039     2043     2053     2069     2088     2111     2135     2158 
    2184     2211     2232     2250     2273     2298     2325     2351 
    2376     2401     2428     2452     2476     2503     2524     2540 
    2554     2567     2576     2579     2574     2562     2548     2533 
    2518     2504     2492     2479     2465     2451     2432     2414 
    2398     2377     2352     2323     2285     2243     2199     2148 
    2092     2037     1983     1928     1876     1825     1772     1725 
    1685     1648     1614     1588     1570     1557     1547     1542 
    1542     1548     1555     1561     1573     1590     1605     1621 
    1640     1655     1662     1666     1673     1681     1689     1698 
    1709     1724     1740     1760     1788     1818     1851     1891 
    1931     1974     2018     2059     2101     2143     2183     2221 
    2260     2305     2348     2390     2435     2480     2522     2560 
    2588     2604     2613     2614     2609     2602     2590     2573 
    2557     2540     2518     2495     2477     2463     2451     2440 
    2429     2421     2415     2408     2402     2397     2389     2376 
    2361     2343     2321     2294     2264     2236     2207     2174 
    2143     2117     2089     2055     2025     1998     1971     1948 
    1929     1914     1903     1898     1898     1901     1903     1904 
    1910     1920     1928     1938     1945     1939     1935     1933 
    1918     1900     1887     1872     1856     1850     1845     1837 
    1834     1832     1829     1829     1834     1845     1865     1890 
    1922     1966     2016     2068     2130     2194     2251     2306 
    2359     2408     2455     2503     2542     2574     2609     2639 
    2658     2674     2687     2698     2706     2710     2708     2707 
    2707     2706     2703     2698     2690     2677     2660     2643 
    2625     2603     2578     2549     2517     2481     2441     2399 
    2359     2319     2281     2252     2229     2203     2175     2149 
    2117     2078     2036     1992     1945     1897     1853     1814 
    1774     1735     1698     1661     1625     1595     1569     1538 
    1506     1475     1444     1417     1398     1382     1371     1366 
    1360     1355     1352     1353     1364     1378     1392     1415 
    1437     1455     1474     1495     1518     1545     1572     1598 
    1628     1661     1695     1727     1759     1788     1814     1840 
    1862     1882     1901     1924     1947     1967     1989     2018 
    2050     2083     2115     2149     2185     2221     2257     2293 
    2327     2360     2393     2423     2449     2474     2497     2515 
    2529     2540     2547     2546     2535     2515     2489     2461 
    2428     2390     2346     2299     2249     2201     2154     2111 
    2077     2048     2029     2018     2012     2009     2009     2008 
    2005     2004     2007     2008     2008     2010     2014     2018 
    2025     2039     2055     2069     2082     2096     2107     2114 
    2116     2117     2113     2101     2084     2063     2039     2014 
    1980     1941     1902     1864     1827     1792     1756     1721 
    1688     1660     1636     1613     1592     1575     1559     1550 
    1549     1550     1558     1571     1584     1593     1599     1601 
    1601     1598     1587     1574     1558     1535     1512     1495 
    1483     1470     1461     1453     1444     1436     1428     1420 
    1415     1409     1403     1400     1399     1395     1392     1393 
    1395     1400     1405     1411     1419     1430     1438     1448 
    1461     1474     1486     1500     1515     1531     1551     1577 
    1604     1630     1658     1688     1719     1747     1771     1795 
    1818     1837     1851     1866     1878     1888     1898     1906 
    1912     1915     1912     1906     1898     1887     1876     1863 
    1844     1825     1807     1785     1765     1750     1734     1719 
    1712     1709     1709     1714     1720     1728     1742     1762 
    1786     1815     1846     1874     1903     1935     1968     2004 
    2045     2090     2139     2190     2238     2279     2311     2335 
    2353     2361     2362     2358     2348     2331     2308     2281 
    2252     2223     2192     2158     2123     2085     2045     2006 
    1965     1918     1872     1827     1781     1744     1718     1692 
    1672     1660     1651     1646     1648     1652     1654     1658 
    1662     1670     1683     1697     1710     1726     1740     1753 
    1767     1782     1799     1818     1837     1858     1881     1905 
    1926     1944     1959     1977     1998     2022     2046     2072 
    2102     2130     2156     2183     2210     2230     2245     2260 
    2276     2287     2295     2302     2310     2322     2335     2348 
    2363     2380     2397     2414     2429     2441     2454     2469 
    2485     2504     2522     2541     2560     2581     2601     2621 
    2640     2657     2674     2691     2710     2727     2741     2748 
    2752     2759     2766     2772     2783     2797     2811     2826 
    2841     2852     2859     2858     2850     2838     2820     2800 
    2776     2749     2720     2689     2658     2630     2608     2589 
    2573     2560     2552     2544     2534     2525     2516     2499 
    2481     2464     2440     2413     2386     2356     2325     2287 
    2249     2211     2168     2125     2086     2048     2012     1984 
    1958     1937     1921     1907     1892     1877     1863     1849 
    1836     1828     1823     1822     1825     1829     1833     1834 
    1833     1829     1821     1812     1799     1783     1771     1760 
    1749     1739     1732     1726     1722     1718     1713     1707 
    1699     1691     1680     1670     1661     1654     1650     1649 
    1650     1654     1662     1675     1687     1702     1723     1748 
    1775     1805     1837     1870     1901     1929     1953     1970 
    1977     1978     1970     1948     1916     1881     1839     1793 
    1745     1692     1640     1588     1532     1471     1414     1360 
    1306     1258     1218     1184     1155     1132     1115     1107 
    1108     1113     1120     1133     1149     1167     1189     1217 
    1250     1286     1326     1370     1417     1466     1518     1579 
    1643     1707     1769     1831     1893     1950     2007     2071 
    2132     2185     2241     2292     2332     2381     2433     2473 
    2516     2560     2587     2607     2630     2648     2655     2659 
    2659     2652     2638     2619     2600     2584     2562     2537 
    2516     2489     2455     2428     2398     2358     2326     2299 
    2258     2215     2182     2139     2094     2063     2028     1981 
    1941     1907     1867     1832     1806     1782     1767     1760 
    1755     1755     1762     1771     1785     1805     1829     1859 
    1896     1938     1985     2036     2087     2138     2187     2234 
    2273     2306     2337     2360     2378     2395     2407     2407 
    2409     2409     2400     2391     2379     2359     2338     2319 
    2297     2273     2250     2228     2210     2193     2173     2157 
    2146     2132     2114     2104     2093     2076     2062     2049 
    2028     2009     1997     1986     1977     1977     1978     1979 
    1985     1993     2003     2019     2039     2054     2071     2090 
    2102     2113     2126     2132     2134     2136     2131     2123 
    2114     2098     2082     2066     2034     2000     1969     1928 
    1895     1879     1859     1836     1823     1815     1803     1795 
    1799     1804     1803     1807     1820     1830     1838     1851 
    1872     1894     1911     1932     1960     1984     2005     2030 
    2052     2064     2073     2077     2074     2075     2077     2070 
    2067     2067     2058     2043     2027     2008     1982     1950 
    1917     1886     1850     1807     1768     1734     1696     1662 
    1633     1602     1572     1545     1514     1485     1461     1434 
    1408     1394     1387     1379     1377     1388     1404     1422 
    1448     1486     1526     1568     1618     1676     1734     1795 
    1860     1923     1983     2040     2093     2141     2184     2223 
    2257     2288     2315     2336     2348     2356     2363     2367 
    2365     2362     2362     2357     2348     2345     2346     2342 
    2336     2331     2322     2309     2298     2289     2280     2270 
    2257     2239     2220     2199     2175     2149     2125     2104 
    2086     2068     2056     2052     2046     2039     2043     2052 
    2060     2072     2088     2104     2120     2140     2158     2176 
    2199     2225     2246     2269     2292     2301     2308     2319 
    2315     2301     2291     2270     2235     2204     2169     2120 
    2075     2031     1973     1912     1851     1780     1710     1646 
    1574     1501     1434     1370     1312     1263     1215     1169 
    1136     1103     1069     1051     1040     1027     1025     1033 
    1041     1055     1075     1092     1111     1134     1152     1172 
    1203     1228     1246     1269     1293     1314     1335     1357 
    1381     1407     1435     1465     1500     1539     1576     1615 
    1660     1704     1748     1793     1838     1883     1928     1970 
    2011     2052     2089     2118     2146     2175     2196     2215 
    2234     2253     2273     2291     2306     2324     2343     2359 
    2375     2391     2405     2417     2430     2441     2444     2442 
    2442     2440     2434     2430     2425     2420     2419     2417 
    2414     2414     2414     2413     2411     2411     2412     2414 
    2420     2428     2434     2443     2453     2463     2472     2479 
    2483     2490     2500     2505     2511     2520     2524     2527 
    2532     2536     2538     2537     2532     2524     2516     2506 
    2490     2470     2450     2432     2414     2398     2387     2378 
    2371     2367     2366     2367     2366     2368     2375     2380 
    2382     2382     2377     2371     2364     2350     2332     2314 
    2293     2267     2244     2222     2194     2170     2149     2128 
    2109     2094     2081     2068     2056     2046     2033     2015 
    1996     1977     1956     1931     1903     1871     1832     1793 
    1753     1708     1663     1617     1571     1526     1481     1437 
    1395     1355     1317     1282     1246     1210     1181     1151 
    1124     1104     1086     1072     1066     1058     1049     1046 
    1044     1038     1036     1036     1037     1037     1034     1028 
    1021     1012      999      988      977      966      959      958 
     962      970      981      999     1024     1049     1078     1112 
    1144     1180     1221     1259     1299     1344     1393     1445 
    1500     1560     1622     1685     1751     1817     1882     1944 
    2008     2069     2125     2178     2228     2273     2313     2353 
    2395     2432     2464     2496     2529     2561     2593     2625 
    2655     2687     2720     2750     2779     2808     2836     2864 
    2892     2921     2948     2973     2995     3016     3035     3049 
    3065     3080     3093     3107     3122     3136     3151     3169 
    3190     3209     3224     3233     3237     3233     3220     3199 
    3171     3134     3088     3037     2981     2918     2852     2784 
    2713     2642     2571     2498     2429     2366     2305     2243 
    2187     2133     2082     2035     1986     1937     1892     1849 
    1805     1763     1723     1683     1643     1605     1569     1533 
    1496     1460     1428     1399     1371     1347     1331     1321 
    1316     1317     1325     1341     1361     1385     1411     1442 
    1474     1507     1538     1570     1603     1637     1670     1704 
    1740     1777     1816     1855     1893     1930     1961     1985 
    2003     2019     2030     2039     2043     2041     2034     2023 
    2008     1990     1970     1951     1932     1909     1887     1868 
    1848     1823     1799     1779     1759     1740     1724     1713 
    1703     1696     1694     1698     1705     1718     1734     1750 
    1766     1779     1791     1802     1812     1819     1825     1828 
    1833     1839     1845     1851     1860     1867     1870     1874 
    1880     1885     1888     1893     1894     1891     1887     1880 
    1867     1852     1833     1811     1788     1760     1729     1692 
    1654     1615     1576     1538     1499     1457     1420     1387 
    1352     1318     1287     1261     1234     1206     1182     1160 
    1136     1116     1101     1088     1074     1064     1059     1057 
    1061     1069     1080     1095     1117     1141     1166     1192 
    1221     1255     1295     1340     1386     1439     1499     1562 
    1630     1702     1780     1860     1940     2023     2105     2184 
    2261     2337     2406     2467     2522     2573     2618     2661 
    2702     2738     2767     2793     2816     2836     2852     2865 
    2877     2888     2897     2906     2915     2925     2932     2938 
    2947     2957     2963     2967     2969     2970     2966     2960 
    2955     2943     2926     2907     2886     2863     2840     2812 
    2783     2756     2724     2693     2662     2629     2598     2568 
    2537     2505     2471     2432     2391     2352     2315     2279 
    2248     2220     2194     2173     2159     2146     2136     2133 
    2133     2130     2130     2137     2143     2148     2162     2181 
    2199     2220     2241     2259     2278     2298     2315     2334 
    2354     2370     2387     2406     2422     2435     2444     2451 
    2456     2456     2453     2442     2424     2404     2382     2352 
    2319     2285     2247     2205     2159     2107     2054     2002 
    1946     1886     1826     1766     1705     1642     1578     1513 
    1444     1377     1317     1256     1197     1144     1093     1044 
     999      961      927      896      869      849      831      816 
     808      806      807      811      821      836      851      869 
     891      914      942      974     1010     1049     1092     1138 
    1188     1239     1291     1346     1403     1457     1508     1560 
    1611     1657     1703     1747     1791     1833     1872     1910 
    1948     1985     2023     2059     2092     2126     2159     2189 
    2216     2244     2271     2294     2318     2344     2367     2387 
    2408     2429     2446     2464     2483     2498     2513     2526 
    2535     2543     2550     2552     2555     2556     2556     2557 
    2558     2557     2556     2555     2551     2548     2543     2535 
    2526     2520     2513     2505     2496     2484     2475     2466 
    2457     2452     2448     2442     2440     2439     2437     2439 
    2445     2451     2459     2466     2473     2477     2480     2483 
    2485     2484     2482     2479     2472     2461     2448     2429 
    2408     2389     2366     2338     2310     2281     2255     2231 
    2206     2180     2155     2131     2107     2082     2056     2038 
    2026     2013     2000     1991     1981     1972     1968     1966 
    1967     1974     1981     1990     2001     2012     2024     2034 
    2041     2048     2057     2064     2068     2071     2072     2071 
    2070     2069     2066     2062     2056     2045     2028     2010 
    1989     1962     1935     1909     1881     1851     1823     1797 
    1770     1741     1711     1682     1654     1626     1598     1572 
    1545     1522     1502     1481     1465     1455     1450     1450 
    1455     1465     1482     1503     1525     1551     1576     1600 
    1628     1661     1694     1729     1767     1807     1849     1890 
    1930     1972     2016     2058     2101     2146     2190     2234 
    2278     2320     2356     2388     2418     2446     2469     2486 
    2501     2512     2513     2509     2502     2491     2472     2447 
    2419     2386     2354     2322     2288     2251     2213     2171 
    2127     2085     2042     2000     1964     1928     1895     1867 
    1841     1814     1789     1767     1744     1723     1705     1687 
    1672     1662     1651     1644     1643     1644     1650     1665 
    1683     1702     1727     1756     1786     1816     1846     1878 
    1913     1946     1976     2007     2035     2060     2085     2110 
    2134     2160     2184     2202     2218     2231     2239     2243 
    2246     2247     2248     2248     2246     2244     2242     2241 
    2238     2233     2230     2227     2224     2219     2216     2214 
    2208     2202     2198     2189     2179     2168     2149     2129 
    2108     2084     2059     2033     2005     1977     1946     1914 
    1883     1856     1832     1808     1785     1769     1756     1744 
    1737     1734     1735     1739     1745     1755     1767     1782 
    1797     1814     1833     1854     1876     1902     1927     1953 
    1983     2012     2036     2062     2091     2117     2139     2156 
