Origin Time       2025/01/13 21:19:00
Lat.              31.8
Long.             131.6
Depth. (km)       30
Mag.              6.9
Station Code      SMNH01
Station Lat.      35.2963
Station Long.     133.2604
Station Height(m) 170
Record Time       2025/01/13 21:21:22
Sampling Freq(Hz) 100Hz
Duration Time(s)  120
Dir.              4
Scale Factor      7845(gal)/8223790
Max. Acc. (gal)   0.426
Last Correction   2025/01/13 21:21:23
Memo.             
[...]
   -3759    -3767    -3742    -3699    -3674    -3684    -3709    -3732 
   -3746    -3755    -3769    -3789    -3815    -3842    -3861    -3865 
   -3854    -3823    -3777    -3738    -3712    -3694    -3690    -3699 
   -3694    -3669    -3634    -3599    -3572    -3562    -3577    -3608 
   -3636    -3649    -3654    -3666    -3688    -3715    -3739    -3751 
   -3740    -3708    -3665    -3622    -3593    -3589    -3608    -3640 
   -3669    -3686    -3694    -3694    -3697    -3712    -3740    -3769 
   -3784    -3788    -3782    -3767    -3761    -3762    -3759    -3748 
   -3721    -3670    -3619    -3589    -3584    -3599    -3624    -3642 
   -3659    -3677    -3681    -3669    -3658    -3663    -3690    -3731 
   -3769    -3781    -3761    -3731    -3711    -3694    -3681    -3685 
   -3700    -3708    -3701    -3688    -3676    -3672    -3674    -3681 
   -3682    -3686    -3711    -3753    -3801    -3831    -3817    -3767 
   -3713    -3676    -3662    -3662    -3665    -3669    -3674    -3678 
   -3688    -3700    -3701    -3690    -3673    -3662    -3658    -3651 
   -3631    -3604    -3577    -3559    -3559    -3574    -3586    -3586 
   -3581    -3572    -3558    -3547    -3539    -3538    -3551    -3577 
   -3599    -3607    -3604    -3595    -3591    -3599    -3616    -3635 
   -3655    -3678    -3696    -3700    -3694    -3693    -3705    -3730 
   -3759    -3790    -3829    -3870    -3890    -3883    -3851    -3808 
   -3780    -3766    -3763    -3775    -3796    -3808    -3811    -3808 
   -3807    -3821    -3852    -3888    -3919    -3940    -3946    -3929 
   -3886    -3825    -3762    -3707    -3676    -3669    -3676    -3696 
   -3727    -3753    -3766    -3765    -3754    -3739    -3736    -3750 
   -3770    -3785    -3786    -3773    -3762    -3763    -3780    -3797 
   -3805    -3808    -3808    -3796    -3770    -3727    -3663    -3596 
   -3559    -3564    -3585    -3612    -3646    -3682    -3726    -3765 
   -3773    -3761    -3755    -3762    -3778    -3797    -3804    -3789 
   -3765    -3739    -3708    -3674    -3659    -3672    -3694    -3711 
   -3721    -3717    -3692    -3659    -3632    -3622    -3643    -3693 
   -3751    -3798    -3812    -3789    -3757    -3734    -3730    -3753 
   -3794    -3835    -3858    -3848    -3800    -3728    -3662    -3628 
   -3634    -3665    -3701    -3731    -3748    -3753    -3753    -3761 
   -3778    -3801    -3820    -3832    -3828    -3824    -3829    -3840 
   -3855    -3859    -3839    -3808    -3780    -3750    -3728    -3730 
   -3739    -3748    -3766    -3785    -3800    -3816    -3835    -3855 
   -3874    -3888    -3890    -3871    -3824    -3753    -3682    -3642 
   -3643    -3669    -3696    -3701    -3680    -3642    -3603    -3580 
   -3585    -3616    -3653    -3676    -3681    -3688    -3708    -3736 
   -3767    -3793    -3804    -3793    -3766    -3719    -3658    -3589 
   -3528    -3493    -3485    -3487    -3485    -3477    -3464    -3445 
   -3438    -3456    -3487    -3526    -3578    -3635    -3681    -3712 
   -3720    -3711    -3700    -3686    -3676    -3666    -3645    -3618 
   -3601    -3589    -3584    -3588    -3599    -3616    -3643    -3669 
   -3694    -3721    -3743    -3771    -3804    -3831    -3851    -3873 
   -3886    -3875    -3851    -3838    -3825    -3804    -3774    -3744 
   -3726    -3727    -3740    -3748    -3750    -3748    -3746    -3736 
   -3730    -3731    -3744    -3769    -3792    -3794    -3774    -3750 
   -3734    -3735    -3763    -3809    -3859    -3894    -3897    -3879 
   -3863    -3852    -3854    -3867    -3879    -3889    -3894    -3882 
   -3863    -3851    -3839    -3824    -3816    -3819    -3831    -3851 
   -3863    -3856    -3843    -3827    -3811    -3800    -3802    -3816 
   -3839    -3866    -3882    -3883    -3866    -3829    -3790    -3766 
   -3763    -3777    -3790    -3782    -3748    -3707    -3676    -3655 
   -3655    -3681    -3720    -3755    -3782    -3798    -3805    -3811 
   -3819    -3828    -3834    -3834    -3815    -3775    -3730    -3680 
   -3631    -3599    -3577    -3549    -3522    -3500    -3487    -3492 
   -3522    -3572    -3640    -3713    -3766    -3788    -3782    -3770 
   -3765    -3761    -3750    -3735    -3727    -3720    -3699    -3670 
   -3642    -3619    -3619    -3638    -3653    -3663    -3674    -3688 
   -3711    -3742    -3774    -3809    -3843    -3867    -3877    -3873 
   -3859    -3836    -3801    -3762    -3734    -3720    -3716    -3713 
   -3704    -3700    -3709    -3731    -3762    -3796    -3825    -3848 
   -3869    -3896    -3924    -3937    -3947    -3948    -3940    -3933 
   -3916    -3889    -3874    -3863    -3843    -3809    -3755    -3688 
   -3631    -3599    -3595    -3609    -3628    -3636    -3630    -3612 
   -3597    -3595    -3608    -3634    -3650    -3636    -3599    -3551 
   -3508    -3488    -3496    -3518    -3537    -3549    -3549    -3537 
   -3516    -3500    -3500    -3519    -3549    -3584    -3620    -3650 
   -3665    -3672    -3665    -3655    -3653    -3655    -3659    -3663 
   -3659    -3642    -3616    -3595    -3588    -3582    -3569    -3554 
   -3541    -3538    -3550    -3566    -3589    -3620    -3650    -3676 
   -3707    -3732    -3753    -3774    -3796    -3807    -3807    -3801 
   -3790    -3766    -3742    -3731    -3732    -3746    -3767    -3786 
   -3792    -3781    -3753    -3713    -3681    -3666    -3669    -3684 
   -3701    -3709    -3703    -3688    -3670    -3654    -3649    -3662 
   -3686    -3711    -3728    -3736    -3736    -3724    -3703    -3684 
   -3672    -3669    -3673    -3674    -3669    -3659    -3649    -3642 
   -3643    -3645    -3642    -3646    -3661    -3682    -3705    -3721 
   -3721    -3712    -3704    -3694    -3682    -3670    -3654    -3639 
   -3632    -3627    -3616    -3608    -3601    -3603    -3622    -3653 
   -3684    -3711    -3736    -3755    -3765    -3763    -3763    -3770 
   -3774    -3780    -3785    -3775    -3754    -3720    -3681    -3646 
   -3626    -3615    -3601    -3580    -3551    -3527    -3514    -3507 
   -3507    -3519    -3537    -3553    -3570    -3591    -3612    -3635 
   -3653    -3665    -3688    -3713    -3736    -3763    -3788    -3797 
   -3792    -3773    -3743    -3716    -3699    -3689    -3681    -3676 
   -3673    -3674    -3678    -3686    -3699    -3713    -3736    -3762 
   -3777    -3780    -3781    -3777    -3778    -3780    -3770    -3761 
   -3762    -3777    -3798    -3824    -3852    -3879    -3898    -3913 
   -3928    -3942    -3950    -3952    -3950    -3944    -3943    -3946 
   -3948    -3955    -3963    -3964    -3959    -3948    -3935    -3920 
   -3904    -3888    -3874    -3865    -3867    -3873    -3866    -3848 
   -3832    -3823    -3813    -3807    -3800    -3800    -3802    -3796 
   -3777    -3753    -3732    -3726    -3730    -3740    -3759    -3775 
   -3778    -3769    -3758    -3744    -3735    -3730    -3726    -3713 
   -3686    -3657    -3635    -3620    -3618    -3619    -3612    -3605 
   -3599    -3582    -3562    -3550    -3551    -3572    -3603    -3624 
   -3628    -3627    -3636    -3659    -3682    -3699    -3705    -3709 
   -3716    -3713    -3693    -3673    -3670    -3680    -3690    -3697 
   -3699    -3699    -3699    -3707    -3728    -3763    -3808    -3859 
   -3901    -3921    -3928    -3925    -3919    -3917    -3916    -3909 
   -3905    -3902    -3888    -3870    -3854    -3842    -3835    -3839 
   -3850    -3866    -3885    -3901    -3908    -3908    -3905    -3901 
   -3905    -3924    -3940    -3942    -3935    -3919    -3896    -3874 
   -3856    -3844    -3846    -3859    -3879    -3898    -3909    -3912 
   -3905    -3892    -3883    -3886    -3889    -3890    -3888    -3877 
   -3855    -3823    -3781    -3738    -3692    -3645    -3600    -3557 
   -3519    -3489    -3474    -3460    -3438    -3414    -3396    -3387 
   -3384    -3389    -3393    -3397    -3406    -3420    -3441    -3460 
   -3469    -3472    -3461    -3442    -3429    -3414    -3396    -3380 
   -3369    -3364    -3365    -3368    -3381    -3410    -3443    -3474 
   -3503    -3524    -3535    -3545    -3555    -3562    -3564    -3559 
   -3545    -3526    -3508    -3501    -3507    -3516    -3527    -3532 
   -3531    -3531    -3534    -3539    -3555    -3581    -3611    -3632 
   -3640    -3642    -3650    -3661    -3661    -3647    -3623    -3588 
   -3562    -3553    -3551    -3551    -3561    -3584    -3613    -3649 
   -3686    -3720    -3754    -3792    -3825    -3840    -3840    -3836 
   -3831    -3821    -3809    -3786    -3759    -3744    -3742    -3742 
   -3742    -3742    -3735    -3720    -3697    -3674    -3666    -3678 
   -3704    -3734    -3769    -3805    -3838    -3870    -3905    -3942 
   -3979    -4010    -4032    -4044    -4045    -4045    -4043    -4037 
   -4043    -4062    -4078    -4081    -4068    -4040    -4004    -3969 
   -3947    -3937    -3929    -3913    -3898    -3883    -3862    -3838 
   -3811    -3777    -3750    -3735    -3713    -3677    -3640    -3615 
   -3599    -3584    -3569    -3551    -3535    -3526    -3522    -3511 
   -3496    -3484    -3474    -3466    -3458    -3447    -3441    -3447 
   -3464    -3488    -3522    -3558    -3595    -3626    -3649    -3670 
   -3690    -3709    -3726    -3736    -3740    -3743    -3744    -3744 
   -3742    -3739    -3744    -3759    -3778    -3798    -3820    -3840 
   -3856    -3859    -3851    -3846    -3847    -3855    -3871    -3896 
   -3916    -3925    -3931    -3939    -3952    -3966    -3975    -3983 
   -3990    -3997    -3998    -3990    -3977    -3966    -3955    -3946 
   -3936    -3921    -3898    -3871    -3836    -3801    -3771    -3744 
   -3716    -3684    -3647    -3612    -3593    -3591    -3600    -3612 
   -3613    -3608    -3604    -3599    -3599    -3597    -3596    -3599 
   -3604    -3608    -3613    -3623    -3640    -3667    -3699    -3735 
   -3780    -3815    -3831    -3835    -3831    -3825    -3821    -3820 
   -3821    -3817    -3812    -3811    -3809    -3808    -3805    -3802 
   -3805    -3816    -3832    -3839    -3829    -3819    -3812    -3809 
   -3815    -3823    -3832    -3847    -3861    -3863    -3856    -3843 
   -3834    -3836    -3836    -3821    -3797    -3770    -3744    -3719 
   -3697    -3688    -3690    -3701    -3711    -3719    -3726    -3734 
   -3748    -3763    -3765    -3755    -3750    -3754    -3763    -3781 
   -3798    -3809    -3808    -3792    -3766    -3746    -3736    -3736 
   -3742    -3743    -3735    -3720    -3704    -3697    -3708    -3732 
   -3767    -3805    -3832    -3844    -3840    -3835    -3836    -3842 
   -3844    -3839    -3827    -3807    -3785    -3769    -3758    -3748 
   -3740    -3730    -3721    -3713    -3697    -3681    -3667    -3651 
   -3638    -3627    -3615    -3595    -3577    -3564    -3554    -3555 
   -3565    -3572    -3572    -3561    -3537    -3505    -3469    -3433 
   -3397    -3362    -3333    -3314    -3302    -3291    -3283    -3281 
   -3291    -3307    -3326    -3345    -3369    -3402    -3427    -3445 
   -3462    -3481    -3503    -3532    -3564    -3588    -3604    -3608 
   -3604    -3597    -3600    -3615    -3643    -3686    -3734    -3769 
   -3793    -3804    -3794    -3785    -3789    -3798    -3809    -3817 
   -3824    -3836    -3852    -3866    -3875    -3877    -3877    -3885 
   -3901    -3919    -3939    -3966    -3987    -4002    -4010    -4009 
   -4001    -3996    -3986    -3978    -3977    -3973    -3960    -3943 
   -3923    -3902    -3889    -3888    -3883    -3878    -3877    -3861 
   -3840    -3823    -3797    -3770    -3747    -3727    -3716    -3712 
   -3705    -3700    -3699    -3703    -3713    -3724    -3731    -3732 
   -3723    -3712    -3709    -3709    -3703    -3694    -3694    -3699 
   -3701    -3701    -3697    -3694    -3704    -3728    -3757    -3786 
   -3811    -3824    -3829    -3828    -3817    -3802    -3797    -3802 
   -3808    -3808    -3800    -3782    -3759    -3732    -3709    -3703 
   -3709    -3724    -3744    -3757    -3747    -3732    -3720    -3707 
   -3703    -3707    -3708    -3705    -3696    -3677    -3657    -3639 
   -3624    -3609    -3593    -3576    -3564    -3553    -3541    -3532 
   -3527    -3527    -3539    -3559    -3576    -3585    -3588    -3588 
   -3595    -3600    -3600    -3603    -3603    -3599    -3603    -3609 
   -3618    -3640    -3676    -3705    -3730    -3747    -3755    -3770 
   -3792    -3816    -3835    -3850    -3865    -3885    -3898    -3900 
   -3897    -3890    -3881    -3874    -3871    -3869    -3866    -3865 
   -3865    -3862    -3851    -3831    -3816    -3812    -3813    -3819 
   -3828    -3834    -3831    -3821    -3804    -3789    -3784    -3788 
   -3788    -3785    -3784    -3782    -3780    -3782    -3788    -3801 
   -3819    -3831    -3840    -3843    -3842    -3842    -3842    -3844 
   -3848    -3847    -3843    -3842    -3839    -3840    -3851    -3871 
   -3894    -3917    -3937    -3947    -3946    -3943    -3943    -3942 
   -3947    -3959    -3975    -3986    -3983    -3964    -3933    -3896 
   -3863    -3844    -3835    -3827    -3823    -3815    -3790    -3757 
   -3720    -3681    -3650    -3631    -3622    -3615    -3604    -3591 
   -3568    -3541    -3524    -3522    -3528    -3550    -3577    -3586 
   -3578    -3558    -3534    -3514    -3501    -3495    -3489    -3485 
   -3481    -3465    -3438    -3408    -3379    -3353    -3337    -3323 
   -3318    -3310    -3300    -3292    -3284    -3279    -3280    -3280 
   -3283    -3299    -3323    -3345    -3370    -3393    -3411    -3429 
   -3446    -3466    -3488    -3520    -3566    -3619    -3673    -3727 
   -3780    -3823    -3858    -3882    -3901    -3925    -3955    -3986 
   -4012    -4033    -4047    -4050    -4048    -4047    -4048    -4055 
   -4062    -4067    -4075    -4081    -4079    -4071    -4059    -4044 
   -4029    -4017    -4008    -4005    -4009    -4009    -3996    -3966 
   -3929    -3886    -3839    -3794    -3747    -3690    -3642    -3596 
   -3546    -3500    -3460    -3426    -3403    -3385    -3366    -3353 
   -3343    -3331    -3318    -3308    -3298    -3287    -3285    -3291 
   -3294    -3294    -3299    -3316    -3334    -3352    -3377    -3404 
   -3429    -3461    -3501    -3547    -3597    -3643    -3676    -3705 
   -3738    -3771    -3805    -3834    -3852    -3852    -3839    -3821 
   -3805    -3792    -3788    -3797    -3812    -3823    -3819    -3809 
   -3802    -3798    -3798    -3804    -3812    -3823    -3834    -3844 
   -3854    -3861    -3865    -3862    -3859    -3850    -3832    -3816 
   -3808    -3815    -3828    -3832    -3825    -3817    -3816    -3834 
   -3862    -3890    -3917    -3942    -3951    -3947    -3935    -3913 
   -3896    -3881    -3862    -3839    -3811    -3777    -3739    -3701 
   -3676    -3672    -3673    -3678    -3685    -3686    -3685    -3689 
   -3693    -3700    -3709    -3721    -3743    -3766    -3780    -3780 
   -3775    -3774    -3767    -3751    -3730    -3705    -3688    -3673 
   -3658    -3651    -3640    -3628    -3628    -3628    -3620    -3616 
   -3620    -3623    -3618    -3608    -3595    -3576    -3557    -3542 
   -3531    -3519    -3504    -3485    -3458    -3433    -3414    -3403 
   -3400    -3408    -3429    -3457    -3487    -3519    -3557    -3601 
   -3646    -3686    -3728    -3769    -3805    -3836    -3855    -3871 
   -3894    -3924    -3950    -3973    -3991    -4005    -4013    -4017 
   -4013    -4005    -3997    -3991    -3993    -3996    -3994    -3996 
   -4001    -4008    -4010    -4002    -3987    -3973    -3967    -3966 
   -3973    -3982    -3989    -3989    -3977    -3956    -3933    -3919 
   -3916    -3924    -3940    -3959    -3970    -3970    -3963    -3951 
   -3940    -3931    -3924    -3919    -3905    -3888    -3869    -3846 
   -3821    -3800    -3784    -3780    -3777    -3771    -3762    -3744 
   -3727    -3715    -3699    -3678    -3651    -3626    -3608    -3597 
   -3592    -3586    -3576    -3569    -3566    -3564    -3568    -3578 
   -3589    -3605    -3622    -3631    -3635    -3635    -3631    -3628 
   -3626    -3618    -3603    -3593    -3585    -3572    -3559    -3558 
   -3561    -3570    -3584    -3588    -3589    -3589    -3581    -3573 
   -3564    -3557    -3562    -3573    -3581    -3582    -3582    -3580 
   -3578    -3589    -3608    -3630    -3653    -3678    -3699    -3719 
   -3740    -3762    -3784    -3808    -3828    -3844    -3855    -3869 
   -3881    -3883    -3882    -3890    -3900    -3902    -3898    -3893 
   -3890    -3893    -3893    -3889    -3879    -3874    -3874    -3874 
   -3871    -3874    -3873    -3871    -3873    -3871    -3862    -3846 
   -3825    -3807    -3785    -3765    -3744    -3724    -3699    -3669 
   -3642    -3619    -3597    -3574    -3561    -3558    -3557    -3555 
   -3561    -3568    -3577    -3589    -3605    -3623    -3638    -3649 
   -3655    -3650    -3632    -3616    -3603    -3592    -3585    -3572 
   -3559    -3553    -3543    -3534    -3530    -3527    -3531    -3534 
   -3537    -3549    -3566    -3578    -3595    -3615    -3628    -3638 
   -3647    -3646    -3642    -3645    -3649    -3659    -3670    -3677 
   -3685    -3693    -3699    -3711    -3739    -3780    -3820    -3850 
   -3861    -3858    -3854    -3852    -3852    -3854    -3858    -3869 
   -3881    -3890    -3898    -3905    -3913    -3927    -3939    -3952 
   -3964    -3974    -3985    -3994    -4005    -4013    -4017    -4017 
   -4017    -4014    -4010    -4004    -3993    -3979    -3969    -3958 
   -3940    -3920    -3904    -3892    -3878    -3869    -3867    -3878 
   -3890    -3898    -3904    -3905    -3904    -3901    -3894    -3883 
   -3866    -3846    -3825    -3802    -3780    -3755    -3736    -3726 
   -3720    -3721    -3728    -3736    -3744    -3753    -3761    -3767 
   -3780    -3794    -3809    -3821    -3831    -3836    -3839    -3840 
   -3838    -3825    -3812    -3798    -3781    -3761    -3746    -3742 
   -3738    -3738    -3739    -3742    -3747    -3750    -3751    -3758 
   -3771    -3790    -3811    -3823    -3832    -3843    -3850    -3850 
   -3835    -3816    -3800    -3785    -3767    -3754    -3740    -3727 
   -3713    -3708    -3711    -3711    -3712    -3723    -3727    -3727 
   -3730    -3723    -3712    -3703    -3693    -3684    -3674    -3663 
   -3658    -3658    -3662    -3669    -3685    -3709    -3734    -3754 
   -3769    -3778    -3786    -3800    -3819    -3838    -3859    -3877 
   -3882    -3885    -3888    -3882    -3874    -3873    -3873    -3869 
   -3861    -3848    -3832    -3823    -3821    -3823    -3825    -3832 
   -3840    -3842    -3842    -3842    -3836    -3827    -3815    -3797 
   -3773    -3746    -3719    -3689    -3661    -3638    -3615    -3592 
   -3572    -3547    -3527    -3514    -3504    -3497    -3496    -3504 
   -3514    -3515    -3512    -3508    -3504    -3492    -3480    -3473 
   -3465    -3453    -3443    -3438    -3434    -3434    -3443    -3460 
   -3476    -3492    -3507    -3522    -3539    -3566    -3595    -3620 
   -3643    -3661    -3674    -3686    -3699    -3715    -3731    -3739 
   -3739    -3738    -3734    -3728    -3728    -3735    -3747    -3762 
   -3781    -3800    -3816    -3834    -3852    -3869    -3882    -3892 
