Origin Time       2025/01/13 21:19:00
Lat.              31.8
Long.             131.6
Depth. (km)       30
Mag.              6.9
Station Code      SMNH10
Station Lat.      35.5579
Station Long.     133.3004
Station Height(m) -191
Record Time       2025/01/13 21:20:58
Sampling Freq(Hz) 100Hz
Duration Time(s)  180
Dir.              2
Scale Factor      2940(gal)/6170270
Max. Acc. (gal)   1.193
Last Correction   2025/01/13 21:20:43
Memo.             
[...]
    3904     3894     3891     3881     3870     3863     3848     3832 
    3816     3799     3784     3771     3755     3744     3739     3737 
    3739     3747     3760     3776     3792     3810     3831     3856 
    3881     3904     3926     3948     3974     3999     4020     4042 
    4063     4081     4095     4110     4123     4134     4145     4156 
    4166     4176     4188     4205     4223     4240     4261     4285 
    4308     4335     4364     4388     4414     4442     4471     4502 
    4533     4559     4587     4619     4647     4671     4695     4718 
    4739     4758     4771     4783     4796     4806     4814     4823 
    4831     4835     4838     4842     4845     4843     4842     4845 
    4845     4843     4843     4843     4845     4845     4842     4841 
    4841     4838     4832     4824     4813     4799     4783     4766 
    4745     4723     4702     4678     4652     4628     4602     4573 
    4547     4522     4494     4465     4438     4411     4382     4352 
    4321     4287     4256     4224     4188     4150     4110     4069 
    4027     3983     3942     3898     3853     3811     3767     3719 
    3676     3640     3602     3562     3529     3499     3469     3441 
    3414     3391     3371     3347     3325     3309     3293     3277 
    3268     3263     3258     3255     3256     3259     3264     3271 
    3277     3281     3286     3291     3293     3296     3296     3294 
    3295     3293     3287     3281     3278     3276     3276     3277 
    3277     3277     3284     3289     3287     3289     3296     3297 
    3295     3301     3305     3309     3320     3329     3335     3341 
    3347     3349     3350     3352     3352     3350     3349     3347 
    3344     3340     3335     3335     3334     3332     3328     3323 
    3320     3313     3302     3292     3280     3265     3248     3231 
    3213     3190     3168     3148     3126     3105     3083     3057 
    3033     3007     2976     2949     2922     2893     2864     2836 
    2810     2786     2763     2740     2717     2694     2672     2650 
    2632     2618     2601     2584     2578     2572     2561     2555 
    2553     2550     2548     2545     2544     2549     2549     2548 
    2553     2557     2559     2561     2565     2568     2570     2571 
    2572     2577     2584     2587     2590     2596     2601     2604 
    2609     2610     2609     2608     2607     2605     2602     2600 
    2599     2600     2604     2608     2614     2625     2639     2656 
    2675     2694     2713     2736     2758     2777     2799     2821 
    2840     2857     2876     2895     2913     2932     2953     2971 
    2990     3011     3031     3052     3077     3100     3122     3146 
    3175     3209     3241     3270     3303     3338     3365     3388 
    3411     3433     3449     3462     3476     3487     3495     3506 
    3517     3523     3529     3540     3548     3555     3566     3572 
    3575     3584     3593     3597     3607     3619     3626     3632 
    3637     3643     3650     3655     3659     3665     3668     3670 
    3676     3677     3674     3675     3674     3673     3670     3665 
    3662     3658     3652     3648     3642     3635     3630     3628 
    3624     3620     3621     3622     3621     3626     3631     3637 
    3642     3648     3658     3666     3672     3681     3689     3697 
    3706     3714     3720     3727     3732     3739     3747     3751 
    3754     3760     3763     3764     3766     3772     3775     3781 
    3790     3799     3807     3819     3832     3845     3861     3877 
    3896     3918     3939     3958     3979     4003     4028     4049 
    4068     4090     4111     4131     4152     4175     4196     4219 
    4246     4272     4299     4327     4356     4389     4423     4452 
    4481     4513     4538     4564     4593     4618     4640     4661 
    4677     4690     4707     4723     4733     4743     4755     4765 
    4777     4794     4809     4822     4838     4856     4875     4894 
    4913     4934     4952     4966     4977     4988     4994     4994 
    4989     4983     4976     4963     4941     4916     4891     4861 
    4825     4791     4756     4714     4672     4629     4581     4531 
    4484     4436     4386     4335     4286     4238     4190     4141 
    4093     4048     4005     3961     3918     3879     3842     3806 
    3770     3737     3708     3678     3648     3620     3595     3572 
    3547     3522     3502     3481     3458     3442     3429     3415 
    3400     3386     3374     3363     3350     3339     3329     3319 
    3307     3297     3287     3276     3265     3254     3244     3233 
    3223     3210     3199     3188     3173     3158     3142     3121 
    3100     3081     3062     3037     3010     2985     2958     2927 
    2895     2863     2827     2789     2755     2717     2677     2639 
    2601     2564     2527     2487     2446     2406     2370     2339 
    2302     2266     2235     2205     2175     2148     2124     2098 
    2076     2060     2045     2028     2017     2011     2003     1995 
    1990     1987     1984     1982     1985     1992     2002     2015 
    2034     2058     2083     2114     2149     2186     2227     2271 
    2321     2376     2430     2486     2546     2608     2668     2732 
    2795     2856     2919     2981     3041     3101     3164     3226 
    3289     3355     3421     3486     3553     3622     3690     3755 
    3821     3888     3953     4015     4076     4137     4200     4262 
    4321     4379     4434     4489     4545     4599     4651     4699 
    4743     4787     4831     4870     4910     4947     4984     5021 
    5055     5087     5120     5150     5177     5202     5224     5243 
    5261     5280     5293     5303     5311     5315     5318     5318 
    5312     5304     5295     5283     5268     5249     5228     5208 
    5180     5147     5115     5076     5034     4992     4945     4894 
    4844     4795     4742     4687     4632     4584     4537     4487 
    4440     4395     4351     4310     4268     4223     4180     4138 
    4094     4049     4004     3957     3908     3856     3805     3750 
    3692     3636     3580     3520     3462     3404     3345     3290 
    3237     3183     3131     3082     3034     2989     2948     2909 
    2876     2847     2820     2795     2772     2751     2735     2725 
    2713     2700     2694     2692     2687     2683     2685     2688 
    2690     2690     2690     2695     2700     2702     2704     2707 
    2709     2710     2712     2713     2710     2705     2703     2702 
    2699     2697     2696     2694     2695     2700     2705     2709 
    2715     2723     2734     2749     2767     2785     2807     2834 
    2863     2889     2914     2945     2977     3006     3038     3071 
    3099     3126     3154     3182     3211     3238     3265     3296 
    3326     3355     3390     3428     3467     3510     3554     3600 
    3651     3703     3754     3805     3858     3910     3962     4010 
    4057     4105     4151     4190     4229     4270     4303     4333 
    4365     4394     4424     4454     4479     4504     4529     4556 
    4586     4615     4642     4669     4696     4720     4740     4762 
    4783     4799     4816     4834     4848     4861     4874     4885 
    4892     4899     4903     4903     4902     4901     4898     4893 
    4887     4879     4870     4860     4852     4842     4831     4822 
    4811     4800     4791     4782     4772     4761     4750     4739 
    4728     4719     4710     4699     4689     4681     4668     4658 
    4651     4639     4626     4615     4603     4589     4575     4558 
    4541     4523     4503     4483     4460     4435     4413     4392 
    4369     4347     4328     4309     4286     4263     4239     4210 
    4179     4146     4109     4068     4023     3977     3925     3868 
    3811     3749     3683     3615     3547     3477     3406     3335 
    3262     3190     3117     3043     2974     2905     2831     2762 
    2698     2632     2568     2505     2442     2382     2320     2262 
    2209     2155     2104     2060     2019     1982     1949     1925 
    1908     1894     1883     1880     1885     1892     1900     1913 
    1932     1956     1981     2012     2048     2087     2127     2169 
    2213     2260     2307     2356     2405     2458     2515     2574 
    2640     2708     2777     2851     2932     3008     3083     3162 
    3237     3308     3379     3443     3502     3560     3612     3661 
    3709     3757     3800     3842     3880     3918     3956     3991 
    4028     4065     4100     4140     4179     4217     4257     4299 
    4341     4381     4419     4454     4492     4531     4565     4600 
    4637     4670     4703     4739     4773     4808     4844     4881 
    4916     4952     4988     5021     5051     5079     5103     5124 
    5139     5149     5158     5164     5164     5160     5155     5143 
    5129     5115     5095     5072     5045     5015     4986     4951 
    4911     4871     4827     4779     4730     4676     4618     4558 
    4494     4425     4356     4286     4211     4127     4046     3965 
    3877     3791     3706     3619     3529     3439     3353     3268 
    3182     3099     3018     2940     2867     2798     2734     2679 
    2629     2583     2543     2509     2480     2459     2441     2426 
    2413     2405     2400     2396     2394     2393     2394     2399 
    2401     2409     2420     2426     2435     2449     2459     2468 
    2480     2494     2509     2522     2533     2547     2563     2579 
    2594     2608     2619     2631     2643     2653     2662     2668 
    2673     2680     2690     2695     2697     2703     2711     2717 
    2722     2727     2730     2733     2733     2733     2734     2728 
    2723     2719     2710     2699     2694     2689     2679     2669 
    2661     2653     2647     2641     2634     2632     2633     2636 
    2641     2650     2663     2678     2695     2715     2739     2764 
    2790     2818     2849     2883     2916     2950     2987     3024 
    3059     3094     3128     3161     3192     3224     3258     3286 
    3311     3336     3359     3386     3412     3432     3455     3478 
    3493     3513     3535     3549     3563     3576     3584     3593 
    3602     3606     3608     3608     3605     3601     3597     3589 
    3575     3562     3547     3524     3501     3480     3452     3423 
    3394     3362     3329     3295     3257     3223     3191     3156 
    3123     3093     3063     3036     3012     2987     2970     2957 
    2946     2940     2938     2942     2952     2962     2973     2992 
    3011     3029     3054     3084     3115     3150     3185     3223 
    3264     3305     3347     3391     3438     3484     3527     3575 
    3623     3669     3720     3774     3824     3873     3924     3976 
    4025     4070     4117     4161     4202     4242     4279     4312 
    4343     4374     4402     4427     4447     4465     4484     4497 
    4508     4520     4531     4541     4550     4556     4561     4565 
    4572     4578     4580     4586     4595     4599     4600     4609 
    4621     4626     4631     4638     4643     4647     4651     4654 
    4655     4657     4657     4657     4659     4659     4655     4652 
    4648     4643     4637     4627     4620     4615     4608     4599 
    4587     4580     4573     4562     4554     4549     4540     4533 
    4528     4525     4523     4520     4521     4525     4528     4532 
    4537     4539     4540     4543     4545     4544     4539     4535 
    4531     4525     4519     4508     4496     4487     4479     4465 
    4451     4439     4425     4409     4394     4381     4368     4354 
    4342     4329     4315     4303     4292     4277     4264     4256 
    4248     4234     4224     4220     4216     4208     4204     4203 
    4203     4201     4200     4199     4196     4194     4194     4189 
    4184     4180     4171     4167     4163     4153     4144     4133 
    4119     4108     4091     4071     4055     4035     4015     3997 
    3975     3956     3940     3921     3906     3896     3885     3879 
    3877     3871     3868     3872     3874     3874     3877     3880 
    3884     3892     3899     3908     3916     3921     3931     3944 
    3952     3957     3963     3969     3973     3977     3980     3980 
    3982     3986     3985     3984     3987     3988     3985     3984 
    3983     3982     3982     3984     3986     3988     3989     3989 
    3991     3996     3997     3994     3996     3996     3993     3993 
    3993     3991     3990     3993     3996     3999     4004     4012 
    4024     4035     4043     4053     4064     4076     4088     4097 
    4107     4116     4123     4127     4128     4128     4127     4120 
    4109     4099     4083     4064     4045     4024     3999     3977 
    3954     3927     3901     3875     3846     3818     3790     3756 
    3721     3686     3648     3611     3573     3531     3486     3437 
    3385     3332     3275     3213     3152     3083     3010     2938 
    2862     2782     2704     2626     2544     2462     2385     2304 
    2220     2141     2062     1984     1910     1835     1764     1697 
    1632     1571     1514     1458     1407     1361     1318     1280 
    1249     1219     1190     1171     1155     1141     1133     1130 
    1131     1133     1141     1155     1169     1183     1205     1229 
    1256     1287     1318     1352     1391     1433     1475     1517 
    1563     1612     1659     1710     1767     1822     1878     1940 
    2007     2073     2138     2208     2284     2359     2432     2507 
    2587     2667     2743     2823     2906     2989     3071     3151 
    3233     3316     3399     3483     3564     3645     3731     3812 
    3891     3976     4059     4139     4219     4297     4373     4448 
    4520     4588     4653     4720     4785     4843     4898     4955 
    5008     5058     5108     5152     5192     5233     5271     5305 
    5334     5359     5383     5401     5411     5420     5424     5419 
    5410     5393     5368     5342     5314     5277     5231     5185 
    5139     5089     5036     4981     4927     4875     4818     4761 
    4707     4652     4596     4540     4486     4432     4378     4326 
    4277     4228     4178     4129     4080     4033     3985     3934 
    3884     3836     3788     3740     3694     3643     3592     3545 
    3497     3445     3400     3356     3307     3257     3212     3170 
    3124     3081     3044     3005     2970     2942     2912     2883 
    2860     2839     2818     2801     2788     2775     2766     2760 
    2755     2756     2759     2764     2773     2782     2791     2804 
    2820     2838     2851     2867     2890     2911     2934     2961 
    2990     3017     3047     3082     3115     3151     3191     3232 
    3271     3312     3353     3394     3437     3484     3529     3573 
    3618     3667     3715     3761     3807     3853     3897     3939 
    3984     4026     4062     4098     4132     4167     4203     4233 
    4260     4291     4317     4341     4365     4383     4400     4421 
    4439     4450     4463     4478     4490     4501     4511     4522 
    4530     4535     4539     4540     4538     4534     4527     4517 
    4505     4487     4468     4444     4414     4388     4361     4327 
    4294     4261     4226     4192     4159     4127     4095     4064 
    4036     4009     3983     3959     3933     3910     3887     3862 
    3841     3824     3802     3776     3755     3734     3710     3685 
    3660     3636     3611     3584     3560     3536     3509     3483 
    3459     3432     3403     3378     3356     3328     3297     3275 
    3255     3229     3201     3177     3153     3127     3105     3087 
    3066     3048     3037     3026     3015     3007     3002     3003 
    3005     3007     3012     3022     3031     3040     3053     3065 
    3076     3091     3107     3120     3133     3150     3165     3176 
    3191     3208     3223     3237     3250     3263     3275     3289 
    3304     3317     3331     3345     3356     3369     3381     3391 
    3400     3411     3421     3431     3438     3444     3454     3461 
    3465     3473     3480     3487     3497     3506     3509     3518 
    3529     3538     3547     3558     3565     3574     3587     3596 
    3605     3617     3628     3635     3639     3644     3651     3655 
    3653     3651     3649     3647     3644     3640     3636     3635 
    3636     3638     3642     3648     3653     3663     3675     3687 
    3701     3715     3729     3751     3772     3790     3813     3839 
    3861     3884     3909     3931     3954     3975     3995     4016 
    4033     4050     4068     4080     4094     4111     4124     4136 
    4153     4165     4177     4194     4208     4218     4233     4247 
    4260     4273     4286     4298     4307     4317     4329     4342 
    4351     4360     4369     4375     4381     4385     4389     4394 
    4390     4384     4381     4374     4364     4351     4337     4322 
    4301     4281     4257     4230     4200     4168     4136     4103 
    4069     4035     4001     3969     3938     3905     3876     3851 
    3827     3805     3784     3763     3744     3726     3712     3701 
    3689     3677     3668     3663     3657     3651     3646     3644 
    3641     3636     3634     3634     3633     3633     3636     3640 
    3645     3656     3666     3675     3690     3709     3727     3743 
    3760     3780     3802     3821     3842     3866     3889     3914 
    3940     3961     3983     4007     4027     4047     4068     4087 
    4107     4126     4139     4153     4171     4185     4197     4210 
    4221     4229     4237     4247     4254     4259     4264     4267 
    4268     4269     4270     4270     4268     4263     4255     4247 
    4239     4229     4215     4200     4184     4165     4146     4122 
    4095     4069     4042     4011     3977     3945     3911     3874 
    3838     3802     3765     3726     3688     3651     3613     3577 
    3542     3506     3473     3442     3412     3382     3354     3329 
    3306     3283     3262     3244     3225     3207     3190     3178 
    3168     3158     3152     3144     3139     3141     3145     3149 
    3157     3167     3178     3193     3211     3230     3246     3262 
    3285     3312     3334     3352     3378     3406     3427     3449 
    3473     3496     3518     3540     3560     3580     3598     3614 
    3629     3645     3661     3672     3683     3697     3707     3716 
    3729     3737     3741     3750     3757     3761     3769     3775 
    3779     3784     3787     3790     3792     3789     3786     3785 
    3782     3775     3769     3761     3749     3737     3726     3713 
    3698     3684     3667     3645     3621     3599     3580     3557 
    3532     3509     3482     3452     3423     3395     3365     3332 
    3301     3269     3234     3196     3161     3129     3093     3052 
    3011     2974     2933     2888     2847     2804     2759     2716 
