Origin Time       2025/01/13 21:19:00
Lat.              31.8
Long.             131.6
Depth. (km)       30
Mag.              6.9
Station Code      SMNH06
Station Lat.      34.8839
Station Long.     132.2026
Station Height(m) 59
Record Time       2025/01/13 21:20:35
Sampling Freq(Hz) 100Hz
Duration Time(s)  157
Dir.              3
Scale Factor      3923(gal)/8224838
Max. Acc. (gal)   1.242
Last Correction   2025/01/13 21:20:35
Memo.             
[...]
   -9999   -10008   -10019   -10029   -10037   -10049   -10061   -10081 
  -10104   -10118   -10125   -10131   -10135   -10138   -10139   -10141 
  -10138   -10126   -10107   -10079   -10050   -10030   -10012    -9992 
   -9968    -9946    -9937    -9929    -9913    -9904    -9900    -9894 
   -9884    -9875    -9864    -9852    -9850    -9857    -9867    -9875 
   -9882    -9879    -9876    -9880    -9891    -9902    -9909    -9914 
   -9915    -9910    -9903    -9906    -9914    -9911    -9904    -9907 
   -9906    -9896    -9891    -9887    -9884    -9884    -9884    -9876 
   -9859    -9844    -9830    -9818    -9817    -9815    -9819    -9836 
   -9855    -9872    -9895    -9921    -9953    -9985   -10017   -10050 
  -10073   -10088   -10111   -10138   -10160   -10172   -10173   -10169 
  -10165   -10164   -10156   -10149   -10139   -10122   -10102   -10081 
  -10062   -10053   -10045   -10031   -10019   -10011   -10004    -9998 
   -9990    -9987    -9988    -9983    -9979    -9975    -9965    -9963 
   -9967    -9964    -9960    -9958    -9954    -9950    -9953    -9964 
   -9977    -9990   -10000   -10014   -10031   -10041   -10046   -10058 
  -10064   -10056   -10056   -10058   -10054   -10046   -10033   -10023 
  -10018   -10004    -9987    -9968    -9950    -9929    -9900    -9876 
   -9863    -9852    -9833    -9813    -9798    -9786    -9780    -9779 
   -9782    -9790    -9805    -9815    -9825    -9836    -9852    -9867 
   -9883    -9899    -9917    -9934    -9950    -9964    -9977    -9991 
  -10006   -10019   -10026   -10039   -10058   -10076   -10092   -10104 
  -10120   -10146   -10166   -10185   -10210   -10233   -10265   -10301 
  -10323   -10335   -10343   -10349   -10355   -10358   -10353   -10345 
  -10345   -10342   -10338   -10334   -10324   -10312   -10303   -10289 
  -10276   -10265   -10258   -10243   -10223   -10204   -10185   -10165 
  -10138   -10116   -10106   -10100   -10096   -10095   -10092   -10085 
  -10081   -10076   -10066   -10053   -10042   -10033   -10026   -10025 
  -10029   -10037   -10045   -10058   -10076   -10085   -10088   -10091 
  -10092   -10096   -10100   -10098   -10093   -10092   -10087   -10081 
  -10084   -10088   -10083   -10075   -10065   -10052   -10041   -10030 
  -10007    -9984    -9965    -9944    -9927    -9922    -9911    -9899 
   -9891    -9884    -9880    -9880    -9886    -9896    -9914    -9931 
   -9942    -9952    -9968    -9979    -9980    -9980    -9984    -9992 
  -10003   -10017   -10019   -10018   -10023   -10029   -10030   -10026 
  -10025   -10023   -10023   -10023   -10021   -10004    -9979    -9956 
   -9937    -9925    -9911    -9902    -9903    -9906    -9911    -9927 
   -9946    -9967    -9981    -9983    -9984    -9992    -9999   -10006 
  -10018   -10034   -10050   -10073   -10106   -10139   -10170   -10200 
  -10226   -10245   -10260   -10270   -10280   -10289   -10303   -10322 
  -10335   -10334   -10330   -10327   -10319   -10307   -10289   -10269 
  -10258   -10251   -10241   -10223   -10208   -10200   -10187   -10165 
  -10138   -10107   -10085   -10069   -10054   -10042   -10031   -10018 
  -10004    -9995    -9981    -9968    -9964    -9964    -9960    -9953 
   -9946    -9944    -9950    -9957    -9963    -9973    -9988   -10008 
  -10026   -10035   -10044   -10053   -10058   -10069   -10085   -10096 
  -10100   -10102   -10098   -10093   -10096   -10102   -10100   -10089 
  -10077   -10071   -10069   -10068   -10065   -10075   -10088   -10092 
  -10093   -10102   -10104   -10093   -10080   -10071   -10068   -10072 
  -10072   -10060   -10046   -10038   -10033   -10029   -10027   -10025 
  -10037   -10053   -10057   -10053   -10050   -10050   -10048   -10042 
  -10042   -10049   -10054   -10056   -10052   -10048   -10050   -10056 
  -10058   -10058   -10046   -10029   -10007    -9981    -9960    -9938 
   -9917    -9900    -9886    -9868    -9855    -9844    -9836    -9830 
   -9837    -9855    -9873    -9886    -9896    -9907    -9918    -9933 
   -9948    -9967    -9985    -9999   -10004   -10008   -10021   -10033 
  -10038   -10049   -10069   -10092   -10116   -10134   -10139   -10138 
  -10133   -10129   -10125   -10116   -10110   -10099   -10088   -10083 
  -10073   -10062   -10054   -10042   -10027   -10012    -9999    -9984 
   -9960    -9942    -9927    -9903    -9886    -9880    -9871    -9857 
   -9842    -9825    -9803    -9788    -9776    -9765    -9761    -9760 
   -9761    -9765    -9767    -9769    -9772    -9774    -9775    -9775 
   -9771    -9768    -9765    -9764    -9763    -9753    -9742    -9736 
   -9736    -9742    -9752    -9760    -9763    -9764    -9765    -9768 
   -9780    -9802    -9819    -9826    -9826    -9828    -9840    -9859 
   -9880    -9903    -9919    -9930    -9937    -9934    -9927    -9922 
   -9919    -9921    -9925    -9925    -9925    -9927    -9929    -9922 
   -9910    -9904    -9899    -9884    -9869    -9857    -9844    -9830 
   -9814    -9792    -9771    -9756    -9747    -9736    -9725    -9721 
   -9722    -9728    -9726    -9725    -9733    -9749    -9767    -9783 
   -9795    -9813    -9833    -9846    -9861    -9873    -9883    -9894 
   -9911    -9933    -9956    -9976    -9995   -10015   -10033   -10048 
  -10061   -10075   -10081   -10083   -10083   -10084   -10088   -10099 
  -10107   -10108   -10110   -10114   -10123   -10139   -10164   -10181 
  -10183   -10174   -10157   -10135   -10126   -10122   -10119   -10126 
  -10138   -10142   -10135   -10125   -10114   -10110   -10112   -10115 
  -10119   -10125   -10125   -10119   -10114   -10118   -10120   -10118 
  -10125   -10138   -10146   -10147   -10145   -10147   -10160   -10177 
  -10191   -10200   -10215   -10237   -10262   -10288   -10305   -10309 
  -10309   -10307   -10305   -10309   -10318   -10319   -10316   -10316 
  -10312   -10304   -10296   -10287   -10272   -10253   -10237   -10220 
  -10210   -10212   -10226   -10238   -10242   -10243   -10238   -10226 
  -10214   -10207   -10210   -10220   -10233   -10243   -10258   -10278 
  -10297   -10308   -10307   -10289   -10270   -10262   -10257   -10253 
  -10250   -10246   -10235   -10227   -10222   -10211   -10191   -10161 
  -10125   -10081   -10041   -10003    -9976    -9957    -9936    -9910 
   -9873    -9825    -9778    -9738    -9705    -9680    -9671    -9668 
   -9666    -9666    -9661    -9655    -9656    -9666    -9683    -9707 
   -9733    -9764    -9802    -9841    -9876    -9909    -9942    -9977 
  -10008   -10031   -10048   -10062   -10080   -10098   -10118   -10146 
  -10176   -10201   -10212   -10208   -10201   -10193   -10177   -10152 
  -10115   -10085   -10065   -10048   -10023    -9992    -9954    -9918 
   -9884    -9852    -9826    -9805    -9788    -9774    -9760    -9761 
   -9778    -9796    -9819    -9844    -9867    -9886    -9904    -9926 
   -9948    -9968    -9984    -9991    -9985    -9984    -9996   -10019 
  -10048   -10077   -10106   -10126   -10138   -10138   -10131   -10120 
  -10108   -10095   -10079   -10058   -10039   -10027   -10019   -10012 
  -10008   -10012   -10018   -10025   -10037   -10050   -10068   -10088 
  -10108   -10131   -10152   -10169   -10191   -10212   -10230   -10247 
  -10265   -10284   -10301   -10318   -10335   -10347   -10349   -10342 
  -10331   -10314   -10291   -10268   -10246   -10226   -10207   -10185 
  -10168   -10152   -10134   -10120   -10104   -10080   -10056   -10035 
  -10019   -10003    -9985    -9969    -9954    -9938    -9917    -9903 
   -9907    -9913    -9907    -9896    -9891    -9886    -9883    -9894 
   -9911    -9922    -9925    -9923    -9925    -9930    -9934    -9941 
   -9953    -9958    -9957    -9956    -9952    -9949    -9950    -9954 
   -9965    -9985   -10006   -10022   -10035   -10038   -10034   -10025 
  -10011   -10002    -9998    -9988    -9975    -9957    -9942    -9937 
   -9934    -9934    -9937    -9940    -9942    -9944    -9936    -9931 
   -9938    -9948    -9965    -9984   -10000   -10021   -10052   -10088 
  -10129   -10174   -10228   -10287   -10339   -10386   -10424   -10459 
  -10498   -10532   -10551   -10563   -10569   -10574   -10581   -10588 
  -10598   -10615   -10632   -10648   -10663   -10670   -10669   -10670 
  -10673   -10675   -10677   -10670   -10652   -10629   -10604   -10574 
  -10554   -10547   -10546   -10546   -10550   -10542   -10515   -10482 
  -10447   -10413   -10389   -10370   -10353   -10335   -10309   -10278 
  -10246   -10216   -10181   -10143   -10108   -10069   -10025    -9977 
   -9934    -9896    -9871    -9845    -9814    -9787    -9767    -9745 
   -9718    -9687    -9659    -9637    -9617    -9602    -9594    -9589 
   -9578    -9556    -9521    -9479    -9440    -9409    -9383    -9371 
   -9374    -9379    -9393    -9412    -9424    -9433    -9444    -9444 
   -9440    -9444    -9452    -9467    -9479    -9493    -9513    -9529 
   -9548    -9571    -9593    -9616    -9645    -9670    -9686    -9714 
   -9751    -9786    -9826    -9875    -9913    -9931    -9949    -9964 
   -9971    -9980   -10002   -10025   -10046   -10071   -10092   -10112 
  -10134   -10150   -10153   -10147   -10146   -10147   -10150   -10156 
  -10150   -10135   -10119   -10106   -10099   -10096   -10092   -10088 
  -10080   -10061   -10035   -10008    -9985    -9972    -9963    -9949 
   -9931    -9915    -9902    -9899    -9902    -9902    -9914    -9937 
   -9958    -9977    -9996   -10017   -10044   -10069   -10096   -10123 
  -10142   -10157   -10170   -10191   -10215   -10233   -10251   -10277 
  -10300   -10318   -10332   -10347   -10361   -10372   -10374   -10380 
  -10384   -10380   -10372   -10363   -10355   -10349   -10342   -10335 
  -10328   -10322   -10312   -10303   -10293   -10276   -10264   -10262 
  -10258   -10247   -10243   -10247   -10253   -10251   -10243   -10234 
  -10234   -10235   -10238   -10247   -10268   -10299   -10331   -10362 
  -10393   -10417   -10434   -10440   -10440   -10440   -10435   -10423 
  -10412   -10393   -10365   -10338   -10318   -10303   -10288   -10269 
  -10246   -10223   -10206   -10188   -10166   -10143   -10120   -10107 
  -10102   -10092   -10077   -10061   -10046   -10030   -10017   -10007 
   -9998    -9985    -9975    -9971    -9964    -9958    -9957    -9952 
   -9937    -9917    -9891    -9867    -9846    -9829    -9813    -9803 
   -9792    -9774    -9752    -9741    -9734    -9725    -9713    -9701 
   -9690    -9680    -9668    -9656    -9653    -9660    -9671    -9683 
   -9694    -9701    -9705    -9709    -9709    -9709    -9711    -9713 
   -9720    -9730    -9745    -9765    -9783    -9805    -9832    -9861 
   -9886    -9899    -9904    -9911    -9922    -9936    -9953    -9972 
   -9984    -9994    -9996    -9991    -9981    -9968    -9949    -9934 
   -9921    -9903    -9890    -9880    -9861    -9844    -9841    -9844 
   -9840    -9837    -9842    -9848    -9853    -9860    -9868    -9883 
   -9899    -9910    -9917    -9925    -9931    -9937    -9948    -9957 
   -9960    -9961    -9964    -9960    -9954    -9948    -9944    -9945 
   -9946    -9942    -9934    -9930    -9929    -9927    -9923    -9918 
   -9913    -9909    -9899    -9880    -9863    -9848    -9829    -9811 
   -9794    -9772    -9741    -9706    -9663    -9612    -9562    -9516 
   -9462    -9408    -9362    -9325    -9302    -9281    -9251    -9219 
   -9189    -9158    -9127    -9100    -9085    -9080    -9078    -9077 
   -9073    -9065    -9058    -9054    -9057    -9054    -9042    -9030 
   -9022    -9012    -9005    -9008    -9013    -9012    -9003    -8989 
   -8970    -8961    -8959    -8955    -8950    -8950    -8945    -8930 
   -8920    -8926    -8932    -8938    -8947    -8965    -8996    -9032 
   -9074    -9127    -9175    -9219    -9270    -9331    -9391    -9451 
   -9516    -9576    -9626    -9674    -9718    -9761    -9807    -9855 
   -9899    -9942    -9984   -10026   -10062   -10091   -10119   -10146 
  -10173   -10200   -10223   -10243   -10269   -10301   -10339   -10381 
  -10423   -10461   -10498   -10540   -10581   -10621   -10665   -10708 
  -10748   -10790   -10832   -10875   -10913   -10943   -10967   -10994 
  -11022   -11049   -11071   -11092   -11118   -11138   -11155   -11171 
  -11186   -11206   -11233   -11253   -11269   -11288   -11306   -11318 
  -11322   -11319   -11314   -11310   -11298   -11281   -11264   -11248 
  -11232   -11214   -11183   -11152   -11122   -11091   -11056   -11020 
  -10986   -10955   -10922   -10886   -10848   -10809   -10768   -10732 
  -10698   -10658   -10620   -10585   -10548   -10513   -10471   -10424 
  -10377   -10330   -10282   -10234   -10184   -10135   -10089   -10050 
  -10017    -9977    -9934    -9899    -9863    -9822    -9778    -9732 
   -9695    -9664    -9633    -9603    -9572    -9541    -9512    -9486 
   -9460    -9440    -9423    -9408    -9397    -9381    -9355    -9327 
   -9298    -9274    -9250    -9225    -9212    -9205    -9197    -9194 
   -9194    -9192    -9189    -9184    -9174    -9163    -9157    -9158 
   -9167    -9173    -9174    -9175    -9173    -9171    -9173    -9180 
   -9189    -9198    -9208    -9221    -9232    -9236    -9239    -9252 
   -9273    -9297    -9325    -9355    -9385    -9423    -9471    -9531 
   -9598    -9672    -9745    -9817    -9887    -9957   -10027   -10102 
  -10179   -10257   -10342   -10431   -10516   -10600   -10679   -10752 
  -10829   -10913   -11005   -11099   -11200   -11299   -11399   -11503 
  -11608   -11711   -11816   -11920   -12023   -12116   -12198   -12271 
  -12340   -12405   -12468   -12522   -12565   -12596   -12618   -12630 
  -12627   -12613   -12586   -12546   -12503   -12461   -12410   -12348 
  -12287   -12231   -12168   -12102   -12035   -11961   -11885   -11807 
  -11722   -11626   -11519   -11410   -11303   -11196   -11088   -10980 
  -10868   -10756   -10643   -10530   -10411   -10291   -10174   -10058 
   -9949    -9850    -9756    -9664    -9580    -9506    -9429    -9356 
   -9297    -9243    -9194    -9150    -9104    -9061    -9022    -8984 
   -8949    -8910    -8868    -8831    -8791    -8749    -8708    -8665 
   -8625    -8598    -8573    -8553    -8545    -8542    -8538    -8542 
   -8554    -8567    -8579    -8592    -8611    -8642    -8676    -8707 
   -8743    -8783    -8823    -8868    -8908    -8950    -8996    -9036 
   -9076    -9121    -9171    -9216    -9258    -9298    -9331    -9362 
   -9400    -9432    -9456    -9486    -9512    -9535    -9567    -9605 
   -9639    -9664    -9684    -9705    -9725    -9748    -9765    -9782 
   -9798    -9809    -9819    -9838    -9853    -9863    -9873    -9884 
   -9896    -9917    -9942    -9964    -9990   -10015   -10034   -10049 
  -10064   -10085   -10110   -10134   -10157   -10181   -10211   -10241 
  -10264   -10291   -10326   -10368   -10409   -10446   -10486   -10532 
  -10579   -10627   -10678   -10733   -10786   -10836   -10882   -10925 
  -10962   -10993   -11018   -11038   -11053   -11063   -11070   -11072 
  -11071   -11065   -11055   -11040   -11026   -11006   -10978   -10948 
  -10909   -10859   -10808   -10748   -10681   -10619   -10555   -10486 
  -10417   -10350   -10272   -10188   -10110   -10041    -9973    -9907 
   -9844    -9779    -9717    -9655    -9594    -9540    -9491    -9450 
   -9414    -9377    -9342    -9313    -9293    -9278    -9263    -9256 
   -9258    -9263    -9278    -9296    -9308    -9321    -9337    -9351 
   -9364    -9375    -9383    -9394    -9408    -9421    -9435    -9447 
   -9459    -9474    -9499    -9528    -9549    -9571    -9594    -9613 
   -9636    -9661    -9688    -9721    -9755    -9788    -9826    -9868 
   -9910    -9950    -9991   -10031   -10072   -10112   -10158   -10210 
  -10257   -10301   -10349   -10396   -10447   -10498   -10544   -10590 
  -10636   -10677   -10709   -10737   -10762   -10779   -10795   -10813 
  -10829   -10841   -10844   -10841   -10835   -10820   -10801   -10781 
  -10756   -10727   -10697   -10666   -10632   -10597   -10555   -10507 
  -10458   -10407   -10350   -10291   -10228   -10162   -10096   -10035 
   -9969    -9898    -9826    -9747    -9661    -9579    -9494    -9410 
   -9331    -9252    -9174    -9093    -9009    -8926    -8843    -8760 
   -8680    -8606    -8537    -8476    -8419    -8368    -8321    -8278 
   -8240    -8209    -8178    -8152    -8140    -8136    -8136    -8139 
   -8145    -8163    -8186    -8216    -8249    -8289    -8333    -8384 
   -8437    -8491    -8549    -8606    -8667    -8733    -8796    -8857 
   -8920    -8981    -9039    -9101    -9165    -9224    -9283    -9344 
   -9404    -9455    -9504    -9558    -9610    -9657    -9709    -9760 
   -9801    -9836    -9871    -9896    -9921    -9950    -9977    -9999 
  -10022   -10041   -10061   -10084   -10099   -10108   -10123   -10145 
  -10165   -10188   -10215   -10235   -10246   -10257   -10264   -10261 
  -10255   -10250   -10243   -10233   -10220   -10207   -10196   -10181 
  -10164   -10153   -10141   -10129   -10123   -10115   -10106   -10108 
  -10118   -10125   -10137   -10152   -10166   -10181   -10196   -10215 
  -10238   -10262   -10299   -10339   -10376   -10408   -10443   -10478 
  -10513   -10547   -10575   -10602   -10633   -10670   -10708   -10748 
  -10790   -10833   -10874   -10914   -10955   -10999   -11047   -11087 
  -11126   -11176   -11229   -11280   -11337   -11387   -11422   -11456 
  -11491   -11516   -11537   -11561   -11580   -11589   -11595   -11596 
  -11595   -11596   -11596   -11596   -11597   -11596   -11591   -11587 
  -11578   -11561   -11547   -11538   -11523   -11507   -11489   -11468 
  -11449   -11433   -11414   -11395   -11381   -11375   -11367   -11352 
  -11340   -11327   -11315   -11307   -11300   -11292   -11286   -11279 
  -11263   -11238   -11213   -11179   -11140   -11107   -11075   -11036 
  -10998   -10964   -10932   -10898   -10863   -10827   -10787   -10747 
  -10706   -10666   -10623   -10577   -10527   -10478   -10430   -10380 
  -10324   -10268   -10218   -10170   -10120   -10072   -10030    -9992 
   -9958    -9926    -9894    -9865    -9840    -9815    -9794    -9778 
   -9759    -9737    -9715    -9697    -9678    -9663    -9649    -9632 
   -9613    -9593    -9564    -9529    -9491    -9451    -9408    -9364 
   -9317    -9262    -9201    -9143    -9085    -9020    -8949    -8878 
   -8812    -8756    -8703    -8648    -8598    -8549    -8498    -8449 
   -8405    -8360    -8311    -8259    -8205    -8149    -8095    -8046 
   -7997    -7952    -7905    -7855    -7815    -7784    -7754    -7734 
   -7724    -7719    -7722    -7734    -7747    -7761    -7777    -7798 
   -7824    -7850    -7881    -7921    -7967    -8020    -8082    -8149 
   -8218    -8290    -8367    -8451    -8540    -8629    -8721    -8812 
   -8900    -8988    -9078    -9165    -9243    -9321    -9396    -9460 
   -9517    -9571    -9622    -9668    -9710    -9753    -9795    -9830 
   -9859    -9887    -9914    -9936    -9956    -9975    -9994   -10014 
  -10030   -10046   -10068   -10095   -10115   -10131   -10157   -10185 
  -10208   -10227   -10246   -10260   -10273   -10285   -10299   -10316 
  -10332   -10346   -10363   -10388   -10413   -10442   -10474   -10505 
  -10539   -10575   -10612   -10651   -10693   -10737   -10787   -10837 
  -10883   -10932   -10979   -11024   -11065   -11105   -11148   -11191 
  -11230   -11267   -11304   -11341   -11365   -11383   -11403   -11421 
