Origin Time       2025/01/13 21:19:00
Lat.              31.8
Long.             131.6
Depth. (km)       30
Mag.              6.9
Station Code      SMNH03
Station Lat.      35.2243
Station Long.     132.7223
Station Height(m) 110
Record Time       2025/01/13 21:21:29
Sampling Freq(Hz) 100Hz
Duration Time(s)  120
Dir.              6
Scale Factor      7845(gal)/8223790
Max. Acc. (gal)   1.250
Last Correction   2025/01/13 21:21:29
Memo.             
[...]
    -193     -194     -195     -194     -191     -191     -191     -190 
    -187     -180     -175     -167     -157     -152     -152     -152 
    -148     -139     -121      -93      -66      -49      -43      -37 
     -35      -33      -28      -22      -21      -24      -28      -32 
     -40      -48      -52      -56      -60      -55      -45      -41 
     -41      -48      -63      -76      -85      -90      -95     -101 
    -105     -110     -117     -121     -120     -116     -110      -99 
     -87      -79      -74      -66      -59      -58      -62      -63 
     -63      -63      -63      -58      -51      -39      -20       -8 
       1       18       40       55       56       45       22       -1 
     -17      -25      -24      -13       -4        4       14       28 
      47       75      113      156      197      226      243      249 
     249      249      255      261      268      271      270      270 
     276      286      295      302      303      301      288      268 
     249      232      214      197      180      172      168      159 
     145      135      126      114      105       95       82       66 
      48       32       17        6       -6      -18      -31      -39 
     -40      -44      -62      -85     -108     -137     -167     -189 
    -205     -217     -222     -229     -232     -230     -232     -237 
    -245     -251     -247     -230     -216     -206     -203     -205 
    -203     -195     -180     -160     -141     -128     -112      -95 
     -79      -63      -51      -40      -29      -20      -21      -28 
     -41      -56      -70      -82      -86      -81      -76      -81 
     -89      -98     -109     -118     -126     -136     -147     -166 
    -195     -228     -245     -249     -238     -213     -191     -175 
    -155     -143     -140     -132     -124     -117     -106      -90 
     -70      -39      -10        8       25       44       58       75 
      95      105      110      120      124      124      122      114 
     103       93       83       81       82       82       76       74 
      79       90       99      102       98       86       71       64 
      66       70       71       63       52       41       29       20 
      13        6        4        6       10        8        0       -8 
     -22      -40      -59      -81     -102     -121     -139     -155 
    -167     -176     -183     -182     -174     -170     -167     -157 
    -144     -135     -129     -126     -122     -110      -91      -70 
     -43      -18       -4       10       24       24       16        6 
       0        1        6       12       14       18       25       31 
      37       51       67       83      101      116      122      132 
     149      171      194      211      213      202      178      149 
     128      120      125      129      126      121      105       81 
      52       20       -8      -25      -39      -47      -48      -47 
     -45      -47      -54      -62      -70      -82      -93      -98 
    -103     -110     -114     -108      -94      -75      -54      -33 
     -21      -14       -9       -8       -8       -6       -6       -4 
       0       -1      -14      -40      -63      -76      -87      -97 
     -99      -98     -101     -113     -132     -151     -170     -189 
    -202     -203     -203     -197     -184     -168     -148     -122 
     -99      -85      -74      -67      -59      -44      -27      -14 
      -5        5       16       32       52       66       79       93 
     102      109      112      108      103      103      102      102 
      95       82       68       49       25        0      -28      -56 
     -79      -98     -114     -132     -149     -167     -184     -194 
    -190     -175     -159     -144     -130     -121     -113      -99 
     -93      -93      -90      -76      -56      -35      -16        0 
      17       36       54       71       86      103      120      132 
     145      162      179      197      216      236      252      264 
     270      267      256      245      232      214      197      184 
     174      171      166      149      128      101       68       35 
      -4      -43      -71      -93     -114     -129     -143     -149 
    -145     -139     -130     -125     -129     -130     -126     -122 
    -124     -130     -144     -156     -163     -162     -149     -132 
    -114      -97      -83      -72      -71      -81     -103     -135 
    -167     -193     -202     -199     -195     -190     -190     -193 
    -193     -193     -195     -201     -206     -211     -220     -225 
    -230     -233     -236     -241     -241     -232     -224     -213 
    -201     -189     -179     -172     -162     -145     -124      -95 
     -62      -33       -6       18       48       72       93      112 
     126      135      140      144      145      145      144      133 
     112       91       75       58       40       29       22       18 
      18       22       28       37       52       67       74       68 
      54       35       17        8        6        4        0       -6 
     -20      -31      -32      -25      -17      -14      -21      -37 
     -56      -75      -90     -101     -110     -112     -105      -95 
     -83      -70      -60      -54      -41      -25      -10        1 
      16       27       33       40       41       35       20        0 
     -18      -40      -63      -87     -112     -140     -167     -187 
    -207     -225     -241     -264     -291     -315     -333     -352 
    -373     -391     -409     -433     -457     -473     -483     -483 
    -476     -469     -464     -457     -453     -449     -444     -436 
    -425     -415     -413     -405     -391     -372     -348     -319 
    -291     -261     -232     -199     -174     -152     -130     -105 
     -83      -70      -60      -48      -43      -43      -45      -45 
     -44      -48      -56      -63      -68      -74      -76      -78 
     -78      -81      -85      -79      -66      -51      -41      -37 
     -35      -37      -35      -24      -10        1       10       17 
      18       21       27       36       47       60       74       82 
      87       90       86       83       86       90       93       95 
      91       91       94       94       93       95      101      101 
      91       75       56       31        1      -24      -39      -43 
     -41      -36      -37      -44      -52      -56      -58      -54 
     -45      -31       -9       12       36       66      102      140 
     178      213      252      292      325      344      357      368 
     373      375      375      365      351      336      318      297 
     268      228      183      140       94       47        2      -41 
     -90     -135     -175     -207     -232     -247     -252     -251 
    -245     -234     -222     -209     -190     -175     -163     -151 
    -136     -116      -89      -62      -31        0       27       51 
      71       82       87       89       83       79       75       68 
      64       62       56       49       39       27       18        4 
     -18      -45      -83     -129     -176     -220     -255     -279 
    -299     -319     -340     -357     -367     -367     -365     -365 
    -364     -361     -355     -340     -322     -301     -275     -248 
    -224     -205     -184     -159     -128      -97      -64      -31 
      -1       25       52       72       87       97      103      106 
     103       98       99      103      108      113      109       98 
      89       82       79       75       67       56       43       29 
      24       27       32       39       45       48       45       44 
      45       45       51       62       67       70       67       62 
      59       64       74       86       93       97       98       99 
     109      124      141      160      178      195      220      252 
     288      328      365      399      426      448      464      472 
     467      452      433      417      400      386      373      355 
     332      307      279      244      207      174      137      102 
      67       35        0      -35      -64      -87     -109     -124 
    -130     -136     -141     -143     -140     -135     -128     -121 
    -114     -113     -114     -114     -113     -114     -118     -117 
    -113     -113     -112     -108     -103     -102      -98      -98 
     -99      -99      -98     -103     -121     -145     -178     -220 
    -265     -311     -356     -398     -444     -494     -538     -579 
    -614     -637     -649     -652     -653     -656     -654     -645 
    -633     -608     -577     -545     -510     -475     -440     -405 
    -368     -329     -290     -256     -224     -195     -170     -148 
    -128     -112      -97      -83      -68      -60      -60      -66 
     -82     -106     -129     -155     -184     -210     -229     -248 
    -268     -286     -301     -313     -325     -332     -330     -321 
    -311     -301     -288     -276     -259     -232     -201     -170 
    -140     -109      -81      -48      -13       20       49       78 
     108      139      168      197      226      256      286      315 
     342      375      409      444      479      510      531      548 
     560      571      580      589      588      581      573      561 
     550      542      527      513      498      479      459      438 
     410      380      361      353      349      348      348      344 
     342      345      349      356      369      388      410      430 
     448      454      453      445      426      403      376      345 
     305      253      197      133       63       -6      -74     -144 
    -209     -268     -329     -386     -438     -492     -546     -592 
    -637     -675     -700     -715     -723     -726     -731     -738 
    -739     -738     -735     -733     -731     -730     -727     -726 
    -727     -724     -718     -706     -692     -676     -657     -633 
    -606     -576     -546     -510     -471     -427     -382     -338 
    -299     -257     -217     -176     -139     -106      -78      -51 
     -22        4       27       49       75       99      124      151 
     179      206      233      256      274      291      309      325 
     341      360      376      392      415      437      459      483 
     502      513      522      523      518      513      507      496 
     484      468      449      432      417      402      387      371 
     356      341      325      311      301      287      265      234 
     194      144       87       29      -35     -101     -164     -228 
    -294     -360     -426     -490     -542     -588     -635     -683 
    -730     -778     -823     -861     -889     -907     -915     -918 
    -909     -889     -865     -838     -804     -765     -723     -680 
    -630     -577     -525     -465     -403     -346     -290     -232 
    -182     -132      -75      -20       36       93      145      191 
     230      265      306      345      380      414      438      452 
     465      480      495      504      506      500      491      481 
     473      461      449      440      422      398      376      357 
     342      334      326      321      318      314      305      291 
     276      272      276      282      288      294      298      306 
     315      325      340      356      365      375      384      392 
     399      400      394      379      363      346      329      307 
     282      252      218      182      147      117       85       51 
      17      -20      -62     -102     -139     -178     -214     -248 
    -279     -310     -337     -364     -392     -415     -432     -449 
    -469     -490     -513     -533     -552     -576     -602     -630 
    -664     -696     -726     -754     -784     -808     -830     -846 
    -857     -866     -881     -896     -913     -928     -935     -931 
    -919     -897     -869     -841     -808     -766     -720     -677 
    -633     -587     -546     -508     -471     -434     -394     -348 
    -303     -261     -217     -175     -136      -94      -54      -13 
      31       82      135      189      243      298      351      399 
     448      492      531      571      604      630      643      650 
     652      643      629      607      577      540      494      440 
     384      330      279      232      187      141       98       56 
      17      -16      -45      -71      -93     -108     -120     -128 
    -130     -133     -139     -145     -149     -149     -145     -139 
    -126     -113     -103      -89      -63      -31        8       47 
      89      130      168      202      233      257      280      306 
     332      351      369      387      400      411      427      445 
     463      486      514      541      568      594      615      638 
     658      677      695      708      722      727      724      722 
     715      700      681      660      629      592      548      495 
     442      390      332      271      211      151       89       29 
     -31      -89     -148     -210     -274     -332     -386     -442 
    -495     -545     -596     -646     -691     -734     -780     -823 
    -861     -900     -940     -978    -1015    -1055    -1098    -1140 
   -1178    -1213    -1243    -1266    -1289    -1306    -1317    -1325 
   -1335    -1341    -1347    -1348    -1347    -1339    -1317    -1287 
   -1252    -1206    -1158    -1105    -1044     -981     -916     -842 
    -766     -689     -607     -525     -441     -351     -257     -163 
     -68       24      112      198      284      364      436      500 
     558      614      672      729      781      831      882      932 
     977     1017     1055     1086     1113     1135     1148     1154 
    1154     1150     1136     1119     1104     1088     1073     1059 
    1040     1017      992      962      928      891      845      795 
     749      708      665      623      581      541      503      473 
     449      422      396      368      336      298      263      226 
     187      144      105       67       27       -9      -41      -72 
    -101     -130     -160     -186     -206     -228     -249     -268 
    -287     -302     -313     -319     -321     -321     -324     -328 
    -332     -340     -349     -359     -371     -384     -396     -415 
    -437     -461     -487     -514     -538     -565     -594     -625 
    -656     -685     -710     -739     -770     -792     -811     -824 
    -828     -822     -805     -785     -754     -714     -670     -625 
    -576     -530     -481     -433     -380     -324     -268     -214 
    -163     -113      -64      -25       10       48       85      117 
     145      170      189      206      226      247      265      283 
     305      332      357      383      407      430      450      472 
     492      514      535      558      579      591      594      599 
     603      602      595      585      569      548      519      483 
     444      407      365      314      260      205      148       94 
      41       -6      -48      -90     -130     -163     -191     -218 
    -243     -265     -287     -303     -317     -330     -341     -342 
    -340     -337     -336     -338     -344     -346     -346     -345 
    -345     -346     -352     -357     -363     -364     -367     -369 
    -368     -363     -359     -351     -340     -326     -307     -288 
    -274     -260     -241     -220     -199     -183     -172     -163 
    -157     -151     -144     -137     -129     -121     -114     -106 
     -98      -94      -89      -81      -71      -64      -58      -54 
     -54      -51      -45      -41      -31      -17       -9       -4 
       0        2        9       17       21       22       21       14 
       5        4        6       10       14       14       12       12 
      13       13       20       31       40       51       66       82 
      97      109      120      130      145      166      184      203 
     220      234      243      243      243      241      238      236 
     228      211      191      164      129       93       59       25 
      -6      -37      -67      -94     -118     -136     -148     -157 
    -163     -167     -172     -178     -182     -184     -187     -191 
    -190     -183     -176     -166     -149     -130     -113      -97 
     -79      -64      -49      -35      -18       -2        9       16 
      18       21       24       31       36       32       25       17 
       4      -10      -24      -40      -59      -83     -112     -140 
    -167     -191     -216     -241     -264     -282     -292     -299 
    -303     -303     -299     -291     -282     -270     -256     -245 
    -234     -224     -213     -202     -194     -187     -186     -184 
    -182     -176     -174     -171     -170     -168     -174     -179 
    -184     -198     -207     -210     -214     -216     -210     -209 
    -207     -198     -189     -180     -164     -139     -114      -86 
     -56      -31        0       33       62       87      114      141 
     174      206      237      265      294      324      349      375 
     398      418      434      448      456      460      463      464 
     464      465      463      453      444      434      418      398 
     382      365      349      337      329      325      325      322 
     318      317      317      319      326      341      357      367 
     375      383      383      380      375      368      359      342 
     324      307      286      263      240      214      184      153 
     117       78       36      -14      -71     -128     -187     -251 
    -313     -376     -438     -495     -552     -612     -662     -700 
    -741     -780     -810     -835     -858     -876     -888     -892 
    -885     -869     -851     -827     -799     -770     -735     -697 
    -661     -623     -584     -548     -515     -483     -454     -430 
    -405     -380     -355     -324     -288     -252     -218     -186 
    -159     -133     -106      -79      -58      -39      -21      -10 
      -6       -4        2        8        9        6       -1      -12 
     -22      -32      -35      -33      -33      -31      -20       -8 
       1       14       33       52       70       93      120      147 
     176      205      225      244      264      282      301      317 
     330      342      349      352      355      355      357      364 
     369      371      372      376      379      378      376      380 
     388      396      406      415      421      426      430      434 
     436      433      426      418      402      386      369      351 
     329      305      279      255      232      213      194      170 
     143      114       85       51       17      -13      -41      -72 
     -98     -118     -136     -148     -151     -156     -162     -164 
    -168     -175     -186     -195     -206     -218     -228     -234 
    -241     -245     -251     -257     -267     -274     -282     -292 
    -301     -310     -321     -332     -345     -356     -365     -380 
    -395     -409     -425     -444     -465     -488     -510     -529 
