Origin Time       2025/01/13 21:19:00
Lat.              31.8
Long.             131.6
Depth. (km)       30
Mag.              6.9
Station Code      SMNH15
Station Lat.      35.5232
Station Long.     133.0226
Station Height(m) -82
Record Time       2025/01/13 21:21:07
Sampling Freq(Hz) 100Hz
Duration Time(s)  134
Dir.              2
Scale Factor      3923(gal)/8224838
Max. Acc. (gal)   0.562
Last Correction   2025/01/13 21:21:07
Memo.             
[...]
   24988    24987    24987    24985    24980    24972    24962    24954 
   24948    24941    24935    24931    24929    24930    24930    24927 
   24922    24916    24907    24894    24887    24880    24867    24858 
   24852    24844    24838    24834    24829    24825    24823    24823 
   24819    24813    24810    24807    24806    24807    24807    24807 
   24807    24810    24813    24817    24821    24822    24823    24829 
   24831    24834    24837    24837    24834    24835    24835    24834 
   24833    24833    24830    24827    24833    24840    24844    24852 
   24856    24857    24860    24858    24852    24849    24850    24852 
   24853    24857    24860    24864    24869    24872    24876    24880 
   24883    24887    24888    24881    24884    24891    24895    24900 
   24911    24921    24930    24945    24962    24976    24989    24999 
   25010    25020    25029    25035    25043    25051    25061    25074 
   25089    25105    25122    25134    25145    25159    25170    25180 
   25192    25201    25207    25207    25211    25213    25213    25216 
   25219    25218    25218    25222    25227    25234    25242    25249 
   25253    25257    25261    25265    25269    25269    25270    25276 
   25277    25280    25288    25294    25299    25307    25315    25320 
   25324    25331    25339    25347    25355    25367    25380    25392 
   25404    25413    25428    25443    25456    25467    25475    25486 
   25500    25510    25520    25529    25535    25542    25550    25555 
   25555    25558    25563    25567    25566    25562    25560    25566 
   25570    25570    25571    25570    25564    25563    25558    25551 
   25547    25540    25533    25529    25519    25506    25498    25488 
   25477    25470    25465    25458    25452    25447    25439    25431 
   25421    25412    25402    25394    25386    25380    25375    25377 
   25378    25382    25389    25390    25392    25398    25404    25409 
   25417    25427    25432    25438    25447    25454    25459    25465 
   25467    25469    25471    25469    25465    25458    25446    25435 
   25425    25405    25382    25361    25338    25312    25288    25265 
   25242    25223    25205    25185    25169    25155    25135    25116 
   25100    25081    25070    25062    25054    25049    25043    25035 
   25029    25024    25018    25010    25007    25002    24992    24988 
   24981    24972    24966    24962    24957    24950    24943    24938 
   24934    24933    24929    24926    24925    24916    24906    24898 
   24894    24885    24877    24872    24868    24865    24861    24861 
   24861    24857    24852    24852    24854    24856    24857    24860 
   24860    24858    24862    24868    24873    24876    24879    24883 
   24883    24884    24888    24894    24899    24904    24911    24919 
   24925    24934    24943    24952    24962    24976    24991    25006 
   25023    25041    25060    25078    25096    25110    25126    25143 
   25157    25165    25174    25185    25189    25192    25196    25197 
   25197    25204    25212    25219    25228    25239    25247    25257 
   25266    25272    25274    25277    25278    25278    25276    25270 
   25265    25257    25245    25235    25227    25213    25195    25178 
   25157    25137    25120    25104    25084    25070    25060    25045 
   25031    25023    25015    25004    24992    24984    24976    24968 
   24962    24961    24960    24957    24957    24961    24968    24970 
   24975    24984    24995    24999    25004    25012    25016    25020 
   25024    25027    25030    25035    25043    25051    25060    25073 
   25088    25097    25103    25115    25120    25122    25127    25134 
   25135    25138    25143    25146    25146    25146    25147    25147 
   25139    25128    25116    25100    25084    25066    25050    25038 
   25024    25007    24991    24979    24965    24950    24938    24927 
   24922    24915    24911    24907    24903    24900    24900    24895 
   24891    24891    24894    24894    24899    24906    24908    24911 
   24912    24910    24911    24912    24911    24911    24914    24914 
   24912    24915    24919    24922    24927    24930    24927    24929 
   24930    24929    24926    24923    24921    24921    24918    24916 
   24919    24921    24919    24926    24934    24942    24949    24954 
   24961    24966    24969    24975    24979    24980    24981    24987 
   24992    24993    24999    25007    25018    25026    25035    25049 
   25061    25072    25080    25089    25099    25105    25114    25122 
   25134    25146    25153    25155    25159    25166    25169    25169 
   25172    25174    25172    25168    25168    25166    25166    25166 
   25170    25174    25178    25182    25191    25197    25201    25205 
   25209    25211    25215    25216    25213    25213    25213    25216 
   25219    25215    25212    25212    25209    25204    25203    25196 
   25188    25185    25185    25181    25181    25185    25184    25184 
   25185    25185    25186    25185    25184    25184    25181    25178 
   25180    25181    25180    25181    25185    25191    25196    25199 
   25201    25203    25205    25209    25211    25216    25227    25234 
   25235    25238    25239    25236    25234    25230    25219    25204 
   25189    25173    25157    25141    25120    25099    25080    25062 
   25043    25023    25002    24985    24970    24956    24946    24941 
   24935    24930    24929    24933    24935    24939    24949    24958 
   24972    24989    25010    25031    25056    25083    25111    25139 
   25168    25193    25223    25255    25281    25305    25339    25371 
   25398    25428    25456    25483    25506    25529    25552    25577 
   25601    25620    25637    25658    25674    25687    25702    25713 
   25720    25726    25729    25733    25737    25736    25733    25726 
   25717    25705    25689    25668    25644    25623    25597    25567 
   25536    25505    25477    25447    25420    25394    25365    25334 
   25305    25274    25243    25218    25192    25169    25151    25132 
   25116    25107    25097    25092    25088    25085    25084    25088 
   25092    25097    25104    25108    25112    25119    25124    25131 
   25143    25153    25166    25184    25199    25216    25238    25259 
   25282    25309    25339    25370    25405    25439    25470    25500 
   25532    25563    25590    25614    25643    25667    25689    25708 
   25721    25733    25745    25751    25755    25759    25759    25755 
   25747    25737    25728    25717    25704    25687    25671    25654 
   25636    25617    25597    25574    25551    25531    25508    25478 
   25450    25424    25398    25373    25347    25323    25304    25285 
   25267    25254    25242    25232    25224    25218    25219    25219 
   25215    25218    25219    25219    25220    25222    25222    25222 
   25222    25218    25212    25204    25196    25185    25176    25168 
   25158    25147    25139    25131    25119    25107    25097    25081 
   25066    25057    25041    25020    25004    24988    24969    24949 
   24930    24912    24896    24879    24858    24838    24825    24813 
   24802    24791    24781    24776    24772    24765    24757    24754 
   24756    24757    24760    24764    24769    24776    24784    24794 
   24804    24818    24833    24846    24861    24871    24875    24880 
   24887    24892    24895    24898    24904    24911    24910    24907 
   24904    24900    24898    24889    24876    24865    24853    24837 
   24821    24806    24788    24771    24757    24746    24737    24725 
   24715    24709    24705    24699    24694    24690    24688    24691 
   24694    24696    24703    24710    24718    24733    24752    24771 
   24791    24813    24835    24860    24881    24902    24923    24943 
   24961    24977    24992    25007    25020    25030    25041    25049 
   25051    25058    25065    25066    25062    25056    25047    25035 
   25022    25008    24991    24972    24950    24923    24896    24872 
   24848    24822    24796    24769    24742    24710    24678    24648 
   24617    24584    24555    24524    24493    24467    24445    24420 
   24398    24381    24363    24354    24343    24329    24324    24322 
   24317    24317    24321    24322    24325    24339    24352    24362 
   24375    24394    24416    24443    24466    24487    24516    24543 
   24564    24590    24615    24636    24657    24680    24705    24726 
   24748    24773    24802    24834    24867    24898    24927    24962 
   24999    25031    25062    25095    25124    25147    25169    25189 
   25208    25224    25239    25251    25261    25273    25284    25290 
   25297    25308    25317    25324    25331    25339    25347    25355 
   25362    25369    25377    25386    25398    25412    25421    25434 
   25444    25451    25459    25470    25475    25482    25490    25498 
   25504    25510    25513    25516    25520    25523    25521    25520 
   25520    25520    25521    25525    25531    25536    25547    25560 
   25569    25579    25597    25614    25631    25652    25677    25697 
   25718    25743    25763    25778    25794    25817    25837    25853 
   25874    25893    25907    25922    25937    25951    25964    25972 
   25978    25980    25980    25979    25974    25967    25959    25940 
   25920    25901    25874    25841    25809    25771    25733    25694 
   25650    25602    25555    25506    25454    25398    25343    25288 
   25231    25173    25118    25065    25010    24956    24910    24868 
   24827    24790    24756    24726    24696    24672    24651    24632 
   24615    24603    24595    24591    24591    24592    24597    24603 
   24614    24626    24637    24648    24661    24672    24683    24696 
   24709    24718    24726    24726    24723    24721    24715    24707 
   24700    24690    24676    24661    24645    24629    24609    24588 
   24572    24555    24536    24521    24502    24487    24476    24463 
   24451    24445    24440    24433    24429    24426    24424    24421 
   24417    24417    24417    24417    24417    24421    24422    24426 
   24433    24440    24449    24462    24475    24490    24505    24524 
   24544    24564    24588    24617    24648    24680    24717    24752 
   24787    24827    24869    24908    24950    24993    25037    25078 
   25118    25158    25201    25239    25272    25307    25342    25373 
   25404    25431    25458    25485    25508    25532    25554    25570 
   25585    25601    25616    25628    25640    25654    25664    25674 
   25686    25697    25709    25728    25744    25756    25774    25791 
   25805    25817    25825    25832    25837    25840    25840    25841 
   25843    25843    25843    25843    25845    25848    25852    25859 
   25866    25871    25879    25890    25902    25911    25921    25934 
   25947    25957    25967    25976    25986    25995    26006    26021 
   26033    26045    26056    26065    26076    26087    26098    26111 
   26118    26122    26130    26138    26138    26140    26142    26141 
   26138    26137    26133    26127    26121    26111    26098    26084 
   26073    26061    26048    26036    26022    26010    26002    25996 
   25988    25979    25976    25975    25972    25974    25974    25975 
   25982    25990    25995    26002    26010    26017    26022    26025 
   26023    26021    26018    26014    26005    25991    25978    25960 
   25937    25915    25895    25866    25832    25799    25764    25729 
   25693    25652    25609    25567    25524    25479    25435    25388 
   25343    25299    25250    25208    25169    25126    25088    25053 
   25018    24983    24949    24918    24885    24852    24819    24790 
   24761    24734    24705    24682    24661    24642    24630    24624 
   24617    24618    24619    24621    24629    24644    24657    24673 
   24694    24714    24732    24750    24769    24788    24803    24819 
   24835    24845    24853    24864    24869    24871    24873    24876 
   24873    24875    24873    24865    24860    24856    24848    24841 
   24837    24835    24830    24825    24823    24822    24813    24807 
   24803    24792    24783    24779    24772    24763    24757    24749 
   24740    24732    24725    24717    24709    24696    24687    24679 
   24668    24659    24652    24642    24632    24624    24614    24602 
   24594    24583    24567    24556    24545    24530    24518    24509 
   24497    24486    24478    24470    24459    24452    24447    24439 
   24430    24425    24421    24413    24405    24397    24387    24374 
   24360    24345    24332    24320    24309    24297    24283    24273 
   24263    24251    24239    24231    24224    24217    24210    24209 
   24209    24209    24210    24214    24219    24228    24236    24244 
   24256    24271    24287    24304    24325    24348    24371    24397 
   24420    24441    24466    24494    24520    24548    24578    24605 
   24634    24664    24694    24726    24759    24787    24815    24844 
   24871    24895    24919    24941    24962    24988    25011    25027 
   25043    25061    25073    25084    25096    25107    25119    25131 
   25142    25155    25176    25195    25215    25242    25272    25304 
   25342    25384    25424    25470    25517    25564    25613    25666 
   25716    25768    25821    25874    25926    25978    26026    26075 
   26125    26171    26207    26242    26275    26296    26312    26330 
   26338    26337    26330    26319    26307    26287    26262    26238 
   26210    26179    26146    26107    26067    26029    25987    25942 
   25901    25860    25818    25780    25745    25708    25674    25643 
   25602    25567    25536    25497    25461    25425    25385    25350 
   25324    25297    25272    25254    25242    25232    25224    25220 
   25218    25218    25226    25236    25251    25266    25281    25301 
   25324    25346    25369    25396    25417    25440    25469    25493 
   25517    25537    25555    25571    25587    25598    25605    25609 
   25616    25623    25620    25613    25610    25604    25593    25585 
   25577    25560    25540    25523    25506    25485    25458    25427 
   25397    25366    25332    25299    25266    25234    25199    25164 
   25132    25100    25066    25037    25011    24987    24961    24937 
   24916    24898    24879    24860    24845    24829    24811    24796 
   24784    24773    24765    24756    24748    24738    24732    24725 
   24719    24715    24713    24713    24706    24699    24700    24702 
   24698    24695    24690    24684    24682    24679    24672    24665 
   24657    24651    24641    24628    24611    24595    24579    24560 
   24538    24514    24490    24466    24439    24410    24376    24345 
   24318    24290    24262    24239    24217    24197    24179    24166 
   24156    24151    24148    24152    24156    24159    24167    24179 
   24190    24206    24227    24247    24268    24293    24320    24351 
   24382    24414    24452    24493    24533    24578    24626    24676 
   24726    24777    24830    24884    24939    24995    25049    25101 
   25155    25207    25255    25304    25351    25393    25429    25465 
   25494    25521    25548    25573    25594    25613    25632    25647 
   25660    25670    25677    25687    25701    25705    25712    25721 
   25726    25737    25747    25752    25763    25774    25779    25787 
   25799    25809    25817    25821    25825    25830    25833    25839 
   25843    25840    25837    25834    25829    25825    25821    25816 
   25810    25805    25799    25794    25789    25785    25782    25776 
   25771    25768    25764    25763    25762    25758    25753    25751 
   25744    25740    25736    25733    25728    25724    25718    25712 
   25705    25698    25691    25686    25682    25675    25667    25662 
   25656    25651    25643    25635    25628    25620    25610    25597 
   25583    25571    25559    25543    25521    25497    25478    25458 
   25429    25401    25375    25346    25315    25285    25255    25222 
   25189    25161    25131    25101    25074    25049    25023    25000 
   24981    24962    24946    24937    24927    24916    24912    24910 
   24908    24912    24916    24922    24933    24948    24960    24973 
   24992    25010    25024    25043    25064    25083    25103    25123 
   25141    25158    25176    25193    25209    25226    25239    25251 
   25266    25282    25294    25305    25317    25330    25342    25350 
   25358    25370    25380    25384    25388    25392    25394    25392 
   25386    25381    25375    25363    25348    25336    25320    25301 
   25284    25263    25242    25222    25199    25176    25157    25132 
   25108    25088    25066    25046    25026    25004    24981    24961 
   24942    24923    24907    24892    24875    24860    24845    24830 
   24818    24803    24787    24771    24754    24737    24719    24700 
   24682    24665    24648    24628    24609    24594    24579    24563 
   24547    24533    24522    24507    24491    24480    24472    24466 
   24460    24452    24445    24448    24451    24449    24456    24470 
   24478    24486    24506    24522    24536    24559    24584    24606 
   24632    24659    24688    24719    24750    24786    24823    24861 
   24902    24942    24983    25026    25069    25111    25155    25199 
   25242    25290    25335    25374    25413    25451    25490    25524 
   25555    25586    25614    25637    25659    25678    25695    25709 
   25718    25729    25736    25737    25740    25741    25737    25731 
   25726    25720    25710    25698    25687    25675    25658    25644 
   25632    25618    25606    25593    25578    25564    25552    25542 
   25533    25525    25515    25506    25500    25493    25489    25486 
   25482    25479    25478    25475    25477    25475    25470    25462 
   25456    25448    25438    25428    25420    25405    25392    25381 
   25365    25344    25330    25317    25299    25281    25265    25249 
   25235    25222    25208    25196    25184    25173    25166    25159 
   25153    25146    25145    25141    25138    25139    25141    25147 
   25154    25158    25164    25168    25173    25181    25189    25199 
   25205    25219    25232    25243    25258    25273    25286    25304 
   25320    25335    25348    25361    25375    25390    25409    25428 
   25443    25462    25482    25498    25517    25539    25559    25582 
   25606    25628    25650    25671    25690    25708    25725    25741 
   25759    25774    25789    25799    25805    25813    25818    25817 
   25814    25813    25806    25797    25786    25776    25762    25747 
   25732    25714    25695    25674    25650    25623    25594    25562 
   25529    25494    25459    25420    25377    25332    25292    25250 
   25205    25161    25115    25069    25029    24984    24938    24896 
   24856    24813    24773    24734    24694    24659    24626    24590 
   24552    24518    24491    24463    24435    24413    24394    24372 
   24356    24344    24333    24322    24313    24305    24300    24294 
   24287    24285    24281    24274    24274    24275    24271    24270 
   24274    24277    24277    24281    24286    24293    24301    24309 
   24318    24328    24340    24359    24375    24389    24406    24428 
