Origin Time       2025/01/13 21:19:00
Lat.              31.8
Long.             131.6
Depth. (km)       30
Mag.              6.9
Station Code      SMNH16
Station Lat.      35.3422
Station Long.     132.8989
Station Height(m) 46.5
Record Time       2025/01/13 21:20:45
Sampling Freq(Hz) 100Hz
Duration Time(s)  132
Dir.              6
Scale Factor      3920(gal)/6170801
Max. Acc. (gal)   0.462
Last Correction   2025/01/13 21:20:30
Memo.             
[...]
   17405    17405    17408    17408    17412    17418    17416    17403 
   17388    17366    17342    17329    17325    17322    17319    17315 
   17308    17310    17322    17338    17352    17358    17357    17357 
   17359    17348    17314    17257    17194    17154    17151    17173 
   17199    17201    17180    17151    17133    17139    17163    17190 
   17214    17226    17220    17204    17194    17200    17217    17228 
   17221    17193    17154    17117    17091    17078    17086    17108 
   17128    17143    17155    17169    17187    17206    17216    17213 
   17202    17188    17165    17139    17118    17109    17113    17120 
   17121    17123    17135    17158    17195    17239    17273    17285 
   17281    17266    17237    17193    17141    17086    17031    16986 
   16957    16946    16958    16986    17020    17052    17077    17092 
   17102    17115    17137    17169    17205    17233    17239    17224 
   17201    17180    17171    17174    17178    17171    17145    17103 
   17060    17038    17045    17079    17134    17189    17225    17235 
   17223    17203    17188    17186    17197    17206    17205    17200 
   17190    17178    17171    17168    17165    17161    17158    17157 
   17159    17162    17171    17187    17205    17223    17238    17233 
   17202    17163    17133    17114    17098    17083    17066    17048 
   17037    17036    17045    17051    17053    17052    17048    17050 
   17064    17084    17101    17106    17103    17104    17110    17115 
   17120    17123    17121    17110    17091    17073    17070    17093 
   17127    17143    17127    17095    17064    17052    17065    17088 
   17103    17104    17085    17054    17038    17052    17091    17130 
   17143    17131    17116    17121    17153    17202    17248    17287 
   17322    17350    17365    17363    17336    17290    17250    17239 
   17245    17250    17243    17227    17212    17208    17222    17242 
   17257    17271    17294    17315    17328    17339    17354    17374 
   17397    17415    17417    17405    17389    17375    17362    17354 
   17355    17359    17363    17373    17390    17408    17424    17437 
   17445    17460    17483    17490    17477    17447    17400    17354 
   17333    17327    17314    17284    17249    17233    17250    17288 
   17327    17353    17359    17357    17371    17403    17436    17456 
   17461    17450    17430    17409    17392    17380    17377    17378 
   17370    17357    17355    17364    17378    17400    17422    17425 
   17415    17402    17387    17381    17390    17396    17392    17384 
   17364    17337    17317    17307    17302    17301    17309    17325 
   17345    17366    17375    17377    17386    17412    17442    17462 
   17460    17447    17449    17483    17543    17603    17639    17635 
   17599    17554    17520    17499    17490    17490    17485    17459 
   17428    17411    17413    17430    17459    17485    17502    17506 
   17494    17462    17426    17400    17378    17352    17325    17303 
   17290    17281    17268    17258    17263    17281    17298    17298 
   17285    17269    17261    17272    17298    17323    17336    17326 
   17297    17257    17225    17214    17212    17202    17180    17151 
   17129    17143    17200    17267    17314    17323    17291    17241 
   17205    17199    17214    17219    17193    17139    17072    17020 
   16997    16989    16990    16990    16979    16975    16989    17010 
   17034    17053    17059    17060    17067    17086    17106    17116 
   17114    17098    17074    17068    17087    17123    17165    17202 
   17231    17256    17287    17328    17362    17367    17342    17292 
   17229    17174    17145    17141    17152    17164    17179    17203 
   17228    17262    17306    17341    17357    17366    17373    17374 
   17370    17369    17363    17345    17320    17290    17265    17255 
   17256    17266    17288    17323    17369    17409    17423    17409 
   17385    17372    17377    17387    17382    17352    17303    17253 
   17220    17209    17208    17211    17209    17200    17200    17216 
   17248    17289    17318    17324    17307    17276    17241    17211 
   17190    17178    17171    17172    17174    17167    17152    17142 
   17143    17154    17171    17185    17190    17184    17182    17196 
   17219    17238    17238    17215    17183    17157    17147    17157 
   17177    17198    17224    17259    17293    17313    17315    17314 
   17321    17333    17339    17327    17295    17254    17218    17198 
   17201    17221    17249    17275    17288    17294    17297    17292 
   17272    17239    17196    17150    17115    17099    17094    17095 
   17104    17120    17141    17164    17182    17190    17196    17205 
   17217    17226    17233    17238    17244    17257    17284    17328 
   17377    17411    17431    17447    17468    17507    17554    17586 
   17598    17595    17579    17561    17554    17559    17558    17539 
   17503    17458    17418    17400    17399    17396    17383    17365 
   17345    17335    17335    17339    17336    17320    17304    17292 
   17275    17263    17264    17279    17302    17323    17330    17319 
   17303    17291    17287    17294    17305    17302    17280    17248 
   17230    17238    17261    17277    17258    17201    17128    17064 
   17021    17001    16992    16982    16960    16933    16920    16935 
   16970    17017    17053    17066    17066    17061    17057    17065 
   17086    17108    17122    17130    17135    17139    17148    17155 
   17155    17153    17161    17175    17187    17200    17212    17218 
   17223    17229    17228    17210    17184    17166    17157    17144 
   17129    17121    17124    17144    17170    17187    17192    17187 
   17181    17184    17193    17196    17186    17168    17152    17148 
   17164    17194    17216    17216    17198    17175    17165    17177 
   17202    17225    17232    17222    17214    17213    17205    17183 
   17152    17119    17091    17069    17048    17029    17009    16991 
   16983    16989    17010    17035    17058    17082    17109    17132 
   17147    17152    17140    17125    17125    17139    17159    17171 
   17171    17169    17176    17204    17246    17275    17274    17250 
   17226    17225    17255    17302    17348    17375    17371    17352 
   17342    17344    17350    17349    17333    17309    17293    17294 
   17306    17314    17315    17316    17317    17320    17329    17335 
   17326    17307    17285    17263    17255    17261    17271    17280 
   17285    17282    17277    17278    17286    17299    17309    17303 
   17284    17270    17277    17301    17332    17359    17373    17379 
   17386    17405    17429    17444    17451    17461    17479    17497 
   17506    17501    17482    17459    17448    17451    17459    17461 
   17455    17450    17456    17474    17496    17501    17484    17452 
   17420    17407    17409    17417    17432    17445    17444    17436 
   17427    17417    17413    17416    17419    17413    17390    17359 
   17337    17333    17347    17362    17367    17358    17339    17323 
   17314    17302    17290    17280    17263    17234    17198    17163 
   17134    17121    17123    17128    17128    17119    17109    17108 
   17116    17133    17161    17183    17190    17189    17190    17196 
   17207    17218    17223    17216    17198    17177    17161    17155 
   17154    17151    17141    17123    17098    17073    17060    17062 
   17078    17103    17123    17119    17090    17056    17037    17044 
   17076    17114    17141    17154    17158    17165    17182    17206 
   17235    17259    17267    17251    17221    17196    17183    17180 
   17179    17172    17156    17146    17153    17173    17192    17195 
   17179    17158    17149    17150    17154    17155    17148    17127 
   17103    17095    17111    17148    17194    17229    17239    17237 
   17235    17235    17235    17228    17202    17165    17122    17072 
   17024    16993    16983    16989    17005    17032    17061    17089 
   17110    17122    17133    17143    17147    17150    17160    17178 
   17198    17203    17183    17155    17132    17124    17133    17138 
   17122    17101    17095    17113    17158    17208    17234    17232 
   17224    17224    17229    17239    17257    17279    17306    17337 
   17367    17396    17423    17439    17442    17435    17422    17413 
   17412    17408    17395    17381    17375    17376    17380    17382 
   17375    17362    17354    17355    17354    17352    17351    17350 
   17352    17349    17323    17281    17242    17210    17184    17161 
   17133    17110    17106    17115    17128    17143    17160    17179 
   17189    17184    17171    17148    17108    17064    17023    16983 
   16949    16924    16913    16918    16927    16934    16949    16980 
   17023    17070    17110    17140    17161    17176    17191    17205 
   17214    17223    17239    17258    17279    17303    17336    17382 
   17437    17498    17559    17609    17641    17652    17655    17662 
   17674    17680    17677    17663    17646    17644    17656    17665 
   17660    17638    17609    17584    17578    17597    17626    17648 
   17658    17661    17668    17682    17697    17704    17703    17696 
   17688    17677    17657    17624    17588    17557    17531    17514 
   17507    17503    17498    17489    17471    17448    17434    17431 
   17433    17428    17410    17379    17345    17312    17279    17252 
   17235    17220    17205    17188    17167    17147    17137    17137 
   17145    17151    17143    17116    17075    17030    16996    16977 
   16969    16969    16975    16976    16973    16972    16975    16990 
   17026    17067    17099    17113    17110    17096    17090    17103 
   17128    17152    17172    17183    17191    17205    17224    17244 
   17255    17262    17273    17289    17309    17335    17363    17390 
   17409    17412    17401    17388    17377    17371    17372    17370 
   17359    17343    17326    17309    17294    17279    17262    17245 
   17228    17208    17193    17184    17173    17157    17131    17099 
   17075    17060    17049    17039    17026    17011    16991    16972 
   16963    16957    16951    16945    16934    16921    16915    16923 
   16941    16958    16975    16989    16995    16997    17004    17024 
   17050    17064    17055    17027    16992    16975    16981    16993 
   17001    17008    17016    17026    17045    17073    17098    17113 
   17123    17126    17125    17131    17149    17174    17198    17215 
   17229    17252    17282    17323    17368    17403    17423    17427 
   17423    17418    17408    17398    17390    17381    17370    17359 
   17344    17321    17286    17245    17206    17178    17172    17189 
   17213    17230    17235    17237    17246    17268    17290    17297 
   17286    17270    17262    17260    17261    17269    17270    17259 
   17253    17257    17271    17296    17318    17328    17330    17323 
   17320    17334    17360    17391    17421    17439    17451    17468 
   17491    17514    17526    17530    17536    17545    17563    17592 
   17622    17644    17663    17678    17693    17717    17742    17758 
   17760    17740    17704    17664    17628    17601    17581    17561 
   17539    17508    17470    17441    17425    17415    17420    17427 
   17412    17379    17341    17306    17280    17262    17241    17213 
   17182    17151    17128    17117    17111    17107    17102    17090 
   17070    17043    17018    16998    16983    16973    16966    16951 
   16933    16921    16907    16890    16882    16881    16885    16891 
   16895    16897    16901    16909    16926    16949    16975    16999 
   17015    17020    17023    17032    17046    17063    17075    17075 
   17067    17064    17064    17061    17055    17045    17033    17028 
   17031    17033    17028    17025    17037    17062    17086    17099 
   17101    17095    17094    17111    17142    17174    17204    17230 
   17247    17258    17273    17288    17297    17303    17309    17316 
   17317    17306    17290    17273    17263    17268    17286    17307 
   17322    17329    17328    17325    17329    17342    17357    17368 
   17372    17373    17375    17380    17393    17413    17434    17450 
   17457    17458    17451    17448    17457    17471    17482    17490 
   17482    17461    17441    17420    17401    17393    17389    17383 
   17376    17373    17375    17383    17400    17425    17447    17467 
   17487    17504    17519    17527    17522    17512    17503    17492 
   17482    17475    17470    17470    17479    17486    17494    17504 
   17514    17527    17545    17559    17560    17551    17535    17518 
   17508    17507    17503    17486    17462    17441    17428    17428 
   17442    17455    17460    17464    17470    17473    17471    17465 
   17459    17457    17466    17480    17487    17481    17468    17461 
   17466    17479    17496    17514    17525    17529    17533    17540 
   17548    17544    17533    17516    17492    17467    17446    17429 
   17412    17391    17370    17349    17328    17308    17284    17251 
   17212    17170    17129    17089    17045    16995    16945    16905 
   16876    16856    16843    16834    16820    16802    16789    16780 
   16771    16765    16750    16723    16690    16656    16622    16592 
   16568    16546    16529    16523    16528    16550    16586    16628 
   16673    16716    16755    16787    16815    16843    16866    16887 
   16907    16920    16927    16940    16967    17009    17059    17109 
   17153    17184    17208    17236    17266    17289    17302    17304 
   17296    17290    17296    17305    17303    17293    17280    17269 
   17266    17275    17289    17303    17307    17297    17276    17258 
   17248    17247    17254    17265    17264    17249    17228    17213 
   17214    17231    17258    17284    17305    17324    17344    17360 
   17377    17401    17425    17437    17435    17419    17387    17348 
   17317    17292    17270    17255    17245    17236    17230    17230 
   17234    17246    17263    17284    17304    17318    17323    17321 
   17317    17318    17331    17351    17364    17369    17373    17381 
   17405    17441    17471    17496    17517    17528    17531    17531 
   17531    17527    17514    17496    17468    17434    17405    17381 
   17361    17346    17325    17296    17271    17249    17235    17229 
   17221    17209    17196    17184    17175    17166    17152    17138 
   17125    17107    17082    17051    17019    16993    16977    16969 
   16962    16951    16939    16934    16939    16950    16967    16989 
   17007    17016    17026    17040    17053    17064    17068    17069 
   17075    17087    17098    17102    17099    17101    17109    17121 
   17135    17148    17149    17131    17102    17075    17054    17042 
   17035    17032    17032    17034    17047    17073    17101    17129 
   17158    17179    17195    17213    17225    17217    17191    17160 
   17136    17125    17128    17143    17164    17181    17192    17205 
   17223    17256    17300    17338    17363    17379    17390    17405 
   17422    17442    17468    17496    17524    17555    17585    17617 
   17652    17691    17730    17761    17788    17816    17842    17866 
   17883    17884    17870    17843    17814    17795    17783    17770 
   17756    17738    17709    17676    17646    17617    17585    17552 
   17515    17473    17428    17382    17337    17293    17254    17222 
   17190    17160    17134    17111    17088    17064    17039    17017 
   16994    16968    16945    16936    16948    16975    17002    17018 
   17027    17040    17060    17086    17112    17135    17151    17167 
   17189    17214    17235    17256    17282    17306    17318    17329 
   17343    17363    17394    17431    17463    17486    17501    17511 
   17516    17519    17519    17509    17486    17458    17437    17424 
   17420    17412    17392    17369    17352    17341    17333    17319 
   17291    17250    17208    17174    17152    17137    17119    17102 
   17086    17075    17070    17067    17064    17058    17044    17026 
   17012    17004    17002    17009    17019    17026    17036    17050 
   17066    17076    17077    17076    17076    17081    17089    17091 
   17083    17070    17057    17052    17059    17072    17087    17098 
   17103    17104    17106    17114    17129    17151    17171    17185 
   17195    17202    17212    17234    17261    17289    17318    17346 
   17365    17379    17389    17398    17410    17423    17446    17475 
   17501    17520    17534    17553    17582    17622    17663    17694 
   17709    17703    17681    17656    17636    17622    17607    17586 
   17561    17541    17535    17538    17540    17543    17543    17529 
   17509    17491    17473    17454    17436    17417    17395    17369 
   17339    17314    17296    17278    17256    17236    17219    17206 
   17201    17201    17205    17207    17202    17193    17182    17167 
   17150    17135    17121    17106    17091    17077    17068    17064 
   17062    17057    17054    17049    17042    17038    17035    17025 
   17012    17002    16996    16994    16995    16999    17007    17021 
   17039    17056    17064    17068    17077    17084    17092    17113 
   17142    17170    17193    17211    17221    17226    17234    17244 
   17246    17238    17221    17201    17189    17191    17204    17218 
   17224    17218    17198    17175    17162    17155    17148    17146 
   17143    17135    17127    17118    17098    17072    17049    17031 
   17018    17017    17018    17012    17004    16996    16990    16994 
   17010    17034    17059    17078    17088    17091    17093    17103 
   17122    17143    17163    17176    17178    17176    17181    17194 
   17219    17251    17285    17316    17343    17369    17396    17422 
   17450    17480    17501    17512    17515    17510    17508    17508 
   17512    17513    17505    17492    17481    17471    17462    17459 
   17457    17453    17450    17452    17456    17457    17450    17434 
   17420    17411    17403    17397    17387    17370    17353    17339 
   17330    17328    17328    17325    17317    17300    17277    17256 
   17230    17197    17166    17142    17117    17089    17062    17039 
   17019    17001    16984    16970    16956    16945    16940    16937 
   16935    16932    16924    16917    16917    16921    16928    16932 
   16929    16923    16923    16934    16953    16970    16982    16992 
   16996    16992    16994    17008    17025    17039    17049    17055 
   17061    17074    17096    17126    17163    17201    17237    17275 
   17316    17356    17398    17434    17463    17487    17506    17520 
   17536    17558    17583    17603    17612    17609    17602    17601 
   17613    17635    17658    17681    17698    17705    17707    17710 
   17713    17716    17724    17727    17715    17696    17677    17657 
   17641    17630    17615    17593    17573    17554    17535    17515 
   17490    17463    17434    17406    17384    17362    17341    17327 
   17319    17314    17319    17324    17324    17322    17319    17316 
