Origin Time       2025/01/13 21:19:00
Lat.              31.8
Long.             131.6
Depth. (km)       30
Mag.              6.9
Station Code      SMNH04
Station Lat.      35.0918
Station Long.     132.5308
Station Height(m) 240
Record Time       2025/01/13 21:20:46
Sampling Freq(Hz) 100Hz
Duration Time(s)  134
Dir.              4
Scale Factor      7845(gal)/8223790
Max. Acc. (gal)   1.344
Last Correction   2025/01/13 21:20:46
Memo.             
[...]
    1148     1185     1285     1453     1651     1818     1919     1965 
    1979     1969     1927     1844     1721     1579     1447     1360 
    1333     1344     1345     1306     1243     1198     1210     1278 
    1381     1499     1632     1784     1938     2050     2074     1984 
    1796     1583     1408     1293     1242     1250     1290     1336 
    1379     1406     1390     1318     1196     1035      870      750 
     696      714      796      916     1043     1167     1291     1410 
    1517     1620     1719     1802     1863     1904     1914     1863 
    1734     1530     1278     1016      797      675      661      742 
     915     1162     1433     1659     1794     1842     1834     1809 
    1794     1794     1784     1755     1711     1659     1606     1563 
    1517     1440     1321     1201     1132     1135     1192     1275 
    1356     1410     1439     1453     1451     1433     1417     1416 
    1435     1479     1544     1624     1709     1792     1867     1903 
    1864     1755     1620     1493     1394     1337     1321     1333 
    1366     1413     1447     1439     1394     1362     1379     1466 
    1605     1753     1869     1929     1925     1863     1763     1652 
    1574     1553     1583     1626     1660     1682     1698     1707 
    1684     1602     1455     1271     1092      943      838      785 
     783      841      945     1070     1210     1362     1512     1663 
    1799     1881     1881     1810     1705     1621     1590     1611 
    1661     1718     1772     1822     1858     1867     1813     1663 
    1444     1209     1003      870      828      849      903      978 
    1054     1120     1188     1278     1410     1580     1767     1944 
    2084     2161     2161     2088     1957     1780     1563     1318 
    1089      923      846      854      916      989     1050     1089 
    1117     1140     1165     1206     1271     1350     1443     1544 
    1628     1679     1695     1680     1647     1601     1563     1557 
    1575     1588     1574     1522     1453     1387     1331     1285 
    1237     1173     1115     1112     1175     1264     1360     1472 
    1593     1705     1818     1925     2004     2062     2116     2150 
    2130     2037     1877     1676     1452     1240     1074      963 
     913      934     1031     1194     1383     1543     1630     1629 
    1559     1472     1418     1414     1459     1533     1607     1665 
    1701     1711     1688     1633     1566     1509     1475     1459 
    1436     1409     1397     1408     1413     1383     1314     1231 
    1159     1134     1165     1233     1320     1424     1561     1728 
    1884     1995     2039     2010     1919     1791     1636     1460 
    1290     1158     1085     1071     1097     1131     1155     1177 
    1209     1269     1343     1416     1483     1555     1637     1715 
    1749     1714     1618     1498     1393     1321     1275     1237 
    1188     1132     1104     1116     1167     1258     1381     1509 
    1610     1668     1682     1653     1598     1526     1451     1401 
    1386     1382     1374     1370     1370     1385     1417     1447 
    1455     1462     1497     1578     1691     1788     1825     1791 
    1706     1603     1516     1453     1421     1428     1485     1580 
    1679     1749     1783     1796     1818     1865     1925     1969 
    1976     1931     1837     1718     1595     1471     1339     1202 
    1070      955      877      861      901      984     1098     1235 
    1372     1522     1686     1833     1939     1998     2020     2046 
    2083     2096     2054     1949     1786     1584     1374     1171 
     984      837      753      743      799      897     1023     1159 
    1291     1412     1510     1575     1621     1665     1710     1728 
    1699     1642     1586     1541     1505     1458     1374     1255 
    1148     1088     1074     1098     1147     1205     1255     1305 
    1364     1428     1482     1518     1537     1552     1568     1579 
    1580     1571     1545     1503     1449     1398     1370     1375 
    1398     1428     1456     1471     1472     1482     1502     1517 
    1518     1506     1490     1495     1533     1590     1636     1659 
    1663     1656     1628     1563     1468     1364     1279     1235 
    1236     1279     1359     1444     1507     1555     1590     1622 
    1663     1710     1767     1837     1899     1934     1934     1885 
    1794     1691     1609     1556     1539     1543     1555     1580 
    1615     1638     1632     1597     1536     1470     1429     1416 
    1412     1414     1431     1455     1462     1436     1375     1293 
    1215     1159     1128     1108     1105     1129     1175     1242 
    1325     1404     1463     1506     1526     1517     1478     1414 
    1340     1270     1204     1143     1097     1077     1096     1158 
    1254     1371     1501     1637     1771     1877     1945     1968 
    1949     1894     1800     1686     1578     1497     1443     1417 
    1418     1447     1498     1560     1614     1659     1702     1742 
    1775     1798     1796     1759     1690     1610     1545     1514 
    1502     1487     1468     1431     1375     1331     1312     1320 
    1362     1416     1445     1441     1406     1345     1269     1189 
    1116     1066     1053     1078     1136     1209     1282     1345 
    1386     1401     1390     1356     1313     1290     1310     1368 
    1444     1517     1553     1537     1479     1402     1335     1308 
    1331     1386     1462     1556     1665     1784     1894     1965 
    1979     1934     1856     1773     1703     1649     1610     1575 
    1540     1507     1467     1402     1306     1205     1128     1081 
    1065     1088     1151     1232     1310     1374     1414     1436 
    1455     1485     1536     1605     1686     1775     1864     1934 
    1962     1933     1831     1667     1468     1274     1121     1027 
     985      973      973      986     1028     1116     1250     1402 
    1544     1659     1756     1837     1875     1865     1827     1764 
    1676     1584     1512     1464     1445     1453     1478     1501 
    1505     1478     1429     1372     1323     1289     1263     1237 
    1216     1198     1188     1179     1169     1162     1167     1179 
    1198     1228     1278     1348     1429     1499     1540     1551 
    1551     1563     1601     1653     1703     1725     1709     1674 
    1626     1563     1501     1459     1441     1458     1506     1568 
    1629     1680     1707     1705     1679     1640     1587     1539 
    1513     1507     1524     1571     1647     1742     1844     1938 
    2012     2047     2037     1989     1921     1831     1733     1649 
    1594     1570     1575     1595     1626     1674     1729     1787 
    1831     1840     1813     1764     1691     1603     1517     1443 
    1387     1356     1350     1370     1406     1444     1472     1498 
    1520     1533     1537     1536     1537     1549     1586     1649 
    1726     1802     1854     1867     1833     1767     1688     1607 
    1522     1441     1378     1348     1360     1413     1480     1520 
    1509     1455     1366     1252     1150     1086     1066     1082 
    1134     1204     1275     1352     1437     1521     1601     1678 
    1738     1772     1777     1750     1696     1618     1518     1402 
    1264     1108      969      881      845      855      892      913 
     913      920      951     1001     1067     1136     1200     1275 
    1375     1474     1540     1555     1525     1467     1393     1312 
    1224     1132     1030      923      828      751      691      661 
     656      656      668      724      830      967     1112     1242 
    1336     1386     1394     1362     1309     1269     1255     1271 
    1308     1348     1390     1435     1476     1517     1551     1576 
    1597     1621     1651     1688     1730     1759     1775     1795 
    1815     1825     1815     1782     1726     1655     1561     1451 
    1333     1232     1170     1152     1181     1256     1363     1471 
    1568     1655     1723     1772     1804     1817     1811     1799 
    1765     1688     1574     1435     1287     1154     1051      985 
     958      966     1005     1067     1146     1224     1296     1360 
    1420     1468     1512     1552     1587     1609     1597     1543 
    1447     1317     1177     1042      928      851      839      897 
    1005     1136     1273     1399     1512     1607     1683     1733 
    1746     1722     1674     1629     1613     1618     1615     1579 
    1506     1416     1323     1250     1202     1171     1167     1215 
    1305     1418     1521     1572     1568     1541     1516     1495 
    1487     1493     1512     1553     1613     1669     1714     1732 
    1711     1661     1598     1541     1497     1472     1470     1476 
    1480     1474     1464     1462     1467     1485     1517     1566 
    1634     1728     1826     1906     1960     1992     2006     2006 
    1995     1973     1942     1915     1908     1919     1926     1907 
    1849     1750     1615     1459     1305     1171     1075     1027 
    1024     1055     1105     1159     1208     1251     1298     1356 
    1428     1522     1642     1782     1921     2042     2135     2184 
    2188     2151     2074     1954     1803     1640     1478     1333 
    1219     1135     1086     1070     1082     1138     1240     1374 
    1532     1705     1872     2026     2177     2324     2452     2556 
    2628     2662     2650     2589     2489     2374     2258     2138 
    2003     1856     1710     1580     1478     1397     1325     1274 
    1252     1256     1278     1327     1408     1507     1618     1740 
    1861     1962     2037     2087     2111     2111     2093     2058 
    2003     1929     1830     1709     1580     1459     1343     1229 
    1121     1035      985      976     1003     1048     1093     1124 
    1138     1128     1096     1047      977      889      801      726 
     669      639      648      693      760      826      878      916 
     943      980     1040     1117     1201     1290     1366     1410 
    1416     1385     1321     1244     1179     1147     1155     1201 
    1279     1379     1498     1618     1711     1760     1752     1696 
    1621     1545     1476     1413     1356     1306     1263     1231 
    1196     1150     1107     1084     1082     1102     1147     1223 
    1329     1447     1553     1642     1701     1725     1733     1737 
    1742     1753     1760     1744     1699     1618     1499     1360 
    1233     1144     1093     1081     1108     1167     1258     1377 
    1490     1572     1615     1625     1620     1622     1634     1649 
    1653     1630     1575     1510     1468     1462     1479     1517 
    1579     1669     1790     1926     2056     2168     2250     2313 
    2366     2400     2417     2412     2370     2289     2164     2000 
    1817     1622     1433     1282     1178     1113     1100     1143 
    1228     1333     1436     1522     1587     1625     1638     1624 
    1591     1561     1553     1563     1571     1576     1580     1561 
    1525     1485     1424     1344     1264     1183     1104     1040 
     989      939      874      796      718      662      648      689 
     787      924     1089     1275     1467     1625     1718     1744 
    1718     1661     1599     1541     1475     1408     1343     1275 
    1194     1082      943      800      670      575      530      550 
     629      761      940     1146     1358     1561     1748     1914 
    2057     2170     2258     2313     2340     2340     2309     2246 
    2165     2062     1931     1776     1618     1476     1358     1263 
    1193     1150     1140     1179     1273     1405     1552     1696 
    1838     1973     2088     2158     2161     2097     1984     1830 
    1653     1472     1300     1146     1015      896      777      658 
     540      440      383      373      405      467      548      639 
     742      850      954     1046     1124     1196     1267     1351 
    1441     1525     1598     1647     1660     1649     1622     1580 
    1544     1529     1528     1532     1543     1564     1584     1594 
    1593     1567     1516     1463     1436     1440     1478     1548 
    1634     1721     1807     1896     1985     2070     2145     2193 
    2218     2223     2212     2185     2137     2066     1973     1854 
    1722     1591     1464     1345     1243     1158     1105     1096 
    1117     1152     1201     1266     1341     1420     1501     1586 
    1672     1763     1869     1979     2074     2134     2145     2092 
    1979     1825     1668     1530     1424     1358     1335     1350 
    1393     1455     1526     1598     1663     1718     1772     1819 
    1852     1863     1842     1782     1690     1572     1424     1259 
    1108      980      872      784      715      668      645      645 
     661      679      687      699      726      762      801      841 
     876      916      972     1044     1132     1236     1363     1512 
    1674     1834     1983     2108     2204     2261     2284     2269 
    2220     2153     2069     1973     1884     1809     1749     1715 
    1730     1796     1903     2041     2204     2385     2565     2720 
    2830     2878     2860     2794     2678     2517     2326     2101 
    1854     1603     1356     1111      869      642      442      291 
     195      151      155      198      274      373      492      616 
     733      832      915      976     1015     1026     1000      947 
     870      784      715      685      704      778      900     1058 
    1251     1459     1657     1831     1965     2052     2092     2088 
    2038     1953     1849     1741     1641     1552     1483     1436 
    1416     1425     1449     1483     1518     1553     1598     1651 
    1705     1738     1741     1722     1682     1615     1526     1424 
    1306     1183     1066      963      874      799      737      684 
     645      622      606      602      621      658      707      773 
     855      950     1050     1146     1237     1323     1405     1485 
    1567     1659     1756     1841     1899     1931     1939     1919 
    1875     1810     1725     1629     1543     1489     1464     1456 
    1451     1436     1410     1383     1355     1324     1291     1264 
    1255     1275     1317     1362     1399     1426     1443     1455 
    1472     1497     1533     1580     1640     1703     1750     1760 
    1730     1669     1590     1507     1435     1377     1336     1316 
    1321     1351     1399     1455     1512     1579     1661     1761 
    1877     1999     2112     2207     2269     2278     2228     2137 
    2015     1879     1750     1637     1545     1485     1449     1432 
    1431     1445     1483     1552     1651     1768     1896     2012 
    2101     2154     2166     2124     2033     1906     1765     1626 
    1507     1413     1335     1269     1228     1213     1220     1248 
    1308     1394     1502     1632     1775     1917     2047     2158 
    2230     2255     2242     2203     2154     2101     2053     2010 
    1966     1911     1845     1757     1632     1472     1298     1129 
     989      889      832      820      846      895      953     1004 
    1038     1046     1032     1009      986      963      942      920 
     901      880      869      876      889      909      951     1023 
    1120     1235     1360     1487     1605     1701     1780     1838 
    1872     1890     1907     1926     1957     2002     2046     2073 
    2074     2052     2004     1935     1841     1728     1606     1480 
    1355     1235     1115      996      884      774      670      584 
     522      490      498      534      583      629      665      700 
     747      810      881      955     1028     1100     1161     1198 
    1213     1213     1209     1208     1209     1213     1210     1197 
    1178     1147     1098     1035      974      924      900      919 
     978     1073     1200     1356     1533     1715     1890     2056 
    2211     2355     2477     2575     2641     2662     2627     2540 
    2397     2209     1996     1777     1568     1386     1247     1152 
    1098     1088     1116     1178     1264     1367     1483     1607 
    1733     1849     1941     1995     1995     1944     1852     1729 
    1582     1429     1281     1146     1036      963      927      923 
     934      962     1016     1085     1167     1267     1367     1460 
    1548     1620     1675     1729     1776     1817     1864     1914 
    1962     2003     2034     2052     2056     2058     2062     2064 
    2069     2076     2064     2029     1980     1917     1836     1745 
    1655     1570     1498     1451     1439     1458     1486     1522 
    1561     1591     1615     1638     1644     1634     1618     1584 
    1534     1478     1418     1360     1313     1289     1290     1316 
    1372     1453     1548     1648     1744     1825     1881     1910 
    1917     1912     1911     1921     1929     1934     1942     1942 
    1929     1906     1868     1810     1733     1642     1552     1470 
    1401     1350     1314     1287     1263     1248     1247     1256 
    1273     1290     1310     1335     1366     1397     1422     1440 
    1456     1470     1472     1471     1468     1462     1445     1413 
    1363     1290     1188     1057      918      783      664      572 
     513      494      511      558      630      715      812      920 
    1030     1136     1240     1344     1449     1559     1663     1745 
    1800     1829     1837     1822     1787     1736     1668     1591 
    1514     1447     1398     1370     1362     1378     1421     1482 
    1548     1611     1661     1687     1690     1669     1628     1571 
    1499     1422     1347     1273     1200     1125     1043      950 
     847      746      654      585      541      518      514      529 
     565      627      704      778      853      932     1019     1120 
    1231     1341     1453     1559     1651     1728     1784     1807 
    1803     1787     1767     1752     1749     1757     1771     1784 
    1795     1799     1799     1795     1782     1753     1715     1669 
    1620     1571     1520     1464     1406     1345     1282     1225 
    1174     1136     1125     1146     1190     1264     1363     1479 
    1605     1729     1838     1930     2007     2070     2114     2126 
    2110     2076     2031     1983     1927     1867     1800     1737 
    1678     1622     1564     1503     1443     1385     1337     1304 
    1285     1277     1275     1273     1259     1239     1221     1202 
    1192     1194     1206     1227     1256     1293     1336     1382 
    1421     1455     1485     1505     1520     1529     1533     1533 
    1524     1503     1476     1443     1410     1375     1340     1309 
    1289     1274     1266     1266     1277     1297     1336     1393 
    1451     1514     1591     1665     1730     1788     1831     1858 
    1873     1875     1873     1869     1861     1856     1858     1857 
