Origin Time       2025/01/13 21:19:00
Lat.              31.8
Long.             131.6
Depth. (km)       30
Mag.              6.9
Station Code      SMNH16
Station Lat.      35.3422
Station Long.     132.8989
Station Height(m) 46.5
Record Time       2025/01/13 21:20:45
Sampling Freq(Hz) 100Hz
Duration Time(s)  132
Dir.              5
Scale Factor      3920(gal)/6170801
Max. Acc. (gal)   1.210
Last Correction   2025/01/13 21:20:30
Memo.             
[...]
   -1678    -1742    -1806    -1865    -1921    -1966    -2002    -2036 
   -2071    -2119    -2191    -2281    -2379    -2478    -2567    -2644 
   -2708    -2752    -2775    -2785    -2782    -2764    -2723    -2647 
   -2536    -2410    -2278    -2147    -2027    -1916    -1818    -1739 
   -1680    -1645    -1636    -1638    -1642    -1652    -1668    -1689 
   -1720    -1765    -1818    -1879    -1954    -2052    -2178    -2327 
   -2478    -2612    -2731    -2835    -2924    -2992    -3016    -2987 
   -2922    -2837    -2749    -2664    -2576    -2477    -2359    -2232 
   -2104    -1972    -1838    -1708    -1579    -1461    -1366    -1305 
   -1287    -1315    -1380    -1463    -1549    -1637    -1742    -1867 
   -2027    -2229    -2459    -2690    -2899    -3076    -3210    -3296 
   -3335    -3324    -3274    -3195    -3090    -2962    -2807    -2618 
   -2394    -2147    -1897    -1663    -1464    -1306    -1184    -1095 
   -1032     -983     -952     -951     -991    -1081    -1222    -1412 
   -1638    -1886    -2146    -2406    -2651    -2869    -3043    -3162 
   -3223    -3239    -3228    -3204    -3183    -3172    -3155    -3110 
   -3032    -2924    -2789    -2633    -2460    -2273    -2072    -1864 
   -1669    -1500    -1358    -1249    -1183    -1162    -1185    -1254 
   -1361    -1485    -1612    -1740    -1870    -2003    -2137    -2268 
   -2386    -2491    -2582    -2647    -2687    -2707    -2709    -2713 
   -2734    -2769    -2805    -2821    -2800    -2749    -2690    -2637 
   -2593    -2537    -2446    -2314    -2155    -2004    -1889    -1822 
   -1799    -1799    -1803    -1804    -1806    -1810    -1823    -1844 
   -1854    -1846    -1827    -1810    -1828    -1901    -2010    -2121 
   -2217    -2295    -2363    -2443    -2546    -2672    -2812    -2940 
   -3036    -3086    -3083    -3030    -2935    -2805    -2658    -2513 
   -2372    -2248    -2150    -2072    -2005    -1942    -1885    -1834 
   -1790    -1765    -1762    -1773    -1803    -1850    -1891    -1917 
   -1942    -1985    -2060    -2160    -2266    -2356    -2414    -2440 
   -2438    -2417    -2385    -2344    -2300    -2265    -2239    -2224 
   -2222    -2228    -2230    -2228    -2224    -2230    -2250    -2273 
   -2278    -2241    -2152    -2025    -1883    -1747    -1636    -1566 
   -1547    -1579    -1651    -1743    -1842    -1948    -2058    -2175 
   -2295    -2410    -2511    -2595    -2667    -2733    -2800    -2863 
   -2912    -2943    -2946    -2907    -2828    -2720    -2584    -2433 
   -2288    -2159    -2045    -1950    -1867    -1796    -1741    -1704 
   -1680    -1659    -1632    -1600    -1573    -1560    -1567    -1588 
   -1623    -1672    -1743    -1840    -1956    -2074    -2168    -2226 
   -2258    -2281    -2313    -2371    -2452    -2543    -2626    -2685 
   -2705    -2683    -2626    -2551    -2478    -2426    -2396    -2383 
   -2385    -2384    -2370    -2341    -2295    -2242    -2196    -2163 
   -2148    -2154    -2181    -2219    -2253    -2270    -2263    -2245 
   -2238    -2266    -2332    -2421    -2507    -2566    -2589    -2589 
   -2589    -2596    -2614    -2643    -2684    -2740    -2800    -2833 
   -2819    -2754    -2650    -2540    -2452    -2392    -2347    -2291 
   -2204    -2086    -1951    -1828    -1739    -1685    -1658    -1646 
   -1643    -1650    -1674    -1716    -1773    -1838    -1907    -1985 
   -2076    -2184    -2296    -2394    -2469    -2524    -2567    -2609 
   -2652    -2691    -2719    -2732    -2731    -2718    -2693    -2655 
   -2597    -2517    -2422    -2319    -2224    -2139    -2060    -1989 
   -1928    -1877    -1838    -1812    -1809    -1835    -1884    -1943 
   -1993    -2023    -2046    -2079    -2126    -2181    -2230    -2266 
   -2292    -2311    -2326    -2339    -2342    -2329    -2304    -2283 
   -2278    -2282    -2285    -2289    -2293    -2302    -2320    -2337 
   -2344    -2340    -2323    -2290    -2240    -2182    -2130    -2100 
   -2103    -2133    -2172    -2209    -2240    -2251    -2241    -2212 
   -2165    -2119    -2101    -2117    -2157    -2203    -2236    -2243 
   -2231    -2213    -2196    -2184    -2176    -2174    -2188    -2225 
   -2274    -2320    -2353    -2373    -2372    -2362    -2363    -2386 
   -2432    -2499    -2577    -2647    -2694    -2728    -2762    -2808 
   -2866    -2923    -2960    -2963    -2931    -2873    -2790    -2691 
   -2584    -2472    -2370    -2276    -2176    -2063    -1939    -1804 
   -1668    -1548    -1460    -1410    -1405    -1446    -1526    -1629 
   -1733    -1827    -1923    -2027    -2137    -2260    -2395    -2529 
   -2645    -2734    -2787    -2795    -2759    -2689    -2602    -2511 
   -2422    -2337    -2255    -2177    -2109    -2055    -2001    -1932 
   -1846    -1745    -1638    -1541    -1466    -1425    -1429    -1475 
   -1559    -1684    -1845    -2031    -2243    -2467    -2682    -2865 
   -2995    -3068    -3084    -3057    -3005    -2941    -2874    -2804 
   -2722    -2618    -2491    -2363    -2253    -2169    -2098    -2022 
   -1935    -1845    -1757    -1672    -1595    -1519    -1442    -1371 
   -1318    -1289    -1296    -1350    -1443    -1565    -1708    -1854 
   -1990    -2119    -2245    -2372    -2499    -2614    -2712    -2793 
   -2858    -2914    -2966    -3001    -3006    -2971    -2888    -2764 
   -2622    -2489    -2377    -2280    -2188    -2103    -2029    -1974 
   -1944    -1928    -1917    -1908    -1903    -1892    -1870    -1831 
   -1773    -1710    -1665    -1651    -1663    -1696    -1743    -1798 
   -1858    -1922    -1990    -2054    -2116    -2187    -2268    -2353 
   -2435    -2507    -2560    -2582    -2570    -2528    -2459    -2380 
   -2297    -2205    -2098    -1972    -1829    -1684    -1552    -1447 
   -1374    -1338    -1331    -1336    -1352    -1389    -1446    -1524 
   -1622    -1734    -1866    -2028    -2207    -2370    -2496    -2565 
   -2578    -2566    -2559    -2566    -2579    -2579    -2555    -2513 
   -2463    -2412    -2361    -2302    -2229    -2141    -2045    -1954 
   -1876    -1811    -1750    -1681    -1609    -1544    -1507    -1511 
   -1550    -1605    -1654    -1685    -1703    -1723    -1758    -1810 
   -1881    -1968    -2080    -2212    -2345    -2462    -2553    -2600 
   -2601    -2587    -2579    -2573    -2562    -2543    -2507    -2460 
   -2416    -2375    -2327    -2264    -2181    -2087    -2010    -1971 
   -1969    -1995    -2029    -2050    -2056    -2061    -2071    -2090 
   -2114    -2133    -2146    -2157    -2164    -2165    -2160    -2146 
   -2127    -2120    -2136    -2166    -2204    -2252    -2306    -2359 
   -2403    -2437    -2464    -2484    -2492    -2485    -2462    -2419 
   -2350    -2258    -2151    -2037    -1931    -1843    -1772    -1715 
   -1659    -1591    -1514    -1446    -1401    -1393    -1428    -1491 
   -1563    -1633    -1699    -1771    -1864    -1981    -2118    -2258 
   -2383    -2486    -2576    -2656    -2720    -2760    -2763    -2727 
   -2660    -2567    -2457    -2342    -2231    -2128    -2032    -1939 
   -1854    -1778    -1720    -1687    -1673    -1668    -1677    -1698 
   -1732    -1779    -1829    -1875    -1918    -1963    -2023    -2104 
   -2201    -2307    -2400    -2474    -2536    -2591    -2641    -2689 
   -2728    -2756    -2781    -2809    -2839    -2874    -2905    -2915 
   -2901    -2863    -2810    -2754    -2701    -2644    -2577    -2503 
   -2429    -2368    -2323    -2284    -2243    -2191    -2121    -2044 
   -1980    -1933    -1902    -1890    -1895    -1919    -1968    -2031 
   -2092    -2142    -2173    -2191    -2214    -2250    -2305    -2377 
   -2458    -2543    -2627    -2712    -2801    -2890    -2958    -2991 
   -2988    -2950    -2885    -2809    -2730    -2648    -2557    -2450 
   -2333    -2208    -2077    -1946    -1822    -1708    -1616    -1552 
   -1518    -1512    -1521    -1531    -1549    -1587    -1655    -1760 
   -1891    -2039    -2199    -2359    -2505    -2625    -2711    -2767 
   -2806    -2844    -2899    -2965    -3025    -3068    -3087    -3075 
   -3039    -2993    -2948    -2907    -2865    -2810    -2735    -2644 
   -2538    -2423    -2310    -2205    -2117    -2059    -2029    -2014 
   -2014    -2027    -2048    -2078    -2116    -2159    -2205    -2258 
   -2322    -2397    -2486    -2585    -2687    -2788    -2890    -2986 
   -3066    -3124    -3160    -3167    -3134    -3065    -2962    -2834 
   -2697    -2562    -2434    -2309    -2170    -2001    -1807    -1597 
   -1390    -1209    -1067     -970     -923     -919     -947    -1003 
   -1081    -1171    -1267    -1369    -1483    -1615    -1764    -1926 
   -2097    -2268    -2432    -2586    -2726    -2851    -2952    -3014 
   -3034    -3018    -2976    -2911    -2827    -2734    -2644    -2568 
   -2508    -2456    -2397    -2313    -2196    -2052    -1890    -1728 
   -1576    -1434    -1308    -1213    -1161    -1158    -1193    -1248 
   -1318    -1389    -1452    -1523    -1613    -1721    -1842    -1968 
   -2093    -2212    -2321    -2419    -2504    -2582    -2652    -2711 
   -2752    -2770    -2760    -2722    -2656    -2569    -2470    -2375 
   -2297    -2234    -2180    -2126    -2063    -1990    -1912    -1825 
   -1733    -1647    -1580    -1543    -1537    -1550    -1572    -1593 
   -1609    -1629    -1660    -1703    -1767    -1855    -1957    -2070 
   -2189    -2306    -2422    -2531    -2630    -2727    -2817    -2887 
   -2938    -2962    -2957    -2928    -2866    -2766    -2637    -2491 
   -2343    -2203    -2078    -1973    -1879    -1783    -1679    -1574 
   -1486    -1429    -1409    -1424    -1474    -1556    -1658    -1772 
   -1896    -2028    -2169    -2324    -2484    -2644    -2800    -2941 
   -3064    -3169    -3252    -3299    -3303    -3263    -3190    -3110 
   -3035    -2967    -2903    -2827    -2716    -2568    -2401    -2234 
   -2085    -1959    -1843    -1722    -1591    -1467    -1369    -1305 
   -1268    -1243    -1215    -1191    -1185    -1205    -1255    -1321 
   -1387    -1456    -1537    -1637    -1761    -1905    -2054    -2193 
   -2312    -2416    -2501    -2570    -2630    -2687    -2735    -2766 
   -2773    -2751    -2704    -2636    -2548    -2451    -2352    -2248 
   -2144    -2043    -1951    -1880    -1832    -1817    -1834    -1876 
   -1936    -2006    -2076    -2147    -2223    -2309    -2407    -2511 
   -2615    -2711    -2791    -2854    -2895    -2910    -2903    -2869 
   -2814    -2752    -2687    -2621    -2555    -2481    -2396    -2302 
   -2203    -2110    -2034    -1982    -1952    -1938    -1939    -1954 
   -1969    -1976    -1978    -1985    -2006    -2041    -2083    -2126 
   -2162    -2179    -2172    -2149    -2121    -2092    -2067    -2043 
   -2015    -1992    -1976    -1967    -1966    -1965    -1965    -1964 
   -1954    -1933    -1899    -1854    -1815    -1795    -1797    -1819 
   -1855    -1902    -1952    -2006    -2062    -2111    -2155    -2196 
   -2223    -2240    -2259    -2284    -2312    -2336    -2346    -2336 
   -2310    -2283    -2267    -2262    -2266    -2276    -2281    -2276 
   -2265    -2250    -2237    -2230    -2235    -2246    -2249    -2243 
   -2235    -2236    -2266    -2331    -2429    -2555    -2699    -2852 
   -3007    -3157    -3294    -3411    -3509    -3591    -3652    -3689 
   -3701    -3689    -3651    -3583    -3484    -3355    -3197    -3017 
   -2823    -2630    -2440    -2250    -2073    -1915    -1777    -1668 
   -1582    -1515    -1470    -1454    -1470    -1514    -1585    -1676 
   -1773    -1882    -2003    -2126    -2249    -2361    -2442    -2488 
   -2491    -2452    -2392    -2322    -2242    -2150    -2052    -1955 
   -1869    -1803    -1751    -1698    -1641    -1576    -1499    -1417 
   -1338    -1280    -1262    -1284    -1333    -1394    -1460    -1533 
   -1608    -1687    -1768    -1851    -1938    -2031    -2126    -2217 
   -2304    -2377    -2434    -2492    -2551    -2600    -2646    -2696 
   -2753    -2808    -2850    -2872    -2877    -2867    -2845    -2806 
   -2748    -2682    -2615    -2552    -2494    -2441    -2399    -2370 
   -2347    -2327    -2307    -2281    -2249    -2227    -2226    -2244 
   -2280    -2328    -2378    -2429    -2477    -2519    -2569    -2641 
   -2740    -2857    -2984    -3109    -3224    -3330    -3422    -3484 
   -3516    -3520    -3491    -3435    -3355    -3252    -3130    -2993 
   -2843    -2686    -2522    -2355    -2195    -2055    -1945    -1872 
   -1830    -1818    -1839    -1885    -1941    -2007    -2085    -2175 
   -2278    -2376    -2460    -2526    -2557    -2551    -2518    -2462 
   -2396    -2337    -2283    -2220    -2146    -2057    -1951    -1842 
   -1742    -1648    -1558    -1475    -1406    -1361    -1344    -1351 
   -1376    -1417    -1477    -1559    -1663    -1785    -1920    -2070 
   -2227    -2385    -2537    -2679    -2815    -2957    -3117    -3294 
   -3479    -3658    -3815    -3933    -4012    -4049    -4047    -4017 
   -3966    -3901    -3822    -3729    -3627    -3513    -3383    -3230 
   -3054    -2863    -2667    -2473    -2292    -2131    -1992    -1876 
   -1784    -1703    -1629    -1569    -1534    -1529    -1561    -1621 
   -1685    -1747    -1810    -1867    -1920    -1966    -1989    -1987 
   -1960    -1901    -1817    -1722    -1622    -1521    -1425    -1329 
   -1225    -1114    -1003     -900     -807     -716     -622     -525 
    -431     -359     -319     -308     -320     -350     -397     -467 
    -572     -721     -905    -1111    -1325    -1535    -1740    -1940 
   -2135    -2321    -2497    -2661    -2808    -2929    -3024    -3091 
   -3115    -3092    -3023    -2910    -2764    -2600    -2429    -2260 
   -2105    -1982    -1893    -1831    -1788    -1757    -1732    -1716 
   -1711    -1722    -1751    -1798    -1862    -1933    -2012    -2102 
   -2195    -2283    -2364    -2436    -2496    -2539    -2570    -2597 
   -2613    -2613    -2600    -2573    -2534    -2491    -2439    -2376 
   -2300    -2212    -2119    -2030    -1953    -1891    -1834    -1781 
   -1736    -1700    -1680    -1679    -1694    -1727    -1771    -1818 
   -1872    -1933    -1995    -2062    -2131    -2199    -2271    -2355 
   -2444    -2528    -2603    -2661    -2695    -2703    -2685    -2646 
   -2590    -2520    -2443    -2360    -2263    -2154    -2037    -1920 
   -1810    -1706    -1598    -1481    -1354    -1225    -1103     -999 
    -921     -868     -843     -853     -892     -959    -1061    -1202 
   -1377    -1581    -1805    -2033    -2250    -2450    -2634    -2807 
   -2965    -3096    -3192    -3252    -3276    -3266    -3224    -3156 
   -3056    -2918    -2746    -2548    -2333    -2113    -1905    -1724 
   -1580    -1478    -1424    -1413    -1431    -1474    -1536    -1609 
   -1705    -1834    -1991    -2172    -2367    -2568    -2773    -2978 
   -3174    -3347    -3490    -3602    -3678    -3726    -3749    -3749 
   -3727    -3683    -3613    -3513    -3390    -3245    -3079    -2906 
   -2730    -2550    -2378    -2218    -2070    -1938    -1824    -1728 
   -1656    -1614    -1609    -1636    -1691    -1775    -1887    -2020 
   -2178    -2361    -2558    -2757    -2947    -3123    -3282    -3428 
   -3555    -3646    -3701    -3713    -3669    -3577    -3442    -3271 
   -3077    -2866    -2646    -2427    -2218    -2034    -1873    -1728 
   -1608    -1519    -1462    -1444    -1455    -1480    -1529    -1610 
   -1715    -1846    -1994    -2140    -2281    -2426    -2568    -2706 
   -2841    -2959    -3050    -3115    -3151    -3161    -3145    -3104 
   -3040    -2958    -2861    -2751    -2631    -2500    -2362    -2225 
   -2096    -1982    -1888    -1816    -1757    -1710    -1674    -1652 
   -1647    -1662    -1694    -1739    -1791    -1845    -1899    -1950 
   -2001    -2055    -2111    -2173    -2241    -2311    -2383    -2450 
   -2501    -2532    -2543    -2538    -2527    -2512    -2501    -2496 
   -2502    -2520    -2553    -2598    -2651    -2714    -2789    -2867 
   -2945    -3017    -3072    -3109    -3131    -3143    -3146    -3138 
   -3114    -3075    -3023    -2956    -2875    -2783    -2678    -2574 
   -2487    -2417    -2357    -2299    -2237    -2167    -2090    -2008 
   -1926    -1841    -1744    -1633    -1514    -1395    -1287    -1204 
   -1145    -1105    -1082    -1071    -1071    -1087    -1125    -1187 
   -1266    -1357    -1459    -1575    -1708    -1857    -2014    -2177 
   -2341    -2506    -2670    -2826    -2966    -3079    -3160    -3213 
   -3237    -3233    -3204    -3147    -3058    -2943    -2808    -2658 
   -2507    -2360    -2219    -2086    -1972    -1881    -1812    -1772 
   -1749    -1731    -1715    -1698    -1682    -1670    -1662    -1663 
   -1676    -1703    -1747    -1801    -1862    -1929    -1988    -2034 
   -2079    -2124    -2163    -2198    -2229    -2245    -2242    -2223 
   -2186    -2130    -2063    -1988    -1905    -1816    -1725    -1633 
   -1543    -1462    -1394    -1342    -1312    -1301    -1300    -1308 
   -1331    -1366    -1423    -1503    -1602    -1726    -1874    -2038 
   -2216    -2408    -2604    -2790    -2953    -3087    -3189    -3255 
   -3286    -3288    -3262    -3205    -3123    -3018    -2891    -2747 
   -2593    -2434    -2272    -2113    -1962    -1816    -1676    -1548 
   -1434    -1334    -1249    -1181    -1133    -1108    -1108    -1135 
   -1187    -1259    -1351    -1460    -1579    -1703    -1828    -1949 
   -2064    -2169    -2259    -2331    -2383    -2414    -2421    -2400 
   -2352    -2280    -2191    -2091    -1981    -1863    -1745    -1636 
   -1539    -1462    -1407    -1372    -1354    -1349    -1351    -1362 
   -1374    -1383    -1392    -1401    -1413    -1438    -1477    -1521 
   -1557    -1583    -1599    -1604    -1608    -1613    -1611    -1602 
   -1597    -1592    -1590    -1592    -1589    -1580    -1563    -1541 
   -1523    -1514    -1516    -1532    -1564    -1606    -1653    -1708 
   -1772    -1849    -1942    -2045    -2149    -2244    -2329    -2408 
   -2486    -2570    -2662    -2762    -2870    -2990    -3119    -3250 
   -3375    -3487    -3583    -3663    -3728    -3780    -3820    -3851 
   -3878    -3900    -3916    -3925    -3926    -3916    -3896    -3869 
   -3833    -3789    -3742    -3689    -3625    -3550    -3465    -3373 
   -3273    -3169    -3063    -2952    -2832    -2702    -2570    -2441 
   -2319    -2208    -2114    -2037    -1977    -1936    -1913    -1904 
   -1902    -1903    -1910    -1924    -1946    -1982    -2026    -2078 
   -2143    -2213    -2286    -2367    -2445    -2516    -2585    -2643 
   -2691    -2732    -2757    -2759    -2736    -2687    -2617    -2529 
   -2421    -2289    -2135    -1965    -1784    -1604    -1438    -1292 
   -1170    -1072     -999     -958     -956     -989    -1053    -1137 
   -1238    -1356    -1494    -1654    -1830    -2010    -2186    -2347 
   -2489    -2615    -2721    -2796    -2840    -2848    -2817    -2756 
   -2671    -2565    -2438    -2291    -2130    -1955    -1774    -1596 
   -1422    -1256    -1100     -957     -827     -711     -612     -534 
    -483     -469     -496     -559     -660     -795     -958    -1143 
   -1345    -1560    -1783    -2010    -2236    -2461    -2682    -2898 
