Origin Time       2025/01/13 21:19:00
Lat.              31.8
Long.             131.6
Depth. (km)       30
Mag.              6.9
Station Code      SMNH06
Station Lat.      34.8839
Station Long.     132.2026
Station Height(m) 260
Record Time       2025/01/13 21:20:35
Sampling Freq(Hz) 100Hz
Duration Time(s)  157
Dir.              4
Scale Factor      7845(gal)/8223790
Max. Acc. (gal)   1.664
Last Correction   2025/01/13 21:20:35
Memo.             
[...]
    5633     5595     5579     5586     5618     5680     5765     5857 
    5942     6003     6016     5989     5946     5887     5802     5710 
    5629     5549     5475     5421     5373     5320     5274     5242 
    5233     5256     5294     5328     5363     5405     5462     5543 
    5653     5783     5914     6022     6081     6085     6042     5958 
    5863     5782     5730     5721     5746     5791     5845     5904 
    5956     5975     5948     5888     5818     5742     5668     5601 
    5552     5530     5541     5590     5668     5751     5819     5873 
    5902     5888     5838     5769     5682     5587     5503     5440 
    5410     5420     5449     5489     5539     5593     5640     5667 
    5664     5645     5633     5626     5628     5641     5649     5647 
    5640     5633     5628     5648     5714     5815     5938     6085 
    6253     6409     6515     6556     6544     6504     6440     6350 
    6241     6131     6022     5896     5748     5574     5385     5204 
    5051     4928     4828     4754     4726     4753     4810     4870 
    4923     4969     5035     5150     5300     5458     5609     5744 
    5838     5896     5934     5957     5958     5933     5867     5763 
    5638     5516     5405     5309     5233     5189     5188     5215 
    5239     5259     5281     5301     5320     5331     5323     5305 
    5300     5319     5346     5358     5356     5358     5375     5404 
    5435     5459     5479     5495     5506     5509     5518     5540 
    5568     5597     5610     5602     5579     5556     5555     5584 
    5632     5679     5714     5733     5742     5746     5741     5736 
    5738     5748     5764     5791     5823     5863     5925     6003 
    6080     6161     6251     6345     6438     6517     6555     6534 
    6455     6331     6172     5989     5810     5665     5567     5505 
    5460     5416     5360     5302     5266     5262     5293     5363 
    5455     5530     5586     5628     5651     5659     5674     5714 
    5787     5883     5972     6031     6061     6080     6095     6107 
    6115     6123     6124     6108     6068     6012     5948     5877 
    5819     5772     5729     5705     5699     5687     5649     5598 
    5548     5502     5464     5429     5394     5352     5304     5251 
    5208     5174     5142     5111     5084     5065     5046     5028 
    5024     5051     5107     5169     5224     5274     5316     5339 
    5336     5321     5317     5329     5335     5327     5329     5377 
    5478     5611     5748     5884     6012     6118     6201     6270 
    6334     6401     6467     6521     6556     6551     6485     6380 
    6280     6207     6149     6103     6069     6042     6016     5994 
    5971     5937     5883     5814     5751     5706     5690     5698 
    5711     5717     5726     5741     5749     5742     5724     5703 
    5692     5687     5695     5726     5790     5887     6016     6157 
    6289     6394     6458     6470     6438     6378     6300     6211 
    6135     6088     6052     6014     5984     5980     5991     6004 
    6010     5989     5934     5853     5760     5652     5526     5393 
    5281     5201     5150     5120     5119     5151     5215     5289 
    5366     5436     5482     5498     5489     5475     5468     5468 
    5470     5481     5525     5614     5726     5838     5933     6011 
    6084     6146     6174     6154     6091     6002     5898     5786 
    5674     5564     5476     5432     5425     5433     5444     5454 
    5449     5424     5370     5293     5215     5167     5150     5143 
    5151     5182     5235     5301     5366     5418     5464     5512 
    5547     5559     5568     5589     5611     5626     5628     5611 
    5591     5584     5603     5651     5718     5787     5856     5908 
    5925     5898     5834     5726     5575     5405     5244     5103 
    4986     4909     4866     4841     4843     4869     4897     4920 
    4935     4942     4950     4974     5016     5058     5081     5089 
    5084     5076     5100     5178     5310     5472     5632     5763 
    5850     5891     5896     5887     5877     5871     5867     5859 
    5841     5825     5826     5857     5918     5984     6034     6064 
    6070     6056     6033     6014     6007     6011     6029     6050 
    6060     6049     6011     5948     5875     5798     5740     5709 
    5697     5705     5746     5807     5872     5937     5985     5999 
    5980     5933     5864     5787     5694     5576     5454     5344 
    5256     5189     5142     5121     5140     5190     5258     5323 
    5371     5402     5428     5455     5481     5505     5539     5582 
    5638     5706     5779     5861     5946     6011     6031     6011 
    5960     5884     5794     5680     5553     5447     5358     5271 
    5192     5124     5067     5023     4985     4949     4932     4951 
    4997     5047     5094     5132     5158     5173     5181     5181 
    5174     5159     5135     5104     5082     5071     5076     5108 
    5179     5283     5404     5521     5630     5722     5786     5823 
    5856     5884     5892     5863     5796     5703     5599     5502 
    5421     5362     5324     5304     5287     5275     5260     5227 
    5174     5108     5028     4942     4858     4780     4729     4722 
    4766     4851     4958     5076     5197     5301     5378     5433 
    5472     5494     5506     5516     5539     5590     5656     5722 
    5799     5896     6010     6135     6250     6336     6396     6438 
    6454     6453     6446     6446     6466     6505     6531     6531 
    6511     6471     6420     6361     6288     6188     6052     5871 
    5645     5397     5148     4926     4743     4612     4529     4494 
    4503     4545     4604     4679     4757     4830     4895     4959 
    5038     5136     5256     5408     5594     5809     6035     6250 
    6434     6588     6710     6805     6863     6878     6844     6767 
    6658     6531     6404     6303     6234     6189     6165     6165 
    6185     6224     6284     6354     6434     6507     6554     6571 
    6558     6535     6531     6563     6640     6751     6866     6970 
    7056     7119     7153     7168     7171     7149     7092     6997 
    6859     6681     6473     6255     6035     5821     5616     5428 
    5263     5117     4984     4862     4758     4672     4612     4583 
    4580     4598     4631     4677     4727     4777     4828     4880 
    4926     4970     5012     5044     5065     5070     5059     5046 
    5050     5080     5121     5165     5198     5220     5236     5256 
    5286     5320     5356     5404     5476     5571     5663     5738 
    5796     5837     5871     5910     5949     5971     5968     5944 
    5906     5849     5779     5705     5636     5580     5549     5533 
    5522     5516     5520     5533     5557     5598     5656     5722 
    5783     5825     5830     5807     5778     5746     5717     5695 
    5676     5665     5675     5702     5737     5772     5809     5857 
    5913     5962     5998     5998     5957     5898     5834     5765 
    5705     5657     5630     5632     5659     5701     5748     5796 
    5845     5891     5917     5913     5875     5815     5755     5702 
    5652     5606     5567     5544     5549     5576     5613     5660 
    5717     5782     5837     5859     5838     5782     5699     5605 
    5506     5410     5344     5328     5350     5394     5451     5522 
    5606     5695     5784     5868     5929     5956     5944     5894 
    5821     5732     5636     5559     5513     5493     5483     5471 
    5449     5414     5358     5278     5193     5124     5074     5031 
    4982     4946     4931     4922     4916     4924     4957     5016 
    5085     5150     5194     5215     5224     5227     5225     5229 
    5242     5273     5323     5373     5413     5441     5443     5431 
    5424     5420     5412     5401     5387     5371     5351     5325 
    5304     5292     5298     5327     5368     5432     5517     5610 
    5705     5803     5907     6025     6156     6300     6439     6550 
    6632     6705     6771     6824     6864     6893     6913     6939 
    6968     6982     6971     6936     6872     6767     6620     6455 
    6300     6157     6023     5913     5830     5767     5724     5702 
    5695     5692     5694     5707     5730     5760     5803     5845 
    5879     5900     5908     5922     5960     6025     6104     6176 
    6230     6264     6266     6234     6181     6124     6076     6033 
    5988     5940     5891     5845     5796     5746     5702     5660 
    5620     5579     5536     5494     5467     5451     5436     5412 
    5368     5309     5242     5150     5034     4914     4799     4688 
    4581     4475     4375     4295     4236     4190     4158     4141 
    4135     4125     4114     4110     4114     4126     4145     4176 
    4228     4307     4415     4545     4700     4887     5093     5301 
    5494     5649     5759     5821     5833     5811     5778     5730 
    5671     5605     5541     5487     5435     5368     5277     5155 
    5024     4897     4765     4617     4450     4287     4152     4055 
    4010     4025     4097     4228     4409     4625     4869     5123 
    5367     5599     5806     5989     6153     6288     6393     6469 
    6513     6538     6554     6565     6571     6578     6582     6577 
    6554     6502     6419     6300     6142     5949     5738     5539 
    5364     5224     5131     5098     5115     5169     5256     5364 
    5489     5630     5779     5923     6065     6196     6312     6427 
    6538     6625     6686     6718     6727     6718     6708     6694 
    6675     6643     6583     6494     6385     6269     6149     6026 
    5910     5819     5763     5734     5726     5738     5769     5819 
    5888     5957     6011     6048     6061     6046     6011     5957 
    5895     5834     5768     5686     5590     5476     5344     5202 
    5055     4911     4776     4661     4571     4510     4483     4490 
    4529     4590     4668     4768     4889     5032     5190     5364 
    5555     5753     5945     6118     6258     6366     6443     6497 
    6527     6535     6538     6539     6532     6520     6494     6455 
    6411     6363     6327     6309     6296     6285     6280     6272 
    6247     6207     6160     6115     6083     6061     6054     6057 
    6060     6054     6041     6023     6015     6026     6056     6096 
    6139     6178     6207     6219     6222     6226     6230     6232 
    6231     6218     6193     6169     6154     6146     6143     6154 
    6174     6201     6231     6257     6274     6292     6316     6345 
    6370     6380     6363     6331     6292     6239     6170     6087 
    5988     5880     5768     5655     5535     5414     5312     5228 
    5146     5062     4973     4870     4762     4656     4552     4459 
    4392     4360     4357     4378     4423     4494     4576     4665 
    4749     4826     4897     4962     5022     5088     5161     5238 
    5316     5397     5483     5575     5675     5778     5884     5992 
    6091     6168     6224     6259     6265     6237     6187     6108 
    6000     5872     5733     5584     5441     5304     5184     5097 
    5039     4999     4981     4985     4997     5015     5035     5058 
    5094     5143     5198     5260     5324     5377     5421     5463 
    5493     5505     5501     5486     5456     5395     5319     5236 
    5148     5054     4949     4837     4738     4657     4588     4534 
    4500     4476     4450     4415     4368     4301     4221     4147 
    4094     4075     4090     4135     4212     4314     4436     4577 
    4738     4907     5082     5258     5428     5586     5726     5846 
    5950     6041     6115     6176     6226     6273     6318     6355 
    6392     6419     6434     6444     6455     6459     6461     6465 
    6469     6477     6489     6498     6505     6505     6502     6494 
    6481     6457     6421     6388     6365     6351     6343     6338 
    6323     6291     6243     6187     6116     6027     5919     5798 
    5676     5556     5447     5366     5320     5308     5327     5377 
    5445     5517     5587     5651     5709     5768     5826     5869 
    5913     5962     6012     6066     6130     6200     6270     6340 
    6404     6453     6480     6482     6459     6404     6320     6223 
    6120     6012     5911     5819     5741     5684     5649     5630 
    5630     5644     5664     5682     5698     5705     5698     5676 
    5643     5602     5552     5489     5414     5335     5255     5189 
    5150     5140     5162     5205     5265     5333     5406     5478 
    5552     5630     5707     5783     5854     5925     5989     6054 
    6115     6169     6223     6272     6318     6362     6393     6401 
    6386     6351     6309     6262     6207     6149     6095     6042 
    5988     5937     5898     5881     5883     5900     5937     5980 
    6021     6052     6070     6084     6093     6099     6111     6126 
    6134     6139     6143     6142     6137     6119     6087     6058 
    6043     6049     6080     6124     6166     6181     6161     6107 
    6011     5875     5717     5557     5405     5259     5119     4992 
    4878     4770     4673     4577     4475     4375     4282     4191 
    4108     4029     3963     3921     3901     3897     3904     3920 
    3955     4017     4090     4171     4255     4326     4384     4417 
    4417     4390     4340     4282     4237     4212     4213     4247 
    4309     4396     4513     4645     4783     4914     5024     5119 
    5197     5262     5313     5348     5363     5360     5346     5329 
    5317     5306     5297     5285     5266     5239     5202     5159 
    5124     5116     5148     5225     5339     5478     5634     5796 
    5958     6124     6277     6411     6531     6631     6706     6774 
    6826     6866     6906     6944     6968     6982     6980     6957 
    6913     6847     6759     6654     6532     6396     6250     6102 
    5962     5840     5734     5645     5570     5497     5435     5393 
    5363     5340     5332     5333     5346     5373     5409     5451 
    5508     5579     5664     5760     5869     5983     6088     6187 
    6280     6359     6420     6465     6496     6527     6563     6604 
    6648     6685     6706     6708     6675     6617     6539     6453 
    6365     6272     6174     6076     5975     5877     5791     5722 
    5684     5670     5672     5699     5756     5837     5931     6027 
    6123     6207     6265     6296     6297     6269     6215     6151 
    6087     6030     5989     5956     5913     5861     5802     5736 
    5664     5589     5506     5421     5344     5281     5229     5202 
    5205     5228     5273     5339     5413     5495     5591     5697 
    5810     5934     6065     6191     6301     6390     6451     6484 
    6492     6478     6443     6399     6354     6316     6285     6249 
    6204     6153     6093     6022     5929     5814     5684     5551 
    5414     5275     5131     4985     4847     4727     4631     4576 
    4561     4573     4607     4657     4704     4753     4804     4851 
    4895     4926     4938     4931     4908     4873     4835     4799 
    4769     4749     4730     4712     4702     4696     4702     4722 
    4745     4768     4787     4801     4808     4814     4819     4827 
    4855     4907     4963     5020     5076     5109     5121     5121 
    5115     5100     5086     5066     5032     4997     4959     4919 
    4888     4876     4874     4887     4915     4950     4999     5066 
    5151     5251     5367     5501     5637     5771     5903     6015 
    6093     6137     6146     6126     6087     6034     5975     5921 
    5875     5836     5811     5796     5786     5775     5768     5779 
    5805     5845     5913     6007     6120     6249     6378     6502 
    6621     6733     6833     6924     7006     7075     7129     7167 
    7180     7165     7125     7060     6966     6856     6731     6585 
    6427     6268     6107     5953     5814     5694     5605     5549 
    5530     5541     5575     5625     5680     5733     5775     5800 
    5806     5796     5782     5763     5726     5674     5617     5557 
    5501     5452     5418     5401     5398     5400     5406     5420 
    5429     5427     5409     5370     5310     5244     5181     5113 
    5046     4985     4938     4907     4884     4868     4849     4831 
    4816     4795     4758     4720     4672     4608     4545     4490 
    4444     4428     4450     4509     4602     4719     4845     4966 
    5078     5181     5270     5347     5422     5503     5580     5651 
    5710     5753     5786     5814     5841     5864     5888     5910 
    5922     5922     5907     5877     5833     5778     5718     5647 
    5557     5466     5381     5308     5259     5232     5221     5235 
    5269     5316     5374     5439     5505     5568     5629     5684 
    5732     5768     5796     5809     5800     5780     5756     5734 
    5718     5703     5692     5683     5674     5667     5660     5653 
    5652     5655     5664     5683     5707     5738     5772     5810 
    5853     5910     5983     6069     6162     6257     6342     6409 
    6455     6481     6489     6478     6453     6416     6369     6316 
    6258     6192     6115     6030     5945     5861     5782     5715 
    5665     5633     5618     5617     5626     5644     5663     5682 
    5707     5745     5790     5842     5896     5944     5984     6018 
    6041     6042     6026     6002     5972     5941     5911     5879 
    5837     5788     5740     5690     5645     5616     5605     5607 
    5621     5637     5652     5659     5660     5663     5670     5674 
    5675     5686     5707     5732     5756     5778     5799     5821 
    5842     5856     5849     5818     5775     5728     5676     5621 
    5566     5514     5458     5397     5332     5263     5190     5117 
    5051     4992     4935     4885     4855     4838     4826     4830 
    4855     4896     4939     4980     5026     5074     5123     5165 
    5196     5215     5228     5240     5258     5287     5327     5373 
    5421     5475     5532     5582     5628     5672     5711     5748 
    5783     5813     5842     5879     5922     5972     6031     6100 
    6168     6219     6249     6258     6247     6215     6168     6124 
    6083     6046     6027     6023     6041     6081     6135     6203 
    6282     6365     6442     6508     6565     6608     6642     6675 
    6702     6713     6704     6681     6648     6613     6570     6513 
    6448     6384     6307     6204     6081     5946     5807     5667 
    5533     5413     5304     5213     5150     5113     5100     5111 
    5142     5190     5248     5316     5382     5436     5478     5517 
    5555     5589     5616     5632     5632     5616     5586     5537 
    5478     5412     5329     5231     5120     4997     4868     4735 
    4603     4479     4365     4264     4176     4106     4066     4060 
    4087     4148     4244     4368     4510     4661     4827     4997 
