Origin Time       2025/01/13 21:19:00
Lat.              31.8
Long.             131.6
Depth. (km)       30
Mag.              6.9
Station Code      SMNH10
Station Lat.      35.5579
Station Long.     133.3004
Station Height(m) 9
Record Time       2025/01/13 21:20:58
Sampling Freq(Hz) 100Hz
Duration Time(s)  180
Dir.              4
Scale Factor      3920(gal)/6170801
Max. Acc. (gal)   1.080
Last Correction   2025/01/13 21:20:43
Memo.             
[...]
   36682    36686    36705    36720    36733    36746    36762    36792 
   36813    36808    36811    36815    36804    36807    36819    36821 
   36828    36829    36821    36830    36836    36826    36833    36836 
   36824    36825    36817    36795    36782    36760    36729    36721 
   36705    36667    36645    36629    36598    36577    36552    36518 
   36500    36483    36462    36461    36455    36440    36439    36433 
   36426    36437    36433    36422    36428    36422    36413    36424 
   36417    36403    36403    36378    36357    36376    36379    36368 
   36377    36374    36366    36374    36369    36366    36376    36355 
   36325    36322    36301    36264    36249    36244    36242    36240 
   36225    36226    36242    36239    36242    36258    36258    36263 
   36281    36284    36287    36296    36298    36314    36332    36333 
   36345    36367    36373    36380    36392    36391    36396    36402 
   36386    36380    36382    36371    36367    36371    36376    36399 
   36419    36429    36452    36469    36474    36495    36517    36519 
   36527    36540    36545    36557    36566    36566    36578    36594 
   36599    36604    36608    36607    36614    36618    36613    36611 
   36607    36591    36577    36565    36548    36537    36536    36537 
   36540    36543    36548    36565    36583    36590    36601    36617 
   36628    36641    36654    36662    36674    36687    36691    36698 
   36710    36712    36720    36737    36749    36761    36779    36789 
   36800    36814    36818    36829    36849    36864    36880    36896 
   36902    36911    36922    36920    36920    36925    36917    36920 
   36935    36931    36922    36921    36911    36906    36899    36879 
   36871    36869    36852    36841    36837    36822    36821    36828 
   36820    36819    36827    36823    36832    36849    36855    36871 
   36892    36898    36910    36926    36929    36936    36942    36937 
   36943    36950    36944    36951    36955    36942    36939    36933 
   36914    36905    36892    36875    36878    36881    36878    36894 
   36909    36917    36941    36958    36968    36992    37005    37010 
   37030    37037    37033    37044    37042    37034    37043    37039 
   37023    37020    37005    36988    36983    36962    36945    36948 
   36932    36912    36915    36904    36891    36894    36879    36858 
   36853    36839    36830    36839    36835    36828    36831    36822 
   36816    36818    36803    36787    36782    36765    36753    36749 
   36732    36719    36721    36720    36726    36741    36749    36763 
   36787    36803    36825    36852    36867    36889    36914    36919 
   36930    36952    36964    36973    36982    36984    36988    36991 
   36987    36987    36992    36999    37014    37026    37022    37016 
   37011    37001    36998    37003    36999    36991    36980    36965 
   36958    36952    36934    36914    36901    36886    36873    36860 
   36837    36815    36797    36772    36748    36730    36710    36693 
   36678    36651    36621    36590    36554    36526    36498    36453 
   36414    36390    36359    36322    36286    36251    36224    36200 
   36161    36131    36121    36104    36088    36091    36098    36111 
   36130    36144    36161    36186    36201    36211    36232    36252 
   36270    36294    36310    36329    36355    36370    36387    36412 
   36426    36442    36463    36470    36481    36498    36496    36491 
   36489    36472    36462    36460    36440    36425    36418    36398 
   36385    36374    36349    36336    36335    36330    36335    36335 
   36325    36335    36355    36363    36379    36393    36395    36404 
   36411    36409    36425    36444    36458    36497    36528    36540 
   36577    36616    36635    36667    36695    36713    36745    36766 
   36770    36790    36805    36808    36822    36830    36833    36846 
   36840    36823    36821    36809    36795    36806    36811    36802 
   36805    36804    36801    36808    36794    36775    36773    36759 
   36737    36728    36713    36705    36708    36691    36675    36681 
   36679    36680    36699    36706    36711    36724    36729    36749 
   36788    36812    36841    36884    36916    36952    37001    37037 
   37076    37123    37154    37186    37225    37242    37258    37286 
   37301    37318    37342    37346    37351    37363    37356    37348 
   37349    37336    37327    37335    37336    37326    37314    37302 
   37306    37318    37322    37325    37334    37334    37329    37326 
   37313    37296    37286    37276    37260    37246    37232    37214 
   37193    37168    37146    37124    37095    37078    37071    37045 
   37005    36973    36935    36889    36850    36808    36759    36712 
   36664    36617    36576    36535    36495    36459    36415    36378 
   36366    36349    36323    36311    36308    36308    36312    36316 
   36334    36362    36383    36405    36426    36435    36456    36488 
   36504    36523    36552    36556    36556    36570    36572    36570 
   36569    36555    36551    36564    36560    36558    36574    36583 
   36593    36602    36595    36593    36598    36591    36595    36606 
   36597    36590    36586    36572    36573    36574    36557    36557 
   36555    36521    36502    36493    36459    36431    36413    36389 
   36379    36372    36354    36345    36330    36299    36292    36298 
   36293    36300    36307    36300    36308    36319    36319    36331 
   36338    36329    36326    36318    36309    36318    36314    36299 
   36306    36314    36310    36318    36317    36310    36327    36336 
   36331    36343    36350    36348    36365    36381    36394    36421 
   36445    36470    36509    36535    36561    36600    36626    36654 
   36694    36718    36741    36770    36789    36814    36842    36851 
   36861    36877    36875    36873    36883    36872    36855    36847 
   36826    36802    36787    36760    36737    36729    36716    36701 
   36693    36682    36677    36679    36669    36660    36659    36655 
   36657    36664    36664    36673    36692    36705    36724    36754 
   36781    36806    36840    36877    36917    36962    37004    37046 
   37089    37123    37160    37200    37231    37263    37297    37314 
   37324    37333    37326    37317    37315    37299    37272    37251 
   37216    37163    37115    37067    37007    36942    36874    36809 
   36749    36679    36606    36541    36479    36414    36345    36279 
   36225    36172    36114    36069    36032    35981    35940    35920 
   35894    35869    35862    35852    35840    35843    35848    35859 
   35887    35919    35956    36009    36067    36134    36210    36278 
   36352    36435    36507    36585    36677    36756    36835    36924 
   36998    37068    37149    37213    37274    37341    37392    37436 
   37479    37499    37510    37519    37509    37499    37492    37462 
   37428    37403    37360    37321    37294    37240    37185    37150 
   37105    37068    37044    36996    36940    36899    36851    36806 
   36768    36713    36663    36628    36587    36556    36534    36506 
   36491    36483    36470    36475    36484    36480    36495    36514 
   36517    36527    36539    36540    36552    36563    36560    36569 
   36574    36568    36569    36556    36536    36537    36530    36518 
   36526    36527    36520    36535    36544    36548    36570    36592 
   36615    36646    36661    36678    36716    36734    36736    36753 
   36763    36761    36770    36770    36762    36767    36776    36794 
   36821    36830    36842    36877    36904    36923    36945    36962 
   36982    37006    37017    37027    37045    37049    37053    37074 
   37087    37093    37106    37114    37124    37147    37171    37188 
   37205    37225    37244    37258    37267    37281    37302    37314 
   37316    37325    37332    37333    37335    37336    37330    37323 
   37315    37306    37294    37282    37277    37273    37259    37249 
   37251    37248    37240    37235    37225    37215    37215    37213 
   37209    37210    37206    37200    37203    37201    37188    37184 
   37176    37167    37175    37173    37158    37159    37166    37170 
   37179    37173    37156    37152    37148    37138    37134    37124 
   37119    37124    37108    37084    37073    37053    37035    37029 
   37010    36985    36965    36934    36907    36894    36869    36846 
   36837    36815    36794    36792    36786    36780    36785    36779 
   36774    36778    36770    36766    36769    36756    36747    36743 
   36710    36677    36656    36615    36577    36545    36482    36426 
   36386    36323    36262    36204    36125    36064    36021    35968 
   35936    35913    35862    35831    35830    35822    35824    35839 
   35851    35880    35918    35945    35981    36018    36044    36088 
   36133    36161    36204    36240    36254    36283    36311    36319 
   36342    36369    36385    36407    36410    36404    36426    36434 
   36425    36434    36420    36384    36378    36369    36341    36328 
   36300    36259    36246    36228    36193    36180    36166    36134 
   36115    36104    36091    36087    36077    36066    36072    36074 
   36067    36073    36081    36088    36110    36131    36151    36185 
   36215    36239    36265    36288    36314    36341    36349    36357 
   36371    36367    36362    36368    36361    36346    36345    36345 
   36339    36338    36338    36335    36334    36334    36338    36349 
   36356    36362    36374    36384    36395    36405    36404    36410 
   36429    36440    36455    36487    36515    36529    36551    36583 
   36616    36651    36681    36708    36738    36760    36778    36807 
   36829    36842    36860    36870    36867    36867    36861    36843 
   36831    36817    36789    36766    36746    36723    36713    36707 
   36697    36694    36688    36681    36682    36673    36658    36661 
   36669    36672    36683    36682    36668    36667    36668    36669 
   36679    36685    36690    36705    36712    36717    36734    36738 
   36745    36770    36781    36784    36799    36802    36802    36818 
   36822    36823    36836    36832    36828    36841    36839    36839 
   36855    36858    36854    36861    36857    36859    36876    36883 
   36893    36919    36939    36969    37008    37024    37042    37073 
   37091    37113    37135    37131    37140    37155    37129    37103 
   37094    37065    37035    37003    36955    36925    36902    36861 
   36833    36807    36770    36752    36740    36715    36703    36695 
   36683    36687    36687    36681    36701    36721    36723    36741 
   36767    36786    36822    36864    36897    36944    36992    37030 
   37083    37139    37185    37237    37289    37338    37395    37440 
   37476    37521    37558    37586    37621    37644    37658    37681 
   37691    37693    37705    37699    37681    37671    37644    37606 
   37580    37546    37496    37447    37393    37339    37293    37244 
   37193    37153    37116    37073    37037    37005    36974    36946 
   36911    36875    36849    36822    36785    36752    36717    36675 
   36639    36600    36554    36517    36481    36437    36396    36354 
   36307    36263    36220    36175    36144    36122    36094    36071 
   36056    36039    36031    36030    36016    36000    35983    35958 
   35937    35915    35886    35860    35831    35797    35770    35736 
   35694    35661    35627    35588    35563    35537    35504    35488 
   35474    35448    35433    35418    35392    35379    35369    35354 
   35349    35342    35335    35349    35366    35374    35396    35417 
   35431    35461    35488    35509    35545    35576    35600    35645 
   35687    35726    35785    35832    35876    35944    35996    36034 
   36095    36146    36182    36231    36270    36303    36351    36388 
   36417    36459    36492    36526    36573    36607    36646    36703 
   36740    36777    36833    36874    36911    36961    36997    37037 
   37090    37128    37172    37234    37278    37328    37394    37444 
   37501    37568    37619    37677    37744    37788    37837    37897 
   37933    37972    38022    38049    38077    38114    38132    38157 
   38191    38207    38227    38253    38263    38278    38295    38296 
   38301    38303    38288    38283    38279    38257    38237    38217 
   38187    38165    38144    38115    38100    38086    38056    38035 
   38012    37981    37963    37948    37928    37917    37897    37868 
   37854    37836    37806    37781    37753    37720    37696    37667 
   37631    37607    37584    37554    37526    37490    37447    37409 
   37366    37318    37276    37231    37180    37137    37091    37032 
   36980    36937    36890    36848    36810    36774    36745    36713 
   36673    36642    36615    36579    36551    36530    36501    36467 
   36429    36391    36363    36338    36309    36290    36269    36240 
   36219    36206    36185    36166    36159    36150    36143    36139 
   36131    36128    36134    36134    36128    36126    36124    36120 
   36105    36080    36072    36068    36047    36030    36019    35998 
   35977    35957    35932    35912    35889    35849    35812    35781 
   35739    35702    35666    35619    35583    35548    35500    35464 
   35431    35385    35348    35311    35266    35234    35199    35160 
   35138    35109    35073    35053    35029    35005    35005    35009 
   35020    35046    35063    35087    35142    35190    35238    35316 
   35390    35451    35533    35611    35685    35774    35852    35927 
   36024    36107    36179    36262    36335    36410    36496    36565 
   36628    36709    36783    36856    36934    36991    37051    37125 
   37177    37224    37277    37304    37326    37359    37371    37379 
   37391    37378    37362    37359    37341    37320    37301    37262 
   37227    37198    37152    37107    37069    37021    36978    36937 
   36893    36868    36848    36817    36805    36805    36796    36800 
   36811    36817    36836    36859    36868    36889    36911    36921 
   36944    36969    36979    36997    37021    37038    37066    37102 
   37129    37166    37211    37247    37291    37340    37383    37435 
   37481    37511    37553    37593    37611    37630    37648    37653 
   37656    37644    37620    37605    37581    37541    37505    37471 
   37425    37372    37319    37269    37219    37163    37101    37045 
   36991    36933    36884    36841    36796    36758    36726    36697 
   36676    36660    36641    36630    36627    36623    36620    36620 
   36614    36612    36615    36613    36618    36628    36629    36639 
   36658    36671    36689    36710    36730    36763    36799    36824 
   36862    36907    36936    36971    37011    37039    37075    37113 
   37131    37152    37175    37184    37200    37216    37213    37214 
   37212    37197    37193    37184    37151    37128    37106    37061 
   37023    36989    36935    36885    36835    36773    36727    36677 
   36613    36570    36528    36472    36437    36407    36360    36325 
   36296    36264    36245    36220    36188    36179    36163    36135 
   36122    36103    36070    36056    36033    36000    35989    35973 
   35945    35934    35914    35891    35887    35868    35854    35871 
   35873    35868    35887    35896    35906    35935    35955    35976 
   36013    36031    36054    36092    36107    36118    36147    36161 
   36176    36201    36206    36213    36236    36244    36255    36278 
   36283    36287    36306    36315    36333    36359    36367    36384 
   36413    36425    36442    36468    36479    36493    36512    36516 
   36525    36538    36535    36536    36537    36529    36527    36527 
   36517    36511    36506    36499    36504    36509    36511    36526 
   36547    36568    36604    36645    36679    36728    36790    36843 
   36902    36966    37025    37091    37160    37218    37278    37340 
   37393    37450    37503    37537    37572    37608    37624    37631 
   37641    37643    37637    37623    37600    37577    37554    37522 
   37488    37451    37402    37351    37301    37244    37185    37128 
   37070    37016    36959    36893    36838    36792    36738    36692 
   36658    36619    36587    36571    36556    36553    36562    36568 
   36589    36633    36679    36729    36788    36845    36914    36991 
   37060    37133    37216    37293    37369    37451    37523    37596 
   37665    37714    37768    37829    37867    37898    37929    37943 
   37956    37965    37955    37945    37930    37896    37871    37846 
   37800    37766    37738    37690    37652    37622    37578    37545 
   37518    37476    37442    37411    37365    37333    37311    37272 
   37243    37217    37174    37142    37114    37072    37039    37004 
   36958    36923    36879    36823    36781    36736    36681    36636 
   36584    36522    36478    36430    36372    36329    36279    36225 
   36187    36143    36100    36081    36052    36019    36007    35979 
   35940    35922    35899    35870    35848    35811    35773    35746 
   35702    35663    35642    35604    35563    35538    35500    35458 
   35432    35398    35361    35338    35313    35289    35276    35259 
   35251    35257    35257    35261    35275    35286    35304    35332 
   35349    35370    35406    35434    35466    35506    35535    35570 
   35614    35645    35681    35732    35775    35816    35865    35908 
   35957    36010    36048    36087    36132    36163    36194    36232 
   36259    36282    36303    36313    36326    36348    36363    36376 
   36392    36401    36408    36417    36427    36441    36457    36465 
   36480    36502    36514    36523    36542    36557    36575    36598 
   36609    36620    36644    36663    36678    36697    36711    36722 
   36738    36747    36752    36763    36770    36778    36793    36797 
   36792    36796    36799    36798    36803    36801    36799    36808 
   36809    36808    36816    36814    36812    36823    36819    36808 
   36811    36805    36792    36784    36763    36744    36734    36710 
   36688    36681    36662    36641    36626    36602    36582    36566 
   36537    36520    36516    36497    36484    36485    36478    36479 
   36489    36484    36490    36511    36518    36534    36565    36585 
   36612    36645    36668    36711    36762    36800    36853    36911 
   36953    37004    37054    37096    37160    37221    37260    37318 
   37377    37418    37471    37520    37550    37594    37635    37657 
   37695    37724    37734    37754    37767    37764    37764    37752 
   37730    37723    37700    37665    37647    37613    37561    37534 
   37504    37463    37437    37405    37365    37340    37307    37272 
   37261    37246    37227    37231    37226    37215    37220    37212 
   37204    37221    37217    37198    37196    37185    37172    37166 
   37146    37134    37133    37114    37100    37104    37096    37088 
   37084    37064    37042    37027    37000    36977    36962    36938 
   36909    36881    36847    36818    36792    36756    36723    36699 
   36665    36628    36594    36562    36535    36510    36478    36449 
