Origin Time       2025/01/13 21:19:00
Lat.              31.8
Long.             131.6
Depth. (km)       30
Mag.              6.9
Station Code      SMNH03
Station Lat.      35.2243
Station Long.     132.7223
Station Height(m) 9
Record Time       2025/01/13 21:21:29
Sampling Freq(Hz) 100Hz
Duration Time(s)  120
Dir.              2
Scale Factor      2942(gal)/8224139
Max. Acc. (gal)   0.988
Last Correction   2025/01/13 21:21:29
Memo.             
[...]
  180060   180022   179995   179972   179952   179928   179899   179888 
  179874   179847   179818   179776   179740   179726   179702   179671 
  179663   179641   179599   179554   179500   179442   179390   179339 
  179286   179236   179201   179176   179139   179108   179096   179080 
  179062   179047   179028   179018   179011   179001   179003   179003 
  178983   178964   178954   178945   178939   178938   178937   178941 
  178957   178974   178988   179007   179026   179058   179104   179159 
  179224   179277   179324   179394   179459   179514   179585   179656 
  179721   179784   179845   179898   179936   179977   180027   180068 
  180100   180141   180196   180242   180270   180310   180347   180368 
  180382   180393   180401   180415   180415   180403   180396   180381 
  180369   180372   180357   180327   180310   180289   180261   180250 
  180239   180204   180172   180145   180121   180111   180108   180111 
  180125   180135   180137   180130   180115   180096   180080   180068 
  180054   180045   180048   180042   180030   180022   179994   179968 
  179971   179976   179964   179956   179955   179940   179932   179921 
  179891   179869   179853   179825   179806   179788   179748   179697 
  179652   179620   179587   179544   179506   179470   179419   179378 
  179356   179325   179294   179271   179246   179221   179209   179208 
  179203   179185   179170   179162   179151   179142   179136   179130 
  179120   179113   179099   179080   179066   179037   179000   178980 
  178965   178954   178958   178973   178993   179011   179020   179024 
  179037   179049   179050   179057   179062   179059   179062   179057 
  179039   179031   179035   179039   179043   179037   179023   179020 
  179012   178995   178992   179003   179026   179064   179099   179132 
  179172   179189   179193   179212   179232   179246   179247   179236 
  179238   179240   179226   179217   179213   179188   179169   179165 
  179153   179140   179145   179157   179169   179182   179194   179196 
  179204   179215   179204   179199   179208   179208   179204   179199 
  179180   179155   179136   179124   179118   179105   179100   179105 
  179095   179085   179089   179086   179084   179093   179112   179143 
  179186   179239   179286   179321   179361   179400   179417   179432 
  179458   179475   179482   179479   179466   179462   179459   179446 
  179442   179455   179473   179483   179496   179506   179504   179496 
  179497   179509   179516   179508   179512   179537   179551   179548 
  179556   179570   179577   179587   179608   179637   179683   179728 
  179760   179801   179847   179876   179896   179919   179944   179969 
  180000   180040   180084   180126   180158   180181   180208   180242 
  180264   180272   180274   180273   180264   180257   180253   180243 
  180233   180222   180212   180204   180196   180198   180192   180177 
  180176   180176   180164   180148   180125   180098   180079   180057 
  180022   179987   179953   179899   179841   179799   179761   179716 
  179663   179612   179562   179508   179454   179392   179338   179307 
  179278   179251   179221   179186   179162   179142   179108   179070 
  179037   178995   178935   178883   178842   178800   178771   178752 
  178735   178726   178726   178726   178722   178721   178714   178695 
  178684   178683   178679   178672   178665   178659   178660   178656 
  178649   178650   178648   178641   178638   178636   178629   178619 
  178614   178621   178634   178640   178640   178652   178680   178721 
  178760   178787   178815   178850   178879   178910   178958   179011 
  179074   179151   179232   179317   179398   179477   179556   179625 
  179674   179724   179774   179815   179860   179911   179957   179999 
  180048   180099   180133   180148   180160   180172   180177   180177 
  180173   180169   180168   180157   180134   180123   180111   180088 
  180081   180067   180037   180025   180004   179961   179918   179871 
  179810   179755   179709   179660   179605   179547   179481   179409 
  179348   179282   179204   179135   179081   179030   178980   178922 
  178868   178827   178785   178748   178706   178656   178619   178595 
  178563   178526   178491   178444   178401   178370   178335   178306 
  178301   178295   178287   178289   178289   178289   178291   178283 
  178275   178283   178287   178287   178299   178313   178329   178355 
  178374   178393   178416   178424   178437   178457   178468   178488 
  178519   178549   178579   178610   178650   178695   178734   178781 
  178838   178896   178965   179035   179108   179196   179277   179352 
  179442   179533   179628   179736   179834   179932   180044   180144 
  180231   180328   180412   180484   180561   180631   180698   180774 
  180843   180893   180935   180975   181008   181032   181039   181040 
  181041   181039   181041   181035   181009   180978   180943   180901 
  180854   180801   180750   180696   180648   180600   180542   180488 
  180443   180393   180347   180308   180266   180227   180198   180172 
  180148   180125   180102   180087   180073   180052   180033   180018 
  179995   179983   179971   179942   179919   179902   179878   179855 
  179849   179855   179848   179845   179852   179851   179851   179845 
  179824   179814   179813   179802   179802   179810   179809   179813 
  179817   179813   179806   179797   179793   179790   179786   179780 
  179771   179760   179748   179732   179720   179712   179699   179679 
  179660   179640   179608   179562   179502   179435   179361   179271 
  179180   179104   179034   178946   178854   178767   178679   178592 
  178507   178433   178363   178301   178255   178204   178147   178109 
  178078   178043   178017   178006   177997   177985   177978   177969 
  177951   177942   177939   177934   177932   177938   177948   177963 
  177993   178035   178069   178101   178151   178194   178224   178271 
  178345   178406   178436   178467   178501   178524   178534   178548 
  178557   178540   178524   178528   178519   178501   178480   178461 
  178451   178433   178416   178409   178402   178390   178379   178389 
  178407   178425   178460   178507   178556   178611   178671   178734 
  178802   178870   178937   179001   179072   179135   179194   179263 
  179336   179419   179496   179550   179612   179678   179725   179778 
  179830   179860   179905   179948   179964   179990   180014   180015 
  180023   180044   180048   180042   180045   180044   180036   180017 
  179994   179977   179953   179923   179902   179895   179902   179905 
  179905   179915   179928   179925   179930   179956   179977   179990 
  180011   180025   180022   180031   180048   180048   180031   180009 
  179990   179965   179936   179914   179884   179837   179787   179734 
  179682   179626   179568   179516   179477   179425   179370   179335 
  179307   179273   179255   179248   179238   179235   179251   179273 
  179294   179312   179323   179343   179369   179392   179413   179427 
  179447   179481   179500   179497   179508   179540   179570   179582 
  179601   179625   179644   179666   179687   179705   179721   179740 
  179757   179779   179807   179837   179871   179910   179936   179955 
  179984   180002   180014   180040   180063   180076   180090   180103 
  180111   180107   180112   180127   180131   180144   180175   180195 
  180203   180233   180272   180288   180300   180323   180338   180345 
  180353   180354   180343   180330   180318   180292   180272   180260 
  180233   180200   180179   180156   180133   180104   180075   180050 
  180029   180007   179994   179969   179940   179936   179930   179902 
  179883   179871   179851   179833   179818   179805   179805   179809 
  179820   179840   179857   179874   179892   179907   179911   179914 
  179918   179915   179910   179903   179879   179845   179824   179798 
  179763   179730   179697   179664   179640   179614   179589   179559 
  179532   179510   179485   179454   179428   179404   179381   179359 
  179339   179313   179288   179267   179253   179246   179232   179219 
  179223   179226   179213   179204   179201   179186   179161   179140 
  179123   179101   179081   179066   179039   179003   178974   178939 
  178893   178848   178806   178768   178740   178707   178679   178659 
  178637   178614   178595   178588   178595   178599   178599   178610 
  178625   178634   178640   178642   178640   178630   178621   178623 
  178622   178617   178614   178617   178618   178595   178578   178584 
  178575   178549   178533   178528   178519   178513   178519   178537 
  178559   178578   178605   178641   178669   178702   178737   178748 
  178756   178761   178748   178731   178721   178700   178671   178653 
  178638   178611   178579   178548   178513   178476   178448   178425 
  178395   178380   178376   178360   178343   178325   178305   178290 
  178278   178268   178256   178240   178239   178240   178231   178218 
  178216   178209   178205   178227   178244   178244   178263   178295 
  178314   178333   178357   178384   178413   178430   178453   178490 
  178513   178540   178580   178598   178606   178623   178638   178652 
  178680   178710   178731   178746   178775   178814   178843   178868 
  178902   178933   178962   178992   179027   179076   179113   179149 
  179204   179251   179285   179338   179394   179442   179502   179574 
  179644   179718   179799   179869   179928   180002   180076   180134 
  180196   180262   180315   180361   180395   180403   180411   180418 
  180419   180436   180458   180474   180509   180558   180605   180658 
  180717   180775   180836   180902   180964   181009   181041   181068 
  181080   181080   181078   181070   181053   181032   181012   180993 
  180979   180962   180943   180937   180937   180931   180944   180972 
  180995   181029   181071   181105   181143   181182   181214   181253 
  181292   181314   181323   181325   181317   181305   181286   181256 
  181229   181206   181182   181152   181117   181083   181049   181003 
  180951   180901   180839   180760   180686   180615   180535   180451 
  180362   180272   180183   180090   180000   179911   179814   179725 
  179639   179550   179471   179393   179315   179240   179162   179091 
  179026   178960   178902   178854   178815   178783   178752   178719 
  178692   178673   178657   178634   178613   178614   178615   178600 
  178592   178586   178575   178568   178551   178536   178530   178511 
  178491   178479   178448   178407   178375   178344   178309   178276 
  178243   178205   178168   178136   178106   178089   178077   178054 
  178033   178016   177997   177989   177977   177962   177952   177934 
  177913   177909   177915   177913   177915   177934   177959   177978 
  177996   178027   178067   178100   178144   178206   178263   178322 
  178387   178449   178519   178592   178660   178734   178812   178887 
  178966   179051   179138   179231   179311   179378   179443   179502 
  179563   179626   179695   179760   179820   179879   179938   179996 
  180060   180118   180181   180254   180316   180374   180443   180513 
  180582   180646   180704   180752   180793   180833   180879   180918 
  180939   180948   180960   180959   180945   180935   180924   180897 
  180870   180848   180810   180763   180727   180688   180650   180627 
  180604   180593   180597   180597   180613   180647   180667   180681 
  180702   180708   180698   180698   180694   180678   180667   180661 
  180642   180634   180644   180639   180619   180615   180613   180607 
  180604   180604   180608   180621   180625   180620   180623   180625 
  180619   180612   180605   180586   180562   180539   180503   180445 
  180380   180320   180254   180188   180138   180090   180045   180018 
  179987   179953   179907   179849   179811   179772   179703   179633 
  179570   179504   179433   179361   179278   179189   179092   178991 
  178884   178769   178656   178542   178425   178312   178202   178098 
  178000   177903   177823   177763   177707   177641   177579   177539 
  177510   177462   177404   177353   177303   177249   177201   177152 
  177113   177088   177074   177067   177068   177088   177117   177137 
  177171   177219   177267   177323   177391   177465   177550   177637 
  177722   177811   177900   177990   178077   178158   178240   178326 
  178422   178518   178607   178706   178802   178904   179018   179122 
  179232   179355   179463   179568   179680   179790   179891   179987 
  180079   180169   180246   180312   180387   180455   180509   180569 
  180619   180654   180692   180727   180747   180766   180787   180812 
  180833   180858   180882   180898   180917   180947   180971   180991 
  181020   181052   181084   181106   181117   181137   181155   181156 
  181155   181153   181148   181140   181132   181118   181102   181091 
  181071   181041   181017   180981   180935   180898   180864   180831 
  180796   180759   180721   180681   180642   180605   180565   180520 
  180470   180412   180354   180297   180241   180188   180134   180083 
  180041   180004   179960   179913   179876   179844   179798   179745 
  179695   179636   179567   179505   179443   179367   179282   179203 
  179124   179032   178942   178850   178746   178638   178528   178409 
  178297   178190   178078   177963   177854   177749   177638   177535 
  177442   177349   177268   177199   177132   177070   177009   176952 
  176905   176862   176821   176785   176758   176746   176737   176721 
  176721   176740   176756   176791   176844   176890   176939   176999 
  177070   177148   177225   177310   177415   177519   177622   177741 
  177861   177962   178071   178190   178306   178411   178509   178605 
  178698   178783   178864   178939   179004   179066   179127   179178 
  179234   179284   179323   179371   179425   179481   179541   179602 
  179672   179749   179815   179880   179963   180040   180106   180177 
  180261   180346   180407   180453   180507   180549   180577   180611 
  180644   180670   180684   180696   180708   180709   180705   180701 
  180696   180689   180678   180669   180667   180663   180654   180639 
  180619   180608   180601   180588   180577   180576   180566   180559 
  180561   180555   180554   180567   180569   180554   180554   180569 
  180573   180566   180562   180553   180534   180520   180503   180476 
  180449   180418   180369   180314   180260   180199   180133   180072 
  180013   179944   179871   179802   179737   179671   179598   179533 
  179485   179433   179379   179334   179292   179259   179227   179196 
  179176   179150   179118   179093   179066   179038   179020   178999 
  178972   178962   178953   178934   178926   178934   178941   178956 
  178978   179003   179027   179064   179108   179136   179165   179216 
  179267   179311   179363   179415   179456   179506   179554   179594 
  179636   179680   179725   179767   179802   179832   179855   179882 
  179905   179913   179922   179934   179938   179940   179944   179948 
  179948   179955   179969   179983   179988   179999   180015   180029 
  180044   180057   180054   180048   180049   180040   180018   179996 
  179971   179923   179868   179813   179744   179674   179609   179532 
  179456   179379   179292   179209   179134   179055   178984   178912 
  178845   178784   178723   178664   178618   178583   178545   178519 
  178505   178483   178467   178453   178443   178444   178452   178460 
  178470   178491   178519   178548   178586   178632   178676   178726 
  178781   178839   178892   178934   178973   179014   179053   179093 
  179135   179180   179219   179255   179296   179338   179373   179400 
  179429   179466   179490   179513   179548   179574   179595   179624 
  179649   179672   179713   179755   179784   179826   179874   179911 
  179959   180002   180033   180076   180122   180166   180212   180241 
  180264   180297   180310   180301   180297   180281   180238   180189 
  180138   180075   180003   179922   179836   179757   179680   179606 
  179540   179459   179374   179317   179263   179200   179150   179111 
  179068   179047   179042   179020   179001   179001   178993   178977 
  178972   178968   178962   178957   178945   178934   178927   178924 
  178934   178945   178954   178962   178964   178983   179008   179023 
  179054   179097   179127   179159   179205   179253   179300   179342 
  179386   179443   179504   179550   179581   179613   179643   179655 
  179666   179678   179676   179670   179670   179670   179668   179670 
  179656   179644   179637   179621   179601   179570   179525   179481 
  179427   179378   179332   179266   179205   179159   179109   179055 
  178999   178939   178891   178850   178806   178764   178738   178715 
  178692   178677   178676   178686   178700   178717   178740   178769 
  178802   178841   178887   178933   178977   179030   179077   179112 
  179151   179199   179243   179286   179334   179382   179420   179450 
  179493   179533   179564   179604   179647   179691   179741   179786 
  179818   179848   179879   179909   179938   179967   179986   180003 
  180014   180017   180027   180034   180038   180044   180044   180030 
  180022   180033   180042   180038   180042   180053   180049   180044 
  180045   180037   180017   180000   179988   179961   179929   179909 
  179890   179868   179853   179840   179833   179836   179832   179828 
  179830   179833   179840   179851   179857   179869   179888   179895 
  179910   179933   179944   179956   179971   179977   179998   180026 
  180041   180054   180069   180081   180098   180108   180114   180133 
  180156   180168   180175   180184   180198   180212   180220   180225 
  180233   180239   180245   180262   180279   180268   180250   180242 
  180215   180169   180134   180095   180036   179973   179898   179815 
  179749   179672   179572   179478   179396   179312   179220   179120 
  179026   178941   178852   178771   178695   178615   178548   178498 
  178445   178405   178378   178348   178329   178314   178291   178276 
  178275   178270   178260   178267   178289   178302   178320   178347 
  178363   178386   178416   178433   178451   178467   178474   178478 
  178475   178463   178459   178447   178422   178401   178376   178348 
  178320   178294   178271   178247   178232   178218   178206   178208 
  178212   178220   178233   178247   178275   178320   178368   178420 
  178480   178559   178637   178715   178811   178906   178996   179101 
  179207   179312   179410   179506   179617   179724   179814   179895 
  179986   180085   180166   180242   180328   180400   180469   180535 
  180582   180632   180682   180720   180759   180796   180817   180835 
  180855   180871   180883   180891   180900   180905   180905   180914 
  180928   180928   180929   180933   180924   180906   180895   180873 
  180836   180801   180765   180715   180655   180605   180549   180477 
  180411   180343   180268   180195   180121   180042   179965   179892 
  179824   179749   179658   179567   179509   179455   179382   179328 
  179286   179227   179185   179162   179138   179123   179115   179115 
  179127   179136   179153   179180   179204   179231   179254   179270 
  179285   179305   179327   179339   179347   179363   179375   179389 
