Origin Time       2025/01/13 21:19:00
Lat.              31.8
Long.             131.6
Depth. (km)       30
Mag.              6.9
Station Code      SMNH11
Station Lat.      35.4259
Station Long.     132.8008
Station Height(m) 30
Record Time       2025/01/13 21:21:08
Sampling Freq(Hz) 100Hz
Duration Time(s)  149
Dir.              5
Scale Factor      3920(gal)/6170801
Max. Acc. (gal)   0.903
Last Correction   2025/01/13 21:20:53
Memo.             
[...]
  -37871   -37849   -37829   -37810   -37788   -37766   -37751   -37737 
  -37725   -37723   -37726   -37730   -37735   -37737   -37732   -37723 
  -37708   -37691   -37679   -37671   -37665   -37663   -37664   -37664 
  -37661   -37658   -37658   -37655   -37656   -37665   -37679   -37691 
  -37704   -37720   -37739   -37760   -37779   -37795   -37805   -37809 
  -37815   -37826   -37841   -37863   -37890   -37914   -37924   -37922 
  -37913   -37900   -37882   -37867   -37857   -37855   -37865   -37882 
  -37903   -37927   -37952   -37979   -38009   -38038   -38063   -38084 
  -38101   -38113   -38126   -38141   -38160   -38182   -38210   -38239 
  -38264   -38284   -38298   -38305   -38309   -38308   -38297   -38276 
  -38248   -38219   -38195   -38179   -38169   -38159   -38145   -38126 
  -38102   -38079   -38060   -38050   -38044   -38035   -38022   -38003 
  -37981   -37960   -37942   -37928   -37923   -37925   -37927   -37931 
  -37933   -37927   -37919   -37915   -37915   -37918   -37921   -37919 
  -37919   -37919   -37914   -37905   -37898   -37899   -37906   -37915 
  -37926   -37938   -37944   -37945   -37948   -37947   -37939   -37924 
  -37903   -37877   -37852   -37829   -37809   -37798   -37796   -37799 
  -37811   -37833   -37857   -37877   -37890   -37895   -37895   -37887 
  -37870   -37849   -37832   -37829   -37839   -37862   -37892   -37922 
  -37945   -37966   -37987   -38008   -38028   -38045   -38062   -38084 
  -38105   -38123   -38138   -38148   -38150   -38152   -38154   -38154 
  -38150   -38141   -38131   -38119   -38105   -38091   -38073   -38055 
  -38043   -38041   -38042   -38037   -38027   -38012   -37989   -37961 
  -37934   -37913   -37900   -37894   -37895   -37898   -37903   -37904 
  -37902   -37898   -37891   -37882   -37869   -37854   -37843   -37836 
  -37831   -37831   -37836   -37843   -37853   -37867   -37881   -37898 
  -37915   -37930   -37945   -37959   -37967   -37970   -37970   -37966 
  -37961   -37957   -37955   -37950   -37942   -37933   -37922   -37907 
  -37889   -37867   -37842   -37818   -37794   -37772   -37753   -37734 
  -37719   -37712   -37706   -37699   -37693   -37687   -37682   -37676 
  -37668   -37662   -37664   -37675   -37690   -37708   -37732   -37756 
  -37780   -37803   -37820   -37833   -37845   -37852   -37862   -37877 
  -37891   -37898   -37899   -37892   -37876   -37856   -37835   -37822 
  -37819   -37822   -37832   -37849   -37868   -37881   -37887   -37887 
  -37878   -37860   -37838   -37814   -37787   -37760   -37733   -37704 
  -37676   -37653   -37636   -37623   -37614   -37606   -37597   -37587 
  -37575   -37560   -37541   -37522   -37506   -37493   -37486   -37486 
  -37488   -37487   -37488   -37493   -37492   -37486   -37478   -37471 
  -37466   -37468   -37474   -37480   -37487   -37489   -37485   -37481 
  -37475   -37463   -37450   -37435   -37418   -37406   -37397   -37393 
  -37393   -37393   -37396   -37408   -37421   -37434   -37442   -37444 
  -37445   -37446   -37442   -37442   -37454   -37475   -37500   -37530 
  -37566   -37606   -37646   -37688   -37736   -37785   -37833   -37880 
  -37920   -37952   -37981   -38008   -38033   -38057   -38076   -38089 
  -38097   -38099   -38098   -38098   -38103   -38110   -38115   -38124 
  -38135   -38141   -38144   -38149   -38157   -38167   -38171   -38171 
  -38173   -38170   -38162   -38154   -38142   -38125   -38104   -38076 
  -38044   -38013   -37982   -37956   -37938   -37925   -37916   -37911 
  -37907   -37903   -37899   -37897   -37900   -37912   -37928   -37947 
  -37973   -38001   -38027   -38052   -38078   -38106   -38135   -38168 
  -38202   -38234   -38264   -38289   -38308   -38326   -38345   -38367 
  -38393   -38420   -38448   -38476   -38505   -38540   -38577   -38615 
  -38653   -38682   -38702   -38713   -38714   -38704   -38689   -38675 
  -38665   -38662   -38662   -38660   -38656   -38652   -38651   -38650 
  -38643   -38628   -38608   -38583   -38556   -38529   -38502   -38475 
  -38443   -38409   -38373   -38333   -38291   -38247   -38203   -38161 
  -38124   -38092   -38060   -38025   -37988   -37946   -37900   -37857 
  -37819   -37785   -37753   -37720   -37688   -37660   -37634   -37611 
  -37593   -37581   -37580   -37592   -37604   -37617   -37633   -37647 
  -37659   -37675   -37694   -37714   -37737   -37764   -37788   -37807 
  -37821   -37835   -37848   -37863   -37882   -37900   -37909   -37913 
  -37919   -37925   -37929   -37931   -37932   -37933   -37938   -37952 
  -37968   -37987   -38013   -38042   -38076   -38110   -38139   -38163 
  -38185   -38203   -38220   -38232   -38241   -38245   -38242   -38236 
  -38235   -38232   -38222   -38209   -38194   -38180   -38167   -38150 
  -38129   -38103   -38071   -38034   -37994   -37954   -37916   -37878 
  -37840   -37800   -37756   -37707   -37656   -37606   -37555   -37512 
  -37479   -37452   -37430   -37411   -37395   -37381   -37371   -37363 
  -37354   -37342   -37332   -37323   -37312   -37298   -37285   -37274 
  -37264   -37261   -37267   -37276   -37286   -37297   -37303   -37307 
  -37318   -37333   -37348   -37359   -37366   -37372   -37377   -37378 
  -37373   -37365   -37355   -37347   -37344   -37342   -37339   -37338 
  -37342   -37352   -37366   -37384   -37400   -37416   -37436   -37461 
  -37489   -37518   -37549   -37587   -37634   -37687   -37745   -37807 
  -37873   -37940   -38005   -38063   -38115   -38161   -38203   -38239 
  -38269   -38292   -38306   -38314   -38318   -38320   -38327   -38337 
  -38340   -38342   -38344   -38340   -38334   -38330   -38325   -38319 
  -38315   -38310   -38303   -38290   -38275   -38259   -38240   -38223 
  -38209   -38201   -38196   -38193   -38190   -38189   -38192   -38200 
  -38210   -38218   -38226   -38236   -38248   -38260   -38268   -38270 
  -38275   -38286   -38300   -38317   -38337   -38358   -38383   -38414 
  -38452   -38488   -38522   -38560   -38593   -38620   -38648   -38672 
  -38689   -38705   -38722   -38735   -38743   -38745   -38742   -38735 
  -38722   -38704   -38683   -38662   -38641   -38622   -38602   -38581 
  -38555   -38524   -38495   -38466   -38431   -38394   -38357   -38322 
  -38289   -38262   -38242   -38231   -38224   -38219   -38218   -38217 
  -38216   -38219   -38228   -38244   -38264   -38288   -38309   -38323 
  -38333   -38335   -38329   -38322   -38314   -38301   -38285   -38266 
  -38241   -38215   -38187   -38157   -38127   -38095   -38056   -38016 
  -37976   -37941   -37905   -37869   -37836   -37801   -37760   -37719 
  -37676   -37630   -37582   -37535   -37485   -37431   -37376   -37325 
  -37270   -37211   -37155   -37105   -37058   -37016   -36983   -36956 
  -36936   -36923   -36910   -36903   -36900   -36896   -36894   -36901 
  -36909   -36919   -36936   -36959   -36986   -37019   -37054   -37084 
  -37107   -37125   -37136   -37146   -37157   -37168   -37180   -37197 
  -37221   -37246   -37276   -37307   -37334   -37360   -37384   -37404 
  -37421   -37434   -37444   -37458   -37478   -37501   -37529   -37560 
  -37592   -37623   -37653   -37682   -37708   -37730   -37747   -37758 
  -37767   -37781   -37798   -37814   -37830   -37848   -37868   -37888 
  -37908   -37924   -37932   -37936   -37941   -37942   -37934   -37921 
  -37902   -37878   -37851   -37823   -37794   -37760   -37721   -37682 
  -37643   -37604   -37568   -37532   -37497   -37469   -37442   -37414 
  -37388   -37365   -37344   -37328   -37315   -37304   -37295   -37290 
  -37290   -37294   -37300   -37311   -37323   -37337   -37355   -37375 
  -37398   -37422   -37450   -37483   -37518   -37559   -37604   -37651 
  -37698   -37749   -37805   -37860   -37914   -37971   -38029   -38082 
  -38129   -38171   -38206   -38236   -38263   -38289   -38312   -38331 
  -38342   -38343   -38334   -38317   -38296   -38275   -38254   -38231 
  -38207   -38180   -38150   -38118   -38086   -38052   -38016   -37982 
  -37951   -37923   -37895   -37867   -37840   -37808   -37774   -37734 
  -37686   -37638   -37597   -37562   -37536   -37518   -37510   -37512 
  -37521   -37535   -37547   -37553   -37558   -37563   -37574   -37587 
  -37601   -37619   -37643   -37669   -37698   -37732   -37769   -37805 
  -37844   -37890   -37937   -37984   -38028   -38070   -38115   -38160 
  -38205   -38253   -38310   -38371   -38434   -38495   -38548   -38596 
  -38637   -38668   -38689   -38705   -38718   -38731   -38745   -38760 
  -38776   -38795   -38815   -38833   -38846   -38851   -38852   -38848 
  -38848   -38850   -38850   -38849   -38843   -38831   -38815   -38797 
  -38777   -38759   -38742   -38728   -38711   -38688   -38660   -38630 
  -38598   -38565   -38527   -38480   -38428   -38374   -38320   -38264 
  -38210   -38159   -38111   -38060   -38012   -37968   -37927   -37890 
  -37857   -37827   -37802   -37778   -37750   -37720   -37688   -37651 
  -37615   -37585   -37555   -37527   -37506   -37493   -37486   -37487 
  -37489   -37487   -37487   -37493   -37491   -37489   -37498   -37508 
  -37514   -37525   -37537   -37540   -37545   -37552   -37556   -37565 
  -37581   -37593   -37609   -37630   -37640   -37651   -37673   -37690 
  -37708   -37737   -37764   -37794   -37834   -37874   -37912   -37953 
  -37989   -38020   -38051   -38076   -38096   -38119   -38147   -38174 
  -38200   -38227   -38251   -38269   -38288   -38304   -38315   -38322 
  -38328   -38332   -38336   -38339   -38345   -38357   -38368   -38376 
  -38385   -38394   -38408   -38425   -38439   -38451   -38463   -38471 
  -38476   -38477   -38475   -38467   -38450   -38428   -38401   -38366 
  -38327   -38289   -38249   -38201   -38155   -38108   -38054   -37998 
  -37938   -37873   -37810   -37758   -37710   -37663   -37625   -37590 
  -37554   -37529   -37510   -37494   -37488   -37490   -37495   -37505 
  -37518   -37532   -37550   -37571   -37593   -37621   -37656   -37690 
  -37724   -37765   -37805   -37848   -37895   -37938   -37979   -38020 
  -38059   -38093   -38123   -38145   -38161   -38172   -38177   -38176 
  -38170   -38164   -38158   -38152   -38152   -38156   -38161   -38167 
  -38173   -38182   -38196   -38214   -38230   -38247   -38265   -38281 
  -38297   -38309   -38319   -38329   -38339   -38350   -38357   -38359 
  -38359   -38356   -38349   -38340   -38328   -38312   -38292   -38266 
  -38237   -38205   -38171   -38136   -38099   -38058   -38021   -37988 
  -37955   -37926   -37904   -37886   -37869   -37853   -37839   -37830 
  -37827   -37827   -37830   -37833   -37835   -37835   -37833   -37829 
  -37824   -37818   -37815   -37815   -37810   -37797   -37784   -37768 
  -37745   -37719   -37694   -37667   -37638   -37609   -37582   -37556 
  -37535   -37519   -37507   -37496   -37486   -37478   -37474   -37478 
  -37490   -37506   -37525   -37543   -37561   -37579   -37596   -37615 
  -37638   -37660   -37683   -37708   -37732   -37755   -37775   -37793 
  -37814   -37834   -37852   -37867   -37874   -37876   -37879   -37879 
  -37879   -37882   -37891   -37904   -37919   -37934   -37949   -37959 
  -37965   -37966   -37961   -37951   -37940   -37928   -37917   -37903 
  -37886   -37868   -37842   -37808   -37772   -37738   -37701   -37662 
  -37624   -37585   -37546   -37507   -37469   -37432   -37401   -37375 
  -37358   -37347   -37339   -37331   -37324   -37317   -37305   -37295 
  -37283   -37263   -37238   -37211   -37179   -37143   -37108   -37076 
  -37045   -37014   -36983   -36951   -36924   -36903   -36890   -36883 
  -36882   -36884   -36886   -36894   -36907   -36921   -36939   -36965 
  -36994   -37028   -37064   -37098   -37131   -37166   -37204   -37242 
  -37280   -37322   -37364   -37403   -37441   -37477   -37508   -37540 
  -37573   -37604   -37635   -37664   -37688   -37709   -37726   -37741 
  -37759   -37783   -37811   -37841   -37867   -37893   -37921   -37953 
  -37987   -38022   -38057   -38092   -38123   -38148   -38169   -38185 
  -38189   -38190   -38188   -38178   -38161   -38144   -38123   -38094 
  -38067   -38042   -38016   -37992   -37974   -37962   -37958   -37955 
  -37947   -37936   -37928   -37921   -37919   -37923   -37929   -37937 
  -37951   -37972   -37995   -38020   -38046   -38073   -38098   -38118 
  -38135   -38150   -38164   -38176   -38184   -38187   -38183   -38171 
  -38150   -38125   -38098   -38076   -38059   -38042   -38025   -38006 
  -37982   -37954   -37927   -37902   -37873   -37844   -37817   -37792 
  -37769   -37743   -37712   -37682   -37652   -37618   -37582   -37545 
  -37508   -37471   -37436   -37405   -37379   -37361   -37348   -37336 
  -37327   -37320   -37308   -37292   -37277   -37260   -37242   -37226 
  -37211   -37197   -37187   -37183   -37184   -37188   -37196   -37209 
  -37229   -37252   -37281   -37318   -37356   -37397   -37446   -37497 
  -37551   -37613   -37674   -37733   -37791   -37850   -37907   -37960 
  -38007   -38051   -38091   -38122   -38144   -38159   -38166   -38167 
  -38164   -38154   -38140   -38123   -38101   -38074   -38044   -38011 
  -37977   -37945   -37914   -37885   -37857   -37834   -37809   -37777 
  -37745   -37717   -37687   -37658   -37633   -37611   -37592   -37578 
  -37566   -37557   -37552   -37549   -37548   -37550   -37558   -37572 
  -37591   -37617   -37649   -37684   -37724   -37769   -37815   -37868 
  -37928   -37992   -38058   -38131   -38211   -38297   -38381   -38464 
  -38541   -38610   -38675   -38740   -38803   -38862   -38916   -38968 
  -39015   -39057   -39092   -39120   -39145   -39165   -39184   -39207 
  -39231   -39252   -39270   -39287   -39300   -39307   -39309   -39312 
  -39312   -39305   -39292   -39278   -39263   -39242   -39217   -39188 
  -39153   -39115   -39079   -39039   -38993   -38940   -38875   -38801 
  -38724   -38643   -38559   -38475   -38397   -38326   -38259   -38200 
  -38150   -38104   -38067   -38039   -38020   -38011   -38012   -38019 
  -38031   -38049   -38070   -38092   -38118   -38150   -38181   -38214 
  -38251   -38289   -38325   -38360   -38391   -38412   -38424   -38427 
  -38418   -38408   -38398   -38374   -38352   -38334   -38303   -38274 
  -38254   -38220   -38182   -38155   -38114   -38067   -38032   -37995 
  -37943   -37902   -37862   -37811   -37771   -37742   -37705   -37674 
  -37655   -37626   -37600   -37588   -37572   -37560   -37555   -37542 
  -37531   -37530   -37525   -37521   -37529   -37539   -37548   -37571 
  -37608   -37645   -37688   -37741   -37792   -37841   -37895   -37945 
  -37991   -38038   -38076   -38108   -38141   -38164   -38179   -38195 
  -38207   -38214   -38219   -38223   -38220   -38211   -38198   -38179 
  -38158   -38136   -38109   -38078   -38050   -38020   -37977   -37937 
  -37899   -37853   -37806   -37758   -37702   -37651   -37602   -37547 
  -37492   -37446   -37400   -37350   -37307   -37269   -37219   -37177 
  -37147   -37116   -37090   -37070   -37041   -37014   -36994   -36973 
  -36961   -36958   -36955   -36950   -36951   -36954   -36948   -36941 
  -36938   -36931   -36924   -36923   -36919   -36911   -36906   -36898 
  -36890   -36887   -36883   -36881   -36882   -36884   -36894   -36911 
  -36927   -36945   -36967   -36988   -37013   -37043   -37069   -37099 
  -37141   -37183   -37223   -37271   -37324   -37382   -37448   -37517 
  -37580   -37645   -37717   -37783   -37843   -37904   -37961   -38015 
  -38071   -38131   -38190   -38249   -38306   -38362   -38418   -38467 
  -38509   -38549   -38583   -38610   -38634   -38655   -38668   -38678 
  -38688   -38690   -38686   -38686   -38684   -38673   -38663   -38658 
  -38649   -38635   -38619   -38606   -38596   -38583   -38571   -38564 
  -38560   -38562   -38567   -38577   -38592   -38610   -38631   -38657 
  -38687   -38721   -38754   -38787   -38822   -38857   -38890   -38920 
  -38946   -38970   -38989   -39000   -39007   -39009   -39003   -38992 
  -38978   -38959   -38936   -38906   -38872   -38840   -38804   -38762 
  -38717   -38669   -38617   -38561   -38504   -38447   -38390   -38331 
  -38266   -38194   -38118   -38037   -37954   -37872   -37790   -37709 
  -37636   -37565   -37492   -37427   -37372   -37321   -37272   -37226 
  -37181   -37135   -37084   -37031   -36976   -36921   -36873   -36833 
  -36798   -36767   -36743   -36727   -36719   -36717   -36719   -36724 
  -36735   -36748   -36762   -36775   -36790   -36806   -36818   -36825 
  -36833   -36836   -36836   -36841   -36841   -36833   -36828   -36820 
  -36804   -36796   -36792   -36782   -36783   -36790   -36784   -36784 
  -36799   -36801   -36804   -36821   -36826   -36829   -36850   -36875 
  -36897   -36934   -36978   -37017   -37067   -37123   -37174   -37231 
  -37294   -37348   -37402   -37460   -37511   -37556   -37600   -37634 
  -37663   -37694   -37720   -37734   -37747   -37759   -37764   -37768 
  -37772   -37767   -37757   -37747   -37734   -37721   -37711   -37699 
  -37685   -37675   -37668   -37660   -37655   -37655   -37654   -37655 
  -37660   -37668   -37683   -37706   -37731   -37760   -37791   -37824 
  -37860   -37899   -37942   -37984   -38023   -38060   -38094   -38128 
  -38163   -38195   -38224   -38253   -38283   -38317   -38354   -38388 
  -38418   -38445   -38467   -38484   -38501   -38510   -38512   -38514 
  -38519   -38522   -38522   -38523   -38525   -38530   -38537   -38540 
  -38543   -38550   -38557   -38561   -38565   -38568   -38569   -38568 
  -38569   -38572   -38579   -38588   -38601   -38615   -38631   -38647 
  -38659   -38669   -38672   -38668   -38663   -38658   -38650   -38638 
  -38623   -38604   -38580   -38557   -38534   -38508   -38479   -38447 
  -38417   -38385   -38350   -38317   -38283   -38247   -38211   -38176 
  -38139   -38099   -38054   -38010   -37966   -37923   -37880   -37834 
  -37793   -37756   -37715   -37682   -37659   -37636   -37615   -37604 
  -37601   -37600   -37603   -37609   -37618   -37630   -37644   -37665 
  -37696   -37728   -37757   -37789   -37825   -37864   -37904   -37943 
  -37984   -38029   -38079   -38128   -38174   -38218   -38262   -38303 
  -38338   -38373   -38403   -38425   -38440   -38450   -38450   -38438 
  -38422   -38403   -38376   -38343   -38308   -38266   -38217   -38165 
  -38111   -38049   -37982   -37911   -37833   -37754   -37672   -37588 
  -37508   -37428   -37349   -37273   -37202   -37135   -37069   -37006 
  -36954   -36910   -36870   -36840   -36812   -36787   -36770   -36755 
  -36742   -36739   -36743   -36753   -36769   -36790   -36816   -36848 
  -36878   -36905   -36932   -36956   -36977   -36997   -37018   -37039 
  -37062   -37079   -37096   -37117   -37137   -37155   -37179   -37206 
  -37232   -37261   -37297   -37336   -37376   -37421   -37474   -37535 
  -37601   -37667   -37736   -37804   -37867   -37930   -37988   -38037 
  -38081   -38119   -38154   -38194   -38232   -38262   -38294   -38329 
  -38359   -38386   -38409   -38426   -38438   -38448   -38456   -38458 
  -38459   -38461   -38459   -38452   -38442   -38433   -38427   -38417 
  -38401   -38383   -38362   -38342   -38324   -38303   -38284   -38270 
  -38256   -38240   -38225   -38215   -38206   -38198   -38190   -38186 
  -38181   -38172   -38164   -38160   -38156   -38151   -38151   -38157 
  -38164   -38177   -38190   -38203   -38219   -38235   -38250   -38266 
  -38282   -38300   -38322   -38343   -38359   -38375   -38388   -38399 
  -38409   -38413   -38412   -38409   -38402   -38390   -38372   -38350 
