Origin Time       2025/01/13 21:19:00
Lat.              31.8
Long.             131.6
Depth. (km)       30
Mag.              6.9
Station Code      SMNH11
Station Lat.      35.4259
Station Long.     132.8008
Station Height(m) -170
Record Time       2025/01/13 21:21:08
Sampling Freq(Hz) 100Hz
Duration Time(s)  149
Dir.              3
Scale Factor      2940(gal)/6170270
Max. Acc. (gal)   0.595
Last Correction   2025/01/13 21:20:53
Memo.             
[...]
  114167   114165   114161   114156   114151   114147   114141   114137 
  114133   114128   114125   114122   114121   114122   114121   114117 
  114115   114115   114115   114112   114111   114111   114110   114110 
  114114   114118   114123   114128   114131   114134   114139   114146 
  114154   114165   114176   114190   114211   114233   114252   114278 
  114308   114333   114361   114393   114425   114456   114488   114522 
  114557   114594   114633   114672   114712   114751   114791   114831 
  114873   114914   114954   114994   115030   115065   115105   115144 
  115180   115217   115254   115291   115326   115358   115391   115422 
  115451   115479   115504   115529   115555   115578   115599   115621 
  115642   115660   115679   115698   115716   115733   115749   115764 
  115778   115787   115794   115800   115801   115800   115797   115792 
  115789   115788   115779   115770   115763   115753   115741   115732 
  115724   115715   115707   115701   115694   115684   115676   115670 
  115662   115656   115653   115649   115644   115642   115639   115634 
  115629   115623   115616   115606   115599   115594   115584   115575 
  115571   115559   115543   115530   115518   115503   115486   115469 
  115449   115427   115404   115376   115347   115319   115284   115250 
  115218   115178   115138   115104   115066   115023   114982   114943 
  114903   114861   114823   114790   114753   114716   114682   114649 
  114619   114591   114562   114537   114517   114497   114479   114464 
  114449   114433   114419   114411   114405   114398   114394   114393 
  114394   114395   114394   114393   114393   114393   114391   114390 
  114389   114387   114385   114382   114380   114377   114373   114367 
  114361   114354   114344   114332   114321   114308   114292   114275 
  114258   114243   114228   114210   114191   114173   114158   114143 
  114127   114111   114096   114082   114071   114062   114056   114051 
  114046   114042   114037   114035   114033   114029   114023   114020 
  114020   114020   114020   114025   114030   114033   114039   114050 
  114061   114072   114086   114106   114129   114151   114175   114201 
  114228   114258   114287   114314   114343   114374   114401   114430 
  114460   114491   114523   114554   114583   114611   114640   114668 
  114694   114717   114738   114754   114769   114786   114803   114819 
  114833   114846   114859   114872   114884   114894   114903   114913 
  114921   114929   114937   114941   114943   114948   114948   114946 
  114945   114941   114935   114928   114921   114912   114900   114887 
  114873   114858   114841   114825   114808   114788   114768   114750 
  114731   114713   114694   114676   114656   114640   114629   114616 
  114603   114595   114589   114584   114584   114583   114585   114595 
  114607   114617   114632   114650   114670   114692   114714   114737 
  114760   114785   114809   114834   114862   114894   114926   114959 
  114994   115029   115063   115095   115126   115156   115186   115214 
  115237   115260   115283   115306   115328   115344   115358   115371 
  115382   115390   115400   115409   115413   115417   115424   115428 
  115427   115425   115423   115418   115412   115405   115395   115384 
  115373   115362   115346   115326   115309   115290   115266   115242 
  115217   115189   115160   115130   115100   115071   115044   115013 
  114980   114952   114922   114890   114861   114833   114801   114771 
  114744   114717   114693   114669   114645   114625   114606   114590 
  114580   114568   114558   114554   114548   114544   114543   114540 
  114537   114536   114536   114537   114540   114548   114557   114566 
  114577   114587   114595   114606   114619   114632   114645   114658 
  114671   114684   114698   114711   114722   114733   114746   114755 
  114761   114766   114768   114770   114770   114763   114753   114747 
  114738   114727   114719   114710   114700   114690   114679   114667 
  114654   114642   114630   114617   114604   114589   114575   114564 
  114552   114539   114526   114511   114497   114485   114473   114458 
  114446   114433   114418   114403   114389   114376   114359   114345 
  114336   114326   114315   114308   114302   114294   114289   114284 
  114276   114269   114266   114267   114266   114265   114268   114272 
  114275   114282   114292   114303   114316   114332   114352   114375 
  114400   114427   114453   114482   114514   114544   114572   114605 
  114639   114672   114705   114736   114766   114798   114829   114859 
  114887   114912   114935   114957   114974   114990   115006   115017 
  115024   115030   115033   115034   115033   115031   115025   115016 
  115006   114996   114984   114975   114965   114954   114946   114938 
  114927   114920   114915   114906   114896   114888   114881   114872 
  114866   114861   114854   114845   114840   114834   114830   114831 
  114828   114826   114828   114832   114836   114840   114842   114844 
  114850   114855   114858   114860   114864   114868   114868   114870 
  114875   114877   114877   114879   114881   114883   114885   114887 
  114889   114890   114894   114900   114902   114902   114905   114909 
  114910   114913   114917   114917   114915   114916   114918   114923 
  114927   114932   114939   114946   114953   114960   114971   114984 
  114996   115008   115022   115038   115055   115072   115090   115107 
  115125   115144   115162   115180   115199   115217   115233   115249 
  115265   115278   115290   115302   115310   115316   115319   115321 
  115322   115320   115314   115305   115296   115281   115262   115245 
  115226   115202   115175   115149   115121   115088   115055   115021 
  114983   114946   114909   114871   114833   114794   114755   114715 
  114676   114640   114607   114574   114544   114517   114490   114468 
  114448   114427   114409   114393   114379   114367   114357   114349 
  114342   114335   114329   114325   114321   114320   114319   114318 
  114320   114323   114326   114331   114336   114342   114350   114354 
  114356   114360   114367   114375   114383   114393   114405   114414 
  114425   114437   114448   114456   114464   114472   114479   114483 
  114484   114484   114484   114486   114487   114486   114485   114483 
  114479   114480   114478   114468   114458   114454   114449   114441 
  114435   114432   114430   114427   114426   114427   114430   114436 
  114443   114449   114459   114474   114488   114503   114522   114541 
  114563   114586   114610   114635   114655   114673   114694   114713 
  114725   114740   114754   114762   114769   114778   114785   114792 
  114799   114800   114802   114804   114803   114805   114804   114802 
  114802   114800   114795   114789   114783   114777   114771   114763 
  114758   114757   114755   114753   114750   114745   114743   114744 
  114743   114739   114736   114733   114726   114717   114707   114694 
  114680   114666   114651   114634   114617   114600   114585   114566 
  114547   114534   114523   114510   114499   114494   114490   114484 
  114483   114483   114480   114479   114481   114482   114485   114491 
  114500   114507   114514   114524   114533   114545   114557   114568 
  114579   114592   114608   114624   114639   114652   114666   114683 
  114698   114709   114721   114734   114745   114757   114771   114786 
  114802   114818   114833   114851   114870   114891   114914   114938 
  114964   114994   115021   115049   115081   115113   115144   115178 
  115209   115238   115268   115299   115328   115354   115380   115403 
  115423   115441   115457   115467   115473   115478   115482   115482 
  115477   115467   115454   115437   115416   115393   115368   115338 
  115303   115268   115231   115190   115150   115113   115074   115032 
  114991   114953   114917   114883   114850   114819   114791   114767 
  114746   114729   114716   114711   114708   114708   114716   114726 
  114737   114752   114772   114795   114820   114846   114874   114904 
  114938   114970   115001   115035   115071   115106   115143   115179 
  115210   115241   115274   115304   115329   115354   115376   115391 
  115401   115410   115413   115408   115399   115388   115370   115348 
  115323   115291   115255   115219   115177   115129   115081   115033 
  114983   114931   114878   114825   114772   114718   114664   114610 
  114557   114505   114452   114399   114348   114304   114260   114216 
  114177   114142   114109   114077   114050   114026   113999   113975 
  113957   113937   113918   113905   113893   113882   113873   113867 
  113861   113855   113852   113852   113853   113855   113858   113863 
  113870   113880   113890   113902   113918   113936   113955   113974 
  113997   114020   114042   114066   114091   114115   114140   114167 
  114195   114224   114251   114277   114304   114332   114358   114382 
  114408   114435   114460   114484   114510   114535   114558   114582 
  114608   114633   114655   114678   114703   114730   114756   114781 
  114807   114835   114862   114891   114922   114952   114983   115015 
  115042   115071   115102   115129   115153   115178   115200   115221 
  115242   115263   115282   115296   115309   115322   115333   115342 
  115350   115357   115362   115366   115371   115374   115373   115369 
  115365   115361   115355   115347   115337   115324   115311   115298 
  115283   115266   115247   115228   115208   115187   115166   115143 
  115120   115098   115076   115053   115029   115003   114978   114956 
  114935   114914   114894   114874   114856   114842   114825   114807 
  114792   114776   114760   114747   114734   114721   114707   114696 
  114686   114675   114666   114657   114649   114643   114637   114630 
  114625   114620   114615   114610   114605   114601   114598   114594 
  114589   114587   114582   114576   114574   114573   114573   114575 
  114579   114584   114590   114596   114604   114617   114630   114638 
  114648   114664   114679   114691   114706   114721   114736   114752 
  114766   114780   114795   114810   114826   114839   114849   114862 
  114877   114889   114898   114906   114913   114918   114920   114923 
  114921   114913   114905   114894   114882   114872   114858   114837 
  114818   114802   114781   114757   114732   114709   114685   114659 
  114636   114614   114588   114564   114541   114516   114491   114468 
  114446   114421   114397   114375   114352   114325   114302   114279 
  114255   114235   114216   114196   114182   114169   114158   114151 
  114145   114144   114147   114152   114160   114173   114192   114213 
  114232   114256   114289   114325   114359   114393   114433   114476 
  114518   114560   114603   114649   114697   114744   114791   114840 
  114890   114935   114981   115029   115074   115118   115162   115202 
  115237   115271   115304   115335   115365   115391   115414   115439 
  115461   115479   115498   115515   115525   115532   115536   115539 
  115538   115536   115530   115517   115503   115489   115472   115453 
  115432   115410   115387   115365   115344   115322   115298   115274 
  115252   115231   115211   115191   115173   115160   115147   115133 
  115123   115116   115107   115097   115091   115087   115083   115075 
  115070   115067   115064   115058   115050   115043   115037   115025 
  115010   114995   114976   114953   114928   114901   114872   114842 
  114809   114774   114738   114701   114663   114621   114578   114538 
  114498   114457   114419   114381   114342   114305   114270   114239 
  114211   114184   114160   114138   114118   114102   114088   114075 
  114063   114053   114045   114039   114034   114030   114026   114023 
  114024   114028   114031   114033   114036   114041   114046   114050 
  114057   114066   114073   114080   114089   114099   114107   114115 
  114123   114131   114140   114150   114159   114166   114175   114184 
  114194   114207   114219   114228   114237   114248   114258   114267 
  114278   114289   114300   114311   114320   114331   114344   114355 
  114368   114382   114395   114411   114426   114440   114460   114482 
  114498   114516   114542   114565   114588   114616   114645   114674 
  114703   114733   114765   114799   114831   114865   114900   114931 
  114965   115001   115035   115070   115106   115140   115176   115213 
  115246   115277   115310   115342   115374   115406   115436   115465 
  115496   115528   115557   115584   115611   115637   115661   115685 
  115706   115728   115751   115771   115790   115810   115827   115842 
  115858   115873   115887   115901   115913   115924   115936   115943 
  115947   115951   115954   115953   115952   115949   115942   115931 
  115918   115903   115886   115866   115843   115815   115784   115751 
  115713   115672   115630   115587   115541   115495   115447   115398 
  115349   115300   115251   115201   115151   115101   115054   115008 
  114963   114919   114881   114841   114802   114770   114736   114702 
  114673   114647   114620   114592   114567   114543   114520   114497 
  114473   114447   114425   114404   114378   114354   114332   114308 
  114282   114255   114228   114202   114175   114143   114111   114081 
  114048   114017   113987   113955   113924   113890   113858   113829 
  113797   113768   113741   113715   113690   113665   113641   113620 
  113599   113581   113564   113547   113533   113523   113516   113510 
  113506   113506   113505   113507   113515   113524   113535   113550 
  113568   113586   113607   113630   113655   113679   113707   113736 
  113766   113801   113835   113870   113907   113945   113984   114024 
  114066   114107   114148   114190   114233   114276   114319   114362 
  114404   114448   114493   114529   114565   114604   114640   114673 
  114703   114732   114759   114781   114802   114821   114839   114856 
  114869   114877   114885   114890   114894   114896   114895   114894 
  114896   114895   114892   114888   114884   114881   114877   114870 
  114866   114864   114860   114857   114855   114853   114852   114853 
  114853   114855   114860   114869   114878   114887   114899   114915 
  114931   114946   114965   114986   115008   115028   115048   115072 
  115096   115119   115143   115167   115191   115217   115240   115263 
  115287   115308   115329   115351   115373   115392   115411   115430 
  115447   115460   115472   115486   115498   115506   115514   115520 
  115521   115525   115529   115527   115523   115521   115517   115513 
  115505   115495   115485   115474   115458   115442   115428   115411 
  115394   115380   115367   115352   115336   115323   115310   115292 
  115273   115258   115241   115223   115205   115187   115167   115146 
  115125   115101   115079   115056   115027   114998   114972   114944 
  114914   114885   114851   114814   114782   114747   114708   114673 
  114640   114602   114566   114533   114497   114460   114429   114399 
  114365   114334   114310   114286   114262   114241   114223   114205 
  114188   114173   114162   114152   114144   114138   114130   114127 
  114127   114123   114123   114125   114121   114118   114121   114121 
  114116   114113   114111   114107   114101   114094   114087   114082 
  114075   114063   114052   114041   114030   114020   114008   113992 
  113978   113966   113953   113939   113924   113909   113895   113882 
  113869   113857   113846   113835   113822   113813   113806   113800 
  113796   113794   113793   113794   113798   113804   113812   113821 
  113831   113844   113860   113878   113899   113920   113943   113970 
  113999   114031   114067   114102   114139   114178   114220   114265 
  114313   114360   114409   114460   114514   114570   114626   114684 
  114743   114801   114859   114919   114978   115036   115095   115153 
  115209   115266   115320   115373   115425   115475   115521   115565 
  115609   115651   115690   115728   115765   115798   115827   115856 
  115881   115900   115919   115933   115943   115952   115959   115963 
  115965   115961   115955   115946   115935   115922   115908   115890 
  115870   115847   115822   115796   115768   115738   115706   115670 
  115635   115601   115563   115525   115486   115447   115407   115363 
  115320   115280   115235   115190   115149   115108   115062   115019 
  114980   114938   114894   114854   114815   114776   114736   114696 
  114660   114627   114594   114561   114529   114500   114473   114446 
  114421   114398   114377   114356   114334   114316   114299   114281 
  114264   114250   114236   114221   114209   114199   114189   114180 
  114173   114166   114160   114155   114151   114150   114147   114144 
  114144   114142   114142   114144   114143   114142   114144   114144 
  114145   114146   114145   114144   114146   114147   114146   114146 
  114148   114149   114151   114155   114157   114160   114165   114172 
  114180   114189   114198   114209   114224   114242   114262   114282 
  114304   114331   114357   114385   114417   114450   114483   114518 
  114556   114596   114636   114674   114712   114753   114794   114835 
  114876   114918   114960   114999   115036   115072   115107   115140 
  115171   115198   115226   115253   115277   115296   115315   115333 
  115348   115360   115373   115384   115393   115402   115408   115414 
  115419   115423   115428   115431   115432   115433   115435   115437 
  115436   115434   115430   115426   115421   115414   115405   115396 
  115386   115375   115364   115351   115335   115317   115298   115276 
  115254   115231   115206   115180   115152   115123   115095   115066 
  115036   115003   114970   114938   114904   114872   114842   114810 
  114778   114747   114715   114684   114652   114620   114589   114557 
  114527   114496   114466   114437   114407   114378   114353   114328 
  114301   114277   114256   114235   114214   114196   114180   114165 
  114151   114137   114125   114117   114110   114102   114097   114094 
  114091   114092   114094   114093   114094   114100   114106   114110 
  114115   114122   114132   114143   114152   114162   114176   114191 
  114205   114219   114233   114251   114270   114286   114304   114324 
  114341   114360   114380   114399   114417   114436   114456   114474 
  114491   114509   114527   114547   114567   114581   114595   114613 
  114628   114643   114658   114672   114686   114701   114712   114723 
  114735   114744   114756   114767   114777   114790   114801   114810 
  114823   114836   114845   114855   114865   114875   114885   114896 
  114907   114918   114926   114934   114941   114951   114961   114968 
  114976   114985   114991   114997   115004   115009   115011   115016 
  115019   115020   115022   115023   115024   115026   115025   115024 
  115026   115026   115027   115029   115029   115030   115030   115028 
  115026   115024   115021   115020   115020   115019   115018   115018 
  115019   115019   115023   115025   115024   115027   115032   115032 
  115033   115036   115037   115040   115041   115042   115043   115044 
  115047   115049   115049   115050   115052   115052   115051   115050 
  115050   115049   115044   115039   115037   115031   115027   115022 
  115017   115013   115004   114995   114988   114981   114975   114968 
