Origin Time       2025/01/13 21:19:00
Lat.              31.8
Long.             131.6
Depth. (km)       30
Mag.              6.9
Station Code      SMNH11
Station Lat.      35.4259
Station Long.     132.8008
Station Height(m) -170
Record Time       2025/01/13 21:21:08
Sampling Freq(Hz) 100Hz
Duration Time(s)  149
Dir.              2
Scale Factor      2940(gal)/6170270
Max. Acc. (gal)   0.693
Last Correction   2025/01/13 21:20:53
Memo.             
[...]
   70526    70522    70525    70518    70506    70504    70500    70485 
   70478    70472    70452    70440    70434    70413    70396    70391 
   70374    70354    70347    70339    70318    70300    70292    70279 
   70268    70260    70248    70239    70226    70214    70210    70190 
   70166    70155    70136    70109    70090    70067    70037    70013 
   69992    69964    69942    69923    69903    69892    69882    69864 
   69856    69853    69843    69834    69829    69823    69820    69824 
   69826    69825    69830    69837    69837    69836    69839    69832 
   69823    69821    69815    69813    69811    69801    69793    69788 
   69783    69783    69783    69776    69767    69761    69756    69750 
   69738    69723    69712    69701    69687    69674    69654    69628 
   69608    69592    69575    69555    69534    69512    69494    69483 
   69470    69454    69445    69435    69422    69418    69414    69404 
   69395    69387    69376    69374    69376    69368    69358    69362 
   69370    69375    69382    69395    69410    69424    69437    69445 
   69448    69459    69480    69499    69513    69532    69555    69574 
   69595    69620    69645    69670    69692    69713    69736    69758 
   69765    69772    69808    69847    69864    69881    69895    69899 
   69914    69933    69940    69946    69965    69977    69978    69992 
   70001    70000    70011    70025    70038    70046    70047    70050 
   70055    70064    70075    70078    70079    70079    70079    70082 
   70081    70066    70048    70037    70024    70017    70017    69987 
   69955    69949    69933    69907    69895    69883    69870    69860 
   69854    69852    69855    69862    69858    69846    69857    69878 
   69882    69883    69889    69896    69911    69929    69937    69942 
   69955    69970    69982    69991    70000    70009    70019    70036 
   70055    70065    70071    70088    70111    70125    70135    70153 
   70181    70205    70217    70235    70259    70281    70299    70318 
   70347    70378    70396    70420    70448    70463    70474    70492 
   70509    70521    70533    70549    70566    70580    70596    70611 
   70628    70644    70655    70668    70684    70694    70699    70706 
   70708    70706    70711    70714    70710    70709    70702    70693 
   70679    70657    70640    70619    70584    70552    70524    70493 
   70461    70427    70399    70373    70341    70312    70287    70256 
   70235    70222    70200    70177    70155    70130    70110    70093 
   70078    70065    70042    70024    70013    69994    69973    69952 
   69927    69904    69874    69840    69819    69799    69769    69746 
   69725    69698    69683    69667    69645    69633    69620    69605 
   69596    69582    69571    69570    69565    69555    69552    69553 
   69557    69557    69548    69547    69548    69537    69526    69520 
   69507    69494    69483    69468    69456    69448    69428    69408 
   69396    69380    69359    69344    69331    69318    69306    69305 
   69309    69298    69296    69311    69310    69316    69336    69340 
   69352    69374    69378    69389    69407    69411    69417    69432 
   69440    69439    69432    69432    69431    69419    69412    69417 
   69415    69401    69398    69410    69406    69399    69411    69419 
   69415    69420    69434    69449    69458    69468    69492    69517 
   69528    69545    69570    69591    69607    69629    69656    69675 
   69692    69717    69743    69758    69773    69800    69823    69842 
   69867    69886    69899    69919    69942    69958    69978    70008 
   70037    70064    70092    70120    70155    70191    70222    70258 
   70297    70326    70361    70402    70434    70466    70495    70519 
   70553    70591    70620    70646    70679    70712    70733    70751 
   70777    70801    70821    70843    70861    70875    70891    70898 
   70902    70917    70929    70936    70940    70942    70944    70946 
   70945    70937    70931    70932    70924    70907    70894    70883 
   70862    70841    70825    70800    70769    70748    70728    70697 
   70668    70648    70622    70593    70565    70535    70508    70485 
   70463    70437    70407    70380    70365    70348    70325    70308 
   70302    70292    70282    70274    70266    70263    70264    70265 
   70270    70278    70282    70286    70304    70325    70336    70344 
   70358    70375    70391    70404    70413    70418    70422    70427 
   70434    70446    70454    70455    70458    70469    70478    70479 
   70479    70478    70479    70480    70477    70475    70473    70460 
   70450    70452    70449    70435    70421    70410    70390    70363 
   70352    70343    70319    70298    70281    70256    70229    70203 
   70178    70160    70144    70122    70103    70095    70083    70065 
   70053    70045    70040    70038    70031    70023    70020    70018 
   70010    70001    69996    69991    69992    69996    69993    69988 
   69992    70003    70009    70009    70021    70037    70044    70050 
   70059    70065    70075    70097    70108    70108    70114    70117 
   70120    70126    70121    70119    70118    70105    70094    70081 
   70059    70046    70034    70008    69981    69962    69937    69914 
   69886    69850    69825    69800    69763    69735    69712    69683 
   69653    69632    69611    69581    69557    69540    69515    69487 
   69465    69444    69421    69396    69375    69362    69349    69330 
   69311    69301    69289    69276    69268    69266    69265    69256 
   69248    69246    69238    69230    69229    69227    69227    69230 
   69229    69232    69234    69239    69254    69274    69289    69306 
   69330    69351    69374    69410    69438    69458    69486    69516 
   69542    69566    69591    69617    69640    69674    69723    69756 
   69770    69812    69856    69861    69879    69925    69953    69971 
   69995    70018    70047    70076    70096    70114    70136    70154 
   70165    70181    70205    70221    70227    70237    70246    70255 
   70268    70273    70271    70273    70276    70271    70247    70209 
   70198    70228    70255    70255    70238    70213    70203    70197 
   70174    70159    70145    70127    70120    70106    70088    70077 
   70067    70058    70044    70032    70024    70011    70008    70011 
   69998    69985    69983    69969    69948    69934    69914    69889 
   69872    69851    69824    69793    69763    69737    69710    69679 
   69649    69622    69600    69581    69561    69547    69540    69538 
   69542    69543    69544    69557    69577    69595    69618    69646 
   69678    69708    69735    69767    69799    69823    69849    69874 
   69895    69918    69932    69948    69967    69975    69985    69998 
   70005    70012    70021    70028    70028    70027    70034    70029 
   70026    70040    70046    70042    70042    70044    70047    70043 
   70037    70043    70048    70042    70038    70037    70035    70033 
   70032    70024    70011    70001    69995    69983    69966    69948 
   69932    69912    69887    69865    69842    69817    69792    69764 
   69745    69727    69697    69676    69669    69663    69648    69632 
   69638    69644    69628    69630    69652    69657    69661    69680 
   69695    69707    69720    69726    69735    69746    69759    69779 
   69792    69798    69813    69824    69833    69849    69861    69865 
   69866    69867    69867    69867    69874    69876    69878    69891 
   69897    69899    69905    69909    69916    69929    69944    69964 
   69980    69989    70003    70030    70054    70071    70089    70109 
   70130    70149    70160    70172    70189    70206    70220    70235 
   70247    70250    70251    70256    70261    70260    70260    70265 
   70265    70263    70262    70260    70263    70267    70256    70249 
   70250    70248    70248    70243    70241    70242    70231    70226 
   70231    70220    70208    70208    70197    70181    70178    70173 
   70159    70152    70150    70142    70134    70129    70126    70125 
   70127    70137    70146    70147    70158    70173    70179    70191 
   70206    70219    70241    70249    70255    70279    70294    70300 
   70313    70325    70336    70352    70364    70373    70390    70408 
   70422    70440    70467    70492    70511    70540    70579    70611 
   70638    70673    70713    70747    70778    70815    70850    70877 
   70901    70922    70948    70965    70971    70988    71003    71005 
   71009    71004    70992    70986    70979    70964    70949    70935 
   70916    70888    70857    70835    70813    70788    70767    70740 
   70711    70691    70673    70655    70643    70635    70615    70598 
   70593    70581    70566    70549    70532    70521    70504    70479 
   70464    70450    70429    70405    70385    70369    70346    70324 
   70313    70297    70277    70265    70251    70230    70210    70198 
   70194    70192    70180    70164    70156    70141    70126    70121 
   70108    70090    70080    70074    70064    70051    70038    70025 
   70008    70000    69995    69979    69967    69964    69949    69933 
   69928    69914    69898    69894    69890    69880    69871    69871 
   69874    69870    69866    69863    69857    69852    69847    69848 
   69853    69850    69846    69843    69841    69844    69850    69859 
   69864    69868    69875    69879    69888    69902    69915    69931 
   69951    69969    69986    70013    70042    70065    70089    70115 
   70137    70165    70199    70223    70242    70267    70297    70326 
   70354    70381    70402    70429    70463    70489    70505    70523 
   70545    70565    70579    70593    70600    70598    70596    70598 
   70599    70590    70575    70562    70555    70550    70537    70519 
   70508    70502    70498    70493    70482    70475    70470    70470 
   70468    70460    70460    70464    70462    70461    70464    70466 
   70461    70456    70458    70451    70440    70438    70429    70415 
   70406    70390    70375    70366    70357    70348    70330    70313 
   70305    70291    70277    70269    70257    70246    70240    70228 
   70211    70205    70205    70192    70172    70159    70150    70131 
   70111    70100    70075    70036    70014    69991    69945    69906 
   69873    69829    69788    69749    69702    69657    69614    69572 
   69536    69501    69455    69407    69369    69332    69291    69246 
   69200    69156    69124    69093    69038    68978    68944    68932 
   68908    68854    68816    68802    68768    68739    68722    68691 
   68680    68684    68675    68664    68660    68668    68682    68691 
   68699    68719    68742    68755    68778    68807    68823    68849 
   68881    68905    68935    68958    68968    68983    69001    69014 
   69023    69035    69049    69055    69057    69057    69061    69072 
   69079    69077    69081    69101    69119    69130    69145    69168 
   69189    69211    69243    69275    69302    69331    69364    69399 
   69435    69468    69503    69534    69566    69607    69640    69664 
   69698    69733    69757    69779    69803    69828    69858    69885 
   69905    69925    69955    69985    69998    70018    70049    70068 
   70086    70109    70126    70148    70168    70179    70202    70217 
   70216    70222    70232    70234    70234    70232    70226    70220 
   70211    70200    70183    70167    70161    70145    70125    70120 
   70110    70089    70075    70067    70060    70051    70042    70036 
   70028    70021    70018    70017    70015    70012    70010    70013 
   70017    70023    70029    70031    70030    70035    70051    70069 
   70082    70093    70111    70140    70171    70197    70222    70255 
   70293    70334    70375    70413    70455    70498    70539    70579 
   70620    70666    70708    70741    70782    70818    70840    70873 
   70913    70944    70967    70989    71015    71040    71056    71070 
   71088    71107    71120    71136    71150    71152    71158    71166 
   71167    71169    71163    71154    71146    71130    71116    71110 
   71093    71063    71036    71019    70995    70955    70926    70898 
   70857    70826    70797    70755    70714    70674    70633    70594 
   70552    70510    70468    70423    70382    70339    70294    70254 
   70212    70162    70118    70080    70041    70002    69961    69918 
   69880    69854    69821    69776    69739    69709    69674    69636 
   69598    69567    69540    69506    69475    69449    69419    69389 
   69363    69338    69312    69286    69264    69239    69207    69186 
   69164    69133    69112    69100    69076    69046    69024    69005 
   68984    68965    68942    68924    68924    68917    68904    68912 
   68914    68905    68915    68926    68928    68940    68958    68967 
   68970    68984    69001    69009    69022    69045    69068    69085 
   69106    69133    69158    69185    69220    69254    69288    69327 
   69372    69419    69463    69513    69567    69618    69673    69741 
   69812    69877    69940    70006    70078    70152    70218    70285 
   70355    70422    70487    70554    70617    70672    70725    70779 
   70824    70864    70907    70937    70965    71000    71027    71047 
   71062    71082    71124    71165    71172    71188    71232    71248 
   71262    71300    71312    71331    71375    71394    71404    71424 
   71446    71466    71477    71489    71501    71498    71493    71492 
   71483    71465    71446    71423    71393    71368    71341    71301 
   71258    71217    71177    71133    71085    71042    71003    70953 
   70907    70868    70817    70771    70742    70703    70655    70624 
   70602    70569    70533    70507    70486    70463    70439    70418 
   70401    70377    70346    70332    70351    70348    70298    70289 
   70299    70265    70249    70248    70226    70215    70205    70187 
   70171    70158    70150    70138    70120    70108    70100    70091 
   70081    70076    70069    70056    70050    70046    70033    70019 
   70018    70010    69993    69990    69984    69959    69940    69927 
   69907    69883    69856    69829    69804    69776    69742    69707 
   69675    69646    69614    69581    69547    69510    69477    69449 
   69421    69392    69366    69347    69327    69303    69283    69270 
   69265    69259    69246    69237    69233    69229    69230    69234 
   69236    69242    69244    69241    69249    69257    69257    69271 
   69285    69284    69290    69305    69314    69323    69338    69352 
   69368    69386    69396    69395    69385    69389    69433    69472 
   69482    69514    69575    69629    69661    69668    69695    69742 
   69758    69785    69824    69834    69857    69890    69907    69921 
   69937    69956    69969    69973    69983    69989    69986    69986 
   69989    69985    69978    69971    69965    69962    69951    69937 
   69928    69920    69911    69902    69894    69890    69886    69885 
   69884    69878    69880    69881    69877    69881    69883    69878 
   69885    69900    69904    69909    69922    69934    69947    69962 
   69981    70003    70026    70050    70073    70104    70138    70164 
   70197    70239    70272    70305    70346    70386    70431    70476 
   70516    70560    70607    70648    70689    70727    70759    70792 
   70828    70862    70888    70911    70933    70952    70975    70992 
   71001    71013    71025    71025    71026    71029    71029    71028 
   71020    71006    71000    70993    70976    70960    70945    70922 
   70894    70868    70839    70808    70777    70743    70707    70666 
   70632    70597    70546    70506    70473    70425    70384    70351 
   70307    70264    70226    70184    70141    70109    70072    70026 
   69988    69951    69910    69875    69840    69804    69772    69738 
   69712    69692    69668    69646    69627    69608    69593    69581 
   69574    69572    69571    69567    69569    69579    69585    69592 
   69603    69609    69613    69626    69643    69652    69655    69660 
   69666    69668    69666    69659    69654    69651    69639    69629 
   69625    69613    69598    69579    69560    69548    69538    69524 
   69512    69496    69480    69474    69466    69455    69457    69452 
   69440    69444    69449    69444    69447    69459    69466    69468 
   69478    69498    69512    69520    69535    69557    69578    69597 
   69616    69634    69654    69687    69717    69734    69759    69792 
   69815    69842    69874    69897    69920    69944    69966    69995 
   70012    70022    70053    70081    70092    70113    70137    70148 
   70161    70179    70198    70211    70217    70230    70244    70249 
   70257    70264    70269    70279    70279    70272    70271    70272 
   70275    70272    70262    70263    70262    70250    70245    70254 
   70256    70245    70244    70252    70256    70264    70269    70270 
   70277    70288    70299    70309    70320    70335    70350    70361 
   70370    70381    70397    70411    70421    70433    70444    70450 
   70458    70466    70468    70469    70477    70481    70477    70477 
   70479    70469    70459    70461    70460    70447    70429    70418 
   70413    70401    70392    70383    70364    70355    70349    70337 
   70329    70317    70302    70291    70282    70277    70278    70274 
   70268    70264    70255    70249    70246    70234    70231    70235 
   70227    70230    70240    70231    70226    70239    70245    70242 
   70246    70254    70257    70258    70263    70263    70264    70275 
   70277    70275    70285    70293    70287    70285    70290    70291 
   70290    70285    70279    70278    70274    70268    70266    70259 
   70251    70246    70240    70234    70231    70227    70222    70223 
   70221    70214    70219    70225    70218    70217    70220    70222 
   70227    70231    70235    70241    70234    70223    70228    70232 
   70215    70201    70203    70198    70175    70160    70155    70133 
   70114    70107    70085    70059    70048    70031    70003    69981 
   69965    69953    69937    69910    69887    69875    69853    69828 
   69812    69793    69771    69755    69733    69709    69693    69680 
   69668    69656    69638    69624    69620    69615    69603    69595 
   69593    69591    69585    69580    69582    69588    69589    69584 
   69577    69572    69575    69580    69580    69582    69587    69594 
   69601    69608    69613    69618    69623    69629    69637    69647 
   69654    69663    69677    69687    69693    69704    69717    69720 
   69721    69732    69735    69733    69753    69768    69760    69769 
   69784    69778    69784    69795    69792    69794    69801    69800 
   69803    69809    69806    69808    69819    69822    69825    69833 
   69837    69847    69858    69863    69876    69893    69905    69916 
   69927    69948    69973    69983    69995    70015    70031    70049 
   70066    70075    70083    70096    70108    70109    70107    70114 
   70121    70118    70114    70115    70109    70103    70103    70093 
   70082    70078    70062    70044    70038    70036    70030    70021 
   70016    70010    70004    69999    69992    69987    69987    69985 
