Origin Time       2025/01/13 21:19:00
Lat.              31.8
Long.             131.6
Depth. (km)       30
Mag.              6.9
Station Code      SMNH04
Station Lat.      35.0918
Station Long.     132.5308
Station Height(m) 240
Record Time       2025/01/13 21:20:46
Sampling Freq(Hz) 100Hz
Duration Time(s)  134
Dir.              6
Scale Factor      7845(gal)/8223790
Max. Acc. (gal)   0.711
Last Correction   2025/01/13 21:20:46
Memo.             
[...]
   11097    11063    11051    11056    11079    11119    11159    11171 
   11169    11167    11155    11130    11106    11076    11048    11044 
   11053    11061    11076    11094    11091    11074    11053    11025 
   10986    10953    10939    10939    10943    10957    10975    10980 
   10976    10970    10964    10960    10960    10972    10999    11032 
   11070    11105    11110    11091    11067    11047    11044    11057 
   11072    11087    11107    11134    11155    11163    11160    11163 
   11180    11205    11221    11218    11192    11160    11146    11153 
   11175    11200    11221    11229    11226    11217    11200    11168 
   11115    11072    11065    11078    11091    11095    11084    11075 
   11078    11086    11097    11114    11129    11133    11144    11168 
   11195    11213    11213    11194    11187    11215    11256    11286 
   11302    11299    11280    11256    11221    11182    11148    11121 
   11114    11133    11161    11175    11172    11160    11144    11124 
   11111    11105    11095    11092    11092    11095    11106    11118 
   11121    11114    11101    11091    11088    11080    11055    11028 
   11016    11018    11041    11079    11107    11130    11153    11156 
   11134    11106    11091    11109    11138    11153    11156    11149 
   11133    11113    11088    11074    11082    11109    11137    11159 
   11168    11161    11141    11119    11102    11101    11119    11145 
   11180    11227    11267    11284    11296    11317    11326    11318 
   11313    11318    11330    11358    11396    11430    11450    11460 
   11458    11450    11452    11454    11458    11466    11475    11489 
   11518    11538    11539    11516    11477    11438    11416    11403 
   11389    11379    11372    11371    11368    11358    11356    11358 
   11350    11331    11314    11302    11307    11329    11344    11352 
   11360    11354    11330    11310    11304    11298    11287    11276 
   11259    11245    11242    11237    11223    11214    11213    11214 
   11214    11215    11211    11196    11169    11142    11121    11110 
   11102    11101    11105    11106    11105    11111    11117    11111 
   11106    11110    11122    11132    11132    11128    11125    11119 
   11111    11107    11110    11114    11119    11138    11163    11186 
   11207    11221    11232    11248    11273    11306    11349    11389 
   11415    11425    11419    11403    11376    11345    11302    11261 
   11242    11237    11233    11242    11267    11303    11350    11394 
   11407    11396    11376    11345    11306    11279    11272    11276 
   11291    11306    11315    11322    11334    11345    11352    11360 
   11372    11391    11407    11419    11430    11434    11429    11423 
   11430    11437    11437    11435    11449    11473    11497    11512 
   11506    11488    11481    11481    11465    11433    11407    11381 
   11342    11306    11276    11234    11202    11186    11156    11122 
   11110    11109    11113    11126    11138    11145    11137    11115 
   11094    11088    11103    11132    11161    11191    11214    11221 
   11213    11196    11180    11164    11138    11106    11078    11060 
   11048    11041    11051    11070    11082    11080    11059    11009 
   10947    10903    10885    10886    10912    10956    11001    11033 
   11045    11045    11041    11028    11013    11006    10999    10990 
   10995    11020    11047    11070    11091    11103    11101    11095 
   11092    11094    11101    11113    11133    11156    11168    11173 
   11178    11183    11192    11203    11211    11213    11205    11186 
   11157    11132    11111    11103    11099    11097    11105    11118 
   11125    11129    11140    11157    11169    11182    11203    11222 
   11222    11213    11207    11202    11199    11209    11219    11221 
   11207    11179    11140    11101    11072    11060    11067    11094 
   11126    11148    11156    11148    11130    11118    11113    11109 
   11113    11121    11124    11119    11115    11109    11103    11110 
   11124    11136    11151    11169    11186    11195    11203    11213 
   11215    11221    11234    11245    11244    11236    11233    11237 
   11242    11246    11267    11296    11329    11373    11421    11442 
   11446    11443    11431    11426    11438    11442    11442    11457 
   11479    11502    11527    11554    11580    11604    11616    11627 
   11637    11623    11591    11569    11553    11530    11516    11512 
   11508    11502    11492    11477    11457    11437    11421    11414 
   11406    11410    11438    11476    11502    11516    11523    11523 
   11522    11522    11530    11542    11537    11518    11506    11499 
   11496    11500    11511    11523    11531    11524    11510    11497 
   11497    11519    11556    11576    11581    11587    11584    11560 
   11530    11512    11497    11477    11456    11433    11403    11375 
   11356    11335    11307    11276    11254    11238    11226    11225 
   11225    11217    11207    11205    11199    11186    11171    11157 
   11137    11114    11090    11060    11028    11006    10998    10995 
   10990    10984    10982    10980    10980    10982    10978    10976 
   10975    10972    10971    10971    10966    10953    10943    10937 
   10936    10941    10944    10937    10939    10943    10940    10937 
   10935    10924    10908    10898    10887    10871    10859    10852 
   10848    10852    10879    10916    10948    10978    10999    11009 
   11022    11044    11065    11084    11103    11115    11122    11130 
   11125    11109    11106    11117    11132    11151    11165    11175 
   11180    11180    11173    11157    11134    11115    11099    11080 
   11067    11064    11064    11065    11064    11053    11038    11021 
   10999    10975    10936    10891    10858    10828    10802    10786 
   10779    10781    10793    10810    10825    10831    10818    10789 
   10755    10725    10698    10679    10669    10655    10638    10615 
   10588    10569    10563    10573    10598    10628    10663    10705 
   10746    10775    10801    10824    10837    10845    10855    10871 
   10893    10908    10916    10912    10899    10883    10860    10836 
   10829    10837    10852    10879    10921    10968    11026    11094 
   11156    11199    11232    11254    11269    11275    11267    11252 
   11240    11233    11246    11286    11326    11353    11373    11384 
   11384    11388    11400    11414    11437    11475    11518    11556 
   11585    11597    11605    11615    11615    11607    11601    11592 
   11569    11545    11527    11512    11495    11481    11468    11450 
   11433    11415    11398    11377    11356    11331    11311    11300 
   11299    11304    11314    11317    11310    11298    11287    11288 
   11302    11319    11334    11344    11349    11344    11327    11308 
   11298    11300    11321    11358    11398    11423    11439    11443 
   11430    11416    11415    11415    11414    11412    11399    11373 
   11340    11300    11267    11238    11214    11199    11194    11192 
   11198    11210    11222    11225    11223    11221    11221    11222 
   11227    11241    11250    11246    11245    11249    11257    11265 
   11279    11295    11315    11325    11323    11319    11314    11310 
   11306    11299    11291    11288    11284    11277    11269    11254 
   11237    11221    11206    11205    11214    11225    11236    11253 
   11277    11303    11314    11307    11294    11283    11279    11280 
   11280    11281    11284    11291    11296    11295    11288    11279 
   11264    11242    11223    11207    11194    11186    11176    11164 
   11144    11113    11090    11084    11084    11087    11097    11114 
   11125    11126    11125    11115    11099    11087    11083    11082 
   11080    11086    11092    11097    11102    11109    11109    11099 
   11092    11098    11110    11115    11119    11132    11140    11134 
   11130    11128    11114    11095    11078    11056    11032    11009 
   10983    10966    10964    10979    11006    11038    11067    11082 
   11092    11103    11101    11091    11086    11080    11078    11083 
   11091    11107    11133    11155    11168    11176    11182    11196 
   11219    11245    11279    11321    11354    11375    11389    11398 
   11392    11384    11379    11379    11383    11392    11410    11437 
   11468    11499    11524    11542    11550    11554    11566    11583 
   11595    11610    11618    11614    11610    11610    11612    11615 
   11611    11589    11553    11520    11492    11460    11423    11394 
   11367    11345    11333    11321    11310    11295    11276    11267 
   11271    11272    11268    11271    11271    11260    11250    11248 
   11242    11236    11234    11232    11221    11210    11202    11200 
   11214    11240    11265    11283    11298    11310    11310    11295 
   11280    11272    11272    11269    11264    11260    11250    11234 
   11217    11195    11173    11169    11179    11191    11205    11217 
   11230    11242    11246    11244    11244    11245    11254    11273 
   11288    11294    11302    11318    11335    11357    11381    11399 
   11410    11410    11395    11364    11323    11280    11241    11211 
   11186    11155    11128    11111    11088    11063    11038    11017 
   10998    10984    10976    10976    10982    10989    11002    11018 
   11030    11048    11065    11074    11070    11059    11038    11020 
   11009    10991    10960    10932    10922    10928    10936    10939 
   10930    10913    10898    10889    10883    10883    10887    10899 
   10912    10916    10920    10926    10932    10930    10925    10926 
   10937    10947    10951    10956    10963    10979    11005    11033 
   11057    11083    11113    11138    11157    11175    11195    11222 
   11257    11306    11365    11423    11476    11516    11535    11541 
   11545    11550    11557    11557    11550    11538    11520    11504 
   11499    11493    11485    11488    11492    11485    11484    11504 
   11534    11564    11592    11615    11630    11639    11650    11655 
   11657    11664    11664    11657    11646    11626    11605    11591 
   11574    11558    11542    11522    11502    11480    11456    11429 
   11402    11369    11331    11295    11257    11221    11192    11173 
   11167    11173    11182    11187    11188    11180    11168    11157 
   11148    11137    11129    11124    11117    11109    11103    11098 
   11086    11076    11083    11090    11083    11068    11048    11022 
   11001    10994    10998    11006    11013    11017    11007    10987 
   10967    10947    10937    10945    10963    10979    10984    10975 
   10959    10943    10921    10899    10882    10863    10844    10828 
   10818    10806    10795    10795    10805    10816    10825    10833 
   10836    10832    10833    10844    10855    10867    10887    10905 
   10920    10933    10949    10967    10976    10982    10987    10993 
   10997    11003    11005    11002    11002    11003    11007    11013 
   11017    11017    11011    11003    10999    10998    11005    11026 
   11045    11051    11061    11079    11091    11106    11124    11138 
   11151    11163    11175    11187    11203    11230    11265    11300 
   11340    11376    11396    11403    11411    11422    11429    11439 
   11454    11469    11491    11511    11518    11516    11507    11485 
   11457    11430    11407    11385    11364    11337    11304    11276 
   11250    11225    11203    11184    11172    11163    11146    11125 
   11101    11074    11055    11045    11040    11041    11048    11060 
   11075    11097    11121    11151    11186    11225    11263    11296 
   11326    11354    11377    11402    11433    11462    11499    11539 
   11572    11592    11605    11607    11600    11596    11593    11595 
   11601    11618    11641    11658    11669    11674    11670    11665 
   11666    11672    11678    11688    11700    11703    11688    11664 
   11634    11601    11569    11534    11503    11479    11464    11457 
   11452    11439    11414    11377    11331    11284    11244    11203 
   11159    11115    11074    11026    10987    10955    10921    10886 
   10855    10822    10781    10732    10678    10628    10592    10567 
   10557    10559    10569    10569    10555    10539    10524    10504 
   10484    10478    10485    10498    10520    10539    10555    10577 
   10605    10629    10660    10700    10739    10777    10817    10852 
   10886    10918    10949    10990    11037    11078    11115    11152 
   11180    11205    11219    11225    11223    11222    11223    11225 
   11221    11219    11223    11226    11229    11236    11248    11267 
   11288    11308    11326    11337    11338    11335    11329    11318 
   11314    11313    11304    11296    11296    11300    11306    11315 
   11333    11353    11383    11423    11468    11507    11541    11566 
   11583    11592    11597    11604    11605    11608    11622    11638 
   11653    11676    11703    11723    11739    11746    11750    11753 
   11754    11759    11767    11774    11784    11797    11809    11819 
   11827    11828    11823    11811    11792    11767    11742    11716 
   11688    11658    11628    11592    11543    11489    11431    11373 
   11317    11267    11226    11184    11140    11095    11051    10999 
   10939    10878    10821    10768    10714    10663    10613    10562 
   10512    10476    10459    10462    10478    10505    10532    10551 
   10561    10571    10578    10582    10588    10598    10617    10642 
   10671    10708    10737    10764    10795    10833    10874    10913 
   10952    10995    11033    11064    11094    11122    11144    11165 
   11194    11226    11263    11308    11354    11391    11407    11410 
   11408    11400    11388    11381    11377    11377    11383    11389 
   11392    11383    11367    11350    11327    11295    11261    11233 
   11210    11190    11168    11145    11113    11070    11028    10997 
   10971    10948    10932    10914    10890    10868    10848    10827 
   10808    10805    10822    10848    10879    10917    10953    10980 
   11005    11036    11071    11107    11145    11180    11219    11259 
   11295    11325    11344    11353    11354    11352    11353    11357 
   11367    11394    11426    11458    11502    11545    11584    11624 
   11662    11693    11722    11742    11753    11759    11765    11766 
   11761    11755    11749    11739    11732    11726    11724    11730 
   11732    11732    11730    11730    11734    11739    11740    11736 
   11722    11699    11672    11645    11616    11592    11570    11539 
   11502    11460    11414    11365    11327    11295    11271    11252 
   11232    11210    11187    11163    11138    11113    11092    11072 
   11053    11040    11033    11037    11051    11067    11091    11115 
   11133    11145    11157    11168    11180    11186    11182    11171 
   11160    11152    11142    11134    11133    11133    11136    11142 
   11151    11153    11156    11156    11146    11137    11125    11107 
   11092    11079    11061    11047    11028    10995    10955    10918 
   10889    10868    10858    10854    10855    10859    10854    10845 
   10845    10852    10863    10879    10891    10899    10909    10913 
   10906    10901    10903    10916    10937    10970    11010    11053 
   11101    11144    11184    11222    11254    11281    11302    11323 
   11346    11368    11392    11421    11445    11464    11475    11476 
   11475    11465    11445    11419    11392    11372    11361    11353 
   11352    11357    11354    11345    11337    11322    11298    11267 
   11229    11188    11151    11119    11088    11059    11041    11026 
   11011    11007    11010    11017    11028    11044    11065    11094 
   11126    11159    11187    11209    11221    11229    11242    11259 
   11272    11286    11298    11303    11308    11318    11333    11353 
   11377    11404    11430    11454    11475    11484    11487    11488 
   11489    11493    11500    11507    11504    11493    11480    11460 
   11437    11412    11383    11353    11327    11303    11283    11271 
   11265    11256    11242    11226    11205    11179    11156    11134 
   11115    11101    11084    11064    11038    11010    10982    10947 
   10905    10870    10843    10821    10816    10820    10822    10828 
   10844    10868    10895    10932    10976    11024    11071    11109 
   11140    11168    11194    11211    11229    11253    11275    11296 
   11319    11338    11349    11354    11362    11375    11383    11389 
   11403    11421    11431    11443    11462    11479    11489    11499 
   11499    11487    11472    11458    11448    11441    11435    11430 
   11425    11412    11398    11379    11353    11325    11302    11277 
   11246    11213    11186    11157    11126    11102    11082    11061 
   11037    11010    10983    10959    10941    10925    10913    10903 
   10899    10903    10908    10913    10925    10935    10936    10939 
   10941    10948    10959    10975    10990    11009    11032    11047 
   11055    11057    11053    11047    11045    11045    11051    11063 
   11071    11074    11074    11065    11060    11055    11043    11030 
   11022    11011    11001    10997    10989    10983    10982    10986 
   10991    10998    11007    11016    11018    11021    11022    11020 
   11016    11013    11017    11024    11026    11028    11030    11032 
   11034    11043    11052    11064    11080    11099    11113    11122 
   11133    11140    11144    11151    11157    11168    11186    11210 
   11236    11263    11288    11313    11333    11350    11373    11400 
   11430    11466    11506    11539    11566    11591    11612    11631 
   11649    11664    11682    11701    11712    11712    11709    11700 
   11677    11655    11637    11614    11596    11577    11556    11534 
   11508    11476    11445    11416    11391    11368    11344    11322 
   11307    11291    11268    11245    11225    11206    11184    11167 
   11153    11144    11137    11133    11129    11126    11117    11097 
   11072    11048    11025    11007    10999    10995    10994    10999 
   11007    11018    11030    11041    11048    11051    11048    11038 
   11030    11034    11041    11053    11070    11084    11094    11101 
   11107    11113    11117    11121    11124    11128    11133    11134 
   11126    11118    11110    11101    11090    11075    11059    11040 
   11017    11001    10990    10980    10979    10984    10984    10978 
   10972    10971    10967    10957    10953    10959    10966    10972 
   10987    10998    11002    11005    11009    11011    11017    11026 
   11036    11047    11060    11078    11097    11118    11142    11168 
   11200    11237    11277    11318    11360    11400    11442    11479 
   11518    11568    11619    11664    11705    11742    11767    11786 
   11793    11790    11784    11778    11772    11759    11743    11723 
   11701    11680    11658    11635    11616    11596    11568    11543 
   11529    11518    11510    11508    11506    11496    11480    11457 
   11422    11383    11340    11299    11260    11221    11182    11151 
   11125    11103    11084    11065    11049    11041    11036    11025 
