Origin Time       2025/01/13 21:19:00
Lat.              31.8
Long.             131.6
Depth. (km)       30
Mag.              6.9
Station Code      SMNH16
Station Lat.      35.3422
Station Long.     132.8989
Station Height(m) -53.5
Record Time       2025/01/13 21:20:45
Sampling Freq(Hz) 100Hz
Duration Time(s)  132
Dir.              3
Scale Factor      2940(gal)/6170270
Max. Acc. (gal)   0.350
Last Correction   2025/01/13 21:20:30
Memo.             
[...]
   26259    26258    26256    26252    26246    26238    26231    26225 
   26217    26209    26203    26196    26191    26185    26181    26182 
   26181    26182    26188    26191    26187    26177    26167    26156 
   26144    26132    26116    26098    26084    26071    26061    26053 
   26040    26027    26019    26010    26002    25997    25992    25989 
   25989    25989    25985    25978    25976    25976    25975    25975 
   25973    25968    25966    25967    25970    25973    25976    25978 
   25977    25973    25969    25968    25969    25974    25983    25991 
   25998    26002    26005    26009    26015    26021    26025    26027 
   26025    26019    26008    25993    25977    25964    25950    25934 
   25919    25906    25893    25882    25876    25872    25870    25873 
   25878    25882    25887    25894    25901    25909    25919    25927 
   25935    25948    25958    25964    25972    25981    25988    25993 
   25997    25997    25994    25992    25988    25983    25975    25965 
   25953    25941    25934    25929    25923    25921    25925    25930 
   25936    25945    25953    25962    25975    25984    25989    25992 
   25990    25989    25989    25988    25985    25980    25973    25968 
   25965    25961    25959    25956    25950    25951    25950    25944 
   25938    25932    25924    25920    25915    25907    25900    25895 
   25886    25875    25866    25864    25864    25865    25867    25870 
   25875    25883    25889    25894    25899    25902    25907    25913 
   25915    25918    25920    25921    25918    25913    25908    25902 
   25892    25884    25881    25877    25874    25873    25874    25877 
   25881    25889    25897    25905    25916    25930    25943    25955 
   25967    25976    25986    25999    26013    26027    26038    26047 
   26055    26067    26082    26092    26100    26108    26116    26124 
   26131    26138    26145    26151    26155    26159    26160    26161 
   26163    26168    26172    26175    26177    26181    26187    26197 
   26208    26214    26220    26227    26231    26235    26239    26243 
   26248    26246    26242    26242    26243    26245    26246    26244 
   26244    26245    26245    26248    26249    26242    26236    26233 
   26228    26222    26217    26212    26209    26209    26212    26217 
   26220    26223    26228    26235    26243    26253    26259    26264 
   26268    26270    26270    26266    26259    26253    26248    26244 
   26244    26247    26248    26248    26249    26252    26256    26257 
   26258    26259    26253    26248    26249    26250    26253    26258 
   26259    26256    26252    26247    26240    26233    26229    26232 
   26236    26239    26241    26247    26257    26270    26286    26303 
   26323    26339    26349    26361    26376    26390    26403    26415 
   26427    26434    26435    26438    26443    26449    26453    26454 
   26455    26457    26454    26446    26434    26420    26401    26380 
   26358    26334    26309    26285    26262    26237    26214    26192 
   26175    26165    26156    26146    26138    26130    26119    26108 
   26101    26094    26085    26078    26071    26062    26056    26050 
   26041    26034    26031    26029    26028    26027    26028    26028 
   26027    26026    26021    26012    26006    26002    25991    25975 
   25959    25945    25929    25913    25895    25877    25864    25853 
   25844    25840    25837    25836    25837    25838    25841    25846 
   25849    25855    25863    25871    25879    25890    25903    25915 
   25929    25947    25966    25981    25997    26014    26030    26042 
   26054    26068    26078    26087    26098    26107    26112    26121 
   26129    26128    26126    26126    26127    26129    26129    26126 
   26128    26132    26134    26137    26145    26150    26152    26154 
   26158    26160    26164    26164    26162    26163    26166    26171 
   26174    26171    26166    26166    26168    26172    26176    26176 
   26174    26172    26171    26171    26172    26170    26165    26157 
   26148    26140    26130    26119    26108    26098    26088    26079 
   26069    26062    26054    26042    26030    26023    26015    26006 
   25997    25990    25985    25978    25974    25974    25972    25973 
   25978    25984    25990    25996    26002    26011    26020    26027 
   26038    26049    26058    26066    26072    26079    26088    26093 
   26096    26100    26100    26101    26105    26107    26107    26110 
   26115    26117    26119    26121    26123    26126    26128    26128 
   26127    26122    26112    26103    26093    26080    26067    26052 
   26036    26023    26013    26003    25995    25993    25993    25990 
   25986    25990    26000    26007    26015    26023    26031    26041 
   26053    26067    26086    26112    26139    26165    26191    26221 
   26256    26290    26317    26343    26367    26387    26402    26410 
   26417    26423    26425    26422    26417    26410    26400    26385 
   26366    26344    26325    26307    26288    26271    26255    26238 
   26225    26215    26205    26196    26188    26181    26177    26177 
   26172    26163    26157    26153    26150    26145    26138    26132 
   26121    26107    26089    26073    26060    26046    26028    26012 
   25999    25988    25976    25965    25951    25935    25919    25903 
   25886    25871    25861    25850    25840    25832    25826    25821 
   25820    25825    25827    25828    25833    25840    25845    25850 
   25855    25863    25872    25880    25886    25890    25893    25895 
   25898    25904    25910    25916    25921    25925    25928    25933 
   25939    25947    25952    25958    25968    25980    25989    26001 
   26017    26033    26047    26064    26080    26093    26100    26104 
   26107    26105    26102    26099    26091    26082    26074    26064 
   26055    26046    26036    26028    26016    26003    25995    25990 
   25983    25974    25962    25949    25938    25929    25920    25912 
   25905    25899    25898    25897    25893    25893    25894    25892 
   25889    25886    25881    25879    25878    25876    25876    25874 
   25870    25867    25863    25861    25866    25873    25883    25895 
   25904    25915    25930    25949    25972    25997    26021    26047 
   26074    26098    26123    26148    26166    26182    26197    26207 
   26214    26218    26217    26215    26211    26201    26191    26182 
   26174    26165    26155    26147    26139    26134    26131    26128 
   26127    26128    26130    26127    26125    26127    26132    26140 
   26146    26152    26159    26168    26181    26195    26211    26227 
   26241    26255    26269    26281    26290    26300    26310    26319 
   26331    26340    26345    26352    26357    26359    26363    26367 
   26370    26373    26381    26386    26389    26396    26402    26405 
   26409    26410    26409    26410    26406    26399    26392    26383 
   26369    26351    26331    26312    26294    26278    26262    26249 
   26239    26232    26225    26216    26207    26199    26191    26182 
   26171    26159    26144    26128    26113    26095    26079    26065 
   26050    26033    26018    26007    25998    25990    25980    25970 
   25963    25959    25952    25944    25938    25933    25931    25931 
   25930    25932    25940    25949    25958    25966    25973    25985 
   25996    26002    26003    26005    26005    26004    26004    26001 
   25994    25987    25985    25984    25985    25987    25986    25986 
   25989    25992    25996    26000    26006    26010    26012    26017 
   26026    26033    26037    26041    26046    26048    26049    26050 
   26050    26047    26042    26037    26029    26021    26014    26005 
   25995    25984    25971    25958    25949    25941    25932    25922 
   25913    25909    25906    25900    25896    25893    25891    25893 
   25894    25895    25896    25897    25897    25897    25896    25895 
   25893    25889    25885    25879    25875    25876    25875    25872 
   25873    25875    25876    25881    25886    25889    25892    25897 
   25902    25908    25914    25914    25912    25913    25917    25921 
   25929    25937    25943    25951    25964    25978    25991    26010 
   26032    26055    26077    26097    26115    26134    26149    26162 
   26173    26180    26187    26192    26194    26194    26194    26192 
   26192    26193    26192    26190    26190    26192    26198    26203 
   26208    26218    26229    26234    26237    26237    26237    26235 
   26232    26229    26224    26219    26213    26203    26191    26180 
   26168    26156    26144    26127    26110    26098    26081    26062 
   26046    26030    26014    25998    25982    25967    25953    25936 
   25917    25900    25885    25872    25860    25849    25836    25829 
   25825    25818    25810    25808    25810    25812    25821    25834 
   25846    25862    25883    25906    25933    25959    25988    26021 
   26055    26090    26127    26164    26203    26242    26279    26315 
   26349    26386    26424    26457    26490    26522    26552    26583 
   26613    26640    26665    26686    26700    26710    26718    26724 
   26725    26722    26717    26709    26699    26686    26672    26658 
   26642    26625    26609    26594    26577    26558    26536    26515 
   26497    26474    26447    26426    26406    26383    26360    26338 
   26315    26297    26283    26268    26252    26233    26216    26202 
   26189    26176    26165    26154    26139    26121    26102    26078 
   26053    26028    26001    25974    25947    25919    25894    25871 
   25851    25835    25825    25816    25806    25798    25794    25792 
   25789    25785    25781    25779    25782    25789    25796    25802 
   25813    25827    25843    25862    25883    25906    25932    25958 
   25983    26009    26034    26060    26087    26114    26140    26162 
   26183    26205    26222    26234    26247    26260    26268    26276 
   26285    26289    26286    26284    26280    26273    26261    26246 
   26229    26211    26186    26157    26130    26103    26077    26052 
   26025    25996    25972    25952    25929    25908    25888    25870 
   25854    25838    25822    25811    25800    25786    25773    25762 
   25753    25746    25740    25733    25724    25712    25700    25690 
   25681    25670    25663    25660    25656    25651    25651    25657 
   25666    25679    25694    25710    25724    25744    25766    25787 
   25808    25829    25849    25872    25892    25911    25934    25957 
   25977    25995    26010    26026    26041    26054    26066    26078 
   26087    26091    26097    26102    26102    26102    26101    26099 
   26097    26095    26093    26095    26098    26097    26098    26100 
   26103    26109    26118    26126    26135    26147    26152    26154 
   26163    26172    26175    26179    26186    26189    26189    26193 
   26195    26194    26193    26192    26190    26188    26185    26180 
   26179    26175    26168    26163    26164    26170    26179    26187 
   26199    26217    26239    26265    26292    26319    26346    26376 
   26407    26438    26468    26494    26517    26537    26554    26570 
   26581    26589    26594    26593    26588    26582    26573    26562 
   26550    26537    26524    26509    26489    26469    26449    26427 
   26407    26391    26371    26346    26322    26302    26282    26259 
   26238    26219    26200    26178    26156    26133    26108    26085 
   26061    26038    26015    25991    25966    25940    25913    25886 
   25861    25835    25811    25790    25771    25755    25742    25730 
   25722    25717    25713    25711    25708    25706    25705    25706 
   25709    25712    25715    25715    25716    25721    25730    25737 
   25744    25753    25761    25772    25781    25787    25793    25799 
   25803    25808    25816    25821    25823    25829    25836    25847 
   25861    25876    25892    25909    25923    25938    25958    25977 
   25992    26007    26023    26035    26045    26052    26056    26058 
   26061    26066    26070    26073    26073    26075    26079    26081 
   26082    26088    26097    26105    26113    26120    26130    26138 
   26146    26157    26170    26181    26190    26199    26205    26210 
   26217    26226    26233    26240    26249    26256    26263    26274 
   26282    26288    26294    26302    26306    26308    26308    26309 
   26307    26304    26301    26296    26290    26283    26276    26270 
   26266    26259    26256    26259    26261    26263    26269    26277 
   26291    26308    26323    26337    26352    26370    26387    26399 
   26411    26423    26435    26449    26464    26478    26492    26506 
   26519    26531    26544    26558    26570    26581    26592    26597 
   26599    26599    26593    26586    26576    26561    26543    26524 
   26504    26480    26455    26432    26412    26394    26376    26359 
   26344    26332    26322    26314    26308    26304    26301    26299 
   26295    26294    26294    26292    26289    26286    26282    26278 
   26274    26265    26255    26243    26228    26210    26191    26170 
   26147    26124    26099    26074    26048    26020    25993    25966 
   25936    25906    25878    25850    25822    25792    25764    25739 
   25712    25687    25665    25643    25621    25601    25580    25561 
   25541    25522    25504    25484    25464    25446    25426    25409 
   25395    25382    25370    25360    25355    25352    25351    25354 
   25362    25373    25387    25407    25429    25456    25487    25518 
   25550    25588    25628    25666    25706    25749    25791    25830 
   25866    25898    25929    25962    25993    26019    26041    26060 
   26078    26095    26108    26117    26124    26132    26137    26138 
   26136    26133    26131    26130    26128    26125    26123    26119 
   26116    26117    26118    26117    26118    26119    26117    26118 
   26124    26127    26130    26135    26139    26142    26144    26144 
   26144    26146    26141    26133    26128    26120    26109    26098 
   26091    26083    26075    26069    26065    26061    26060    26064 
   26069    26073    26080    26091    26103    26117    26135    26158 
   26183    26210    26236    26262    26288    26313    26338    26362 
   26380    26393    26407    26419    26428    26436    26440    26440 
   26437    26431    26426    26419    26408    26397    26384    26366 
   26348    26330    26306    26280    26253    26223    26192    26160 
   26129    26097    26066    26038    26008    25975    25949    25925 
   25900    25876    25852    25827    25802    25783    25766    25748 
   25734    25723    25714    25709    25708    25708    25709    25712 
   25717    25725    25733    25738    25748    25761    25770    25777 
   25785    25794    25800    25810    25823    25833    25840    25849 
   25858    25864    25871    25881    25890    25894    25901    25910 
   25911    25910    25913    25911    25906    25905    25904    25900 
   25897    25898    25898    25895    25897    25903    25910    25920 
   25932    25947    25966    25988    26013    26041    26075    26112 
   26152    26194    26236    26279    26322    26367    26414    26457 
   26496    26537    26575    26607    26637    26665    26690    26712 
   26731    26747    26758    26763    26764    26764    26760    26750 
   26737    26720    26702    26684    26659    26632    26605    26575 
   26547    26517    26486    26456    26425    26394    26362    26325 
   26288    26255    26222    26188    26154    26121    26090    26060 
   26032    26004    25977    25950    25922    25896    25876    25856 
   25840    25829    25823    25818    25815    25816    25821    25827 
   25837    25851    25869    25891    25916    25939    25966    25999 
   26033    26067    26103    26142    26180    26218    26257    26294 
   26327    26354    26375    26397    26416    26428    26435    26437 
   26436    26430    26420    26406    26386    26361    26335    26308 
   26279    26248    26215    26180    26145    26111    26076    26041 
   26009    25981    25954    25926    25901    25881    25863    25845 
   25832    25823    25813    25802    25796    25790    25784    25780 
   25777    25777    25780    25784    25785    25785    25784    25785 
   25786    25787    25789    25792    25794    25798    25803    25812 
   25825    25841    25859    25877    25896    25918    25939    25959 
   25981    26004    26025    26045    26063    26081    26101    26121 
   26140    26160    26179    26202    26228    26249    26270    26297 
   26323    26347    26374    26401    26426    26451    26474    26497 
   26521    26542    26558    26576    26591    26602    26614    26625 
   26630    26632    26627    26618    26608    26594    26575    26552 
   26526    26499    26472    26443    26411    26381    26354    26326 
   26297    26271    26247    26226    26205    26185    26166    26145 
   26122    26103    26083    26062    26042    26022    26002    25983 
   25965    25950    25937    25924    25912    25901    25891    25882 
   25874    25868    25865    25859    25852    25846    25841    25835 
   25832    25828    25823    25821    25821    25818    25818    25820 
   25820    25817    25820    25825    25824    25824    25825    25824 
   25824    25826    25829    25834    25839    25844    25854    25865 
   25876    25893    25911    25926    25942    25958    25973    25987 
   26003    26020    26034    26043    26050    26055    26059    26063 
   26064    26062    26061    26062    26061    26057    26050    26041 
   26032    26021    26008    25993    25977    25958    25938    25919 
   25901    25883    25864    25848    25834    25820    25807    25795 
   25785    25779    25776    25777    25783    25795    25810    25825 
   25842    25865    25888    25913    25943    25975    26004    26033 
   26064    26096    26128    26159    26191    26223    26253    26281 
   26306    26329    26349    26369    26386    26399    26410    26422 
   26429    26436    26441    26441    26440    26437    26433    26428 
   26418    26404    26391    26376    26357    26339    26319    26296 
   26273    26254    26234    26210    26186    26166    26148    26129 
   26113    26100    26086    26073    26061    26049    26039    26028 
   26017    26006    25994    25980    25967    25954    25938    25920 
   25902    25883    25865    25845    25825    25803    25781    25761 
   25743    25724    25707    25691    25677    25665    25658    25656 
   25656    25657    25660    25667    25679    25693    25709    25728 
   25747    25769    25793    25816    25841    25866    25893    25922 
   25950    25975    26000    26030    26059    26090    26120    26147 
   26175    26202    26225    26252    26280    26304    26330    26357 
   26382    26405    26430    26457    26481    26505    26529    26550 
   26570    26593    26612    26626    26642    26655    26662    26666 
   26666    26663    26658    26650    26637    26621    26602    26584 
   26563    26539    26518    26496    26470    26446    26423    26397 
   26372    26352    26335    26318    26303    26290    26276    26264 
   26254    26245    26238    26232    26226    26222    26217    26214 
