Origin Time       2025/01/13 21:19:00
Lat.              31.8
Long.             131.6
Depth. (km)       30
Mag.              6.9
Station Code      SMNH04
Station Lat.      35.0918
Station Long.     132.5308
Station Height(m) 139
Record Time       2025/01/13 21:20:46
Sampling Freq(Hz) 100Hz
Duration Time(s)  134
Dir.              1
Scale Factor      2942(gal)/8224139
Max. Acc. (gal)   0.621
Last Correction   2025/01/13 21:20:46
Memo.             
[...]
  179189   179186   179178   179150   179107   179046   178987   178942 
  178896   178839   178792   178749   178699   178657   178632   178617 
  178607   178591   178559   178519   178476   178432   178409   178409 
  178416   178428   178448   178471   178484   178482   178475   178468 
  178472   178502   178551   178600   178646   178686   178714   178731 
  178741   178749   178762   178788   178826   178884   178947   178991 
  179010   179015   179011   179010   179012   179004   178988   178977 
  178960   178933   178920   178920   178935   178970   178995   179001 
  179023   179041   179034   179018   178999   178991   179001   179018 
  179037   179051   179059   179072   179080   179070   179055   179047 
  179053   179064   179065   179057   179058   179072   179092   179119 
  179146   179163   179174   179185   179197   179221   179261   179297 
  179316   179332   179342   179332   179324   179335   179359   179379 
  179373   179340   179296   179251   179215   179186   179166   179153 
  179138   179105   179053   178993   178934   178889   178869   178857 
  178839   178825   178818   178810   178802   178791   178775   178757 
  178738   178730   178746   178794   178872   178960   179028   179062 
  179069   179070   179073   179073   179073   179085   179097   179095 
  179077   179050   179016   178976   178945   178926   178911   178906 
  178903   178907   178912   178912   178915   178927   178937   178933 
  178919   178911   178900   178877   178841   178799   178769   178764 
  178771   178777   178785   178789   178785   178781   178781   178781 
  178771   178748   178722   178695   178677   178676   178676   178671 
  178673   178688   178704   178715   178727   178730   178718   178710 
  178710   178714   178726   178752   178785   178818   178835   178841 
  178852   178872   178897   178923   178951   178991   179041   179091 
  179130   179165   179205   179250   179281   179294   179296   179289 
  179277   179259   179240   179223   179216   179215   179213   179219 
  179240   179266   179273   179258   179234   179205   179181   179169 
  179163   179151   179140   179134   179118   179085   179053   179031 
  179022   179023   179022   179007   178988   178972   178960   178966 
  178997   179024   179039   179042   179026   179000   178980   178953 
  178929   178934   178958   178992   179053   179103   179100   179065 
  179020   178976   178949   178935   178918   178907   178920   178939 
  178946   178942   178933   178920   178903   178889   178887   178880 
  178865   178843   178819   178810   178816   178816   178810   178808 
  178819   178834   178838   178826   178807   178792   178785   178780 
  178777   178785   178807   178837   178869   178887   178883   178872 
  178854   178841   178848   178870   178896   178920   178926   178914 
  178897   178877   178865   178865   178866   178868   178873   178883 
  178900   178922   178945   178970   178996   179024   179053   179077 
  179108   179146   179184   179226   179275   179321   179352   179367 
  179379   179386   179390   179394   179397   179398   179394   179375 
  179350   179339   179340   179329   179309   179284   179247   179211 
  179178   179153   179139   179139   179145   179153   179159   179158 
  179145   179122   179100   179095   179104   179122   179132   179123 
  179093   179068   179054   179046   179035   179027   179026   179023 
  179005   178989   178977   178962   178950   178937   178906   178868 
  178839   178816   178791   178767   178737   178706   178679   178652 
  178619   178587   178567   178561   178569   178594   178627   178657 
  178680   178702   178726   178746   178758   178772   178788   178804 
  178818   178823   178818   178810   178810   178811   178804   178787 
  178771   178768   178772   178785   178806   178823   178829   178827 
  178835   178862   178897   178938   178978   179001   179007   179003 
  178999   179008   179032   179057   179076   179092   179105   179112 
  179100   179080   179074   179084   179097   179113   179132   179149 
  179153   179151   179149   179150   179166   179189   179211   179244 
  179286   179319   179343   179366   179382   179394   179404   179415 
  179420   179416   179402   179393   179393   179392   179379   179366 
  179358   179354   179351   179342   179317   179281   179242   179208 
  179177   179145   179105   179059   179008   178956   178908   178864 
  178816   178773   178742   178722   178710   178700   178696   178688 
  178673   178664   178659   178652   178640   178617   178587   178567 
  178561   178568   178587   178611   178634   178653   178669   178686 
  178703   178725   178760   178803   178838   178857   178875   178914 
  178962   179007   179049   179085   179122   179153   179172   179192 
  179216   179246   179278   179302   179327   179348   179361   179363 
  179359   179358   179369   179386   179398   179398   179383   179350 
  179300   179258   179234   179217   179205   179188   179162   179131 
  179092   179053   179012   178973   178937   178897   178857   178825 
  178795   178773   178760   178749   178740   178726   178700   178669 
  178642   178623   178614   178610   178613   178629   178648   178660 
  178667   178679   178707   178746   178780   178806   178823   178849 
  178897   178957   179014   179062   179093   179111   179127   179142 
  179149   179155   179165   179165   179163   179162   179151   179134 
  179109   179085   179065   179043   179018   179005   179005   179000 
  178988   178976   178958   178938   178923   178919   178930   178960 
  178993   179008   178997   178978   178972   178972   178970   178966 
  178950   178931   178916   178914   178930   178939   178929   178914 
  178902   178891   178900   178919   178933   178942   178943   178937 
  178930   178924   178920   178916   178916   178919   178916   178922 
  178934   178945   178966   178995   179023   179064   179097   179116 
  179131   179132   179120   179100   179066   179031   178996   178951 
  178902   178850   178804   178768   178735   178707   178690   178687 
  178691   178690   178680   178667   178656   178652   178656   178669 
  178692   178715   178735   178761   178784   178803   178829   178854 
  178885   178931   178969   178997   179034   179072   179105   179130 
  179147   179169   179189   179200   179203   179203   179207   179215 
  179231   179263   179302   179335   179363   179385   179400   179416 
  179436   179462   179491   179528   179570   179597   179606   179616 
  179633   179660   179679   179693   179703   179702   179682   179658 
  179639   179621   179604   179579   179543   179510   179483   179450 
  179417   179388   179358   179328   179297   179271   179253   179238 
  179228   179224   179230   179234   179230   179238   179262   179290 
  179319   179339   179348   179361   179373   179381   179388   179386 
  179378   179358   179316   179263   179204   179146   179107   179073 
  179031   179001   178987   178965   178938   178933   178947   178951 
  178951   178966   178981   178989   178999   178999   178991   178976 
  178954   178930   178911   178895   178881   178872   178854   178830 
  178803   178779   178745   178703   178657   178609   178571   178544 
  178517   178479   178436   178390   178352   178321   178302   178291 
  178270   178239   178204   178163   178131   178114   178108   178105 
  178096   178083   178077   178073   178066   178044   178015   177992 
  177979   177974   177961   177942   177923   177901   177885   177871 
  177863   177871   177892   177912   177936   177970   178015   178074 
  178139   178209   178286   178362   178437   178510   178571   178629 
  178690   178749   178806   178853   178907   178970   179031   179091 
  179143   179184   179204   179208   179213   179231   179254   179282 
  179320   179350   179354   179343   179331   179313   179301   179302 
  179311   179320   179325   179324   179323   179312   179280   179239 
  179211   179188   179162   179128   179092   179065   179038   179005 
  178985   178976   178960   178930   178885   178834   178785   178745 
  178710   178676   178650   178630   178598   178559   178526   178495 
  178474   178456   178429   178407   178399   178394   178393   178405 
  178422   178448   178482   178521   178564   178595   178610   178622 
  178641   178664   178681   178686   178686   178686   178690   178698 
  178704   178708   178717   178731   178746   178765   178781   178789 
  178791   178792   178803   178819   178835   178856   178880   178897 
  178908   178920   178938   178951   178969   178989   179004   179020 
  179039   179057   179074   179095   179119   179143   179161   179173 
  179194   179217   179239   179266   179298   179343   179393   179439 
  179477   179510   179539   179558   179578   179601   179621   179637 
  179655   179672   179679   179676   179656   179622   179593   179567 
  179540   179508   179462   179408   179361   179317   179280   179247 
  179226   179208   179189   179172   179161   179157   179166   179184 
  179203   179219   179239   179266   179282   179290   179311   179332 
  179339   179344   179343   179327   179307   179290   179286   179290 
  179293   179301   179313   179323   179344   179382   179425   179470 
  179521   179579   179644   179702   179753   179810   179861   179898 
  179936   179976   180014   180058   180100   180137   180169   180184 
  180184   180181   180172   180157   180141   180127   180117   180100 
  180080   180056   180022   179987   179953   179915   179875   179830 
  179783   179736   179689   179649   179624   179601   179578   179556 
  179536   179524   179513   179494   179471   179456   179437   179402 
  179362   179313   179267   179230   179172   179089   179000   178903 
  178788   178671   178553   178437   178332   178236   178150   178077 
  178006   177932   177855   177789   177735   177688   177651   177634 
  177631   177646   177678   177720   177758   177795   177832   177874 
  177921   177974   178038   178100   178155   178210   178264   178318 
  178370   178403   178434   178471   178507   178545   178588   178636 
  178683   178718   178738   178754   178768   178772   178762   178752 
  178741   178725   178708   178696   178688   178686   178679   178676 
  178681   178676   178673   178676   178681   178696   178722   178749 
  178776   178798   178810   178811   178810   178818   178831   178846 
  178865   178872   178868   178872   178873   178865   178857   178852 
  178853   178860   178875   178893   178915   178938   178956   178969 
  178997   179050   179115   179181   179246   179312   179379   179444 
  179508   179571   179643   179717   179787   179855   179915   179969 
  180014   180046   180067   180077   180083   180090   180090   180076 
  180050   180022   179996   179967   179928   179888   179851   179798 
  179740   179678   179604   179529   179467   179416   179379   179356 
  179336   179315   179285   179239   179177   179108   179037   178973 
  178914   178854   178798   178738   178684   178629   178560   178491 
  178430   178368   178310   178263   178228   178206   178190   178185 
  178195   178210   178221   178237   178254   178270   178291   178320 
  178351   178374   178384   178389   178394   178395   178389   178380 
  178368   178343   178321   178314   178309   178302   178306   178318 
  178332   178353   178391   178437   178490   178551   178617   178691 
  178767   178841   178915   178995   179081   179173   179257   179338 
  179419   179498   179571   179632   179672   179698   179717   179733 
  179744   179757   179782   179803   179810   179810   179803   179780 
  179741   179683   179616   179545   179466   179382   179298   179208 
  179112   179020   178927   178822   178710   178598   178492   178394 
  178295   178205   178120   178023   177927   177843   177766   177699 
  177660   177642   177624   177619   177634   177660   177701   177755 
  177816   177881   177947   178013   178081   178148   178218   178289 
  178353   178416   178475   178532   178586   178634   178677   178723 
  178773   178831   178900   178972   179043   179113   179184   179259 
  179334   179402   179460   179512   179555   179593   179631   179671 
  179710   179748   179787   179824   179851   179867   179878   179875 
  179861   179849   179837   179822   179810   179794   179770   179736 
  179699   179659   179618   179587   179551   179508   179474   179443 
  179413   179392   179374   179362   179350   179334   179327   179331 
  179344   179369   179396   179423   179452   179473   179479   179487 
  179498   179502   179500   179490   179479   179464   179446   179427 
  179404   179377   179342   179293   179234   179165   179082   178985 
  178880   178773   178667   178563   178459   178359   178270   178191 
  178120   178059   178013   177975   177947   177938   177943   177959 
  177992   178032   178073   178121   178177   178237   178299   178356 
  178416   178490   178575   178668   178772   178885   179005   179134 
  179269   179398   179527   179649   179766   179879   179992   180094 
  180185   180270   180347   180422   180490   180549   180593   180621 
  180624   180607   180574   180517   180449   180370   180276   180177 
  180065   179934   179803   179675   179535   179388   179243   179099 
  178941   178781   178626   178468   178316   178174   178032   177898 
  177776   177662   177558   177464   177377   177313   177273   177248 
  177241   177265   177307   177369   177458   177561   177672   177793 
  177924   178055   178178   178294   178406   178511   178610   178706 
  178796   178883   178960   179024   179080   179131   179176   179213 
  179239   179259   179280   179297   179313   179328   179332   179321 
  179297   179262   179208   179145   179076   179001   178927   178856 
  178780   178700   178618   178532   178441   178345   178259   178178 
  178098   178027   177966   177913   177870   177835   177813   177807 
  177813   177824   177832   177851   177888   177940   178008   178087 
  178173   178258   178339   178417   178490   178557   178622   178677 
  178725   178773   178823   178866   178910   178951   178987   179018 
  179041   179061   179088   179113   179139   179170   179200   179217 
  179219   179207   179194   179186   179178   179177   179181   179188 
  179203   179221   179234   179243   179257   179271   179288   179311 
  179335   179359   179383   179398   179402   179406   179410   179412 
  179415   179421   179431   179439   179436   179431   179431   179429 
  179421   179404   179385   179377   179378   179386   179406   179427 
  179447   179471   179493   179508   179517   179528   179545   179563 
  179583   179609   179629   179639   179641   179639   179629   179621 
  179616   179608   179604   179602   179595   179585   179574   179559 
  179540   179512   179478   179454   179436   179419   179404   179398 
  179400   179404   179412   179427   179443   179460   179481   179505 
  179535   179570   179602   179636   179668   179687   179695   179691 
  179676   179649   179610   179574   179531   179477   179419   179350 
  179269   179182   179093   179008   178912   178807   178703   178598 
  178497   178405   178320   178236   178167   178112   178066   178035 
  178019   178013   178023   178051   178093   178144   178208   178283 
  178363   178451   178546   178638   178729   178823   178908   178985 
  179069   179157   179238   179312   179370   179417   179458   179487 
  179500   179504   179496   179471   179436   179385   179313   179234 
  179150   179057   178965   178876   178781   178688   178600   178510 
  178424   178341   178260   178186   178120   178055   177994   177944 
  177893   177839   177792   177746   177695   177643   177599   177568 
  177547   177523   177506   177502   177496   177488   177492   177503 
  177523   177569   177635   177705   177784   177865   177948   178042 
  178136   178229   178330   178441   178557   178680   178811   178946 
  179076   179196   179309   179420   179524   179613   179694   179775 
  179836   179880   179915   179929   179930   179937   179941   179938 
  179930   179919   179905   179887   179865   179834   179799   179759 
  179712   179659   179599   179537   179483   179432   179382   179334 
  179274   179208   179143   179073   179001   178935   178873   178821 
  178775   178733   178699   178672   178649   178637   178634   178640 
  178649   178657   178671   178699   178737   178779   178819   178865 
  178918   178978   179045   179101   179163   179243   179316   179382 
  179450   179508   179566   179629   179691   179749   179797   179834 
  179864   179882   179886   179880   179869   179847   179814   179786 
  179756   179720   179682   179645   179616   179586   179548   179509 
  179473   179440   179413   179392   179373   179359   179351   179342 
  179335   179342   179352   179365   179385   179406   179429   179462 
  179500   179537   179575   179612   179643   179671   179701   179726 
  179749   179767   179778   179779   179775   179767   179751   179725 
  179695   179658   179613   179564   179513   179463   179416   179361 
  179302   179251   179199   179145   179089   179028   178973   178923 
  178872   178818   178767   178714   178661   178610   178556   178501 
  178445   178393   178340   178283   178233   178185   178137   178096 
  178063   178040   178021   178002   177984   177969   177952   177939 
  177938   177942   177952   177969   177982   178000   178029   178070 
  178119   178167   178214   178262   178310   178363   178421   178479 
  178536   178592   178654   178713   178771   178831   178884   178927 
  178974   179011   179028   179039   179047   179046   179027   178993 
  178958   178915   178865   178816   178754   178679   178610   178541 
  178471   178398   178326   178260   178197   178141   178094   178054 
  178017   177978   177946   177927   177913   177908   177916   177932 
  177955   177994   178040   178083   178136   178201   178268   178336 
  178414   178503   178592   178680   178762   178839   178919   179000 
  179070   179127   179177   179217   179244   179269   179288   179297 
  179304   179304   179290   179274   179259   179240   179224   179220 
  179221   179224   179230   179242   179258   179277   179297   179323 
  179354   179394   179442   179485   179521   179555   179579   179597 
  179614   179626   179633   179639   179640   179628   179610   179587 
  179551   179509   179466   179419   179365   179309   179253   179192 
  179128   179066   179008   178957   178904   178852   178802   178749 
  178699   178659   178625   178592   178573   178560   178553   178559 
  178565   178576   178599   178629   178654   178680   178711   178741 
  178769   178804   178830   178849   178876   178907   178927   178943 
  178960   178970   178978   178992   179005   179020   179041   179062 
  179084   179105   179130   179161   179193   179230   179270   179309 
  179346   179386   179429   179475   179523   179564   179599   179633 
  179666   179687   179699   179717   179732   179736   179737   179733 
  179721   179703   179678   179644   179608   179568   179527   179479 
  179419   179350   179271   179182   179092   179008   178922   178830 
  178744   178657   178560   178464   178375   178290   178213   178150 
