Origin Time       2025/01/13 21:19:00
Lat.              31.8
Long.             131.6
Depth. (km)       30
Mag.              6.9
Station Code      SMNH10
Station Lat.      35.5579
Station Long.     133.3004
Station Height(m) -191
Record Time       2025/01/13 21:20:58
Sampling Freq(Hz) 100Hz
Duration Time(s)  180
Dir.              3
Scale Factor      2940(gal)/6170270
Max. Acc. (gal)   0.722
Last Correction   2025/01/13 21:20:43
Memo.             
[...]
   64678    64680    64684    64690    64695    64697    64703    64710 
   64717    64725    64732    64736    64743    64745    64741    64741 
   64741    64734    64722    64712    64700    64690    64682    64673 
   64666    64660    64656    64653    64650    64642    64634    64629 
   64624    64616    64609    64604    64601    64597    64594    64591 
   64587    64587    64590    64592    64597    64603    64608    64616 
   64622    64625    64630    64636    64640    64641    64641    64645 
   64650    64650    64651    64653    64653    64653    64651    64650 
   64651    64651    64652    64656    64659    64659    64657    64654 
   64652    64651    64649    64648    64648    64649    64648    64649 
   64651    64650    64651    64652    64651    64652    64654    64651 
   64650    64651    64652    64656    64663    64668    64675    64683 
   64690    64700    64711    64717    64721    64727    64733    64739 
   64742    64745    64749    64753    64759    64764    64766    64770 
   64778    64784    64788    64793    64799    64807    64816    64826 
   64837    64846    64853    64860    64866    64871    64877    64887 
   64894    64899    64906    64910    64913    64917    64918    64919 
   64923    64925    64928    64932    64934    64937    64942    64946 
   64951    64958    64960    64964    64971    64974    64975    64978 
   64980    64981    64982    64979    64979    64979    64976    64971 
   64968    64964    64958    64953    64948    64941    64932    64923 
   64914    64905    64896    64886    64876    64865    64853    64843 
   64832    64818    64805    64794    64781    64767    64756    64747 
   64740    64734    64726    64720    64716    64712    64709    64705 
   64700    64696    64692    64687    64686    64688    64686    64686 
   64688    64686    64686    64691    64693    64697    64703    64710 
   64719    64725    64729    64732    64733    64737    64744    64749 
   64754    64760    64764    64767    64771    64771    64771    64773 
   64773    64771    64770    64767    64763    64759    64754    64747 
   64739    64731    64724    64714    64703    64693    64683    64671 
   64657    64641    64626    64613    64598    64583    64572    64559 
   64544    64532    64521    64507    64492    64479    64465    64449 
   64437    64426    64412    64400    64388    64376    64365    64356 
   64348    64342    64335    64333    64332    64332    64335    64338 
   64341    64347    64352    64358    64363    64364    64366    64367 
   64367    64371    64371    64368    64369    64369    64368    64367 
   64367    64366    64367    64365    64363    64366    64366    64362 
   64360    64356    64351    64349    64347    64345    64344    64343 
   64346    64348    64346    64347    64348    64346    64344    64347 
   64349    64351    64354    64355    64355    64355    64357    64358 
   64357    64357    64362    64366    64371    64380    64386    64389 
   64394    64400    64404    64408    64413    64419    64426    64432 
   64436    64440    64446    64452    64459    64466    64472    64476 
   64481    64488    64493    64497    64503    64510    64516    64523 
   64530    64535    64542    64552    64560    64568    64579    64592 
   64603    64616    64630    64643    64657    64671    64681    64692 
   64702    64712    64722    64731    64738    64746    64755    64761 
   64766    64773    64777    64777    64780    64784    64785    64785 
   64786    64791    64794    64794    64798    64802    64804    64810 
   64818    64824    64833    64845    64855    64868    64883    64897 
   64909    64919    64932    64946    64960    64978    64996    65013 
   65033    65052    65068    65085    65102    65118    65132    65148 
   65165    65178    65192    65205    65218    65232    65243    65256 
   65270    65280    65290    65303    65314    65321    65328    65333 
   65337    65339    65342    65347    65352    65357    65360    65360 
   65362    65362    65358    65354    65352    65348    65343    65338 
   65335    65331    65327    65322    65318    65316    65311    65304 
   65298    65294    65287    65279    65274    65268    65259    65253 
   65249    65242    65234    65227    65219    65210    65202    65197 
   65194    65189    65185    65183    65180    65177    65175    65176 
   65178    65180    65182    65187    65194    65201    65208    65215 
   65220    65227    65232    65236    65243    65250    65252    65252 
   65257    65262    65264    65266    65269    65267    65263    65258 
   65252    65243    65232    65219    65205    65189    65174    65160 
   65144    65124    65102    65078    65054    65027    65000    64972 
   64942    64914    64888    64861    64830    64801    64777    64751 
   64722    64695    64672    64646    64617    64592    64571    64545 
   64520    64499    64476    64453    64433    64413    64394    64376 
   64357    64338    64318    64300    64287    64275    64263    64251 
   64242    64237    64235    64232    64228    64225    64226    64226 
   64224    64223    64225    64225    64227    64233    64235    64235 
   64238    64239    64239    64237    64232    64227    64222    64213 
   64206    64198    64184    64172    64165    64151    64133    64120 
   64104    64083    64067    64048    64025    64005    63986    63966 
   63946    63925    63909    63896    63880    63867    63859    63854 
   63849    63851    63853    63857    63863    63871    63881    63893 
   63904    63917    63935    63957    63981    64005    64029    64053 
   64079    64105    64126    64148    64176    64203    64226    64252 
   64279    64304    64329    64352    64375    64399    64423    64446 
   64468    64490    64510    64532    64552    64572    64590    64606 
   64623    64642    64659    64675    64692    64706    64720    64736 
   64747    64756    64767    64778    64788    64798    64806    64814 
   64824    64832    64838    64843    64845    64844    64843    64840 
   64836    64832    64828    64822    64817    64813    64804    64797 
   64790    64780    64771    64764    64755    64746    64740    64729 
   64720    64714    64709    64707    64708    64708    64711    64717 
   64720    64723    64725    64729    64734    64738    64742    64748 
   64754    64760    64768    64774    64779    64788    64798    64807 
   64818    64828    64838    64847    64856    64865    64871    64876 
   64887    64896    64901    64912    64923    64932    64939    64947 
   64956    64966    64978    64990    65003    65018    65032    65047 
   65064    65080    65098    65119    65140    65158    65178    65200 
   65218    65236    65253    65267    65281    65294    65306    65317 
   65325    65335    65344    65351    65359    65364    65366    65368 
   65371    65373    65374    65374    65375    65375    65375    65376 
   65376    65375    65372    65368    65364    65357    65350    65342 
   65334    65326    65318    65308    65298    65288    65280    65271 
   65258    65245    65234    65216    65194    65174    65156    65135 
   65115    65096    65078    65057    65035    65016    64996    64975 
   64953    64931    64914    64896    64877    64859    64843    64828 
   64814    64802    64791    64781    64776    64773    64767    64761 
   64758    64756    64755    64755    64756    64757    64762    64768 
   64773    64781    64789    64796    64807    64817    64824    64833 
   64843    64850    64860    64868    64871    64873    64874    64874 
   64871    64868    64863    64856    64851    64845    64835    64826 
   64817    64808    64802    64796    64787    64778    64768    64755 
   64745    64737    64728    64717    64704    64690    64677    64665 
   64648    64632    64620    64611    64599    64588    64582    64573 
   64562    64552    64540    64527    64514    64500    64484    64468 
   64449    64430    64413    64396    64378    64362    64347    64333 
   64317    64301    64287    64275    64263    64248    64235    64226 
   64213    64201    64191    64181    64169    64159    64151    64140 
   64129    64121    64116    64109    64100    64094    64090    64083 
   64076    64071    64068    64065    64063    64063    64064    64064 
   64065    64069    64074    64082    64086    64091    64102    64111 
   64119    64130    64143    64155    64170    64188    64206    64226 
   64251    64277    64299    64322    64347    64370    64391    64416 
   64440    64457    64475    64496    64516    64532    64546    64560 
   64573    64585    64597    64606    64612    64618    64623    64626 
   64628    64631    64634    64635    64634    64635    64638    64639 
   64642    64645    64645    64646    64644    64639    64636    64635 
   64631    64625    64618    64610    64601    64593    64585    64576 
   64567    64561    64558    64555    64553    64552    64552    64553 
   64553    64553    64553    64551    64553    64559    64566    64572 
   64582    64595    64607    64620    64636    64654    64674    64697 
   64723    64752    64783    64816    64847    64880    64915    64953 
   64990    65028    65071    65113    65152    65194    65237    65275 
   65312    65351    65386    65418    65449    65482    65512    65537 
   65558    65576    65591    65603    65612    65616    65618    65619 
   65616    65608    65598    65586    65573    65555    65534    65515 
   65495    65472    65447    65421    65394    65368    65343    65318 
   65293    65267    65243    65219    65195    65173    65154    65137 
   65123    65115    65109    65104    65102    65100    65102    65105 
   65108    65112    65119    65125    65130    65134    65140    65144 
   65144    65147    65149    65149    65149    65148    65149    65150 
   65149    65148    65144    65140    65134    65124    65113    65103 
   65093    65081    65067    65051    65035    65018    65001    64983 
   64963    64944    64925    64904    64884    64868    64852    64834 
   64816    64802    64791    64778    64765    64755    64747    64738 
   64726    64715    64706    64695    64682    64673    64662    64652 
   64645    64637    64628    64619    64609    64598    64589    64582 
   64573    64563    64557    64554    64553    64550    64549    64552 
   64555    64560    64567    64571    64574    64581    64588    64594 
   64602    64611    64618    64623    64629    64635    64641    64647 
   64652    64656    64661    64664    64665    64670    64675    64679 
   64682    64687    64691    64691    64693    64696    64697    64699 
   64701    64703    64705    64706    64704    64702    64702    64700 
   64696    64693    64689    64684    64682    64682    64678    64674 
   64671    64668    64664    64658    64653    64648    64644    64636 
   64627    64619    64608    64597    64582    64565    64548    64524 
   64499    64477    64452    64427    64404    64377    64356    64336 
   64313    64292    64274    64255    64234    64214    64197    64182 
   64170    64158    64146    64137    64128    64122    64117    64109 
   64104    64101    64098    64094    64093    64094    64095    64096 
   64101    64107    64111    64115    64120    64125    64128    64131 
   64135    64136    64137    64137    64137    64138    64138    64138 
   64138    64137    64139    64141    64143    64143    64145    64150 
   64152    64152    64155    64155    64152    64152    64151    64149 
   64144    64140    64136    64129    64123    64117    64107    64097 
   64089    64079    64068    64058    64050    64041    64030    64022 
   64015    64008    64002    63998    63999    64001    64003    64009 
   64017    64026    64037    64050    64068    64087    64110    64137 
   64164    64195    64231    64267    64303    64340    64374    64409 
   64446    64483    64519    64555    64589    64622    64657    64690 
   64721    64752    64784    64814    64844    64875    64907    64938 
   64970    65003    65036    65067    65095    65121    65147    65173 
   65197    65222    65245    65267    65292    65317    65341    65365 
   65388    65410    65433    65455    65475    65494    65511    65528 
   65541    65553    65566    65576    65585    65591    65598    65606 
   65611    65615    65619    65621    65622    65619    65617    65615 
   65611    65605    65598    65592    65589    65587    65586    65588 
   65589    65591    65596    65604    65609    65617    65628    65639 
   65649    65660    65673    65683    65694    65707    65720    65733 
   65743    65752    65764    65773    65779    65786    65791    65792 
   65795    65797    65795    65790    65784    65775    65762    65747 
   65729    65708    65685    65658    65627    65595    65562    65525 
   65488    65453    65419    65385    65350    65318    65290    65263 
   65235    65212    65190    65167    65145    65124    65104    65085 
   65066    65048    65031    65013    64998    64982    64964    64949 
   64933    64916    64900    64881    64860    64838    64815    64794 
   64772    64748    64725    64703    64681    64661    64641    64617 
   64595    64572    64550    64528    64504    64478    64453    64426 
   64397    64367    64337    64308    64278    64245    64212    64179 
   64146    64110    64073    64037    64000    63958    63917    63876 
   63834    63790    63745    63702    63657    63612    63572    63531 
   63490    63452    63416    63381    63350    63321    63299    63279 
   63258    63243    63232    63222    63215    63212    63213    63217 
   63223    63230    63241    63260    63283    63304    63328    63356 
   63384    63412    63444    63476    63508    63540    63574    63609 
   63646    63683    63722    63762    63800    63839    63881    63926 
   63971    64018    64066    64113    64161    64211    64261    64313 
   64370    64425    64477    64534    64590    64645    64702    64755 
   64803    64852    64899    64938    64975    65012    65046    65073 
   65096    65116    65129    65141    65151    65156    65157    65155 
   65150    65144    65131    65113    65093    65074    65050    65023 
   64996    64968    64941    64919    64895    64869    64844    64822 
   64802    64782    64764    64749    64737    64726    64715    64709 
   64708    64709    64711    64717    64728    64738    64749    64765 
   64782    64798    64818    64840    64862    64886    64912    64939 
   64968    64994    65019    65049    65083    65112    65142    65177 
   65213    65246    65281    65315    65346    65375    65403    65430 
   65454    65474    65493    65509    65520    65527    65530    65524 
   65514    65500    65480    65457    65432    65402    65366    65331 
   65297    65258    65218    65179    65138    65095    65052    65008 
   64964    64923    64883    64842    64803    64768    64733    64703 
   64679    64656    64636    64622    64611    64601    64597    64597 
   64597    64602    64613    64626    64644    64665    64685    64711 
   64741    64767    64795    64831    64869    64904    64942    64981 
   65022    65065    65106    65146    65189    65229    65268    65308 
   65343    65378    65412    65444    65477    65508    65535    65560 
   65584    65604    65623    65640    65651    65658    65661    65661 
   65658    65649    65637    65623    65603    65578    65553    65524 
   65487    65449    65410    65366    65319    65274    65230    65179 
   65127    65078    65027    64976    64924    64875    64826    64775 
   64728    64684    64638    64595    64559    64523    64488    64459 
   64433    64409    64386    64367    64351    64333    64317    64306 
   64296    64286    64276    64267    64259    64252    64246    64238 
   64229    64223    64217    64212    64208    64204    64201    64200 
   64199    64197    64198    64200    64202    64203    64203    64208 
   64214    64216    64218    64223    64226    64228    64230    64233 
   64235    64235    64236    64239    64242    64245    64249    64254 
   64260    64267    64276    64286    64296    64307    64318    64327 
   64340    64354    64364    64376    64393    64407    64422    64438 
   64451    64465    64483    64498    64509    64525    64540    64553 
   64567    64578    64588    64599    64609    64619    64627    64632 
   64640    64649    64653    64656    64660    64661    64663    64663 
   64662    64662    64660    64656    64654    64653    64649    64643 
   64638    64634    64631    64629    64627    64621    64617    64619 
   64620    64618    64618    64624    64629    64635    64644    64654 
   64663    64673    64683    64694    64707    64719    64734    64746 
   64758    64773    64789    64803    64819    64831    64844    64859 
   64873    64884    64893    64902    64911    64920    64927    64931 
   64933    64939    64943    64942    64944    64949    64952    64954 
   64958    64960    64959    64958    64958    64960    64960    64959 
   64961    64962    64962    64962    64963    64963    64963    64964 
   64965    64962    64956    64952    64947    64938    64926    64913 
   64903    64890    64873    64857    64844    64825    64805    64791 
   64776    64760    64747    64737    64725    64715    64709    64705 
   64702    64700    64701    64704    64712    64722    64731    64745 
   64760    64772    64786    64804    64821    64834    64846    64864 
   64879    64892    64908    64925    64940    64955    64969    64980 
   64994    65010    65023    65032    65039    65047    65052    65051 
   65048    65043    65033    65022    65010    64991    64971    64950 
   64928    64904    64879    64851    64825    64800    64771    64740 
   64714    64691    64668    64644    64620    64597    64576    64556 
   64538    64521    64504    64489    64474    64462    64452    64442 
   64432    64422    64410    64400    64392    64384    64377    64371 
   64364    64357    64352    64351    64350    64347    64342    64340 
   64344    64349    64352    64356    64363    64372    64385    64398 
   64414    64432    64449    64465    64481    64499    64519    64537 
   64555    64576    64596    64616    64638    64659    64678    64697 
   64716    64733    64752    64772    64791    64809    64826    64844 
   64862    64875    64890    64904    64915    64926    64937    64947 
   64953    64958    64963    64968    64973    64977    64980    64983 
   64986    64989    64994    64998    64999    65001    65000    64996 
   64994    64989    64982    64976    64967    64959    64951    64943 
   64935    64924    64913    64905    64893    64879    64869    64858 
   64847    64835    64823    64810    64800    64790    64777    64762 
   64746    64730    64712    64695    64677    64657    64637    64619 
   64599    64579    64559    64537    64515    64497    64480    64463 
   64448    64436    64424    64412    64399    64388    64378    64368 
   64360    64353    64346    64341    64338    64336    64334    64334 
   64337    64340    64344    64351    64356    64363    64373    64385 
   64398    64411    64428    64447    64464    64482    64502    64523 
   64543    64567    64592    64614    64634    64657    64680    64703 
   64725    64745    64762    64777    64794    64811    64823    64835 
   64848    64856    64860    64866    64871    64872    64873    64874 
