Origin Time       2025/01/13 21:19:00
Lat.              31.8
Long.             131.6
Depth. (km)       30
Mag.              6.9
Station Code      SMNH01
Station Lat.      35.2963
Station Long.     133.2604
Station Height(m) 170
Record Time       2025/01/13 21:21:22
Sampling Freq(Hz) 100Hz
Duration Time(s)  120
Dir.              6
Scale Factor      7845(gal)/8223790
Max. Acc. (gal)   0.413
Last Correction   2025/01/13 21:21:23
Memo.             
[...]
  -11165   -11164   -11172   -11192   -11209   -11202   -11178   -11163 
  -11168   -11192   -11225   -11246   -11234   -11202   -11183   -11192 
  -11226   -11263   -11286   -11292   -11283   -11271   -11272   -11286 
  -11303   -11327   -11345   -11349   -11346   -11345   -11350   -11364 
  -11379   -11387   -11388   -11381   -11373   -11369   -11368   -11364 
  -11362   -11364   -11376   -11396   -11411   -11410   -11395   -11376 
  -11364   -11371   -11388   -11403   -11411   -11411   -11406   -11403 
  -11411   -11423   -11430   -11425   -11414   -11404   -11395   -11387 
  -11385   -11391   -11400   -11406   -11402   -11387   -11371   -11358 
  -11352   -11348   -11345   -11341   -11335   -11329   -11327   -11337 
  -11341   -11337   -11329   -11319   -11314   -11313   -11317   -11323 
  -11325   -11326   -11327   -11331   -11335   -11334   -11323   -11306 
  -11292   -11284   -11291   -11315   -11340   -11353   -11348   -11326 
  -11296   -11273   -11276   -11303   -11335   -11357   -11353   -11334 
  -11318   -11314   -11315   -11318   -11317   -11311   -11307   -11317 
  -11326   -11314   -11286   -11263   -11265   -11292   -11326   -11353 
  -11360   -11345   -11321   -11300   -11299   -11321   -11354   -11379 
  -11376   -11353   -11330   -11321   -11325   -11338   -11353   -11362 
  -11358   -11349   -11345   -11349   -11354   -11356   -11354   -11356 
  -11371   -11398   -11421   -11427   -11416   -11394   -11377   -11380 
  -11399   -11425   -11439   -11433   -11411   -11394   -11391   -11402 
  -11422   -11439   -11442   -11433   -11421   -11412   -11410   -11410 
  -11415   -11423   -11423   -11415   -11403   -11383   -11361   -11349 
  -11354   -11376   -11396   -11403   -11399   -11388   -11377   -11372 
  -11380   -11399   -11412   -11412   -11408   -11402   -11395   -11398 
  -11407   -11416   -11427   -11434   -11427   -11410   -11395   -11388 
  -11385   -11380   -11376   -11376   -11376   -11373   -11369   -11365 
  -11362   -11364   -11364   -11353   -11341   -11335   -11338   -11353 
  -11365   -11360   -11342   -11326   -11321   -11331   -11352   -11362 
  -11356   -11345   -11341   -11346   -11360   -11372   -11372   -11365 
  -11360   -11367   -11383   -11395   -11391   -11376   -11364   -11364 
  -11368   -11364   -11356   -11350   -11350   -11361   -11373   -11377 
  -11367   -11341   -11318   -11308   -11307   -11308   -11306   -11302 
  -11308   -11319   -11325   -11330   -11335   -11335   -11340   -11345 
  -11349   -11354   -11364   -11379   -11394   -11398   -11398   -11402 
  -11403   -11402   -11408   -11416   -11425   -11435   -11431   -11412 
  -11391   -11380   -11387   -11410   -11430   -11435   -11422   -11389 
  -11357   -11340   -11337   -11341   -11345   -11342   -11338   -11340 
  -11345   -11341   -11333   -11327   -11323   -11329   -11341   -11348 
  -11352   -11353   -11350   -11350   -11353   -11356   -11357   -11361 
  -11364   -11367   -11367   -11358   -11348   -11342   -11349   -11367 
  -11377   -11375   -11367   -11364   -11373   -11391   -11399   -11392 
  -11379   -11376   -11391   -11414   -11431   -11435   -11438   -11452 
  -11469   -11476   -11472   -11458   -11454   -11466   -11485   -11500 
  -11503   -11493   -11484   -11487   -11500   -11516   -11529   -11533 
  -11527   -11516   -11518   -11523   -11522   -11512   -11489   -11462 
  -11448   -11450   -11468   -11491   -11488   -11464   -11437   -11414 
  -11399   -11404   -11421   -11426   -11419   -11398   -11364   -11337 
  -11323   -11318   -11322   -11329   -11331   -11333   -11333   -11322 
  -11308   -11292   -11280   -11283   -11298   -11308   -11306   -11296 
  -11284   -11279   -11281   -11287   -11294   -11295   -11290   -11292 
  -11303   -11306   -11306   -11307   -11303   -11299   -11302   -11306 
  -11306   -11310   -11318   -11322   -11325   -11330   -11326   -11319 
  -11323   -11334   -11349   -11365   -11376   -11379   -11368   -11350 
  -11337   -11334   -11338   -11340   -11333   -11325   -11322   -11330 
  -11340   -11341   -11334   -11327   -11329   -11338   -11353   -11362 
  -11353   -11333   -11322   -11330   -11346   -11357   -11354   -11345 
  -11334   -11330   -11335   -11340   -11340   -11335   -11334   -11338 
  -11335   -11329   -11325   -11323   -11329   -11338   -11342   -11340 
  -11330   -11319   -11315   -11321   -11334   -11345   -11337   -11314 
  -11298   -11286   -11280   -11286   -11292   -11290   -11280   -11273 
  -11269   -11272   -11276   -11277   -11277   -11275   -11269   -11263 
  -11261   -11271   -11287   -11302   -11308   -11300   -11290   -11283 
  -11280   -11288   -11298   -11306   -11315   -11318   -11315   -11314 
  -11315   -11315   -11317   -11325   -11335   -11348   -11352   -11345 
  -11333   -11319   -11315   -11326   -11341   -11348   -11338   -11319 
  -11302   -11294   -11296   -11300   -11295   -11294   -11295   -11299 
  -11313   -11323   -11315   -11303   -11298   -11302   -11319   -11341 
  -11357   -11364   -11365   -11369   -11383   -11403   -11411   -11407 
  -11407   -11414   -11423   -11441   -11460   -11465   -11464   -11466 
  -11473   -11480   -11488   -11495   -11495   -11488   -11479   -11476 
  -11480   -11479   -11475   -11475   -11477   -11479   -11483   -11488 
  -11491   -11495   -11500   -11506   -11514   -11522   -11529   -11537 
  -11537   -11522   -11511   -11518   -11527   -11533   -11537   -11534 
  -11526   -11527   -11539   -11554   -11568   -11580   -11589   -11593 
  -11593   -11588   -11588   -11600   -11618   -11632   -11638   -11637 
  -11637   -11642   -11651   -11661   -11665   -11666   -11666   -11665 
  -11673   -11689   -11699   -11697   -11691   -11681   -11682   -11699 
  -11708   -11696   -11672   -11650   -11639   -11641   -11645   -11637 
  -11614   -11589   -11576   -11573   -11577   -11578   -11578   -11574 
  -11560   -11535   -11515   -11493   -11477   -11473   -11476   -11472 
  -11460   -11448   -11431   -11416   -11407   -11398   -11387   -11380 
  -11375   -11364   -11353   -11348   -11346   -11340   -11327   -11314 
  -11307   -11307   -11308   -11308   -11310   -11307   -11306   -11308 
  -11307   -11299   -11283   -11264   -11259   -11265   -11273   -11284 
  -11286   -11271   -11252   -11233   -11218   -11206   -11199   -11196 
  -11194   -11187   -11175   -11164   -11161   -11165   -11172   -11171 
  -11161   -11146   -11130   -11122   -11124   -11132   -11142   -11152 
  -11152   -11141   -11128   -11119   -11117   -11118   -11119   -11118 
  -11114   -11114   -11119   -11121   -11119   -11117   -11115   -11118 
  -11124   -11125   -11124   -11124   -11122   -11125   -11132   -11136 
  -11133   -11128   -11126   -11129   -11136   -11141   -11142   -11137 
  -11130   -11126   -11130   -11144   -11159   -11169   -11165   -11148 
  -11134   -11133   -11144   -11161   -11172   -11168   -11155   -11140 
  -11129   -11125   -11122   -11115   -11110   -11107   -11103   -11099 
  -11098   -11091   -11086   -11088   -11094   -11103   -11114   -11121 
  -11129   -11142   -11163   -11183   -11196   -11202   -11209   -11223 
  -11242   -11261   -11279   -11291   -11294   -11294   -11295   -11295 
  -11298   -11308   -11330   -11349   -11364   -11373   -11384   -11398 
  -11415   -11435   -11453   -11465   -11476   -11488   -11499   -11510 
  -11519   -11527   -11534   -11543   -11554   -11564   -11573   -11583 
  -11588   -11585   -11581   -11580   -11580   -11580   -11581   -11577 
  -11568   -11554   -11541   -11533   -11533   -11534   -11531   -11523 
  -11510   -11499   -11496   -11493   -11491   -11487   -11488   -11497 
  -11507   -11511   -11516   -11520   -11531   -11556   -11573   -11580 
  -11583   -11585   -11589   -11600   -11612   -11615   -11614   -11608 
  -11601   -11599   -11601   -11599   -11591   -11585   -11574   -11562 
  -11553   -11547   -11545   -11545   -11538   -11522   -11507   -11497 
  -11492   -11487   -11480   -11472   -11464   -11458   -11454   -11445 
  -11429   -11408   -11394   -11388   -11391   -11392   -11387   -11377 
  -11364   -11348   -11337   -11331   -11325   -11317   -11313   -11313 
  -11308   -11302   -11288   -11272   -11259   -11250   -11252   -11256 
  -11253   -11244   -11234   -11227   -11226   -11226   -11221   -11217 
  -11214   -11211   -11205   -11194   -11184   -11178   -11182   -11191 
  -11196   -11196   -11198   -11206   -11218   -11230   -11237   -11240 
  -11241   -11250   -11267   -11286   -11300   -11314   -11327   -11340 
  -11352   -11365   -11376   -11385   -11388   -11385   -11385   -11392 
  -11408   -11430   -11442   -11438   -11431   -11434   -11442   -11453 
  -11465   -11470   -11468   -11462   -11454   -11448   -11443   -11435 
  -11421   -11406   -11400   -11400   -11398   -11387   -11371   -11354 
  -11345   -11346   -11353   -11356   -11348   -11340   -11337   -11338 
  -11344   -11350   -11357   -11360   -11354   -11346   -11346   -11353 
  -11356   -11353   -11344   -11330   -11319   -11315   -11319   -11325 
  -11331   -11338   -11335   -11329   -11322   -11315   -11317   -11326 
  -11335   -11344   -11356   -11368   -11380   -11391   -11391   -11387 
  -11389   -11396   -11403   -11412   -11423   -11431   -11438   -11445 
  -11453   -11460   -11460   -11456   -11458   -11464   -11476   -11496 
  -11518   -11533   -11539   -11542   -11546   -11553   -11566   -11587 
  -11599   -11604   -11605   -11601   -11604   -11620   -11632   -11637 
  -11630   -11618   -11610   -11605   -11603   -11600   -11593   -11581 
  -11568   -11561   -11554   -11539   -11519   -11502   -11495   -11497 
  -11496   -11489   -11477   -11454   -11438   -11434   -11429   -11416 
  -11404   -11392   -11383   -11375   -11365   -11356   -11342   -11326 
  -11308   -11292   -11281   -11275   -11272   -11268   -11261   -11254 
  -11248   -11245   -11249   -11254   -11253   -11249   -11248   -11245 
  -11244   -11249   -11253   -11252   -11249   -11249   -11248   -11246 
  -11252   -11257   -11254   -11246   -11242   -11241   -11245   -11249 
  -11248   -11238   -11225   -11219   -11223   -11225   -11225   -11222 
  -11214   -11206   -11207   -11210   -11206   -11196   -11175   -11151 
  -11136   -11133   -11137   -11140   -11132   -11118   -11107   -11099 
  -11090   -11075   -11061   -11052   -11048   -11049   -11051   -11047 
  -11041   -11040   -11043   -11049   -11055   -11057   -11059   -11056 
  -11053   -11064   -11088   -11115   -11141   -11160   -11171   -11183 
  -11199   -11225   -11252   -11276   -11300   -11327   -11350   -11369 
  -11387   -11400   -11411   -11426   -11443   -11462   -11479   -11488 
  -11487   -11479   -11473   -11475   -11481   -11489   -11495   -11495 
  -11492   -11480   -11466   -11460   -11460   -11461   -11461   -11462 
  -11460   -11450   -11442   -11437   -11434   -11431   -11429   -11425 
  -11419   -11415   -11412   -11412   -11408   -11400   -11388   -11376 
  -11369   -11365   -11367   -11372   -11372   -11365   -11356   -11344 
  -11335   -11337   -11342   -11346   -11346   -11337   -11327   -11325 
  -11322   -11318   -11318   -11317   -11314   -11317   -11325   -11333 
  -11344   -11361   -11379   -11392   -11403   -11418   -11435   -11450 
  -11464   -11477   -11485   -11488   -11489   -11491   -11500   -11512 
  -11520   -11530   -11537   -11535   -11539   -11551   -11561   -11562 
  -11562   -11565   -11570   -11578   -11589   -11601   -11608   -11611 
  -11615   -11618   -11622   -11631   -11647   -11659   -11665   -11662 
  -11659   -11666   -11678   -11691   -11699   -11696   -11689   -11692 
  -11693   -11693   -11700   -11711   -11716   -11715   -11711   -11707 
  -11705   -11703   -11699   -11693   -11689   -11686   -11685   -11684 
  -11676   -11659   -11639   -11624   -11615   -11605   -11592   -11576 
  -11561   -11545   -11533   -11522   -11507   -11487   -11466   -11443 
  -11421   -11400   -11383   -11367   -11348   -11329   -11310   -11291 
  -11272   -11248   -11230   -11219   -11206   -11188   -11172   -11153 
  -11136   -11118   -11098   -11076   -11061   -11049   -11038   -11029 
  -11017   -11003   -10999   -11001   -11005   -11007   -11006   -11005 
  -11003   -11009   -11022   -11034   -11043   -11051   -11055   -11064 
  -11078   -11094   -11111   -11122   -11128   -11134   -11142   -11152 
  -11164   -11178   -11187   -11194   -11199   -11202   -11207   -11211 
  -11213   -11217   -11223   -11230   -11236   -11246   -11250   -11252 
  -11259   -11267   -11272   -11280   -11284   -11281   -11277   -11283 
  -11291   -11296   -11292   -11280   -11272   -11268   -11268   -11272 
  -11273   -11275   -11280   -11287   -11288   -11286   -11277   -11268 
  -11265   -11268   -11275   -11280   -11277   -11271   -11263   -11259 
  -11259   -11267   -11276   -11280   -11281   -11287   -11294   -11302 
  -11314   -11322   -11327   -11335   -11340   -11342   -11348   -11348 
  -11349   -11357   -11362   -11367   -11369   -11375   -11380   -11384 
  -11394   -11402   -11403   -11398   -11399   -11408   -11423   -11435 
  -11446   -11461   -11477   -11493   -11514   -11535   -11551   -11566 
  -11583   -11607   -11630   -11645   -11653   -11665   -11677   -11691 
  -11707   -11719   -11727   -11727   -11720   -11713   -11712   -11713 
  -11718   -11720   -11715   -11701   -11682   -11661   -11638   -11618 
  -11599   -11578   -11560   -11539   -11516   -11489   -11460   -11429 
  -11394   -11361   -11331   -11299   -11273   -11252   -11226   -11195 
  -11163   -11132   -11106   -11087   -11068   -11051   -11034   -11014 
  -10991   -10974   -10960   -10955   -10957   -10955   -10945   -10939 
  -10936   -10944   -10959   -10975   -10991   -11006   -11020   -11037 
  -11060   -11083   -11107   -11136   -11163   -11184   -11202   -11221 
  -11249   -11284   -11318   -11345   -11369   -11389   -11408   -11429 
  -11453   -11479   -11503   -11527   -11546   -11554   -11562   -11580 
  -11600   -11622   -11642   -11658   -11669   -11673   -11680   -11693 
  -11704   -11711   -11718   -11727   -11734   -11736   -11738   -11738 
  -11730   -11727   -11726   -11719   -11711   -11705   -11699   -11686 
  -11672   -11658   -11642   -11620   -11597   -11576   -11558   -11547 
  -11541   -11530   -11514   -11495   -11472   -11452   -11434   -11416 
  -11402   -11392   -11381   -11369   -11357   -11346   -11335   -11326 
  -11322   -11319   -11317   -11319   -11326   -11333   -11341   -11349 
  -11356   -11360   -11367   -11383   -11399   -11411   -11421   -11429 
  -11435   -11439   -11441   -11448   -11454   -11453   -11450   -11452 
  -11452   -11453   -11452   -11442   -11427   -11414   -11403   -11398 
  -11395   -11385   -11371   -11358   -11345   -11334   -11326   -11317 
  -11306   -11292   -11279   -11272   -11268   -11256   -11241   -11223 
  -11209   -11199   -11198   -11194   -11186   -11175   -11164   -11151 
  -11140   -11129   -11121   -11122   -11129   -11133   -11129   -11125 
  -11121   -11122   -11130   -11142   -11160   -11176   -11190   -11203 
  -11213   -11223   -11242   -11263   -11280   -11294   -11304   -11318 
  -11337   -11360   -11385   -11404   -11419   -11434   -11446   -11458 
  -11473   -11484   -11491   -11502   -11515   -11527   -11530   -11527 
  -11524   -11520   -11523   -11534   -11538   -11537   -11530   -11518 
  -11510   -11507   -11496   -11485   -11476   -11468   -11460   -11450 
  -11442   -11434   -11425   -11412   -11403   -11395   -11388   -11383 
  -11377   -11376   -11377   -11375   -11367   -11358   -11353   -11356 
  -11365   -11372   -11375   -11376   -11371   -11372   -11383   -11394 
  -11403   -11404   -11402   -11404   -11408   -11411   -11412   -11408 
  -11403   -11398   -11392   -11392   -11398   -11396   -11388   -11375 
  -11358   -11342   -11334   -11329   -11321   -11311   -11299   -11280 
  -11257   -11240   -11232   -11223   -11214   -11205   -11195   -11188 
  -11187   -11186   -11182   -11178   -11176   -11180   -11184   -11188 
  -11191   -11195   -11205   -11221   -11233   -11237   -11240   -11249 
  -11260   -11271   -11284   -11295   -11304   -11317   -11329   -11340 
  -11348   -11352   -11353   -11356   -11362   -11375   -11385   -11396 
  -11402   -11404   -11416   -11431   -11438   -11443   -11452   -11453 
  -11452   -11454   -11454   -11453   -11452   -11449   -11446   -11446 
  -11441   -11433   -11426   -11416   -11411   -11407   -11403   -11398 
  -11387   -11371   -11353   -11335   -11326   -11323   -11321   -11315 
  -11306   -11295   -11284   -11277   -11277   -11276   -11271   -11269 
  -11273   -11275   -11272   -11277   -11283   -11287   -11294   -11295 
  -11298   -11307   -11314   -11315   -11318   -11323   -11333   -11341 
  -11341   -11338   -11335   -11333   -11335   -11342   -11348   -11349 
  -11345   -11342   -11345   -11348   -11346   -11344   -11338   -11334 
  -11333   -11325   -11311   -11304   -11302   -11294   -11286   -11276 
  -11264   -11254   -11249   -11241   -11232   -11227   -11226   -11225 
  -11226   -11227   -11222   -11214   -11213   -11214   -11211   -11207 
  -11205   -11203   -11206   -11213   -11218   -11217   -11215   -11217 
  -11222   -11226   -11234   -11245   -11253   -11263   -11277   -11287 
  -11292   -11300   -11304   -11310   -11326   -11342   -11353   -11362 
  -11367   -11369   -11377   -11392   -11407   -11416   -11423   -11427 
  -11434   -11442   -11448   -11449   -11453   -11456   -11453   -11450 
  -11452   -11453   -11453   -11448   -11443   -11445   -11443   -11442 
  -11448   -11449   -11449   -11453   -11458   -11466   -11475   -11481 
  -11489   -11500   -11511   -11520   -11527   -11533   -11538   -11542 
  -11545   -11547   -11553   -11558   -11566   -11576   -11580   -11577 
  -11573   -11570   -11570   -11570   -11568   -11560   -11551   -11538 
  -11524   -11515   -11504   -11489   -11480   -11470   -11460   -11448 
  -11434   -11419   -11402   -11384   -11375   -11369   -11361   -11350 
  -11334   -11322   -11315   -11306   -11294   -11284   -11277   -11275 
  -11275   -11273   -11271   -11268   -11268   -11271   -11273   -11277 
  -11281   -11286   -11291   -11300   -11310   -11321   -11333   -11342 
  -11349   -11357   -11365   -11371   -11381   -11391   -11399   -11407 
  -11415   -11421   -11426   -11431   -11434   -11435   -11439   -11448 
  -11456   -11461   -11462   -11457   -11448   -11445   -11449   -11454 
  -11457   -11457   -11452   -11445   -11442   -11442   -11439   -11439 
  -11439   -11435   -11434   -11435   -11437   -11437   -11434   -11427 
  -11426   -11430   -11434   -11434   -11435   -11433   -11423   -11414 
  -11407   -11403   -11398   -11392   -11388   -11387   -11387   -11383 
  -11373   -11360   -11345   -11331   -11325   -11319   -11308   -11296 
  -11281   -11267   -11259   -11259   -11253   -11240   -11226   -11215 
  -11206   -11199   -11199   -11198   -11195   -11191   -11188   -11188 
  -11191   -11196   -11206   -11217   -11223   -11233   -11246   -11256 
  -11265   -11276   -11286   -11292   -11304   -11318   -11331   -11345 
  -11358   -11372   -11385   -11396   -11407   -11422   -11437   -11452 
  -11468   -11479   -11488   -11497   -11508   -11520   -11531   -11541 
  -11551   -11560   -11566   -11574   -11585   -11595   -11601   -11601 
  -11603   -11605   -11603   -11596   -11589   -11587   -11584   -11578 
  -11573   -11564   -11549   -11531   -11511   -11491   -11472   -11450 
  -11431   -11415   -11394   -11369   -11345   -11322   -11294   -11263 
  -11236   -11210   -11186   -11164   -11144   -11124   -11103   -11087 
