Origin Time       2025/01/13 21:19:00
Lat.              31.8
Long.             131.6
Depth. (km)       30
Mag.              6.9
Station Code      SMNH15
Station Lat.      35.5232
Station Long.     133.0226
Station Height(m) -82
Record Time       2025/01/13 21:21:07
Sampling Freq(Hz) 100Hz
Duration Time(s)  134
Dir.              3
Scale Factor      3923(gal)/8224838
Max. Acc. (gal)   0.381
Last Correction   2025/01/13 21:21:07
Memo.             
[...]
  -21492   -21490   -21492   -21496   -21493   -21487   -21489   -21487 
  -21478   -21473   -21473   -21470   -21467   -21467   -21467   -21462 
  -21458   -21458   -21459   -21460   -21463   -21466   -21471   -21479 
  -21481   -21477   -21475   -21471   -21463   -21456   -21448   -21435 
  -21416   -21396   -21374   -21350   -21327   -21308   -21288   -21263 
  -21239   -21219   -21201   -21182   -21169   -21158   -21146   -21134 
  -21126   -21120   -21115   -21112   -21111   -21111   -21107   -21104 
  -21104   -21099   -21097   -21104   -21108   -21105   -21101   -21104 
  -21107   -21109   -21116   -21126   -21130   -21136   -21147   -21157 
  -21163   -21176   -21189   -21201   -21215   -21230   -21244   -21258 
  -21271   -21285   -21301   -21317   -21328   -21340   -21355   -21367 
  -21375   -21384   -21388   -21392   -21394   -21392   -21388   -21385 
  -21379   -21374   -21375   -21375   -21375   -21379   -21386   -21389 
  -21396   -21409   -21421   -21429   -21439   -21446   -21454   -21466 
  -21478   -21486   -21492   -21498   -21505   -21508   -21505   -21505 
  -21504   -21498   -21493   -21489   -21485   -21479   -21474   -21467 
  -21459   -21451   -21442   -21429   -21421   -21415   -21404   -21396 
  -21394   -21390   -21388   -21390   -21396   -21405   -21413   -21417 
  -21425   -21432   -21440   -21448   -21451   -21451   -21454   -21455 
  -21450   -21451   -21456   -21462   -21466   -21474   -21478   -21478 
  -21486   -21494   -21500   -21505   -21510   -21516   -21521   -21531 
  -21539   -21547   -21558   -21564   -21567   -21571   -21577   -21583 
  -21590   -21595   -21598   -21597   -21595   -21591   -21586   -21579 
  -21571   -21563   -21551   -21537   -21528   -21520   -21510   -21502 
  -21493   -21483   -21479   -21475   -21463   -21447   -21432   -21416 
  -21398   -21385   -21370   -21351   -21340   -21332   -21323   -21320 
  -21323   -21323   -21327   -21338   -21348   -21355   -21363   -21375 
  -21388   -21398   -21408   -21413   -21417   -21421   -21421   -21420 
  -21419   -21415   -21401   -21389   -21382   -21373   -21361   -21348 
  -21338   -21327   -21315   -21304   -21296   -21286   -21273   -21263 
  -21257   -21249   -21240   -21234   -21230   -21228   -21230   -21236 
  -21243   -21253   -21265   -21273   -21276   -21285   -21297   -21303 
  -21311   -21324   -21331   -21335   -21346   -21355   -21359   -21366 
  -21374   -21379   -21384   -21389   -21392   -21396   -21402   -21408 
  -21408   -21408   -21411   -21409   -21408   -21405   -21402   -21400 
  -21394   -21386   -21374   -21366   -21361   -21357   -21357   -21354 
  -21351   -21348   -21343   -21342   -21346   -21340   -21336   -21335 
  -21330   -21323   -21323   -21324   -21324   -21324   -21325   -21332 
  -21335   -21335   -21340   -21344   -21348   -21352   -21354   -21354 
  -21359   -21363   -21365   -21366   -21367   -21363   -21357   -21351 
  -21342   -21331   -21321   -21312   -21298   -21284   -21269   -21255 
  -21239   -21226   -21215   -21208   -21200   -21195   -21192   -21188 
  -21182   -21178   -21174   -21172   -21165   -21158   -21155   -21151 
  -21149   -21146   -21139   -21134   -21127   -21123   -21119   -21111 
  -21101   -21096   -21089   -21085   -21082   -21076   -21064   -21055 
  -21050   -21042   -21037   -21037   -21035   -21033   -21031   -21030 
  -21031   -21035   -21039   -21046   -21055   -21065   -21072   -21081 
  -21092   -21111   -21132   -21154   -21173   -21193   -21216   -21244 
  -21269   -21290   -21315   -21338   -21355   -21374   -21392   -21405 
  -21419   -21431   -21443   -21454   -21458   -21462   -21465   -21466 
  -21463   -21459   -21456   -21454   -21450   -21448   -21447   -21443 
  -21443   -21442   -21439   -21439   -21436   -21429   -21421   -21417 
  -21411   -21401   -21389   -21375   -21366   -21357   -21343   -21328 
  -21313   -21300   -21289   -21281   -21271   -21265   -21259   -21254 
  -21251   -21249   -21240   -21236   -21235   -21228   -21222   -21213 
  -21205   -21200   -21195   -21186   -21182   -21181   -21177   -21172 
  -21169   -21169   -21168   -21166   -21163   -21159   -21151   -21145 
  -21139   -21131   -21122   -21115   -21107   -21100   -21096   -21097 
  -21100   -21099   -21096   -21100   -21109   -21115   -21120   -21127 
  -21131   -21132   -21132   -21134   -21135   -21135   -21134   -21136 
  -21142   -21143   -21146   -21151   -21158   -21165   -21174   -21186 
  -21201   -21220   -21240   -21259   -21277   -21296   -21317   -21338 
  -21357   -21373   -21388   -21400   -21412   -21423   -21433   -21443 
  -21448   -21459   -21467   -21473   -21479   -21490   -21497   -21500 
  -21505   -21508   -21510   -21512   -21510   -21512   -21514   -21513 
  -21512   -21512   -21506   -21502   -21500   -21493   -21483   -21474 
  -21460   -21450   -21438   -21425   -21415   -21406   -21398   -21393 
  -21389   -21385   -21381   -21378   -21378   -21381   -21382   -21385 
  -21389   -21394   -21402   -21406   -21411   -21416   -21420   -21421 
  -21424   -21428   -21425   -21424   -21425   -21427   -21424   -21423 
  -21424   -21427   -21424   -21421   -21421   -21423   -21423   -21421 
  -21417   -21413   -21408   -21406   -21404   -21396   -21386   -21379 
  -21374   -21367   -21358   -21348   -21340   -21332   -21323   -21312 
  -21308   -21305   -21300   -21294   -21289   -21285   -21284   -21278 
  -21270   -21266   -21265   -21259   -21254   -21250   -21247   -21247 
  -21249   -21244   -21242   -21243   -21244   -21244   -21250   -21259 
  -21265   -21269   -21277   -21288   -21294   -21307   -21319   -21327 
  -21335   -21343   -21348   -21355   -21363   -21366   -21369   -21373 
  -21378   -21379   -21384   -21388   -21393   -21400   -21405   -21413 
  -21421   -21428   -21435   -21443   -21446   -21448   -21448   -21444 
  -21439   -21432   -21420   -21406   -21394   -21379   -21359   -21338 
  -21312   -21282   -21259   -21238   -21213   -21190   -21168   -21147 
  -21130   -21119   -21108   -21097   -21095   -21096   -21095   -21096 
  -21103   -21108   -21111   -21122   -21132   -21141   -21153   -21166 
  -21174   -21185   -21199   -21209   -21220   -21232   -21244   -21258 
  -21269   -21277   -21284   -21292   -21296   -21296   -21297   -21301 
  -21303   -21305   -21307   -21305   -21303   -21303   -21298   -21294 
  -21296   -21297   -21294   -21300   -21311   -21315   -21321   -21332 
  -21340   -21354   -21373   -21392   -21406   -21424   -21446   -21462 
  -21471   -21482   -21496   -21508   -21517   -21527   -21536   -21543 
  -21546   -21547   -21552   -21558   -21560   -21566   -21574   -21582 
  -21591   -21598   -21604   -21613   -21618   -21621   -21622   -21627 
  -21635   -21640   -21640   -21641   -21643   -21643   -21643   -21645 
  -21648   -21647   -21645   -21649   -21651   -21651   -21655   -21660 
  -21662   -21664   -21666   -21667   -21671   -21675   -21675   -21672 
  -21667   -21662   -21656   -21648   -21640   -21629   -21613   -21597 
  -21579   -21560   -21544   -21529   -21513   -21501   -21487   -21473 
  -21463   -21454   -21444   -21438   -21429   -21417   -21412   -21406 
  -21393   -21384   -21377   -21365   -21352   -21340   -21330   -21317 
  -21305   -21293   -21282   -21270   -21257   -21247   -21240   -21228 
  -21216   -21207   -21200   -21190   -21182   -21178   -21173   -21172 
  -21176   -21176   -21174   -21176   -21176   -21174   -21177   -21177 
  -21174   -21180   -21189   -21199   -21208   -21222   -21235   -21246 
  -21262   -21277   -21286   -21303   -21320   -21335   -21350   -21361 
  -21370   -21382   -21396   -21408   -21420   -21429   -21436   -21444 
  -21450   -21455   -21463   -21465   -21460   -21456   -21455   -21451 
  -21443   -21440   -21439   -21433   -21425   -21417   -21405   -21394 
  -21385   -21371   -21361   -21351   -21339   -21327   -21311   -21294 
  -21284   -21273   -21262   -21251   -21239   -21228   -21220   -21213 
  -21209   -21207   -21203   -21201   -21201   -21200   -21200   -21200 
  -21199   -21196   -21196   -21196   -21195   -21195   -21197   -21199 
  -21199   -21195   -21192   -21193   -21195   -21186   -21177   -21174 
  -21169   -21158   -21150   -21141   -21128   -21115   -21103   -21089 
  -21072   -21058   -21047   -21033   -21015   -21000   -20987   -20976 
  -20964   -20952   -20946   -20941   -20935   -20933   -20933   -20933 
  -20938   -20943   -20949   -20953   -20957   -20964   -20969   -20976 
  -20984   -20989   -20993   -20999   -21006   -21011   -21014   -21015 
  -21019   -21027   -21037   -21047   -21058   -21068   -21078   -21093 
  -21108   -21122   -21136   -21154   -21173   -21192   -21212   -21232 
  -21249   -21263   -21278   -21289   -21297   -21303   -21309   -21315 
  -21321   -21324   -21324   -21321   -21321   -21321   -21321   -21323 
  -21324   -21328   -21332   -21335   -21336   -21340   -21347   -21354 
  -21363   -21374   -21384   -21396   -21408   -21420   -21435   -21450 
  -21462   -21471   -21483   -21493   -21502   -21520   -21533   -21544 
  -21558   -21568   -21581   -21594   -21608   -21618   -21631   -21641 
  -21647   -21655   -21666   -21674   -21678   -21683   -21689   -21694 
  -21697   -21695   -21693   -21687   -21679   -21674   -21668   -21655 
  -21643   -21633   -21621   -21605   -21593   -21581   -21570   -21564 
  -21560   -21558   -21556   -21558   -21563   -21568   -21577   -21589 
  -21600   -21609   -21617   -21622   -21627   -21632   -21635   -21633 
  -21628   -21622   -21618   -21610   -21600   -21589   -21578   -21570 
  -21560   -21548   -21537   -21531   -21525   -21523   -21519   -21517 
  -21516   -21517   -21521   -21523   -21524   -21528   -21535   -21539 
  -21540   -21544   -21551   -21559   -21564   -21571   -21578   -21579 
  -21585   -21591   -21594   -21598   -21602   -21605   -21608   -21608 
  -21605   -21601   -21597   -21591   -21586   -21581   -21579   -21574 
  -21566   -21562   -21559   -21555   -21550   -21541   -21537   -21536 
  -21535   -21529   -21524   -21520   -21513   -21508   -21501   -21487 
  -21471   -21452   -21435   -21412   -21385   -21355   -21324   -21293 
  -21262   -21224   -21185   -21146   -21101   -21057   -21016   -20972 
  -20926   -20885   -20849   -20812   -20780   -20752   -20729   -20710 
  -20694   -20684   -20680   -20679   -20679   -20684   -20694   -20707 
  -20722   -20740   -20756   -20773   -20795   -20815   -20833   -20849 
  -20864   -20877   -20889   -20902   -20912   -20916   -20920   -20926 
  -20927   -20923   -20926   -20935   -20938   -20942   -20950   -20960 
  -20969   -20980   -20992   -21006   -21020   -21038   -21054   -21073 
  -21092   -21111   -21130   -21146   -21161   -21174   -21184   -21192 
  -21204   -21213   -21217   -21224   -21230   -21235   -21238   -21234 
  -21234   -21242   -21240   -21234   -21234   -21232   -21231   -21231 
  -21228   -21222   -21215   -21209   -21207   -21205   -21205   -21204 
  -21203   -21205   -21215   -21224   -21236   -21249   -21261   -21276 
  -21297   -21317   -21336   -21354   -21373   -21388   -21401   -21415 
  -21428   -21443   -21455   -21465   -21470   -21474   -21481   -21489 
  -21494   -21498   -21502   -21505   -21508   -21512   -21513   -21513 
  -21516   -21517   -21512   -21505   -21501   -21493   -21483   -21478 
  -21469   -21462   -21460   -21459   -21456   -21456   -21456   -21460 
  -21467   -21473   -21482   -21492   -21498   -21506   -21513   -21516 
  -21519   -21520   -21517   -21517   -21516   -21506   -21502   -21502 
  -21493   -21485   -21483   -21477   -21466   -21459   -21455   -21451 
  -21446   -21442   -21436   -21429   -21424   -21419   -21415   -21412 
  -21404   -21397   -21390   -21381   -21370   -21362   -21347   -21336 
  -21327   -21315   -21301   -21290   -21282   -21274   -21267   -21261 
  -21253   -21243   -21235   -21226   -21219   -21213   -21204   -21199 
  -21195   -21188   -21184   -21178   -21174   -21174   -21172   -21165 
  -21163   -21166   -21166   -21163   -21166   -21169   -21172   -21176 
  -21180   -21182   -21185   -21189   -21196   -21203   -21205   -21205 
  -21208   -21207   -21204   -21204   -21203   -21197   -21197   -21197 
  -21192   -21189   -21189   -21189   -21188   -21188   -21192   -21197 
  -21203   -21207   -21213   -21222   -21232   -21246   -21259   -21273 
  -21290   -21305   -21321   -21339   -21355   -21370   -21385   -21397 
  -21409   -21419   -21425   -21431   -21436   -21443   -21447   -21450 
  -21452   -21451   -21448   -21446   -21442   -21438   -21428   -21419 
  -21409   -21398   -21384   -21370   -21355   -21338   -21320   -21303 
  -21284   -21263   -21239   -21213   -21188   -21166   -21143   -21123 
  -21105   -21087   -21072   -21062   -21054   -21051   -21049   -21046 
  -21051   -21062   -21076   -21089   -21107   -21130   -21158   -21182 
  -21207   -21235   -21262   -21282   -21308   -21334   -21354   -21369 
  -21386   -21401   -21411   -21419   -21428   -21432   -21435   -21443 
  -21447   -21450   -21454   -21455   -21452   -21454   -21456   -21454 
  -21451   -21451   -21447   -21439   -21432   -21429   -21423   -21412 
  -21405   -21397   -21386   -21379   -21370   -21359   -21351   -21344 
  -21342   -21336   -21331   -21332   -21335   -21338   -21346   -21358 
  -21370   -21385   -21402   -21421   -21444   -21466   -21485   -21508 
  -21531   -21555   -21582   -21609   -21628   -21647   -21671   -21693 
  -21712   -21735   -21757   -21779   -21801   -21821   -21844   -21870 
  -21891   -21915   -21942   -21968   -21992   -22017   -22037   -22054 
  -22075   -22092   -22106   -22117   -22122   -22127   -22130   -22125 
  -22117   -22110   -22094   -22072   -22050   -22026   -21995   -21959 
  -21921   -21880   -21837   -21786   -21733   -21682   -21628   -21573 
  -21516   -21458   -21402   -21347   -21293   -21243   -21193   -21149 
  -21109   -21074   -21042   -21015   -20996   -20980   -20965   -20958 
  -20956   -20952   -20950   -20953   -20958   -20960   -20962   -20968 
  -20972   -20972   -20972   -20968   -20964   -20961   -20958   -20953 
  -20949   -20943   -20935   -20929   -20922   -20915   -20908   -20903 
  -20902   -20899   -20893   -20893   -20898   -20900   -20903   -20908 
  -20915   -20922   -20931   -20942   -20949   -20956   -20966   -20977 
  -20985   -20995   -21006   -21018   -21031   -21046   -21058   -21070 
  -21085   -21096   -21109   -21126   -21138   -21149   -21163   -21177 
  -21184   -21190   -21195   -21196   -21196   -21192   -21188   -21184 
  -21178   -21172   -21162   -21149   -21139   -21128   -21112   -21096 
  -21081   -21066   -21051   -21034   -21018   -21003   -20983   -20964 
  -20946   -20925   -20903   -20884   -20862   -20845   -20826   -20807 
  -20791   -20777   -20765   -20756   -20753   -20750   -20749   -20753 
  -20761   -20769   -20783   -20802   -20819   -20837   -20861   -20888 
  -20918   -20949   -20983   -21019   -21055   -21091   -21128   -21169 
  -21209   -21249   -21289   -21328   -21367   -21402   -21436   -21467 
  -21494   -21524   -21550   -21573   -21594   -21609   -21624   -21641 
  -21654   -21664   -21675   -21685   -21693   -21697   -21699   -21702 
  -21705   -21703   -21701   -21701   -21701   -21697   -21693   -21686 
  -21678   -21672   -21670   -21664   -21658   -21655   -21654   -21649 
  -21648   -21647   -21647   -21649   -21649   -21648   -21645   -21643 
  -21637   -21631   -21622   -21612   -21598   -21585   -21568   -21551 
  -21536   -21516   -21493   -21474   -21456   -21440   -21427   -21416 
  -21406   -21400   -21398   -21397   -21401   -21411   -21421   -21435 
  -21452   -21474   -21496   -21517   -21541   -21570   -21598   -21625 
  -21656   -21693   -21722   -21751   -21786   -21817   -21843   -21868 
  -21891   -21910   -21926   -21938   -21946   -21953   -21955   -21949 
  -21941   -21937   -21928   -21913   -21894   -21876   -21853   -21825 
  -21794   -21763   -21730   -21695   -21659   -21622   -21582   -21546 
  -21514   -21478   -21438   -21406   -21377   -21343   -21315   -21292 
  -21267   -21240   -21217   -21197   -21174   -21153   -21138   -21122 
  -21105   -21091   -21074   -21055   -21037   -21020   -21004   -20987 
  -20969   -20956   -20941   -20925   -20908   -20893   -20881   -20872 
  -20861   -20853   -20845   -20838   -20835   -20831   -20829   -20830 
  -20831   -20834   -20842   -20849   -20856   -20869   -20884   -20896 
  -20911   -20926   -20939   -20956   -20970   -20985   -21000   -21014 
  -21024   -21039   -21054   -21065   -21077   -21092   -21107   -21119 
  -21132   -21146   -21161   -21181   -21201   -21219   -21234   -21247 
  -21263   -21278   -21289   -21304   -21317   -21325   -21336   -21347 
  -21352   -21359   -21367   -21374   -21378   -21385   -21389   -21393 
  -21398   -21405   -21408   -21409   -21415   -21417   -21419   -21421 
  -21420   -21417   -21419   -21419   -21417   -21419   -21416   -21415 
  -21412   -21405   -21400   -21396   -21393   -21385   -21377   -21369 
  -21361   -21352   -21346   -21339   -21334   -21325   -21316   -21309 
  -21305   -21304   -21301   -21301   -21305   -21307   -21311   -21317 
  -21325   -21339   -21352   -21363   -21375   -21393   -21408   -21425 
  -21442   -21455   -21471   -21486   -21498   -21506   -21514   -21520 
  -21524   -21525   -21525   -21528   -21527   -21520   -21512   -21502 
  -21494   -21486   -21474   -21460   -21444   -21427   -21411   -21394 
  -21377   -21358   -21339   -21321   -21300   -21280   -21263   -21246 
  -21226   -21208   -21192   -21177   -21165   -21153   -21139   -21130 
  -21120   -21114   -21111   -21111   -21111   -21112   -21116   -21118 
  -21124   -21135   -21146   -21157   -21170   -21185   -21200   -21219 
  -21240   -21263   -21289   -21312   -21338   -21365   -21389   -21413 
  -21442   -21463   -21483   -21505   -21521   -21536   -21552   -21564 
  -21571   -21579   -21583   -21586   -21586   -21582   -21577   -21573 
  -21567   -21558   -21552   -21546   -21532   -21523   -21514   -21509 
  -21502   -21494   -21490   -21485   -21478   -21475   -21471   -21469 
  -21467   -21465   -21459   -21452   -21450   -21450   -21446   -21438 
  -21433   -21428   -21420   -21415   -21409   -21397   -21386   -21378 
  -21366   -21352   -21339   -21321   -21301   -21281   -21258   -21236 
  -21215   -21190   -21165   -21141   -21116   -21091   -21068   -21046 
  -21026   -21007   -20992   -20977   -20966   -20960   -20954   -20952 
  -20954   -20956   -20957   -20965   -20974   -20984   -20996   -21010 
  -21018   -21027   -21038   -21046   -21057   -21068   -21073   -21080 
  -21087   -21093   -21100   -21104   -21111   -21115   -21118   -21126 
  -21135   -21143   -21153   -21165   -21178   -21192   -21211   -21230 
  -21247   -21265   -21285   -21308   -21334   -21358   -21384   -21411 
  -21436   -21462   -21492   -21519   -21543   -21570   -21595   -21620 
  -21644   -21667   -21690   -21714   -21739   -21760   -21780   -21801 
  -21820   -21838   -21855   -21871   -21884   -21894   -21906   -21918 
  -21918   -21921   -21925   -21924   -21921   -21917   -21907   -21898 
  -21890   -21878   -21860   -21844   -21830   -21809   -21782   -21757 
  -21736   -21712   -21682   -21654   -21629   -21601   -21570   -21541 
  -21517   -21489   -21462   -21439   -21415   -21390   -21370   -21351 
  -21334   -21320   -21308   -21296   -21285   -21278   -21274   -21269 
  -21262   -21257   -21254   -21250   -21244   -21239   -21232   -21223 
