Origin Time       2025/01/13 21:19:00
Lat.              31.8
Long.             131.6
Depth. (km)       30
Mag.              6.9
Station Code      SMNH04
Station Lat.      35.0918
Station Long.     132.5308
Station Height(m) 240
Record Time       2025/01/13 21:20:46
Sampling Freq(Hz) 100Hz
Duration Time(s)  134
Dir.              5
Scale Factor      7845(gal)/8223790
Max. Acc. (gal)   1.570
Last Correction   2025/01/13 21:20:46
Memo.             
[...]
    4822     4849     4839     4762     4637     4513     4432     4413 
    4446     4509     4579     4646     4719     4799     4868     4895 
    4864     4787     4702     4646     4622     4614     4612     4619 
    4641     4672     4680     4635     4556     4477     4415     4376 
    4382     4423     4480     4533     4577     4626     4693     4773 
    4835     4860     4841     4803     4773     4765     4772     4777 
    4781     4770     4722     4629     4509     4371     4230     4114 
    4044     4029     4072     4148     4220     4288     4378     4498 
    4635     4758     4814     4791     4726     4669     4649     4648 
    4615     4526     4407     4290     4191     4137     4160     4270 
    4442     4634     4772     4789     4689     4537     4395     4284 
    4201     4128     4063     4021     4032     4102     4199     4299 
    4399     4496     4577     4631     4648     4631     4604     4584 
    4568     4556     4554     4569     4599     4637     4671     4675 
    4633     4558     4486     4446     4456     4503     4560     4602 
    4642     4698     4762     4820     4858     4861     4823     4747 
    4646     4530     4422     4340     4305     4330     4402     4488 
    4577     4658     4720     4743     4704     4603     4471     4348 
    4261     4212     4180     4149     4109     4085     4110     4187 
    4279     4352     4401     4440     4494     4560     4611     4627 
    4608     4563     4490     4399     4309     4230     4175     4155 
    4166     4178     4168     4160     4185     4260     4396     4576 
    4753     4891     4984     5043     5065     5043     4985     4896 
    4789     4687     4592     4506     4448     4434     4475     4564 
    4660     4710     4704     4677     4658     4648     4645     4658 
    4681     4695     4691     4673     4642     4598     4549     4504 
    4450     4390     4355     4360     4399     4472     4557     4618 
    4642     4645     4653     4685     4734     4781     4808     4800 
    4754     4679     4581     4475     4378     4297     4228     4182 
    4178     4230     4330     4455     4567     4650     4702     4719 
    4710     4689     4662     4621     4561     4492     4417     4342 
    4282     4240     4230     4263     4328     4401     4461     4491 
    4477     4411     4314     4220     4156     4140     4168     4241 
    4352     4475     4577     4644     4666     4653     4615     4558 
    4490     4422     4374     4365     4419     4523     4631     4684 
    4656     4576     4479     4383     4298     4244     4229     4243 
    4267     4295     4326     4352     4380     4425     4480     4538 
    4575     4573     4560     4575     4644     4762     4900     5008 
    5059     5051     5001     4935     4858     4752     4611     4453 
    4295     4152     4036     3970     3970     4037     4162     4317 
    4479     4622     4742     4853     4961     5054     5116     5123 
    5063     4953     4826     4706     4591     4479     4375     4287 
    4210     4137     4062     3998     3986     4036     4132     4249 
    4375     4496     4596     4666     4707     4726     4746     4777 
    4806     4812     4789     4737     4672     4610     4558     4513 
    4452     4378     4306     4267     4284     4364     4473     4580 
    4661     4707     4720     4708     4672     4614     4546     4487 
    4463     4503     4596     4702     4781     4828     4857     4878 
    4895     4904     4891     4845     4795     4777     4808     4868 
    4924     4957     4961     4954     4951     4951     4938     4907 
    4865     4826     4792     4776     4792     4837     4901     4976 
    5043     5103     5161     5223     5275     5298     5271     5193 
    5078     4962     4857     4764     4677     4600     4550     4545 
    4591     4676     4779     4892     5009     5109     5184     5229 
    5250     5244     5202     5121     5008     4873     4733     4606 
    4506     4429     4365     4310     4272     4256     4256     4256 
    4248     4243     4260     4294     4337     4394     4459     4515 
    4563     4598     4621     4633     4626     4585     4503     4386 
    4263     4172     4143     4171     4239     4322     4403     4459 
    4479     4475     4467     4463     4450     4432     4417     4415 
    4429     4446     4448     4415     4344     4243     4139     4066 
    4056     4116     4224     4352     4482     4592     4666     4696 
    4683     4644     4599     4557     4506     4430     4349     4294 
    4274     4270     4266     4249     4228     4233     4298     4425 
    4585     4745     4885     5001     5090     5150     5165     5124 
    5040     4942     4841     4742     4645     4546     4455     4378 
    4311     4255     4228     4241     4299     4406     4557     4727 
    4888     5019     5098     5105     5046     4950     4846     4746 
    4673     4629     4598     4563     4529     4513     4515     4536 
    4571     4614     4653     4691     4734     4776     4804     4808 
    4772     4699     4610     4526     4464     4442     4464     4504 
    4536     4548     4534     4483     4398     4305     4228     4167 
    4124     4104     4110     4141     4194     4261     4338     4418 
    4480     4511     4500     4446     4371     4302     4261     4253 
    4268     4293     4307     4298     4268     4229     4195     4174 
    4167     4174     4185     4203     4240     4291     4344     4401 
    4463     4519     4560     4572     4554     4525     4503     4483 
    4453     4411     4372     4357     4392     4482     4608     4743 
    4850     4923     4966     4982     4963     4907     4824     4735 
    4652     4590     4564     4568     4577     4590     4606     4625 
    4653     4692     4735     4770     4789     4804     4839     4900 
    4968     5020     5054     5078     5094     5097     5077     5015 
    4932     4866     4827     4810     4811     4808     4787     4756 
    4727     4691     4637     4564     4477     4394     4324     4276 
    4253     4263     4320     4406     4492     4568     4627     4669 
    4703     4735     4758     4749     4692     4590     4471     4364 
    4280     4222     4174     4128     4104     4114     4162     4236 
    4315     4371     4394     4395     4374     4329     4271     4222 
    4190     4172     4159     4151     4167     4216     4284     4372 
    4460     4526     4556     4548     4517     4490     4484     4498 
    4509     4502     4491     4491     4503     4517     4514     4480 
    4413     4329     4255     4212     4210     4256     4344     4460 
    4573     4665     4729     4762     4770     4757     4730     4687 
    4629     4556     4477     4398     4324     4267     4239     4229 
    4222     4203     4168     4120     4072     4056     4074     4099 
    4126     4168     4230     4302     4378     4464     4561     4662 
    4762     4838     4861     4835     4777     4696     4595     4472 
    4322     4149     3973     3835     3766     3763     3815     3902 
    4013     4135     4256     4353     4419     4464     4511     4565 
    4614     4649     4672     4680     4665     4622     4550     4452 
    4332     4209     4091     3987     3925     3915     3944     4014 
    4113     4217     4318     4413     4494     4571     4649     4737 
    4827     4909     4973     5023     5059     5073     5065     5039 
    5005     4959     4889     4783     4645     4498     4379     4310 
    4288     4306     4351     4399     4441     4488     4545     4599 
    4637     4637     4599     4548     4494     4445     4411     4396 
    4403     4421     4438     4460     4483     4499     4513     4522 
    4521     4527     4548     4565     4580     4604     4634     4669 
    4720     4788     4855     4905     4924     4911     4870     4812 
    4752     4693     4642     4607     4591     4588     4604     4642 
    4688     4716     4712     4680     4645     4608     4569     4533 
    4503     4479     4468     4479     4511     4561     4621     4683 
    4745     4797     4827     4826     4806     4780     4753     4730 
    4706     4672     4648     4650     4679     4730     4796     4866 
    4941     5013     5069     5105     5127     5125     5097     5047 
    4976     4884     4784     4692     4607     4533     4477     4441 
    4418     4410     4411     4426     4473     4560     4675     4795 
    4912     5016     5092     5138     5157     5136     5080     5001 
    4905     4800     4700     4606     4509     4415     4345     4298 
    4257     4220     4191     4176     4183     4226     4302     4394 
    4484     4567     4639     4698     4733     4747     4741     4711 
    4665     4592     4495     4388     4282     4174     4081     4017 
    3989     3997     4041     4113     4197     4284     4379     4477 
    4572     4645     4676     4658     4618     4587     4587     4622 
    4680     4739     4774     4776     4750     4722     4710     4720 
    4749     4788     4839     4901     4972     5057     5159     5263 
    5346     5386     5371     5298     5171     5007     4816     4614 
    4409     4221     4062     3944     3885     3879     3904     3936 
    3977     4014     4044     4052     4028     3982     3933     3883 
    3821     3746     3663     3595     3554     3543     3551     3568 
    3582     3597     3613     3634     3659     3677     3681     3686 
    3703     3731     3758     3773     3774     3769     3765     3767 
    3774     3796     3843     3920     4017     4110     4183     4237 
    4275     4291     4298     4307     4334     4384     4455     4545 
    4642     4735     4831     4934     5035     5130     5215     5289 
    5346     5389     5422     5439     5433     5412     5381     5336 
    5279     5227     5189     5170     5163     5152     5112     5034 
    4947     4865     4788     4727     4681     4637     4596     4573 
    4575     4594     4612     4623     4627     4634     4649     4666 
    4683     4688     4675     4627     4546     4455     4374     4299 
    4228     4163     4104     4048     3997     3948     3904     3878 
    3871     3886     3920     3967     4021     4079     4141     4210 
    4283     4353     4422     4488     4558     4630     4691     4729 
    4739     4729     4711     4692     4675     4657     4627     4583 
    4536     4506     4511     4554     4621     4689     4747     4796 
    4843     4880     4893     4888     4865     4828     4783     4726 
    4664     4603     4541     4480     4432     4407     4406     4425 
    4465     4511     4553     4598     4654     4727     4824     4931 
    5023     5088     5123     5142     5158     5152     5112     5034 
    4919     4783     4653     4542     4456     4390     4338     4307 
    4309     4344     4407     4479     4544     4594     4634     4669 
    4702     4733     4749     4731     4681     4610     4518     4405 
    4271     4139     4028     3954     3937     3974     4055     4179 
    4340     4509     4664     4792     4880     4923     4919     4873 
    4808     4734     4656     4587     4522     4452     4390     4344 
    4318     4313     4325     4347     4372     4403     4441     4492 
    4552     4602     4642     4683     4719     4749     4764     4756 
    4725     4681     4633     4599     4583     4573     4569     4581 
    4621     4685     4774     4884     4996     5090     5162     5223 
    5283     5331     5348     5337     5290     5200     5071     4922 
    4764     4610     4476     4375     4313     4294     4325     4392 
    4473     4549     4611     4654     4668     4650     4607     4541 
    4455     4360     4274     4202     4152     4124     4120     4149 
    4207     4280     4349     4401     4440     4475     4496     4491 
    4450     4380     4293     4198     4106     4031     3971     3920 
    3874     3842     3827     3832     3870     3942     4025     4110 
    4195     4271     4333     4387     4425     4432     4407     4356 
    4280     4186     4090     4009     3948     3900     3866     3850 
    3856     3893     3958     4028     4089     4141     4190     4226 
    4247     4249     4244     4243     4260     4313     4384     4450 
    4495     4517     4515     4499     4471     4421     4344     4255 
    4168     4089     4020     3966     3923     3886     3866     3863 
    3875     3906     3960     4018     4078     4145     4225     4310 
    4386     4438     4477     4504     4531     4581     4656     4753 
    4868     4982     5090     5189     5265     5314     5343     5347 
    5325     5286     5239     5202     5196     5213     5251     5305 
    5368     5437     5503     5557     5595     5614     5614     5597 
    5579     5564     5540     5508     5464     5404     5331     5255 
    5171     5092     5031     4992     4965     4945     4934     4924 
    4916     4907     4892     4864     4816     4746     4653     4541 
    4415     4286     4145     3994     3846     3697     3551     3418 
    3296     3184     3092     3029     2998     3005     3044     3109 
    3198     3316     3466     3640     3817     3985     4131     4251 
    4347     4422     4472     4491     4482     4453     4414     4379 
    4351     4344     4364     4410     4482     4590     4738     4926 
    5140     5360     5566     5748     5899     6015     6107     6170 
    6189     6165     6107     6023     5937     5852     5772     5711 
    5671     5640     5621     5616     5622     5634     5647     5645 
    5624     5578     5501     5389     5240     5063     4861     4641 
    4417     4203     4005     3825     3670     3547     3461     3414 
    3410     3442     3496     3559     3619     3669     3719     3767 
    3809     3840     3855     3854     3850     3855     3871     3896 
    3932     3967     3990     4006     4025     4052     4086     4116 
    4139     4152     4162     4185     4233     4293     4344     4386 
    4428     4482     4556     4649     4756     4858     4947     5026 
    5094     5152     5201     5229     5233     5213     5162     5088 
    5000     4905     4807     4712     4629     4571     4556     4590 
    4662     4756     4853     4935     4995     5036     5062     5063 
    5049     5032     5032     5053     5080     5109     5128     5127 
    5103     5062     5008     4941     4860     4774     4692     4617 
    4545     4483     4433     4398     4387     4399     4429     4477 
    4554     4648     4741     4819     4873     4896     4887     4858 
    4820     4779     4734     4680     4611     4536     4460     4383 
    4306     4234     4183     4152     4143     4159     4194     4236 
    4284     4342     4403     4457     4509     4563     4617     4669 
    4722     4764     4784     4783     4764     4735     4700     4668 
    4653     4660     4693     4754     4826     4900     4965     5013 
    5040     5040     5016     4985     4947     4905     4864     4816 
    4760     4693     4612     4521     4425     4324     4216     4099 
    3981     3867     3769     3697     3659     3662     3690     3730 
    3773     3815     3846     3869     3882     3882     3869     3846 
    3805     3754     3703     3659     3624     3601     3595     3597 
    3608     3645     3709     3800     3908     4025     4148     4271 
    4392     4510     4606     4672     4704     4706     4688     4658 
    4627     4603     4596     4607     4630     4661     4693     4711 
    4710     4692     4669     4631     4569     4490     4396     4290 
    4183     4082     3975     3874     3792     3732     3696     3685 
    3704     3738     3777     3815     3848     3874     3886     3885 
    3877     3879     3905     3964     4058     4172     4288     4392 
    4468     4509     4519     4509     4488     4469     4456     4448 
    4438     4422     4401     4390     4396     4414     4438     4472 
    4513     4569     4645     4737     4841     4949     5053     5148 
    5238     5317     5389     5449     5506     5564     5622     5672 
    5713     5740     5757     5775     5798     5825     5857     5886 
    5898     5898     5877     5834     5776     5713     5652     5602 
    5572     5566     5570     5574     5578     5574     5566     5557 
    5539     5494     5429     5344     5240     5132     5024     4907 
    4776     4625     4457     4291     4124     3959     3804     3657 
    3527     3437     3380     3346     3337     3345     3365     3400 
    3449     3497     3534     3557     3566     3554     3522     3481 
    3442     3415     3410     3423     3456     3511     3584     3677 
    3789     3901     4005     4097     4167     4218     4259     4293 
    4326     4367     4415     4471     4536     4603     4666     4730 
    4779     4803     4807     4791     4749     4698     4654     4626 
    4618     4639     4696     4781     4892     5019     5146     5255 
    5339     5397     5421     5405     5355     5278     5190     5101 
    5015     4932     4857     4800     4777     4787     4824     4880 
    4950     5024     5086     5128     5148     5147     5120     5078 
    5026     4957     4874     4789     4707     4633     4572     4519 
    4468     4429     4409     4409     4437     4490     4548     4602 
    4644     4656     4631     4573     4484     4374     4249     4116 
    3983     3859     3753     3676     3638     3630     3630     3636 
    3646     3663     3696     3740     3797     3866     3933     3994 
    4051     4101     4140     4159     4162     4151     4122     4082 
    4044     4014     4004     4021     4070     4151     4266     4410 
    4579     4756     4928     5089     5229     5347     5431     5482 
    5509     5521     5532     5548     5567     5583     5586     5572 
    5541     5501     5454     5400     5337     5269     5197     5121 
    5047     4978     4923     4877     4841     4823     4828     4843 
    4872     4904     4928     4946     4959     4965     4962     4955 
    4935     4904     4866     4824     4784     4746     4703     4644 
    4567     4472     4360     4241     4120     3998     3883     3784 
    3701     3636     3593     3572     3562     3564     3577     3604 
    3642     3697     3762     3832     3905     3978     4047     4114 
    4175     4218     4240     4237     4210     4167     4120     4082 
    4054     4041     4041     4045     4059     4089     4129     4172 
    4214     4249     4272     4283     4290     4294     4297     4303 
    4324     4356     4402     4460     4521     4581     4649     4716 
    4776     4833     4889     4941     4990     5036     5063     5076 
    5078     5073     5062     5049     5034     5019     4996     4974 
    4953     4932     4919     4915     4911     4903     4887     4865 
    4850     4839     4824     4804     4774     4743     4719     4700 
    4693     4695     4699     4703     4702     4695     4689     4691 
    4695     4698     4702     4706     4699     4683     4660     4626 
    4585     4540     4492     4449     4415     4392     4375     4360 
    4359     4369     4380     4383     4378     4367     4352     4344 
    4344     4356     4390     4446     4515     4583     4644     4683 
