Origin Time       2025/01/13 21:19:00
Lat.              31.8
Long.             131.6
Depth. (km)       30
Mag.              6.9
Station Code      SMNH02
Station Lat.      35.2235
Station Long.     133.0856
Station Height(m) 340
Record Time       2025/01/13 21:20:58
Sampling Freq(Hz) 100Hz
Duration Time(s)  120
Dir.              6
Scale Factor      7845(gal)/8223790
Max. Acc. (gal)   0.516
Last Correction   2025/01/13 21:21:00
Memo.             
[...]
  -11457   -11476   -11492   -11499   -11500   -11496   -11495   -11502 
  -11511   -11520   -11538   -11557   -11564   -11557   -11545   -11530 
  -11518   -11512   -11515   -11523   -11527   -11531   -11530   -11512 
  -11503   -11510   -11523   -11539   -11543   -11533   -11523   -11523 
  -11526   -11531   -11546   -11573   -11591   -11583   -11565   -11553 
  -11538   -11524   -11519   -11514   -11503   -11488   -11472   -11462 
  -11461   -11457   -11448   -11441   -11441   -11442   -11446   -11453 
  -11457   -11458   -11464   -11466   -11466   -11469   -11465   -11452 
  -11445   -11445   -11439   -11437   -11443   -11450   -11448   -11441 
  -11439   -11441   -11439   -11443   -11450   -11454   -11460   -11468 
  -11477   -11488   -11496   -11502   -11506   -11507   -11506   -11504 
  -11507   -11510   -11520   -11533   -11535   -11520   -11502   -11492 
  -11480   -11458   -11449   -11452   -11449   -11445   -11441   -11434 
  -11430   -11439   -11454   -11465   -11476   -11496   -11506   -11503 
  -11500   -11492   -11485   -11484   -11487   -11489   -11492   -11497 
  -11510   -11512   -11500   -11488   -11487   -11495   -11500   -11495 
  -11491   -11491   -11488   -11491   -11491   -11492   -11502   -11515 
  -11523   -11516   -11500   -11492   -11489   -11489   -11492   -11496 
  -11496   -11495   -11496   -11504   -11512   -11514   -11519   -11537 
  -11551   -11551   -11546   -11543   -11538   -11530   -11533   -11543 
  -11554   -11573   -11597   -11610   -11603   -11585   -11558   -11530 
  -11518   -11522   -11535   -11547   -11554   -11553   -11542   -11534 
  -11526   -11510   -11492   -11480   -11476   -11476   -11473   -11461 
  -11452   -11457   -11470   -11481   -11485   -11492   -11503   -11506 
  -11497   -11491   -11489   -11483   -11476   -11470   -11460   -11446 
  -11427   -11411   -11406   -11402   -11400   -11406   -11416   -11421 
  -11418   -11418   -11416   -11412   -11412   -11414   -11414   -11407 
  -11396   -11391   -11389   -11395   -11403   -11412   -11426   -11437 
  -11442   -11438   -11422   -11403   -11389   -11384   -11387   -11395 
  -11399   -11403   -11412   -11422   -11435   -11456   -11473   -11476 
  -11469   -11466   -11472   -11476   -11469   -11456   -11449   -11448 
  -11445   -11443   -11441   -11434   -11426   -11423   -11415   -11402 
  -11402   -11412   -11425   -11443   -11468   -11483   -11489   -11503 
  -11518   -11529   -11541   -11558   -11565   -11556   -11542   -11530 
  -11522   -11527   -11554   -11581   -11591   -11589   -11581   -11574 
  -11577   -11591   -11616   -11639   -11649   -11645   -11628   -11605 
  -11587   -11584   -11591   -11592   -11591   -11588   -11572   -11553 
  -11535   -11520   -11504   -11489   -11483   -11481   -11484   -11485 
  -11480   -11475   -11479   -11496   -11515   -11518   -11506   -11489 
  -11469   -11450   -11442   -11438   -11433   -11427   -11426   -11434 
  -11441   -11443   -11450   -11460   -11464   -11465   -11469   -11473 
  -11479   -11485   -11487   -11485   -11485   -11481   -11476   -11483 
  -11491   -11493   -11493   -11492   -11488   -11479   -11472   -11480 
  -11497   -11515   -11534   -11549   -11554   -11546   -11538   -11535 
  -11526   -11514   -11512   -11518   -11524   -11529   -11523   -11508 
  -11499   -11499   -11502   -11504   -11500   -11496   -11507   -11516 
  -11516   -11520   -11533   -11543   -11539   -11520   -11500   -11487 
  -11476   -11462   -11453   -11449   -11442   -11426   -11410   -11396 
  -11381   -11373   -11375   -11383   -11398   -11416   -11433   -11434 
  -11429   -11429   -11419   -11404   -11395   -11394   -11395   -11402 
  -11410   -11408   -11400   -11396   -11388   -11383   -11383   -11388 
  -11403   -11421   -11431   -11439   -11443   -11441   -11433   -11421 
  -11410   -11403   -11407   -11425   -11433   -11430   -11426   -11422 
  -11416   -11422   -11439   -11460   -11481   -11504   -11518   -11518 
  -11511   -11510   -11519   -11534   -11539   -11531   -11524   -11516 
  -11496   -11488   -11500   -11516   -11523   -11526   -11526   -11515 
  -11496   -11483   -11477   -11475   -11475   -11466   -11441   -11419 
  -11408   -11408   -11421   -11445   -11469   -11484   -11481   -11466 
  -11449   -11437   -11431   -11425   -11419   -11419   -11415   -11399 
  -11387   -11384   -11388   -11396   -11406   -11411   -11408   -11408 
  -11414   -11414   -11411   -11418   -11429   -11431   -11430   -11426 
  -11423   -11416   -11406   -11410   -11431   -11464   -11499   -11523 
  -11527   -11516   -11507   -11510   -11523   -11538   -11557   -11573 
  -11581   -11580   -11577   -11581   -11584   -11573   -11557   -11546 
  -11538   -11539   -11547   -11560   -11578   -11591   -11597   -11605 
  -11603   -11595   -11599   -11607   -11614   -11622   -11626   -11624 
  -11619   -11610   -11604   -11600   -11593   -11589   -11597   -11615 
  -11631   -11635   -11631   -11623   -11608   -11595   -11593   -11603 
  -11619   -11639   -11655   -11665   -11664   -11658   -11654   -11650 
  -11650   -11657   -11665   -11666   -11655   -11646   -11653   -11661 
  -11657   -11646   -11632   -11619   -11605   -11591   -11588   -11596 
  -11603   -11603   -11604   -11610   -11610   -11599   -11592   -11595 
  -11593   -11591   -11589   -11591   -11593   -11597   -11601   -11603 
  -11595   -11574   -11556   -11549   -11547   -11549   -11557   -11570 
  -11577   -11570   -11562   -11560   -11556   -11546   -11542   -11545 
  -11547   -11547   -11534   -11504   -11475   -11458   -11460   -11476 
  -11496   -11508   -11508   -11496   -11475   -11449   -11430   -11426 
  -11435   -11448   -11458   -11460   -11449   -11434   -11426   -11433 
  -11445   -11461   -11479   -11488   -11488   -11493   -11504   -11511 
  -11522   -11537   -11554   -11572   -11581   -11580   -11580   -11585 
  -11589   -11591   -11592   -11595   -11595   -11587   -11574   -11570 
  -11573   -11568   -11549   -11527   -11504   -11481   -11456   -11434 
  -11422   -11414   -11410   -11411   -11412   -11422   -11439   -11453 
  -11454   -11457   -11462   -11461   -11460   -11468   -11473   -11476 
  -11483   -11485   -11480   -11465   -11446   -11433   -11427   -11425 
  -11426   -11434   -11442   -11442   -11437   -11438   -11442   -11439 
  -11431   -11416   -11408   -11418   -11434   -11441   -11441   -11442 
  -11441   -11433   -11421   -11410   -11400   -11396   -11398   -11398 
  -11385   -11362   -11342   -11326   -11308   -11304   -11314   -11323 
  -11326   -11335   -11349   -11361   -11381   -11394   -11396   -11404 
  -11416   -11422   -11431   -11449   -11465   -11473   -11476   -11477 
  -11470   -11461   -11457   -11450   -11449   -11462   -11480   -11493 
  -11506   -11516   -11522   -11526   -11520   -11511   -11506   -11497 
  -11481   -11465   -11456   -11443   -11431   -11431   -11439   -11435 
  -11426   -11422   -11416   -11407   -11402   -11406   -11408   -11411 
  -11426   -11442   -11445   -11446   -11453   -11454   -11456   -11460 
  -11461   -11464   -11473   -11483   -11481   -11481   -11489   -11497 
  -11500   -11500   -11496   -11499   -11503   -11504   -11514   -11527 
  -11537   -11539   -11534   -11530   -11523   -11514   -11502   -11483 
  -11458   -11434   -11418   -11408   -11404   -11411   -11426   -11434 
  -11435   -11434   -11435   -11439   -11439   -11434   -11427   -11419 
  -11416   -11422   -11435   -11450   -11457   -11454   -11443   -11430 
  -11416   -11410   -11419   -11430   -11435   -11449   -11460   -11464 
  -11469   -11470   -11468   -11476   -11485   -11484   -11473   -11461 
  -11450   -11442   -11439   -11443   -11446   -11446   -11446   -11450 
  -11453   -11452   -11448   -11446   -11456   -11461   -11453   -11445 
  -11445   -11446   -11445   -11450   -11457   -11452   -11448   -11457 
  -11465   -11470   -11470   -11465   -11469   -11480   -11484   -11484 
  -11484   -11483   -11481   -11481   -11481   -11483   -11484   -11485 
  -11477   -11466   -11465   -11469   -11469   -11462   -11452   -11438 
  -11427   -11426   -11439   -11458   -11479   -11496   -11503   -11499 
  -11487   -11476   -11470   -11464   -11458   -11460   -11462   -11462 
  -11458   -11448   -11437   -11427   -11415   -11410   -11422   -11442 
  -11457   -11464   -11472   -11479   -11481   -11488   -11499   -11508 
  -11518   -11529   -11541   -11550   -11560   -11568   -11572   -11573 
  -11576   -11583   -11593   -11601   -11601   -11596   -11593   -11585 
  -11580   -11581   -11583   -11585   -11597   -11608   -11607   -11600 
  -11595   -11591   -11587   -11595   -11607   -11608   -11608   -11608 
  -11600   -11580   -11556   -11539   -11527   -11523   -11531   -11543 
  -11551   -11546   -11534   -11519   -11503   -11492   -11495   -11504 
  -11507   -11499   -11485   -11472   -11457   -11449   -11452   -11456 
  -11460   -11464   -11461   -11453   -11446   -11442   -11445   -11452 
  -11461   -11473   -11485   -11488   -11491   -11489   -11480   -11475 
  -11473   -11479   -11493   -11507   -11511   -11507   -11503   -11496 
  -11491   -11495   -11507   -11526   -11541   -11541   -11527   -11512 
  -11502   -11493   -11493   -11499   -11503   -11503   -11500   -11500 
  -11503   -11506   -11506   -11508   -11516   -11524   -11535   -11541 
  -11539   -11539   -11539   -11538   -11539   -11545   -11550   -11551 
  -11546   -11549   -11564   -11577   -11583   -11589   -11595   -11597 
  -11603   -11612   -11623   -11627   -11627   -11623   -11607   -11585 
  -11572   -11566   -11560   -11545   -11531   -11524   -11518   -11504 
  -11491   -11479   -11466   -11454   -11442   -11430   -11416   -11406 
  -11399   -11395   -11384   -11367   -11352   -11349   -11358   -11373 
  -11392   -11406   -11412   -11421   -11425   -11429   -11437   -11445 
  -11450   -11461   -11477   -11491   -11499   -11503   -11504   -11512 
  -11516   -11511   -11503   -11497   -11487   -11473   -11473   -11483 
  -11488   -11489   -11488   -11487   -11488   -11484   -11481   -11487 
  -11484   -11472   -11472   -11476   -11468   -11468   -11475   -11466 
  -11452   -11443   -11434   -11431   -11435   -11439   -11439   -11445 
  -11453   -11457   -11458   -11465   -11470   -11470   -11465   -11452 
  -11442   -11446   -11460   -11477   -11484   -11480   -11481   -11479 
  -11477   -11489   -11502   -11511   -11526   -11537   -11542   -11549 
  -11546   -11535   -11529   -11520   -11500   -11481   -11480   -11489 
  -11496   -11495   -11489   -11479   -11462   -11448   -11439   -11431 
  -11422   -11416   -11421   -11427   -11429   -11423   -11416   -11414 
  -11421   -11426   -11429   -11435   -11442   -11446   -11452   -11454 
  -11452   -11443   -11429   -11421   -11414   -11402   -11387   -11376 
  -11373   -11372   -11375   -11379   -11375   -11358   -11341   -11329 
  -11325   -11318   -11317   -11321   -11315   -11308   -11302   -11284 
  -11263   -11246   -11233   -11227   -11232   -11232   -11225   -11221 
  -11221   -11221   -11230   -11246   -11257   -11275   -11296   -11313 
  -11331   -11358   -11384   -11407   -11433   -11460   -11480   -11493 
  -11502   -11511   -11519   -11531   -11547   -11562   -11577   -11591 
  -11593   -11592   -11599   -11601   -11596   -11597   -11604   -11605 
  -11610   -11619   -11624   -11623   -11623   -11623   -11619   -11616 
  -11618   -11618   -11623   -11630   -11638   -11645   -11651   -11664 
  -11682   -11707   -11734   -11755   -11776   -11799   -11821   -11843 
  -11859   -11867   -11869   -11867   -11861   -11844   -11830   -11816 
  -11804   -11799   -11796   -11797   -11797   -11785   -11765   -11745 
  -11723   -11709   -11704   -11691   -11668   -11650   -11631   -11603 
  -11578   -11566   -11561   -11557   -11558   -11564   -11570   -11587 
  -11605   -11615   -11631   -11653   -11664   -11666   -11673   -11685 
  -11701   -11720   -11736   -11753   -11772   -11785   -11785   -11785 
  -11796   -11805   -11809   -11817   -11830   -11834   -11828   -11823 
  -11820   -11815   -11813   -11807   -11792   -11776   -11766   -11753 
  -11730   -11712   -11696   -11674   -11650   -11628   -11605   -11591 
  -11587   -11583   -11570   -11554   -11539   -11524   -11511   -11500 
  -11492   -11483   -11479   -11468   -11445   -11425   -11403   -11375 
  -11348   -11326   -11300   -11271   -11242   -11221   -11199   -11182 
  -11169   -11159   -11146   -11142   -11148   -11152   -11153   -11155 
  -11157   -11168   -11184   -11198   -11211   -11219   -11215   -11211 
  -11210   -11206   -11214   -11230   -11242   -11249   -11253   -11259 
  -11259   -11257   -11261   -11263   -11259   -11254   -11254   -11252 
  -11244   -11240   -11242   -11249   -11268   -11286   -11290   -11295 
  -11303   -11310   -11319   -11335   -11357   -11376   -11391   -11400 
  -11410   -11423   -11439   -11456   -11469   -11477   -11477   -11475 
  -11468   -11456   -11439   -11421   -11406   -11392   -11373   -11357 
  -11342   -11331   -11317   -11306   -11299   -11288   -11264   -11234 
  -11211   -11195   -11182   -11176   -11182   -11182   -11175   -11171 
  -11168   -11164   -11160   -11159   -11160   -11167   -11172   -11175 
  -11182   -11186   -11188   -11205   -11221   -11226   -11234   -11252 
  -11265   -11280   -11299   -11322   -11345   -11364   -11381   -11407 
  -11434   -11457   -11480   -11502   -11515   -11526   -11535   -11542 
  -11550   -11560   -11568   -11578   -11597   -11615   -11623   -11630 
  -11649   -11673   -11692   -11705   -11722   -11743   -11766   -11789 
  -11812   -11836   -11863   -11892   -11923   -11962   -11994   -12012 
  -12024   -12032   -12032   -12032   -12029   -12023   -12005   -11977 
  -11943   -11908   -11871   -11842   -11821   -11804   -11789   -11776 
  -11757   -11734   -11711   -11685   -11661   -11642   -11628   -11616 
  -11600   -11581   -11568   -11558   -11547   -11533   -11520   -11519 
  -11516   -11506   -11491   -11479   -11462   -11438   -11418   -11402 
  -11389   -11381   -11381   -11383   -11376   -11377   -11387   -11387 
  -11394   -11406   -11414   -11421   -11419   -11416   -11423   -11421 
  -11412   -11410   -11407   -11400   -11399   -11396   -11389   -11383 
  -11375   -11372   -11379   -11387   -11388   -11395   -11403   -11410 
  -11418   -11427   -11438   -11453   -11468   -11485   -11506   -11523 
  -11533   -11539   -11549   -11560   -11574   -11589   -11600   -11618 
  -11637   -11649   -11658   -11664   -11665   -11668   -11669   -11670 
  -11680   -11691   -11696   -11693   -11680   -11661   -11638   -11612 
  -11593   -11581   -11573   -11568   -11560   -11545   -11524   -11507 
  -11491   -11479   -11470   -11465   -11461   -11450   -11430   -11416 
  -11408   -11400   -11395   -11391   -11383   -11368   -11357   -11348 
  -11334   -11322   -11311   -11300   -11300   -11304   -11304   -11310 
  -11317   -11317   -11321   -11330   -11334   -11333   -11338   -11349 
  -11360   -11372   -11383   -11389   -11399   -11411   -11422   -11433 
  -11441   -11446   -11445   -11437   -11430   -11430   -11434   -11435 
  -11435   -11429   -11419   -11415   -11406   -11394   -11385   -11380 
  -11372   -11362   -11360   -11361   -11358   -11358   -11365   -11369 
  -11364   -11361   -11358   -11356   -11360   -11361   -11350   -11341 
  -11338   -11338   -11334   -11333   -11338   -11345   -11352   -11362 
  -11376   -11389   -11406   -11426   -11446   -11461   -11479   -11499 
  -11510   -11522   -11534   -11539   -11542   -11542   -11539   -11541 
  -11546   -11549   -11550   -11558   -11570   -11580   -11585   -11596 
  -11615   -11631   -11639   -11642   -11641   -11642   -11645   -11645 
  -11639   -11634   -11627   -11616   -11611   -11601   -11592   -11587 
  -11578   -11569   -11569   -11572   -11581   -11595   -11608   -11615 
  -11619   -11626   -11637   -11649   -11651   -11647   -11637   -11618 
  -11593   -11573   -11554   -11530   -11506   -11488   -11468   -11441 
  -11418   -11403   -11388   -11375   -11367   -11360   -11354   -11358 
  -11365   -11376   -11392   -11411   -11426   -11439   -11450   -11462 
  -11479   -11500   -11524   -11546   -11569   -11584   -11595   -11607 
  -11614   -11615   -11616   -11620   -11630   -11641   -11642   -11645 
  -11647   -11641   -11630   -11616   -11604   -11593   -11576   -11557 
  -11550   -11550   -11545   -11539   -11538   -11542   -11541   -11539 
  -11537   -11533   -11530   -11524   -11514   -11504   -11502   -11506 
  -11508   -11502   -11500   -11508   -11507   -11502   -11500   -11493 
  -11489   -11492   -11492   -11491   -11487   -11480   -11475   -11469 
  -11466   -11462   -11452   -11435   -11411   -11383   -11356   -11329 
  -11302   -11277   -11259   -11240   -11221   -11207   -11195   -11183 
  -11178   -11171   -11159   -11153   -11151   -11151   -11156   -11160 
  -11163   -11171   -11178   -11179   -11183   -11186   -11191   -11196 
  -11207   -11223   -11237   -11250   -11265   -11279   -11295   -11311 
  -11325   -11337   -11348   -11354   -11362   -11367   -11368   -11372 
  -11375   -11372   -11367   -11367   -11365   -11361   -11362   -11361 
  -11360   -11367   -11371   -11369   -11379   -11394   -11404   -11419 
  -11442   -11465   -11492   -11518   -11539   -11562   -11587   -11612 
  -11638   -11655   -11676   -11703   -11723   -11735   -11753   -11773 
  -11782   -11799   -11821   -11830   -11834   -11843   -11848   -11858 
  -11863   -11854   -11842   -11831   -11813   -11799   -11782   -11761 
  -11742   -11726   -11712   -11705   -11703   -11703   -11708   -11716 
  -11720   -11726   -11732   -11730   -11730   -11732   -11730   -11723 
  -11716   -11703   -11682   -11666   -11646   -11624   -11604   -11584 
  -11566   -11551   -11538   -11524   -11510   -11496   -11480   -11457 
  -11431   -11410   -11396   -11388   -11376   -11357   -11340   -11333 
  -11326   -11321   -11322   -11325   -11325   -11327   -11333   -11342 
  -11360   -11381   -11402   -11426   -11453   -11481   -11512   -11542 
  -11572   -11605   -11638   -11662   -11692   -11719   -11732   -11740 
  -11755   -11769   -11774   -11776   -11767   -11755   -11749   -11739 
  -11722   -11705   -11689   -11668   -11651   -11635   -11619   -11601 
  -11583   -11565   -11546   -11522   -11504   -11488   -11466   -11448 
  -11431   -11421   -11415   -11408   -11400   -11388   -11379   -11371 
  -11367   -11371   -11377   -11385   -11399   -11416   -11431   -11437 
  -11441   -11454   -11469   -11481   -11487   -11489   -11492   -11496 
  -11500   -11503   -11500   -11489   -11473   -11458   -11449   -11438 
  -11425   -11416   -11418   -11422   -11423   -11422   -11421   -11425 
  -11427   -11433   -11446   -11465   -11477   -11488   -11503   -11522 
  -11538   -11551   -11574   -11597   -11608   -11618   -11634   -11649 
  -11658   -11669   -11680   -11685   -11688   -11689   -11685   -11684 
  -11685   -11680   -11676   -11680   -11677   -11672   -11669   -11659 
  -11647   -11631   -11612   -11597   -11577   -11556   -11535   -11508 
  -11483   -11462   -11439   -11419   -11406   -11384   -11356   -11334 
  -11314   -11295   -11275   -11256   -11237   -11222   -11213   -11205 
  -11199   -11196   -11195   -11194   -11188   -11183   -11178   -11171 
  -11169   -11173   -11171   -11168   -11176   -11172   -11165   -11168 
  -11169   -11167   -11168   -11165   -11160   -11164   -11172   -11180 
  -11187   -11199   -11211   -11219   -11230   -11245   -11257   -11271 
  -11287   -11299   -11313   -11333   -11356   -11377   -11400   -11422 
