Origin Time       2025/01/13 21:19:00
Lat.              31.8
Long.             131.6
Depth. (km)       30
Mag.              6.9
Station Code      SMNH03
Station Lat.      35.2243
Station Long.     132.7223
Station Height(m) 9
Record Time       2025/01/13 21:21:29
Sampling Freq(Hz) 100Hz
Duration Time(s)  120
Dir.              1
Scale Factor      2942(gal)/8224139
Max. Acc. (gal)   1.073
Last Correction   2025/01/13 21:21:29
Memo.             
[...]
   16321    16328    16340    16362    16389    16413    16429    16432 
   16428    16413    16382    16348    16314    16272    16232    16193 
   16152    16112    16075    16040    16011    15981    15947    15907 
   15863    15823    15788    15757    15728    15700    15670    15643 
   15622    15604    15587    15566    15545    15522    15500    15484 
   15468    15453    15439    15423    15404    15387    15373    15368 
   15371    15379    15385    15396    15414    15433    15450    15465 
   15483    15507    15539    15573    15606    15642    15681    15716 
   15745    15772    15796    15812    15830    15851    15871    15893 
   15916    15942    15970    15998    16025    16054    16087    16119 
   16143    16156    16160    16154    16140    16121    16104    16093 
   16083    16067    16046    16021    15993    15962    15932    15903 
   15871    15844    15830    15819    15811    15809    15816    15827 
   15847    15866    15877    15886    15901    15908    15915    15925 
   15932    15936    15936    15936    15936    15934    15928    15928 
   15927    15920    15920    15931    15939    15951    15966    15982 
   15998    16012    16027    16047    16067    16086    16110    16132 
   16147    16162    16175    16183    16186    16181    16173    16163 
   16148    16127    16098    16066    16035    16008    15981    15952 
   15923    15896    15871    15847    15832    15820    15809    15799 
   15789    15785    15781    15773    15759    15739    15711    15687 
   15668    15653    15639    15630    15623    15623    15623    15618 
   15607    15588    15570    15560    15549    15545    15552    15562 
   15570    15580    15593    15611    15628    15647    15668    15687 
   15701    15711    15719    15726    15728    15731    15743    15758 
   15763    15761    15754    15741    15722    15705    15689    15674 
   15672    15681    15689    15695    15703    15703    15692    15678 
   15669    15661    15653    15650    15646    15637    15622    15607 
   15588    15560    15530    15507    15492    15479    15464    15444 
   15415    15380    15337    15288    15240    15191    15147    15117 
   15102    15095    15095    15099    15110    15125    15145    15169 
   15199    15234    15273    15315    15361    15414    15473    15533 
   15587    15638    15689    15745    15801    15861    15920    15981 
   16039    16090    16140    16195    16249    16301    16345    16386 
   16421    16451    16478    16502    16515    16526    16538    16545 
   16546    16545    16536    16521    16506    16487    16472    16460 
   16436    16402    16368    16332    16294    16255    16206    16146 
   16082    16021    15958    15886    15804    15719    15634    15554 
   15483    15423    15369    15321    15279    15248    15229    15221 
   15218    15221    15232    15253    15277    15303    15338    15380 
   15423    15471    15525    15581    15634    15684    15731    15777 
   15830    15881    15928    15982    16035    16079    16121    16158 
   16191    16228    16264    16305    16351    16391    16425    16445 
   16449    16449    16449    16449    16449    16443    16425    16407 
   16387    16360    16335    16302    16260    16222    16190    16154 
   16116    16071    16020    15969    15915    15858    15807    15759 
   15718    15681    15643    15608    15574    15538    15503    15477 
   15460    15445    15430    15414    15391    15368    15353    15338 
   15315    15287    15256    15228    15205    15191    15184    15179 
   15176    15168    15151    15130    15107    15084    15067    15055 
   15045    15043    15045    15052    15067    15083    15105    15133 
   15167    15199    15237    15277    15315    15354    15400    15453 
   15516    15588    15661    15736    15816    15893    15959    16023 
   16077    16120    16155    16183    16206    16227    16244    16259 
   16274    16287    16302    16322    16337    16340    16332    16314 
   16291    16266    16243    16228    16221    16217    16212    16209 
   16204    16193    16178    16159    16143    16132    16123    16108 
   16089    16074    16060    16046    16042    16048    16054    16058 
   16071    16093    16113    16133    16154    16173    16191    16210 
   16227    16240    16254    16274    16302    16337    16375    16413 
   16447    16470    16478    16482    16483    16480    16480    16475 
   16456    16429    16402    16382    16360    16336    16313    16291 
   16266    16232    16194    16154    16109    16065    16019    15970 
   15923    15882    15849    15817    15788    15754    15712    15665 
   15615    15560    15507    15460    15419    15385    15356    15331 
   15310    15283    15248    15210    15172    15133    15102    15086 
   15082    15090    15110    15137    15167    15203    15240    15280 
   15333    15391    15446    15500    15552    15596    15638    15676 
   15712    15741    15757    15766    15776    15777    15770    15759 
   15742    15712    15676    15635    15595    15553    15504    15454 
   15399    15337    15273    15210    15156    15115    15078    15036 
   15001    14971    14941    14916    14902    14893    14882    14874 
   14867    14854    14841    14839    14840    14850    14871    14904 
   14948    15002    15064    15132    15199    15275    15360    15442 
   15530    15624    15723    15822    15917    16005    16086    16156 
   16216    16271    16321    16367    16410    16452    16487    16507 
   16518    16526    16529    16533    16538    16538    16532    16517 
   16498    16476    16451    16421    16394    16366    16343    16324 
   16303    16283    16264    16247    16228    16206    16187    16175 
   16162    16143    16119    16086    16040    15982    15920    15857 
   15788    15716    15645    15565    15489    15421    15349    15273 
   15203    15138    15082    15032    14986    14945    14905    14871 
   14847    14833    14829    14832    14836    14847    14867    14894 
   14926    14959    14985    15016    15053    15086    15121    15163 
   15207    15259    15317    15383    15457    15533    15606    15674 
   15742    15809    15880    15954    16025    16093    16163    16232 
   16295    16356    16407    16452    16492    16525    16555    16579 
   16592    16595    16588    16578    16568    16553    16534    16511 
   16480    16443    16409    16383    16359    16329    16295    16258 
   16212    16163    16116    16074    16036    15996    15950    15908 
   15870    15836    15815    15797    15780    15766    15759    15761 
   15772    15785    15807    15832    15857    15878    15897    15909 
   15919    15928    15936    15946    15961    15971    15969    15963 
   15957    15947    15939    15936    15936    15936    15935    15935 
   15939    15948    15966    15985    16005    16033    16067    16105 
   16147    16195    16252    16321    16399    16476    16551    16622 
   16690    16758    16823    16881    16931    16977    17015    17050 
   17081    17104    17122    17132    17131    17123    17104    17072 
   17035    16993    16945    16896    16845    16789    16731    16672 
   16617    16568    16521    16474    16425    16376    16332    16290 
   16247    16206    16163    16114    16070    16028    15986    15942 
   15904    15871    15840    15815    15792    15770    15751    15731 
   15709    15687    15664    15645    15627    15606    15587    15573 
   15558    15539    15525    15511    15496    15483    15466    15452 
   15442    15435    15431    15429    15427    15427    15434    15453 
   15480    15500    15515    15530    15539    15537    15529    15519 
   15507    15488    15465    15441    15419    15399    15383    15371 
   15361    15348    15330    15314    15292    15265    15236    15205 
   15171    15138    15103    15063    15016    14967    14917    14862 
   14794    14717    14634    14544    14449    14350    14254    14156 
   14061    13973    13890    13815    13760    13717    13691    13679 
   13668    13666    13676    13693    13716    13752    13797    13849 
   13910    13971    14033    14098    14169    14246    14322    14395 
   14463    14524    14580    14638    14702    14778    14856    14939 
   15026    15117    15209    15310    15419    15538    15661    15784 
   15909    16035    16158    16282    16405    16518    16623    16721 
   16812    16902    16980    17051    17118    17177    17226    17267 
   17301    17329    17354    17383    17417    17450    17479    17508 
   17533    17560    17586    17616    17648    17680    17710    17733 
   17748    17760    17768    17771    17774    17774    17770    17764 
   17760    17756    17751    17749    17751    17753    17759    17763 
   17766    17772    17783    17793    17801    17805    17802    17793 
   17770    17739    17707    17672    17632    17590    17550    17502 
   17444    17378    17309    17242    17169    17088    17010    16935 
   16857    16776    16702    16626    16548    16470    16397    16328 
   16263    16202    16140    16077    16011    15938    15857    15777 
   15696    15611    15529    15445    15354    15257    15152    15036 
   14914    14790    14661    14528    14399    14270    14143    14023 
   13909    13803    13705    13614    13533    13462    13401    13352 
   13312    13285    13269    13263    13266    13278    13311    13362 
   13421    13490    13563    13636    13717    13802    13891    13987 
   14092    14196    14297    14397    14494    14589    14678    14758 
   14827    14890    14947    15002    15051    15091    15121    15142 
   15167    15187    15203    15222    15244    15271    15304    15336 
   15360    15380    15399    15415    15429    15444    15456    15462 
   15472    15481    15492    15503    15518    15537    15556    15579 
   15610    15641    15678    15734    15799    15865    15938    16020 
   16110    16206    16306    16413    16528    16646    16768    16883 
   16992    17103    17209    17308    17396    17482    17563    17629 
   17682    17732    17772    17797    17807    17810    17799    17784 
   17761    17730    17698    17662    17617    17568    17516    17456 
   17389    17308    17212    17108    16997    16877    16748    16614 
   16472    16324    16178    16033    15886    15738    15591    15441 
   15291    15141    14993    14848    14710    14582    14459    14350 
   14262    14185    14127    14089    14060    14037    14022    14017 
   14011    14014    14025    14041    14053    14065    14079    14091 
   14098    14102    14107    14122    14143    14169    14203    14247 
   14296    14357    14428    14503    14582    14665    14747    14829 
   14909    14985    15055    15121    15176    15223    15272    15322 
   15361    15396    15427    15454    15479    15504    15537    15576 
   15616    15658    15700    15746    15797    15851    15908    15969 
   16033    16100    16170    16243    16316    16380    16438    16490 
   16537    16576    16611    16640    16667    16691    16713    16731 
   16750    16764    16773    16781    16788    16794    16796    16794 
   16785    16769    16742    16706    16671    16645    16621    16594 
   16568    16540    16509    16476    16437    16398    16366    16329 
   16295    16267    16239    16210    16181    16151    16125    16100 
   16079    16071    16070    16069    16070    16077    16081    16085 
   16086    16092    16100    16105    16108    16109    16112    16117 
   16124    16127    16128    16133    16141    16151    16160    16167 
   16171    16173    16168    16164    16158    16150    16143    16137 
   16131    16128    16125    16123    16121    16113    16100    16085 
   16070    16048    16025    16006    15988    15966    15939    15905 
   15871    15834    15790    15753    15718    15678    15638    15596 
   15552    15499    15445    15391    15340    15295    15264    15241 
   15219    15203    15192    15186    15184    15192    15211    15248 
   15292    15344    15414    15496    15585    15676    15772    15863 
   15950    16031    16104    16162    16208    16244    16267    16279 
   16286    16287    16282    16278    16279    16279    16276    16272 
   16271    16268    16262    16255    16247    16239    16231    16221 
   16212    16204    16193    16181    16164    16141    16116    16087 
   16060    16033    16005    15975    15947    15917    15896    15886 
   15880    15877    15880    15881    15880    15877    15873    15869 
   15865    15866    15874    15889    15909    15928    15951    15978 
   16005    16029    16056    16086    16112    16133    16148    16158 
   16164    16168    16163    16150    16135    16121    16104    16081 
   16052    16021    15984    15939    15892    15842    15784    15728 
   15674    15619    15562    15507    15452    15396    15340    15284 
   15225    15161    15091    15013    14926    14833    14736    14635 
   14532    14434    14339    14242    14149    14062    13981    13911 
   13849    13792    13744    13707    13682    13667    13664    13671 
   13687    13714    13751    13799    13860    13934    14021    14110 
   14202    14303    14411    14532    14669    14816    14972    15141 
   15317    15495    15678    15869    16060    16251    16451    16653 
   16853    17053    17251    17440    17621    17794    17956    18104 
   18241    18364    18473    18569    18647    18712    18762    18790 
   18802    18800    18779    18743    18690    18623    18538    18435 
   18315    18181    18030    17864    17686    17498    17301    17097 
   16888    16676    16468    16264    16062    15861    15666    15481 
   15303    15132    14966    14805    14651    14508    14370    14242 
   14126    14015    13913    13817    13729    13645    13564    13490 
   13423    13363    13308    13257    13215    13181    13157    13144 
   13147    13155    13174    13208    13252    13301    13356    13421 
   13495    13578    13671    13767    13867    13979    14098    14210 
   14323    14440    14554    14661    14764    14866    14964    15060 
   15156    15250    15341    15433    15527    15620    15715    15808 
   15900    15989    16074    16156    16233    16305    16374    16440 
   16503    16563    16618    16671    16717    16761    16808    16856 
   16899    16938    16974    17008    17042    17077    17111    17142 
   17176    17212    17250    17286    17320    17358    17397    17439 
   17485    17533    17589    17648    17712    17776    17842    17907 
   17972    18040    18100    18153    18200    18237    18254    18264 
   18264    18245    18212    18172    18119    18057    17988    17914 
   17836    17756    17678    17598    17518    17439    17361    17275 
   17186    17100    17014    16924    16835    16745    16650    16555 
   16453    16348    16241    16132    16019    15903    15782    15664 
   15547    15427    15306    15187    15072    14958    14841    14728 
   14620    14517    14420    14328    14237    14145    14056    13969 
   13888    13818    13756    13701    13652    13618    13595    13581 
   13579    13589    13601    13617    13639    13667    13695    13726 
   13763    13799    13832    13865    13898    13927    13957    13990 
   14026    14068    14114    14166    14229    14297    14374    14459 
   14553    14656    14770    14890    15018    15151    15288    15430 
   15576    15724    15870    16009    16144    16271    16395    16513 
   16625    16731    16831    16922    17004    17080    17151    17219 
   17282    17340    17390    17435    17475    17506    17533    17551 
   17559    17562    17559    17547    17529    17506    17474    17440 
   17409    17375    17340    17302    17258    17209    17158    17099 
   17032    16966    16895    16814    16733    16648    16553    16461 
   16370    16276    16178    16071    15967    15870    15769    15666 
   15572    15479    15395    15323    15255    15191    15134    15084 
   15041    15005    14976    14953    14936    14921    14905    14890 
   14882    14872    14863    14858    14854    14850    14840    14825 
   14812    14794    14774    14758    14744    14727    14712    14698 
   14682    14667    14655    14646    14639    14636    14635    14635 
   14639    14644    14652    14663    14678    14696    14715    14735 
   14756    14775    14796    14818    14843    14867    14889    14909 
   14929    14948    14967    14989    15012    15037    15064    15091 
   15122    15157    15195    15233    15271    15310    15348    15388 
   15433    15481    15533    15583    15633    15688    15746    15800 
   15847    15894    15942    15993    16047    16104    16162    16221 
   16279    16336    16393    16444    16497    16556    16614    16667 
   16715    16762    16802    16837    16868    16889    16910    16931 
   16950    16960    16960    16950    16937    16920    16896    16864 
   16831    16795    16756    16718    16683    16652    16621    16584 
   16549    16518    16486    16455    16430    16406    16382    16360 
   16340    16317    16301    16287    16276    16271    16274    16278 
   16282    16285    16290    16295    16305    16321    16340    16359 
   16375    16395    16418    16443    16468    16490    16507    16525 
   16537    16538    16536    16528    16515    16497    16467    16430 
   16393    16351    16302    16255    16209    16160    16101    16035 
   15965    15888    15808    15730    15649    15564    15477    15388 
   15295    15202    15109    15016    14924    14827    14727    14631 
   14538    14445    14354    14270    14197    14129    14065    14010 
   13959    13917    13884    13860    13841    13828    13822    13829 
   13852    13888    13938    14007    14091    14187    14293    14413 
   14544    14682    14829    14978    15125    15273    15422    15566 
   15707    15842    15969    16089    16201    16302    16395    16482 
   16556    16619    16673    16718    16753    16780    16800    16815 
   16825    16830    16831    16826    16818    16804    16785    16764 
   16737    16706    16665    16619    16571    16521    16463    16395 
   16325    16252    16174    16094    16020    15940    15859    15786 
   15722    15661    15606    15558    15514    15473    15446    15427 
   15415    15408    15410    15417    15435    15456    15480    15510 
   15543    15580    15616    15654    15693    15734    15776    15813 
   15847    15885    15927    15971    16019    16067    16119    16174 
   16229    16282    16333    16380    16429    16476    16517    16552 
   16586    16610    16626    16638    16642    16638    16633    16622 
   16606    16591    16568    16536    16506    16476    16440    16399 
   16356    16308    16260    16213    16162    16105    16046    15985 
   15919    15847    15773    15697    15618    15530    15442    15356 
   15265    15174    15088    15007    14928    14852    14781    14717 
   14659    14608    14566    14539    14520    14509    14509    14512 
   14523    14543    14571    14604    14640    14678    14719    14760 
   14806    14854    14904    14951    14991    15030    15067    15102 
   15132    15156    15179    15205    15230    15253    15276    15300 
   15322    15344    15371    15400    15434    15475    15516    15564 
