Origin Time       2025/01/13 21:19:00
Lat.              31.8
Long.             131.6
Depth. (km)       30
Mag.              6.9
Station Code      SMNH10
Station Lat.      35.5579
Station Long.     133.3004
Station Height(m) -191
Record Time       2025/01/13 21:20:58
Sampling Freq(Hz) 100Hz
Duration Time(s)  180
Dir.              1
Scale Factor      2940(gal)/6170270
Max. Acc. (gal)   1.006
Last Correction   2025/01/13 21:20:43
Memo.             
[...]
  -77905   -77908   -77913   -77919   -77922   -77923   -77926   -77928 
  -77932   -77936   -77939   -77942   -77948   -77953   -77956   -77963 
  -77970   -77975   -77980   -77986   -77992   -77997   -78002   -78009 
  -78016   -78022   -78028   -78031   -78032   -78033   -78033   -78034 
  -78037   -78040   -78043   -78049   -78056   -78064   -78072   -78080 
  -78087   -78093   -78097   -78101   -78104   -78108   -78115   -78124 
  -78135   -78148   -78162   -78178   -78195   -78213   -78229   -78244 
  -78257   -78269   -78280   -78292   -78305   -78319   -78333   -78346 
  -78361   -78377   -78393   -78409   -78425   -78441   -78455   -78468 
  -78481   -78493   -78507   -78520   -78529   -78539   -78551   -78562 
  -78570   -78578   -78584   -78587   -78590   -78592   -78592   -78593 
  -78596   -78596   -78594   -78593   -78592   -78591   -78594   -78596 
  -78599   -78605   -78608   -78606   -78604   -78600   -78589   -78577 
  -78563   -78548   -78532   -78517   -78504   -78491   -78478   -78467 
  -78454   -78443   -78435   -78429   -78420   -78412   -78405   -78397 
  -78390   -78383   -78375   -78367   -78362   -78358   -78350   -78342 
  -78338   -78334   -78329   -78324   -78319   -78311   -78299   -78287 
  -78276   -78264   -78252   -78241   -78231   -78221   -78210   -78198 
  -78188   -78181   -78169   -78155   -78144   -78134   -78125   -78117 
  -78110   -78104   -78100   -78096   -78093   -78091   -78088   -78086 
  -78083   -78078   -78071   -78063   -78053   -78044   -78033   -78020 
  -78009   -78001   -77992   -77983   -77974   -77969   -77965   -77958 
  -77951   -77943   -77933   -77925   -77919   -77912   -77905   -77900 
  -77894   -77887   -77880   -77874   -77871   -77869   -77865   -77860 
  -77856   -77852   -77849   -77844   -77839   -77839   -77839   -77838 
  -77839   -77841   -77843   -77844   -77844   -77844   -77844   -77844 
  -77843   -77841   -77838   -77838   -77839   -77844   -77851   -77857 
  -77863   -77872   -77881   -77886   -77888   -77888   -77884   -77877 
  -77870   -77860   -77845   -77828   -77811   -77793   -77773   -77756 
  -77739   -77721   -77704   -77687   -77669   -77657   -77647   -77635 
  -77628   -77628   -77633   -77642   -77652   -77662   -77677   -77692 
  -77703   -77714   -77728   -77741   -77752   -77762   -77772   -77780 
  -77792   -77803   -77811   -77821   -77829   -77835   -77842   -77846 
  -77850   -77854   -77859   -77864   -77866   -77867   -77873   -77878 
  -77883   -77889   -77896   -77900   -77903   -77907   -77910   -77911 
  -77910   -77910   -77909   -77906   -77900   -77891   -77883   -77876 
  -77867   -77857   -77850   -77848   -77845   -77839   -77837   -77839 
  -77841   -77843   -77849   -77855   -77859   -77864   -77868   -77870 
  -77871   -77871   -77868   -77864   -77863   -77861   -77857   -77848 
  -77839   -77835   -77831   -77828   -77826   -77823   -77821   -77820 
  -77817   -77815   -77816   -77816   -77816   -77820   -77824   -77830 
  -77839   -77847   -77857   -77869   -77880   -77889   -77899   -77910 
  -77921   -77935   -77950   -77965   -77983   -78006   -78030   -78055 
  -78084   -78113   -78138   -78164   -78190   -78211   -78230   -78248 
  -78263   -78275   -78287   -78295   -78302   -78310   -78317   -78323 
  -78328   -78333   -78339   -78346   -78349   -78352   -78356   -78357 
  -78359   -78364   -78367   -78368   -78372   -78376   -78379   -78384 
  -78389   -78394   -78400   -78407   -78413   -78418   -78423   -78427 
  -78432   -78439   -78443   -78446   -78447   -78447   -78443   -78435 
  -78429   -78421   -78409   -78397   -78388   -78380   -78370   -78362 
  -78356   -78347   -78338   -78328   -78316   -78303   -78293   -78284 
  -78273   -78262   -78252   -78244   -78235   -78224   -78217   -78210 
  -78202   -78197   -78194   -78188   -78182   -78180   -78178   -78175 
  -78175   -78175   -78174   -78174   -78170   -78164   -78159   -78151 
  -78140   -78130   -78119   -78106   -78095   -78084   -78072   -78061 
  -78050   -78038   -78024   -78011   -77997   -77983   -77973   -77962 
  -77951   -77942   -77934   -77928   -77922   -77917   -77915   -77910 
  -77904   -77899   -77893   -77886   -77880   -77872   -77862   -77852 
  -77845   -77837   -77827   -77819   -77811   -77802   -77791   -77782 
  -77774   -77764   -77750   -77736   -77721   -77704   -77687   -77671 
  -77654   -77635   -77615   -77594   -77572   -77548   -77524   -77502 
  -77480   -77457   -77437   -77421   -77405   -77390   -77379   -77371 
  -77365   -77364   -77367   -77375   -77383   -77391   -77404   -77420 
  -77435   -77449   -77467   -77483   -77497   -77511   -77525   -77539 
  -77553   -77570   -77585   -77601   -77620   -77641   -77662   -77684 
  -77709   -77733   -77755   -77780   -77806   -77830   -77855   -77880 
  -77899   -77917   -77935   -77951   -77965   -77978   -77988   -77996 
  -78004   -78010   -78015   -78022   -78028   -78035   -78044   -78054 
  -78065   -78075   -78088   -78104   -78119   -78135   -78152   -78170 
  -78191   -78209   -78225   -78244   -78259   -78270   -78284   -78298 
  -78309   -78317   -78325   -78333   -78339   -78346   -78352   -78353 
  -78353   -78355   -78355   -78355   -78356   -78358   -78362   -78366 
  -78372   -78382   -78393   -78403   -78415   -78427   -78439   -78452 
  -78464   -78476   -78489   -78499   -78507   -78516   -78525   -78532 
  -78538   -78544   -78548   -78552   -78558   -78564   -78570   -78576 
  -78585   -78596   -78604   -78613   -78622   -78629   -78637   -78646 
  -78654   -78662   -78670   -78677   -78683   -78689   -78694   -78697 
  -78697   -78694   -78689   -78682   -78672   -78660   -78645   -78628 
  -78612   -78589   -78561   -78536   -78512   -78482   -78455   -78429 
  -78400   -78373   -78349   -78324   -78302   -78286   -78270   -78255 
  -78246   -78240   -78237   -78237   -78240   -78246   -78251   -78258 
  -78268   -78276   -78281   -78285   -78285   -78282   -78279   -78271 
  -78260   -78246   -78228   -78210   -78188   -78164   -78141   -78118 
  -78091   -78063   -78042   -78023   -77995   -77968   -77948   -77922 
  -77897   -77877   -77852   -77827   -77807   -77787   -77766   -77744 
  -77723   -77705   -77687   -77667   -77648   -77632   -77619   -77609 
  -77603   -77600   -77599   -77601   -77605   -77613   -77623   -77635 
  -77646   -77657   -77668   -77680   -77691   -77701   -77709   -77718 
  -77728   -77738   -77749   -77758   -77770   -77790   -77806   -77821 
  -77845   -77866   -77885   -77912   -77938   -77962   -77988   -78015 
  -78042   -78069   -78096   -78124   -78149   -78171   -78194   -78215 
  -78232   -78245   -78255   -78262   -78266   -78266   -78262   -78255 
  -78245   -78233   -78219   -78202   -78182   -78157   -78130   -78102 
  -78072   -78039   -78004   -77970   -77936   -77897   -77859   -77824 
  -77791   -77760   -77731   -77702   -77675   -77649   -77623   -77596 
  -77569   -77552   -77539   -77519   -77503   -77494   -77481   -77472 
  -77470   -77468   -77472   -77477   -77482   -77492   -77505   -77519 
  -77535   -77554   -77574   -77595   -77621   -77649   -77678   -77709 
  -77738   -77767   -77796   -77821   -77844   -77866   -77888   -77910 
  -77933   -77953   -77973   -77994   -78015   -78036   -78057   -78076 
  -78094   -78112   -78128   -78142   -78154   -78164   -78166   -78166 
  -78170   -78170   -78165   -78161   -78154   -78144   -78135   -78126 
  -78118   -78109   -78099   -78089   -78080   -78072   -78065   -78060 
  -78056   -78058   -78060   -78059   -78061   -78063   -78064   -78066 
  -78067   -78064   -78060   -78057   -78050   -78036   -78027   -78022 
  -78008   -77991   -77979   -77965   -77949   -77933   -77913   -77894 
  -77873   -77850   -77830   -77808   -77783   -77758   -77734   -77713 
  -77691   -77670   -77653   -77634   -77619   -77606   -77592   -77580 
  -77571   -77561   -77554   -77549   -77547   -77547   -77550   -77553 
  -77558   -77562   -77567   -77574   -77577   -77577   -77577   -77572 
  -77564   -77555   -77545   -77534   -77521   -77504   -77484   -77463 
  -77441   -77419   -77399   -77382   -77363   -77346   -77335   -77327 
  -77319   -77314   -77311   -77312   -77316   -77321   -77327   -77337 
  -77351   -77364   -77381   -77402   -77421   -77441   -77463   -77484 
  -77504   -77524   -77542   -77560   -77577   -77595   -77611   -77625 
  -77642   -77662   -77681   -77699   -77719   -77740   -77762   -77782 
  -77801   -77824   -77844   -77860   -77876   -77894   -77910   -77926 
  -77941   -77956   -77973   -77990   -78010   -78032   -78053   -78078 
  -78103   -78127   -78153   -78178   -78201   -78224   -78247   -78270 
  -78297   -78327   -78358   -78387   -78414   -78442   -78468   -78490 
  -78509   -78527   -78544   -78557   -78566   -78572   -78577   -78582 
  -78584   -78584   -78586   -78588   -78584   -78582   -78581   -78577 
  -78574   -78574   -78575   -78576   -78574   -78574   -78579   -78584 
  -78587   -78592   -78601   -78609   -78616   -78628   -78638   -78642 
  -78651   -78663   -78674   -78684   -78696   -78710   -78722   -78736 
  -78753   -78768   -78783   -78795   -78804   -78817   -78836   -78845 
  -78848   -78857   -78861   -78860   -78860   -78857   -78851   -78845 
  -78836   -78826   -78815   -78800   -78782   -78765   -78743   -78720 
  -78699   -78678   -78655   -78634   -78611   -78590   -78572   -78555 
  -78540   -78524   -78510   -78497   -78482   -78466   -78452   -78435 
  -78416   -78401   -78384   -78363   -78345   -78330   -78310   -78287 
  -78267   -78248   -78228   -78205   -78182   -78160   -78138   -78113 
  -78090   -78070   -78050   -78028   -78007   -77988   -77971   -77956 
  -77944   -77933   -77923   -77916   -77910   -77903   -77900   -77900 
  -77901   -77902   -77907   -77916   -77928   -77941   -77956   -77974 
  -77992   -78012   -78031   -78050   -78068   -78082   -78094   -78104 
  -78110   -78116   -78122   -78122   -78122   -78121   -78115   -78108 
  -78101   -78093   -78081   -78067   -78053   -78040   -78026   -78013 
  -78001   -77990   -77979   -77972   -77967   -77959   -77953   -77948 
  -77940   -77934   -77931   -77925   -77917   -77912   -77908   -77905 
  -77907   -77914   -77931   -77957   -77985   -78013   -78043   -78071 
  -78097   -78122   -78146   -78168   -78189   -78211   -78234   -78253 
  -78262   -78266   -78268   -78264   -78256   -78251   -78242   -78229 
  -78211   -78190   -78169   -78146   -78119   -78093   -78065   -78036 
  -78015   -77999   -77991   -77996   -78008   -78017   -78028   -78040 
  -78048   -78053   -78058   -78064   -78067   -78067   -78067   -78067 
  -78062   -78058   -78054   -78047   -78039   -78034   -78026   -78015 
  -78005   -77996   -77982   -77968   -77958   -77946   -77929   -77913 
  -77899   -77884   -77867   -77850   -77832   -77813   -77794   -77775 
  -77755   -77735   -77712   -77689   -77666   -77645   -77622   -77600 
  -77578   -77554   -77531   -77506   -77483   -77461   -77439   -77418 
  -77402   -77386   -77369   -77357   -77348   -77341   -77336   -77334 
  -77334   -77334   -77336   -77340   -77342   -77343   -77351   -77363 
  -77370   -77379   -77394   -77407   -77423   -77442   -77461   -77484 
  -77508   -77532   -77562   -77593   -77623   -77658   -77697   -77735 
  -77774   -77815   -77852   -77892   -77934   -77972   -78008   -78042 
  -78074   -78107   -78140   -78172   -78204   -78235   -78270   -78304 
  -78339   -78380   -78420   -78458   -78499   -78543   -78588   -78632 
  -78678   -78727   -78775   -78823   -78872   -78919   -78965   -79009 
  -79050   -79091   -79129   -79164   -79194   -79223   -79249   -79271 
  -79290   -79305   -79315   -79323   -79329   -79332   -79333   -79331 
  -79331   -79331   -79330   -79330   -79332   -79332   -79334   -79337 
  -79339   -79340   -79340   -79337   -79333   -79329   -79323   -79314 
  -79304   -79293   -79279   -79264   -79246   -79227   -79204   -79179 
  -79153   -79125   -79092   -79056   -79018   -78977   -78930   -78882 
  -78832   -78778   -78722   -78666   -78610   -78553   -78497   -78441 
  -78383   -78326   -78270   -78213   -78154   -78096   -78039   -77983 
  -77925   -77865   -77804   -77747   -77691   -77636   -77583   -77530 
  -77474   -77420   -77370   -77320   -77268   -77220   -77174   -77126 
  -77079   -77037   -76997   -76956   -76919   -76885   -76850   -76818 
  -76789   -76759   -76731   -76704   -76677   -76653   -76635   -76623 
  -76617   -76619   -76619   -76620   -76628   -76636   -76646   -76658 
  -76666   -76673   -76679   -76685   -76691   -76698   -76706   -76714 
  -76720   -76729   -76740   -76751   -76758   -76764   -76775   -76787 
  -76795   -76803   -76812   -76819   -76824   -76831   -76836   -76843 
  -76852   -76855   -76860   -76867   -76872   -76877   -76882   -76888 
  -76894   -76903   -76918   -76943   -76977   -77023   -77074   -77127 
  -77182   -77235   -77288   -77344   -77398   -77449   -77505   -77566 
  -77619   -77670   -77724   -77774   -77822   -77871   -77916   -77960 
  -78002   -78041   -78077   -78111   -78140   -78166   -78191   -78214 
  -78237   -78258   -78276   -78294   -78312   -78331   -78352   -78374 
  -78396   -78420   -78447   -78471   -78496   -78525   -78553   -78582 
  -78614   -78649   -78685   -78721   -78761   -78802   -78842   -78884 
  -78927   -78969   -79014   -79061   -79107   -79154   -79201   -79250 
  -79299   -79349   -79399   -79450   -79503   -79561   -79625   -79693 
  -79762   -79829   -79894   -79955   -80008   -80053   -80091   -80121 
  -80141   -80154   -80158   -80150   -80138   -80123   -80096   -80062 
  -80027   -79987   -79947   -79911   -79875   -79837   -79797   -79752 
  -79705   -79656   -79605   -79552   -79500   -79447   -79392   -79332 
  -79274   -79216   -79149   -79080   -79014   -78945   -78871   -78798 
  -78724   -78649   -78575   -78502   -78430   -78362   -78296   -78233 
  -78174   -78120   -78069   -78021   -77979   -77941   -77907   -77879 
  -77855   -77833   -77817   -77806   -77795   -77786   -77780   -77776 
  -77769   -77762   -77758   -77754   -77746   -77739   -77732   -77721 
  -77709   -77697   -77685   -77671   -77656   -77641   -77626   -77610 
  -77595   -77577   -77559   -77540   -77520   -77498   -77474   -77447 
  -77418   -77386   -77353   -77320   -77287   -77253   -77217   -77179 
  -77143   -77110   -77077   -77044   -77015   -76990   -76968   -76951 
  -76938   -76928   -76923   -76925   -76932   -76942   -76959   -76981 
  -77008   -77038   -77070   -77105   -77143   -77183   -77224   -77266 
  -77308   -77354   -77397   -77439   -77483   -77526   -77565   -77604 
  -77642   -77676   -77705   -77730   -77753   -77776   -77798   -77817 
  -77833   -77849   -77863   -77877   -77891   -77903   -77912   -77918 
  -77922   -77923   -77924   -77923   -77919   -77909   -77898   -77886 
  -77868   -77851   -77835   -77816   -77794   -77771   -77750   -77728 
  -77707   -77686   -77666   -77648   -77632   -77617   -77604   -77594 
  -77589   -77586   -77584   -77587   -77595   -77604   -77617   -77636 
  -77659   -77682   -77708   -77738   -77768   -77798   -77828   -77859 
  -77891   -77920   -77948   -77977   -78004   -78029   -78055   -78081 
  -78106   -78130   -78149   -78170   -78196   -78216   -78234   -78257 
  -78279   -78300   -78326   -78346   -78369   -78398   -78422   -78445 
  -78472   -78502   -78530   -78556   -78584   -78611   -78637   -78660 
  -78682   -78703   -78722   -78737   -78751   -78764   -78774   -78781 
  -78788   -78791   -78790   -78789   -78790   -78789   -78786   -78782 
  -78776   -78769   -78765   -78760   -78755   -78751   -78746   -78741 
  -78737   -78732   -78726   -78722   -78717   -78709   -78698   -78684 
  -78672   -78660   -78645   -78632   -78619   -78602   -78584   -78569 
  -78553   -78535   -78517   -78499   -78479   -78459   -78440   -78420 
  -78400   -78383   -78364   -78342   -78322   -78302   -78279   -78255 
  -78230   -78203   -78177   -78149   -78118   -78090   -78063   -78032 
  -78002   -77975   -77945   -77912   -77885   -77860   -77835   -77810 
  -77786   -77767   -77749   -77731   -77716   -77708   -77701   -77693 
  -77689   -77686   -77683   -77681   -77680   -77681   -77686   -77689 
  -77690   -77697   -77704   -77709   -77717   -77725   -77734   -77742 
  -77752   -77762   -77773   -77780   -77790   -77799   -77806   -77817 
  -77824   -77826   -77831   -77835   -77835   -77833   -77828   -77819 
  -77811   -77798   -77779   -77761   -77740   -77714   -77688   -77664 
  -77634   -77608   -77583   -77553   -77523   -77498   -77473   -77447 
  -77423   -77400   -77378   -77360   -77342   -77321   -77306   -77294 
  -77280   -77266   -77254   -77245   -77236   -77226   -77219   -77211 
  -77203   -77196   -77189   -77181   -77172   -77162   -77150   -77141 
  -77132   -77123   -77115   -77110   -77107   -77104   -77104   -77109 
  -77114   -77119   -77131   -77149   -77169   -77192   -77220   -77255 
  -77294   -77335   -77380   -77430   -77483   -77536   -77591   -77649 
  -77706   -77764   -77823   -77879   -77935   -77992   -78046   -78097 
  -78149   -78199   -78243   -78283   -78324   -78365   -78399   -78430 
  -78464   -78497   -78528   -78559   -78588   -78617   -78650   -78684 
  -78714   -78747   -78784   -78819   -78854   -78893   -78933   -78972 
  -79013   -79054   -79095   -79133   -79171   -79208   -79242   -79272 
  -79299   -79322   -79341   -79358   -79371   -79379   -79388   -79396 
  -79397   -79394   -79393   -79391   -79386   -79379   -79373   -79367 
  -79357   -79346   -79335   -79321   -79306   -79288   -79268   -79247 
  -79225   -79200   -79173   -79143   -79112   -79081   -79048   -79014 
  -78981   -78947   -78912   -78876   -78838   -78802   -78767   -78729 
  -78690   -78651   -78613   -78575   -78539   -78501   -78464   -78429 
  -78394   -78361   -78330   -78300   -78272   -78247   -78222   -78197 
  -78175   -78155   -78136   -78120   -78104   -78089   -78075   -78061 
  -78048   -78038   -78026   -78014   -78002   -77991   -77980   -77969 
  -77959   -77949   -77937   -77927   -77916   -77904   -77893   -77880 
  -77868   -77860   -77853   -77846   -77842   -77841   -77838   -77840 
  -77846   -77851   -77857   -77865   -77876   -77887   -77899   -77912 
  -77924   -77938   -77955   -77972   -77991   -78010   -78028   -78048 
  -78073   -78098   -78118   -78138   -78160   -78181   -78201   -78220 
  -78239   -78255   -78269   -78284   -78297   -78304   -78311   -78320 
  -78322   -78322   -78323   -78321   -78316   -78308   -78297   -78286 
  -78274   -78261   -78244   -78222   -78199   -78175   -78148   -78119 
  -78088   -78054   -78024   -78004   -78000   -78009   -78017   -78018 
  -78022   -78026   -78027   -78025   -78020   -78011   -78002   -77991 
  -77979   -77965   -77947   -77924   -77898   -77867   -77827   -77782 
  -77738   -77691   -77641   -77591   -77541   -77494   -77453   -77420 
  -77397   -77389   -77391   -77392   -77389   -77388   -77387   -77384 
  -77381   -77380   -77378   -77378   -77377   -77376   -77376   -77374 
  -77372   -77372   -77371   -77368   -77366   -77361   -77356   -77352 
  -77347   -77342   -77342   -77341   -77338   -77339   -77341   -77346 
  -77353   -77359   -77368   -77379   -77391   -77404   -77420   -77440 
  -77461   -77481   -77505   -77531   -77554   -77578   -77604   -77630 
  -77651   -77673   -77697   -77719   -77739   -77763   -77785   -77803 
