Origin Time       2025/01/13 21:19:00
Lat.              31.8
Long.             131.6
Depth. (km)       30
Mag.              6.9
Station Code      SMNH15
Station Lat.      35.5232
Station Long.     133.0226
Station Height(m) 20
Record Time       2025/01/13 21:21:07
Sampling Freq(Hz) 100Hz
Duration Time(s)  134
Dir.              4
Scale Factor      7845(gal)/8223790
Max. Acc. (gal)   0.803
Last Correction   2025/01/13 21:21:07
Memo.             
[...]
   -1266    -1240    -1220    -1209    -1208    -1215    -1228    -1247 
   -1271    -1294    -1318    -1339    -1355    -1366    -1372    -1377 
   -1375    -1366    -1347    -1328    -1308    -1285    -1266    -1252 
   -1239    -1232    -1231    -1232    -1239    -1247    -1254    -1264 
   -1277    -1283    -1289    -1291    -1289    -1283    -1275    -1256 
   -1239    -1221    -1204    -1194    -1186    -1179    -1177    -1174 
   -1173    -1177    -1181    -1189    -1200    -1216    -1242    -1269 
   -1296    -1327    -1356    -1379    -1399    -1414    -1418    -1420 
   -1414    -1399    -1378    -1352    -1325    -1301    -1274    -1248 
   -1227    -1208    -1197    -1193    -1192    -1198    -1209    -1221 
   -1235    -1250    -1266    -1283    -1301    -1323    -1344    -1364 
   -1389    -1413    -1431    -1444    -1456    -1459    -1455    -1449 
   -1443    -1435    -1431    -1431    -1429    -1433    -1441    -1451 
   -1456    -1459    -1458    -1451    -1437    -1418    -1398    -1377 
   -1355    -1340    -1329    -1318    -1309    -1308    -1309    -1310 
   -1316    -1324    -1328    -1331    -1329    -1325    -1318    -1310 
   -1305    -1306    -1305    -1305    -1309    -1308    -1300    -1298 
   -1297    -1289    -1282    -1273    -1258    -1244    -1236    -1224 
   -1216    -1215    -1216    -1223    -1237    -1252    -1264    -1273 
   -1273    -1270    -1263    -1255    -1250    -1244    -1243    -1243 
   -1244    -1247    -1254    -1270    -1286    -1304    -1328    -1352 
   -1371    -1383    -1389    -1382    -1366    -1350    -1332    -1309 
   -1291    -1274    -1256    -1244    -1235    -1233    -1235    -1240 
   -1251    -1262    -1274    -1290    -1308    -1325    -1336    -1340 
   -1341    -1339    -1328    -1312    -1290    -1263    -1239    -1216 
   -1192    -1170    -1158    -1150    -1146    -1144    -1146    -1150 
   -1152    -1156    -1152    -1143    -1138    -1136    -1139    -1147 
   -1161    -1175    -1190    -1208    -1229    -1247    -1263    -1278 
   -1285    -1285    -1279    -1273    -1262    -1250    -1247    -1246 
   -1243    -1242    -1240    -1235    -1225    -1208    -1188    -1161 
   -1129    -1100    -1070    -1042    -1019    -1004     -999    -1003 
   -1020    -1047    -1080    -1115    -1150    -1178    -1201    -1220 
   -1239    -1252    -1264    -1282    -1298    -1312    -1329    -1345 
   -1355    -1363    -1364    -1358    -1350    -1345    -1343    -1341 
   -1341    -1340    -1335    -1329    -1329    -1335    -1341    -1350 
   -1359    -1370    -1381    -1391    -1408    -1433    -1463    -1491 
   -1521    -1553    -1574    -1586    -1590    -1584    -1572    -1553 
   -1534    -1518    -1501    -1482    -1468    -1456    -1441    -1428 
   -1418    -1413    -1408    -1399    -1390    -1379    -1367    -1352 
   -1339    -1328    -1324    -1320    -1320    -1327    -1336    -1345 
   -1354    -1366    -1374    -1374    -1368    -1363    -1354    -1343 
   -1332    -1323    -1314    -1308    -1300    -1293    -1281    -1269 
   -1262    -1256    -1250    -1250    -1251    -1251    -1254    -1255 
   -1256    -1267    -1281    -1300    -1324    -1348    -1374    -1399 
   -1421    -1441    -1460    -1476    -1490    -1495    -1490    -1475 
   -1453    -1425    -1393    -1362    -1340    -1327    -1325    -1335 
   -1348    -1371    -1398    -1425    -1455    -1480    -1501    -1518 
   -1532    -1541    -1539    -1534    -1530    -1524    -1516    -1507 
   -1498    -1486    -1471    -1458    -1449    -1444    -1440    -1443 
   -1448    -1449    -1448    -1443    -1436    -1429    -1418    -1405 
   -1391    -1377    -1362    -1350    -1344    -1341    -1343    -1344 
   -1345    -1343    -1335    -1324    -1302    -1273    -1244    -1215 
   -1190    -1174    -1163    -1154    -1158    -1167    -1173    -1179 
   -1188    -1190    -1186    -1179    -1175    -1169    -1163    -1161 
   -1151    -1142    -1135    -1125    -1120    -1119    -1120    -1124 
   -1125    -1123    -1121    -1121    -1115    -1105    -1100    -1093 
   -1084    -1078    -1070    -1062    -1062    -1063    -1067    -1082 
   -1100    -1119    -1144    -1174    -1209    -1250    -1291    -1328 
   -1362    -1397    -1426    -1448    -1466    -1475    -1470    -1456 
   -1439    -1421    -1402    -1383    -1368    -1352    -1337    -1327 
   -1324    -1327    -1331    -1337    -1348    -1362    -1382    -1408 
   -1436    -1464    -1491    -1516    -1530    -1537    -1533    -1521 
   -1501    -1475    -1447    -1417    -1390    -1366    -1340    -1318 
   -1304    -1294    -1283    -1279    -1279    -1281    -1287    -1296 
   -1296    -1301    -1314    -1325    -1329    -1325    -1312    -1291 
   -1264    -1233    -1196    -1152    -1111    -1067    -1027     -996 
    -976     -967     -969     -980    -1001    -1021    -1042    -1063 
   -1080    -1093    -1105    -1112    -1115    -1115    -1108    -1104 
   -1107    -1109    -1112    -1121    -1124    -1123    -1121    -1117 
   -1112    -1109    -1108    -1105    -1105    -1108    -1111    -1121 
   -1138    -1151    -1167    -1190    -1212    -1227    -1235    -1244 
   -1250    -1251    -1254    -1255    -1255    -1254    -1254    -1256 
   -1260    -1266    -1271    -1271    -1271    -1273    -1271    -1271 
   -1270    -1271    -1283    -1302    -1328    -1366    -1404    -1440 
   -1474    -1499    -1518    -1529    -1533    -1532    -1528    -1518 
   -1502    -1485    -1470    -1455    -1444    -1437    -1424    -1410 
   -1397    -1377    -1355    -1329    -1301    -1279    -1263    -1251 
   -1247    -1251    -1263    -1282    -1306    -1335    -1367    -1394 
   -1413    -1428    -1435    -1435    -1431    -1425    -1417    -1404 
   -1394    -1391    -1389    -1390    -1399    -1413    -1431    -1448 
   -1464    -1480    -1495    -1506    -1513    -1517    -1518    -1514 
   -1507    -1494    -1475    -1456    -1439    -1424    -1412    -1398 
   -1387    -1379    -1375    -1372    -1372    -1375    -1379    -1383 
   -1391    -1397    -1399    -1404    -1402    -1395    -1387    -1378 
   -1368    -1360    -1355    -1350    -1348    -1351    -1355    -1359 
   -1362    -1360    -1356    -1350    -1339    -1328    -1314    -1302 
   -1291    -1277    -1264    -1258    -1254    -1252    -1251    -1252 
   -1254    -1250    -1247    -1240    -1231    -1229    -1231    -1235 
   -1244    -1258    -1277    -1302    -1332    -1370    -1412    -1448 
   -1483    -1518    -1547    -1566    -1578    -1582    -1575    -1560 
   -1537    -1509    -1479    -1447    -1414    -1386    -1362    -1339 
   -1318    -1298    -1278    -1259    -1242    -1223    -1204    -1186 
   -1169    -1147    -1129    -1116    -1102    -1092    -1089    -1092 
   -1100    -1112    -1129    -1146    -1159    -1174    -1192    -1205 
   -1219    -1232    -1247    -1255    -1264    -1270    -1270    -1270 
   -1271    -1275    -1281    -1286    -1298    -1308    -1309    -1310 
   -1312    -1302    -1287    -1273    -1252    -1235    -1227    -1223 
   -1225    -1236    -1252    -1273    -1291    -1306    -1320    -1332 
   -1340    -1345    -1347    -1340    -1333    -1324    -1310    -1297 
   -1289    -1285    -1279    -1270    -1260    -1250    -1231    -1208 
   -1185    -1156    -1125    -1097    -1070    -1047    -1030    -1020 
   -1020    -1026    -1034    -1040    -1051    -1067    -1084    -1097 
   -1116    -1134    -1146    -1154    -1163    -1170    -1175    -1179 
   -1177    -1171    -1166    -1156    -1140    -1125    -1111    -1096 
   -1081    -1066    -1051    -1039    -1034    -1030    -1026    -1024 
   -1030    -1032    -1036    -1044    -1053    -1059    -1070    -1082 
   -1097    -1116    -1138    -1161    -1186    -1208    -1219    -1225 
   -1228    -1215    -1194    -1171    -1143    -1116    -1090    -1070 
   -1055    -1046    -1042    -1046    -1055    -1065    -1075    -1088 
   -1100    -1113    -1134    -1154    -1173    -1197    -1224    -1254 
   -1285    -1317    -1351    -1389    -1429    -1470    -1503    -1536 
   -1564    -1591    -1615    -1636    -1652    -1667    -1679    -1686 
   -1690    -1692    -1694    -1690    -1687    -1683    -1676    -1671 
   -1671    -1672    -1680    -1691    -1696    -1705    -1715    -1723 
   -1733    -1744    -1750    -1753    -1756    -1756    -1753    -1752 
   -1750    -1750    -1750    -1750    -1753    -1753    -1753    -1749 
   -1741    -1734    -1725    -1713    -1703    -1692    -1686    -1686 
   -1686    -1687    -1695    -1703    -1714    -1725    -1730    -1730 
   -1730    -1726    -1723    -1718    -1709    -1702    -1695    -1690 
   -1682    -1674    -1664    -1651    -1636    -1622    -1607    -1590 
   -1571    -1547    -1524    -1501    -1478    -1459    -1439    -1420 
   -1402    -1381    -1360    -1340    -1314    -1286    -1259    -1229 
   -1202    -1171    -1142    -1116    -1089    -1065    -1048    -1039 
   -1035    -1040    -1050    -1061    -1077    -1097    -1119    -1143 
   -1165    -1183    -1200    -1215    -1223    -1225    -1227    -1221 
   -1212    -1201    -1182    -1155    -1125    -1090    -1046    -1004 
    -962     -922     -884     -850     -823     -803     -785     -777 
    -777     -785     -797     -814     -830     -847     -861     -874 
    -884     -889     -895     -903     -909     -913     -916     -915 
    -912     -905     -899     -891     -878     -864     -842     -818 
    -792     -766     -743     -724     -711     -700     -689     -683 
    -680     -677     -672     -665     -665     -665     -665     -675 
    -688     -703     -729     -761     -796     -841     -885     -928 
    -972    -1007    -1035    -1061    -1081    -1092    -1098    -1101 
   -1097    -1088    -1078    -1067    -1059    -1054    -1048    -1046 
   -1048    -1054    -1059    -1065    -1074    -1086    -1096    -1111 
   -1135    -1158    -1178    -1204    -1228    -1250    -1274    -1298 
   -1320    -1341    -1362    -1375    -1386    -1395    -1398    -1398 
   -1401    -1405    -1405    -1402    -1401    -1405    -1412    -1421 
   -1432    -1443    -1453    -1463    -1472    -1483    -1495    -1510 
   -1532    -1555    -1583    -1613    -1637    -1661    -1686    -1705 
   -1721    -1734    -1742    -1748    -1749    -1750    -1749    -1745 
   -1740    -1732    -1723    -1713    -1698    -1682    -1667    -1651 
   -1637    -1624    -1617    -1615    -1620    -1629    -1647    -1671 
   -1706    -1746    -1788    -1830    -1869    -1907    -1935    -1957 
   -1973    -1979    -1975    -1961    -1938    -1908    -1873    -1836 
   -1796    -1757    -1715    -1674    -1632    -1594    -1555    -1518 
   -1491    -1467    -1445    -1433    -1425    -1421    -1424    -1426 
   -1433    -1445    -1453    -1459    -1466    -1471    -1471    -1468 
   -1466    -1458    -1444    -1428    -1406    -1383    -1360    -1341 
   -1325    -1312    -1304    -1300    -1298    -1297    -1297    -1297 
   -1289    -1279    -1270    -1260    -1250    -1236    -1225    -1219 
   -1213    -1215    -1220    -1225    -1236    -1255    -1278    -1297 
   -1317    -1339    -1355    -1368    -1381    -1389    -1390    -1387 
   -1382    -1374    -1364    -1354    -1339    -1325    -1313    -1304 
   -1297    -1294    -1300    -1312    -1323    -1332    -1343    -1351 
   -1354    -1358    -1362    -1362    -1366    -1372    -1377    -1377 
   -1382    -1385    -1379    -1370    -1362    -1350    -1331    -1308 
   -1285    -1256    -1227    -1201    -1171    -1138    -1105    -1075 
   -1044    -1011     -981     -955     -930     -903     -881     -861 
    -843     -830     -816     -803     -789     -774     -768     -766 
    -768     -773     -785     -810     -842     -872     -899     -930 
    -955     -967     -977     -980     -974     -963     -945     -919 
    -892     -864     -834     -804     -776     -756     -741     -730 
    -729     -738     -756     -781     -818     -864     -912     -962 
   -1017    -1075    -1127    -1175    -1221    -1259    -1294    -1324 
   -1345    -1362    -1378    -1391    -1404    -1418    -1435    -1447 
   -1458    -1468    -1480    -1491    -1502    -1513    -1525    -1536 
   -1549    -1563    -1574    -1583    -1594    -1606    -1620    -1632 
   -1641    -1645    -1648    -1648    -1642    -1632    -1622    -1611 
   -1601    -1588    -1579    -1575    -1574    -1570    -1571    -1575 
   -1576    -1580    -1584    -1588    -1593    -1597    -1601    -1605 
   -1607    -1609    -1607    -1603    -1601    -1597    -1590    -1583 
   -1575    -1570    -1561    -1555    -1552    -1549    -1547    -1541 
   -1536    -1528    -1516    -1503    -1490    -1474    -1456    -1437 
   -1421    -1402    -1378    -1356    -1339    -1316    -1297    -1282 
   -1266    -1252    -1243    -1231    -1221    -1213    -1204    -1197 
   -1194    -1194    -1200    -1212    -1225    -1242    -1259    -1279 
   -1300    -1318    -1340    -1364    -1387    -1409    -1431    -1452 
   -1467    -1478    -1487    -1490    -1485    -1474    -1456    -1432 
   -1406    -1381    -1352    -1327    -1301    -1274    -1247    -1221 
   -1194    -1170    -1146    -1123    -1104    -1084    -1066    -1051 
   -1038    -1023    -1007     -992     -978     -962     -946     -928 
    -904     -880     -857     -834     -812     -795     -783     -772 
    -761     -757     -757     -751     -743     -735     -723     -706 
    -683     -656     -623     -589     -556     -525     -502     -483 
    -465     -459     -460     -463     -471     -481     -491     -499 
    -511     -521     -527     -538     -552     -567     -585     -606 
    -630     -657     -687     -722     -758     -793     -828     -861 
    -896     -928     -954     -981    -1009    -1031    -1048    -1065 
   -1082    -1101    -1124    -1150    -1174    -1200    -1231    -1269 
   -1301    -1335    -1374    -1413    -1449    -1487    -1529    -1571 
   -1618    -1672    -1723    -1775    -1829    -1877    -1925    -1968 
   -2003    -2031    -2052    -2061    -2066    -2065    -2064    -2064 
   -2064    -2061    -2061    -2060    -2060    -2060    -2061    -2062 
   -2062    -2065    -2066    -2069    -2072    -2076    -2079    -2084 
   -2088    -2087    -2083    -2077    -2065    -2052    -2038    -2022 
   -2002    -1981    -1958    -1933    -1906    -1873    -1836    -1802 
   -1767    -1725    -1682    -1640    -1598    -1557    -1521    -1489 
   -1459    -1437    -1418    -1398    -1385    -1374    -1362    -1358 
   -1356    -1354    -1352    -1355    -1358    -1360    -1368    -1383 
   -1399    -1414    -1428    -1444    -1459    -1471    -1483    -1494 
   -1498    -1498    -1498    -1490    -1476    -1460    -1439    -1416 
   -1387    -1359    -1333    -1308    -1285    -1266    -1251    -1240 
   -1236    -1233    -1236    -1240    -1248    -1262    -1277    -1291 
   -1305    -1317    -1324    -1328    -1327    -1323    -1314    -1298 
   -1281    -1263    -1243    -1216    -1189    -1162    -1134    -1108 
   -1084    -1063    -1043    -1024    -1008     -996     -981     -966 
    -955     -950     -950     -951     -955     -963     -970     -977 
    -986    -1000    -1016    -1039    -1063    -1090    -1123    -1158 
   -1194    -1237    -1279    -1317    -1358    -1393    -1420    -1444 
   -1464    -1479    -1490    -1499    -1509    -1516    -1517    -1517 
   -1518    -1521    -1524    -1526    -1530    -1530    -1528    -1524 
   -1514    -1499    -1480    -1455    -1421    -1387    -1345    -1297 
   -1246    -1192    -1134    -1075    -1019     -967     -920     -872 
    -830     -796     -768     -751     -742     -731     -729     -734 
    -737     -743     -753     -756     -756     -751     -743     -730 
    -710     -684     -662     -639     -615     -594     -577     -568 
    -567     -571     -580     -599     -625     -658     -702     -753 
    -810     -873     -938    -1004    -1070    -1128    -1185    -1239 
   -1283    -1317    -1347    -1368    -1382    -1394    -1405    -1412 
   -1420    -1432    -1447    -1462    -1479    -1498    -1517    -1539 
   -1560    -1582    -1605    -1628    -1656    -1686    -1709    -1734 
   -1765    -1792    -1815    -1840    -1854    -1863    -1869    -1868 
   -1863    -1858    -1853    -1845    -1842    -1846    -1856    -1868 
   -1880    -1892    -1908    -1922    -1937    -1954    -1972    -1985 
   -1993    -1998    -2000    -1998    -1989    -1975    -1952    -1925 
   -1892    -1857    -1815    -1765    -1713    -1661    -1606    -1549 
   -1495    -1443    -1390    -1341    -1300    -1259    -1224    -1198 
   -1173    -1151    -1136    -1121    -1107    -1096    -1086    -1081 
   -1077    -1073    -1071    -1073    -1081    -1096    -1117    -1147 
   -1182    -1224    -1271    -1320    -1367    -1413    -1456    -1497 
   -1532    -1560    -1583    -1598    -1605    -1609    -1603    -1594 
   -1583    -1571    -1559    -1547    -1533    -1524    -1520    -1516 
   -1509    -1503    -1501    -1499    -1498    -1498    -1499    -1499 
   -1499    -1497    -1487    -1478    -1470    -1451    -1424    -1395 
   -1363    -1328    -1289    -1248    -1209    -1169    -1127    -1088 
   -1050    -1017     -990     -962     -938     -922     -905     -895 
    -897     -907     -916     -932     -957     -982    -1009    -1042 
   -1071    -1100    -1125    -1148    -1170    -1193    -1216    -1240 
   -1264    -1289    -1316    -1341    -1364    -1387    -1404    -1416 
   -1424    -1425    -1418    -1408    -1389    -1363    -1332    -1294 
   -1254    -1215    -1181    -1148    -1117    -1096    -1075    -1059 
   -1053    -1051    -1054    -1062    -1067    -1070    -1073    -1070 
   -1061    -1054    -1047    -1032    -1013     -997     -980     -961 
    -939     -919     -900     -876     -849     -823     -793     -762 
    -738     -716     -697     -683     -669     -657     -649     -646 
    -650     -657     -665     -681     -706     -734     -765     -804 
    -847     -892     -938     -981    -1020    -1054    -1080    -1097 
   -1104    -1101    -1093    -1080    -1067    -1054    -1040    -1036 
   -1040    -1043    -1053    -1070    -1093    -1124    -1158    -1193 
   -1229    -1269    -1306    -1343    -1379    -1412    -1440    -1464 
   -1486    -1505    -1520    -1532    -1544    -1557    -1568    -1574 
   -1580    -1593    -1601    -1602    -1606    -1613    -1622    -1632 
   -1644    -1659    -1676    -1698    -1722    -1746    -1771    -1796 
   -1822    -1848    -1872    -1894    -1910    -1921    -1927    -1934 
   -1937    -1938    -1939    -1935    -1930    -1925    -1915    -1902 
   -1887    -1872    -1852    -1831    -1814    -1795    -1775    -1757 
   -1741    -1726    -1715    -1703    -1687    -1675    -1660    -1642 
   -1625    -1609    -1591    -1574    -1557    -1540    -1520    -1497 
   -1478    -1460    -1440    -1420    -1401    -1379    -1356    -1337 
   -1320    -1305    -1287    -1270    -1254    -1239    -1220    -1206 
   -1193    -1174    -1161    -1154    -1144    -1134    -1125    -1121 
   -1116    -1112    -1108    -1101    -1086    -1066    -1047    -1028 
   -1004     -976     -946     -911     -878     -847     -814     -780 
    -747     -715     -687     -658     -634     -618     -603     -591 
    -584     -577     -571     -569     -568     -564     -560     -556 
