Origin Time       2025/01/13 21:19:00
Lat.              31.8
Long.             131.6
Depth. (km)       30
Mag.              6.9
Station Code      SMNH06
Station Lat.      34.8839
Station Long.     132.2026
Station Height(m) 260
Record Time       2025/01/13 21:20:35
Sampling Freq(Hz) 100Hz
Duration Time(s)  157
Dir.              5
Scale Factor      7845(gal)/8223790
Max. Acc. (gal)   1.915
Last Correction   2025/01/13 21:20:35
Memo.             
[...]
     500      488      492      514      533      537      548      568 
     589      612      634      643      650      656      652      635 
     610      587      573      557      540      526      522      527 
     541      553      564      579      595      600      602      623 
     673      737      811      907     1016     1115     1190     1244 
    1269     1248     1189     1102      996      874      751      646 
     560      479      411      368      355      390      481      599 
     715      826      920      994     1051     1093     1117     1121 
    1097     1051      999      940      889      850      819      787 
     734      657      567      472      384      313      263      244 
     265      326      414      495      558      623      689      747 
     803      851      891      920      959     1013     1061     1085 
    1096     1093     1071     1036      992      942      899      873 
     855      830      797      762      723      676      630      600 
     603      641      714      811      916     1008     1063     1074 
    1044      990      935      885      838      797      778      783 
     796      807      814      818      822      826      819      795 
     762      737      718      696      666      642      622      602 
     587      579      589      635      718      828      932     1000 
    1030     1042     1046     1038     1013      990      992     1011 
    1026     1027     1001      947      882      824      762      684 
     592      495      392      292      216      187      209      270 
     355      436      515      611      726      839      940     1040 
    1154     1263     1336     1370     1383     1391     1404     1416 
    1418     1395     1331     1232     1121      997      855      707 
     554      403      264      149       62        2      -43      -78 
    -101     -120     -132     -110      -41       55      168      306 
     460      598      699      773      846      938     1051     1178 
    1301     1416     1520     1598     1633     1626     1599     1564 
    1517     1453     1372     1275     1155     1020      892      783 
     688      604      527      457      405      386      396      423 
     475      552      638      733      830      919      997     1057 
    1082     1075     1048      997      924      841      750      676 
     633      625      645      680      714      756      808      845 
     845      804      745      687      626      564      510      480 
     483      504      541      591      629      646      657      665 
     666      666      672      673      670      680      706      737 
     772      807      839      865      873      853      805      743 
     677      614      558      506      454      418      403      394 
     379      371      373      376      386      427      506      603 
     703      795      868      924      969      997     1013     1019 
    1017     1017     1016      996      967      938      904      866 
     823      762      683      603      534      469      405      348 
     310      284      261      255      279      332      400      475 
     541      584      608      634      679      746      837      949 
    1073     1186     1262     1293     1285     1236     1158     1066 
     972      872      769      691      638      594      553      514 
     461      403      353      314      288      287      307      348 
     403      476      576      714      885     1062     1208     1312 
    1374     1398     1401     1391     1374     1352     1331     1300 
    1244     1181     1127     1090     1081     1086     1094     1107 
    1121     1144     1175     1194     1189     1162     1111     1039 
     962      895      842      803      781      777      784      800 
     826      850      870      873      851      820      799      787 
     791      822      868      905      926      946      970      992 
    1011     1015      997      966      920      851      776      710 
     664      642      639      657      684      706      719      733 
     737      730      712      684      645      588      514      436 
     352      263      179      117       82       81      112      159 
     205      230      247      272      307      356      427      508 
     571      594      579      546      514      491      484      503 
     548      611      677      735      781      814      826      819 
     788      724      638      562      510      468      433      417 
     415      415      413      399      357      286      209      162 
     157      190      257      355      468      584      696      797 
     874      931      984     1030     1061     1080     1081     1066 
    1044     1009      966      932      915      896      855      793 
     718      627      527      438      380      367      396      456 
     529      589      634      668      689      691      672      649 
     648      673      715      783      880      985     1094     1224 
    1363     1483     1574     1632     1644     1620     1576     1534 
    1507     1479     1437     1389     1354     1350     1381     1426 
    1463     1468     1436     1383     1328     1264     1190     1113 
    1043      980      918      850      791      745      697      642 
     575      498      419      345      290      279      313      373 
     449      526      592      661      743      828      901      973 
    1055     1135     1194     1233     1251     1235     1186     1124 
    1057      977      907      864      838      819      807      791 
     761      729      712      707      710      720      742      774 
     804      815      811      799      780      758      726      664 
     587      527      502      487      452      390      314      244 
     172       97       37       10       16       56      113      171 
     225      279      346      430      521      610      692      770 
     841      901      954      986      985      966      950      936 
     928      943      985     1024     1043     1034      989      919 
     831      747      691      662      648      642      627      587 
     523      453      390      334      297      295      307      314 
     342      411      510      622      737      841      912      932 
     905      847      781      727      691      669      654      641 
     631      635      645      635      608      576      535      476 
     392      286      184      122      125      197      326      480 
     621      730      795      801      758      706      680      684 
     703      727      760      807      850      869      857      828 
     792      761      753      762      773      788      808      814 
     792      746      681      621      594      595      614      648 
     695      738      768      783      788      785      777      773 
     777      774      766      768      780      797      815      826 
     822      805      781      750      720      708      707      695 
     658      594      527      488      491      526      585      665 
     756      842      919      992     1067     1152     1248     1352 
    1449     1514     1529     1494     1420     1309     1166     1003 
     838      700      607      558      553      583      633      685 
     739      791      841      878      892      882      857      834 
     835      846      847      845      851      874      907      943 
     974      988      976      957      950      961     1000     1074 
    1169     1269     1355     1412     1444     1472     1501     1514 
    1503     1474     1432     1370     1286     1197     1125     1086 
    1075     1088     1112     1127     1144     1189     1246     1283 
    1297     1297     1293     1278     1236     1165     1080      994 
     927      884      862      846      819      783      735      668 
     594      535      502      477      445      392      334      290 
     263      256      274      294      291      263      229      216 
     234      284      359      452      545      616      652      653 
     625      584      554      545      548      554      552      529 
     498      473      459      441      421      403      384      353 
     321      309      324      361      405      434      429      384 
     322      255      180      117       89      108      166      252 
     357      471      584      707      854     1024     1210     1405 
    1591     1744     1850     1911     1934     1931     1914     1894 
    1887     1881     1865     1831     1771     1679     1575     1474 
    1372     1267     1148     1021      905      819      770      746 
     723      697      669      631      579      523      490      481 
     494      523      562      599      631      670      726      801 
     889      973     1027     1046     1031      990      945      905 
     866      819      781      760      742      733      758      819 
     891      950      989      999      957      859      730      587 
     463      388      357      353      367      390      417      442 
     453      444      409      351      294      255      247      274 
     332      407      487      564      650      739      810      849 
     865      868      850      816      781      751      731      734 
     766      816      873      943     1030     1134     1247     1345 
    1420     1475     1506     1513     1486     1421     1347     1286 
    1236     1188     1147     1117     1082     1028      951      849 
     723      589      453      303      137      -35     -202     -364 
    -522     -658     -738     -749     -693     -581     -442     -311 
    -206     -126      -49       54      187      319      427      507 
     560      607      662      715      768      834      897      926 
     912      869      800      722      657      630      643      675 
     707      731      742      751      783      835      880      901 
     892      854      797      742      702      688      696      726 
     770      818      870      940     1015     1075     1121     1139 
    1116     1062      994      936      916      935      981     1039 
    1089     1111     1094     1055     1005      946      881      808 
     719      607      479      333      174       28      -87     -168 
    -217     -236     -237     -228     -216     -211     -222     -243 
    -245     -224     -190     -156     -124      -74       16      147 
     295      456      626      799      969     1134     1285     1424 
    1552     1660     1726     1737     1695     1603     1466     1300 
    1138     1009      912      843      804      783      776      785 
     797      814      865      946     1032     1117     1205     1287 
    1359     1410     1429     1416     1390     1370     1358     1340 
    1308     1271     1227     1158     1053      919      776      639 
     519      429      369      336      330      355      406      479 
     569      683      819      973     1127     1267     1386     1486 
    1556     1586     1575     1536     1470     1382     1274     1128 
     943      750      568      398      237       98       -8      -97 
    -189     -279     -356     -409     -433     -425     -384     -326 
    -268     -209     -137      -59       14       79      133      184 
     241      311      390      473      561      648      719      765 
     791      799      797      795      795      804      823      849 
     889      950     1028     1121     1223     1308     1360     1382 
    1382     1385     1405     1443     1483     1522     1553     1561 
    1532     1476     1426     1383     1321     1242     1154     1051 
     935      820      711      610      522      448      376      297 
     214      143       97       81       97      136      194      257 
     305      334      363      390      432      504      604      718 
     843      965     1070     1161     1233     1290     1323     1321 
    1296     1263     1227     1193     1161     1125     1082     1020 
     931      819      700      580      456      333      226      132 
      56        4      -35      -56      -48       -8       71      184 
     310      442      588      735      851      912      930      926 
     904      869      832      788      723      645      576      526 
     486      456      448      461      487      522      557      594 
     646      729      827      922     1004     1081     1159     1232 
    1297     1345     1377     1391     1382     1331     1248     1161 
    1081     1017      986      980      989     1016     1065     1143 
    1232     1306     1358     1390     1408     1409     1395     1364 
    1314     1237     1131     1001      861      727      623      554 
     496      430      353      275      206      160      141      155 
     203      291      413      554      708      878     1075     1302 
    1536     1752     1934     2077     2184     2265     2327     2367 
    2385     2380     2338     2245     2103     1911     1678     1424 
    1173      953      785      679      627      608      604      600 
     594      600      634      691      768      861      953     1026 
    1077     1112     1119     1088     1017      911      773      607 
     417      222       32     -155     -336     -502     -654     -795 
    -918    -1027    -1125    -1198    -1237    -1250    -1240    -1210 
   -1171    -1123    -1047     -949     -837     -708     -575     -450 
    -338     -236     -135      -37       32       79      128      183 
     247      318      387      442      472      476      456      415 
     365      332      318      313      305      292      268      240 
     220      213      221      229      233      233      230      226 
     226      237      261      310      395      514      648      783 
     911     1035     1154     1255     1341     1413     1466     1503 
    1526     1532     1522     1495     1448     1375     1273     1132 
     957      769      598      459      360      309      294      309 
     352      415      484      550      604      656      703      734 
     743      743      742      741      749      766      793      826 
     858      886      903      909      904      897      900      919 
     951      980      993      990      970      943      913      877 
     835      796      774      776      793      830      893      982 
    1094     1225     1358     1476     1582     1686     1796     1906 
    2008     2099     2177     2245     2299     2338     2361     2373 
    2367     2344     2303     2243     2177     2108     2027     1934 
    1831     1722     1614     1512     1417     1329     1242     1146 
    1044      942      851      780      727      696      681      673 
     673      683      699      710      718      720      711      695 
     681      669      656      638      616      596      581      576 
     583      599      614      614      596      565      519      463 
     402      342      294      263      253      257      257      257 
     257      256      247      225      189      133       55      -35 
    -132     -233     -324     -391     -430     -454     -472     -479 
    -468     -433     -384     -332     -274     -211     -152      -98 
     -55      -37      -49      -90     -151     -226     -311     -395 
    -463     -507     -533     -538     -525     -495     -449     -386 
    -302     -194      -59       91      253      415      568      708 
     845      974     1092     1198     1289     1359     1413     1460 
    1506     1547     1583     1618     1653     1690     1729     1777 
    1836     1899     1965     2029     2084     2127     2164     2201 
    2247     2312     2394     2485     2575     2656     2706     2720 
    2704     2659     2587     2485     2351     2195     2016     1814 
    1593     1363     1134      912      716      556      427      321 
     240      183      144      122      130      162      207      268 
     325      367      394      421      457      502      548      595 
     639      687      743      801      855      911      973     1034 
    1081     1100     1092     1069     1046     1030     1009      969 
     905      824      731      633      537      459      399      348 
     288      214      124       31      -51     -130     -206     -270 
    -326     -380     -441     -511     -579     -626     -648     -633 
    -576     -479     -346     -176       20      233      452      672 
     889     1092     1274     1420     1529     1620     1691     1742 
    1779     1791     1772     1733     1674     1591     1497     1395 
    1283     1167     1057      947      845      754      689      658 
     658      684      734      810      897      992     1100     1219 
    1336     1444     1540     1626     1698     1742     1761     1761 
    1753     1740     1723     1698     1665     1625     1572     1507 
    1440     1372     1301     1225     1152     1093     1047     1008 
     978      961      939      904      864      822      781      750 
     739      754      785      824      877      954     1046     1140 
    1251     1377     1495     1591     1656     1684     1672     1615 
    1525     1410     1269     1093      886      654      402      144 
     -94     -309     -503     -676     -819     -927     -989    -1009 
    -993     -943     -847     -710     -544     -356     -144       72 
     268      430      550      625      657      645      589      500 
     386      248       90      -83     -271     -459     -630     -784 
    -912    -1011    -1089    -1147    -1163    -1135    -1073     -977 
    -847     -691     -507     -299      -79      144      372      595 
     797      967     1093     1171     1217     1242     1251     1237 
    1204     1156     1096     1019      932      845      760      670 
     588      511      429      340      255      183      130       95 
      87      114      159      207      257      314      375      434 
     500      575      650      723      797      872      946     1027 
    1116     1216     1329     1455     1584     1715     1844     1964 
    2079     2181     2261     2308     2317     2292     2228     2134 
    2027     1923     1819     1707     1593     1483     1381     1289 
    1209     1129     1055     1001      977      980     1000     1040 
    1104     1185     1277     1385     1505     1622     1730     1825 
    1903     1961     1989     1987     1956     1894     1804     1698 
    1578     1444     1305     1170     1048      947      873      835 
     830      850      892      951     1021     1098     1167     1217 
    1247     1256     1246     1215     1170     1113     1043      963 
     892      827      764      716      693      687      680      670 
     654      629      594      549      502      449      394      334 
     275      217      160      110       79       76      102      141 
     186      234      288      352      417      476      533      587 
     634      677      722      764      808      857      903      949 
     996     1040     1074     1090     1088     1066     1032      986 
