Origin Time       2025/01/13 21:19:00
Lat.              31.8
Long.             131.6
Depth. (km)       30
Mag.              6.9
Station Code      SMNH16
Station Lat.      35.3422
Station Long.     132.8989
Station Height(m) 46.5
Record Time       2025/01/13 21:20:45
Sampling Freq(Hz) 100Hz
Duration Time(s)  132
Dir.              4
Scale Factor      3920(gal)/6170801
Max. Acc. (gal)   1.243
Last Correction   2025/01/13 21:20:30
Memo.             
[...]
   15054    15084    15111    15146    15191    15241    15299    15361 
   15413    15451    15479    15506    15534    15562    15589    15609 
   15618    15621    15621    15619    15613    15605    15596    15585 
   15572    15551    15520    15486    15453    15431    15432    15457 
   15497    15546    15595    15629    15646    15657    15672    15692 
   15707    15712    15706    15682    15642    15592    15531    15447 
   15340    15224    15110    15012    14937    14890    14875    14880 
   14893    14920    14965    15026    15104    15195    15286    15372 
   15457    15542    15628    15716    15807    15893    15957    15988 
   15981    15944    15893    15849    15813    15772    15719    15652 
   15561    15449    15333    15227    15135    15051    14968    14886 
   14806    14731    14666    14610    14560    14506    14444    14384 
   14344    14325    14324    14345    14384    14445    14533    14641 
   14758    14875    14979    15065    15133    15183    15229    15290 
   15364    15441    15518    15597    15679    15757    15823    15866 
   15886    15886    15873    15856    15838    15815    15778    15730 
   15679    15645    15638    15652    15668    15666    15634    15573 
   15502    15442    15401    15369    15327    15265    15189    15115 
   15065    15047    15060    15096    15151    15222    15311    15425 
   15542    15638    15699    15716    15697    15658    15609    15559 
   15511    15454    15379    15291    15205    15129    15064    15005 
   14953    14902    14841    14777    14726    14696    14691    14715 
   14760    14820    14905    15009    15120    15229    15327    15410 
   15473    15510    15524    15528    15525    15509    15481    15441 
   15392    15332    15260    15186    15125    15091    15086    15108 
   15144    15175    15193    15200    15201    15199    15197    15189 
   15172    15155    15145    15144    15155    15186    15230    15277 
   15321    15360    15387    15401    15401    15393    15387    15398 
   15429    15478    15540    15604    15655    15688    15701    15695 
   15678    15660    15646    15637    15628    15611    15586    15553 
   15516    15484    15459    15437    15417    15395    15364    15327 
   15285    15245    15207    15168    15127    15087    15054    15025 
   14998    14976    14967    14975    15002    15047    15112    15204 
   15316    15430    15537    15631    15699    15734    15746    15753 
   15762    15775    15798    15822    15839    15849    15853    15852 
   15844    15823    15787    15736    15669    15587    15485    15368 
   15245    15123    15004    14886    14769    14648    14522    14396 
   14274    14159    14063    13991    13946    13938    13978    14065 
   14188    14328    14471    14609    14747    14895    15056    15223 
   15377    15504    15605    15686    15760    15837    15907    15966 
   16007    16023    16012    15978    15933    15888    15843    15798 
   15753    15699    15631    15547    15440    15311    15166    15019 
   14889    14795    14738    14716    14728    14764    14815    14882 
   14962    15046    15136    15235    15333    15416    15484    15538 
   15582    15617    15644    15668    15690    15702    15709    15716 
   15719    15716    15697    15658    15603    15535    15469    15421 
   15386    15354    15325    15297    15269    15250    15247    15255 
   15273    15301    15331    15355    15369    15368    15358    15346 
   15337    15335    15347    15379    15430    15490    15557    15629 
   15699    15763    15827    15882    15921    15946    15955    15942 
   15907    15853    15781    15692    15591    15479    15362    15244 
   15117    14982    14843    14708    14581    14473    14394    14340 
   14309    14301    14312    14342    14393    14468    14565    14682 
   14807    14931    15051    15174    15301    15424    15533    15622 
   15686    15726    15752    15762    15754    15726    15668    15581 
   15481    15386    15304    15238    15183    15132    15079    15022 
   14963    14906    14853    14803    14768    14756    14768    14799 
   14846    14912    14995    15085    15179    15266    15336    15392 
   15443    15502    15572    15647    15718    15779    15827    15865 
   15892    15908    15912    15906    15890    15874    15866    15861 
   15859    15859    15845    15811    15760    15701    15642    15591 
   15555    15533    15514    15491    15466    15438    15407    15380 
   15361    15347    15335    15324    15315    15305    15298    15301 
   15324    15364    15413    15460    15496    15510    15497    15462 
   15411    15345    15271    15194    15112    15027    14936    14834 
   14722    14607    14497    14408    14348    14314    14304    14312 
   14336    14376    14432    14499    14564    14617    14658    14700 
   14748    14805    14878    14964    15054    15144    15227    15297 
   15363    15430    15500    15571    15638    15695    15731    15741 
   15730    15713    15699    15683    15659    15621    15564    15495 
   15425    15362    15308    15267    15243    15230    15220    15210 
   15197    15184    15180    15190    15220    15273    15342    15426 
   15526    15637    15750    15858    15956    16036    16099    16151 
   16204    16261    16315    16360    16392    16405    16390    16348 
   16286    16208    16115    16014    15905    15784    15652    15519 
   15381    15235    15094    14969    14857    14756    14670    14607 
   14570    14556    14560    14572    14589    14613    14649    14697 
   14754    14815    14871    14917    14957    14995    15030    15063 
   15092    15107    15107    15095    15074    15039    14995    14949 
   14901    14853    14825    14832    14864    14912    14964    15006 
   15034    15058    15087    15125    15173    15222    15259    15272 
   15265    15243    15216    15191    15169    15152    15149    15161 
   15191    15240    15301    15373    15455    15536    15612    15680 
   15741    15793    15833    15869    15906    15943    15978    16012 
   16037    16041    16016    15962    15886    15797    15701    15601 
   15499    15395    15290    15195    15115    15048    14992    14945 
   14902    14869    14856    14865    14898    14951    15025    15126 
   15246    15381    15520    15652    15777    15900    16016    16127 
   16240    16359    16480    16595    16698    16778    16828    16842 
   16816    16759    16688    16615    16548    16481    16402    16307 
   16196    16077    15953    15826    15699    15571    15447    15332 
   15224    15128    15046    14974    14918    14887    14874    14870 
   14882    14907    14934    14959    14983    15008    15034    15062 
   15093    15123    15146    15156    15153    15137    15113    15080 
   15043    15012    14992    14980    14976    14976    14972    14960 
   14936    14900    14850    14784    14707    14624    14539    14460 
   14389    14330    14285    14252    14229    14214    14217    14241 
   14282    14326    14368    14408    14445    14485    14535    14594 
   14666    14744    14820    14896    14971    15042    15107    15163 
   15212    15260    15305    15346    15383    15410    15422    15428 
   15433    15444    15469    15498    15518    15531    15540    15549 
   15566    15590    15619    15653    15682    15698    15706    15708 
   15698    15677    15653    15623    15590    15566    15547    15531 
   15526    15526    15521    15510    15494    15473    15447    15417 
   15394    15386    15388    15391    15386    15366    15328    15283 
   15240    15204    15177    15151    15110    15048    14970    14878 
   14783    14706    14657    14633    14632    14648    14675    14709 
   14751    14798    14848    14903    14965    15037    15123    15220 
   15321    15414    15483    15523    15540    15539    15525    15497 
   15454    15396    15327    15254    15180    15112    15050    14987 
   14920    14855    14800    14767    14763    14780    14814    14870 
   14936    15007    15095    15203    15322    15445    15570    15688 
   15789    15867    15925    15962    15979    15984    15968    15934 
   15894    15852    15803    15745    15675    15600    15531    15472 
   15423    15383    15344    15298    15243    15179    15113    15061 
   15029    15020    15026    15041    15058    15074    15086    15095 
   15097    15101    15122    15163    15223    15298    15380    15461 
   15533    15594    15647    15693    15732    15759    15763    15737 
   15686    15619    15542    15456    15363    15268    15174    15079 
   14986    14903    14837    14795    14779    14792    14841    14930 
   15055    15203    15364    15530    15696    15858    16015    16166 
   16303    16418    16502    16551    16569    16558    16510    16425 
   16307    16156    15980    15790    15592    15384    15169    14943 
   14706    14472    14260    14077    13921    13790    13684    13605 
   13561    13559    13602    13688    13811    13970    14163    14377 
   14604    14838    15067    15274    15459    15632    15797    15952 
   16090    16196    16263    16293    16294    16281    16260    16222 
   16166    16092    15999    15893    15781    15670    15572    15498 
   15448    15416    15400    15400    15411    15432    15464    15501 
   15543    15588    15630    15669    15702    15730    15754    15772 
   15786    15800    15818    15843    15877    15913    15942    15966 
   15984    15991    15983    15962    15928    15887    15842    15790 
   15735    15678    15610    15534    15459    15383    15313    15255 
   15207    15170    15147    15128    15111    15101    15097    15097 
   15102    15117    15142    15171    15196    15210    15201    15170 
   15128    15077    15017    14964    14930    14908    14899    14901 
   14905    14905    14902    14899    14908    14932    14966    15012 
   15063    15112    15158    15205    15249    15288    15321    15342 
   15354    15364    15370    15369    15363    15349    15325    15295 
   15262    15225    15183    15135    15083    15031    14984    14951 
   14935    14935    14947    14969    15003    15054    15119    15192 
   15269    15340    15396    15446    15495    15549    15624    15718 
   15820    15926    16027    16116    16187    16234    16260    16275 
   16278    16275    16275    16279    16285    16286    16276    16250 
   16208    16157    16102    16049    16001    15954    15902    15850 
   15800    15746    15690    15633    15575    15517    15463    15406 
   15348    15296    15246    15191    15139    15093    15048    15006 
   14969    14935    14897    14856    14808    14749    14680    14609 
   14549    14503    14471    14446    14420    14383    14336    14283 
   14226    14162    14096    14034    13979    13927    13882    13843 
   13807    13779    13768    13773    13796    13841    13904    13990 
   14106    14253    14424    14617    14822    15029    15242    15465 
   15692    15916    16126    16310    16466    16594    16694    16768 
   16817    16838    16826    16780    16704    16608    16492    16367 
   16239    16110    15984    15868    15767    15679    15602    15545 
   15507    15482    15468    15459    15448    15442    15441    15435 
   15419    15388    15329    15239    15126    14999    14865    14738 
   14622    14510    14403    14312    14235    14178    14153    14162 
   14201    14271    14370    14488    14620    14767    14931    15103 
   15272    15428    15566    15674    15757    15824    15874    15906 
   15923    15918    15886    15834    15771    15692    15596    15485 
   15360    15226    15086    14944    14805    14675    14551    14431 
   14324    14234    14158    14092    14034    13985    13950    13938 
   13957    14009    14093    14209    14349    14497    14646    14795 
   14935    15062    15185    15311    15442    15575    15707    15835 
   15956    16067    16157    16220    16265    16295    16304    16295 
   16268    16218    16153    16081    16000    15905    15799    15686 
   15564    15433    15298    15169    15050    14934    14825    14733 
   14667    14635    14647    14706    14806    14935    15084    15251 
   15427    15613    15806    15996    16176    16344    16496    16621 
   16711    16762    16775    16746    16678    16586    16474    16338 
   16179    16000    15806    15602    15395    15197    15019    14861 
   14725    14619    14544    14499    14486    14508    14561    14636 
   14725    14819    14909    14991    15061    15116    15162    15199 
   15225    15239    15243    15243    15246    15253    15268    15282 
   15291    15304    15317    15328    15347    15372    15404    15446 
   15492    15539    15586    15627    15659    15682    15700    15722 
   15753    15792    15841    15893    15944    15992    16030    16051 
   16057    16053    16042    16023    15994    15955    15906    15847 
   15776    15697    15623    15561    15506    15450    15384    15307 
   15220    15132    15045    14960    14878    14796    14710    14613 
   14505    14397    14298    14201    14109    14031    13961    13899 
   13847    13804    13769    13743    13725    13714    13711    13715 
   13731    13760    13795    13834    13885    13958    14062    14195 
   14349    14517    14694    14875    15064    15269    15489    15722 
   15957    16185    16395    16586    16758    16910    17035    17134 
   17205    17247    17263    17263    17248    17214    17158    17080 
   16975    16845    16695    16532    16359    16178    15994    15811 
   15630    15455    15292    15148    15027    14927    14844    14776 
   14722    14682    14658    14648    14652    14672    14706    14753 
   14816    14893    14980    15069    15150    15216    15268    15299 
   15309    15299    15267    15214    15138    15041    14930    14809 
   14689    14583    14493    14414    14351    14306    14284    14288 
   14320    14382    14474    14593    14739    14910    15107    15325 
   15550    15773    15985    16178    16348    16488    16596    16671 
   16712    16728    16720    16686    16630    16550    16447    16322 
   16181    16028    15867    15701    15535    15375    15222    15079 
   14948    14833    14733    14654    14604    14586    14597    14634 
   14692    14768    14854    14948    15050    15157    15257    15347 
   15423    15483    15530    15568    15599    15617    15618    15611 
   15600    15583    15566    15545    15513    15474    15425    15361 
   15286    15209    15135    15063    14992    14929    14879    14843 
   14824    14818    14820    14831    14854    14894    14950    15013 
   15079    15146    15213    15277    15338    15402    15467    15534 
   15601    15657    15695    15711    15701    15668    15612    15536 
   15456    15381    15307    15239    15178    15118    15055    14999 
   14954    14922    14904    14904    14919    14956    15018    15101 
   15201    15315    15440    15568    15691    15803    15897    15968 
   16018    16041    16030    15989    15919    15824    15707    15578 
   15442    15300    15154    15009    14864    14724    14605    14512 
   14442    14406    14406    14437    14494    14577    14678    14791 
   14915    15053    15200    15355    15517    15677    15832    15977 
   16103    16209    16295    16355    16390    16402    16393    16359 
   16298    16211    16098    15956    15794    15626    15457    15289 
   15129    14976    14833    14710    14608    14526    14470    14441 
   14437    14455    14499    14565    14645    14736    14836    14951 
   15085    15236    15398    15566    15735    15894    16041    16175 
   16291    16382    16445    16475    16469    16431    16363    16271 
   16158    16033    15899    15750    15586    15411    15226    15043 
   14868    14705    14563    14442    14340    14255    14180    14114 
   14069    14037    14010    13987    13972    13965    13967    13977 
   13993    14020    14062    14122    14197    14289    14399    14520 
   14642    14760    14874    14982    15077    15162    15237    15299 
   15351    15396    15433    15462    15481    15498    15518    15541 
   15567    15599    15634    15671    15707    15738    15761    15778 
   15795    15809    15816    15819    15824    15837    15857    15881 
   15898    15903    15900    15891    15875    15857    15842    15831 
   15826    15821    15816    15816    15832    15866    15910    15956 
   16002    16036    16060    16079    16091    16090    16074    16040 
   15990    15927    15853    15773    15690    15596    15490    15376 
   15259    15145    15039    14942    14855    14781    14721    14672 
   14635    14612    14603    14607    14621    14640    14662    14695 
   14738    14786    14838    14896    14963    15037    15111    15180 
   15243    15303    15357    15403    15443    15469    15473    15455 
   15417    15359    15285    15197    15102    15005    14910    14822 
   14747    14683    14633    14600    14584    14587    14609    14650 
   14712    14795    14893    15006    15135    15272    15412    15553 
   15692    15826    15943    16038    16114    16170    16204    16220 
   16223    16208    16181    16147    16099    16038    15974    15907 
   15830    15748    15663    15572    15476    15384    15299    15225 
   15161    15101    15039    14977    14916    14863    14819    14785 
   14763    14752    14752    14763    14785    14815    14851    14890 
   14928    14965    15002    15043    15092    15152    15215    15279 
   15343    15402    15454    15500    15538    15565    15584    15593 
   15592    15582    15569    15551    15523    15490    15454    15416 
   15375    15334    15290    15241    15195    15152    15113    15075 
   15041    15016    14995    14970    14944    14919    14892    14871 
   14858    14851    14851    14862    14884    14913    14943    14971 
   14993    15002    15001    15000    14998    14990    14982    14980 
   14980    14980    14985    14999    15021    15052    15099    15162 
   15236    15322    15417    15523    15638    15756    15870    15977 
   16074    16155    16221    16271    16298    16303    16287    16248 
   16187    16106    16011    15904    15785    15651    15502    15338 
   15172    15011    14853    14708    14582    14477    14396    14347 
   14332    14348    14389    14446    14517    14609    14721    14853 
   15008    15180    15352    15522    15684    15831    15959    16062 
   16136    16181    16195    16179    16133    16066    15985    15891 
   15781    15662    15541    15421    15309    15208    15120    15048 
   14989    14936    14897    14878    14876    14889    14912    14946 
   14991    15050    15120    15196    15275    15349    15413    15468 
   15511    15547    15576    15594    15599    15590    15569    15539 
   15499    15451    15407    15365    15323    15280    15234    15184 
   15132    15076    15015    14959    14912    14873    14846    14831 
   14826    14828    14841    14870    14915    14977    15060    15157 
   15268    15395    15535    15686    15845    16001    16140    16255 
   16348    16416    16456    16466    16444    16392    16310    16205 
   16084    15948    15794    15625    15449    15274    15106    14949 
