Origin Time       2025/01/13 21:19:00
Lat.              31.8
Long.             131.6
Depth. (km)       30
Mag.              6.9
Station Code      SMNH01
Station Lat.      35.2963
Station Long.     133.2604
Station Height(m) 69
Record Time       2025/01/13 21:21:22
Sampling Freq(Hz) 100Hz
Duration Time(s)  120
Dir.              2
Scale Factor      2942(gal)/8224139
Max. Acc. (gal)   0.197
Last Correction   2025/01/13 21:21:23
Memo.             
[...]
  357586   357574   357593   357620   357577   357546   357558   357531 
  357556   357617   357574   357562   357632   357636   357621   357644 
  357628   357589   357558   357517   357511   357540   357543   357534 
  357539   357532   357525   357498   357438   357443   357496   357500 
  357497   357509   357509   357517   357534   357551   357588   357593 
  357567   357585   357602   357589   357610   357643   357637   357627 
  357624   357625   357643   357656   357635   357612   357650   357716 
  357727   357705   357708   357709   357705   357745   357787   357774 
  357754   357751   357740   357741   357740   357733   357743   357735 
  357720   357732   357748   357752   357737   357733   357735   357710 
  357739   357812   357809   357767   357759   357748   357731   357718 
  357721   357741   357735   357729   357737   357718   357724   357762 
  357756   357741   357750   357724   357686   357694   357732   357756 
  357748   357720   357709   357750   357785   357727   357674   357752 
  357805   357740   357731   357782   357771   357750   357760   357758 
  357756   357762   357762   357785   357786   357744   357755   357797 
  357772   357735   357731   357741   357744   357718   357733   357816 
  357829   357768   357752   357764   357752   357732   357727   357736 
  357720   357708   357727   357736   357736   357739   357739   357747 
  357745   357724   357712   357725   357735   357716   357701   357691 
  357694   357723   357721   357687   357685   357709   357725   357714 
  357701   357705   357716   357721   357709   357698   357691   357677 
  357673   357675   357666   357650   357637   357646   357658   357642 
  357625   357644   357651   357635   357648   357663   357651   357655 
  357696   357724   357702   357690   357718   357724   357717   357740 
  357752   357762   357786   357770   357716   357691   357720   357729 
  357704   357745   357798   357782   357770   357764   357758   357755 
  357743   357775   357789   357750   357752   357756   357739   357760 
  357779   357774   357770   357766   357772   357793   357794   357794 
  357795   357764   357733   357748   357785   357804   357793   357768 
  357736   357737   357785   357801   357768   357748   357754   357778 
  357808   357814   357801   357782   357760   357754   357778   357808 
  357805   357774   357763   357786   357786   357762   357779   357817 
  357798   357767   357756   357745   357744   357729   357687   357647 
  357627   357639   357658   357669   357675   357660   357648   357656 
  357663   357671   357671   357655   357640   357633   357642   357644 
  357613   357612   357635   357605   357566   357588   357628   357624 
  357610   357643   357659   357650   357704   357743   357702   357691 
  357718   357709   357706   357732   357724   357693   357697   357731 
  357751   357737   357712   357724   357737   357698   357670   357687 
  357678   357631   357624   357648   357647   357662   357682   357697 
  357739   357732   357679   357678   357673   357654   357682   357698 
  357683   357698   357714   357674   357646   357669   357643   357583 
  357600   357648   357663   357654   357637   357655   357679   357654 
  357656   357686   357685   357683   357671   357650   357644   357629 
  357624   357617   357600   357623   357654   357659   357650   357601 
  357552   357569   357615   357594   357523   357519   357581   357582 
  357524   357505   357524   357555   357597   357597   357559   357546 
  357539   357525   357525   357528   357520   357517   357539   357574 
  357582   357573   357582   357582   357558   357559   357575   357574 
  357582   357600   357610   357613   357608   357606   357615   357621 
  357606   357596   357598   357579   357565   357592   357621   357620 
  357593   357582   357619   357650   357633   357612   357594   357581 
  357589   357598   357608   357610   357596   357600   357617   357586 
  357538   357561   357612   357620   357606   357598   357596   357574 
  357551   357574   357573   357520   357524   357582   357600   357573 
  357569   357583   357579   357581   357612   357625   357600   357577 
  357559   357529   357521   357540   357554   357548   357555   357579 
  357585   357594   357615   357598   357589   357615   357624   357629 
  357636   357621   357613   357632   357664   357679   357667   357678 
  357704   357687   357652   357646   357654   357671   357720   357744 
  357729   357731   357729   357744   357772   357739   357691   357679 
  357670   357673   357685   357687   357701   357741   357745   357708 
  357698   357713   357723   357712   357685   357683   357700   357708 
  357718   357718   357716   357713   357689   357679   357697   357721 
  357740   357732   357708   357690   357675   357681   357716   357741 
  357731   357714   357728   357739   357710   357701   357708   357681 
  357651   357624   357606   357613   357604   357608   357651   357664 
  357644   357664   357704   357693   357663   357667   357687   357697 
  357704   357696   357694   357739   357775   357743   357696   357682 
  357674   357687   357718   357718   357701   357702   357694   357675 
  357678   357678   357683   357717   357714   357691   357702   357704 
  357691   357683   357675   357704   357735   357701   357678   357709 
  357698   357664   357691   357718   357687   357666   357690   357698 
  357704   357770   357794   357737   357732   357759   357750   357750 
  357760   357768   357790   357794   357771   357764   357764   357716 
  357675   357691   357694   357704   357724   357691   357663   357659 
  357635   357613   357606   357600   357600   357612   357625   357608 
  357561   357550   357596   357623   357594   357567   357540   357524 
  357555   357590   357601   357627   357654   357660   357664   357662 
  357656   357664   357662   357632   357639   357691   357696   357666 
  357662   357650   357632   357623   357601   357610   357654   357674 
  357679   357679   357681   357674   357652   357660   357701   357712 
  357682   357651   357659   357677   357660   357659   357686   357679 
  357652   357664   357689   357689   357673   357655   357656   357663 
  357652   357632   357608   357610   357625   357608   357606   357621 
  357624   357623   357610   357605   357610   357601   357586   357558 
  357546   357566   357566   357558   357578   357594   357590   357588 
  357578   357547   357540   357594   357633   357633   357654   357642 
  357592   357604   357652   357675   357693   357714   357713   357682 
  357642   357627   357656   357691   357679   357666   357698   357728 
  357727   357716   357724   357768   357805   357793   357794   357822 
  357804   357777   357791   357793   357789   357804   357806   357798 
  357797   357799   357795   357814   357835   357809   357785   357755 
  357716   357737   357791   357795   357770   357779   357806   357810 
  357797   357782   357804   357835   357786   357756   357829   357856 
  357813   357818   357839   357794   357774   357825   357833   357818 
  357871   357894   357841   357809   357818   357831   357824   357797 
  357795   357810   357770   357724   357727   357724   357704   357686 
  357669   357674   357689   357666   357639   357635   357624   357608 
  357623   357664   357689   357663   357619   357604   357590   357583 
  357602   357592   357581   357609   357600   357569   357578   357596 
  357588   357562   357562   357593   357609   357598   357592   357617 
  357629   357604   357608   357646   357660   357666   357685   357679 
  357663   357691   357700   357655   357651   357698   357709   357670 
  357655   357674   357670   357642   357636   357658   357671   357670 
  357666   357639   357596   357597   357621   357609   357600   357616 
  357623   357635   357650   357637   357624   357620   357598   357577 
  357589   357608   357613   357621   357615   357597   357619   357642 
  357640   357669   357700   357673   357621   357609   357633   357648 
  357631   357598   357594   357625   357646   357637   357621   357606 
  357598   357597   357612   357644   357636   357605   357617   357636 
  357616   357590   357592   357605   357605   357592   357570   357562 
  357585   357597   357596   357610   357617   357623   357647   357650 
  357656   357681   357662   357623   357617   357620   357604   357582 
  357601   357640   357629   357621   357635   357612   357589   357579 
  357562   357565   357558   357544   357558   357539   357524   357548 
  357527   357493   357492   357478   357485   357521   357527   357519 
  357534   357546   357539   357519   357489   357485   357513   357536 
  357548   357594   357650   357616   357563   357609   357647   357643 
  357669   357678   357652   357646   357666   357673   357658   357654 
  357663   357683   357694   357683   357669   357628   357585   357590 
  357610   357616   357610   357596   357577   357559   357551   357550 
  357551   357581   357602   357586   357558   357529   357527   357566 
  357570   357500   357488   357563   357561   357502   357531   357581 
  357581   357597   357612   357600   357600   357612   357609   357604 
  357610   357654   357705   357694   357666   357679   357681   357663 
  357673   357669   357651   357652   357639   357628   357643   357651 
  357646   357636   357632   357631   357632   357664   357674   357658 
  357687   357706   357717   357766   357794   357808   357824   357835 
  357851   357836   357816   357847   357880   357891   357895   357872 
  357852   357863   357863   357852   357867   357893   357912   357891 
  357848   357849   357851   357817   357797   357781   357774   357789 
  357790   357762   357721   357729   357752   357682   357624   357673 
  357689   357659   357650   357619   357598   357623   357635   357624 
  357620   357636   357652   357647   357659   357696   357724   357735 
  357732   357720   357718   357735   357758   357793   357824   357822 
  357805   357810   357822   357810   357785   357782   357797   357799 
  357782   357782   357790   357754   357735   357747   357725   357705 
  357705   357689   357654   357619   357604   357609   357596   357570 
  357565   357565   357566   357577   357569   357547   357554   357573 
  357569   357542   357532   357543   357551   357582   357621   357631 
  357642   357650   357621   357597   357612   357631   357650   357694 
  357702   357686   357705   357693   357664   357674   357667   357643 
  357623   357612   357639   357678   357669   357623   357631   357682 
  357679   357637   357625   357642   357671   357705   357704   357671 
  357664   357702   357731   357710   357694   357701   357685   357682 
  357710   357720   357713   357702   357696   357685   357643   357616 
  357643   357689   357706   357690   357705   357748   357727   357689 
  357732   357777   357762   357745   357728   357727   357763   357778 
  357805   357860   357852   357839   357855   357831   357836   357890 
  357897   357891   357918   357914   357880   357889   357912   357876 
  357825   357809   357805   357801   357795   357778   357768   357759 
  357725   357678   357650   357655   357652   357610   357578   357592 
  357617   357620   357613   357594   357548   357515   357521   357531 
  357558   357592   357569   357532   357538   357527   357508   357516 
  357521   357513   357492   357461   357458   357502   357523   357493 
  357498   357517   357493   357477   357478   357478   357473   357444 
  357427   357431   357401   357367   357373   357363   357372   357393 
  357361   357351   357377   357370   357349   357300   357258   357262 
  357242   357242   357323   357349   357296   357281   357276   357258 
  357273   357282   357301   357339   357339   357362   357394   357381 
  357428   357508   357517   357539   357573   357559   357577   357625 
  357652   357681   357698   357700   357717   357717   357693   357705 
  357737   357750   357767   357785   357777   357754   357727   357736 
  357786   357810   357793   357794   357825   357868   357901   357901 
  357920   357961   357972   357974   357980   357993   358014   357990 
  357961   357988   358002   358002   358014   358009   358010   358017 
  358034   358076   358090   358075   358057   358017   358010   358038 
  358025   357991   357993   357988   357951   357941   357959   357921 
  357863   357866   357864   357824   357799   357777   357762   357774 
  357770   357744   357729   357728   357721   357709   357714   357696 
  357673   357697   357681   357647   357681   357656   357573   357582 
  357627   357605   357596   357596   357556   357529   357519   357500 
  357486   357480   357467   357436   357417   357448   357467   357447 
  357438   357426   357400   357382   357377   357380   357370   357363 
  357373   357378   357390   357388   357351   357336   357327   357296 
  357292   357307   357328   357366   357377   357358   357369   357386 
  357365   357343   357363   357376   357345   357326   357359   357382 
  357378   357394   357404   357400   357393   357381   357409   357446 
  357434   357428   357443   357448   357446   357434   357416   357409 
  357424   357447   357432   357401   357431   357475   357465   357430 
  357419   357442   357455   357448   357455   357459   357463   357486 
  357504   357512   357535   357579   357642   357674   357651   357666 
  357744   357783   357786   357809   357831   357849   357858   357878 
  357959   358025   358018   358025   358059   358069   358080   358103 
  358115   358153   358218   358218   358172   358149   358142   358169 
  358177   358134   358126   358140   358123   358098   358074   358072 
  358078   358055   358033   358029   358022   358025   358026   357997 
  357982   357966   357918   357905   357898   357856   357840   357843 
  357825   357795   357782   357774   357729   357669   357650   357683 
  357689   357628   357625   357674   357664   357648   357664   357662 
  357644   357660   357690   357678   357690   357748   357744   357702 
  357750   357833   357832   357802   357816   357816   357795   357793 
  357801   357795   357772   357766   357787   357805   357791   357775 
  357744   357678   357658   357671   357616   357551   357539   357516 
  357494   357509   357494   357432   357396   357404   357396   357378 
  357390   357396   357367   357385   357440   357436   357412   357421 
  357413   357430   357494   357520   357515   357534   357565   357597 
  357601   357583   357594   357606   357578   357544   357544   357555 
  357550   357565   357583   357582   357601   357604   357578   357577 
  357567   357567   357605   357628   357621   357600   357586   357581 
  357561   357567   357585   357561   357538   357544   357546   357554 
  357565   357543   357542   357577   357578   357562   357598   357635 
  357615   357602   357629   357636   357636   357647   357640   357639 
  357647   357643   357644   357656   357682   357698   357678   357685 
  357727   357745   357754   357772   357764   357752   357781   357814 
  357845   357851   357845   357878   357899   357902   357929   357966 
  358003   358014   357982   357975   357980   357944   357939   357986 
  357998   357975   357970   357991   358003   357967   357922   357930 
  357947   357918   357901   357912   357909   357916   357934   357910 
  357883   357907   357925   357907   357895   357890   357843   357785 
  357783   357799   357801   357799   357771   357743   357731   357696 
  357670   357686   357693   357660   357623   357617   357640   357651 
  357647   357667   357679   357651   357658   357696   357685   357674 
  357712   357740   357772   357808   357777   357735   357771   357845 
  357889   357891   357897   357913   357905   357901   357929   357941 
  357932   357933   357944   357960   357948   357926   357945   357949 
  357928   357949   357961   357934   357934   357929   357905   357885 
  357844   357814   357816   357790   357755   357736   357705   357667 
  357632   357590   357567   357589   357609   357582   357538   357547 
  357588   357569   357536   357552   357566   357547   357512   357515 
  357563   357565   357535   357562   357589   357551   357513   357531 
  357539   357521   357527   357521   357481   357455   357453   357463 
  357470   357455   357434   357446   357473   357444   357407   357426 
  357415   357367   357388   357420   357393   357384   357399   357374 
  357353   357376   357384   357382   357420   357417   357359   357326 
  357320   357336   357351   357350   357365   357381   357381   357382 
  357386   357415   357444   357454   357470   357484   357485   357509 
  357555   357581   357574   357579   357586   357579   357628   357674 
  357637   357646   357706   357693   357685   357731   357752   357772 
  357794   357787   357804   357833   357818   357829   357871   357852 
  357829   357855   357849   357806   357781   357785   357806   357820 
  357813   357798   357790   357791   357790   357804   357808   357745 
  357693   357710   357709   357664   357655   357666   357663   357674 
  357671   357654   357683   357723   357717   357696   357687   357683 
  357669   357701   357767   357741   357679   357675   357677   357687 
  357705   357689   357693   357714   357683   357654   357663   357663 
  357654   357643   357629   357615   357578   357540   357527   357521 
  357525   357523   357486   357481   357493   357488   357504   357509 
  357509   357525   357482   357427   357424   357424   357444   357488 
  357486   357470   357494   357524   357551   357582   357598   357601 
  357606   357621   357633   357658   357694   357709   357729   357764 
  357763   357758   357772   357748   357745   357805   357836   357831 
  357839   357844   357825   357813   357829   357810   357775   357802 
  357818   357778   357764   357763   357759   357759   357754   357754 
  357729   357704   357702   357669   357643   357639   357612   357621 
  357646   357631   357628   357644   357648   357647   357650   357658 
  357656   357636   357646   357683   357696   357701   357708   357704 
  357683   357639   357604   357601   357615   357648   357679   357683 
  357704   357721   357686   357671   357702   357713   357714   357723 
  357701   357664   357677   357717   357704   357673   357687   357696 
  357664   357671   357712   357709   357700   357721   357714   357696 
  357697   357706   357712   357705   357713   357745   357763   357775 
  357790   357804   357810   357786   357767   357794   357822   357813 
  357790   357789   357797   357787   357797   357826   357835   357851 
  357859   357862   357902   357886   357813   357831   357880   357870 
  357874   357916   357944   357960   357948   357913   357920   357941 
  357921   357886   357887   357903   357880   357858   357867   357866 
  357864   357870   357837   357801   357813   357825   357806   357818 
  357848   357845   357828   357797   357794   357832   357824   357766 
  357741   357762   357774   357741   357702   357690   357655   357605 
  357594   357592   357579   357570   357543   357527   357508   357463 
  357461   357475   357428   357372   357357   357342   357334   357334 
  357285   357249   357281   357301   357278   357254   357243   357246 
  357247   357231   357220   357223   357230   357247   357250   357234 
  357249   357272   357270   357282   357320   357362   357409   357436 
