Origin Time       2025/01/13 21:19:00
Lat.              31.8
Long.             131.6
Depth. (km)       30
Mag.              6.9
Station Code      SMNH06
Station Lat.      34.8839
Station Long.     132.2026
Station Height(m) 59
Record Time       2025/01/13 21:20:35
Sampling Freq(Hz) 100Hz
Duration Time(s)  157
Dir.              2
Scale Factor      3923(gal)/8224838
Max. Acc. (gal)   1.003
Last Correction   2025/01/13 21:20:35
Memo.             
[...]
  -38911   -38917   -38929   -38946   -38959   -38973   -38985   -38989 
  -38985   -38979   -38969   -38948   -38915   -38880   -38867   -38877 
  -38885   -38889   -38893   -38892   -38890   -38886   -38877   -38859 
  -38835   -38807   -38776   -38750   -38734   -38722   -38712   -38707 
  -38695   -38688   -38696   -38709   -38720   -38727   -38732   -38745 
  -38747   -38736   -38731   -38724   -38707   -38695   -38692   -38689 
  -38691   -38697   -38703   -38709   -38720   -38728   -38726   -38716 
  -38705   -38693   -38686   -38685   -38686   -38695   -38704   -38711 
  -38718   -38728   -38739   -38738   -38731   -38723   -38715   -38716 
  -38723   -38723   -38720   -38720   -38730   -38742   -38745   -38735 
  -38720   -38713   -38723   -38743   -38761   -38767   -38757   -38732 
  -38704   -38677   -38655   -38637   -38618   -38603   -38589   -38572 
  -38546   -38523   -38512   -38503   -38487   -38470   -38464   -38456 
  -38442   -38434   -38435   -38439   -38448   -38464   -38495   -38537 
  -38572   -38597   -38626   -38657   -38680   -38695   -38703   -38700 
  -38689   -38677   -38669   -38668   -38666   -38657   -38641   -38627 
  -38611   -38587   -38569   -38564   -38568   -38581   -38605   -38632 
  -38651   -38658   -38657   -38654   -38654   -38655   -38651   -38649 
  -38657   -38676   -38705   -38740   -38772   -38794   -38811   -38824 
  -38826   -38817   -38807   -38793   -38777   -38762   -38751   -38746 
  -38745   -38747   -38751   -38757   -38758   -38746   -38728   -38718 
  -38711   -38699   -38686   -38682   -38688   -38705   -38723   -38740 
  -38759   -38778   -38785   -38782   -38780   -38788   -38811   -38838 
  -38863   -38884   -38893   -38902   -38911   -38913   -38909   -38909 
  -38915   -38908   -38877   -38840   -38816   -38792   -38759   -38735 
  -38734   -38745   -38747   -38740   -38732   -38736   -38738   -38727 
  -38715   -38713   -38713   -38708   -38700   -38692   -38684   -38676 
  -38661   -38631   -38585   -38538   -38499   -38466   -38439   -38423 
  -38411   -38399   -38388   -38385   -38392   -38408   -38423   -38441 
  -38457   -38465   -38472   -38477   -38484   -38496   -38507   -38515 
  -38518   -38524   -38541   -38560   -38583   -38616   -38654   -38695 
  -38732   -38759   -38782   -38808   -38827   -38839   -38848   -38857 
  -38863   -38869   -38874   -38880   -38878   -38880   -38896   -38924 
  -38956   -38981   -38986   -38979   -38963   -38942   -38920   -38905 
  -38897   -38893   -38897   -38907   -38917   -38931   -38948   -38965 
  -38982   -38998   -39005   -39000   -38981   -38956   -38939   -38932 
  -38939   -38943   -38938   -38934   -38934   -38928   -38919   -38912 
  -38909   -38897   -38871   -38851   -38844   -38840   -38830   -38816 
  -38805   -38803   -38809   -38819   -38831   -38848   -38866   -38888 
  -38915   -38942   -38962   -38975   -38983   -38979   -38956   -38927 
  -38894   -38859   -38830   -38812   -38808   -38813   -38823   -38832 
  -38840   -38846   -38843   -38835   -38830   -38819   -38794   -38765 
  -38738   -38715   -38697   -38688   -38685   -38688   -38700   -38708 
  -38719   -38732   -38732   -38718   -38699   -38676   -38654   -38637 
  -38620   -38614   -38615   -38615   -38624   -38641   -38651   -38658 
  -38664   -38659   -38654   -38653   -38655   -38664   -38673   -38676 
  -38664   -38635   -38610   -38593   -38581   -38578   -38570   -38549 
  -38524   -38506   -38489   -38476   -38466   -38456   -38442   -38430 
  -38423   -38419   -38406   -38377   -38349   -38331   -38326   -38322 
  -38310   -38299   -38299   -38303   -38308   -38317   -38318   -38314 
  -38323   -38345   -38356   -38354   -38358   -38364   -38357   -38341 
  -38335   -38346   -38369   -38385   -38389   -38392   -38392   -38385 
  -38380   -38389   -38412   -38437   -38462   -38496   -38530   -38551 
  -38560   -38558   -38561   -38568   -38572   -38584   -38614   -38655 
  -38696   -38723   -38743   -38769   -38792   -38808   -38827   -38848 
  -38867   -38889   -38917   -38950   -38981   -39006   -39036   -39067 
  -39081   -39089   -39108   -39135   -39156   -39174   -39191   -39206 
  -39210   -39195   -39174   -39158   -39145   -39135   -39131   -39137 
  -39152   -39170   -39182   -39187   -39197   -39206   -39209   -39208 
  -39204   -39193   -39179   -39172   -39170   -39166   -39158   -39155 
  -39151   -39143   -39133   -39129   -39128   -39113   -39086   -39063 
  -39043   -39019   -39000   -38988   -38978   -38967   -38961   -38955 
  -38951   -38952   -38955   -38961   -38967   -38965   -38954   -38943 
  -38936   -38925   -38908   -38892   -38881   -38877   -38881   -38889 
  -38894   -38904   -38923   -38948   -38979   -39009   -39029   -39039 
  -39033   -39010   -38977   -38944   -38917   -38894   -38863   -38828 
  -38799   -38774   -38746   -38707   -38666   -38637   -38615   -38597 
  -38589   -38584   -38561   -38520   -38479   -38445   -38410   -38364 
  -38317   -38279   -38245   -38210   -38176   -38152   -38146   -38152 
  -38153   -38142   -38122   -38092   -38063   -38043   -38034   -38033 
  -38034   -38041   -38056   -38075   -38084   -38088   -38098   -38109 
  -38110   -38111   -38114   -38121   -38140   -38157   -38172   -38195 
  -38214   -38230   -38252   -38279   -38299   -38325   -38368   -38422 
  -38476   -38516   -38533   -38529   -38518   -38510   -38514   -38526 
  -38543   -38565   -38593   -38627   -38659   -38692   -38724   -38753 
  -38769   -38777   -38782   -38788   -38792   -38790   -38780   -38770 
  -38770   -38781   -38790   -38792   -38800   -38819   -38847   -38875 
  -38889   -38896   -38898   -38897   -38888   -38865   -38835   -38815 
  -38807   -38813   -38843   -38892   -38950   -39010   -39064   -39102 
  -39131   -39160   -39191   -39213   -39216   -39199   -39185   -39175 
  -39160   -39148   -39147   -39148   -39143   -39123   -39087   -39050 
  -39025   -39010   -39004   -38998   -38990   -38979   -38971   -38965 
  -38955   -38951   -38950   -38946   -38934   -38927   -38934   -38951 
  -38955   -38947   -38939   -38935   -38931   -38919   -38902   -38888 
  -38873   -38851   -38831   -38817   -38811   -38815   -38820   -38813 
  -38803   -38794   -38789   -38788   -38792   -38800   -38812   -38820 
  -38831   -38861   -38909   -38956   -39005   -39063   -39124   -39166 
  -39175   -39174   -39181   -39189   -39183   -39170   -39154   -39133 
  -39109   -39086   -39074   -39073   -39071   -39060   -39032   -39002 
  -38978   -38958   -38940   -38931   -38927   -38925   -38920   -38905 
  -38882   -38862   -38840   -38811   -38781   -38763   -38765   -38777 
  -38786   -38790   -38790   -38794   -38807   -38824   -38844   -38862 
  -38865   -38848   -38827   -38815   -38807   -38792   -38777   -38767 
  -38754   -38726   -38699   -38695   -38709   -38723   -38731   -38751 
  -38788   -38828   -38863   -38884   -38893   -38908   -38920   -38915 
  -38900   -38890   -38885   -38884   -38880   -38865   -38848   -38846 
  -38846   -38842   -38838   -38830   -38813   -38796   -38785   -38788 
  -38790   -38789   -38794   -38801   -38801   -38792   -38773   -38749 
  -38723   -38691   -38647   -38603   -38569   -38551   -38542   -38534 
  -38527   -38534   -38542   -38531   -38508   -38491   -38475   -38454 
  -38433   -38416   -38404   -38388   -38365   -38345   -38334   -38329 
  -38318   -38304   -38292   -38279   -38257   -38238   -38223   -38213 
  -38200   -38187   -38172   -38157   -38134   -38110   -38091   -38082 
  -38070   -38051   -38030   -38010   -37987   -37963   -37939   -37920 
  -37905   -37889   -37874   -37867   -37867   -37876   -37901   -37920 
  -37916   -37901   -37890   -37882   -37872   -37858   -37851   -37855 
  -37863   -37870   -37893   -37933   -37971   -38006   -38045   -38082 
  -38109   -38136   -38169   -38209   -38245   -38277   -38321   -38371 
  -38423   -38483   -38545   -38610   -38670   -38713   -38751   -38796 
  -38843   -38889   -38935   -38983   -39035   -39086   -39131   -39168 
  -39205   -39233   -39256   -39283   -39325   -39376   -39422   -39464 
  -39505   -39537   -39568   -39592   -39603   -39602   -39590   -39573 
  -39563   -39555   -39548   -39541   -39530   -39506   -39476   -39448 
  -39420   -39386   -39348   -39320   -39299   -39267   -39210   -39151 
  -39100   -39051   -38996   -38935   -38880   -38828   -38778   -38739 
  -38709   -38691   -38665   -38614   -38549   -38493   -38441   -38379 
  -38311   -38248   -38198   -38159   -38126   -38102   -38078   -38044 
  -38006   -37975   -37936   -37889   -37845   -37806   -37770   -37744 
  -37731   -37732   -37744   -37755   -37760   -37777   -37813   -37851 
  -37883   -37913   -37939   -37951   -37952   -37949   -37957   -37978 
  -37997   -38025   -38070   -38121   -38164   -38196   -38226   -38261 
  -38300   -38329   -38352   -38384   -38422   -38453   -38473   -38500 
  -38535   -38565   -38585   -38605   -38632   -38666   -38700   -38718 
  -38731   -38754   -38788   -38830   -38870   -38896   -38913   -38929 
  -38948   -38962   -38975   -38992   -39002   -39002   -38997   -38989 
  -38983   -38981   -38974   -38973   -38981   -38992   -39001   -39012 
  -39024   -39035   -39051   -39073   -39093   -39104   -39106   -39097 
  -39075   -39040   -38992   -38942   -38902   -38865   -38826   -38789 
  -38757   -38730   -38709   -38695   -38676   -38653   -38627   -38597 
  -38565   -38530   -38502   -38484   -38469   -38448   -38429   -38437 
  -38473   -38514   -38553   -38608   -38677   -38743   -38799   -38854 
  -38919   -38985   -39039   -39087   -39145   -39202   -39241   -39275 
  -39324   -39383   -39440   -39486   -39536   -39604   -39672   -39727 
  -39776   -39820   -39865   -39906   -39935   -39966   -39991   -39995 
  -39980   -39954   -39924   -39900   -39880   -39857   -39830   -39795 
  -39753   -39699   -39644   -39600   -39564   -39523   -39475   -39424 
  -39367   -39295   -39205   -39109   -39021   -38942   -38855   -38769 
  -38696   -38637   -38576   -38518   -38466   -38418   -38371   -38330 
  -38288   -38246   -38210   -38179   -38149   -38125   -38111   -38109 
  -38117   -38128   -38138   -38161   -38199   -38248   -38310   -38385 
  -38465   -38537   -38603   -38670   -38734   -38782   -38824   -38865 
  -38908   -38951   -38994   -39043   -39091   -39137   -39179   -39218 
  -39262   -39317   -39370   -39413   -39448   -39469   -39482   -39495 
  -39503   -39499   -39490   -39479   -39457   -39438   -39430   -39414 
  -39387   -39367   -39359   -39344   -39317   -39280   -39241   -39204 
  -39166   -39131   -39098   -39059   -39016   -38975   -38942   -38909 
  -38871   -38828   -38780   -38724   -38669   -38612   -38557   -38515 
  -38484   -38461   -38442   -38419   -38391   -38368   -38348   -38325 
  -38315   -38325   -38344   -38356   -38362   -38361   -38350   -38340 
  -38329   -38313   -38292   -38279   -38281   -38299   -38321   -38345 
  -38371   -38395   -38421   -38441   -38462   -38488   -38514   -38535 
  -38557   -38581   -38608   -38641   -38672   -38696   -38722   -38754 
  -38782   -38800   -38811   -38826   -38848   -38878   -38912   -38942 
  -38966   -38992   -39025   -39063   -39100   -39131   -39164   -39199 
  -39231   -39259   -39289   -39314   -39332   -39340   -39337   -39328 
  -39313   -39293   -39274   -39260   -39253   -39260   -39285   -39310 
  -39329   -39336   -39337   -39344   -39339   -39307   -39268   -39232 
  -39194   -39148   -39102   -39070   -39048   -39016   -38966   -38919 
  -38880   -38839   -38789   -38735   -38682   -38635   -38589   -38533 
  -38470   -38412   -38357   -38310   -38272   -38234   -38196   -38167 
  -38141   -38117   -38105   -38113   -38132   -38152   -38163   -38165 
  -38161   -38156   -38152   -38146   -38146   -38152   -38151   -38148 
  -38148   -38146   -38152   -38165   -38178   -38184   -38187   -38187 
  -38188   -38191   -38188   -38187   -38209   -38249   -38273   -38290 
  -38325   -38373   -38414   -38442   -38464   -38479   -38493   -38510 
  -38530   -38554   -38577   -38596   -38616   -38643   -38677   -38711 
  -38747   -38785   -38826   -38862   -38890   -38919   -38948   -38974 
  -38998   -39028   -39066   -39108   -39140   -39164   -39187   -39206 
  -39225   -39244   -39266   -39287   -39303   -39307   -39305   -39307 
  -39312   -39307   -39290   -39274   -39272   -39274   -39266   -39248 
  -39225   -39205   -39182   -39154   -39117   -39077   -39036   -38989 
  -38928   -38870   -38815   -38757   -38697   -38635   -38578   -38535 
  -38499   -38458   -38414   -38369   -38321   -38271   -38230   -38209 
  -38196   -38175   -38146   -38126   -38118   -38118   -38122   -38121 
  -38117   -38114   -38110   -38113   -38121   -38125   -38130   -38146 
  -38164   -38184   -38209   -38226   -38236   -38245   -38260   -38275 
  -38283   -38283   -38283   -38277   -38263   -38233   -38202   -38178 
  -38159   -38142   -38133   -38119   -38101   -38076   -38064   -38063 
  -38053   -38026   -37994   -37967   -37940   -37913   -37887   -37860 
  -37837   -37817   -37795   -37790   -37801   -37817   -37828   -37835 
  -37843   -37847   -37848   -37852   -37860   -37868   -37881   -37895 
  -37912   -37935   -37975   -38022   -38078   -38141   -38217   -38304 
  -38403   -38506   -38614   -38722   -38826   -38917   -39012   -39121 
  -39243   -39363   -39487   -39614   -39737   -39847   -39953   -40055 
  -40162   -40267   -40360   -40436   -40500   -40555   -40602   -40648 
  -40686   -40709   -40729   -40759   -40783   -40799   -40807   -40814 
  -40819   -40826   -40834   -40840   -40837   -40819   -40792   -40768 
  -40748   -40725   -40695   -40668   -40649   -40632   -40610   -40589 
  -40562   -40522   -40478   -40432   -40385   -40335   -40284   -40230 
  -40169   -40090   -39995   -39893   -39796   -39702   -39602   -39492 
  -39386   -39289   -39197   -39098   -39001   -38907   -38815   -38728 
  -38650   -38584   -38534   -38495   -38457   -38429   -38412   -38395 
  -38371   -38353   -38348   -38346   -38342   -38335   -38325   -38311 
  -38299   -38292   -38295   -38302   -38303   -38306   -38318   -38333 
  -38345   -38358   -38375   -38394   -38411   -38425   -38441   -38457 
  -38466   -38466   -38461   -38454   -38454   -38460   -38466   -38479 
  -38495   -38510   -38524   -38539   -38553   -38562   -38566   -38564 
  -38557   -38545   -38526   -38496   -38461   -38427   -38395   -38362 
  -38327   -38295   -38268   -38240   -38215   -38200   -38191   -38179 
  -38153   -38119   -38082   -38030   -37975   -37926   -37885   -37844 
  -37805   -37768   -37739   -37708   -37677   -37652   -37642   -37636 
  -37629   -37616   -37601   -37589   -37581   -37569   -37552   -37540 
  -37534   -37531   -37535   -37547   -37569   -37601   -37639   -37678 
  -37713   -37748   -37794   -37845   -37893   -37943   -37999   -38063 
  -38130   -38198   -38267   -38341   -38415   -38484   -38543   -38599 
  -38658   -38720   -38785   -38853   -38920   -38977   -39028   -39074 
  -39114   -39148   -39178   -39212   -39251   -39289   -39321   -39349 
  -39374   -39398   -39426   -39460   -39502   -39546   -39587   -39625 
  -39663   -39698   -39730   -39758   -39783   -39806   -39825   -39839 
  -39853   -39865   -39877   -39891   -39904   -39918   -39938   -39966 
  -40003   -40043   -40084   -40124   -40162   -40193   -40215   -40240 
  -40275   -40305   -40323   -40329   -40332   -40327   -40309   -40278 
  -40243   -40209   -40173   -40131   -40089   -40049   -40007   -39960 
  -39900   -39839   -39775   -39696   -39611   -39532   -39449   -39357 
  -39253   -39141   -39029   -38919   -38811   -38713   -38623   -38534 
  -38441   -38349   -38257   -38168   -38078   -37987   -37890   -37789 
  -37687   -37586   -37481   -37377   -37277   -37188   -37120   -37069 
  -37022   -36981   -36949   -36922   -36899   -36883   -36876   -36877 
  -36883   -36894   -36909   -36925   -36945   -36975   -37010   -37045 
  -37081   -37120   -37165   -37212   -37260   -37305   -37359   -37417 
  -37473   -37527   -37584   -37635   -37682   -37728   -37778   -37824 
  -37866   -37916   -37974   -38024   -38067   -38115   -38168   -38226 
  -38279   -38321   -38365   -38415   -38460   -38496   -38531   -38564 
  -38593   -38616   -38632   -38646   -38659   -38674   -38699   -38727 
  -38749   -38774   -38808   -38840   -38870   -38904   -38943   -38985 
  -39029   -39074   -39112   -39145   -39177   -39194   -39204   -39217 
  -39229   -39235   -39241   -39255   -39267   -39270   -39266   -39263 
  -39258   -39245   -39228   -39210   -39187   -39167   -39151   -39133 
  -39113   -39093   -39077   -39067   -39055   -39039   -39021   -39001 
  -38978   -38951   -38921   -38894   -38869   -38835   -38801   -38769 
  -38731   -38693   -38662   -38635   -38600   -38558   -38518   -38475 
  -38430   -38385   -38340   -38295   -38246   -38192   -38142   -38098 
  -38045   -37983   -37929   -37894   -37868   -37845   -37831   -37831 
  -37841   -37849   -37856   -37866   -37879   -37893   -37909   -37936 
  -37970   -37999   -38024   -38045   -38065   -38080   -38084   -38084 
  -38091   -38105   -38118   -38132   -38141   -38146   -38151   -38156 
  -38169   -38191   -38215   -38240   -38265   -38295   -38335   -38384 
  -38435   -38484   -38535   -38595   -38658   -38712   -38763   -38827 
  -38898   -38969   -39033   -39094   -39156   -39222   -39283   -39339 
  -39394   -39453   -39509   -39553   -39595   -39640   -39685   -39725 
  -39752   -39777   -39819   -39866   -39911   -39953   -39996   -40041 
  -40081   -40120   -40158   -40196   -40238   -40278   -40320   -40365 
  -40402   -40428   -40451   -40474   -40490   -40502   -40505   -40493 
  -40477   -40459   -40432   -40393   -40354   -40316   -40285   -40254 
  -40217   -40178   -40138   -40090   -40045   -40007   -39972   -39933 
  -39891   -39850   -39815   -39783   -39752   -39723   -39698   -39673 
  -39650   -39636   -39619   -39595   -39560   -39521   -39479   -39434 
  -39390   -39345   -39301   -39259   -39220   -39185   -39150   -39102 
  -39048   -39000   -38951   -38900   -38855   -38815   -38773   -38720 
  -38657   -38595   -38538   -38480   -38419   -38360   -38304   -38253 
  -38200   -38145   -38092   -38038   -37982   -37926   -37864   -37798 
  -37729   -37658   -37589   -37524   -37463   -37409   -37368   -37342 
  -37331   -37326   -37326   -37330   -37331   -37330   -37324   -37314 
  -37304   -37299   -37291   -37276   -37258   -37239   -37220   -37199 
  -37177   -37160   -37143   -37126   -37114   -37107   -37104   -37099 
  -37091   -37080   -37079   -37077   -37073   -37071   -37071   -37071 
  -37075   -37087   -37103   -37125   -37161   -37207   -37255   -37309 
  -37368   -37426   -37481   -37534   -37590   -37642   -37685   -37723 
  -37760   -37801   -37841   -37874   -37906   -37945   -37982   -38014 
  -38051   -38088   -38128   -38168   -38213   -38259   -38306   -38352 
  -38395   -38438   -38477   -38512   -38547   -38583   -38619   -38661 
  -38703   -38746   -38796   -38851   -38911   -38970   -39023   -39074 
  -39124   -39170   -39213   -39255   -39294   -39336   -39372   -39399 
  -39425   -39453   -39474   -39490   -39503   -39510   -39514   -39515 
  -39511   -39509   -39506   -39506   -39510   -39515   -39528   -39545 
  -39561   -39577   -39598   -39617   -39636   -39658   -39675   -39691 
  -39710   -39731   -39758   -39788   -39820   -39861   -39906   -39941 
