Origin Time       2025/01/13 21:19:00
Lat.              31.8
Long.             131.6
Depth. (km)       30
Mag.              6.9
Station Code      SMNH06
Station Lat.      34.8839
Station Long.     132.2026
Station Height(m) 59
Record Time       2025/01/13 21:20:35
Sampling Freq(Hz) 100Hz
Duration Time(s)  157
Dir.              1
Scale Factor      3923(gal)/8224838
Max. Acc. (gal)   0.948
Last Correction   2025/01/13 21:20:35
Memo.             
[...]
    -463     -450     -438     -423     -413     -410     -410     -403 
    -391     -384     -378     -361     -344     -329     -315     -303 
    -294     -288     -294     -298     -306     -319     -328     -324 
    -306     -276     -244     -214     -183     -157     -143     -129 
    -114     -106     -103     -108     -122     -139     -152     -163 
    -174     -180     -176     -170     -171     -179     -183     -182 
    -182     -180     -176     -172     -166     -155     -144     -133 
    -129     -128     -128     -132     -136     -141     -149     -157 
    -159     -155     -152     -147     -137     -121     -109     -103 
    -103     -101      -95      -93      -93      -86      -78      -75 
     -78      -83      -91     -108     -129     -143     -140     -135 
    -141     -152     -156     -157     -172     -195     -218     -238 
    -251     -261     -276     -298     -330     -368     -399     -422 
    -444     -467     -487     -504     -530     -567     -607     -646 
    -683     -726     -777     -831     -885     -934     -973     -999 
   -1008    -1009    -1001     -986     -974     -963     -946     -920 
    -896     -884     -880     -876     -872     -862     -853     -849 
    -849     -851     -857     -864     -864     -855     -842     -820 
    -797     -772     -747     -735     -734     -735     -735     -735 
    -737     -743     -749     -750     -753     -756     -750     -727 
    -702     -675     -637     -588     -540     -504     -483     -467 
    -454     -448     -441     -436     -427     -413     -392     -376 
    -367     -353     -338     -322     -307     -291     -276     -268 
    -270     -267     -259     -253     -251     -248     -247     -249 
    -255     -267     -275     -274     -265     -252     -236     -222 
    -217     -216     -222     -234     -245     -251     -256     -259 
    -257     -251     -244     -245     -252     -260     -260     -251 
    -241     -226     -206     -194     -193     -199     -210     -218 
    -225     -236     -247     -251     -252     -256     -272     -294 
    -313     -334     -359     -384     -400     -409     -417     -423 
    -432     -449     -473     -500     -525     -545     -557     -564 
    -573     -577     -573     -576     -591     -615     -638     -649 
    -657     -669     -681     -683     -672     -660     -652     -639 
    -614     -581     -554     -527     -487     -444     -410     -382 
    -356     -336     -324     -313     -298     -272     -241     -210 
    -183     -164     -143     -112      -75      -33       10       51 
      83      108      130      155      170      172      164      144 
     120       94       66       40       21       10        2      -12 
     -16      -13      -14      -21      -27      -33      -41      -63 
    -101     -137     -166     -193     -218     -236     -248     -248 
    -236     -220     -202     -176     -148     -122      -98      -75 
     -59      -45      -36      -31      -22       -8        2        5 
       1       -4       -6      -14      -22      -27      -28      -31 
     -36      -43      -45      -45      -58      -86     -112     -130 
    -145     -162     -183     -207     -233     -260     -288     -315 
    -342     -372     -403     -427     -448     -473     -503     -529 
    -546     -564     -580     -589     -594     -591     -587     -581 
    -573     -567     -560     -554     -549     -550     -553     -553 
    -548     -544     -550     -565     -577     -594     -618     -641 
    -658     -684     -722     -768     -810     -841     -862     -873 
    -866     -850     -841     -841     -842     -842     -846     -861 
    -877     -885     -886     -884     -881     -880     -881     -888 
    -897     -892     -868     -837     -815     -808     -812     -824 
    -834     -841     -846     -851     -857     -866     -874     -876 
    -873     -868     -859     -847     -837     -830     -819     -799 
    -766     -742     -723     -703     -680     -657     -633     -606 
    -572     -540     -508     -480     -450     -417     -373     -322 
    -271     -225     -186     -151     -120      -99      -93      -90 
     -90      -83      -60      -37      -17        8       29       48 
      71       93      122      159      186      209      228      225 
     197      155      108       66       29       -8      -40      -67 
     -91     -122     -155     -187     -218     -244     -256     -255 
    -248     -240     -234     -232     -226     -220     -214     -198 
    -179     -172     -183     -207     -236     -261     -278     -294 
    -314     -332     -346     -359     -373     -394     -410     -418 
    -432     -450     -467     -479     -486     -494     -513     -540 
    -562     -583     -607     -638     -676     -715     -756     -796 
    -834     -874     -918     -962    -1004    -1038    -1067    -1108 
   -1156    -1204    -1254    -1309    -1358    -1398    -1431    -1459 
   -1487    -1517    -1543    -1555    -1559    -1564    -1566    -1559 
   -1551    -1540    -1529    -1521    -1516    -1510    -1513    -1528 
   -1540    -1536    -1524    -1505    -1482    -1463    -1441    -1422 
   -1409    -1395    -1383    -1378    -1371    -1366    -1356    -1339 
   -1309    -1263    -1204    -1143    -1077    -1000     -923     -850 
    -778     -708     -641     -573     -504     -433     -364     -287 
    -210     -145      -86      -27       22       68      112      149 
     179      203      221      228      222      214      211      211 
     214      214      205      195      190      182      170      152 
     132      108       79       45        9      -29      -68     -102 
    -124     -139     -147     -145     -141     -144     -151     -148 
    -135     -122     -121     -126     -125     -117     -105      -94 
     -75      -45      -12       24       64      114      175      244 
     318      390      463      540      611      677      746      820 
     897      959     1008     1057     1105     1140     1165     1186 
    1206     1220     1223     1217     1201     1179     1151     1115 
    1074     1027      970      909      846      784      724      662 
     595      533      468      398      328      255      171       79 
     -14     -114     -222     -336     -452     -568     -680     -788 
    -889     -981    -1075    -1170    -1254    -1321    -1383    -1444 
   -1498    -1541    -1575    -1599    -1614    -1618    -1614    -1610 
   -1603    -1586    -1557    -1522    -1485    -1443    -1397    -1340 
   -1279    -1221    -1169    -1121    -1080    -1040     -997     -950 
    -896     -847     -810     -776     -742     -700     -654     -611 
    -571     -525     -477     -434     -392     -355     -328     -307 
    -295     -286     -274     -260     -249     -240     -225     -202 
    -186     -178     -166     -145     -120      -98      -86      -85 
     -87      -93     -101     -112     -125     -136     -148     -160 
    -171     -179     -182     -187     -198     -206     -211     -217 
    -228     -245     -264     -275     -283     -299     -315     -324 
    -326     -324     -317     -313     -314     -318     -325     -328 
    -330     -340     -353     -373     -403     -432     -456     -475 
    -484     -492     -498     -500     -503     -507     -511     -519 
    -531     -545     -561     -581     -606     -635     -664     -688 
    -711     -724     -734     -743     -753     -761     -766     -765 
    -758     -746     -729     -704     -669     -635     -607     -580 
    -562     -558     -565     -572     -576     -583     -594     -606 
    -616     -626     -634     -639     -639     -630     -615     -607 
    -603     -598     -596     -602     -611     -619     -622     -616 
    -607     -599     -591     -579     -564     -541     -514     -483 
    -444     -402     -359     -317     -282     -256     -230     -203 
    -176     -145     -108      -74      -49      -29        0       33 
      70      108      149      193      233      268      309      351 
     390      421      446      476      511      548      580      604 
     626      649      675      700      722      746      765      781 
     801      819      827      827      819      803      780      747 
     715      684      645      599      545      488      430      367 
     305      252      206      170      136      102       67       36 
       9      -25      -64     -102     -139     -171     -195     -217 
    -237     -260     -291     -330     -371     -419     -477     -538 
    -607     -684     -764     -847     -931    -1009    -1088    -1167 
   -1244    -1321    -1401    -1487    -1583    -1682    -1773    -1864 
   -1949    -2026    -2089    -2142    -2189    -2228    -2259    -2281 
   -2289    -2282    -2269    -2258    -2247    -2238    -2232    -2235 
   -2242    -2247    -2246    -2238    -2228    -2219    -2208    -2197 
   -2192    -2188    -2180    -2173    -2161    -2141    -2116    -2091 
   -2062    -2037    -2012    -1984    -1950    -1911    -1869    -1819 
   -1759    -1692    -1628    -1559    -1493    -1431    -1372    -1320 
   -1266    -1205    -1148    -1096    -1036     -974     -913     -850 
    -784     -711     -633     -554     -475     -399     -334     -271 
    -213     -166     -130     -106      -83      -60      -36      -10 
      16       47       85      124      170      230      298      361 
     419      483      549      602      643      687      727      758 
     787      814      839      862      882      907      936      955 
     966      978      986      989      993      992      988      986 
     981      972      957      938      918      891      851      805 
     761      719      669      616      573      531      486      440 
     394      342      282      210      133       60       -6      -76 
    -152     -234     -324     -415     -504     -594     -683     -765 
    -838     -903     -958    -1004    -1046    -1085    -1121    -1155 
   -1186    -1213    -1233    -1247    -1252    -1250    -1239    -1217 
   -1186    -1151    -1109    -1059    -1009     -957     -903     -853 
    -808     -762     -714     -660     -607     -560     -513     -464 
    -418     -368     -311     -257     -201     -144      -93      -40 
       8       56      108      159      210      259      294      321 
     346      364      379      398      411      419      429      438 
     452      468      477      487      502      519      534      544 
     554      568      577      587      592      592      594      591 
     581      572      561      549      530      507      483      453 
     414      368      321      276      233      183      129       76 
      21      -41     -112     -179     -243     -299     -353     -411 
    -477     -538     -596     -653     -712     -769     -824     -881 
    -942    -1004    -1061    -1115    -1171    -1224    -1267    -1305 
   -1339    -1364    -1383    -1389    -1378    -1364    -1352    -1336 
   -1312    -1285    -1258    -1233    -1208    -1183    -1156    -1128 
   -1101    -1082    -1059    -1031    -1003     -967     -926     -885 
    -851     -822     -796     -772     -760     -758     -754     -751 
    -758     -776     -801     -826     -850     -886     -924     -955 
    -984    -1008    -1036    -1065    -1085    -1109    -1140    -1173 
   -1201    -1221    -1244    -1273    -1297    -1318    -1337    -1362 
   -1391    -1417    -1437    -1463    -1497    -1521    -1539    -1559 
   -1575    -1587    -1593    -1586    -1568    -1545    -1522    -1497 
   -1464    -1422    -1379    -1341    -1304    -1260    -1219    -1178 
   -1136    -1090    -1038     -982     -924     -859     -781     -693 
    -598     -496     -396     -298     -206     -117      -28       55 
     129      195      257      317      368      407      444      479 
     503      527      554      576      594      612      627      638 
     646      648      646      634      612      588      558      522 
     490      460      429      399      372      346      325      309 
     297      279      263      248      232      220      214      213 
     213      209      206      211      216      217      221      228 
     229      225      214      198      182      170      152      129 
     109       91       82       70       54       45       40       28 
      14        1      -14      -39      -71     -105     -144     -190 
    -237     -283     -324     -357     -392     -430     -465     -502 
    -542     -576     -602     -623     -641     -656     -666     -669 
    -665     -653     -638     -623     -610     -600     -595     -589 
    -588     -584     -579     -580     -583     -576     -567     -557 
    -541     -514     -477     -437     -400     -363     -322     -279 
    -236     -198     -160     -121      -83      -47      -12       20 
      52       87      120      141      160      182      199      206 
     205      199      189      172      153      137      124      110 
      94       72       47       17      -17      -58      -98     -128 
    -149     -172     -194     -209     -221     -237     -260     -290 
    -325     -369     -419     -472     -529     -589     -657     -731 
    -807     -885     -970    -1059    -1147    -1233    -1321    -1410 
   -1494    -1572    -1649    -1728    -1810    -1899    -1983    -2064 
   -2146    -2219    -2278    -2328    -2365    -2389    -2403    -2409 
   -2405    -2394    -2374    -2346    -2308    -2262    -2216    -2170 
   -2122    -2077    -2031    -1983    -1934    -1875    -1807    -1745 
   -1686    -1626    -1564    -1501    -1440    -1374    -1301    -1228 
   -1165    -1102    -1038     -982     -934     -888     -841     -791 
    -749     -707     -657     -603     -546     -483     -409     -329 
    -251     -174      -98      -27       37      101      163      220 
     268      314      355      390      422      448      464      477 
     481      476      471      461      449      434      421      406 
     387      365      349      333      317      302      288      276 
     261      249      237      224      210      202      194      180 
     167      157      148      136      124      118      118      116 
     118      133      153      174      194      218      245      271 
     295      315      334      355      371      378      382      382 
     380      379      376      375      375      375      375      372 
     369      369      364      360      363      365      369      372 
     375      383      391      395      399      399      395      386 
     368      345      319      288      252      213      174      133 
      98       67       40       21        8       -2       -5       -2 
       5       22       44       66       93      121      149      176 
     202      234      274      310      337      361      383      402 
     414      415      413      407      392      363      322      276 
     217      144       71        0      -78     -155     -226     -299 
    -372     -444     -517     -588     -657     -727     -799     -872 
    -942    -1012    -1082    -1148    -1213    -1277    -1336    -1393 
   -1456    -1524    -1587    -1649    -1713    -1776    -1836    -1895 
   -1953    -2010    -2069    -2119    -2157    -2192    -2228    -2259 
   -2286    -2313    -2340    -2363    -2380    -2390    -2394    -2393 
   -2388    -2380    -2370    -2357    -2334    -2303    -2270    -2234 
   -2195    -2157    -2118    -2081    -2049    -2016    -1983    -1945 
   -1906    -1867    -1829    -1792    -1760    -1728    -1695    -1660 
   -1618    -1570    -1518    -1460    -1394    -1325    -1256    -1188 
   -1113    -1035     -950     -857     -761     -660     -562     -468 
    -369     -265     -163      -64       31      120      205      287 
     363      436      507      575      638      696      746      791 
     837      878      915      945      970      994     1013     1026 
    1036     1053     1066     1074     1081     1092     1100     1104 
    1101     1090     1080     1066     1044     1017      988      951 
     912      866      816      769      722      675      622      565 
     510      457      400      341      278      211      144       67 
     -14     -103     -193     -284     -384     -490     -589     -692 
    -796     -899     -996    -1086    -1173    -1258    -1341    -1417 
   -1483    -1548    -1613    -1672    -1726    -1772    -1809    -1837 
   -1861    -1877    -1879    -1872    -1867    -1853    -1834    -1818 
   -1794    -1765    -1737    -1705    -1664    -1624    -1586    -1545 
   -1502    -1460    -1418    -1379    -1339    -1291    -1239    -1188 
   -1134    -1074    -1016     -958     -896     -827     -751     -679 
    -599     -515     -437     -361     -290     -225     -166     -116 
     -70      -29        2       27       47       66       78       81 
      79       76       71       66       55       40       28       13 
      -8      -28      -52      -82     -109     -130     -152     -172 
    -193     -214     -233     -251     -270     -288     -297     -297 
    -295     -290     -279     -268     -259     -244     -229     -214 
    -201     -186     -170     -160     -153     -144     -137     -130 
    -121     -113     -108     -103      -97      -90      -85      -81 
     -68      -56      -44      -29      -17       -6       10       24 
      28       28       31       35       36       36       39       40 
      35       31       28       27       28       29       31       29 
      24       14       -2      -24      -49      -79     -110     -143 
    -179     -218     -259     -298     -340     -378     -406     -430 
    -454     -472     -480     -488     -499     -508     -514     -515 
    -514     -515     -515     -508     -500     -495     -490     -483 
    -480     -479     -480     -483     -487     -498     -515     -531 
    -548     -572     -600     -626     -653     -685     -722     -761 
    -803     -846     -884     -919     -955     -990    -1021    -1051 
   -1073    -1085    -1093    -1097    -1094    -1086    -1075    -1063 
   -1047    -1027    -1005     -984     -962     -936     -907     -874 
    -841     -807     -772     -731     -687     -643     -603     -560 
    -517     -472     -423     -373     -325     -271     -211     -149 
     -87      -29       33      101      160      210      259      311 
     357      399      441      483      521      553      580      604 
     629      648      664      677      688      697      706      711 
     714      715      715      708      699      685      662      633 
     599      558      511      461      410      359      311      261 
     211      170      126       76       31      -12      -55     -105 
    -156     -205     -256     -315     -376     -434     -492     -560 
    -630     -696     -761     -827     -892     -954    -1011    -1062 
   -1111    -1155    -1196    -1227    -1251    -1273    -1294    -1314 
   -1336    -1358    -1382    -1410    -1440    -1464    -1485    -1503 
   -1518    -1529    -1537    -1548    -1560    -1567    -1574    -1579 
   -1583    -1593    -1598    -1598    -1598    -1597    -1593    -1580 
