Origin Time       2025/01/13 21:19:00
Lat.              31.8
Long.             131.6
Depth. (km)       30
Mag.              6.9
Station Code      SMNH02
Station Lat.      35.2235
Station Long.     133.0856
Station Height(m) 340
Record Time       2025/01/13 21:20:58
Sampling Freq(Hz) 100Hz
Duration Time(s)  120
Dir.              4
Scale Factor      7845(gal)/8223790
Max. Acc. (gal)   0.532
Last Correction   2025/01/13 21:21:00
Memo.             
[...]
    4869     4868     4864     4869     4868     4853     4823     4783 
    4749     4725     4695     4661     4637     4629     4626     4626 
    4641     4662     4687     4722     4769     4800     4797     4780 
    4753     4712     4681     4676     4673     4673     4699     4731 
    4750     4770     4788     4796     4808     4816     4819     4826 
    4828     4828     4828     4820     4808     4800     4789     4779 
    4770     4764     4777     4810     4831     4839     4843     4827 
    4810     4816     4837     4874     4922     4953     4953     4928 
    4895     4864     4843     4838     4839     4841     4838     4833 
    4834     4831     4820     4797     4764     4727     4691     4657 
    4639     4637     4631     4625     4618     4610     4615     4635 
    4656     4685     4726     4747     4746     4743     4739     4738 
    4739     4746     4758     4772     4773     4762     4745     4725 
    4703     4681     4666     4673     4700     4722     4742     4760 
    4773     4792     4806     4804     4799     4800     4789     4772 
    4754     4726     4689     4648     4599     4563     4538     4525 
    4536     4557     4563     4567     4576     4581     4585     4595 
    4595     4595     4608     4617     4627     4652     4656     4642 
    4641     4639     4630     4626     4633     4648     4671     4704 
    4738     4757     4770     4793     4816     4833     4853     4872 
    4874     4877     4880     4872     4878     4896     4908     4915 
    4914     4904     4885     4857     4827     4799     4762     4720 
    4696     4680     4665     4662     4658     4652     4665     4695 
    4710     4719     4743     4769     4791     4811     4811     4795 
    4780     4757     4739     4746     4757     4766     4779     4784 
    4781     4770     4766     4764     4743     4723     4710     4696 
    4691     4695     4702     4718     4738     4743     4726     4692 
    4653     4615     4592     4587     4591     4608     4648     4683 
    4710     4734     4757     4783     4808     4824     4838     4846 
    4857     4869     4862     4841     4822     4797     4756     4718 
    4687     4668     4668     4673     4677     4693     4711     4723 
    4743     4768     4784     4789     4777     4753     4727     4695 
    4654     4625     4603     4583     4579     4599     4626     4653 
    4675     4685     4691     4692     4691     4685     4683     4685 
    4689     4699     4708     4707     4692     4669     4654     4645 
    4631     4629     4629     4629     4635     4641     4635     4639 
    4653     4664     4675     4683     4687     4685     4677     4666 
    4661     4671     4696     4725     4745     4757     4765     4764 
    4754     4746     4745     4760     4780     4793     4800     4797 
    4783     4764     4741     4712     4687     4675     4666     4665 
    4680     4692     4695     4699     4691     4665     4641     4610 
    4577     4568     4567     4565     4565     4557     4553     4557 
    4554     4558     4577     4607     4650     4691     4702     4691 
    4673     4650     4635     4637     4637     4645     4664     4684 
    4699     4692     4665     4637     4606     4569     4556     4568 
    4575     4581     4602     4610     4617     4629     4634     4646 
    4673     4692     4702     4704     4681     4645     4610     4580 
    4565     4556     4540     4537     4542     4540     4557     4587 
    4603     4633     4675     4708     4760     4814     4839     4866 
    4901     4920     4942     4973     4984     4986     5001     5000 
    4972     4936     4904     4873     4838     4812     4800     4787 
    4788     4812     4837     4866     4903     4930     4945     4949 
    4942     4936     4939     4943     4954     4966     4959     4931 
    4905     4887     4872     4872     4884     4900     4918     4922 
    4891     4851     4819     4773     4734     4716     4702     4695 
    4708     4722     4731     4749     4749     4731     4726     4723 
    4707     4698     4696     4675     4638     4599     4554     4504 
    4467     4448     4438     4442     4460     4488     4529     4577 
    4621     4654     4681     4693     4689     4684     4683     4680 
    4684     4695     4703     4712     4720     4720     4725     4722 
    4714     4718     4727     4733     4735     4735     4733     4742 
    4762     4792     4835     4868     4884     4899     4900     4893 
    4903     4911     4909     4908     4908     4905     4907     4924 
    4966     5015     5054     5069     5074     5071     5040     4993 
    4945     4907     4893     4872     4837     4811     4784     4750 
    4725     4696     4668     4657     4648     4635     4630     4629 
    4626     4630     4653     4695     4739     4772     4799     4822 
    4841     4860     4878     4893     4908     4926     4936     4935 
    4932     4923     4903     4891     4891     4887     4887     4899 
    4909     4927     4943     4939     4927     4907     4877     4849 
    4833     4835     4846     4857     4872     4885     4889     4881 
    4861     4831     4788     4746     4712     4688     4676     4673 
    4672     4679     4696     4714     4723     4718     4693     4657 
    4610     4549     4477     4419     4383     4355     4330     4317 
    4314     4317     4326     4348     4375     4399     4415     4426 
    4440     4456     4488     4526     4554     4580     4606     4625 
    4638     4644     4638     4621     4604     4590     4557     4529 
    4521     4514     4513     4531     4553     4576     4615     4669 
    4720     4760     4796     4834     4862     4882     4896     4908 
    4928     4941     4942     4934     4915     4887     4842     4784 
    4733     4695     4666     4653     4652     4648     4638     4630 
    4633     4634     4626     4618     4607     4596     4591     4585 
    4579     4573     4575     4577     4587     4596     4594     4591 
    4587     4577     4580     4590     4592     4599     4602     4581 
    4560     4545     4526     4522     4531     4541     4565     4596 
    4610     4617     4627     4626     4621     4627     4634     4645 
    4666     4688     4711     4742     4765     4779     4792     4800 
    4811     4824     4824     4823     4827     4827     4831     4843 
    4860     4877     4892     4893     4884     4877     4872     4866 
    4861     4846     4838     4835     4823     4819     4830     4846 
    4874     4907     4924     4935     4942     4932     4914     4893 
    4868     4854     4860     4851     4831     4815     4784     4742 
    4710     4684     4666     4666     4672     4677     4688     4700 
    4706     4712     4720     4726     4739     4761     4788     4831 
    4876     4895     4896     4896     4884     4868     4864     4868 
    4874     4893     4905     4895     4874     4845     4795     4746 
    4714     4684     4676     4692     4696     4689     4695     4703 
    4703     4710     4725     4739     4754     4765     4777     4795 
    4803     4796     4795     4800     4791     4781     4776     4760 
    4742     4716     4683     4658     4634     4595     4561     4542 
    4519     4496     4483     4465     4446     4425     4401     4392 
    4395     4392     4398     4413     4423     4436     4448     4461 
    4484     4496     4490     4476     4459     4438     4430     4434 
    4453     4494     4537     4563     4588     4607     4602     4598 
    4600     4594     4606     4633     4658     4700     4749     4785 
    4823     4866     4908     4951     4989     5011     5027     5051 
    5070     5080     5090     5089     5078     5071     5054     5030 
    5013     5003     4996     4993     4995     4992     4984     4984 
    4981     4959     4941     4930     4907     4889     4887     4876 
    4861     4842     4800     4754     4715     4675     4648     4634 
    4606     4580     4563     4525     4483     4459     4430     4398 
    4384     4378     4369     4374     4388     4396     4413     4441 
    4475     4523     4585     4652     4727     4808     4868     4901 
    4922     4930     4938     4942     4922     4893     4866     4831 
    4789     4745     4707     4676     4641     4608     4583     4556 
    4537     4525     4506     4494     4494     4488     4484     4491 
    4498     4503     4523     4548     4567     4594     4629     4660 
    4696     4731     4760     4789     4812     4828     4841     4847 
    4858     4870     4874     4880     4891     4892     4889     4887 
    4877     4854     4822     4784     4745     4715     4699     4698 
    4715     4743     4772     4801     4826     4846     4864     4882 
    4907     4934     4958     4977     4996     5005     5011     5030 
    5042     5046     5055     5057     5043     5020     4988     4949 
    4915     4899     4881     4868     4881     4900     4908     4922 
    4932     4932     4934     4936     4939     4941     4942     4942 
    4935     4923     4908     4900     4908     4915     4915     4930 
    4949     4957     4961     4962     4949     4936     4923     4896 
    4872     4861     4842     4807     4772     4735     4698     4668 
    4644     4627     4623     4612     4595     4583     4561     4536 
    4523     4507     4487     4482     4476     4457     4453     4464 
    4468     4468     4467     4457     4445     4446     4448     4434 
    4425     4426     4422     4415     4423     4441     4459     4477 
    4500     4523     4548     4568     4580     4595     4610     4618 
    4637     4665     4687     4714     4741     4746     4731     4704 
    4687     4685     4673     4661     4656     4629     4595     4577 
    4552     4511     4491     4479     4448     4430     4432     4406 
    4374     4356     4333     4313     4303     4294     4303     4325 
    4345     4374     4407     4441     4482     4515     4529     4546 
    4576     4584     4567     4546     4522     4494     4477     4463 
    4444     4437     4438     4438     4446     4461     4472     4484 
    4495     4513     4540     4564     4576     4591     4619     4646 
    4681     4727     4766     4791     4814     4826     4818     4816 
    4819     4804     4793     4800     4807     4815     4823     4823 
    4822     4834     4845     4851     4872     4895     4914     4947 
    4982     5009     5039     5053     5044     5044     5049     5044 
    5042     5039     5039     5036     5028     5016     4993     4959 
    4927     4900     4868     4835     4808     4780     4760     4745 
    4733     4741     4766     4784     4787     4787     4784     4776 
    4774     4777     4787     4808     4830     4847     4865     4876 
    4882     4900     4922     4928     4938     4955     4973     4999 
    5026     5038     5043     5043     5032     5019     5009     4989 
    4968     4957     4936     4907     4873     4827     4779     4733 
    4689     4656     4642     4633     4617     4598     4576     4556 
    4540     4519     4506     4503     4517     4542     4568     4588 
    4614     4642     4658     4679     4702     4718     4738     4764 
    4788     4816     4841     4850     4851     4843     4824     4807 
    4785     4766     4762     4760     4756     4761     4761     4765 
    4787     4807     4812     4822     4826     4806     4779     4752 
    4719     4683     4645     4603     4569     4544     4523     4514 
    4507     4502     4506     4506     4499     4506     4515     4517 
    4536     4564     4588     4619     4650     4679     4710     4742 
    4777     4807     4828     4849     4855     4855     4857     4851 
    4842     4835     4837     4835     4833     4834     4826     4807 
    4791     4768     4750     4752     4754     4761     4784     4812 
    4830     4847     4862     4872     4877     4882     4904     4932 
    4938     4930     4915     4884     4850     4837     4826     4819 
    4822     4816     4803     4787     4756     4725     4707     4689 
    4672     4665     4657     4637     4621     4608     4591     4576 
    4560     4536     4514     4502     4495     4483     4473     4468 
    4452     4426     4402     4375     4349     4337     4341     4347 
    4357     4378     4401     4426     4460     4496     4526     4548 
    4569     4588     4602     4622     4641     4653     4671     4691 
    4706     4715     4729     4729     4707     4696     4693     4681 
    4684     4691     4687     4687     4692     4685     4680     4685 
    4698     4723     4757     4789     4826     4855     4865     4862 
    4860     4851     4847     4853     4850     4853     4864     4868 
    4864     4858     4847     4842     4849     4861     4880     4899 
    4903     4905     4916     4924     4930     4931     4931     4938 
    4945     4947     4950     4950     4946     4947     4951     4947 
    4947     4947     4931     4915     4912     4895     4868     4860 
    4842     4812     4801     4795     4791     4800     4799     4788 
    4780     4768     4741     4700     4654     4614     4577     4541 
    4519     4500     4479     4472     4468     4456     4456     4460 
    4456     4460     4465     4459     4452     4438     4422     4421 
    4422     4422     4421     4413     4402     4390     4368     4340 
    4314     4287     4257     4241     4237     4228     4213     4198 
    4176     4163     4167     4170     4174     4201     4236     4271 
    4315     4363     4402     4436     4479     4530     4567     4598 
    4629     4645     4666     4707     4734     4757     4789     4806 
    4807     4814     4815     4815     4830     4853     4880     4911 
    4935     4951     4970     4993     5015     5038     5062     5081 
    5101     5119     5121     5120     5124     5124     5111     5090 
    5074     5065     5051     5027     5008     4990     4966     4955 
    4958     4959     4966     4985     5009     5038     5070     5096 
    5115     5130     5142     5152     5152     5144     5142     5135 
    5132     5150     5167     5175     5190     5201     5190     5181 
    5181     5174     5165     5159     5152     5148     5150     5143 
    5125     5105     5086     5058     5007     4950     4895     4826 
    4758     4699     4638     4583     4531     4490     4460     4437 
    4425     4429     4441     4463     4483     4499     4519     4548 
    4575     4594     4610     4626     4635     4648     4652     4645 
    4649     4653     4645     4646     4652     4646     4650     4666 
    4675     4684     4699     4707     4710     4712     4714     4714 
    4711     4704     4700     4696     4680     4658     4627     4585 
    4550     4518     4477     4445     4425     4405     4395     4394 
    4392     4396     4406     4417     4438     4468     4495     4525 
    4554     4575     4595     4612     4623     4631     4630     4627 
    4626     4612     4595     4588     4579     4565     4560     4552 
    4527     4507     4494     4479     4475     4477     4469     4463 
    4469     4476     4479     4483     4487     4502     4509     4503 
    4507     4519     4527     4542     4561     4583     4618     4662 
    4699     4741     4787     4824     4861     4878     4873     4866 
    4861     4855     4860     4868     4872     4869     4860     4854 
    4847     4839     4834     4827     4824     4823     4823     4824 
    4824     4830     4837     4841     4842     4843     4847     4845 
    4834     4827     4827     4826     4823     4820     4811     4795 
    4784     4773     4757     4745     4737     4734     4737     4729 
    4722     4727     4723     4725     4741     4749     4761     4801 
    4839     4857     4874     4897     4909     4914     4927     4943 
    4943     4930     4905     4870     4835     4806     4776     4738 
    4704     4684     4658     4625     4600     4577     4556     4544 
    4533     4527     4529     4529     4526     4519     4513     4507 
    4495     4486     4484     4483     4490     4507     4523     4533 
    4542     4556     4565     4579     4599     4622     4653     4683 
    4703     4730     4753     4760     4769     4779     4784     4796 
    4810     4819     4835     4854     4866     4874     4885     4889 
    4885     4887     4897     4909     4934     4962     4980     4984 
    4976     4958     4932     4905     4891     4887     4877     4858 
    4842     4819     4791     4764     4742     4730     4718     4707 
    4703     4699     4689     4684     4677     4671     4666     4665 
    4669     4685     4704     4716     4730     4741     4734     4716 
    4699     4677     4661     4654     4644     4631     4621     4606 
    4603     4617     4622     4625     4634     4634     4630     4634 
    4634     4630     4626     4617     4595     4572     4549     4531 
    4515     4500     4491     4482     4471     4476     4498     4517 
    4542     4573     4602     4633     4657     4673     4688     4703 
    4720     4737     4757     4776     4791     4793     4783     4773 
    4765     4747     4727     4712     4698     4684     4676     4666 
    4649     4621     4591     4568     4550     4534     4526     4527 
    4531     4538     4548     4549     4552     4563     4573     4581 
    4579     4577     4587     4592     4595     4612     4625     4621 
    4618     4611     4594     4579     4565     4544     4533     4529 
    4523     4526     4540     4556     4580     4612     4641     4676 
    4714     4743     4764     4783     4797     4801     4801     4811 
    4822     4822     4814     4810     4808     4801     4795     4795 
    4796     4797     4800     4791     4777     4769     4768     4768 
    4768     4784     4812     4828     4833     4838     4842     4827 
    4811     4808     4803     4807     4819     4818     4820     4828 
    4823     4815     4796     4757     4725     4696     4664     4637 
    4612     4588     4571     4549     4513     4473     4448     4419 
    4391     4379     4374     4369     4365     4347     4332     4333 
    4340     4352     4374     4402     4430     4448     4460     4476 
    4494     4510     4537     4569     4594     4629     4671     4702 
    4739     4769     4779     4792     4804     4801     4807     4820 
    4826     4831     4846     4860     4870     4885     4904     4914 
    4912     4918     4924     4916     4908     4904     4882     4855 
    4842     4820     4784     4753     4719     4679     4646     4622 
    4602     4600     4608     4608     4618     4637     4661     4688 
    4714     4741     4770     4792     4804     4820     4837     4851 
    4869     4874     4866     4866     4869     4872     4882     4897 
    4907     4919     4927     4927     4936     4955     4966     4978 
    4992     4999     5009     5015     5011     5011     5009     4999 
    4982     4954     4922     4901     4877     4839     4812     4789 
    4750     4711     4684     4656     4639     4635     4625     4615 
    4615     4617     4618     4622     4631     4644     4653     4665 
    4672     4675     4684     4685     4683     4683     4679     4669 
    4656     4645     4644     4644     4641     4638     4627     4612 
