Origin Time       2025/01/13 21:19:00
Lat.              31.8
Long.             131.6
Depth. (km)       30
Mag.              6.9
Station Code      SMNH01
Station Lat.      35.2963
Station Long.     133.2604
Station Height(m) 170
Record Time       2025/01/13 21:21:22
Sampling Freq(Hz) 100Hz
Duration Time(s)  120
Dir.              5
Scale Factor      7845(gal)/8223790
Max. Acc. (gal)   0.583
Last Correction   2025/01/13 21:21:23
Memo.             
[...]
    4758     4792     4846     4909     4974     5019     5026     4993 
    4931     4860     4803     4777     4774     4780     4785     4792 
    4804     4827     4861     4895     4914     4911     4880     4831 
    4772     4712     4680     4687     4727     4784     4835     4865 
    4873     4864     4843     4824     4800     4770     4753     4764 
    4801     4850     4882     4882     4861     4837     4823     4830 
    4855     4897     4943     4981     5007     5026     5038     5038 
    5028     5015     4995     4974     4966     4968     4976     4986 
    5004     5031     5061     5085     5103     5105     5088     5057 
    5028     5007     4996     4999     5019     5043     5061     5067 
    5054     5019     4989     4978     4993     5034     5076     5089 
    5066     5013     4939     4866     4831     4849     4905     4986 
    5061     5105     5107     5076     5031     4999     4989     4993 
    4999     5003     4993     4963     4923     4891     4880     4896 
    4938     4993     5040     5065     5059     5031     4993     4965 
    4957     4963     4972     4978     4984     4981     4978     4985 
    4996     5019     5054     5085     5101     5103     5084     5053 
    5017     4980     4947     4920     4904     4908     4926     4953 
    4996     5036     5050     5038     5017     5000     4988     4985 
    4985     4978     4959     4932     4897     4878     4895     4942 
    5019     5113     5188     5208     5170     5081     4972     4887 
    4847     4850     4872     4900     4927     4945     4953     4969 
    4996     5026     5053     5070     5077     5069     5034     4965 
    4878     4807     4770     4770     4799     4850     4907     4955 
    4999     5032     5055     5061     5049     5027     5012     5013 
    5026     5031     5023     5008     5001     5013     5034     5061 
    5098     5134     5147     5144     5123     5076     5008     4935 
    4877     4860     4893     4959     5024     5076     5108     5130 
    5158     5192     5215     5216     5200     5170     5125     5077 
    5022     4965     4931     4924     4946     5003     5067     5107 
    5111     5082     5036     5007     5008     5040     5092     5131 
    5135     5101     5031     4939     4868     4850     4891     4959 
    5015     5047     5054     5043     5043     5063     5096     5125 
    5131     5107     5062     5011     4959     4923     4916     4941 
    4973     4990     4977     4945     4909     4885     4881     4895 
    4918     4949     4963     4953     4931     4916     4909     4920 
    4942     4957     4962     4947     4907     4864     4839     4843 
    4872     4907     4931     4941     4931     4909     4899     4899 
    4915     4955     5007     5054     5092     5113     5120     5120 
    5112     5096     5067     5024     4974     4935     4920     4930 
    4959     4997     5030     5040     5034     5015     4984     4950 
    4926     4923     4931     4943     4963     4980     4985     4995 
    5007     5003     4986     4962     4928     4899     4888     4899 
    4924     4949     4953     4936     4900     4850     4804     4785 
    4812     4889     4996     5097     5162     5166     5123     5057 
    4981     4926     4915     4932     4949     4941     4899     4833 
    4762     4719     4718     4742     4776     4810     4834     4841 
    4824     4801     4816     4872     4936     4984     4986     4946 
    4888     4830     4787     4776     4795     4819     4824     4801 
    4760     4718     4693     4710     4772     4860     4951     5027 
    5054     5023     4963     4908     4872     4864     4880     4905 
    4909     4885     4850     4819     4803     4803     4816     4837 
    4858     4874     4878     4866     4849     4838     4845     4868 
    4891     4904     4903     4873     4828     4800     4800     4828 
    4865     4887     4887     4860     4814     4777     4760     4761 
    4789     4835     4888     4930     4947     4942     4922     4888 
    4851     4822     4795     4768     4750     4749     4761     4783 
    4807     4822     4823     4820     4822     4833     4861     4892 
    4908     4908     4897     4882     4874     4857     4828     4804 
    4789     4787     4804     4841     4891     4938     4962     4962 
    4954     4946     4936     4928     4927     4938     4962     4992 
    5022     5035     5026     5003     4981     4974     4976     4968 
    4955     4950     4950     4954     4950     4936     4930     4926 
    4926     4941     4965     4986     5003     5017     5028     5030 
    5016     4993     4970     4947     4930     4926     4931     4946 
    4968     4984     4989     4993     4999     4999     4988     4974 
    4966     4973     4993     5019     5034     5036     5032     5020 
    5003     4985     4969     4949     4926     4899     4872     4865 
    4874     4887     4896     4903     4905     4909     4914     4915 
    4927     4959     5004     5054     5098     5124     5124     5104 
    5071     5038     5013     5000     4997     5000     4995     4984 
    4968     4942     4918     4893     4872     4865     4872     4896 
    4939     4996     5047     5071     5062     5028     4984     4943 
    4912     4893     4891     4897     4916     4941     4951     4945 
    4942     4947     4959     4982     5020     5055     5074     5077 
    5059     5040     5034     5039     5055     5069     5070     5062 
    5038     5005     4968     4926     4884     4857     4853     4869 
    4895     4909     4903     4872     4824     4783     4766     4784 
    4838     4907     4958     4976     4954     4908     4862     4833 
    4828     4851     4888     4911     4905     4874     4831     4793 
    4787     4810     4860     4927     4985     5013     5008     4977 
    4936     4911     4915     4932     4950     4957     4938     4907 
    4885     4870     4869     4887     4909     4928     4936     4936 
    4934     4930     4928     4927     4922     4904     4892     4899 
    4919     4945     4963     4970     4970     4969     4966     4963 
    4959     4941     4905     4860     4812     4781     4762     4750 
    4757     4783     4823     4869     4907     4927     4932     4931 
    4923     4920     4918     4896     4860     4816     4772     4742 
    4733     4733     4738     4743     4756     4779     4811     4843 
    4873     4895     4901     4899     4895     4885     4885     4901 
    4918     4939     4962     4972     4973     4962     4942     4932 
    4928     4924     4927     4930     4928     4932     4942     4959 
    4992     5035     5067     5092     5108     5112     5113     5124 
    5135     5127     5103     5071     5031     4989     4958     4935 
    4924     4935     4954     4969     4981     4992     5001     5005 
    5011     5036     5082     5127     5158     5175     5179     5174 
    5161     5143     5113     5076     5042     5012     4996     4997 
    5009     5038     5086     5142     5200     5247     5260     5236 
    5185     5115     5047     4996     4961     4939     4931     4928 
    4922     4911     4900     4889     4888     4903     4932     4974 
    5019     5042     5035     5007     4970     4935     4908     4895 
    4893     4901     4907     4899     4881     4865     4849     4828 
    4814     4807     4811     4819     4820     4818     4819     4827 
    4842     4869     4905     4941     4968     4988     4995     4992 
    4986     4974     4953     4922     4888     4858     4834     4819 
    4820     4838     4870     4918     4963     4996     5016     5027 
    5030     5027     5015     4990     4949     4892     4827     4765 
    4723     4707     4715     4742     4788     4843     4901     4955 
    4995     5015     5022     5020     5011     4996     4970     4935 
    4909     4895     4897     4920     4945     4965     4982     4984 
    4970     4963     4962     4957     4955     4953     4934     4893 
    4854     4833     4845     4888     4950     5013     5057     5069 
    5047     4999     4943     4885     4833     4788     4754     4745 
    4757     4777     4806     4834     4853     4874     4896     4919 
    4945     4966     4982     4993     4985     4954     4907     4854 
    4812     4791     4791     4807     4831     4850     4853     4842 
    4822     4796     4776     4766     4768     4774     4780     4780 
    4772     4757     4742     4737     4743     4756     4762     4758 
    4745     4735     4729     4725     4734     4741     4741     4743 
    4749     4758     4776     4797     4823     4860     4891     4908 
    4908     4891     4876     4874     4882     4897     4915     4932 
    4939     4928     4911     4892     4874     4868     4868     4873 
    4887     4896     4895     4878     4843     4796     4757     4739 
    4741     4753     4765     4772     4764     4739     4715     4708 
    4722     4747     4777     4806     4819     4810     4795     4783 
    4779     4793     4818     4841     4854     4850     4834     4812 
    4796     4791     4793     4795     4791     4795     4808     4826 
    4847     4869     4891     4911     4930     4945     4953     4959 
    4961     4953     4943     4919     4885     4862     4853     4855 
    4881     4922     4963     5003     5022     5023     5026     5034 
    5049     5085     5138     5184     5213     5231     5232     5221 
    5206     5181     5147     5119     5090     5058     5026     5003 
    4989     4990     5007     5028     5047     5062     5067     5061 
    5044     5028     5016     5009     5003     4997     4996     4990 
    4977     4953     4922     4897     4887     4884     4880     4874 
    4868     4860     4845     4828     4811     4801     4810     4839 
    4887     4950     5020     5093     5167     5219     5235     5224 
    5192     5148     5107     5078     5063     5054     5050     5054 
    5067     5082     5094     5105     5109     5111     5111     5105 
    5094     5082     5066     5038     4996     4939     4880     4831 
    4799     4787     4800     4834     4873     4908     4924     4920 
    4896     4864     4835     4816     4810     4819     4833     4845 
    4860     4881     4909     4942     4968     4980     4982     4981 
    4974     4966     4953     4934     4912     4892     4877     4860 
    4843     4843     4855     4876     4903     4918     4916     4911 
    4899     4878     4854     4830     4811     4808     4820     4841 
    4873     4912     4946     4976     5005     5022     5026     5024 
    5012     4988     4955     4927     4909     4904     4908     4916 
    4923     4934     4951     4965     4981     4996     5003     5004 
    5000     4986     4969     4955     4957     4976     5015     5071 
    5135     5189     5229     5248     5247     5239     5227     5211 
    5192     5170     5150     5131     5117     5117     5134     5152 
    5171     5189     5206     5217     5224     5224     5208     5175 
    5134     5081     5032     4989     4950     4926     4912     4897 
    4877     4858     4839     4830     4835     4857     4889     4920 
    4935     4927     4897     4846     4789     4741     4708     4688 
    4680     4683     4698     4711     4722     4735     4737     4729 
    4723     4716     4714     4725     4738     4742     4735     4722 
    4704     4689     4675     4664     4660     4657     4649     4637 
    4623     4611     4595     4580     4567     4553     4549     4552 
    4558     4564     4567     4573     4579     4575     4569     4560 
    4538     4513     4491     4486     4506     4537     4572     4607 
    4638     4664     4691     4729     4773     4823     4884     4945 
    4997     5039     5070     5082     5076     5058     5046     5034 
    5022     5013     5004     4988     4966     4943     4920     4905 
    4900     4909     4934     4974     5022     5063     5101     5135 
    5163     5192     5217     5231     5238     5246     5250     5248 
    5247     5248     5252     5247     5229     5212     5201     5193 
    5188     5196     5215     5239     5266     5292     5308     5323 
    5335     5335     5317     5287     5250     5208     5175     5161 
    5165     5163     5147     5119     5077     5030     4986     4954 
    4945     4951     4963     4982     4996     4999     5001     5011 
    5016     5015     5005     4990     4968     4932     4900     4881 
    4870     4857     4835     4806     4770     4731     4693     4665 
    4658     4671     4691     4708     4706     4681     4649     4618 
    4600     4600     4619     4653     4685     4699     4693     4680 
    4660     4641     4629     4625     4627     4630     4626     4614 
    4607     4611     4622     4642     4668     4688     4698     4696 
    4684     4661     4642     4638     4641     4649     4666     4688 
    4702     4706     4704     4702     4704     4718     4738     4762 
    4789     4812     4820     4812     4791     4766     4754     4752 
    4745     4734     4722     4710     4702     4696     4702     4715 
    4722     4726     4729     4719     4699     4679     4666     4661 
    4664     4677     4700     4729     4749     4769     4795     4824 
    4862     4912     4962     5012     5063     5112     5158     5201 
    5240     5279     5321     5366     5418     5464     5498     5524 
    5541     5547     5536     5512     5474     5431     5389     5358 
    5343     5347     5364     5383     5398     5408     5416     5424 
    5429     5429     5418     5401     5379     5344     5304     5273 
    5250     5236     5231     5216     5193     5173     5155     5136 
    5117     5109     5112     5105     5082     5046     4996     4947 
    4909     4880     4861     4858     4872     4896     4918     4932 
    4941     4949     4957     4959     4966     4977     4993     5016 
    5050     5089     5125     5146     5155     5162     5169     5182 
    5204     5223     5235     5239     5229     5202     5162     5112 
    5062     5019     4984     4955     4922     4877     4834     4787 
    4734     4683     4626     4568     4525     4491     4476     4491 
    4515     4540     4568     4591     4617     4652     4685     4719 
    4749     4760     4765     4770     4773     4783     4797     4814 
    4830     4839     4846     4854     4858     4857     4851     4843 
    4834     4827     4815     4793     4772     4757     4752     4762 
    4789     4819     4846     4874     4896     4904     4904     4893 
    4866     4828     4789     4762     4749     4749     4761     4787 
    4812     4826     4827     4823     4818     4819     4823     4826 
    4834     4841     4828     4810     4792     4774     4769     4784 
    4806     4826     4853     4884     4905     4919     4932     4942 
    4953     4972     4993     5015     5039     5065     5090     5116 
    5139     5158     5177     5194     5200     5197     5198     5190 
    5174     5169     5175     5192     5223     5271     5323     5364 
    5393     5405     5397     5366     5317     5269     5227     5186 
    5152     5128     5107     5090     5088     5097     5111     5124 
    5138     5142     5138     5132     5130     5130     5124     5116 
    5112     5104     5096     5089     5078     5074     5078     5078 
    5080     5078     5062     5032     4992     4938     4878     4826 
    4793     4783     4793     4820     4861     4908     4955     4995 
    5024     5044     5057     5066     5066     5051     5027     5005 
    4992     4984     4986     4999     5015     5038     5069     5103 
    5136     5166     5182     5188     5186     5177     5162     5147 
    5135     5125     5119     5112     5107     5109     5116     5120 
    5116     5103     5080     5043     5000     4958     4924     4899 
    4888     4888     4892     4897     4897     4891     4882     4874 
    4873     4877     4884     4882     4870     4853     4827     4804 
    4792     4791     4792     4796     4807     4823     4839     4855 
    4870     4872     4862     4842     4806     4766     4739     4716 
    4698     4695     4703     4714     4734     4753     4757     4747 
    4731     4702     4671     4645     4623     4611     4612     4612 
    4610     4607     4608     4607     4604     4611     4623     4634 
    4639     4635     4627     4615     4599     4591     4591     4592 
    4602     4627     4661     4696     4731     4766     4791     4804 
    4816     4827     4834     4839     4847     4865     4891     4915 
    4932     4950     4961     4970     4984     4997     5008     5015 
    5011     5004     5005     5008     5012     5024     5051     5086 
    5123     5150     5166     5169     5155     5135     5123     5116 
    5103     5081     5054     5019     4974     4924     4884     4861 
    4858     4872     4892     4901     4895     4877     4850     4818 
    4792     4785     4796     4811     4816     4822     4834     4849 
    4861     4876     4895     4916     4935     4943     4946     4942 
    4931     4920     4912     4905     4900     4896     4893     4896 
    4907     4922     4930     4923     4901     4870     4838     4807 
    4776     4756     4746     4743     4739     4733     4719     4707 
    4711     4729     4758     4796     4828     4846     4853     4845 
    4824     4803     4784     4777     4779     4788     4811     4837 
    4854     4865     4872     4881     4896     4915     4938     4961 
    4982     4997     5008     5023     5039     5055     5071     5082 
    5089     5090     5089     5086     5082     5080     5081     5080 
    5071     5062     5049     5032     5019     5005     4993     4986 
    4990     5000     5003     4999     4988     4962     4927     4897 
    4877     4866     4862     4864     4865     4860     4845     4826 
    4814     4811     4820     4838     4865     4893     4919     4936 
    4949     4958     4951     4934     4916     4896     4876     4866 
    4866     4876     4895     4915     4931     4938     4941     4942 
    4942     4946     4955     4977     5004     5020     5026     5026 
    5024     5016     5003     4990     4984     4980     4978     4986 
    4993     4999     5007     5009     5012     5016     5015     5016 
    5027     5040     5059     5084     5107     5119     5119     5116 
    5108     5101     5107     5115     5119     5127     5131     5124 
    5115     5104     5092     5088     5090     5094     5098     5108 
    5125     5142     5157     5173     5181     5181     5177     5162 
    5143     5130     5121     5121     5120     5108     5090     5062 
    5023     4993     4981     4980     4990     5003     5015     5030 
    5038     5042     5050     5059     5069     5081     5086     5086 
    5085     5077     5065     5050     5024     4993     4961     4926 
    4888     4855     4834     4818     4803     4781     4754     4730 
    4706     4679     4656     4644     4633     4626     4631     4642 
    4645     4635     4621     4592     4557     4526     4496     4469 
    4450     4437     4430     4432     4432     4434     4444     4452 
    4460     4482     4514     4550     4587     4617     4641     4669 
