Origin Time       2025/01/13 21:19:00
Lat.              31.8
Long.             131.6
Depth. (km)       30
Mag.              6.9
Station Code      SMNH11
Station Lat.      35.4259
Station Long.     132.8008
Station Height(m) 30
Record Time       2025/01/13 21:21:08
Sampling Freq(Hz) 100Hz
Duration Time(s)  149
Dir.              6
Scale Factor      3920(gal)/6170801
Max. Acc. (gal)   0.586
Last Correction   2025/01/13 21:20:53
Memo.             
[...]
   17886    17880    17876    17869    17857    17839    17819    17797 
   17775    17754    17733    17710    17685    17662    17644    17628 
   17613    17601    17593    17590    17593    17599    17605    17611 
   17616    17620    17629    17640    17654    17673    17690    17703 
   17719    17739    17761    17783    17806    17831    17859    17888 
   17911    17931    17955    17980    17999    18017    18037    18057 
   18075    18091    18104    18114    18127    18141    18151    18163 
   18174    18182    18191    18203    18212    18221    18233    18242 
   18248    18256    18264    18270    18274    18272    18268    18265 
   18261    18249    18236    18224    18207    18186    18168    18151 
   18132    18113    18091    18071    18051    18030    18010    17988 
   17966    17946    17929    17913    17895    17881    17870    17862 
   17855    17845    17835    17828    17816    17801    17788    17772 
   17756    17742    17728    17713    17699    17689    17686    17685 
   17678    17674    17681    17689    17691    17688    17689    17689 
   17683    17681    17689    17695    17699    17709    17718    17723 
   17734    17743    17746    17754    17766    17768    17769    17775 
   17778    17772    17767    17766    17760    17755    17748    17732 
   17716    17707    17690    17673    17664    17650    17630    17617 
   17607    17599    17597    17601    17599    17594    17593    17593 
   17596    17601    17601    17594    17586    17577    17570    17563 
   17554    17542    17527    17513    17501    17488    17472    17457 
   17445    17433    17422    17417    17410    17402    17401    17405 
   17405    17404    17412    17422    17431    17442    17451    17460 
   17477    17489    17496    17504    17515    17524    17533    17541 
   17550    17563    17579    17592    17605    17621    17639    17656 
   17676    17697    17717    17738    17758    17774    17788    17802 
   17816    17830    17842    17853    17867    17881    17895    17908 
   17915    17914    17914    17915    17911    17909    17909    17905 
   17897    17893    17889    17885    17881    17873    17863    17855 
   17852    17849    17844    17842    17841    17835    17829    17830 
   17833    17835    17840    17842    17839    17841    17848    17850 
   17849    17851    17855    17860    17866    17873    17876    17880 
   17886    17894    17904    17913    17920    17923    17926    17927 
   17928    17932    17937    17941    17949    17955    17957    17961 
   17965    17965    17965    17963    17956    17947    17939    17930 
   17920    17911    17903    17894    17886    17879    17875    17871 
   17867    17865    17864    17862    17862    17865    17871    17876 
   17881    17891    17905    17917    17931    17944    17955    17966 
   17978    17989    18000    18008    18011    18014    18023    18029 
   18031    18036    18041    18044    18050    18056    18061    18067 
   18069    18071    18072    18072    18071    18065    18056    18045 
   18029    18013    18000    17981    17957    17933    17908    17882 
   17858    17831    17798    17767    17741    17715    17690    17664 
   17639    17614    17593    17580    17563    17547    17538    17528 
   17519    17514    17508    17502    17502    17505    17509    17512 
   17514    17518    17524    17529    17534    17541    17549    17556 
   17561    17562    17560    17560    17560    17559    17562    17563 
   17562    17565    17572    17574    17576    17584    17594    17600 
   17603    17610    17620    17625    17627    17630    17634    17635 
   17632    17624    17615    17605    17592    17576    17561    17544 
   17525    17506    17492    17483    17474    17466    17456    17450 
   17448    17446    17445    17447    17451    17455    17463    17480 
   17499    17516    17540    17567    17592    17623    17654    17679 
   17704    17728    17752    17777    17804    17829    17852    17874 
   17891    17905    17922    17936    17940    17946    17953    17953 
   17950    17950    17947    17938    17930    17920    17905    17889 
   17875    17861    17846    17832    17817    17804    17792    17777 
   17761    17749    17738    17729    17722    17717    17714    17710 
   17704    17694    17684    17681    17677    17669    17661    17653 
   17640    17628    17615    17598    17580    17567    17551    17536 
   17524    17511    17498    17485    17470    17462    17458    17452 
   17450    17449    17445    17447    17455    17463    17471    17480 
   17490    17500    17511    17523    17538    17556    17570    17579 
   17591    17605    17615    17624    17635    17647    17658    17671 
   17684    17693    17702    17718    17732    17742    17754    17768 
   17779    17791    17800    17807    17818    17831    17844    17854 
   17862    17873    17886    17899    17914    17935    17961    17986 
   18011    18037    18066    18097    18129    18158    18185    18212 
   18238    18263    18289    18314    18334    18350    18366    18380 
   18391    18397    18402    18405    18403    18397    18390    18383 
   18372    18355    18335    18315    18294    18269    18242    18213 
   18183    18150    18115    18084    18054    18021    17992    17965 
   17940    17919    17903    17888    17873    17864    17858    17850 
   17847    17848    17850    17853    17859    17868    17879    17890 
   17907    17925    17939    17955    17971    17983    17998    18016 
   18030    18042    18059    18078    18091    18101    18111    18122 
   18130    18133    18133    18134    18132    18121    18106    18094 
   18075    18047    18020    17993    17958    17922    17887    17849 
   17806    17763    17723    17683    17644    17607    17571    17532 
   17497    17469    17440    17410    17384    17361    17337    17316 
   17296    17275    17258    17244    17229    17215    17201    17187 
   17176    17169    17162    17151    17140    17130    17121    17110 
   17096    17085    17075    17066    17059    17056    17053    17053 
   17057    17062    17071    17084    17099    17118    17145    17172 
   17198    17228    17264    17300    17335    17373    17413    17452 
   17488    17518    17548    17576    17600    17623    17645    17664 
   17681    17698    17712    17720    17732    17741    17737    17743 
   17755    17754    17756    17771    17776    17778    17791    17807 
   17815    17828    17848    17863    17872    17885    17903    17919 
   17932    17944    17955    17967    17982    17996    18010    18022 
   18033    18044    18054    18065    18076    18083    18093    18108 
   18120    18132    18150    18166    18173    18181    18192    18198 
   18200    18204    18208    18205    18198    18189    18179    18168 
   18155    18141    18126    18107    18087    18072    18055    18031 
   18007    17984    17960    17938    17920    17900    17880    17868 
   17854    17832    17812    17798    17782    17768    17760    17753 
   17747    17742    17735    17731    17734    17737    17738    17739 
   17739    17739    17741    17743    17744    17750    17751    17748 
   17750    17752    17749    17745    17741    17737    17737    17737 
   17736    17736    17736    17733    17731    17734    17736    17735 
   17733    17733    17736    17738    17741    17744    17744    17747 
   17753    17760    17766    17773    17780    17785    17790    17802 
   17811    17809    17813    17825    17828    17830    17845    17856 
   17857    17861    17869    17873    17878    17884    17887    17886 
   17885    17881    17880    17876    17864    17850    17841    17829 
   17809    17794    17782    17767    17752    17733    17712    17695 
   17678    17655    17635    17620    17600    17574    17555    17541 
   17518    17494    17479    17461    17439    17424    17409    17392 
   17378    17365    17351    17336    17323    17316    17307    17299 
   17298    17294    17287    17293    17304    17306    17316    17335 
   17350    17367    17392    17417    17443    17473    17505    17537 
   17574    17610    17647    17687    17727    17764    17802    17841 
   17878    17915    17951    17985    18019    18056    18087    18116 
   18150    18182    18207    18234    18264    18290    18312    18334 
   18352    18362    18369    18380    18385    18381    18378    18374 
   18365    18355    18347    18335    18318    18300    18283    18265 
   18249    18234    18212    18186    18161    18136    18109    18085 
   18066    18046    18018    17991    17969    17948    17928    17907 
   17887    17871    17858    17846    17834    17833    17837    17828 
   17821    17826    17828    17826    17827    17820    17810    17809 
   17807    17797    17790    17785    17774    17764    17757    17744 
   17729    17720    17707    17684    17663    17645    17622    17598 
   17578    17554    17530    17509    17483    17458    17434    17409 
   17385    17363    17341    17321    17306    17293    17279    17270 
   17265    17261    17260    17259    17257    17257    17259    17260 
   17261    17268    17274    17275    17279    17289    17297    17300 
   17304    17315    17325    17329    17330    17333    17337    17340 
   17344    17350    17356    17359    17361    17367    17377    17387 
   17393    17401    17412    17419    17431    17447    17461    17473 
   17487    17500    17511    17522    17531    17543    17558    17566 
   17571    17583    17596    17607    17620    17631    17641    17658 
   17678    17696    17714    17735    17758    17778    17798    17821 
   17844    17861    17879    17902    17921    17934    17955    17980 
   17995    18009    18033    18055    18074    18100    18126    18149 
   18178    18209    18234    18261    18292    18315    18335    18361 
   18384    18400    18417    18437    18457    18475    18489    18500 
   18510    18523    18533    18542    18548    18552    18559    18567 
   18568    18569    18575    18579    18582    18586    18589    18586 
   18584    18586    18586    18581    18578    18576    18569    18558 
   18550    18543    18532    18520    18507    18488    18465    18444 
   18420    18392    18362    18327    18286    18246    18206    18160 
   18113    18069    18025    17982    17940    17900    17860    17822 
   17791    17761    17727    17696    17672    17649    17627    17605 
   17584    17565    17547    17531    17513    17493    17479    17467 
   17454    17443    17431    17417    17404    17392    17382    17370 
   17356    17342    17326    17310    17297    17283    17266    17251 
   17236    17222    17203    17184    17167    17151    17132    17112 
   17095    17078    17059    17038    17018    17000    16983    16967 
   16953    16938    16920    16908    16901    16892    16889    16891 
   16891    16894    16902    16910    16913    16921    16932    16940 
   16949    16959    16969    16979    16994    17012    17026    17042 
   17066    17092    17112    17135    17163    17187    17211    17240 
   17270    17297    17328    17361    17391    17420    17453    17486 
   17515    17543    17573    17607    17635    17661    17689    17715 
   17739    17766    17788    17801    17813    17827    17841    17849 
   17852    17852    17853    17855    17855    17852    17846    17842 
   17839    17833    17826    17823    17822    17820    17818    17817 
   17815    17816    17820    17824    17829    17835    17841    17850 
   17865    17877    17883    17896    17914    17927    17941    17957 
   17976    17994    18010    18028    18048    18069    18090    18109 
   18132    18154    18170    18187    18208    18224    18234    18249 
   18267    18280    18292    18305    18318    18331    18343    18354 
   18364    18371    18380    18388    18394    18400    18405    18406 
   18405    18404    18400    18391    18383    18376    18366    18350 
   18338    18326    18307    18289    18277    18262    18241    18224 
   18207    18184    18163    18144    18121    18093    18071    18052 
   18029    18008    17987    17964    17945    17928    17904    17876 
   17857    17840    17817    17795    17778    17755    17731    17710 
   17692    17676    17658    17636    17616    17601    17583    17563 
   17547    17531    17513    17495    17482    17470    17457    17444 
   17431    17418    17407    17396    17387    17379    17370    17364 
   17358    17353    17351    17347    17344    17345    17347    17345 
   17342    17342    17344    17342    17341    17343    17340    17335 
   17333    17332    17330    17322    17312    17307    17302    17294 
   17287    17277    17266    17256    17247    17240    17229    17215 
   17203    17191    17183    17172    17160    17150    17137    17124 
   17115    17109    17104    17100    17095    17087    17083    17086 
   17084    17078    17077    17080    17078    17079    17088    17095 
   17100    17108    17120    17131    17144    17162    17181    17196 
   17218    17244    17268    17292    17321    17352    17387    17422 
   17460    17499    17539    17582    17620    17657    17701    17746 
   17787    17831    17875    17915    17954    17997    18039    18079 
   18121    18164    18204    18244    18285    18324    18361    18392 
   18425    18461    18489    18512    18536    18559    18575    18593 
   18610    18623    18635    18647    18656    18664    18671    18680 
   18687    18688    18686    18685    18680    18670    18660    18648 
   18629    18609    18593    18574    18548    18527    18503    18472 
   18443    18415    18386    18359    18329    18299    18275    18247 
   18212    18180    18152    18119    18083    18049    18016    17983 
   17950    17916    17878    17841    17810    17780    17746    17716 
   17690    17659    17630    17607    17582    17553    17531    17513 
   17491    17470    17456    17437    17415    17398    17381    17358 
   17339    17322    17302    17286    17273    17257    17243    17234 
   17226    17216    17207    17202    17199    17194    17190    17187 
   17184    17187    17192    17194    17196    17202    17210    17218 
   17224    17228    17235    17245    17254    17258    17263    17271 
   17278    17287    17296    17302    17308    17318    17331    17342 
   17353    17365    17375    17388    17408    17429    17446    17468 
   17492    17514    17539    17570    17600    17628    17658    17691 
   17724    17757    17790    17822    17852    17885    17919    17951 
   17979    18005    18031    18054    18075    18099    18121    18138 
   18157    18175    18188    18200    18211    18220    18231    18239 
   18245    18247    18249    18255    18259    18260    18264    18266 
   18268    18278    18286    18287    18291    18300    18305    18311 
   18317    18316    18313    18316    18317    18311    18304    18296 
   18285    18270    18255    18235    18212    18187    18161    18134 
   18106    18079    18052    18024    17995    17968    17939    17910 
   17884    17858    17832    17805    17777    17751    17727    17702 
   17674    17647    17624    17603    17583    17560    17538    17523 
   17509    17492    17479    17467    17453    17444    17437    17424 
   17411    17405    17396    17384    17375    17365    17350    17340 
   17336    17329    17318    17311    17306    17300    17296    17294 
   17294    17295    17297    17296    17296    17301    17309    17315 
   17321    17332    17344    17356    17370    17385    17398    17412 
   17426    17438    17452    17463    17470    17478    17489    17495 
   17498    17505    17514    17521    17527    17534    17543    17555 
   17565    17572    17583    17594    17604    17613    17622    17628 
   17634    17646    17659    17664    17670    17680    17691    17703 
   17717    17728    17736    17747    17764    17779    17793    17806 
   17815    17827    17844    17858    17868    17881    17897    17909 
   17923    17940    17949    17956    17968    17980    17988    17994 
   18003    18006    18005    18008    18009    18004    18004    18006 
   17997    17989    17989    17984    17977    17973    17967    17958 
   17953    17950    17943    17935    17930    17924    17918    17914 
   17912    17908    17903    17898    17893    17891    17893    17887 
   17878    17874    17874    17871    17873    17875    17871    17871 
   17878    17883    17884    17892    17905    17915    17922    17932 
   17943    17955    17963    17971    17983    17993    17997    18003 
   18012    18017    18020    18025    18028    18025    18024    18023 
   18016    18010    18006    17999    17992    17990    17986    17977 
   17970    17966    17960    17955    17951    17947    17941    17936 
   17929    17926    17926    17922    17916    17913    17915    17918 
   17918    17915    17911    17908    17908    17907    17904    17898 
   17893    17889    17880    17874    17870    17865    17859    17851 
   17839    17828    17821    17808    17793    17779    17764    17748 
   17731    17711    17691    17671    17652    17632    17613    17595 
   17576    17555    17539    17525    17508    17498    17486    17469 
   17457    17449    17439    17432    17430    17427    17426    17426 
   17429    17433    17436    17441    17449    17460    17470    17483 
   17497    17509    17522    17538    17554    17567    17580    17598 
   17614    17627    17642    17657    17669    17683    17698    17709 
   17720    17732    17743    17750    17756    17760    17767    17775 
   17782    17788    17791    17797    17805    17808    17809    17813 
   17815    17818    17819    17820    17825    17829    17828    17830 
   17832    17833    17839    17847    17849    17853    17863    17874 
   17881    17890    17902    17910    17921    17936    17946    17953 
   17965    17977    17986    17992    17994    17998    18003    18005 
   18005    18001    17998    17993    17984    17974    17963    17952 
   17944    17935    17923    17913    17903    17893    17887    17883 
   17877    17869    17866    17866    17866    17865    17865    17867 
   17868    17874    17878    17879    17880    17882    17883    17883 
   17884    17886    17889    17890    17892    17892    17890    17888 
   17889    17895    17896    17893    17894    17894    17889    17887 
   17886    17883    17878    17876    17874    17870    17865    17860 
   17856    17850    17842    17834    17827    17820    17811    17800 
   17789    17779    17769    17759    17747    17736    17729    17715 
   17702    17696    17687    17677    17672    17663    17652    17646 
   17641    17632    17624    17620    17614    17607    17598    17588 
   17582    17576    17567    17558    17552    17548    17545    17542 
   17536    17534    17532    17528    17527    17530    17528    17528 
   17535    17541    17542    17546    17556    17570    17578    17586 
   17600    17615    17625    17637    17652    17666    17680    17692 
   17707    17721    17732    17745    17760    17774    17788    17804 
   17817    17830    17846    17862    17876    17891    17909    17927 
   17943    17958    17976    17992    18003    18015    18029    18042 
   18050    18057    18067    18077    18084    18092    18100    18102 
