Origin Time       2025/01/13 21:19:00
Lat.              31.8
Long.             131.6
Depth. (km)       30
Mag.              6.9
Station Code      SMNH02
Station Lat.      35.2235
Station Long.     133.0856
Station Height(m) 340
Record Time       2025/01/13 21:20:58
Sampling Freq(Hz) 100Hz
Duration Time(s)  120
Dir.              5
Scale Factor      7845(gal)/8223790
Max. Acc. (gal)   0.577
Last Correction   2025/01/13 21:21:00
Memo.             
[...]
    2763     2787     2806     2810     2794     2762     2727     2698 
    2686     2698     2731     2770     2802     2818     2816     2795 
    2772     2752     2725     2695     2673     2644     2619     2605 
    2594     2589     2600     2623     2648     2671     2695     2724 
    2747     2762     2762     2751     2731     2691     2635     2567 
    2500     2462     2471     2517     2582     2652     2710     2735 
    2725     2690     2636     2589     2565     2559     2581     2619 
    2641     2647     2621     2560     2502     2473     2471     2501 
    2560     2624     2659     2674     2677     2656     2631     2629 
    2639     2647     2655     2654     2635     2598     2548     2500 
    2470     2466     2486     2531     2582     2627     2648     2637 
    2602     2559     2520     2497     2485     2477     2475     2471 
    2465     2466     2477     2497     2532     2570     2604     2620 
    2621     2632     2640     2644     2655     2667     2670     2668 
    2677     2690     2709     2739     2754     2744     2725     2693 
    2631     2547     2466     2411     2390     2411     2465     2531 
    2579     2605     2612     2604     2585     2558     2531     2521 
    2540     2575     2609     2628     2619     2597     2581     2575 
    2586     2608     2627     2632     2632     2629     2610     2583 
    2554     2520     2490     2467     2447     2434     2430     2438 
    2461     2498     2550     2610     2656     2681     2691     2704 
    2720     2737     2768     2798     2809     2801     2766     2701 
    2629     2575     2554     2563     2596     2628     2647     2651 
    2640     2628     2629     2644     2663     2673     2670     2666 
    2662     2656     2652     2655     2663     2686     2729     2783 
    2826     2841     2851     2874     2890     2867     2814     2740 
    2646     2566     2524     2512     2535     2583     2650     2727 
    2803     2855     2871     2860     2824     2772     2720     2671 
    2639     2624     2621     2619     2610     2608     2620     2644 
    2671     2706     2748     2785     2820     2851     2853     2829 
    2795     2758     2710     2662     2610     2550     2486     2428 
    2373     2324     2295     2284     2281     2301     2347     2403 
    2470     2544     2598     2617     2612     2598     2586     2589 
    2612     2633     2637     2635     2628     2624     2628     2636 
    2650     2664     2681     2698     2705     2690     2648     2597 
    2569     2567     2587     2624     2662     2689     2693     2689 
    2683     2658     2628     2604     2569     2529     2498     2473 
    2452     2438     2434     2455     2500     2554     2601     2628 
    2628     2602     2574     2552     2528     2515     2521     2546 
    2567     2570     2560     2552     2544     2547     2571     2608 
    2632     2640     2640     2621     2582     2540     2498     2470 
    2461     2463     2475     2493     2515     2554     2608     2663 
    2704     2721     2717     2689     2650     2624     2610     2602 
    2612     2627     2627     2614     2593     2560     2528     2525 
    2551     2587     2620     2641     2640     2616     2583     2547 
    2512     2494     2504     2535     2567     2596     2613     2614 
    2601     2589     2590     2598     2609     2620     2619     2602 
    2581     2562     2543     2525     2512     2504     2502     2511 
    2528     2552     2575     2600     2633     2666     2686     2701 
    2704     2682     2646     2619     2597     2575     2569     2570 
    2565     2563     2571     2586     2612     2643     2663     2674 
    2685     2694     2695     2691     2681     2658     2637     2627 
    2619     2605     2589     2569     2542     2517     2512     2523 
    2542     2570     2590     2592     2583     2559     2520     2488 
    2473     2467     2470     2492     2521     2546     2573     2597 
    2590     2566     2546     2533     2528     2540     2570     2589 
    2586     2573     2552     2528     2505     2484     2470     2488 
    2533     2593     2655     2713     2745     2731     2681     2625 
    2571     2532     2519     2536     2575     2609     2627     2623 
    2594     2554     2512     2469     2432     2416     2419     2434 
    2461     2482     2477     2465     2465     2467     2475     2493 
    2511     2528     2544     2543     2523     2485     2434     2381 
    2332     2311     2326     2367     2419     2473     2524     2565 
    2585     2577     2532     2471     2424     2407     2419     2457 
    2511     2551     2565     2563     2559     2550     2544     2542 
    2536     2551     2574     2583     2601     2623     2644     2664 
    2685     2710     2740     2768     2802     2830     2833     2822 
    2810     2786     2754     2724     2694     2659     2629     2619 
    2629     2658     2690     2713     2728     2737     2747     2751 
    2749     2755     2759     2752     2737     2708     2660     2602 
    2551     2517     2502     2511     2536     2552     2563     2570 
    2562     2546     2529     2519     2531     2570     2617     2662 
    2691     2705     2701     2689     2683     2685     2693     2710 
    2740     2768     2790     2810     2828     2837     2844     2862 
    2887     2899     2886     2849     2794     2736     2691     2670 
    2664     2668     2674     2670     2655     2640     2623     2609 
    2600     2593     2590     2585     2570     2548     2523     2501 
    2498     2513     2539     2566     2586     2597     2614     2651 
    2700     2752     2797     2813     2810     2799     2778     2758 
    2745     2743     2752     2763     2772     2776     2768     2758 
    2755     2759     2775     2803     2837     2874     2909     2929 
    2936     2937     2932     2922     2920     2928     2941     2949 
    2945     2938     2941     2945     2938     2917     2878     2828 
    2782     2755     2744     2752     2775     2798     2810     2818 
    2837     2870     2897     2914     2929     2940     2936     2922 
    2894     2849     2808     2771     2731     2695     2677     2677 
    2694     2728     2774     2814     2843     2863     2870     2859 
    2832     2794     2744     2682     2621     2577     2543     2515 
    2500     2496     2493     2494     2512     2538     2562     2590 
    2620     2652     2691     2740     2794     2840     2863     2855 
    2818     2781     2755     2737     2731     2749     2771     2779 
    2789     2795     2791     2785     2782     2790     2805     2822 
    2839     2845     2839     2821     2791     2747     2690     2619 
    2542     2492     2471     2466     2474     2494     2524     2563 
    2601     2624     2641     2658     2667     2663     2652     2644 
    2644     2648     2664     2694     2713     2713     2701     2677 
    2648     2621     2600     2582     2562     2535     2506     2484 
    2462     2450     2443     2432     2425     2419     2413     2416 
    2427     2432     2425     2407     2374     2335     2296     2257 
    2228     2219     2231     2262     2303     2330     2332     2320 
    2305     2290     2270     2247     2231     2220     2211     2218 
    2230     2236     2253     2280     2292     2301     2320     2330 
    2332     2335     2342     2363     2393     2427     2466     2490 
    2489     2477     2458     2443     2454     2485     2515     2540 
    2560     2579     2594     2590     2583     2592     2604     2617 
    2644     2666     2670     2655     2617     2563     2520     2508 
    2515     2531     2554     2565     2559     2544     2520     2492 
    2471     2461     2462     2486     2523     2559     2585     2587 
    2571     2550     2523     2501     2488     2470     2457     2455 
    2455     2454     2455     2457     2463     2490     2525     2552 
    2571     2582     2586     2590     2604     2621     2637     2652 
    2664     2671     2677     2666     2641     2629     2640     2660 
    2678     2686     2677     2646     2609     2587     2577     2563 
    2543     2524     2508     2492     2484     2482     2474     2463 
    2454     2458     2478     2512     2552     2585     2601     2605 
    2602     2601     2605     2616     2641     2666     2670     2675 
    2693     2705     2720     2747     2789     2849     2917     2968 
    2997     3011     3017     3015     3013     3014     3015     3005 
    2988     2978     2957     2914     2872     2836     2805     2786 
    2776     2764     2751     2740     2729     2717     2702     2686 
    2667     2647     2625     2606     2592     2581     2562     2540 
    2525     2520     2517     2516     2517     2512     2498     2504 
    2531     2559     2583     2597     2587     2567     2550     2543 
    2542     2548     2575     2616     2662     2714     2764     2809 
    2847     2868     2870     2856     2835     2809     2786     2760 
    2725     2686     2647     2602     2544     2488     2442     2411 
    2394     2385     2385     2394     2407     2420     2438     2447 
    2444     2432     2411     2405     2436     2486     2542     2598 
    2643     2674     2701     2722     2748     2779     2794     2793 
    2781     2739     2677     2628     2601     2582     2579     2587 
    2592     2597     2605     2608     2606     2604     2606     2624 
    2648     2667     2671     2662     2641     2608     2565     2528 
    2506     2497     2488     2473     2458     2434     2397     2363 
    2347     2339     2347     2381     2409     2419     2425     2439 
    2452     2470     2498     2523     2533     2536     2538     2539 
    2540     2543     2540     2532     2528     2523     2520     2528 
    2536     2540     2533     2521     2519     2513     2506     2511 
    2513     2508     2504     2506     2506     2500     2482     2459 
    2438     2423     2427     2448     2474     2502     2540     2578 
    2621     2668     2709     2755     2806     2839     2851     2857 
    2863     2872     2890     2910     2920     2909     2883     2856 
    2836     2829     2824     2803     2770     2728     2687     2647 
    2597     2560     2546     2544     2575     2624     2658     2685 
    2718     2745     2766     2786     2805     2817     2828     2839 
    2840     2832     2820     2812     2814     2826     2849     2874 
    2884     2879     2872     2876     2880     2891     2905     2913 
    2917     2916     2891     2848     2805     2760     2725     2716 
    2732     2749     2759     2766     2754     2718     2674     2628 
    2589     2573     2579     2592     2600     2598     2579     2555 
    2540     2532     2531     2531     2512     2470     2417     2359 
    2307     2270     2246     2246     2273     2313     2361     2412 
    2457     2498     2550     2598     2641     2681     2710     2728 
    2737     2745     2748     2729     2706     2691     2678     2674 
    2681     2685     2677     2671     2677     2682     2682     2675 
    2660     2644     2625     2596     2563     2548     2552     2570 
    2601     2639     2670     2683     2683     2675     2670     2670 
    2679     2698     2714     2722     2736     2737     2722     2702 
    2685     2671     2666     2671     2673     2677     2686     2683 
    2670     2659     2639     2608     2573     2544     2528     2504 
    2478     2466     2446     2415     2393     2381     2369     2358 
    2357     2355     2346     2335     2331     2315     2290     2277 
    2261     2242     2231     2223     2211     2201     2205     2218 
    2231     2258     2292     2315     2342     2366     2371     2376 
    2381     2384     2396     2423     2446     2473     2515     2555 
    2593     2632     2667     2690     2694     2697     2704     2708 
    2718     2732     2733     2727     2716     2705     2690     2668 
    2656     2648     2635     2627     2609     2571     2525     2471 
    2425     2397     2376     2363     2359     2347     2330     2316 
    2305     2289     2276     2272     2280     2284     2281     2284 
    2289     2300     2324     2353     2376     2408     2447     2473 
    2494     2524     2546     2551     2551     2552     2547     2533 
    2529     2525     2516     2513     2511     2506     2504     2496 
    2484     2471     2470     2477     2477     2475     2473     2466 
    2462     2454     2438     2417     2403     2380     2355     2347 
    2349     2361     2378     2397     2428     2469     2498     2535 
    2592     2639     2674     2706     2729     2745     2762     2774 
    2786     2795     2806     2826     2855     2876     2887     2898 
    2901     2890     2882     2878     2867     2860     2863     2857 
    2843     2825     2791     2737     2686     2650     2623     2606 
    2602     2600     2600     2609     2619     2620     2624     2640 
    2662     2686     2717     2739     2755     2771     2775     2770 
    2762     2741     2706     2667     2621     2560     2501     2455 
    2420     2396     2392     2403     2420     2436     2457     2466 
    2458     2455     2463     2475     2496     2525     2550     2566 
    2578     2585     2586     2583     2587     2598     2619     2656 
    2695     2733     2786     2844     2897     2945     2992     3040 
    3080     3113     3145     3173     3196     3217     3217     3199 
    3177     3148     3111     3075     3045     3017     2979     2940 
    2894     2836     2775     2720     2664     2614     2587     2581 
    2583     2582     2560     2531     2509     2493     2478     2471 
    2482     2504     2525     2540     2554     2567     2581     2601 
    2636     2683     2727     2767     2802     2822     2833     2840 
    2840     2836     2830     2821     2803     2772     2724     2668 
    2613     2556     2506     2469     2435     2411     2404     2403 
    2390     2367     2350     2342     2347     2376     2417     2465 
    2504     2519     2521     2517     2508     2498     2496     2492 
    2485     2485     2481     2462     2438     2411     2384     2363 
    2357     2359     2370     2367     2349     2339     2340     2347 
    2366     2392     2419     2448     2477     2497     2511     2521 
    2524     2520     2521     2517     2502     2482     2451     2408 
    2365     2331     2311     2304     2308     2320     2344     2378 
    2408     2435     2461     2477     2500     2532     2570     2619 
    2671     2722     2768     2797     2813     2826     2829     2822 
    2825     2832     2829     2813     2782     2739     2687     2632 
    2582     2540     2504     2478     2462     2446     2432     2427 
    2421     2425     2448     2467     2485     2513     2539     2551 
    2560     2559     2548     2544     2551     2560     2573     2594 
    2623     2651     2685     2722     2758     2798     2844     2879 
    2899     2929     2956     2970     2971     2961     2945     2926 
    2902     2872     2836     2795     2755     2721     2690     2651 
    2614     2593     2577     2558     2543     2536     2529     2527 
    2529     2527     2523     2515     2501     2478     2442     2401 
    2369     2340     2307     2274     2245     2212     2187     2178 
    2178     2181     2188     2204     2220     2238     2262     2290 
    2319     2346     2374     2401     2427     2461     2502     2547 
    2592     2635     2673     2705     2727     2740     2756     2768 
    2779     2785     2775     2759     2739     2714     2693     2674 
    2654     2639     2641     2659     2681     2705     2717     2713 
    2694     2667     2641     2623     2612     2613     2627     2644 
    2666     2695     2732     2768     2797     2817     2837     2864 
    2884     2889     2884     2884     2886     2887     2893     2893 
    2886     2878     2875     2867     2848     2833     2824     2801 
    2767     2735     2702     2664     2623     2575     2535     2498 
    2452     2408     2366     2327     2303     2289     2284     2289 
    2304     2316     2322     2319     2308     2292     2274     2262 
    2255     2258     2266     2277     2297     2327     2357     2386 
    2421     2457     2496     2535     2567     2604     2646     2679 
    2705     2733     2758     2772     2781     2785     2782     2774 
    2770     2763     2758     2758     2752     2747     2743     2735 
    2737     2749     2760     2771     2781     2791     2806     2820 
    2829     2841     2851     2860     2879     2903     2929     2951 
    2961     2957     2941     2921     2895     2864     2826     2797 
    2772     2737     2701     2677     2660     2656     2650     2627 
    2613     2604     2569     2520     2489     2461     2425     2403 
    2409     2430     2457     2501     2552     2612     2685     2739 
    2785     2840     2886     2914     2940     2964     2983     2997 
    3001     2998     2984     2956     2932     2907     2872     2832 
    2797     2764     2728     2685     2636     2585     2540     2502 
    2461     2413     2363     2309     2266     2241     2218     2192 
    2176     2170     2181     2209     2249     2292     2340     2393 
    2450     2511     2571     2629     2683     2728     2770     2818 
    2868     2905     2924     2932     2922     2894     2862     2828 
    2781     2720     2667     2617     2566     2521     2473     2420 
    2371     2338     2313     2289     2263     2243     2215     2187 
    2178     2181     2185     2196     2215     2231     2253     2280 
    2309     2338     2374     2415     2458     2509     2563     2613 
    2660     2704     2737     2754     2759     2766     2772     2770 
    2764     2766     2766     2760     2755     2741     2721     2700 
    2675     2658     2648     2646     2648     2646     2635     2627 
    2620     2602     2583     2567     2560     2571     2601     2639 
    2674     2701     2713     2717     2722     2725     2733     2751 
    2767     2783     2794     2794     2781     2759     2736     2714 
    2697     2679     2659     2640     2621     2593     2556     2521 
    2482     2438     2407     2385     2362     2346     2347     2354 
    2363     2377     2392     2403     2408     2415     2428     2446 
    2459     2474     2493     2508     2517     2527     2531     2529 
    2529     2525     2527     2544     2563     2578     2592     2605 
    2624     2641     2659     2685     2713     2735     2758     2790 
    2816     2824     2825     2821     2810     2801     2791     2776 
    2760     2743     2725     2717     2721     2727     2728     2720 
    2704     2687     2663     2625     2594     2571     2547     2532 
    2527     2519     2519     2533     2556     2592     2643     2704 
    2763     2824     2874     2910     2945     2965     2967     2960 
    2948     2940     2944     2956     2960     2959     2961     2964 
    2960     2957     2957     2953     2951     2952     2957     2956 
    2936     2903     2866     2822     2785     2752     2720     2681 
    2644     2608     2567     2531     2497     2461     2432     2407 
