Origin Time       2025/01/13 21:19:00
Lat.              31.8
Long.             131.6
Depth. (km)       30
Mag.              6.9
Station Code      SMNH03
Station Lat.      35.2243
Station Long.     132.7223
Station Height(m) 110
Record Time       2025/01/13 21:21:29
Sampling Freq(Hz) 100Hz
Duration Time(s)  120
Dir.              4
Scale Factor      7845(gal)/8223790
Max. Acc. (gal)   1.551
Last Correction   2025/01/13 21:21:29
Memo.             
[...]
   12182    12202    12248    12309    12378    12445    12503    12542 
   12555    12541    12506    12456    12407    12374    12353    12352 
   12368    12394    12421    12442    12456    12464    12460    12444 
   12426    12409    12382    12352    12324    12289    12248    12204 
   12156    12106    12069    12046    12033    12033    12039    12044 
   12050    12052    12047    12039    12028    12016    12008    12010 
   12025    12054    12089    12110    12110    12093    12062    12020 
   11975    11938    11909    11894    11900    11921    11956    12001 
   12042    12070    12081    12075    12066    12063    12067    12083 
   12110    12141    12172    12204    12231    12249    12262    12266 
   12262    12251    12237    12224    12220    12229    12253    12285 
   12318    12355    12384    12398    12398    12382    12348    12309 
   12278    12255    12245    12251    12264    12286    12314    12340 
   12359    12367    12352    12314    12263    12202    12131    12054 
   11979    11913    11858    11820    11808    11821    11859    11919 
   12002    12096    12190    12270    12321    12348    12353    12343 
   12328    12310    12291    12276    12268    12267    12272    12285 
   12306    12324    12341    12360    12380    12395    12399    12390 
   12364    12332    12301    12278    12263    12256    12253    12251 
   12247    12231    12206    12179    12152    12132    12125    12129 
   12140    12156    12177    12204    12229    12247    12247    12224 
   12189    12155    12128    12116    12118    12127    12135    12148 
   12170    12189    12198    12195    12187    12174    12158    12143 
   12129    12118    12108    12102    12094    12086    12089    12100 
   12101    12086    12059    12028    12009    12009    12015    12020 
   12028    12040    12060    12083    12100    12109    12110    12102 
   12100    12110    12132    12155    12181    12206    12225    12241 
   12258    12267    12268    12260    12247    12231    12208    12178 
   12145    12108    12066    12028    11997    11977    11966    11965 
   11975    11993    12010    12020    12017    12009    11996    11979 
   11956    11928    11888    11838    11788    11749    11723    11713 
   11724    11749    11784    11826    11865    11900    11923    11936 
   11943    11943    11935    11923    11917    11927    11948    11978 
   12015    12052    12091    12136    12182    12222    12248    12258 
   12253    12247    12245    12249    12259    12278    12303    12336 
   12380    12437    12498    12559    12617    12669    12708    12723 
   12722    12703    12658    12596    12533    12476    12436    12414 
   12410    12424    12451    12479    12499    12506    12502    12488 
   12464    12428    12384    12345    12307    12267    12225    12183 
   12141    12105    12070    12031    11983    11932    11877    11823 
   11773    11724    11674    11637    11614    11610    11626    11653 
   11686    11738    11804    11880    11961    12044    12116    12166 
   12193    12197    12185    12166    12150    12141    12150    12182 
   12240    12314    12394    12468    12532    12584    12626    12654 
   12667    12669    12667    12656    12634    12609    12575    12532 
   12492    12461    12430    12403    12375    12339    12289    12226 
   12159    12097    12050    12020    12008    12012    12035    12069 
   12109    12145    12172    12189    12195    12189    12170    12141 
   12102    12060    12023    11983    11948    11920    11898    11886 
   11885    11888    11898    11909    11911    11912    11917    11927 
   11934    11942    11951    11955    11952    11942    11915    11873 
   11826    11785    11758    11751    11761    11781    11800    11816 
   11827    11838    11850    11857    11869    11885    11900    11916 
   11934    11947    11962    11981    12002    12028    12066    12118 
   12181    12253    12330    12405    12469    12521    12549    12555 
   12549    12536    12525    12528    12537    12549    12564    12576 
   12582    12582    12567    12538    12498    12449    12399    12357 
   12330    12316    12310    12312    12317    12314    12302    12280 
   12245    12197    12135    12067    12010    11978    11971    11986 
   12021    12069    12123    12179    12235    12280    12313    12324 
   12317    12302    12287    12280    12286    12303    12333    12372 
   12417    12463    12506    12541    12565    12579    12583    12576 
   12559    12533    12502    12468    12438    12414    12399    12395 
   12398    12407    12420    12433    12444    12445    12425    12383 
   12322    12262    12208    12160    12127    12109    12101    12105 
   12116    12120    12112    12082    12033    11974    11915    11863 
   11826    11799    11782    11778    11774    11769    11758    11739 
   11716    11693    11672    11657    11647    11642    11645    11657 
   11682    11727    11790    11869    11961    12062    12167    12270 
   12357    12422    12460    12472    12468    12456    12442    12430 
   12421    12413    12402    12386    12355    12312    12256    12189 
   12114    12040    11965    11893    11828    11767    11716    11677 
   11646    11622    11600    11584    11569    11554    11547    11551 
   11564    11588    11620    11657    11695    11728    11761    11786 
   11807    11824    11838    11843    11843    11839    11838    11851 
   11886    11938    12008    12101    12208    12317    12421    12511 
   12582    12629    12654    12660    12650    12629    12594    12556 
   12519    12491    12476    12471    12476    12491    12510    12530 
   12546    12557    12556    12545    12526    12505    12483    12456 
   12426    12395    12361    12328    12301    12279    12263    12252 
   12247    12253    12274    12298    12317    12326    12322    12301 
   12266    12224    12174    12118    12059    12001    11955    11924 
   11894    11858    11817    11770    11723    11681    11643    11611 
   11585    11564    11546    11535    11535    11545    11557    11572 
   11595    11630    11670    11707    11735    11761    11778    11793 
   11815    11840    11865    11896    11943    11998    12056    12112 
   12162    12205    12243    12280    12317    12348    12376    12399 
   12422    12447    12480    12530    12591    12658    12730    12792 
   12839    12868    12866    12837    12787    12725    12663    12606 
   12555    12514    12488    12464    12434    12403    12364    12305 
   12233    12164    12093    12027    11977    11942    11919    11916 
   11927    11952    11993    12039    12089    12151    12218    12280 
   12330    12368    12386    12383    12366    12339    12299    12251 
   12198    12150    12112    12083    12064    12056    12062    12082 
   12116    12152    12187    12218    12236    12241    12243    12240 
   12229    12216    12204    12183    12163    12150    12139    12131 
   12132    12140    12158    12185    12222    12268    12318    12371 
   12425    12479    12532    12582    12622    12652    12676    12700 
   12733    12771    12814    12864    12918    12972    13018    13055 
   13074    13069    13043    13000    12933    12856    12780    12710 
   12649    12603    12565    12529    12496    12461    12414    12360 
   12303    12244    12182    12124    12074    12029    11994    11974 
   11963    11955    11954    11955    11956    11965    11981    11994 
   11998    11992    11973    11943    11907    11871    11846    11830 
   11827    11844    11878    11923    11974    12021    12063    12100 
   12125    12135    12129    12112    12087    12064    12048    12037 
   12031    12031    12032    12037    12051    12067    12077    12081 
   12081    12077    12073    12071    12073    12082    12100    12114 
   12125    12127    12112    12081    12044    12004    11959    11913 
   11867    11812    11757    11712    11680    11661    11654    11659 
   11670    11684    11700    11715    11724    11728    11727    11718 
   11705    11696    11681    11662    11641    11611    11574    11538 
   11503    11469    11439    11406    11367    11322    11273    11227 
   11191    11168    11164    11178    11209    11263    11335    11419 
   11508    11589    11653    11703    11743    11776    11796    11812 
   11832    11862    11908    11971    12044    12118    12193    12264 
   12330    12393    12452    12509    12563    12610    12645    12664 
   12663    12650    12636    12626    12627    12642    12665    12699 
   12738    12783    12826    12857    12865    12849    12811    12761 
   12703    12645    12594    12550    12514    12501    12507    12530 
   12571    12622    12677    12742    12812    12884    12962    13042 
   13116    13182    13239    13274    13285    13277    13248    13205 
   13151    13093    13034    12974    12922    12877    12839    12815 
   12803    12796    12798    12803    12815    12834    12847    12852 
   12850    12838    12814    12781    12739    12683    12613    12541 
   12479    12429    12398    12384    12384    12398    12421    12447 
   12475    12498    12502    12490    12464    12420    12363    12307 
   12247    12185    12132    12089    12050    12016    11990    11967 
   11940    11900    11846    11781    11707    11630    11551    11475 
   11398    11321    11250    11187    11130    11083    11053    11037 
   11028    11024    11022    11017    11006    10991    10974    10963 
   10959    10966    10993    11043    11110    11195    11294    11389 
   11473    11546    11601    11645    11684    11726    11773    11821 
   11870    11916    11958    12000    12042    12079    12106    12127 
   12144    12155    12163    12166    12162    12150    12129    12100 
   12063    12028    11992    11956    11925    11902    11886    11875 
   11874    11888    11912    11946    11993    12040    12078    12108 
   12127    12139    12148    12152    12147    12139    12124    12105 
   12087    12071    12063    12070    12094    12133    12189    12258 
   12340    12433    12522    12610    12695    12772    12841    12899 
   12953    13000    13031    13053    13073    13088    13103    13116 
   13123    13128    13135    13138    13136    13128    13109    13085 
   13055    13022    12982    12938    12884    12820    12753    12683 
   12614    12541    12463    12383    12307    12237    12163    12085 
   12005    11923    11838    11753    11670    11593    11523    11460 
   11407    11369    11344    11326    11314    11304    11294    11279 
   11263    11249    11238    11232    11234    11246    11272    11313 
   11365    11429    11497    11570    11642    11705    11766    11828 
   11890    11948    12001    12035    12050    12052    12048    12036 
   12017    12000    11985    11965    11943    11916    11882    11848 
   11817    11785    11757    11738    11724    11724    11734    11747 
   11763    11780    11792    11805    11826    11853    11888    11932 
   11982    12036    12098    12168    12243    12318    12391    12461 
   12523    12579    12623    12654    12672    12680    12681    12672 
   12656    12640    12625    12615    12609    12604    12604    12599 
   12591    12582    12567    12546    12521    12492    12468    12453 
   12448    12449    12459    12478    12503    12522    12534    12538 
   12529    12502    12465    12421    12374    12337    12314    12297 
   12285    12283    12289    12293    12302    12318    12332    12334 
   12329    12316    12299    12282    12263    12244    12229    12213 
   12199    12193    12193    12199    12218    12249    12287    12328 
   12367    12405    12434    12452    12463    12472    12482    12495 
   12514    12530    12548    12569    12584    12588    12576    12546 
   12509    12463    12410    12363    12318    12271    12232    12201 
   12171    12141    12104    12054    12002    11948    11894    11847 
   11804    11767    11740    11728    11728    11734    11742    11753 
   11763    11776    11786    11796    11803    11807    11807    11805 
   11804    11799    11794    11793    11786    11780    11774    11772 
   11776    11790    11817    11861    11921    11989    12060    12137 
   12212    12282    12351    12420    12480    12530    12577    12613 
   12631    12638    12631    12604    12560    12503    12444    12387 
   12344    12320    12310    12314    12332    12355    12374    12386 
   12388    12380    12359    12330    12301    12275    12255    12244 
   12243    12253    12270    12291    12316    12337    12356    12372 
   12378    12378    12372    12360    12347    12334    12322    12313 
   12306    12305    12309    12320    12337    12360    12386    12409 
   12425    12436    12437    12428    12406    12374    12336    12302 
   12279    12272    12275    12282    12290    12289    12279    12256 
   12218    12167    12110    12050    11997    11950    11902    11854 
   11807    11758    11705    11654    11610    11570    11538    11516 
   11503    11496    11500    11511    11524    11541    11556    11564 
   11557    11533    11495    11445    11379    11306    11232    11156 
   11091    11044    11011    10995    11003    11033    11075    11130 
   11196    11257    11315    11373    11423    11465    11510    11558 
   11618    11700    11809    11936    12078    12235    12401    12575 
   12752    12923    13085    13235    13374    13494    13591    13668 
   13724    13759    13778    13786    13782    13765    13734    13698 
   13656    13603    13548    13494    13443    13392    13342    13292 
   13232    13163    13089    13004    12903    12795    12688    12584 
   12488    12403    12326    12258    12194    12127    12058    11985 
   11901    11811    11718    11624    11529    11434    11340    11252 
   11173    11111    11063    11028    11005    10998    11007    11030 
   11059    11080    11091    11090    11082    11068    11053    11033 
   11021    11028    11048    11083    11129    11183    11244    11306 
   11358    11402    11437    11461    11485    11511    11539    11573 
   11605    11638    11670    11707    11740    11769    11796    11827 
   11865    11919    11985    12055    12133    12213    12289    12364 
   12436    12494    12538    12567    12579    12577    12565    12545 
   12515    12483    12453    12425    12407    12405    12413    12430 
   12456    12478    12501    12528    12553    12577    12602    12621 
   12637    12654    12668    12683    12703    12731    12768    12815 
   12869    12926    12982    13032    13076    13111    13134    13142 
   13138    13123    13103    13084    13069    13057    13046    13041 
   13042    13050    13068    13086    13100    13112    13123    13130 
   13132    13126    13113    13096    13069    13030    12978    12915 
   12838    12750    12660    12571    12487    12417    12364    12328 
   12302    12283    12274    12270    12260    12247    12220    12177 
   12121    12060    11992    11915    11832    11745    11659    11587 
   11531    11492    11465    11448    11442    11441    11442    11438 
   11429    11418    11403    11383    11367    11353    11338    11327 
   11321    11310    11299    11288    11272    11252    11227    11203 
   11176    11145    11115    11083    11057    11049    11056    11082 
   11128    11192    11269    11353    11439    11529    11618    11704 
   11781    11846    11905    11959    12002    12040    12077    12116 
   12156    12197    12244    12290    12325    12353    12384    12411 
   12441    12479    12517    12556    12596    12633    12667    12699 
   12730    12752    12768    12785    12812    12843    12876    12910 
   12939    12969    13000    13032    13063    13090    13112    13127 
   13130    13123    13105    13072    13015    12950    12881    12811 
   12746    12688    12636    12588    12550    12518    12486    12449 
   12407    12360    12303    12237    12172    12109    12040    11973 
   11911    11851    11801    11766    11742    11727    11722    11727 
   11743    11766    11790    11819    11843    11862    11873    11877 
   11870    11854    11831    11811    11800    11789    11781    11784 
   11792    11800    11805    11803    11790    11769    11739    11705 
   11670    11637    11611    11597    11595    11603    11620    11651 
   11700    11753    11804    11858    11904    11934    11952    11956 
   11946    11923    11885    11835    11780    11727    11677    11634 
   11599    11572    11558    11553    11553    11561    11574    11593 
   11618    11654    11699    11751    11815    11880    11940    11993 
   12032    12056    12074    12081    12082    12087    12097    12106 
   12124    12150    12179    12213    12251    12290    12333    12378 
   12426    12475    12523    12569    12606    12633    12653    12665 
   12671    12669    12664    12654    12642    12627    12611    12596 
   12586    12576    12567    12564    12568    12573    12583    12592 
   12596    12599    12602    12602    12603    12609    12614    12615 
   12614    12614    12609    12596    12583    12560    12529    12495 
   12453    12403    12355    12305    12258    12222    12194    12177 
   12177    12185    12202    12228    12251    12271    12291    12303 
   12310    12313    12310    12309    12307    12309    12317    12329 
   12344    12366    12391    12424    12460    12495    12528    12550 
   12565    12580    12596    12609    12615    12618    12615    12603 
   12580    12545    12487    12413    12334    12251    12163    12083 
   12015    11952    11900    11855    11817    11781    11745    11708 
   11670    11631    11589    11541    11487    11427    11372    11323 
   11284    11259    11241    11227    11217    11207    11194    11180 
   11172    11171    11178    11192    11219    11260    11308    11362 
   11422    11480    11537    11593    11649    11696    11743    11796 
   11853    11913    11981    12056    12140    12235    12337    12442 
   12546    12646    12734    12806    12854    12887    12897    12892 
   12872    12839    12803    12766    12729    12694    12664    12634 
   12606    12580    12548    12509    12468    12428    12388    12351 
   12320    12291    12264    12248    12245    12244    12241    12232 
   12216    12191    12163    12124    12081    12039    11996    11956 
   11934    11923    11923    11936    11954    11975    12005    12036 
   12064    12089    12108    12121    12136    12156    12174    12189 
   12206    12222    12239    12253    12266    12271    12270    12267 
   12264    12259    12255    12248    12243    12244    12251    12263 
   12285    12317    12360    12411    12471    12536    12599    12656 
   12703    12738    12758    12766    12764    12753    12735    12715 
   12688    12656    12619    12576    12532    12483    12429    12374 
   12317    12255    12189    12125    12067    12009    11952    11898 
   11848    11803    11761    11724    11691    11666    11651    11642 
   11632    11623    11608    11591    11576    11565    11561    11556 
   11556    11564    11576    11596    11616    11634    11650    11664 
   11670    11674    11672    11664    11653    11643    11641    11646 
   11657    11681    11711    11742    11780    11817    11854    11893 
