Origin Time       2025/01/13 21:19:00
Lat.              31.8
Long.             131.6
Depth. (km)       30
Mag.              6.9
Station Code      SMNH16
Station Lat.      35.3422
Station Long.     132.8989
Station Height(m) -53.5
Record Time       2025/01/13 21:20:45
Sampling Freq(Hz) 100Hz
Duration Time(s)  132
Dir.              1
Scale Factor      2940(gal)/6170270
Max. Acc. (gal)   0.625
Last Correction   2025/01/13 21:20:30
Memo.             
[...]
  285744   285723   285700   285682   285664   285648   285640   285637 
  285635   285635   285635   285636   285640   285644   285647   285652 
  285656   285659   285665   285674   285683   285690   285696   285703 
  285711   285716   285719   285723   285728   285735   285742   285752 
  285770   285792   285816   285839   285860   285882   285905   285928 
  285950   285972   285995   286015   286033   286049   286066   286084 
  286102   286120   286133   286141   286148   286155   286162   286171 
  286179   286186   286193   286196   286197   286196   286192   286189 
  286184   286176   286168   286161   286150   286140   286131   286124 
  286115   286105   286096   286087   286076   286069   286066   286068 
  286075   286083   286090   286101   286116   286130   286137   286138 
  286140   286141   286135   286129   286128   286121   286109   286099 
  286092   286086   286083   286081   286076   286068   286061   286051 
  286038   286024   286011   285995   285973   285948   285918   285884 
  285850   285819   285789   285761   285731   285700   285672   285647 
  285621   285596   285577   285563   285551   285542   285538   285545 
  285557   285565   285573   285586   285599   285610   285625   285644 
  285662   285679   285699   285719   285737   285754   285772   285792 
  285817   285848   285882   285919   285958   285995   286028   286060 
  286094   286129   286165   286201   286234   286257   286272   286281 
  286284   286284   286284   286279   286274   286272   286264   286251 
  286238   286221   286199   286179   286159   286141   286122   286102 
  286085   286070   286057   286045   286036   286030   286025   286017 
  286008   285999   285986   285971   285959   285949   285941   285935 
  285930   285927   285927   285923   285913   285902   285895   285886 
  285882   285881   285876   285869   285865   285862   285861   285863 
  285862   285862   285863   285862   285862   285866   285868   285865 
  285862   285860   285858   285854   285851   285851   285854   285858 
  285863   285869   285876   285884   285891   285899   285906   285915 
  285926   285937   285943   285948   285955   285963   285975   285991 
  286008   286024   286042   286057   286070   286080   286088   286096 
  286104   286111   286117   286127   286137   286143   286147   286155 
  286162   286164   286166   286169   286170   286169   286166   286164 
  286160   286154   286145   286137   286133   286130   286128   286127 
  286123   286118   286113   286105   286098   286094   286093   286097 
  286101   286107   286112   286117   286123   286130   286141   286153 
  286164   286175   286188   286200   286212   286223   286234   286243 
  286251   286255   286256   286256   286251   286242   286233   286221 
  286205   286184   286158   286128   286095   286060   286027   285991 
  285953   285910   285865   285824   285785   285748   285712   285680 
  285651   285627   285606   285585   285566   285550   285531   285510 
  285493   285481   285472   285469   285472   285479   285487   285499 
  285519   285539   285558   285580   285602   285622   285648   285682 
  285719   285754   285791   285830   285861   285888   285913   285934 
  285953   285970   285983   285992   286001   286010   286014   286017 
  286020   286021   286024   286029   286030   286031   286033   286034 
  286036   286039   286042   286047   286057   286065   286069   286072 
  286070   286064   286060   286060   286055   286047   286042   286040 
  286039   286037   286035   286031   286031   286035   286041   286045 
  286043   286044   286049   286052   286057   286064   286072   286087 
  286103   286118   286136   286152   286166   286180   286192   286201 
  286211   286220   286224   286227   286232   286233   286230   286227 
  286227   286222   286212   286201   286186   286169   286155   286139 
  286120   286099   286078   286055   286037   286020   286002   285982 
  285964   285949   285932   285913   285896   285879   285864   285853 
  285839   285818   285795   285776   285759   285746   285733   285722 
  285712   285703   285696   285691   285683   285680   285681   285682 
  285688   285694   285700   285711   285723   285733   285746   285760 
  285772   285781   285787   285792   285795   285797   285799   285802 
  285805   285808   285816   285824   285827   285831   285837   285840 
  285843   285852   285863   285874   285886   285900   285914   285929 
  285945   285962   285976   285989   286006   286027   286046   286062 
  286081   286100   286118   286139   286163   286187   286205   286222 
  286241   286259   286276   286292   286308   286323   286335   286347 
  286356   286361   286364   286367   286362   286351   286341   286329 
  286316   286309   286300   286283   286269   286253   286232   286205 
  286180   286157   286135   286112   286087   286062   286036   286003 
  285965   285930   285897   285863   285830   285797   285763   285732 
  285702   285673   285642   285610   285577   285546   285521   285499 
  285481   285468   285455   285444   285440   285438   285439   285450 
  285464   285478   285497   285522   285547   285571   285592   285610 
  285625   285640   285661   285685   285706   285727   285747   285762 
  285777   285794   285810   285824   285838   285852   285868   285888 
  285913   285943   285974   286004   286036   286069   286100   286130 
  286161   286201   286240   286271   286298   286322   286338   286351 
  286364   286377   286390   286404   286416   286427   286437   286445 
  286454   286467   286481   286495   286510   286526   286538   286549 
  286558   286563   286564   286567   286566   286557   286543   286527 
  286506   286483   286454   286421   286387   286352   286309   286264 
  286217   286169   286123   286076   286032   285996   285962   285932 
  285906   285877   285847   285817   285782   285745   285713   285684 
  285653   285627   285604   285579   285557   285540   285526   285516 
  285510   285505   285504   285506   285507   285510   285517   285530 
  285546   285562   285578   285592   285607   285621   285636   285653 
  285672   285693   285714   285735   285755   285774   285792   285808 
  285830   285857   285884   285910   285937   285962   285988   286014 
  286039   286063   286085   286105   286123   286137   286145   286151 
  286156   286159   286159   286157   286160   286162   286160   286160 
  286163   286163   286164   286168   286174   286182   286192   286205 
  286222   286240   286254   286269   286288   286305   286326   286352 
  286379   286407   286438   286471   286504   286535   286560   286586 
  286619   286652   286682   286717   286760   286800   286833   286861 
  286884   286903   286924   286944   286957   286968   286979   286983 
  286980   286975   286965   286949   286928   286899   286871   286845 
  286812   286775   286737   286696   286652   286604   286556   286508 
  286459   286410   286361   286309   286255   286200   286143   286083 
  286022   285965   285907   285847   285790   285734   285679   285626 
  285578   285531   285487   285446   285408   285370   285334   285303 
  285275   285250   285230   285213   285197   285183   285169   285156 
  285146   285139   285132   285126   285122   285118   285115   285116 
  285124   285132   285139   285151   285167   285184   285204   285230 
  285260   285294   285331   285372   285413   285454   285494   285534 
  285572   285612   285655   285698   285739   285780   285820   285860 
  285900   285936   285969   286002   286039   286073   286103   286129 
  286153   286178   286202   286224   286246   286270   286289   286302 
  286312   286320   286322   286319   286312   286301   286288   286273 
  286251   286223   286195   286164   286130   286096   286059   286020 
  285983   285949   285917   285885   285852   285819   285791   285766 
  285740   285715   285691   285667   285645   285625   285604   285583 
  285566   285551   285536   285521   285506   285492   285481   285475 
  285473   285472   285475   285478   285481   285483   285491   285502 
  285512   285523   285540   285555   285567   285584   285603   285617 
  285633   285654   285674   285690   285708   285729   285747   285762 
  285780   285798   285815   285833   285852   285873   285897   285921 
  285942   285961   285985   286010   286032   286054   286076   286094 
  286107   286118   286129   286141   286147   286151   286158   286160 
  286157   286158   286156   286149   286145   286147   286147   286149 
  286148   286144   286141   286139   286137   286132   286121   286109 
  286100   286091   286080   286068   286056   286043   286029   286012 
  285996   285982   285966   285951   285941   285928   285915   285902 
  285889   285878   285872   285871   285869   285865   285865   285869 
  285869   285871   285878   285884   285891   285902   285917   285932 
  285953   285977   285996   286017   286044   286068   286088   286110 
  286133   286148   286160   286174   286188   286198   286207   286211 
  286212   286216   286218   286214   286211   286204   286189   286171 
  286150   286128   286107   286083   286058   286029   285996   285963 
  285928   285895   285865   285835   285804   285773   285745   285716 
  285689   285666   285646   285630   285621   285618   285618   285622 
  285632   285641   285653   285673   285696   285720   285750   285781 
  285810   285841   285879   285914   285947   285984   286020   286057 
  286096   286138   286185   286232   286278   286325   286367   286411 
  286458   286499   286531   286564   286595   286621   286644   286662 
  286673   286680   286686   286692   286696   286698   286698   286697 
  286693   286686   286682   286676   286663   286652   286641   286627 
  286613   286602   286592   286578   286562   286548   286531   286508 
  286489   286473   286450   286424   286405   286385   286360   286338 
  286317   286295   286273   286249   286225   286202   286176   286147 
  286122   286098   286073   286047   286024   286001   285977   285958 
  285938   285914   285889   285865   285840   285819   285798   285777 
  285759   285742   285727   285712   285700   285693   285684   285674 
  285670   285667   285666   285669   285673   285678   285680   285678 
  285678   285680   285681   285687   285694   285699   285705   285713 
  285723   285735   285749   285764   285780   285799   285823   285845 
  285869   285895   285919   285939   285962   285988   286015   286046 
  286079   286113   286147   286183   286218   286255   286293   286333 
  286373   286413   286452   286490   286528   286563   286596   286626 
  286652   286674   286692   286709   286723   286733   286738   286741 
  286738   286729   286717   286703   286684   286664   286645   286624 
  286602   286581   286557   286533   286510   286485   286457   286425 
  286390   286353   286313   286268   286220   286169   286110   286043 
  285973   285900   285824   285753   285684   285613   285542   285474 
  285409   285346   285285   285224   285167   285116   285072   285032 
  284994   284959   284929   284906   284888   284871   284859   284856 
  284857   284858   284861   284871   284886   284902   284920   284947 
  284976   285009   285049   285095   285145   285204   285270   285343 
  285418   285495   285577   285664   285751   285839   285927   286012 
  286091   286166   286238   286308   286373   286434   286485   286529 
  286569   286600   286625   286645   286657   286662   286660   286654 
  286639   286617   286593   286565   286531   286496   286456   286411 
  286364   286315   286265   286216   286162   286109   286059   286007 
  285956   285909   285864   285823   285783   285747   285714   285683 
  285657   285637   285615   285594   285578   285563   285548   285536 
  285528   285520   285518   285518   285515   285516   285520   285524 
  285528   285531   285533   285531   285526   285521   285512   285501 
  285489   285475   285460   285443   285424   285404   285383   285365 
  285350   285337   285327   285319   285312   285307   285303   285302 
  285305   285312   285320   285332   285347   285362   285380   285404 
  285425   285446   285469   285492   285514   285539   285564   285589 
  285616   285644   285674   285706   285739   285776   285812   285848 
  285883   285918   285953   285984   286015   286043   286072   286100 
  286124   286144   286166   286188   286206   286219   286230   286241 
  286250   286258   286267   286274   286282   286295   286310   286329 
  286348   286366   286386   286409   286431   286453   286474   286494 
  286515   286535   286555   286569   286583   286597   286605   286607 
  286609   286610   286607   286604   286599   286590   286578   286564 
  286547   286529   286512   286492   286466   286436   286407   286379 
  286349   286317   286286   286254   286219   286184   286155   286128 
  286100   286070   286046   286024   286002   285985   285974   285968 
  285965   285966   285972   285979   285990   286007   286027   286049 
  286075   286103   286131   286161   286194   286224   286253   286284 
  286317   286346   286368   286387   286407   286424   286436   286444 
  286453   286457   286458   286455   286450   286444   286431   286413 
  286393   286366   286333   286296   286254   286208   286156   286099 
  286035   285968   285899   285824   285747   285669   285590   285513 
  285434   285356   285280   285207   285139   285075   285015   284957 
  284901   284851   284809   284770   284736   284709   284689   284674 
  284665   284666   284674   284688   284714   284752   284795   284848 
  284912   284977   285048   285132   285219   285306   285401   285500 
  285598   285700   285801   285901   286002   286100   286196   286291 
  286380   286464   286543   286618   286687   286748   286801   286851 
  286896   286933   286964   286987   287005   287019   287019   287009 
  286995   286973   286942   286901   286854   286806   286751   286690 
  286628   286563   286496   286426   286353   286279   286208   286136 
  286064   285997   285932   285867   285804   285744   285687   285634 
  285590   285555   285526   285497   285474   285461   285451   285445 
  285449   285458   285468   285482   285503   285530   285559   285587 
  285618   285656   285698   285738   285780   285821   285862   285904 
  285944   285983   286024   286065   286106   286145   286181   286215 
  286248   286280   286309   286336   286361   286382   286401   286414 
  286421   286426   286427   286424   286418   286409   286400   286393 
  286384   286368   286350   286333   286315   286293   286268   286241 
  286212   286182   286153   286123   286092   286064   286039   286011 
  285984   285960   285937   285914   285893   285876   285858   285841 
  285829   285820   285811   285808   285810   285817   285826   285836 
  285848   285862   285878   285891   285907   285925   285939   285954 
  285967   285977   285988   285997   286004   286013   286021   286027 
  286032   286037   286042   286044   286046   286050   286051   286051 
  286056   286063   286064   286066   286073   286078   286078   286084 
  286091   286094   286097   286100   286099   286099   286101   286100 
  286098   286099   286103   286106   286110   286114   286117   286119 
  286122   286125   286122   286116   286107   286094   286083   286070 
  286054   286039   286021   286000   285980   285961   285942   285923 
  285905   285887   285870   285858   285849   285839   285831   285829 
  285829   285828   285832   285840   285848   285857   285869   285881 
  285890   285900   285910   285918   285924   285930   285938   285946 
  285951   285953   285957   285964   285970   285976   285986   285995 
  285998   286002   286012   286021   286029   286038   286045   286052 
  286059   286068   286077   286083   286087   286091   286096   286098 
  286100   286103   286106   286109   286114   286121   286129   286140 
  286152   286164   286176   286188   286199   286206   286211   286219 
  286224   286225   286224   286220   286213   286205   286193   286179 
  286164   286146   286126   286105   286077   286047   286015   285979 
  285940   285896   285848   285800   285751   285697   285638   285579 
  285520   285459   285401   285347   285292   285239   285191   285147 
  285107   285073   285046   285024   285006   284989   284981   284982 
  284987   284998   285017   285041   285073   285111   285154   285203 
  285255   285309   285366   285424   285486   285549   285609   285668 
  285730   285793   285857   285919   285979   286039   286098   286150 
  286202   286255   286303   286347   286392   286435   286473   286508 
  286540   286572   286604   286631   286656   286681   286705   286727 
  286748   286764   286777   286793   286804   286808   286809   286810 
  286805   286795   286782   286763   286741   286714   286683   286650 
  286618   286581   286546   286513   286478   286442   286407   286370 
  286337   286305   286273   286241   286209   286174   286138   286104 
  286068   286030   285994   285956   285917   285882   285849   285816 
  285783   285749   285719   285691   285663   285638   285617   285597 
  285577   285561   285546   285532   285523   285517   285512   285513 
  285516   285516   285520   285527   285532   285540   285554   285567 
  285577   285586   285598   285612   285627   285644   285665   285684 
  285703   285727   285751   285771   285794   285818   285840   285868 
  285899   285929   285959   285991   286021   286050   286078   286107 
  286136   286161   286186   286208   286225   286242   286258   286268 
  286276   286279   286275   286271   286266   286254   286239   286223 
  286204   286184   286164   286144   286122   286099   286074   286050 
  286028   286006   285985   285965   285947   285932   285919   285907 
  285897   285888   285881   285874   285870   285867   285862   285857 
  285853   285849   285847   285847   285846   285847   285850   285854 
  285858   285864   285872   285881   285891   285898   285900   285904 
  285908   285909   285909   285908   285906   285902   285896   285886 
  285874   285863   285851   285833   285816   285801   285779   285754 
  285731   285709   285685   285662   285639   285614   285594   285577 
  285561   285550   285545   285541   285540   285545   285556   285568 
  285585   285609   285635   285663   285693   285724   285756   285791 
  285825   285855   285885   285917   285950   285983   286011   286039 
  286066   286089   286110   286132   286150   286163   286177   286192 
  286204   286216   286224   286227   286229   286226   286220   286215 
  286209   286201   286189   286175   286161   286141   286118   286100 
  286081   286060   286043   286027   286012   285996   285982   285973 
  285965   285956   285952   285950   285950   285954   285960   285967 
  285972   285979   285988   285999   286008   286017   286029   286044 
  286054   286061   286068   286077   286084   286091   286096   286103 
  286110   286115   286117   286119   286120   286122   286123   286123 
  286118   286110   286103   286094   286082   286068   286052   286036 
  286022   286004   285987   285973   285957   285941   285929   285916 
  285904   285894   285886   285875   285866   285863   285863   285862 
  285864   285868   285875   285883   285894   285906   285918   285932 
  285947   285965   285988   286010   286031   286056   286080   286101 
