Origin Time       2025/01/13 21:19:00
Lat.              31.8
Long.             131.6
Depth. (km)       30
Mag.              6.9
Station Code      SMNH04
Station Lat.      35.0918
Station Long.     132.5308
Station Height(m) 139
Record Time       2025/01/13 21:20:46
Sampling Freq(Hz) 100Hz
Duration Time(s)  134
Dir.              2
Scale Factor      2942(gal)/8224139
Max. Acc. (gal)   1.032
Last Correction   2025/01/13 21:20:46
Memo.             
[...]
  -28968   -28952   -28938   -28918   -28895   -28895   -28931   -28979 
  -29015   -29037   -29038   -29020   -28992   -28969   -28969   -28983 
  -28992   -28989   -28971   -28939   -28908   -28885   -28885   -28903 
  -28927   -28956   -28981   -28992   -28985   -28977   -28983   -29003 
  -29025   -29042   -29060   -29077   -29091   -29101   -29112   -29131 
  -29168   -29214   -29245   -29259   -29266   -29266   -29259   -29255 
  -29250   -29243   -29230   -29205   -29176   -29150   -29134   -29120 
  -29099   -29064   -29027   -28999   -28977   -28961   -28952   -28954 
  -28964   -28971   -28979   -28987   -28988   -28975   -28949   -28923 
  -28911   -28914   -28914   -28900   -28872   -28844   -28822   -28806 
  -28788   -28760   -28710   -28642   -28580   -28534   -28513   -28503 
  -28489   -28471   -28443   -28398   -28345   -28287   -28231   -28183 
  -28146   -28113   -28090   -28065   -28034   -28004   -27978   -27951 
  -27918   -27889   -27870   -27865   -27874   -27897   -27915   -27922 
  -27928   -27942   -27957   -27969   -27970   -27959   -27940   -27919 
  -27901   -27892   -27899   -27924   -27958   -27986   -27999   -28001 
  -28008   -28023   -28051   -28093   -28147   -28209   -28277   -28340 
  -28389   -28424   -28463   -28514   -28572   -28628   -28679   -28732 
  -28788   -28846   -28900   -28954   -29003   -29047   -29093   -29137 
  -29165   -29187   -29218   -29268   -29323   -29365   -29381   -29377 
  -29371   -29370   -29366   -29367   -29394   -29430   -29450   -29454 
  -29448   -29440   -29439   -29440   -29448   -29458   -29459   -29462 
  -29469   -29479   -29496   -29519   -29544   -29563   -29563   -29552 
  -29540   -29524   -29513   -29517   -29533   -29548   -29546   -29529 
  -29505   -29485   -29477   -29478   -29475   -29466   -29442   -29409 
  -29381   -29357   -29326   -29280   -29224   -29168   -29120   -29084 
  -29056   -29025   -28988   -28958   -28935   -28911   -28883   -28853 
  -28827   -28804   -28783   -28768   -28765   -28767   -28763   -28755 
  -28738   -28722   -28715   -28707   -28688   -28667   -28652   -28648 
  -28656   -28667   -28676   -28682   -28675   -28660   -28649   -28647 
  -28655   -28671   -28682   -28684   -28682   -28669   -28663   -28664 
  -28667   -28657   -28640   -28626   -28633   -28660   -28696   -28732 
  -28763   -28788   -28807   -28818   -28825   -28834   -28852   -28885 
  -28948   -29026   -29092   -29141   -29174   -29196   -29220   -29251 
  -29286   -29334   -29382   -29413   -29434   -29454   -29471   -29485 
  -29505   -29536   -29567   -29593   -29613   -29625   -29629   -29627 
  -29624   -29623   -29620   -29613   -29617   -29636   -29659   -29678 
  -29691   -29700   -29700   -29683   -29659   -29643   -29632   -29621 
  -29617   -29613   -29605   -29590   -29565   -29532   -29512   -29500 
  -29481   -29455   -29416   -29359   -29295   -29223   -29151   -29092 
  -29052   -29025   -28998   -28962   -28927   -28887   -28837   -28784 
  -28729   -28674   -28641   -28636   -28638   -28638   -28637   -28633 
  -28625   -28609   -28580   -28545   -28514   -28489   -28464   -28444 
  -28426   -28397   -28364   -28341   -28328   -28313   -28294   -28275 
  -28259   -28244   -28240   -28250   -28273   -28305   -28348   -28393 
  -28435   -28472   -28499   -28517   -28530   -28543   -28557   -28584 
  -28622   -28665   -28714   -28763   -28810   -28845   -28867   -28891 
  -28923   -28956   -28987   -29022   -29062   -29096   -29127   -29172 
  -29228   -29285   -29331   -29363   -29393   -29415   -29428   -29444 
  -29470   -29496   -29531   -29569   -29598   -29628   -29664   -29695 
  -29712   -29718   -29720   -29713   -29701   -29687   -29677   -29667 
  -29656   -29643   -29620   -29574   -29519   -29475   -29443   -29417 
  -29398   -29388   -29381   -29381   -29382   -29378   -29371   -29367 
  -29363   -29357   -29347   -29334   -29323   -29315   -29308   -29300 
  -29292   -29284   -29273   -29258   -29242   -29226   -29214   -29207 
  -29208   -29220   -29236   -29249   -29253   -29263   -29280   -29295 
  -29317   -29353   -29382   -29407   -29432   -29448   -29459   -29470 
  -29482   -29497   -29509   -29502   -29479   -29451   -29427   -29411 
  -29403   -29404   -29412   -29421   -29434   -29455   -29488   -29521 
  -29550   -29570   -29579   -29579   -29579   -29583   -29598   -29629 
  -29667   -29705   -29731   -29733   -29718   -29697   -29683   -29677 
  -29673   -29674   -29682   -29690   -29694   -29693   -29690   -29682 
  -29668   -29652   -29632   -29609   -29585   -29558   -29531   -29501 
  -29474   -29450   -29421   -29386   -29349   -29312   -29277   -29239 
  -29197   -29151   -29104   -29062   -29023   -28985   -28950   -28922 
  -28903   -28888   -28873   -28856   -28829   -28799   -28769   -28749 
  -28749   -28771   -28792   -28804   -28813   -28819   -28826   -28837 
  -28856   -28883   -28915   -28945   -28971   -28993   -29015   -29033 
  -29049   -29061   -29069   -29069   -29057   -29037   -29015   -28998 
  -28984   -28965   -28946   -28931   -28918   -28904   -28892   -28877 
  -28871   -28872   -28871   -28868   -28868   -28867   -28865   -28860 
  -28849   -28840   -28836   -28826   -28811   -28800   -28800   -28807 
  -28811   -28813   -28813   -28818   -28815   -28806   -28800   -28798 
  -28792   -28788   -28783   -28772   -28760   -28742   -28721   -28707 
  -28709   -28713   -28709   -28705   -28696   -28686   -28676   -28667 
  -28653   -28641   -28630   -28613   -28584   -28552   -28514   -28479 
  -28453   -28431   -28406   -28383   -28366   -28362   -28370   -28379 
  -28390   -28401   -28409   -28421   -28437   -28452   -28464   -28478 
  -28495   -28510   -28509   -28490   -28463   -28437   -28413   -28385 
  -28367   -28363   -28368   -28375   -28379   -28385   -28381   -28372 
  -28377   -28393   -28417   -28449   -28483   -28525   -28574   -28624 
  -28675   -28722   -28760   -28800   -28849   -28911   -28979   -29045 
  -29114   -29178   -29230   -29269   -29300   -29327   -29347   -29362 
  -29373   -29388   -29401   -29412   -29419   -29421   -29417   -29408 
  -29397   -29390   -29386   -29377   -29362   -29344   -29326   -29311 
  -29303   -29299   -29286   -29259   -29222   -29178   -29138   -29100 
  -29069   -29043   -29019   -28984   -28935   -28881   -28826   -28772 
  -28722   -28680   -28642   -28598   -28545   -28495   -28453   -28426 
  -28420   -28417   -28405   -28397   -28404   -28421   -28453   -28503 
  -28561   -28630   -28709   -28794   -28881   -28972   -29064   -29160 
  -29265   -29378   -29485   -29590   -29693   -29787   -29886   -29995 
  -30099   -30194   -30280   -30364   -30457   -30559   -30661   -30753 
  -30835   -30909   -30977   -31043   -31105   -31162   -31207   -31236 
  -31251   -31257   -31253   -31241   -31226   -31198   -31158   -31106 
  -31050   -30998   -30954   -30908   -30865   -30819   -30771   -30717 
  -30643   -30549   -30441   -30323   -30198   -30071   -29944   -29812 
  -29664   -29505   -29339   -29176   -29018   -28865   -28721   -28591 
  -28476   -28372   -28274   -28179   -28098   -28034   -27981   -27930 
  -27870   -27815   -27770   -27739   -27729   -27729   -27735   -27750 
  -27770   -27792   -27822   -27868   -27920   -27969   -28017   -28062 
  -28108   -28161   -28210   -28256   -28304   -28347   -28390   -28443 
  -28497   -28548   -28597   -28648   -28706   -28768   -28833   -28903 
  -28987   -29080   -29174   -29268   -29366   -29459   -29538   -29606 
  -29667   -29728   -29790   -29841   -29884   -29926   -29955   -29967 
  -29972   -29965   -29941   -29909   -29879   -29851   -29818   -29779 
  -29729   -29667   -29596   -29516   -29442   -29376   -29305   -29227 
  -29143   -29060   -28975   -28896   -28833   -28783   -28744   -28717 
  -28699   -28691   -28687   -28690   -28698   -28706   -28711   -28722 
  -28734   -28744   -28753   -28755   -28745   -28733   -28719   -28703 
  -28687   -28671   -28649   -28617   -28578   -28545   -28524   -28505 
  -28485   -28464   -28441   -28413   -28386   -28366   -28356   -28354 
  -28352   -28354   -28367   -28391   -28421   -28448   -28470   -28490 
  -28510   -28536   -28580   -28634   -28683   -28734   -28787   -28837 
  -28890   -28942   -28995   -29052   -29112   -29174   -29228   -29273 
  -29311   -29342   -29363   -29377   -29381   -29377   -29373   -29365 
  -29347   -29322   -29295   -29269   -29245   -29222   -29196   -29169 
  -29141   -29114   -29091   -29073   -29060   -29049   -29049   -29057 
  -29070   -29089   -29104   -29106   -29103   -29106   -29110   -29112 
  -29119   -29133   -29146   -29157   -29166   -29165   -29154   -29134 
  -29099   -29058   -29023   -28995   -28964   -28925   -28873   -28807 
  -28730   -28652   -28574   -28495   -28416   -28337   -28256   -28178 
  -28112   -28061   -28021   -27996   -27988   -27994   -28013   -28039 
  -28066   -28097   -28136   -28188   -28248   -28318   -28390   -28463 
  -28533   -28594   -28653   -28721   -28786   -28852   -28925   -28996 
  -29061   -29119   -29170   -29214   -29253   -29284   -29307   -29331 
  -29354   -29370   -29385   -29404   -29416   -29424   -29442   -29469 
  -29505   -29555   -29612   -29668   -29729   -29790   -29844   -29894 
  -29941   -29976   -30007   -30046   -30092   -30138   -30184   -30229 
  -30269   -30298   -30315   -30335   -30358   -30381   -30403   -30416 
  -30424   -30430   -30429   -30420   -30408   -30383   -30349   -30315 
  -30277   -30234   -30188   -30140   -30090   -30038   -29987   -29933 
  -29876   -29825   -29774   -29732   -29713   -29706   -29702   -29710 
  -29721   -29720   -29721   -29732   -29741   -29749   -29767   -29797 
  -29836   -29880   -29929   -29975   -30018   -30055   -30083   -30109 
  -30141   -30168   -30180   -30183   -30172   -30142   -30095   -30034 
  -29964   -29889   -29801   -29700   -29589   -29467   -29338   -29207 
  -29070   -28930   -28792   -28656   -28526   -28409   -28296   -28179 
  -28065   -27957   -27859   -27766   -27676   -27595   -27521   -27452 
  -27386   -27322   -27263   -27211   -27170   -27139   -27114   -27099 
  -27094   -27099   -27116   -27137   -27156   -27172   -27182   -27176 
  -27164   -27159   -27159   -27170   -27193   -27224   -27260   -27298 
  -27337   -27394   -27469   -27562   -27679   -27811   -27957   -28121 
  -28301   -28489   -28682   -28879   -29076   -29273   -29473   -29666 
  -29849   -30032   -30214   -30392   -30561   -30721   -30865   -30978 
  -31066   -31136   -31193   -31244   -31280   -31294   -31293   -31280 
  -31247   -31194   -31121   -31029   -30924   -30804   -30673   -30528 
  -30370   -30213   -30038   -29843   -29636   -29428   -29218   -29011 
  -28810   -28611   -28420   -28229   -28030   -27832   -27648   -27473 
  -27313   -27171   -27043   -26924   -26811   -26703   -26613   -26538 
  -26469   -26411   -26364   -26333   -26316   -26310   -26315   -26345 
  -26393   -26465   -26562   -26682   -26827   -26989   -27162   -27348 
  -27545   -27754   -27967   -28178   -28382   -28576   -28760   -28938 
  -29114   -29280   -29434   -29574   -29708   -29836   -29956   -30069 
  -30172   -30261   -30342   -30419   -30489   -30545   -30595   -30639 
  -30676   -30701   -30713   -30708   -30693   -30681   -30662   -30630 
  -30584   -30532   -30477   -30414   -30339   -30254   -30156   -30055 
  -29947   -29836   -29728   -29624   -29516   -29401   -29284   -29164 
  -29038   -28910   -28791   -28679   -28580   -28491   -28409   -28335 
  -28273   -28228   -28189   -28148   -28113   -28090   -28082   -28092 
  -28112   -28135   -28159   -28179   -28193   -28205   -28213   -28212 
  -28208   -28200   -28186   -28173   -28166   -28154   -28140   -28124 
  -28109   -28101   -28098   -28098   -28108   -28127   -28155   -28186 
  -28224   -28264   -28306   -28348   -28390   -28428   -28462   -28495 
  -28524   -28549   -28578   -28603   -28626   -28656   -28688   -28715 
  -28746   -28783   -28814   -28842   -28876   -28914   -28949   -28985 
  -29027   -29066   -29103   -29139   -29174   -29201   -29222   -29236 
  -29246   -29250   -29249   -29246   -29245   -29238   -29222   -29203 
  -29189   -29172   -29149   -29120   -29085   -29041   -28987   -28927 
  -28865   -28798   -28733   -28671   -28603   -28540   -28491   -28448 
  -28412   -28383   -28359   -28344   -28347   -28362   -28399   -28459 
  -28522   -28588   -28659   -28734   -28818   -28918   -29027   -29141 
  -29258   -29374   -29478   -29571   -29659   -29739   -29816   -29894 
  -29972   -30046   -30118   -30191   -30262   -30330   -30391   -30439 
  -30480   -30516   -30557   -30603   -30646   -30685   -30721   -30751 
  -30762   -30759   -30755   -30740   -30717   -30689   -30647   -30596 
  -30541   -30480   -30415   -30354   -30294   -30231   -30165   -30099 
  -30033   -29960   -29886   -29821   -29759   -29698   -29640   -29578 
  -29516   -29457   -29405   -29367   -29346   -29334   -29332   -29346 
  -29371   -29407   -29450   -29501   -29555   -29613   -29682   -29762 
  -29841   -29920   -29997   -30068   -30137   -30202   -30256   -30298 
  -30327   -30343   -30352   -30360   -30362   -30364   -30360   -30343 
  -30318   -30287   -30245   -30192   -30141   -30094   -30048   -30002 
  -29951   -29890   -29826   -29759   -29682   -29608   -29539   -29469 
  -29392   -29303   -29203   -29096   -28980   -28854   -28721   -28588 
  -28453   -28312   -28166   -28023   -27878   -27731   -27580   -27433 
  -27291   -27149   -27014   -26890   -26774   -26665   -26566   -26478 
  -26406   -26347   -26300   -26258   -26225   -26190   -26165   -26158 
  -26163   -26175   -26202   -26230   -26250   -26272   -26300   -26339 
  -26396   -26460   -26530   -26619   -26723   -26835   -26964   -27103 
  -27252   -27419   -27600   -27791   -27992   -28201   -28412   -28624 
  -28834   -29042   -29246   -29446   -29641   -29833   -30021   -30204 
  -30381   -30551   -30708   -30854   -30987   -31106   -31207   -31295 
  -31368   -31428   -31472   -31502   -31521   -31523   -31509   -31476 
  -31433   -31380   -31322   -31255   -31176   -31085   -30982   -30871 
  -30761   -30651   -30539   -30424   -30304   -30183   -30064   -29948 
  -29829   -29712   -29593   -29471   -29347   -29227   -29111   -28998 
  -28887   -28779   -28676   -28584   -28502   -28422   -28347   -28279 
  -28220   -28167   -28117   -28066   -28020   -27981   -27939   -27901 
  -27870   -27839   -27807   -27774   -27742   -27718   -27708   -27711 
  -27730   -27761   -27796   -27832   -27865   -27896   -27928   -27966 
  -28008   -28050   -28088   -28134   -28179   -28221   -28260   -28297 
  -28331   -28366   -28405   -28444   -28487   -28547   -28622   -28706 
  -28796   -28890   -28983   -29076   -29176   -29284   -29394   -29501 
  -29612   -29721   -29821   -29917   -30010   -30099   -30180   -30250 
  -30314   -30372   -30423   -30466   -30503   -30531   -30550   -30568 
  -30585   -30599   -30607   -30612   -30608   -30588   -30558   -30518 
  -30462   -30402   -30330   -30246   -30153   -30052   -29944   -29824 
  -29689   -29542   -29384   -29220   -29058   -28896   -28737   -28579 
  -28422   -28271   -28131   -27999   -27877   -27764   -27657   -27558 
  -27467   -27383   -27310   -27247   -27195   -27166   -27152   -27148 
  -27157   -27178   -27202   -27232   -27270   -27311   -27353   -27402 
  -27454   -27507   -27564   -27626   -27689   -27749   -27810   -27872 
  -27932   -27993   -28057   -28123   -28196   -28279   -28374   -28475 
  -28584   -28698   -28815   -28937   -29066   -29196   -29324   -29455 
  -29590   -29727   -29856   -29978   -30090   -30194   -30288   -30373 
  -30449   -30511   -30565   -30609   -30635   -30647   -30655   -30654 
  -30642   -30636   -30630   -30612   -30591   -30565   -30537   -30505 
  -30477   -30447   -30414   -30377   -30345   -30310   -30276   -30240 
  -30198   -30154   -30111   -30063   -30010   -29953   -29889   -29820 
  -29749   -29681   -29613   -29548   -29479   -29405   -29320   -29224 
  -29128   -29039   -28950   -28864   -28784   -28710   -28640   -28564 
  -28482   -28399   -28324   -28254   -28190   -28140   -28101   -28066 
  -28042   -28028   -28027   -28036   -28051   -28067   -28090   -28124 
  -28165   -28204   -28247   -28289   -28320   -28341   -28359   -28381 
  -28404   -28428   -28459   -28493   -28522   -28545   -28566   -28578 
  -28588   -28606   -28632   -28661   -28694   -28728   -28759   -28784 
  -28803   -28817   -28830   -28848   -28873   -28904   -28935   -28966 
  -29003   -29037   -29065   -29092   -29116   -29141   -29162   -29180 
  -29195   -29208   -29224   -29239   -29251   -29258   -29258   -29259 
  -29261   -29254   -29242   -29224   -29200   -29173   -29154   -29137 
  -29116   -29101   -29091   -29077   -29054   -29023   -28985   -28954 
  -28929   -28908   -28898   -28895   -28898   -28900   -28903   -28908 
  -28919   -28934   -28949   -28965   -28987   -29015   -29052   -29088 
  -29124   -29160   -29196   -29231   -29262   -29288   -29311   -29330 
  -29339   -29346   -29349   -29340   -29327   -29312   -29293   -29278 
  -29272   -29273   -29277   -29280   -29282   -29288   -29297   -29320 
  -29349   -29384   -29431   -29479   -29528   -29582   -29636   -29689 
  -29741   -29791   -29837   -29880   -29922   -29963   -30003   -30042 
  -30083   -30122   -30161   -30198   -30231   -30262   -30291   -30318 
  -30345   -30368   -30385   -30400   -30406   -30400   -30387   -30372 
  -30353   -30326   -30285   -30233   -30173   -30107   -30030   -29944 
  -29862   -29781   -29691   -29598   -29506   -29416   -29332   -29249 
  -29162   -29081   -29003   -28929   -28863   -28803   -28750   -28705 
  -28657   -28610   -28564   -28520   -28478   -28435   -28386   -28333 
  -28279   -28225   -28174   -28124   -28081   -28046   -28015   -27989 
  -27972   -27955   -27943   -27939   -27940   -27943   -27951   -27962 
  -27977   -27994   -28012   -28027   -28042   -28051   -28059   -28069 
  -28081   -28098   -28117   -28136   -28161   -28188   -28216   -28244 
  -28277   -28309   -28339   -28366   -28390   -28412   -28436   -28467 
  -28497   -28518   -28543   -28563   -28580   -28602   -28622   -28640 
  -28660   -28679   -28695   -28710   -28721   -28728   -28732   -28738 
  -28741   -28738   -28736   -28730   -28717   -28703   -28690   -28676 
  -28665   -28652   -28638   -28629   -28620   -28613   -28609   -28609 
  -28615   -28630   -28656   -28680   -28703   -28728   -28745   -28756 
  -28767   -28775   -28780   -28787   -28790   -28787   -28779   -28768 
  -28756   -28744   -28734   -28726   -28713   -28698   -28684   -28668 
  -28644   -28621   -28602   -28582   -28563   -28551   -28548   -28552 
  -28561   -28572   -28586   -28603   -28629   -28660   -28701   -28745 
  -28786   -28823   -28863   -28908   -28957   -29002   -29043   -29088 
  -29130   -29174   -29215   -29250   -29281   -29311   -29338   -29363 
  -29388   -29413   -29439   -29462   -29484   -29509   -29538   -29569 
  -29597   -29619   -29633   -29648   -29660   -29666   -29668   -29666 
  -29659   -29651   -29643   -29633   -29621   -29608   -29593   -29579 
  -29566   -29554   -29544   -29540   -29543   -29547   -29555   -29565 
  -29577   -29598   -29627   -29651   -29671   -29693   -29717   -29740 
  -29763   -29778   -29789   -29798   -29808   -29817   -29826   -29829 
  -29829   -29822   -29806   -29791   -29774   -29751   -29729   -29709 
