Origin Time       2025/01/13 21:19:00
Lat.              31.8
Long.             131.6
Depth. (km)       30
Mag.              6.9
Station Code      SMNH16
Station Lat.      35.3422
Station Long.     132.8989
Station Height(m) -53.5
Record Time       2025/01/13 21:20:45
Sampling Freq(Hz) 100Hz
Duration Time(s)  132
Dir.              2
Scale Factor      2940(gal)/6170270
Max. Acc. (gal)   0.658
Last Correction   2025/01/13 21:20:30
Memo.             
[...]
  247236   247235   247237   247241   247240   247234   247229   247224 
  247221   247226   247242   247259   247268   247274   247282   247291 
  247300   247307   247314   247319   247326   247337   247347   247354 
  247361   247368   247376   247387   247395   247398   247400   247409 
  247420   247429   247438   247447   247454   247457   247458   247455 
  247450   247445   247436   247424   247413   247402   247392   247383 
  247372   247356   247338   247318   247301   247288   247279   247268 
  247255   247247   247242   247234   247228   247223   247219   247218 
  247224   247236   247249   247261   247269   247274   247280   247292 
  247305   247322   247340   247355   247365   247369   247369   247370 
  247372   247377   247383   247387   247388   247391   247399   247408 
  247420   247432   247441   247449   247459   247468   247478   247486 
  247491   247494   247496   247498   247499   247503   247509   247513 
  247515   247519   247517   247509   247499   247488   247480   247478 
  247477   247474   247468   247463   247461   247459   247455   247450 
  247442   247438   247439   247438   247435   247432   247431   247438 
  247444   247445   247447   247454   247463   247474   247486   247490 
  247492   247497   247503   247513   247523   247528   247530   247531 
  247532   247533   247531   247528   247522   247518   247517   247515 
  247513   247515   247515   247507   247494   247484   247476   247468 
  247461   247454   247445   247435   247429   247420   247406   247390 
  247372   247353   247338   247327   247316   247303   247291   247283 
  247275   247268   247266   247267   247271   247277   247279   247273 
  247271   247271   247268   247270   247278   247281   247284   247291 
  247294   247291   247293   247295   247294   247292   247288   247282 
  247279   247280   247281   247284   247289   247296   247303   247310 
  247315   247322   247332   247346   247363   247376   247383   247388 
  247392   247393   247396   247402   247407   247411   247413   247415 
  247425   247435   247443   247451   247458   247462   247467   247471 
  247478   247484   247486   247489   247492   247493   247496   247501 
  247509   247517   247518   247515   247514   247508   247498   247491 
  247482   247467   247456   247453   247448   247441   247439   247433 
  247421   247409   247397   247384   247369   247353   247340   247327 
  247307   247285   247266   247244   247220   247194   247171   247147 
  247118   247093   247071   247048   247031   247017   247003   246991 
  246979   246965   246951   246938   246928   246921   246920   246927 
  246934   246939   246947   246958   246969   246979   246988   246994 
  246999   247006   247012   247014   247013   247012   247016   247023 
  247028   247032   247037   247042   247041   247039   247037   247033 
  247029   247028   247029   247033   247041   247046   247046   247049 
  247056   247066   247076   247086   247101   247117   247132   247149 
  247162   247169   247181   247198   247211   247219   247224   247228 
  247235   247240   247245   247247   247249   247251   247255   247260 
  247262   247258   247251   247244   247232   247216   247203   247190 
  247175   247158   247140   247126   247112   247094   247073   247054 
  247040   247022   246997   246977   246961   246946   246933   246921 
  246910   246900   246890   246882   246878   246874   246871   246872 
  246877   246881   246884   246884   246886   246892   246892   246886 
  246882   246883   246884   246888   246896   246903   246911   246924 
  246939   246953   246966   246977   246989   247003   247016   247033 
  247054   247078   247100   247120   247141   247166   247191   247219 
  247246   247269   247292   247313   247332   247347   247362   247379 
  247390   247397   247407   247420   247430   247436   247442   247447 
  247451   247450   247447   247447   247448   247448   247443   247434 
  247425   247417   247410   247408   247409   247409   247410   247408 
  247404   247407   247410   247411   247409   247407   247410   247416 
  247424   247431   247437   247444   247454   247462   247470   247478 
  247488   247500   247513   247525   247534   247540   247542   247537 
  247532   247527   247519   247507   247502   247504   247506   247502 
  247495   247486   247475   247465   247458   247451   247439   247432 
  247432   247433   247432   247435   247441   247445   247447   247450 
  247451   247450   247453   247457   247459   247456   247451   247448 
  247445   247442   247439   247435   247427   247416   247405   247398 
  247395   247390   247382   247373   247365   247362   247365   247368 
  247371   247375   247375   247368   247361   247357   247352   247344 
  247334   247322   247306   247290   247275   247258   247240   247224 
  247209   247192   247177   247162   247150   247141   247129   247116 
  247106   247095   247087   247082   247082   247083   247083   247081 
  247074   247061   247054   247048   247041   247039   247035   247028 
  247023   247018   247015   247020   247031   247042   247052   247063 
  247074   247088   247112   247141   247172   247207   247244   247277 
  247308   247340   247370   247399   247427   247458   247486   247510 
  247533   247552   247567   247580   247591   247599   247607   247613 
  247614   247615   247616   247613   247605   247595   247582   247569 
  247553   247532   247508   247481   247452   247429   247408   247384 
  247360   247341   247324   247302   247286   247271   247252   247235 
  247220   247204   247191   247181   247174   247169   247161   247150 
  247143   247132   247115   247102   247094   247086   247077   247067 
  247054   247043   247034   247021   247008   247001   246997   246988 
  246982   246981   246982   246985   246991   247000   247014   247032 
  247053   247078   247100   247118   247134   247148   247167   247193 
  247213   247231   247248   247262   247276   247293   247311   247331 
  247350   247366   247383   247403   247420   247431   247439   247448 
  247458   247467   247477   247488   247501   247517   247530   247540 
  247548   247554   247556   247552   247548   247546   247542   247538 
  247529   247521   247514   247501   247488   247479   247469   247458 
  247453   247445   247435   247424   247408   247390   247376   247362 
  247348   247332   247310   247286   247262   247234   247201   247164 
  247122   247081   247042   247003   246961   246920   246880   246840 
  246800   246764   246726   246686   246654   246631   246608   246588 
  246574   246563   246549   246537   246530   246524   246524   246530 
  246535   246543   246558   246572   246586   246605   246630   246658 
  246688   246722   246760   246797   246833   246874   246917   246959 
  247004   247052   247098   247139   247179   247220   247259   247295 
  247329   247360   247392   247424   247458   247492   247525   247556 
  247585   247610   247633   247651   247663   247677   247691   247700 
  247710   247719   247726   247733   247735   247733   247735   247735 
  247729   247719   247705   247689   247672   247652   247634   247613 
  247588   247562   247533   247503   247474   247446   247413   247378 
  247346   247316   247285   247254   247226   247201   247173   247147 
  247124   247099   247075   247051   247030   247011   246990   246970 
  246953   246936   246923   246912   246901   246892   246888   246882 
  246874   246869   246866   246860   246850   246843   246838   246833 
  246833   246833   246828   246825   246821   246812   246802   246793 
  246787   246784   246780   246781   246782   246779   246777   246773 
  246767   246764   246764   246761   246762   246768   246776   246788 
  246803   246817   246830   246845   246861   246881   246907   246932 
  246953   246975   247002   247034   247069   247104   247136   247166 
  247195   247218   247242   247270   247293   247309   247321   247331 
  247341   247350   247358   247362   247364   247365   247363   247353 
  247339   247322   247301   247277   247250   247219   247184   247143 
  247096   247046   246996   246947   246894   246838   246784   246732 
  246679   246623   246571   246522   246474   246431   246394   246363 
  246339   246315   246296   246287   246282   246279   246284   246295 
  246310   246331   246361   246402   246450   246504   246555   246603 
  246656   246710   246763   246820   246879   246940   247004   247072 
  247140   247209   247280   247356   247430   247502   247576   247646 
  247715   247785   247854   247919   247981   248040   248098   248156 
  248211   248263   248309   248352   248393   248432   248465   248491 
  248509   248520   248522   248512   248496   248483   248467   248444 
  248418   248387   248352   248314   248272   248229   248185   248143 
  248098   248050   248007   247967   247924   247885   247848   247808 
  247767   247725   247681   247635   247593   247554   247519   247485 
  247454   247425   247395   247364   247333   247303   247273   247247 
  247225   247204   247189   247180   247174   247171   247172   247175 
  247180   247191   247204   247217   247230   247241   247253   247270 
  247288   247305   247323   247337   247344   247349   247355   247361 
  247369   247376   247378   247375   247369   247360   247354   247352 
  247349   247347   247346   247345   247343   247344   247344   247343 
  247342   247341   247341   247339   247334   247332   247336   247339 
  247340   247346   247354   247362   247370   247379   247389   247401 
  247414   247427   247444   247461   247478   247499   247519   247538 
  247558   247580   247597   247611   247624   247639   247652   247663 
  247675   247683   247689   247694   247699   247704   247709   247714 
  247716   247716   247714   247714   247712   247705   247690   247673 
  247656   247639   247620   247596   247570   247540   247510   247479 
  247444   247408   247376   247340   247301   247265   247229   247191 
  247157   247126   247096   247066   247038   247014   246989   246962 
  246936   246911   246886   246864   246842   246818   246795   246771 
  246745   246721   246700   246678   246661   246646   246629   246615 
  246606   246601   246596   246591   246589   246591   246593   246600 
  246611   246624   246642   246663   246679   246695   246715   246738 
  246760   246777   246793   246806   246819   246831   246840   246846 
  246851   246856   246864   246872   246882   246894   246909   246923 
  246934   246946   246959   246969   246977   246984   246991   246999 
  247006   247012   247015   247016   247016   247019   247023   247029 
  247034   247036   247039   247043   247047   247052   247055   247058 
  247063   247067   247066   247065   247066   247065   247060   247058 
  247055   247051   247048   247046   247043   247042   247043   247038 
  247031   247029   247028   247024   247023   247027   247030   247033 
  247036   247042   247050   247057   247065   247077   247088   247100 
  247115   247128   247141   247156   247167   247177   247192   247206 
  247220   247231   247235   247237   247241   247240   247235   247230 
  247220   247204   247188   247169   247145   247118   247089   247059 
  247027   246995   246962   246929   246899   246868   246836   246808 
  246786   246766   246748   246737   246731   246727   246725   246727 
  246733   246743   246757   246771   246788   246813   246838   246864 
  246899   246939   246980   247028   247080   247132   247186   247239 
  247291   247343   247395   247447   247496   247541   247585   247625 
  247662   247698   247730   247755   247775   247791   247799   247801 
  247798   247789   247776   247758   247733   247704   247671   247634 
  247597   247559   247517   247473   247430   247385   247338   247290 
  247240   247194   247149   247103   247065   247034   247001   246972 
  246948   246927   246917   246914   246914   246917   246921   246928 
  246939   246951   246968   246988   247010   247036   247062   247092 
  247127   247162   247196   247232   247270   247307   247342   247383 
  247426   247467   247513   247564   247611   247656   247699   247736 
  247769   247797   247822   247840   247852   247863   247872   247877 
  247881   247884   247884   247881   247877   247869   247855   247839 
  247821   247798   247770   247738   247706   247671   247635   247596 
  247557   247519   247479   247439   247401   247363   247330   247298 
  247262   247228   247201   247173   247148   247125   247108   247096 
  247086   247082   247086   247093   247108   247129   247149   247171 
  247197   247224   247251   247281   247315   247347   247377   247409 
  247442   247472   247501   247530   247557   247583   247607   247627 
  247646   247661   247671   247675   247679   247686   247691   247693 
  247695   247694   247693   247689   247688   247691   247690   247687 
  247689   247694   247699   247705   247712   247722   247732   247742 
  247755   247772   247791   247813   247834   247853   247873   247894 
  247917   247938   247961   247986   248009   248028   248043   248056 
  248064   248072   248083   248087   248086   248086   248083   248074 
  248061   248043   248023   248000   247973   247942   247908   247870 
  247830   247789   247746   247698   247645   247589   247530   247468 
  247405   247342   247271   247196   247123   247047   246972   246900 
  246825   246750   246679   246608   246538   246472   246408   246344 
  246287   246235   246179   246124   246077   246034   245994   245963 
  245939   245914   245893   245884   245880   245881   245893   245911 
  245932   245958   245989   246024   246062   246106   246154   246203 
  246252   246304   246357   246410   246461   246510   246559   246605 
  246646   246685   246723   246760   246797   246833   246864   246897 
  246932   246966   246999   247033   247072   247110   247146   247186 
  247223   247253   247286   247321   247353   247384   247417   247447 
  247476   247505   247532   247552   247571   247589   247604   247616 
  247626   247636   247648   247652   247646   247642   247642   247641 
  247638   247633   247628   247621   247613   247604   247595   247585 
  247579   247569   247555   247545   247538   247529   247521   247517 
  247513   247510   247510   247513   247516   247522   247535   247554 
  247574   247595   247616   247634   247653   247673   247692   247710 
  247728   247744   247756   247767   247776   247781   247784   247787 
  247782   247772   247758   247740   247721   247701   247679   247657 
  247631   247603   247576   247548   247520   247487   247453   247420 
  247383   247347   247313   247278   247244   247213   247184   247158 
  247135   247113   247092   247077   247065   247055   247048   247049 
  247055   247065   247078   247096   247117   247140   247166   247193 
  247222   247249   247277   247306   247329   247350   247372   247388 
  247403   247419   247428   247434   247439   247438   247433   247430 
  247422   247409   247393   247376   247354   247328   247301   247273 
  247248   247225   247201   247178   247155   247133   247117   247100 
  247083   247072   247067   247062   247058   247053   247050   247051 
  247054   247060   247065   247071   247081   247094   247105   247118 
  247133   247150   247169   247193   247218   247243   247270   247300 
  247330   247359   247388   247420   247452   247481   247507   247531 
  247550   247564   247572   247575   247574   247569   247560   247548 
  247529   247501   247473   247440   247398   247354   247311   247261 
  247210   247161   247110   247059   247010   246963   246919   246879 
  246839   246799   246763   246727   246691   246654   246618   246584 
  246552   246520   246490   246465   246441   246418   246400   246382 
  246362   246349   246341   246334   246329   246329   246334   246341 
  246352   246370   246388   246408   246434   246462   246492   246528 
  246565   246603   246647   246693   246739   246788   246841   246896 
  246952   247010   247065   247117   247167   247216   247265   247311 
  247354   247394   247429   247463   247498   247527   247553   247581 
  247607   247628   247643   247653   247665   247674   247676   247675 
  247676   247673   247670   247669   247668   247664   247659   247659 
  247660   247661   247663   247666   247674   247685   247693   247700 
  247708   247718   247731   247743   247755   247767   247772   247777 
  247782   247782   247781   247780   247772   247757   247741   247723 
  247701   247677   247650   247623   247595   247565   247530   247492 
  247453   247413   247370   247324   247274   247221   247168   247117 
  247069   247024   246981   246940   246900   246861   246824   246789 
  246758   246731   246708   246690   246677   246670   246667   246671 
  246681   246698   246716   246735   246759   246786   246817   246851 
  246889   246926   246965   247009   247057   247104   247150   247196 
  247241   247288   247335   247381   247425   247468   247510   247546 
  247582   247618   247653   247688   247720   247750   247776   247797 
  247817   247834   247849   247862   247870   247873   247877   247879 
  247877   247872   247862   247850   247837   247820   247798   247775 
  247750   247720   247685   247647   247608   247567   247527   247490 
  247450   247409   247370   247332   247295   247259   247224   247193 
  247163   247134   247104   247077   247055   247035   247012   246990 
  246971   246955   246941   246927   246917   246909   246903   246899 
  246893   246887   246884   246882   246883   246885   246889   246892 
  246892   246893   246895   246892   246889   246890   246887   246882 
  246881   246878   246874   246870   246864   246858   246850   246842 
  246840   246836   246830   246830   246835   246839   246844   246848 
  246854   246866   246879   246891   246905   246920   246932   246950 
  246972   246992   247013   247039   247065   247091   247122   247152 
  247179   247210   247240   247267   247296   247330   247358   247384 
  247411   247439   247465   247490   247512   247530   247546   247559 
  247574   247589   247598   247605   247611   247615   247617   247618 
  247617   247618   247618   247615   247612   247605   247597   247591 
  247587   247580   247571   247561   247551   247539   247525   247511 
  247495   247480   247464   247447   247430   247413   247396   247379 
  247366   247355   247341   247328   247317   247306   247296   247287 
  247281   247276   247270   247266   247265   247260   247252   247248 
  247245   247242   247242   247238   247233   247230   247226   247223 
  247219   247212   247203   247195   247186   247177   247173   247170 
  247165   247163   247161   247161   247166   247173   247180   247185 
  247187   247192   247199   247208   247219   247229   247239   247251 
  247263   247276   247288   247300   247314   247330   247347   247363 
  247379   247401   247422   247443   247467   247493   247518   247544 
  247571   247598   247628   247658   247686   247714   247741   247765 
  247788   247807   247823   247835   247843   247846   247844   247840 
  247832   247817   247799   247776   247751   247725   247695   247664 
  247632   247597   247560   247525   247490   247455   247422   247388 
  247353   247320   247287   247254   247220   247187   247158   247130 
  247103   247076   247050   247024   247002   246983   246967   246953 
