Origin Time       2025/01/13 21:19:00
Lat.              31.8
Long.             131.6
Depth. (km)       30
Mag.              6.9
Station Code      SMNH02
Station Lat.      35.2235
Station Long.     133.0856
Station Height(m) 239
Record Time       2025/01/13 21:20:58
Sampling Freq(Hz) 100Hz
Duration Time(s)  120
Dir.              3
Scale Factor      2942(gal)/8224139
Max. Acc. (gal)   0.504
Last Correction   2025/01/13 21:21:00
Memo.             
[...]
  -12735   -12756   -12781   -12804   -12829   -12846   -12854   -12860 
  -12866   -12873   -12874   -12877   -12888   -12899   -12907   -12919 
  -12927   -12931   -12938   -12937   -12926   -12920   -12915   -12907 
  -12910   -12911   -12910   -12918   -12938   -12957   -12972   -12982 
  -12996   -13003   -12996   -12992   -12992   -12980   -12966   -12953 
  -12935   -12916   -12889   -12862   -12842   -12825   -12807   -12789 
  -12777   -12777   -12780   -12775   -12769   -12765   -12753   -12738 
  -12734   -12734   -12731   -12731   -12730   -12721   -12707   -12700 
  -12700   -12704   -12715   -12719   -12721   -12727   -12731   -12729 
  -12730   -12729   -12729   -12729   -12725   -12725   -12735   -12757 
  -12781   -12793   -12802   -12819   -12837   -12849   -12860   -12864 
  -12862   -12862   -12858   -12857   -12862   -12861   -12847   -12838 
  -12827   -12810   -12795   -12785   -12771   -12761   -12756   -12746 
  -12739   -12734   -12722   -12715   -12712   -12708   -12712   -12726 
  -12738   -12750   -12764   -12780   -12793   -12804   -12816   -12831 
  -12843   -12849   -12847   -12849   -12846   -12843   -12847   -12847 
  -12845   -12846   -12853   -12857   -12862   -12872   -12872   -12862 
  -12857   -12853   -12847   -12838   -12834   -12835   -12834   -12837 
  -12845   -12854   -12869   -12892   -12918   -12939   -12953   -12965 
  -12970   -12973   -12978   -12985   -12987   -12988   -12988   -12987 
  -12978   -12974   -12976   -12977   -12977   -12977   -12976   -12974 
  -12973   -12964   -12951   -12946   -12939   -12928   -12922   -12910 
  -12887   -12866   -12854   -12842   -12830   -12815   -12804   -12798 
  -12795   -12791   -12792   -12793   -12789   -12787   -12791   -12795 
  -12796   -12792   -12777   -12758   -12741   -12731   -12719   -12704 
  -12695   -12687   -12667   -12644   -12631   -12623   -12618   -12625 
  -12625   -12621   -12626   -12631   -12633   -12636   -12636   -12637 
  -12641   -12646   -12648   -12640   -12640   -12646   -12642   -12629 
  -12614   -12603   -12594   -12588   -12590   -12590   -12590   -12596 
  -12607   -12621   -12636   -12653   -12683   -12715   -12737   -12750 
  -12758   -12757   -12752   -12744   -12730   -12715   -12706   -12699 
  -12692   -12683   -12671   -12669   -12667   -12661   -12664   -12672 
  -12687   -12707   -12730   -12756   -12788   -12819   -12846   -12874 
  -12897   -12911   -12922   -12930   -12934   -12939   -12950   -12962 
  -12973   -12985   -12997   -13005   -13022   -13043   -13058   -13072 
  -13081   -13085   -13089   -13093   -13096   -13099   -13097   -13096 
  -13096   -13090   -13077   -13068   -13059   -13042   -13020   -13001 
  -12978   -12953   -12934   -12912   -12887   -12865   -12842   -12823 
  -12815   -12811   -12806   -12804   -12807   -12803   -12795   -12788 
  -12775   -12754   -12731   -12704   -12685   -12677   -12672   -12671 
  -12680   -12696   -12711   -12721   -12734   -12757   -12781   -12792 
  -12796   -12807   -12814   -12812   -12811   -12811   -12811   -12807 
  -12806   -12812   -12812   -12814   -12830   -12842   -12853   -12872 
  -12887   -12893   -12897   -12903   -12908   -12918   -12926   -12931 
  -12939   -12943   -12937   -12928   -12926   -12920   -12912   -12908 
  -12904   -12893   -12888   -12884   -12876   -12873   -12877   -12880 
  -12884   -12883   -12873   -12866   -12860   -12850   -12835   -12815 
  -12798   -12780   -12760   -12741   -12723   -12703   -12687   -12676 
  -12663   -12642   -12627   -12615   -12602   -12599   -12609   -12617 
  -12613   -12609   -12602   -12592   -12588   -12590   -12591   -12590 
  -12583   -12577   -12567   -12552   -12546   -12553   -12564   -12572 
  -12577   -12590   -12599   -12595   -12592   -12594   -12595   -12604 
  -12614   -12615   -12615   -12621   -12627   -12637   -12654   -12681 
  -12714   -12745   -12765   -12785   -12806   -12819   -12839   -12866 
  -12891   -12912   -12933   -12942   -12939   -12928   -12914   -12901 
  -12896   -12897   -12900   -12897   -12888   -12876   -12862   -12837 
  -12806   -12785   -12769   -12744   -12717   -12700   -12694   -12685 
  -12681   -12690   -12698   -12699   -12699   -12700   -12696   -12688 
  -12675   -12663   -12652   -12633   -12615   -12602   -12591   -12587 
  -12579   -12579   -12583   -12582   -12582   -12587   -12584   -12579 
  -12573   -12573   -12582   -12594   -12604   -12614   -12623   -12634 
  -12654   -12676   -12695   -12717   -12744   -12765   -12781   -12804 
  -12833   -12860   -12889   -12919   -12943   -12968   -12992   -13018 
  -13047   -13065   -13066   -13062   -13051   -13031   -13018   -13012 
  -13008   -13007   -13004   -13005   -13015   -13022   -13028   -13041 
  -13055   -13066   -13076   -13092   -13109   -13119   -13120   -13117 
  -13120   -13127   -13132   -13138   -13147   -13150   -13149   -13146 
  -13142   -13143   -13151   -13155   -13158   -13167   -13178   -13193 
  -13213   -13224   -13231   -13243   -13254   -13273   -13290   -13293 
  -13293   -13296   -13292   -13285   -13271   -13255   -13242   -13230 
  -13224   -13227   -13228   -13230   -13230   -13224   -13219   -13212 
  -13203   -13194   -13186   -13177   -13169   -13159   -13146   -13134 
  -13122   -13112   -13107   -13108   -13109   -13100   -13089   -13073 
  -13050   -13036   -13022   -13003   -12993   -12995   -12995   -12995 
  -12992   -12988   -12988   -12982   -12974   -12972   -12964   -12946 
  -12933   -12920   -12900   -12884   -12872   -12852   -12834   -12825 
  -12808   -12792   -12781   -12762   -12745   -12741   -12744   -12744 
  -12749   -12750   -12744   -12735   -12727   -12726   -12733   -12741 
  -12752   -12769   -12785   -12803   -12822   -12846   -12879   -12906 
  -12924   -12946   -12968   -12985   -13005   -13022   -13031   -13041 
  -13050   -13057   -13061   -13058   -13053   -13047   -13032   -13011 
  -12984   -12955   -12924   -12887   -12854   -12827   -12802   -12779 
  -12752   -12730   -12717   -12706   -12699   -12700   -12704   -12707 
  -12719   -12738   -12750   -12754   -12756   -12761   -12764   -12757 
  -12752   -12748   -12734   -12727   -12730   -12731   -12727   -12721 
  -12714   -12714   -12717   -12714   -12707   -12696   -12688   -12684 
  -12680   -12677   -12676   -12669   -12661   -12658   -12656   -12645 
  -12636   -12626   -12609   -12591   -12577   -12559   -12538   -12517 
  -12487   -12456   -12429   -12413   -12405   -12401   -12407   -12424 
  -12442   -12468   -12492   -12513   -12536   -12559   -12582   -12603 
  -12617   -12625   -12631   -12636   -12641   -12650   -12664   -12683 
  -12700   -12719   -12739   -12757   -12773   -12785   -12793   -12808 
  -12822   -12829   -12842   -12854   -12857   -12860   -12858   -12847 
  -12829   -12807   -12784   -12756   -12722   -12695   -12675   -12657 
  -12645   -12638   -12630   -12629   -12638   -12646   -12654   -12667 
  -12680   -12694   -12707   -12721   -12731   -12739   -12744   -12745 
  -12749   -12758   -12775   -12793   -12804   -12810   -12820   -12822 
  -12818   -12820   -12833   -12843   -12847   -12850   -12860   -12860 
  -12850   -12845   -12841   -12834   -12826   -12818   -12804   -12787 
  -12771   -12754   -12738   -12727   -12717   -12691   -12672   -12671 
  -12668   -12660   -12656   -12649   -12649   -12658   -12672   -12690 
  -12704   -12710   -12715   -12721   -12721   -12718   -12715   -12715 
  -12715   -12710   -12706   -12703   -12702   -12699   -12695   -12694 
  -12695   -12699   -12707   -12715   -12717   -12715   -12712   -12704 
  -12695   -12694   -12688   -12677   -12673   -12673   -12668   -12671 
  -12680   -12679   -12672   -12673   -12680   -12690   -12700   -12707 
  -12711   -12718   -12729   -12742   -12756   -12766   -12771   -12775 
  -12787   -12800   -12811   -12815   -12814   -12814   -12819   -12827 
  -12831   -12831   -12835   -12841   -12838   -12837   -12841   -12842 
  -12839   -12833   -12825   -12815   -12803   -12799   -12799   -12798 
  -12799   -12796   -12789   -12788   -12781   -12765   -12758   -12754 
  -12744   -12737   -12733   -12723   -12707   -12688   -12669   -12654 
  -12648   -12648   -12646   -12652   -12668   -12687   -12706   -12730 
  -12756   -12785   -12812   -12834   -12856   -12880   -12906   -12930 
  -12946   -12962   -12982   -13000   -13020   -13041   -13051   -13063 
  -13082   -13095   -13101   -13109   -13113   -13115   -13116   -13109 
  -13099   -13090   -13088   -13081   -13069   -13061   -13050   -13039 
  -13036   -13036   -13035   -13039   -13034   -13016   -13004   -13001 
  -12999   -12993   -12989   -12985   -12988   -12991   -12982   -12974 
  -12968   -12955   -12943   -12938   -12933   -12920   -12897   -12870 
  -12852   -12838   -12827   -12822   -12812   -12802   -12793   -12791 
  -12792   -12796   -12798   -12798   -12803   -12812   -12822   -12826 
  -12825   -12819   -12815   -12812   -12814   -12816   -12818   -12820 
  -12825   -12830   -12830   -12830   -12841   -12852   -12852   -12846 
  -12846   -12847   -12846   -12838   -12827   -12819   -12819   -12820 
  -12823   -12823   -12825   -12823   -12818   -12818   -12822   -12822 
  -12825   -12827   -12831   -12843   -12857   -12874   -12893   -12901 
  -12906   -12912   -12930   -12947   -12958   -12974   -12989   -13003 
  -13023   -13046   -13068   -13082   -13095   -13115   -13128   -13132 
  -13143   -13153   -13150   -13147   -13140   -13131   -13120   -13105 
  -13080   -13055   -13039   -13015   -12984   -12957   -12931   -12899 
  -12861   -12829   -12796   -12760   -12722   -12683   -12644   -12604 
  -12571   -12548   -12534   -12529   -12533   -12538   -12550   -12569 
  -12586   -12599   -12614   -12634   -12652   -12667   -12685   -12700 
  -12707   -12721   -12742   -12761   -12777   -12796   -12807   -12814 
  -12825   -12830   -12827   -12831   -12842   -12852   -12860   -12869 
  -12869   -12864   -12860   -12854   -12845   -12837   -12827   -12814 
  -12806   -12795   -12783   -12776   -12776   -12769   -12756   -12746 
  -12737   -12726   -12718   -12712   -12712   -12719   -12721   -12715 
  -12718   -12722   -12723   -12730   -12744   -12753   -12764   -12772 
  -12771   -12771   -12777   -12787   -12798   -12811   -12825   -12834 
  -12847   -12865   -12884   -12900   -12908   -12911   -12911   -12908 
  -12904   -12903   -12899   -12895   -12889   -12873   -12856   -12846 
  -12839   -12825   -12810   -12798   -12785   -12775   -12761   -12752 
  -12749   -12741   -12721   -12707   -12696   -12683   -12672   -12665 
  -12649   -12642   -12644   -12644   -12646   -12653   -12649   -12638 
  -12629   -12614   -12595   -12579   -12559   -12544   -12537   -12526 
  -12514   -12503   -12496   -12495   -12498   -12495   -12488   -12480 
  -12464   -12438   -12411   -12380   -12345   -12307   -12267   -12231 
  -12194   -12159   -12132   -12113   -12096   -12087   -12097   -12117 
  -12132   -12150   -12179   -12212   -12245   -12293   -12344   -12393 
  -12445   -12503   -12560   -12618   -12672   -12719   -12772   -12822 
  -12857   -12893   -12934   -12965   -12993   -13019   -13042   -13068 
  -13084   -13090   -13101   -13108   -13111   -13117   -13119   -13113 
  -13109   -13111   -13117   -13124   -13127   -13134   -13140   -13146 
  -13154   -13170   -13189   -13213   -13244   -13282   -13324   -13369 
  -13417   -13470   -13520   -13566   -13612   -13657   -13695   -13728 
  -13752   -13768   -13778   -13782   -13775   -13759   -13743   -13717 
  -13689   -13663   -13630   -13591   -13560   -13528   -13487   -13448 
  -13410   -13371   -13335   -13300   -13262   -13227   -13198   -13170 
  -13143   -13120   -13107   -13104   -13104   -13101   -13103   -13109 
  -13124   -13149   -13169   -13194   -13230   -13259   -13284   -13317 
  -13354   -13390   -13423   -13458   -13500   -13543   -13581   -13622 
  -13666   -13693   -13714   -13738   -13751   -13755   -13753   -13743 
  -13728   -13713   -13699   -13683   -13652   -13612   -13572   -13527 
  -13474   -13424   -13377   -13339   -13306   -13265   -13224   -13185 
  -13149   -13117   -13086   -13054   -13023   -12989   -12955   -12923 
  -12892   -12862   -12827   -12785   -12738   -12683   -12623   -12567 
  -12505   -12436   -12374   -12320   -12263   -12209   -12162   -12123 
  -12093   -12074   -12054   -12033   -12024   -12023   -12025   -12037 
  -12056   -12069   -12075   -12087   -12101   -12113   -12120   -12120 
  -12121   -12123   -12120   -12116   -12112   -12108   -12108   -12110 
  -12109   -12106   -12104   -12101   -12097   -12091   -12086   -12085 
  -12087   -12098   -12114   -12127   -12140   -12160   -12191   -12226 
  -12268   -12317   -12363   -12407   -12456   -12503   -12544   -12579 
  -12614   -12642   -12658   -12671   -12684   -12688   -12680   -12669 
  -12657   -12640   -12617   -12590   -12552   -12513   -12483   -12448 
  -12409   -12376   -12345   -12309   -12274   -12244   -12214   -12178 
  -12136   -12100   -12069   -12037   -12015   -11998   -11981   -11962 
  -11954   -11955   -11959   -11963   -11966   -11971   -11982   -11998 
  -12017   -12037   -12058   -12079   -12106   -12137   -12171   -12210 
  -12249   -12289   -12334   -12384   -12434   -12487   -12540   -12591 
  -12636   -12672   -12711   -12750   -12783   -12814   -12843   -12866 
  -12889   -12922   -12951   -12980   -13016   -13055   -13096   -13139 
  -13185   -13236   -13290   -13347   -13416   -13490   -13568   -13656 
  -13738   -13815   -13896   -13969   -14031   -14095   -14146   -14184 
  -14215   -14234   -14237   -14227   -14204   -14169   -14126   -14079 
  -14021   -13956   -13890   -13826   -13765   -13703   -13641   -13583 
  -13529   -13471   -13421   -13381   -13336   -13290   -13250   -13209 
  -13166   -13127   -13089   -13047   -13007   -12974   -12947   -12920 
  -12892   -12857   -12819   -12787   -12760   -12735   -12711   -12681 
  -12646   -12615   -12595   -12584   -12579   -12586   -12596   -12607 
  -12622   -12637   -12646   -12654   -12658   -12654   -12652   -12644 
  -12634   -12625   -12611   -12600   -12592   -12586   -12583   -12579 
  -12572   -12568   -12569   -12582   -12596   -12613   -12630   -12652 
  -12673   -12700   -12729   -12757   -12784   -12814   -12850   -12887 
  -12926   -12970   -13018   -13068   -13113   -13150   -13186   -13221 
  -13248   -13273   -13296   -13309   -13323   -13333   -13335   -13328 
  -13317   -13304   -13281   -13257   -13227   -13190   -13154   -13109 
  -13066   -13026   -12984   -12951   -12928   -12897   -12864   -12843 
  -12830   -12811   -12789   -12769   -12746   -12726   -12708   -12684 
  -12653   -12618   -12586   -12553   -12513   -12468   -12429   -12391 
  -12355   -12318   -12285   -12263   -12249   -12237   -12233   -12241 
  -12256   -12272   -12293   -12317   -12340   -12363   -12391   -12417 
  -12438   -12461   -12496   -12532   -12561   -12591   -12614   -12626 
  -12644   -12661   -12675   -12685   -12694   -12696   -12694   -12691 
  -12691   -12685   -12679   -12672   -12658   -12649   -12642   -12631 
  -12623   -12617   -12611   -12606   -12594   -12582   -12572   -12560 
  -12553   -12552   -12542   -12529   -12515   -12503   -12492   -12482 
  -12472   -12468   -12469   -12479   -12488   -12501   -12521   -12545 
  -12569   -12606   -12645   -12683   -12719   -12757   -12799   -12835 
  -12865   -12889   -12910   -12931   -12949   -12957   -12968   -12982 
  -12991   -12993   -12995   -13000   -13014   -13023   -13024   -13035 
  -13053   -13057   -13063   -13080   -13093   -13101   -13109   -13122 
  -13134   -13139   -13143   -13146   -13143   -13143   -13142   -13139 
  -13142   -13143   -13142   -13147   -13153   -13159   -13161   -13158 
  -13158   -13154   -13142   -13124   -13100   -13070   -13034   -12995 
  -12945   -12887   -12825   -12766   -12708   -12653   -12600   -12557 
  -12522   -12496   -12475   -12463   -12464   -12475   -12488   -12510 
  -12541   -12577   -12623   -12673   -12721   -12769   -12810   -12846 
  -12893   -12942   -12985   -13028   -13070   -13105   -13134   -13162 
  -13184   -13203   -13223   -13232   -13232   -13235   -13236   -13228 
  -13220   -13215   -13205   -13189   -13170   -13153   -13132   -13112 
  -13090   -13070   -13053   -13032   -13014   -13000   -12989   -12977 
  -12968   -12961   -12953   -12946   -12943   -12939   -12933   -12930 
  -12927   -12922   -12919   -12919   -12918   -12916   -12912   -12904 
  -12896   -12888   -12873   -12856   -12839   -12823   -12802   -12773 
  -12746   -12719   -12684   -12641   -12592   -12541   -12488   -12440 
  -12388   -12330   -12276   -12226   -12177   -12128   -12089   -12059 
  -12027   -11996   -11973   -11948   -11928   -11919   -11913   -11913 
  -11919   -11923   -11931   -11943   -11956   -11973   -11992   -12013 
  -12039   -12066   -12096   -12133   -12167   -12197   -12231   -12267 
  -12298   -12330   -12360   -12386   -12410   -12430   -12438   -12442 
  -12452   -12453   -12451   -12460   -12467   -12465   -12472   -12484 
  -12494   -12510   -12526   -12545   -12569   -12604   -12646   -12690 
  -12735   -12791   -12850   -12908   -12968   -13028   -13085   -13140 
  -13197   -13251   -13298   -13347   -13396   -13441   -13481   -13517 
  -13554   -13585   -13612   -13633   -13653   -13671   -13679   -13674 
  -13667   -13655   -13636   -13616   -13591   -13562   -13541   -13522 
  -13504   -13491   -13485   -13482   -13490   -13497   -13500   -13502 
  -13508   -13513   -13516   -13513   -13501   -13486   -13473   -13452 
  -13424   -13389   -13344   -13300   -13257   -13207   -13151   -13100 
  -13053   -13000   -12946   -12895   -12842   -12791   -12741   -12690 
  -12636   -12584   -12537   -12490   -12445   -12411   -12390   -12371 
  -12361   -12360   -12359   -12367   -12393   -12422   -12457   -12496 
  -12546   -12610   -12673   -12735   -12811   -12892   -12968   -13041 
  -13113   -13188   -13251   -13300   -13343   -13381   -13414   -13440 
  -13456   -13468   -13475   -13467   -13456   -13454   -13440   -13416 
  -13397   -13374   -13344   -13311   -13267   -13227   -13192   -13155 
  -13123   -13086   -13045   -13014   -12982   -12945   -12912   -12885 
  -12856   -12829   -12799   -12768   -12748   -12731   -12711   -12692 
  -12683   -12683   -12687   -12691   -12700   -12714   -12730   -12753 
  -12776   -12791   -12802   -12808   -12814   -12816   -12814   -12806 
  -12791   -12768   -12752   -12735   -12712   -12694   -12673   -12653 
  -12637   -12618   -12596   -12582   -12573   -12575   -12584   -12598 
  -12611   -12626   -12652   -12687   -12722   -12760   -12804   -12846 
  -12889   -12934   -12974   -13009   -13046   -13084   -13122   -13157 
  -13190   -13220   -13246   -13267   -13288   -13306   -13323   -13328 
  -13333   -13340   -13339   -13332   -13328   -13320   -13304   -13286 
  -13266   -13235   -13197   -13159   -13119   -13073   -13028   -12978 
  -12922   -12862   -12802   -12741   -12681   -12618   -12553   -12494 
  -12438   -12382   -12330   -12286   -12240   -12198   -12168   -12141 
  -12113   -12091   -12073   -12051   -12039   -12025   -12002   -11994 
  -11992   -11982   -11975   -11971   -11963   -11956   -11955   -11959 
  -11959   -11958   -11963   -11974   -11988   -12010   -12032   -12050 
  -12073   -12102   -12129   -12158   -12187   -12216   -12247   -12287 
  -12326   -12363   -12406   -12452   -12495   -12542   -12592   -12642 
