Origin Time       2025/01/13 21:19:00
Lat.              31.8
Long.             131.6
Depth. (km)       30
Mag.              6.9
Station Code      SMNH06
Station Lat.      34.8839
Station Long.     132.2026
Station Height(m) 260
Record Time       2025/01/13 21:20:35
Sampling Freq(Hz) 100Hz
Duration Time(s)  157
Dir.              6
Scale Factor      7845(gal)/8223790
Max. Acc. (gal)   1.218
Last Correction   2025/01/13 21:20:35
Memo.             
[...]
   -1682    -1665    -1660    -1675    -1714    -1768    -1817    -1837 
   -1826    -1787    -1730    -1676    -1641    -1625    -1620    -1620 
   -1625    -1633    -1633    -1628    -1621    -1626    -1651    -1678 
   -1686    -1678    -1665    -1663    -1671    -1679    -1678    -1664 
   -1630    -1590    -1570    -1578    -1603    -1628    -1651    -1667 
   -1669    -1655    -1626    -1593    -1564    -1553    -1556    -1553 
   -1539    -1534    -1557    -1595    -1628    -1647    -1655    -1655 
   -1651    -1647    -1641    -1636    -1637    -1642    -1647    -1648 
   -1649    -1653    -1667    -1694    -1734    -1786    -1825    -1833 
   -1831    -1831    -1825    -1817    -1803    -1779    -1748    -1715 
   -1691    -1678    -1669    -1664    -1656    -1651    -1663    -1691 
   -1719    -1734    -1728    -1705    -1690    -1694    -1694    -1684 
   -1683    -1702    -1740    -1772    -1777    -1765    -1764    -1773 
   -1773    -1746    -1707    -1676    -1659    -1651    -1642    -1625 
   -1614    -1636    -1688    -1745    -1791    -1818    -1822    -1809 
   -1783    -1741    -1690    -1630    -1571    -1522    -1495    -1495 
   -1514    -1541    -1576    -1620    -1660    -1687    -1701    -1709 
   -1719    -1722    -1699    -1657    -1625    -1617    -1621    -1611 
   -1578    -1545    -1530    -1532    -1552    -1586    -1629    -1688 
   -1734    -1752    -1761    -1777    -1798    -1817    -1829    -1831 
   -1825    -1802    -1771    -1752    -1755    -1772    -1794    -1815 
   -1836    -1846    -1831    -1792    -1753    -1750    -1786    -1823 
   -1836    -1834    -1844    -1865    -1880    -1873    -1845    -1818 
   -1806    -1796    -1783    -1768    -1756    -1755    -1764    -1782 
   -1814    -1863    -1903    -1911    -1888    -1852    -1804    -1763 
   -1729    -1695    -1675    -1675    -1682    -1680    -1676    -1674 
   -1668    -1656    -1640    -1630    -1626    -1630    -1653    -1694 
   -1738    -1787    -1841    -1880    -1899    -1895    -1864    -1821 
   -1775    -1736    -1718    -1710    -1701    -1694    -1699    -1710 
   -1715    -1709    -1695    -1683    -1679    -1686    -1683    -1659 
   -1622    -1591    -1574    -1561    -1551    -1555    -1564    -1568 
   -1582    -1605    -1615    -1615    -1626    -1649    -1679    -1711 
   -1732    -1741    -1738    -1726    -1711    -1695    -1676    -1668 
   -1674    -1682    -1680    -1686    -1707    -1738    -1763    -1777 
   -1791    -1810    -1813    -1784    -1726    -1659    -1601    -1563 
   -1537    -1517    -1516    -1545    -1602    -1669    -1726    -1771 
   -1807    -1827    -1811    -1773    -1752    -1768    -1811    -1846 
   -1853    -1845    -1840    -1845    -1853    -1848    -1833    -1826 
   -1830    -1834    -1838    -1840    -1846    -1873    -1911    -1937 
   -1934    -1908    -1877    -1854    -1833    -1798    -1761    -1750 
   -1769    -1794    -1800    -1788    -1763    -1734    -1701    -1659 
   -1629    -1620    -1625    -1629    -1617    -1594    -1579    -1579 
   -1597    -1622    -1636    -1637    -1647    -1659    -1660    -1655 
   -1660    -1682    -1707    -1715    -1701    -1679    -1680    -1709 
   -1742    -1764    -1782    -1803    -1834    -1860    -1868    -1864 
   -1863    -1857    -1841    -1825    -1804    -1772    -1734    -1699 
   -1678    -1663    -1648    -1642    -1656    -1680    -1695    -1686 
   -1671    -1659    -1644    -1621    -1591    -1570    -1574    -1601 
   -1622    -1628    -1640    -1668    -1696    -1718    -1742    -1779 
   -1826    -1871    -1884    -1872    -1856    -1840    -1814    -1780 
   -1740    -1702    -1682    -1674    -1663    -1661    -1682    -1703 
   -1709    -1694    -1664    -1637    -1629    -1632    -1628    -1614 
   -1598    -1586    -1583    -1584    -1588    -1605    -1622    -1641 
   -1675    -1715    -1738    -1721    -1675    -1638    -1629    -1645 
   -1684    -1730    -1761    -1777    -1791    -1799    -1798    -1792 
   -1792    -1796    -1798    -1786    -1745    -1694    -1665    -1665 
   -1687    -1717    -1740    -1756    -1768    -1771    -1759    -1732 
   -1696    -1665    -1642    -1626    -1614    -1598    -1583    -1574 
   -1568    -1571    -1571    -1563    -1559    -1570    -1587    -1590 
   -1575    -1556    -1544    -1528    -1491    -1441    -1402    -1391 
   -1412    -1445    -1478    -1521    -1591    -1674    -1733    -1750 
   -1734    -1705    -1678    -1652    -1607    -1557    -1530    -1539 
   -1579    -1622    -1636    -1630    -1632    -1649    -1680    -1714 
   -1741    -1753    -1733    -1680    -1613    -1551    -1514    -1513 
   -1533    -1553    -1559    -1557    -1548    -1539    -1551    -1588 
   -1645    -1715    -1769    -1786    -1767    -1717    -1647    -1583 
   -1540    -1503    -1456    -1416    -1394    -1398    -1440    -1501 
   -1548    -1574    -1588    -1605    -1607    -1594    -1593    -1621 
   -1652    -1661    -1641    -1606    -1584    -1595    -1621    -1641 
   -1651    -1657    -1671    -1698    -1732    -1759    -1780    -1800 
   -1821    -1833    -1822    -1800    -1788    -1795    -1817    -1845 
   -1860    -1853    -1834    -1817    -1806    -1823    -1879    -1934 
   -1946    -1898    -1825    -1765    -1734    -1723    -1723    -1722 
   -1713    -1699    -1678    -1659    -1661    -1687    -1722    -1765 
   -1796    -1806    -1803    -1784    -1750    -1721    -1695    -1672 
   -1665    -1678    -1687    -1687    -1692    -1714    -1750    -1795 
   -1833    -1850    -1842    -1811    -1784    -1787    -1814    -1836 
   -1823    -1787    -1769    -1795    -1848    -1894    -1904    -1894 
   -1885    -1887    -1896    -1898    -1872    -1836    -1803    -1771 
   -1736    -1699    -1663    -1640    -1634    -1629    -1621    -1632 
   -1669    -1728    -1790    -1834    -1849    -1852    -1845    -1830 
   -1815    -1804    -1804    -1806    -1807    -1823    -1854    -1895 
   -1935    -1948    -1933    -1923    -1927    -1927    -1903    -1844 
   -1765    -1684    -1620    -1584    -1566    -1553    -1557    -1574 
   -1597    -1624    -1641    -1651    -1661    -1669    -1678    -1668 
   -1625    -1572    -1540    -1525    -1517    -1514    -1518    -1532 
   -1544    -1536    -1510    -1494    -1510    -1555    -1603    -1637 
   -1657    -1678    -1707    -1748    -1787    -1823    -1861    -1904 
   -1945    -1950    -1926    -1900    -1883    -1853    -1802    -1734 
   -1672    -1634    -1617    -1606    -1597    -1584    -1555    -1518 
   -1493    -1483    -1501    -1547    -1590    -1607    -1620    -1642 
   -1668    -1690    -1715    -1729    -1714    -1694    -1692    -1718 
   -1767    -1804    -1807    -1786    -1767    -1764    -1783    -1814 
   -1846    -1879    -1904    -1910    -1885    -1842    -1790    -1734 
   -1691    -1667    -1661    -1672    -1682    -1684    -1690    -1702 
   -1721    -1745    -1745    -1707    -1661    -1622    -1602    -1615 
   -1649    -1680    -1699    -1706    -1709    -1729    -1771    -1826 
   -1869    -1879    -1860    -1838    -1823    -1813    -1804    -1798 
   -1796    -1813    -1841    -1875    -1908    -1945    -1969    -1965 
   -1939    -1898    -1840    -1777    -1717    -1664    -1630    -1607 
   -1571    -1525    -1486    -1460    -1452    -1466    -1495    -1541 
   -1594    -1640    -1660    -1660    -1649    -1626    -1591    -1549 
   -1520    -1518    -1548    -1605    -1665    -1723    -1764    -1772 
   -1760    -1738    -1699    -1656    -1624    -1605    -1599    -1606 
   -1617    -1636    -1653    -1659    -1661    -1676    -1711    -1763 
   -1815    -1860    -1890    -1895    -1873    -1825    -1753    -1687 
   -1641    -1613    -1599    -1584    -1566    -1564    -1576    -1587 
   -1593    -1597    -1609    -1628    -1653    -1691    -1736    -1780 
   -1834    -1880    -1885    -1857    -1827    -1825    -1846    -1879 
   -1910    -1941    -1971    -1993    -1999    -1996    -2027    -2111 
   -2209    -2277    -2290    -2243    -2164    -2080    -1988    -1898 
   -1829    -1798    -1804    -1838    -1877    -1912    -1954    -2002 
   -2037    -2049    -2031    -1996    -1961    -1935    -1912    -1888 
   -1875    -1883    -1911    -1949    -1977    -1991    -2007    -2027 
   -2039    -2042    -2018    -1949    -1858    -1775    -1702    -1640 
   -1583    -1547    -1548    -1575    -1588    -1574    -1552    -1551 
   -1575    -1603    -1603    -1560    -1491    -1428    -1387    -1381 
   -1382    -1368    -1345    -1337    -1359    -1402    -1443    -1467 
   -1463    -1421    -1354    -1289    -1236    -1198    -1179    -1193 
   -1243    -1318    -1406    -1479    -1514    -1524    -1526    -1529 
   -1540    -1564    -1591    -1607    -1602    -1568    -1528    -1495 
   -1459    -1422    -1416    -1449    -1518    -1599    -1663    -1706 
   -1741    -1771    -1792    -1810    -1822    -1822    -1802    -1775 
   -1752    -1729    -1703    -1667    -1628    -1603    -1611    -1647 
   -1705    -1771    -1823    -1856    -1868    -1857    -1818    -1761 
   -1706    -1660    -1629    -1618    -1626    -1641    -1672    -1709 
   -1722    -1713    -1698    -1698    -1721    -1748    -1764    -1772 
   -1783    -1799    -1800    -1760    -1690    -1637    -1640    -1688 
   -1756    -1817    -1863    -1903    -1953    -1993    -1999    -1971 
   -1919    -1865    -1821    -1784    -1753    -1741    -1752    -1779 
   -1817    -1852    -1881    -1918    -1956    -1984    -1988    -1956 
   -1902    -1857    -1838    -1826    -1798    -1761    -1740    -1736 
   -1746    -1767    -1780    -1784    -1792    -1804    -1818    -1833 
   -1846    -1860    -1877    -1895    -1908    -1915    -1900    -1858 
   -1813    -1788    -1798    -1825    -1850    -1877    -1911    -1937 
   -1939    -1911    -1863    -1817    -1792    -1786    -1767    -1722 
   -1668    -1622    -1595    -1598    -1617    -1630    -1640    -1651 
   -1667    -1679    -1669    -1648    -1638    -1637    -1647    -1676 
   -1719    -1756    -1772    -1771    -1771    -1787    -1817    -1838 
   -1837    -1829    -1833    -1841    -1838    -1811    -1768    -1732 
   -1701    -1663    -1618    -1570    -1520    -1487    -1483    -1498 
   -1501    -1485    -1470    -1475    -1502    -1539    -1570    -1588 
   -1606    -1611    -1584    -1537    -1501    -1480    -1479    -1489 
   -1505    -1537    -1590    -1637    -1659    -1652    -1626    -1597 
   -1568    -1547    -1548    -1571    -1599    -1628    -1667    -1703 
   -1722    -1723    -1713    -1709    -1725    -1750    -1764    -1756 
   -1736    -1732    -1753    -1763    -1732    -1679    -1632    -1609 
   -1609    -1613    -1610    -1617    -1632    -1648    -1669    -1680 
   -1668    -1649    -1620    -1578    -1536    -1513    -1518    -1553 
   -1595    -1620    -1629    -1638    -1651    -1655    -1645    -1637 
   -1644    -1648    -1632    -1598    -1563    -1545    -1566    -1614 
   -1671    -1730    -1787    -1830    -1852    -1844    -1804    -1750 
   -1696    -1642    -1578    -1499    -1417    -1354    -1316    -1300 
   -1297    -1300    -1305    -1312    -1314    -1306    -1297    -1283 
   -1266    -1247    -1236    -1246    -1267    -1282    -1287    -1289 
   -1282    -1262    -1219    -1167    -1143    -1147    -1165    -1189 
   -1209    -1223    -1243    -1255    -1246    -1229    -1219    -1206 
   -1186    -1158    -1129    -1101    -1077    -1061    -1055    -1071 
   -1119    -1175    -1210    -1220    -1225    -1221    -1210    -1213 
   -1231    -1254    -1281    -1306    -1336    -1375    -1420    -1456 
   -1460    -1425    -1368    -1327    -1325    -1358    -1417    -1493 
   -1570    -1634    -1676    -1690    -1694    -1706    -1741    -1796 
   -1850    -1884    -1900    -1907    -1915    -1946    -2010    -2088 
   -2155    -2195    -2215    -2228    -2234    -2223    -2195    -2153 
   -2095    -2025    -1954    -1908    -1898    -1907    -1918    -1930 
   -1950    -1988    -2061    -2162    -2265    -2357    -2428    -2470 
   -2469    -2439    -2401    -2369    -2353    -2347    -2317    -2262 
   -2216    -2199    -2205    -2222    -2243    -2274    -2320    -2359 
   -2370    -2366    -2369    -2378    -2377    -2354    -2317    -2289 
   -2274    -2262    -2253    -2253    -2251    -2243    -2230    -2215 
   -2204    -2195    -2165    -2106    -2035    -1973    -1934    -1918 
   -1911    -1903    -1881    -1838    -1787    -1740    -1703    -1682 
   -1671    -1665    -1668    -1667    -1647    -1614    -1576    -1534 
   -1495    -1460    -1432    -1416    -1401    -1382    -1364    -1354 
   -1354    -1363    -1358    -1329    -1290    -1256    -1243    -1242 
   -1232    -1220    -1209    -1196    -1186    -1175    -1166    -1179 
   -1206    -1229    -1240    -1236    -1232    -1242    -1251    -1252 
   -1248    -1243    -1229    -1201    -1156    -1119    -1102    -1112 
   -1139    -1169    -1193    -1209    -1223    -1240    -1264    -1298 
   -1339    -1383    -1429    -1468    -1495    -1517    -1537    -1566 
   -1607    -1655    -1694    -1730    -1763    -1794    -1826    -1857 
   -1876    -1895    -1922    -1964    -2011    -2052    -2084    -2118 
   -2160    -2209    -2258    -2293    -2313    -2326    -2327    -2323 
   -2316    -2317    -2338    -2374    -2420    -2481    -2554    -2619 
   -2666    -2708    -2747    -2779    -2812    -2835    -2829    -2805 
   -2787    -2782    -2779    -2774    -2779    -2805    -2844    -2886 
   -2924    -2952    -2971    -2984    -2980    -2951    -2901    -2843 
   -2786    -2747    -2714    -2674    -2625    -2569    -2505    -2444 
   -2384    -2323    -2269    -2231    -2200    -2161    -2103    -2035 
   -1973    -1927    -1888    -1837    -1760    -1676    -1605    -1545 
   -1497    -1456    -1421    -1395    -1381    -1360    -1317    -1254 
   -1182    -1119    -1074    -1039     -997     -946     -899     -855 
    -808     -757     -708     -673     -654     -650     -649     -643 
    -649     -679     -734     -796     -842     -865     -881     -901 
    -920     -928     -928     -930     -945     -972     -994    -1005 
   -1020    -1050    -1085    -1125    -1165    -1196    -1220    -1244 
   -1278    -1320    -1355    -1389    -1433    -1486    -1540    -1595 
   -1642    -1690    -1740    -1769    -1769    -1748    -1730    -1732 
   -1744    -1744    -1736    -1733    -1744    -1760    -1771    -1777 
   -1788    -1810    -1845    -1883    -1900    -1894    -1876    -1868 
   -1881    -1907    -1929    -1931    -1919    -1907    -1902    -1894 
   -1888    -1900    -1930    -1956    -1969    -1975    -1972    -1971 
   -1987    -2016    -2052    -2076    -2083    -2080    -2073    -2064 
   -2053    -2052    -2074    -2119    -2177    -2231    -2255    -2245 
   -2220    -2193    -2160    -2127    -2095    -2058    -2025    -1998 
   -1968    -1927    -1888    -1865    -1856    -1856    -1852    -1836 
   -1810    -1784    -1752    -1707    -1656    -1606    -1564    -1526 
   -1486    -1444    -1409    -1383    -1371    -1379    -1397    -1405 
   -1393    -1366    -1332    -1306    -1289    -1277    -1270    -1267 
   -1273    -1294    -1328    -1354    -1362    -1358    -1366    -1393 
   -1432    -1468    -1493    -1499    -1494    -1494    -1498    -1493 
   -1483    -1482    -1490    -1509    -1537    -1564    -1586    -1595 
   -1586    -1570    -1559    -1559    -1576    -1603    -1625    -1642 
   -1653    -1652    -1656    -1678    -1717    -1773    -1845    -1910 
   -1954    -1975    -1979    -1977    -1979    -1991    -2014    -2045 
   -2076    -2099    -2111    -2118    -2130    -2151    -2174    -2182 
   -2172    -2147    -2111    -2069    -2027    -1993    -1976    -1971 
   -1964    -1948    -1927    -1910    -1903    -1900    -1898    -1896 
   -1896    -1888    -1867    -1838    -1811    -1776    -1737    -1709 
   -1687    -1665    -1637    -1590    -1522    -1456    -1410    -1379 
   -1350    -1313    -1277    -1240    -1198    -1151    -1098    -1048 
   -1017    -1011    -1013    -1012    -1003     -985     -967     -955 
    -945     -926     -907     -885     -858     -837     -827     -832 
    -850     -878     -911     -951    -1004    -1057    -1100    -1132 
   -1154    -1170    -1192    -1212    -1224    -1228    -1229    -1236 
   -1244    -1247    -1251    -1262    -1274    -1287    -1297    -1305 
   -1316    -1333    -1360    -1387    -1408    -1431    -1459    -1490 
   -1518    -1540    -1549    -1551    -1544    -1540    -1540    -1541 
   -1544    -1551    -1568    -1605    -1660    -1717    -1750    -1755 
   -1752    -1756    -1764    -1769    -1768    -1753    -1725    -1696 
   -1671    -1649    -1625    -1609    -1603    -1603    -1613    -1628 
   -1641    -1652    -1656    -1645    -1625    -1606    -1594    -1586 
   -1584    -1588    -1599    -1618    -1648    -1688    -1732    -1776 
   -1815    -1849    -1868    -1873    -1875    -1875    -1865    -1846 
   -1833    -1831    -1845    -1867    -1895    -1931    -1983    -2045 
   -2100    -2127    -2134    -2145    -2170    -2197    -2209    -2204 
   -2203    -2216    -2239    -2261    -2288    -2319    -2350    -2382 
   -2417    -2465    -2515    -2559    -2593    -2617    -2640    -2668 
   -2701    -2732    -2758    -2782    -2801    -2803    -2787    -2756 
   -2722    -2698    -2683    -2662    -2640    -2621    -2587    -2543 
   -2500    -2465    -2451    -2462    -2484    -2515    -2540    -2547 
   -2542    -2527    -2501    -2471    -2442    -2411    -2380    -2357 
   -2334    -2304    -2274    -2247    -2219    -2195    -2170    -2145 
   -2134    -2131    -2123    -2107    -2083    -2053    -2026    -1995 
   -1952    -1904    -1860    -1825    -1796    -1764    -1740    -1737 
   -1741    -1734    -1717    -1690    -1667    -1664    -1678    -1692 
   -1701    -1701    -1698    -1691    -1682    -1682    -1694    -1709 
   -1714    -1699    -1657    -1606    -1564    -1525    -1480    -1435 
   -1389    -1343    -1297    -1250    -1201    -1162    -1138    -1120 
   -1100    -1081    -1067    -1062    -1065    -1065    -1057    -1050 
   -1050    -1058    -1066    -1063    -1046    -1031    -1024    -1026 
   -1034    -1043    -1050    -1046    -1035    -1017     -993     -970 
    -946     -908     -864     -816     -776     -750     -733     -723 
    -722     -715     -695     -668     -634     -599     -573     -560 
    -549     -544     -546     -552     -549     -550     -565     -594 
    -629     -668     -719     -784     -862     -954    -1048    -1139 
   -1225    -1301    -1363    -1417    -1467    -1507    -1541    -1571 
   -1590    -1598    -1601    -1598    -1594    -1597    -1597    -1598 
   -1611    -1637    -1663    -1683    -1694    -1696    -1701    -1705 
   -1710    -1717    -1730    -1756    -1783    -1799    -1807    -1810 
   -1813    -1819    -1827    -1842    -1867    -1894    -1912    -1914 
   -1912    -1925    -1944    -1960    -1969    -1971    -1966    -1971 
   -1976    -1975    -1972    -1979    -1987    -1988    -1984    -1976 
   -1972    -1977    -1992    -2010    -2034    -2069    -2107    -2138 
   -2169    -2203    -2235    -2270    -2300    -2313    -2315    -2312 
   -2300    -2277    -2254    -2232    -2211    -2185    -2157    -2126 
   -2089    -2057    -2041    -2052    -2092    -2146    -2195    -2236 
