Origin Time       2025/01/13 21:19:00
Lat.              31.8
Long.             131.6
Depth. (km)       30
Mag.              6.9
Station Code      SMNH02
Station Lat.      35.2235
Station Long.     133.0856
Station Height(m) 239
Record Time       2025/01/13 21:20:58
Sampling Freq(Hz) 100Hz
Duration Time(s)  120
Dir.              1
Scale Factor      2942(gal)/8224139
Max. Acc. (gal)   0.443
Last Correction   2025/01/13 21:21:00
Memo.             
[...]
   65880    65839    65797    65757    65723    65703    65688    65673 
   65664    65646    65627    65610    65588    65574    65569    65570 
   65580    65592    65597    65599    65593    65585    65583    65585 
   65589    65599    65608    65612    65618    65627    65638    65655 
   65684    65709    65731    65753    65766    65765    65754    65743 
   65734    65726    65720    65711    65699    65678    65647    65611 
   65574    65545    65523    65507    65489    65468    65445    65423 
   65396    65371    65349    65327    65313    65304    65302    65303 
   65302    65298    65296    65299    65304    65311    65323    65341 
   65369    65403    65433    65461    65491    65524    65564    65608 
   65655    65699    65735    65773    65805    65830    65850    65870 
   65886    65901    65916    65929    65938    65935    65923    65907 
   65889    65884    65889    65892    65894    65894    65885    65874 
   65861    65842    65827    65813    65799    65790    65780    65763 
   65751    65742    65738    65742    65745    65757    65770    65773 
   65772    65769    65761    65750    65736    65726    65716    65707 
   65701    65693    65684    65674    65655    65635    65619    65603 
   65593    65581    65565    65557    65549    65539    65535    65534 
   65535    65543    65550    65556    65566    65577    65593    65615 
   65635    65655    65676    65695    65711    65724    65738    65751 
   65758    65762    65763    65761    65759    65751    65746    65747 
   65750    65750    65750    65740    65723    65705    65682    65661 
   65646    65632    65620    65607    65596    65595    65595    65587 
   65578    65573    65557    65538    65519    65499    65484    65480 
   65479    65473    65470    65466    65456    65449    65452    65458 
   65466    65475    65476    65475    65476    65476    65473    65473 
   65475    65473    65475    65477    65479    65483    65487    65491 
   65496    65504    65516    65534    65554    65577    65592    65604 
   65611    65618    65632    65645    65655    65666    65670    65669 
   65661    65649    65645    65643    65641    65642    65645    65641 
   65634    65630    65623    65616    65608    65596    65583    65564 
   65541    65515    65485    65458    65433    65412    65395    65380 
   65376    65384    65392    65402    65411    65418    65421    65414 
   65400    65384    65369    65354    65344    65346    65358    65368 
   65377    65387    65392    65392    65394    65402    65415    65425 
   65427    65423    65415    65408    65407    65410    65406    65403 
   65406    65406    65407    65406    65395    65384    65375    65364 
   65352    65342    65334    65327    65326    65333    65346    65365 
   65385    65407    65434    65466    65502    65545    65593    65639 
   65674    65707    65739    65765    65794    65831    65854    65866 
   65881    65892    65904    65932    65967    66001    66036    66066 
   66089    66106    66120    66129    66137    66147    66154    66154 
   66155    66160    66164    66167    66170    66167    66163    66162 
   66155    66151    66154    66156    66160    66164    66162    66154 
   66141    66124    66105    66081    66058    66037    66016    65992 
   65975    65961    65938    65909    65880    65850    65821    65785 
   65742    65696    65653    65611    65570    65535    65500    65462 
   65431    65404    65376    65353    65338    65333    65334    65335 
   65333    65330    65325    65322    65323    65323    65330    65338 
   65344    65357    65375    65391    65412    65441    65465    65485 
   65508    65527    65539    65549    65564    65588    65612    65634 
   65657    65682    65700    65712    65728    65745    65758    65773 
   65785    65797    65812    65832    65857    65888    65920    65948 
   65981    66010    66035    66058    66081    66100    66114    66129 
   66140    66144    66136    66124    66104    66074    66040    66009 
   65979    65952    65928    65901    65869    65834    65793    65758 
   65731    65704    65681    65668    65657    65650    65647    65651 
   65659    65673    65686    65703    65722    65742    65765    65790 
   65813    65832    65850    65866    65886    65916    65947    65979 
   66013    66036    66048    66060    66071    66083    66096    66104 
   66110    66125    66140    66155    66168    66179    66185    66182 
   66177    66171    66156    66136    66114    66087    66059    66032 
   66000    65967    65935    65901    65866    65830    65786    65735 
   65673    65603    65534    65469    65404    65345    65291    65244 
   65195    65148    65102    65061    65024    64991    64962    64937 
   64922    64913    64906    64910    64922    64933    64948    64967 
   64983    64997    65003    65007    65011    65017    65026    65044 
   65061    65082    65106    65137    65176    65223    65273    65319 
   65362    65407    65446    65479    65515    65553    65587    65622 
   65659    65696    65731    65761    65781    65799    65815    65830 
   65844    65861    65873    65884    65893    65901    65904    65901 
   65896    65885    65865    65842    65813    65776    65738    65701 
   65662    65623    65588    65556    65522    65489    65460    65431 
   65404    65384    65365    65344    65325    65306    65279    65254 
   65236    65225    65221    65219    65219    65223    65226    65225 
   65223    65222    65221    65222    65232    65245    65260    65276 
   65294    65310    65329    65352    65369    65388    65412    65430 
   65443    65460    65479    65506    65538    65569    65600    65639 
   65684    65724    65763    65805    65840    65866    65886    65907 
   65923    65935    65947    65959    65971    65988    66002    66016 
   66028    66035    66039    66039    66033    66023    66012    66009 
   66006    65994    65982    65975    65961    65940    65924    65908 
   65892    65875    65861    65847    65834    65821    65811    65803 
   65794    65788    65785    65788    65793    65800    65808    65816 
   65823    65824    65826    65832    65840    65850    65865    65875 
   65875    65870    65870    65866    65861    65861    65858    65848 
   65836    65816    65796    65780    65766    65757    65745    65728 
   65716    65704    65695    65689    65686    65681    65672    65662 
   65659    65658    65654    65653    65654    65650    65645    65642 
   65643    65649    65651    65646    65642    65638    65624    65608 
   65591    65561    65533    65507    65480    65453    65423    65389 
   65354    65323    65294    65263    65233    65203    65179    65156 
   65122    65080    65044    65006    64970    64947    64932    64922 
   64924    64935    64949    64967    64991    65022    65048    65079 
   65122    65160    65190    65223    65257    65284    65314    65349 
   65387    65426    65470    65515    65562    65610    65654    65700 
   65745    65786    65827    65869    65921    65979    66032    66086 
   66140    66197    66256    66309    66360    66407    66438    66457 
   66465    66465    66459    66448    66430    66410    66390    66367 
   66336    66302    66262    66212    66166    66118    66062    66004 
   65950    65898    65842    65776    65708    65642    65576    65510 
   65446    65388    65335    65280    65225    65183    65149    65119 
   65103    65102    65107    65125    65156    65192    65229    65269 
   65318    65364    65414    65472    65523    65568    65608    65641 
   65664    65681    65696    65707    65709    65709    65699    65676 
   65654    65626    65587    65549    65514    65479    65446    65419 
   65399    65379    65361    65349    65338    65329    65323    65321 
   65325    65335    65348    65367    65388    65412    65439    65464 
   65488    65515    65541    65570    65604    65631    65655    65677 
   65692    65705    65718    65724    65727    65731    65736    65746 
   65753    65761    65778    65801    65828    65861    65893    65919 
   65947    65974    65996    66020    66046    66073    66106    66144 
   66177    66206    66237    66260    66274    66283    66291    66287 
   66280    66276    66274    66271    66267    66258    66245    66233 
   66224    66212    66201    66195    66186    66175    66163    66147 
   66133    66125    66121    66123    66129    66136    66145    66150 
   66148    66147    66144    66139    66129    66118    66112    66098 
   66078    66062    66046    66024    65998    65971    65951    65931 
   65904    65878    65855    65827    65790    65754    65722    65686 
   65653    65622    65585    65545    65508    65470    65434    65398 
   65358    65322    65291    65259    65223    65191    65160    65121 
   65079    65043    65017    64998    64986    64980    64983    64993 
   65009    65029    65055    65076    65095    65118    65142    65167 
   65199    65234    65259    65279    65303    65326    65345    65361 
   65381    65406    65423    65431    65433    65431    65425    65410 
   65394    65379    65367    65356    65338    65314    65287    65256 
   65221    65184    65140    65090    65045    65003    64960    64922 
   64891    64866    64844    64832    64822    64814    64808    64801 
   64789    64782    64783    64781    64774    64777    64789    64797 
   64804    64816    64833    64852    64878    64910    64940    64966 
   64993    65024    65053    65084    65117    65146    65178    65210 
   65237    65264    65299    65333    65361    65395    65433    65465 
   65499    65538    65583    65623    65661    65700    65731    65755 
   65782    65809    65835    65862    65890    65923    65954    65979 
   65996    66017    66042    66064    66087    66110    66127    66140 
   66160    66186    66209    66232    66249    66266    66279    66287 
   66285    66272    66249    66229    66204    66168    66136    66106 
   66069    66031    65997    65955    65916    65882    65851    65823 
   65796    65778    65772    65773    65780    65794    65817    65848 
   65886    65925    65961    65998    66036    66074    66113    66147 
   66179    66213    66243    66266    66285    66298    66310    66314 
   66312    66309    66302    66291    66272    66244    66214    66191 
   66163    66135    66113    66090    66059    66024    65979    65932 
   65886    65840    65792    65736    65677    65627    65583    65541 
   65506    65480    65461    65450    65439    65433    65435    65443 
   65457    65468    65475    65483    65491    65492    65492    65495 
   65503    65516    65535    65556    65573    65593    65611    65628 
   65650    65666    65680    65693    65699    65695    65685    65672 
   65655    65635    65610    65584    65561    65539    65522    65504 
   65492    65481    65470    65462    65449    65427    65408    65395 
   65376    65361    65350    65342    65335    65340    65353    65372 
   65392    65419    65446    65469    65492    65515    65533    65550 
   65577    65605    65626    65646    65672    65693    65712    65732 
   65753    65770    65792    65815    65840    65863    65881    65897 
   65916    65932    65947    65961    65974    65983    65997    66015 
   66025    66029    66028    66029    66029    66024    66019    66017 
   66012    65998    65981    65962    65946    65921    65894    65874 
   65851    65828    65808    65792    65773    65751    65728    65701 
   65670    65638    65601    65562    65518    65468    65416    65369 
   65322    65273    65230    65188    65146    65107    65070    65037 
   65017    64995    64972    64962    64951    64940    64937    64937 
   64937    64948    64968    64995    65028    65070    65115    65156 
   65195    65236    65268    65294    65326    65356    65376    65394 
   65416    65442    65464    65477    65492    65512    65530    65547 
   65568    65588    65605    65620    65635    65651    65670    65691 
   65709    65728    65750    65772    65797    65817    65831    65846 
   65863    65878    65894    65913    65932    65948    65967    65986 
   66004    66025    66047    66067    66086    66102    66116    66131 
   66135    66136    66144    66150    66152    66159    66167    66171 
   66181    66189    66189    66190    66190    66178    66167    66159 
   66145    66125    66105    66083    66060    66036    66006    65974 
   65939    65900    65854    65809    65763    65716    65670    65622 
   65569    65520    65473    65426    65384    65344    65304    65268 
   65233    65195    65159    65122    65087    65052    65017    64983 
   64952    64925    64899    64872    64854    64836    64817    64804 
   64791    64775    64758    64746    64731    64712    64696    64679 
   64658    64639    64619    64598    64582    64570    64563    64565 
   64569    64575    64593    64611    64625    64647    64673    64702 
   64741    64778    64818    64872    64932    64991    65059    65133 
   65203    65268    65334    65403    65469    65534    65597    65658 
   65715    65766    65823    65884    65936    65986    66037    66085 
   66129    66172    66210    66240    66272    66302    66320    66332 
   66345    66355    66360    66366    66366    66359    66353    66360 
   66366    66368    66386    66411    66429    66448    66469    66490 
   66506    66521    66538    66555    66569    66586    66602    66618 
   66634    66654    66679    66702    66717    66737    66758    66771 
   66783    66798    66810    66819    66835    66853    66869    66877 
   66877    66868    66847    66820    66784    66735    66680    66617 
   66541    66456    66371    66285    66189    66096    66009    65923 
   65839    65762    65686    65619    65557    65493    65434    65385 
   65342    65300    65263    65233    65205    65180    65163    65152 
   65152    65160    65171    65184    65203    65223    65245    65265 
   65288    65314    65340    65367    65392    65416    65445    65472 
   65493    65512    65534    65546    65549    65556    65551    65537 
   65523    65507    65479    65448    65415    65379    65344    65311 
   65281    65257    65237    65219    65202    65186    65169    65155 
   65144    65132    65124    65121    65117    65117    65119    65124 
   65126    65132    65144    65160    65171    65180    65190    65196 
   65200    65200    65200    65202    65195    65179    65169    65159 
   65142    65124    65098    65075    65059    65043    65022    65003 
   64993    64983    64975    64982    64994    65011    65041    65083 
   65126    65173    65223    65276    65335    65395    65450    65504 
   65556    65604    65654    65697    65735    65777    65815    65848 
   65881    65912    65940    65962    65982    66004    66020    66032 
   66044    66052    66059    66062    66062    66059    66055    66046 
   66036    66028    66015    65996    65981    65966    65947    65928 
   65908    65890    65873    65848    65826    65811    65792    65767 
   65750    65739    65726    65719    65724    65732    65743    65761 
   65784    65805    65830    65854    65877    65897    65913    65925 
   65929    65924    65923    65920    65912    65905    65892    65871 
   65848    65819    65786    65754    65722    65686    65651    65615 
   65578    65542    65502    65460    65419    65379    65342    65307 
   65272    65242    65218    65191    65168    65153    65140    65129 
   65126    65126    65132    65146    65160    65179    65209    65240 
   65272    65306    65340    65384    65429    65468    65507    65550 
   65589    65634    65680    65719    65757    65796    65832    65865 
   65901    65938    65970    65998    66029    66054    66074    66097 
   66114    66127    66137    66147    66145    66135    66121    66106 
   66082    66055    66031    66005    65977    65946    65916    65893 
   65874    65851    65828    65807    65786    65762    65739    65720 
   65700    65678    65662    65647    65627    65604    65581    65558 
   65538    65522    65503    65484    65469    65456    65441    65434 
   65433    65427    65423    65426    65423    65415    65415    65412 
   65406    65404    65402    65392    65383    65369    65349    65329 
   65302    65276    65254    65233    65213    65194    65179    65173 
   65175    65173    65175    65183    65195    65209    65230    65254 
   65279    65306    65333    65362    65395    65425    65457    65495 
   65526    65551    65580    65604    65623    65638    65645    65646 
   65643    65638    65628    65616    65607    65599    65589    65583 
   65573    65562    65551    65539    65527    65511    65488    65468 
   65450    65433    65414    65399    65388    65375    65365    65357 
   65346    65338    65333    65325    65314    65304    65300    65299 
   65302    65313    65321    65329    65344    65364    65379    65394 
   65411    65425    65435    65450    65464    65477    65491    65510 
   65529    65545    65565    65588    65611    65634    65657    65680 
   65707    65732    65747    65757    65769    65780    65790    65804 
   65817    65830    65840    65851    65857    65859    65863    65861 
   65854    65850    65846    65842    65838    65835    65831    65826 
   65816    65804    65793    65777    65755    65731    65697    65657 
   65614    65566    65515    65464    65406    65350    65298    65244 
   65188    65140    65098    65059    65020    64984    64952    64926 
   64906    64890    64879    64874    64864    64862    64864    64864 
   64868    64882    64899    64921    64949    64983    65024    65071 
   65124    65175    65226    65281    65338    65395    65454    65512 
   65573    65632    65685    65745    65804    65854    65907    65954 
   65986    66016    66042    66054    66062    66064    66059    66047 
   66028    66004    65977    65944    65908    65873    65838    65803 
   65766    65730    65699    65670    65642    65623    65608    65599 
   65595    65596    65600    65614    65627    65637    65651    65674 
   65696    65719    65747    65778    65809    65839    65870    65905 
   65936    65969    66005    66039    66064    66093    66127    66155 
   66175    66199    66228    66247    66260    66275    66287    66294 
   66297    66291    66276    66258    66237    66209    66179    66148 
   66112    66078    66043    66004    65962    65924    65889    65855 
   65816    65777    65739    65704    65668    65632    65600    65570 
   65543    65514    65487    65464    65441    65421    65404    65391 
   65384    65379    65372    65372    65375    65376    65377    65380 
   65381    65379    65376    65376    65375    65368    65358    65344 
   65322    65299    65276    65246    65217    65194    65168    65136 
   65106    65082    65056    65033    65014    64994    64978    64962 
   64943    64922    64906    64898    64881    64862    64858    64854 
   64843    64837    64839    64836    64839    64851    64860    64871 
   64887    64909    64937    64968    64998    65038    65086    65130 
   65187    65257    65323    65392    65466    65538    65611    65689 
   65767    65835    65905    65981    66051    66114    66175    66226 
   66278    66332    66380    66424    66465    66505    66544    66577 
   66606    66630    66648    66657    66661    66661    66650    66633 
