Origin Time       2025/01/13 21:19:00
Lat.              31.8
Long.             131.6
Depth. (km)       30
Mag.              6.9
Station Code      SMNH01
Station Lat.      35.2963
Station Long.     133.2604
Station Height(m) 69
Record Time       2025/01/13 21:21:22
Sampling Freq(Hz) 100Hz
Duration Time(s)  120
Dir.              3
Scale Factor      2942(gal)/8224139
Max. Acc. (gal)   0.384
Last Correction   2025/01/13 21:21:23
Memo.             
[...]
  147827   147834   147831   147853   147872   147883   147908   147923 
  147915   147893   147895   147920   147906   147865   147879   147901 
  147861   147830   147854   147850   147800   147779   147784   147771 
  147727   147696   147707   147698   147667   147661   147636   147604 
  147599   147567   147536   147545   147530   147479   147457   147472 
  147467   147442   147448   147453   147441   147448   147434   147407 
  147413   147418   147422   147434   147429   147415   147410   147393 
  147379   147395   147405   147393   147374   147353   147376   147401 
  147353   147317   147330   147320   147293   147298   147298   147283 
  147302   147325   147317   147318   147336   147348   147355   147361 
  147379   147390   147386   147406   147440   147451   147463   147498 
  147514   147502   147487   147487   147498   147503   147509   147510 
  147498   147494   147509   147537   147542   147537   147576   147599 
  147576   147577   147588   147592   147606   147603   147573   147565 
  147582   147561   147538   147550   147552   147550   147549   147541 
  147557   147577   147576   147575   147591   147610   147600   147599 
  147644   147664   147648   147642   147630   147613   147609   147599 
  147588   147575   147561   147542   147514   147517   147533   147517 
  147510   147523   147521   147495   147479   147494   147501   147468 
  147451   147474   147471   147433   147409   147407   147402   147361 
  147330   147336   147320   147298   147293   147286   147294   147285 
  147256   147264   147283   147268   147252   147274   147298   147303 
  147305   147299   147290   147289   147295   147295   147301   147330 
  147348   147344   147372   147410   147414   147407   147402   147402 
  147438   147451   147415   147411   147402   147375   147401   147398 
  147344   147333   147341   147340   147349   147330   147302   147306 
  147294   147276   147298   147330   147332   147314   147343   147383 
  147341   147312   147352   147374   147399   147425   147409   147413 
  147438   147429   147422   147447   147448   147438   147444   147432 
  147438   147471   147447   147434   147490   147514   147479   147464 
  147483   147496   147498   147471   147418   147401   147425   147425 
  147401   147397   147386   147370   147372   147366   147366   147387 
  147394   147390   147394   147407   147414   147421   147445   147468 
  147479   147502   147546   147575   147564   147569   147596   147598 
  147583   147573   147583   147587   147563   147552   147549   147538 
  147536   147502   147463   147467   147465   147438   147413   147390 
  147391   147413   147397   147376   147382   147371   147363   147375 
  147379   147380   147374   147368   147390   147394   147402   147451 
  147472   147469   147510   147542   147532   147537   147549   147533 
  147521   147517   147517   147523   147503   147453   147464   147498 
  147469   147445   147449   147437   147414   147401   147399   147401 
  147407   147415   147410   147406   147414   147414   147409   147407 
  147402   147394   147399   147403   147382   147370   147355   147324 
  147333   147339   147280   147262   147291   147263   147231   147225 
  147189   147167   147151   147143   147175   147154   147108   147123 
  147118   147094   147085   147059   147046   147048   147040   147037 
  147055   147078   147075   147066   147085   147102   147097   147112 
  147152   147167   147191   147225   147235   147266   147303   147295 
  147303   147341   147364   147380   147397   147420   147453   147465 
  147490   147530   147538   147548   147577   147588   147583   147591 
  147595   147587   147588   147599   147600   147592   147591   147596 
  147592   147594   147604   147598   147588   147586   147584   147577 
  147572   147575   147556   147556   147602   147603   147556   147548 
  147555   147540   147532   147542   147534   147498   147487   147509 
  147505   147486   147479   147456   147429   147436   147445   147437 
  147445   147463   147461   147471   147496   147513   147518   147519 
  147510   147492   147505   147507   147464   147459   147471   147430 
  147420   147442   147438   147429   147418   147418   147444   147452 
  147442   147442   147442   147442   147452   147457   147451   147451 
  147456   147460   147482   147488   147442   147433   147476   147474 
  147471   147510   147532   147526   147526   147544   147567   147568 
  147575   147613   147633   147644   147683   147695   147688   147712 
  147719   147696   147717   147722   147690   147714   147731   147696 
  147688   147687   147669   147646   147633   147636   147621   147594 
  147582   147572   147563   147559   147546   147536   147522   147502 
  147494   147484   147484   147484   147448   147434   147461   147465 
  147471   147488   147474   147452   147460   147483   147502   147505 
  147522   147541   147521   147533   147561   147525   147517   147559 
  147542   147514   147522   147518   147518   147514   147490   147468 
  147442   147424   147406   147374   147340   147306   147287   147274 
  147256   147231   147195   147181   147175   147137   147100   147106 
  147104   147079   147077   147102   147118   147108   147108   147125 
  147124   147121   147131   147125   147109   147108   147102   147079 
  147070   147070   147032   146983   146979   146971   146942   146946 
  146951   146946   146966   146977   146966   146971   146993   146989 
  146954   146955   146954   146902   146877   146874   146861   146836 
  146809   146809   146790   146754   146751   146731   146707   146734 
  146731   146693   146693   146700   146688   146676   146654   146647 
  146668   146661   146637   146643   146643   146623   146615   146614 
  146624   146642   146643   146647   146665   146716   146766   146772 
  146784   146813   146836   146861   146884   146911   146950   146973 
  146973   146993   147029   147046   147070   147091   147106   147143 
  147162   147171   147202   147233   147252   147267   147305   147326 
  147317   147341   147364   147379   147421   147433   147415   147432 
  147460   147476   147491   147511   147514   147518   147536   147529 
  147548   147602   147602   147583   147613   147646   147645   147652 
  147687   147715   147742   147772   147785   147802   147830   147835 
  147847   147899   147930   147926   147930   147935   147947   147969 
  147976   148000   148030   148016   148008   148047   148074   148061 
  148074   148092   148078   148108   148136   148117   148111   148096 
  148074   148100   148111   148080   148069   148066   148059   148053 
  148020   148018   148062   148051   147997   147991   148003   148011 
  148005   147980   147984   148004   148011   148020   148035   148039 
  148035   148036   148032   148019   148027   148038   148027   148027 
  148039   148028   148012   148024   148053   148054   148026   148032 
  148068   148063   148045   148046   148066   148109   148130   148124 
  148136   148140   148127   148108   148069   148057   148070   148015 
  147943   147919   147888   147854   147833   147802   147761   147723 
  147680   147642   147649   147669   147627   147576   147579   147565 
  147522   147506   147484   147449   147418   147364   147328   147310 
  147264   147235   147205   147125   147071   147051   147008   147004 
  147035   146981   146907   146927   146932   146893   146889   146881 
  146885   146916   146889   146853   146878   146909   146921   146934 
  146951   146955   146948   146969   146981   146955   146970   147021 
  147032   147036   147056   147066   147067   147067   147075   147083 
  147059   147043   147054   147012   146963   146970   146954   146928 
  146916   146867   146832   146839   146831   146774   146724   146759 
  146817   146801   146774   146786   146796   146821   146844   146840 
  146877   146924   146939   146986   147035   147039   147055   147093 
  147117   147141   147160   147148   147158   147210   147210   147202 
  147260   147289   147297   147334   147326   147330   147403   147410 
  147379   147430   147491   147505   147499   147505   147544   147573 
  147583   147618   147636   147631   147673   147703   147683   147680 
  147691   147698   147714   147731   147756   147784   147788   147781 
  147810   147854   147861   147847   147834   147838   147858   147843 
  147820   147833   147819   147787   147793   147800   147781   147735 
  147676   147642   147618   147592   147573   147542   147498   147449 
  147430   147426   147386   147345   147340   147341   147330   147297 
  147259   147258   147267   147245   147213   147197   147197   147181 
  147150   147152   147160   147167   147210   147232   147210   147221 
  147270   147299   147301   147325   147359   147372   147397   147407 
  147411   147457   147484   147491   147501   147467   147451   147472 
  147480   147479   147471   147480   147502   147484   147480   147507 
  147510   147514   147544   147541   147528   147533   147532   147550 
  147564   147523   147510   147553   147565   147533   147515   147526 
  147514   147440   147394   147421   147415   147386   147380   147353 
  147314   147301   147291   147266   147231   147201   147202   147220 
  147212   147179   147156   147164   147159   147137   147117   147063 
  147035   147047   147025   147015   147017   146986   146962   146951 
  146942   146917   146869   146844   146844   146844   146834   146820 
  146828   146820   146820   146862   146873   146877   146909   146912 
  146934   146974   146966   146990   147035   147019   147032   147079 
  147091   147124   147156   147144   147154   147197   147222   147233 
  147259   147302   147325   147349   147406   147437   147459   147499 
  147518   147546   147586   147607   147623   147611   147604   147657 
  147683   147656   147671   147704   147676   147663   147696   147688 
  147672   147700   147710   147690   147672   147690   147722   147706 
  147688   147726   147757   147764   147779   147792   147804   147835 
  147856   147860   147895   147915   147887   147897   147923   147908 
  147914   147927   147916   147955   148019   148003   147973   148009 
  148034   148026   148051   148086   148086   148089   148123   148146 
  148158   148186   148190   148184   148192   148178   148170   148186 
  148173   148143   148140   148150   148143   148113   148088   148076 
  148051   148012   147988   147982   147953   147891   147835   147806 
  147772   147712   147660   147630   147594   147536   147471   147429 
  147401   147353   147312   147289   147260   147233   147237   147249 
  147217   147189   147213   147202   147172   147183   147178   147177 
  147198   147193   147193   147208   147204   147201   147206   147218 
  147247   147264   147255   147249   147274   147309   147328   147334 
  147329   147307   147316   147345   147341   147344   147363   147361 
  147366   147368   147349   147364   147415   147438   147417   147403 
  147430   147432   147407   147434   147474   147467   147445   147442 
  147453   147460   147478   147514   147517   147471   147437   147420 
  147379   147360   147371   147333   147263   147224   147217   147197 
  147167   147152   147112   147055   147033   147021   146998   146994 
  147001   146988   146977   146983   146974   146952   146939   146929 
  146935   146929   146886   146861   146874   146866   146820   146790 
  146784   146762   146738   146730   146715   146684   146655   146638 
  146619   146615   146620   146610   146588   146577   146564   146533 
  146533   146543   146511   146514   146549   146527   146510   146527 
  146541   146570   146583   146564   146584   146627   146635   146650 
  146697   146715   146742   146817   146842   146851   146905   146932 
  146952   147025   147097   147102   147102   147155   147229   147305 
  147343   147356   147417   147484   147510   147533   147580   147619 
  147653   147708   147754   147793   147827   147846   147900   147973 
  148000   148043   148120   148169   148220   148267   148296   148366 
  148402   148373   148387   148416   148405   148421   148447   148414 
  148362   148336   148328   148324   148293   148223   148185   148186 
  148154   148090   148038   147993   147949   147899   147865   147854 
  147825   147802   147804   147787   147749   147741   147756   147748 
  147734   147738   147730   147711   147706   147711   147722   147714 
  147687   147672   147671   147681   147680   147654   147669   147691 
  147684   147714   147741   147725   147708   147717   147723   147719 
  147717   147708   147700   147711   147714   147699   147700   147718 
  147708   147680   147684   147719   147729   147704   147683   147672 
  147671   147676   147661   147637   147614   147579   147560   147563 
  147528   147483   147471   147451   147413   147397   147387   147351 
  147330   147337   147332   147317   147289   147276   147298   147289 
  147248   147240   147245   147229   147216   147206   147201   147210 
  147186   147159   147162   147105   147029   147017   146992   146935 
  146924   146900   146824   146788   146781   146731   146701   146709 
  146681   146658   146645   146587   146556   146576   146578   146560 
  146557   146585   146600   146604   146639   146680   146723   146759 
  146777   146836   146946   147033   147083   147140   147213   147262 
  147318   147437   147536   147579   147658   147752   147812   147879 
  147951   148015   148069   148124   148189   148239   148282   148332 
  148360   148383   148428   148450   148450   148468   148485   148475 
  148454   148435   148419   148394   148347   148306   148290   148239 
  148161   148116   148070   148011   147960   147912   147856   147777 
  147707   147649   147575   147521   147487   147403   147324   147310 
  147256   147160   147121   147093   147013   146939   146919   146884 
  146816   146770   146712   146657   146643   146619   146572   146524 
  146500   146484   146460   146469   146477   146448   146456   146476 
  146473   146499   146515   146508   146543   146576   146578   146610 
  146658   146678   146708   146773   146819   146858   146913   146958 
  146992   147032   147083   147124   147158   147222   147278   147313 
  147361   147406   147442   147465   147484   147526   147563   147565 
  147573   147611   147610   147587   147611   147618   147583   147567 
  147549   147513   147491   147469   147421   147391   147376   147324 
  147285   147272   147228   147201   147194   147162   147162   147182 
  147167   147185   147226   147210   147202   147239   147248   147253 
  147287   147332   147383   147399   147398   147434   147451   147456 
  147506   147552   147575   147591   147615   147636   147638   147681 
  147746   147762   147775   147825   147872   147906   147939   147962 
  147976   148018   148050   148042   148055   148090   148095   148077 
  148061   148039   148016   148009   147995   147966   147950   147912 
  147879   147881   147838   147773   147769   147746   147677   147630 
  147594   147560   147529   147475   147421   147388   147356   147302 
  147253   147232   147201   147168   147154   147110   147075   147091 
  147081   147027   147008   147012   147006   147021   147037   147013 
  147015   147055   147062   147050   147052   147060   147067   147070 
  147093   147120   147124   147148   147187   147190   147197   147232 
  147232   147237   147276   147274   147287   147317   147287   147297 
  147322   147302   147320   147326   147295   147314   147325   147297 
  147298   147317   147324   147347   147366   147349   147353   147391 
  147409   147414   147433   147451   147469   147495   147501   147502 
  147544   147592   147609   147614   147638   147690   147719   147723 
  147753   147793   147823   147857   147888   147884   147862   147889 
  147939   147935   147928   147950   147958   147950   147939   147931 
  147919   147904   147900   147884   147842   147811   147816   147808 
  147756   147702   147669   147636   147604   147586   147572   147563 
  147532   147478   147453   147430   147382   147361   147344   147294 
  147263   147258   147243   147218   147201   147187   147179   147185 
  147171   147151   147162   147170   147185   147216   147220   147226 
  147248   147241   147259   147307   147322   147320   147344   147363 
  147360   147382   147407   147402   147433   147479   147471   147478 
  147505   147522   147561   147579   147564   147568   147577   147573 
  147591   147622   147613   147596   147603   147587   147559   147573 
  147583   147548   147523   147519   147526   147542   147533   147501 
  147487   147514   147534   147518   147514   147528   147540   147560 
  147553   147534   147540   147540   147540   147552   147557   147576 
  147603   147614   147618   147634   147672   147702   147704   147719 
  147731   147734   147760   147775   147757   147785   147837   147843 
  147853   147857   147843   147862   147870   147849   147861   147877 
  147853   147835   147839   147827   147825   147846   147849   147823 
  147793   147781   147769   147729   147681   147661   147644   147613 
  147614   147618   147557   147507   147509   147468   147413   147387 
  147374   147361   147313   147278   147294   147264   147216   147198 
  147175   147179   147197   147179   147172   147181   147181   147183 
  147199   147235   147228   147199   147216   147220   147218   147236 
  147209   147171   147178   147194   147171   147132   147118   147104 
  147078   147056   147032   147001   146958   146938   146969   146963 
  146904   146884   146897   146890   146886   146893   146881   146886 
  146920   146921   146912   146948   147001   147024   147032   147063 
  147102   147124   147155   147190   147208   147232   147274   147305 
  147322   147353   147402   147413   147388   147433   147509   147523 
  147533   147550   147580   147626   147636   147642   147657   147669 
  147702   147708   147700   147706   147691   147681   147694   147691 
  147664   147633   147622   147623   147607   147572   147540   147518 
  147486   147441   147422   147422   147402   147364   147356   147340 
  147289   147276   147276   147236   147221   147226   147217   147210 
  147193   147179   147177   147152   147147   147164   147166   147178 
  147186   147171   147175   147186   147199   147205   147194   147202 
  147217   147228   147243   147237   147220   147232   147241   147216 
  147216   147249   147271   147279   147285   147287   147287   147289 
  147316   147339   147334   147332   147333   147359   147395   147393 
  147410   147469   147506   147529   147565   147584   147588   147610 
  147642   147690   147729   147746   147784   147820   147831   147861 
  147866   147843   147870   147906   147897   147888   147868   147852 
  147879   147866   147803   147791   147803   147773   147745   147738 
  147717   147673   147646   147626   147571   147534   147534   147496 
  147444   147424   147393   147330   147302   147298   147237   147186 
  147189   147150   147093   147075   147069   147047   147006   146978 
  146971   146950   146927   146901   146854   146831   146826   146801 
  146797   146812   146793   146782   146823   146854   146861   146882 
  146921   146961   146985   147025   147077   147116   147163   147216 
  147272   147326   147368   147434   147514   147571   147637   147715 
