Origin Time       2025/01/13 21:19:00
Lat.              31.8
Long.             131.6
Depth. (km)       30
Mag.              6.9
Station Code      SMNH04
Station Lat.      35.0918
Station Long.     132.5308
Station Height(m) 139
Record Time       2025/01/13 21:20:46
Sampling Freq(Hz) 100Hz
Duration Time(s)  134
Dir.              3
Scale Factor      2942(gal)/8224139
Max. Acc. (gal)   0.692
Last Correction   2025/01/13 21:20:46
Memo.             
[...]
   55105    55116    55134    55154    55169    55182    55198    55216 
   55236    55259    55282    55308    55328    55339    55344    55343 
   55339    55341    55348    55351    55345    55329    55309    55300 
   55308    55324    55344    55367    55385    55401    55418    55439 
   55468    55494    55518    55543    55551    55547    55551    55561 
   55571    55579    55593    55607    55624    55641    55657    55678 
   55705    55725    55728    55732    55742    55748    55742    55728 
   55705    55683    55668    55655    55642    55628    55598    55570 
   55557    55553    55549    55548    55548    55548    55553    55559 
   55559    55561    55568    55570    55571    55584    55603    55621 
   55645    55671    55684    55684    55684    55692    55711    55728 
   55732    55728    55714    55702    55703    55707    55701    55684 
   55665    55637    55601    55567    55543    55525    55509    55487 
   55468    55451    55431    55406    55385    55372    55364    55354 
   55343    55332    55323    55318    55321    55324    55324    55331 
   55332    55320    55309    55304    55301    55298    55294    55293 
   55285    55267    55248    55232    55228    55231    55219    55194 
   55163    55132    55105    55085    55066    55043    55009    54970 
   54936    54907    54880    54865    54851    54834    54820    54811 
   54810    54820    54841    54864    54881    54896    54908    54922 
   54938    54959    54988    55023    55061    55098    55132    55173 
   55224    55273    55317    55352    55374    55390    55404    55409 
   55417    55422    55424    55422    55414    55406    55405    55401 
   55398    55394    55383    55362    55332    55304    55287    55283 
   55273    55246    55213    55192    55181    55181    55185    55182 
   55174    55171    55181    55206    55237    55260    55279    55300 
   55313    55332    55366    55405    55436    55448    55462    55493 
   55528    55541    55540    55536    55526    55516    55509    55494 
   55464    55426    55387    55352    55316    55282    55255    55235 
   55221    55204    55182    55169    55162    55166    55185    55200 
   55212    55229    55242    55242    55239    55236    55229    55223 
   55209    55186    55158    55135    55121    55109    55094    55088 
   55094    55104    55111    55119    55134    55152    55175    55201 
   55228    55254    55277    55293    55304    55312    55318    55331 
   55337    55336    55339    55347    55356    55372    55395    55424 
   55451    55474    55505    55548    55595    55648    55706    55761 
   55809    55853    55898    55945    55987    56018    56041    56060 
   56074    56083    56088    56088    56089    56096    56107    56116 
   56118    56106    56088    56070    56052    56030    56004    55981 
   55968    55958    55938    55914    55895    55873    55854    55842 
   55833    55827    55817    55796    55777    55771    55767    55760 
   55748    55729    55707    55688    55663    55638    55618    55610 
   55613    55605    55580    55559    55543    55530    55517    55497 
   55474    55451    55424    55386    55347    55310    55279    55258 
   55242    55224    55205    55188    55178    55177    55183    55196 
   55205    55208    55213    55227    55244    55262    55278    55301 
   55328    55358    55395    55437    55479    55513    55540    55564 
   55586    55609    55634    55660    55678    55690    55703    55713 
   55718    55732    55744    55740    55736    55738    55736    55733 
   55733    55730    55726    55726    55729    55725    55711    55701 
   55692    55678    55659    55647    55644    55645    55648    55651 
   55651    55655    55665    55684    55713    55750    55791    55830 
   55865    55900    55937    55979    56023    56065    56101    56137 
   56162    56188    56219    56249    56263    56263    56258    56261 
   56266    56254    56209    56161    56123    56079    56020    55949 
   55865    55786    55711    55636    55566    55503    55440    55374 
   55313    55263    55229    55216    55208    55193    55182    55182 
   55186    55190    55196    55209    55224    55229    55235    55248 
   55266    55277    55269    55244    55216    55193    55173    55152 
   55128    55101    55069    55035    55012    55001    54993    54986 
   54977    54962    54949    54934    54924    54918    54901    54880 
   54866    54864    54869    54876    54888    54904    54926    54949 
   54973    55007    55046    55084    55123    55156    55185    55212 
   55229    55247    55266    55277    55289    55298    55298    55304 
   55321    55340    55348    55350    55351    55354    55355    55363 
   55377    55381    55372    55356    55341    55335    55340    55354 
   55363    55363    55359    55358    55364    55371    55374    55378 
   55383    55386    55389    55390    55390    55385    55372    55358 
   55347    55341    55337    55335    55331    55325    55318    55316 
   55314    55310    55305    55300    55294    55285    55273    55259 
   55242    55224    55213    55210    55215    55229    55246    55252 
   55254    55251    55248    55256    55274    55289    55291    55293 
   55301    55317    55336    55364    55408    55458    55503    55544 
   55593    55642    55688    55738    55798    55853    55900    55937 
   55964    55989    56018    56047    56076    56107    56138    56168 
   56200    56236    56276    56312    56354    56392    56415    56427 
   56434    56438    56438    56434    56423    56401    56382    56365 
   56335    56303    56282    56262    56231    56200    56169    56145 
   56131    56126    56119    56115    56122    56134    56149    56169 
   56192    56208    56223    56242    56265    56286    56304    56323 
   56343    56361    56371    56377    56378    56376    56377    56381 
   56381    56369    56361    56366    56363    56346    56323    56303 
   56278    56254    56224    56185    56141    56089    56029    55976 
   55931    55881    55833    55783    55726    55674    55625    55580 
   55537    55497    55458    55421    55382    55337    55291    55247 
   55205    55163    55128    55107    55088    55063    55039    55017 
   55003    54992    54980    54970    54967    54959    54946    54935 
   54923    54909    54895    54874    54850    54820    54780    54737 
   54704    54676    54648    54616    54579    54549    54533    54518 
   54510    54508    54514    54526    54545    54567    54591    54615 
   54643    54669    54696    54727    54756    54784    54818    54847 
   54880    54926    54977    55028    55081    55135    55190    55237 
   55274    55306    55327    55335    55343    55347    55343    55333 
   55318    55298    55283    55277    55259    55236    55220    55198 
   55177    55163    55140    55115    55089    55055    55013    54965 
   54913    54859    54808    54758    54702    54648    54602    54558 
   54511    54465    54427    54388    54341    54291    54253    54225 
   54194    54163    54136    54109    54086    54076    54075    54068 
   54063    54064    54063    54063    54067    54079    54094    54117 
   54147    54176    54203    54238    54280    54317    54357    54402 
   54437    54465    54502    54541    54572    54606    54639    54670 
   54706    54739    54773    54826    54885    54940    54996    55048 
   55105    55170    55237    55308    55379    55443    55501    55564 
   55625    55687    55745    55796    55846    55895    55941    55980 
   56012    56041    56070    56096    56120    56141    56161    56191 
   56231    56269    56292    56307    56323    56335    56342    56343 
   56339    56326    56300    56265    56230    56188    56146    56108 
   56065    56025    55995    55964    55927    55896    55865    55834 
   55804    55776    55746    55725    55717    55718    55722    55726 
   55737    55760    55792    55825    55856    55887    55912    55931 
   55956    55988    56011    56019    56025    56027    56019    56002 
   55977    55944    55904    55864    55817    55764    55715    55668 
   55624    55591    55561    55533    55517    55509    55498    55487 
   55480    55476    55472    55475    55483    55494    55503    55512 
   55517    55526    55544    55566    55588    55607    55618    55634 
   55653    55667    55682    55692    55691    55684    55675    55667 
   55659    55648    55632    55617    55611    55609    55606    55605 
   55617    55641    55659    55668    55683    55696    55710    55725 
   55737    55752    55768    55777    55788    55798    55798    55790 
   55779    55768    55756    55733    55705    55676    55645    55611 
   55583    55557    55529    55495    55459    55425    55393    55362 
   55332    55305    55275    55247    55227    55209    55190    55175 
   55161    55139    55124    55115    55101    55089    55088    55092 
   55096    55108    55120    55134    55154    55181    55206    55231 
   55244    55247    55254    55263    55263    55254    55236    55215 
   55196    55179    55162    55140    55117    55096    55071    55046 
   55028    55013    55003    54997    54997    54997    54999    54997 
   54996    54996    55005    55023    55046    55070    55097    55129 
   55173    55219    55262    55310    55368    55418    55459    55503 
   55545    55586    55634    55675    55713    55750    55784    55815 
   55849    55888    55929    55969    56014    56064    56110    56149 
   56192    56232    56268    56304    56335    56361    56390    56413 
   56423    56428    56430    56428    56421    56408    56393    56369 
   56335    56299    56257    56207    56160    56116    56074    56033 
   55987    55945    55908    55872    55836    55799    55763    55723 
   55686    55653    55622    55597    55574    55555    55540    55526 
   55521    55522    55522    55524    55534    55551    55568    55584 
   55598    55611    55628    55644    55656    55659    55655    55652 
   55644    55628    55613    55602    55594    55582    55563    55541 
   55525    55516    55510    55509    55510    55517    55529    55544 
   55561    55582    55599    55614    55630    55642    55649    55656 
   55653    55648    55652    55657    55657    55663    55675    55683 
   55686    55684    55682    55678    55668    55647    55614    55582 
   55548    55506    55460    55408    55347    55285    55217    55155 
   55100    55047    54996    54950    54908    54862    54818    54791 
   54773    54753    54731    54715    54700    54693    54685    54664 
   54646    54635    54626    54626    54633    54637    54646    54665 
   54689    54718    54746    54776    54807    54834    54858    54885 
   54911    54936    54966    54989    55011    55032    55040    55043 
   55046    55053    55070    55100    55128    55159    55196    55233 
   55271    55317    55370    55420    55462    55498    55534    55571 
   55606    55640    55676    55711    55738    55768    55803    55841 
   55879    55917    55960    56010    56058    56107    56153    56192 
   56228    56263    56297    56330    56358    56392    56428    56458 
   56482    56505    56535    56570    56601    56624    56646    56658 
   56655    56644    56632    56612    56581    56540    56496    56444 
   56384    56323    56258    56191    56135    56085    56030    55968 
   55904    55853    55806    55755    55714    55676    55633    55601 
   55571    55534    55505    55479    55451    55432    55414    55387 
   55355    55321    55287    55254    55223    55186    55146    55107 
   55067    55032    55007    54977    54947    54928    54911    54899 
   54888    54878    54869    54859    54849    54847    54850    54850 
   54851    54853    54849    54843    54835    54818    54796    54785 
   54769    54742    54719    54699    54666    54634    54612    54584 
   54560    54549    54537    54523    54518    54511    54504    54513 
   54518    54522    54535    54548    54550    54549    54548    54548 
   54548    54550    54553    54550    54550    54557    54573    54596 
   54619    54642    54676    54716    54757    54801    54853    54904 
   54957    55005    55047    55088    55131    55173    55213    55254 
   55296    55337    55377    55410    55444    55482    55518    55559 
   55602    55645    55686    55726    55765    55804    55848    55891 
   55933    55971    56003    56031    56049    56056    56056    56054 
   56050    56037    56010    55975    55933    55885    55844    55804 
   55753    55701    55648    55593    55545    55503    55453    55408 
   55371    55339    55310    55283    55252    55219    55193    55179 
   55169    55161    55162    55169    55182    55208    55243    55286 
   55341    55406    55480    55557    55638    55723    55807    55883 
   55954    56037    56116    56184    56251    56316    56370    56416 
   56459    56494    56519    56536    56547    56548    56548    56550 
   56548    56543    56533    56517    56498    56484    56463    56439 
   56421    56403    56388    56384    56378    56369    56365    56362 
   56354    56349    56346    56336    56313    56285    56254    56214 
   56160    56093    56018    55935    55846    55749    55651    55552 
   55444    55333    55229    55129    55026    54919    54816    54716 
   54614    54514    54422    54334    54241    54148    54063    53983 
   53904    53831    53767    53712    53657    53607    53568    53535 
   53519    53523    53532    53549    53578    53615    53659    53713 
   53777    53852    53935    54014    54097    54182    54268    54352 
   54434    54511    54591    54679    54762    54845    54936    55020 
   55093    55165    55239    55317    55395    55470    55534    55594 
   55651    55702    55749    55794    55829    55857    55883    55898 
   55907    55918    55925    55925    55925    55923    55918    55915 
   55914    55906    55900    55902    55910    55922    55927    55934 
   55952    55972    55992    56019    56050    56087    56127    56170 
   56216    56266    56323    56385    56448    56508    56569    56632 
   56690    56743    56791    56833    56872    56910    56944    56972 
   56995    57017    57033    57042    57048    57049    57041    57026 
   57002    56968    56926    56876    56813    56740    56662    56579 
   56482    56374    56266    56161    56052    55934    55811    55688 
   55566    55439    55314    55200    55085    54970    54862    54761 
   54664    54573    54486    54400    54328    54264    54203    54147 
   54095    54049    54012    53991    53982    53979    53983    53985 
   53993    54010    54029    54047    54066    54085    54103    54124 
   54145    54168    54201    54249    54301    54357    54422    54490 
   54564    54646    54734    54824    54918    55017    55117    55217 
   55317    55418    55514    55598    55679    55760    55833    55899 
   55954    55999    56030    56052    56061    56060    56050    56031 
   56002    55968    55925    55867    55807    55750    55686    55614 
   55552    55487    55418    55363    55308    55240    55170    55102 
   55031    54961    54889    54816    54742    54669    54607    54561 
   54522    54498    54486    54479    54483    54500    54529    54571 
   54629    54691    54762    54845    54932    55031    55138    55244 
   55354    55464    55570    55675    55782    55884    55984    56084 
   56177    56263    56351    56436    56511    56574    56633    56693 
   56743    56781    56812    56841    56868    56890    56910    56921 
   56928    56930    56926    56920    56911    56893    56875    56859 
   56835    56802    56774    56744    56709    56677    56647    56613 
   56570    56523    56477    56427    56371    56315    56261    56204 
   56147    56092    56033    55968    55903    55845    55784    55723 
   55668    55611    55553    55499    55447    55398    55359    55317 
   55281    55258    55237    55216    55206    55204    55201    55205 
   55219    55233    55243    55256    55270    55277    55283    55287 
   55286    55287    55282    55271    55263    55255    55244    55236 
   55231    55227    55220    55212    55206    55202    55196    55186 
   55173    55162    55147    55121    55088    55051    55016    54980 
   54935    54886    54839    54788    54735    54687    54646    54610 
   54575    54544    54519    54498    54483    54473    54471    54477 
   54494    54519    54554    54598    54648    54704    54770    54843 
   54916    54990    55074    55165    55255    55344    55435    55528 
   55615    55701    55787    55858    55914    55969    56026    56072 
   56103    56120    56130    56134    56130    56118    56097    56068 
   56030    55989    55948    55906    55861    55810    55753    55695 
   55638    55582    55528    55478    55432    55385    55335    55290 
   55251    55212    55179    55154    55134    55117    55111    55115 
   55127    55148    55179    55217    55259    55304    55356    55413 
   55471    55530    55590    55645    55698    55752    55807    55860 
   55908    55954    55993    56030    56065    56100    56131    56157 
   56176    56189    56197    56200    56197    56184    56164    56139 
   56110    56073    56029    55977    55923    55868    55810    55748 
   55679    55613    55552    55491    55433    55378    55316    55254 
   55189    55121    55057    54989    54922    54861    54803    54739 
   54687    54645    54608    54579    54556    54540    54544    54564 
   54595    54639    54692    54750    54824    54909    55000    55092 
   55186    55275    55360    55443    55521    55593    55656    55710 
   55759    55809    55852    55891    55925    55956    55989    56022 
   56046    56074    56104    56127    56146    56165    56180    56191 
   56199    56201    56200    56192    56178    56162    56143    56112 
   56069    56026    55976    55912    55844    55775    55705    55630 
   55547    55459    55375    55291    55210    55135    55063    54996 
   54934    54874    54819    54765    54716    54676    54642    54614 
   54596    54589    54588    54594    54602    54615    54639    54675 
   54716    54761    54816    54877    54930    54977    55026    55073 
   55112    55147    55174    55194    55210    55217    55213    55201 
   55185    55171    55156    55134    55102    55071    55043    55012 
   54980    54945    54909    54874    54841    54818    54799    54776 
   54764    54761    54758    54761    54770    54784    54801    54818 
   54835    54858    54882    54903    54923    54950    54977    55004 
   55031    55061    55093    55131    55166    55202    55246    55291 
   55333    55378    55429    55483    55534    55582    55630    55686 
   55740    55798    55857    55914    55973    56031    56088    56146 
   56208    56268    56323    56380    56431    56482    56533    56575 
   56609    56639    56662    56679    56689    56683    56671    56654 
   56628    56592    56544    56492    56439    56381    56313    56242 
   56172    56101    56034    55969    55906    55848    55795    55741 
   55687    55641    55593    55540    55495    55453    55409    55366 
   55327    55287    55250    55212    55170    55129    55100    55073 
   55044    55023    55001    54981    54967    54953    54939    54934 
