Origin Time       2025/01/13 21:19:00
Lat.              31.8
Long.             131.6
Depth. (km)       30
Mag.              6.9
Station Code      SMNH01
Station Lat.      35.2963
Station Long.     133.2604
Station Height(m) 69
Record Time       2025/01/13 21:21:22
Sampling Freq(Hz) 100Hz
Duration Time(s)  120
Dir.              1
Scale Factor      2942(gal)/8224139
Max. Acc. (gal)   0.363
Last Correction   2025/01/13 21:21:23
Memo.             
[...]
  100957   100942   100921   100899   100880   100861   100849   100842 
  100838   100846   100865   100878   100882   100884   100889   100894 
  100908   100932   100951   100966   100986   101005   101019   101031 
  101044   101062   101081   101092   101090   101086   101082   101083 
  101092   101106   101112   101109   101104   101093   101083   101077 
  101059   101040   101031   101017   100997   100984   100970   100961 
  100962   100963   100959   100950   100936   100930   100936   100954 
  100963   100971   100982   100990   100993   101001   101011   101013 
  101013   101017   101021   101017   101021   101031   101024   101020 
  101028   101029   101031   101031   101023   101016   101007   100992 
  100984   100978   100966   100951   100944   100946   100943   100940 
  100943   100943   100936   100938   100946   100954   100967   100974 
  100981   100996   101004   101009   101013   101005   101005   101007 
  101005   101011   101020   101031   101047   101055   101056   101075 
  101105   101124   101137   101151   101164   101179   101187   101198 
  101216   101228   101237   101251   101271   101283   101282   101287 
  101299   101302   101297   101301   101304   101299   101293   101275 
  101258   101247   101240   101221   101193   101174   101162   101140 
  101105   101067   101039   101002   100961   100935   100911   100880 
  100851   100824   100799   100773   100750   100732   100711   100688 
  100666   100653   100647   100639   100629   100623   100626   100633 
  100643   100658   100676   100691   100714   100742   100759   100765 
  100777   100793   100801   100805   100809   100813   100823   100840 
  100861   100878   100885   100884   100884   100884   100880   100881 
  100882   100872   100865   100878   100897   100908   100920   100935 
  100947   100957   100971   100981   100982   100992   101002   101001 
  101004   101002   100997   100997   100998   100990   100977   100965 
  100950   100943   100948   100944   100927   100920   100923   100921 
  100921   100927   100927   100931   100936   100931   100926   100923 
  100923   100927   100931   100928   100921   100911   100904   100894 
  100872   100851   100846   100838   100832   100834   100830   100824 
  100826   100822   100815   100813   100818   100826   100830   100827 
  100823   100827   100835   100839   100839   100836   100827   100816 
  100813   100815   100819   100818   100805   100795   100792   100785 
  100776   100777   100778   100772   100765   100754   100742   100732 
  100730   100731   100732   100739   100755   100773   100785   100796 
  100807   100823   100843   100858   100873   100899   100920   100927 
  100943   100965   100980   100993   101005   101005   101001   101005 
  101009   101008   101009   101015   101023   101038   101056   101071 
  101089   101110   101125   101140   101171   101205   101224   101248 
  101287   101313   101326   101344   101352   101356   101363   101364 
  101366   101367   101358   101345   101333   101316   101298   101281 
  101262   101244   101221   101190   101164   101155   101136   101105 
  101088   101074   101056   101039   101017   100993   100975   100954 
  100931   100913   100897   100882   100866   100847   100831   100818 
  100800   100784   100780   100772   100754   100751   100758   100757 
  100766   100780   100785   100795   100805   100818   100843   100865 
  100869   100863   100857   100845   100824   100803   100784   100758 
  100731   100711   100696   100680   100665   100651   100635   100622 
  100615   100608   100604   100606   100610   100618   100629   100635 
  100641   100641   100638   100646   100657   100654   100650   100653 
  100653   100654   100661   100670   100685   100693   100700   100724 
  100742   100738   100746   100766   100776   100788   100800   100805 
  100820   100832   100835   100842   100846   100846   100850   100847 
  100842   100840   100842   100849   100863   100882   100900   100917 
  100943   100966   100986   101011   101038   101067   101096   101116 
  101131   101142   101147   101155   101166   101171   101169   101159 
  101152   101147   101139   101127   101108   101092   101078   101059 
  101040   101027   101023   101027   101020   101009   101004   100993 
  100975   100962   100950   100935   100930   100919   100894   100884 
  100881   100869   100858   100847   100828   100820   100820   100807 
  100782   100765   100757   100749   100741   100734   100719   100695 
  100677   100664   100639   100620   100614   100606   100597   100585 
  100565   100545   100531   100527   100531   100538   100554   100581 
  100614   100646   100673   100697   100727   100765   100808   100853 
  100897   100939   100977   101019   101065   101108   101142   101174 
  101204   101224   101241   101262   101282   101294   101301   101312 
  101326   101343   101359   101368   101359   101349   101352   101347 
  101335   101328   101321   101306   101295   101291   101290   101286 
  101268   101248   101237   101227   101210   101206   101206   101204 
  101205   101206   101205   101206   101204   101194   101179   101167 
  101152   101132   101113   101102   101078   101051   101034   101009 
  100984   100971   100957   100942   100935   100926   100919   100911 
  100900   100897   100901   100904   100911   100915   100913   100919 
  100934   100948   100963   100975   100984   100994   100998   100989 
  100984   100985   100988   100990   100989   100997   101001   100993 
  100993   101001   101004   101007   101008   101013   101027   101032 
  101029   101036   101043   101044   101043   101040   101036   101036 
  101038   101040   101044   101047   101047   101052   101066   101078 
  101089   101105   101123   101132   101137   101147   101151   101148 
  101151   101148   101143   101140   101132   101120   101102   101088 
  101079   101071   101063   101055   101047   101051   101062   101067 
  101074   101079   101092   101109   101123   101136   101158   101190 
  101225   101252   101271   101289   101302   101316   101329   101336 
  101328   101320   101312   101289   101263   101244   101218   101191 
  101164   101132   101102   101079   101058   101034   101013   101002 
  100988   100971   100958   100947   100939   100935   100930   100921 
  100919   100919   100920   100923   100924   100926   100924   100915 
  100900   100888   100877   100857   100832   100811   100791   100761 
  100730   100701   100669   100639   100610   100575   100542   100510 
  100480   100454   100426   100399   100373   100346   100323   100309 
  100300   100295   100290   100290   100300   100314   100326   100342 
  100363   100384   100404   100430   100454   100479   100504   100529 
  100552   100577   100600   100619   100638   100654   100668   100678 
  100693   100707   100716   100731   100759   100784   100801   100830 
  100861   100886   100917   100946   100965   100988   101017   101043 
  101073   101105   101132   101158   101182   101204   101220   101235 
  101245   101254   101259   101254   101247   101244   101235   101217 
  101206   101202   101194   101181   101166   101154   101136   101119 
  101101   101082   101066   101050   101027   101000   100974   100950 
  100921   100888   100858   100836   100815   100781   100750   100727 
  100703   100680   100661   100639   100615   100602   100602   100599 
  100588   100577   100570   100566   100562   100564   100558   100542 
  100533   100530   100526   100521   100510   100507   100514   100521 
  100527   100535   100530   100518   100510   100498   100485   100479 
  100471   100469   100472   100467   100469   100489   100502   100514 
  100539   100566   100596   100633   100666   100705   100759   100813 
  100865   100920   100981   101039   101094   101151   101209   101264 
  101318   101371   101425   101474   101517   101560   101596   101621 
  101642   101665   101687   101709   101725   101737   101745   101745 
  101750   101753   101740   101727   101719   101706   101696   101688 
  101671   101655   101640   101622   101607   101596   101579   101559 
  101544   101534   101517   101490   101470   101461   101444   101410 
  101391   101387   101363   101336   101326   101318   101306   101293 
  101281   101278   101279   101272   101270   101270   101266   101268 
  101281   101287   101285   101285   101278   101262   101245   101227 
  101205   101182   101150   101120   101109   101092   101055   101029 
  101019   101000   100981   100973   100961   100946   100940   100930 
  100915   100919   100920   100908   100911   100920   100912   100907 
  100908   100897   100881   100865   100845   100819   100786   100758 
  100726   100681   100638   100593   100539   100492   100445   100381 
  100329   100290   100244   100202   100167   100132   100111   100105 
  100103   100105   100114   100128   100148   100179   100211   100242 
  100284   100333   100377   100429   100487   100548   100614   100684 
  100751   100816   100884   100954   101019   101081   101140   101194 
  101251   101317   101370   101409   101455   101495   101530   101560 
  101574   101588   101598   101587   101576   101568   101548   101522 
  101499   101467   101425   101389   101359   101317   101266   101225 
  101185   101135   101090   101044   100992   100944   100901   100858 
  100819   100788   100761   100730   100703   100678   100649   100616 
  100589   100568   100545   100522   100496   100473   100456   100435 
  100415   100399   100380   100364   100352   100340   100329   100327 
  100330   100337   100350   100367   100387   100417   100458   100496 
  100533   100577   100627   100673   100718   100765   100815   100862 
  100905   100948   100988   101028   101075   101121   101146   101164 
  101194   101210   101216   101220   101214   101209   101201   101182 
  101164   101146   101121   101100   101079   101054   101031   101008 
  100984   100959   100939   100917   100888   100859   100842   100827 
  100807   100791   100776   100764   100759   100751   100742   100739 
  100735   100724   100719   100720   100712   100701   100697   100695 
  100693   100693   100691   100691   100695   100697   100710   100723 
  100732   100745   100758   100772   100784   100795   100800   100804 
  100813   100819   100823   100826   100826   100823   100815   100807 
  100796   100788   100781   100774   100772   100768   100762   100762 
  100769   100776   100777   100782   100792   100792   100789   100799 
  100797   100791   100795   100795   100789   100782   100774   100761 
  100743   100732   100737   100741   100728   100718   100724   100727 
  100731   100743   100751   100765   100782   100801   100824   100849 
  100867   100892   100920   100950   100980   101017   101050   101075 
  101108   101144   101173   101202   101239   101279   101314   101352 
  101395   101440   101479   101524   101578   101621   101656   101696 
  101737   101773   101810   101833   101848   101864   101871   101872 
  101868   101853   101834   101814   101784   101753   101722   101683 
  101641   101599   101551   101499   101449   101395   101337   101277 
  101223   101187   101147   101094   101058   101032   101002   100973 
  100938   100899   100872   100849   100812   100778   100754   100716 
  100681   100668   100641   100596   100572   100545   100503   100477 
  100460   100437   100419   100403   100392   100384   100371   100361 
  100360   100360   100365   100373   100381   100395   100417   100441 
  100464   100491   100523   100552   100585   100634   100683   100719 
  100761   100801   100827   100857   100889   100911   100936   100961 
  100982   101004   101017   101029   101042   101043   101043   101048 
  101048   101043   101035   101029   101029   101021   101001   100978 
  100953   100931   100913   100893   100869   100845   100823   100799 
  100772   100761   100753   100737   100723   100715   100708   100703 
  100691   100680   100674   100670   100664   100660   100658   100658 
  100665   100676   100689   100705   100728   100754   100781   100808 
  100842   100880   100909   100943   100981   101015   101054   101092 
  101121   101159   101197   101228   101260   101293   101325   101356 
  101387   101413   101434   101453   101467   101472   101479   101486 
  101478   101457   101441   101422   101387   101351   101326   101295 
  101254   101216   101175   101128   101079   101028   100974   100924 
  100882   100846   100812   100780   100747   100719   100695   100670 
  100650   100638   100627   100618   100618   100618   100616   100620 
  100624   100631   100641   100645   100647   100650   100656   100662 
  100664   100665   100668   100665   100661   100657   100654   100660 
  100657   100639   100637   100635   100623   100622   100623   100620 
  100616   100607   100608   100615   100610   100606   100606   100599 
  100592   100587   100579   100568   100558   100549   100534   100518 
  100507   100491   100475   100464   100444   100425   100413   100402 
  100400   100398   100388   100395   100406   100418   100445   100476 
  100511   100549   100593   100641   100684   100732   100788   100836 
  100886   100936   100980   101017   101058   101098   101127   101156 
  101196   101225   101252   101281   101301   101328   101353   101372 
  101399   101432   101455   101476   101506   101534   101557   101592 
  101632   101664   101699   101736   101772   101806   101833   101861 
  101892   101911   101926   101942   101947   101947   101943   101934 
  101919   101898   101869   101833   101788   101744   101698   101646 
  101588   101522   101448   101379   101312   101232   101148   101067 
  100993   100917   100836   100762   100691   100618   100550   100491 
  100435   100380   100327   100282   100242   100205   100174   100156 
  100137   100120   100116   100117   100116   100125   100137   100147 
  100175   100217   100253   100294   100350   100413   100484   100552 
  100614   100692   100774   100850   100931   101012   101092   101178 
  101259   101335   101409   101486   101556   101619   101686   101744 
  101792   101833   101864   101891   101910   101916   101918   101910 
  101889   101858   101829   101798   101754   101695   101628   101556 
  101494   101433   101359   101283   101218   101156   101094   101039 
  100988   100944   100904   100865   100831   100803   100777   100758 
  100743   100735   100737   100731   100720   100728   100746   100753 
  100746   100750   100764   100762   100759   100769   100766   100757 
  100754   100747   100737   100723   100708   100695   100684   100669 
  100651   100635   100619   100604   100596   100585   100573   100568 
  100561   100549   100550   100566   100580   100597   100618   100637 
  100661   100687   100710   100735   100758   100773   100789   100808 
  100819   100828   100839   100849   100854   100858   100863   100866 
  100865   100863   100866   100873   100876   100880   100889   100893 
  100897   100911   100926   100936   100948   100967   100993   101017 
  101039   101066   101097   101127   101155   101189   101227   101251 
  101275   101314   101349   101376   101410   101444   101472   101501 
  101522   101538   101549   101556   101559   101557   101547   101530 
  101506   101474   101439   101398   101351   101295   101231   101166 
  101104   101031   100958   100890   100816   100742   100672   100603 
  100543   100491   100437   100387   100345   100307   100272   100244 
  100218   100199   100191   100184   100183   100188   100194   100203 
  100213   100219   100225   100236   100249   100260   100276   100294 
  100302   100313   100326   100334   100342   100350   100357   100371 
  100383   100387   100396   100410   100423   100444   100462   100479 
  100500   100522   100548   100575   100600   100629   100658   100689 
  100722   100755   100789   100830   100870   100907   100944   100980 
  101009   101039   101069   101100   101128   101152   101177   101196 
  101210   101224   101237   101245   101247   101250   101251   101247 
  101245   101250   101248   101245   101245   101247   101244   101250 
  101254   101251   101251   101252   101250   101251   101259   101267 
  101272   101281   101285   101282   101285   101289   101286   101282 
  101275   101259   101244   101237   101232   101212   101181   101155 
  101142   101120   101081   101046   101020   100988   100950   100915 
  100881   100845   100808   100777   100750   100726   100700   100677 
  100656   100634   100623   100620   100610   100591   100577   100581 
  100587   100583   100579   100576   100568   100566   100568   100569 
  100575   100585   100602   100614   100633   100665   100688   100714 
  100753   100786   100824   100867   100904   100940   100980   101017 
  101050   101081   101113   101142   101160   101179   101197   101212 
  101223   101236   101244   101248   101254   101260   101264   101267 
  101266   101259   101254   101255   101263   101268   101274   101279 
  101278   101277   101285   101289   101286   101286   101286   101278 
  101270   101271   101275   101270   101259   101248   101232   101214 
  101200   101178   101152   101121   101088   101058   101027   100993 
  100961   100931   100901   100873   100843   100812   100782   100751 
  100716   100688   100661   100633   100604   100573   100543   100518 
  100494   100469   100444   100423   100406   100391   100375   100359 
  100346   100342   100338   100333   100337   100338   100338   100350 
  100359   100353   100360   100373   100381   100390   100400   100408 
  100418   100430   100441   100450   100464   100477   100488   100504 
  100523   100541   100560   100579   100593   100611   100633   100661 
  100687   100704   100720   100735   100754   100773   100773   100776 
  100789   100784   100778   100777   100766   100761   100754   100738 
  100727   100727   100723   100711   100699   100699   100697   100685 
  100678   100678   100677   100677   100677   100677   100681   100685 
  100689   100696   100701   100701   100699   100701   100704   100707 
  100711   100716   100724   100730   100734   100755   100774   100777 
  100788   100811   100823   100835   100859   100876   100890   100911 
  100926   100943   100962   100977   100994   101013   101031   101048 
  101061   101065   101069   101078   101081   101071   101063   101056 
  101042   101029   101016   100992   100970   100947   100919   100897 
  100872   100842   100819   100797   100772   100750   100730   100712 
  100696   100680   100664   100649   100635   100624   100619   100615 
  100612   100618   100623   100627   100633   100641   100653   100672 
  100696   100716   100738   100766   100797   100831   100862   100888 
  100924   100965   100998   101036   101081   101124   101162   101197 
  101241   101282   101312   101344   101376   101403   101433   101461 
  101486   101510   101533   101555   101569   101579   101586   101591 
  101598   101596   101590   101580   101563   101540   101520   101491 
  101455   101422   101391   101358   101322   101286   101247   101201 
  101166   101136   101101   101062   101027   100997   100970   100936 
  100901   100878   100853   100822   100800   100778   100751   100728 
  100705   100687   100674   100661   100645   100629   100619   100612 
