Origin Time       2025/01/13 21:19:00
Lat.              31.8
Long.             131.6
Depth. (km)       30
Mag.              6.9
Station Code      SMNH10
Station Lat.      35.5579
Station Long.     133.3004
Station Height(m) 9
Record Time       2025/01/13 21:20:58
Sampling Freq(Hz) 100Hz
Duration Time(s)  180
Dir.              6
Scale Factor      3920(gal)/6170801
Max. Acc. (gal)   0.750
Last Correction   2025/01/13 21:20:43
Memo.             
[...]
  -16503   -16509   -16511   -16496   -16489   -16495   -16489   -16481 
  -16479   -16479   -16485   -16489   -16487   -16495   -16502   -16502 
  -16508   -16513   -16515   -16527   -16534   -16528   -16526   -16528 
  -16530   -16535   -16539   -16542   -16543   -16540   -16545   -16554 
  -16560   -16569   -16581   -16589   -16599   -16604   -16604   -16607 
  -16607   -16607   -16615   -16618   -16612   -16619   -16624   -16608 
  -16602   -16604   -16595   -16597   -16608   -16610   -16608   -16606 
  -16610   -16615   -16605   -16600   -16604   -16595   -16582   -16576 
  -16561   -16547   -16549   -16545   -16544   -16550   -16533   -16522 
  -16538   -16538   -16535   -16551   -16548   -16539   -16544   -16544 
  -16546   -16551   -16550   -16556   -16562   -16550   -16553   -16569 
  -16566   -16570   -16583   -16580   -16589   -16596   -16577   -16572 
  -16573   -16559   -16557   -16552   -16536   -16528   -16508   -16492 
  -16511   -16515   -16483   -16476   -16486   -16486   -16504   -16511 
  -16492   -16491   -16486   -16465   -16463   -16468   -16478   -16487 
  -16457   -16426   -16437   -16438   -16424   -16424   -16402   -16373 
  -16392   -16408   -16380   -16352   -16341   -16342   -16349   -16333 
  -16312   -16321   -16333   -16326   -16317   -16318   -16329   -16328 
  -16313   -16320   -16338   -16334   -16330   -16334   -16320   -16306 
  -16304   -16302   -16311   -16314   -16292   -16289   -16304   -16297 
  -16287   -16294   -16302   -16319   -16332   -16334   -16347   -16360 
  -16362   -16368   -16380   -16394   -16413   -16415   -16400   -16408 
  -16420   -16419   -16427   -16431   -16430   -16443   -16449   -16454 
  -16467   -16476   -16488   -16507   -16523   -16536   -16550   -16570 
  -16593   -16599   -16596   -16605   -16609   -16601   -16600   -16601 
  -16591   -16580   -16566   -16545   -16535   -16531   -16519   -16515 
  -16513   -16499   -16491   -16494   -16492   -16480   -16467   -16463 
  -16451   -16434   -16439   -16450   -16444   -16430   -16426   -16431 
  -16439   -16442   -16447   -16461   -16472   -16475   -16480   -16482 
  -16487   -16503   -16512   -16513   -16526   -16534   -16535   -16547 
  -16552   -16551   -16566   -16576   -16580   -16594   -16602   -16607 
  -16625   -16637   -16644   -16659   -16666   -16669   -16685   -16696 
  -16701   -16713   -16720   -16726   -16739   -16741   -16743   -16747 
  -16735   -16731   -16745   -16750   -16757   -16772   -16776   -16780 
  -16789   -16788   -16799   -16821   -16823   -16818   -16818   -16805 
  -16796   -16791   -16775   -16767   -16767   -16756   -16751   -16745 
  -16732   -16735   -16737   -16732   -16744   -16748   -16737   -16744 
  -16753   -16751   -16754   -16754   -16749   -16759   -16762   -16752 
  -16756   -16758   -16747   -16746   -16747   -16744   -16748   -16743 
  -16739   -16755   -16758   -16757   -16773   -16777   -16775   -16788 
  -16791   -16795   -16810   -16807   -16800   -16803   -16792   -16781 
  -16784   -16779   -16770   -16762   -16751   -16753   -16754   -16735 
  -16729   -16732   -16717   -16715   -16727   -16729   -16730   -16730 
  -16730   -16739   -16740   -16731   -16734   -16739   -16732   -16722 
  -16712   -16698   -16679   -16652   -16623   -16609   -16591   -16563 
  -16543   -16522   -16498   -16481   -16469   -16465   -16462   -16454 
  -16453   -16454   -16443   -16439   -16449   -16446   -16442   -16454 
  -16462   -16461   -16463   -16462   -16462   -16462   -16459   -16457 
  -16448   -16439   -16437   -16430   -16415   -16409   -16404   -16399 
  -16397   -16391   -16389   -16394   -16391   -16386   -16383   -16377 
  -16377   -16380   -16371   -16368   -16370   -16360   -16354   -16352 
  -16338   -16329   -16321   -16302   -16288   -16269   -16240   -16232 
  -16225   -16200   -16182   -16171   -16148   -16138   -16133   -16116 
  -16109   -16110   -16103   -16101   -16092   -16079   -16079   -16068 
  -16053   -16060   -16059   -16047   -16050   -16050   -16045   -16053 
  -16054   -16051   -16061   -16060   -16053   -16062   -16059   -16052 
  -16063   -16063   -16057   -16062   -16055   -16055   -16067   -16063 
  -16071   -16092   -16083   -16069   -16075   -16078   -16088   -16109 
  -16118   -16129   -16139   -16130   -16133   -16150   -16154   -16163 
  -16174   -16172   -16186   -16201   -16200   -16212   -16218   -16207 
  -16217   -16222   -16210   -16214   -16212   -16192   -16187   -16177 
  -16159   -16157   -16147   -16130   -16132   -16128   -16119   -16128 
  -16128   -16117   -16124   -16130   -16132   -16142   -16143   -16144 
  -16157   -16155   -16154   -16168   -16169   -16170   -16184   -16187 
  -16190   -16203   -16204   -16213   -16238   -16250   -16265   -16297 
  -16319   -16341   -16372   -16393   -16416   -16447   -16468   -16491 
  -16516   -16535   -16555   -16571   -16580   -16596   -16610   -16622 
  -16644   -16664   -16676   -16696   -16714   -16730   -16750   -16764 
  -16779   -16808   -16824   -16829   -16844   -16851   -16851   -16866 
  -16879   -16881   -16891   -16897   -16893   -16899   -16906   -16904 
  -16905   -16909   -16913   -16913   -16908   -16900   -16887   -16872 
  -16860   -16854   -16845   -16828   -16812   -16802   -16799   -16795 
  -16788   -16788   -16794   -16808   -16826   -16836   -16849   -16868 
  -16885   -16906   -16937   -16960   -16980   -17002   -17013   -17023 
  -17042   -17058   -17073   -17086   -17089   -17101   -17111   -17108 
  -17113   -17123   -17120   -17124   -17134   -17135   -17138   -17142 
  -17138   -17142   -17142   -17132   -17133   -17133   -17120   -17118 
  -17110   -17082   -17059   -17038   -17013   -16995   -16967   -16933 
  -16914   -16883   -16846   -16825   -16794   -16761   -16745   -16717 
  -16688   -16668   -16634   -16609   -16603   -16584   -16570   -16572 
  -16554   -16536   -16537   -16521   -16506   -16516   -16510   -16495 
  -16497   -16487   -16471   -16463   -16445   -16436   -16434   -16414 
  -16399   -16391   -16372   -16365   -16354   -16322   -16309   -16308 
  -16296   -16301   -16309   -16304   -16315   -16327   -16323   -16344 
  -16370   -16373   -16396   -16434   -16448   -16462   -16483   -16498 
  -16515   -16525   -16529   -16542   -16544   -16544   -16565   -16570 
  -16550   -16550   -16557   -16542   -16521   -16512   -16520   -16521 
  -16492   -16470   -16473   -16460   -16438   -16436   -16436   -16430 
  -16433   -16428   -16418   -16420   -16419   -16409   -16408   -16411 
  -16405   -16394   -16388   -16392   -16383   -16355   -16344   -16342 
  -16326   -16311   -16303   -16293   -16285   -16270   -16252   -16244 
  -16236   -16226   -16224   -16215   -16197   -16189   -16181   -16167 
  -16161   -16155   -16146   -16146   -16142   -16135   -16131   -16125 
  -16120   -16110   -16097   -16096   -16098   -16091   -16086   -16077 
  -16059   -16050   -16047   -16038   -16031   -16024   -16012   -16008 
  -16007   -16005   -16007   -16008   -16010   -16013   -16009   -16011 
  -16022   -16026   -16030   -16039   -16038   -16044   -16061   -16069 
  -16080   -16102   -16116   -16130   -16151   -16162   -16177   -16200 
  -16213   -16226   -16246   -16264   -16282   -16298   -16307   -16323 
  -16337   -16344   -16361   -16380   -16384   -16391   -16402   -16409 
  -16425   -16436   -16436   -16450   -16465   -16464   -16469   -16478 
  -16481   -16482   -16477   -16471   -16474   -16468   -16451   -16445 
  -16436   -16427   -16429   -16420   -16404   -16408   -16409   -16396 
  -16391   -16385   -16384   -16390   -16382   -16376   -16383   -16379 
  -16376   -16384   -16383   -16389   -16401   -16396   -16400   -16414 
  -16409   -16419   -16446   -16454   -16470   -16492   -16489   -16502 
  -16529   -16535   -16547   -16567   -16572   -16584   -16595   -16590 
  -16600   -16614   -16618   -16632   -16647   -16654   -16671   -16685 
  -16692   -16707   -16714   -16717   -16744   -16762   -16760   -16783 
  -16809   -16808   -16820   -16839   -16843   -16854   -16862   -16864 
  -16878   -16879   -16870   -16884   -16892   -16889   -16902   -16910 
  -16912   -16923   -16925   -16923   -16932   -16938   -16940   -16943 
  -16940   -16945   -16953   -16946   -16942   -16949   -16943   -16933 
  -16928   -16925   -16929   -16929   -16919   -16919   -16924   -16920 
  -16915   -16915   -16917   -16917   -16912   -16906   -16901   -16893 
  -16889   -16887   -16884   -16875   -16859   -16845   -16846   -16847 
  -16832   -16819   -16816   -16806   -16792   -16792   -16795   -16779 
  -16762   -16755   -16744   -16733   -16724   -16705   -16674   -16656 
  -16657   -16642   -16613   -16604   -16594   -16568   -16554   -16550 
  -16547   -16543   -16535   -16537   -16543   -16539   -16541   -16551 
  -16550   -16553   -16567   -16574   -16582   -16596   -16593   -16588 
  -16594   -16596   -16602   -16611   -16603   -16600   -16607   -16604 
  -16600   -16598   -16595   -16607   -16615   -16610   -16623   -16637 
  -16629   -16634   -16653   -16657   -16664   -16670   -16664   -16662 
  -16660   -16655   -16653   -16635   -16619   -16615   -16589   -16560 
  -16552   -16526   -16491   -16474   -16444   -16404   -16379   -16344 
  -16303   -16274   -16237   -16199   -16173   -16133   -16091   -16064 
  -16028   -15995   -15976   -15937   -15900   -15885   -15860   -15830 
  -15812   -15796   -15786   -15777   -15760   -15760   -15773   -15770 
  -15780   -15802   -15806   -15818   -15838   -15849   -15873   -15901 
  -15909   -15925   -15952   -15973   -15997   -16016   -16028   -16061 
  -16095   -16107   -16134   -16164   -16170   -16189   -16215   -16223 
  -16236   -16252   -16255   -16271   -16289   -16285   -16277   -16272 
  -16268   -16272   -16264   -16254   -16262   -16255   -16236   -16238 
  -16238   -16229   -16229   -16224   -16224   -16241   -16245   -16245 
  -16260   -16269   -16270   -16281   -16292   -16294   -16294   -16297 
  -16306   -16314   -16316   -16323   -16329   -16322   -16318   -16321 
  -16323   -16329   -16329   -16332   -16342   -16344   -16344   -16354 
  -16366   -16382   -16398   -16408   -16427   -16450   -16460   -16473 
  -16495   -16509   -16530   -16558   -16575   -16598   -16619   -16617 
  -16622   -16644   -16655   -16660   -16664   -16661   -16657   -16651 
  -16642   -16642   -16639   -16624   -16616   -16614   -16612   -16610 
  -16600   -16591   -16593   -16586   -16574   -16577   -16574   -16560 
  -16555   -16553   -16542   -16533   -16530   -16533   -16528   -16514 
  -16512   -16514   -16508   -16517   -16533   -16526   -16523   -16537 
  -16532   -16529   -16551   -16559   -16550   -16550   -16559   -16572 
  -16577   -16579   -16598   -16608   -16601   -16614   -16632   -16630 
  -16638   -16652   -16654   -16659   -16659   -16652   -16653   -16646 
  -16633   -16636   -16633   -16620   -16622   -16620   -16606   -16612 
  -16616   -16602   -16607   -16610   -16602   -16611   -16617   -16612 
  -16621   -16621   -16616   -16636   -16648   -16647   -16664   -16682 
  -16691   -16710   -16723   -16735   -16760   -16777   -16793   -16822 
  -16834   -16844   -16864   -16870   -16875   -16887   -16886   -16885 
  -16886   -16878   -16870   -16866   -16865   -16868   -16861   -16853 
  -16860   -16866   -16860   -16863   -16868   -16865   -16874   -16881 
  -16874   -16877   -16883   -16876   -16874   -16873   -16863   -16856 
  -16849   -16837   -16833   -16827   -16816   -16816   -16818   -16808 
  -16794   -16785   -16797   -16816   -16818   -16816   -16821   -16826 
  -16842   -16861   -16869   -16880   -16891   -16891   -16902   -16925 
  -16936   -16946   -16961   -16972   -16992   -17014   -17027   -17041 
  -17060   -17081   -17104   -17122   -17135   -17152   -17159   -17158 
  -17162   -17162   -17154   -17144   -17127   -17109   -17093   -17065 
  -17032   -17007   -16973   -16928   -16888   -16851   -16813   -16775 
  -16734   -16691   -16654   -16625   -16599   -16566   -16536   -16524 
  -16508   -16479   -16464   -16461   -16448   -16435   -16424   -16411 
  -16407   -16402   -16386   -16380   -16370   -16345   -16327   -16311 
  -16294   -16281   -16253   -16221   -16209   -16186   -16153   -16132 
  -16104   -16075   -16056   -16025   -15995   -15977   -15951   -15929 
  -15922   -15905   -15883   -15870   -15855   -15852   -15855   -15844 
  -15836   -15836   -15830   -15832   -15837   -15833   -15839   -15840 
  -15830   -15837   -15844   -15836   -15841   -15843   -15838   -15854 
  -15861   -15845   -15847   -15854   -15843   -15845   -15849   -15835 
  -15831   -15826   -15810   -15806   -15794   -15770   -15763   -15753 
  -15735   -15730   -15720   -15706   -15701   -15685   -15673   -15682 
  -15675   -15664   -15671   -15670   -15669   -15680   -15682   -15693 
  -15719   -15729   -15745   -15777   -15790   -15807   -15840   -15858 
  -15879   -15907   -15917   -15935   -15962   -15971   -15986   -16013 
  -16032   -16050   -16067   -16077   -16096   -16115   -16122   -16145 
  -16173   -16187   -16204   -16217   -16222   -16244   -16263   -16264 
  -16280   -16302   -16311   -16326   -16348   -16362   -16381   -16402 
  -16419   -16447   -16479   -16495   -16517   -16546   -16572   -16604 
  -16625   -16642   -16677   -16708   -16724   -16751   -16777   -16793 
  -16812   -16834   -16856   -16875   -16882   -16896   -16916   -16930 
  -16950   -16974   -16992   -17014   -17038   -17052   -17072   -17096 
  -17116   -17143   -17172   -17197   -17224   -17249   -17276   -17306 
  -17330   -17361   -17406   -17434   -17454   -17491   -17529   -17554 
  -17581   -17610   -17633   -17650   -17663   -17676   -17682   -17680 
  -17682   -17679   -17662   -17651   -17644   -17623   -17606   -17596 
  -17574   -17551   -17533   -17513   -17493   -17476   -17458   -17441 
  -17420   -17398   -17386   -17366   -17334   -17312   -17289   -17259 
  -17234   -17200   -17158   -17123   -17077   -17025   -16984   -16934 
  -16876   -16826   -16771   -16711   -16653   -16592   -16538   -16491 
  -16441   -16395   -16354   -16302   -16260   -16237   -16204   -16173 
  -16157   -16131   -16105   -16098   -16090   -16080   -16074   -16067 
  -16073   -16083   -16078   -16088   -16107   -16114   -16135   -16159 
  -16176   -16213   -16248   -16264   -16297   -16334   -16351   -16378 
  -16405   -16419   -16442   -16453   -16452   -16465   -16469   -16464 
  -16475   -16478   -16477   -16487   -16477   -16468   -16478   -16474 
  -16467   -16479   -16479   -16470   -16470   -16462   -16452   -16451 
  -16438   -16421   -16412   -16388   -16360   -16334   -16297   -16267 
  -16238   -16190   -16153   -16124   -16070   -16019   -15989   -15956 
  -15921   -15886   -15857   -15842   -15819   -15787   -15776   -15774 
  -15766   -15769   -15772   -15774   -15794   -15815   -15837   -15876 
  -15914   -15948   -15999   -16053   -16103   -16162   -16221   -16280 
  -16347   -16403   -16456   -16522   -16579   -16622   -16671   -16717 
  -16755   -16788   -16812   -16834   -16862   -16877   -16876   -16871 
  -16861   -16851   -16838   -16819   -16797   -16767   -16733   -16701 
  -16660   -16612   -16575   -16538   -16489   -16444   -16406   -16354 
  -16298   -16247   -16201   -16159   -16114   -16065   -16020   -15969 
  -15923   -15891   -15850   -15801   -15765   -15734   -15701   -15667 
  -15635   -15614   -15594   -15577   -15575   -15568   -15560   -15576 
  -15591   -15593   -15619   -15657   -15680   -15712   -15758   -15792 
  -15836   -15892   -15931   -15974   -16030   -16088   -16150   -16201 
  -16248   -16310   -16364   -16413   -16469   -16514   -16560   -16612 
  -16648   -16684   -16730   -16758   -16786   -16826   -16850   -16869 
  -16896   -16909   -16924   -16945   -16944   -16947   -16961   -16953 
  -16945   -16947   -16939   -16939   -16941   -16916   -16901   -16903 
  -16888   -16874   -16869   -16852   -16846   -16847   -16835   -16831 
  -16835   -16830   -16836   -16841   -16830   -16831   -16835   -16826 
  -16831   -16831   -16813   -16815   -16817   -16803   -16802   -16801 
  -16794   -16800   -16794   -16783   -16794   -16791   -16772   -16771 
  -16770   -16763   -16766   -16758   -16749   -16757   -16751   -16741 
  -16749   -16743   -16731   -16734   -16730   -16724   -16725   -16709 
  -16695   -16695   -16685   -16671   -16662   -16649   -16643   -16638 
  -16620   -16610   -16605   -16589   -16583   -16580   -16569   -16566 
  -16569   -16565   -16568   -16578   -16581   -16586   -16594   -16599 
  -16611   -16624   -16631   -16642   -16653   -16656   -16670   -16684 
  -16686   -16694   -16706   -16710   -16717   -16722   -16716   -16711 
  -16709   -16703   -16688   -16667   -16655   -16642   -16621   -16603 
  -16581   -16548   -16523   -16503   -16477   -16452   -16426   -16394 
  -16362   -16337   -16318   -16296   -16270   -16250   -16245   -16231 
  -16209   -16201   -16196   -16189   -16187   -16183   -16187   -16201 
  -16204   -16200   -16210   -16227   -16237   -16246   -16262   -16281 
  -16292   -16297   -16310   -16330   -16344   -16355   -16366   -16377 
  -16394   -16406   -16406   -16417   -16431   -16427   -16425   -16431 
  -16434   -16445   -16445   -16433   -16439   -16444   -16432   -16428 
  -16426   -16422   -16429   -16424   -16415   -16425   -16432   -16435 
  -16446   -16450   -16453   -16468   -16479   -16492   -16508   -16507 
  -16517   -16547   -16556   -16556   -16572   -16579   -16581   -16593 
  -16591   -16582   -16578   -16567   -16557   -16545   -16514   -16490 
  -16473   -16439   -16411   -16391   -16351   -16321   -16305   -16275 
  -16251   -16239   -16215   -16202   -16200   -16190   -16193   -16199 
  -16192   -16200   -16212   -16212   -16227   -16245   -16250   -16265 
  -16282   -16298   -16329   -16345   -16352   -16388   -16420   -16434 
  -16464   -16484   -16499   -16538   -16566   -16579   -16604   -16623 
  -16638   -16661   -16676   -16692   -16711   -16712   -16716   -16736 
  -16743   -16741   -16745   -16745   -16743   -16749   -16747   -16746 
  -16750   -16747   -16748   -16754   -16752   -16753   -16753   -16741 
  -16739   -16739   -16726   -16716   -16709   -16698   -16694   -16688 
  -16672   -16664   -16656   -16641   -16639   -16635   -16615   -16604 
  -16598   -16586   -16576   -16562   -16549   -16544   -16531   -16513 
  -16502   -16492   -16482   -16476   -16465   -16454   -16447   -16435 
  -16422   -16410   -16395   -16386   -16378   -16363   -16357   -16354 
  -16339   -16329   -16332   -16326   -16313   -16313   -16315   -16307 
  -16303   -16303   -16300   -16298   -16305   -16310   -16303   -16305 
  -16321   -16322   -16317   -16325   -16327   -16325   -16336   -16339 
  -16337   -16348   -16356   -16355   -16355   -16356   -16365   -16375 
  -16374   -16383   -16397   -16399   -16411   -16427   -16436   -16459 
  -16483   -16497   -16525   -16554   -16575   -16605   -16630   -16648 
  -16683   -16706   -16714   -16739   -16760   -16773   -16794   -16802 
  -16812   -16836   -16840   -16842   -16863   -16865   -16862   -16880 
  -16887   -16885   -16893   -16892   -16897   -16914   -16907   -16900 
  -16912   -16906   -16897   -16903   -16898   -16887   -16885   -16869 
  -16850   -16840   -16822   -16804   -16792   -16768   -16747   -16731 
  -16705   -16689   -16676   -16644   -16628   -16624   -16596   -16571 
  -16557   -16532   -16519   -16508   -16481   -16467   -16456   -16430 
  -16420   -16414   -16394   -16383   -16371   -16355   -16357   -16351 
