Origin Time       2025/01/13 21:19:00
Lat.              31.8
Long.             131.6
Depth. (km)       30
Mag.              6.9
Station Code      SMNH15
Station Lat.      35.5232
Station Long.     133.0226
Station Height(m) 20
Record Time       2025/01/13 21:21:07
Sampling Freq(Hz) 100Hz
Duration Time(s)  134
Dir.              6
Scale Factor      7845(gal)/8223790
Max. Acc. (gal)   0.391
Last Correction   2025/01/13 21:21:07
Memo.             
[...]
   -3734    -3736    -3739    -3740    -3742    -3739    -3728    -3716 
   -3709    -3707    -3708    -3711    -3713    -3719    -3720    -3720 
   -3717    -3713    -3711    -3709    -3708    -3708    -3716    -3726 
   -3728    -3734    -3736    -3730    -3717    -3705    -3694    -3685 
   -3680    -3678    -3680    -3674    -3670    -3667    -3661    -3651 
   -3643    -3632    -3618    -3599    -3576    -3553    -3537    -3526 
   -3520    -3519    -3523    -3530    -3537    -3539    -3535    -3530 
   -3526    -3520    -3518    -3522    -3528    -3538    -3553    -3565 
   -3568    -3570    -3570    -3562    -3554    -3551    -3547    -3545 
   -3551    -3564    -3573    -3581    -3586    -3589    -3589    -3591 
   -3591    -3595    -3607    -3626    -3645    -3663    -3685    -3703 
   -3713    -3715    -3713    -3709    -3701    -3689    -3681    -3678 
   -3678    -3676    -3669    -3666    -3667    -3670    -3674    -3680 
   -3682    -3685    -3685    -3689    -3697    -3708    -3717    -3727 
   -3732    -3742    -3750    -3759    -3773    -3782    -3778    -3773 
   -3771    -3766    -3755    -3747    -3739    -3731    -3724    -3724 
   -3728    -3727    -3723    -3719    -3713    -3703    -3692    -3678 
   -3669    -3665    -3665    -3669    -3676    -3686    -3696    -3703 
   -3707    -3707    -3705    -3704    -3696    -3685    -3681    -3682 
   -3685    -3692    -3704    -3715    -3724    -3735    -3740    -3740 
   -3736    -3730    -3724    -3717    -3711    -3711    -3719    -3728 
   -3738    -3750    -3761    -3767    -3765    -3759    -3755    -3755 
   -3755    -3757    -3763    -3775    -3788    -3797    -3802    -3804 
   -3796    -3781    -3769    -3757    -3744    -3735    -3728    -3726 
   -3730    -3738    -3742    -3743    -3744    -3744    -3739    -3730 
   -3712    -3692    -3670    -3654    -3645    -3638    -3634    -3635 
   -3640    -3649    -3655    -3661    -3662    -3663    -3665    -3665 
   -3670    -3680    -3690    -3701    -3712    -3717    -3717    -3708 
   -3690    -3667    -3646    -3632    -3622    -3619    -3628    -3639 
   -3650    -3657    -3659    -3655    -3647    -3638    -3624    -3612 
   -3600    -3589    -3586    -3595    -3605    -3619    -3631    -3636 
   -3639    -3638    -3632    -3623    -3619    -3622    -3622    -3626 
   -3636    -3650    -3663    -3680    -3690    -3697    -3697    -3694 
   -3688    -3677    -3670    -3666    -3661    -3663    -3676    -3688 
   -3696    -3704    -3707    -3703    -3696    -3686    -3674    -3666 
   -3666    -3667    -3669    -3672    -3673    -3676    -3677    -3682 
   -3688    -3690    -3693    -3693    -3688    -3684    -3681    -3678 
   -3680    -3681    -3678    -3673    -3669    -3670    -3672    -3666 
   -3659    -3650    -3638    -3631    -3626    -3623    -3624    -3632 
   -3649    -3665    -3676    -3684    -3688    -3684    -3676    -3667 
   -3661    -3654    -3646    -3638    -3628    -3620    -3611    -3603 
   -3601    -3600    -3597    -3595    -3589    -3580    -3572    -3565 
   -3559    -3554    -3549    -3547    -3549    -3549    -3551    -3554 
   -3557    -3558    -3559    -3561    -3554    -3546    -3543    -3539 
   -3537    -3539    -3539    -3535    -3528    -3516    -3499    -3487 
   -3484    -3483    -3487    -3492    -3489    -3487    -3484    -3476 
   -3472    -3473    -3476    -3485    -3501    -3518    -3531    -3542 
   -3549    -3557    -3566    -3577    -3595    -3618    -3639    -3657 
   -3667    -3673    -3677    -3677    -3674    -3673    -3673    -3676 
   -3680    -3688    -3700    -3711    -3720    -3728    -3732    -3734 
   -3730    -3720    -3711    -3703    -3692    -3684    -3681    -3684 
   -3689    -3694    -3699    -3700    -3700    -3699    -3696    -3690 
   -3688    -3684    -3676    -3670    -3667    -3665    -3659    -3657 
   -3653    -3640    -3623    -3611    -3596    -3581    -3580    -3585 
   -3589    -3599    -3605    -3603    -3599    -3599    -3593    -3584 
   -3577    -3568    -3558    -3554    -3550    -3549    -3550    -3553 
   -3557    -3558    -3558    -3561    -3557    -3553    -3549    -3543 
   -3538    -3532    -3526    -3523    -3522    -3523    -3524    -3527 
   -3534    -3546    -3555    -3562    -3566    -3570    -3573    -3574 
   -3577    -3581    -3581    -3580    -3572    -3564    -3558    -3554 
   -3554    -3558    -3561    -3566    -3576    -3585    -3592    -3595 
   -3599    -3607    -3620    -3638    -3661    -3681    -3694    -3703 
   -3707    -3709    -3711    -3709    -3708    -3705    -3700    -3692 
   -3690    -3693    -3697    -3704    -3713    -3720    -3726    -3731 
   -3735    -3739    -3739    -3738    -3738    -3736    -3732    -3728 
   -3726    -3720    -3715    -3713    -3712    -3709    -3707    -3707 
   -3707    -3701    -3693    -3688    -3685    -3678    -3672    -3666 
   -3662    -3662    -3663    -3667    -3672    -3676    -3685    -3696 
   -3701    -3707    -3708    -3705    -3701    -3697    -3697    -3703 
   -3709    -3719    -3727    -3731    -3730    -3724    -3713    -3704 
   -3696    -3689    -3686    -3688    -3693    -3699    -3700    -3697 
   -3692    -3686    -3686    -3685    -3684    -3684    -3682    -3678 
   -3674    -3669    -3663    -3662    -3658    -3654    -3655    -3658 
   -3650    -3643    -3643    -3642    -3642    -3645    -3646    -3643 
   -3640    -3639    -3635    -3635    -3635    -3630    -3623    -3619 
   -3618    -3618    -3619    -3622    -3623    -3619    -3615    -3609 
   -3603    -3600    -3601    -3603    -3608    -3620    -3636    -3650 
   -3665    -3678    -3681    -3678    -3677    -3674    -3667    -3663 
   -3658    -3657    -3659    -3666    -3680    -3692    -3703    -3712 
   -3716    -3719    -3721    -3716    -3713    -3713    -3711    -3709 
   -3713    -3716    -3713    -3711    -3707    -3699    -3688    -3676 
   -3667    -3655    -3638    -3622    -3609    -3599    -3588    -3574 
   -3566    -3559    -3545    -3532    -3524    -3518    -3514    -3515 
   -3519    -3526    -3532    -3538    -3543    -3550    -3557    -3562 
   -3568    -3574    -3580    -3582    -3582    -3585    -3592    -3597 
   -3600    -3603    -3604    -3605    -3607    -3612    -3615    -3615 
   -3619    -3624    -3623    -3623    -3622    -3619    -3613    -3605 
   -3599    -3597    -3597    -3603    -3608    -3616    -3631    -3646 
   -3661    -3677    -3686    -3690    -3693    -3697    -3708    -3723 
   -3736    -3750    -3765    -3777    -3788    -3796    -3797    -3801 
   -3807    -3805    -3798    -3790    -3784    -3780    -3778    -3775 
   -3775    -3781    -3784    -3781    -3777    -3773    -3767    -3765 
   -3766    -3770    -3778    -3788    -3796    -3797    -3800    -3797 
   -3792    -3790    -3790    -3786    -3786    -3788    -3790    -3797 
   -3802    -3808    -3811    -3815    -3817    -3820    -3827    -3834 
   -3836    -3839    -3838    -3831    -3820    -3809    -3796    -3785 
   -3778    -3773    -3771    -3771    -3765    -3755    -3746    -3736 
   -3724    -3715    -3709    -3704    -3696    -3694    -3699    -3699 
   -3697    -3700    -3700    -3694    -3690    -3686    -3682    -3677 
   -3672    -3666    -3657    -3646    -3632    -3618    -3599    -3585 
   -3580    -3573    -3568    -3566    -3570    -3576    -3578    -3581 
   -3580    -3576    -3572    -3566    -3558    -3551    -3549    -3551 
   -3555    -3562    -3572    -3581    -3588    -3591    -3593    -3599 
   -3603    -3612    -3620    -3626    -3632    -3640    -3643    -3646 
   -3654    -3669    -3681    -3689    -3696    -3700    -3704    -3709 
   -3712    -3713    -3715    -3716    -3719    -3719    -3717    -3716 
   -3716    -3712    -3709    -3708    -3705    -3700    -3696    -3692 
   -3688    -3684    -3680    -3676    -3672    -3667    -3662    -3655 
   -3645    -3634    -3624    -3615    -3605    -3599    -3593    -3589 
   -3582    -3578    -3578    -3578    -3582    -3588    -3593    -3597 
   -3600    -3603    -3608    -3611    -3611    -3612    -3612    -3611 
   -3607    -3609    -3611    -3611    -3613    -3613    -3613    -3615 
   -3613    -3608    -3600    -3589    -3578    -3568    -3559    -3553 
   -3545    -3541    -3535    -3528    -3522    -3511    -3496    -3485 
   -3477    -3468    -3464    -3464    -3465    -3469    -3473    -3474 
   -3472    -3469    -3470    -3473    -3470    -3468    -3469    -3470 
   -3470    -3474    -3478    -3481    -3484    -3484    -3484    -3488 
   -3491    -3499    -3507    -3510    -3512    -3516    -3519    -3515 
   -3512    -3519    -3530    -3539    -3555    -3573    -3586    -3596 
   -3603    -3604    -3604    -3601    -3601    -3600    -3601    -3601 
   -3600    -3604    -3612    -3618    -3624    -3636    -3643    -3645 
   -3643    -3640    -3639    -3638    -3639    -3643    -3653    -3665 
   -3678    -3692    -3704    -3711    -3713    -3716    -3717    -3716 
   -3716    -3720    -3720    -3720    -3726    -3734    -3742    -3750 
   -3755    -3762    -3769    -3777    -3785    -3794    -3805    -3815 
   -3823    -3827    -3828    -3827    -3824    -3823    -3819    -3813 
   -3809    -3809    -3807    -3802    -3802    -3801    -3794    -3793 
   -3794    -3796    -3794    -3789    -3782    -3778    -3773    -3767 
   -3766    -3770    -3771    -3774    -3777    -3777    -3777    -3780 
   -3781    -3781    -3782    -3784    -3789    -3793    -3793    -3793 
   -3789    -3781    -3778    -3777    -3771    -3767    -3766    -3762 
   -3755    -3747    -3742    -3736    -3735    -3739    -3746    -3751 
   -3753    -3755    -3761    -3763    -3766    -3771    -3775    -3777 
   -3781    -3788    -3792    -3793    -3794    -3794    -3793    -3794 
   -3794    -3796    -3800    -3802    -3804    -3805    -3802    -3796 
   -3786    -3777    -3771    -3769    -3769    -3774    -3781    -3789 
   -3797    -3804    -3808    -3807    -3804    -3798    -3794    -3792 
   -3789    -3790    -3793    -3792    -3790    -3786    -3780    -3774 
   -3766    -3758    -3750    -3736    -3717    -3700    -3680    -3657 
   -3638    -3619    -3600    -3585    -3568    -3549    -3524    -3495 
   -3466    -3438    -3410    -3385    -3366    -3349    -3333    -3319 
   -3312    -3308    -3303    -3303    -3308    -3310    -3307    -3310 
   -3315    -3319    -3330    -3345    -3358    -3370    -3381    -3393 
   -3402    -3407    -3408    -3414    -3422    -3427    -3434    -3442 
   -3447    -3451    -3454    -3451    -3449    -3447    -3443    -3445 
   -3451    -3456    -3464    -3478    -3496    -3511    -3520    -3527 
   -3531    -3534    -3539    -3546    -3551    -3559    -3572    -3580 
   -3585    -3591    -3595    -3595    -3592    -3588    -3585    -3586 
   -3591    -3596    -3605    -3616    -3619    -3619    -3616    -3616 
   -3616    -3615    -3616    -3618    -3616    -3613    -3611    -3608 
   -3605    -3603    -3601    -3603    -3603    -3603    -3607    -3615 
   -3624    -3634    -3645    -3659    -3673    -3684    -3693    -3701 
   -3703    -3708    -3715    -3716    -3717    -3720    -3716    -3711 
   -3707    -3703    -3701    -3701    -3704    -3711    -3716    -3717 
   -3721    -3731    -3736    -3736    -3738    -3736    -3732    -3728 
   -3726    -3723    -3719    -3717    -3719    -3716    -3712    -3713 
   -3713    -3711    -3713    -3719    -3724    -3735    -3743    -3744 
   -3744    -3743    -3740    -3738    -3735    -3730    -3723    -3717 
   -3715    -3709    -3707    -3711    -3715    -3717    -3717    -3713 
   -3711    -3709    -3708    -3705    -3705    -3705    -3700    -3697 
   -3697    -3696    -3692    -3686    -3681    -3673    -3666    -3661 
   -3657    -3647    -3638    -3635    -3635    -3634    -3632    -3630 
   -3626    -3619    -3616    -3612    -3609    -3607    -3600    -3592 
   -3588    -3584    -3577    -3572    -3572    -3570    -3568    -3565 
   -3554    -3546    -3543    -3541    -3542    -3547    -3555    -3565 
   -3576    -3584    -3593    -3601    -3607    -3612    -3618    -3619 
   -3619    -3618    -3615    -3609    -3601    -3597    -3592    -3585 
   -3581    -3580    -3576    -3577    -3580    -3586    -3595    -3600 
   -3609    -3623    -3632    -3636    -3640    -3651    -3665    -3674 
   -3681    -3690    -3697    -3700    -3703    -3708    -3713    -3721 
   -3728    -3736    -3743    -3743    -3738    -3732    -3727    -3721 
   -3717    -3716    -3717    -3716    -3712    -3709    -3701    -3689 
   -3681    -3673    -3666    -3659    -3646    -3635    -3623    -3607 
   -3592    -3580    -3566    -3553    -3542    -3528    -3519    -3512 
   -3504    -3499    -3497    -3503    -3507    -3510    -3515    -3522 
   -3530    -3542    -3550    -3558    -3572    -3585    -3599    -3613 
   -3627    -3636    -3645    -3655    -3665    -3673    -3684    -3696 
   -3701    -3697    -3697    -3700    -3700    -3697    -3697    -3694 
   -3688    -3682    -3678    -3673    -3670    -3670    -3670    -3672 
   -3676    -3677    -3677    -3676    -3673    -3667    -3663    -3661 
   -3661    -3659    -3657    -3653    -3647    -3640    -3636    -3635 
   -3635    -3636    -3639    -3640    -3646    -3653    -3657    -3662 
   -3672    -3684    -3697    -3712    -3724    -3739    -3755    -3763 
   -3770    -3778    -3786    -3796    -3811    -3823    -3831    -3838 
   -3844    -3844    -3846    -3850    -3855    -3865    -3878    -3894 
   -3915    -3933    -3958    -3981    -3996    -4012    -4027    -4036 
   -4041    -4043    -4045    -4052    -4055    -4055    -4060    -4063 
   -4056    -4051    -4044    -4029    -4014    -4004    -3989    -3973 
   -3958    -3939    -3916    -3894    -3871    -3844    -3815    -3789 
   -3763    -3734    -3707    -3685    -3663    -3643    -3624    -3603 
   -3580    -3557    -3535    -3516    -3499    -3484    -3473    -3464 
   -3460    -3460    -3462    -3466    -3469    -3473    -3477    -3483 
   -3489    -3495    -3496    -3499    -3501    -3500    -3497    -3493 
   -3485    -3484    -3487    -3488    -3488    -3485    -3480    -3472 
   -3466    -3466    -3468    -3464    -3464    -3468    -3468    -3465 
   -3464    -3464    -3465    -3470    -3478    -3491    -3503    -3512 
   -3520    -3530    -3535    -3541    -3543    -3546    -3550    -3553 
   -3554    -3559    -3565    -3572    -3574    -3577    -3581    -3584 
   -3581    -3581    -3581    -3578    -3574    -3568    -3561    -3555 
   -3550    -3542    -3532    -3524    -3518    -3510    -3501    -3492 
   -3483    -3472    -3461    -3451    -3442    -3437    -3433    -3427 
   -3423    -3419    -3410    -3397    -3383    -3368    -3357    -3346 
   -3341    -3337    -3334    -3337    -3339    -3342    -3346    -3349 
   -3357    -3365    -3369    -3375    -3384    -3391    -3403    -3418 
   -3434    -3453    -3469    -3484    -3500    -3514    -3523    -3537 
   -3555    -3574    -3596    -3620    -3643    -3666    -3689    -3707 
   -3723    -3739    -3755    -3773    -3789    -3801    -3809    -3815 
   -3820    -3824    -3827    -3828    -3828    -3827    -3827    -3825 
   -3825    -3827    -3827    -3827    -3821    -3815    -3811    -3809 
   -3808    -3807    -3804    -3802    -3804    -3804    -3801    -3796 
   -3790    -3788    -3788    -3790    -3797    -3808    -3815    -3819 
   -3824    -3827    -3825    -3825    -3824    -3821    -3816    -3809 
   -3800    -3790    -3784    -3777    -3766    -3755    -3746    -3736 
   -3726    -3719    -3716    -3716    -3719    -3720    -3723    -3732 
   -3744    -3754    -3763    -3775    -3785    -3792    -3801    -3809 
   -3813    -3817    -3827    -3836    -3847    -3856    -3863    -3873 
   -3882    -3886    -3889    -3894    -3901    -3906    -3909    -3910 
   -3906    -3900    -3893    -3889    -3882    -3874    -3865    -3854 
   -3840    -3821    -3807    -3796    -3780    -3766    -3757    -3743 
   -3731    -3723    -3715    -3704    -3696    -3690    -3685    -3678 
   -3672    -3662    -3654    -3650    -3645    -3642    -3639    -3636 
   -3630    -3623    -3615    -3600    -3580    -3562    -3549    -3534 
   -3518    -3504    -3492    -3484    -3474    -3466    -3460    -3453 
   -3447    -3443    -3438    -3435    -3435    -3433    -3431    -3431 
   -3433    -3433    -3434    -3437    -3439    -3442    -3445    -3443 
   -3445    -3450    -3451    -3451    -3458    -3465    -3470    -3478 
   -3488    -3495    -3501    -3508    -3512    -3514    -3514    -3516 
   -3523    -3530    -3538    -3546    -3553    -3561    -3570    -3576 
   -3578    -3584    -3586    -3592    -3599    -3604    -3605    -3605 
   -3603    -3603    -3603    -3603    -3600    -3601    -3608    -3612 
   -3618    -3624    -3630    -3642    -3657    -3667    -3678    -3690 
   -3697    -3700    -3704    -3704    -3703    -3703    -3707    -3711 
   -3712    -3712    -3713    -3712    -3709    -3707    -3701    -3696 
   -3694    -3692    -3685    -3680    -3678    -3674    -3669    -3665 
   -3663    -3662    -3659    -3658    -3658    -3658    -3659    -3662 
   -3667    -3673    -3681    -3689    -3697    -3701    -3704    -3707 
   -3712    -3720    -3728    -3734    -3742    -3748    -3751    -3753 
   -3750    -3747    -3747    -3746    -3746    -3744    -3744    -3744 
   -3743    -3739    -3732    -3727    -3717    -3708    -3700    -3688 
   -3674    -3666    -3658    -3651    -3646    -3638    -3631    -3624 
   -3615    -3603    -3592    -3582    -3577    -3574    -3572    -3569 
   -3569    -3573    -3573    -3570    -3570    -3570    -3569    -3570 
   -3572    -3573    -3580    -3586    -3585    -3585    -3589    -3592 
   -3596    -3605    -3616    -3632    -3650    -3666    -3681    -3694 
   -3711    -3726    -3735    -3744    -3747    -3750    -3755    -3759 
   -3759    -3759    -3762    -3762    -3759    -3754    -3751    -3746 
   -3739    -3735    -3732    -3730    -3730    -3731    -3732    -3730 
   -3730    -3730    -3728    -3728    -3730    -3730    -3730    -3731 
   -3732    -3734    -3734    -3734    -3735    -3734    -3726    -3719 
   -3712    -3707    -3700    -3696    -3697    -3696    -3690    -3685 
   -3677    -3665    -3651    -3639    -3626    -3609    -3595    -3580 
   -3565    -3553    -3541    -3527    -3520    -3516    -3510    -3503 
   -3496    -3487    -3478    -3474    -3472    -3468    -3466    -3469 
   -3470    -3473    -3476    -3477    -3484    -3492    -3497    -3503 
   -3510    -3512    -3515    -3523    -3530    -3534    -3543    -3554 
   -3558    -3562    -3564    -3562    -3562    -3568    -3572    -3578 
   -3591    -3600    -3609    -3620    -3628    -3634    -3639    -3646 
   -3653    -3661    -3670    -3685    -3701    -3713    -3727    -3744 
   -3762    -3775    -3786    -3796    -3805    -3812    -3816    -3821 
   -3831    -3843    -3851    -3858    -3863    -3863    -3865    -3870 
   -3873    -3874    -3878    -3879    -3879    -3882    -3886    -3888 
   -3888    -3892    -3892    -3886    -3885    -3883    -3878    -3871 
   -3866    -3861    -3855    -3848    -3842    -3834    -3827    -3815 
   -3804    -3790    -3775    -3765    -3757    -3748    -3739    -3732 
   -3721    -3711    -3701    -3688    -3676    -3666    -3653    -3645 
   -3638    -3631    -3630    -3631    -3630    -3628    -3626    -3620 
   -3619    -3618    -3616    -3615    -3616    -3619    -3620    -3622 
