Origin Time       2025/01/13 21:19:00
Lat.              31.8
Long.             131.6
Depth. (km)       30
Mag.              6.9
Station Code      SMNH15
Station Lat.      35.5232
Station Long.     133.0226
Station Height(m) -82
Record Time       2025/01/13 21:21:07
Sampling Freq(Hz) 100Hz
Duration Time(s)  134
Dir.              1
Scale Factor      3923(gal)/8224838
Max. Acc. (gal)   0.679
Last Correction   2025/01/13 21:21:07
Memo.             
[...]
  -45570   -45574   -45577   -45580   -45581   -45584   -45590   -45597 
  -45601   -45608   -45619   -45628   -45636   -45646   -45654   -45657 
  -45661   -45665   -45670   -45675   -45682   -45689   -45697   -45706 
  -45716   -45723   -45729   -45739   -45744   -45744   -45744   -45740 
  -45735   -45733   -45733   -45733   -45732   -45732   -45738   -45746 
  -45746   -45746   -45750   -45748   -45742   -45735   -45723   -45711 
  -45700   -45693   -45689   -45685   -45681   -45677   -45670   -45663 
  -45655   -45643   -45635   -45628   -45620   -45616   -45616   -45612 
  -45605   -45601   -45594   -45584   -45577   -45571   -45567   -45565 
  -45558   -45550   -45544   -45538   -45532   -45530   -45527   -45527 
  -45527   -45526   -45524   -45522   -45520   -45519   -45519   -45522 
  -45528   -45534   -45543   -45555   -45566   -45570   -45573   -45577 
  -45580   -45581   -45584   -45585   -45582   -45577   -45571   -45570 
  -45569   -45566   -45566   -45565   -45565   -45565   -45566   -45571 
  -45576   -45578   -45582   -45584   -45585   -45584   -45578   -45569 
  -45561   -45551   -45542   -45534   -45524   -45517   -45515   -45509 
  -45509   -45508   -45497   -45490   -45485   -45473   -45455   -45446 
  -45441   -45431   -45423   -45419   -45412   -45409   -45411   -45411 
  -45409   -45409   -45411   -45412   -45412   -45411   -45415   -45420 
  -45424   -45434   -45442   -45446   -45450   -45450   -45445   -45438 
  -45431   -45420   -45408   -45397   -45387   -45377   -45365   -45354 
  -45349   -45345   -45341   -45338   -45334   -45331   -45331   -45331 
  -45334   -45337   -45335   -45333   -45331   -45331   -45331   -45335 
  -45341   -45347   -45355   -45366   -45377   -45388   -45401   -45419 
  -45438   -45457   -45477   -45500   -45516   -45530   -45546   -45565 
  -45578   -45589   -45604   -45617   -45628   -45638   -45650   -45665 
  -45681   -45701   -45721   -45742   -45766   -45785   -45802   -45819 
  -45831   -45841   -45852   -45862   -45871   -45879   -45885   -45890 
  -45895   -45902   -45909   -45914   -45917   -45921   -45925   -45924 
  -45918   -45913   -45909   -45905   -45900   -45891   -45883   -45875 
  -45867   -45858   -45844   -45832   -45817   -45801   -45786   -45771 
  -45755   -45742   -45731   -45719   -45711   -45705   -45700   -45693 
  -45688   -45682   -45677   -45673   -45666   -45655   -45648   -45642 
  -45635   -45628   -45623   -45623   -45623   -45624   -45624   -45627 
  -45628   -45630   -45631   -45635   -45643   -45651   -45659   -45670 
  -45681   -45688   -45696   -45702   -45705   -45705   -45706   -45711 
  -45715   -45719   -45723   -45732   -45744   -45754   -45762   -45774 
  -45782   -45786   -45793   -45800   -45800   -45801   -45808   -45812 
  -45817   -45825   -45833   -45840   -45846   -45851   -45858   -45866 
  -45874   -45881   -45887   -45894   -45897   -45897   -45897   -45895 
  -45893   -45890   -45886   -45882   -45878   -45873   -45867   -45863 
  -45858   -45850   -45843   -45833   -45821   -45810   -45796   -45777 
  -45756   -45739   -45723   -45705   -45689   -45669   -45651   -45636 
  -45619   -45598   -45581   -45566   -45550   -45534   -45520   -45508 
  -45496   -45482   -45468   -45454   -45439   -45427   -45416   -45407 
  -45400   -45395   -45391   -45387   -45381   -45376   -45372   -45364 
  -45355   -45346   -45338   -45334   -45327   -45316   -45311   -45310 
  -45310   -45311   -45315   -45319   -45322   -45324   -45330   -45339 
  -45349   -45358   -45368   -45378   -45391   -45408   -45424   -45439 
  -45457   -45472   -45482   -45496   -45512   -45526   -45540   -45554 
  -45566   -45584   -45601   -45616   -45631   -45644   -45657   -45671 
  -45685   -45698   -45711   -45725   -45738   -45747   -45755   -45763 
  -45767   -45771   -45771   -45773   -45778   -45782   -45781   -45781 
  -45782   -45783   -45781   -45775   -45770   -45765   -45758   -45754 
  -45747   -45740   -45739   -45736   -45729   -45724   -45719   -45708 
  -45692   -45673   -45652   -45630   -45604   -45578   -45551   -45523 
  -45500   -45480   -45461   -45441   -45422   -45405   -45388   -45365 
  -45347   -45330   -45311   -45293   -45277   -45266   -45256   -45242 
  -45229   -45218   -45211   -45206   -45196   -45189   -45187   -45181 
  -45179   -45176   -45173   -45175   -45175   -45173   -45177   -45183 
  -45187   -45193   -45200   -45202   -45206   -45212   -45218   -45220 
  -45229   -45237   -45242   -45250   -45261   -45270   -45281   -45293 
  -45306   -45315   -45324   -45338   -45351   -45360   -45369   -45380 
  -45389   -45397   -45411   -45426   -45443   -45465   -45488   -45513 
  -45540   -45563   -45584   -45601   -45616   -45632   -45643   -45657 
  -45667   -45673   -45682   -45693   -45702   -45713   -45723   -45731 
  -45740   -45746   -45747   -45748   -45750   -45751   -45748   -45746 
  -45746   -45750   -45751   -45747   -45744   -45746   -45748   -45746 
  -45746   -45744   -45740   -45738   -45735   -45732   -45733   -45733 
  -45733   -45733   -45735   -45740   -45748   -45756   -45763   -45773 
  -45786   -45798   -45808   -45817   -45829   -45840   -45848   -45856 
  -45862   -45864   -45868   -45874   -45871   -45867   -45866   -45864 
  -45862   -45859   -45856   -45854   -45850   -45848   -45848   -45846 
  -45841   -45841   -45840   -45837   -45835   -45829   -45825   -45821 
  -45816   -45812   -45810   -45808   -45806   -45812   -45816   -45817 
  -45819   -45821   -45824   -45821   -45819   -45817   -45809   -45797 
  -45790   -45783   -45773   -45762   -45752   -45742   -45727   -45709 
  -45692   -45677   -45661   -45642   -45627   -45613   -45603   -45589 
  -45580   -45576   -45570   -45563   -45563   -45563   -45566   -45573 
  -45585   -45598   -45611   -45624   -45639   -45655   -45671   -45689 
  -45706   -45723   -45736   -45750   -45762   -45773   -45782   -45790 
  -45796   -45801   -45801   -45796   -45790   -45782   -45774   -45763 
  -45747   -45732   -45717   -45700   -45682   -45661   -45638   -45617 
  -45597   -45578   -45561   -45543   -45526   -45508   -45493   -45480 
  -45469   -45461   -45453   -45446   -45441   -45438   -45434   -45431 
  -45428   -45431   -45432   -45432   -45436   -45441   -45445   -45451 
  -45458   -45459   -45461   -45466   -45470   -45469   -45470   -45476 
  -45482   -45486   -45495   -45507   -45515   -45520   -45527   -45531 
  -45532   -45538   -45542   -45544   -45546   -45546   -45550   -45555 
  -45557   -45559   -45562   -45567   -45574   -45573   -45567   -45563 
  -45558   -45553   -45547   -45542   -45535   -45527   -45513   -45497 
  -45485   -45465   -45445   -45431   -45415   -45393   -45376   -45358 
  -45338   -45322   -45306   -45289   -45273   -45260   -45247   -45238 
  -45231   -45227   -45222   -45218   -45214   -45207   -45200   -45193 
  -45189   -45187   -45181   -45176   -45176   -45177   -45175   -45173 
  -45171   -45166   -45164   -45162   -45161   -45160   -45158   -45157 
  -45161   -45165   -45165   -45169   -45176   -45180   -45183   -45189 
  -45192   -45193   -45195   -45198   -45198   -45196   -45200   -45203 
  -45206   -45208   -45212   -45219   -45227   -45230   -45233   -45239 
  -45241   -45243   -45252   -45257   -45261   -45270   -45280   -45288 
  -45301   -45316   -45330   -45343   -45355   -45373   -45393   -45416 
  -45442   -45470   -45499   -45528   -45565   -45603   -45638   -45675 
  -45713   -45752   -45792   -45825   -45859   -45894   -45925   -45954 
  -45983   -46016   -46044   -46072   -46101   -46124   -46148   -46174 
  -46192   -46209   -46229   -46246   -46263   -46279   -46294   -46307 
  -46319   -46332   -46346   -46359   -46368   -46380   -46394   -46402 
  -46404   -46411   -46418   -46418   -46421   -46422   -46422   -46423 
  -46425   -46426   -46429   -46430   -46429   -46426   -46426   -46426 
  -46422   -46418   -46415   -46408   -46400   -46396   -46392   -46387 
  -46380   -46375   -46372   -46364   -46350   -46341   -46330   -46317 
  -46306   -46294   -46280   -46267   -46251   -46233   -46215   -46197 
  -46179   -46157   -46132   -46105   -46076   -46051   -46026   -46001 
  -45970   -45940   -45910   -45878   -45844   -45809   -45771   -45735 
  -45700   -45666   -45635   -45604   -45577   -45550   -45523   -45499 
  -45477   -45455   -45430   -45407   -45391   -45373   -45355   -45341 
  -45326   -45311   -45297   -45281   -45265   -45250   -45237   -45222 
  -45210   -45195   -45180   -45169   -45160   -45146   -45133   -45119 
  -45106   -45090   -45073   -45058   -45045   -45029   -45017   -45003 
  -44986   -44971   -44956   -44937   -44921   -44905   -44888   -44876 
  -44864   -44852   -44840   -44830   -44824   -44811   -44797   -44787 
  -44772   -44756   -44743   -44729   -44714   -44701   -44690   -44682 
  -44670   -44659   -44653   -44647   -44635   -44625   -44617   -44606 
  -44593   -44585   -44582   -44577   -44574   -44574   -44575   -44579 
  -44583   -44587   -44595   -44605   -44612   -44620   -44629   -44639 
  -44651   -44664   -44679   -44698   -44718   -44741   -44764   -44786 
  -44809   -44833   -44857   -44883   -44911   -44936   -44956   -44980 
  -45006   -45027   -45049   -45073   -45098   -45125   -45152   -45176 
  -45202   -45230   -45258   -45287   -45316   -45343   -45369   -45399 
  -45430   -45459   -45488   -45512   -45538   -45565   -45586   -45605 
  -45625   -45648   -45666   -45678   -45693   -45708   -45725   -45740 
  -45754   -45769   -45786   -45809   -45831   -45851   -45875   -45898 
  -45918   -45943   -45964   -45986   -46010   -46032   -46053   -46078 
  -46101   -46124   -46152   -46179   -46202   -46224   -46244   -46263 
  -46280   -46291   -46302   -46318   -46332   -46342   -46353   -46364 
  -46373   -46386   -46399   -46414   -46422   -46430   -46444   -46456 
  -46467   -46479   -46491   -46503   -46518   -46527   -46535   -46543 
  -46548   -46550   -46553   -46553   -46549   -46542   -46533   -46525 
  -46512   -46495   -46476   -46460   -46440   -46415   -46392   -46368 
  -46341   -46315   -46288   -46259   -46230   -46199   -46171   -46147 
  -46117   -46089   -46066   -46039   -46009   -45989   -45963   -45935 
  -45916   -45894   -45874   -45859   -45844   -45828   -45817   -45805 
  -45792   -45778   -45767   -45758   -45744   -45729   -45720   -45708 
  -45697   -45688   -45677   -45666   -45654   -45638   -45625   -45619 
  -45613   -45609   -45609   -45611   -45613   -45619   -45624   -45627 
  -45630   -45632   -45636   -45640   -45643   -45644   -45646   -45644 
  -45646   -45650   -45651   -45652   -45657   -45659   -45662   -45666 
  -45670   -45671   -45674   -45677   -45678   -45682   -45688   -45692 
  -45697   -45701   -45705   -45704   -45700   -45696   -45690   -45684 
  -45675   -45667   -45658   -45647   -45635   -45620   -45608   -45596 
  -45580   -45559   -45540   -45517   -45492   -45466   -45438   -45411 
  -45385   -45360   -45331   -45301   -45272   -45239   -45208   -45177 
  -45145   -45118   -45091   -45063   -45034   -45013   -44999   -44982 
  -44961   -44945   -44933   -44919   -44903   -44890   -44875   -44860 
  -44847   -44834   -44818   -44802   -44788   -44778   -44764   -44751 
  -44741   -44732   -44720   -44712   -44707   -44703   -44703   -44707 
  -44714   -44722   -44732   -44744   -44760   -44776   -44794   -44815 
  -44838   -44865   -44896   -44928   -44961   -45000   -45038   -45079 
  -45123   -45169   -45216   -45262   -45310   -45360   -45407   -45451 
  -45497   -45540   -45580   -45623   -45665   -45700   -45736   -45773 
  -45802   -45833   -45860   -45885   -45912   -45936   -45955   -45970 
  -45986   -46002   -46017   -46029   -46039   -46048   -46056   -46064 
  -46072   -46078   -46083   -46087   -46091   -46094   -46097   -46101 
  -46109   -46114   -46117   -46122   -46125   -46128   -46130   -46132 
  -46136   -46143   -46144   -46147   -46151   -46149   -46144   -46140 
  -46136   -46129   -46120   -46110   -46099   -46090   -46079   -46068 
  -46059   -46048   -46033   -46020   -46009   -45998   -45983   -45968 
  -45949   -45932   -45918   -45900   -45877   -45855   -45831   -45804 
  -45781   -45758   -45733   -45711   -45689   -45670   -45651   -45635 
  -45624   -45612   -45597   -45586   -45578   -45570   -45559   -45557 
  -45554   -45546   -45539   -45540   -45539   -45535   -45534   -45535 
  -45534   -45534   -45542   -45551   -45557   -45562   -45571   -45577 
  -45577   -45577   -45574   -45570   -45562   -45551   -45542   -45527 
  -45508   -45490   -45473   -45451   -45424   -45397   -45369   -45338 
  -45307   -45273   -45239   -45204   -45168   -45137   -45107   -45075 
  -45044   -45017   -44990   -44960   -44928   -44899   -44874   -44844 
  -44814   -44783   -44749   -44717   -44685   -44652   -44621   -44590 
  -44558   -44529   -44502   -44475   -44448   -44423   -44397   -44374 
  -44352   -44327   -44304   -44284   -44263   -44244   -44230   -44217 
  -44208   -44204   -44208   -44212   -44219   -44234   -44248   -44266 
  -44289   -44316   -44343   -44375   -44408   -44440   -44478   -44514 
  -44548   -44586   -44626   -44663   -44702   -44744   -44790   -44837 
  -44886   -44933   -44984   -45037   -45090   -45142   -45198   -45254 
  -45311   -45374   -45439   -45500   -45566   -45632   -45696   -45760 
  -45828   -45894   -45960   -46024   -46084   -46145   -46207   -46268 
  -46323   -46380   -46437   -46492   -46545   -46597   -46646   -46695 
  -46741   -46778   -46812   -46845   -46874   -46903   -46923   -46943 
  -46963   -46980   -46989   -47000   -47009   -47013   -47015   -47016 
  -47012   -47005   -47000   -46990   -46978   -46969   -46954   -46936 
  -46919   -46900   -46877   -46849   -46816   -46786   -46755   -46718 
  -46678   -46642   -46603   -46562   -46523   -46483   -46441   -46402 
  -46367   -46329   -46291   -46260   -46230   -46197   -46165   -46138 
  -46116   -46095   -46076   -46060   -46047   -46036   -46024   -46010 
  -46001   -45990   -45978   -45964   -45954   -45945   -45935   -45918 
  -45905   -45890   -45870   -45848   -45828   -45804   -45777   -45755 
  -45733   -45709   -45686   -45667   -45650   -45632   -45615   -45598 
  -45584   -45569   -45554   -45543   -45532   -45519   -45504   -45492 
  -45480   -45469   -45462   -45455   -45446   -45434   -45426   -45419 
  -45409   -45400   -45389   -45376   -45361   -45346   -45333   -45315 
  -45299   -45284   -45262   -45242   -45229   -45210   -45189   -45173 
  -45157   -45142   -45130   -45119   -45112   -45107   -45104   -45106 
  -45110   -45117   -45127   -45141   -45157   -45176   -45199   -45226 
  -45250   -45279   -45311   -45343   -45378   -45416   -45453   -45489 
  -45527   -45565   -45601   -45638   -45675   -45712   -45746   -45778 
  -45810   -45839   -45863   -45885   -45901   -45909   -45914   -45918 
  -45916   -45904   -45889   -45873   -45848   -45820   -45790   -45755 
  -45717   -45678   -45638   -45593   -45547   -45505   -45461   -45414 
  -45366   -45319   -45272   -45225   -45177   -45126   -45076   -45027 
  -44979   -44930   -44884   -44840   -44798   -44760   -44725   -44693 
  -44664   -44641   -44622   -44604   -44590   -44582   -44578   -44577 
  -44581   -44591   -44605   -44618   -44639   -44660   -44683   -44707 
  -44733   -44761   -44793   -44822   -44857   -44896   -44936   -44983 
  -45031   -45077   -45130   -45187   -45239   -45293   -45351   -45409 
  -45465   -45520   -45574   -45625   -45678   -45732   -45785   -45833 
  -45886   -45936   -45982   -46030   -46076   -46114   -46152   -46190 
  -46224   -46255   -46282   -46307   -46336   -46363   -46387   -46411 
  -46437   -46460   -46481   -46504   -46523   -46542   -46561   -46577 
  -46592   -46608   -46623   -46634   -46645   -46651   -46651   -46650 
  -46650   -46643   -46633   -46623   -46611   -46595   -46580   -46561 
  -46538   -46512   -46488   -46458   -46423   -46388   -46350   -46310 
  -46273   -46236   -46192   -46149   -46105   -46059   -46016   -45970 
  -45921   -45875   -45831   -45786   -45747   -45709   -45670   -45636 
  -45608   -45584   -45562   -45543   -45530   -45520   -45515   -45512 
  -45512   -45515   -45522   -45531   -45540   -45558   -45574   -45588 
  -45604   -45624   -45642   -45659   -45681   -45702   -45723   -45740 
  -45758   -45777   -45793   -45810   -45827   -45837   -45848   -45862 
  -45870   -45879   -45890   -45897   -45898   -45901   -45901   -45897 
  -45890   -45883   -45873   -45862   -45851   -45836   -45817   -45797 
  -45773   -45744   -45716   -45686   -45652   -45620   -45586   -45551 
  -45517   -45481   -45446   -45418   -45387   -45353   -45322   -45296 
  -45272   -45247   -45226   -45207   -45193   -45180   -45169   -45165 
  -45162   -45160   -45161   -45168   -45176   -45185   -45202   -45218 
  -45233   -45247   -45264   -45280   -45295   -45308   -45322   -45333 
  -45343   -45350   -45357   -45364   -45368   -45369   -45372   -45370 
  -45366   -45365   -45362   -45362   -45358   -45350   -45343   -45337 
  -45330   -45324   -45315   -45300   -45288   -45276   -45258   -45242 
  -45229   -45210   -45191   -45173   -45149   -45125   -45100   -45072 
  -45042   -45017   -44990   -44961   -44934   -44906   -44876   -44849 
  -44818   -44787   -44760   -44736   -44712   -44690   -44671   -44659 
  -44651   -44644   -44640   -44645   -44653   -44660   -44671   -44687 
  -44705   -44725   -44743   -44766   -44790   -44813   -44838   -44868 
  -44895   -44923   -44955   -44987   -45015   -45046   -45080   -45114 
  -45144   -45176   -45214   -45250   -45280   -45312   -45350   -45384 
  -45418   -45453   -45488   -45519   -45549   -45581   -45611   -45639 
  -45669   -45698   -45725   -45752   -45781   -45804   -45827   -45855 
  -45879   -45900   -45925   -45954   -45979   -46005   -46032   -46057 
  -46084   -46113   -46140   -46165   -46191   -46217   -46242   -46263 
  -46287   -46311   -46333   -46357   -46386   -46410   -46431   -46453 
  -46469   -46484   -46503   -46519   -46534   -46546   -46556   -46561 
  -46565   -46569   -46570   -46572   -46570   -46566   -46558   -46552 
  -46543   -46533   -46523   -46510   -46494   -46484   -46471   -46449 
  -46427   -46411   -46391   -46365   -46340   -46314   -46286   -46256 
  -46228   -46195   -46159   -46124   -46087   -46049   -46012   -45971 
  -45931   -45891   -45856   -45819   -45781   -45746   -45712   -45679 
  -45647   -45616   -45588   -45557   -45526   -45500   -45469   -45441 
  -45414   -45384   -45354   -45326   -45296   -45266   -45237   -45203 
  -45164   -45127   -45092   -45054   -45015   -44975   -44937   -44901 
  -44861   -44824   -44788   -44751   -44713   -44675   -44637   -44598 
  -44562   -44524   -44487   -44454   -44425   -44402   -44382   -44367 
  -44356   -44348   -44346   -44346   -44350   -44356   -44369   -44386 
  -44405   -44425   -44452   -44483   -44510   -44543   -44581   -44617 
  -44652   -44691   -44733   -44775   -44815   -44860   -44907   -44952 
  -45000   -45050   -45099   -45152   -45208   -45264   -45320   -45377 
  -45432   -45485   -45536   -45585   -45636   -45684   -45725   -45770 
  -45810   -45844   -45879   -45913   -45944   -45972   -45998   -46022 
  -46045   -46068   -46089   -46106   -46121   -46141   -46157   -46170 
  -46184   -46199   -46213   -46225   -46234   -46244   -46249   -46252 
  -46255   -46257   -46263   -46264   -46261   -46259   -46257   -46255 
