Origin Time       2025/01/13 21:19:00
Lat.              31.8
Long.             131.6
Depth. (km)       30
Mag.              6.9
Station Code      TKSH06
Station Lat.      33.9997
Station Long.     133.8933
Station Height(m) 448
Record Time       2025/01/13 21:20:39
Sampling Freq(Hz) 100Hz
Duration Time(s)  123
Dir.              2
Scale Factor      2942(gal)/8224139
Max. Acc. (gal)   0.426
Last Correction   2025/01/13 21:20:39
Memo.             
[...]
   20259    20266    20259    20233    20200    20171    20142    20102 
   20062    20034    20028    20044    20075    20131    20198    20258 
   20297    20325    20359    20401    20441    20478    20515    20556 
   20594    20621    20636    20641    20637    20625    20621    20634 
   20659    20690    20723    20752    20763    20746    20721    20703 
   20679    20625    20542    20456    20390    20339    20305    20279 
   20247    20213    20181    20136    20094    20063    20035    20008 
   19985    19973    19990    20020    20048    20073    20078    20063 
   20046    20029    20023    20044    20089    20129    20155    20174 
   20205    20266    20329    20358    20366    20374    20374    20378 
   20402    20437    20475    20506    20525    20528    20510    20468 
   20428    20416    20422    20433    20453    20467    20464    20455 
   20445    20445    20459    20463    20440    20395    20337    20279 
   20239    20228    20247    20289    20340    20383    20403    20401 
   20395    20395    20375    20328    20279    20245    20218    20204 
   20214    20247    20272    20267    20239    20218    20210    20196 
   20177    20164    20158    20159    20177    20196    20200    20191 
   20185    20185    20187    20185    20181    20189    20209    20252 
   20306    20345    20367    20382    20395    20417    20437    20436 
   20424    20416    20405    20397    20401    20425    20467    20499 
   20509    20505    20490    20471    20455    20437    20416    20405 
   20401    20403    20412    20413    20391    20356    20332    20309 
   20279    20240    20185    20110    20032    19966    19919    19896 
   19889    19894    19915    19936    19939    19923    19899    19881 
   19877    19881    19893    19915    19934    19950    19967    19986 
   20008    20031    20043    20028    20005    20012    20043    20079 
   20121    20163    20194    20216    20231    20251    20275    20283 
   20267    20251    20241    20250    20286    20328    20371    20422 
   20467    20497    20522    20540    20534    20513    20493    20488 
   20513    20544    20556    20555    20536    20503    20483    20486 
   20497    20493    20472    20451    20429    20401    20376    20367 
   20380    20412    20443    20464    20482    20493    20487    20475 
   20468    20457    20437    20412    20379    20345    20328    20326 
   20326    20321    20304    20263    20213    20175    20148    20117 
   20083    20059    20047    20032    20004    19965    19923    19894 
   19877    19857    19828    19797    19776    19782    19813    19849 
   19876    19885    19885    19896    19907    19905    19909    19936 
   19973    20005    20024    20012    19988    19986    20002    20017 
   20025    20024    20017    20011    20008    20009    20011    20015 
   20025    20046    20083    20124    20144    20142    20129    20123 
   20133    20151    20158    20151    20140    20123    20102    20085 
   20067    20052    20052    20062    20074    20092    20106    20108 
   20108    20117    20132    20154    20185    20214    20245    20289 
   20337    20386    20434    20484    20533    20574    20606    20632 
   20650    20665    20683    20703    20725    20750    20769    20773 
   20769    20757    20721    20669    20626    20611    20626    20650 
   20653    20628    20588    20541    20488    20429    20367    20314 
   20274    20251    20237    20218    20198    20186    20169    20142 
   20121    20112    20109    20092    20061    20039    20042    20050 
   20050    20048    20047    20038    20016    19986    19954    19921 
   19894    19873    19849    19824    19805    19801    19805    19803 
   19797    19807    19826    19838    19842    19830    19807    19785 
   19772    19757    19730    19700    19680    19664    19653    19664 
   19687    19714    19762    19823    19874    19920    19965    20005 
   20048    20096    20140    20183    20227    20258    20274    20287 
   20299    20305    20313    20324    20331    20345    20372    20390 
   20394    20390    20371    20349    20344    20351    20355    20345 
   20332    20314    20285    20254    20232    20217    20204    20201 
   20200    20190    20179    20167    20154    20143    20144    20159 
   20177    20181    20187    20210    20243    20277    20308    20329 
   20348    20371    20405    20444    20478    20498    20522    20560 
   20594    20609    20606    20594    20582    20578    20584    20603 
   20622    20637    20657    20672    20680    20692    20700    20703 
   20696    20668    20623    20590    20571    20551    20530    20510 
   20487    20470    20461    20448    20425    20403    20397    20397 
   20389    20387    20397    20405    20417    20433    20434    20425 
   20407    20372    20328    20286    20256    20247    20254    20270 
   20286    20302    20313    20322    20341    20364    20376    20389 
   20413    20440    20457    20472    20487    20501    20507    20498 
   20468    20434    20407    20379    20344    20310    20279    20244 
   20206    20174    20152    20144    20146    20150    20150    20142 
   20128    20113    20088    20070    20081    20100    20113    20131 
   20152    20170    20190    20214    20232    20243    20255    20270 
   20283    20309    20344    20374    20402    20434    20460    20463 
   20447    20429    20413    20394    20378    20359    20324    20277 
   20228    20187    20166    20148    20128    20113    20101    20083 
   20069    20065    20062    20051    20031    20020    20020    20017 
   20013    20020    20028    20021    20008    19988    19961    19954 
   19975    20016    20065    20108    20136    20169    20223    20290 
   20352    20395    20417    20430    20448    20471    20494    20513 
   20522    20530    20547    20574    20598    20613    20618    20622 
   20633    20649    20660    20664    20677    20700    20725    20746 
   20760    20765    20763    20750    20730    20703    20673    20646 
   20626    20615    20614    20611    20596    20563    20521    20486 
   20464    20457    20466    20488    20507    20505    20491    20475 
   20455    20424    20387    20355    20325    20272    20201    20136 
   20078    20009    19942    19889    19845    19801    19757    19707 
   19665    19638    19620    19612    19607    19602    19604    19603 
   19587    19570    19566    19569    19576    19591    19607    19623 
   19642    19666    19700    19750    19812    19865    19897    19934 
   19985    20043    20112    20186    20254    20314    20372    20428 
   20482    20524    20553    20578    20602    20629    20661    20695 
   20723    20737    20737    20730    20710    20682    20646    20603 
   20565    20538    20515    20493    20467    20441    20421    20405 
   20394    20378    20353    20333    20333    20344    20353    20367 
   20393    20428    20480    20551    20619    20665    20694    20711 
   20718    20726    20744    20767    20792    20806    20811    20822 
   20837    20842    20833    20817    20800    20769    20722    20675 
   20623    20563    20507    20448    20386    20336    20293    20245 
   20200    20154    20104    20051    19993    19935    19877    19826 
   19784    19738    19693    19658    19624    19592    19556    19508 
   19456    19413    19383    19365    19352    19340    19327    19325 
   19336    19356    19383    19419    19454    19489    19530    19568 
   19602    19639    19687    19737    19785    19832    19882    19934 
   19986    20040    20101    20167    20232    20294    20359    20422 
   20476    20518    20542    20552    20556    20555    20549    20549 
   20547    20540    20533    20533    20524    20497    20461    20425 
   20387    20349    20314    20286    20256    20221    20183    20146 
   20106    20078    20058    20028    19996    19966    19931    19894 
   19867    19849    19834    19823    19820    19828    19838    19847 
   19853    19846    19839    19849    19870    19901    19928    19940 
   19943    19951    19974    20013    20054    20082    20096    20102 
   20109    20131    20162    20189    20206    20220    20231    20229 
   20228    20239    20251    20259    20278    20301    20314    20324 
   20325    20316    20306    20306    20318    20325    20324    20318 
   20304    20281    20262    20247    20224    20201    20178    20151 
   20121    20096    20075    20062    20046    20031    20024    20023 
   20021    20016    20009    20000    19986    19973    19962    19947 
   19932    19926    19923    19927    19938    19950    19963    19980 
   20005    20034    20056    20081    20115    20150    20179    20202 
   20216    20220    20218    20218    20223    20225    20235    20244 
   20241    20245    20271    20302    20328    20353    20379    20407 
   20448    20493    20529    20547    20541    20518    20501    20488 
   20478    20472    20467    20457    20443    20425    20417    20416 
   20413    20410    20403    20401    20412    20434    20466    20491 
   20510    20529    20553    20567    20561    20542    20528    20517 
   20509    20513    20526    20538    20545    20548    20541    20517 
   20484    20453    20429    20407    20385    20355    20318    20287 
   20279    20289    20299    20298    20287    20267    20240    20212 
   20193    20190    20186    20181    20179    20181    20179    20173 
   20154    20127    20094    20056    20028    20005    19980    19959 
   19946    19938    19931    19924    19915    19907    19894    19888 
   19893    19908    19930    19963    20005    20054    20096    20128 
   20156    20182    20208    20243    20277    20299    20320    20337 
   20353    20376    20401    20414    20420    20421    20421    20428 
   20440    20449    20448    20445    20444    20439    20436    20425 
   20395    20356    20324    20297    20268    20235    20206    20190 
   20175    20156    20146    20143    20154    20171    20182    20189 
   20205    20236    20272    20309    20341    20375    20417    20463 
   20506    20549    20595    20644    20686    20713    20729    20749 
   20776    20798    20804    20803    20803    20808    20817    20829 
   20838    20839    20838    20834    20830    20825    20811    20791 
   20769    20749    20727    20695    20644    20579    20503    20418 
   20326    20231    20142    20073    20012    19948    19899    19865 
   19836    19816    19803    19799    19803    19816    19830    19835 
   19845    19865    19888    19903    19912    19920    19924    19921 
   19913    19896    19873    19855    19842    19839    19845    19843 
   19839    19843    19850    19857    19865    19874    19888    19897 
   19894    19885    19866    19847    19832    19811    19788    19773 
   19757    19724    19685    19650    19616    19585    19556    19525 
   19496    19476    19471    19475    19471    19461    19460    19468 
   19479    19487    19496    19511    19533    19564    19596    19624 
   19660    19714    19776    19834    19894    19967    20050    20135 
   20231    20333    20425    20509    20596    20683    20768    20848 
   20926    21004    21080    21147    21209    21262    21296    21320 
   21343    21359    21367    21379    21400    21425    21443    21446 
   21440    21433    21425    21419    21413    21416    21427    21428 
   21416    21401    21379    21343    21296    21235    21169    21108 
   21060    21014    20964    20910    20857    20818    20788    20769 
   20763    20758    20752    20742    20736    20726    20710    20695 
   20683    20669    20650    20623    20591    20552    20507    20464 
   20424    20382    20339    20291    20247    20212    20187    20173 
   20164    20159    20156    20163    20181    20196    20205    20205 
   20196    20187    20183    20181    20181    20185    20182    20169 
   20152    20132    20112    20093    20079    20074    20066    20051 
   20029    20009    20001    20004    20007    20012    20017    20017 
   20017    20017    20015    20017    20024    20028    20024    20012 
   19997    19980    19962    19948    19942    19944    19953    19961 
   19963    19965    19969    19974    19981    20001    20034    20074 
   20117    20159    20202    20241    20271    20299    20331    20364 
   20399    20418    20417    20412    20410    20410    20413    20417 
   20420    20422    20430    20444    20457    20467    20464    20451 
   20429    20402    20380    20367    20360    20356    20347    20331 
   20310    20290    20260    20214    20162    20105    20047    19990 
   19936    19886    19847    19807    19768    19728    19692    19661 
   19630    19597    19570    19556    19552    19556    19564    19579 
   19596    19619    19656    19697    19741    19788    19831    19866 
   19904    19944    19975    19993    20001    19997    19984    19967 
   19955    19948    19946    19944    19942    19939    19936    19938 
   19943    19954    19965    19973    19977    19978    19982    19982 
   19984    19985    19978    19970    19957    19932    19903    19867 
   19830    19799    19780    19770    19758    19745    19727    19711 
   19700    19693    19680    19661    19646    19634    19634    19649 
   19674    19707    19743    19778    19816    19855    19890    19935 
   19994    20062    20136    20209    20274    20345    20426    20514 
   20613    20719    20819    20912    20999    21080    21155    21220 
   21271    21320    21363    21397    21429    21455    21466    21470 
   21462    21436    21411    21394    21382    21373    21355    21325 
   21289    21250    21209    21166    21119    21070    21030    20995 
   20958    20927    20904    20889    20875    20853    20829    20806 
   20788    20773    20763    20754    20748    20733    20713    20691 
   20671    20649    20621    20584    20536    20476    20406    20331 
   20256    20182    20106    20034    19959    19881    19804    19732 
   19668    19618    19573    19531    19499    19475    19456    19448 
   19446    19440    19430    19421    19414    19421    19442    19473 
   19510    19550    19596    19658    19732    19805    19877    19946 
   20004    20061    20121    20182    20244    20304    20360    20418 
   20476    20529    20569    20599    20617    20625    20633    20645 
   20660    20680    20704    20723    20736    20740    20742    20741 
   20733    20718    20691    20656    20619    20580    20537    20499 
   20463    20425    20391    20366    20337    20312    20287    20252 
   20218    20190    20158    20123    20086    20048    20013    19978 
   19934    19882    19830    19784    19743    19705    19678    19660 
   19642    19631    19620    19610    19610    19622    19642    19677 
   19723    19764    19809    19865    19915    19963    20017    20063 
   20105    20147    20190    20235    20283    20332    20376    20414 
   20443    20460    20474    20482    20486    20488    20494    20499 
   20509    20520    20529    20544    20560    20572    20580    20591 
   20601    20606    20614    20625    20637    20656    20673    20680 
   20679    20676    20676    20679    20679    20673    20665    20653 
   20636    20619    20607    20595    20578    20560    20541    20510 
   20479    20459    20443    20424    20403    20390    20387    20390 
   20398    20403    20401    20391    20382    20376    20380    20390 
   20401    20410    20416    20426    20453    20476    20487    20491 
   20493    20487    20468    20445    20428    20416    20403    20391 
   20383    20366    20333    20290    20244    20210    20182    20144 
   20098    20051    20009    19973    19936    19907    19885    19869 
   19853    19838    19831    19834    19840    19849    19859    19874 
   19889    19916    19951    19988    20040    20105    20163    20225 
   20294    20356    20412    20461    20510    20560    20613    20664 
   20715    20763    20804    20842    20869    20887    20911    20937 
   20950    20962    20974    20977    20968    20956    20945    20937 
   20925    20899    20864    20823    20773    20718    20668    20618 
   20557    20490    20420    20351    20286    20218    20147    20078 
   20016    19954    19894    19838    19780    19722    19673    19627 
   19587    19557    19538    19526    19521    19525    19543    19573 
   19615    19661    19705    19753    19805    19862    19924    19990 
   20065    20137    20205    20263    20313    20358    20412    20475 
   20547    20621    20688    20753    20823    20896    20965    21028 
   21080    21122    21153    21170    21177    21180    21173    21155 
   21130    21095    21053    21014    20970    20916    20853    20788 
   20725    20655    20580    20513    20449    20375    20298    20229 
   20164    20100    20034    19966    19900    19842    19786    19738 
   19693    19649    19614    19592    19580    19570    19570    19577 
   19595    19623    19651    19673    19696    19718    19738    19758 
   19772    19778    19782    19791    19800    19812    19832    19849 
   19862    19878    19890    19892    19886    19876    19859    19842 
   19831    19830    19836    19849    19853    19853    19853    19846 
   19836    19832    19838    19840    19846    19857    19880    19911 
   19939    19969    20000    20025    20050    20079    20116    20158 
   20200    20243    20283    20324    20370    20424    20479    20533 
   20583    20623    20656    20692    20729    20758    20784    20810 
   20831    20842    20844    20844    20839    20829    20811    20790 
   20764    20737    20706    20668    20628    20594    20560    20525 
   20490    20453    20406    20359    20321    20289    20260    20237 
   20217    20193    20163    20137    20113    20088    20066    20054 
   20039    20025    20016    20009    20008    20012    20019    20023 
   20023    20025    20028    20025    20019    20013    20015    20023 
   20029    20038    20054    20069    20073    20070    20071    20082 
   20102    20124    20151    20182    20213    20241    20268    20293 
   20316    20333    20343    20349    20356    20366    20379    20399 
   20424    20444    20464    20493    20521    20545    20576    20610 
   20648    20694    20740    20781    20827    20873    20915    20958 
   21001    21043    21091    21141    21190    21235    21274    21307 
   21338    21361    21373    21381    21386    21388    21382    21374 
   21362    21344    21319    21282    21238    21192    21150    21111 
   21072    21033    20991    20945    20898    20849    20800    20754 
   20713    20677    20650    20630    20614    20601    20591    20583 
   20567    20551    20548    20551    20556    20572    20590    20607 
   20625    20641    20649    20648    20640    20634    20633    20636 
   20640    20645    20648    20645    20644    20646    20648    20642 
   20637    20626    20605    20580    20551    20515    20478    20437 
   20393    20347    20304    20260    20223    20197    20177    20160 
   20151    20137    20123    20123    20135    20148    20167    20201 
   20244    20283    20316    20349    20378    20398    20413    20433 
   20456    20479    20498    20510    20521    20536    20551    20564 
   20571    20574    20575    20569    20557    20547    20541    20533 
