Origin Time       2025/01/13 21:19:00
Lat.              31.8
Long.             131.6
Depth. (km)       30
Mag.              6.9
Station Code      TKSH04
Station Lat.      33.9902
Station Long.     134.5337
Station Height(m) 10
Record Time       2025/01/13 21:21:06
Sampling Freq(Hz) 100Hz
Duration Time(s)  120
Dir.              5
Scale Factor      7845(gal)/8223790
Max. Acc. (gal)   0.784
Last Correction   2025/01/13 21:21:07
Memo.             
[...]
  -21921   -21910   -21906   -21918   -21937   -21956   -21967   -21964 
  -21961   -21969   -21988   -22009   -22015   -22003   -21982   -21968 
  -21964   -21972   -21987   -21995   -21992   -21987   -21979   -21965 
  -21955   -21949   -21942   -21933   -21919   -21905   -21894   -21892 
  -21898   -21905   -21909   -21917   -21925   -21938   -21961   -21995 
  -22026   -22045   -22056   -22064   -22065   -22060   -22061   -22076 
  -22088   -22090   -22080   -22067   -22048   -22025   -22000   -21976 
  -21949   -21922   -21898   -21879   -21870   -21855   -21828   -21806 
  -21797   -21797   -21814   -21841   -21860   -21872   -21887   -21907 
  -21933   -21959   -21976   -21991   -22006   -22011   -22014   -22014 
  -22010   -22005   -21988   -21960   -21945   -21941   -21937   -21930 
  -21917   -21905   -21894   -21888   -21884   -21876   -21870   -21875 
  -21879   -21882   -21890   -21905   -21921   -21936   -21957   -21982 
  -22002   -22014   -22021   -22030   -22037   -22038   -22034   -22023 
  -22007   -21991   -21973   -21964   -21971   -21983   -21986   -21975 
  -21963   -21956   -21960   -21971   -21986   -21991   -21978   -21960 
  -21955   -21959   -21963   -21959   -21948   -21930   -21910   -21901 
  -21891   -21870   -21844   -21820   -21806   -21811   -21824   -21828 
  -21820   -21813   -21826   -21860   -21903   -21952   -22000   -22040 
  -22063   -22057   -22038   -22026   -22026   -22029   -22026   -22011 
  -21982   -21949   -21925   -21915   -21918   -21932   -21952   -21978 
  -22003   -22023   -22041   -22060   -22075   -22081   -22079   -22067 
  -22044   -22017   -21996   -21987   -21978   -21963   -21944   -21921 
  -21909   -21909   -21906   -21899   -21891   -21879   -21864   -21851 
  -21838   -21830   -21826   -21825   -21824   -21825   -21836   -21857 
  -21888   -21926   -21961   -21994   -22027   -22063   -22098   -22127 
  -22140   -22126   -22107   -22092   -22077   -22049   -21999   -21930 
  -21864   -21814   -21789   -21787   -21803   -21832   -21868   -21907 
  -21937   -21961   -21990   -22030   -22081   -22115   -22115   -22094 
  -22060   -22022   -21990   -21968   -21948   -21930   -21915   -21902 
  -21888   -21880   -21883   -21897   -21930   -21975   -22003   -22010 
  -22005   -22002   -22021   -22057   -22086   -22099   -22092   -22065 
  -22030   -21994   -21971   -21956   -21928   -21886   -21843   -21809 
  -21789   -21784   -21797   -21820   -21843   -21865   -21894   -21928 
  -21959   -21990   -22022   -22048   -22061   -22067   -22061   -22049 
  -22036   -22010   -21972   -21930   -21891   -21856   -21826   -21802 
  -21789   -21780   -21776   -21778   -21783   -21802   -21833   -21871 
  -21915   -21955   -21986   -22017   -22042   -22054   -22061   -22067 
  -22076   -22088   -22096   -22095   -22084   -22060   -22027   -21996 
  -21967   -21933   -21894   -21863   -21847   -21840   -21848   -21867 
  -21895   -21933   -21973   -22015   -22060   -22102   -22133   -22150 
  -22161   -22167   -22168   -22168   -22165   -22148   -22119   -22088 
  -22057   -22022   -21976   -21917   -21849   -21787   -21743   -21720 
  -21713   -21708   -21693   -21687   -21706   -21747   -21797   -21843 
  -21883   -21914   -21941   -21969   -21991   -21998   -21994   -21988 
  -21972   -21946   -21921   -21907   -21906   -21899   -21875   -21844 
  -21820   -21805   -21810   -21828   -21843   -21849   -21849   -21844 
  -21838   -21843   -21860   -21888   -21922   -21955   -21980   -22009 
  -22041   -22061   -22068   -22059   -22033   -22006   -21976   -21940 
  -21891   -21841   -21802   -21767   -21737   -21722   -21718   -21716 
  -21714   -21726   -21753   -21782   -21805   -21826   -21848   -21878 
  -21914   -21949   -21979   -21998   -21998   -21984   -21969   -21960 
  -21963   -21983   -22010   -22029   -22018   -21983   -21936   -21886 
  -21841   -21799   -21764   -21751   -21743   -21724   -21705   -21699 
  -21717   -21760   -21818   -21867   -21895   -21906   -21926   -21967 
  -22017   -22059   -22072   -22059   -22044   -22033   -22034   -22052 
  -22056   -22044   -22029   -22006   -21979   -21957   -21944   -21938 
  -21932   -21914   -21891   -21860   -21829   -21806   -21799   -21806 
  -21821   -21828   -21824   -21832   -21861   -21911   -21960   -21987 
  -21986   -21965   -21948   -21952   -21971   -21994   -22019   -22041 
  -22042   -22029   -22014   -22003   -21996   -21984   -21955   -21906 
  -21848   -21799   -21787   -21803   -21822   -21833   -21840   -21856 
  -21888   -21921   -21945   -21969   -22003   -22049   -22091   -22100 
  -22072   -22027   -21987   -21961   -21953   -21953   -21944   -21936 
  -21929   -21921   -21919   -21926   -21915   -21888   -21876   -21880 
  -21884   -21884   -21882   -21886   -21905   -21945   -22005   -22067 
  -22110   -22122   -22113   -22099   -22090   -22088   -22087   -22077 
  -22049   -22000   -21957   -21937   -21928   -21918   -21915   -21911 
  -21891   -21878   -21901   -21963   -22038   -22096   -22121   -22108 
  -22072   -22033   -22006   -21999   -22009   -22021   -22032   -22056 
  -22087   -22106   -22123   -22149   -22171   -22167   -22123   -22042 
  -21941   -21852   -21807   -21805   -21818   -21828   -21830   -21843 
  -21876   -21925   -21969   -22015   -22069   -22133   -22183   -22189 
  -22140   -22042   -21925   -21825   -21755   -21706   -21691   -21717 
  -21756   -21787   -21816   -21863   -21934   -22022   -22095   -22113 
  -22068   -21988   -21913   -21880   -21897   -21941   -21980   -21994 
  -21984   -21961   -21936   -21917   -21913   -21921   -21930   -21940 
  -21949   -21946   -21937   -21941   -21965   -21996   -22023   -22034 
  -22033   -22033   -22046   -22075   -22106   -22117   -22107   -22084 
  -22050   -22007   -21951   -21856   -21721   -21563   -21420   -21339 
  -21350   -21438   -21575   -21729   -21864   -21971   -22050   -22106 
  -22142   -22161   -22149   -22110   -22068   -22048   -22053   -22067 
  -22073   -22057   -22000   -21917   -21844   -21806   -21807   -21817 
  -21791   -21724   -21636   -21556   -21500   -21475   -21489   -21537 
  -21612   -21714   -21847   -22003   -22171   -22323   -22442   -22520 
  -22555   -22528   -22415   -22235   -22045   -21886   -21771   -21687 
  -21614   -21552   -21510   -21490   -21486   -21504   -21558   -21636 
  -21718   -21805   -21897   -21996   -22092   -22171   -22219   -22221 
  -22162   -22064   -21969   -21926   -21948   -22007   -22053   -22061 
  -22049   -22029   -22007   -21983   -21957   -21928   -21886   -21826 
  -21760   -21695   -21622   -21559   -21541   -21587   -21690   -21830 
  -21976   -22080   -22131   -22149   -22153   -22172   -22214   -22252 
  -22275   -22283   -22260   -22187   -22069   -21907   -21706   -21508 
  -21373   -21348   -21448   -21637   -21824   -21933   -21952   -21929 
  -21926   -21972   -22077   -22223   -22331   -22339   -22258   -22129 
  -22011   -21961   -21987   -22052   -22108   -22110   -22048   -21959 
  -21891   -21856   -21841   -21825   -21780   -21690   -21581   -21497 
  -21478   -21551   -21710   -21913   -22107   -22276   -22426   -22563 
  -22675   -22716   -22644   -22450   -22172   -21888   -21690   -21618 
  -21644   -21702   -21735   -21720   -21674   -21631   -21628   -21682 
  -21793   -21928   -22059   -22169   -22225   -22192   -22092   -21983 
  -21937   -21988   -22072   -22090   -22009   -21887   -21825   -21865 
  -21968   -22067   -22119   -22135   -22154   -22161   -22119   -22027 
  -21921   -21836   -21803   -21829   -21880   -21934   -21988   -22040 
  -22079   -22092   -22080   -22075   -22087   -22095   -22084   -22049 
  -21999   -21963   -21952   -21938   -21887   -21782   -21655   -21582 
  -21613   -21709   -21795   -21822   -21790   -21747   -21740   -21784 
  -21874   -21986   -22098   -22198   -22241   -22192   -22080   -21969 
  -21907   -21895   -21901   -21887   -21848   -21791   -21737   -21705 
  -21695   -21693   -21708   -21756   -21822   -21870   -21884   -21876 
  -21848   -21810   -21779   -21779   -21834   -21937   -22057   -22164 
  -22230   -22248   -22227   -22179   -22108   -22040   -22011   -22037 
  -22083   -22099   -22033   -21878   -21706   -21617   -21658   -21810 
  -22003   -22121   -22091   -21928   -21712   -21544   -21493   -21581 
  -21780   -22000   -22141   -22187   -22167   -22115   -22063   -22023 
  -21986   -21941   -21897   -21857   -21832   -21822   -21826   -21834 
  -21847   -21861   -21876   -21899   -21938   -21998   -22067   -22107 
  -22086   -22022   -21965   -21933   -21921   -21918   -21883   -21779 
  -21616   -21448   -21367   -21439   -21641   -21887   -22083   -22187 
  -22211   -22198   -22181   -22171   -22144   -22079   -21969   -21825 
  -21683   -21613   -21656   -21782   -21902   -21946   -21926   -21901 
  -21918   -21980   -22049   -22090   -22098   -22087   -22076   -22065 
  -22033   -21969   -21899   -21856   -21834   -21817   -21830   -21905 
  -22033   -22194   -22361   -22496   -22558   -22522   -22395   -22208 
  -22019   -21849   -21693   -21566   -21514   -21532   -21560   -21559 
  -21529   -21490   -21477   -21523   -21632   -21774   -21919   -22061 
  -22189   -22300   -22397   -22461   -22455   -22377   -22243   -22092 
  -21978   -21949   -22003   -22092   -22149   -22137   -22064   -21961 
  -21853   -21741   -21612   -21475   -21373   -21332   -21346   -21396 
  -21466   -21575   -21755   -21990   -22203   -22324   -22349   -22334 
  -22334   -22347   -22333   -22256   -22108   -21930   -21776   -21668 
  -21597   -21552   -21544   -21583   -21671   -21803   -21955   -22069 
  -22091   -22010   -21872   -21748   -21689   -21714   -21789   -21836 
  -21805   -21699   -21577   -21517   -21581   -21766   -22011   -22242 
  -22411   -22503   -22509   -22450   -22345   -22218   -22121   -22102 
  -22140   -22160   -22134   -22098   -22094   -22125   -22145   -22104 
  -22002   -21880   -21776   -21709   -21663   -21606   -21548   -21528 
  -21563   -21636   -21716   -21786   -21851   -21926   -22027   -22127 
  -22184   -22194   -22192   -22210   -22225   -22171   -21998   -21733 
  -21465   -21288   -21255   -21365   -21568   -21811   -22026   -22148 
  -22177   -22187   -22202   -22233   -22303   -22374   -22396   -22368 
  -22266   -22094   -21911   -21767   -21664   -21598   -21560   -21554 
  -21587   -21681   -21826   -21976   -22083   -22127   -22118   -22083 
  -22042   -21998   -21972   -21980   -22007   -22034   -22048   -22027 
  -21965   -21882   -21801   -21730   -21672   -21632   -21616   -21641 
  -21724   -21836   -21949   -22064   -22171   -22258   -22338   -22416 
  -22476   -22503   -22511   -22516   -22493   -22395   -22204   -21953 
  -21691   -21474   -21330   -21280   -21334   -21462   -21602   -21694 
  -21705   -21652   -21593   -21598   -21705   -21892   -22103   -22276 
  -22362   -22345   -22246   -22140   -22106   -22149   -22195   -22188 
  -22122   -22026   -21959   -21965   -22036   -22130   -22206   -22234 
  -22208   -22137   -22021   -21888   -21772   -21690   -21655   -21670 
  -21716   -21774   -21856   -21959   -22072   -22191   -22296   -22372 
  -22441   -22527   -22626   -22689   -22648   -22465   -22162   -21837 
  -21613   -21528   -21523   -21512   -21451   -21348   -21258   -21232 
  -21297   -21444   -21641   -21847   -22015   -22111   -22127   -22075 
  -21988   -21914   -21879   -21886   -21930   -21976   -21979   -21949 
  -21936   -21964   -22021   -22077   -22088   -22042   -21976   -21928 
  -21907   -21905   -21894   -21855   -21786   -21716   -21679   -21689 
  -21740   -21805   -21837   -21809   -21735   -21667   -21674   -21775 
  -21919   -22032   -22071   -22081   -22141   -22283   -22469   -22616 
  -22644   -22553   -22396   -22229   -22069   -21921   -21776   -21637 
  -21512   -21417   -21385   -21443   -21581   -21744   -21875   -21944 
  -21960   -21968   -22025   -22144   -22293   -22416   -22474   -22461 
  -22374   -22234   -22094   -21998   -21956   -21945   -21932   -21902 
  -21861   -21806   -21744   -21695   -21651   -21594   -21537   -21521 
  -21582   -21717   -21883   -22025   -22125   -22192   -22238   -22256 
  -22242   -22208   -22196   -22238   -22316   -22362   -22326   -22219 
  -22092   -21982   -21886   -21776   -21647   -21523   -21450   -21462 
  -21536   -21628   -21695   -21721   -21728   -21744   -21771   -21797 
  -21826   -21884   -21978   -22090   -22189   -22246   -22250   -22211 
  -22140   -22048   -21953   -21876   -21824   -21801   -21814   -21844 
  -21859   -21829   -21756   -21679   -21618   -21568   -21533   -21529 
  -21567   -21641   -21736   -21844   -21960   -22061   -22121   -22119 
  -22065   -21984   -21928   -21952   -22057   -22189   -22288   -22311 
  -22265   -22196   -22137   -22104   -22107   -22123   -22123   -22102 
  -22057   -21996   -21946   -21925   -21922   -21913   -21871   -21803 
  -21748   -21757   -21855   -22000   -22127   -22187   -22167   -22094 
  -22030   -22010   -21996   -21948   -21852   -21729   -21621   -21568 
  -21568   -21600   -21635   -21658   -21663   -21647   -21620   -21621 
  -21683   -21814   -21984   -22117   -22148   -22099   -22038   -22021 
  -22046   -22067   -22034   -21961   -21888   -21857   -21886   -21963 
  -22041   -22073   -22034   -21945   -21837   -21718   -21590   -21487 
  -21436   -21442   -21487   -21544   -21582   -21617   -21699   -21847 
  -22032   -22212   -22342   -22395   -22399   -22411   -22451   -22509 
  -22545   -22520   -22441   -22330   -22194   -22029   -21845   -21671 
  -21543   -21466   -21393   -21293   -21185   -21118   -21149   -21307 
  -21532   -21726   -21844   -21909   -21982   -22111   -22295   -22481 
  -22609   -22661   -22640   -22555   -22414   -22246   -22081   -21949 
  -21861   -21797   -21720   -21632   -21567   -21544   -21564   -21628 
  -21705   -21770   -21818   -21856   -21882   -21882   -21855   -21821 
  -21806   -21826   -21888   -21984   -22083   -22150   -22187   -22215 
  -22250   -22289   -22315   -22300   -22237   -22140   -22042   -21965 
  -21886   -21771   -21627   -21487   -21411   -21424   -21506   -21614 
  -21712   -21787   -21852   -21919   -21996   -22083   -22168   -22254 
  -22342   -22407   -22430   -22407   -22350   -22287   -22241   -22206 
  -22149   -22050   -21913   -21778   -21699   -21687   -21699   -21699 
  -21674   -21639   -21633   -21671   -21712   -21710   -21662   -21613 
  -21625   -21713   -21856   -22006   -22100   -22114   -22069   -22007 
  -21960   -21944   -21952   -21968   -21986   -22007   -22027   -22038 
  -22022   -21971   -21902   -21841   -21797   -21767   -21743   -21726 
  -21729   -21771   -21853   -21953   -22032   -22061   -22040   -22003 
  -22015   -22080   -22149   -22172   -22133   -22037   -21932   -21868 
  -21841   -21822   -21790   -21741   -21691   -21662   -21652   -21662 
  -21708   -21813   -21945   -22038   -22067   -22052   -22044   -22079 
  -22145   -22183   -22140   -22021   -21878   -21762   -21687   -21644 
  -21621   -21624   -21670   -21760   -21872   -21976   -22056   -22122 
  -22195   -22258   -22283   -22258   -22206   -22141   -22076   -22010 
  -21938   -21880   -21847   -21834   -21844   -21856   -21855   -21857 
  -21880   -21913   -21944   -21956   -21940   -21902   -21859   -21833 
  -21836   -21859   -21892   -21937   -21987   -22022   -22029   -22014 
  -21999   -21992   -21999   -22017   -22037   -22045   -22030   -22006 
  -21987   -21968   -21963   -21965   -21949   -21919   -21894   -21872 
  -21853   -21847   -21857   -21880   -21907   -21932   -21938   -21921 
  -21888   -21856   -21836   -21845   -21888   -21957   -22032   -22081 
  -22094   -22076   -22054   -22042   -22041   -22033   -21994   -21937 
  -21892   -21874   -21882   -21903   -21911   -21902   -21886   -21875 
  -21886   -21911   -21924   -21903   -21861   -21821   -21811   -21832 
  -21849   -21841   -21813   -21794   -21805   -21836   -21864   -21886 
  -21911   -21955   -22010   -22050   -22050   -22007   -21944   -21892 
  -21856   -21825   -21801   -21795   -21811   -21841   -21859   -21855 
  -21841   -21834   -21851   -21905   -21972   -22017   -22027   -22032 
  -22048   -22069   -22091   -22098   -22073   -22030   -21990   -21955 
  -21922   -21890   -21856   -21840   -21856   -21888   -21913   -21922 
  -21932   -21944   -21951   -21951   -21940   -21913   -21879   -21838 
  -21787   -21730   -21691   -21703   -21776   -21875   -21953   -21994 
  -22005   -22009   -22026   -22057   -22084   -22095   -22088   -22086 
  -22096   -22107   -22096   -22049   -21964   -21861   -21770   -21717 
  -21718   -21757   -21801   -21837   -21865   -21892   -21936   -22007 
  -22100   -22192   -22262   -22302   -22307   -22295   -22275   -22254 
  -22230   -22184   -22113   -22026   -21941   -21874   -21821   -21763 
  -21699   -21648   -21622   -21635   -21685   -21753   -21814   -21852 
  -21876   -21906   -21957   -22021   -22073   -22104   -22115   -22106 
  -22086   -22068   -22065   -22071   -22060   -22014   -21930   -21824 
  -21729   -21686   -21702   -21764   -21834   -21872   -21879   -21878 
  -21897   -21957   -22056   -22149   -22200   -22203   -22177   -22149 
  -22131   -22103   -22044   -21978   -21929   -21892   -21863   -21841 
  -21834   -21848   -21894   -21971   -22057   -22117   -22133   -22127 
  -22115   -22102   -22090   -22072   -22038   -21988   -21932   -21879 
  -21837   -21817   -21824   -21855   -21895   -21938   -21976   -21998 
  -22006   -22019   -22046   -22073   -22081   -22060   -22011   -21955 
  -21906   -21872   -21851   -21829   -21799   -21776   -21778   -21799 
  -21832   -21860   -21876   -21870   -21856   -21851   -21853   -21860 
  -21875   -21901   -21932   -21959   -21976   -21972   -21941   -21902 
  -21863   -21820   -21775   -21729   -21678   -21628   -21583   -21555 
  -21546   -21563   -21612   -21687   -21779   -21875   -21969   -22054 
  -22127   -22185   -22221   -22230   -22223   -22219   -22222   -22214 
  -22175   -22111   -22044   -22000   -21992   -21995   -21980   -21933 
  -21865   -21805   -21774   -21778   -21805   -21833   -21843   -21837 
  -21833   -21838   -21848   -21853   -21861   -21883   -21905   -21926 
  -21951   -21978   -22018   -22065   -22102   -22110   -22081   -22026 
  -21960   -21915   -21907   -21914   -21902   -21864   -21806   -21753 
  -21722   -21708   -21699   -21699   -21718   -21755   -21787   -21814 
  -21838   -21864   -21906   -21973   -22046   -22091   -22104   -22100 
  -22091   -22079   -22067   -22034   -21982   -21930   -21888   -21852 
  -21826   -21814   -21820   -21841   -21867   -21883   -21882   -21863 
  -21845   -21838   -21848   -21870   -21898   -21932   -21965   -21996 
  -22021   -22038   -22060   -22100   -22154   -22208   -22234   -22221 
  -22192   -22173   -22172   -22171   -22157   -22121   -22071   -22026 
  -21998   -21983   -21975   -21969   -21967   -21963   -21960   -21967 
  -21988   -22018   -22040   -22044   -22029   -22006   -21994   -22000 
  -22027   -22056   -22061   -22053   -22056   -22076   -22107   -22130 
  -22122   -22081   -22036   -21998   -21965   -21944   -21929   -21918 
  -21914   -21906   -21888   -21872   -21879   -21906   -21932   -21945 
  -21952   -21968   -22002   -22052   -22100   -22125   -22115   -22076 
  -22025   -21964   -21910   -21871   -21841   -21816   -21784   -21741 
  -21706   -21698   -21718   -21767   -21836   -21901   -21949   -21999 
