Origin Time       2025/01/13 21:19:00
Lat.              31.8
Long.             131.6
Depth. (km)       30
Mag.              6.9
Station Code      TKSH03
Station Lat.      33.8778
Station Long.     134.1294
Station Height(m) 640
Record Time       2025/01/13 21:20:46
Sampling Freq(Hz) 100Hz
Duration Time(s)  120
Dir.              6
Scale Factor      7845(gal)/8223790
Max. Acc. (gal)   0.592
Last Correction   2025/01/13 21:20:47
Memo.             
[...]
  -17327   -17293   -17255   -17242   -17232   -17226   -17234   -17248 
  -17265   -17254   -17209   -17176   -17169   -17170   -17170   -17163 
  -17150   -17126   -17096   -17077   -17078   -17116   -17189   -17236 
  -17217   -17151   -17068   -17022   -17049   -17113   -17167   -17190 
  -17203   -17228   -17246   -17251   -17274   -17296   -17281   -17257 
  -17265   -17301   -17335   -17343   -17334   -17335   -17344   -17352 
  -17365   -17381   -17396   -17396   -17367   -17324   -17286   -17269 
  -17285   -17331   -17378   -17383   -17354   -17324   -17293   -17278 
  -17293   -17300   -17297   -17320   -17344   -17327   -17288   -17266 
  -17259   -17235   -17178   -17123   -17111   -17150   -17193   -17211 
  -17215   -17204   -17166   -17130   -17120   -17127   -17142   -17149 
  -17139   -17138   -17157   -17177   -17186   -17177   -17165   -17173 
  -17194   -17208   -17231   -17275   -17308   -17312   -17305   -17307 
  -17325   -17351   -17344   -17296   -17238   -17204   -17209   -17239 
  -17265   -17274   -17286   -17309   -17289   -17220   -17167   -17154 
  -17147   -17131   -17118   -17120   -17155   -17228   -17289   -17301 
  -17307   -17320   -17311   -17278   -17246   -17217   -17205   -17236 
  -17307   -17375   -17401   -17382   -17336   -17277   -17250   -17301 
  -17397   -17464   -17466   -17401   -17312   -17259   -17269   -17331 
  -17404   -17443   -17425   -17377   -17334   -17300   -17273   -17277 
  -17311   -17332   -17319   -17263   -17185   -17145   -17169   -17211 
  -17236   -17250   -17248   -17216   -17169   -17139   -17131   -17122 
  -17100   -17081   -17096   -17128   -17134   -17116   -17118   -17139 
  -17146   -17131   -17122   -17140   -17172   -17188   -17177   -17154 
  -17150   -17172   -17188   -17200   -17203   -17178   -17162   -17188 
  -17215   -17193   -17165   -17200   -17271   -17304   -17294   -17281 
  -17293   -17332   -17365   -17359   -17323   -17278   -17247   -17251 
  -17280   -17298   -17302   -17308   -17312   -17302   -17261   -17220 
  -17263   -17381   -17458   -17433   -17347   -17284   -17289   -17346 
  -17394   -17396   -17374   -17377   -17396   -17379   -17329   -17302 
  -17311   -17325   -17350   -17382   -17400   -17393   -17361   -17327 
  -17316   -17317   -17301   -17274   -17259   -17261   -17270   -17275 
  -17278   -17285   -17294   -17302   -17308   -17312   -17298   -17263 
  -17254   -17285   -17297   -17266   -17228   -17216   -17239   -17288 
  -17338   -17365   -17365   -17343   -17296   -17226   -17173   -17190 
  -17273   -17334   -17331   -17301   -17289   -17297   -17281   -17234 
  -17215   -17243   -17270   -17274   -17274   -17284   -17300   -17297 
  -17259   -17211   -17185   -17199   -17242   -17270   -17265   -17247 
  -17240   -17246   -17257   -17257   -17223   -17174   -17143   -17120 
  -17092   -17073   -17085   -17142   -17216   -17234   -17169   -17099 
  -17101   -17166   -17243   -17290   -17286   -17261   -17255   -17269 
  -17275   -17278   -17305   -17348   -17374   -17379   -17394   -17425 
  -17439   -17427   -17419   -17427   -17444   -17469   -17485   -17475 
  -17451   -17427   -17409   -17397   -17383   -17365   -17348   -17342 
  -17324   -17278   -17235   -17208   -17197   -17227   -17284   -17292 
  -17234   -17174   -17163   -17185   -17219   -17266   -17317   -17346 
  -17329   -17280   -17238   -17240   -17280   -17320   -17351   -17374 
  -17381   -17382   -17377   -17336   -17286   -17278   -17315   -17355 
  -17369   -17358   -17329   -17286   -17248   -17247   -17267   -17274 
  -17263   -17255   -17250   -17235   -17220   -17215   -17217   -17231 
  -17257   -17288   -17323   -17346   -17340   -17323   -17298   -17274 
  -17273   -17286   -17275   -17247   -17232   -17231   -17227   -17223 
  -17238   -17270   -17294   -17305   -17316   -17316   -17302   -17293 
  -17298   -17313   -17334   -17370   -17402   -17406   -17386   -17354 
  -17317   -17294   -17305   -17344   -17379   -17386   -17381   -17381 
  -17371   -17350   -17335   -17328   -17315   -17293   -17261   -17231 
  -17234   -17269   -17305   -17301   -17247   -17196   -17185   -17196 
  -17189   -17163   -17150   -17173   -17221   -17265   -17284   -17275 
  -17235   -17174   -17128   -17134   -17194   -17282   -17346   -17350 
  -17304   -17251   -17224   -17231   -17265   -17285   -17275   -17250 
  -17227   -17220   -17232   -17270   -17329   -17352   -17321   -17278 
  -17248   -17236   -17234   -17230   -17240   -17278   -17313   -17309 
  -17270   -17247   -17282   -17346   -17358   -17309   -17266   -17261 
  -17281   -17301   -17307   -17312   -17340   -17366   -17346   -17294 
  -17262   -17270   -17296   -17315   -17331   -17344   -17336   -17311 
  -17280   -17250   -17257   -17316   -17371   -17383   -17365   -17336 
  -17313   -17300   -17298   -17311   -17321   -17327   -17331   -17327 
  -17320   -17323   -17334   -17346   -17354   -17355   -17362   -17378 
  -17386   -17369   -17347   -17321   -17302   -17309   -17335   -17356 
  -17367   -17355   -17312   -17266   -17244   -17246   -17267   -17300 
  -17328   -17329   -17307   -17298   -17296   -17278   -17274   -17286 
  -17285   -17269   -17259   -17248   -17227   -17213   -17220   -17226 
  -17221   -17219   -17224   -17238   -17230   -17178   -17126   -17103 
  -17101   -17118   -17147   -17165   -17159   -17138   -17111   -17081 
  -17065   -17073   -17076   -17061   -17055   -17065   -17084   -17089 
  -17055   -17010   -17005   -17049   -17107   -17149   -17167   -17158 
  -17116   -17062   -17030   -17047   -17115   -17190   -17239   -17262 
  -17275   -17281   -17270   -17267   -17294   -17332   -17373   -17405 
  -17404   -17393   -17402   -17417   -17427   -17425   -17410   -17392 
  -17374   -17363   -17366   -17378   -17374   -17350   -17332   -17352 
  -17392   -17413   -17405   -17386   -17370   -17352   -17331   -17320 
  -17338   -17358   -17350   -17335   -17336   -17358   -17382   -17378 
  -17347   -17344   -17393   -17435   -17425   -17389   -17369   -17390 
  -17439   -17477   -17487   -17478   -17459   -17433   -17404   -17383 
  -17373   -17367   -17375   -17388   -17386   -17371   -17346   -17307 
  -17267   -17243   -17238   -17239   -17230   -17201   -17158   -17126 
  -17119   -17119   -17111   -17116   -17132   -17124   -17080   -17030 
  -16991   -16969   -16983   -17015   -17039   -17043   -17024   -16988 
  -16968   -16981   -17018   -17058   -17081   -17078   -17068   -17064 
  -17059   -17049   -17046   -17061   -17092   -17131   -17154   -17151 
  -17150   -17169   -17199   -17219   -17216   -17211   -17215   -17215 
  -17212   -17216   -17235   -17257   -17270   -17282   -17304   -17323 
  -17315   -17285   -17262   -17261   -17286   -17331   -17351   -17342 
  -17336   -17347   -17373   -17408   -17450   -17483   -17473   -17436 
  -17412   -17402   -17408   -17440   -17478   -17497   -17489   -17459 
  -17419   -17388   -17389   -17405   -17401   -17378   -17355   -17339 
  -17324   -17307   -17290   -17281   -17273   -17254   -17223   -17213 
  -17227   -17230   -17209   -17190   -17182   -17185   -17181   -17167 
  -17159   -17172   -17192   -17189   -17162   -17157   -17186   -17223 
  -17250   -17261   -17253   -17244   -17254   -17269   -17282   -17301 
  -17327   -17362   -17398   -17410   -17400   -17398   -17428   -17463 
  -17467   -17440   -17415   -17413   -17435   -17452   -17451   -17437 
  -17420   -17409   -17401   -17379   -17351   -17339   -17355   -17388 
  -17392   -17355   -17315   -17289   -17263   -17236   -17216   -17205 
  -17205   -17212   -17201   -17159   -17119   -17116   -17136   -17147 
  -17147   -17145   -17143   -17142   -17145   -17139   -17127   -17130 
  -17147   -17153   -17143   -17140   -17163   -17185   -17176   -17155 
  -17146   -17146   -17155   -17170   -17173   -17173   -17186   -17199 
  -17197   -17193   -17190   -17185   -17196   -17228   -17254   -17263 
  -17265   -17258   -17253   -17262   -17286   -17308   -17315   -17313 
  -17313   -17301   -17285   -17284   -17298   -17312   -17312   -17309 
  -17325   -17352   -17383   -17408   -17419   -17428   -17446   -17458 
  -17456   -17452   -17466   -17496   -17521   -17528   -17517   -17506 
  -17506   -17508   -17502   -17487   -17467   -17443   -17423   -17413 
  -17404   -17377   -17332   -17293   -17270   -17254   -17239   -17224 
  -17216   -17230   -17230   -17196   -17174   -17186   -17192   -17173 
  -17150   -17131   -17122   -17132   -17158   -17188   -17207   -17208 
  -17207   -17215   -17232   -17254   -17289   -17335   -17377   -17392 
  -17382   -17375   -17377   -17373   -17366   -17366   -17367   -17377 
  -17394   -17388   -17350   -17321   -17327   -17332   -17321   -17324 
  -17336   -17334   -17324   -17309   -17275   -17221   -17180   -17170 
  -17181   -17205   -17238   -17253   -17230   -17181   -17135   -17113 
  -17118   -17136   -17158   -17180   -17192   -17176   -17143   -17120 
  -17123   -17155   -17193   -17200   -17173   -17136   -17101   -17076 
  -17073   -17108   -17167   -17208   -17216   -17203   -17166   -17115 
  -17080   -17074   -17088   -17101   -17107   -17091   -17059   -17049 
  -17064   -17081   -17096   -17111   -17122   -17097   -17050   -17030 
  -17037   -17058   -17093   -17128   -17155   -17176   -17188   -17197 
  -17220   -17242   -17255   -17269   -17292   -17319   -17340   -17350 
  -17356   -17359   -17362   -17363   -17352   -17342   -17350   -17390 
  -17448   -17474   -17450   -17415   -17402   -17417   -17447   -17469 
  -17481   -17500   -17529   -17556   -17577   -17587   -17577   -17556 
  -17535   -17504   -17467   -17446   -17442   -17444   -17447   -17437 
  -17408   -17365   -17332   -17315   -17315   -17332   -17361   -17373 
  -17350   -17311   -17277   -17257   -17267   -17290   -17290   -17284 
  -17290   -17302   -17311   -17319   -17323   -17315   -17294   -17263 
  -17235   -17224   -17242   -17288   -17351   -17394   -17404   -17393 
  -17381   -17379   -17383   -17396   -17423   -17436   -17423   -17393 
  -17359   -17335   -17332   -17335   -17327   -17311   -17300   -17292 
  -17278   -17259   -17242   -17230   -17227   -17212   -17172   -17124 
  -17084   -17068   -17081   -17099   -17099   -17078   -17037   -16999 
  -16985   -16980   -16977   -16981   -16989   -16997   -17005   -17015 
  -17028   -17054   -17077   -17084   -17078   -17078   -17096   -17123 
  -17149   -17159   -17155   -17153   -17165   -17185   -17193   -17188 
  -17189   -17201   -17204   -17201   -17208   -17219   -17219   -17212 
  -17207   -17199   -17193   -17201   -17200   -17190   -17209   -17242 
  -17247   -17227   -17216   -17213   -17209   -17216   -17226   -17224 
  -17219   -17221   -17234   -17247   -17259   -17273   -17280   -17267 
  -17251   -17262   -17297   -17334   -17356   -17365   -17375   -17400 
  -17420   -17423   -17419   -17428   -17460   -17500   -17531   -17540 
  -17524   -17501   -17493   -17506   -17527   -17541   -17555   -17563 
  -17559   -17540   -17512   -17490   -17490   -17493   -17485   -17463 
  -17425   -17373   -17325   -17301   -17300   -17302   -17296   -17278 
  -17274   -17288   -17302   -17311   -17309   -17286   -17250   -17220 
  -17212   -17221   -17242   -17269   -17300   -17321   -17325   -17325 
  -17327   -17313   -17293   -17290   -17294   -17302   -17321   -17344 
  -17352   -17343   -17320   -17297   -17285   -17290   -17317   -17356 
  -17385   -17383   -17352   -17313   -17292   -17290   -17317   -17367 
  -17410   -17429   -17436   -17442   -17443   -17450   -17469   -17489 
  -17506   -17514   -17509   -17487   -17447   -17409   -17405   -17421 
  -17428   -17424   -17425   -17427   -17419   -17398   -17371   -17338 
  -17304   -17286   -17277   -17265   -17263   -17275   -17290   -17305 
  -17312   -17297   -17274   -17257   -17243   -17243   -17247   -17231 
  -17205   -17193   -17181   -17165   -17165   -17176   -17184   -17185 
  -17186   -17186   -17176   -17153   -17127   -17101   -17089   -17097 
  -17113   -17134   -17157   -17169   -17161   -17145   -17140   -17159 
  -17189   -17217   -17231   -17213   -17176   -17151   -17149   -17154 
  -17159   -17173   -17188   -17189   -17181   -17180   -17188   -17193 
  -17193   -17196   -17194   -17197   -17209   -17215   -17194   -17178 
  -17182   -17185   -17185   -17186   -17193   -17220   -17248   -17253 
  -17246   -17253   -17269   -17282   -17293   -17305   -17309   -17301 
  -17290   -17277   -17274   -17292   -17308   -17302   -17290   -17302 
  -17327   -17327   -17304   -17284   -17282   -17288   -17282   -17275 
  -17281   -17296   -17305   -17297   -17282   -17278   -17286   -17305 
  -17328   -17342   -17348   -17350   -17346   -17344   -17348   -17361 
  -17390   -17440   -17481   -17481   -17456   -17443   -17455   -17486 
  -17508   -17501   -17482   -17470   -17469   -17471   -17478   -17485 
  -17478   -17463   -17455   -17456   -17446   -17423   -17412   -17419 
  -17416   -17378   -17324   -17285   -17265   -17265   -17265   -17251 
  -17236   -17220   -17197   -17166   -17128   -17107   -17104   -17093 
  -17066   -17028   -16995   -16972   -16961   -16961   -16957   -16942 
  -16924   -16906   -16889   -16881   -16883   -16883   -16880   -16875 
  -16860   -16833   -16811   -16807   -16811   -16823   -16846   -16873 
  -16893   -16906   -16918   -16933   -16957   -17011   -17089   -17157 
  -17197   -17228   -17262   -17307   -17359   -17419   -17477   -17535 
  -17598   -17658   -17698   -17710   -17714   -17737   -17776   -17801 
  -17801   -17794   -17794   -17807   -17841   -17869   -17884   -17894 
  -17888   -17869   -17845   -17828   -17825   -17828   -17825   -17803 
  -17770   -17740   -17722   -17722   -17728   -17710   -17662   -17602 
  -17548   -17508   -17470   -17428   -17408   -17404   -17375   -17324 
  -17263   -17203   -17162   -17134   -17103   -17081   -17076   -17066 
  -17046   -17015   -16981   -16957   -16942   -16930   -16926   -16933 
  -16942   -16935   -16903   -16862   -16842   -16842   -16848   -16853 
  -16866   -16879   -16885   -16891   -16891   -16891   -16918   -16961 
  -16999   -17028   -17054   -17086   -17123   -17147   -17162   -17194 
  -17243   -17296   -17334   -17348   -17352   -17365   -17390   -17420 
  -17442   -17452   -17458   -17467   -17481   -17491   -17505   -17524 
  -17533   -17517   -17490   -17474   -17470   -17481   -17496   -17493 
  -17475   -17462   -17450   -17429   -17408   -17396   -17396   -17408 
  -17416   -17410   -17390   -17361   -17338   -17332   -17339   -17346 
  -17338   -17311   -17280   -17257   -17240   -17234   -17231   -17235 
  -17242   -17244   -17250   -17261   -17270   -17265   -17240   -17208 
  -17190   -17201   -17219   -17221   -17221   -17217   -17211   -17207 
  -17188   -17157   -17142   -17149   -17147   -17126   -17105   -17100 
  -17101   -17115   -17126   -17109   -17086   -17078   -17072   -17074 
  -17082   -17089   -17097   -17099   -17089   -17076   -17078   -17096 
  -17112   -17115   -17113   -17113   -17115   -17130   -17150   -17155 
  -17147   -17143   -17145   -17150   -17165   -17189   -17208   -17215 
  -17226   -17243   -17270   -17302   -17327   -17334   -17328   -17317 
  -17308   -17297   -17289   -17293   -17302   -17309   -17320   -17328 
  -17331   -17339   -17350   -17347   -17325   -17294   -17275   -17275 
  -17277   -17284   -17293   -17288   -17280   -17284   -17282   -17271 
  -17271   -17284   -17289   -17282   -17271   -17253   -17239   -17235 
  -17236   -17231   -17212   -17181   -17157   -17149   -17151   -17154 
  -17145   -17124   -17103   -17076   -17049   -17039   -17049   -17074 
  -17103   -17109   -17105   -17104   -17109   -17126   -17143   -17154 
  -17167   -17182   -17188   -17182   -17176   -17176   -17182   -17193 
  -17204   -17201   -17190   -17194   -17207   -17211   -17216   -17219 
  -17215   -17205   -17190   -17170   -17153   -17149   -17161   -17172 
  -17159   -17142   -17130   -17122   -17126   -17143   -17150   -17135 
  -17116   -17109   -17116   -17135   -17155   -17165   -17163   -17161 
  -17161   -17161   -17165   -17181   -17203   -17223   -17235   -17243 
  -17250   -17244   -17247   -17273   -17300   -17309   -17317   -17313 
  -17296   -17285   -17288   -17288   -17281   -17274   -17282   -17296 
  -17290   -17270   -17251   -17246   -17255   -17258   -17238   -17208 
  -17192   -17188   -17197   -17211   -17213   -17205   -17197   -17197 
  -17208   -17220   -17216   -17203   -17197   -17192   -17182   -17194 
  -17227   -17254   -17266   -17266   -17251   -17235   -17239   -17263 
  -17293   -17313   -17325   -17339   -17347   -17351   -17359   -17375 
  -17405   -17446   -17475   -17486   -17481   -17464   -17451   -17450 
  -17452   -17448   -17451   -17463   -17462   -17458   -17469   -17479 
  -17482   -17483   -17486   -17491   -17496   -17504   -17520   -17527 
  -17524   -17524   -17527   -17532   -17540   -17537   -17521   -17520 
  -17539   -17562   -17579   -17598   -17613   -17620   -17624   -17625 
  -17625   -17626   -17636   -17656   -17666   -17644   -17618   -17609 
  -17608   -17602   -17586   -17567   -17552   -17531   -17504   -17481 
  -17458   -17425   -17383   -17355   -17343   -17328   -17293   -17240 
  -17196   -17177   -17159   -17128   -17100   -17082   -17065   -17046 
  -17024   -17005   -17001   -16995   -16970   -16935   -16900   -16877 
  -16876   -16887   -16893   -16888   -16880   -16877   -16879   -16891 
  -16907   -16938   -16985   -17010   -17001   -16983   -16964   -16961 
  -16985   -17015   -17032   -17047   -17064   -17072   -17080   -17100 
  -17128   -17161   -17188   -17212   -17235   -17253   -17280   -17327 
  -17369   -17383   -17379   -17381   -17396   -17424   -17452   -17466 
  -17466   -17470   -17481   -17494   -17504   -17521   -17543   -17552 
  -17556   -17562   -17563   -17571   -17606   -17643   -17649   -17645 
  -17649   -17656   -17663   -17666   -17662   -17653   -17637   -17625 
  -17621   -17617   -17612   -17617   -17621   -17621   -17618   -17613 
  -17612   -17621   -17625   -17618   -17608   -17608   -17608   -17606 
  -17605   -17591   -17574   -17555   -17536   -17521   -17505   -17493 
  -17483   -17463   -17437   -17416   -17390   -17362   -17324   -17278 
  -17234   -17196   -17166   -17150   -17136   -17112   -17077   -17039 
  -17007   -16985   -16972   -16969   -16964   -16945   -16910   -16876 
  -16865   -16869   -16883   -16904   -16919   -16926   -16941   -16951 
  -16941   -16938   -16961   -16989   -17015   -17032   -17027   -17014 
  -17016   -17038   -17062   -17086   -17109   -17113   -17108   -17118 
  -17134   -17147   -17161   -17177   -17194   -17219   -17240   -17253 
  -17266   -17293   -17321   -17343   -17361   -17377   -17390   -17404 
  -17415   -17427   -17451   -17473   -17481   -17491   -17513   -17535 
  -17560   -17581   -17577   -17570   -17574   -17577   -17578   -17591 
  -17613   -17621   -17609   -17590   -17579   -17577   -17570   -17555 
  -17533   -17502   -17475   -17464   -17463   -17459   -17444   -17429 
  -17417   -17390   -17361   -17348   -17346   -17332   -17309   -17293 
  -17274   -17243   -17209   -17181   -17155   -17134   -17122   -17119 
  -17118   -17118   -17115   -17109   -17111   -17104   -17077   -17057 
  -17053   -17054   -17057   -17057   -17045   -17031   -17031   -17047 
  -17064   -17064   -17064   -17069   -17068   -17062   -17065   -17068 
