Origin Time       2025/01/13 21:19:00
Lat.              31.8
Long.             131.6
Depth. (km)       30
Mag.              6.9
Station Code      TKSH06
Station Lat.      33.9997
Station Long.     133.8933
Station Height(m) 605
Record Time       2025/01/13 21:20:39
Sampling Freq(Hz) 100Hz
Duration Time(s)  123
Dir.              6
Scale Factor      7845(gal)/8223790
Max. Acc. (gal)   0.633
Last Correction   2025/01/13 21:20:39
Memo.             
[...]
  -11416   -11388   -11362   -11345   -11334   -11321   -11303   -11292 
  -11284   -11265   -11244   -11223   -11202   -11183   -11159   -11129 
  -11103   -11090   -11088   -11091   -11087   -11076   -11055   -11029 
  -11010   -10995   -10990   -10997   -11016   -11047   -11079   -11098 
  -11107   -11122   -11146   -11176   -11205   -11241   -11287   -11330 
  -11365   -11392   -11418   -11441   -11449   -11437   -11423   -11419 
  -11418   -11407   -11375   -11321   -11268   -11229   -11203   -11195 
  -11210   -11245   -11280   -11304   -11322   -11329   -11317   -11295 
  -11269   -11242   -11230   -11238   -11253   -11261   -11257   -11248 
  -11234   -11217   -11187   -11149   -11122   -11119   -11124   -11114 
  -11098   -11091   -11090   -11087   -11095   -11110   -11111   -11107 
  -11125   -11163   -11188   -11191   -11184   -11179   -11165   -11141 
  -11105   -11067   -11051   -11070   -11099   -11109   -11097   -11088 
  -11099   -11109   -11110   -11109   -11111   -11129   -11157   -11187 
  -11217   -11252   -11284   -11317   -11358   -11396   -11431   -11468 
  -11506   -11541   -11566   -11574   -11572   -11572   -11572   -11565 
  -11556   -11541   -11515   -11472   -11425   -11398   -11394   -11396 
  -11391   -11379   -11364   -11350   -11327   -11287   -11236   -11188 
  -11152   -11122   -11099   -11075   -11041   -11001   -10974   -10952 
  -10924   -10895   -10878   -10876   -10897   -10924   -10947   -10966 
  -10966   -10939   -10905   -10890   -10889   -10891   -10895   -10898 
  -10899   -10909   -10921   -10933   -10937   -10926   -10909   -10897 
  -10902   -10924   -10947   -10963   -10972   -10980   -10989   -10997 
  -11006   -11017   -11028   -11044   -11071   -11107   -11153   -11196 
  -11230   -11256   -11279   -11298   -11303   -11298   -11298   -11304 
  -11303   -11304   -11323   -11350   -11373   -11392   -11404   -11408 
  -11411   -11418   -11426   -11431   -11426   -11418   -11415   -11406 
  -11388   -11368   -11338   -11302   -11276   -11268   -11264   -11268 
  -11281   -11295   -11313   -11337   -11353   -11354   -11341   -11317 
  -11291   -11268   -11246   -11227   -11205   -11178   -11163   -11168 
  -11184   -11199   -11211   -11222   -11233   -11237   -11223   -11205 
  -11182   -11164   -11155   -11138   -11124   -11118   -11107   -11092 
  -11086   -11079   -11074   -11072   -11064   -11053   -11047   -11047 
  -11045   -11048   -11060   -11071   -11070   -11064   -11060   -11057 
  -11063   -11076   -11091   -11109   -11133   -11165   -11207   -11252 
  -11288   -11313   -11322   -11327   -11335   -11341   -11342   -11345 
  -11345   -11341   -11335   -11334   -11337   -11338   -11342   -11340 
  -11327   -11311   -11291   -11277   -11271   -11256   -11230   -11196 
  -11168   -11163   -11178   -11192   -11194   -11187   -11176   -11169 
  -11171   -11180   -11186   -11176   -11164   -11160   -11161   -11175 
  -11196   -11205   -11194   -11173   -11156   -11156   -11164   -11160 
  -11149   -11141   -11128   -11103   -11070   -11040   -11022   -11014 
  -11011   -11016   -11025   -11036   -11041   -11038   -11033   -11045 
  -11080   -11128   -11167   -11190   -11202   -11217   -11233   -11241 
  -11238   -11230   -11232   -11246   -11261   -11265   -11260   -11250 
  -11229   -11198   -11168   -11148   -11133   -11121   -11114   -11115 
  -11119   -11117   -11110   -11106   -11107   -11106   -11106   -11114 
  -11126   -11140   -11160   -11188   -11219   -11252   -11288   -11325 
  -11356   -11377   -11399   -11419   -11426   -11422   -11419   -11421 
  -11421   -11411   -11389   -11361   -11337   -11318   -11290   -11256 
  -11226   -11199   -11167   -11137   -11111   -11086   -11061   -11047 
  -11049   -11061   -11072   -11080   -11080   -11078   -11087   -11111 
  -11141   -11165   -11178   -11179   -11182   -11184   -11186   -11183 
  -11171   -11153   -11141   -11133   -11115   -11083   -11038   -10998 
  -10976   -10975   -10984   -10995   -10998   -10991   -10987   -10993 
  -11001   -11005   -11005   -11003   -10999   -11003   -11010   -11013 
  -11017   -11028   -11040   -11060   -11084   -11103   -11115   -11119 
  -11129   -11156   -11195   -11225   -11237   -11237   -11234   -11245 
  -11264   -11279   -11291   -11306   -11318   -11330   -11357   -11400 
  -11435   -11452   -11449   -11441   -11438   -11441   -11442   -11449 
  -11472   -11508   -11543   -11574   -11599   -11605   -11588   -11554 
  -11523   -11507   -11497   -11485   -11469   -11456   -11449   -11433 
  -11403   -11371   -11346   -11326   -11308   -11306   -11315   -11321 
  -11318   -11317   -11304   -11277   -11245   -11223   -11215   -11218 
  -11226   -11245   -11268   -11277   -11269   -11244   -11210   -11186 
  -11169   -11152   -11129   -11110   -11101   -11103   -11111   -11105 
  -11084   -11074   -11091   -11132   -11164   -11178   -11184   -11192 
  -11199   -11209   -11225   -11236   -11237   -11236   -11241   -11261 
  -11291   -11321   -11346   -11364   -11371   -11361   -11340   -11321 
  -11304   -11288   -11276   -11276   -11280   -11271   -11249   -11223 
  -11196   -11164   -11124   -11083   -11047   -11018   -11010   -11011 
  -11009   -11005   -10997   -10979   -10962   -10949   -10932   -10903 
  -10872   -10840   -10801   -10758   -10723   -10706   -10704   -10704 
  -10709   -10731   -10774   -10832   -10889   -10939   -10991   -11048 
  -11099   -11142   -11180   -11215   -11245   -11275   -11303   -11321 
  -11325   -11314   -11298   -11286   -11277   -11281   -11311   -11360 
  -11398   -11418   -11442   -11475   -11510   -11537   -11550   -11549 
  -11545   -11557   -11588   -11620   -11641   -11650   -11647   -11635 
  -11608   -11569   -11531   -11496   -11462   -11426   -11389   -11357 
  -11325   -11290   -11252   -11207   -11160   -11130   -11117   -11107 
  -11095   -11080   -11070   -11061   -11048   -11034   -11020   -11002 
  -10983   -10971   -10971   -10983   -10995   -11010   -11025   -11034 
  -11037   -11037   -11038   -11043   -11038   -11030   -11029   -11025 
  -11022   -11041   -11078   -11119   -11152   -11167   -11173   -11194 
  -11226   -11259   -11283   -11308   -11340   -11375   -11411   -11457 
  -11508   -11549   -11572   -11583   -11587   -11589   -11595   -11605 
  -11626   -11651   -11665   -11657   -11635   -11604   -11569   -11527 
  -11470   -11407   -11344   -11291   -11250   -11217   -11188   -11171 
  -11161   -11157   -11157   -11149   -11121   -11074   -11022   -10974 
  -10933   -10899   -10885   -10885   -10902   -10933   -10959   -10966 
  -10957   -10932   -10899   -10875   -10859   -10849   -10847   -10854 
  -10868   -10879   -10876   -10862   -10841   -10833   -10844   -10852 
  -10849   -10851   -10863   -10885   -10912   -10939   -10960   -10979 
  -11010   -11045   -11078   -11102   -11118   -11134   -11146   -11151 
  -11149   -11149   -11152   -11159   -11175   -11190   -11195   -11192 
  -11186   -11182   -11186   -11191   -11188   -11171   -11140   -11119 
  -11124   -11141   -11163   -11190   -11214   -11236   -11269   -11306 
  -11334   -11361   -11392   -11419   -11446   -11475   -11496   -11503 
  -11496   -11480   -11456   -11426   -11389   -11350   -11321   -11298 
  -11280   -11271   -11272   -11277   -11280   -11276   -11267   -11257 
  -11259   -11271   -11287   -11302   -11313   -11321   -11331   -11350 
  -11379   -11398   -11392   -11379   -11372   -11368   -11358   -11344 
  -11325   -11311   -11298   -11273   -11234   -11184   -11130   -11078 
  -11032   -10999   -10974   -10952   -10943   -10944   -10952   -10967 
  -10983   -11001   -11014   -11020   -11022   -11041   -11075   -11111 
  -11146   -11180   -11218   -11246   -11263   -11268   -11264   -11268 
  -11280   -11281   -11276   -11272   -11268   -11263   -11257   -11242 
  -11221   -11211   -11217   -11226   -11234   -11234   -11222   -11209 
  -11203   -11196   -11171   -11128   -11091   -11068   -11059   -11052 
  -11038   -11022   -10998   -10968   -10940   -10906   -10867   -10832 
  -10810   -10804   -10810   -10824   -10840   -10854   -10863   -10874 
  -10889   -10909   -10930   -10952   -10974   -10999   -11020   -11030 
  -11045   -11071   -11105   -11141   -11186   -11237   -11286   -11325 
  -11354   -11372   -11381   -11389   -11402   -11419   -11438   -11458 
  -11479   -11489   -11489   -11488   -11485   -11479   -11469   -11460 
  -11452   -11449   -11460   -11484   -11506   -11519   -11533   -11553 
  -11568   -11576   -11580   -11580   -11583   -11592   -11604   -11604 
  -11589   -11572   -11557   -11534   -11506   -11476   -11454   -11452 
  -11460   -11460   -11449   -11433   -11418   -11404   -11383   -11350 
  -11318   -11295   -11290   -11290   -11277   -11245   -11203   -11168 
  -11141   -11102   -11057   -11024   -10999   -10978   -10951   -10910 
  -10859   -10809   -10768   -10747   -10741   -10746   -10756   -10775 
  -10801   -10832   -10863   -10883   -10887   -10885   -10882   -10882 
  -10889   -10908   -10937   -10975   -11017   -11057   -11095   -11124 
  -11134   -11130   -11128   -11130   -11136   -11149   -11178   -11211 
  -11241   -11267   -11287   -11302   -11318   -11335   -11354   -11381 
  -11406   -11411   -11403   -11387   -11364   -11334   -11303   -11272 
  -11241   -11214   -11191   -11171   -11155   -11141   -11125   -11115 
  -11114   -11114   -11122   -11136   -11145   -11157   -11176   -11200 
  -11237   -11281   -11329   -11383   -11433   -11465   -11492   -11516 
  -11533   -11541   -11539   -11529   -11518   -11507   -11485   -11446 
  -11399   -11352   -11318   -11295   -11272   -11250   -11229   -11213 
  -11213   -11226   -11236   -11242   -11253   -11273   -11302   -11327 
  -11338   -11341   -11344   -11349   -11353   -11349   -11346   -11356 
  -11371   -11375   -11360   -11334   -11308   -11280   -11250   -11225 
  -11199   -11176   -11160   -11151   -11137   -11122   -11113   -11110 
  -11119   -11136   -11145   -11148   -11153   -11157   -11161   -11167 
  -11175   -11190   -11214   -11240   -11253   -11256   -11253   -11252 
  -11249   -11246   -11246   -11249   -11259   -11273   -11291   -11303 
  -11307   -11302   -11291   -11275   -11252   -11223   -11196   -11173 
  -11153   -11140   -11121   -11097   -11071   -11040   -11001   -10966 
  -10940   -10926   -10935   -10955   -10974   -10989   -10999   -11006 
  -11011   -11014   -11010   -11006   -11011   -11028   -11053   -11086 
  -11114   -11126   -11128   -11132   -11146   -11161   -11157   -11140 
  -11130   -11134   -11145   -11155   -11155   -11149   -11152   -11175 
  -11214   -11260   -11308   -11357   -11395   -11426   -11453   -11477 
  -11495   -11508   -11527   -11554   -11584   -11608   -11616   -11608 
  -11593   -11583   -11570   -11560   -11569   -11588   -11604   -11622 
  -11634   -11635   -11632   -11631   -11632   -11639   -11645   -11646 
  -11653   -11665   -11672   -11666   -11649   -11627   -11604   -11577 
  -11547   -11518   -11495   -11476   -11449   -11415   -11381   -11346 
  -11310   -11275   -11241   -11207   -11176   -11151   -11124   -11098 
  -11078   -11061   -11055   -11057   -11060   -11056   -11048   -11036 
  -11022   -11013   -11001   -10982   -10957   -10932   -10903   -10875 
  -10844   -10814   -10790   -10773   -10764   -10759   -10750   -10744 
  -10746   -10743   -10731   -10719   -10709   -10700   -10693   -10697 
  -10712   -10733   -10758   -10786   -10825   -10868   -10908   -10935 
  -10959   -10987   -11017   -11045   -11074   -11099   -11118   -11128 
  -11134   -11141   -11146   -11151   -11156   -11160   -11163   -11161 
  -11161   -11173   -11190   -11198   -11195   -11191   -11192   -11200 
  -11210   -11222   -11232   -11240   -11245   -11246   -11250   -11259 
  -11264   -11267   -11269   -11271   -11272   -11272   -11268   -11259 
  -11250   -11237   -11215   -11191   -11165   -11134   -11109   -11091 
  -11082   -11082   -11087   -11092   -11103   -11122   -11134   -11146 
  -11167   -11192   -11221   -11253   -11284   -11303   -11318   -11340 
  -11357   -11369   -11383   -11399   -11421   -11442   -11453   -11448 
  -11425   -11389   -11352   -11314   -11277   -11248   -11223   -11207 
  -11199   -11187   -11159   -11118   -11070   -11018   -10979   -10949 
  -10912   -10872   -10837   -10808   -10785   -10767   -10752   -10737 
  -10723   -10710   -10708   -10712   -10724   -10747   -10778   -10813 
  -10848   -10879   -10910   -10943   -10978   -11017   -11057   -11088 
  -11111   -11129   -11149   -11171   -11187   -11192   -11192   -11192 
  -11194   -11192   -11192   -11194   -11194   -11202   -11219   -11240 
  -11267   -11306   -11345   -11380   -11416   -11457   -11495   -11529 
  -11551   -11570   -11595   -11628   -11665   -11700   -11730   -11751 
  -11774   -11797   -11812   -11827   -11836   -11823   -11803   -11782 
  -11749   -11708   -11653   -11581   -11507   -11429   -11350   -11283 
  -11209   -11132   -11070   -11018   -10976   -10944   -10917   -10890 
  -10862   -10841   -10827   -10820   -10827   -10835   -10836   -10831 
  -10812   -10778   -10739   -10701   -10666   -10631   -10604   -10597 
  -10597   -10585   -10573   -10567   -10569   -10588   -10616   -10638 
  -10658   -10686   -10720   -10756   -10794   -10831   -10868   -10901 
  -10929   -10956   -10978   -10994   -11011   -11032   -11052   -11080 
  -11115   -11152   -11186   -11215   -11245   -11277   -11304   -11326 
  -11352   -11387   -11429   -11464   -11491   -11516   -11539   -11560 
  -11572   -11589   -11624   -11674   -11726   -11773   -11815   -11847 
  -11861   -11865   -11863   -11854   -11843   -11834   -11832   -11843 
  -11843   -11836   -11830   -11801   -11767   -11745   -11723   -11707 
  -11701   -11693   -11681   -11666   -11647   -11630   -11608   -11585 
  -11556   -11515   -11465   -11416   -11372   -11335   -11308   -11287 
  -11264   -11241   -11214   -11184   -11159   -11138   -11126   -11122 
  -11122   -11130   -11136   -11136   -11132   -11130   -11124   -11101 
  -11067   -11034   -10998   -10967   -10943   -10912   -10875   -10845 
  -10821   -10801   -10787   -10779   -10781   -10790   -10810   -10835 
  -10856   -10866   -10870   -10878   -10890   -10905   -10922   -10933 
  -10937   -10941   -10951   -10953   -10947   -10936   -10932   -10945 
  -10968   -10986   -11001   -11016   -11028   -11044   -11075   -11117 
  -11148   -11169   -11200   -11234   -11259   -11281   -11306   -11322 
  -11340   -11365   -11391   -11421   -11456   -11488   -11512   -11531 
  -11546   -11562   -11570   -11568   -11554   -11542   -11538   -11537 
  -11539   -11547   -11550   -11542   -11530   -11516   -11504   -11496 
  -11480   -11452   -11427   -11415   -11410   -11411   -11406   -11391 
  -11371   -11353   -11341   -11333   -11327   -11335   -11356   -11379 
  -11408   -11435   -11449   -11456   -11462   -11462   -11462   -11461 
  -11462   -11469   -11470   -11461   -11450   -11437   -11415   -11388 
  -11357   -11323   -11292   -11265   -11241   -11225   -11221   -11225 
  -11234   -11242   -11249   -11250   -11245   -11240   -11240   -11240 
  -11238   -11245   -11257   -11263   -11256   -11245   -11233   -11217 
  -11200   -11186   -11173   -11163   -11149   -11132   -11115   -11106 
  -11097   -11082   -11060   -11036   -11018   -11009   -11001   -10987 
  -10976   -10978   -10987   -10994   -11002   -11006   -11009   -11020 
  -11036   -11056   -11075   -11086   -11092   -11097   -11098   -11098 
  -11101   -11105   -11115   -11129   -11141   -11151   -11161   -11172 
  -11187   -11205   -11221   -11241   -11260   -11272   -11286   -11302 
  -11306   -11296   -11290   -11290   -11295   -11303   -11313   -11319 
  -11323   -11329   -11335   -11349   -11362   -11371   -11380   -11396 
  -11416   -11431   -11431   -11421   -11395   -11361   -11331   -11313 
  -11295   -11272   -11246   -11219   -11191   -11160   -11126   -11095 
  -11074   -11056   -11034   -11018   -11007   -11002   -11003   -11014 
  -11029   -11043   -11057   -11076   -11094   -11110   -11121   -11124 
  -11132   -11144   -11157   -11165   -11163   -11160   -11163   -11169 
  -11184   -11195   -11192   -11178   -11153   -11126   -11094   -11060 
  -11026   -11002   -10983   -10963   -10947   -10937   -10933   -10932 
  -10926   -10913   -10897   -10883   -10883   -10899   -10930   -10962 
  -10982   -10987   -10987   -10982   -10979   -10979   -10979   -10979 
  -10980   -10986   -10995   -11006   -11013   -11010   -10999   -10991 
  -10994   -10999   -10995   -10987   -10991   -11003   -11016   -11022 
  -11024   -11020   -11020   -11026   -11036   -11047   -11048   -11036 
  -11021   -11013   -11006   -10997   -10989   -10990   -11001   -11016 
  -11040   -11063   -11079   -11099   -11119   -11136   -11141   -11133 
  -11122   -11121   -11126   -11141   -11156   -11168   -11175   -11179 
  -11186   -11195   -11202   -11215   -11240   -11264   -11292   -11321 
  -11346   -11364   -11373   -11380   -11387   -11387   -11387   -11389 
  -11391   -11396   -11404   -11411   -11411   -11407   -11404   -11400 
  -11399   -11403   -11406   -11412   -11427   -11445   -11464   -11481 
  -11497   -11512   -11520   -11526   -11537   -11546   -11550   -11550 
  -11542   -11530   -11514   -11492   -11470   -11452   -11426   -11398 
  -11371   -11344   -11315   -11280   -11240   -11198   -11155   -11111 
  -11075   -11045   -11020   -11003   -11001   -11006   -11011   -11018 
  -11020   -11014   -11006   -10994   -10976   -10957   -10939   -10929 
  -10930   -10933   -10937   -10939   -10933   -10925   -10917   -10906 
  -10891   -10863   -10827   -10795   -10768   -10748   -10737   -10729 
  -10721   -10723   -10728   -10735   -10746   -10759   -10768   -10778 
  -10793   -10814   -10837   -10862   -10897   -10936   -10975   -11014 
  -11055   -11088   -11118   -11151   -11191   -11232   -11269   -11307 
  -11337   -11360   -11381   -11399   -11406   -11410   -11421   -11438 
  -11460   -11481   -11499   -11511   -11522   -11531   -11545   -11558 
  -11565   -11565   -11566   -11572   -11583   -11600   -11620   -11635 
  -11646   -11651   -11653   -11653   -11647   -11639   -11632   -11627 
  -11626   -11630   -11627   -11615   -11592   -11560   -11529   -11504 
  -11480   -11457   -11438   -11426   -11416   -11408   -11403   -11404 
  -11403   -11396   -11388   -11380   -11375   -11376   -11380   -11384 
  -11387   -11389   -11391   -11391   -11389   -11385   -11380   -11368 
  -11345   -11322   -11302   -11277   -11250   -11223   -11195   -11169 
  -11151   -11134   -11115   -11097   -11086   -11080   -11075   -11074 
  -11072   -11067   -11060   -11063   -11072   -11082   -11086   -11091 
  -11102   -11109   -11110   -11110   -11107   -11107   -11113   -11119 
  -11128   -11141   -11157   -11175   -11191   -11200   -11207   -11209 
  -11200   -11192   -11192   -11194   -11192   -11188   -11183   -11180 
  -11182   -11179   -11168   -11152   -11129   -11107   -11090   -11074 
  -11056   -11037   -11018   -11003   -10995   -10993   -10994   -10999 
  -11005   -11013   -11022   -11030   -11041   -11045   -11045   -11048 
  -11053   -11057   -11060   -11056   -11049   -11044   -11037   -11032 
  -11024   -11010   -10997   -10987   -10982   -10976   -10974   -10970 
  -10968   -10968   -10971   -10972   -10972   -10979   -10989   -10991 
  -10991   -10991   -10993   -10995   -11001   -11006   -11010   -11018 
  -11029   -11041   -11049   -11060   -11076   -11092   -11113   -11137 
