Origin Time       2025/01/13 21:19:00
Lat.              31.8
Long.             131.6
Depth. (km)       30
Mag.              6.9
Station Code      TKSH02
Station Lat.      34.0112
Station Long.     134.0918
Station Height(m) 90
Record Time       2025/01/13 21:20:41
Sampling Freq(Hz) 100Hz
Duration Time(s)  133
Dir.              3
Scale Factor      3923(gal)/8224838
Max. Acc. (gal)   0.531
Last Correction   2025/01/13 21:20:42
Memo.             
[...]
   -6177    -6149    -6119    -6081    -6045    -6021    -6016    -6027 
   -6037    -6037    -6026    -6018    -6031    -6054    -6069    -6079 
   -6080    -6076    -6076    -6072    -6062    -6056    -6053    -6045 
   -6031    -6012    -5995    -5992    -6011    -6030    -6034    -6027 
   -6022    -6023    -6034    -6045    -6046    -6039    -6031    -6025 
   -6019    -6011    -6002    -6003    -6014    -6029    -6043    -6050 
   -6049    -6052    -6065    -6077    -6083    -6084    -6079    -6069 
   -6064    -6062    -6061    -6064    -6066    -6072    -6083    -6097 
   -6114    -6118    -6106    -6100    -6104    -6097    -6088    -6093 
   -6108    -6110    -6104    -6107    -6111    -6116    -6126    -6135 
   -6142    -6143    -6138    -6141    -6153    -6162    -6157    -6143 
   -6137    -6120    -6091    -6068    -6049    -6022    -5999    -5985 
   -5973    -5969    -5979    -5983    -5971    -5958    -5956    -5972 
   -6006    -6042    -6066    -6076    -6084    -6108    -6143    -6168 
   -6176    -6178    -6177    -6173    -6177    -6185    -6188    -6181 
   -6170    -6164    -6154    -6135    -6116    -6099    -6072    -6039 
   -6008    -5984    -5965    -5953    -5948    -5952    -5957    -5960 
   -5971    -5989    -5998    -6000    -6003    -6003    -6002    -5996 
   -5987    -5981    -5985    -5988    -5980    -5972    -5969    -5962 
   -5958    -5957    -5953    -5952    -5961    -5975    -5984    -5989 
   -5996    -6003    -6012    -6025    -6025    -6022    -6025    -6034 
   -6050    -6066    -6075    -6072    -6075    -6091    -6116    -6133 
   -6137    -6134    -6139    -6161    -6185    -6199    -6207    -6214 
   -6223    -6231    -6237    -6234    -6228    -6223    -6220    -6219 
   -6226    -6231    -6228    -6222    -6215    -6214    -6222    -6234 
   -6234    -6228    -6226    -6227    -6227    -6227    -6220    -6212 
   -6204    -6193    -6183    -6176    -6168    -6151    -6131    -6114 
   -6103    -6095    -6084    -6062    -6033    -6010    -6000    -5995 
   -5985    -5977    -5969    -5953    -5942    -5940    -5938    -5937 
   -5941    -5950    -5968    -5977    -5979    -5989    -6008    -6029 
   -6052    -6076    -6095    -6104    -6112    -6131    -6145    -6147 
   -6150    -6157    -6165    -6177    -6192    -6203    -6207    -6211 
   -6227    -6243    -6250    -6254    -6254    -6249    -6246    -6238 
   -6218    -6193    -6168    -6139    -6104    -6064    -6031    -6015 
   -6014    -6018    -6016    -6018    -6023    -6030    -6038    -6041 
   -6037    -6037    -6035    -6023    -6011    -6006    -6003    -5999 
   -5987    -5960    -5930    -5918    -5931    -5952    -5967    -5981 
   -5996    -6010    -6029    -6061    -6103    -6137    -6158    -6181 
   -6205    -6219    -6210    -6196    -6195    -6188    -6170    -6141 
   -6100    -6066    -6039    -6010    -5980    -5956    -5933    -5904 
   -5879    -5861    -5853    -5848    -5845    -5848    -5854    -5864 
   -5881    -5900    -5911    -5919    -5931    -5942    -5944    -5938 
   -5938    -5944    -5942    -5931    -5919    -5918    -5922    -5919 
   -5917    -5922    -5940    -5967    -5994    -6010    -6023    -6042 
   -6064    -6080    -6093    -6100    -6097    -6093    -6085    -6077 
   -6080    -6084    -6073    -6061    -6053    -6045    -6048    -6054 
   -6053    -6050    -6060    -6072    -6075    -6073    -6073    -6070 
   -6064    -6064    -6068    -6066    -6060    -6049    -6039    -6033 
   -6022    -6004    -5991    -5985    -5976    -5964    -5950    -5933 
   -5914    -5892    -5880    -5876    -5872    -5869    -5876    -5890 
   -5907    -5934    -5975    -6015    -6052    -6087    -6120    -6153 
   -6181    -6200    -6218    -6232    -6234    -6224    -6226    -6243 
   -6259    -6266    -6259    -6253    -6255    -6262    -6272    -6288 
   -6297    -6297    -6292    -6282    -6266    -6249    -6231    -6214 
   -6196    -6176    -6161    -6162    -6169    -6164    -6151    -6150 
   -6154    -6150    -6147    -6153    -6157    -6157    -6154    -6147 
   -6135    -6116    -6100    -6088    -6073    -6052    -6031    -6016 
   -6006    -6004    -6008    -6004    -5996    -5996    -5998    -5994 
   -5995    -6007    -6022    -6035    -6046    -6054    -6066    -6079 
   -6083    -6083    -6075    -6057    -6034    -6015    -5998    -5965 
   -5923    -5891    -5861    -5827    -5795    -5761    -5725    -5686 
   -5651    -5625    -5607    -5587    -5560    -5540    -5532    -5532 
   -5539    -5548    -5549    -5551    -5556    -5556    -5563    -5580 
   -5586    -5584    -5594    -5610    -5620    -5629    -5644    -5660 
   -5676    -5697    -5721    -5738    -5759    -5787    -5818    -5859 
   -5907    -5950    -5985    -6018    -6048    -6069    -6084    -6096 
   -6112    -6135    -6151    -6164    -6185    -6210    -6226    -6241 
   -6253    -6255    -6257    -6254    -6239    -6222    -6211    -6200 
   -6188    -6177    -6166    -6149    -6130    -6116    -6111    -6110 
   -6119    -6137    -6149    -6154    -6154    -6156    -6165    -6173 
   -6180    -6187    -6180    -6162    -6153    -6150    -6145    -6145 
   -6153    -6158    -6164    -6170    -6173    -6178    -6195    -6211 
   -6220    -6219    -6208    -6197    -6188    -6177    -6162    -6147 
   -6134    -6129    -6127    -6126    -6127    -6135    -6149    -6165 
   -6185    -6211    -6241    -6261    -6274    -6286    -6286    -6281 
   -6278    -6269    -6261    -6249    -6224    -6203    -6187    -6168 
   -6156    -6147    -6139    -6139    -6133    -6120    -6118    -6124 
   -6126    -6126    -6134    -6145    -6150    -6156    -6162    -6168 
   -6181    -6203    -6218    -6232    -6251    -6270    -6282    -6299 
   -6313    -6313    -6307    -6297    -6280    -6259    -6247    -6242 
   -6241    -6242    -6243    -6245    -6245    -6247    -6262    -6285 
   -6300    -6309    -6315    -6319    -6322    -6323    -6327    -6331 
   -6326    -6308    -6291    -6266    -6235    -6197    -6162    -6134 
   -6102    -6065    -6030    -5995    -5965    -5946    -5930    -5911 
   -5884    -5852    -5829    -5813    -5799    -5792    -5783    -5773 
   -5767    -5759    -5752    -5745    -5733    -5725    -5726    -5733 
   -5741    -5746    -5756    -5773    -5796    -5814    -5827    -5830 
   -5819    -5802    -5784    -5763    -5736    -5709    -5682    -5656 
   -5637    -5629    -5629    -5633    -5641    -5653    -5668    -5691 
   -5719    -5746    -5773    -5811    -5860    -5908    -5953    -5995 
   -6034    -6066    -6102    -6142    -6176    -6203    -6227    -6239 
   -6242    -6249    -6257    -6261    -6253    -6235    -6220    -6208 
   -6196    -6191    -6192    -6195    -6187    -6168    -6154    -6147 
   -6146    -6147    -6146    -6146    -6142    -6124    -6107    -6095 
   -6091    -6093    -6097    -6102    -6108    -6120    -6137    -6164 
   -6189    -6204    -6210    -6214    -6223    -6228    -6220    -6205 
   -6188    -6169    -6156    -6142    -6127    -6112    -6100    -6085 
   -6076    -6077    -6088    -6106    -6124    -6145    -6168    -6187 
   -6197    -6197    -6185    -6170    -6158    -6137    -6106    -6072 
   -6043    -6010    -5975    -5946    -5921    -5902    -5894    -5892 
   -5898    -5914    -5933    -5954    -5980    -6012    -6056    -6102 
   -6141    -6173    -6197    -6222    -6251    -6270    -6277    -6280 
   -6270    -6254    -6243    -6234    -6226    -6224    -6226    -6227 
   -6228    -6231    -6238    -6250    -6270    -6292    -6307    -6320 
   -6332    -6335    -6332    -6334    -6334    -6323    -6305    -6284 
   -6255    -6227    -6193    -6156    -6115    -6076    -6039    -5999 
   -5958    -5915    -5869    -5840    -5825    -5815    -5807    -5796 
   -5782    -5771    -5765    -5759    -5740    -5718    -5699    -5680 
   -5655    -5618    -5583    -5552    -5521    -5493    -5470    -5451 
   -5436    -5433    -5429    -5420    -5408    -5397    -5394    -5393 
   -5387    -5390    -5393    -5391    -5391    -5398    -5409    -5424 
   -5441    -5460    -5482    -5503    -5532    -5570    -5613    -5661 
   -5711    -5753    -5790    -5821    -5846    -5869    -5883    -5886 
   -5887    -5888    -5895    -5910    -5926    -5938    -5948    -5952 
   -5964    -5985    -6008    -6027    -6042    -6054    -6061    -6057 
   -6060    -6068    -6073    -6080    -6091    -6102    -6119    -6143 
   -6170    -6201    -6241    -6289    -6340    -6393    -6446    -6498 
   -6550    -6597    -6643    -6683    -6710    -6727    -6733    -6731 
   -6724    -6709    -6681    -6644    -6605    -6565    -6523    -6477 
   -6430    -6388    -6351    -6315    -6288    -6274    -6268    -6262 
   -6259    -6261    -6272    -6284    -6289    -6292    -6289    -6278 
   -6265    -6239    -6204    -6173    -6138    -6091    -6039    -5999 
   -5968    -5940    -5915    -5902    -5898    -5896    -5898    -5899 
   -5904    -5911    -5918    -5921    -5923    -5934    -5945    -5948 
   -5952    -5956    -5949    -5944    -5950    -5950    -5942    -5944 
   -5946    -5941    -5938    -5946    -5948    -5938    -5931    -5926 
   -5922    -5917    -5910    -5906    -5904    -5903    -5906    -5906 
   -5906    -5910    -5919    -5931    -5945    -5952    -5957    -5968 
   -5980    -5998    -6021    -6043    -6068    -6100    -6127    -6151 
   -6184    -6220    -6257    -6292    -6324    -6357    -6389    -6413 
   -6434    -6455    -6478    -6500    -6516    -6521    -6527    -6538 
   -6542    -6539    -6544    -6554    -6565    -6579    -6588    -6588 
   -6589    -6596    -6604    -6606    -6600    -6596    -6592    -6583 
   -6573    -6563    -6552    -6539    -6528    -6512    -6488    -6465 
   -6439    -6408    -6370    -6323    -6276    -6227    -6178    -6133 
   -6087    -6041    -6003    -5975    -5954    -5940    -5923    -5910 
   -5902    -5895    -5884    -5873    -5865    -5846    -5823    -5807 
   -5791    -5771    -5752    -5730    -5713    -5707    -5714    -5722 
   -5736    -5759    -5784    -5799    -5806    -5815    -5823    -5815 
   -5792    -5771    -5748    -5719    -5690    -5660    -5634    -5614 
   -5599    -5591    -5586    -5582    -5583    -5583    -5580    -5580 
   -5587    -5598    -5611    -5629    -5649    -5676    -5714    -5764 
   -5817    -5863    -5906    -5952    -6003    -6053    -6095    -6135 
   -6170    -6203    -6234    -6259    -6269    -6276    -6280    -6266 
   -6242    -6212    -6174    -6137    -6108    -6081    -6050    -6022 
   -5998    -5980    -5971    -5958    -5942    -5933    -5937    -5938 
   -5930    -5925    -5922    -5908    -5890    -5875    -5863    -5846 
   -5829    -5813    -5790    -5765    -5745    -5721    -5701    -5688 
   -5676    -5661    -5647    -5633    -5625    -5625    -5633    -5649 
   -5672    -5698    -5725    -5761    -5803    -5849    -5904    -5964 
   -6022    -6089    -6160    -6222    -6286    -6353    -6411    -6466 
   -6521    -6566    -6600    -6625    -6644    -6651    -6656    -6662 
   -6662    -6662    -6662    -6658    -6647    -6633    -6621    -6606 
   -6585    -6558    -6538    -6521    -6492    -6458    -6428    -6404 
   -6388    -6377    -6362    -6340    -6318    -6301    -6291    -6280 
   -6265    -6253    -6246    -6237    -6226    -6223    -6224    -6224 
   -6226    -6223    -6226    -6238    -6247    -6251    -6261    -6276 
   -6291    -6304    -6323    -6340    -6354    -6367    -6384    -6401 
   -6421    -6442    -6457    -6466    -6477    -6489    -6502    -6513 
   -6520    -6525    -6535    -6544    -6550    -6552    -6551    -6550 
   -6546    -6531    -6516    -6500    -6475    -6444    -6405    -6365 
   -6324    -6282    -6242    -6197    -6151    -6115    -6085    -6052 
   -6015    -5980    -5942    -5908    -5887    -5868    -5846    -5825 
   -5800    -5771    -5742    -5715    -5686    -5659    -5636    -5611 
   -5587    -5567    -5547    -5529    -5522    -5518    -5513    -5516 
   -5533    -5559    -5589    -5624    -5663    -5701    -5737    -5773 
   -5806    -5841    -5881    -5915    -5942    -5968    -5983    -5996 
   -6011    -6025    -6035    -6041    -6039    -6045    -6045    -6037 
   -6034    -6034    -6022    -6007    -5994    -5972    -5948    -5926 
   -5904    -5888    -5879    -5869    -5859    -5857    -5864    -5871 
   -5881    -5900    -5926    -5949    -5968    -5989    -6007    -6022 
   -6033    -6041    -6045    -6042    -6030    -6011    -5994    -5979 
   -5967    -5950    -5930    -5914    -5896    -5873    -5853    -5840 
   -5827    -5822    -5832    -5845    -5857    -5875    -5900    -5940 
   -5983    -6029    -6081    -6133    -6178    -6218    -6254    -6289 
   -6316    -6336    -6359    -6373    -6373    -6372    -6373    -6376 
   -6381    -6389    -6393    -6394    -6400    -6411    -6421    -6439 
   -6463    -6492    -6523    -6562    -6604    -6643    -6681    -6717 
   -6754    -6787    -6821    -6844    -6859    -6874    -6878    -6867 
   -6852    -6835    -6812    -6782    -6743    -6697    -6646    -6588 
   -6528    -6469    -6405    -6339    -6272    -6197    -6118    -6041 
   -5965    -5886    -5809    -5742    -5678    -5609    -5544    -5489 
   -5437    -5390    -5351    -5312    -5278    -5254    -5233    -5215 
   -5204    -5197    -5186    -5174    -5162    -5142    -5117    -5097 
   -5081    -5065    -5046    -5023    -5001    -4984    -4974    -4974 
   -4974    -4966    -4962    -4963    -4961    -4959    -4959    -4949 
   -4939    -4939    -4938    -4939    -4950    -4963    -4980    -4997 
   -5015    -5042    -5073    -5104    -5139    -5184    -5232    -5274 
   -5306    -5344    -5383    -5414    -5441    -5468    -5493    -5513 
   -5524    -5530    -5543    -5557    -5566    -5568    -5574    -5579 
   -5586    -5597    -5606    -5617    -5630    -5647    -5663    -5684 
   -5711    -5740    -5765    -5784    -5806    -5832    -5853    -5871 
   -5891    -5907    -5917    -5925    -5937    -5954    -5977    -6006 
   -6035    -6066    -6100    -6138    -6185    -6239    -6284    -6320 
   -6361    -6403    -6444    -6486    -6528    -6573    -6620    -6658 
   -6694    -6740    -6790    -6833    -6874    -6910    -6939    -6963 
   -6986    -7001    -7006    -7005    -7001    -6984    -6961    -6939 
   -6921    -6901    -6878    -6855    -6831    -6806    -6786    -6768 
   -6756    -6756    -6759    -6760    -6759    -6758    -6760    -6763 
   -6758    -6747    -6732    -6720    -6709    -6704    -6697    -6689 
   -6686    -6689    -6691    -6693    -6691    -6686    -6685    -6686 
   -6689    -6687    -6683    -6675    -6662    -6647    -6636    -6620 
   -6597    -6570    -6536    -6505    -6484    -6458    -6428    -6403 
   -6384    -6361    -6334    -6305    -6278    -6253    -6228    -6207 
   -6183    -6156    -6127    -6099    -6065    -6031    -5996    -5957 
   -5913    -5865    -5821    -5776    -5734    -5702    -5679    -5660 
   -5651    -5648    -5647    -5649    -5653    -5660    -5668    -5682 
   -5699    -5718    -5734    -5752    -5768    -5786    -5807    -5832 
   -5853    -5872    -5895    -5921    -5945    -5968    -5991    -6006 
   -6015    -6025    -6034    -6048    -6066    -6079    -6081    -6076 
   -6068    -6057    -6045    -6031    -6014    -5995    -5972    -5945 
   -5918    -5900    -5881    -5860    -5846    -5837    -5827    -5821 
   -5818    -5819    -5827    -5834    -5844    -5857    -5867    -5873 
   -5883    -5891    -5894    -5894    -5890    -5890    -5890    -5886 
   -5886    -5888    -5890    -5891    -5903    -5921    -5933    -5945 
   -5961    -5979    -6002    -6029    -6053    -6072    -6093    -6124 
   -6165    -6214    -6258    -6295    -6332    -6370    -6403    -6436 
   -6467    -6488    -6496    -6498    -6492    -6475    -6459    -6446 
   -6423    -6394    -6369    -6346    -6324    -6308    -6292    -6276 
   -6268    -6259    -6246    -6235    -6220    -6195    -6170    -6156 
   -6139    -6112    -6085    -6064    -6043    -6023    -6003    -5981 
   -5961    -5942    -5925    -5906    -5892    -5883    -5875    -5868 
   -5864    -5861    -5860    -5864    -5873    -5881    -5896    -5915 
   -5930    -5940    -5949    -5957    -5964    -5971    -5977    -5983 
   -5987    -5992    -5999    -6002    -6007    -6014    -6021    -6033 
   -6049    -6065    -6084    -6110    -6133    -6157    -6184    -6210 
   -6238    -6264    -6277    -6292    -6311    -6323    -6332    -6339 
   -6338    -6331    -6330    -6331    -6332    -6334    -6335    -6338 
   -6343    -6346    -6353    -6365    -6370    -6365    -6361    -6358 
   -6358    -6362    -6362    -6355    -6345    -6324    -6303    -6282 
   -6257    -6232    -6218    -6199    -6178    -6172    -6169    -6166 
   -6168    -6170    -6177    -6187    -6188    -6188    -6191    -6187 
   -6170    -6150    -6130    -6107    -6079    -6053    -6027    -5992 
   -5953    -5919    -5887    -5863    -5840    -5813    -5786    -5761 
   -5736    -5711    -5691    -5675    -5663    -5652    -5641    -5636 
   -5633    -5634    -5641    -5649    -5656    -5663    -5670    -5674 
   -5686    -5703    -5717    -5729    -5738    -5748    -5757    -5759 
   -5759    -5760    -5759    -5748    -5729    -5713    -5698    -5679 
   -5665    -5659    -5651    -5644    -5644    -5649    -5659    -5674 
   -5686    -5699    -5719    -5742    -5767    -5791    -5818    -5852 
   -5883    -5910    -5941    -5976    -6004    -6027    -6049    -6072 
   -6095    -6119    -6139    -6157    -6174    -6191    -6205    -6219 
   -6232    -6243    -6254    -6264    -6268    -6276    -6286    -6289 
   -6282    -6273    -6268    -6268    -6266    -6265    -6270    -6277 
   -6280    -6286    -6296    -6304    -6309    -6320    -6334    -6342 
   -6349    -6353    -6347    -6339    -6331    -6316    -6299    -6285 
   -6264    -6245    -6227    -6204    -6181    -6164    -6151    -6141 
   -6134    -6131    -6127    -6133    -6146    -6157    -6166    -6183 
   -6199    -6208    -6205    -6208    -6212    -6207    -6201    -6191 
   -6173    -6153    -6131    -6115    -6104    -6093    -6089    -6089 
   -6085    -6080    -6079    -6079    -6079    -6085    -6095    -6100 
   -6103    -6107    -6108    -6108    -6111    -6110    -6108    -6104 
   -6096    -6083    -6076    -6073    -6070    -6072    -6070    -6065 
   -6062    -6065    -6066    -6068    -6066    -6066    -6064    -6058 
   -6056    -6054    -6050    -6052    -6054    -6056    -6057    -6057 
   -6054    -6048    -6043    -6039    -6030    -6012    -5999    -5991 
   -5981    -5969    -5956    -5941    -5926    -5913    -5900    -5887 
   -5873    -5861    -5850    -5840    -5827    -5813    -5805    -5805 
   -5806    -5809    -5811    -5809    -5809    -5813    -5814    -5815 
   -5825    -5830    -5832    -5840    -5853    -5867    -5879    -5899 
   -5930    -5953    -5969    -5995    -6025    -6049    -6075    -6099 
   -6116    -6131    -6151    -6168    -6174    -6178    -6181    -6184 
   -6184    -6180    -6176    -6173    -6168    -6160    -6149    -6137 
   -6123    -6108    -6093    -6073    -6050    -6030    -6016    -6006 
   -5998    -5988    -5980    -5973    -5972    -5976    -5976    -5975 
   -5977    -5983    -5988    -5998    -6010    -6025    -6038    -6046 
   -6064    -6085    -6097    -6108    -6126    -6143    -6160    -6181 
