Origin Time       2025/01/13 21:19:00
Lat.              31.8
Long.             131.6
Depth. (km)       30
Mag.              6.9
Station Code      TKSH04
Station Lat.      33.9902
Station Long.     134.5337
Station Height(m) -90
Record Time       2025/01/13 21:21:06
Sampling Freq(Hz) 100Hz
Duration Time(s)  120
Dir.              3
Scale Factor      2942(gal)/8224139
Max. Acc. (gal)   0.321
Last Correction   2025/01/13 21:21:07
Memo.             
[...]
  -27677   -27664   -27653   -27643   -27629   -27616   -27610   -27608 
  -27608   -27608   -27607   -27610   -27619   -27631   -27635   -27637 
  -27642   -27646   -27645   -27642   -27645   -27652   -27657   -27661 
  -27668   -27675   -27681   -27692   -27706   -27718   -27731   -27746 
  -27758   -27773   -27787   -27793   -27803   -27814   -27822   -27831 
  -27841   -27851   -27865   -27874   -27878   -27884   -27885   -27880 
  -27872   -27868   -27862   -27851   -27842   -27834   -27823   -27811 
  -27799   -27789   -27784   -27780   -27777   -27778   -27776   -27772 
  -27776   -27784   -27788   -27789   -27795   -27805   -27811   -27816 
  -27819   -27815   -27808   -27805   -27801   -27799   -27791   -27784 
  -27789   -27791   -27791   -27792   -27789   -27788   -27791   -27791 
  -27795   -27803   -27811   -27815   -27819   -27820   -27820   -27823 
  -27827   -27827   -27822   -27812   -27797   -27780   -27765   -27751 
  -27737   -27720   -27703   -27685   -27669   -27653   -27634   -27612 
  -27592   -27575   -27558   -27541   -27525   -27511   -27500   -27494 
  -27488   -27484   -27477   -27468   -27454   -27442   -27430   -27417 
  -27400   -27386   -27376   -27373   -27364   -27349   -27342   -27338 
  -27330   -27329   -27329   -27326   -27328   -27332   -27332   -27333 
  -27341   -27352   -27365   -27378   -27384   -27391   -27400   -27413 
  -27425   -27432   -27437   -27453   -27479   -27506   -27535   -27568 
  -27596   -27627   -27660   -27691   -27719   -27743   -27765   -27784 
  -27799   -27812   -27823   -27831   -27839   -27846   -27851   -27857 
  -27862   -27864   -27862   -27859   -27862   -27864   -27862   -27866 
  -27872   -27874   -27880   -27886   -27893   -27903   -27907   -27899 
  -27885   -27872   -27859   -27855   -27851   -27843   -27835   -27826 
  -27811   -27803   -27800   -27789   -27774   -27760   -27746   -27731 
  -27711   -27688   -27664   -27637   -27608   -27580   -27550   -27525 
  -27507   -27488   -27463   -27436   -27415   -27400   -27388   -27382 
  -27376   -27375   -27383   -27400   -27425   -27454   -27490   -27530 
  -27575   -27618   -27665   -27714   -27762   -27805   -27845   -27881 
  -27913   -27945   -27978   -28007   -28030   -28054   -28069   -28075 
  -28077   -28077   -28073   -28067   -28063   -28058   -28051   -28043 
  -28035   -28028   -28020   -28015   -28009   -28003   -27990   -27981 
  -27967   -27947   -27930   -27913   -27896   -27881   -27868   -27850 
  -27838   -27823   -27804   -27787   -27773   -27756   -27737   -27723 
  -27711   -27700   -27689   -27676   -27661   -27653   -27652   -27643 
  -27627   -27611   -27596   -27580   -27562   -27541   -27518   -27496 
  -27479   -27461   -27444   -27426   -27417   -27414   -27409   -27402 
  -27402   -27405   -27411   -27422   -27430   -27442   -27456   -27475 
  -27495   -27513   -27530   -27546   -27560   -27581   -27607   -27634 
  -27656   -27675   -27697   -27726   -27756   -27781   -27807   -27835 
  -27866   -27897   -27922   -27943   -27965   -27988   -28012   -28036 
  -28054   -28074   -28094   -28107   -28115   -28125   -28138   -28147 
  -28152   -28154   -28154   -28155   -28152   -28148   -28144   -28131 
  -28113   -28097   -28078   -28055   -28032   -28011   -27992   -27976 
  -27953   -27926   -27905   -27885   -27859   -27832   -27801   -27769 
  -27741   -27710   -27675   -27641   -27606   -27567   -27526   -27483 
  -27437   -27396   -27359   -27319   -27280   -27241   -27205   -27167 
  -27133   -27106   -27079   -27056   -27041   -27031   -27021   -27013 
  -27006   -27005   -27004   -27000   -27002   -27013   -27022   -27033 
  -27049   -27070   -27097   -27135   -27176   -27220   -27268   -27321 
  -27373   -27433   -27496   -27557   -27618   -27679   -27731   -27784 
  -27839   -27886   -27927   -27967   -28004   -28035   -28061   -28084 
  -28102   -28115   -28125   -28131   -28129   -28128   -28124   -28117 
  -28101   -28078   -28053   -28028   -28005   -27984   -27957   -27926 
  -27897   -27880   -27861   -27839   -27822   -27805   -27785   -27768 
  -27754   -27737   -27715   -27688   -27665   -27643   -27618   -27595 
  -27579   -27564   -27550   -27541   -27537   -27540   -27542   -27545 
  -27549   -27550   -27557   -27575   -27585   -27596   -27614   -27633 
  -27650   -27666   -27685   -27704   -27718   -27729   -27738   -27741 
  -27742   -27751   -27761   -27769   -27774   -27774   -27774   -27773 
  -27769   -27766   -27766   -27761   -27757   -27757   -27757   -27760 
  -27762   -27766   -27772   -27777   -27784   -27791   -27799   -27804 
  -27807   -27807   -27805   -27803   -27799   -27796   -27792   -27788 
  -27788   -27788   -27787   -27783   -27777   -27770   -27756   -27739 
  -27724   -27706   -27676   -27645   -27614   -27583   -27549   -27517 
  -27488   -27461   -27434   -27410   -27388   -27365   -27345   -27328 
  -27310   -27292   -27274   -27255   -27240   -27224   -27205   -27193 
  -27182   -27170   -27155   -27143   -27137   -27133   -27129   -27125 
  -27128   -27133   -27137   -27140   -27145   -27152   -27159   -27162 
  -27163   -27164   -27166   -27175   -27183   -27184   -27189   -27191 
  -27197   -27210   -27228   -27244   -27265   -27290   -27315   -27349 
  -27391   -27436   -27477   -27517   -27564   -27615   -27657   -27695 
  -27739   -27784   -27822   -27853   -27885   -27919   -27953   -27988 
  -28019   -28044   -28070   -28089   -28109   -28131   -28147   -28158 
  -28163   -28165   -28169   -28169   -28161   -28148   -28135   -28119 
  -28094   -28071   -28051   -28028   -28005   -27980   -27954   -27930 
  -27907   -27882   -27857   -27831   -27804   -27777   -27751   -27729 
  -27704   -27679   -27653   -27630   -27621   -27612   -27596   -27584 
  -27581   -27587   -27592   -27598   -27604   -27616   -27629   -27639 
  -27650   -27660   -27668   -27672   -27675   -27676   -27677   -27685 
  -27696   -27702   -27703   -27711   -27724   -27735   -27743   -27750 
  -27756   -27761   -27764   -27762   -27761   -27761   -27758   -27753 
  -27747   -27747   -27750   -27750   -27754   -27758   -27756   -27750 
  -27742   -27733   -27726   -27720   -27708   -27691   -27680   -27670 
  -27653   -27634   -27616   -27600   -27585   -27580   -27579   -27576 
  -27575   -27584   -27598   -27610   -27627   -27649   -27673   -27706 
  -27739   -27774   -27805   -27831   -27859   -27886   -27904   -27913 
  -27923   -27930   -27926   -27922   -27922   -27919   -27909   -27896 
  -27884   -27874   -27862   -27850   -27839   -27828   -27814   -27799 
  -27781   -27761   -27745   -27724   -27700   -27679   -27656   -27631 
  -27610   -27589   -27565   -27540   -27514   -27488   -27464   -27444 
  -27426   -27402   -27375   -27355   -27336   -27317   -27301   -27286 
  -27267   -27251   -27234   -27220   -27213   -27206   -27190   -27179 
  -27175   -27168   -27159   -27156   -27156   -27160   -27170   -27182 
  -27195   -27210   -27226   -27244   -27264   -27286   -27306   -27326 
  -27345   -27360   -27375   -27386   -27394   -27403   -27415   -27429 
  -27438   -27445   -27454   -27468   -27487   -27506   -27522   -27535 
  -27549   -27564   -27575   -27587   -27606   -27626   -27646   -27669 
  -27693   -27722   -27754   -27783   -27810   -27838   -27866   -27895 
  -27924   -27947   -27967   -27988   -28004   -28019   -28031   -28043 
  -28055   -28063   -28069   -28075   -28080   -28077   -28078   -28084 
  -28084   -28081   -28082   -28081   -28071   -28066   -28063   -28053 
  -28043   -28039   -28035   -28027   -28016   -28008   -28000   -27989 
  -27978   -27959   -27936   -27916   -27899   -27878   -27857   -27835 
  -27815   -27799   -27785   -27769   -27749   -27735   -27727   -27722 
  -27714   -27707   -27700   -27693   -27687   -27679   -27673   -27666 
  -27657   -27648   -27634   -27621   -27608   -27595   -27583   -27576 
  -27569   -27561   -27560   -27560   -27556   -27550   -27549   -27553 
  -27560   -27565   -27572   -27572   -27572   -27579   -27591   -27598 
  -27606   -27614   -27626   -27642   -27657   -27675   -27696   -27718 
  -27739   -27760   -27781   -27800   -27818   -27837   -27851   -27862 
  -27876   -27892   -27905   -27915   -27926   -27936   -27945   -27950 
  -27953   -27954   -27953   -27951   -27947   -27942   -27939   -27935 
  -27924   -27918   -27916   -27918   -27920   -27922   -27918   -27916 
  -27920   -27924   -27931   -27936   -27938   -27943   -27947   -27953 
  -27963   -27970   -27977   -27985   -27989   -27988   -27984   -27972 
  -27951   -27932   -27911   -27880   -27846   -27818   -27784   -27753 
  -27727   -27699   -27666   -27638   -27614   -27589   -27562   -27540 
  -27517   -27496   -27480   -27463   -27444   -27430   -27417   -27402 
  -27391   -27386   -27378   -27368   -27365   -27368   -27371   -27376 
  -27383   -27390   -27400   -27413   -27427   -27442   -27454   -27472 
  -27496   -27519   -27542   -27567   -27594   -27621   -27648   -27675 
  -27699   -27722   -27739   -27754   -27772   -27785   -27795   -27801 
  -27805   -27807   -27808   -27808   -27810   -27812   -27811   -27810 
  -27808   -27801   -27792   -27781   -27774   -27765   -27749   -27733 
  -27720   -27704   -27680   -27656   -27630   -27600   -27568   -27535 
  -27504   -27472   -27441   -27413   -27392   -27369   -27345   -27330 
  -27319   -27307   -27302   -27305   -27303   -27305   -27313   -27321 
  -27329   -27344   -27363   -27380   -27400   -27425   -27449   -27477 
  -27504   -27527   -27546   -27561   -27571   -27579   -27585   -27588 
  -27588   -27584   -27580   -27577   -27576   -27576   -27576   -27575 
  -27579   -27589   -27598   -27602   -27608   -27619   -27625   -27626 
  -27634   -27645   -27645   -27648   -27658   -27670   -27679   -27687 
  -27695   -27706   -27720   -27734   -27742   -27751   -27758   -27762 
  -27769   -27777   -27776   -27772   -27766   -27762   -27754   -27747 
  -27742   -27738   -27737   -27734   -27729   -27734   -27738   -27739 
  -27747   -27760   -27772   -27788   -27801   -27815   -27834   -27849 
  -27857   -27868   -27877   -27882   -27892   -27900   -27905   -27916 
  -27927   -27934   -27945   -27954   -27965   -27976   -27988   -28003 
  -28017   -28032   -28046   -28051   -28058   -28062   -28059   -28059 
  -28062   -28058   -28055   -28053   -28048   -28039   -28024   -28011 
  -27999   -27982   -27967   -27950   -27928   -27909   -27891   -27873 
  -27855   -27837   -27816   -27792   -27770   -27753   -27730   -27702 
  -27670   -27638   -27603   -27569   -27535   -27498   -27456   -27415 
  -27379   -27346   -27321   -27294   -27265   -27244   -27226   -27209 
  -27198   -27195   -27195   -27202   -27214   -27230   -27249   -27271 
  -27295   -27318   -27337   -27360   -27382   -27407   -27433   -27454 
  -27472   -27488   -27500   -27514   -27525   -27530   -27531   -27530 
  -27526   -27519   -27511   -27503   -27495   -27494   -27495   -27495 
  -27496   -27503   -27513   -27523   -27538   -27556   -27569   -27577 
  -27588   -27603   -27614   -27625   -27638   -27652   -27665   -27679 
  -27691   -27704   -27719   -27735   -27749   -27761   -27774   -27789 
  -27800   -27800   -27797   -27799   -27800   -27800   -27801   -27799 
  -27792   -27789   -27785   -27777   -27776   -27774   -27774   -27780 
  -27788   -27796   -27807   -27816   -27827   -27838   -27849   -27858 
  -27870   -27885   -27893   -27897   -27903   -27909   -27913   -27922 
  -27934   -27940   -27950   -27963   -27973   -27981   -27993   -28004 
  -28017   -28031   -28042   -28053   -28061   -28070   -28082   -28090 
  -28096   -28102   -28107   -28109   -28111   -28113   -28115   -28119 
  -28125   -28134   -28139   -28143   -28142   -28138   -28134   -28132 
  -28127   -28112   -28092   -28075   -28061   -28043   -28027   -28015 
  -28005   -27992   -27973   -27953   -27936   -27915   -27891   -27865 
  -27838   -27812   -27787   -27761   -27735   -27708   -27681   -27656 
  -27629   -27600   -27572   -27542   -27514   -27484   -27453   -27425 
  -27398   -27371   -27346   -27322   -27305   -27288   -27270   -27253 
  -27243   -27234   -27226   -27218   -27218   -27224   -27229   -27236 
  -27245   -27255   -27268   -27287   -27307   -27333   -27360   -27388 
  -27417   -27448   -27479   -27510   -27540   -27569   -27598   -27622 
  -27648   -27676   -27700   -27720   -27735   -27749   -27761   -27773 
  -27784   -27793   -27800   -27800   -27796   -27793   -27791   -27784 
  -27776   -27769   -27761   -27745   -27723   -27706   -27688   -27665 
  -27639   -27616   -27591   -27562   -27531   -27500   -27472   -27442 
  -27410   -27384   -27359   -27330   -27307   -27287   -27267   -27249 
  -27234   -27222   -27217   -27216   -27210   -27210   -27220   -27232 
  -27247   -27270   -27295   -27319   -27353   -27391   -27426   -27465 
  -27511   -27556   -27596   -27641   -27687   -27731   -27776   -27815 
  -27850   -27885   -27918   -27950   -27986   -28026   -28058   -28086 
  -28117   -28142   -28159   -28177   -28193   -28206   -28224   -28243 
  -28259   -28277   -28293   -28309   -28324   -28336   -28344   -28354 
  -28360   -28363   -28359   -28350   -28341   -28335   -28323   -28312 
  -28302   -28291   -28274   -28252   -28231   -28208   -28182   -28152 
  -28119   -28084   -28048   -28015   -27984   -27951   -27922   -27897 
  -27870   -27837   -27800   -27769   -27737   -27699   -27660   -27618 
  -27576   -27530   -27480   -27430   -27382   -27334   -27287   -27243 
  -27199   -27153   -27109   -27063   -27013   -26967   -26927   -26892 
  -26862   -26838   -26815   -26797   -26788   -26779   -26774   -26773 
  -26775   -26777   -26779   -26792   -26806   -26816   -26828   -26847 
  -26866   -26886   -26910   -26931   -26950   -26977   -27005   -27033 
  -27067   -27098   -27129   -27167   -27205   -27244   -27286   -27322 
  -27357   -27390   -27417   -27444   -27475   -27504   -27529   -27550 
  -27572   -27595   -27618   -27642   -27665   -27687   -27710   -27731 
  -27751   -27772   -27792   -27812   -27837   -27862   -27881   -27899 
  -27923   -27949   -27970   -27993   -28015   -28034   -28055   -28075 
  -28093   -28108   -28117   -28128   -28139   -28140   -28136   -28135 
  -28131   -28120   -28108   -28096   -28084   -28071   -28059   -28048 
  -28039   -28026   -28015   -28001   -27989   -27982   -27972   -27958 
  -27942   -27927   -27915   -27907   -27899   -27893   -27886   -27881 
  -27880   -27880   -27877   -27877   -27876   -27870   -27870   -27876 
  -27877   -27878   -27880   -27880   -27884   -27886   -27885   -27888 
  -27889   -27884   -27878   -27876   -27878   -27881   -27874   -27868 
  -27864   -27853   -27845   -27841   -27831   -27819   -27808   -27792 
  -27774   -27761   -27749   -27735   -27718   -27703   -27691   -27677 
  -27658   -27642   -27626   -27614   -27603   -27588   -27571   -27554 
  -27544   -27531   -27523   -27517   -27507   -27495   -27486   -27475 
  -27460   -27446   -27434   -27422   -27409   -27392   -27376   -27359 
  -27344   -27329   -27310   -27291   -27276   -27261   -27245   -27230 
  -27222   -27218   -27211   -27210   -27210   -27205   -27202   -27206 
  -27214   -27228   -27244   -27263   -27283   -27302   -27321   -27342 
  -27364   -27382   -27398   -27413   -27422   -27429   -27434   -27441 
  -27445   -27440   -27433   -27426   -27421   -27419   -27418   -27414 
  -27413   -27414   -27415   -27418   -27425   -27434   -27445   -27456 
  -27467   -27486   -27503   -27518   -27533   -27553   -27575   -27594 
  -27614   -27633   -27654   -27677   -27702   -27723   -27743   -27765 
  -27784   -27795   -27804   -27812   -27818   -27818   -27812   -27808 
  -27801   -27791   -27777   -27761   -27741   -27729   -27718   -27696 
  -27670   -27656   -27638   -27618   -27602   -27585   -27562   -27541 
  -27525   -27508   -27491   -27475   -27457   -27440   -27423   -27405 
  -27380   -27360   -27340   -27317   -27295   -27276   -27255   -27237 
  -27222   -27207   -27195   -27187   -27180   -27176   -27174   -27172 
  -27174   -27179   -27184   -27190   -27199   -27211   -27220   -27232 
  -27245   -27256   -27264   -27274   -27283   -27292   -27302   -27315 
  -27326   -27337   -27346   -27361   -27376   -27391   -27409   -27433 
  -27461   -27490   -27518   -27548   -27579   -27606   -27634   -27660 
  -27685   -27712   -27737   -27757   -27777   -27800   -27820   -27837 
  -27851   -27866   -27885   -27904   -27916   -27926   -27940   -27953 
  -27961   -27966   -27973   -27981   -27984   -27982   -27985   -27989 
  -27990   -27994   -28000   -28005   -28011   -28013   -28017   -28019 
  -28020   -28019   -28015   -28011   -28004   -27996   -27989   -27981 
  -27969   -27954   -27939   -27924   -27908   -27889   -27869   -27850 
  -27831   -27808   -27787   -27768   -27745   -27723   -27704   -27687 
  -27670   -27656   -27643   -27631   -27621   -27612   -27606   -27600 
  -27600   -27602   -27598   -27596   -27596   -27595   -27596   -27599 
  -27602   -27607   -27615   -27621   -27627   -27638   -27645   -27650 
  -27658   -27662   -27666   -27675   -27684   -27692   -27702   -27712 
  -27723   -27734   -27746   -27761   -27769   -27776   -27788   -27796 
  -27804   -27816   -27826   -27837   -27851   -27866   -27878   -27888 
  -27899   -27908   -27916   -27922   -27920   -27918   -27916   -27918 
  -27913   -27904   -27900   -27897   -27892   -27884   -27874   -27865 
  -27857   -27845   -27828   -27811   -27796   -27780   -27764   -27750 
  -27734   -27718   -27702   -27683   -27665   -27646   -27626   -27608 
  -27589   -27568   -27548   -27527   -27506   -27487   -27468   -27449 
  -27432   -27418   -27403   -27387   -27379   -27372   -27361   -27357 
  -27356   -27355   -27355   -27353   -27356   -27364   -27373   -27386 
  -27403   -27419   -27440   -27467   -27495   -27522   -27550   -27576 
  -27602   -27631   -27660   -27684   -27704   -27722   -27741   -27757 
  -27766   -27776   -27783   -27787   -27791   -27793   -27796   -27799 
  -27800   -27801   -27805   -27810   -27814   -27815   -27819   -27822 
  -27826   -27834   -27843   -27850   -27854   -27858   -27862   -27864 
  -27865   -27865   -27865   -27864   -27858   -27850   -27842   -27837 
  -27828   -27818   -27810   -27799   -27784   -27772   -27764   -27756 
  -27745   -27738   -27734   -27729   -27724   -27723   -27722   -27719 
  -27716   -27708   -27697   -27688   -27676   -27660   -27643   -27627 
  -27608   -27589   -27568   -27545   -27522   -27496   -27468   -27438 
  -27410   -27384   -27356   -27326   -27302   -27283   -27265   -27249 
  -27238   -27230   -27225   -27220   -27217   -27221   -27221   -27221 
  -27228   -27234   -27241   -27255   -27272   -27290   -27306   -27326 
  -27348   -27365   -27384   -27400   -27415   -27434   -27450   -27460 
  -27471   -27481   -27490   -27494   -27496   -27502   -27507   -27507 
  -27507   -27510   -27513   -27515   -27515   -27517   -27523   -27531 
  -27537   -27546   -27560   -27573   -27591   -27608   -27626   -27646 
  -27664   -27681   -27703   -27719   -27735   -27751   -27766   -27778 
  -27787   -27797   -27807   -27810   -27811   -27815   -27812   -27810 
  -27812   -27812   -27808   -27810   -27812   -27811   -27812   -27816 
  -27816   -27814   -27812   -27811   -27808   -27801   -27795   -27792 
  -27787   -27780   -27773   -27765   -27758   -27750   -27738   -27727 
  -27712   -27693   -27675   -27658   -27643   -27627   -27610   -27595 
