Origin Time       2025/01/13 21:19:00
Lat.              31.8
Long.             131.6
Depth. (km)       30
Mag.              6.9
Station Code      TKSH06
Station Lat.      33.9997
Station Long.     133.8933
Station Height(m) 448
Record Time       2025/01/13 21:20:39
Sampling Freq(Hz) 100Hz
Duration Time(s)  123
Dir.              3
Scale Factor      2942(gal)/8224139
Max. Acc. (gal)   0.679
Last Correction   2025/01/13 21:20:39
Memo.             
[...]
   27020    27058    27094    27122    27147    27183    27226    27268 
   27314    27371    27421    27461    27508    27562    27625    27695 
   27756    27796    27827    27854    27873    27880    27880    27884 
   27893    27891    27865    27826    27789    27760    27727    27685 
   27635    27579    27531    27495    27445    27379    27325    27288 
   27257    27225    27184    27144    27118    27109    27105    27094 
   27087    27095    27105    27110    27124    27147    27172    27195 
   27216    27237    27267    27301    27322    27332    27340    27349 
   27360    27368    27375    27386    27409    27448    27491    27522 
   27553    27587    27604    27599    27596    27604    27619    27630 
   27639    27656    27677    27693    27708    27730    27746    27743 
   27735    27729    27729    27737    27754    27774    27789    27808 
   27830    27841    27838    27832    27826    27812    27789    27753 
   27707    27661    27618    27569    27519    27475    27419    27352 
   27292    27237    27179    27114    27049    26987    26925    26870 
   26829    26790    26742    26697    26667    26662    26677    26689 
   26690    26701    26730    26761    26789    26824    26869    26923 
   26989    27068    27164    27270    27356    27427    27507    27592 
   27668    27734    27791    27850    27913    27970    28028    28085 
   28134    28171    28198    28225    28262    28294    28310    28318 
   28318    28302    28279    28259    28244    28236    28237    28246 
   28255    28260    28256    28240    28219    28202    28193    28189 
   28182    28167    28147    28121    28090    28059    28028    27992 
   27947    27892    27832    27785    27747    27704    27666    27637 
   27592    27531    27472    27418    27363    27305    27253    27211 
   27167    27120    27082    27049    27014    26983    26967    26959 
   26950    26946    26948    26956    26978    27009    27037    27059 
   27071    27072    27071    27089    27129    27171    27202    27233 
   27256    27264    27279    27303    27318    27329    27351    27382 
   27411    27437    27450    27459    27475    27494    27504    27513 
   27529    27545    27553    27556    27565    27587    27610    27626 
   27634    27645    27652    27648    27653    27673    27695    27722 
   27754    27774    27788    27807    27828    27847    27868    27888 
   27899    27889    27872    27857    27835    27816    27800    27776 
   27750    27711    27657    27606    27560    27508    27454    27411 
   27367    27319    27275    27236    27201    27167    27136    27116 
   27109    27106    27113    27132    27162    27187    27210    27240 
   27275    27314    27357    27396    27430    27461    27484    27506 
   27530    27554    27565    27569    27583    27595    27592    27584 
   27579    27571    27561    27562    27565    27567    27564    27557 
   27560    27583    27612    27634    27650    27672    27697    27714 
   27723    27747    27778    27799    27812    27818    27818    27814 
   27807    27810    27814    27804    27785    27757    27723    27692 
   27666    27645    27630    27616    27598    27573    27552    27540 
   27533    27525    27522    27526    27530    27534    27544    27557 
   27573    27592    27606    27616    27631    27649    27669    27683 
   27684    27673    27660    27652    27637    27618    27604    27594 
   27572    27535    27484    27427    27376    27326    27279    27240 
   27206    27170    27135    27108    27094    27085    27075    27076 
   27095    27129    27174    27225    27279    27325    27364    27400 
   27437    27479    27523    27557    27581    27600    27612    27622 
   27627    27623    27618    27618    27622    27629    27641    27649 
   27650    27652    27660    27669    27681    27695    27710    27734 
   27761    27785    27814    27843    27864    27874    27888    27904 
   27918    27926    27936    27947    27949    27950    27955    27954 
   27947    27932    27913    27897    27886    27874    27858    27835 
   27811    27795    27783    27765    27743    27720    27699    27684 
   27665    27641    27618    27594    27554    27503    27453    27406 
   27361    27315    27271    27226    27186    27147    27105    27063 
   27029    26995    26963    26931    26894    26862    26843    26829 
   26819    26816    26817    26812    26804    26808    26823    26838 
   26850    26859    26867    26870    26874    26886    26905    26928 
   26956    26990    27018    27040    27067    27102    27136    27162 
   27175    27187    27206    27230    27253    27276    27303    27333 
   27360    27380    27392    27402    27423    27461    27502    27525 
   27545    27575    27603    27623    27639    27648    27649    27649 
   27649    27648    27649    27648    27638    27615    27584    27560 
   27544    27521    27486    27453    27427    27399    27375    27355 
   27337    27325    27317    27301    27283    27276    27276    27282 
   27286    27286    27294    27318    27355    27392    27430    27476 
   27525    27569    27611    27650    27699    27750    27805    27874 
   27953    28028    28102    28174    28235    28296    28355    28397 
   28418    28435    28453    28466    28462    28448    28436    28426 
   28408    28366    28318    28283    28246    28196    28139    28078 
   28011    27953    27904    27853    27800    27749    27696    27643 
   27587    27521    27452    27387    27313    27229    27144    27067 
   26998    26931    26859    26786    26711    26640    26576    26512 
   26457    26427    26416    26410    26412    26430    26454    26493 
   26545    26605    26678    26758    26840    26932    27033    27130 
   27221    27311    27394    27460    27529    27596    27653    27712 
   27772    27823    27877    27924    27949    27962    27980    27996 
   28009    28016    28016    28019    28019    28013    28013    28013 
   28007    28001    27996    27982    27965    27939    27908    27881 
   27847    27799    27746    27696    27639    27572    27499    27426 
   27341    27244    27148    27059    26973    26883    26796    26711 
   26639    26581    26527    26484    26457    26446    26446    26446 
   26451    26476    26519    26576    26644    26720    26796    26871 
   26946    27016    27083    27157    27228    27292    27359    27432 
   27506    27569    27621    27672    27726    27780    27827    27868 
   27909    27954    28004    28055    28109    28162    28216    28273 
   28329    28385    28436    28482    28525    28563    28587    28597 
   28595    28591    28591    28576    28539    28497    28458    28418 
   28378    28333    28281    28221    28159    28101    28046    27993 
   27945    27893    27843    27805    27784    27766    27749    27734 
   27724    27723    27726    27724    27720    27718    27714    27718 
   27719    27708    27692    27676    27646    27606    27567    27525 
   27471    27410    27349    27290    27237    27193    27151    27108 
   27064    27027    26994    26979    26979    26977    26983    27002 
   27013    27020    27039    27056    27066    27078    27090    27093 
   27093    27099    27112    27114    27106    27093    27081    27071 
   27063    27051    27031    27012    27006    27010    27012    27017 
   27032    27055    27086    27120    27153    27190    27233    27286 
   27349    27418    27492    27568    27641    27708    27776    27841 
   27897    27947    27990    28016    28034    28051    28067    28074 
   28066    28047    28026    28000    27967    27920    27864    27815 
   27772    27722    27669    27625    27589    27550    27508    27472 
   27440    27409    27386    27369    27357    27352    27346    27353 
   27376    27406    27433    27454    27476    27503    27534    27571 
   27611    27645    27687    27738    27785    27831    27882    27932 
   27984    28042    28097    28154    28219    28271    28308    28343 
   28377    28398    28409    28410    28402    28391    28371    28335 
   28293    28251    28198    28132    28065    27996    27924    27849 
   27776    27702    27622    27545    27476    27409    27333    27257 
   27190    27133    27072    27008    26955    26919    26886    26852 
   26812    26774    26743    26715    26682    26644    26611    26582 
   26555    26534    26515    26499    26484    26476    26468    26455 
   26450    26460    26478    26499    26518    26538    26565    26600 
   26634    26657    26682    26720    26758    26788    26812    26835 
   26865    26897    26936    26985    27037    27085    27133    27190 
   27256    27328    27398    27468    27546    27630    27710    27787 
   27864    27936    28003    28063    28123    28183    28243    28294 
   28333    28363    28383    28399    28417    28431    28439    28439 
   28426    28406    28379    28336    28291    28259    28225    28188 
   28152    28116    28081    28047    28005    27957    27908    27857 
   27803    27749    27699    27645    27580    27517    27454    27390 
   27330    27280    27234    27195    27168    27148    27133    27122 
   27113    27108    27118    27143    27174    27213    27253    27291 
   27338    27392    27446    27499    27548    27587    27611    27616 
   27611    27602    27589    27569    27537    27491    27441    27390 
   27333    27274    27213    27147    27090    27048    27009    26977 
   26959    26947    26940    26943    26954    26977    27002    27027 
   27059    27102    27148    27193    27237    27276    27306    27328 
   27341    27352    27364    27372    27372    27356    27330    27314 
   27302    27282    27260    27243    27224    27213    27209    27217 
   27233    27252    27271    27288    27303    27324    27348    27371 
   27402    27436    27459    27475    27491    27500    27507    27517 
   27521    27514    27506    27502    27498    27494    27486    27477 
   27476    27480    27477    27469    27463    27457    27445    27430 
   27410    27388    27379    27379    27383    27391    27399    27403 
   27406    27411    27425    27440    27463    27490    27522    27553 
   27587    27623    27660    27693    27727    27760    27791    27823 
   27851    27881    27919    27950    27973    28000    28024    28042 
   28055    28059    28059    28065    28071    28077    28073    28057 
   28035    28017    28005    27990    27967    27936    27899    27858 
   27816    27764    27700    27635    27564    27481    27398    27319 
   27247    27171    27094    27029    26970    26908    26848    26797 
   26747    26707    26673    26640    26605    26576    26555    26536 
   26518    26500    26485    26472    26457    26442    26430    26415 
   26396    26373    26352    26335    26327    26325    26320    26311 
   26303    26300    26299    26302    26316    26347    26393    26451 
   26519    26590    26663    26742    26832    26931    27025    27118 
   27210    27301    27390    27476    27558    27638    27712    27777 
   27841    27904    27969    28030    28080    28132    28186    28229 
   28266    28302    28337    28364    28387    28416    28444    28475 
   28503    28528    28549    28575    28602    28626    28645    28657 
   28657    28651    28640    28629    28620    28606    28580    28545 
   28509    28474    28437    28393    28341    28287    28239    28189 
   28128    28069    28017    27974    27938    27904    27864    27818 
   27777    27742    27714    27695    27675    27648    27625    27602 
   27573    27548    27526    27502    27475    27450    27425    27399 
   27371    27340    27314    27299    27290    27290    27295    27309 
   27328    27348    27367    27388    27414    27445    27476    27510 
   27544    27569    27589    27606    27614    27619    27626    27630 
   27630    27627    27619    27603    27580    27550    27515    27477 
   27441    27403    27368    27336    27292    27245    27207    27179 
   27152    27132    27116    27102    27095    27090    27090    27108 
   27137    27179    27232    27291    27356    27423    27494    27568 
   27645    27726    27812    27895    27969    28046    28127    28208 
   28274    28332    28390    28443    28487    28526    28559    28583 
   28598    28602    28597    28586    28570    28545    28513    28472 
   28424    28364    28301    28233    28161    28086    28024    27970 
   27918    27864    27811    27764    27718    27669    27621    27580 
   27549    27517    27475    27419    27357    27297    27241    27183 
   27116    27045    26973    26893    26809    26721    26634    26555 
   26480    26410    26339    26272    26210    26153    26107    26084 
   26080    26090    26111    26149    26199    26261    26335    26418 
   26501    26588    26681    26781    26890    27006    27121    27233 
   27345    27454    27557    27660    27760    27853    27938    28027 
   28119    28210    28296    28374    28453    28528    28598    28669 
   28736    28787    28834    28879    28919    28950    28972    28983 
   28983    28972    28953    28925    28895    28867    28826    28775 
   28729    28690    28647    28593    28525    28462    28408    28351 
   28293    28243    28202    28166    28127    28080    28024    27963 
   27901    27841    27776    27703    27625    27552    27473    27382 
   27290    27191    27086    26978    26866    26747    26634    26531 
   26431    26331    26233    26137    26046    25963    25888    25824 
   25764    25710    25667    25636    25616    25609    25613    25624 
   25645    25678    25717    25759    25806    25860    25924    25995 
   26071    26152    26245    26338    26420    26499    26578    26659 
   26740    26817    26894    26968    27043    27112    27172    27225 
   27284    27346    27403    27459    27513    27565    27619    27676 
   27730    27780    27830    27884    27943    28008    28069    28124 
   28179    28229    28273    28312    28350    28381    28404    28422 
   28437    28448    28458    28466    28468    28467    28463    28456 
   28451    28444    28431    28412    28389    28356    28324    28294 
   28269    28244    28216    28188    28159    28124    28084    28047 
   28012    27977    27945    27911    27869    27826    27784    27738 
   27688    27635    27579    27521    27463    27392    27315    27238 
   27164    27090    27018    26952    26893    26839    26785    26730 
   26684    26649    26617    26580    26546    26526    26515    26508 
   26512    26523    26541    26569    26603    26631    26655    26685 
   26716    26743    26767    26790    26811    26831    26850    26867 
   26879    26887    26896    26902    26908    26917    26924    26925 
   26929    26937    26943    26943    26950    26967    26987    27009 
   27032    27058    27086    27113    27135    27155    27171    27186 
   27203    27220    27238    27256    27270    27278    27283    27287 
   27287    27291    27297    27297    27298    27305    27313    27317 
   27328    27345    27367    27395    27422    27446    27475    27514 
   27552    27581    27607    27633    27668    27714    27756    27796 
   27845    27891    27924    27953    27982    28015    28042    28057 
   28063    28065    28065    28057    28042    28032    28021    28001 
   27976    27949    27916    27886    27862    27837    27807    27777 
   27741    27702    27666    27631    27591    27550    27515    27476 
   27437    27395    27352    27315    27282    27249    27225    27199 
   27168    27141    27116    27098    27085    27068    27052    27036 
   27022    27014    27010    27016    27027    27043    27063    27089 
   27116    27140    27170    27214    27264    27317    27375    27437 
   27502    27562    27621    27677    27731    27777    27819    27851 
   27874    27889    27901    27911    27907    27893    27878    27858 
   27832    27811    27791    27765    27734    27706    27679    27653 
   27627    27606    27585    27565    27558    27569    27591    27622 
   27652    27685    27724    27760    27793    27834    27873    27905 
   27942    27984    28026    28062    28098    28136    28166    28183 
   28198    28210    28216    28223    28231    28232    28232    28228 
   28224    28217    28208    28194    28175    28150    28120    28098 
   28089    28084    28077    28071    28067    28063    28055    28039 
   28023    28005    27988    27970    27955    27945    27938    27932 
   27927    27920    27919    27924    27930    27926    27920    27915 
   27912    27909    27907    27905    27908    27905    27897    27891 
   27886    27882    27873    27858    27842    27826    27807    27787 
   27768    27738    27704    27672    27637    27596    27556    27514 
   27471    27423    27379    27344    27307    27267    27229    27194 
   27157    27126    27106    27091    27075    27056    27040    27029 
   27025    27022    27018    27021    27025    27020    27012    27004 
   26994    26986    26975    26959    26940    26916    26883    26850 
   26817    26790    26769    26752    26738    26724    26721    26724 
   26732    26747    26766    26785    26816    26858    26904    26954 
   27017    27090    27162    27230    27306    27382    27453    27521 
   27589    27656    27719    27784    27846    27904    27959    28005 
   28046    28088    28124    28155    28179    28204    28229    28252 
   28270    28286    28300    28313    28336    28363    28389    28414 
   28443    28467    28489    28507    28532    28559    28579    28590 
   28598    28605    28605    28595    28582    28563    28536    28502 
   28462    28410    28354    28294    28229    28151    28067    27988 
   27912    27839    27772    27710    27642    27565    27486    27411 
   27340    27274    27216    27160    27106    27055    27008    26963 
   26919    26871    26824    26778    26728    26677    26627    26581 
   26543    26507    26468    26430    26397    26369    26342    26323 
   26311    26303    26293    26291    26292    26300    26320    26349 
   26380    26415    26453    26493    26539    26580    26620    26665 
   26701    26731    26762    26792    26815    26835    26858    26882 
   26900    26909    26923    26940    26951    26962    26986    27013 
   27033    27056    27086    27118    27153    27198    27241    27280 
   27321    27361    27399    27436    27473    27514    27548    27577 
   27608    27637    27661    27683    27703    27724    27745    27761 
   27773    27776    27777    27783    27787    27788    27780    27768 
   27760    27749    27726    27704    27687    27668    27652    27641 
   27626    27610    27594    27585    27577    27564    27558    27568 
   27583    27599    27618    27634    27650    27672    27696    27722 
   27751    27778    27804    27828    27846    27858    27874    27884 
   27888    27891    27892    27892    27892    27892    27895    27899 
   27904    27908    27909    27915    27919    27918    27916    27918 
   27924    27936    27945    27953    27963    27972    27978    27989 
   28005    28023    28035    28046    28053    28063    28081    28094 
   28108    28124    28136    28148    28163    28175    28178    28179 
   28178    28173    28159    28140    28120    28097    28066    28035 
   28000    27954    27900    27843    27785    27722    27656    27589 
