Origin Time       2025/01/13 21:19:00
Lat.              31.8
Long.             131.6
Depth. (km)       30
Mag.              6.9
Station Code      TKSH03
Station Lat.      33.8778
Station Long.     134.1294
Station Height(m) 439
Record Time       2025/01/13 21:20:46
Sampling Freq(Hz) 100Hz
Duration Time(s)  120
Dir.              1
Scale Factor      2942(gal)/8224139
Max. Acc. (gal)   0.491
Last Correction   2025/01/13 21:20:47
Memo.             
[...]
  259507   259498   259474   259429   259391   259403   259459   259488 
  259465   259443   259461   259497   259529   259548   259546   259538 
  259545   259572   259615   259661   259702   259741   259769   259802 
  259856   259904   259914   259900   259897   259906   259904   259887 
  259850   259808   259798   259816   259834   259865   259910   259933 
  259930   259906   259862   259831   259825   259827   259827   259822 
  259819   259827   259829   259830   259839   259821   259781   259765 
  259769   259780   259783   259762   259733   259715   259702   259681 
  259671   259676   259675   259660   259654   259650   259633   259603 
  259569   259533   259505   259494   259482   259456   259440   259434 
  259428   259430   259456   259487   259519   259564   259615   259656 
  259686   259721   259760   259787   259798   259789   259783   259785 
  259780   259771   259769   259772   259777   259789   259814   259864 
  259923   259946   259937   259916   259887   259857   259837   259822 
  259818   259826   259843   259869   259889   259907   259926   259931 
  259916   259892   259883   259881   259870   259857   259846   259834 
  259838   259858   259870   259868   259864   259868   259880   259891 
  259883   259850   259808   259762   259696   259621   259564   259532 
  259515   259510   259524   259549   259559   259542   259532   259540 
  259546   259551   259569   259594   259613   259634   259652   259649 
  259629   259610   259611   259632   259644   259644   259644   259659 
  259692   259708   259690   259675   259675   259657   259633   259637 
  259659   259661   259638   259606   259599   259619   259637   259646 
  259656   259663   259671   259686   259699   259711   259733   259758 
  259777   259777   259764   259746   259737   259735   259718   259684 
  259650   259637   259646   259649   259649   259660   259653   259619 
  259600   259605   259600   259591   259592   259583   259557   259537 
  259532   259552   259586   259615   259648   259665   259673   259694 
  259696   259690   259708   259719   259719   259740   259749   259744 
  259758   259784   259792   259780   259754   259738   259740   259738 
  259725   259708   259694   259680   259676   259668   259648   259630 
  259618   259596   259578   259567   259555   259533   259501   259483 
  259492   259505   259517   259536   259541   259537   259549   259576 
  259587   259579   259588   259637   259696   259733   259746   259744 
  259725   259691   259636   259588   259575   259569   259564   259571 
  259573   259578   259578   259553   259529   259530   259541   259553 
  259571   259592   259621   259663   259696   259694   259673   259683 
  259715   259735   259744   259757   259779   259792   259798   259812 
  259829   259831   259823   259819   259833   259842   259816   259772 
  259737   259711   259687   259646   259594   259557   259528   259498 
  259494   259495   259484   259471   259448   259416   259398   259398 
  259398   259398   259410   259430   259448   259465   259491   259522 
  259555   259587   259617   259645   259661   259668   259677   259681 
  259677   259686   259702   259713   259719   259734   259760   259781 
  259785   259765   259746   259750   259756   259734   259714   259723 
  259746   259762   259773   259768   259741   259706   259681   259676 
  259681   259688   259698   259706   259718   259741   259753   259749 
  259745   259750   259761   259768   259767   259767   259765   259760 
  259750   259745   259742   259733   259717   259699   259676   259650 
  259630   259623   259626   259633   259636   259637   259645   259649 
  259657   259677   259677   259642   259599   259563   259529   259521 
  259533   259546   259551   259530   259498   259487   259491   259494 
  259502   259524   259549   259565   259568   259568   259575   259592 
  259614   259633   259633   259619   259629   259642   259636   259633 
  259634   259640   259672   259707   259722   259726   259714   259694 
  259702   259738   259762   259776   259788   259792   259785   259771 
  259758   259761   259781   259812   259833   259825   259800   259795 
  259815   259839   259856   259880   259918   259942   259939   259926 
  259902   259880   259876   259889   259918   259951   259969   259980 
  259988   259981   259962   259946   259939   259943   259949   259966 
  259983   259974   259961   259962   259965   259956   259935   259919 
  259914   259904   259887   259876   259879   259889   259911   259931 
  259938   259927   259906   259880   259860   259838   259826   259845 
  259865   259849   259816   259798   259783   259772   259772   259780 
  259776   259746   259707   259686   259668   259652   259653   259650 
  259629   259611   259611   259613   259609   259591   259563   259549 
  259563   259588   259614   259634   259652   259657   259653   259652 
  259653   259660   259680   259704   259718   259725   259723   259696 
  259661   259649   259657   259673   259692   259717   259742   259753 
  259748   259744   259748   259749   259748   259756   259760   259753 
  259758   259767   259742   259699   259671   259657   259653   259660 
  259671   259684   259704   259722   259727   259729   259731   259723 
  259699   259686   259687   259687   259683   259690   259702   259721 
  259748   259758   259748   259749   259773   259794   259800   259807 
  259811   259811   259810   259808   259802   259789   259769   259757 
  259765   259779   259780   259764   259744   259733   259740   259760 
  259773   259780   259794   259815   259842   259879   259912   259942 
  259957   259956   259945   259935   259933   259937   259941   259946 
  259961   259972   259966   259947   259927   259922   259920   259906 
  259893   259895   259891   259883   259875   259858   259831   259803 
  259785   259777   259757   259723   259698   259679   259657   259636 
  259610   259591   259594   259603   259613   259621   259630   259638 
  259636   259622   259605   259592   259591   259602   259614   259622 
  259619   259602   259575   259556   259544   259541   259560   259584 
  259591   259580   259564   259552   259545   259544   259555   259572 
  259571   259552   259551   259571   259588   259602   259613   259617 
  259615   259607   259599   259603   259625   259646   259659   259675 
  259707   259750   259787   259808   259821   259819   259814   259819 
  259816   259807   259806   259803   259800   259808   259808   259796 
  259772   259735   259704   259696   259696   259704   259722   259740 
  259746   259746   259744   259742   259744   259738   259721   259710 
  259703   259684   259661   259652   259654   259661   259663   259656 
  259644   259638   259648   259653   259650   259646   259648   259663 
  259671   259659   259652   259645   259632   259630   259648   259667 
  259683   259694   259692   259680   259671   259664   259659   259654 
  259649   259637   259617   259599   259594   259591   259595   259621 
  259656   259694   259737   259769   259788   259808   259829   259841 
  259842   259839   259848   259865   259891   259918   259935   259945 
  259949   259956   259962   259954   259945   259939   259926   259922 
  259929   259927   259919   259912   259910   259910   259899   259884 
  259868   259842   259815   259802   259792   259789   259799   259799 
  259783   259767   259757   259754   259758   259762   259765   259754 
  259731   259714   259704   259692   259676   259653   259629   259615 
  259613   259602   259579   259552   259529   259517   259513   259505 
  259491   259480   259470   259456   259437   259422   259417   259411 
  259416   259440   259476   259506   259536   259576   259607   259622 
  259633   259640   259648   259660   259680   259696   259699   259700 
  259710   259713   259700   259681   259677   259695   259713   259721 
  259726   259733   259729   259714   259704   259707   259714   259707 
  259696   259696   259687   259659   259627   259598   259572   259546 
  259514   259484   259453   259418   259380   259348   259328   259324 
  259325   259313   259295   259298   259314   259306   259278   259252 
  259224   259200   259186   259177   259162   259146   259131   259124 
  259120   259112   259096   259071   259062   259079   259098   259114 
  259146   259186   259227   259275   259332   259390   259457   259537 
  259607   259657   259702   259744   259775   259802   259829   259837 
  259841   259860   259873   259879   259904   259930   259939   259947 
  259962   259977   259995   260015   260032   260045   260039   260019 
  259996   259972   259947   259923   259895   259868   259850   259843 
  259839   259834   259827   259821   259815   259806   259796   259787 
  259768   259746   259741   259746   259757   259768   259775   259780 
  259788   259796   259803   259808   259812   259822   259838   259850 
  259858   259865   259877   259895   259904   259908   259912   259912 
  259906   259896   259885   259877   259872   259857   259833   259811 
  259798   259787   259779   259775   259771   259769   259768   259761 
  259750   259737   259723   259719   259717   259707   259703   259703 
  259696   259687   259683   259681   259686   259698   259721   259752 
  259772   259780   259789   259796   259780   259758   259753   259745 
  259734   259740   259744   259748   259752   259741   259722   259708 
  259696   259686   259679   259671   259660   259644   259613   259576 
  259556   259544   259529   259513   259503   259501   259513   259529 
  259533   259538   259557   259578   259602   259625   259626   259637 
  259664   259686   259707   259730   259748   259765   259791   259825 
  259861   259887   259915   259945   259954   259953   259961   259972 
  259987   260007   260022   260032   260039   260042   260032   260014 
  260007   260032   260066   260077   260077   260084   260096   260111 
  260128   260146   260161   260174   260190   260203   260215   260234 
  260253   260265   260273   260282   260290   260304   260319   260338 
  260359   260379   260402   260425   260440   260448   260448   260451 
  260458   260456   260446   260435   260427   260420   260405   260390 
  260383   260382   260392   260408   260417   260421   260428   260427 
  260420   260416   260410   260396   260381   260373   260365   260344 
  260319   260282   260243   260216   260194   260169   260143   260112 
  260078   260055   260037   260019   259997   259976   259956   259934 
  259903   259866   259838   259810   259779   259749   259710   259660 
  259609   259557   259505   259453   259401   259345   259286   259227 
  259181   259146   259119   259104   259094   259079   259063   259048 
  259035   259023   259012   258997   258989   258988   258982   258981 
  258990   259004   259015   259025   259038   259054   259070   259078 
  259078   259074   259075   259092   259100   259096   259082   259058 
  259039   259040   259050   259077   259117   259143   259170   259214 
  259247   259275   259306   259326   259355   259393   259436   259486 
  259534   259580   259622   259660   259702   259750   259792   259822 
  259852   259892   259931   259961   259976   259985   260000   260019 
  260026   260031   260041   260037   260027   260024   260027   260034 
  260035   260037   260042   260055   260077   260089   260095   260111 
  260124   260124   260124   260127   260128   260135   260138   260134 
  260134   260134   260132   260132   260130   260123   260116   260111 
  260109   260092   260059   260041   260032   260011   259978   259949 
  259918   259880   259834   259791   259750   259710   259677   259646 
  259611   259575   259544   259510   259475   259445   259428   259409 
  259386   259379   259380   259376   259376   259387   259403   259422 
  259426   259411   259401   259405   259410   259420   259438   259459 
  259472   259479   259484   259492   259507   259529   259548   259569 
  259591   259607   259617   259633   259660   259680   259691   259706 
  259730   259753   259769   259789   259818   259839   259854   259870 
  259887   259904   259927   259946   259960   259968   259973   259980 
  259991   260007   260019   260030   260045   260058   260064   260068 
  260081   260096   260108   260116   260113   260107   260097   260081 
  260069   260068   260061   260051   260043   260030   260015   260010 
  260008   259997   259977   259958   259942   259920   259903   259889 
  259876   259864   259846   259818   259787   259756   259725   259698 
  259669   259634   259584   259537   259505   259475   259441   259405 
  259368   259345   259337   259330   259318   259312   259308   259305 
  259312   259320   259317   259322   259345   259375   259398   259414 
  259437   259465   259486   259506   259526   259532   259538   259555 
  259561   259555   259541   259525   259499   259472   259452   259434 
  259420   259418   259421   259432   259445   259451   259457   259468 
  259476   259497   259537   259582   259621   259664   259713   259761 
  259808   259853   259896   259950   260003   260041   260070   260095 
  260096   260081   260062   260043   260022   259997   259981   259961 
  259926   259889   259854   259819   259787   259756   259738   259722 
  259687   259646   259607   259568   259537   259517   259499   259480 
  259456   259418   259368   259332   259303   259259   259201   259139 
  259082   259036   258994   258952   258905   258850   258800   258758 
  258718   258672   258626   258581   258542   258507   258465   258431 
  258407   258379   258357   258350   258341   258330   258330   258341 
  258354   258373   258403   258441   258489   258547   258601   258657 
  258722   258784   258847   258907   258967   259051   259144   259229 
  259309   259393   259480   259571   259661   259746   259818   259879 
  259926   259960   259995   260041   260089   260130   260169   260208 
  260253   260300   260346   260394   260439   260469   260494   260539 
  260594   260639   260680   260721   260744   260759   260766   260760 
  260759   260767   260778   260782   260772   260749   260726   260701 
  260676   260660   260647   260621   260591   260568   260554   260541 
  260529   260527   260537   260544   260551   260568   260591   260618 
  260644   260664   260689   260716   260739   260756   260782   260810 
  260825   260833   260847   260856   260855   260848   260837   260820 
  260794   260757   260722   260689   260647   260593   260531   260466 
  260404   260339   260266   260188   260112   260042   259983   259931 
  259879   259822   259773   259730   259680   259632   259592   259544 
  259487   259433   259380   259336   259299   259251   259205   259171 
  259132   259089   259046   259009   258981   258961   258948   258944 
  258943   258943   258943   258936   258936   258947   258957   258970 
  258993   259013   259028   259040   259052   259071   259098   259123 
  259150   259181   259208   259237   259279   259324   259367   259421 
  259478   259532   259579   259617   259640   259649   259660   259686 
  259718   259744   259768   259798   259826   259849   259872   259891 
  259907   259923   259945   259965   259976   259983   259989   259993 
  260000   260015   260018   260011   260014   260019   260024   260037 
  260043   260035   260022   260004   259976   259942   259903   259857 
  259810   259767   259727   259691   259648   259607   259578   259545 
  259510   259475   259436   259394   259368   259348   259320   259291 
  259259   259214   259168   259125   259075   259024   258982   258944 
  258912   258882   258849   258820   258801   258786   258774   258776 
  258793   258820   258839   258849   258859   258874   258890   258907 
  258924   258939   258946   258951   258954   258955   258961   258969 
  258982   258993   258986   258978   258978   258984   258990   259000 
  259012   259016   259001   258986   258986   258993   259004   259025 
  259050   259074   259104   259132   259156   259181   259214   259247 
  259272   259309   259356   259402   259448   259501   259556   259607 
  259656   259710   259753   259796   259856   259912   259953   259989 
  260024   260062   260101   260139   260180   260220   260250   260275 
  260300   260313   260324   260340   260358   260366   260371   260383 
  260408   260425   260435   260451   260475   260493   260506   260521 
  260528   260529   260533   260532   260525   260528   260541   260551 
  260558   260571   260586   260595   260604   260618   260628   260632 
  260644   260667   260694   260722   260753   260790   260818   260833 
  260848   260855   260848   260833   260818   260803   260784   260763 
  260733   260691   260647   260602   260550   260489   260421   260354 
  260292   260232   260172   260118   260073   260032   259989   259939 
  259884   259834   259785   259730   259667   259598   259529   259474 
  259434   259394   259348   259298   259237   259171   259117   259069 
  259019   258975   258934   258881   258826   258776   258728   258681 
  258643   258615   258588   258570   258557   258539   258537   258543 
  258546   258558   258585   258616   258649   258685   258724   258769 
  258812   258859   258909   258963   259025   259083   259131   259186 
  259241   259286   259336   259383   259420   259453   259490   259534 
  259587   259640   259691   259741   259796   259853   259904   259954 
  260007   260061   260113   260159   260201   260247   260300   260354 
  260397   260431   260456   260477   260490   260500   260513   260525 
  260529   260527   260518   260514   260518   260513   260504   260501 
  260494   260482   260466   260446   260428   260406   260379   260342 
  260292   260235   260174   260112   260054   259995   259930   259865 
  259803   259734   259664   259596   259530   259467   259407   259347 
  259282   259218   259158   259087   259019   258965   258917   258869 
  258826   258793   258763   258734   258696   258664   258643   258634 
  258634   258645   258662   258685   258709   258734   258770   258816 
  258869   258938   259011   259083   259167   259251   259332   259414 
  259501   259592   259677   259753   259827   259899   259966   260032 
  260092   260149   260211   260275   260336   260388   260428   260462 
  260491   260525   260560   260597   260636   260672   260693   260701 
  260699   260686   260664   260641   260614   260578   260537   260494 
  260446   260398   260355   260315   260274   260234   260193   260153 
  260115   260082   260045   260001   259974   259958   259923   259879 
  259839   259795   259741   259680   259617   259551   259488   259437 
  259387   259336   259291   259251   259206   259163   259128   259096 
  259066   259035   259000   258974   258958   258940   258920   258896 
  258873   258850   258824   258800   258786   258781   258777   258769 
  258759   258754   258751   258747   258753   258766   258778   258800 
  258830   258861   258898   258942   258996   259063   259128   259183 
  259240   259301   259362   259416   259460   259505   259553   259609 
  259675   259734   259785   259843   259897   259943   259987   260027 
  260065   260097   260130   260163   260199   260239   260277   260302 
  260325   260350   260374   260401   260432   260469   260508   260551 
  260598   260640   260667   260689   260703   260714   260729   260744 
  260751   260753   260756   260748   260733   260717   260699   260676 
