Origin Time       2025/01/13 21:19:00
Lat.              31.8
Long.             131.6
Depth. (km)       30
Mag.              6.9
Station Code      TKSH02
Station Lat.      34.0112
Station Long.     134.0918
Station Height(m) 90
Record Time       2025/01/13 21:20:41
Sampling Freq(Hz) 100Hz
Duration Time(s)  133
Dir.              2
Scale Factor      3923(gal)/8224838
Max. Acc. (gal)   0.421
Last Correction   2025/01/13 21:20:42
Memo.             
[...]
   60691    60689    60701    60720    60728    60731    60743    60756 
   60758    60756    60751    60733    60714    60724    60764    60795 
   60783    60759    60764    60787    60806    60825    60852    60878 
   60882    60863    60843    60843    60853    60859    60863    60868 
   60866    60849    60833    60821    60810    60802    60804    60805 
   60804    60794    60777    60762    60760    60764    60755    60740 
   60747    60775    60794    60790    60775    60774    60787    60794 
   60783    60774    60774    60779    60781    60775    60768    60767 
   60771    60777    60789    60801    60802    60795    60791    60799 
   60816    60825    60822    60814    60810    60817    60828    60828 
   60822    60826    60814    60777    60762    60794    60821    60809 
   60793    60812    60841    60829    60794    60779    60770    60740 
   60713    60710    60718    60716    60690    60666    60663    60674 
   60677    60656    60616    60589    60594    60608    60613    60609 
   60592    60569    60562    60579    60609    60631    60639    60652 
   60678    60702    60716    60733    60768    60816    60862    60875 
   60859    60848    60856    60856    60847    60851    60868    60870 
   60864    60876    60890    60863    60802    60770    60778    60779 
   60762    60748    60731    60694    60660    60640    60623    60589 
   60548    60521    60507    60488    60459    60428    60408    60397 
   60374    60345    60326    60318    60312    60308    60304    60311 
   60320    60328    60353    60389    60407    60399    60389    60399 
   60431    60471    60501    60516    60515    60520    60546    60569 
   60570    60571    60593    60619    60625    60640    60681    60709 
   60708    60708    60720    60732    60743    60747    60731    60704 
   60687    60691    60700    60691    60682    60687    60696    60691 
   60681    60677    60683    60700    60727    60754    60759    60759 
   60779    60821    60860    60893    60921    60940    60939    60930 
   60934    60941    60940    60944    60953    60949    60945    60960 
   60982    60994    61002    61010    61015    61018    61024    61034 
   61025    60990    60963    60963    60961    60945    60924    60907 
   60901    60898    60891    60871    60836    60809    60790    60770 
   60752    60747    60751    60755    60745    60735    60737    60737 
   60723    60710    60717    60727    60720    60705    60696    60683 
   60664    60647    60646    60654    60656    60650    60643    60658 
   60693    60714    60714    60716    60731    60750    60758    60759 
   60772    60789    60804    60817    60822    60813    60791    60783 
   60790    60779    60745    60718    60709    60701    60677    60644 
   60624    60620    60624    60631    60643    60663    60683    60704 
   60729    60760    60795    60828    60853    60876    60902    60930 
   60953    60964    60971    60979    60990    60991    60986    60983 
   60986    60979    60964    60949    60934    60921    60910    60910 
   60922    60934    60934    60924    60916    60918    60926    60913 
   60886    60863    60845    60836    60826    60793    60737    60689 
   60655    60627    60605    60588    60567    60540    60517    60501 
   60488    60475    60470    60485    60508    60509    60493    60494 
   60511    60525    60539    60559    60574    60577    60586    60619 
   60656    60669    60674    60708    60752    60772    60781    60791 
   60797    60790    60783    60795    60825    60840    60837    60832 
   60829    60828    60822    60822    60840    60859    60870    60882 
   60899    60893    60859    60836    60845    60860    60858    60848 
   60853    60859    60845    60833    60833    60831    60829    60837 
   60843    60840    60836    60822    60795    60768    60762    60772 
   60782    60787    60802    60822    60843    60870    60907    60947 
   60971    60988    61017    61052    61082    61110    61134    61149 
   61159    61168    61188    61217    61227    61221    61217    61225 
   61230    61222    61214    61207    61186    61150    61121    61107 
   61090    61059    61036    61030    61021    60990    60948    60912 
   60874    60839    60816    60793    60762    60744    60741    60736 
   60720    60705    60712    60725    60720    60700    60687    60698 
   60727    60752    60767    60778    60809    60847    60867    60872 
   60876    60879    60876    60880    60903    60914    60899    60886 
   60891    60889    60866    60848    60848    60855    60845    60825 
   60820    60828    60825    60804    60789    60786    60767    60733 
   60700    60667    60632    60597    60563    60527    60490    60461 
   60443    60426    60392    60353    60332    60318    60282    60247 
   60232    60218    60192    60172    60166    60172    60176    60183 
   60201    60222    60238    60261    60293    60336    60386    60443 
   60505    60566    60624    60674    60709    60725    60735    60756 
   60795    60837    60862    60870    60876    60880    60880    60886 
   60894    60897    60903    60914    60912    60882    60848    60833 
   60825    60799    60763    60737    60718    60696    60667    60648 
   60647    60650    60637    60613    60600    60609    60623    60629 
   60644    60671    60693    60704    60720    60743    60751    60743 
   60736    60740    60758    60778    60794    60809    60821    60836 
   60856    60870    60880    60889    60880    60858    60843    60843 
   60837    60824    60821    60821    60812    60802    60797    60789 
   60768    60745    60736    60739    60732    60713    60697    60693 
   60693    60690    60681    60673    60666    60658    60652    60648 
   60644    60646    60655    60667    60663    60643    60625    60617 
   60609    60600    60592    60577    60551    60524    60504    60496 
   60490    60482    60470    60463    60461    60453    60457    60482 
   60505    60508    60490    60469    60466    60480    60477    60457 
   60434    60413    60390    60366    60351    60343    60334    60316 
   60301    60297    60299    60299    60297    60296    60305    60327 
   60353    60384    60417    60454    60496    60547    60597    60628 
   60644    60660    60681    60697    60712    60735    60762    60787 
   60814    60836    60840    60829    60824    60824    60810    60789 
   60774    60767    60759    60744    60736    60744    60750    60748 
   60758    60786    60816    60840    60864    60893    60907    60907 
   60907    60912    60920    60925    60924    60928    60933    60934 
   60934    60929    60924    60916    60894    60862    60829    60808 
   60789    60755    60712    60682    60670    60666    60652    60632 
   60624    60633    60644    60650    60659    60677    60690    60693 
   60689    60682    60678    60690    60706    60716    60724    60731 
   60720    60693    60667    60655    60650    60632    60609    60596 
   60586    60571    60548    60531    60519    60509    60505    60512 
   60520    60523    60525    60523    60513    60515    60525    60536 
   60551    60574    60590    60601    60623    60658    60700    60737 
   60763    60805    60867    60924    60970    61024    61086    61138 
   61183    61227    61267    61295    61318    61341    61360    61369 
   61376    61381    61377    61369    61371    61391    61418    61420 
   61391    61350    61304    61254    61219    61199    61167    61113 
   61057    61009    60959    60905    60862    60829    60793    60743 
   60697    60667    60642    60613    60600    60597    60593    60582 
   60570    60567    60578    60583    60582    60590    60601    60597 
   60575    60558    60561    60563    60539    60500    60477    60471 
   60470    60471    60474    60466    60454    60444    60440    60443 
   60436    60428    60436    60453    60467    60475    60478    60481 
   60485    60485    60477    60469    60461    60446    60434    60420 
   60394    60366    60351    60338    60313    60286    60272    60262 
   60237    60203    60187    60188    60181    60166    60169    60185 
   60192    60200    60230    60266    60289    60305    60335    60373 
   60396    60427    60488    60544    60567    60585    60620    60656 
   60682    60701    60724    60754    60766    60760    60764    60782 
   60798    60808    60818    60829    60843    60855    60864    60870 
   60868    60868    60874    60885    60902    60922    60924    60912 
   60912    60925    60932    60932    60940    60960    60978    60988 
   60999    61017    61042    61069    61090    61094    61083    61083 
   61094    61109    61118    61118    61117    61115    61118    61123 
   61126    61121    61118    61132    61159    61186    61209    61233 
   61252    61254    61246    61234    61223    61218    61214    61209 
   61191    61165    61144    61128    61107    61083    61057    61026 
   60994    60964    60936    60905    60875    60844    60810    60774 
   60728    60678    60648    60639    60621    60588    60555    60538 
   60536    60536    60525    60512    60502    60501    60508    60508 
   60497    60484    60480    60482    60486    60488    60485    60488 
   60497    60505    60504    60498    60496    60498    60501    60504 
   60512    60529    60547    60559    60571    60581    60581    60579 
   60579    60570    60556    60544    60532    60521    60513    60513 
   60523    60531    60540    60562    60589    60609    60625    60652 
   60691    60729    60770    60820    60868    60912    60951    60993 
   61041    61083    61105    61123    61141    61141    61132    61130 
   61134    61141    61142    61130    61106    61069    61034    61014 
   60999    60982    60963    60944    60929    60917    60899    60880 
   60866    60851    60829    60812    60808    60808    60799    60786 
   60775    60767    60754    60729    60709    60700    60690    60677 
   60662    60658    60662    60647    60619    60604    60606    60609 
   60605    60608    60621    60637    60647    60655    60677    60712 
   60748    60787    60828    60863    60889    60906    60928    60957 
   60991    61033    61074    61105    61122    61142    61177    61213 
   61230    61237    61248    61264    61281    61295    61304    61306 
   61302    61296    61292    61288    61273    61254    61238    61217 
   61183    61145    61125    61123    61119    61106    61096    61102 
   61103    61098    61103    61122    61144    61157    61168    61180 
   61188    61180    61157    61137    61128    61121    61106    61088 
   61067    61034    60999    60959    60910    60847    60779    60716 
   60654    60594    60531    60474    60426    60369    60304    60254 
   60216    60173    60133    60106    60097    60091    60072    60050 
   60041    60043    60050    60066    60091    60111    60129    60150 
   60172    60191    60205    60226    60253    60269    60273    60277 
   60286    60301    60315    60324    60332    60340    60346    60345 
   60328    60313    60311    60313    60313    60309    60303    60305 
   60311    60305    60299    60297    60295    60296    60307    60323 
   60335    60345    60366    60401    60435    60461    60481    60500 
   60515    60524    60535    60551    60566    60581    60596    60604 
   60619    60637    60655    60669    60678    60693    60724    60764 
   60805    60847    60887    60930    60974    61010    61041    61078 
   61122    61165    61204    61242    61276    61311    61349    61383 
   61411    61433    61449    61468    61489    61508    61522    61528 
   61528    61524    61518    61512    61501    61487    61480    61484 
   61480    61464    61447    61442    61438    61426    61420    61422 
   61419    61406    61387    61364    61331    61287    61236    61186 
   61138    61090    61038    60993    60952    60905    60860    60822 
   60783    60739    60704    60683    60662    60631    60601    60579 
   60559    60534    60516    60517    60519    60508    60498    60501 
   60508    60512    60520    60539    60556    60558    60550    60552 
   60563    60566    60556    60550    60554    60547    60525    60502 
   60485    60470    60455    60439    60423    60411    60400    60388 
   60372    60347    60328    60320    60311    60289    60262    60242 
   60230    60216    60204    60200    60210    60218    60222    60237 
   60265    60286    60300    60312    60320    60331    60349    60367 
   60393    60424    60450    60477    60512    60551    60589    60628 
   60670    60713    60760    60812    60856    60897    60945    60991 
   61029    61074    61129    61187    61233    61263    61299    61346 
   61380    61400    61420    61445    61458    61456    61449    61452 
   61457    61452    61435    61414    61391    61368    61356    61341 
   61315    61300    61302    61294    61277    61268    61271    61273 
   61269    61263    61261    61264    61252    61234    61230    61231 
   61213    61187    61167    61148    61130    61107    61075    61042 
   61011    60975    60934    60898    60867    60840    60809    60778 
   60752    60729    60710    60701    60698    60697    60701    60710 
   60725    60747    60772    60806    60837    60859    60876    60897 
   60921    60959    60995    61014    61020    61026    61033    61026 
   61006    60982    60944    60890    60835    60787    60739    60671 
   60597    60531    60466    60397    60324    60251    60189    60139 
   60093    60049    60002    59958    59930    59911    59894    59886 
   59890    59890    59886    59887    59894    59911    59938    59967 
   59991    60007    60022    60048    60076    60103    60137    60170 
   60193    60218    60251    60296    60345    60381    60413    60455 
   60492    60519    60544    60570    60596    60625    60650    60671 
   60694    60712    60720    60720    60720    60724    60737    60759 
   60774    60771    60760    60762    60767    60766    60764    60766 
   60763    60759    60758    60760    60766    60775    60790    60801 
   60808    60817    60831    60844    60853    60864    60876    60893 
   60912    60928    60943    60952    60966    60979    60986    60993 
   61009    61029    61047    61060    61075    61098    61119    61128 
   61130    61141    61153    61160    61164    61172    61182    61182 
   61167    61160    61165    61167    61160    61149    61134    61125 
   61119    61111    61099    61084    61076    61079    61088    61087 
   61074    61065    61057    61037    61010    60986    60966    60936 
   60898    60864    60835    60790    60741    60701    60670    60643 
   60613    60589    60578    60570    60556    60540    60529    60519 
   60507    60509    60519    60513    60502    60505    60519    60532 
   60540    60547    60565    60583    60590    60600    60617    60635 
   60647    60659    60673    60681    60679    60673    60663    60651 
   60640    60636    60636    60632    60628    60631    60636    60636 
   60628    60620    60612    60604    60588    60571    60570    60569 
   60548    60519    60484    60450    60428    60407    60378    60346 
   60312    60285    60278    60289    60292    60288    60295    60318 
   60350    60372    60377    60385    60416    60461    60496    60521 
   60558    60605    60650    60691    60732    60771    60814    60855 
   60895    60939    60975    61007    61041    61076    61114    61148 
   61177    61213    61245    61271    61299    61338    61375    61398 
   61415    61434    61450    61462    61466    61465    61458    61445 
   61427    61411    61389    61356    61310    61260    61215    61165 
   61098    61029    60972    60924    60876    60836    60795    60755 
   60713    60659    60610    60592    60575    60543    60513    60492 
   60474    60461    60453    60448    60447    60448    60459    60471 
   60477    60481    60497    60517    60525    60531    60555    60588 
   60615    60643    60674    60697    60720    60754    60790    60826 
   60863    60894    60922    60948    60963    60970    60974    60975 
   60979    60988    60988    60980    60971    60960    60949    60939 
   60930    60926    60921    60921    60936    60951    60955    60959 
   60971    60987    61002    61017    61041    61072    61105    61133 
   61163    61196    61219    61231    61248    61269    61292    61312 
   61319    61322    61329    61335    61344    61354    61356    61349 
   61341    61334    61337    61346    61350    61353    61360    61360 
   61354    61357    61365    61366    61365    61358    61348    61350 
   61364    61380    61391    61391    61384    61381    61380    61375 
   61375    61369    61354    61335    61307    61273    61246    61221 
   61183    61133    61080    61034    60990    60941    60893    60839 
   60779    60724    60674    60629    60586    60539    60489    60443 
   60403    60370    60338    60299    60262    60239    60219    60192 
   60168    60154    60146    60135    60133    60137    60131    60116 
   60115    60127    60147    60169    60188    60208    60224    60230 
   60234    60249    60274    60300    60316    60328    60347    60381 
   60423    60457    60484    60521    60566    60617    60670    60720 
   60767    60814    60843    60867    60903    60939    60967    60995 
   61024    61049    61065    61075    61082    61084    61078    61059 
   61030    60993    60952    60907    60856    60806    60764    60721 
   60681    60643    60610    60590    60579    60571    60567    60575 
   60590    60605    60619    60635    60663    60701    60737    60774 
   60814    60856    60889    60920    60949    60976    60999    61010 
   61018    61033    61037    61029    61013    60997    60978    60949 
   60920    60898    60883    60870    60860    60858    60855    60849 
   60849    60855    60855    60858    60870    60894    60929    60963 
   60988    61015    61044    61067    61088    61118    61146    61167 
   61184    61204    61215    61221    61229    61238    61248    61254 
   61260    61261    61252    61236    61217    61203    61192    61175 
   61153    61132    61102    61065    61036    61011    60986    60960 
   60934    60909    60886    60871    60859    60839    60816    60798 
   60777    60744    60713    60687    60667    60648    60628    60612 
   60600    60588    60574    60569    60567    60558    60547    60547 
   60555    60562    60565    60571    60578    60582    60586    60597 
   60619    60643    60658    60670    60689    60706    60720    60735 
   60747    60752    60756    60762    60770    60778    60787    60795 
   60806    60820    60825    60824    60822    60816    60809    60805 
   60808    60812    60820    60832    60841    60843    60843    60841 
   60845    60852    60849    60839    60831    60822    60810    60802 
   60795    60789    60774    60756    60743    60732    60718    60697 
   60671    60652    60640    60632    60624    60612    60598    60585 
   60571    60558    60548    60546    60546    60548    60565    60586 
   60602    60616    60629    60646    60659    60664    60677    60697 
   60710    60716    60728    60750    60766    60781    60791    60798 
   60809    60821    60826    60836    60851    60872    60901    60930 
   60960    60991    61021    61032    61028    61025    61033    61044 
