Origin Time       2025/01/13 21:19:00
Lat.              31.8
Long.             131.6
Depth. (km)       30
Mag.              6.9
Station Code      TKSH04
Station Lat.      33.9902
Station Long.     134.5337
Station Height(m) -90
Record Time       2025/01/13 21:21:06
Sampling Freq(Hz) 100Hz
Duration Time(s)  120
Dir.              2
Scale Factor      2942(gal)/8224139
Max. Acc. (gal)   0.326
Last Correction   2025/01/13 21:21:07
Memo.             
[...]
   -1329    -1332    -1323    -1304    -1283    -1270    -1258    -1250 
   -1251    -1256    -1258    -1256    -1243    -1227    -1212    -1196 
   -1181    -1166    -1152    -1139    -1124    -1111    -1096    -1082 
   -1071    -1065    -1071    -1092    -1109    -1123    -1136    -1152 
   -1170    -1185    -1204    -1240    -1281    -1313    -1345    -1375 
   -1398    -1433    -1475    -1507    -1533    -1553    -1561    -1556 
   -1547    -1534    -1520    -1506    -1497    -1479    -1451    -1416 
   -1381    -1350    -1329    -1323    -1317    -1309    -1301    -1296 
   -1298    -1310    -1324    -1336    -1341    -1335    -1325    -1331 
   -1350    -1364    -1363    -1352    -1335    -1318    -1308    -1291 
   -1269    -1258    -1270    -1287    -1297    -1294    -1286    -1283 
   -1279    -1277    -1266    -1244    -1231    -1231    -1233    -1242 
   -1254    -1264    -1271    -1281    -1286    -1282    -1278    -1286 
   -1304    -1321    -1332    -1340    -1344    -1344    -1337    -1329 
   -1325    -1316    -1304    -1297    -1291    -1289    -1285    -1285 
   -1300    -1325    -1360    -1405    -1448    -1480    -1506    -1536 
   -1564    -1588    -1617    -1656    -1691    -1710    -1715    -1717 
   -1723    -1734    -1734    -1726    -1722    -1721    -1729    -1740 
   -1742    -1733    -1719    -1706    -1688    -1674    -1664    -1655 
   -1653    -1659    -1663    -1671    -1682    -1686    -1675    -1652 
   -1624    -1603    -1595    -1597    -1605    -1610    -1606    -1591 
   -1571    -1556    -1549    -1549    -1547    -1539    -1533    -1532 
   -1530    -1526    -1516    -1499    -1476    -1444    -1409    -1382 
   -1362    -1347    -1341    -1343    -1343    -1340    -1336    -1332 
   -1328    -1329    -1333    -1332    -1331    -1336    -1341    -1352 
   -1375    -1394    -1404    -1406    -1395    -1378    -1375    -1387 
   -1394    -1402    -1418    -1437    -1453    -1472    -1489    -1497 
   -1509    -1521    -1528    -1536    -1547    -1553    -1560    -1563 
   -1567    -1579    -1587    -1591    -1597    -1594    -1583    -1570 
   -1551    -1530    -1525    -1534    -1544    -1545    -1547    -1540 
   -1518    -1495    -1478    -1449    -1418    -1409    -1406    -1402 
   -1402    -1399    -1398    -1397    -1381    -1350    -1320    -1301 
   -1287    -1274    -1267    -1262    -1252    -1235    -1204    -1183 
   -1185    -1186    -1179    -1179    -1183    -1188    -1197    -1223 
   -1251    -1264    -1264    -1267    -1278    -1283    -1285    -1294 
   -1301    -1302    -1320    -1344    -1367    -1394    -1414    -1414 
   -1410    -1412    -1418    -1436    -1448    -1441    -1429    -1421 
   -1416    -1421    -1429    -1426    -1421    -1417    -1409    -1405 
   -1409    -1412    -1412    -1402    -1397    -1404    -1416    -1437 
   -1466    -1482    -1491    -1501    -1505    -1501    -1497    -1497 
   -1498    -1494    -1489    -1490    -1497    -1493    -1479    -1462 
   -1439    -1420    -1406    -1390    -1382    -1378    -1371    -1364 
   -1362    -1363    -1363    -1356    -1348    -1345    -1344    -1348 
   -1363    -1370    -1358    -1354    -1362    -1370    -1385    -1402 
   -1408    -1413    -1418    -1421    -1425    -1428    -1436    -1451 
   -1468    -1478    -1479    -1472    -1459    -1444    -1433    -1426 
   -1421    -1418    -1413    -1406    -1390    -1375    -1366    -1359 
   -1356    -1359    -1362    -1370    -1381    -1390    -1404    -1420 
   -1422    -1424    -1436    -1433    -1416    -1412    -1418    -1420 
   -1421    -1428    -1431    -1429    -1424    -1417    -1414    -1416 
   -1409    -1405    -1408    -1402    -1387    -1375    -1358    -1336 
   -1317    -1301    -1287    -1282    -1281    -1282    -1286    -1297 
   -1308    -1320    -1333    -1345    -1352    -1359    -1367    -1382 
   -1398    -1409    -1409    -1402    -1395    -1394    -1394    -1393 
   -1391    -1395    -1398    -1405    -1410    -1409    -1402    -1401 
   -1399    -1398    -1401    -1405    -1410    -1420    -1439    -1466 
   -1485    -1494    -1499    -1502    -1497    -1485    -1475    -1472 
   -1479    -1494    -1499    -1490    -1476    -1462    -1447    -1437 
   -1426    -1416    -1408    -1391    -1370    -1360    -1356    -1351 
   -1351    -1344    -1323    -1304    -1287    -1278    -1282    -1283 
   -1274    -1266    -1256    -1236    -1225    -1229    -1243    -1260 
   -1269    -1264    -1264    -1266    -1266    -1271    -1278    -1281 
   -1285    -1291    -1287    -1278    -1286    -1302    -1314    -1320 
   -1323    -1327    -1329    -1321    -1320    -1329    -1337    -1347 
   -1356    -1356    -1362    -1381    -1397    -1412    -1424    -1426 
   -1433    -1439    -1429    -1416    -1398    -1381    -1371    -1359 
   -1341    -1332    -1318    -1296    -1275    -1252    -1221    -1201 
   -1194    -1192    -1193    -1198    -1206    -1204    -1201    -1194 
   -1182    -1175    -1169    -1161    -1163    -1171    -1183    -1197 
   -1208    -1221    -1242    -1263    -1281    -1287    -1293    -1298 
   -1296    -1297    -1296    -1296    -1314    -1335    -1340    -1344 
   -1343    -1333    -1328    -1336    -1348    -1359    -1375    -1393 
   -1404    -1417    -1443    -1476    -1512    -1536    -1556    -1578 
   -1594    -1615    -1633    -1638    -1648    -1655    -1659    -1678 
   -1698    -1711    -1726    -1737    -1737    -1728    -1715    -1703 
   -1698    -1691    -1676    -1663    -1653    -1648    -1645    -1636 
   -1617    -1599    -1583    -1564    -1549    -1539    -1529    -1521 
   -1512    -1501    -1485    -1462    -1432    -1409    -1393    -1381 
   -1377    -1377    -1375    -1377    -1374    -1360    -1344    -1332 
   -1328    -1331    -1337    -1345    -1343    -1332    -1327    -1325 
   -1320    -1317    -1314    -1313    -1308    -1297    -1286    -1271 
   -1255    -1246    -1244    -1240    -1232    -1225    -1228    -1236 
   -1250    -1256    -1251    -1256    -1266    -1274    -1286    -1305 
   -1328    -1344    -1359    -1374    -1389    -1406    -1425    -1435 
   -1435    -1436    -1435    -1436    -1452    -1474    -1485    -1491 
   -1501    -1501    -1490    -1486    -1482    -1474    -1472    -1472 
   -1474    -1480    -1480    -1480    -1482    -1476    -1470    -1472 
   -1479    -1487    -1495    -1501    -1505    -1512    -1526    -1543 
   -1559    -1575    -1578    -1570    -1571    -1576    -1575    -1579 
   -1586    -1588    -1586    -1571    -1551    -1537    -1522    -1506 
   -1490    -1471    -1453    -1435    -1410    -1394    -1393    -1401 
   -1418    -1435    -1437    -1437    -1439    -1443    -1458    -1487 
   -1520    -1537    -1540    -1536    -1534    -1532    -1530    -1539 
   -1541    -1537    -1539    -1529    -1509    -1502    -1498    -1483 
   -1472    -1466    -1452    -1435    -1418    -1398    -1378    -1360 
   -1344    -1331    -1327    -1333    -1337    -1341    -1354    -1366 
   -1377    -1389    -1394    -1391    -1389    -1390    -1397    -1416 
   -1435    -1443    -1452    -1460    -1460    -1460    -1463    -1467 
   -1471    -1479    -1493    -1501    -1499    -1501    -1495    -1479 
   -1466    -1463    -1467    -1468    -1462    -1449    -1445    -1455 
   -1455    -1440    -1428    -1418    -1405    -1404    -1416    -1422 
   -1429    -1441    -1451    -1455    -1460    -1468    -1482    -1501 
   -1525    -1552    -1580    -1602    -1626    -1655    -1686    -1714 
   -1732    -1744    -1749    -1745    -1741    -1737    -1734    -1732 
   -1721    -1705    -1694    -1683    -1668    -1648    -1621    -1606 
   -1598    -1578    -1552    -1533    -1516    -1489    -1462    -1436 
   -1416    -1402    -1393    -1382    -1371    -1362    -1355    -1352 
   -1344    -1335    -1329    -1316    -1293    -1275    -1262    -1248 
   -1236    -1228    -1215    -1198    -1177    -1148    -1123    -1098 
   -1073    -1058    -1053    -1038    -1021    -1017    -1019    -1017 
   -1016    -1021    -1027    -1031    -1035    -1042    -1054    -1067 
   -1085    -1111    -1138    -1162    -1188    -1216    -1248    -1279 
   -1301    -1317    -1337    -1366    -1395    -1422    -1458    -1494 
   -1520    -1545    -1583    -1620    -1651    -1683    -1711    -1733 
   -1752    -1765    -1776    -1788    -1799    -1800    -1802    -1803 
   -1800    -1803    -1814    -1818    -1818    -1819    -1814    -1810 
   -1814    -1822    -1826    -1831    -1841    -1850    -1853    -1846 
   -1838    -1834    -1830    -1829    -1826    -1826    -1830    -1827 
   -1815    -1796    -1780    -1780    -1782    -1768    -1745    -1717 
   -1690    -1665    -1644    -1625    -1607    -1590    -1578    -1557 
   -1532    -1517    -1507    -1495    -1485    -1476    -1466    -1463 
   -1472    -1483    -1493    -1497    -1499    -1497    -1490    -1491 
   -1497    -1495    -1489    -1476    -1463    -1451    -1436    -1417 
   -1402    -1386    -1371    -1360    -1354    -1348    -1345    -1347 
   -1356    -1362    -1363    -1374    -1393    -1406    -1421    -1443 
   -1462    -1475    -1491    -1502    -1507    -1513    -1524    -1536 
   -1541    -1540    -1540    -1536    -1522    -1505    -1487    -1471 
   -1453    -1439    -1425    -1401    -1371    -1352    -1333    -1302 
   -1271    -1251    -1243    -1242    -1246    -1254    -1258    -1252 
   -1240    -1224    -1212    -1204    -1194    -1182    -1179    -1178 
   -1177    -1186    -1197    -1201    -1210    -1219    -1212    -1208 
   -1210    -1212    -1217    -1227    -1233    -1244    -1250    -1242 
   -1239    -1246    -1251    -1252    -1250    -1250    -1242    -1232 
   -1239    -1250    -1258    -1269    -1267    -1263    -1259    -1239 
   -1212    -1201    -1194    -1178    -1165    -1165    -1161    -1152 
   -1165    -1185    -1196    -1212    -1235    -1258    -1285    -1316 
   -1343    -1371    -1399    -1425    -1452    -1479    -1494    -1505 
   -1518    -1525    -1525    -1532    -1545    -1553    -1559    -1566 
   -1567    -1564    -1563    -1552    -1537    -1533    -1532    -1528 
   -1526    -1520    -1512    -1512    -1509    -1503    -1503    -1505 
   -1498    -1494    -1499    -1503    -1505    -1518    -1539    -1548 
   -1557    -1575    -1591    -1603    -1615    -1620    -1618    -1620 
   -1617    -1606    -1590    -1570    -1544    -1517    -1479    -1433 
   -1390    -1348    -1306    -1267    -1229    -1185    -1136    -1092 
   -1050    -1000     -955     -926     -901     -881     -873     -868 
    -870     -886     -901     -911     -930     -958     -999    -1050 
   -1107    -1169    -1227    -1274    -1323    -1366    -1397    -1420 
   -1441    -1466    -1491    -1517    -1540    -1553    -1557    -1559 
   -1556    -1547    -1536    -1530    -1526    -1516    -1501    -1491 
   -1486    -1483    -1480    -1470    -1455    -1436    -1414    -1399 
   -1381    -1360    -1356    -1352    -1343    -1341    -1344    -1341 
   -1339    -1337    -1335    -1333    -1333    -1333    -1333    -1339 
   -1345    -1337    -1325    -1317    -1304    -1296    -1293    -1286 
   -1277    -1264    -1244    -1223    -1210    -1205    -1201    -1198 
   -1194    -1192    -1196    -1200    -1201    -1205    -1209    -1212 
   -1216    -1224    -1243    -1258    -1266    -1281    -1302    -1320 
   -1335    -1358    -1385    -1402    -1420    -1441    -1460    -1479 
   -1499    -1514    -1530    -1552    -1567    -1576    -1593    -1603 
   -1611    -1626    -1642    -1657    -1672    -1678    -1679    -1682 
   -1686    -1699    -1713    -1723    -1738    -1742    -1738    -1740 
   -1738    -1730    -1725    -1721    -1718    -1713    -1692    -1669 
   -1649    -1629    -1613    -1598    -1578    -1559    -1540    -1524 
   -1507    -1489    -1474    -1463    -1453    -1451    -1449    -1447 
   -1449    -1452    -1448    -1443    -1435    -1431    -1429    -1422 
   -1416    -1414    -1409    -1399    -1397    -1389    -1377    -1367 
   -1356    -1343    -1327    -1305    -1285    -1266    -1243    -1212 
   -1175    -1144    -1113    -1071    -1026     -982     -942     -901 
    -858     -820     -792     -761     -731     -710     -693     -670 
    -643     -621     -606     -596     -594     -599     -600     -606 
    -619     -630     -642     -662     -684     -711     -742     -772 
    -804     -841     -873     -905     -942     -976    -1005    -1036 
   -1067    -1098    -1134    -1175    -1225    -1278    -1318    -1356 
   -1394    -1431    -1466    -1497    -1528    -1560    -1580    -1597 
   -1614    -1629    -1636    -1645    -1656    -1663    -1664    -1663 
   -1668    -1674    -1682    -1701    -1726    -1755    -1777    -1792 
   -1809    -1826    -1840    -1846    -1849    -1854    -1863    -1867 
   -1863    -1853    -1844    -1831    -1821    -1814    -1799    -1776 
   -1756    -1729    -1690    -1656    -1633    -1609    -1583    -1559 
   -1534    -1507    -1479    -1460    -1451    -1444    -1441    -1445 
   -1451    -1458    -1470    -1479    -1486    -1497    -1510    -1520 
   -1534    -1549    -1555    -1553    -1555    -1557    -1559    -1561 
   -1566    -1568    -1568    -1566    -1564    -1557    -1552    -1551 
   -1537    -1526    -1522    -1509    -1493    -1479    -1462    -1443 
   -1425    -1409    -1390    -1362    -1331    -1302    -1270    -1231 
   -1194    -1156    -1109    -1063    -1021     -973     -930     -893 
    -849     -797     -749     -704     -662     -625     -594     -569 
    -546     -523     -507     -495     -483     -477     -486     -502 
    -518     -538     -567     -591     -616     -652     -688     -727 
    -768     -805     -842     -878     -916     -957     -999    -1036 
   -1070    -1100    -1124    -1148    -1178    -1204    -1228    -1264 
   -1298    -1329    -1368    -1408    -1439    -1471    -1505    -1543 
   -1588    -1633    -1676    -1728    -1780    -1823    -1871    -1915 
   -1941    -1964    -1991    -2015    -2033    -2053    -2069    -2079 
   -2087    -2095    -2097    -2097    -2092    -2085    -2081    -2074 
   -2065    -2058    -2039    -2016    -2003    -1996    -1985    -1973 
   -1956    -1938    -1921    -1904    -1883    -1858    -1838    -1822 
   -1803    -1782    -1760    -1737    -1715    -1690    -1665    -1637 
   -1609    -1584    -1560    -1529    -1501    -1471    -1437    -1408 
   -1375    -1341    -1306    -1269    -1229    -1190    -1151    -1117 
   -1082    -1051    -1027    -1005     -982     -959     -936     -922 
    -909     -900     -897     -895     -891     -884     -880     -884 
    -893     -905     -924     -949     -972    -1000    -1035    -1066 
   -1092    -1113    -1124    -1134    -1154    -1178    -1204    -1225 
   -1248    -1269    -1283    -1301    -1317    -1325    -1336    -1351 
   -1364    -1370    -1378    -1390    -1393    -1393    -1404    -1414 
   -1417    -1416    -1405    -1401    -1404    -1398    -1399    -1409 
   -1413    -1413    -1421    -1432    -1443    -1459    -1463    -1462 
   -1463    -1459    -1448    -1443    -1439    -1431    -1422    -1416 
   -1399    -1381    -1371    -1356    -1333    -1308    -1282    -1259 
   -1237    -1213    -1190    -1171    -1151    -1123    -1098    -1080 
   -1067    -1061    -1054    -1043    -1043    -1046    -1051    -1066 
   -1080    -1100    -1131    -1163    -1192    -1217    -1248    -1281 
   -1314    -1350    -1385    -1421    -1452    -1479    -1509    -1536 
   -1553    -1574    -1595    -1615    -1634    -1651    -1667    -1682 
   -1690    -1694    -1698    -1706    -1714    -1715    -1717    -1718 
   -1717    -1713    -1707    -1705    -1694    -1690    -1695    -1692 
   -1678    -1668    -1664    -1660    -1652    -1645    -1640    -1636 
   -1629    -1626    -1630    -1641    -1653    -1667    -1678    -1683 
   -1691    -1705    -1722    -1748    -1779    -1807    -1827    -1845 
   -1863    -1875    -1883    -1891    -1900    -1903    -1900    -1896 
   -1894    -1880    -1856    -1825    -1790    -1753    -1719    -1684 
   -1652    -1618    -1582    -1547    -1506    -1462    -1422    -1383 
   -1347    -1313    -1283    -1262    -1240    -1219    -1200    -1182 
   -1162    -1142    -1132    -1129    -1120    -1111    -1100    -1082 
   -1059    -1039    -1019     -997     -978     -959     -950     -947 
    -946     -955     -972     -978     -985     -999    -1013    -1027 
   -1042    -1058    -1075    -1093    -1101    -1108    -1119    -1131 
   -1136    -1136    -1132    -1123    -1112    -1105    -1096    -1086 
   -1085    -1086    -1082    -1077    -1075    -1073    -1071    -1074 
   -1077    -1077    -1074    -1070    -1066    -1059    -1046    -1031 
   -1017    -1012    -1016    -1019    -1020    -1020    -1027    -1035 
   -1038    -1046    -1066    -1089    -1111    -1138    -1169    -1202 
   -1240    -1271    -1298    -1333    -1366    -1387    -1412    -1437 
   -1453    -1472    -1495    -1507    -1518    -1530    -1540    -1549 
   -1556    -1556    -1559    -1563    -1561    -1561    -1561    -1555 
   -1551    -1551    -1551    -1547    -1541    -1540    -1543    -1541 
   -1539    -1536    -1539    -1548    -1557    -1560    -1559    -1560 
   -1563    -1557    -1547    -1547    -1551    -1553    -1561    -1567 
   -1566    -1566    -1563    -1560    -1566    -1578    -1591    -1601 
   -1601    -1606    -1614    -1613    -1611    -1607    -1594    -1582 
   -1572    -1555    -1539    -1521    -1498    -1471    -1437    -1410 
   -1390    -1359    -1329    -1312    -1296    -1270    -1239    -1202 
   -1167    -1136    -1111    -1090    -1077    -1066    -1057    -1046 
   -1034    -1027    -1026    -1023    -1024    -1027    -1028    -1031 
   -1031    -1027    -1027    -1030    -1038    -1042    -1042    -1051 
   -1063    -1067    -1073    -1084    -1097    -1120    -1151    -1174 
   -1196    -1224    -1255    -1281    -1298    -1318    -1339    -1352 
   -1370    -1393    -1413    -1431    -1445    -1455    -1464    -1472 
   -1479    -1486    -1491    -1489    -1485    -1489    -1498    -1498 
   -1491    -1494    -1505    -1507    -1514    -1530    -1543    -1552 
   -1570    -1584    -1593    -1605    -1617    -1629    -1638    -1647 
   -1652    -1651    -1644    -1642    -1638    -1629    -1626    -1628 
   -1622    -1609    -1594    -1588    -1588    -1576    -1560    -1544 
   -1530    -1524    -1522    -1516    -1509    -1501    -1486    -1474 
   -1467    -1455    -1444    -1436    -1428    -1416    -1401    -1383 
   -1367    -1345    -1325    -1308    -1285    -1259    -1235    -1204 
   -1170    -1134    -1092    -1051    -1017     -985     -957     -930 
    -901     -877     -868     -862     -851     -842     -845     -849 
    -851     -858     -872     -884     -895     -909     -927     -940 
    -953     -967     -978     -990    -1000    -1007    -1020    -1038 
   -1051    -1066    -1085    -1101    -1119    -1136    -1155    -1175 
   -1192    -1202    -1212    -1223    -1231    -1233    -1240    -1255 
   -1275    -1294    -1310    -1325    -1337    -1345    -1352    -1362 
   -1377    -1390    -1406    -1425    -1436    -1445    -1464    -1476 
   -1480    -1489    -1490    -1482    -1480    -1483    -1475    -1463 
   -1455    -1453    -1451    -1445    -1444    -1441    -1435    -1424 
   -1410    -1401    -1398    -1397    -1394    -1395    -1397    -1402 
