Origin Time       2025/01/13 21:19:00
Lat.              31.8
Long.             131.6
Depth. (km)       30
Mag.              6.9
Station Code      TKSH05
Station Lat.      33.6628
Station Long.     134.3156
Station Height(m) 40
Record Time       2025/01/13 21:20:45
Sampling Freq(Hz) 100Hz
Duration Time(s)  121
Dir.              6
Scale Factor      7845(gal)/8223790
Max. Acc. (gal)   0.481
Last Correction   2025/01/13 21:20:46
Memo.             
[...]
  -13759   -13714   -13683   -13674   -13682   -13679   -13643   -13603 
  -13608   -13636   -13640   -13620   -13605   -13603   -13625   -13657 
  -13668   -13663   -13664   -13653   -13626   -13636   -13689   -13724 
  -13726   -13725   -13737   -13763   -13790   -13795   -13791   -13806 
  -13818   -13809   -13814   -13851   -13878   -13878   -13890   -13919 
  -13925   -13906   -13894   -13892   -13879   -13859   -13853   -13865 
  -13868   -13842   -13797   -13757   -13753   -13779   -13806   -13813 
  -13801   -13790   -13788   -13787   -13786   -13794   -13817   -13848 
  -13861   -13856   -13856   -13865   -13868   -13865   -13851   -13828 
  -13817   -13830   -13863   -13894   -13894   -13873   -13863   -13849 
  -13811   -13763   -13714   -13682   -13680   -13698   -13713   -13703 
  -13662   -13626   -13633   -13657   -13674   -13676   -13672   -13672 
  -13693   -13722   -13743   -13743   -13732   -13738   -13765   -13790 
  -13782   -13752   -13737   -13755   -13786   -13809   -13807   -13786 
  -13784   -13814   -13832   -13832   -13852   -13895   -13911   -13879 
  -13833   -13821   -13840   -13859   -13848   -13813   -13795   -13819 
  -13844   -13849   -13848   -13837   -13818   -13813   -13821   -13826 
  -13829   -13841   -13842   -13813   -13779   -13768   -13768   -13751 
  -13709   -13667   -13659   -13676   -13675   -13652   -13633   -13616 
  -13593   -13590   -13616   -13626   -13606   -13599   -13624   -13629 
  -13595   -13578   -13594   -13614   -13614   -13599   -13610   -13644 
  -13641   -13595   -13568   -13585   -13614   -13633   -13643   -13660 
  -13690   -13716   -13747   -13784   -13799   -13784   -13763   -13749 
  -13752   -13752   -13737   -13722   -13701   -13672   -13666   -13682 
  -13701   -13716   -13721   -13728   -13748   -13774   -13788   -13797 
  -13799   -13799   -13805   -13817   -13817   -13799   -13783   -13802 
  -13852   -13891   -13898   -13882   -13844   -13805   -13806   -13842 
  -13873   -13876   -13867   -13864   -13868   -13867   -13863   -13863 
  -13865   -13871   -13878   -13871   -13863   -13890   -13938   -13946 
  -13922   -13917   -13930   -13933   -13917   -13892   -13883   -13888 
  -13886   -13867   -13852   -13855   -13865   -13869   -13855   -13824 
  -13802   -13802   -13821   -13833   -13819   -13802   -13818   -13849 
  -13848   -13815   -13794   -13805   -13830   -13826   -13786   -13747 
  -13730   -13730   -13730   -13721   -13722   -13753   -13780   -13779 
  -13772   -13787   -13811   -13824   -13830   -13844   -13857   -13859 
  -13856   -13864   -13892   -13926   -13932   -13895   -13853   -13845 
  -13865   -13873   -13855   -13841   -13833   -13807   -13787   -13786 
  -13788   -13795   -13799   -13794   -13799   -13821   -13834   -13822 
  -13786   -13749   -13741   -13778   -13822   -13833   -13806   -13782 
  -13787   -13795   -13779   -13747   -13713   -13682   -13676   -13703 
  -13748   -13788   -13817   -13814   -13784   -13759   -13748   -13734 
  -13714   -13695   -13679   -13667   -13668   -13683   -13701   -13706 
  -13706   -13728   -13784   -13841   -13857   -13840   -13832   -13840 
  -13840   -13815   -13784   -13772   -13774   -13765   -13744   -13711 
  -13674   -13655   -13663   -13656   -13614   -13585   -13613   -13656 
  -13644   -13590   -13572   -13599   -13617   -13586   -13517   -13470 
  -13475   -13504   -13528   -13541   -13533   -13518   -13517   -13528 
  -13539   -13549   -13560   -13581   -13613   -13645   -13659   -13652 
  -13632   -13622   -13639   -13656   -13647   -13628   -13633   -13668 
  -13701   -13709   -13718   -13752   -13779   -13772   -13756   -13768 
  -13809   -13860   -13894   -13894   -13880   -13876   -13875   -13863 
  -13841   -13815   -13792   -13794   -13817   -13841   -13842   -13833 
  -13826   -13815   -13799   -13782   -13770   -13764   -13760   -13752 
  -13755   -13767   -13763   -13734   -13707   -13703   -13720   -13751 
  -13792   -13824   -13841   -13863   -13884   -13898   -13905   -13905 
  -13892   -13882   -13876   -13875   -13876   -13869   -13855   -13842 
  -13828   -13797   -13759   -13734   -13736   -13745   -13747   -13737 
  -13716   -13690   -13672   -13657   -13633   -13609   -13594   -13585 
  -13572   -13558   -13554   -13564   -13576   -13581   -13566   -13539 
  -13536   -13556   -13567   -13560   -13554   -13545   -13532   -13514 
  -13491   -13473   -13475   -13498   -13532   -13564   -13589   -13610 
  -13639   -13668   -13689   -13705   -13720   -13732   -13740   -13755 
  -13772   -13783   -13787   -13784   -13788   -13811   -13836   -13838 
  -13838   -13855   -13887   -13902   -13883   -13848   -13821   -13815 
  -13830   -13849   -13857   -13855   -13852   -13852   -13861   -13869 
  -13860   -13842   -13841   -13859   -13887   -13913   -13923   -13926 
  -13938   -13964   -13981   -13979   -13977   -13987   -13992   -13991 
  -13987   -13976   -13963   -13952   -13936   -13915   -13905   -13891 
  -13868   -13857   -13864   -13846   -13806   -13767   -13730   -13702 
  -13694   -13694   -13682   -13666   -13667   -13694   -13736   -13761 
  -13751   -13724   -13716   -13726   -13736   -13761   -13813   -13852 
  -13859   -13855   -13861   -13876   -13878   -13865   -13861   -13872 
  -13891   -13909   -13910   -13899   -13900   -13913   -13922   -13922 
  -13915   -13913   -13927   -13946   -13944   -13933   -13940   -13950 
  -13949   -13927   -13903   -13905   -13932   -13950   -13945   -13937 
  -13957   -13984   -13976   -13945   -13919   -13892   -13859   -13833 
  -13815   -13814   -13811   -13778   -13738   -13728   -13724   -13709 
  -13698   -13695   -13680   -13655   -13649   -13670   -13693   -13702 
  -13695   -13675   -13664   -13668   -13670   -13666   -13671   -13684 
  -13697   -13710   -13710   -13690   -13679   -13698   -13721   -13733 
  -13753   -13794   -13830   -13844   -13836   -13818   -13809   -13817 
  -13832   -13833   -13822   -13821   -13845   -13873   -13871   -13830 
  -13791   -13774   -13763   -13744   -13714   -13695   -13707   -13732 
  -13734   -13718   -13701   -13684   -13652   -13601   -13571   -13585 
  -13616   -13632   -13624   -13608   -13595   -13591   -13599   -13616 
  -13625   -13621   -13628   -13651   -13660   -13645   -13633   -13624 
  -13602   -13572   -13556   -13579   -13630   -13670   -13682   -13701 
  -13738   -13757   -13743   -13732   -13749   -13783   -13810   -13813 
  -13805   -13805   -13810   -13803   -13778   -13749   -13748   -13778 
  -13806   -13810   -13797   -13788   -13797   -13814   -13824   -13819 
  -13803   -13784   -13782   -13799   -13824   -13848   -13871   -13880 
  -13876   -13860   -13848   -13868   -13911   -13933   -13923   -13918 
  -13932   -13938   -13927   -13905   -13875   -13845   -13828   -13822 
  -13821   -13818   -13809   -13795   -13788   -13776   -13743   -13713 
  -13702   -13702   -13701   -13693   -13680   -13664   -13644   -13625 
  -13620   -13629   -13643   -13649   -13655   -13659   -13659   -13653 
  -13639   -13624   -13624   -13622   -13608   -13601   -13601   -13601 
  -13609   -13614   -13614   -13628   -13643   -13648   -13649   -13648 
  -13651   -13670   -13698   -13717   -13724   -13737   -13767   -13798 
  -13821   -13830   -13838   -13859   -13873   -13873   -13868   -13867 
  -13873   -13883   -13899   -13922   -13948   -13972   -13990   -13994 
  -13983   -13968   -13969   -13972   -13952   -13918   -13888   -13857 
  -13825   -13788   -13753   -13733   -13725   -13703   -13674   -13659 
  -13660   -13668   -13671   -13660   -13640   -13629   -13633   -13635 
  -13621   -13608   -13614   -13620   -13617   -13633   -13666   -13694 
  -13713   -13724   -13736   -13765   -13810   -13845   -13863   -13880 
  -13898   -13913   -13926   -13930   -13933   -13946   -13968   -13973 
  -13957   -13940   -13938   -13941   -13925   -13890   -13859   -13841 
  -13815   -13776   -13752   -13756   -13760   -13744   -13729   -13732 
  -13751   -13776   -13788   -13783   -13778   -13775   -13775   -13772 
  -13763   -13764   -13783   -13805   -13805   -13795   -13801   -13806 
  -13790   -13768   -13763   -13759   -13757   -13756   -13741   -13717 
  -13701   -13698   -13697   -13691   -13680   -13666   -13652   -13645 
  -13639   -13624   -13622   -13635   -13639   -13640   -13652   -13676 
  -13703   -13732   -13763   -13806   -13860   -13911   -13944   -13965 
  -13987   -13996   -13990   -13984   -13999   -14042   -14099   -14129 
  -14110   -14081   -14083   -14098   -14094   -14056   -14000   -13973 
  -13983   -13981   -13945   -13910   -13892   -13871   -13840   -13814 
  -13802   -13801   -13787   -13747   -13698   -13674   -13670   -13671 
  -13671   -13668   -13676   -13695   -13702   -13711   -13737   -13753 
  -13752   -13756   -13764   -13774   -13795   -13817   -13818   -13805 
  -13795   -13790   -13787   -13790   -13792   -13788   -13778   -13767 
  -13763   -13775   -13803   -13826   -13822   -13797   -13767   -13753 
  -13770   -13790   -13780   -13756   -13747   -13748   -13741   -13722 
  -13707   -13703   -13703   -13709   -13725   -13730   -13709   -13676 
  -13651   -13635   -13626   -13620   -13606   -13586   -13567   -13560 
  -13571   -13583   -13570   -13544   -13536   -13539   -13536   -13541 
  -13563   -13589   -13609   -13618   -13630   -13653   -13676   -13674 
  -13649   -13637   -13659   -13691   -13701   -13690   -13680   -13686 
  -13697   -13701   -13698   -13693   -13687   -13682   -13678   -13680 
  -13698   -13710   -13701   -13671   -13660   -13698   -13748   -13757 
  -13745   -13759   -13790   -13810   -13805   -13786   -13779   -13779 
  -13767   -13763   -13778   -13790   -13784   -13774   -13774   -13784 
  -13794   -13797   -13798   -13802   -13811   -13828   -13834   -13822 
  -13801   -13782   -13770   -13763   -13755   -13728   -13687   -13663 
  -13670   -13694   -13709   -13703   -13682   -13663   -13656   -13655 
  -13657   -13676   -13697   -13693   -13684   -13694   -13714   -13732 
  -13744   -13745   -13743   -13752   -13771   -13794   -13811   -13809 
  -13797   -13802   -13826   -13852   -13856   -13840   -13818   -13809 
  -13803   -13795   -13798   -13819   -13845   -13856   -13856   -13860 
  -13876   -13894   -13890   -13875   -13875   -13898   -13929   -13944 
  -13933   -13911   -13888   -13879   -13884   -13886   -13868   -13842 
  -13828   -13841   -13873   -13890   -13880   -13867   -13849   -13828 
  -13824   -13836   -13844   -13841   -13836   -13828   -13824   -13837 
  -13857   -13857   -13838   -13822   -13817   -13824   -13830   -13821 
  -13806   -13794   -13776   -13756   -13736   -13705   -13667   -13645 
  -13649   -13656   -13651   -13643   -13629   -13606   -13585   -13578 
  -13586   -13595   -13603   -13613   -13625   -13639   -13655   -13668 
  -13679   -13683   -13686   -13695   -13720   -13752   -13774   -13784 
  -13794   -13795   -13795   -13811   -13826   -13821   -13824   -13856 
  -13886   -13895   -13894   -13898   -13913   -13929   -13921   -13898 
  -13896   -13926   -13967   -13994   -13996   -13984   -13976   -13963 
  -13934   -13896   -13863   -13841   -13809   -13751   -13687   -13641 
  -13614   -13587   -13545   -13494   -13456   -13447   -13446   -13435 
  -13420   -13406   -13398   -13406   -13419   -13419   -13410   -13412 
  -13423   -13446   -13474   -13494   -13513   -13537   -13555   -13567 
  -13585   -13612   -13641   -13672   -13710   -13756   -13801   -13825 
  -13838   -13855   -13878   -13909   -13948   -13983   -14006   -14023 
  -14045   -14054   -14034   -14000   -13973   -13959   -13949   -13933 
  -13909   -13884   -13864   -13842   -13819   -13790   -13759   -13749 
  -13759   -13757   -13740   -13728   -13743   -13759   -13749   -13722 
  -13699   -13689   -13683   -13675   -13671   -13687   -13716   -13730 
  -13730   -13734   -13745   -13748   -13747   -13744   -13736   -13729 
  -13733   -13745   -13751   -13737   -13724   -13725   -13741   -13767 
  -13791   -13813   -13840   -13864   -13873   -13879   -13892   -13896 
  -13891   -13896   -13909   -13925   -13940   -13950   -13959   -13961 
  -13948   -13927   -13917   -13917   -13910   -13882   -13846   -13818 
  -13802   -13792   -13782   -13748   -13694   -13652   -13644   -13655 
  -13643   -13603   -13564   -13545   -13539   -13522   -13497   -13471 
  -13452   -13441   -13435   -13427   -13424   -13423   -13419   -13423 
  -13437   -13460   -13493   -13524   -13540   -13558   -13594   -13637 
  -13667   -13683   -13699   -13728   -13759   -13783   -13807   -13840 
  -13860   -13851   -13841   -13856   -13872   -13873   -13872   -13880 
  -13894   -13902   -13902   -13905   -13910   -13903   -13894   -13900 
  -13915   -13913   -13907   -13913   -13915   -13899   -13873   -13860 
  -13855   -13851   -13845   -13836   -13826   -13822   -13819   -13824 
  -13833   -13842   -13848   -13857   -13875   -13891   -13905   -13910 
  -13898   -13875   -13864   -13867   -13867   -13856   -13845   -13851 
  -13868   -13864   -13838   -13836   -13869   -13905   -13915   -13909 
  -13907   -13913   -13910   -13888   -13864   -13869   -13898   -13909 
  -13905   -13910   -13930   -13956   -13975   -13983   -13992   -14008 
  -14021   -14021   -14018   -14023   -14037   -14052   -14049   -14025 
  -14002   -13998   -14000   -13990   -13975   -13967   -13965   -13969 
  -13969   -13952   -13929   -13917   -13911   -13900   -13876   -13842 
  -13803   -13756   -13707   -13672   -13644   -13605   -13551   -13498 
  -13456   -13429   -13409   -13382   -13347   -13319   -13308   -13297 
  -13277   -13261   -13263   -13278   -13288   -13293   -13301   -13319 
  -13348   -13374   -13397   -13425   -13459   -13489   -13509   -13531 
  -13572   -13617   -13641   -13657   -13682   -13714   -13748   -13768 
  -13782   -13814   -13861   -13896   -13909   -13917   -13944   -13976 
  -13992   -14000   -14023   -14060   -14077   -14064   -14049   -14057 
  -14072   -14071   -14050   -14033   -14037   -14044   -14031   -14003 
  -13973   -13953   -13936   -13923   -13914   -13891   -13861   -13851 
  -13860   -13875   -13884   -13883   -13873   -13855   -13836   -13834 
  -13834   -13826   -13813   -13807   -13811   -13806   -13784   -13771 
  -13774   -13775   -13768   -13770   -13788   -13803   -13798   -13791 
  -13801   -13828   -13859   -13872   -13868   -13869   -13876   -13883 
  -13887   -13887   -13880   -13867   -13856   -13851   -13837   -13811 
  -13792   -13784   -13775   -13763   -13755   -13749   -13738   -13722 
  -13705   -13687   -13678   -13676   -13668   -13648   -13629   -13617 
  -13612   -13610   -13606   -13590   -13568   -13559   -13558   -13554 
  -13540   -13528   -13517   -13497   -13483   -13500   -13528   -13539 
  -13531   -13529   -13559   -13608   -13643   -13655   -13672   -13695 
  -13707   -13714   -13726   -13730   -13728   -13726   -13728   -13724 
  -13720   -13720   -13718   -13713   -13710   -13714   -13725   -13740 
  -13751   -13747   -13737   -13730   -13725   -13720   -13711   -13698 
  -13672   -13644   -13632   -13630   -13622   -13608   -13605   -13617 
  -13637   -13647   -13635   -13622   -13630   -13637   -13629   -13625 
  -13636   -13655   -13680   -13711   -13736   -13749   -13763   -13784 
  -13811   -13851   -13890   -13907   -13921   -13934   -13940   -13946 
  -13967   -13983   -13988   -14003   -14027   -14046   -14049   -14049 
  -14064   -14087   -14096   -14089   -14088   -14107   -14126   -14119 
  -14098   -14087   -14088   -14091   -14079   -14062   -14053   -14053 
  -14054   -14041   -14011   -13991   -13979   -13954   -13921   -13906 
  -13914   -13923   -13914   -13886   -13864   -13865   -13869   -13856 
  -13836   -13815   -13790   -13765   -13757   -13760   -13757   -13752 
  -13752   -13761   -13775   -13779   -13759   -13732   -13725   -13730 
  -13730   -13722   -13710   -13698   -13689   -13674   -13664   -13657 
  -13644   -13618   -13595   -13579   -13574   -13579   -13589   -13590 
  -13583   -13572   -13560   -13552   -13560   -13576   -13587   -13581 
  -13570   -13564   -13564   -13568   -13581   -13579   -13567   -13572 
  -13585   -13578   -13563   -13558   -13555   -13552   -13541   -13525 
  -13516   -13514   -13501   -13474   -13467   -13481   -13494   -13495 
  -13486   -13481   -13493   -13522   -13556   -13575   -13585   -13595 
  -13605   -13608   -13616   -13628   -13637   -13641   -13651   -13668 
  -13684   -13690   -13689   -13695   -13714   -13726   -13722   -13724 
  -13737   -13753   -13765   -13771   -13774   -13786   -13807   -13828 
  -13836   -13834   -13842   -13864   -13888   -13899   -13899   -13905 
  -13922   -13932   -13923   -13922   -13937   -13953   -13957   -13954 
  -13960   -13981   -14006   -14015   -14013   -14014   -14026   -14044 
  -14056   -14058   -14056   -14057   -14062   -14062   -14057   -14046 
  -14034   -14023   -14017   -14010   -14006   -14003   -13996   -13977 
  -13953   -13933   -13909   -13879   -13849   -13829   -13815   -13802 
  -13792   -13797   -13794   -13778   -13761   -13757   -13756   -13753 
  -13749   -13741   -13734   -13729   -13720   -13710   -13706   -13703 
  -13702   -13702   -13706   -13720   -13737   -13747   -13740   -13732 
  -13734   -13737   -13725   -13707   -13707   -13721   -13737   -13740 
  -13728   -13714   -13706   -13706   -13716   -13729   -13738   -13748 
  -13760   -13772   -13795   -13824   -13840   -13838   -13826   -13815 
  -13826   -13846   -13859   -13853   -13830   -13803   -13792   -13794 
  -13799   -13798   -13794   -13795   -13810   -13833   -13855   -13871 
  -13882   -13883   -13879   -13872   -13868   -13872   -13882   -13878 
  -13848   -13822   -13818   -13811   -13784   -13747   -13714   -13691 
  -13675   -13668   -13667   -13667   -13670   -13672   -13667   -13667 
  -13679   -13702   -13721   -13720   -13697   -13676   -13678   -13690 
  -13694   -13691   -13687   -13682   -13675   -13668   -13666   -13664 
  -13657   -13643   -13632   -13628   -13620   -13609   -13609   -13618 
  -13622   -13620   -13609   -13599   -13599   -13602   -13598   -13589 
  -13585   -13585   -13581   -13571   -13563   -13562   -13558   -13551 
  -13551   -13559   -13568   -13583   -13593   -13583   -13575   -13585 
  -13601   -13616   -13625   -13618   -13609   -13613   -13630   -13649 
  -13659   -13662   -13663   -13667   -13671   -13671   -13678   -13697 
  -13716   -13724   -13730   -13749   -13775   -13791   -13795   -13805 
  -13824   -13848   -13869   -13887   -13907   -13933   -13952   -13954 
  -13953   -13965   -13988   -14006   -14014   -14017   -14018   -14019 
  -14019   -14014   -14006   -13987   -13957   -13932   -13911   -13886 
  -13853   -13824   -13805   -13791   -13765   -13736   -13729   -13738 
  -13732   -13699   -13668   -13657   -13648   -13629   -13609   -13591 
  -13575   -13560   -13543   -13527   -13521   -13520   -13514   -13501 
  -13489   -13490   -13501   -13509   -13509   -13500   -13491   -13502 
  -13527   -13540   -13540   -13537   -13537   -13545   -13556   -13558 
  -13559   -13574   -13597   -13620   -13639   -13660   -13683   -13702 
  -13724   -13747   -13761   -13776   -13798   -13822   -13845   -13859 
  -13863   -13868   -13884   -13900   -13914   -13927   -13937   -13960 
  -13998   -14029   -14048   -14067   -14077   -14077   -14073   -14071 
  -14072   -14079   -14083   -14075   -14056   -14035   -14025   -14029 
  -14037   -14027   -13996   -13965   -13948   -13941   -13937   -13921 
