Origin Time       2025/01/13 21:19:00
Lat.              31.8
Long.             131.6
Depth. (km)       30
Mag.              6.9
Station Code      TKSH04
Station Lat.      33.9902
Station Long.     134.5337
Station Height(m) -90
Record Time       2025/01/13 21:21:06
Sampling Freq(Hz) 100Hz
Duration Time(s)  120
Dir.              1
Scale Factor      2942(gal)/8224139
Max. Acc. (gal)   0.372
Last Correction   2025/01/13 21:21:07
Memo.             
[...]
  179425   179424   179424   179424   179427   179431   179433   179442 
  179454   179460   179466   179471   179470   179471   179479   179482 
  179482   179487   179487   179481   179478   179477   179474   179474 
  179474   179474   179479   179489   179498   179510   179525   179536 
  179550   179566   179571   179564   179556   179552   179547   179539 
  179529   179524   179518   179508   179497   179479   179456   179442 
  179436   179439   179447   179455   179460   179459   179448   179424 
  179397   179375   179359   179346   179331   179321   179321   179328 
  179335   179338   179334   179334   179339   179343   179344   179340 
  179340   179352   179366   179377   179382   179385   179392   179401 
  179404   179400   179394   179394   179404   179420   179431   179439 
  179443   179440   179433   179425   179409   179390   179381   179378 
  179375   179367   179355   179350   179354   179356   179352   179350 
  179348   179348   179346   179342   179339   179334   179327   179327 
  179334   179339   179340   179344   179354   179363   179367   179370 
  179367   179366   179370   179375   179390   179412   179427   179432 
  179436   179442   179446   179447   179448   179451   179459   179474 
  179489   179502   179513   179512   179502   179497   179497   179497 
  179493   179487   179479   179469   179462   179460   179459   179458 
  179456   179456   179460   179467   179473   179475   179475   179470 
  179456   179442   179428   179417   179405   179393   179381   179367 
  179355   179340   179323   179311   179304   179298   179294   179292 
  179289   179290   179294   179294   179286   179277   179273   179273 
  179278   179284   179286   179288   179288   179284   179280   179281 
  179288   179296   179304   179315   179334   179358   179381   179397 
  179417   179443   179469   179493   179509   179516   179520   179524 
  179531   179539   179551   179575   179604   179632   179656   179671 
  179674   179671   179671   179671   179674   179678   179680   179680 
  179679   179679   179680   179682   179678   179674   179675   179682 
  179687   179691   179694   179693   179689   179679   179670   179663 
  179659   179662   179656   179644   179633   179625   179626   179632 
  179636   179640   179648   179664   179683   179697   179707   179722 
  179729   179729   179724   179712   179699   179690   179680   179666 
  179641   179614   179590   179568   179550   179535   179521   179504 
  179486   179478   179477   179479   179483   179481   179470   179452 
  179431   179409   179394   179383   179369   179347   179321   179302 
  179289   179275   179262   179248   179235   179221   179212   179203 
  179190   179180   179174   179172   179167   179163   179163   179176 
  179189   179199   179209   179220   179231   179248   179270   179296 
  179327   179361   179393   179428   179464   179497   179525   179551 
  179583   179622   179660   179691   179724   179761   179793   179817 
  179838   179861   179887   179913   179937   179961   179986   180007 
  180025   180034   180042   180056   180071   180084   180095   180103 
  180112   180119   180122   180129   180137   180141   180141   180141 
  180139   180133   180125   180117   180102   180080   180056   180031 
  180003   179973   179946   179919   179891   179856   179815   179772 
  179725   179682   179640   179595   179555   179521   179493   179477 
  179462   179447   179436   179415   179381   179347   179320   179298 
  179284   179280   179282   179292   179298   179298   179293   179284 
  179273   179267   179265   179267   179277   179288   179294   179301 
  179315   179331   179348   179361   179366   179377   179400   179427 
  179454   179478   179500   179516   179523   179527   179531   179533 
  179539   179548   179554   179552   179554   179555   179550   179545 
  179543   179536   179532   179525   179517   179509   179501   179498 
  179505   179513   179520   179527   179529   179535   179537   179539 
  179543   179547   179548   179550   179547   179550   179554   179552 
  179550   179550   179552   179559   179559   179558   179563   179572 
  179582   179593   179605   179617   179629   179641   179659   179674 
  179682   179687   179689   179686   179689   179694   179695   179698 
  179709   179720   179729   179737   179745   179757   179771   179784 
  179797   179803   179806   179807   179806   179802   179801   179807 
  179818   179829   179842   179855   179860   179860   179859   179855 
  179848   179838   179832   179830   179828   179818   179806   179794 
  179782   179763   179743   179725   179710   179691   179667   179635 
  179598   179563   179527   179487   179450   179409   179370   179343 
  179320   179293   179270   179250   179227   179208   179192   179184 
  179184   179181   179174   179172   179172   179172   179178   179190 
  179205   179228   179253   179275   179297   179319   179343   179374 
  179401   179424   179451   179483   179514   179540   179566   179591 
  179617   179640   179662   179678   179691   179705   179725   179745 
  179757   179766   179768   179771   179774   179776   179776   179771 
  179761   179753   179745   179736   179726   179712   179689   179667 
  179645   179621   179604   179589   179578   179575   179577   179577 
  179577   179572   179568   179570   179571   179579   179595   179610 
  179622   179625   179622   179621   179621   179621   179618   179618 
  179620   179624   179632   179636   179637   179640   179640   179641 
  179648   179659   179671   179683   179693   179701   179706   179706 
  179705   179706   179707   179701   179687   179676   179671   179667 
  179659   179656   179658   179656   179655   179658   179660   179664 
  179674   179678   179678   179676   179668   179658   179651   179645 
  179643   179644   179652   179663   179671   179679   179690   179699 
  179706   179710   179710   179710   179717   179724   179732   179749 
  179766   179776   179793   179802   179802   179802   179805   179806 
  179813   179817   179818   179820   179818   179815   179813   179809 
  179810   179814   179814   179814   179811   179806   179801   179793 
  179783   179776   179763   179743   179722   179701   179678   179662 
  179649   179637   179624   179614   179608   179602   179593   179581 
  179568   179554   179535   179516   179496   179473   179450   179427 
  179402   179381   179361   179339   179319   179292   179263   179242 
  179221   179197   179177   179162   179149   179135   179123   179109 
  179099   179093   179088   179084   179082   179084   179084   179085 
  179091   179101   179118   179130   179136   179142   179147   179154 
  179158   179161   179166   179174   179174   179170   179172   179173 
  179172   179170   179169   179169   179174   179180   179185   179197 
  179216   179240   179267   179289   179302   179320   179340   179362 
  179382   179397   179406   179417   179429   179440   179447   179452 
  179459   179464   179462   179454   179447   179439   179431   179428 
  179428   179431   179435   179440   179443   179435   179419   179398 
  179381   179366   179352   179344   179340   179335   179328   179321 
  179315   179316   179329   179346   179361   179381   179405   179429 
  179459   179493   179527   179562   179602   179643   179694   179752 
  179811   179872   179929   179980   180030   180081   180131   180176 
  180219   180260   180296   180333   180373   180408   180436   180453 
  180461   180465   180472   180480   180484   180481   180466   180445 
  180423   180400   180376   180354   180327   180295   180260   180225 
  180185   180145   180111   180079   180040   180004   179969   179930 
  179888   179841   179790   179741   179695   179647   179599   179556 
  179517   179479   179444   179410   179377   179346   179317   179292 
  179263   179238   179215   179192   179172   179158   179150   179139 
  179123   179103   179082   179064   179051   179051   179057   179059 
  179066   179077   179085   179093   179101   179108   179112   179116 
  179118   179122   179126   179131   179139   179147   179157   179167 
  179174   179181   179189   179199   179212   179231   179251   179275 
  179300   179321   179347   179377   179412   179448   179487   179528 
  179571   179617   179658   179693   179728   179764   179797   179824 
  179855   179888   179913   179932   179949   179965   179979   179991 
  180004   180014   180025   180040   180054   180061   180064   180067 
  180073   180075   180073   180069   180060   180045   180030   180013 
  179987   179955   179929   179905   179876   179851   179820   179782 
  179747   179712   179670   179624   179578   179533   179489   179440 
  179394   179350   179304   179258   179221   179192   179170   179153 
  179140   179136   179138   179146   179158   179174   179196   179221 
  179251   179281   179312   179344   179379   179421   179462   179501 
  179537   179564   179581   179597   179613   179628   179640   179644 
  179640   179635   179629   179617   179602   179586   179562   179531 
  179493   179450   179400   179346   179293   179250   179212   179167 
  179123   179078   179038   179005   178972   178945   178923   178900 
  178883   178873   178868   178865   178870   178881   178896   178914 
  178933   178951   178974   179000   179028   179058   179085   179113 
  179138   179151   179163   179178   179192   179207   179220   179232 
  179243   179246   179246   179248   179250   179251   179251   179253 
  179254   179257   179258   179261   179265   179267   179267   179266 
  179261   179259   179263   179270   179281   179296   179315   179332 
  179347   179362   179382   179401   179420   179442   179467   179490 
  179510   179532   179551   179570   179585   179597   179612   179631 
  179647   179662   179674   179685   179693   179699   179710   179721 
  179728   179739   179749   179751   179747   179741   179733   179722 
  179713   179706   179705   179706   179709   179709   179713   179720 
  179720   179717   179716   179712   179707   179706   179705   179705 
  179707   179709   179706   179701   179690   179680   179671   179659 
  179645   179633   179622   179612   179605   179605   179606   179609 
  179612   179616   179625   179636   179652   179672   179690   179706 
  179726   179743   179756   179770   179784   179801   179820   179837 
  179849   179860   179871   179879   179887   179898   179909   179921 
  179932   179934   179936   179937   179932   179926   179918   179907 
  179902   179898   179891   179878   179852   179821   179797   179772 
  179745   179721   179699   179676   179658   179637   179608   179578 
  179554   179527   179496   179467   179436   179401   179367   179335 
  179304   179267   179227   179189   179157   179128   179101   179081 
  179064   179046   179035   179024   179012   179004   179007   179016 
  179034   179058   179082   179112   179151   179186   179216   179244 
  179273   179298   179328   179361   179396   179425   179456   179485 
  179500   179505   179510   179516   179524   179532   179532   179532 
  179529   179523   179521   179517   179506   179494   179487   179486 
  179487   179485   179486   179489   179491   179498   179509   179521 
  179532   179535   179536   179539   179544   179547   179552   179562 
  179572   179586   179593   179595   179595   179597   179601   179601 
  179591   179583   179578   179571   179562   179551   179536   179520 
  179502   179485   179471   179458   179443   179428   179415   179398 
  179382   179374   179375   179378   179377   179377   179377   179374 
  179373   179381   179392   179400   179408   179413   179412   179412 
  179406   179392   179378   179362   179344   179327   179308   179288 
  179270   179254   179238   179216   179193   179172   179149   179127 
  179107   179086   179065   179042   179023   179010   178995   178978 
  178962   178945   178927   178911   178896   178888   178883   178881 
  178888   178899   178910   178918   178929   178946   178969   178997 
  179031   179068   179101   179135   179170   179205   179242   179275 
  179304   179335   179375   179421   179471   179520   179568   179621 
  179679   179739   179802   179863   179919   179977   180033   180083 
  180129   180171   180211   180252   180288   180322   180351   180380 
  180408   180424   180435   180451   180462   180461   180458   180455 
  180449   180435   180423   180409   180388   180368   180353   180338 
  180327   180319   180303   180279   180250   180222   180188   180153 
  180126   180103   180083   180068   180058   180048   180036   180023 
  180011   179998   179982   179968   179956   179942   179929   179919 
  179910   179895   179876   179859   179841   179822   179802   179779 
  179760   179741   179716   179687   179662   179639   179616   179593 
  179574   179558   179545   179533   179521   179510   179501   179493 
  179489   179486   179482   179482   179487   179493   179501   179509 
  179516   179528   179540   179555   179577   179599   179621   179644 
  179663   179676   179695   179710   179716   179720   179720   179717 
  179717   179709   179689   179668   179649   179625   179599   179574 
  179547   179516   179475   179435   179397   179361   179327   179293 
  179258   179224   179185   179142   179100   179057   179014   178973 
  178930   178891   178853   178810   178765   178726   178690   178654 
  178622   178596   178573   178548   178529   178518   178503   178490 
  178482   178478   178475   178474   178472   178475   178482   178492 
  178506   178519   178540   178567   178599   178630   178664   178699 
  178733   178765   178799   178837   178875   178907   178941   178976 
  179014   179055   179095   179136   179178   179219   179259   179298 
  179336   179373   179406   179436   179464   179491   179517   179539 
  179554   179564   179570   179568   179567   179564   179555   179540 
  179523   179502   179481   179459   179436   179420   179408   179396 
  179382   179371   179359   179347   179338   179331   179328   179327 
  179329   179335   179338   179342   179348   179361   179375   179389 
  179401   179413   179427   179440   179452   179464   179475   179483 
  179489   179496   179504   179512   179524   179536   179543   179550 
  179560   179571   179581   179587   179598   179613   179629   179649 
  179675   179701   179730   179761   179788   179815   179848   179879 
  179909   179936   179967   179996   180022   180046   180068   180083 
  180098   180110   180119   180130   180139   180144   180141   180141 
  180144   180145   180141   180134   180130   180125   180114   180102 
  180091   180080   180063   180044   180023   179999   179971   179936 
  179896   179853   179809   179764   179722   179683   179643   179604 
  179570   179536   179501   179471   179442   179409   179378   179350 
  179324   179293   179262   179234   179205   179180   179158   179136 
  179118   179107   179092   179077   179069   179062   179059   179058 
  179055   179054   179058   179062   179072   179089   179107   179124 
  179145   179161   179177   179200   179223   179243   179265   179285 
  179304   179325   179346   179369   179390   179410   179428   179444 
  179463   179478   179490   179504   179513   179516   179513   179512 
  179508   179500   179490   179477   179463   179454   179447   179439 
  179432   179421   179412   179405   179392   179378   179373   179367 
  179359   179351   179343   179336   179329   179324   179320   179319 
  179323   179325   179327   179328   179325   179315   179308   179302 
  179296   179294   179293   179292   179289   179282   179275   179267 
  179258   179248   179242   179235   179228   179226   179227   179231 
  179242   179265   179293   179325   179362   179400   179436   179474 
  179516   179559   179606   179658   179709   179760   179810   179863 
  179914   179967   180018   180064   180102   180137   180168   180195 
  180222   180245   180261   180272   180277   180273   180264   180252 
  180238   180223   180206   180185   180162   180133   180103   180080 
  180056   180027   179998   179971   179946   179925   179903   179883 
  179861   179838   179815   179793   179770   179744   179720   179697 
  179674   179647   179617   179587   179556   179523   179490   179451 
  179409   179370   179332   179296   179262   179231   179205   179182 
  179154   179123   179100   179077   179047   179024   179003   178978 
  178960   178943   178929   178914   178900   178887   178873   178861 
  178849   178837   178823   178811   178798   178789   178788   178788 
  178791   178796   178803   178806   178811   178819   178830   178841 
  178849   178850   178854   178866   178877   178887   178896   178904 
  178914   178924   178938   178951   178960   178970   178981   178991 
  179003   179019   179034   179050   179066   179082   179101   179124 
  179149   179178   179208   179240   179273   179304   179334   179363 
  179397   179429   179456   179482   179510   179537   179562   179582 
  179602   179626   179651   179675   179699   179721   179740   179759 
  179778   179798   179822   179847   179865   179884   179901   179911 
  179917   179918   179921   179928   179930   179932   179933   179932 
  179928   179921   179910   179896   179883   179874   179865   179864 
  179865   179861   179857   179853   179848   179842   179841   179845 
  179851   179852   179853   179857   179860   179860   179860   179860 
  179864   179869   179872   179876   179880   179880   179879   179879 
  179878   179869   179860   179847   179832   179818   179802   179783 
  179764   179745   179726   179706   179680   179653   179626   179597 
  179566   179533   179501   179475   179450   179421   179393   179365 
  179338   179309   179277   179243   179211   179176   179132   179092 
  179057   179019   178983   178949   178918   178889   178862   178833 
  178803   178775   178746   178717   178694   178672   178645   178622 
  178609   178599   178591   178588   178583   178584   178596   178610 
  178622   178634   178649   178671   178696   178723   178754   178789 
  178822   178854   178892   178931   178970   179015   179058   179096 
  179132   179172   179211   179246   179280   179308   179334   179358 
  179382   179408   179431   179447   179459   179467   179470   179470 
  179477   179490   179504   179518   179533   179544   179554   179564 
  179571   179579   179593   179605   179617   179637   179658   179676 
  179699   179726   179749   179770   179791   179813   179833   179856 
  179876   179895   179914   179930   179944   179960   179972   179979 
  179988   179995   179996   179998   180003   180003   179998   179995 
  179994   179988   179984   179977   179968   179957   179942   179922 
  179898   179872   179845   179817   179788   179757   179726   179695 
  179663   179631   179601   179570   179539   179505   179471   179436 
  179404   179375   179346   179317   179293   179269   179242   179213 
  179184   179158   179135   179111   179089   179068   179047   179028 
  179016   179010   179000   178993   178989   178984   178978   178976 
  178974   178974   178978   178980   178983   178992   179004   179015 
  179026   179039   179058   179081   179099   179116   179139   179162 
  179182   179208   179239   179265   179290   179320   179348   179374 
