Origin Time       2025/01/13 21:19:00
Lat.              31.8
Long.             131.6
Depth. (km)       30
Mag.              6.9
Station Code      TKSH06
Station Lat.      33.9997
Station Long.     133.8933
Station Height(m) 605
Record Time       2025/01/13 21:20:39
Sampling Freq(Hz) 100Hz
Duration Time(s)  123
Dir.              4
Scale Factor      7845(gal)/8223790
Max. Acc. (gal)   0.831
Last Correction   2025/01/13 21:20:39
Memo.             
[...]
    1397     1352     1313     1291     1275     1256     1224     1181 
    1144     1142     1170     1209     1237     1229     1169     1077 
    1005      999     1065     1197     1375     1549     1675     1730 
    1729     1721     1749     1800     1833     1829     1799     1749 
    1690     1648     1636     1634     1626     1606     1576     1556 
    1556     1557     1547     1529     1506     1478     1437     1382 
    1328     1301     1313     1347     1367     1347     1305     1290 
    1329     1410     1493     1533     1518     1462     1382     1300 
    1246     1247     1294     1347     1364     1318     1213     1104 
    1046     1058     1132     1239     1335     1387     1391     1368 
    1355     1372     1409     1448     1482     1506     1528     1539 
    1529     1512     1479     1418     1348     1293     1273     1305 
    1362     1401     1413     1405     1382     1374     1399     1449 
    1518     1591     1647     1684     1719     1752     1756     1723 
    1696     1717     1776     1811     1772     1680     1580     1497 
    1416     1304     1150      992      904      932     1043     1171 
    1283     1375     1467     1570     1648     1674     1636     1545 
    1435     1350     1304     1275     1243     1213     1208     1252 
    1358     1490     1575     1582     1545     1507     1491     1499 
    1503     1482     1445     1429     1455     1510     1568     1599 
    1579     1525     1487     1497     1525     1529     1485     1395 
    1301     1240     1232     1266     1310     1331     1302     1232 
    1158     1129     1162     1236     1318     1387     1458     1545 
    1652     1755     1830     1876     1883     1840     1748     1620 
    1498     1418     1389     1391     1404     1422     1466     1533 
    1595     1632     1625     1572     1493     1406     1320     1247 
    1202     1193     1208     1235     1262     1283     1309     1351 
    1420     1494     1537     1537     1501     1451     1410     1386 
    1360     1320     1267     1216     1188     1200     1237     1285 
    1318     1317     1281     1231     1197     1200     1231     1273 
    1309     1345     1390     1436     1472     1498     1513     1534 
    1586     1644     1665     1637     1574     1506     1458     1422 
    1381     1320     1231     1116     1009      943      923      938 
     969     1004     1040     1078     1116     1143     1169     1209 
    1271     1351     1443     1543     1647     1741     1810     1834 
    1802     1721     1615     1509     1422     1354     1301     1287 
    1312     1337     1328     1273     1193     1140     1146     1189 
    1228     1237     1215     1175     1154     1169     1202     1242 
    1289     1340     1382     1417     1456     1494     1539     1595 
    1640     1655     1644     1609     1561     1544     1561     1556 
    1494     1381     1246     1143     1116     1138     1154     1125 
    1051      978      955      978      992      966      913      858 
     834      858      911      961     1001     1034     1070     1129 
    1197     1254     1297     1345     1418     1497     1548     1556 
    1533     1506     1505     1521     1522     1478     1386     1278 
    1201     1188     1225     1264     1255     1188     1089      989 
     911      882      923     1000     1069     1101     1098     1085 
    1113     1190     1264     1298     1286     1239     1194     1192 
    1228     1266     1271     1219     1127     1032      955      904 
     900      930      959      989     1034     1105     1202     1313 
    1408     1472     1502     1507     1510     1529     1566     1636 
    1737     1829     1873     1867     1831     1803     1776     1733 
    1672     1607     1556     1540     1556     1595     1634     1642 
    1613     1540     1431     1318     1254     1252     1285     1314 
    1328     1327     1317     1312     1323     1363     1422     1466 
    1476     1463     1459     1497     1568     1633     1661     1638 
    1576     1499     1425     1363     1325     1320     1341     1382 
    1424     1449     1449     1447     1475     1533     1582     1590 
    1559     1518     1510     1557     1634     1687     1678     1599 
    1482     1370     1282     1205     1119     1023      936      885 
     884      923     1003     1115     1221     1297     1343     1374 
    1404     1445     1509     1582     1648     1678     1684     1703 
    1742     1782     1780     1705     1597     1521     1506     1532 
    1551     1536     1514     1517     1555     1615     1671     1707 
    1730     1742     1738     1713     1672     1622     1566     1499 
    1439     1386     1343     1313     1304     1310     1316     1317 
    1321     1332     1352     1381     1404     1408     1397     1394 
    1410     1428     1441     1466     1493     1494     1462     1391 
    1285     1159     1030      919      859      853      872      903 
     940      992     1075     1190     1306     1397     1455     1485 
    1509     1541     1583     1636     1683     1710     1715     1703 
    1661     1583     1487     1390     1302     1224     1154     1093 
    1057     1047     1059     1094     1154     1220     1274     1314 
    1335     1343     1356     1379     1406     1445     1489     1514 
    1520     1513     1501     1494     1494     1487     1474     1452 
    1424     1395     1383     1381     1370     1347     1323     1310 
    1320     1345     1383     1417     1429     1420     1408     1406 
    1395     1355     1301     1246     1204     1196     1220     1252 
    1289     1340     1402     1472     1547     1629     1718     1807 
    1879     1923     1937     1903     1833     1756     1683     1611 
    1537     1440     1309     1174     1067     1004      999     1035 
    1074     1104     1142     1200     1281     1364     1422     1436 
    1428     1436     1470     1506     1507     1466     1406     1344 
    1279     1220     1167     1121     1092     1080     1084     1096 
    1117     1165     1240     1321     1386     1437     1478     1493 
    1478     1447     1422     1410     1401     1386     1371     1355 
    1350     1351     1348     1337     1320     1296     1269     1258 
    1282     1343     1414     1456     1449     1424     1418     1449 
    1499     1539     1570     1593     1607     1624     1637     1633 
    1621     1605     1571     1516     1444     1377     1325     1285 
    1246     1221     1220     1227     1231     1237     1252     1285 
    1327     1348     1345     1335     1339     1372     1429     1485 
    1520     1545     1574     1605     1641     1669     1674     1656 
    1617     1566     1514     1468     1426     1397     1381     1378 
    1375     1343     1266     1165     1089     1074     1115     1171 
    1205     1198     1181     1192     1254     1347     1435     1480 
    1489     1491     1501     1516     1521     1498     1448     1393 
    1351     1329     1316     1297     1277     1263     1250     1223 
    1189     1158     1134     1139     1204     1312     1413     1471 
    1474     1453     1452     1476     1498     1489     1447     1394 
    1363     1366     1375     1368     1337     1279     1219     1189 
    1198     1240     1286     1306     1306     1305     1317     1348 
    1386     1410     1413     1395     1372     1368     1390     1425 
    1453     1462     1449     1436     1435     1453     1472     1467 
    1447     1426     1393     1344     1297     1260     1243     1247 
    1254     1248     1236     1220     1201     1186     1189     1221 
    1281     1360     1453     1547     1624     1664     1682     1703 
    1741     1792     1838     1854     1833     1799     1783     1799 
    1848     1902     1935     1945     1934     1918     1910     1912 
    1903     1867     1813     1755     1710     1671     1617     1549 
    1490     1444     1409     1377     1347     1336     1341     1336 
    1300     1236     1174     1144     1147     1169     1200     1227 
    1250     1277     1306     1335     1354     1355     1343     1327 
    1317     1328     1359     1397     1424     1432     1412     1362 
    1301     1240     1190     1154     1125     1093     1048      989 
     931      900      897      912      930      946      967     1008 
    1066     1132     1201     1266     1327     1383     1424     1448 
    1456     1439     1397     1341     1286     1256     1269     1297 
    1317     1332     1351     1382     1426     1474     1517     1557 
    1593     1629     1665     1694     1709     1709     1686     1645 
    1599     1555     1502     1441     1383     1345     1325     1314 
    1309     1314     1331     1352     1368     1375     1385     1410 
    1448     1491     1537     1579     1617     1651     1674     1684 
    1694     1702     1709     1713     1710     1695     1667     1625 
    1572     1512     1447     1383     1333     1293     1256     1236 
    1237     1255     1294     1345     1395     1447     1506     1568 
    1633     1696     1733     1736     1717     1687     1651     1603 
    1540     1459     1372     1294     1246     1242     1282     1345 
    1417     1490     1553     1599     1628     1648     1667     1678 
    1679     1672     1653     1629     1605     1567     1522     1491 
    1471     1456     1455     1463     1479     1510     1544     1556 
    1533     1490     1445     1422     1417     1402     1355     1282 
    1208     1159     1143     1144     1139     1108     1066     1046 
    1043     1040     1026      996      959      930      924      943 
     970     1001     1027     1046     1073     1105     1132     1156 
    1183     1205     1228     1254     1278     1293     1287     1254 
    1216     1192     1188     1201     1217     1227     1243     1273 
    1310     1356     1418     1489     1563     1645     1728     1796 
    1854     1896     1915     1923     1934     1942     1942     1937 
    1927     1922     1925     1933     1930     1903     1848     1776 
    1711     1655     1595     1528     1445     1358     1282     1231 
    1206     1197     1190     1181     1159     1139     1136     1139 
    1139     1144     1155     1175     1201     1224     1232     1225 
    1212     1201     1190     1182     1178     1167     1151     1142 
    1146     1165     1193     1223     1243     1251     1254     1252 
    1254     1274     1308     1333     1350     1362     1375     1391 
    1402     1401     1391     1381     1372     1370     1368     1363 
    1358     1356     1362     1387     1440     1506     1576     1642 
    1705     1768     1838     1912     1979     2029     2062     2083 
    2095     2101     2100     2081     2035     1958     1858     1759 
    1680     1626     1579     1522     1460     1422     1436     1480 
    1530     1564     1561     1537     1521     1518     1520     1516 
    1478     1405     1316     1236     1179     1150     1129     1105 
    1094     1098     1102     1089     1057     1019      994      990 
     999     1012     1032     1058     1078     1096     1115     1135 
    1144     1138     1127     1124     1135     1159     1192     1215 
    1223     1233     1252     1274     1298     1328     1358     1387 
    1421     1451     1466     1476     1483     1479     1458     1413 
    1356     1298     1246     1205     1179     1152     1115     1080 
    1066     1085     1138     1209     1282     1348     1414     1494 
    1588     1684     1768     1826     1869     1907     1934     1937 
    1898     1810     1692     1567     1448     1332     1212     1085 
     966      861      773      697      626      567      538      550 
     588      642      706      772      850      939     1017     1074 
    1124     1174     1219     1259     1282     1274     1248     1231 
    1228     1239     1255     1252     1229     1206     1198     1208 
    1229     1246     1259     1279     1301     1325     1355     1381 
    1395     1408     1428     1462     1495     1512     1503     1482 
    1466     1471     1494     1514     1520     1513     1514     1553 
    1622     1683     1713     1717     1713     1726     1767     1822 
    1863     1869     1842     1806     1782     1769     1763     1752 
    1721     1672     1629     1594     1571     1549     1514     1474 
    1451     1444     1458     1495     1547     1588     1615     1622 
    1614     1598     1593     1603     1618     1618     1601     1572 
    1540     1513     1505     1502     1491     1480     1476     1475 
    1489     1516     1536     1533     1502     1451     1408     1389 
    1390     1406     1426     1443     1448     1441     1432     1429 
    1433     1440     1443     1432     1409     1371     1329     1300 
    1283     1278     1279     1277     1271     1271     1286     1325 
    1382     1437     1478     1499     1512     1514     1503     1480 
    1455     1433     1424     1417     1397     1359     1314     1270 
    1237     1219     1198     1181     1175     1181     1202     1239 
    1273     1291     1297     1298     1305     1323     1336     1328 
    1294     1246     1194     1155     1136     1134     1129     1127 
    1143     1183     1250     1336     1424     1505     1588     1679 
    1773     1869     1961     2042     2110     2162     2208     2246 
    2263     2259     2239     2209     2178     2150     2119     2079 
    2019     1941     1854     1777     1718     1665     1609     1552 
    1512     1493     1497     1510     1514     1501     1487     1480 
    1474     1467     1464     1460     1455     1449     1444     1441 
    1441     1439     1424     1401     1385     1368     1352     1335 
    1305     1266     1242     1228     1210     1200     1200     1213 
    1235     1254     1266     1271     1275     1285     1296     1286 
    1254     1216     1194     1196     1212     1239     1264     1286 
    1317     1363     1426     1486     1513     1507     1485     1458 
    1433     1405     1362     1302     1233     1174     1127     1096 
    1089     1093     1089     1074     1061     1066     1102     1167 
    1244     1325     1398     1463     1526     1587     1638     1680 
    1715     1740     1748     1745     1741     1736     1728     1717 
    1703     1688     1664     1628     1578     1520     1456     1397 
    1344     1304     1281     1290     1321     1359     1391     1421 
    1458     1512     1574     1628     1664     1694     1719     1737 
    1736     1702     1637     1559     1485     1413     1343     1270 
    1185     1092     1001      920      865      839      820      801 
     792      796      814      853      909      976     1042     1105 
    1162     1213     1270     1333     1390     1426     1435     1425 
    1421     1431     1445     1437     1387     1305     1209     1127 
    1074     1047     1027     1005      986      970      962      977 
    1004     1034     1067     1105     1140     1179     1227     1273 
    1316     1359     1391     1421     1451     1463     1453     1436 
    1421     1413     1401     1366     1309     1246     1194     1169 
    1159     1154     1142     1121     1096     1080     1090     1139 
    1215     1297     1367     1426     1497     1580     1663     1734 
    1788     1818     1827     1826     1817     1796     1764     1718 
    1665     1620     1587     1553     1514     1480     1449     1416 
    1387     1367     1362     1377     1405     1444     1494     1557 
    1626     1687     1725     1730     1723     1713     1699     1683 
    1661     1637     1609     1575     1541     1507     1471     1436 
    1420     1421     1435     1453     1479     1520     1579     1652 
    1729     1791     1825     1834     1837     1845     1858     1860 
    1833     1777     1710     1645     1587     1525     1460     1402 
    1366     1352     1359     1372     1385     1389     1382     1371 
    1359     1347     1335     1313     1271     1215     1147     1077 
    1011      954      909      873      841      812      784      757 
     735      723      719      723      735      756      776      783 
     778      774      774      773      773      773      770      768 
     769      770      777      787      803      827      861      904 
     957     1016     1090     1178     1264     1343     1412     1474 
    1533     1584     1621     1640     1647     1652     1661     1663 
    1648     1615     1574     1532     1489     1443     1399     1371 
    1356     1350     1350     1355     1356     1352     1352     1359 
    1372     1390     1402     1406     1408     1404     1391     1364 
    1317     1255     1198     1161     1138     1113     1078     1040 
    1015     1011     1020     1034     1042     1040     1043     1066 
    1107     1151     1200     1254     1304     1337     1355     1351 
    1327     1297     1263     1221     1183     1156     1135     1124 
    1113     1096     1077     1062     1065     1098     1148     1198 
    1240     1281     1331     1391     1462     1532     1590     1638 
    1684     1718     1736     1748     1757     1765     1780     1804 
    1826     1848     1871     1890     1903     1912     1927     1956 
    1996     2041     2084     2116     2143     2166     2187     2200 
    2204     2201     2203     2207     2214     2211     2189     2160 
    2137     2115     2089     2052     1996     1927     1854     1786 
    1718     1651     1580     1503     1421     1347     1290     1243 
    1201     1161     1117     1082     1066     1070     1097     1143 
    1189     1228     1270     1309     1343     1371     1395     1412 
    1418     1421     1414     1398     1372     1339     1309     1286 
    1258     1219     1177     1127     1067     1016      978      955 
     949      957      974     1000     1028     1054     1077     1100 
    1116     1135     1156     1182     1206     1236     1274     1321 
    1366     1401     1426     1436     1431     1420     1409     1395 
    1385     1374     1356     1335     1312     1279     1242     1198 
    1165     1148     1148     1161     1181     1205     1232     1264 
    1306     1354     1398     1439     1475     1517     1564     1605 
    1638     1668     1696     1728     1763     1788     1784     1750 
    1705     1657     1615     1583     1551     1520     1501     1507 
    1543     1583     1609     1615     1614     1611     1615     1629 
    1644     1665     1695     1734     1775     1806     1826     1833 
    1823     1798     1767     1736     1714     1696     1669     1637 
    1613     1599     1588     1586     1599     1617     1634     1660 
    1686     1707     1733     1765     1794     1814     1830     1849 
    1865     1872     1877     1880     1879     1875     1864     1833 
    1787     1742     1703     1665     1621     1567     1516     1471 
    1437     1418     1406     1386     1355     1314     1266     1213 
    1162     1115     1077     1050     1030     1017     1005      990 
     981      985     1000     1016     1028     1035     1043     1054 
    1070     1088     1092     1080     1058     1028      996      965 
