Origin Time       2025/01/13 21:19:00
Lat.              31.8
Long.             131.6
Depth. (km)       30
Mag.              6.9
Station Code      TKSH03
Station Lat.      33.8778
Station Long.     134.1294
Station Height(m) 439
Record Time       2025/01/13 21:20:46
Sampling Freq(Hz) 100Hz
Duration Time(s)  120
Dir.              2
Scale Factor      2942(gal)/8224139
Max. Acc. (gal)   0.399
Last Correction   2025/01/13 21:20:47
Memo.             
[...]
   37309    37300    37308    37332    37355    37378    37390    37378 
   37359    37353    37358    37373    37384    37384    37390    37415 
   37432    37432    37423    37409    37400    37381    37355    37349 
   37366    37374    37370    37380    37395    37401    37403    37403 
   37400    37399    37401    37415    37439    37454    37453    37449 
   37443    37428    37417    37420    37430    37435    37432    37424 
   37408    37385    37363    37343    37336    37349    37365    37374 
   37374    37381    37396    37407    37393    37355    37309    37269 
   37243    37231    37216    37187    37149    37118    37115    37127 
   37134    37141    37149    37157    37176    37200    37224    37250 
   37280    37308    37328    37334    37328    37326    37330    37339 
   37341    37328    37314    37312    37316    37312    37303    37297 
   37304    37319    37332    37339    37341    37327    37314    37318 
   37336    37347    37355    37369    37376    37378    37382    37395 
   37420    37444    37454    37454    37450    37443    37435    37432 
   37438    37440    37444    37454    37467    37473    37466    37463 
   37466    37466    37461    37453    37443    37436    37443    37458 
   37470    37473    37461    37430    37400    37381    37372    37369 
   37363    37351    37349    37354    37357    37350    37328    37315 
   37320    37326    37334    37355    37373    37377    37381    37382 
   37388    37393    37390    37382    37386    37400    37400    37390 
   37389    37386    37388    37409    37428    37439    37454    37459 
   37450    37444    37446    37443    37435    37422    37404    37395 
   37399    37403    37396    37380    37350    37318    37297    37287 
   37273    37250    37216    37189    37183    37184    37181    37173 
   37157    37131    37099    37068    37045    37023    37000    36983 
   36972    36968    36983    37007    37029    37048    37060    37083 
   37125    37162    37180    37169    37145    37139    37157    37173 
   37183    37203    37238    37269    37284    37296    37316    37327 
   37315    37301    37305    37315    37322    37335    37347    37341 
   37312    37288    37277    37277    37281    37270    37233    37196 
   37188    37199    37211    37220    37228    37250    37274    37292 
   37307    37322    37341    37369    37397    37415    37419    37422 
   37440    37473    37511    37547    37558    37548    37546    37540 
   37534    37527    37516    37519    37539    37550    37542    37531 
   37524    37520    37517    37519    37528    37536    37531    37508 
   37486    37470    37449    37435    37438    37443    37446    37442 
   37424    37412    37432    37458    37457    37449    37461    37466 
   37454    37440    37434    37432    37434    37424    37408    37405 
   37409    37407    37407    37408    37411    37426    37434    37424 
   37407    37381    37358    37346    37324    37304    37309    37326 
   37330    37319    37299    37280    37270    37274    37273    37255 
   37234    37218    37201    37181    37172    37169    37154    37137 
   37127    37118    37103    37079    37048    37022    37017    37021 
   37021    37017    37007    36991    36979    36973    36963    36948 
   36936    36936    36938    36927    36914    36904    36895    36896 
   36904    36904    36903    36902    36898    36899    36902    36895 
   36886    36880    36884    36892    36895    36899    36918    36946 
   36975    37004    37026    37046    37072    37099    37126    37152 
   37174    37193    37211    37231    37262    37291    37318    37362 
   37407    37439    37471    37507    37538    37559    37573    37585 
   37606    37638    37667    37685    37696    37702    37700    37689 
   37681    37683    37692    37690    37678    37660    37639    37606 
   37566    37528    37501    37484    37470    37453    37436    37428 
   37431    37431    37426    37411    37380    37351    37343    37345 
   37345    37342    37323    37292    37265    37245    37218    37180 
   37146    37137    37149    37157    37153    37139    37119    37114 
   37119    37112    37095    37076    37048    37018    36996    36976 
   36954    36942    36937    36921    36884    36840    36805    36776 
   36751    36733    36707    36668    36639    36620    36594    36562 
   36531    36508    36490    36485    36489    36493    36495    36505 
   36518    36541    36572    36603    36630    36653    36663    36660 
   36661    36671    36679    36686    36698    36720    36748    36783 
   36823    36865    36909    36956    36994    37025    37065    37112 
   37154    37187    37208    37226    37243    37250    37253    37260 
   37258    37257    37270    37291    37304    37319    37339    37357 
   37381    37417    37450    37470    37484    37493    37505    37536 
   37569    37575    37578    37592    37605    37632    37666    37687 
   37713    37740    37762    37793    37825    37829    37809    37790 
   37773    37759    37746    37732    37725    37729    37736    37737 
   37733    37736    37755    37771    37775    37773    37759    37747 
   37740    37723    37700    37678    37650    37612    37573    37535 
   37500    37470    37442    37405    37361    37319    37291    37273 
   37255    37245    37230    37193    37157    37134    37111    37088 
   37069    37039    37003    36975    36950    36930    36921    36930 
   36945    36952    36956    36968    36988    37018    37048    37064 
   37073    37076    37071    37061    37061    37060    37046    37025 
   37006    37000    37000    36998    36985    36967    36949    36938 
   36936    36942    36948    36953    36964    36984    37004    37019 
   37026    37026    37026    37029    37035    37054    37072    37071 
   37064    37068    37088    37114    37139    37161    37181    37197 
   37207    37212    37212    37201    37195    37207    37226    37233 
   37237    37237    37224    37215    37218    37220    37220    37219 
   37207    37195    37199    37200    37189    37183    37177    37164 
   37141    37125    37125    37127    37129    37137    37149    37161 
   37183    37216    37251    37270    37273    37282    37304    37326 
   37342    37358    37378    37409    37450    37489    37521    37548 
   37575    37612    37658    37700    37731    37758    37786    37813 
   37837    37862    37876    37872    37858    37844    37833    37821 
   37812    37808    37813    37820    37818    37809    37794    37775 
   37754    37732    37712    37689    37666    37644    37624    37605 
   37594    37593    37604    37624    37652    37679    37698    37710 
   37719    37717    37708    37704    37705    37704    37698    37696 
   37694    37687    37679    37671    37667    37665    37656    37647 
   37642    37642    37644    37651    37663    37678    37692    37709 
   37729    37744    37747    37746    37741    37732    37710    37681 
   37659    37648    37624    37574    37520    37484    37458    37434 
   37405    37374    37346    37327    37319    37318    37315    37312 
   37315    37319    37319    37331    37363    37400    37426    37442 
   37450    37457    37461    37459    37455    37453    37444    37439 
   37435    37422    37408    37403    37405    37409    37404    37382 
   37358    37339    37327    37320    37314    37307    37305    37318 
   37338    37355    37368    37374    37373    37376    37388    37403 
   37409    37409    37404    37388    37362    37334    37316    37308 
   37292    37265    37245    37235    37222    37200    37174    37141 
   37103    37065    37027    36988    36950    36911    36871    36840 
   36821    36802    36783    36779    36776    36768    36771    36788 
   36813    36840    36857    36867    36872    36877    36886    36900 
   36921    36930    36934    36949    36977    37006    37027    37041 
   37057    37075    37091    37110    37134    37168    37203    37230 
   37254    37274    37295    37316    37332    37341    37343    37354 
   37377    37407    37427    37438    37451    37469    37485    37504 
   37527    37554    37569    37567    37565    37569    37573    37569 
   37561    37558    37561    37558    37551    37540    37530    37527 
   37534    37539    37536    37532    37532    37548    37584    37617 
   37623    37608    37601    37606    37617    37629    37636    37642 
   37647    37644    37639    37636    37629    37615    37592    37555 
   37519    37494    37473    37450    37428    37405    37377    37346 
   37311    37264    37219    37191    37172    37153    37129    37099 
   37075    37057    37033    37006    36984    36969    36957    36952 
   36954    36963    36969    36975    36980    36987    36994    36999 
   37000    37011    37034    37065    37095    37120    37146    37173 
   37195    37214    37233    37254    37278    37301    37328    37362 
   37392    37412    37427    37438    37449    37463    37480    37498 
   37517    37531    37536    37534    37535    37542    37543    37543 
   37558    37582    37596    37598    37600    37602    37613    37628 
   37646    37658    37658    37654    37662    37681    37696    37701 
   37704    37702    37694    37682    37670    37663    37660    37658 
   37659    37658    37650    37636    37619    37600    37569    37519 
   37469    37426    37376    37327    37291    37250    37211    37191 
   37185    37176    37160    37145    37147    37156    37153    37142 
   37130    37119    37110    37099    37088    37075    37064    37065 
   37073    37069    37060    37050    37041    37034    37037    37042 
   37046    37057    37079    37104    37126    37146    37174    37208 
   37231    37239    37253    37272    37295    37330    37366    37397 
   37430    37451    37451    37447    37455    37474    37494    37516 
   37538    37563    37575    37573    37581    37596    37597    37596 
   37590    37570    37546    37528    37512    37498    37493    37498 
   37501    37497    37497    37507    37520    37532    37538    37542 
   37551    37561    37562    37561    37563    37574    37592    37598 
   37594    37592    37590    37586    37582    37577    37567    37565 
   37569    37565    37548    37532    37521    37517    37511    37493 
   37467    37439    37416    37399    37388    37386    37378    37369 
   37361    37357    37362    37382    37403    37430    37462    37486 
   37507    37536    37573    37613    37665    37725    37787    37840 
   37891    37939    37968    37982    37989    37990    37993    37994 
   37986    37962    37926    37887    37847    37802    37756    37705 
   37650    37601    37558    37508    37459    37423    37395    37370 
   37347    37322    37292    37266    37243    37223    37201    37177 
   37147    37119    37088    37049    37012    36987    36968    36945 
   36918    36895    36890    36894    36887    36865    36837    36813 
   36799    36787    36772    36757    36742    36724    36707    36701 
   36702    36709    36724    36737    36744    36747    36751    36759 
   36767    36783    36814    36836    36842    36863    36896    36923 
   36953    36998    37052    37104    37149    37189    37227    37255 
   37288    37326    37369    37408    37430    37440    37447    37451 
   37457    37449    37430    37413    37395    37368    37335    37297 
   37250    37212    37192    37174    37157    37141    37122    37100 
   37079    37061    37035    37002    36977    36971    36971    36979 
   36990    36995    36996    36996    36992    36987    36991    37004 
   37027    37053    37077    37096    37110    37119    37134    37147 
   37153    37146    37134    37126    37111    37088    37058    37027 
   36994    36963    36937    36911    36887    36860    36829    36799 
   36776    36751    36726    36707    36697    36699    36703    36695 
   36686    36684    36684    36683    36695    36711    36726    36753 
   36782    36802    36825    36859    36898    36940    36983    37033 
   37079    37115    37145    37170    37195    37219    37241    37272 
   37314    37357    37403    37447    37489    37540    37600    37654 
   37704    37762    37822    37872    37912    37947    37980    38014 
   38049    38087    38132    38176    38200    38210    38227    38248 
   38264    38287    38315    38333    38344    38353    38350    38352 
   38361    38358    38345    38329    38308    38284    38263    38242 
   38225    38205    38169    38129    38097    38068    38045    38028 
   38009    37991    37968    37935    37901    37868    37837    37820 
   37818    37818    37816    37816    37816    37816    37814    37809 
   37798    37779    37755    37727    37697    37658    37609    37555 
   37497    37434    37378    37327    37272    37219    37168    37104 
   37038    36977    36917    36860    36810    36759    36706    36657 
   36613    36562    36510    36468    36435    36402    36371    36337 
   36310    36294    36285    36274    36265    36252    36238    36232 
   36234    36231    36234    36246    36258    36273    36289    36302 
   36323    36348    36378    36420    36479    36541    36598    36655 
   36711    36769    36832    36891    36949    37014    37079    37142 
   37200    37257    37323    37397    37470    37539    37611    37681 
   37747    37816    37891    37970    38043    38099    38151    38206 
   38256    38295    38331    38364    38387    38402    38414    38426 
   38433    38441    38449    38442    38429    38415    38395    38375 
   38362    38353    38340    38326    38314    38300    38275    38242 
   38218    38202    38191    38191    38200    38206    38210    38218 
   38219    38209    38202    38200    38192    38180    38169    38151 
   38128    38107    38088    38063    38030    37998    37963    37925 
   37891    37856    37812    37768    37725    37674    37625    37589 
   37558    37523    37480    37436    37396    37357    37320    37289 
   37269    37253    37247    37258    37273    37272    37254    37239 
   37234    37227    37219    37207    37193    37188    37184    37174 
   37169    37165    37152    37130    37108    37083    37049    37017 
   36984    36950    36921    36892    36857    36818    36780    36753 
   36732    36709    36684    36671    36663    36655    36651    36657 
   36670    36684    36701    36714    36726    36733    36737    36749 
   36763    36776    36794    36802    36807    36814    36821    36829 
   36841    36852    36864    36886    36919    36957    36994    37027 
   37062    37098    37137    37183    37224    37253    37278    37315 
   37358    37396    37424    37455    37505    37562    37615    37675 
   37737    37786    37836    37897    37953    38006    38061    38113 
   38161    38210    38253    38286    38307    38319    38329    38341 
   38354    38364    38368    38368    38362    38354    38340    38314 
   38284    38259    38232    38202    38178    38152    38129    38113 
   38095    38070    38036    37994    37960    37926    37887    37844 
   37800    37748    37693    37636    37581    37524    37466    37416 
   37376    37342    37305    37266    37218    37165    37123    37106 
   37091    37066    37045    37029    37017    37004    36984    36960 
   36942    36930    36917    36907    36903    36904    36909    36914 
   36909    36896    36890    36888    36890    36898    36910    36918 
   36921    36926    36938    36950    36958    36967    36984    37014 
   37045    37069    37088    37102    37116    37133    37149    37173 
   37204    37227    37239    37257    37278    37300    37320    37341 
   37365    37400    37443    37488    37523    37554    37589    37628 
   37659    37692    37731    37770    37798    37820    37847    37872 
   37886    37903    37926    37945    37956    37957    37949    37945 
   37939    37932    37926    37917    37908    37893    37871    37852 
   37836    37820    37808    37798    37789    37781    37773    37760 
   37744    37729    37709    37683    37663    37643    37616    37590 
   37574    37558    37532    37500    37470    37436    37393    37343 
   37287    37234    37188    37146    37114    37091    37061    37022 
   36985    36952    36909    36860    36826    36810    36803    36802 
   36799    36798    36801    36809    36821    36836    36857    36882 
   36907    36940    36969    36991    37014    37034    37049    37071 
   37100    37134    37153    37158    37166    37179    37195    37215 
   37228    37233    37234    37235    37231    37227    37223    37216 
   37207    37201    37196    37185    37165    37142    37123    37112 
   37110    37108    37110    37111    37112    37114    37118    37122 
   37127    37131    37137    37145    37154    37165    37176    37185 
   37196    37212    37237    37261    37281    37307    37334    37365 
   37392    37409    37428    37447    37461    37482    37508    37519 
   37520    37527    37539    37551    37567    37589    37608    37623 
   37632    37632    37624    37620    37623    37627    37624    37616 
   37606    37594    37582    37574    37566    37552    37540    37535 
   37532    37525    37515    37503    37490    37481    37473    37461 
   37446    37428    37404    37380    37358    37338    37327    37312 
   37288    37266    37250    37239    37235    37238    37241    37239 
   37242    37245    37247    37251    37254    37254    37260    37277 
   37297    37309    37316    37324    37341    37358    37377    37397 
   37424    37449    37461    37466    37466    37465    37469    37473 
   37476    37478    37485    37497    37512    37521    37524    37523 
   37520    37524    37539    37557    37575    37597    37617    37632 
   37650    37674    37708    37743    37775    37806    37832    37849 
   37867    37883    37889    37885    37885    37890    37895    37889 
   37874    37854    37836    37820    37802    37778    37754    37732 
   37714    37696    37670    37648    37635    37619    37600    37582 
   37569    37561    37551    37543    37535    37523    37507    37489 
   37471    37455    37438    37413    37389    37372    37345    37315 
   37292    37270    37243    37215    37189    37166    37146    37129 
   37112    37107    37103    37092    37083    37077    37072    37072 
   37076    37076    37072    37065    37056    37049    37045    37052 
   37062    37066    37069    37080    37098    37125    37149    37165 
   37177    37185    37195    37206    37210    37214    37219    37222 
   37220    37219    37210    37199    37197    37199    37200    37210 
   37218    37227    37245    37266    37292    37319    37342    37365 
   37395    37436    37477    37513    37551    37586    37615    37632 
   37639    37646    37660    37670    37675    37689    37702    37706 
   37706    37708    37712    37717    37719    37723    37729    37725 
   37710    37694    37670    37639    37611    37582    37550    37519 
   37486    37447    37412    37386    37363    37341    37318    37297 
   37281    37268    37253    37245    37238    37233    37227    37216 
   37203    37187    37165    37143    37126    37104    37077    37049 
   37022    36995    36965    36933    36910    36894    36877    36863 
   36850    36844    36840    36838    36838    36833    36823    36817 
