Origin Time       2025/01/13 21:19:00
Lat.              31.8
Long.             131.6
Depth. (km)       30
Mag.              6.9
Station Code      TKSH04
Station Lat.      33.9902
Station Long.     134.5337
Station Height(m) 10
Record Time       2025/01/13 21:21:06
Sampling Freq(Hz) 100Hz
Duration Time(s)  120
Dir.              4
Scale Factor      7845(gal)/8223790
Max. Acc. (gal)   0.720
Last Correction   2025/01/13 21:21:07
Memo.             
   -9100    -9097    -9097    -9090    -9080    -9080    -9092    -9119 
   -9157    -9197    -9235    -9259    -9278    -9296    -9301    -9293 
   -9273    -9243    -9205    -9166    -9131    -9101    -9074    -9047 
   -9020    -8999    -8988    -8995    -9020    -9054    -9082    -9103 
   -9121    -9139    -9147    -9146    -9144    -9142    -9144    -9151 
   -9157    -9158    -9162    -9170    -9173    -9166    -9157    -9151 
   -9150    -9151    -9151    -9144    -9142    -9134    -9109    -9076 
   -9046    -9024    -9016    -9027    -9050    -9076    -9093    -9103 
   -9109    -9116    -9123    -9135    -9159    -9178    -9185    -9186 
   -9185    -9171    -9148    -9130    -9127    -9142    -9158    -9169 
   -9182    -9204    -9215    -9213    -9215    -9217    -9213    -9200 
   -9184    -9166    -9147    -9119    -9084    -9053    -9024    -8997 
   -8988    -8997    -9018    -9047    -9084    -9119    -9142    -9155 
   -9165    -9184    -9211    -9232    -9240    -9234    -9205    -9166 
   -9128    -9100    -9074    -9039    -9011    -8999    -8996    -8999 
   -9011    -9026    -9035    -9046    -9063    -9090    -9123    -9158 
   -9194    -9224    -9243    -9254    -9265    -9279    -9289    -9285 
   -9262    -9229    -9190    -9147    -9109    -9081    -9061    -9053 
   -9054    -9053    -9053    -9067    -9089    -9109    -9126    -9136 
   -9147    -9167    -9188    -9197    -9189    -9170    -9144    -9113 
   -9090    -9084    -9086    -9092    -9094    -9096    -9105    -9121 
   -9136    -9154    -9170    -9182    -9194    -9208    -9219    -9217 
   -9205    -9185    -9161    -9139    -9127    -9123    -9127    -9135 
   -9135    -9120    -9093    -9065    -9047    -9045    -9051    -9055 
   -9054    -9055    -9063    -9074    -9090    -9112    -9130    -9134 
   -9128    -9119    -9111    -9105    -9105    -9111    -9113    -9117 
   -9123    -9121    -9107    -9082    -9063    -9059    -9072    -9086 
   -9094    -9111    -9136    -9159    -9177    -9197    -9217    -9231 
   -9240    -9247    -9246    -9239    -9224    -9194    -9158    -9117 
   -9081    -9066    -9077    -9096    -9113    -9121    -9117    -9109 
   -9105    -9105    -9119    -9147    -9185    -9227    -9256    -9270 
   -9273    -9271    -9266    -9256    -9246    -9236    -9223    -9200 
   -9165    -9123    -9081    -9046    -9020    -9003    -8996    -9001 
   -9007    -9018    -9036    -9055    -9076    -9094    -9109    -9124 
   -9140    -9153    -9159    -9165    -9171    -9174    -9167    -9151 
   -9128    -9109    -9088    -9058    -9028    -9005    -8989    -8981 
   -8976    -8966    -8964    -8980    -9012    -9055    -9104    -9147 
   -9178    -9202    -9225    -9247    -9262    -9274    -9278    -9262 
   -9224    -9182    -9147    -9120    -9101    -9086    -9072    -9053 
   -9040    -9047    -9074    -9105    -9128    -9151    -9189    -9236 
   -9277    -9301    -9315    -9316    -9301    -9274    -9239    -9205 
   -9186    -9177    -9161    -9132    -9100    -9069    -9043    -9027 
   -9019    -9012    -9012    -9027    -9058    -9100    -9138    -9163 
   -9175    -9178    -9174    -9173    -9177    -9174    -9169    -9159 
   -9146    -9132    -9123    -9116    -9115    -9124    -9148    -9171 
   -9185    -9186    -9177    -9171    -9165    -9154    -9150    -9151 
   -9154    -9169    -9181    -9173    -9154    -9138    -9120    -9103 
   -9093    -9093    -9092    -9077    -9053    -9038    -9040    -9057 
   -9082    -9113    -9139    -9154    -9154    -9142    -9127    -9120 
   -9111    -9096    -9081    -9067    -9059    -9063    -9069    -9066 
   -9051    -9027    -9001    -8988    -8988    -9001    -9022    -9039 
   -9051    -9063    -9078    -9096    -9117    -9139    -9162    -9186 
   -9201    -9204    -9197    -9185    -9173    -9169    -9162    -9144 
   -9126    -9113    -9109    -9112    -9109    -9094    -9078    -9073 
   -9077    -9092    -9116    -9144    -9170    -9186    -9192    -9193 
   -9196    -9201    -9207    -9213    -9224    -9236    -9246    -9244 
   -9225    -9193    -9159    -9134    -9111    -9090    -9074    -9067 
   -9067    -9073    -9077    -9065    -9040    -9019    -9009    -9015 
   -9031    -9049    -9061    -9066    -9069    -9077    -9084    -9093 
   -9115    -9136    -9147    -9154    -9155    -9150    -9151    -9159 
   -9170    -9171    -9163    -9150    -9142    -9150    -9167    -9186 
   -9192    -9181    -9161    -9142    -9128    -9115    -9108    -9115 
   -9126    -9134    -9138    -9131    -9123    -9123    -9131    -9131 
   -9126    -9130    -9144    -9170    -9204    -9227    -9227    -9208 
   -9180    -9161    -9159    -9169    -9184    -9200    -9213    -9220 
   -9213    -9198    -9178    -9154    -9131    -9108    -9094    -9084 
   -9063    -9038    -9013    -8986    -8969    -8959    -8953    -8958 
   -8984    -9013    -9035    -9054    -9082    -9117    -9161    -9205 
   -9239    -9255    -9255    -9243    -9225    -9208    -9189    -9169 
   -9144    -9119    -9099    -9088    -9080    -9074    -9069    -9072 
   -9092    -9130    -9178    -9228    -9267    -9296    -9312    -9315 
   -9315    -9320    -9329    -9335    -9321    -9290    -9248    -9202 
   -9161    -9128    -9094    -9063    -9045    -9042    -9045    -9053 
   -9058    -9050    -9039    -9034    -9040    -9062    -9085    -9100 
   -9107    -9099    -9086    -9081    -9081    -9078    -9073    -9065 
   -9051    -9031    -9012    -9004    -9003    -9008    -9015    -9019 
   -9026    -9036    -9053    -9072    -9086    -9108    -9136    -9157 
   -9165    -9173    -9180    -9174    -9154    -9132    -9123    -9127 
   -9138    -9147    -9154    -9154    -9143    -9123    -9100    -9088 
   -9089    -9100    -9115    -9138    -9163    -9182    -9184    -9170 
   -9158    -9146    -9132    -9123    -9116    -9115    -9120    -9120 
   -9113    -9104    -9090    -9086    -9100    -9120    -9143    -9173 
   -9200    -9211    -9211    -9211    -9213    -9212    -9198    -9177 
   -9150    -9130    -9124    -9121    -9116    -9112    -9100    -9074 
   -9040    -9015    -8999    -8996    -9013    -9035    -9046    -9051 
   -9057    -9058    -9057    -9062    -9086    -9119    -9147    -9174 
   -9200    -9212    -9202    -9175    -9134    -9086    -9049    -9024 
   -9012    -9011    -9020    -9034    -9049    -9059    -9055    -9047 
   -9061    -9094    -9135    -9170    -9190    -9197    -9194    -9185 
   -9167    -9143    -9123    -9108    -9088    -9063    -9054    -9053 
   -9051    -9051    -9053    -9058    -9070    -9086    -9104    -9119 
   -9132    -9147    -9157    -9153    -9136    -9119    -9112    -9112 
   -9109    -9104    -9099    -9078    -9050    -9030    -9015    -9007 
   -9008    -9012    -9015    -9011    -9004    -9003    -9011    -9019 
   -9026    -9036    -9057    -9074    -9078    -9077    -9074    -9070 
   -9073    -9089    -9113    -9134    -9147    -9154    -9151    -9135 
   -9120    -9119    -9123    -9132    -9158    -9184    -9190    -9181 
   -9166    -9157    -9151    -9140    -9128    -9128    -9150    -9185 
   -9209    -9211    -9197    -9170    -9139    -9112    -9097    -9080 
   -9046    -9000    -8955    -8930    -8939    -8981    -9043    -9107 
   -9159    -9204    -9250    -9301    -9346    -9369    -9362    -9337 
   -9310    -9285    -9265    -9243    -9216    -9180    -9130    -9076 
   -9032    -8999    -8974    -8968    -8972    -8986    -9011    -9036 
   -9066    -9104    -9138    -9162    -9181    -9196    -9204    -9219 
   -9232    -9236    -9235    -9223    -9194    -9163    -9131    -9099 
   -9073    -9049    -9013    -8980    -8970    -8981    -8996    -9019 
   -9043    -9065    -9100    -9143    -9177    -9190    -9189    -9180 
   -9165    -9136    -9104    -9093    -9093    -9093    -9100    -9105 
   -9111    -9132    -9162    -9193    -9235    -9281    -9313    -9325 
   -9327    -9325    -9327    -9321    -9297    -9258    -9220    -9192 
   -9165    -9139    -9119    -9107    -9104    -9113    -9136    -9169 
   -9196    -9208    -9200    -9185    -9185    -9197    -9224    -9262 
   -9289    -9297    -9296    -9286    -9269    -9250    -9227    -9201 
   -9184    -9180    -9185    -9192    -9196    -9189    -9171    -9147 
   -9124    -9112    -9101    -9078    -9050    -9031    -9024    -9018 
   -9003    -8986    -8986    -9009    -9047    -9080    -9099    -9112 
   -9117    -9119    -9123    -9139    -9165    -9193    -9216    -9229 
   -9231    -9220    -9200    -9166    -9126    -9090    -9067    -9058 
   -9057    -9046    -9016    -8976    -8937    -8899    -8858    -8829 
   -8829    -8847    -8872    -8905    -8947    -8986    -9020    -9061 
   -9108    -9159    -9215    -9266    -9300    -9316    -9324    -9324 
   -9308    -9279    -9242    -9190    -9115    -9031    -8962    -8926 
   -8915    -8915    -8926    -8950    -8968    -8973    -8982    -9013 
   -9066    -9128    -9188    -9243    -9289    -9315    -9321    -9312 
   -9292    -9278    -9271    -9275    -9292    -9305    -9319    -9332 
   -9329    -9308    -9274    -9231    -9196    -9181    -9177    -9174 
   -9167    -9157    -9144    -9124    -9094    -9081    -9108    -9171 
   -9247    -9308    -9339    -9344    -9321    -9273    -9224    -9205 
   -9219    -9236    -9231    -9202    -9170    -9140    -9105    -9061 
   -9018    -8962    -8888    -8827    -8820    -8868    -8961    -9086 
   -9215    -9316    -9374    -9377    -9337    -9297    -9270    -9236 
   -9188    -9138    -9096    -9057    -9013    -8964    -8931    -8937 
   -8969    -9028    -9123    -9244    -9366    -9458    -9509    -9514 
   -9459    -9354    -9231    -9126    -9055    -9008    -8976    -8965 
   -8982    -9026    -9074    -9099    -9084    -9059    -9059    -9094 
   -9150    -9205    -9242    -9234    -9174    -9093    -9027    -9000 
   -9016    -9055    -9088    -9093    -9078    -9062    -9046    -9035 
   -9042    -9070    -9108    -9155    -9204    -9240    -9254    -9238 
   -9196    -9148    -9103    -9054    -9009    -8995    -9018    -9046 
   -9047    -9008    -8942    -8889    -8881    -8924    -9004    -9089 
   -9157    -9198    -9219    -9220    -9211    -9205    -9209    -9217 
   -9228    -9246    -9258    -9258    -9247    -9221    -9180    -9131 
   -9085    -9042    -8988    -8950    -8965    -9034    -9116    -9185 
   -9243    -9274    -9258    -9202    -9128    -9055    -9005    -8986 
   -8996    -9018    -9049    -9089    -9127    -9143    -9136    -9121 
   -9108    -9097    -9101    -9119    -9124    -9108    -9077    -9035 
   -8976    -8899    -8812    -8741    -8726    -8795    -8947    -9150 
   -9348    -9487    -9532    -9494    -9425    -9363    -9313    -9263 
   -9208    -9146    -9063    -8957    -8849    -8761    -8708    -8707 
   -8780    -8934    -9142    -9360    -9544    -9656    -9686    -9660 
   -9603    -9532    -9460    -9386    -9288    -9154    -8988    -8802 
   -8631    -8519    -8495    -8586    -8788    -9063    -9355    -9618 
   -9810    -9883    -9819    -9668    -9510    -9382    -9255    -9086 
   -8878    -8667    -8492    -8395    -8388    -8464    -8611    -8818 
   -9069    -9328    -9544    -9670    -9675    -9603    -9525    -9454 
   -9352    -9219    -9072    -8932    -8823    -8734    -8653    -8606 
   -8622    -8708    -8850    -9015    -9157    -9238    -9274    -9304 
   -9343    -9387    -9437    -9495    -9549    -9571    -9548    -9471 
   -9329    -9147    -8989    -8911    -8927    -9007    -9096    -9147 
   -9131    -9055    -8953    -8858    -8799    -8795    -8849    -8941 
   -9042    -9135    -9204    -9246    -9265    -9282    -9320    -9377 
   -9428    -9455    -9439    -9359    -9216    -9031    -8865    -8787 
   -8800    -8860    -8926    -9001    -9093    -9194    -9279    -9320 
   -9327    -9325    -9337    -9366    -9386    -9367    -9300    -9213 
   -9140    -9100    -9097    -9124    -9178    -9256    -9336    -9377 
   -9359    -9300    -9232    -9170    -9116    -9063    -8993    -8891 
   -8768    -8654    -8580    -8568    -8615    -8714    -8851    -8997 
   -9119    -9194    -9215    -9202    -9192    -9197    -9211    -9217 
   -9217    -9194    -9131    -9039    -8957    -8911    -8914    -8976 
   -9093    -9240    -9390    -9501    -9525    -9455    -9333    -9207 
   -9119    -9097    -9117    -9140    -9126    -9053    -8939    -8839 
   -8819    -8912    -9093    -9297    -9456    -9521    -9481    -9352 
   -9178    -9023    -8934    -8924    -8984    -9067    -9112    -9077 
   -8981    -8869    -8780    -8749    -8802    -8918    -9038    -9120 
   -9161    -9165    -9153    -9146    -9155    -9175    -9205    -9251 
   -9300    -9329    -9335    -9297    -9215    -9111    -9020    -8986 
   -9009    -9042    -9047    -9018    -8981    -8988    -9076    -9227 
   -9375    -9467    -9486    -9433    -9319    -9173    -9047    -8978 
   -8965    -8980    -9004    -9054    -9131    -9196    -9221    -9223 
   -9223    -9252    -9331    -9435    -9512    -9528    -9479    -9390 
   -9282    -9166    -9046    -8939    -8870    -8829    -8788    -8750 
   -8733    -8754    -8818    -8903    -9008    -9154    -9328    -9475 
   -9564    -9585    -9528    -9410    -9274    -9155    -9063    -8978 
   -8889    -8810    -8768    -8769    -8806    -8887    -9034    -9227 
   -9406    -9514    -9513    -9391    -9188    -8977    -8823    -8749 
   -8746    -8785    -8843    -8899    -8941    -8984    -9058    -9161 
   -9273    -9391    -9510    -9590    -9576    -9443    -9223    -8984 
   -8780    -8645    -8594    -8625    -8730    -8873    -9000    -9072 
   -9084    -9057    -9026    -9030    -9099    -9248    -9463    -9679 
   -9817    -9832    -9720    -9525    -9321    -9165    -9073    -9030 
   -8996    -8959    -8923    -8888    -8847    -8788    -8721    -8680 
   -8699    -8818    -9024    -9242    -9402    -9486    -9504    -9487 
   -9470    -9450    -9410    -9360    -9308    -9247    -9175    -9096 
   -8999    -8881    -8758    -8680    -8681    -8753    -8843    -8919 
   -8992    -9097    -9239    -9400    -9535    -9587    -9536    -9398 
   -9219    -9066    -8984    -8953    -8945    -8957    -8985    -9008 
   -9016    -9030    -9049    -9072    -9111    -9146    -9175    -9216 
   -9238    -9219    -9181    -9143    -9115    -9105    -9105    -9089 
   -9046    -8982    -8923    -8891    -8895    -8946    -9038    -9135 
   -9205    -9251    -9297    -9347    -9377    -9379    -9386    -9413 
   -9425    -9404    -9356    -9283    -9186    -9082    -8999    -8945 
   -8914    -8896    -8891    -8877    -8843    -8815    -8843    -8955 
   -9127    -9296    -9398    -9412    -9369    -9323    -9300    -9296 
   -9290    -9274    -9246    -9189    -9111    -9032    -8968    -8927 
   -8897    -8850    -8791    -8742    -8725    -8752    -8833    -8961 
   -9120    -9273    -9382    -9440    -9460    -9454    -9425    -9379 
   -9339    -9305    -9239    -9111    -8946    -8803    -8727    -8738 
   -8824    -8955    -9085    -9170    -9202    -9207    -9224    -9281 
   -9350    -9385    -9366    -9279    -9135    -8976    -8849    -8791 
   -8812    -8908    -9050    -9174    -9217    -9177    -9086    -8996 
   -8958    -8999    -9103    -9247    -9406    -9551    -9639    -9629 
   -9512    -9328    -9146    -9009    -8947    -8955    -8976    -8965 
   -8919    -8849    -8793    -8808    -8926    -9147    -9409    -9613 
   -9697    -9653    -9510    -9328    -9157    -9028    -8951    -8912 
   -8888    -8861    -8808    -8748    -8725    -8762    -8847    -8953 
   -9066    -9161    -9220    -9256    -9279    -9293    -9310    -9328 
   -9339    -9358    -9382    -9377    -9306    -9175    -9009    -8849 
   -8721    -8644    -8635    -8687    -8760    -8826    -8860    -8872 
   -8888    -8927    -8999    -9101    -9238    -9406    -9568    -9660 
   -9649    -9540    -9377    -9216    -9077    -8968    -8905    -8884 
   -8862    -8823    -8777    -8749    -8756    -8796    -8884    -9028 
   -9202    -9367    -9498    -9593    -9625    -9578    -9471    -9351 
   -9254    -9196    -9153    -9099    -9038    -8976    -8899    -8816 
   -8776    -8815    -8934    -9100    -9273    -9413    -9493    -9502 
   -9459    -9386    -9279    -9140    -8996    -8880    -8818    -8822 
   -8868    -8911    -8927    -8932    -8965    -9054    -9188    -9319 
   -9417    -9498    -9564    -9583    -9532    -9425    -9308    -9207 
   -9127    -9072    -9040    -9028    -9028    -9034    -9051    -9092 
   -9165    -9266    -9362    -9418    -9421    -9374    -9292    -9190 
   -9082    -8985    -8914    -8857    -8791    -8696    -8596    -8556 
   -8591    -8676    -8804    -8978    -9165    -9325    -9439    -9501 
   -9512    -9479    -9423    -9382    -9389    -9427    -9445    -9410 
   -9319    -9186    -9039    -8916    -8857    -8872    -8934    -9003 
   -9057    -9094    -9107    -9084    -9027    -8962    -8928    -8939 
   -8991    -9069    -9146    -9180    -9163    -9120    -9076    -9035 
   -9000    -8984    -8999    -9036    -9088    -9136    -9178    -9223 
   -9289    -9379    -9468    -9529    -9545    -9525    -9490    -9445 
   -9391    -9320    -9217    -9093    -8980    -8900    -8862    -8861 
   -8872    -8887    -8928    -9022    -9163    -9317    -9440    -9517 
   -9549    -9540    -9516    -9494    -9458    -9378    -9262    -9135 
   -9015    -8911    -8826    -8762    -8725    -8711    -8708    -8719 
   -8765    -8838    -8922    -8996    -9051    -9082    -9107    -9140 
   -9190    -9267    -9362    -9444    -9490    -9494    -9470    -9436 
   -9408    -9394    -9377    -9329    -9254    -9151    -9024    -8884 
   -8749    -8630    -8540    -8488    -8487    -8550    -8671    -8819 
   -8978    -9130    -9246    -9324    -9390    -9456    -9518    -9571 
   -9616    -9647    -9660    -9644    -9591    -9514    -9424    -9327 
   -9238    -9171    -9146    -9151    -9147    -9107    -9031    -8938 
   -8853    -8800    -8799    -8853    -8968    -9121    -9273    -9377 
   -9414    -9394    -9346    -9304    -9285    -9289    -9310    -9327 
   -9323    -9305    -9275    -9224    -9150    -9073    -9015    -8988 
   -9001    -9053    -9113    -9161    -9169    -9135    -9089    -9067 
   -9077    -9096    -9103    -9092    -9077    -9067    -9043    -8992 
   -8927    -8870    -8842    -8853    -8889    -8934    -8976    -9008 
   -9027    -9038    -9055    -9080    -9105    -9139    -9201    -9286 
   -9362    -9398    -9396    -9363    -9329    -9317    -9310    -9293 
   -9265    -9232    -9208    -9200    -9205    -9207    -9193    -9166 
   -9139    -9123    -9120    -9123    -9117    -9109    -9107    -9126 
   -9174    -9219    -9221    -9178    -9115    -9059    -9030    -9031 
   -9050    -9069    -9082    -9092    -9111    -9161    -9234    -9304 
   -9364    -9405    -9423    -9406    -9346    -9254    -9162    -9084 
   -9019    -8961    -8895    -8834    -8800    -8808    -8864    -8954 
   -9059    -9171    -9283    -9379    -9450    -9493    -9501    -9475 
   -9421    -9328    -9198    -9067    -8959    -8889    -8854    -8833 
   -8818    -8822    -8856    -8942    -9086    -9261    -9435    -9585 
   -9683    -9706    -9653    -9549    -9428    -9298    -9163    -9035 
   -8916    -8815    -8757    -8746    -8768    -8806    -8849    -8893 
