Origin Time       2025/01/13 21:19:00
Lat.              31.8
Long.             131.6
Depth. (km)       30
Mag.              6.9
Station Code      TKSH05
Station Lat.      33.6628
Station Long.     134.3156
Station Height(m) -103
Record Time       2025/01/13 21:20:45
Sampling Freq(Hz) 100Hz
Duration Time(s)  121
Dir.              3
Scale Factor      2942(gal)/8224139
Max. Acc. (gal)   0.391
Last Correction   2025/01/13 21:20:46
Memo.             
[...]
   18102    18133    18160    18187    18223    18257    18283    18308 
   18339    18357    18362    18366    18369    18373    18384    18378 
   18343    18304    18279    18262    18249    18238    18226    18216 
   18198    18169    18149    18127    18095    18072    18058    18038 
   18002    17960    17921    17883    17847    17818    17805    17793 
   17782    17766    17739    17710    17698    17697    17702    17714 
   17729    17747    17761    17771    17787    17807    17818    17813 
   17794    17771    17755    17759    17783    17815    17841    17855 
   17853    17844    17836    17838    17847    17851    17859    17874 
   17890    17913    17942    17979    18019    18057    18081    18092 
   18094    18094    18100    18115    18133    18142    18142    18144 
   18146    18145    18153    18172    18185    18195    18200    18195 
   18191    18185    18177    18169    18172    18179    18169    18137 
   18104    18088    18076    18057    18034    18010    17990    17964 
   17928    17898    17887    17883    17883    17883    17879    17871 
   17853    17833    17828    17830    17829    17820    17821    17836 
   17857    17871    17872    17869    17869    17869    17875    17892 
   17917    17946    17977    18009    18036    18054    18075    18092 
   18106    18130    18161    18187    18214    18237    18253    18272 
   18295    18326    18366    18407    18435    18449    18453    18451 
   18450    18453    18466    18488    18495    18485    18478    18468 
   18449    18435    18427    18423    18418    18396    18364    18327 
   18291    18265    18239    18211    18180    18144    18111    18092 
   18076    18058    18049    18045    18048    18053    18053    18050 
   18042    18031    18019    18004    17980    17959    17949    17946 
   17941    17933    17914    17890    17869    17856    17847    17834 
   17815    17795    17782    17766    17748    17734    17717    17697 
   17690    17690    17689    17695    17712    17739    17761    17764 
   17752    17743    17734    17728    17724    17721    17721    17722 
   17721    17717    17720    17726    17733    17736    17744    17757 
   17766    17775    17799    17829    17851    17874    17901    17917 
   17913    17902    17902    17913    17926    17945    17956    17955 
   17964    17975    17968    17963    17973    17988    17990    17983 
   17986    17994    17996    17996    17990    17977    17967    17944 
   17917    17895    17883    17876    17867    17852    17841    17834 
   17825    17814    17807    17807    17810    17809    17810    17828 
   17849    17861    17871    17879    17894    17913    17919    17917 
   17907    17903    17921    17952    17971    17971    17968    17953 
   17929    17907    17894    17887    17895    17909    17915    17919 
   17923    17925    17925    17925    17925    17936    17960    17991 
   18023    18050    18072    18092    18103    18104    18107    18119 
   18134    18141    18138    18131    18121    18111    18108    18106 
   18095    18090    18096    18095    18079    18061    18050    18044 
   18045    18063    18092    18121    18139    18154    18176    18195 
   18200    18203    18215    18227    18235    18249    18270    18296 
   18327    18365    18404    18446    18486    18517    18547    18574 
   18598    18630    18662    18684    18701    18719    18729    18732 
   18731    18725    18715    18686    18631    18574    18526    18476 
   18428    18393    18366    18338    18310    18274    18226    18173 
   18122    18071    18015    17964    17922    17895    17882    17871 
   17864    17860    17845    17817    17793    17782    17774    17771 
   17786    17803    17818    17840    17864    17887    17910    17926 
   17929    17932    17936    17933    17936    17949    17969    17984 
   17987    17976    17965    17955    17942    17929    17922    17919 
   17910    17902    17892    17875    17856    17845    17836    17838 
   17852    17860    17863    17872    17886    17907    17942    17976 
   18007    18041    18076    18112    18150    18183    18212    18245 
   18280    18312    18342    18370    18393    18415    18435    18446 
   18447    18453    18466    18482    18501    18515    18516    18503 
   18490    18488    18490    18500    18511    18519    18522    18509 
   18488    18468    18442    18414    18396    18389    18378    18361 
   18347    18328    18296    18258    18225    18192    18161    18133 
   18099    18067    18044    18023    17995    17971    17955    17934 
   17917    17907    17887    17859    17837    17818    17805    17794 
   17783    17780    17782    17775    17759    17728    17694    17667 
   17644    17635    17639    17639    17632    17636    17644    17639 
   17631    17626    17618    17608    17609    17620    17628    17628 
   17632    17648    17668    17689    17706    17724    17734    17744 
   17766    17801    17832    17855    17876    17901    17929    17952 
   17968    17986    17999    18002    18002    18006    18017    18021 
   18003    17982    17964    17944    17926    17905    17880    17869 
   17868    17861    17855    17845    17829    17820    17813    17801 
   17788    17782    17774    17756    17734    17713    17697    17686 
   17678    17667    17655    17644    17635    17621    17601    17583 
   17570    17568    17582    17605    17629    17651    17668    17679 
   17687    17695    17709    17730    17757    17787    17817    17847 
   17876    17909    17945    17977    18006    18044    18085    18114 
   18142    18181    18220    18252    18279    18299    18311    18320 
   18320    18306    18283    18252    18226    18212    18192    18162 
   18134    18100    18061    18015    17965    17926    17905    17892 
   17883    17872    17851    17829    17822    17820    17817    17809 
   17794    17783    17783    17793    17810    17833    17863    17902 
   17932    17952    17972    18000    18036    18076    18118    18162 
   18204    18245    18289    18328    18355    18381    18416    18447 
   18470    18490    18511    18538    18565    18580    18592    18608 
   18612    18605    18593    18581    18570    18547    18516    18492 
   18469    18443    18414    18377    18343    18311    18266    18220 
   18185    18158    18137    18119    18099    18073    18046    18023 
   18003    17984    17972    17961    17946    17934    17922    17903 
   17882    17859    17829    17803    17787    17770    17760    17759 
   17748    17730    17720    17714    17701    17678    17659    17649 
   17643    17629    17624    17635    17652    17670    17694    17718 
   17737    17759    17786    17810    17830    17855    17884    17915 
   17948    17979    18004    18026    18042    18056    18072    18087 
   18106    18127    18146    18157    18164    18173    18180    18191 
   18216    18249    18277    18304    18319    18324    18335    18347 
   18362    18387    18414    18434    18445    18439    18424    18416 
   18419    18423    18427    18427    18420    18404    18384    18350 
   18303    18261    18222    18175    18127    18081    18030    17983 
   17941    17902    17861    17825    17788    17755    17718    17683 
   17663    17644    17628    17629    17635    17631    17631    17636 
   17644    17656    17675    17701    17734    17775    17815    17857 
   17902    17942    17986    18031    18068    18098    18127    18150 
   18177    18211    18247    18283    18310    18327    18338    18345 
   18346    18346    18349    18343    18330    18320    18312    18296 
   18261    18208    18156    18107    18056    18010    17972    17933 
   17886    17842    17807    17776    17751    17730    17718    17714 
   17712    17714    17724    17743    17764    17782    17803    17825 
   17842    17867    17894    17902    17896    17895    17899    17905 
   17911    17921    17926    17929    17938    17946    17945    17944 
   17946    17953    17968    17990    18004    18011    18021    18026 
   18025    18037    18057    18072    18088    18103    18107    18108 
   18111    18108    18112    18126    18129    18121    18118    18117 
   18104    18088    18068    18045    18022    17995    17960    17922 
   17880    17832    17784    17744    17707    17670    17635    17602 
   17560    17513    17475    17446    17425    17415    17401    17389 
   17383    17374    17366    17371    17388    17413    17435    17458 
   17500    17551    17591    17625    17666    17709    17757    17811 
   17869    17923    17961    17992    18025    18050    18073    18098 
   18121    18137    18150    18164    18183    18208    18231    18239 
   18241    18238    18227    18216    18210    18196    18181    18166 
   18150    18130    18111    18098    18081    18056    18030    18014 
   18007    18007    17999    17984    17975    17969    17972    17980 
   17984    17987    17994    18002    18018    18042    18056    18069 
   18099    18131    18161    18191    18216    18238    18265    18299 
   18331    18361    18393    18422    18443    18461    18474    18480 
   18486    18496    18500    18499    18492    18485    18484    18474 
   18454    18436    18424    18407    18387    18368    18346    18316 
   18285    18261    18242    18229    18216    18208    18202    18195 
   18191    18189    18188    18179    18164    18156    18150    18144 
   18137    18127    18112    18098    18088    18087    18094    18099 
   18107    18119    18122    18114    18108    18103    18096    18094 
   18085    18068    18050    18029    18002    17976    17953    17929 
   17905    17882    17863    17852    17848    17840    17832    17838 
   17859    17888    17929    17964    17994    18025    18064    18115 
   18169    18214    18253    18287    18318    18343    18360    18370 
   18381    18382    18380    18376    18369    18360    18350    18327 
   18292    18256    18225    18195    18165    18137    18106    18071 
   18036    17999    17957    17917    17874    17822    17780    17751 
   17720    17694    17686    17686    17682    17672    17653    17632 
   17617    17604    17595    17598    17612    17632    17652    17664 
   17678    17695    17709    17722    17732    17740    17756    17770 
   17778    17793    17807    17814    17818    17825    17832    17841 
   17852    17860    17863    17869    17887    17910    17942    17973 
   17994    18013    18034    18060    18083    18099    18115    18139 
   18172    18204    18225    18239    18254    18270    18284    18293 
   18307    18319    18323    18326    18326    18316    18304    18297 
   18291    18277    18253    18226    18198    18166    18141    18112 
   18077    18040    18004    17976    17957    17937    17914    17888 
   17861    17830    17798    17764    17733    17697    17653    17609 
   17574    17547    17524    17508    17493    17477    17469    17470 
   17477    17487    17509    17539    17574    17614    17666    17736 
   17825    17919    18004    18081    18153    18230    18307    18376 
   18443    18509    18567    18624    18675    18720    18752    18773 
   18789    18800    18808    18816    18821    18823    18823    18817 
   18801    18777    18750    18725    18690    18644    18596    18539 
   18470    18404    18337    18266    18192    18108    18019    17936 
   17861    17797    17744    17705    17672    17643    17617    17591 
   17566    17544    17536    17547    17568    17591    17616    17645 
   17679    17721    17759    17793    17836    17891    17940    17973 
   18011    18056    18094    18125    18161    18200    18237    18269 
   18296    18316    18331    18338    18339    18341    18333    18318 
   18311    18311    18300    18284    18279    18273    18258    18249 
   18246    18235    18214    18187    18161    18135    18106    18072 
   18034    17996    17959    17910    17848    17786    17722    17667 
   17628    17599    17578    17564    17551    17539    17533    17533 
   17543    17551    17556    17566    17582    17601    17632    17676 
   17722    17764    17809    17860    17918    17973    18029    18090 
   18153    18227    18311    18389    18461    18535    18605    18666 
   18715    18748    18769    18778    18774    18767    18762    18747 
   18721    18686    18640    18590    18542    18492    18439    18389 
   18343    18297    18258    18223    18180    18135    18091    18042 
   17996    17956    17919    17887    17863    17845    17832    17820 
   17810    17798    17786    17778    17775    17776    17771    17766 
   17766    17767    17766    17768    17771    17770    17766    17764 
   17770    17774    17778    17786    17788    17788    17787    17784 
   17783    17782    17783    17779    17771    17764    17755    17745 
   17736    17726    17725    17725    17730    17744    17748    17747 
   17748    17741    17730    17725    17718    17713    17709    17698 
   17685    17671    17653    17643    17643    17644    17636    17625 
   17622    17622    17620    17617    17612    17606    17604    17597 
   17589    17570    17544    17520    17496    17474    17456    17440 
   17429    17420    17408    17402    17405    17412    17417    17432 
   17462    17502    17548    17601    17662    17729    17794    17861 
   17941    18025    18107    18195    18288    18373    18458    18550 
   18640    18727    18806    18879    18944    18995    19036    19074 
   19105    19118    19120    19114    19099    19083    19067    19040 
   18997    18945    18891    18833    18778    18716    18646    18577 
   18511    18447    18381    18316    18249    18180    18107    18031 
   17953    17876    17803    17743    17683    17614    17550    17496 
   17448    17410    17378    17352    17329    17309    17293    17286 
   17289    17289    17296    17316    17339    17367    17396    17425 
   17464    17504    17535    17562    17594    17629    17666    17703 
   17741    17784    17832    17879    17921    17957    17987    18011 
   18033    18050    18067    18081    18094    18106    18112    18111 
   18104    18095    18080    18060    18038    18019    17996    17971 
   17952    17937    17921    17898    17871    17845    17824    17807 
   17797    17793    17791    17788    17787    17790    17797    17806 
   17822    17849    17875    17901    17929    17953    17976    18003 
   18033    18073    18123    18166    18200    18235    18270    18299 
   18322    18350    18382    18407    18424    18453    18480    18489 
   18492    18499    18508    18520    18532    18543    18551    18551 
   18542    18526    18511    18501    18489    18480    18472    18458 
   18445    18430    18418    18411    18404    18403    18405    18404 
   18397    18385    18372    18366    18358    18341    18316    18300 
   18289    18266    18242    18234    18227    18225    18231    18242 
   18249    18252    18256    18262    18269    18284    18297    18301 
   18308    18315    18304    18289    18273    18247    18210    18171 
   18130    18084    18029    17965    17902    17840    17780    17729 
   17680    17625    17568    17506    17444    17390    17350    17316 
   17288    17271    17258    17236    17216    17200    17182    17163 
   17151    17138    17130    17131    17138    17149    17163    17182 
   17203    17220    17238    17261    17278    17292    17311    17339 
   17374    17412    17446    17483    17525    17567    17608    17651 
   17694    17734    17771    17807    17847    17880    17909    17934 
   17955    17973    17995    18014    18026    18042    18058    18068 
   18073    18081    18091    18096    18103    18111    18121    18138 
   18160    18180    18195    18215    18239    18268    18301    18339 
   18380    18424    18469    18515    18562    18601    18631    18659 
   18689    18712    18728    18736    18746    18748    18740    18733 
   18728    18717    18711    18709    18702    18688    18671    18663 
   18661    18651    18643    18642    18648    18652    18654    18654 
   18646    18630    18613    18600    18589    18571    18549    18527 
   18500    18472    18446    18418    18393    18370    18338    18299 
   18262    18227    18193    18169    18154    18138    18119    18103 
   18084    18058    18031    18013    17988    17963    17949    17940 
   17922    17906    17892    17880    17869    17851    17821    17793 
   17775    17759    17736    17714    17698    17690    17682    17670 
   17658    17643    17628    17614    17601    17587    17585    17586 
   17577    17564    17552    17545    17539    17527    17516    17509 
   17509    17509    17509    17520    17533    17547    17564    17581 
   17593    17604    17613    17624    17640    17663    17680    17698 
   17724    17756    17786    17809    17832    17861    17890    17911 
   17942    17979    18010    18036    18056    18067    18075    18085 
   18099    18111    18121    18129    18137    18141    18141    18138 
   18138    18141    18131    18118    18114    18110    18099    18088 
   18077    18072    18073    18072    18068    18064    18052    18040 
   18026    18002    17977    17964    17959    17944    17921    17895 
   17874    17852    17829    17810    17787    17763    17743    17726 
   17717    17709    17695    17680    17672    17666    17662    17663 
   17672    17686    17697    17707    17716    17722    17740    17763 
   17787    17822    17863    17902    17937    17975    18019    18061 
   18102    18142    18177    18203    18226    18245    18261    18269 
   18274    18283    18292    18303    18310    18307    18303    18303 
   18301    18304    18307    18310    18312    18314    18312    18315 
   18319    18326    18335    18347    18366    18382    18389    18404 
   18427    18446    18455    18458    18461    18469    18481    18499 
   18515    18527    18540    18555    18566    18569    18566    18561 
   18553    18539    18530    18519    18503    18488    18470    18453 
   18438    18416    18392    18370    18339    18304    18283    18264 
   18242    18219    18195    18175    18157    18134    18122    18110 
   18091    18073    18054    18036    18014    17990    17968    17952 
   17934    17921    17914    17905    17892    17879    17857    17832 
   17809    17795    17782    17767    17756    17747    17734    17722 
   17718    17718    17716    17713    17718    17721    17724    17729 
   17739    17763    17793    17817    17840    17864    17891    17919 
   17945    17967    17994    18027    18065    18110    18153    18188 
   18220    18256    18287    18318    18347    18377    18409    18438 
   18461    18480    18497    18517    18538    18557    18577    18588 
   18597    18607    18605    18596    18586    18582    18581    18569 
   18558    18557    18551    18539    18528    18512    18486    18455 
   18427    18405    18381    18353    18327    18301    18273    18241 
   18199    18152    18104    18056    18010    17963    17914    17867 
   17822    17779    17732    17680    17632    17586    17533    17486 
   17447    17408    17371    17343    17319    17297    17281    17271 
   17266    17261    17254    17253    17261    17278    17300    17325 
   17356    17382    17404    17432    17462    17496    17533    17571 
