Origin Time       2025/01/13 21:19:00
Lat.              31.8
Long.             131.6
Depth. (km)       30
Mag.              6.9
Station Code      TKSH06
Station Lat.      33.9997
Station Long.     133.8933
Station Height(m) 448
Record Time       2025/01/13 21:20:39
Sampling Freq(Hz) 100Hz
Duration Time(s)  123
Dir.              1
Scale Factor      2942(gal)/8224139
Max. Acc. (gal)   0.625
Last Correction   2025/01/13 21:20:39
Memo.             
[...]
  -10606   -10596   -10597   -10620   -10642   -10660   -10677   -10671 
  -10660   -10660   -10656   -10652   -10667   -10673   -10656   -10632 
  -10598   -10567   -10557   -10565   -10579   -10592   -10581   -10557 
  -10550   -10578   -10611   -10616   -10611   -10625   -10662   -10694 
  -10713   -10717   -10709   -10698   -10687   -10663   -10639   -10625 
  -10627   -10659   -10702   -10729   -10756   -10782   -10808   -10841 
  -10855   -10847   -10829   -10814   -10821   -10849   -10867   -10866 
  -10851   -10813   -10762   -10709   -10656   -10594   -10523   -10444 
  -10366   -10288   -10219   -10166   -10134   -10120   -10122   -10149 
  -10191   -10226   -10257   -10300   -10347   -10388   -10408   -10415 
  -10435   -10470   -10497   -10507   -10513   -10525   -10534   -10531 
  -10525   -10524   -10530   -10536   -10530   -10517   -10530   -10555 
  -10575   -10590   -10613   -10674   -10759   -10824   -10858   -10882 
  -10899   -10918   -10949   -10976   -10991   -10987   -10978   -10997 
  -11040   -11084   -11115   -11126   -11128   -11128   -11109   -11078 
  -11053   -11041   -11033   -11021   -10991   -10949   -10917   -10902 
  -10889   -10866   -10841   -10824   -10805   -10785   -10768   -10747 
  -10713   -10698   -10721   -10773   -10840   -10903   -10943   -10962 
  -10974   -10980   -10970   -10949   -10933   -10909   -10878   -10843 
  -10806   -10785   -10791   -10798   -10785   -10767   -10758   -10751 
  -10746   -10744   -10750   -10756   -10766   -10777   -10778   -10770 
  -10759   -10751   -10743   -10733   -10721   -10705   -10697   -10694 
  -10683   -10666   -10651   -10643   -10643   -10662   -10686   -10679 
  -10658   -10646   -10635   -10627   -10616   -10613   -10642   -10673 
  -10673   -10656   -10624   -10578   -10552   -10555   -10559   -10557 
  -10554   -10546   -10546   -10566   -10592   -10604   -10598   -10584 
  -10588   -10620   -10658   -10687   -10714   -10744   -10774   -10797 
  -10801   -10805   -10839   -10876   -10890   -10887   -10874   -10860 
  -10858   -10863   -10878   -10899   -10914   -10921   -10922   -10920 
  -10918   -10929   -10945   -10957   -10974   -10993   -11001   -11003 
  -10997   -10979   -10957   -10944   -10929   -10905   -10890   -10894 
  -10908   -10921   -10922   -10908   -10894   -10893   -10883   -10864 
  -10852   -10840   -10820   -10804   -10790   -10770   -10750   -10736 
  -10739   -10751   -10746   -10720   -10694   -10679   -10671   -10671 
  -10682   -10697   -10702   -10700   -10694   -10694   -10705   -10716 
  -10719   -10717   -10720   -10731   -10735   -10731   -10721   -10708 
  -10702   -10697   -10693   -10690   -10673   -10639   -10602   -10584 
  -10579   -10577   -10589   -10606   -10601   -10597   -10611   -10602 
  -10567   -10528   -10492   -10482   -10519   -10574   -10611   -10620 
  -10593   -10557   -10555   -10575   -10594   -10619   -10654   -10687 
  -10714   -10747   -10787   -10821   -10852   -10893   -10933   -10968 
  -10990   -10987   -10979   -10982   -10982   -10975   -10975   -10974 
  -10963   -10957   -10970   -11002   -11043   -11061   -11051   -11016 
  -10964   -10926   -10916   -10910   -10895   -10872   -10851   -10840 
  -10851   -10867   -10878   -10890   -10905   -10914   -10921   -10928 
  -10937   -10941   -10932   -10918   -10905   -10893   -10883   -10866 
  -10839   -10814   -10800   -10797   -10802   -10814   -10832   -10841 
  -10831   -10812   -10800   -10800   -10813   -10833   -10840   -10821 
  -10793   -10770   -10747   -10721   -10705   -10700   -10696   -10698 
  -10702   -10716   -10746   -10767   -10773   -10790   -10822   -10849 
  -10866   -10882   -10889   -10875   -10835   -10778   -10728   -10706 
  -10708   -10709   -10690   -10648   -10597   -10550   -10508   -10473 
  -10444   -10405   -10347   -10301   -10268   -10223   -10173   -10116 
  -10049    -9985    -9925    -9873    -9840    -9814    -9788    -9771 
   -9772    -9792    -9829    -9861    -9873    -9875    -9895    -9930 
   -9968   -10026   -10111   -10200   -10266   -10319   -10381   -10444 
  -10501   -10561   -10609   -10640   -10663   -10679   -10694   -10717 
  -10754   -10786   -10814   -10851   -10889   -10916   -10926   -10937 
  -10964   -11002   -11038   -11076   -11105   -11119   -11121   -11119 
  -11125   -11134   -11140   -11144   -11145   -11141   -11133   -11122 
  -11113   -11106   -11103   -11107   -11118   -11138   -11163   -11180 
  -11190   -11195   -11199   -11213   -11241   -11276   -11299   -11302 
  -11286   -11261   -11241   -11221   -11187   -11136   -11082   -11036 
  -10993   -10955   -10920   -10875   -10821   -10779   -10755   -10736 
  -10717   -10708   -10706   -10705   -10709   -10714   -10701   -10670 
  -10638   -10613   -10594   -10567   -10535   -10527   -10530   -10519 
  -10513   -10528   -10551   -10566   -10566   -10563   -10575   -10598 
  -10606   -10594   -10581   -10573   -10561   -10550   -10534   -10501 
  -10457   -10413   -10374   -10346   -10334   -10326   -10323   -10322 
  -10318   -10311   -10297   -10287   -10292   -10303   -10307   -10307 
  -10309   -10318   -10328   -10339   -10342   -10336   -10326   -10314 
  -10309   -10330   -10366   -10405   -10451   -10498   -10534   -10555 
  -10569   -10571   -10570   -10571   -10574   -10567   -10565   -10570 
  -10573   -10563   -10544   -10532   -10530   -10520   -10503   -10489 
  -10482   -10481   -10482   -10490   -10504   -10516   -10519   -10498 
  -10469   -10443   -10427   -10426   -10434   -10442   -10454   -10482 
  -10525   -10570   -10606   -10638   -10659   -10667   -10686   -10727 
  -10771   -10814   -10858   -10890   -10933   -11005   -11078   -11134 
  -11179   -11219   -11259   -11287   -11310   -11334   -11352   -11372 
  -11402   -11430   -11450   -11456   -11443   -11433   -11421   -11396 
  -11371   -11345   -11313   -11277   -11241   -11206   -11183   -11157 
  -11125   -11097   -11065   -11032   -10999   -10957   -10916   -10883 
  -10848   -10806   -10762   -10706   -10652   -10601   -10557   -10517 
  -10462   -10392   -10338   -10291   -10237   -10191   -10157   -10127 
  -10098   -10073   -10058   -10048   -10029   -10012   -10011   -10027 
  -10046   -10053   -10065   -10079   -10089   -10120   -10164   -10207 
  -10264   -10332   -10396   -10458   -10538   -10625   -10697   -10764 
  -10845   -10922   -10979   -11018   -11053   -11087   -11121   -11155 
  -11184   -11209   -11229   -11252   -11268   -11260   -11233   -11214 
  -11207   -11203   -11198   -11178   -11141   -11103   -11071   -11040 
  -11009   -10980   -10956   -10936   -10928   -10935   -10940   -10937 
  -10937   -10944   -10955   -10957   -10948   -10930   -10908   -10871 
  -10822   -10779   -10739   -10696   -10650   -10600   -10554   -10503 
  -10443   -10393   -10341   -10274   -10208   -10147   -10099   -10061 
  -10029    -9990    -9942    -9903    -9871    -9844    -9828    -9802 
   -9765    -9736    -9717    -9715    -9733    -9752    -9778    -9805 
   -9830    -9873    -9945   -10033   -10122   -10207   -10287   -10372 
  -10469   -10555   -10623   -10682   -10746   -10816   -10875   -10921 
  -10976   -11030   -11079   -11128   -11168   -11199   -11229   -11253 
  -11269   -11284   -11303   -11333   -11372   -11400   -11414   -11423 
  -11426   -11414   -11398   -11384   -11372   -11353   -11335   -11321 
  -11299   -11273   -11245   -11209   -11168   -11130   -11092   -11064 
  -11052   -11049   -11049   -11047   -11045   -11044   -11043   -11038 
  -11029   -11021   -11013   -10991   -10964   -10935   -10906   -10885 
  -10859   -10818   -10775   -10740   -10709   -10681   -10660   -10635 
  -10604   -10585   -10590   -10609   -10639   -10682   -10717   -10743 
  -10779   -10818   -10849   -10882   -10905   -10928   -10957   -10982 
  -11002   -11025   -11048   -11083   -11129   -11182   -11238   -11294 
  -11345   -11395   -11441   -11484   -11534   -11589   -11643   -11695 
  -11740   -11773   -11785   -11781   -11766   -11739   -11700   -11654 
  -11607   -11558   -11507   -11450   -11394   -11344   -11310   -11286 
  -11254   -11213   -11171   -11140   -11114   -11088   -11065   -11045 
  -11030   -11026   -11018   -10998   -10971   -10935   -10889   -10841 
  -10790   -10719   -10642   -10571   -10519   -10484   -10449   -10408 
  -10368   -10316   -10261   -10223   -10197   -10176   -10153   -10127 
  -10106   -10095   -10081   -10060   -10042   -10027    -9998    -9968 
   -9964    -9971    -9961    -9952    -9949    -9938    -9922    -9913 
   -9911    -9936    -9983   -10030   -10060   -10069   -10091   -10125 
  -10153   -10187   -10227   -10261   -10288   -10312   -10339   -10370 
  -10397   -10424   -10436   -10426   -10405   -10403   -10423   -10443 
  -10457   -10474   -10498   -10520   -10530   -10531   -10532   -10528 
  -10515   -10508   -10515   -10536   -10551   -10542   -10530   -10535 
  -10558   -10579   -10588   -10598   -10617   -10628   -10631   -10647 
  -10674   -10689   -10689   -10698   -10706   -10709   -10724   -10743 
  -10755   -10764   -10762   -10759   -10768   -10773   -10781   -10793 
  -10809   -10825   -10845   -10872   -10902   -10933   -10966   -10987 
  -10993   -10989   -10980   -10972   -10971   -10976   -10979   -10978 
  -10983   -11014   -11057   -11097   -11134   -11173   -11207   -11234 
  -11252   -11263   -11271   -11271   -11260   -11237   -11205   -11164 
  -11115   -11055   -10968   -10863   -10751   -10643   -10531   -10416 
  -10300   -10188   -10089    -9998    -9910    -9836    -9765    -9675 
   -9574    -9482    -9404    -9344    -9301    -9258    -9220    -9200 
   -9194    -9202    -9215    -9216    -9208    -9207    -9221    -9254 
   -9301    -9366    -9445    -9526    -9614    -9709    -9799    -9894 
  -10000   -10099   -10181   -10262   -10351   -10442   -10530   -10620 
  -10700   -10763   -10822   -10881   -10925   -10964   -11007   -11048 
  -11074   -11084   -11088   -11090   -11086   -11071   -11051   -11032 
  -11017   -11001   -10989   -10980   -10982   -10995   -11017   -11037 
  -11052   -11059   -11055   -11040   -11016   -10990   -10967   -10944 
  -10918   -10897   -10883   -10876   -10879   -10889   -10903   -10924 
  -10944   -10953   -10952   -10947   -10943   -10951   -10960   -10964 
  -10970   -10974   -10978   -10983   -10991   -10995   -10991   -10970 
  -10933   -10908   -10886   -10859   -10841   -10839   -10837   -10831 
  -10816   -10786   -10744   -10693   -10646   -10593   -10532   -10478 
  -10443   -10419   -10400   -10386   -10374   -10359   -10345   -10334 
  -10328   -10327   -10335   -10342   -10342   -10351   -10363   -10369 
  -10374   -10381   -10390   -10415   -10442   -10461   -10476   -10482 
  -10478   -10482   -10511   -10551   -10592   -10642   -10692   -10741 
  -10804   -10868   -10925   -10982   -11036   -11097   -11161   -11221 
  -11272   -11313   -11348   -11384   -11412   -11422   -11425   -11434 
  -11446   -11456   -11457   -11439   -11406   -11371   -11337   -11311 
  -11290   -11261   -11222   -11184   -11157   -11138   -11133   -11136 
  -11136   -11140   -11145   -11137   -11125   -11124   -11119   -11114 
  -11109   -11097   -11086   -11082   -11083   -11092   -11110   -11134 
  -11163   -11183   -11194   -11203   -11207   -11211   -11232   -11250 
  -11260   -11269   -11279   -11281   -11284   -11287   -11286   -11279 
  -11259   -11219   -11172   -11130   -11092   -11055   -11017   -10982 
  -10949   -10920   -10899   -10882   -10856   -10822   -10791   -10768 
  -10754   -10744   -10728   -10702   -10671   -10638   -10606   -10575 
  -10535   -10500   -10473   -10436   -10399   -10363   -10328   -10289 
  -10246   -10203   -10162   -10126   -10114   -10130   -10153   -10170 
  -10181   -10185   -10195   -10211   -10214   -10212   -10216   -10206 
  -10184   -10174   -10173   -10166   -10158   -10153   -10141   -10122 
  -10110   -10111   -10111   -10100   -10087   -10093   -10120   -10138 
  -10139   -10145   -10161   -10184   -10206   -10214   -10212   -10215 
  -10215   -10200   -10192   -10191   -10183   -10168   -10162   -10176 
  -10196   -10220   -10262   -10311   -10355   -10408   -10474   -10551 
  -10640   -10728   -10802   -10872   -10945   -11017   -11087   -11157 
  -11222   -11283   -11358   -11442   -11520   -11600   -11677   -11747 
  -11815   -11885   -11950   -12000   -12039   -12075   -12110   -12141 
  -12172   -12202   -12224   -12228   -12220   -12208   -12193   -12170 
  -12144   -12116   -12077   -12039   -12005   -11951   -11886   -11834 
  -11790   -11743   -11686   -11624   -11566   -11511   -11453   -11388 
  -11317   -11241   -11165   -11094   -11030   -10979   -10939   -10898 
  -10858   -10818   -10783   -10746   -10708   -10685   -10677   -10674 
  -10679   -10689   -10702   -10727   -10748   -10760   -10775   -10783 
  -10783   -10787   -10798   -10818   -10841   -10864   -10890   -10917 
  -10947   -10980   -11011   -11033   -11041   -11044   -11052   -11067 
  -11091   -11122   -11152   -11184   -11217   -11240   -11257   -11273 
  -11286   -11295   -11307   -11322   -11338   -11349   -11354   -11357 
  -11357   -11356   -11352   -11345   -11337   -11326   -11318   -11307 
  -11292   -11281   -11265   -11246   -11232   -11219   -11207   -11190 
  -11165   -11130   -11087   -11047   -11013   -10978   -10936   -10895 
  -10851   -10794   -10727   -10650   -10563   -10474   -10389   -10300 
  -10206   -10110   -10000    -9879    -9765    -9657    -9551    -9452 
   -9358    -9269    -9196    -9136    -9090    -9054    -9024    -9009 
   -9001    -8996    -9003    -9012    -9022    -9046    -9078    -9111 
   -9138    -9169    -9209    -9255    -9300    -9342    -9386    -9431 
   -9472    -9512    -9549    -9595    -9655    -9725    -9802    -9880 
   -9956   -10031   -10107   -10185   -10262   -10339   -10423   -10508 
  -10590   -10670   -10743   -10808   -10872   -10947   -11021   -11094 
  -11156   -11196   -11223   -11248   -11261   -11269   -11275   -11281 
  -11292   -11302   -11298   -11284   -11276   -11272   -11267   -11264 
  -11260   -11257   -11263   -11269   -11272   -11268   -11261   -11260 
  -11263   -11259   -11242   -11227   -11219   -11213   -11202   -11183 
  -11163   -11148   -11132   -11111   -11092   -11076   -11067   -11067 
  -11079   -11094   -11102   -11105   -11107   -11114   -11124   -11129 
  -11119   -11102   -11086   -11070   -11057   -11052   -11045   -11026 
  -10998   -10970   -10939   -10902   -10863   -10818   -10763   -10697 
  -10632   -10577   -10531   -10497   -10463   -10420   -10372   -10330 
  -10292   -10247   -10197   -10143   -10079   -10025    -9995    -9969 
   -9946    -9937    -9936    -9930    -9914    -9902    -9894    -9887 
   -9902    -9925    -9936    -9942    -9950    -9949    -9946    -9956 
   -9975    -9992   -10002   -10003   -10000    -9985    -9961    -9940 
   -9911    -9894    -9892    -9884    -9879    -9890    -9907    -9930 
   -9946    -9950    -9956    -9967    -9975    -9976    -9980    -9985 
   -9988    -9991    -9992   -10003   -10014   -10030   -10056   -10071 
  -10080   -10099   -10106   -10103   -10115   -10141   -10168   -10203 
  -10249   -10296   -10341   -10399   -10469   -10535   -10596   -10665 
  -10743   -10825   -10903   -10975   -11048   -11109   -11163   -11225 
  -11288   -11346   -11399   -11442   -11480   -11515   -11549   -11585 
  -11626   -11657   -11673   -11680   -11685   -11689   -11684   -11674 
  -11661   -11642   -11620   -11597   -11574   -11547   -11516   -11485 
  -11461   -11442   -11422   -11395   -11357   -11311   -11268   -11233 
  -11202   -11165   -11122   -11080   -11049   -11040   -11047   -11051 
  -11052   -11052   -11056   -11067   -11086   -11109   -11136   -11164 
  -11195   -11230   -11273   -11325   -11376   -11427   -11477   -11526 
  -11572   -11615   -11653   -11685   -11712   -11745   -11778   -11797 
  -11800   -11797   -11796   -11789   -11776   -11754   -11726   -11688 
  -11642   -11581   -11506   -11423   -11330   -11221   -11113   -11009 
  -10903   -10801   -10705   -10609   -10511   -10415   -10323   -10227 
  -10131   -10048    -9976    -9907    -9837    -9769    -9711    -9652 
   -9590    -9533    -9479    -9439    -9416    -9401    -9396    -9397 
   -9402    -9414    -9437    -9474    -9522    -9578    -9632    -9683 
   -9733    -9776    -9823    -9879    -9940    -9998   -10048   -10098 
  -10152   -10211   -10274   -10339   -10400   -10455   -10512   -10574 
  -10633   -10692   -10754   -10822   -10889   -10955   -11021   -11076 
  -11129   -11187   -11237   -11279   -11314   -11342   -11372   -11404 
  -11437   -11470   -11503   -11529   -11553   -11569   -11585   -11608 
  -11624   -11634   -11653   -11677   -11699   -11713   -11719   -11724 
  -11735   -11745   -11751   -11757   -11757   -11750   -11743   -11731 
  -11707   -11680   -11653   -11623   -11595   -11572   -11556   -11538 
  -11514   -11483   -11446   -11408   -11373   -11337   -11295   -11246 
  -11183   -11117   -11055   -10989   -10914   -10832   -10743   -10654 
  -10577   -10516   -10461   -10400   -10346   -10305   -10276   -10258 
  -10253   -10249   -10249   -10251   -10255   -10268   -10289   -10312 
  -10342   -10384   -10438   -10503   -10565   -10619   -10670   -10727 
  -10785   -10841   -10903   -10968   -11034   -11107   -11176   -11232 
  -11281   -11315   -11337   -11353   -11369   -11392   -11418   -11434 
  -11449   -11464   -11475   -11472   -11465   -11464   -11469   -11472 
  -11479   -11488   -11495   -11499   -11499   -11485   -11468   -11452 
  -11425   -11395   -11369   -11346   -11325   -11310   -11300   -11294 
  -11281   -11261   -11240   -11222   -11206   -11179   -11141   -11088 
  -11018   -10943   -10867   -10793   -10717   -10640   -10561   -10478 
  -10397   -10314   -10226   -10143   -10062    -9983    -9914    -9845 
   -9778    -9725    -9674    -9621    -9580    -9559    -9547    -9537 
   -9528    -9525    -9531    -9543    -9558    -9575    -9595    -9620 
   -9644    -9674    -9710    -9749    -9791    -9832    -9880    -9937 
   -9995   -10049   -10103   -10139   -10154   -10169   -10192   -10208 
  -10211   -10211   -10220   -10233   -10231   -10222   -10218   -10218 
  -10215   -10201   -10187   -10184   -10188   -10197   -10216   -10234 
  -10243   -10246   -10254   -10270   -10288   -10307   -10330   -10350 
  -10359   -10369   -10380   -10396   -10417   -10444   -10471   -10493 
  -10515   -10554   -10596   -10628   -10665   -10704   -10740   -10781 
  -10831   -10882   -10929   -10972   -11016   -11063   -11107   -11144 
  -11180   -11222   -11257   -11287   -11317   -11349   -11385   -11426 
  -11465   -11507   -11556   -11614   -11668   -11711   -11749   -11785 
  -11811   -11831   -11854   -11873   -11884   -11888   -11884   -11870 
  -11843   -11800   -11747   -11686   -11616   -11556   -11506   -11454 
  -11399   -11337   -11268   -11195   -11117   -11034   -10947   -10859 
  -10779   -10702   -10628   -10557   -10484   -10407   -10334   -10261 
  -10183   -10116   -10064   -10006    -9952    -9926    -9915    -9903 
   -9895    -9904    -9918    -9930    -9946    -9967    -9992   -10021 
  -10050   -10077   -10098   -10122   -10143   -10164   -10196   -10231 
  -10264   -10293   -10320   -10354   -10390   -10422   -10453   -10493 
  -10540   -10589   -10629   -10660   -10698   -10750   -10804   -10855 
  -10908   -10964   -11014   -11053   -11083   -11109   -11140   -11169 
