Origin Time       2025/01/13 21:19:00
Lat.              31.8
Long.             131.6
Depth. (km)       30
Mag.              6.9
Station Code      TKSH03
Station Lat.      33.8778
Station Long.     134.1294
Station Height(m) 640
Record Time       2025/01/13 21:20:46
Sampling Freq(Hz) 100Hz
Duration Time(s)  120
Dir.              4
Scale Factor      7845(gal)/8223790
Max. Acc. (gal)   0.952
Last Correction   2025/01/13 21:20:47
Memo.             
[...]
      76       39       24       43       97      141      135       95 
      51       13       -5      -21      -28       12       72       97 
      70       24        8       13       14        5       -8       -2 
      12       25       43       45       59      102      126      105 
      86      103      132      137      110       67       33       10 
      -4      -13      -21      -10       29       79      130      175 
     197      180      148      110       63       32       13      -14 
     -14       22       55       67       54       14      -33      -85 
    -106      -64      -12       -5      -29      -41      -29       -9 
      12       44       70       59       44       54       41       -6 
     -55      -97     -118      -99      -59      -24       -6       14 
      47       71      103      143      152      139      106       58 
      12      -28      -55      -44       18      114      190      214 
     186      137      118      125      113       71       17      -27 
     -41      -16       27       70      117      152      157      137 
     101       64       35       -9      -71     -105      -95      -68 
     -32       29       74       91      128      160      153      120 
      66        1      -59      -99     -114     -105      -76      -28 
      27       62       89      137      195      224      206      145 
      49      -43      -98     -122     -128     -113      -58       33 
     139      225      255      220      152       87       36      -17 
     -79     -136     -157     -112      -22       64      143      199 
     225      234      236      213      130       20      -45      -59 
     -44       -4       31       52       90      148      190      179 
     133       87       45       -6      -52      -55      -18       27 
      74      128      168      187      189      168      139      128 
     136      132       99       64       55       48       27       36 
      89      137      170      182      162      101       31       -1 
      -8      -29      -49      -33        6       51       94      137 
     172      186      180      151      102       58       14      -32 
     -48      -36      -18       32      124      187      189      163 
     136      102       66       48       41        5      -54      -70 
     -21       33       48       31       -1      -16       13       70 
     108       91       13      -78     -141     -157     -108      -20 
      45       67       62       49       13      -33      -52      -59 
     -70      -72      -85     -101      -85      -49      -22       28 
      89      120      143      168      178      176      164      130 
      95       75       74       94      106      109      130      143 
     129      118      128      141      144      132      125      120 
     118      140      147       85        2      -39      -44      -28 
      -5       13       45      101      151      176      163      126 
      97       62       20       -8      -31      -54      -49      -20 
       9       51       99      116      106      105      116      130 
     112       63       33       24        6      -24      -47      -40 
      -6       29       72      148      221      230      176      109 
      36      -51     -126     -153     -152     -163     -179     -171 
    -156     -130      -74      -18       12       16      -12      -66 
    -139     -209     -257     -279     -256     -216     -184     -132 
     -51       24       82      133      186      217      206      166 
     116       58       -1      -39      -45      -52      -58      -29 
      18       66      121      193      260      301      310      268 
     187      114       66       45       45       52       89      143 
     172      189      228      268      267      222      178      147 
     118       87       62       44       31       37       64       85 
      93      103      114      120      110       91       72       36 
     -21      -81     -124     -129     -112      -90      -33       56 
     137      187      211      216      203      180      157      141 
     114       62        1      -51      -87      -83      -21       75 
     148      166      135       78       16      -27      -49      -76 
    -112     -120     -106      -98      -86      -66      -41       -1 
      36       43       47       74      110      129      122      116 
     108       76       52       70       97      121      155      176 
     184      182      168      156      162      172      147      102 
     109      149      157      141      133      144      174      209 
     224      213      193      178      152      105       68       81 
     125      163      187      199      186      152      120      102 
      85       41      -10      -47      -68      -83      -75      -29 
      21       51       62       35      -24      -49      -25        8 
      40       71       78       76       90      109      133      136 
     110       83       60       47       48       56       83      112 
     114      116      132      141      117       44      -54     -114 
     -95      -37       13       60       98      101       98      121 
     144      149      141      125       89       18      -51      -76 
     -63      -33        9       68      140      207      249      260 
     233      167       94       55       32       18       40       82 
     116      145      168      163      145      153      178      174 
     136      101       76       71       78       68       40       27 
      39       58       74       95       85       17      -48      -55 
     -25      -10      -12      -22      -47      -63      -59      -36 
      -1       37       64       56       29        8      -22      -64 
    -108     -145     -156     -143     -140     -141     -126     -113 
    -102      -82      -68      -52      -17        8        6        5 
      20       28       16       -4      -21      -49      -72      -49 
      -6       10       -1      -39      -75      -67      -29        6 
      54      101      118      117      106       94       99      113 
     122      141      145      133      137      157      198      244 
     251      236      233      216      167      116       85       81 
      91      105      133      166      172      159      133      103 
      85       79       75       89      135      180      202      197 
     148       85       33      -16      -58      -63      -52      -63 
     -76      -64      -47      -31       13       66       68        9 
     -67     -117     -141     -172     -189     -174     -153     -122 
     -55       12       37       36        1      -70     -121     -118 
     -93      -68      -47      -20       18       83      174      248 
     253      199      137      102       93       82       59       28 
     -13      -47      -41       -5       39       83      114      140 
     155      147      110       56       25       43       87      126 
     151      183      233      268      288      315      329      303 
     241      157      109      122      135      121      109      101 
     102       98       63       20        8       24       18      -25 
     -68      -75      -67      -59      -40      -28      -33      -45 
     -68      -94     -103     -112     -125     -145     -156     -106 
      33      193      278      272      201       91      -28     -148 
    -251     -291     -226      -81       70      183      260      280 
     226      137       63        9      -41      -90     -116     -105 
     -47       64      167      205      216      252      295      290 
     228      125       -1      -68       -4      114      193      240 
     274      272      225      167      110       17      -94     -162 
    -180     -144      -40       78      151      167      130       87 
      56       -5      -97     -143     -135     -121     -112     -108 
     -97      -48       14       43       32       14       18       37 
      52       47       13      -35      -83     -116     -121      -90 
     -36       13       40       36       12        4       18       33 
      37       27       21       35       55       98      149      151 
     105       28      -70     -149     -148      -55       59      122 
     128      106       95      101      121      162      194      157 
      49      -83     -226     -344     -359     -243      -48      136 
     256      299      257      114      -54     -139     -178     -248 
    -328     -352     -299     -195      -44      160      364      471 
     463      363      163      -82     -264     -342     -328     -233 
     -75      108      270      376      430      473      507      479 
     379      238       70     -106     -251     -337     -356     -284 
    -116      106      305      410      421      400      396      367 
     274      171       90        6      -86     -147     -121      -27 
      90      233      368      444      453      390      267      120 
     -52     -199     -252     -216     -113       17      102      120 
      91       18      -56      -72      -37      -13      -33     -102 
    -178     -187     -102        5       63       64       43       25 
      13        1       -5      -44     -117     -144      -82       21 
     101      106       52      -20      -86     -140     -164     -114 
      24      211      375      452      457      429      346      216 
      99       33        8      -29     -114     -193     -190      -87 
      68      211      280      257      210      182      130       71 
     102      197      209      106      -52     -216     -317     -315 
    -225      -72      113      290      407      450      409      279 
     124       12      -40      -58      -71      -99     -128     -120 
     -49       52      167      298      409      440      392      288 
     143        4      -85     -103      -60       22      108      130 
      63      -25      -51      -22       -8      -33      -51      -27 
     -10      -28      -39      -21        1       33       85      140 
     180      183      147       75      -28     -114     -153     -171 
    -139      -21      108      174      178      162      171      201 
     170       45      -67      -74      -35      -35      -70     -113 
    -116      -35       81      166      209      182       59      -86 
    -168     -176     -148     -113      -79      -41        6       63 
     106       94       32       -4       16       64      145      247 
     288      211       39     -113     -162     -129      -63        4 
      28        2      -20        0       41       82      110      103 
      66       13       -4       44       98      103       90       67 
      31       12      -10      -94     -234     -361     -388     -287 
    -124       25      156      260      328      360      357      325 
     265      176      113       89        8     -135     -243     -284 
    -282     -222      -83      114      303      406      369      205 
     -29     -233     -301     -234      -91      114      295      325 
     218      117      136      225      253      151      -24     -163 
    -225     -243     -238     -207     -118       41      243      425 
     553      621      568      352       82      -78     -139     -199 
    -271     -317     -286     -141       83      317      487      545 
     481      341      167      -32     -220     -324     -360     -379 
    -328     -206     -105      -32       49      121      189      261 
     297      252      144       -9     -184     -348     -449     -432 
    -295     -120       40      175      222      141        4     -103 
    -167     -168      -81       75      236      348      375      303 
     162       16      -76     -105      -85      -33       70      213 
     263      122     -114     -279     -305     -221      -43      182 
     310      302      257      224      149        0     -159     -226 
    -193     -137      -90      -37      -13        4      136      380 
     580      612      460      230       66       44      128      197 
     198      149       81       66      110       67      -99     -247 
    -310     -303     -184       47      268      382      425      436 
     357      176       -4      -87      -94     -125     -190     -201 
    -126       -4      155      317      427      471      421      256 
      20     -189     -290     -263     -132       58      229      294 
     234      120      -17     -191     -338     -313      -58      288 
     580      754      733      471       55     -344     -577     -618 
    -534     -364     -130      102      328      550      716      761 
     653      448      236       49     -137     -340     -471     -429 
    -272     -148      -59      102      309      403      336      207 
      68      -94     -240     -292     -260     -209     -190     -168 
     -74       86      263      411      475      430      319      197 
      95       54       76       81      -13     -144     -213     -221 
    -209     -143       27      263      453      481      315       58 
    -186     -386     -510     -483     -256      112      464      645 
     611      414       89     -288     -569     -704     -737     -652 
    -434     -109      282      635      839      835      598      187 
    -241     -562     -742     -739     -567     -390     -251       17 
     450      859     1048      966      689      311      -70     -357 
    -530     -594     -511     -301       -6      334      615      687 
     530      287       68     -105     -201     -193     -129      -55 
      72      278      471      581      627      630      568      396 
     122     -168     -360     -355     -164      101      371      602 
     722      693      527      271       10     -193     -309     -294 
    -135      102      324      461      479      369      205       95 
      63       56       32      -16      -70      -91      -58       29 
     156      268      302      232       95      -40      -98      -62 
     -14      -45     -153     -233     -195      -86       16       74 
      79       83      101       45     -126     -307     -392     -418 
    -425     -351     -171       51      282      467      503      353 
     102     -120     -230     -213     -113       -9       67       90 
      39      -16       -1       45       93      168      276      352 
     298       94     -164     -361     -427     -349     -175       12 
     155      217      183       85        2       17      140      303 
     426      452      373      221       49      -78     -102      -27 
      59       98      145      251      405      513      454      287 
     170      152      195      233      230      222      222      189 
     113       35       12       64      157      251      319      369 
     390      302       72     -209     -407     -434     -298     -103 
      43      124      157      167      182      197      140      -49 
    -306     -487     -517     -409     -228      -49       76      167 
     263      302      201       27     -106     -189     -241     -248 
    -199     -116        2      172      348      434      387      247 
      76      -85     -228     -328     -348     -298     -206      -45 
     197      441      591      603      495      299       47     -184 
    -322     -375     -356     -280     -178      -55       75      178 
     221      193      120       51      -10      -89     -170     -218 
    -234     -202      -95       58      222      368      417      336 
     183       28     -129     -318     -498     -589     -573     -445 
    -229       16      220      337      373      364      326      251 
     120      -56     -276     -473     -499     -356     -190      -54 
      37       18      -91     -171     -171     -118      -35       55 
     118      126       81       16      -29      -28       29       64 
     -21     -199     -315     -271     -120       32      133      184 
     193      157       85       36       58      122      175      172 
      89      -17      -78     -112     -144     -128      -39       85 
     228      386      519      571      484      287      103       -2 
     -85     -186     -264     -278     -217      -71      156      440 
     723      872      768      465      108     -214     -463     -579 
    -530     -367     -168       25      199      334      448      540 
     558      494      341       93     -198     -456     -584     -491 
    -213       86      295      392      375      268      125       -8 
     -98     -176     -333     -529     -584     -444     -244      -67 
      90      214      255      183       45      -81     -179     -256 
    -280     -226     -113       36      176      229      199      168 
     139       58      -47     -105     -103     -101     -135     -170 
    -168     -128      -67        1       87      148      102      -28 
    -140     -207     -256     -253     -170      -56       22       82 
     155      191      175      151      128      108      106      113 
     125      168      249      355      450      491      481      429 
     311      163       35      -51     -102     -137     -175     -225 
    -210      -67      113      245      336      384      372      324 
     224       36     -179     -317     -368     -337     -210      -32 
     155      324      403      348      243      172      113       18 
    -102     -210     -272     -294     -290     -244     -112       95 
     292      415      454      390      229       35     -139     -294 
    -411     -441     -380     -261     -101       83      259      387 
     425      372      298      236      155       51      -45     -109 
    -110      -55       16       79      155      247      298      272 
     232      209      149       48      -22      -28       31      121 
     170      136       62       24       60      126      156      145 
     152      203      256      265      229      176      139      122 
     109       55      -25      -75      -82      -60      -16       40 
      82       95       91       68       24      -33      -98     -143 
    -144     -139     -172     -241     -301     -302     -237     -124 
      47      249      392      411      324      172       24      -59 
     -76      -62      -25       29      102      168      175      129 
     109      114       90       49       29       37       62       43 
     -35      -89      -62       -9        9       17       41       62 
      60       45       39       48       60       72       98      121 
     145      178      199      190      139       63       12      -31 
     -85      -89      -44      -21      -32      -47      -48      -25 
       1       -1      -27      -49      -58      -36       29       97 
     114       79        6      -85     -160     -183     -141      -41 
      82      178      245      297      309      272      189       67 
     -24      -43      -18       -4       -5       14       85      168 
     195      152       94       66       62       64       47        0 
     -67     -137     -178     -170     -144     -113      -66      -18 
      12       27       20      -10      -48      -56      -25       29 
