Origin Time       2025/01/13 21:19:00
Lat.              31.8
Long.             131.6
Depth. (km)       30
Mag.              6.9
Station Code      TKSH02
Station Lat.      34.0112
Station Long.     134.0918
Station Height(m) 190
Record Time       2025/01/13 21:20:41
Sampling Freq(Hz) 100Hz
Duration Time(s)  133
Dir.              4
Scale Factor      7845(gal)/8223790
Max. Acc. (gal)   1.244
Last Correction   2025/01/13 21:20:42
Memo.             
[...]
   -1659    -1683    -1680    -1656    -1655    -1663    -1645    -1641 
   -1675    -1696    -1678    -1628    -1574    -1536    -1503    -1475 
   -1486    -1547    -1632    -1738    -1837    -1867    -1811    -1722 
   -1661    -1636    -1634    -1664    -1707    -1723    -1696    -1624 
   -1514    -1414    -1348    -1324    -1368    -1474    -1580    -1649 
   -1687    -1709    -1713    -1672    -1591    -1541    -1544    -1561 
   -1609    -1701    -1777    -1806    -1807    -1802    -1798    -1779 
   -1742    -1713    -1694    -1669    -1626    -1594    -1593    -1586 
   -1552    -1512    -1480    -1456    -1443    -1467    -1536    -1582 
   -1578    -1583    -1606    -1624    -1649    -1701    -1769    -1815 
   -1815    -1800    -1780    -1744    -1710    -1699    -1699    -1698 
   -1698    -1698    -1680    -1622    -1537    -1470    -1433    -1428 
   -1460    -1498    -1498    -1474    -1460    -1480    -1541    -1625 
   -1702    -1752    -1756    -1715    -1657    -1587    -1513    -1480 
   -1498    -1528    -1561    -1591    -1617    -1655    -1691    -1726 
   -1791    -1860    -1900    -1906    -1875    -1813    -1732    -1653 
   -1606    -1576    -1544    -1529    -1547    -1576    -1609    -1660 
   -1702    -1688    -1632    -1579    -1536    -1487    -1436    -1418 
   -1455    -1529    -1618    -1707    -1755    -1733    -1674    -1626 
   -1598    -1591    -1624    -1678    -1713    -1707    -1664    -1610 
   -1566    -1528    -1518    -1571    -1668    -1765    -1838    -1869 
   -1850    -1802    -1764    -1760    -1788    -1836    -1865    -1834 
   -1746    -1653    -1606    -1615    -1648    -1675    -1674    -1628 
   -1563    -1507    -1471    -1468    -1507    -1560    -1605    -1649 
   -1702    -1741    -1750    -1737    -1722    -1706    -1682    -1661 
   -1665    -1691    -1705    -1695    -1686    -1687    -1679    -1664 
   -1656    -1636    -1591    -1543    -1499    -1459    -1420    -1398 
   -1402    -1416    -1426    -1449    -1486    -1507    -1506    -1506 
   -1521    -1547    -1579    -1630    -1690    -1721    -1713    -1688 
   -1652    -1605    -1580    -1602    -1638    -1663    -1694    -1715 
   -1672    -1555    -1428    -1350    -1317    -1305    -1327    -1399 
   -1494    -1557    -1574    -1571    -1568    -1559    -1514    -1437 
   -1375    -1387    -1463    -1556    -1655    -1745    -1809    -1869 
   -1942    -2010    -2052    -2049    -2007    -1956    -1895    -1817 
   -1734    -1664    -1595    -1528    -1490    -1505    -1547    -1567 
   -1548    -1514    -1476    -1426    -1385    -1390    -1431    -1474 
   -1499    -1501    -1507    -1540    -1574    -1587    -1607    -1659 
   -1725    -1769    -1794    -1825    -1833    -1764    -1668    -1602 
   -1549    -1493    -1452    -1444    -1456    -1441    -1414    -1425 
   -1471    -1530    -1588    -1611    -1601    -1594    -1598    -1615 
   -1651    -1702    -1752    -1803    -1858    -1899    -1902    -1875 
   -1838    -1807    -1783    -1759    -1719    -1656    -1568    -1462 
   -1364    -1285    -1206    -1143    -1128    -1166    -1242    -1347 
   -1470    -1564    -1591    -1576    -1578    -1594    -1595    -1598 
   -1622    -1648    -1655    -1655    -1668    -1680    -1655    -1599 
   -1559    -1530    -1501    -1487    -1507    -1557    -1625    -1688 
   -1722    -1719    -1671    -1593    -1547    -1555    -1575    -1603 
   -1653    -1709    -1744    -1745    -1737    -1756    -1773    -1744 
   -1684    -1640    -1607    -1570    -1534    -1524    -1534    -1568 
   -1613    -1632    -1630    -1642    -1660    -1665    -1680    -1705 
   -1707    -1684    -1651    -1620    -1609    -1620    -1645    -1684 
   -1698    -1665    -1613    -1552    -1475    -1394    -1340    -1325 
   -1347    -1406    -1478    -1529    -1567    -1603    -1628    -1626 
   -1586    -1520    -1463    -1432    -1424    -1447    -1495    -1559 
   -1645    -1729    -1761    -1753    -1748    -1753    -1761    -1768 
   -1768    -1760    -1752    -1733    -1684    -1615    -1555    -1502 
   -1453    -1439    -1474    -1537    -1593    -1634    -1684    -1733 
   -1760    -1769    -1782    -1802    -1834    -1858    -1853    -1817 
   -1768    -1723    -1684    -1636    -1575    -1533    -1547    -1603 
   -1663    -1715    -1769    -1800    -1779    -1734    -1710    -1690 
   -1648    -1605    -1571    -1529    -1485    -1485    -1532    -1572 
   -1571    -1529    -1475    -1452    -1468    -1521    -1602    -1698 
   -1779    -1823    -1846    -1857    -1800    -1656    -1517    -1458 
   -1460    -1501    -1566    -1614    -1590    -1501    -1409    -1363 
   -1359    -1364    -1381    -1429    -1497    -1559    -1636    -1725 
   -1800    -1863    -1915    -1948    -1948    -1915    -1865    -1809 
   -1756    -1709    -1641    -1560    -1516    -1516    -1525    -1539 
   -1557    -1563    -1553    -1528    -1489    -1447    -1418    -1424 
   -1476    -1548    -1599    -1640    -1694    -1748    -1780    -1794 
   -1794    -1782    -1775    -1798    -1857    -1926    -1957    -1917 
   -1836    -1764    -1709    -1668    -1660    -1667    -1642    -1584 
   -1514    -1447    -1378    -1317    -1291    -1308    -1347    -1421 
   -1536    -1653    -1740    -1790    -1844    -1925    -1976    -1952 
   -1896    -1848    -1795    -1736    -1698    -1680    -1653    -1615 
   -1584    -1564    -1552    -1564    -1601    -1636    -1638    -1613 
   -1586    -1567    -1548    -1537    -1537    -1512    -1424    -1314 
   -1244    -1216    -1221    -1271    -1375    -1510    -1638    -1734 
   -1798    -1823    -1814    -1777    -1732    -1705    -1736    -1815 
   -1888    -1904    -1857    -1748    -1602    -1464    -1368    -1341 
   -1374    -1418    -1445    -1445    -1429    -1443    -1486    -1528 
   -1599    -1699    -1761    -1772    -1761    -1746    -1749    -1765 
   -1761    -1709    -1624    -1537    -1458    -1389    -1367    -1416 
   -1506    -1593    -1686    -1803    -1898    -1938    -1964    -1988 
   -1976    -1929    -1871    -1826    -1790    -1737    -1699    -1707 
   -1707    -1651    -1566    -1480    -1402    -1324    -1252    -1243 
   -1291    -1325    -1356    -1437    -1532    -1595    -1651    -1760 
   -1944    -2142    -2289    -2376    -2377    -2242    -2015    -1811 
   -1686    -1637    -1648    -1680    -1698    -1684    -1647    -1609 
   -1583    -1561    -1551    -1570    -1621    -1647    -1603    -1551 
   -1551    -1594    -1669    -1783    -1903    -1964    -1921    -1759 
   -1532    -1348    -1286    -1351    -1479    -1575    -1599    -1556 
   -1456    -1343    -1270    -1264    -1354    -1530    -1741    -1907 
   -1957    -1892    -1765    -1610    -1475    -1422    -1471    -1582 
   -1680    -1710    -1679    -1633    -1606    -1599    -1595    -1571 
   -1520    -1471    -1451    -1456    -1472    -1478    -1464    -1458 
   -1485    -1544    -1578    -1541    -1490    -1471    -1436    -1354 
   -1297    -1372    -1571    -1757    -1850    -1881    -1880    -1853 
   -1798    -1699    -1572    -1476    -1444    -1474    -1559    -1656 
   -1692    -1668    -1644    -1638    -1622    -1588    -1564    -1580 
   -1656    -1763    -1827    -1815    -1773    -1755    -1782    -1845 
   -1902    -1903    -1813    -1667    -1559    -1513    -1480    -1440 
   -1406    -1399    -1435    -1494    -1540    -1571    -1593    -1590 
   -1571    -1586    -1652    -1718    -1763    -1830    -1921    -1981 
   -1987    -1952    -1914    -1849    -1705    -1526    -1410    -1404 
   -1482    -1580    -1640    -1638    -1587    -1545    -1540    -1522 
   -1456    -1362    -1277    -1270    -1359    -1460    -1503    -1497 
   -1499    -1544    -1626    -1759    -1926    -2054    -2095    -2083 
   -2064    -2002    -1853    -1676    -1541    -1456    -1399    -1367 
   -1359    -1345    -1302    -1286    -1363    -1505    -1626    -1680 
   -1680    -1684    -1749    -1861    -1937    -1934    -1887    -1825 
   -1710    -1517    -1317    -1196    -1148    -1135    -1170    -1275 
   -1424    -1584    -1749    -1879    -1904    -1841    -1804    -1821 
   -1830    -1815    -1775    -1694    -1578    -1464    -1429    -1493 
   -1605    -1756    -1919    -2022    -2061    -2103    -2154    -2146 
   -2043    -1888    -1733    -1580    -1432    -1296    -1177    -1135 
   -1263    -1517    -1726    -1817    -1872    -1926    -1919    -1841 
   -1771    -1740    -1691    -1587    -1479    -1435    -1444    -1479 
   -1545    -1610    -1630    -1594    -1502    -1385    -1270    -1167 
   -1119    -1162    -1294    -1486    -1684    -1834    -1899    -1867 
   -1791    -1750    -1753    -1759    -1745    -1702    -1647    -1602 
   -1540    -1416    -1233    -1071    -1012    -1067    -1177    -1256 
   -1291    -1348    -1478    -1665    -1873    -2073    -2241    -2324 
   -2268    -2074    -1809    -1536    -1316    -1227    -1309    -1512 
   -1744    -1922    -1998    -1977    -1873    -1707    -1560    -1466 
   -1383    -1298    -1251    -1278    -1386    -1532    -1695    -1867 
   -1998    -2049    -2057    -2050    -1999    -1877    -1726    -1620 
   -1580    -1559    -1470    -1328    -1259    -1312    -1439    -1561 
   -1622    -1629    -1642    -1665    -1669    -1652    -1609    -1526 
   -1412    -1347    -1429    -1628    -1838    -2030    -2199    -2268 
   -2203    -2054    -1861    -1629    -1422    -1354    -1418    -1493 
   -1526    -1570    -1630    -1661    -1649    -1601    -1501    -1398 
   -1402    -1528    -1676    -1798    -1918    -2019    -2012    -1879 
   -1701    -1564    -1516    -1571    -1711    -1884    -2012    -2037 
   -1966    -1854    -1721    -1549    -1337    -1146    -1048    -1061 
   -1152    -1270    -1377    -1467    -1588    -1807    -2077    -2282 
   -2359    -2276    -2008    -1610    -1233    -1082    -1200    -1402 
   -1517    -1522    -1476    -1426    -1379    -1374    -1478    -1648 
   -1777    -1875    -1968    -1991    -1908    -1782    -1663    -1583 
   -1551    -1559    -1579    -1557    -1491    -1445    -1440    -1453 
   -1528    -1698    -1884    -1977    -1921    -1718    -1480    -1370 
   -1429    -1555    -1636    -1644    -1602    -1551    -1521    -1507 
   -1513    -1574    -1696    -1822    -1894    -1896    -1840    -1729 
   -1579    -1443    -1378    -1387    -1458    -1578    -1709    -1788 
   -1744    -1576    -1398    -1323    -1352    -1414    -1467    -1522 
   -1584    -1628    -1648    -1664    -1702    -1723    -1659    -1533 
   -1414    -1281    -1120    -1005    -1017    -1159    -1359    -1583 
   -1842    -2061    -2112    -2031    -1946    -1898    -1837    -1764 
   -1740    -1791    -1836    -1760    -1570    -1379    -1255    -1200 
   -1252    -1437    -1691    -1898    -1980    -1942    -1822    -1661 
   -1532    -1506    -1571    -1621    -1595    -1545    -1506    -1437 
   -1332    -1235    -1192    -1217    -1296    -1437    -1706    -2062 
   -2339    -2462    -2459    -2289    -1934    -1555    -1324    -1285 
   -1386    -1537    -1668    -1771    -1845    -1872    -1875    -1896 
   -1921    -1881    -1733    -1521    -1362    -1336    -1414    -1516 
   -1609    -1698    -1768    -1815    -1842    -1804    -1665    -1447 
   -1220    -1111    -1190    -1366    -1475    -1480    -1458    -1474 
   -1555    -1683    -1806    -1900    -1944    -1888    -1764    -1649 
   -1560    -1495    -1475    -1503    -1543    -1557    -1571    -1618 
   -1680    -1767    -1896    -2014    -2034    -1944    -1798    -1651 
   -1544    -1529    -1597    -1678    -1753    -1827    -1827    -1729 
   -1661    -1690    -1667    -1480    -1250    -1163    -1229    -1297 
   -1297    -1318    -1429    -1630    -1930    -2238    -2355    -2235 
   -1984    -1667    -1317    -1039     -951    -1057    -1244    -1449 
   -1660    -1815    -1842    -1749    -1598    -1436    -1304    -1293 
   -1441    -1634    -1734    -1741    -1728    -1696    -1624    -1505 
   -1306    -1081    -1023    -1224    -1576    -1918    -2119    -2164 
   -2119    -2023    -1902    -1792    -1713    -1640    -1524    -1363 
   -1210    -1089     -992     -953    -1024    -1217    -1452    -1591 
   -1618    -1648    -1709    -1748    -1746    -1707    -1637    -1575 
   -1587    -1730    -1931    -2019    -1953    -1803    -1613    -1431 
   -1341    -1397    -1529    -1593    -1522    -1367    -1224    -1206 
   -1344    -1530    -1638    -1653    -1641    -1634    -1613    -1584 
   -1611    -1759    -2002    -2211    -2280    -2205    -2006    -1699 
   -1395    -1219    -1206    -1304    -1409    -1468    -1507    -1563 
   -1649    -1768    -1921    -2057    -2095    -2023    -1887    -1710 
   -1503    -1314    -1210    -1223    -1360    -1571    -1717    -1703 
   -1590    -1483    -1435    -1463    -1551    -1649    -1729    -1783 
   -1771    -1657    -1505    -1418    -1426    -1498    -1590    -1653 
   -1657    -1618    -1559    -1483    -1412    -1397    -1460    -1583 
   -1722    -1830    -1850    -1783    -1729    -1729    -1723    -1705 
   -1692    -1628    -1470    -1255    -1048     -936     -955    -1074 
   -1273    -1521    -1773    -2026    -2274    -2442    -2467    -2371 
   -2187    -1946    -1706    -1525    -1409    -1339    -1301    -1278 
   -1251    -1205    -1148    -1129    -1162    -1210    -1302    -1448 
   -1584    -1710    -1890    -2128    -2376    -2554    -2606    -2550 
   -2400    -2154    -1837    -1529    -1314    -1233    -1247    -1278 
   -1291    -1300    -1286    -1206    -1005     -687     -392     -321 
    -541     -962    -1478    -2000    -2408    -2633    -2689    -2566 
   -2280    -1952    -1721    -1607    -1548    -1560    -1694    -1858 
   -1918    -1881    -1813    -1722    -1628    -1530    -1389    -1192 
   -1013     -950     -996    -1107    -1310    -1613    -1922    -2130 
   -2189    -2135    -2012    -1834    -1691    -1690    -1794    -1938 
   -2097    -2187    -2119    -1938    -1757    -1653    -1624    -1633 
   -1624    -1545    -1458    -1441    -1482    -1563    -1691    -1813 
   -1845    -1787    -1699    -1594    -1474    -1416    -1474    -1587 
   -1664    -1694    -1709    -1722    -1726    -1744    -1780    -1795 
   -1768    -1709    -1630    -1570    -1566    -1618    -1703    -1772 
   -1767    -1696    -1633    -1607    -1586    -1528    -1464    -1458 
   -1502    -1563    -1644    -1713    -1734    -1744    -1760    -1757 
   -1714    -1632    -1534    -1433    -1351    -1325    -1356    -1437 
   -1588    -1782    -1957    -2087    -2174    -2205    -2173    -2138 
   -2131    -2068    -1919    -1764    -1641    -1548    -1529    -1580 
   -1602    -1549    -1494    -1470    -1451    -1410    -1327    -1215 
   -1146    -1173    -1296    -1474    -1668    -1863    -2019    -2065 
   -1989    -1906    -1925    -2022    -2123    -2200    -2212    -2107 
   -1885    -1605    -1341    -1147    -1028     -990    -1059    -1209 
   -1366    -1475    -1532    -1551    -1566    -1626    -1752    -1850 
   -1811    -1630    -1413    -1309    -1389    -1566    -1705    -1740 
   -1679    -1580    -1520    -1543    -1648    -1795    -1939    -2060 
   -2155    -2227    -2253    -2207    -2045    -1784    -1525    -1350 
   -1269    -1269    -1309    -1364    -1441    -1537    -1615    -1656 
   -1713    -1845    -1977    -1991    -1926    -1888    -1890    -1888 
   -1873    -1838    -1763    -1680    -1683    -1790    -1903    -1946 
   -1945    -1962    -1971    -1907    -1794    -1668    -1534    -1414 
   -1341    -1331    -1360    -1413    -1499    -1615    -1696    -1688 
   -1625    -1574    -1529    -1464    -1417    -1413    -1426    -1472 
   -1579    -1694    -1737    -1722    -1718    -1767    -1849    -1939 
   -2015    -2033    -1953    -1791    -1613    -1460    -1339    -1243 
   -1161    -1107    -1100    -1108    -1086    -1031    -1003    -1097 
   -1301    -1480    -1571    -1630    -1710    -1790    -1850    -1899 
   -1904    -1837    -1744    -1669    -1615    -1607    -1675    -1794 
   -1892    -1934    -1934    -1868    -1696    -1482    -1287    -1105 
   -1009    -1094    -1306    -1534    -1760    -1966    -2080    -2056 
   -1944    -1811    -1691    -1594    -1498    -1367    -1225    -1166 
   -1254    -1417    -1540    -1584    -1568    -1528    -1520    -1571 
   -1664    -1763    -1823    -1830    -1810    -1831    -1942    -2065 
   -2091    -2020    -1911    -1779    -1638    -1540    -1495    -1467 
   -1451    -1468    -1483    -1489    -1526    -1587    -1630    -1647 
   -1629    -1566    -1472    -1402    -1399    -1459    -1548    -1667 
   -1815    -1946    -2007    -1992    -1934    -1863    -1814    -1788 
   -1736    -1649    -1575    -1548    -1572    -1624    -1671    -1702 
   -1719    -1711    -1680    -1626    -1522    -1377    -1260    -1221 
   -1237    -1278    -1336    -1418    -1514    -1632    -1795    -1977 
   -2106    -2141    -2087    -1979    -1841    -1679    -1507    -1379 
   -1340    -1398    -1498    -1557    -1545    -1498    -1451    -1412 
   -1367    -1301    -1258    -1296    -1401    -1520    -1629    -1702 
   -1702    -1656    -1624    -1614    -1605    -1583    -1549    -1545 
   -1610    -1713    -1803    -1868    -1896    -1885    -1842    -1776 
   -1695    -1621    -1578    -1567    -1568    -1568    -1575    -1582 
   -1567    -1541    -1549    -1591    -1622    -1640    -1676    -1740 
   -1803    -1852    -1884    -1868    -1773    -1657    -1599    -1593 
   -1583    -1552    -1514    -1495    -1522    -1584    -1660    -1750 
   -1819    -1796    -1667    -1498    -1378    -1348    -1399    -1501 
   -1607    -1695    -1783    -1883    -1969    -1984    -1884    -1684 
   -1470    -1318    -1267    -1347    -1536    -1733    -1852    -1873 
   -1836    -1795    -1773    -1769    -1760    -1729    -1684    -1657 
   -1687    -1771    -1844    -1852    -1804    -1730    -1656    -1606 
   -1588    -1598    -1625    -1655    -1678    -1711    -1757    -1779 
   -1752    -1709    -1671    -1629    -1602    -1625    -1684    -1728 
   -1718    -1665    -1614    -1578    -1517    -1416    -1318    -1271 
   -1246    -1198    -1159    -1162    -1193    -1259    -1374    -1498 
   -1590    -1651    -1684    -1691    -1676    -1667    -1675    -1676 
   -1659    -1648    -1655    -1668    -1680    -1682    -1672    -1651 
   -1602    -1544    -1521    -1520    -1517    -1540    -1609    -1717 
   -1845    -1931    -1933    -1858    -1756    -1669    -1640    -1696 
   -1827    -1991    -2130    -2192    -2164    -2095    -2012    -1899 
   -1779    -1714    -1699    -1690    -1696    -1738    -1779    -1765 
   -1705    -1625    -1525    -1385    -1237    -1140    -1111    -1148 
   -1243    -1364    -1491    -1621    -1740    -1817    -1821    -1755 
   -1642    -1541    -1507    -1539    -1584    -1602    -1584    -1556 
   -1524    -1478    -1437    -1429    -1453    -1521    -1625    -1718 
   -1764    -1768    -1749    -1721    -1655    -1540    -1445    -1428 
   -1466    -1513    -1547    -1568    -1588    -1595    -1578    -1544 
   -1517    -1506    -1514    -1540    -1574    -1636    -1763    -1917 
   -1999    -1977    -1885    -1763    -1644    -1575    -1572    -1590 
   -1587    -1584    -1601    -1613    -1606    -1606    -1638    -1699 
   -1763    -1799    -1796    -1780    -1769    -1750    -1728    -1715 
