Origin Time       2025/01/13 21:19:00
Lat.              31.8
Long.             131.6
Depth. (km)       30
Mag.              6.9
Station Code      TKSH03
Station Lat.      33.8778
Station Long.     134.1294
Station Height(m) 640
Record Time       2025/01/13 21:20:46
Sampling Freq(Hz) 100Hz
Duration Time(s)  120
Dir.              5
Scale Factor      7845(gal)/8223790
Max. Acc. (gal)   1.065
Last Correction   2025/01/13 21:20:47
Memo.             
[...]
    1105     1093     1066     1036     1019     1016     1017     1008 
    1000     1011     1038     1071     1096     1084     1050     1028 
     990      927      888      876      854      837      847      877 
     908      943      967      969      951      924      891      854 
     810      758      737      765      826      892      940      962 
     959      966      997     1017     1027     1063     1096     1090 
    1051      997      953      931      928      943      970     1001 
    1050     1101     1128     1150     1166     1146     1096     1053 
    1031     1021     1009      965      920      935      994     1036 
    1026      977      950      963      984      970      930      895 
     872      837      776      724      710      729      793      904 
    1003     1057     1090     1105     1070     1000      942      897 
     864      872      927      997     1058     1105     1124     1105 
    1057     1008      962      911      893      913      923      926 
     949      992     1053     1092     1093     1096     1102     1082 
    1031      965      913      909      946      989     1017     1021 
    1000      965      923      877      850      850      866      908 
     989     1089     1166     1193     1182     1167     1169     1170 
    1134     1044      951      899      876      854      839      859 
     938     1046     1112     1113     1090     1066     1024      966 
     923      904      911      926      916      912      951      985 
     972      949      951      974      996     1005     1019     1046 
    1066     1085     1111     1113     1105     1111     1109     1080 
    1042     1026     1027     1008      992     1028     1109     1185 
    1236     1264     1267     1231     1135     1019      949      931 
     943      973     1001     1021     1047     1063     1054     1023 
     988      985     1005     1001      974      950      945      951 
     936      892      859      859      881      911      938      961 
     959      926      884      857      855      874      881      886 
     935     1001     1013      980      955      935      896      859 
     854      874      899      912      931      981     1054     1094 
    1105     1143     1196     1179     1086      977      895      855 
     846      842      854      896      974     1077     1156     1186 
    1202     1209     1171     1116     1077     1030      980      959 
     962      967      972      997     1066     1131     1127     1070 
    1034     1027     1027     1007      972      969     1012     1048 
    1046     1027     1034     1073     1120     1152     1156     1138 
    1085     1004      945      935      954      980      986      962 
     931      913      901      873      862      896      947      984 
     988      972      966      970      959      949      940      919 
     885      861      859      868      878      892      899      901 
     901      880      837      793      761      750      769      801 
     827      858      891      909      919      923      911      892 
     873      859      857      853      831      826      870      934 
     969      992     1035     1086     1120     1134     1127     1092 
    1040      994      959      939      928      913      901      927 
     988     1042     1070     1089     1112     1147     1179     1171 
    1148     1173     1216     1215     1174     1156     1171     1185 
    1192     1202     1208     1198     1165     1098     1011      938 
     891      858      834      832      866      911      930      919 
     919      945      970      961      923      892      873      841 
     804      795      799      796      811      854      904      945 
     977      997      989      969      981     1016     1028     1024 
    1039     1062     1070     1057     1016      949      885      858 
     873      900      923      962     1013     1042     1043     1034 
    1023     1023     1009      961      913      897      911      957 
    1016     1062     1093     1101     1082     1065     1048     1004 
     961      955      972      966      915      865      877      928 
     949      927      908      908      916      928      942      969 
    1005     1026     1003      959      928      899      854      818 
     822      870      931      994     1075     1167     1237     1255 
    1206     1117     1035      966      908      888      915      961 
    1007     1058     1088     1080     1062     1050     1026      993 
     969      974     1007     1021     1005      982      955      934 
     947      986     1027     1063     1086     1062      986      900 
     830      800      803      789      778      843      938      992 
    1043     1102     1113     1063      981      892      811      727 
     679      708      773      820      866      924      989     1038 
    1043     1023     1004      967      900      831      768      704 
     685      733      814      899      989     1080     1147     1169 
    1146     1092     1043     1013      980      939      911      922 
     992     1089     1165     1202     1225     1242     1232     1188 
    1129     1085     1051      993      931      904      904      919 
     951      989     1032     1081     1115     1123     1108     1069 
    1016      953      888      855      857      854      824      780 
     739      734      758      754      718      688      675      666 
     665      691      751      826      892      950      989      999 
     980      932      857      772      722      726      745      751 
     781      845      924     1031     1125     1147     1134     1124 
    1107     1089     1075     1053     1027     1026     1057     1093 
    1111     1121     1142     1174     1220     1246     1219     1156 
    1102     1074     1061     1054     1057     1084     1104     1084 
    1065     1075     1074     1046     1011      999     1012     1017 
    1020     1051     1092     1115     1115     1093     1071     1063 
    1048     1043     1078     1129     1175     1194     1182     1161 
    1117     1039      974      953      942      923      927      961 
     988      978      936      882      842      828      843      859 
     865      878      885      857      837      866      913      959 
    1000     1001      974      972     1001     1044     1090     1120 
    1113     1074     1042     1044     1069     1085     1104     1150 
    1216     1274     1297     1262     1201     1166     1159     1150 
    1115     1066     1040     1040     1061     1084     1097     1119 
    1139     1124     1089     1073     1065     1044     1031     1021 
    1003     1001     1013      994      966      976     1004     1001 
     950      881      842      841      855      865      868      893 
     932      939      909      889      907      949      972      962 
     942      932      931      915      888      897      954     1021 
    1053     1048     1071     1139     1197     1210     1185     1150 
    1129     1135     1159     1169     1165     1182     1196     1161 
    1105     1067     1053     1067     1115     1161     1173     1169 
    1158     1101     1011      940      920      928      934      922 
     885      858      909     1021     1089     1113     1144     1146 
    1088     1001      901      803      730      685      676      734 
     846      988     1121     1216     1264     1263     1188     1026 
     834      731      741      787      837      918     1048     1208 
    1312     1289     1185     1089     1000      876      747      649 
     592      626      758      901     1013     1134     1252     1320 
    1312     1236     1117      981      837      711      639      639 
     697      793      899      989     1061     1115     1163     1208 
    1197     1112      993      876      754      610      473      442 
     537      668      797      949     1113     1239     1300     1305 
    1255     1152     1020      853      669      556      585      731 
     905     1035     1092     1119     1151     1139     1057      957 
     865      772      689      630      600      616      719      931 
    1181     1351     1394     1331     1200     1070      990      988 
    1067     1152     1166     1173     1223     1248     1223     1212 
    1210     1163     1061      912      761      693      723      826 
     993     1154     1208     1174     1131     1088     1024      965 
     928      896      868      843      814      803      835      878 
     911      935      977     1016     1009      984      962      886 
     776      711      666      627      668      804      985     1189 
    1377     1503     1537     1459     1283     1042      781      594 
     534      575      672      822     1048     1348     1637     1802 
    1804     1683     1468     1161      785      457      264      189 
     233      450      828     1233     1522     1656     1680     1622 
    1468     1205      893      658      573      588      630      718 
     864     1017     1125     1152     1104     1036      996      965 
     909      865      911     1031     1107     1085     1042     1034 
    1035     1015      972      901      830      788      757      753 
     838      996     1136     1202     1193     1127     1008      892 
     846      855      896      959     1005      989      916      826 
     760      757      834      949     1055     1169     1264     1274 
    1192     1051      916      832      762      681      633      660 
     804     1066     1354     1537     1586     1548     1437     1237 
     970      680      456      426      607      882     1143     1324 
    1416     1466     1487     1424     1246      980      695      518 
     515      622      761      918     1123     1399     1644     1684 
    1518     1300     1115      931      735      583      527      580 
     747     1005     1273     1470     1553     1520     1408     1254 
    1059      854      685      591      615      754      938     1097 
    1177     1177     1117      996      828      652      503      425 
     445      535      638      749      880      965     1004     1080 
    1165     1173     1123     1084     1057      977      804      600 
     488      526      658      781      873     1012     1235     1458 
    1560     1480     1287     1089      896      714      592      540 
     556      670      845     1028     1221     1371     1375     1278 
    1216     1202     1116      897      687      652      751      846 
     930     1102     1374     1582     1607     1471     1200      864 
     599      461      450      577      804     1061     1277     1393 
    1410     1347     1196      970      711      507      427      418 
     415      445      594      899     1251     1482     1559     1555 
    1470     1242      938      738      684      673      658      692 
     831     1071     1337     1548     1679     1733     1679     1493 
    1197      846      519      294      199      268      557      986 
    1335     1497     1572     1610     1560     1405     1163      904 
     727      639      603      626      714      849      990     1059 
    1030      947      837      719      673      731      837      912 
     965     1051     1171     1254     1267     1255     1255     1239 
    1138      931      681      461      338      413      683      967 
    1129     1190     1196     1148     1069     1007      990     1008 
    1044     1090     1085      955      746      615      625      726 
     899     1127     1313     1399     1433     1456     1439     1340 
    1152      926      754      689      677      710      851     1081 
    1300     1482     1615     1582     1335     1017      774      656 
     642      658      692      838     1085     1304     1464     1595 
    1652     1606     1449     1148      737      355      136      113 
     244      496      812     1121     1372     1475     1363     1140 
     953      818      706      653      685      745      823      981 
    1197     1368     1422     1368     1256     1125      976      804 
     618      459      417      544      788     1069     1304     1414 
    1385     1239     1013      793      668      652      712      843 
    1066     1329     1493     1463     1309     1159     1053      918 
     718      560      554      679      859     1059     1242     1363 
    1398     1364     1275     1135     1004      942      932      926 
     943     1019     1088     1086     1073     1123     1201     1250 
    1223     1101      984      990     1089     1134     1067      994 
     993     1003      959      878      795      789      920     1063 
    1063      969      913      954     1058     1158     1188     1109 
     939      738      584      521      518      581      762     1024 
    1269     1420     1405     1244     1088      985      832      599 
     403      369      469      583      688      893     1235     1563 
    1690     1540     1165      730      384      139      -20      -39 
     109      394      746     1108     1456     1710     1782     1668 
    1402     1048      716      464      283      202      332      738 
    1285     1725     1934     1971     1875     1601     1155      666 
     257      -28     -114      109      600     1158     1615     1937 
    2103     2054     1772     1355      954      656      446      336 
     438      795     1202     1405     1389     1329     1331     1328 
    1233     1067      931      864      828      837      912     1035 
    1169     1259     1270     1239     1179     1088      994      913 
     850      838      865      876      832      753      715      807 
    1020     1200     1200     1094     1053     1067     1038      938 
     820      772      823      880      834      711      614      596 
     669      842     1065     1251     1399     1501     1479     1329 
    1104      841      596      411      346      459      718     1024 
    1296     1528     1696     1706     1537     1266      966      711 
     562      491      469      571      828     1146     1391     1494 
    1468     1366     1169      884      639      556      588      630 
     680      828     1090     1341     1443     1405     1383     1468 
    1510     1324      949      600      454      537      700      823 
     947     1152     1391     1517     1441     1251     1073      919 
     741      558      440      432      562      815     1108     1348 
    1445     1360     1174      994      843      691      556      487 
     518      649      826      970     1040     1077     1156     1282 
    1345     1267     1113     1007      980      967      874      695 
     557      535      592      734      982     1236     1387     1425 
    1372     1258     1089      828      507      274      284      526 
     815     1032     1240     1475     1651     1659     1458     1115 
     749      475      353      387      579      882     1189     1432 
    1576     1602     1517     1337     1109      913      778      689 
     649      641      684      843     1066     1227     1351     1498 
    1561     1443     1196      928      742      668      657      687 
     761      847      900      924      973     1063     1190     1345 
    1445     1408     1297     1215     1151     1047      886      716 
     646      707      777      776      796      946     1188     1390 
    1433     1282     1028      796      637      527      468      502 
     675      973     1258     1363     1273     1119     1019      992 
     988      978      981     1019     1096     1194     1279     1324 
    1364     1413     1362     1162      932      805      823      957 
    1158     1356     1458     1424     1285     1075      832      633 
     530      519      579      700      839      940     1032     1196 
    1421     1614     1709     1642     1375     1005      696      517 
     446      480      619      834     1048     1202     1301     1378 
    1451     1501     1464     1304     1059      820      648      569 
     645      870     1102     1237     1290     1289     1250     1181 
    1071      946      901      953      969      903      846      882 
    1021     1175     1221     1138     1012      908      858      891 
     996     1136     1289     1414     1444     1323     1042      704 
     468      413      529      762     1012     1194     1329     1445 
    1466     1333     1159     1040      961      915      913      936 
     966     1004     1024     1012     1008     1043     1066     1028 
     986     1004     1048     1047      996      940      928      981 
    1073     1142     1148     1108     1065     1019      940      858 
     811      827      908      972      955      939      981     1012 
    1000      981      955      905      884      927      957      905 
     826      769      715      670      692      768      835      911 
    1021     1100     1100     1055      984      882      772      681 
     654      723      853      996     1155     1339     1509     1579 
    1494     1289     1071      928      831      734      692      769 
     918     1051     1128     1178     1242     1278     1235     1155 
    1081      981      820      645      518      487      602      839 
    1071     1223     1296     1278     1173     1044      924      815 
     739      729      776      861      978     1123     1258     1333 
    1327     1239     1090      930      764      565      395      360 
     483      664      804      897      986     1073     1112     1078 
     984      861      761      729      766      832      897      980 
    1054     1101     1146     1151     1058      934      916     1007 
    1088     1102     1085     1063     1034     1000      993     1067 
    1220     1358     1385     1291     1152     1035      934      837 
     781      815      934     1062     1120     1090     1011      950 
     966     1053     1165     1275     1370     1391     1298     1146 
    1024      938      845      754      742      885     1116     1277 
    1321     1312     1273     1205     1108      969      841      807 
     869      976     1080     1105     1040      965      927      926 
     969     1028     1046     1016      955      888      830      792 
     795      846      930     1031     1113     1156     1166     1123 
    1026      905      783      677      626      641      710      812 
     945     1086     1158     1147     1134     1127     1077      994 
     904      800      706      657      684      777      885      961 
    1035     1143     1229     1242     1193     1127     1077     1048 
    1020      958      864      762      675      627      673      807 
     958     1075     1178     1283     1379     1436     1439     1413 
    1383     1306     1132      907      743      687      697      764 
     947     1246     1530     1669     1637     1505     1348     1156 
     900      637      472      461      576      739      927     1186 
    1458     1583     1539     1418     1243     1023      828      689 
     589      564      643      770      885     1023     1206     1367 
