Origin Time       2025/01/13 21:19:00
Lat.              31.8
Long.             131.6
Depth. (km)       30
Mag.              6.9
Station Code      TKSH05
Station Lat.      33.6628
Station Long.     134.3156
Station Height(m) 40
Record Time       2025/01/13 21:20:45
Sampling Freq(Hz) 100Hz
Duration Time(s)  121
Dir.              5
Scale Factor      7845(gal)/8223790
Max. Acc. (gal)   1.079
Last Correction   2025/01/13 21:20:46
Memo.             
[...]
   -4450    -4452    -4460    -4484    -4500    -4495    -4486    -4491 
   -4511    -4548    -4581    -4590    -4567    -4523    -4476    -4430 
   -4387    -4357    -4351    -4351    -4344    -4344    -4365    -4401 
   -4426    -4432    -4430    -4433    -4436    -4428    -4418    -4419 
   -4425    -4425    -4429    -4452    -4480    -4490    -4475    -4434 
   -4380    -4337    -4305    -4272    -4243    -4213    -4187    -4190 
   -4239    -4321    -4415    -4483    -4496    -4465    -4422    -4386 
   -4369    -4369    -4364    -4345    -4326    -4321    -4318    -4307 
   -4294    -4294    -4293    -4276    -4257    -4270    -4329    -4418 
   -4491    -4521    -4517    -4506    -4503    -4507    -4518    -4538 
   -4565    -4580    -4563    -4531    -4511    -4499    -4492    -4495 
   -4507    -4536    -4569    -4567    -4509    -4415    -4314    -4217 
   -4145    -4118    -4136    -4171    -4203    -4236    -4276    -4303 
   -4314    -4321    -4306    -4259    -4213    -4201    -4210    -4240 
   -4290    -4334    -4352    -4344    -4329    -4324    -4345    -4399 
   -4469    -4533    -4576    -4588    -4584    -4599    -4645    -4703 
   -4730    -4706    -4656    -4626    -4633    -4662    -4687    -4679 
   -4618    -4515    -4403    -4311    -4261    -4247    -4240    -4221 
   -4189    -4156    -4148    -4175    -4207    -4212    -4180    -4137 
   -4113    -4118    -4152    -4216    -4303    -4388    -4446    -4480 
   -4495    -4513    -4565    -4642    -4700    -4710    -4669    -4615 
   -4585    -4594    -4619    -4625    -4591    -4527    -4450    -4383 
   -4341    -4330    -4337    -4345    -4359    -4378    -4402    -4425 
   -4437    -4429    -4391    -4324    -4259    -4236    -4257    -4291 
   -4311    -4329    -4348    -4345    -4320    -4288    -4264    -4260 
   -4280    -4315    -4348    -4365    -4368    -4368    -4376    -4396 
   -4425    -4465    -4506    -4525    -4517    -4492    -4461    -4433 
   -4415    -4411    -4429    -4463    -4488    -4482    -4436    -4374 
   -4336    -4334    -4351    -4383    -4429    -4480    -4536    -4592 
   -4634    -4662    -4683    -4680    -4650    -4608    -4561    -4511 
   -4473    -4444    -4398    -4325    -4239    -4174    -4140    -4124 
   -4116    -4102    -4077    -4054    -4063    -4126    -4243    -4379 
   -4488    -4546    -4553    -4529    -4491    -4457    -4442    -4433 
   -4422    -4403    -4368    -4330    -4321    -4351    -4402    -4453 
   -4498    -4526    -4529    -4511    -4513    -4552    -4611    -4662 
   -4688    -4669    -4614    -4558    -4526    -4534    -4580    -4617 
   -4596    -4544    -4496    -4450    -4396    -4364    -4372    -4392 
   -4398    -4395    -4413    -4453    -4500    -4521    -4480    -4392 
   -4310    -4259    -4230    -4201    -4172    -4166    -4171    -4158 
   -4139    -4139    -4153    -4167    -4175    -4191    -4239    -4302 
   -4347    -4369    -4384    -4392    -4402    -4445    -4533    -4649 
   -4768    -4847    -4861    -4808    -4710    -4591    -4503    -4476 
   -4479    -4475    -4455    -4426    -4392    -4382    -4422    -4498 
   -4557    -4563    -4525    -4491    -4491    -4525    -4557    -4541 
   -4473    -4375    -4279    -4221    -4203    -4202    -4203    -4191 
   -4152    -4121    -4140    -4201    -4255    -4282    -4282    -4255 
   -4213    -4190    -4213    -4270    -4334    -4403    -4473    -4519 
   -4522    -4504    -4506    -4529    -4552    -4563    -4576    -4604 
   -4634    -4641    -4619    -4573    -4519    -4473    -4448    -4444 
   -4437    -4402    -4345    -4298    -4280    -4276    -4256    -4229 
   -4225    -4232    -4225    -4220    -4229    -4251    -4287    -4342 
   -4402    -4449    -4488    -4518    -4519    -4484    -4436    -4417 
   -4452    -4515    -4549    -4546    -4537    -4521    -4487    -4445 
   -4411    -4384    -4356    -4330    -4313    -4310    -4313    -4306 
   -4298    -4305    -4324    -4355    -4407    -4473    -4514    -4515 
   -4502    -4494    -4491    -4486    -4473    -4456    -4432    -4399 
   -4368    -4344    -4314    -4275    -4237    -4209    -4212    -4255 
   -4318    -4390    -4464    -4521    -4538    -4523    -4511    -4527 
   -4571    -4615    -4639    -4646    -4646    -4629    -4587    -4538 
   -4504    -4480    -4460    -4448    -4450    -4459    -4469    -4479 
   -4479    -4463    -4446    -4440    -4440    -4434    -4411    -4379 
   -4351    -4330    -4320    -4314    -4310    -4317    -4341    -4374 
   -4411    -4455    -4473    -4444    -4392    -4365    -4379    -4415 
   -4440    -4423    -4361    -4267    -4182    -4148    -4164    -4202 
   -4233    -4255    -4249    -4216    -4189    -4193    -4220    -4249 
   -4272    -4306    -4345    -4374    -4391    -4399    -4407    -4434 
   -4476    -4515    -4537    -4533    -4509    -4486    -4477    -4483 
   -4473    -4437    -4391    -4345    -4297    -4259    -4244    -4236 
   -4217    -4198    -4198    -4224    -4272    -4333    -4379    -4384 
   -4364    -4355    -4390    -4471    -4557    -4596    -4573    -4522 
   -4487    -4484    -4503    -4533    -4576    -4612    -4612    -4567 
   -4484    -4395    -4345    -4355    -4402    -4457    -4492    -4492 
   -4467    -4434    -4405    -4380    -4369    -4378    -4401    -4432 
   -4473    -4518    -4553    -4571    -4554    -4514    -4483    -4472 
   -4471    -4482    -4506    -4542    -4569    -4549    -4480    -4414 
   -4372    -4349    -4340    -4329    -4295    -4247    -4195    -4139 
   -4105    -4136    -4209    -4275    -4325    -4368    -4411    -4463 
   -4537    -4623    -4661    -4630    -4567    -4517    -4492    -4482 
   -4469    -4449    -4419    -4382    -4338    -4305    -4301    -4311 
   -4299    -4259    -4222    -4214    -4244    -4313    -4407    -4500 
   -4564    -4594    -4607    -4611    -4603    -4587    -4572    -4573 
   -4603    -4633    -4630    -4591    -4527    -4441    -4351    -4283 
   -4259    -4264    -4270    -4261    -4253    -4253    -4253    -4243 
   -4228    -4230    -4271    -4351    -4437    -4472    -4441    -4386 
   -4341    -4301    -4257    -4222    -4221    -4268    -4341    -4401 
   -4440    -4475    -4500    -4500    -4500    -4521    -4545    -4568 
   -4585    -4581    -4571    -4580    -4604    -4612    -4594    -4557 
   -4514    -4468    -4418    -4372    -4325    -4260    -4190    -4141 
   -4131    -4155    -4197    -4234    -4257    -4274    -4313    -4384 
   -4464    -4533    -4587    -4619    -4623    -4595    -4557    -4518 
   -4469    -4411    -4364    -4347    -4340    -4310    -4255    -4203 
   -4178    -4182    -4210    -4274    -4363    -4437    -4476    -4517 
   -4572    -4617    -4629    -4607    -4568    -4538    -4536    -4564 
   -4612    -4656    -4681    -4692    -4685    -4668    -4644    -4612 
   -4569    -4525    -4492    -4465    -4440    -4422    -4407    -4371 
   -4321    -4301    -4315    -4334    -4338    -4324    -4302    -4279 
   -4251    -4232    -4234    -4263    -4309    -4349    -4352    -4309 
   -4239    -4174    -4149    -4183    -4257    -4333    -4390    -4422 
   -4442    -4480    -4552    -4639    -4702    -4710    -4675    -4642 
   -4649    -4683    -4696    -4654    -4569    -4482    -4422    -4407 
   -4425    -4436    -4405    -4342    -4291    -4286    -4321    -4365 
   -4401    -4425    -4432    -4423    -4426    -4450    -4477    -4488 
   -4483    -4475    -4476    -4484    -4480    -4441    -4368    -4288 
   -4228    -4194    -4197    -4225    -4249    -4257    -4247    -4221 
   -4205    -4212    -4222    -4225    -4229    -4230    -4213    -4178 
   -4143    -4133    -4167    -4243    -4344    -4440    -4507    -4548 
   -4580    -4612    -4668    -4739    -4789    -4804    -4789    -4756 
   -4730    -4734    -4758    -4768    -4731    -4646    -4552    -4486 
   -4452    -4449    -4468    -4477    -4452    -4403    -4355    -4317 
   -4299    -4288    -4256    -4209    -4155    -4086    -4009    -3960 
   -3954    -3985    -4033    -4097    -4174    -4245    -4297    -4317 
   -4307    -4291    -4306    -4342    -4363    -4353    -4329    -4322 
   -4359    -4429    -4496    -4542    -4569    -4592    -4606    -4584 
   -4515    -4433    -4386    -4378    -4375    -4334    -4249    -4151 
   -4072    -4044    -4090    -4185    -4249    -4249    -4210    -4175 
   -4175    -4197    -4216    -4220    -4221    -4248    -4325    -4425 
   -4488    -4490    -4436    -4365    -4326    -4332    -4363    -4376 
   -4351    -4307    -4287    -4313    -4357    -4364    -4326    -4299 
   -4333    -4430    -4545    -4634    -4669    -4622    -4513    -4407 
   -4367    -4391    -4414    -4376    -4274    -4155    -4082    -4086 
   -4141    -4194    -4206    -4166    -4087    -4001    -3932    -3886 
   -3867    -3886    -3948    -4031    -4109    -4187    -4274    -4363 
   -4437    -4491    -4531    -4554    -4540    -4494    -4453    -4461 
   -4511    -4560    -4579    -4583    -4592    -4629    -4710    -4820 
   -4931    -5017    -5069    -5055    -4962    -4824    -4677    -4525 
   -4396    -4372    -4495    -4689    -4812    -4776    -4637    -4514 
   -4482    -4521    -4561    -4537    -4422    -4256    -4118    -4063 
   -4087    -4180    -4317    -4428    -4477    -4500    -4531    -4565 
   -4568    -4523    -4449    -4361    -4279    -4224    -4198    -4197 
   -4240    -4338    -4480    -4617    -4702    -4754    -4826    -4915 
   -4990    -5024    -4986    -4869    -4698    -4534    -4452    -4477 
   -4576    -4693    -4766    -4739    -4614    -4428    -4240    -4112 
   -4062    -4087    -4170    -4243    -4240    -4176    -4106    -4058 
   -4036    -4031    -4036    -4060    -4114    -4210    -4355    -4513 
   -4615    -4638    -4604    -4546    -4500    -4519    -4623    -4768 
   -4888    -4936    -4878    -4729    -4561    -4421    -4290    -4163 
   -4083    -4068    -4081    -4075    -4033    -3963    -3913    -3929 
   -4041    -4241    -4457    -4608    -4668    -4646    -4584    -4563 
   -4618    -4696    -4731    -4716    -4673    -4611    -4529    -4433 
   -4340    -4249    -4163    -4091    -4020    -3929    -3828    -3738 
   -3700    -3757    -3905    -4114    -4349    -4569    -4731    -4812 
   -4830    -4797    -4708    -4569    -4409    -4267    -4197    -4233 
   -4317    -4355    -4342    -4351    -4409    -4477    -4521    -4519 
   -4477    -4402    -4326    -4311    -4390    -4500    -4540    -4452 
   -4302    -4209    -4244    -4391    -4584    -4752    -4827    -4780 
   -4644    -4479    -4338    -4268    -4282    -4324    -4326    -4283 
   -4234    -4201    -4191    -4221    -4297    -4401    -4496    -4540 
   -4518    -4471    -4445    -4461    -4496    -4496    -4429    -4321 
   -4214    -4137    -4133    -4217    -4352    -4506    -4668    -4814 
   -4895    -4900    -4846    -4735    -4568    -4371    -4199    -4102 
   -4077    -4097    -4159    -4260    -4349    -4361    -4268    -4132 
   -4054    -4082    -4195    -4345    -4479    -4549    -4531    -4438 
   -4286    -4090    -3927    -3905    -4043    -4244    -4395    -4446 
   -4415    -4368    -4368    -4423    -4522    -4662    -4827    -4961 
   -5000    -4922    -4752    -4538    -4341    -4222    -4190    -4206 
   -4243    -4274    -4247    -4121    -3924    -3744    -3653    -3661 
   -3738    -3848    -3958    -4050    -4131    -4224    -4329    -4428 
   -4494    -4514    -4499    -4510    -4600    -4727    -4801    -4811 
   -4807    -4833    -4887    -4938    -4922    -4793    -4587    -4380 
   -4210    -4105    -4114    -4255    -4492    -4772    -5003    -5125 
   -5169    -5184    -5184    -5185    -5206    -5198    -5067    -4785 
   -4414    -4064    -3850    -3851    -4051    -4336    -4567    -4649 
   -4541    -4271    -3943    -3676    -3546    -3570    -3713    -3902 
   -4077    -4207    -4274    -4271    -4218    -4141    -4087    -4129 
   -4310    -4572    -4820    -5016    -5138    -5140    -5038    -4928 
   -4877    -4866    -4837    -4729    -4511    -4241    -4037    -3955 
   -3970    -4036    -4112    -4164    -4179    -4140    -4041    -3919 
   -3862    -3955    -4168    -4371    -4450    -4387    -4260    -4199 
   -4297    -4537    -4801    -4965    -4981    -4882    -4723    -4541 
   -4361    -4217    -4143    -4143    -4175    -4193    -4180    -4151 
   -4108    -4062    -4070    -4217    -4472    -4687    -4752    -4685 
   -4571    -4468    -4403    -4376    -4376    -4365    -4298    -4145 
   -3950    -3796    -3757    -3851    -4048    -4264    -4421    -4513 
   -4588    -4730    -4947    -5147    -5204    -5053    -4726    -4356 
   -4095    -4024    -4129    -4337    -4534    -4619    -4554    -4374 
   -4175    -4082    -4162    -4380    -4622    -4758    -4742    -4630 
   -4499    -4386    -4295    -4257    -4336    -4526    -4743    -4897 
   -4950    -4901    -4769    -4594    -4419    -4255    -4105    -4010 
   -3993    -4013    -4013    -3986    -3971    -4013    -4144    -4338 
   -4496    -4540    -4503    -4457    -4413    -4371    -4374    -4445 
   -4517    -4514    -4448    -4409    -4491    -4695    -4916    -5046 
   -5046    -4943    -4769    -4545    -4317    -4151    -4058    -3993 
   -3904    -3782    -3677    -3661    -3767    -3958    -4153    -4321 
   -4499    -4711    -4869    -4877    -4792    -4745    -4762    -4737 
   -4607    -4459    -4422    -4554    -4784    -4969    -5012    -4928 
   -4776    -4604    -4467    -4355    -4187    -3927    -3612    -3345 
   -3273    -3497    -3947    -4422    -4737    -4807    -4664    -4464 
   -4405    -4534    -4733    -4862    -4873    -4770    -4576    -4338 
   -4122    -4008    -4055    -4252    -4509    -4698    -4733    -4604 
   -4392    -4270    -4369    -4645    -4893    -4947    -4826    -4652 
   -4490    -4329    -4153    -3979    -3824    -3692    -3619    -3653 
   -3786    -3952    -4095    -4210    -4311    -4410    -4509    -4600 
   -4669    -4737    -4823    -4896    -4932    -4963    -5001    -5043 
   -5097    -5127    -5049    -4819    -4499    -4203    -4008    -3910 
   -3862    -3815    -3730    -3613    -3553    -3645    -3888    -4193 
   -4453    -4595    -4594    -4492    -4392    -4415    -4603    -4847 
   -4981    -4934    -4773    -4604    -4483    -4413    -4378    -4365 
   -4347    -4291    -4221    -4186    -4180    -4170    -4174    -4245 
   -4360    -4446    -4473    -4456    -4422    -4367    -4260    -4109 
   -3959    -3867    -3883    -4055    -4380    -4757    -5032    -5107 
   -4990    -4783    -4645    -4696    -4862    -4953    -4864    -4645 
   -4421    -4284    -4267    -4351    -4498    -4648    -4733    -4720 
   -4638    -4554    -4494    -4413    -4290    -4170    -4105    -4104 
   -4133    -4171    -4249    -4421    -4672    -4885    -4926    -4757 
   -4430    -4056    -3786    -3767    -4008    -4337    -4525    -4440 
   -4122    -3743    -3527    -3591    -3859    -4185    -4461    -4634 
   -4677    -4615    -4502    -4402    -4371    -4437    -4576    -4739 
   -4868    -4885    -4734    -4453    -4153    -3910    -3766    -3789 
   -3997    -4286    -4527    -4688    -4768    -4719    -4503    -4210 
   -3964    -3838    -3866    -4014    -4178    -4338    -4511    -4629 
   -4639    -4576    -4498    -4419    -4340    -4275    -4257    -4326 
   -4518    -4760    -4870    -4747    -4480    -4248    -4186    -4314 
   -4525    -4673    -4673    -4529    -4340    -4263    -4376    -4602 
   -4761    -4719    -4446    -4035    -3674    -3541    -3680    -3985 
   -4310    -4576    -4770    -4880    -4897    -4853    -4766    -4623 
   -4433    -4243    -4089    -3967    -3875    -3828    -3821    -3832 
   -3881    -3985    -4163    -4450    -4808    -5117    -5259    -5188 
   -4973    -4766    -4646    -4629    -4698    -4777    -4776    -4665 
   -4473    -4276    -4160    -4156    -4205    -4225    -4185    -4118 
   -4074    -4050    -4001    -3917    -3883    -4005    -4286    -4606 
   -4834    -4897    -4756    -4430    -4050    -3807    -3813    -4044 
   -4368    -4621    -4734    -4769    -4787    -4760    -4666    -4563 
   -4527    -4576    -4635    -4600    -4440    -4226    -4086    -4091 
   -4203    -4324    -4402    -4428    -4368    -4207    -4036    -3996 
   -4108    -4276    -4425    -4534    -4608    -4637    -4581    -4440 
   -4286    -4218    -4274    -4398    -4477    -4438    -4309    -4221 
   -4287    -4463    -4621    -4692    -4673    -4626    -4675    -4866 
   -5107    -5277    -5301    -5116    -4739    -4329    -4070    -4000 
   -4024    -4078    -4152    -4220    -4226    -4156    -4059    -3985 
   -3947    -3946    -3982    -4055    -4162    -4268    -4330    -4325 
   -4252    -4152    -4118    -4214    -4423    -4657    -4823    -4884 
   -4851    -4742    -4583    -4430    -4368    -4414    -4515    -4645 
   -4806    -4943    -4984    -4914    -4745    -4483    -4172    -3923 
   -3847    -3979    -4255    -4591    -4926    -5184    -5290    -5254 
   -5128    -4947    -4730    -4514    -4328    -4153    -3966    -3786 
   -3673    -3636    -3667    -3790    -3990    -4174    -4267    -4266 
   -4197    -4095    -3993    -3905    -3862    -3890    -3994    -4145 
   -4311    -4469    -4610    -4729    -4842    -4958    -5066    -5161 
   -5235    -5259    -5175    -4943    -4612    -4302    -4083    -3946 
   -3854    -3796    -3770    -3784    -3850    -3955    -4062    -4145 
   -4195    -4214    -4206    -4168    -4114    -4063    -4024    -4013 
   -4055    -4139    -4218    -4270    -4334    -4452    -4596    -4679 
   -4633    -4498    -4395    -4414    -4534    -4673    -4780    -4847 
   -4864    -4793    -4634    -4453    -4342    -4347    -4421    -4465 
   -4413    -4260    -4045    -3827    -3672    -3647    -3767    -3960 
   -4131    -4239    -4325    -4459    -4654    -4830    -4903    -4877 
   -4781    -4630    -4469    -4363    -4334    -4368    -4440    -4521 
   -4618    -4734    -4814    -4789    -4650    -4460    -4314    -4266 
   -4283    -4283    -4199    -4063    -3967    -3939    -3963    -4060 
   -4230    -4438    -4652    -4828    -4919    -4887    -4746    -4554 
   -4376    -4275    -4301    -4436    -4576    -4631    -4588    -4495 
   -4405    -4356    -4355    -4363    -4348    -4322    -4326    -4367 
   -4388    -4334    -4224    -4145    -4174    -4321    -4519    -4689 
   -4784    -4797    -4764    -4710    -4637    -4553    -4465    -4365 
   -4251    -4139    -4059    -4016    -3973    -3881    -3746    -3643 
   -3650    -3762    -3908    -4044    -4180    -4324    -4459    -4575 
   -4672    -4727    -4704    -4592    -4437    -4336    -4376    -4553 
   -4780    -4945    -4995    -4970    -4942    -4942    -4980    -5040 
   -5066    -4982    -4770    -4495    -4282    -4202    -4226    -4283 
   -4317    -4293    -4217    -4153    -4174    -4311    -4527    -4725 
   -4803    -4714    -4500    -4286    -4179    -4222    -4390    -4579 
   -4665    -4583    -4355    -4086    -3916    -3916    -4031    -4159 
   -4243    -4263    -4236    -4228    -4288    -4411    -4544    -4626 
   -4633    -4563    -4442    -4333    -4261    -4182    -4055    -3901 
   -3800    -3828    -4001    -4249    -4479    -4610    -4614    -4549 
   -4495    -4506    -4615    -4822    -5055    -5215    -5231    -5089 
   -4846    -4579    -4347    -4191    -4114    -4074    -4056    -4089 
