Origin Time       2025/01/13 21:19:00
Lat.              31.8
Long.             131.6
Depth. (km)       30
Mag.              6.9
Station Code      TKSH05
Station Lat.      33.6628
Station Long.     134.3156
Station Height(m) -103
Record Time       2025/01/13 21:20:45
Sampling Freq(Hz) 100Hz
Duration Time(s)  121
Dir.              1
Scale Factor      2942(gal)/8224139
Max. Acc. (gal)   0.441
Last Correction   2025/01/13 21:20:46
Memo.             
[...]
   81492    81481    81473    81468    81465    81444    81406    81382 
   81365    81344    81326    81306    81279    81257    81248    81237 
   81222    81210    81201    81193    81191    81198    81203    81210 
   81230    81259    81284    81303    81314    81318    81311    81295 
   81280    81274    81268    81268    81271    81268    81260    81245 
   81222    81205    81190    81178    81168    81166    81168    81178 
   81190    81207    81232    81249    81255    81260    81265    81263 
   81253    81251    81267    81283    81279    81265    81240    81202 
   81174    81160    81156    81153    81151    81149    81157    81153 
   81132    81099    81071    81058    81055    81055    81059    81067 
   81074    81076    81075    81074    81082    81095    81112    81128 
   81139    81149    81172    81210    81257    81307    81338    81341 
   81340    81352    81369    81387    81406    81430    81469    81521 
   81579    81634    81673    81692    81708    81737    81761    81784 
   81812    81834    81841    81839    81827    81796    81750    81708 
   81673    81635    81606    81594    81587    81573    81560    81542 
   81514    81484    81448    81400    81361    81334    81307    81292 
   81303    81322    81345    81383    81427    81460    81481    81499 
   81521    81544    81565    81580    81583    81564    81525    81473 
   81425    81387    81356    81337    81334    81341    81340    81321 
   81301    81282    81257    81233    81209    81183    81164    81155 
   81162    81183    81216    81241    81253    81259    81272    81298 
   81336    81387    81430    81452    81463    81465    81463    81461 
   81463    81472    81491    81511    81530    81552    81571    81576 
   81577    81598    81630    81654    81675    81699    81723    81743 
   81762    81781    81787    81777    81770    81762    81743    81726 
   81704    81672    81646    81623    81587    81540    81488    81436 
   81382    81324    81265    81222    81195    81179    81168    81149 
   81133    81132    81139    81140    81140    81144    81153    81172 
   81182    81178    81179    81183    81189    81195    81207    81237 
   81291    81348    81391    81426    81457    81483    81508    81530 
   81550    81581    81619    81657    81696    81735    81778    81822 
   81862    81888    81891    81884    81874    81861    81868    81888 
   81903    81912    81915    81911    81905    81901    81904    81907 
   81913    81926    81934    81942    81954    81965    81970    81962 
   81942    81920    81903    81884    81864    81849    81843    81838 
   81830    81816    81795    81776    81765    81749    81727    81711 
   81689    81656    81607    81544    81475    81413    81353    81301 
   81257    81216    81174    81135    81095    81049    81000    80958 
   80932    80927    80927    80920    80906    80894    80887    80889 
   80893    80900    80912    80929    80950    80968    80979    80990 
   80997    80993    80982    80968    80960    80958    80963    80985 
   81013    81029    81044    81063    81083    81105    81122    81139 
   81157    81180    81198    81209    81216    81222    81234    81252 
   81260    81251    81222    81187    81155    81133    81122    81117 
   81113    81097    81063    81024    80985    80948    80914    80893 
   80881    80871    80865    80870    80890    80916    80947    80985 
   81024    81055    81076    81086    81085    81074    81055    81031 
   81002    80967    80931    80893    80851    80806    80770    80750 
   80742    80743    80754    80770    80779    80781    80785    80785 
   80778    80777    80781    80789    80809    80842    80875    80901 
   80920    80933    80951    80968    80986    81008    81027    81033 
   81032    81032    81037    81045    81055    81072    81103    81139 
   81178    81229    81294    81357    81407    81441    81476    81519 
   81558    81592    81627    81660    81684    81708    81729    81734 
   81731    81720    81688    81649    81614    81577    81542    81513 
   81481    81457    81440    81423    81406    81383    81363    81351 
   81351    81368    81395    81417    81434    81454    81475    81498 
   81534    81579    81626    81676    81715    81742    81761    81773 
   81784    81799    81818    81839    81858    81869    81877    81884 
   81881    81865    81843    81826    81814    81810    81810    81805 
   81797    81789    81772    81743    81700    81646    81588    81537 
   81483    81419    81355    81294    81228    81162    81108    81052 
   80990    80932    80883    80844    80819    80805    80793    80784 
   80775    80763    80754    80754    80758    80769    80794    80825 
   80855    80887    80913    80920    80917    80914    80920    80944 
   80983    81025    81067    81108    81151    81201    81253    81306 
   81363    81422    81481    81542    81610    81687    81764    81832 
   81905    81974    82020    82047    82055    82046    82027    82008 
   81992    81982    81976    81954    81918    81877    81828    81774 
   81712    81641    81568    81496    81421    81349    81282    81220 
   81164    81110    81052    80990    80928    80870    80817    80770 
   80731    80705    80685    80670    80667    80666    80669    80676 
   80677    80685    80713    80751    80792    80839    80893    80954 
   81025    81099    81175    81247    81322    81407    81495    81581 
   81681    81780    81855    81913    81954    81984    82019    82055 
   82085    82105    82111    82094    82063    82017    81959    81896 
   81826    81747    81665    81585    81517    81448    81375    81310 
   81255    81201    81151    81105    81058    81014    80977    80944 
   80923    80908    80886    80858    80824    80782    80739    80703 
   80667    80631    80593    80557    80526    80508    80500    80505 
   80531    80570    80608    80647    80692    80736    80788    80846 
   80904    80958    81008    81054    81110    81176    81238    81284 
   81310    81318    81313    81301    81288    81279    81272    81270 
   81264    81252    81240    81221    81198    81180    81159    81133 
   81117    81101    81075    81045    81018    80994    80977    80958 
   80925    80883    80840    80802    80766    80731    80705    80690 
   80681    80680    80689    80707    80727    80747    80767    80792 
   80828    80875    80921    80964    81008    81045    81085    81120 
   81143    81160    81182    81209    81241    81284    81330    81360 
   81368    81361    81349    81336    81333    81337    81348    81365 
   81390    81413    81433    81446    81460    81472    81472    81471 
   81473    81463    81436    81403    81361    81324    81299    81278 
   81249    81220    81184    81157    81141    81130    81143    81179 
   81221    81261    81303    81345    81390    81438    81492    81549 
   81604    81661    81712    81751    81777    81793    81803    81812 
   81815    81803    81781    81751    81718    81684    81653    81629 
   81616    81608    81602    81602    81611    81635    81677    81723 
   81761    81784    81797    81818    81835    81838    81837    81827 
   81805    81784    81757    81719    81677    81633    81581    81534 
   81490    81450    81423    81409    81395    81379    81363    81351 
   81349    81356    81364    81380    81403    81422    81440    81453 
   81457    81457    81452    81440    81432    81433    81438    81453 
   81483    81508    81521    81521    81515    81503    81491    81487 
   81487    81496    81518    81549    81581    81614    81650    81693 
   81731    81768    81803    81831    81859    81892    81918    81924 
   81918    81905    81885    81865    81847    81835    81823    81808 
   81791    81778    81772    81760    81734    81699    81662    81630 
   81592    81556    81530    81517    81503    81488    81465    81434 
   81406    81386    81372    81360    81348    81337    81324    81299 
   81263    81214    81164    81120    81076    81036    81002    80979 
   80963    80948    80933    80916    80892    80862    80825    80784 
   80739    80698    80655    80613    80573    80532    80488    80450 
   80418    80374    80327    80289    80258    80242    80248    80258 
   80272    80293    80315    80345    80389    80443    80500    80551 
   80603    80663    80725    80779    80831    80875    80910    80943 
   80982    81021    81062    81112    81168    81228    81288    81344 
   81391    81438    81481    81522    81573    81627    81679    81733 
   81791    81846    81893    81939    81985    82027    82062    82086 
   82094    82092    82077    82053    82026    81992    81946    81895 
   81841    81789    81741    81691    81643    81596    81550    81510 
   81471    81430    81390    81348    81310    81278    81241    81211 
   81191    81178    81172    81168    81156    81147    81132    81109 
   81081    81047    81012    80983    80952    80927    80914    80906 
   80912    80941    80978    81012    81047    81083    81121    81163 
   81203    81245    81286    81319    81352    81383    81405    81413 
   81413    81415    81414    81405    81400    81398    81379    81353 
   81326    81290    81247    81211    81187    81167    81148    81120 
   81087    81072    81062    81035    81001    80970    80941    80923 
   80908    80887    80863    80847    80838    80827    80815    80808 
   80811    80815    80812    80813    80828    80848    80867    80889 
   80910    80929    80955    80990    81028    81071    81118    81160 
   81198    81244    81294    81338    81386    81441    81496    81544 
   81584    81622    81661    81707    81758    81816    81881    81943 
   82005    82066    82117    82156    82193    82224    82247    82262 
   82256    82229    82193    82158    82123    82080    82044    82023 
   82004    81993    81986    81977    81959    81939    81931    81927 
   81913    81900    81882    81857    81835    81819    81801    81784 
   81769    81751    81735    81726    81711    81696    81683    81669 
   81650    81634    81623    81611    81599    81598    81600    81589 
   81576    81568    81554    81535    81523    81522    81525    81529 
   81527    81521    81515    81511    81503    81503    81510    81511 
   81518    81523    81504    81484    81468    81438    81409    81391 
   81371    81342    81313    81278    81234    81184    81126    81055 
   80973    80890    80812    80735    80663    80604    80554    80505 
   80464    80431    80399    80366    80346    80345    80354    80364 
   80376    80399    80435    80470    80503    80545    80582    80612 
   80640    80655    80662    80678    80703    80742    80790    80833 
   80871    80904    80935    80977    81025    81072    81122    81178 
   81236    81287    81330    81369    81405    81446    81494    81534 
   81565    81588    81606    81615    81615    81602    81580    81545 
   81500    81452    81398    81338    81279    81226    81182    81147 
   81117    81087    81054    81022    80995    80975    80967    80970 
   80977    80977    80977    80983    80995    81014    81040    81072 
   81108    81140    81166    81189    81210    81226    81234    81234 
   81230    81230    81236    81243    81244    81245    81247    81255 
   81272    81298    81322    81342    81361    81380    81398    81410 
   81421    81430    81438    81445    81457    81469    81473    81469 
   81464    81463    81460    81456    81456    81457    81460    81461 
   81461    81464    81463    81453    81450    81457    81471    81483 
   81491    81491    81495    81503    81507    81506    81510    81510 
   81504    81500    81492    81472    81450    81434    81425    81418 
   81411    81406    81405    81399    81391    81384    81375    81365 
   81365    81369    81371    81372    81367    81360    81356    81348 
   81334    81325    81313    81297    81280    81265    81248    81224 
   81194    81166    81133    81101    81074    81045    81013    80982 
   80946    80906    80883    80866    80846    80828    80812    80792 
   80767    80736    80711    80696    80677    80655    80636    80616 
   80599    80592    80590    80593    80597    80596    80592    80589 
   80586    80588    80593    80604    80630    80667    80708    80755 
   80809    80869    80937    81013    81090    81168    81252    81330 
   81399    81465    81530    81596    81656    81707    81750    81783 
   81801    81814    81818    81820    81822    81826    81830    81837 
   81854    81873    81889    81911    81939    81970    81997    82020 
   82038    82047    82050    82046    82036    82030    82021    82012 
   82003    81990    81973    81962    81955    81942    81924    81907 
   81888    81870    81855    81842    81828    81807    81780    81754 
   81735    81727    81730    81741    81749    81750    81750    81750 
   81756    81766    81774    81776    81768    81750    81727    81703 
   81680    81656    81627    81596    81571    81549    81523    81495 
   81464    81423    81382    81346    81315    81291    81270    81248 
   81229    81207    81175    81144    81116    81081    81039    80993 
   80948    80906    80863    80821    80782    80740    80701    80662 
   80616    80570    80528    80493    80464    80437    80415    80395 
   80374    80356    80337    80318    80293    80269    80252    80242 
   80235    80227    80212    80195    80180    80160    80134    80111 
   80094    80080    80075    80073    80077    80091    80110    80137 
   80171    80206    80241    80283    80334    80393    80455    80516 
   80572    80617    80658    80698    80742    80781    80816    80858 
   80904    80944    80974    81001    81021    81032    81039    81048 
   81058    81075    81108    81143    81179    81221    81264    81301 
   81334    81367    81399    81430    81459    81486    81503    81510 
   81514    81519    81525    81531    81545    81562    81584    81604 
   81619    81635    81653    81666    81683    81696    81702    81706 
   81714    81718    81722    81729    81734    81741    81745    81739 
   81724    81707    81693    81688    81675    81650    81625    81599 
   81564    81525    81481    81436    81387    81345    81307    81276 
   81248    81211    81172    81139    81110    81087    81066    81044 
   81018    80990    80958    80921    80886    80854    80820    80781 
   80739    80701    80680    80676    80685    80703    80728    80762 
   80798    80828    80855    80879    80898    80919    80952    80995 
   81039    81078    81117    81162    81209    81248    81286    81333 
   81383    81427    81464    81494    81518    81534    81546    81554 
   81548    81533    81533    81541    81544    81549    81562    81575 
   81591    81612    81625    81619    81608    81592    81567    81534 
   81503    81477    81461    81452    81446    81437    81417    81395 
   81380    81372    81368    81371    81378    81383    81386    81382 
   81372    81371    81371    81368    81367    81372    81376    81380 
   81394    81415    81434    81450    81467    81484    81506    81533 
   81560    81585    81610    81633    81657    81684    81711    81739 
   81769    81797    81830    81866    81903    81945    81982    82009 
   82031    82053    82071    82085    82092    82098    82104    82108 
   82104    82092    82074    82050    82026    82009    82004    82001 
   81997    81982    81962    81954    81954    81947    81943    81950 
   81961    81976    81993    82015    82039    82058    82074    82090 
   82101    82107    82108    82102    82089    82073    82053    82019 
   81980    81946    81913    81872    81824    81778    81734    81696 
   81660    81614    81562    81508    81448    81383    81321    81261 
   81202    81148    81099    81048    80995    80940    80885    80839 
   80801    80774    80761    80743    80715    80694    80686    80676 
   80665    80665    80669    80677    80693    80711    80731    80757 
   80785    80823    80860    80896    80931    80958    80978    80994 
   81010    81020    81024    81031    81033    81031    81028    81022 
   81010    81000    80986    80973    80960    80943    80919    80898 
   80875    80848    80823    80800    80781    80759    80732    80701 
   80671    80649    80628    80609    80597    80588    80577    80565 
   80557    80543    80528    80522    80520    80524    80539    80558 
   80577    80595    80611    80626    80634    80642    80663    80693 
   80723    80748    80767    80789    80819    80854    80889    80920 
   80944    80960    80971    80983    81001    81018    81040    81063 
   81085    81097    81099    81103    81108    81113    81132    81164 
   81199    81237    81278    81309    81336    81364    81392    81426 
   81467    81510    81556    81599    81642    81683    81715    81741 
   81762    81780    81795    81811    81828    81841    81849    81849 
   81842    81830    81820    81814    81810    81804    81795    81787 
   81780    81772    81762    81746    81727    81719    81711    81695 
   81677    81665    81646    81622    81595    81568    81546    81526 
   81507    81499    81500    81502    81508    81522    81538    81552 
   81560    81568    81565    81558    81557    81557    81556    81558 
   81558    81556    81554    81549    81534    81519    81507    81492 
   81475    81456    81430    81402    81376    81349    81318    81288 
   81264    81245    81232    81214    81190    81166    81139    81105 
   81068    81035    81004    80970    80941    80917    80886    80859 
   80840    80824    80811    80792    80763    80738    80715    80690 
   80673    80666    80659    80658    80661    80661    80662    80670 
   80680    80693    80708    80719    80725    80727    80723    80721 
   80728    80735    80747    80769    80797    80833    80874    80916 
   80960    81002    81044    81086    81130    81175    81214    81245 
   81276    81303    81332    81364    81396    81429    81453    81459 
   81452    81445    81441    81440    81442    81448    81456    81463 
   81465    81465    81467    81464    81464    81475    81490    81506 
   81523    81540    81545    81537    81518    81491    81465    81445 
   81429    81411    81386    81356    81326    81297    81270    81245 
   81224    81205    81187    81170    81152    81149    81166    81195 
   81237    81287    81340    81395    81442    81486    81540    81602 
   81670    81742    81805    81858    81905    81943    81974    82001 
   82032    82061    82081    82094    82105    82115    82116    82113 
   82112    82108    82105    82105    82096    82077    82062    82053 
   82044    82042    82039    82026    82011    81992    81959    81918 
   81878    81837    81797    81758    81712    81662    81606    81541 
   81476    81407    81342    81288    81244    81202    81153    81099 
   81054    81010    80970    80941    80916    80878    80836    80793 
   80755    80723    80693    80666    80639    80608    80577    80551 
   80530    80509    80496    80489    80489    80495    80511    80534 
   80557    80582    80615    80658    80711    80769    80836    80905 
   80974    81047    81114    81176    81240    81306    81372    81438 
   81499    81553    81604    81660    81715    81765    81814    81861 
