Origin Time       2025/01/13 21:19:00
Lat.              31.8
Long.             131.6
Depth. (km)       30
Mag.              6.9
Station Code      TKSH05
Station Lat.      33.6628
Station Long.     134.3156
Station Height(m) -103
Record Time       2025/01/13 21:20:45
Sampling Freq(Hz) 100Hz
Duration Time(s)  121
Dir.              2
Scale Factor      2942(gal)/8224139
Max. Acc. (gal)   0.431
Last Correction   2025/01/13 21:20:46
Memo.             
[...]
  -58864   -58838   -58801   -58756   -58711   -58677   -58668   -58689 
  -58733   -58785   -58835   -58873   -58897   -58901   -58893   -58878 
  -58851   -58827   -58807   -58783   -58760   -58758   -58776   -58801 
  -58824   -58830   -58806   -58772   -58742   -58711   -58696   -58706 
  -58733   -58766   -58784   -58779   -58779   -58811   -58872   -58947 
  -59023   -59080   -59103   -59086   -59053   -59027   -59020   -59038 
  -59073   -59103   -59130   -59167   -59215   -59270   -59329   -59386 
  -59421   -59435   -59435   -59425   -59406   -59394   -59397   -59398 
  -59402   -59413   -59410   -59387   -59358   -59323   -59271   -59206 
  -59139   -59063   -58980   -58904   -58843   -58789   -58734   -58689 
  -58673   -58677   -58683   -58687   -58687   -58681   -58672   -58660 
  -58644   -58622   -58610   -58607   -58604   -58608   -58621   -58630 
  -58633   -58638   -58638   -58633   -58631   -58633   -58645   -58680 
  -58743   -58814   -58876   -58926   -58970   -59022   -59081   -59140 
  -59192   -59231   -59267   -59300   -59324   -59348   -59375   -59402 
  -59410   -59390   -59360   -59335   -59320   -59321   -59332   -59339 
  -59332   -59314   -59304   -59304   -59327   -59366   -59408   -59451 
  -59493   -59524   -59533   -59513   -59468   -59431   -59406   -59387 
  -59371   -59348   -59312   -59274   -59233   -59186   -59135   -59084 
  -59034   -58999   -58977   -58957   -58942   -58941   -58941   -58931 
  -58915   -58892   -58878   -58885   -58911   -58951   -58995   -59031 
  -59062   -59077   -59076   -59067   -59058   -59057   -59077   -59104 
  -59124   -59136   -59134   -59107   -59078   -59076   -59084   -59092 
  -59113   -59146   -59184   -59233   -59286   -59329   -59364   -59390 
  -59402   -59402   -59401   -59409   -59425   -59448   -59482   -59516 
  -59537   -59541   -59535   -59528   -59524   -59525   -59522   -59503 
  -59470   -59428   -59378   -59339   -59305   -59274   -59250   -59223 
  -59190   -59165   -59148   -59140   -59130   -59111   -59077   -59035 
  -58995   -58959   -58923   -58889   -58853   -58820   -58807   -58796 
  -58772   -58735   -58695   -58668   -58656   -58654   -58650   -58629 
  -58608   -58607   -58606   -58603   -58617   -58646   -58685   -58733 
  -58783   -58818   -58837   -58851   -58869   -58878   -58882   -58893 
  -58900   -58904   -58903   -58897   -58901   -58919   -58931   -58932 
  -58928   -58911   -58891   -58885   -58891   -58887   -58877   -58874 
  -58864   -58847   -58837   -58824   -58808   -58803   -58799   -58785 
  -58768   -58741   -58696   -58654   -58627   -58607   -58590   -58583 
  -58581   -58583   -58595   -58611   -58622   -58625   -58618   -58608 
  -58603   -58596   -58590   -58595   -58606   -58608   -58604   -58599 
  -58607   -58635   -58654   -58665   -58691   -58722   -58743   -58761 
  -58781   -58808   -58842   -58882   -58928   -58974   -59026   -59088 
  -59147   -59193   -59225   -59254   -59287   -59310   -59306   -59286 
  -59263   -59242   -59232   -59236   -59235   -59220   -59201   -59182 
  -59154   -59121   -59092   -59063   -59036   -59008   -58981   -58945 
  -58899   -58851   -58816   -58795   -58772   -58743   -58715   -58683 
  -58650   -58635   -58633   -58622   -58599   -58571   -58542   -58522 
  -58518   -58531   -58556   -58594   -58639   -58675   -58714   -58774 
  -58835   -58899   -58973   -59046   -59117   -59194   -59269   -59331 
  -59381   -59421   -59460   -59490   -59509   -59536   -59570   -59598 
  -59625   -59648   -59668   -59687   -59706   -59733   -59757   -59769 
  -59775   -59768   -59759   -59763   -59764   -59761   -59761   -59757 
  -59752   -59753   -59749   -59732   -59702   -59664   -59616   -59549 
  -59467   -59383   -59294   -59205   -59127   -59054   -58981   -58911 
  -58843   -58785   -58741   -58699   -58657   -58611   -58558   -58486 
  -58401   -58337   -58291   -58243   -58199   -58163   -58135   -58125 
  -58124   -58121   -58120   -58120   -58124   -58128   -58135   -58158 
  -58189   -58221   -58253   -58288   -58328   -58372   -58428   -58490 
  -58546   -58600   -58664   -58741   -58822   -58895   -58961   -59013 
  -59055   -59094   -59130   -59157   -59174   -59175   -59165   -59154 
  -59157   -59167   -59179   -59185   -59190   -59200   -59216   -59236 
  -59262   -59287   -59310   -59335   -59359   -59374   -59375   -59373 
  -59378   -59394   -59413   -59416   -59402   -59383   -59359   -59333 
  -59314   -59298   -59279   -59263   -59252   -59242   -59223   -59202 
  -59181   -59162   -59150   -59134   -59116   -59108   -59104   -59105 
  -59111   -59112   -59109   -59107   -59104   -59107   -59109   -59111 
  -59115   -59117   -59107   -59086   -59067   -59055   -59047   -59032 
  -59019   -59007   -58988   -58958   -58930   -58909   -58895   -58884 
  -58872   -58849   -58815   -58781   -58754   -58733   -58718   -58711 
  -58710   -58710   -58703   -58685   -58658   -58626   -58603   -58595 
  -58594   -58585   -58569   -58548   -58523   -58502   -58479   -58457 
  -58440   -58425   -58414   -58396   -58368   -58338   -58311   -58283 
  -58268   -58270   -58278   -58291   -58310   -58329   -58342   -58361 
  -58394   -58442   -58494   -58533   -58556   -58569   -58581   -58598 
  -58622   -58654   -58685   -58716   -58754   -58792   -58827   -58868 
  -58907   -58941   -58965   -58980   -58990   -58996   -59008   -59019 
  -59027   -59046   -59076   -59104   -59128   -59150   -59167   -59179 
  -59193   -59205   -59212   -59215   -59224   -59238   -59254   -59275 
  -59297   -59323   -59358   -59401   -59443   -59479   -59513   -59535 
  -59533   -59521   -59512   -59498   -59472   -59447   -59429   -59409 
  -59387   -59377   -59370   -59358   -59333   -59302   -59282   -59274 
  -59260   -59246   -59232   -59201   -59158   -59125   -59112   -59112 
  -59124   -59146   -59171   -59197   -59216   -59217   -59201   -59184 
  -59167   -59142   -59103   -59061   -59030   -59013   -59005   -59003 
  -59009   -59015   -59020   -59027   -59039   -59059   -59088   -59125 
  -59166   -59206   -59250   -59294   -59333   -59373   -59409   -59441 
  -59474   -59509   -59540   -59564   -59576   -59570   -59552   -59537 
  -59525   -59509   -59487   -59467   -59449   -59425   -59404   -59375 
  -59325   -59255   -59182   -59125   -59080   -59032   -58984   -58946 
  -58927   -58911   -58888   -58860   -58824   -58799   -58789   -58770 
  -58738   -58725   -58716   -58693   -58677   -58671   -58669   -58673 
  -58680   -58688   -58696   -58702   -58711   -58727   -58743   -58756 
  -58770   -58795   -58823   -58862   -58914   -58968   -59017   -59067 
  -59116   -59165   -59206   -59232   -59250   -59263   -59278   -59289 
  -59293   -59302   -59304   -59289   -59275   -59251   -59205   -59155 
  -59096   -59027   -58963   -58895   -58820   -58750   -58677   -58600 
  -58523   -58455   -58392   -58336   -58291   -58253   -58207   -58140 
  -58064   -57998   -57948   -57910   -57883   -57875   -57885   -57898 
  -57913   -57932   -57955   -57982   -58016   -58055   -58093   -58124 
  -58162   -58206   -58256   -58315   -58379   -58455   -58538   -58627 
  -58731   -58846   -58953   -59042   -59116   -59181   -59229   -59262 
  -59281   -59297   -59317   -59336   -59355   -59386   -59418   -59439 
  -59456   -59472   -59481   -59489   -59494   -59494   -59503   -59520 
  -59528   -59529   -59533   -59530   -59517   -59505   -59499   -59494 
  -59495   -59510   -59528   -59532   -59522   -59508   -59490   -59478 
  -59476   -59485   -59493   -59498   -59503   -59514   -59532   -59555 
  -59586   -59613   -59632   -59661   -59699   -59732   -59755   -59760 
  -59756   -59751   -59746   -59733   -59707   -59674   -59644   -59618 
  -59606   -59605   -59599   -59583   -59557   -59518   -59475   -59441 
  -59416   -59382   -59337   -59289   -59240   -59197   -59163   -59128 
  -59092   -59061   -59035   -59001   -58949   -58888   -58820   -58737 
  -58652   -58572   -58506   -58460   -58418   -58378   -58342   -58314 
  -58297   -58283   -58270   -58261   -58252   -58234   -58220   -58214 
  -58210   -58202   -58185   -58166   -58148   -58132   -58122   -58118 
  -58124   -58132   -58140   -58155   -58172   -58193   -58214   -58241 
  -58280   -58328   -58376   -58425   -58475   -58525   -58576   -58626 
  -58669   -58703   -58727   -58756   -58789   -58818   -58838   -58851 
  -58857   -58854   -58846   -58831   -58811   -58791   -58772   -58750 
  -58727   -58710   -58703   -58700   -58699   -58707   -58726   -58747 
  -58764   -58780   -58800   -58833   -58870   -58903   -58932   -58968 
  -59001   -59030   -59066   -59113   -59163   -59220   -59274   -59317 
  -59358   -59393   -59431   -59481   -59536   -59595   -59660   -59722 
  -59773   -59826   -59887   -59938   -59979   -60021   -60053   -60070 
  -60081   -60084   -60084   -60076   -60056   -60037   -60021   -59995 
  -59958   -59913   -59867   -59823   -59775   -59714   -59649   -59587 
  -59530   -59476   -59427   -59385   -59339   -59292   -59244   -59198 
  -59148   -59094   -59044   -58993   -58931   -58868   -58810   -58756 
  -58703   -58652   -58600   -58548   -58506   -58479   -58449   -58415 
  -58391   -58361   -58330   -58301   -58259   -58207   -58166   -58131 
  -58101   -58079   -58068   -58070   -58077   -58078   -58079   -58079 
  -58075   -58077   -58087   -58098   -58104   -58102   -58091   -58079 
  -58082   -58095   -58113   -58132   -58156   -58191   -58236   -58288 
  -58341   -58382   -58419   -58463   -58506   -58553   -58604   -58650 
  -58695   -58739   -58781   -58819   -58846   -58872   -58908   -58942 
  -58965   -58981   -58986   -58989   -58993   -58997   -58999   -59000 
  -59011   -59023   -59023   -59022   -59027   -59026   -59016   -59004 
  -58990   -58978   -58961   -58946   -58936   -58927   -58927   -58938 
  -58947   -58954   -58958   -58958   -58961   -58969   -58972   -58966 
  -58963   -58968   -58981   -59007   -59043   -59096   -59161   -59223 
  -59273   -59316   -59352   -59377   -59400   -59424   -59433   -59429 
  -59422   -59416   -59404   -59397   -59404   -59408   -59395   -59379 
  -59364   -59343   -59313   -59285   -59252   -59206   -59148   -59081 
  -59013   -58955   -58914   -58884   -58853   -58822   -58799   -58784 
  -58769   -58753   -58731   -58707   -58691   -58677   -58656   -58642 
  -58637   -58637   -58645   -58668   -58707   -58758   -58824   -58899 
  -58970   -59042   -59116   -59185   -59252   -59321   -59386   -59452 
  -59510   -59553   -59593   -59637   -59674   -59699   -59729   -59757 
  -59778   -59805   -59829   -59830   -59822   -59806   -59778   -59751 
  -59729   -59688   -59632   -59575   -59517   -59449   -59385   -59335 
  -59285   -59233   -59186   -59131   -59063   -58996   -58926   -58855 
  -58789   -58722   -58653   -58590   -58540   -58494   -58449   -58414 
  -58386   -58359   -58325   -58290   -58267   -58255   -58247   -58247 
  -58244   -58232   -58226   -58234   -58245   -58251   -58261   -58279 
  -58291   -58306   -58326   -58345   -58374   -58398   -58413   -58436 
  -58461   -58487   -58518   -58546   -58569   -58602   -58644   -58688 
  -58729   -58753   -58762   -58779   -58795   -58807   -58820   -58834 
  -58838   -58826   -58804   -58785   -58769   -58753   -58745   -58739 
  -58725   -58708   -58693   -58680   -58671   -58657   -58641   -58631 
  -58619   -58603   -58600   -58614   -58638   -58669   -58702   -58731 
  -58762   -58793   -58822   -58846   -58870   -58889   -58909   -58938 
  -58968   -58999   -59039   -59088   -59138   -59188   -59238   -59290 
  -59340   -59385   -59437   -59494   -59539   -59579   -59620   -59653 
  -59679   -59707   -59733   -59749   -59764   -59772   -59771   -59760 
  -59738   -59709   -59678   -59640   -59595   -59553   -59510   -59452 
  -59395   -59350   -59297   -59240   -59186   -59128   -59063   -59005 
  -58954   -58904   -58862   -58828   -58797   -58773   -58746   -58708 
  -58677   -58658   -58638   -58615   -58590   -58557   -58522   -58498 
  -58477   -58450   -58415   -58386   -58364   -58337   -58309   -58294 
  -58284   -58276   -58267   -58247   -58226   -58214   -58199   -58187 
  -58182   -58187   -58205   -58228   -58257   -58301   -58338   -58368 
  -58405   -58440   -58471   -58498   -58509   -58519   -58537   -58556 
  -58581   -58602   -58630   -58685   -58753   -58818   -58887   -58955 
  -59011   -59047   -59065   -59076   -59093   -59124   -59167   -59219 
  -59266   -59304   -59339   -59371   -59387   -59404   -59431   -59459 
  -59475   -59478   -59472   -59459   -59440   -59421   -59400   -59371 
  -59343   -59325   -59312   -59308   -59313   -59314   -59317   -59319 
  -59310   -59290   -59266   -59239   -59217   -59200   -59189   -59184 
  -59171   -59148   -59116   -59076   -59030   -58995   -58965   -58924 
  -58876   -58814   -58742   -58676   -58614   -58556   -58510   -58467 
  -58432   -58410   -58398   -58383   -58367   -58352   -58333   -58313 
  -58305   -58309   -58321   -58340   -58365   -58386   -58405   -58436 
  -58475   -58521   -58567   -58608   -58652   -58689   -58716   -58750 
  -58792   -58833   -58870   -58904   -58934   -58962   -58986   -59000 
  -59015   -59031   -59043   -59051   -59053   -59044   -59036   -59035 
  -59030   -59030   -59053   -59073   -59085   -59101   -59113   -59113 
  -59112   -59109   -59111   -59127   -59152   -59175   -59196   -59213 
  -59231   -59259   -59292   -59324   -59355   -59385   -59421   -59460 
  -59498   -59540   -59586   -59636   -59692   -59753   -59819   -59888 
  -59953   -60021   -60080   -60122   -60151   -60172   -60191   -60207 
  -60208   -60192   -60170   -60145   -60104   -60058   -60012   -59964 
  -59913   -59856   -59786   -59698   -59603   -59510   -59412   -59320 
  -59233   -59136   -59047   -58968   -58881   -58795   -58714   -58630 
  -58557   -58487   -58413   -58344   -58274   -58198   -58135   -58089 
  -58050   -58023   -58005   -57986   -57979   -57983   -57982   -57986 
  -57994   -58001   -58027   -58066   -58098   -58131   -58163   -58203 
  -58255   -58306   -58364   -58437   -58510   -58577   -58646   -58716 
  -58781   -58847   -58919   -58988   -59054   -59121   -59186   -59251 
  -59314   -59368   -59422   -59478   -59521   -59559   -59589   -59605 
  -59620   -59624   -59606   -59580   -59562   -59548   -59530   -59508 
  -59478   -59441   -59406   -59379   -59358   -59341   -59327   -59309 
  -59293   -59277   -59263   -59254   -59244   -59233   -59224   -59211 
  -59205   -59206   -59194   -59185   -59189   -59185   -59175   -59175 
  -59182   -59188   -59184   -59175   -59165   -59155   -59154   -59163 
  -59177   -59192   -59198   -59196   -59201   -59212   -59213   -59217 
  -59224   -59213   -59206   -59206   -59200   -59193   -59192   -59197 
  -59205   -59205   -59198   -59185   -59152   -59108   -59070   -59044 
  -59026   -59011   -58999   -58986   -58976   -58968   -58958   -58949 
  -58938   -58930   -58935   -58946   -58959   -58974   -58981   -58993 
  -59005   -59008   -59008   -59009   -59012   -59008   -59005   -59012 
  -59019   -59023   -59022   -59012   -59003   -59005   -59017   -59030 
  -59039   -59042   -59034   -59017   -59008   -58997   -58980   -58965 
  -58947   -58919   -58900   -58895   -58893   -58889   -58874   -58850 
  -58827   -58806   -58783   -58754   -58720   -58685   -58656   -58630 
  -58603   -58577   -58554   -58540   -58530   -58523   -58523   -58527 
  -58529   -58525   -58515   -58504   -58496   -58495   -58495   -58502 
  -58514   -58527   -58540   -58553   -58573   -58602   -58633   -58665 
  -58698   -58719   -58738   -58764   -58793   -58818   -58835   -58849 
  -58862   -58881   -58901   -58922   -58946   -58972   -58990   -59011 
  -59032   -59049   -59058   -59067   -59085   -59100   -59103   -59105 
  -59115   -59117   -59123   -59127   -59125   -59123   -59112   -59104 
  -59103   -59101   -59101   -59108   -59113   -59115   -59112   -59112 
  -59115   -59123   -59132   -59140   -59150   -59165   -59179   -59193 
  -59211   -59231   -59252   -59275   -59289   -59297   -59305   -59300 
  -59286   -59278   -59273   -59262   -59254   -59246   -59225   -59209 
  -59206   -59211   -59209   -59208   -59213   -59228   -59242   -59247 
  -59247   -59243   -59240   -59247   -59263   -59279   -59289   -59286 
  -59274   -59265   -59266   -59269   -59273   -59283   -59287   -59283 
  -59293   -59309   -59319   -59329   -59346   -59351   -59351   -59356 
  -59366   -59375   -59387   -59402   -59420   -59439   -59447   -59451 
  -59456   -59456   -59458   -59470   -59476   -59485   -59490   -59489 
  -59486   -59483   -59476   -59468   -59454   -59440   -59429   -59418 
  -59401   -59377   -59347   -59317   -59289   -59256   -59225   -59201 
  -59169   -59139   -59125   -59121   -59117   -59113   -59105   -59092 
  -59081   -59074   -59077   -59082   -59085   -59080   -59066   -59051 
  -59040   -59034   -59027   -59024   -59027   -59032   -59040   -59049 
  -59053   -59047   -59035   -59024   -59016   -59012   -59005   -58996 
  -58981   -58965   -58950   -58932   -58912   -58882   -58850   -58819 
  -58791   -58768   -58742   -58710   -58673   -58641   -58614   -58587 
  -58560   -58537   -58527   -58536   -58550   -58563   -58581   -58606 
  -58627   -58653   -58683   -58703   -58712   -58726   -58743   -58765 
  -58797   -58841   -58882   -58920   -58966   -59012   -59044   -59073 
  -59100   -59123   -59136   -59143   -59154   -59166   -59177   -59192 
  -59204   -59208   -59215   -59225   -59235   -59242   -59238   -59223 
  -59204   -59178   -59151   -59130   -59107   -59084   -59061   -59043 
  -59032   -59022   -59008   -59005   -59009   -59007   -59009   -59017 
  -59017   -59015   -59013   -59016   -59028   -59044   -59057   -59067 
  -59070   -59063   -59058   -59061   -59067   -59077   -59090   -59105 
  -59117   -59127   -59135   -59138   -59139   -59140   -59143   -59140 
  -59125   -59105   -59090   -59073   -59055   -59040   -59022   -59001 
  -58980   -58958   -58947   -58943   -58941   -58947   -58961   -58961 
  -58951   -58945   -58934   -58922   -58916   -58916   -58916   -58905 
  -58893   -58888   -58887   -58895   -58904   -58909   -58918   -58924 
  -58927   -58928   -58928   -58928   -58934   -58947   -58957   -58955 
  -58953   -58954   -58965   -58980   -58992   -59003   -59013   -59022 
  -59032   -59051   -59067   -59074   -59078   -59086   -59098   -59111 
  -59124   -59138   -59146   -59158   -59167   -59167   -59165   -59157 
  -59144   -59139   -59136   -59134   -59132   -59124   -59107   -59088 
  -59071   -59055   -59043   -59043   -59042   -59034   -59027   -59019 
  -59008   -59001   -59003   -59007   -59004   -58999   -58997   -58995 
  -59000   -59007   -59004   -59001   -59001   -59003   -59003   -58992 
  -58977   -58968   -58958   -58946   -58946   -58955   -58958   -58958 
  -58963   -58973   -58981   -58989   -58996   -59003   -59007   -59007 
  -59005   -59007   -59012   -59013   -59007   -59005   -59009   -59013 
  -59022   -59031   -59036   -59038   -59039   -59047   -59057   -59059 
  -59054   -59053   -59057   -59054   -59055   -59066   -59071   -59071 
  -59070   -59067   -59066   -59063   -59062   -59059   -59059   -59065 
  -59069   -59078   -59093   -59107   -59125   -59155   -59178   -59188 
  -59193   -59196   -59205   -59217   -59221   -59219   -59215   -59202 
  -59189   -59179   -59169   -59158   -59155   -59151   -59142   -59134 
