Origin Time       2025/01/13 21:19:00
Lat.              31.8
Long.             131.6
Depth. (km)       30
Mag.              6.9
Station Code      TKSH05
Station Lat.      33.6628
Station Long.     134.3156
Station Height(m) 40
Record Time       2025/01/13 21:20:45
Sampling Freq(Hz) 100Hz
Duration Time(s)  121
Dir.              4
Scale Factor      7845(gal)/8223790
Max. Acc. (gal)   1.790
Last Correction   2025/01/13 21:20:46
Memo.             
[...]
     869      880      884      895      930      962      976      990 
    1017     1038     1039     1026      993      946      896      869 
     884      928      961      954      912      864      834      839 
     845      815      774      768      801      849      886      908 
     928      962     1007     1043     1061     1035      966      893 
     853      846      853      870      888      880      849      820 
     819      851      899      922      904      874      862      885 
     947     1020     1065     1066     1038     1009      982      957 
     938      936      949      938      888      837      819      832 
     872      934      982      992     1004     1066     1159     1219 
    1205     1128     1039      994     1015     1061     1073     1017 
     923      842      791      773      785      792      776      764 
     772      791      826      876      928      972     1005     1021 
    1024     1034     1047     1030      965      882      839      843 
     866      899      931      939      940      962      992     1009 
    1020     1030     1040     1059     1096     1132     1143     1127 
    1090     1053     1040     1048     1044     1016      976      926 
     868      820      801      797      783      754      722      691 
     677      684      695      722      774      831      869      891 
     909      949     1007     1061     1089     1092     1089     1100 
    1112     1102     1070     1017      951      891      850      826 
     807      803      818      832      826      796      756      720 
     716      762      853      955     1021     1036     1028     1026 
    1031     1040     1048     1050     1062     1101     1128     1097 
    1023      962      940      945      953      958      957      935 
     889      841      801      766      733      687      633      603 
     621      653      679      714      765      815      853      885 
     922      976     1043     1093     1105     1096     1084     1063 
    1040     1024     1013     1009     1005      977      942      939 
     976     1012     1008      976      953      945      934      903 
     865      857      901      976     1038     1048     1024     1021 
    1063     1119     1146     1134     1115     1112     1129     1162 
    1174     1125     1047     1003      976      920      855      824 
     828      843      853      837      801      785      801      828 
     841      841      841      847      861      886      913      927 
     936      939      913      874      839      826      854      909 
     962     1003     1021     1012      997      997     1004     1021 
    1044     1050     1027      976      900      828      789      793 
     846      920      963      981     1001     1026     1038     1023 
     985      954      939      934      932      927      892      827 
     777      761      757      760      769      789      828      882 
     938      977      997     1005     1008     1011     1032     1061 
    1085     1115     1147     1166     1174     1188     1192     1170 
    1142     1129     1107     1051      981      911      834      751 
     681      625      575      548      549      556      568      602 
     666      778      920     1027     1092     1159     1237     1294 
    1308     1296     1291     1312     1324     1290     1193     1044 
     903      820      799      811      843      881      907      909 
     888      872      880      897      908      912      915      915 
     915      915      920      932      942      953      974      990 
     996      994      989      974      965      974      989     1000 
    1021     1066     1102     1108     1094     1078     1067     1069 
    1086     1101     1090     1054     1017     1015     1048     1081 
    1082     1065     1043     1020     1001      996      989      977 
     980     1005     1028     1043     1051     1046     1026     1004 
    1001     1020     1053     1080     1086     1109     1178     1258 
    1289     1259     1188     1101     1027      976      934      876 
     810      753      716      704      706      699      675      658 
     687      766      861      926      953      958      969      988 
     999      994      981      982      999      988      943      924 
     959     1013     1040     1027     1007     1019     1053     1074 
    1069     1054     1039     1016      967      907      868      870 
     900      916      900      873      874      904      947     1007 
    1071     1121     1152     1173     1185     1193     1178     1109 
    1009      934      891      846      787      714      631      564 
     545      565      607      664      702      680      633      622 
     658      700      724      720      712      746      834      930 
     992     1011     1007     1005     1021     1048     1074     1111 
    1161     1196     1196     1178     1163     1148     1134     1125 
    1107     1059      986      901      834      816      857      899 
     891      846      788      719      654      603      575      581 
     626      668      681      684      712      781      862      912 
     918      884      831      791      776      770      768      792 
     851      905      935      943      927      909      922      966 
    1021     1075     1119     1144     1161     1179     1183     1163 
    1134     1105     1067     1012      958      922      901      888 
     864      811      741      681      641      627      652      697 
     754      826      903      984     1077     1162     1194     1162 
    1109     1053      974      888      828      811      801      773 
     751      756      778      810      841      866      885      904 
     931      961      981      984      976      966      972     1030 
    1150     1262     1287     1219     1116     1028      974      940 
     904      859      839      868      913      930      900      835 
     751      679      660      707      787      859      897      897 
     892      905      940      982     1007     1007      988      954 
     912      874      859      886      951     1005     1011      972 
     903      835      820      889     1016     1139     1219     1263 
    1301     1348     1377     1345     1266     1182     1129     1104 
    1084     1047     1008      996     1003      993      966      958 
     994     1044     1043      986      928      900      878      830 
     747      656      592      577      622      729      859      936 
     923      864      842      907     1032     1136     1138     1058 
     990      976      973      928      839      746      688      672 
     673      665      637      587      546      577      700      869 
    1030     1138     1155     1100     1065     1113     1204     1286 
    1350     1358     1273     1131     1005      935      916      909 
     869      810      791      842      947     1057     1096     1020 
     872      741      695      749      869      984     1031     1021 
     994      959      905      823      727      645      572      491 
     444      490      619      784      942     1058     1131     1192 
    1259     1323     1352     1321     1250     1166     1093     1054 
    1038      970      832      693      625      638      712      797 
     851      886      926      953      947      926      885      807 
     723      704      765      853      916      927      873      789 
     764      834      946     1032     1069     1059     1059     1128 
    1240     1286     1216     1084      972      935      982     1065 
    1132     1189     1233     1229     1152     1054      989      946 
     904      886      911      954      984      974      935      911 
     916      934      966     1013     1031      981      876      773 
     711      687      685      707      754      822      904      992 
    1063     1094     1080     1031      976      936      924      931 
     930      886      827      791      760      714      673      648 
     639      675      749      796      777      719      683      710 
     818      974     1107     1181     1215     1210     1178     1150 
    1147     1167     1170     1109      965      747      522      357 
     272      257      313      440      623      834     1016     1123 
    1152     1155     1166     1185     1216     1278     1356     1390 
    1333     1204     1070      994     1009     1107     1239     1340 
    1370     1335     1252     1135     1013      915      838      757 
     665      589      572      611      679      734      754      756 
     791      884      985     1057     1101     1113     1065      957 
     826      715      684      772      932     1071     1144     1156 
    1112     1051     1043     1104     1178     1224     1219     1165 
    1105     1066     1028      985      947      892      801      696 
     619      631      773     1005     1215     1290     1196      985 
     762      629      642      781      957     1085     1143     1138 
    1090     1042     1009      955      857      769      774      889 
    1034     1090      997      805      616      475      386      338 
     306      292      305      291      228      178      218      353 
     552      778     1005     1232     1471     1687     1834     1873 
    1779     1564     1297     1036      816      653      569      581 
     666      768      839      846      741      554      396      371 
     504      729      928     1048     1116     1173     1233     1263 
    1239     1192     1186     1264     1398     1489     1431     1181 
     855      646      616      691      776      804      765      692 
     626      608      654      742      807      804      787      846 
     992     1181     1381     1566     1676     1687     1679     1732 
    1787     1742     1572     1298      967      677      529      544 
     669      814      904      924      892      816      699      534 
     364      288      382      591      804      959     1054     1111 
    1177     1270     1348     1348     1256     1105      953      869 
     880      927      927      846      693      500      341      280 
     317      419      565      723      859      967     1070     1186 
    1327     1486     1624     1678     1611     1443     1223     1008 
     851      805      888     1023     1090     1054      974      908 
     869      866      889      923      957      980      970      922 
     858      799      704      557      419      382      472      649 
     823      913      923      939     1007     1094     1181     1289 
    1394     1428     1354     1208     1053      922      810      714 
     673      702      723      642      441      217       98      144 
     299      459      576      706      911     1156     1337     1386 
    1316     1202     1143     1155     1165     1111     1030     1026 
    1139     1308     1451     1514     1476     1348     1177     1047 
    1059     1216     1398     1463     1335     1046      719      483 
     365      321      322      380      492      625      718      685 
     519      334      260      340      530      784     1089     1426 
    1733     1931     2019     2081     2153     2149     1988     1687 
    1325     1005      810      762      814      834      706      460 
     244      178      282      481      665      772      811      841 
     904      986     1034     1011      967      977     1057     1134 
    1115      972      796      699      722      837      961     1032 
    1069     1134     1250     1358     1386     1359     1329     1309 
    1252     1107      886      673      558      594      731      847 
     845      737      612      538      525      561      642      764 
     940     1183     1416     1503     1408     1225     1067      996 
    1057     1216     1339     1324     1181      973      785      670 
     584      469      394      483      720      957     1038      911 
     670      486      465      599      804     1001     1093     1028 
     909      916     1116     1424     1669     1737     1634     1437 
    1206      967      746      579      530      657      911     1147 
    1243     1182     1023      845      711      643      654      731 
     810      822      761      665      569      503      502      583 
     730      915     1104     1244     1270     1166      990      814 
     683      648      719      830      881      810      634      484 
     463      549      661      730      739      742      823     1013 
    1254     1445     1551     1594     1617     1640     1628     1520 
    1305     1057      872      827      897      949      862      649 
     438      395      565      795      853      670      400      256 
     332      576      847     1047     1174     1263     1320     1348 
    1359     1362     1371     1389     1395     1371     1290     1135 
     901      623      406      353      440      510      450      278 
     103       47      172      432      727      989     1175     1279 
    1347     1425     1497     1517     1493     1475     1490     1497 
    1455     1360     1256     1210     1237     1247     1098      777 
     430      213      156      209      311      398      418      392 
     379      395      407      376      328      349      498      772 
    1165     1672     2227     2658     2813     2687     2396     2085 
    1806     1506     1138      734      414      303      411      598 
     677      595      425      244       86      -32      -74        6 
     199      440      665      827      942     1077     1270     1471 
    1609     1668     1703     1746     1755     1661     1471     1248 
    1061      959      957      999      996      897      710      508 
     438      580      842     1028     1012      831      645      579 
     643      797      989     1167     1312     1462     1644     1804 
    1849     1728     1474     1178      920      711      519      315 
      98      -43       27      314      657      922     1086     1189 
    1277     1390     1489     1464     1281     1020      804      700 
     691      727      769      805      851      924     1023     1100 
    1086      972      814      695      633      579      469      302 
     136       48       95      278      541      824     1104     1364 
    1571     1690     1703     1636     1548     1490     1447     1364 
    1221     1046      868      716      619      604      672      774 
     847      877      874      851      834      837      842      842 
     837      834      866      969     1105     1186     1147     1000 
     826      715      696      741      788      796      791      803 
     818      831      882      999     1166     1316     1386     1368 
    1301     1215     1135     1082     1061     1044     1017      992 
     970      954      969     1008     1000      912      805      742 
     718      695      665      639      629      657      735      828 
     882      870      803      712      642      637      710      831 
     961     1089     1210     1279     1260     1173     1073     1035 
    1086     1173     1235     1247     1189     1077      961      866 
     772      645      480      325      244      261      367      514 
     633      683      702      762      899     1084     1263     1379 
    1420     1439     1474     1497     1447     1300     1111      954 
     865      827      807      787      753      687      606      542 
     504      510      575      691      818      899      889      810 
     720      683      711      764      787      768      735      723 
     746      788      815      814      796      799      853      955 
    1071     1166     1216     1210     1167     1136     1165     1236 
    1271     1215     1081      945      900     1004     1223     1456 
    1610     1657     1617     1510     1382     1267     1170     1081 
     982      869      758      665      571      468      371      292 
     237      214      226      274      372      521      677      783 
     797      730      658      673      801     1001     1204     1363 
    1495     1632     1744     1777     1694     1493     1231     1007 
     899      905      958      980      940      841      700      558 
     454      382      322      306      361      490      657      815 
     938     1036     1134     1239     1324     1336     1262     1177 
    1161     1229     1332     1399     1370     1231     1035      849 
     676      486      291      156      135      243      444      658 
     789      808      768      724      702      723      801      915 
    1034     1138     1190     1174     1112     1058     1027      985 
     900      792      696      661      726      874     1019     1098 
    1117     1112     1123     1166     1227     1293     1333     1314 
    1232     1120     1011      919      831      754      733      780 
     858      923      954      950      935      943      989     1057 
    1123     1162     1154     1102     1032      974      943      934 
     923      888      831      784      757      734      714      727 
     797      916     1058     1209     1347     1437     1476     1470 
    1387     1215     1008      855      808      853      936     1007 
    1031     1011      967      897      816      788      851      974 
    1098     1178     1182     1113     1020      938      872      815 
     760      712      720      804      901      920      842      703 
     567      513      581      734      903     1032     1104     1135 
    1132     1077      986      922      909      928      953      961 
     947      954     1001     1054     1058     1001      896      774 
     697      720      823      940     1030     1055     1008      927 
     850      799      791      835      903      959      993      984 
     915      787      654      594      634      756      923     1088 
    1215     1287     1312     1297     1240     1166     1117     1117 
    1159     1215     1251     1262     1229     1129      985      835 
     699      572      465      415      475      633      819      966 
    1054     1113     1181     1259     1312     1291     1173     1005 
     865      791      791      853      932      980      990     1003 
    1035     1074     1085     1053      993      943      911      851 
     746      627      525      441      395      436      584      789 
     988     1134     1192     1169     1104     1034      976      930 
     884      838      805      804      824      839      823      787 
     770      804      881      969     1026     1027      989      939 
     897      866      832      797      766      741      731      735 
     724      687      650      657      729      846      955     1038 
    1108     1156     1163     1121     1044      970      931      912 
     873      800      697      600      557      595      685      770 
     834      919     1058     1216     1344     1421     1421     1340 
    1223     1108     1015      949      900      859      826      785 
     731      665      588      502      426      394      414      481 
