Origin Time       2025/01/13 21:19:00
Lat.              31.8
Long.             131.6
Depth. (km)       30
Mag.              6.9
Station Code      TKSH02
Station Lat.      34.0112
Station Long.     134.0918
Station Height(m) 90
Record Time       2025/01/13 21:20:41
Sampling Freq(Hz) 100Hz
Duration Time(s)  133
Dir.              1
Scale Factor      3923(gal)/8224838
Max. Acc. (gal)   0.384
Last Correction   2025/01/13 21:20:42
Memo.             
[...]
   -6457    -6455    -6462    -6470    -6463    -6444    -6430    -6432 
   -6440    -6440    -6435    -6432    -6426    -6423    -6426    -6413 
   -6386    -6373    -6372    -6365    -6355    -6353    -6350    -6339 
   -6328    -6328    -6332    -6332    -6332    -6334    -6335    -6335 
   -6336    -6340    -6357    -6381    -6381    -6349    -6328    -6339 
   -6351    -6350    -6347    -6354    -6349    -6332    -6331    -6349 
   -6378    -6411    -6431    -6428    -6403    -6386    -6396    -6404 
   -6393    -6386    -6401    -6407    -6373    -6332    -6316    -6311 
   -6309    -6316    -6330    -6342    -6347    -6340    -6336    -6346 
   -6367    -6393    -6412    -6430    -6451    -6465    -6467    -6482 
   -6523    -6565    -6586    -6601    -6623    -6636    -6635    -6637 
   -6656    -6682    -6698    -6704    -6701    -6708    -6731    -6762 
   -6785    -6809    -6851    -6885    -6893    -6893    -6901    -6902 
   -6894    -6886    -6868    -6839    -6813    -6797    -6785    -6781 
   -6781    -6770    -6748    -6728    -6714    -6704    -6683    -6655 
   -6628    -6604    -6581    -6565    -6563    -6565    -6552    -6540 
   -6538    -6539    -6528    -6509    -6496    -6492    -6486    -6478 
   -6471    -6471    -6481    -6485    -6471    -6457    -6453    -6440 
   -6409    -6373    -6343    -6326    -6312    -6289    -6261    -6242 
   -6232    -6216    -6201    -6203    -6210    -6215    -6228    -6249 
   -6270    -6299    -6327    -6351    -6363    -6373    -6381    -6382 
   -6389    -6405    -6413    -6404    -6388    -6373    -6372    -6382 
   -6389    -6378    -6363    -6347    -6322    -6299    -6295    -6293 
   -6278    -6266    -6273    -6284    -6288    -6296    -6301    -6297 
   -6309    -6353    -6400    -6427    -6443    -6461    -6481    -6508 
   -6551    -6602    -6647    -6687    -6725    -6758    -6778    -6793 
   -6813    -6826    -6817    -6802    -6804    -6801    -6781    -6756 
   -6729    -6700    -6666    -6625    -6578    -6529    -6482    -6436 
   -6385    -6327    -6272    -6231    -6203    -6177    -6158    -6154 
   -6166    -6189    -6216    -6246    -6276    -6308    -6346    -6377 
   -6399    -6420    -6438    -6453    -6470    -6480    -6484    -6497 
   -6535    -6586    -6628    -6656    -6677    -6696    -6716    -6737 
   -6764    -6799    -6825    -6848    -6882    -6916    -6943    -6971 
   -6994    -7003    -7006    -7014    -7032    -7052    -7064    -7071 
   -7086    -7103    -7105    -7096    -7092    -7099    -7121    -7141 
   -7150    -7152    -7138    -7110    -7078    -7053    -7037    -7025 
   -7013    -6998    -6978    -6959    -6944    -6932    -6925    -6922 
   -6922    -6925    -6926    -6922    -6905    -6879    -6853    -6828 
   -6793    -6758    -6731    -6710    -6693    -6678    -6664    -6639 
   -6598    -6554    -6523    -6497    -6477    -6463    -6453    -6440 
   -6436    -6440    -6442    -6446    -6462    -6484    -6500    -6505 
   -6512    -6543    -6582    -6604    -6619    -6637    -6652    -6658 
   -6660    -6675    -6704    -6723    -6717    -6696    -6671    -6648 
   -6629    -6610    -6588    -6563    -6535    -6498    -6457    -6427 
   -6408    -6390    -6376    -6365    -6357    -6346    -6330    -6296 
   -6258    -6232    -6216    -6200    -6178    -6154    -6129    -6102 
   -6079    -6062    -6046    -6027    -6010    -5998    -5991    -5992 
   -5999    -6004    -6012    -6029    -6056    -6093    -6129    -6166 
   -6224    -6291    -6335    -6359    -6384    -6416    -6455    -6496 
   -6529    -6563    -6602    -6650    -6698    -6740    -6770    -6790 
   -6802    -6822    -6855    -6894    -6934    -6974    -7003    -7017 
   -7020    -7021    -7026    -7034    -7034    -7017    -6991    -6963 
   -6929    -6889    -6843    -6789    -6736    -6693    -6654    -6615 
   -6586    -6574    -6573    -6567    -6562    -6561    -6561    -6561 
   -6552    -6539    -6525    -6504    -6486    -6478    -6473    -6466 
   -6450    -6417    -6390    -6389    -6400    -6405    -6408    -6416 
   -6428    -6436    -6440    -6450    -6471    -6500    -6529    -6551 
   -6559    -6561    -6567    -6581    -6592    -6594    -6596    -6600 
   -6596    -6582    -6574    -6571    -6554    -6528    -6501    -6475 
   -6459    -6444    -6413    -6378    -6343    -6309    -6291    -6292 
   -6284    -6250    -6208    -6169    -6130    -6085    -6050    -6026 
   -5996    -5957    -5922    -5899    -5895    -5902    -5910    -5910 
   -5906    -5911    -5934    -5967    -6002    -6042    -6088    -6134 
   -6184    -6231    -6269    -6311    -6359    -6409    -6454    -6485 
   -6512    -6542    -6573    -6600    -6619    -6629    -6631    -6625 
   -6620    -6619    -6621    -6621    -6606    -6570    -6525    -6481 
   -6432    -6384    -6347    -6312    -6265    -6208    -6157    -6111 
   -6073    -6046    -6029    -6014    -5995    -5979    -5979    -5988 
   -6002    -6021    -6048    -6081    -6122    -6166    -6214    -6261 
   -6309    -6361    -6407    -6455    -6509    -6562    -6606    -6637 
   -6659    -6679    -6701    -6723    -6744    -6766    -6786    -6805 
   -6818    -6833    -6852    -6872    -6894    -6914    -6920    -6924 
   -6937    -6953    -6959    -6957    -6953    -6949    -6943    -6921 
   -6882    -6832    -6789    -6755    -6727    -6702    -6677    -6650 
   -6632    -6625    -6629    -6635    -6642    -6662    -6694    -6718 
   -6724    -6716    -6710    -6712    -6718    -6724    -6724    -6716 
   -6698    -6675    -6656    -6637    -6616    -6592    -6573    -6552 
   -6516    -6471    -6426    -6373    -6313    -6258    -6216    -6188 
   -6157    -6119    -6087    -6064    -6042    -6019    -6004    -6008 
   -6019    -6022    -6027    -6038    -6042    -6042    -6053    -6064 
   -6061    -6049    -6043    -6038    -6029    -6025    -6021    -6003 
   -5981    -5979    -5998    -6021    -6034    -6041    -6053    -6075 
   -6103    -6137    -6176    -6223    -6269    -6300    -6326    -6355 
   -6376    -6393    -6426    -6461    -6488    -6502    -6512    -6523 
   -6531    -6532    -6529    -6527    -6525    -6534    -6542    -6544 
   -6548    -6562    -6575    -6583    -6588    -6590    -6594    -6600 
   -6596    -6588    -6581    -6579    -6581    -6581    -6582    -6594 
   -6609    -6623    -6640    -6663    -6681    -6691    -6713    -6750 
   -6787    -6818    -6848    -6878    -6899    -6916    -6934    -6956 
   -6966    -6966    -6972    -6980    -6979    -6972    -6967    -6957 
   -6947    -6941    -6929    -6903    -6879    -6862    -6841    -6813 
   -6781    -6743    -6698    -6647    -6590    -6532    -6466    -6394 
   -6332    -6273    -6208    -6150    -6092    -6026    -5973    -5937 
   -5907    -5884    -5877    -5891    -5911    -5923    -5931    -5946 
   -5969    -5995    -6018    -6030    -6035    -6052    -6075    -6097 
   -6115    -6129    -6143    -6157    -6166    -6176    -6192    -6215 
   -6235    -6251    -6269    -6277    -6280    -6299    -6326    -6342 
   -6354    -6377    -6407    -6439    -6477    -6523    -6570    -6617 
   -6666    -6710    -6750    -6787    -6828    -6870    -6917    -6972 
   -7025    -7069    -7107    -7137    -7161    -7182    -7195    -7209 
   -7229    -7246    -7250    -7242    -7222    -7198    -7188    -7188 
   -7186    -7176    -7163    -7150    -7138    -7118    -7095    -7084 
   -7080    -7076    -7064    -7042    -7029    -7024    -7025    -7029 
   -7036    -7044    -7051    -7047    -7040    -7030    -7018    -7015 
   -7020    -7021    -7014    -7010    -7006    -6999    -6987    -6975 
   -6960    -6939    -6910    -6880    -6849    -6812    -6777    -6756 
   -6745    -6737    -6731    -6718    -6700    -6691    -6691    -6687 
   -6678    -6669    -6656    -6647    -6643    -6632    -6610    -6586 
   -6556    -6523    -6492    -6466    -6436    -6403    -6369    -6338 
   -6304    -6261    -6219    -6188    -6168    -6147    -6123    -6107 
   -6099    -6097    -6103    -6114    -6126    -6141    -6162    -6193 
   -6220    -6239    -6259    -6280    -6296    -6309    -6323    -6339 
   -6362    -6380    -6385    -6384    -6384    -6388    -6396    -6399 
   -6392    -6385    -6381    -6367    -6334    -6295    -6273    -6249 
   -6208    -6169    -6153    -6150    -6137    -6119    -6112    -6116 
   -6119    -6115    -6104    -6087    -6073    -6076    -6084    -6083 
   -6077    -6077    -6085    -6093    -6092    -6095    -6112    -6133 
   -6151    -6176    -6201    -6218    -6232    -6255    -6280    -6301 
   -6326    -6361    -6408    -6455    -6489    -6512    -6528    -6532 
   -6531    -6531    -6534    -6532    -6529    -6527    -6525    -6531 
   -6536    -6546    -6558    -6562    -6556    -6551    -6546    -6532 
   -6519    -6511    -6498    -6474    -6446    -6434    -6440    -6439 
   -6424    -6412    -6401    -6400    -6413    -6430    -6439    -6453 
   -6469    -6482    -6497    -6517    -6544    -6578    -6604    -6629 
   -6664    -6702    -6739    -6771    -6798    -6822    -6845    -6872 
   -6912    -6948    -6972    -6984    -6990    -6997    -7010    -7028 
   -7048    -7068    -7074    -7064    -7056    -7041    -7017    -6995 
   -6979    -6968    -6978    -6994    -6997    -6995    -6999    -7006 
   -7017    -7030    -7042    -7052    -7060    -7072    -7080    -7090 
   -7107    -7117    -7110    -7102    -7092    -7080    -7064    -7052 
   -7049    -7049    -7042    -7025    -7003    -6982    -6959    -6934 
   -6909    -6880    -6849    -6813    -6775    -6743    -6717    -6694 
   -6669    -6643    -6612    -6575    -6539    -6507    -6475    -6444 
   -6407    -6361    -6316    -6280    -6255    -6241    -6222    -6207 
   -6203    -6196    -6188    -6192    -6201    -6201    -6200    -6200 
   -6200    -6204    -6212    -6223    -6231    -6234    -6234    -6234 
   -6242    -6257    -6265    -6262    -6254    -6241    -6226    -6205 
   -6181    -6162    -6151    -6137    -6115    -6099    -6087    -6077 
   -6068    -6069    -6075    -6079    -6087    -6103    -6124    -6149 
   -6169    -6180    -6185    -6196    -6207    -6214    -6215    -6223 
   -6243    -6270    -6295    -6315    -6336    -6366    -6405    -6455 
   -6515    -6577    -6639    -6705    -6767    -6832    -6901    -6957 
   -7006    -7049    -7080    -7101    -7123    -7149    -7165    -7173 
   -7172    -7156    -7130    -7114    -7098    -7075    -7051    -7026 
   -6994    -6949    -6902    -6863    -6826    -6791    -6762    -6740 
   -6716    -6681    -6647    -6625    -6605    -6586    -6575    -6563 
   -6543    -6528    -6517    -6501    -6482    -6465    -6440    -6404 
   -6367    -6342    -6326    -6309    -6291    -6272    -6251    -6234 
   -6215    -6188    -6156    -6129    -6108    -6087    -6062    -6045 
   -6038    -6037    -6038    -6046    -6053    -6061    -6075    -6103 
   -6137    -6166    -6193    -6227    -6257    -6281    -6311    -6339 
   -6361    -6381    -6404    -6424    -6442    -6455    -6467    -6478 
   -6485    -6494    -6511    -6534    -6558    -6579    -6594    -6605 
   -6619    -6628    -6631    -6631    -6635    -6643    -6647    -6650 
   -6654    -6652    -6642    -6623    -6602    -6579    -6554    -6529 
   -6502    -6467    -6440    -6434    -6436    -6435    -6431    -6432 
   -6439    -6450    -6473    -6507    -6532    -6546    -6562    -6581 
   -6592    -6606    -6633    -6663    -6683    -6696    -6705    -6720 
   -6728    -6725    -6716    -6704    -6690    -6674    -6652    -6629 
   -6605    -6582    -6565    -6546    -6529    -6517    -6515    -6520 
   -6529    -6535    -6528    -6516    -6507    -6502    -6502    -6509 
   -6520    -6531    -6546    -6565    -6582    -6598    -6610    -6616 
   -6620    -6624    -6627    -6628    -6619    -6598    -6586    -6585 
   -6575    -6554    -6538    -6531    -6527    -6520    -6507    -6493 
   -6485    -6473    -6457    -6438    -6407    -6373    -6346    -6316 
   -6282    -6250    -6214    -6174    -6131    -6081    -6026    -5971 
   -5922    -5880    -5842    -5811    -5782    -5760    -5748    -5742 
   -5740    -5744    -5757    -5780    -5806    -5830    -5853    -5881 
   -5919    -5962    -6006    -6049    -6092    -6138    -6188    -6234 
   -6269    -6301    -6345    -6396    -6450    -6500    -6538    -6563 
   -6590    -6616    -6628    -6625    -6628    -6633    -6629    -6623 
   -6627    -6633    -6637    -6651    -6673    -6693    -6708    -6725 
   -6750    -6774    -6797    -6821    -6851    -6885    -6920    -6948 
   -6974    -7002    -7033    -7067    -7095    -7115    -7137    -7155 
   -7168    -7191    -7217    -7227    -7236    -7245    -7246    -7240 
   -7238    -7236    -7229    -7221    -7203    -7169    -7137    -7113 
   -7086    -7061    -7045    -7033    -7022    -7011    -7005    -7010 
   -7024    -7033    -7029    -7018    -7003    -6984    -6966    -6949 
   -6926    -6887    -6837    -6781    -6724    -6669    -6620    -6578 
   -6544    -6524    -6515    -6502    -6490    -6486    -6494    -6511 
   -6525    -6539    -6551    -6566    -6582    -6609    -6643    -6677 
   -6708    -6741    -6777    -6809    -6837    -6862    -6882    -6899 
   -6912    -6917    -6916    -6902    -6879    -6858    -6831    -6789 
   -6739    -6689    -6636    -6578    -6525    -6484    -6450    -6411 
   -6362    -6311    -6265    -6220    -6172    -6126    -6084    -6041 
   -5991    -5942    -5906    -5873    -5834    -5791    -5757    -5737 
   -5729    -5732    -5748    -5775    -5803    -5830    -5857    -5886 
   -5917    -5948    -5979    -6015    -6043    -6064    -6081    -6102 
   -6118    -6126    -6123    -6119    -6119    -6120    -6118    -6114 
   -6107    -6103    -6103    -6106    -6099    -6089    -6079    -6069 
   -6066    -6066    -6076    -6096    -6116    -6138    -6177    -6224 
   -6268    -6305    -6345    -6394    -6448    -6501    -6552    -6594 
   -6629    -6669    -6712    -6758    -6801    -6837    -6874    -6907 
   -6947    -6991    -7032    -7074    -7115    -7156    -7198    -7237 
   -7267    -7290    -7303    -7314    -7319    -7314    -7306    -7299 
   -7288    -7277    -7264    -7245    -7227    -7215    -7196    -7172 
   -7150    -7123    -7087    -7049    -7014    -6980    -6949    -6925 
   -6902    -6871    -6836    -6809    -6783    -6763    -6759    -6758 
   -6748    -6743    -6741    -6735    -6728    -6724    -6717    -6708 
   -6701    -6693    -6682    -6677    -6674    -6674    -6671    -6663 
   -6654    -6647    -6637    -6621    -6606    -6593    -6578    -6558 
   -6534    -6519    -6509    -6486    -6454    -6431    -6413    -6396 
   -6377    -6353    -6322    -6292    -6268    -6238    -6199    -6151 
   -6107    -6070    -6039    -6006    -5975    -5950    -5926    -5898 
   -5871    -5850    -5834    -5817    -5805    -5798    -5794    -5791 
   -5791    -5799    -5813    -5823    -5842    -5871    -5899    -5926 
   -5964    -6004    -6037    -6060    -6083    -6110    -6141    -6172 
   -6201    -6235    -6273    -6313    -6362    -6420    -6475    -6524 
   -6573    -6623    -6667    -6708    -6741    -6770    -6795    -6822 
   -6845    -6862    -6872    -6878    -6885    -6898    -6912    -6918 
   -6925    -6937    -6948    -6948    -6949    -6952    -6951    -6948 
   -6949    -6957    -6960    -6957    -6956    -6947    -6922    -6897 
   -6866    -6825    -6789    -6756    -6728    -6698    -6662    -6619 
   -6578    -6546    -6520    -6494    -6465    -6431    -6403    -6382 
   -6372    -6367    -6363    -6355    -6343    -6332    -6320    -6308 
   -6301    -6301    -6300    -6295    -6289    -6284    -6276    -6269 
   -6265    -6254    -6228    -6203    -6183    -6165    -6145    -6120 
   -6099    -6077    -6054    -6031    -6021    -6022    -6031    -6045 
   -6064    -6091    -6126    -6169    -6211    -6255    -6296    -6330 
   -6367    -6420    -6467    -6502    -6542    -6592    -6639    -6679 
   -6717    -6748    -6777    -6809    -6849    -6891    -6925    -6953 
   -6988    -7026    -7059    -7086    -7114    -7144    -7171    -7195 
   -7217    -7229    -7234    -7242    -7252    -7257    -7252    -7242 
   -7240    -7241    -7236    -7215    -7180    -7149    -7128    -7106 
   -7076    -7040    -6999    -6955    -6909    -6866    -6828    -6785 
   -6731    -6678    -6629    -6586    -6551    -6523    -6498    -6477 
   -6457    -6439    -6421    -6407    -6397    -6389    -6382    -6381 
   -6382    -6382    -6382    -6382    -6384    -6384    -6385    -6390 
   -6399    -6405    -6411    -6417    -6424    -6426    -6428    -6430 
   -6424    -6421    -6426    -6432    -6443    -6446    -6434    -6419 
   -6408    -6401    -6397    -6404    -6419    -6423    -6413    -6411 
   -6417    -6431    -6444    -6461    -6482    -6504    -6523    -6547 
   -6573    -6594    -6612    -6636    -6660    -6675    -6687    -6697 
   -6705    -6713    -6721    -6724    -6724    -6727    -6732    -6728 
   -6718    -6713    -6712    -6718    -6735    -6755    -6768    -6779 
   -6798    -6828    -6853    -6868    -6879    -6893    -6909    -6920 
   -6922    -6921    -6921    -6921    -6918    -6912    -6906    -6903 
   -6901    -6898    -6885    -6866    -6852    -6836    -6809    -6779 
   -6750    -6720    -6686    -6651    -6623    -6593    -6554    -6513 
   -6484    -6455    -6421    -6400    -6392    -6382    -6367    -6357 
   -6358    -6363    -6367    -6372    -6377    -6384    -6392    -6405 
   -6427    -6454    -6481    -6509    -6544    -6582    -6613    -6639 
   -6669    -6704    -6736    -6763    -6793    -6826    -6858    -6879 
   -6891    -6897    -6897    -6894    -6886    -6863    -6836    -6812 
   -6785    -6754    -6718    -6679    -6643    -6609    -6573    -6531 
   -6484    -6431    -6381    -6338    -6297    -6255    -6214    -6173 
   -6138    -6112    -6095    -6084    -6080    -6077    -6069    -6065 
   -6070    -6076    -6069    -6060    -6057    -6053    -6042    -6031 
   -6027    -6031    -6043    -6050    -6052    -6061    -6076    -6097 
   -6127    -6153    -6176    -6208    -6250    -6295    -6334    -6372 
   -6412    -6451    -6482    -6511    -6542    -6575    -6605    -6629 
   -6651    -6664    -6679    -6708    -6741    -6767    -6787    -6805 
   -6816    -6821    -6829    -6841    -6853    -6858    -6859    -6860 
   -6862    -6871    -6887    -6903    -6922    -6944    -6959    -6966 
   -6972    -6980    -6987    -6993    -6991    -6982    -6968    -6955 
   -6934    -6905    -6874    -6844    -6804    -6750    -6702    -6660 
   -6612    -6569    -6538    -6513    -6486    -6454    -6427    -6407 
   -6392    -6377    -6357    -6335    -6319    -6305    -6291    -6281 
   -6277    -6274    -6264    -6251    -6245    -6243    -6238    -6227 
   -6212    -6193    -6176    -6162    -6157    -6154    -6150    -6150 
   -6157    -6165    -6170    -6172    -6170    -6172    -6173    -6176 
   -6178    -6180    -6180    -6176    -6166    -6153    -6141    -6130 
   -6120    -6118    -6130    -6150    -6164    -6168    -6176    -6192 
   -6208    -6219    -6231    -6253    -6273    -6288    -6300    -6309 
   -6323    -6349    -6374    -6400    -6434    -6463    -6492    -6527 
   -6565    -6602    -6643    -6677    -6709    -6741    -6770    -6798 
   -6836    -6875    -6901    -6922    -6947    -6975    -7009    -7042 
