Origin Time       2025/01/13 21:19:00
Lat.              31.8
Long.             131.6
Depth. (km)       30
Mag.              6.9
Station Code      TKSH06
Station Lat.      33.9997
Station Long.     133.8933
Station Height(m) 605
Record Time       2025/01/13 21:20:39
Sampling Freq(Hz) 100Hz
Duration Time(s)  123
Dir.              5
Scale Factor      7845(gal)/8223790
Max. Acc. (gal)   0.792
Last Correction   2025/01/13 21:20:39
Memo.             
[...]
  -12430   -12406   -12403   -12391   -12343   -12260   -12160   -12044 
  -11946   -11900   -11881   -11873   -11869   -11857   -11863   -11916 
  -11982   -12032   -12052   -12044   -12042   -12070   -12100   -12093 
  -12066   -12056   -12074   -12105   -12129   -12137   -12135   -12148 
  -12190   -12235   -12248   -12253   -12279   -12301   -12295   -12267 
  -12214   -12143   -12091   -12096   -12132   -12166   -12182   -12158 
  -12090   -12016   -11977   -11983   -12012   -12028   -12036   -12047 
  -12050   -12027   -11985   -11970   -12016   -12110   -12231   -12337 
  -12380   -12360   -12339   -12332   -12330   -12351   -12376   -12359 
  -12283   -12190   -12162   -12213   -12283   -12314   -12291   -12236 
  -12171   -12105   -12047   -11996   -11944   -11902   -11890   -11881 
  -11842   -11808   -11824   -11901   -11989   -12023   -12019   -12032 
  -12062   -12109   -12182   -12245   -12268   -12259   -12233   -12222 
  -12235   -12255   -12271   -12268   -12218   -12127   -12056   -12050 
  -12082   -12109   -12109   -12083   -12056   -12055   -12096   -12167 
  -12233   -12283   -12337   -12399   -12449   -12474   -12469   -12455 
  -12453   -12490   -12556   -12603   -12617   -12613   -12584   -12534 
  -12479   -12415   -12360   -12325   -12279   -12190   -12087   -12020 
  -11988   -11965   -11944   -11924   -11908   -11911   -11943   -11990 
  -12042   -12113   -12198   -12247   -12252   -12231   -12182   -12129 
  -12113   -12140   -12177   -12175   -12121   -12048   -12005   -12005 
  -12031   -12063   -12073   -12037   -11989   -11967   -11990   -12046 
  -12098   -12101   -12062   -12031   -12027   -12051   -12086   -12098 
  -12079   -12069   -12087   -12123   -12139   -12109   -12050   -12015 
  -12029   -12070   -12109   -12135   -12144   -12136   -12120   -12108 
  -12105   -12117   -12143   -12158   -12156   -12155   -12154   -12154 
  -12164   -12213   -12314   -12426   -12476   -12426   -12312   -12214 
  -12187   -12231   -12297   -12330   -12329   -12325   -12329   -12340 
  -12347   -12328   -12295   -12270   -12266   -12301   -12364   -12428 
  -12478   -12511   -12549   -12576   -12549   -12495   -12456   -12430 
  -12405   -12368   -12332   -12312   -12279   -12201   -12090   -11988 
  -11946   -11971   -12009   -12023   -11993   -11944   -11942   -12008 
  -12097   -12182   -12264   -12328   -12355   -12372   -12388   -12398 
  -12417   -12452   -12474   -12467   -12448   -12424   -12378   -12312 
  -12253   -12204   -12141   -12075   -12019   -11975   -11958   -11954 
  -11956   -11978   -12009   -12013   -11993   -11985   -11988   -11983 
  -11992   -12009   -11990   -11932   -11874   -11846   -11858   -11898 
  -11939   -11955   -11969   -12004   -12056   -12110   -12148   -12167 
  -12170   -12164   -12160   -12154   -12147   -12140   -12132   -12133 
  -12158   -12186   -12193   -12175   -12141   -12104   -12085   -12098 
  -12129   -12154   -12164   -12174   -12197   -12247   -12306   -12349 
  -12368   -12356   -12322   -12299   -12295   -12285   -12264   -12236 
  -12208   -12194   -12204   -12232   -12244   -12214   -12171   -12151 
  -12167   -12206   -12244   -12275   -12302   -12321   -12351   -12407 
  -12469   -12530   -12583   -12592   -12564   -12533   -12511   -12494 
  -12449   -12376   -12316   -12293   -12302   -12309   -12299   -12286 
  -12271   -12268   -12276   -12278   -12272   -12251   -12226   -12214 
  -12189   -12145   -12120   -12100   -12063   -12021   -11979   -11946 
  -11935   -11938   -11944   -11981   -12056   -12127   -12172   -12222 
  -12285   -12357   -12429   -12475   -12486   -12472   -12452   -12441 
  -12425   -12363   -12256   -12154   -12082   -12037   -12027   -12023 
  -12010   -12001   -11977   -11935   -11897   -11878   -11888   -11917 
  -11962   -12017   -12074   -12120   -12129   -12113   -12112   -12137 
  -12181   -12213   -12198   -12141   -12071   -12010   -11958   -11917 
  -11897   -11884   -11862   -11844   -11848   -11862   -11862   -11874 
  -11935   -12015   -12064   -12094   -12123   -12141   -12160   -12193 
  -12224   -12240   -12226   -12178   -12133   -12124   -12141   -12172 
  -12208   -12226   -12212   -12175   -12151   -12159   -12187   -12210 
  -12214   -12194   -12167   -12170   -12198   -12224   -12236   -12241 
  -12249   -12248   -12218   -12172   -12143   -12140   -12160   -12198 
  -12229   -12216   -12170   -12128   -12101   -12081   -12063   -12037 
  -11996   -11943   -11886   -11835   -11803   -11790   -11788   -11796 
  -11816   -11834   -11851   -11902   -11982   -12079   -12210   -12341 
  -12418   -12467   -12515   -12564   -12611   -12641   -12644   -12629 
  -12591   -12526   -12426   -12301   -12185   -12097   -12043   -12017 
  -11993   -11951   -11893   -11840   -11824   -11846   -11888   -11944 
  -11978   -11979   -11990   -12023   -12054   -12094   -12143   -12177 
  -12198   -12220   -12236   -12241   -12236   -12240   -12274   -12313 
  -12325   -12316   -12293   -12275   -12298   -12370   -12448   -12495 
  -12496   -12455   -12426   -12437   -12449   -12453   -12448   -12415 
  -12379   -12347   -12291   -12232   -12182   -12118   -12037   -11963 
  -11900   -11857   -11834   -11816   -11821   -11865   -11907   -11929 
  -11952   -11981   -12019   -12067   -12102   -12101   -12056   -11997 
  -11965   -11967   -11996   -12037   -12067   -12077   -12077   -12071 
  -12059   -12044   -12029   -12005   -11970   -11947   -11952   -11955 
  -11927   -11897   -11888   -11896   -11909   -11904   -11884   -11886 
  -11916   -11962   -12028   -12100   -12156   -12194   -12224   -12241 
  -12260   -12314   -12403   -12484   -12542   -12571   -12560   -12511 
  -12445   -12370   -12295   -12224   -12151   -12101   -12062   -12023 
  -12009   -12012   -12010   -12021   -12050   -12089   -12137   -12208 
  -12306   -12421   -12529   -12617   -12702   -12788   -12854   -12888 
  -12891   -12864   -12815   -12758   -12706   -12657   -12604   -12534 
  -12444   -12337   -12222   -12116   -12047   -12005   -11966   -11931 
  -11870   -11780   -11712   -11674   -11658   -11677   -11718   -11742 
  -11750   -11751   -11755   -11784   -11834   -11885   -11931   -11970 
  -12027   -12105   -12178   -12240   -12295   -12356   -12409   -12442 
  -12464   -12468   -12453   -12429   -12409   -12397   -12363   -12293 
  -12216   -12137   -12052   -11969   -11878   -11792   -11747   -11750 
  -11772   -11796   -11799   -11776   -11767   -11790   -11834   -11888 
  -11919   -11915   -11924   -11955   -11994   -12050   -12116   -12160 
  -12170   -12166   -12167   -12166   -12151   -12125   -12082   -12032 
  -11997   -11985   -11981   -11983   -12006   -12044   -12083   -12132 
  -12187   -12237   -12285   -12339   -12399   -12461   -12509   -12544 
  -12588   -12641   -12685   -12723   -12754   -12766   -12773   -12799 
  -12830   -12846   -12838   -12803   -12739   -12660   -12584   -12518 
  -12455   -12395   -12333   -12268   -12221   -12194   -12175   -12177 
  -12183   -12171   -12154   -12136   -12127   -12140   -12167   -12179 
  -12162   -12124   -12091   -12082   -12086   -12089   -12079   -12044 
  -11989   -11929   -11878   -11840   -11816   -11807   -11800   -11793 
  -11794   -11805   -11844   -11915   -11985   -12046   -12113   -12182 
  -12262   -12344   -12407   -12455   -12501   -12550   -12592   -12604 
  -12591   -12571   -12534   -12491   -12461   -12447   -12438   -12429 
  -12397   -12339   -12291   -12267   -12249   -12237   -12218   -12183 
  -12158   -12145   -12148   -12172   -12199   -12216   -12214   -12197 
  -12179   -12159   -12128   -12101   -12086   -12086   -12100   -12121 
  -12133   -12128   -12106   -12083   -12077   -12094   -12120   -12128 
  -12106   -12062   -12015   -11992   -12001   -12033   -12071   -12101 
  -12116   -12128   -12152   -12181   -12202   -12226   -12259   -12298 
  -12340   -12374   -12399   -12422   -12467   -12528   -12555   -12537 
  -12488   -12422   -12379   -12380   -12405   -12442   -12461   -12449 
  -12437   -12420   -12384   -12355   -12321   -12255   -12186   -12156 
  -12159   -12179   -12205   -12216   -12214   -12224   -12241   -12247 
  -12233   -12206   -12189   -12189   -12181   -12151   -12105   -12050 
  -11988   -11932   -11884   -11832   -11780   -11745   -11740   -11750 
  -11759   -11776   -11789   -11812   -11867   -11936   -12005   -12079 
  -12145   -12191   -12224   -12252   -12276   -12293   -12293   -12285 
  -12275   -12256   -12240   -12247   -12251   -12222   -12177   -12135 
  -12102   -12091   -12108   -12135   -12159   -12185   -12205   -12212 
  -12209   -12208   -12218   -12237   -12248   -12236   -12210   -12197 
  -12202   -12218   -12245   -12276   -12295   -12303   -12286   -12233 
  -12181   -12137   -12091   -12052   -12017   -11977   -11944   -11920 
  -11892   -11866   -11857   -11866   -11900   -11950   -11970   -11961 
  -11971   -12005   -12048   -12112   -12178   -12212   -12239   -12279 
  -12314   -12341   -12372   -12405   -12430   -12447   -12442   -12428 
  -12434   -12448   -12432   -12409   -12387   -12343   -12286   -12233 
  -12170   -12118   -12105   -12109   -12114   -12120   -12121   -12123 
  -12128   -12129   -12125   -12128   -12151   -12186   -12213   -12216 
  -12186   -12141   -12104   -12060   -12006   -11963   -11939   -11921 
  -11896   -11865   -11851   -11865   -11901   -11966   -12042   -12100 
  -12152   -12218   -12283   -12329   -12367   -12415   -12464   -12506 
  -12544   -12573   -12586   -12600   -12626   -12631   -12596   -12528 
  -12440   -12356   -12279   -12204   -12123   -12037   -11947   -11840 
  -11726   -11634   -11581   -11558   -11547   -11538   -11522   -11515 
  -11543   -11600   -11668   -11746   -11823   -11892   -11952   -12001 
  -12042   -12077   -12100   -12106   -12096   -12078   -12071   -12073 
  -12083   -12098   -12110   -12106   -12091   -12093   -12127   -12175 
  -12205   -12209   -12210   -12231   -12280   -12352   -12418   -12455 
  -12465   -12465   -12472   -12486   -12502   -12517   -12511   -12476 
  -12424   -12370   -12345   -12341   -12321   -12297   -12286   -12266 
  -12251   -12249   -12251   -12272   -12316   -12351   -12376   -12409 
  -12442   -12480   -12513   -12518   -12511   -12499   -12463   -12415 
  -12364   -12303   -12251   -12204   -12152   -12109   -12091   -12114 
  -12163   -12217   -12272   -12326   -12383   -12451   -12510   -12565 
  -12622   -12665   -12681   -12673   -12641   -12595   -12550   -12509 
  -12461   -12406   -12348   -12305   -12276   -12248   -12229   -12232 
  -12244   -12249   -12256   -12268   -12272   -12260   -12248   -12231 
  -12193   -12140   -12091   -12036   -11952   -11857   -11781   -11722 
  -11661   -11595   -11542   -11503   -11481   -11489   -11504   -11510 
  -11511   -11512   -11533   -11577   -11637   -11700   -11755   -11807 
  -11857   -11898   -11935   -11966   -11983   -12004   -12031   -12046 
  -12064   -12085   -12075   -12040   -11993   -11934   -11878   -11839 
  -11808   -11784   -11767   -11765   -11778   -11792   -11797   -11815 
  -11847   -11905   -11983   -12028   -12032   -12039   -12035   -12017 
  -12019   -12042   -12066   -12086   -12096   -12083   -12048   -12008 
  -11989   -12001   -12029   -12058   -12086   -12114   -12140   -12171 
  -12208   -12240   -12260   -12264   -12259   -12260   -12262   -12247 
  -12222   -12194   -12155   -12116   -12100   -12108   -12121   -12137 
  -12159   -12189   -12235   -12279   -12310   -12332   -12352   -12390 
  -12448   -12488   -12496   -12492   -12475   -12452   -12461   -12492 
  -12501   -12483   -12442   -12395   -12376   -12368   -12340   -12303 
  -12247   -12177   -12140   -12128   -12120   -12121   -12118   -12120 
  -12133   -12148   -12155   -12154   -12158   -12182   -12224   -12275 
  -12328   -12363   -12374   -12382   -12393   -12402   -12395   -12360 
  -12325   -12297   -12244   -12177   -12114   -12050   -11982   -11904 
  -11821   -11769   -11750   -11728   -11693   -11659   -11637   -11627 
  -11642   -11677   -11730   -11811   -11909   -12004   -12091   -12185 
  -12286   -12391   -12492   -12582   -12649   -12698   -12730   -12752 
  -12769   -12781   -12784   -12772   -12745   -12704   -12654   -12598 
  -12526   -12444   -12361   -12286   -12216   -12154   -12110   -12101 
  -12102   -12097   -12091   -12093   -12105   -12137   -12181   -12218 
  -12249   -12289   -12333   -12374   -12402   -12430   -12467   -12506 
  -12546   -12575   -12600   -12622   -12611   -12569   -12513   -12451 
  -12394   -12329   -12256   -12201   -12170   -12136   -12093   -12067 
  -12051   -12039   -12046   -12067   -12096   -12133   -12177   -12221 
  -12268   -12314   -12360   -12403   -12442   -12483   -12522   -12546 
  -12545   -12528   -12513   -12502   -12499   -12503   -12494   -12461 
  -12417   -12378   -12344   -12312   -12274   -12204   -12110   -12017 
  -11929   -11870   -11834   -11799   -11754   -11695   -11628   -11578 
  -11539   -11512   -11510   -11519   -11524   -11527   -11529   -11537 
  -11562   -11601   -11642   -11677   -11705   -11731   -11754   -11784 
  -11827   -11875   -11917   -11943   -11952   -11970   -12010   -12056 
  -12097   -12118   -12125   -12132   -12135   -12131   -12128   -12127 
  -12117   -12094   -12055   -12008   -11966   -11940   -11921   -11901 
  -11878   -11850   -11821   -11824   -11862   -11902   -11942   -11988 
  -12027   -12047   -12055   -12075   -12121   -12174   -12212   -12243 
  -12260   -12268   -12294   -12360   -12452   -12538   -12617   -12691 
  -12758   -12816   -12873   -12931   -12974   -12989   -12964   -12899 
  -12812   -12714   -12610   -12501   -12376   -12235   -12096   -11978 
  -11884   -11820   -11777   -11738   -11712   -11708   -11709   -11735 
  -11782   -11831   -11893   -11954   -12001   -12055   -12106   -12137 
  -12159   -12177   -12182   -12168   -12147   -12125   -12109   -12104 
  -12109   -12121   -12131   -12133   -12128   -12121   -12112   -12090 
  -12052   -12008   -11970   -11943   -11924   -11916   -11908   -11890 
  -11877   -11882   -11928   -12016   -12109   -12179   -12237   -12297 
  -12368   -12465   -12572   -12646   -12688   -12726   -12752   -12758 
  -12758   -12745   -12715   -12684   -12648   -12594   -12523   -12449 
  -12383   -12329   -12283   -12233   -12194   -12189   -12202   -12212 
  -12231   -12260   -12289   -12297   -12264   -12212   -12182   -12167 
  -12150   -12135   -12106   -12062   -12021   -11989   -11965   -11963 
  -11970   -11969   -11969   -11970   -11963   -11961   -11974   -11988 
  -11990   -12000   -12005   -11996   -11989   -11985   -11961   -11927 
  -11912   -11907   -11897   -11886   -11861   -11826   -11807   -11799 
  -11793   -11804   -11823   -11820   -11811   -11828   -11867   -11925 
  -12008   -12063   -12071   -12089   -12143   -12218   -12303   -12382 
  -12430   -12463   -12498   -12521   -12530   -12545   -12548   -12529 
  -12492   -12430   -12349   -12255   -12156   -12062   -11955   -11855 
  -11792   -11745   -11700   -11672   -11655   -11647   -11669   -11726 
  -11801   -11889   -11989   -12081   -12163   -12252   -12352   -12440 
  -12522   -12614   -12680   -12707   -12715   -12706   -12692   -12684 
  -12669   -12641   -12591   -12519   -12438   -12356   -12285   -12235 
  -12187   -12127   -12071   -12024   -11974   -11924   -11881   -11857 
  -11854   -11855   -11863   -11885   -11904   -11913   -11943   -11986 
  -12021   -12035   -12024   -12009   -11996   -11971   -11952   -11946 
  -11929   -11874   -11799   -11735   -11676   -11616   -11574   -11550 
  -11534   -11535   -11551   -11572   -11605   -11665   -11750   -11857 
  -11966   -12069   -12175   -12286   -12383   -12460   -12522   -12577 
  -12634   -12683   -12712   -12726   -12715   -12685   -12656   -12642 
  -12645   -12645   -12629   -12598   -12556   -12519   -12502   -12496 
  -12494   -12494   -12505   -12518   -12519   -12518   -12521   -12518 
  -12514   -12505   -12495   -12479   -12448   -12406   -12353   -12299 
  -12235   -12144   -12058   -11986   -11908   -11820   -11730   -11654 
  -11592   -11543   -11512   -11492   -11469   -11446   -11430   -11433 
  -11468   -11526   -11591   -11650   -11695   -11730   -11778   -11836 
  -11892   -11946   -12004   -12071   -12132   -12175   -12216   -12263 
  -12314   -12366   -12402   -12409   -12407   -12420   -12440   -12448 
  -12441   -12432   -12410   -12376   -12359   -12353   -12344   -12349 
  -12372   -12375   -12351   -12328   -12318   -12314   -12306   -12287 
  -12263   -12248   -12240   -12231   -12231   -12240   -12229   -12194 
  -12155   -12120   -12101   -12101   -12110   -12113   -12105   -12100 
  -12110   -12131   -12148   -12163   -12189   -12233   -12286   -12336 
  -12382   -12432   -12486   -12540   -12594   -12625   -12644   -12669 
  -12687   -12688   -12687   -12680   -12668   -12649   -12615   -12572 
  -12532   -12496   -12460   -12425   -12386   -12332   -12266   -12208 
  -12145   -12077   -12020   -11969   -11915   -11867   -11823   -11781 
  -11754   -11751   -11761   -11753   -11740   -11735   -11727   -11732 
  -11750   -11770   -11797   -11827   -11857   -11882   -11904   -11936 
  -11975   -11990   -12001   -12021   -12040   -12056   -12091   -12136 
  -12177   -12216   -12253   -12285   -12301   -12307   -12316   -12316 
  -12313   -12325   -12336   -12325   -12299   -12266   -12244   -12229 
  -12208   -12193   -12182   -12167   -12163   -12174   -12190   -12212 
  -12240   -12270   -12290   -12294   -12289   -12280   -12264   -12253 
  -12263   -12262   -12243   -12240   -12229   -12183   -12132   -12097 
  -12071   -12064   -12073   -12087   -12113   -12148   -12182   -12201 
  -12206   -12204   -12199   -12193   -12178   -12159   -12145   -12141 
  -12131   -12110   -12089   -12064   -12042   -12024   -12006   -11988 
  -11969   -11935   -11888   -11850   -11824   -11797   -11769   -11740 
  -11720   -11700   -11673   -11655   -11650   -11651   -11666   -11677 
  -11678   -11674   -11668   -11676   -11699   -11726   -11750   -11766 
  -11776   -11789   -11813   -11848   -11878   -11901   -11934   -11954 
  -11958   -11977   -12009   -12048   -12100   -12135   -12135   -12124 
  -12114   -12112   -12124   -12137   -12143   -12139   -12117   -12079 
  -12033   -11975   -11916   -11869   -11834   -11809   -11803   -11809 
  -11828   -11848   -11843   -11828   -11839   -11857   -11877   -11925 
  -11977   -12000   -12017   -12047   -12071   -12089   -12118   -12143 
  -12155   -12174   -12194   -12205   -12216   -12225   -12241   -12270 
  -12295   -12309   -12324   -12344   -12352   -12345   -12347   -12359 
  -12378   -12391   -12388   -12380   -12375   -12345   -12301   -12267 
  -12239   -12199   -12156   -12117   -12064   -12001   -11946   -11898 
  -11865   -11844   -11819   -11789   -11777   -11784   -11797   -11824 
  -11869   -11905   -11939   -11983   -12010   -12015   -12025   -12047 
  -12064   -12083   -12114   -12148   -12175   -12204   -12222   -12226 
  -12224   -12218   -12208   -12190   -12163   -12124   -12081   -12035 
  -11985   -11939   -11904   -11885   -11874   -11859   -11836   -11812 
  -11813   -11848   -11885   -11925   -11973   -12009   -12042   -12094 
  -12159   -12212   -12253   -12295   -12322   -12340   -12363   -12382 
  -12379   -12360   -12355   -12371   -12388   -12397   -12402   -12405 
  -12398   -12394   -12415   -12456   -12490   -12522   -12556   -12565 
