Origin Time       2025/01/13 21:19:00
Lat.              31.8
Long.             131.6
Depth. (km)       30
Mag.              6.9
Station Code      TKSH02
Station Lat.      34.0112
Station Long.     134.0918
Station Height(m) 190
Record Time       2025/01/13 21:20:41
Sampling Freq(Hz) 100Hz
Duration Time(s)  133
Dir.              5
Scale Factor      7845(gal)/8223790
Max. Acc. (gal)   1.085
Last Correction   2025/01/13 21:20:42
Memo.             
[...]
   -3238    -3173    -3150    -3180    -3230    -3242    -3211    -3210 
   -3261    -3306    -3322    -3338    -3364    -3385    -3387    -3352 
   -3294    -3240    -3184    -3163    -3219    -3312    -3397    -3487 
   -3585    -3661    -3697    -3716    -3738    -3727    -3622    -3422 
   -3184    -2945    -2743    -2628    -2613    -2663    -2762    -2932 
   -3149    -3341    -3488    -3619    -3726    -3774    -3771    -3758 
   -3730    -3651    -3537    -3426    -3314    -3167    -2988    -2833 
   -2731    -2674    -2656    -2695    -2801    -2938    -3075    -3221 
   -3384    -3532    -3640    -3719    -3777    -3800    -3773    -3705 
   -3616    -3523    -3422    -3299    -3159    -3036    -2957    -2917 
   -2889    -2889    -2953    -3057    -3164    -3289    -3429    -3527 
   -3557    -3534    -3472    -3389    -3311    -3238    -3150    -3046 
   -2965    -2955    -3005    -3064    -3115    -3173    -3250    -3318 
   -3358    -3383    -3404    -3438    -3468    -3460    -3429    -3400 
   -3353    -3262    -3153    -3088    -3092    -3140    -3215    -3316 
   -3403    -3431    -3411    -3375    -3311    -3210    -3098    -3011 
   -2964    -2975    -3042    -3132    -3214    -3299    -3392    -3476 
   -3520    -3523    -3508    -3499    -3484    -3460    -3438    -3435 
   -3465    -3526    -3581    -3596    -3573    -3535    -3507    -3469 
   -3396    -3306    -3237    -3196    -3172    -3148    -3122    -3099 
   -3071    -3051    -3088    -3177    -3273    -3366    -3464    -3528 
   -3531    -3472    -3358    -3213    -3076    -2991    -2975    -3018 
   -3103    -3198    -3250    -3240    -3213    -3203    -3195    -3187 
   -3208    -3250    -3273    -3264    -3242    -3225    -3210    -3188 
   -3180    -3199    -3215    -3204    -3172    -3150    -3172    -3221 
   -3245    -3230    -3222    -3271    -3333    -3327    -3275    -3258 
   -3295    -3345    -3379    -3380    -3334    -3253    -3167    -3098 
   -3051    -3036    -3052    -3100    -3167    -3217    -3253    -3315 
   -3408    -3507    -3597    -3659    -3678    -3666    -3636    -3612 
   -3599    -3577    -3543    -3503    -3446    -3364    -3262    -3172 
   -3129    -3140    -3176    -3208    -3214    -3180    -3121    -3080 
   -3071    -3071    -3068    -3069    -3075    -3072    -3052    -3028 
   -3038    -3111    -3223    -3333    -3406    -3439    -3445    -3419 
   -3375    -3349    -3353    -3358    -3338    -3295    -3240    -3154 
   -3060    -2999    -2974    -2964    -2970    -2991    -3036    -3086 
   -3121    -3175    -3288    -3426    -3532    -3601    -3628    -3599 
   -3527    -3437    -3341    -3254    -3190    -3148    -3119    -3087 
   -3065    -3088    -3149    -3217    -3279    -3350    -3453    -3577 
   -3684    -3744    -3735    -3655    -3530    -3397    -3276    -3175 
   -3105    -3063    -3040    -3007    -2964    -2956    -3007    -3096 
   -3210    -3348    -3493    -3605    -3642    -3622    -3607    -3611 
   -3585    -3530    -3483    -3422    -3319    -3198    -3091    -3021 
   -3007    -3051    -3127    -3211    -3276    -3310    -3307    -3238 
   -3100    -2951    -2853    -2826    -2867    -2959    -3073    -3198 
   -3338    -3470    -3570    -3635    -3665    -3674    -3694    -3731 
   -3739    -3686    -3599    -3510    -3389    -3200    -2979    -2805 
   -2697    -2627    -2604    -2651    -2766    -2913    -3057    -3203 
   -3368    -3531    -3663    -3747    -3766    -3726    -3659    -3591 
   -3499    -3368    -3234    -3149    -3113    -3069    -3022    -3033 
   -3109    -3206    -3318    -3446    -3555    -3607    -3592    -3534 
   -3466    -3408    -3368    -3345    -3314    -3242    -3136    -3018 
   -2920    -2880    -2918    -3011    -3134    -3272    -3416    -3550 
   -3654    -3726    -3769    -3798    -3846    -3893    -3882    -3798 
   -3672    -3541    -3395    -3226    -3061    -2916    -2789    -2701 
   -2681    -2724    -2801    -2913    -3087    -3281    -3411    -3461 
   -3473    -3453    -3400    -3345    -3308    -3307    -3338    -3372 
   -3392    -3395    -3381    -3349    -3280    -3172    -3060    -2972 
   -2909    -2871    -2859    -2864    -2871    -2872    -2886    -2926 
   -2994    -3078    -3175    -3268    -3310    -3287    -3231    -3172 
   -3110    -3048    -3001    -3011    -3100    -3238    -3373    -3505 
   -3650    -3765    -3785    -3701    -3555    -3399    -3248    -3091 
   -2955    -2879    -2871    -2914    -2984    -3056    -3123    -3198 
   -3291    -3407    -3530    -3631    -3699    -3735    -3728    -3676 
   -3595    -3481    -3342    -3213    -3103    -3003    -2932    -2911 
   -2928    -2968    -3051    -3173    -3307    -3422    -3507    -3562 
   -3576    -3534    -3478    -3476    -3512    -3535    -3545    -3554 
   -3555    -3524    -3450    -3354    -3260    -3164    -3083    -3048 
   -3069    -3127    -3198    -3264    -3321    -3354    -3365    -3365 
   -3362    -3358    -3350    -3349    -3383    -3422    -3392    -3289 
   -3177    -3080    -2988    -2918    -2911    -2970    -3059    -3157 
   -3241    -3289    -3287    -3241    -3183    -3125    -3059    -3007 
   -2992    -2988    -2984    -2998    -3021    -3053    -3132    -3245 
   -3349    -3431    -3501    -3543    -3535    -3480    -3403    -3316 
   -3219    -3114    -3019    -2975    -2998    -3071    -3173    -3276 
   -3353    -3403    -3430    -3437    -3427    -3397    -3366    -3356 
   -3352    -3316    -3242    -3156    -3100    -3100    -3142    -3200 
   -3289    -3423    -3558    -3634    -3640    -3603    -3539    -3481 
   -3442    -3406    -3370    -3342    -3310    -3261    -3198    -3141 
   -3130    -3154    -3180    -3221    -3280    -3326    -3314    -3253 
   -3211    -3222    -3249    -3262    -3279    -3300    -3311    -3310 
   -3319    -3346    -3373    -3395    -3411    -3411    -3387    -3368 
   -3369    -3365    -3345    -3330    -3321    -3285    -3219    -3142 
   -3076    -3018    -2970    -2953    -2970    -2997    -3019    -3038 
   -3061    -3106    -3190    -3306    -3420    -3511    -3569    -3601 
   -3612    -3613    -3613    -3599    -3532    -3402    -3240    -3072 
   -2911    -2775    -2681    -2646    -2671    -2728    -2790    -2868 
   -2986    -3130    -3268    -3397    -3532    -3661    -3755    -3805 
   -3804    -3750    -3677    -3600    -3520    -3456    -3424    -3406 
   -3375    -3330    -3299    -3289    -3292    -3291    -3272    -3231 
   -3179    -3125    -3065    -2978    -2894    -2868    -2897    -2941 
   -3001    -3110    -3276    -3454    -3593    -3700    -3800    -3881 
   -3909    -3879    -3798    -3684    -3573    -3495    -3435    -3364 
   -3264    -3141    -3013    -2913    -2857    -2855    -2910    -3034 
   -3215    -3385    -3481    -3514    -3534    -3550    -3532    -3472 
   -3375    -3264    -3164    -3082    -3017    -3002    -3059    -3163 
   -3275    -3360    -3397    -3383    -3330    -3269    -3203    -3140 
   -3125    -3179    -3271    -3350    -3389    -3387    -3343    -3271 
   -3184    -3100    -3038    -2991    -2948    -2911    -2890    -2890 
   -2920    -2979    -3079    -3225    -3380    -3507    -3615    -3699 
   -3726    -3694    -3647    -3586    -3510    -3439    -3381    -3312 
   -3237    -3171    -3109    -3052    -3029    -3055    -3091    -3072 
   -3005    -2951    -2934    -2933    -2930    -2961    -3059    -3191 
   -3311    -3410    -3491    -3549    -3564    -3523    -3450    -3388 
   -3345    -3296    -3253    -3268    -3346    -3420    -3439    -3419 
   -3395    -3384    -3389    -3412    -3442    -3445    -3400    -3319 
   -3210    -3084    -2959    -2863    -2818    -2810    -2830    -2890 
   -3007    -3169    -3354    -3547    -3727    -3855    -3919    -3923 
   -3877    -3788    -3657    -3485    -3308    -3198    -3187    -3218 
   -3215    -3194    -3213    -3267    -3316    -3350    -3368    -3362 
   -3323    -3269    -3227    -3183    -3123    -3075    -3060    -3076 
   -3103    -3110    -3117    -3164    -3241    -3308    -3357    -3408 
   -3472    -3530    -3574    -3592    -3564    -3497    -3419    -3343 
   -3273    -3213    -3181    -3176    -3173    -3157    -3137    -3127 
   -3130    -3138    -3157    -3188    -3221    -3235    -3230    -3208 
   -3175    -3160    -3190    -3244    -3273    -3267    -3246    -3233 
   -3221    -3204    -3207    -3252    -3321    -3379    -3410    -3427 
   -3437    -3426    -3391    -3335    -3281    -3242    -3221    -3203 
   -3181    -3192    -3268    -3383    -3491    -3570    -3632    -3705 
   -3782    -3824    -3815    -3788    -3742    -3640    -3489    -3329 
   -3180    -3042    -2925    -2845    -2805    -2798    -2808    -2820 
   -2848    -2918    -3026    -3129    -3207    -3288    -3381    -3462 
   -3526    -3585    -3624    -3618    -3562    -3469    -3334    -3171 
   -3017    -2906    -2837    -2793    -2778    -2793    -2821    -2859 
   -2925    -3037    -3192    -3362    -3522    -3636    -3676    -3651 
   -3605    -3569    -3531    -3469    -3400    -3364    -3357    -3346 
   -3300    -3233    -3179    -3146    -3132    -3126    -3115    -3100 
   -3092    -3090    -3092    -3107    -3150    -3229    -3319    -3399 
   -3461    -3503    -3528    -3542    -3543    -3530    -3493    -3437 
   -3372    -3314    -3264    -3208    -3159    -3144    -3187    -3275 
   -3373    -3462    -3526    -3538    -3493    -3426    -3361    -3294 
   -3227    -3190    -3177    -3171    -3183    -3225    -3277    -3323 
   -3375    -3433    -3468    -3456    -3416    -3348    -3237    -3113 
   -3022    -2984    -2994    -3022    -3053    -3092    -3127    -3144 
   -3144    -3140    -3141    -3153    -3203    -3311    -3430    -3507 
   -3537    -3535    -3527    -3520    -3481    -3396    -3292    -3180 
   -3067    -2964    -2893    -2856    -2853    -2886    -2943    -2990 
   -3036    -3132    -3287    -3446    -3555    -3615    -3649    -3653 
   -3600    -3481    -3329    -3188    -3065    -2961    -2886    -2845 
   -2851    -2902    -2974    -3041    -3091    -3118    -3146    -3192 
   -3227    -3258    -3319    -3396    -3446    -3462    -3466    -3468 
   -3458    -3431    -3381    -3322    -3261    -3195    -3142    -3145 
   -3218    -3310    -3373    -3414    -3458    -3511    -3531    -3480 
   -3372    -3245    -3122    -3011    -2921    -2866    -2857    -2886 
   -2947    -3028    -3086    -3119    -3159    -3206    -3268    -3352 
   -3437    -3501    -3527    -3507    -3462    -3408    -3343    -3277 
   -3225    -3184    -3149    -3127    -3117    -3113    -3117    -3141 
   -3190    -3234    -3235    -3208    -3191    -3173    -3154    -3118 
   -3025    -2889    -2786    -2748    -2747    -2760    -2820    -2959 
   -3148    -3334    -3503    -3663    -3794    -3850    -3815    -3744 
   -3682    -3631    -3593    -3562    -3534    -3510    -3454    -3362 
   -3289    -3254    -3219    -3172    -3121    -3069    -3029    -3018 
   -3055    -3145    -3262    -3364    -3433    -3453    -3397    -3277 
   -3149    -3033    -2934    -2901    -2961    -3076    -3198    -3318 
   -3449    -3578    -3665    -3686    -3666    -3632    -3593    -3545 
   -3500    -3472    -3429    -3334    -3207    -3102    -3045    -3032 
   -3055    -3118    -3215    -3289    -3287    -3237    -3207    -3180 
   -3133    -3109    -3136    -3198    -3273    -3345    -3410    -3446 
   -3422    -3356    -3306    -3285    -3276    -3254    -3206    -3159 
   -3159    -3200    -3238    -3233    -3190    -3161    -3165    -3173 
   -3191    -3256    -3396    -3585    -3740    -3788    -3721    -3612 
   -3524    -3481    -3477    -3503    -3549    -3604    -3634    -3581 
   -3414    -3172    -2949    -2822    -2820    -2938    -3122    -3292 
   -3406    -3443    -3404    -3315    -3231    -3223    -3333    -3522 
   -3703    -3807    -3838    -3821    -3726    -3534    -3311    -3149 
   -3099    -3136    -3167    -3122    -3021    -2925    -2851    -2802 
   -2806    -2871    -2963    -3056    -3153    -3257    -3342    -3393 
   -3403    -3362    -3299    -3252    -3208    -3136    -3045    -2991 
   -3003    -3063    -3165    -3314    -3474    -3577    -3561    -3416 
   -3208    -3052    -2984    -2938    -2876    -2853    -2906    -3006 
   -3121    -3230    -3312    -3352    -3360    -3357    -3341    -3291 
   -3213    -3137    -3099    -3140    -3257    -3381    -3447    -3449 
   -3406    -3337    -3258    -3186    -3160    -3211    -3287    -3312 
   -3300    -3296    -3285    -3233    -3129    -3022    -3001    -3099 
   -3257    -3410    -3545    -3669    -3765    -3797    -3744    -3619 
   -3491    -3392    -3295    -3215    -3213    -3287    -3345    -3283 
   -3122    -2998    -2957    -2953    -2990    -3069    -3138    -3195 
   -3279    -3356    -3368    -3315    -3258    -3265    -3319    -3353 
   -3352    -3342    -3338    -3303    -3192    -3041    -2976    -3041 
   -3150    -3244    -3342    -3442    -3464    -3356    -3188    -3087 
   -3098    -3187    -3283    -3362    -3439    -3496    -3491    -3397 
   -3222    -3007    -2828    -2725    -2681    -2682    -2766    -2967 
   -3283    -3657    -3954    -4079    -4064    -3974    -3812    -3551 
   -3238    -3029    -3026    -3145    -3238    -3252    -3214    -3179 
   -3153    -3096    -3024    -3063    -3281    -3569    -3784    -3897 
   -3967    -3991    -3889    -3654    -3399    -3187    -3013    -2887 
   -2828    -2841    -2918    -2999    -3030    -3019    -3032    -3110 
   -3237    -3370    -3531    -3762    -4040    -4282    -4410    -4375 
   -4156    -3769    -3289    -2839    -2505    -2313    -2261    -2323 
   -2457    -2633    -2832    -3001    -3111    -3181    -3225    -3271 
   -3337    -3397    -3431    -3465    -3488    -3458    -3362    -3198 
   -2980    -2781    -2666    -2656    -2724    -2852    -3056    -3298 
   -3489    -3570    -3561    -3550    -3613    -3738    -3852    -3921 
   -3932    -3873    -3720    -3474    -3190    -2948    -2793    -2729 
   -2755    -2853    -2995    -3141    -3248    -3284    -3285    -3318 
   -3396    -3501    -3618    -3713    -3751    -3701    -3514    -3219 
   -2974    -2880    -2903    -2959    -3010    -3083    -3199    -3306 
   -3356    -3370    -3393    -3429    -3443    -3422    -3373    -3288 
   -3173    -3063    -2970    -2901    -2874    -2894    -2990    -3172 
   -3385    -3550    -3626    -3620    -3581    -3523    -3410    -3260 
   -3149    -3091    -3073    -3132    -3260    -3373    -3418    -3453 
   -3553    -3661    -3663    -3558    -3429    -3318    -3240    -3215 
   -3226    -3221    -3192    -3164    -3137    -3136    -3192    -3257 
   -3226    -3083    -2959    -2974    -3106    -3250    -3369    -3518 
   -3686    -3758    -3689    -3543    -3420    -3384    -3402    -3400 
   -3373    -3329    -3273    -3214    -3133    -3003    -2848    -2724 
   -2687    -2736    -2812    -2872    -2936    -3038    -3173    -3292 
   -3357    -3358    -3314    -3289    -3322    -3393    -3500    -3643 
   -3794    -3909    -3917    -3770    -3511    -3226    -2945    -2713 
   -2631    -2735    -2936    -3132    -3295    -3396    -3379    -3238 
   -3060    -2936    -2890    -2891    -2929    -3015    -3142    -3296 
   -3434    -3499    -3472    -3391    -3316    -3268    -3181    -3038 
   -2961    -3053    -3265    -3480    -3620    -3632    -3516    -3316 
   -3099    -2951    -2903    -2934    -3060    -3279    -3497    -3638 
   -3704    -3734    -3731    -3666    -3568    -3499    -3430    -3304 
   -3163    -3071    -3021    -2968    -2937    -3017    -3217    -3396 
   -3404    -3257    -3096    -3019    -3038    -3125    -3235    -3345 
   -3420    -3439    -3396    -3294    -3132    -2994    -2992    -3119 
   -3268    -3348    -3343    -3303    -3268    -3244    -3254    -3333 
   -3422    -3435    -3408    -3384    -3273    -3029    -2778    -2663 
   -2691    -2803    -2959    -3160    -3400    -3607    -3701    -3693 
   -3631    -3522    -3345    -3123    -2930    -2833    -2851    -2945 
   -3044    -3095    -3096    -3046    -2991    -3036    -3235    -3504 
   -3720    -3852    -3909    -3856    -3624    -3283    -3075    -3114 
   -3250    -3373    -3528    -3731    -3870    -3829    -3626    -3385 
   -3208    -3103    -3063    -3071    -3040    -2922    -2806    -2829 
   -2992    -3186    -3393    -3686    -3998    -4158    -4083    -3855 
   -3607    -3402    -3184    -2901    -2633    -2529    -2582    -2652 
   -2709    -2832    -3048    -3306    -3526    -3627    -3604    -3535 
   -3469    -3418    -3387    -3337    -3248    -3183    -3163    -3123 
   -3048    -2970    -2944    -3045    -3256    -3462    -3574    -3618 
   -3686    -3794    -3823    -3721    -3593    -3524    -3515    -3503 
   -3433    -3349    -3314    -3276    -3152    -2933    -2701    -2570 
   -2559    -2583    -2662    -2879    -3195    -3480    -3669    -3781 
   -3824    -3774    -3620    -3415    -3245    -3184    -3249    -3419 
   -3642    -3782    -3769    -3697    -3612    -3412    -3096    -2797 
   -2643    -2686    -2852    -2999    -3067    -3069    -2992    -2852 
   -2713    -2621    -2628    -2790    -3106    -3514    -3937    -4271 
   -4407    -4329    -4129    -3909    -3682    -3424    -3184    -3024 
   -2895    -2716    -2502    -2367    -2392    -2586    -2903    -3237 
   -3491    -3619    -3624    -3578    -3559    -3541    -3480    -3406 
   -3327    -3230    -3144    -3102    -3113    -3163    -3214    -3246 
   -3221    -3068    -2845    -2714    -2731    -2857    -3118    -3512 
   -3913    -4167    -4229    -4124    -3912    -3700    -3542    -3391 
   -3231    -3144    -3175    -3241    -3227    -3115    -2978    -2868 
   -2790    -2741    -2739    -2794    -2887    -2988    -3075    -3115 
   -3122    -3167    -3249    -3349    -3527    -3774    -3951    -4018 
   -4052    -4039    -3900    -3689    -3542    -3510    -3545    -3554 
   -3476    -3318    -3122    -2907    -2671    -2443    -2289    -2269 
   -2423    -2718    -3033    -3306    -3599    -3943    -4233    -4352 
   -4279    -4074    -3786    -3443    -3140    -2978    -2951    -3001 
   -3065    -3087    -3072    -3015    -2880    -2740    -2700    -2748 
   -2855    -3021    -3245    -3499    -3694    -3746    -3685    -3604 
   -3528    -3419    -3252    -3063    -2914    -2836    -2848    -2970 
   -3125    -3181    -3133    -3102    -3127    -3153    -3154    -3184 
   -3296    -3470    -3601    -3620    -3586    -3578    -3576    -3487 
   -3308    -3159    -3126    -3165    -3206    -3246    -3323    -3438 
   -3553    -3628    -3653    -3608    -3501    -3385    -3311    -3257 
   -3180    -3102    -3068    -3052    -3002    -2918    -2849    -2867 
   -2984    -3129    -3257    -3403    -3574    -3721    -3735    -3559 
   -3322    -3199    -3198    -3215    -3188    -3145    -3122    -3069 
   -2924    -2714    -2547    -2532    -2695    -2961    -3244    -3507 
   -3711    -3809    -3794    -3692    -3547    -3423    -3360    -3381 
   -3488    -3601    -3632    -3595    -3501    -3312    -3087    -2949 
   -2909    -2932    -3053    -3284    -3522    -3678    -3770    -3827 
   -3844    -3813    -3697    -3511    -3346    -3226    -3107    -3041 
   -3107    -3283    -3478    -3640    -3742    -3732    -3566    -3284 
   -3006    -2828    -2751    -2755    -2851    -3028    -3217    -3330 
