Origin Time       2025/01/13 21:19:00
Lat.              31.8
Long.             131.6
Depth. (km)       30
Mag.              6.9
Station Code      TKSH04
Station Lat.      33.9902
Station Long.     134.5337
Station Height(m) 10
Record Time       2025/01/13 21:21:06
Sampling Freq(Hz) 100Hz
Duration Time(s)  120
Dir.              6
Scale Factor      7845(gal)/8223790
Max. Acc. (gal)   0.376
Last Correction   2025/01/13 21:21:07
Memo.             
[...]
   -1598    -1606    -1606    -1590    -1568    -1555    -1544    -1528 
   -1526    -1548    -1566    -1568    -1571    -1563    -1541    -1529 
   -1526    -1517    -1512    -1529    -1557    -1572    -1561    -1543 
   -1536    -1539    -1532    -1510    -1501    -1517    -1551    -1584 
   -1595    -1583    -1568    -1556    -1534    -1521    -1534    -1556 
   -1566    -1564    -1572    -1583    -1570    -1534    -1510    -1514 
   -1533    -1548    -1551    -1548    -1547    -1547    -1540    -1532 
   -1544    -1575    -1594    -1594    -1595    -1605    -1610    -1601 
   -1575    -1551    -1539    -1545    -1564    -1575    -1570    -1556 
   -1545    -1547    -1566    -1597    -1625    -1644    -1651    -1644 
   -1634    -1632    -1620    -1597    -1579    -1570    -1553    -1547 
   -1563    -1579    -1568    -1547    -1532    -1529    -1543    -1557 
   -1556    -1559    -1572    -1583    -1593    -1594    -1578    -1563 
   -1570    -1584    -1594    -1601    -1601    -1601    -1617    -1632 
   -1620    -1598    -1593    -1598    -1594    -1586    -1587    -1597 
   -1598    -1586    -1582    -1588    -1602    -1620    -1640    -1641 
   -1624    -1607    -1599    -1595    -1590    -1579    -1567    -1553 
   -1549    -1552    -1548    -1539    -1533    -1530    -1529    -1536 
   -1540    -1545    -1556    -1564    -1566    -1567    -1570    -1571 
   -1579    -1590    -1588    -1576    -1561    -1551    -1552    -1567 
   -1574    -1559    -1545    -1552    -1570    -1579    -1568    -1549 
   -1540    -1543    -1548    -1548    -1541    -1533    -1517    -1497 
   -1486    -1498    -1533    -1560    -1547    -1516    -1507    -1533 
   -1572    -1593    -1586    -1563    -1548    -1552    -1564    -1570 
   -1572    -1579    -1590    -1605    -1618    -1621    -1599    -1568 
   -1563    -1588    -1614    -1609    -1587    -1575    -1582    -1595 
   -1602    -1602    -1624    -1651    -1651    -1636    -1630    -1626 
   -1621    -1614    -1610    -1610    -1613    -1613    -1607    -1601 
   -1602    -1614    -1624    -1613    -1588    -1576    -1582    -1579 
   -1559    -1557    -1588    -1617    -1615    -1601    -1593    -1583 
   -1568    -1556    -1555    -1557    -1557    -1553    -1553    -1552 
   -1551    -1545    -1532    -1521    -1525    -1525    -1513    -1513 
   -1532    -1548    -1555    -1571    -1586    -1579    -1570    -1586 
   -1614    -1618    -1597    -1580    -1583    -1599    -1602    -1582 
   -1564    -1557    -1553    -1563    -1582    -1588    -1587    -1597 
   -1606    -1605    -1598    -1594    -1603    -1625    -1630    -1602 
   -1572    -1582    -1611    -1610    -1571    -1540    -1540    -1549 
   -1543    -1522    -1502    -1498    -1514    -1532    -1539    -1536 
   -1530    -1534    -1539    -1533    -1529    -1541    -1567    -1588 
   -1588    -1570    -1553    -1557    -1587    -1621    -1624    -1598 
   -1588    -1605    -1610    -1588    -1559    -1549    -1563    -1584 
   -1602    -1606    -1583    -1547    -1530    -1533    -1530    -1521 
   -1506    -1489    -1494    -1532    -1556    -1537    -1516    -1525 
   -1549    -1567    -1571    -1570    -1567    -1564    -1564    -1564 
   -1570    -1583    -1594    -1591    -1590    -1594    -1599    -1598 
   -1588    -1571    -1559    -1561    -1564    -1555    -1537    -1522 
   -1510    -1517    -1540    -1555    -1563    -1582    -1594    -1594 
   -1603    -1610    -1594    -1566    -1549    -1553    -1564    -1570 
   -1568    -1557    -1556    -1572    -1583    -1563    -1537    -1525 
   -1516    -1505    -1512    -1533    -1553    -1564    -1553    -1536 
   -1539    -1563    -1575    -1563    -1547    -1559    -1588    -1601 
   -1578    -1540    -1516    -1521    -1541    -1560    -1572    -1582 
   -1583    -1575    -1571    -1572    -1566    -1564    -1584    -1607 
   -1617    -1614    -1613    -1621    -1628    -1622    -1605    -1576 
   -1555    -1561    -1597    -1636    -1647    -1617    -1582    -1580 
   -1603    -1621    -1630    -1629    -1611    -1607    -1633    -1652 
   -1647    -1636    -1632    -1622    -1605    -1579    -1560    -1567 
   -1590    -1594    -1578    -1563    -1555    -1543    -1539    -1549 
   -1567    -1576    -1579    -1587    -1594    -1580    -1559    -1560 
   -1574    -1574    -1563    -1553    -1552    -1561    -1564    -1541 
   -1510    -1493    -1483    -1480    -1495    -1522    -1540    -1541 
   -1540    -1552    -1567    -1551    -1514    -1501    -1518    -1534 
   -1533    -1522    -1517    -1512    -1497    -1475    -1470    -1486 
   -1505    -1532    -1570    -1588    -1579    -1561    -1553    -1567 
   -1587    -1593    -1580    -1571    -1578    -1586    -1586    -1595 
   -1613    -1621    -1628    -1644    -1652    -1644    -1641    -1644 
   -1644    -1653    -1671    -1679    -1690    -1707    -1706    -1680 
   -1660    -1653    -1656    -1661    -1661    -1656    -1645    -1636 
   -1640    -1648    -1645    -1626    -1598    -1583    -1584    -1582 
   -1571    -1560    -1553    -1548    -1548    -1557    -1570    -1584 
   -1593    -1583    -1556    -1526    -1516    -1530    -1534    -1514 
   -1499    -1510    -1521    -1517    -1506    -1497    -1498    -1516 
   -1528    -1522    -1516    -1517    -1513    -1501    -1485    -1479 
   -1497    -1526    -1541    -1549    -1566    -1575    -1566    -1552 
   -1553    -1578    -1594    -1586    -1576    -1582    -1587    -1574 
   -1555    -1556    -1572    -1580    -1580    -1578    -1572    -1574 
   -1583    -1595    -1601    -1594    -1582    -1584    -1601    -1620 
   -1632    -1626    -1598    -1567    -1566    -1593    -1615    -1618 
   -1603    -1576    -1560    -1567    -1559    -1518    -1499    -1532 
   -1566    -1560    -1536    -1524    -1529    -1543    -1560    -1576 
   -1583    -1576    -1572    -1580    -1594    -1609    -1625    -1628 
   -1614    -1601    -1575    -1539    -1510    -1499    -1495    -1499 
   -1514    -1533    -1533    -1520    -1524    -1551    -1576    -1583 
   -1580    -1594    -1628    -1649    -1640    -1629    -1649    -1682 
   -1674    -1634    -1624    -1637    -1638    -1626    -1611    -1603 
   -1610    -1613    -1587    -1551    -1544    -1567    -1597    -1626 
   -1641    -1628    -1611    -1614    -1613    -1606    -1607    -1607 
   -1599    -1607    -1622    -1610    -1578    -1553    -1540    -1524 
   -1521    -1539    -1532    -1495    -1478    -1485    -1482    -1476 
   -1493    -1518    -1540    -1555    -1566    -1572    -1580    -1587 
   -1588    -1572    -1545    -1534    -1549    -1575    -1586    -1571 
   -1537    -1510    -1518    -1556    -1571    -1556    -1555    -1575 
   -1586    -1576    -1583    -1628    -1671    -1686    -1688    -1695 
   -1699    -1688    -1647    -1598    -1578    -1574    -1559    -1541 
   -1537    -1549    -1561    -1544    -1516    -1518    -1537    -1548 
   -1560    -1567    -1544    -1514    -1514    -1544    -1570    -1575 
   -1567    -1557    -1552    -1556    -1570    -1574    -1560    -1545 
   -1545    -1543    -1528    -1509    -1502    -1506    -1516    -1521 
   -1518    -1510    -1503    -1509    -1529    -1553    -1575    -1593 
   -1594    -1574    -1559    -1564    -1568    -1566    -1564    -1561 
   -1556    -1559    -1561    -1555    -1544    -1534    -1529    -1530 
   -1522    -1503    -1498    -1510    -1516    -1517    -1540    -1575 
   -1580    -1557    -1541    -1526    -1518    -1543    -1583    -1602 
   -1579    -1544    -1540    -1567    -1587    -1586    -1574    -1566 
   -1568    -1574    -1582    -1603    -1632    -1648    -1649    -1653 
   -1661    -1651    -1615    -1590    -1594    -1618    -1636    -1633 
   -1620    -1606    -1598    -1583    -1552    -1530    -1555    -1609 
   -1637    -1620    -1593    -1591    -1598    -1602    -1609    -1603 
   -1595    -1603    -1605    -1587    -1574    -1568    -1561    -1560 
   -1561    -1559    -1545    -1537    -1549    -1566    -1567    -1559 
   -1551    -1541    -1529    -1526    -1537    -1556    -1561    -1553 
   -1544    -1543    -1540    -1529    -1524    -1532    -1552    -1584 
   -1613    -1625    -1634    -1651    -1655    -1640    -1636    -1657 
   -1667    -1655    -1647    -1661    -1688    -1699    -1688    -1678 
   -1668    -1665    -1676    -1674    -1648    -1626    -1633    -1671 
   -1711    -1714    -1690    -1675    -1663    -1642    -1628    -1620 
   -1609    -1605    -1613    -1618    -1626    -1645    -1657    -1663 
   -1668    -1678    -1698    -1713    -1692    -1663    -1655    -1657 
   -1655    -1647    -1629    -1605    -1568    -1533    -1525    -1537 
   -1553    -1575    -1602    -1628    -1647    -1633    -1594    -1575 
   -1595    -1610    -1599    -1594    -1601    -1593    -1574    -1564 
   -1553    -1529    -1505    -1503    -1526    -1534    -1503    -1464 
   -1463    -1491    -1502    -1483    -1471    -1485    -1501    -1501 
   -1495    -1502    -1521    -1524    -1503    -1489    -1485    -1474 
   -1474    -1502    -1516    -1497    -1486    -1517    -1568    -1591 
   -1549    -1483    -1480    -1547    -1593    -1559    -1489    -1459 
   -1474    -1491    -1505    -1533    -1563    -1572    -1571    -1583 
   -1624    -1657    -1649    -1611    -1584    -1584    -1588    -1576 
   -1560    -1559    -1555    -1529    -1502    -1499    -1524    -1559 
   -1587    -1615    -1644    -1638    -1578    -1507    -1486    -1507 
   -1532    -1539    -1537    -1540    -1552    -1559    -1544    -1525 
   -1544    -1597    -1634    -1632    -1599    -1555    -1507    -1482 
   -1493    -1520    -1553    -1597    -1618    -1601    -1567    -1545 
   -1534    -1522    -1501    -1502    -1541    -1576    -1575    -1549 
   -1524    -1507    -1490    -1470    -1462    -1475    -1507    -1548 
   -1590    -1615    -1617    -1603    -1578    -1556    -1553    -1545 
   -1533    -1548    -1576    -1580    -1567    -1557    -1556    -1563 
   -1597    -1648    -1680    -1701    -1711    -1678    -1607    -1545 
   -1509    -1512    -1548    -1574    -1561    -1539    -1540    -1551 
   -1530    -1491    -1499    -1561    -1615    -1624    -1611    -1607 
   -1610    -1621    -1625    -1587    -1505    -1433    -1398    -1389 
   -1410    -1452    -1482    -1499    -1533    -1588    -1642    -1672 
   -1694    -1718    -1730    -1721    -1694    -1640    -1580    -1559 
   -1578    -1618    -1671    -1699    -1659    -1563    -1497    -1524 
   -1628    -1730    -1773    -1740    -1656    -1587    -1553    -1507 
   -1437    -1395    -1433    -1529    -1601    -1607    -1578    -1559 
   -1586    -1636    -1655    -1642    -1657    -1722    -1795    -1813 
   -1744    -1615    -1499    -1429    -1397    -1391    -1395    -1406 
   -1433    -1475    -1498    -1506    -1533    -1571    -1613    -1699 
   -1803    -1815    -1713    -1607    -1570    -1571    -1578    -1567 
   -1526    -1501    -1516    -1529    -1524    -1522    -1522    -1526 
   -1567    -1632    -1671    -1665    -1625    -1559    -1501    -1472 
   -1452    -1425    -1433    -1485    -1541    -1588    -1609    -1580 
   -1544    -1557    -1611    -1665    -1706    -1729    -1746    -1759 
   -1736    -1665    -1599    -1570    -1547    -1540    -1567    -1605 
   -1625    -1629    -1606    -1559    -1536    -1566    -1615    -1645 
   -1652    -1657    -1678    -1703    -1698    -1641    -1571    -1556 
   -1590    -1613    -1617    -1622    -1609    -1566    -1516    -1472 
   -1436    -1428    -1452    -1487    -1517    -1529    -1525    -1536 
   -1570    -1610    -1642    -1652    -1636    -1621    -1621    -1617 
   -1597    -1552    -1487    -1439    -1433    -1440    -1428    -1412 
   -1420    -1441    -1451    -1456    -1471    -1486    -1506    -1556 
   -1620    -1645    -1633    -1611    -1595    -1602    -1633    -1660 
   -1663    -1651    -1632    -1605    -1572    -1571    -1615    -1684 
   -1725    -1690    -1609    -1545    -1507    -1480    -1459    -1447 
   -1487    -1597    -1705    -1734    -1680    -1575    -1453    -1366 
   -1344    -1391    -1475    -1560    -1629    -1665    -1630    -1514 
   -1390    -1344    -1401    -1517    -1633    -1699    -1703    -1659 
   -1587    -1516    -1468    -1476    -1521    -1545    -1549    -1568 
   -1579    -1560    -1529    -1507    -1503    -1529    -1582    -1621 
   -1610    -1556    -1517    -1543    -1599    -1620    -1618    -1649 
   -1711    -1756    -1738    -1676    -1609    -1560    -1543    -1544 
   -1555    -1579    -1614    -1624    -1588    -1522    -1463    -1443 
   -1462    -1495    -1521    -1539    -1578    -1663    -1760    -1798 
   -1763    -1713    -1665    -1588    -1497    -1444    -1441    -1449 
   -1440    -1410    -1386    -1425    -1540    -1649    -1702    -1732 
   -1745    -1699    -1611    -1551    -1543    -1575    -1611    -1607 
   -1568    -1520    -1462    -1405    -1385    -1416    -1482    -1563 
   -1652    -1746    -1822    -1837    -1787    -1725    -1682    -1625 
   -1537    -1470    -1460    -1471    -1443    -1379    -1328    -1343 
   -1443    -1555    -1582    -1536    -1516    -1572    -1656    -1707 
   -1714    -1703    -1709    -1721    -1706    -1656    -1568    -1471 
   -1431    -1460    -1497    -1524    -1571    -1625    -1642    -1601 
   -1524    -1462    -1437    -1447    -1482    -1548    -1634    -1691 
   -1679    -1633    -1597    -1567    -1559    -1587    -1626    -1660 
   -1692    -1684    -1610    -1513    -1436    -1383    -1381    -1466 
   -1614    -1776    -1911    -1968    -1919    -1813    -1710    -1638 
   -1611    -1633    -1674    -1691    -1674    -1649    -1645    -1645 
   -1605    -1520    -1458    -1483    -1568    -1642    -1669    -1645 
   -1588    -1559    -1579    -1588    -1543    -1480    -1452    -1467 
   -1512    -1559    -1598    -1645    -1678    -1652    -1588    -1544 
   -1521    -1489    -1443    -1439    -1513    -1603    -1630    -1605 
   -1580    -1567    -1530    -1463    -1413    -1449    -1582    -1703 
   -1726    -1710    -1698    -1640    -1540    -1459    -1432    -1456 
   -1505    -1555    -1570    -1543    -1529    -1568    -1615    -1633 
   -1642    -1671    -1705    -1696    -1629    -1559    -1536    -1557 
   -1595    -1610    -1567    -1485    -1439    -1448    -1470    -1501 
   -1549    -1597    -1641    -1688    -1698    -1644    -1570    -1545 
   -1574    -1607    -1624    -1637    -1656    -1660    -1649    -1648 
   -1648    -1624    -1579    -1530    -1472    -1440    -1479    -1533 
   -1530    -1494    -1459    -1401    -1341    -1329    -1352    -1394 
   -1478    -1602    -1710    -1736    -1665    -1545    -1459    -1460 
   -1510    -1545    -1568    -1610    -1645    -1618    -1530    -1439 
   -1406    -1444    -1507    -1560    -1595    -1601    -1578    -1557 
   -1575    -1642    -1717    -1734    -1684    -1606    -1540    -1501 
   -1510    -1556    -1601    -1634    -1696    -1763    -1752    -1640 
   -1487    -1379    -1378    -1478    -1621    -1753    -1829    -1810 
   -1705    -1572    -1460    -1391    -1412    -1517    -1618    -1661 
   -1671    -1656    -1602    -1536    -1497    -1483    -1485    -1516 
   -1549    -1540    -1517    -1516    -1509    -1482    -1472    -1495 
   -1520    -1512    -1486    -1479    -1509    -1557    -1597    -1626 
   -1657    -1688    -1717    -1728    -1705    -1659    -1611    -1578 
   -1579    -1607    -1613    -1580    -1563    -1576    -1574    -1537 
   -1510    -1528    -1590    -1668    -1723    -1722    -1695    -1707 
   -1728    -1688    -1629    -1603    -1586    -1561    -1564    -1602 
   -1637    -1647    -1634    -1595    -1547    -1510    -1493    -1517 
   -1591    -1667    -1683    -1622    -1516    -1433    -1418    -1443 
   -1476    -1528    -1576    -1594    -1588    -1587    -1586    -1578 
   -1570    -1566    -1575    -1611    -1663    -1682    -1645    -1570 
   -1491    -1439    -1420    -1432    -1476    -1541    -1606    -1647 
   -1657    -1665    -1671    -1653    -1611    -1584    -1606    -1651 
   -1687    -1706    -1686    -1636    -1603    -1587    -1552    -1526 
   -1545    -1594    -1638    -1675    -1703    -1721    -1711    -1657 
   -1576    -1498    -1432    -1391    -1408    -1474    -1533    -1545 
   -1506    -1444    -1389    -1360    -1370    -1390    -1383    -1374 
   -1410    -1487    -1547    -1574    -1607    -1674    -1740    -1749 
   -1683    -1594    -1540    -1532    -1549    -1580    -1628    -1680 
   -1699    -1668    -1603    -1518    -1420    -1370    -1431    -1551 
   -1633    -1651    -1637    -1618    -1587    -1530    -1466    -1445 
   -1494    -1559    -1587    -1605    -1636    -1653    -1640    -1618 
   -1610    -1614    -1633    -1667    -1683    -1674    -1668    -1667 
   -1655    -1638    -1625    -1621    -1637    -1649    -1625    -1578 
   -1539    -1522    -1532    -1553    -1582    -1605    -1611    -1605 
   -1598    -1588    -1575    -1567    -1563    -1551    -1524    -1493 
   -1462    -1443    -1459    -1506    -1556    -1593    -1611    -1606 
   -1580    -1566    -1570    -1572    -1561    -1548    -1549    -1578 
   -1603    -1590    -1561    -1564    -1590    -1593    -1561    -1532 
   -1529    -1552    -1584    -1602    -1598    -1574    -1548    -1536 
   -1521    -1491    -1474    -1490    -1521    -1537    -1520    -1478 
   -1432    -1405    -1412    -1440    -1471    -1503    -1555    -1603 
   -1605    -1568    -1544    -1560    -1598    -1625    -1634    -1640 
   -1626    -1582    -1549    -1551    -1549    -1521    -1483    -1472 
   -1510    -1572    -1614    -1629    -1637    -1625    -1580    -1534 
   -1503    -1483    -1483    -1513    -1555    -1579    -1567    -1521 
   -1466    -1433    -1447    -1497    -1556    -1609    -1652    -1684 
   -1680    -1625    -1553    -1512    -1502    -1514    -1549    -1580 
   -1588    -1591    -1586    -1561    -1526    -1494    -1479    -1497 
   -1548    -1610    -1648    -1655    -1651    -1636    -1606    -1578 
   -1547    -1513    -1498    -1516    -1545    -1567    -1580    -1588 
   -1583    -1570    -1545    -1514    -1498    -1521    -1567    -1609 
   -1656    -1692    -1688    -1663    -1655    -1667    -1684    -1692 
   -1667    -1601    -1536    -1516    -1524    -1540    -1564    -1583 
   -1580    -1566    -1553    -1549    -1563    -1597    -1624    -1633 
   -1647    -1659    -1655    -1634    -1611    -1588    -1559    -1529 
   -1498    -1468    -1464    -1493    -1528    -1548    -1560    -1570 
   -1575    -1576    -1579    -1578    -1582    -1607    -1634    -1637 
   -1630    -1641    -1656    -1656    -1630    -1583    -1533    -1528 
   -1563    -1591    -1588    -1576    -1580    -1609    -1642    -1642 
   -1602    -1566    -1560    -1587    -1628    -1659    -1667    -1651 
   -1626    -1617    -1620    -1610    -1594    -1590    -1599    -1613 
   -1624    -1618    -1591    -1560    -1525    -1494    -1498    -1543 
   -1587    -1605    -1601    -1583    -1566    -1566    -1586    -1590 
   -1556    -1507    -1474    -1482    -1534    -1575    -1566    -1539 
   -1534    -1557    -1606    -1664    -1686    -1675    -1671    -1682 
   -1680    -1649    -1618    -1602    -1593    -1590    -1606    -1632 
   -1644    -1626    -1591    -1563    -1559    -1574    -1591    -1594 
   -1586    -1594    -1613    -1618    -1611    -1605    -1597    -1605 
