Origin Time       2025/01/13 21:19:00
Lat.              31.8
Long.             131.6
Depth. (km)       30
Mag.              6.9
Station Code      TKSH03
Station Lat.      33.8778
Station Long.     134.1294
Station Height(m) 439
Record Time       2025/01/13 21:20:46
Sampling Freq(Hz) 100Hz
Duration Time(s)  120
Dir.              3
Scale Factor      2942(gal)/8224139
Max. Acc. (gal)   0.582
Last Correction   2025/01/13 21:20:47
Memo.             
[...]
   21733    21764    21799    21826    21852    21883    21913    21933 
   21951    21976    21991    21987    21996    22040    22088    22100 
   22088    22103    22131    22148    22169    22189    22184    22167 
   22149    22119    22090    22071    22056    22044    22029    22014 
   21999    21965    21915    21875    21843    21805    21768    21736 
   21706    21672    21631    21597    21590    21595    21593    21577 
   21552    21539    21541    21546    21550    21570    21586    21593 
   21608    21613    21600    21590    21594    21609    21635    21666 
   21693    21717    21744    21763    21762    21755    21755    21766 
   21778    21783    21776    21768    21789    21845    21910    21965 
   21999    22013    22019    22025    22026    22018    22009    22018 
   22023    22013    22011    22011    21986    21956    21941    21928 
   21911    21897    21878    21859    21843    21820    21799    21782 
   21771    21783    21797    21794    21797    21797    21802    21833 
   21865    21880    21894    21906    21901    21887    21886    21886 
   21867    21849    21857    21872    21875    21882    21902    21921 
   21924    21913    21888    21853    21837    21822    21787    21752 
   21722    21689    21678    21675    21649    21628    21608    21575 
   21550    21528    21496    21474    21474    21489    21514    21554 
   21587    21591    21579    21571    21571    21575    21586    21598 
   21616    21647    21681    21717    21767    21824    21867    21901 
   21934    21965    21987    22007    22021    22033    22054    22077 
   22100    22114    22119    22127    22135    22134    22123    22110 
   22114    22121    22107    22096    22117    22140    22137    22129 
   22123    22108    22096    22099    22077    22034    22010    21988 
   21948    21915    21892    21871    21857    21849    21847    21834 
   21809    21790    21764    21728    21720    21726    21710    21687 
   21674    21658    21645    21631    21616    21616    21616    21598 
   21585    21583    21578    21568    21581    21606    21614    21605 
   21595    21574    21558    21562    21552    21527    21512    21505 
   21509    21516    21512    21516    21536    21558    21577    21586 
   21591    21597    21593    21583    21585    21593    21604    21627 
   21652    21675    21705    21732    21749    21766    21770    21759 
   21759    21767    21753    21726    21724    21736    21735    21729 
   21736    21736    21726    21722    21726    21728    21726    21733 
   21747    21766    21776    21772    21772    21767    21757    21767 
   21783    21798    21811    21807    21799    21793    21783    21779 
   21789    21810    21828    21834    21843    21857    21883    21918 
   21948    21965    21983    22010    22034    22048    22064    22088 
   22103    22099    22092    22075    22042    22010    21979    21948 
   21929    21910    21880    21853    21826    21783    21736    21686 
   21629    21573    21528    21490    21454    21423    21404    21392 
   21373    21350    21344    21350    21354    21365    21386    21409 
   21438    21470    21500    21529    21554    21571    21591    21622 
   21671    21722    21751    21770    21787    21791    21802    21811 
   21798    21776    21763    21756    21759    21756    21745    21726 
   21708    21694    21690    21686    21668    21640    21614    21598 
   21591    21590    21586    21583    21591    21614    21637    21651 
   21663    21679    21691    21701    21714    21739    21759    21763 
   21757    21753    21751    21739    21718    21713    21722    21737 
   21749    21752    21747    21741    21735    21720    21714    21725 
   21735    21743    21757    21762    21740    21710    21694    21695 
   21702    21697    21689    21691    21693    21678    21664    21656 
   21640    21629    21618    21604    21598    21593    21581    21581 
   21582    21555    21528    21524    21527    21541    21573    21600 
   21621    21647    21664    21681    21699    21718    21735    21753 
   21782    21825    21860    21880    21902    21921    21929    21936 
   21936    21918    21906    21915    21921    21914    21915    21905 
   21878    21859    21855    21853    21852    21848    21847    21851 
   21844    21832    21830    21828    21807    21789    21786    21790 
   21795    21806    21814    21802    21784    21774    21762    21744 
   21724    21718    21740    21767    21768    21762    21764    21760 
   21740    21722    21701    21671    21658    21666    21672    21683 
   21713    21735    21732    21728    21725    21714    21701    21690 
   21682    21679    21681    21681    21676    21664    21651    21647 
   21640    21629    21620    21612    21613    21617    21617    21612 
   21605    21602    21600    21594    21600    21598    21586    21583 
   21579    21574    21567    21552    21544    21552    21568    21582 
   21581    21575    21566    21558    21574    21610    21637    21652 
   21667    21670    21656    21649    21651    21648    21644    21632 
   21622    21620    21617    21620    21636    21659    21694    21732 
   21762    21784    21802    21818    21830    21841    21857    21874 
   21890    21910    21936    21976    22017    22045    22071    22088 
   22099    22111    22118    22119    22138    22175    22203    22215 
   22218    22229    22245    22261    22280    22306    22331    22351 
   22358    22362    22377    22388    22381    22364    22338    22299 
   22250    22208    22172    22130    22090    22053    22000    21933 
   21861    21787    21726    21689    21655    21624    21600    21577 
   21556    21548    21543    21527    21502    21465    21429    21420 
   21417    21396    21369    21363    21375    21384    21389    21408 
   21425    21431    21433    21443    21459    21471    21463    21456 
   21460    21465    21469    21477    21478    21474    21473    21474 
   21479    21477    21465    21452    21440    21429    21428    21425 
   21413    21394    21385    21389    21400    21423    21456    21478 
   21494    21524    21556    21577    21598    21633    21668    21701 
   21736    21779    21817    21852    21902    21948    21988    22040 
   22084    22125    22172    22208    22243    22273    22288    22311 
   22346    22378    22405    22432    22451    22462    22469    22476 
   22480    22482    22482    22476    22465    22439    22405    22380 
   22354    22329    22306    22272    22235    22199    22152    22111 
   22088    22059    22019    21982    21951    21921    21888    21851 
   21821    21807    21799    21789    21767    21733    21693    21651 
   21609    21573    21541    21510    21481    21455    21429    21397 
   21366    21344    21332    21323    21321    21325    21324    21332 
   21343    21331    21323    21334    21339    21352    21374    21389 
   21417    21452    21470    21489    21523    21556    21591    21631 
   21670    21701    21722    21749    21772    21787    21807    21836 
   21870    21906    21932    21940    21937    21940    21952    21951 
   21933    21915    21897    21872    21861    21859    21838    21803 
   21774    21755    21739    21703    21664    21635    21612    21581 
   21541    21512    21490    21470    21458    21447    21435    21428 
   21427    21429    21438    21442    21443    21443    21444    21454 
   21462    21465    21471    21486    21514    21558    21605    21648 
   21683    21713    21747    21772    21803    21856    21894    21910 
   21936    21959    21973    21998    22021    22025    22029    22034 
   22036    22032    22030    22037    22049    22059    22064    22061 
   22054    22050    22050    22053    22060    22061    22061    22063 
   22069    22077    22081    22083    22072    22044    22013    21982 
   21951    21928    21917    21911    21905    21887    21860    21836 
   21821    21813    21802    21789    21774    21747    21716    21694 
   21676    21658    21629    21593    21568    21556    21540    21513 
   21477    21451    21427    21381    21344    21325    21313    21294 
   21263    21243    21230    21205    21199    21204    21205    21215 
   21228    21236    21251    21286    21328    21357    21382    21419 
   21456    21482    21508    21540    21573    21613    21659    21708 
   21757    21799    21832    21864    21899    21928    21938    21944 
   21949    21944    21926    21906    21887    21867    21847    21822 
   21798    21779    21756    21726    21691    21662    21637    21609 
   21587    21585    21571    21547    21535    21528    21523    21527 
   21537    21547    21560    21579    21605    21628    21651    21683 
   21721    21755    21779    21786    21789    21801    21821    21843 
   21868    21894    21915    21932    21946    21961    21975    22002 
   22032    22037    22041    22054    22061    22071    22079    22084 
   22094    22103    22115    22127    22135    22142    22152    22156 
   22160    22173    22199    22231    22256    22268    22280    22292 
   22293    22300    22318    22323    22322    22331    22338    22341 
   22346    22341    22319    22306    22296    22280    22266    22257 
   22235    22212    22187    22156    22117    22067    22018    21971 
   21910    21865    21837    21801    21767    21737    21701    21656 
   21602    21556    21516    21469    21431    21393    21350    21311 
   21269    21227    21186    21142    21104    21082    21060    21034 
   21022    21019    21015    21022    21035    21050    21076    21101 
   21127    21158    21170    21181    21222    21273    21316    21355 
   21386    21409    21433    21450    21469    21506    21543    21567 
   21591    21616    21631    21637    21648    21662    21679    21703 
   21721    21730    21733    21720    21694    21675    21660    21641 
   21622    21616    21606    21582    21563    21554    21540    21529 
   21524    21520    21521    21531    21548    21566    21574    21586 
   21601    21606    21622    21651    21678    21717    21762    21798 
   21836    21879    21919    21956    21990    22026    22075    22121 
   22161    22202    22242    22277    22304    22320    22337    22350 
   22361    22373    22377    22376    22370    22358    22345    22331 
   22318    22306    22285    22257    22235    22226    22214    22196 
   22181    22169    22153    22129    22108    22104    22100    22090 
   22088    22095    22098    22099    22100    22095    22084    22072 
   22053    22036    22018    22003    21998    21995    21986    21972 
   21961    21948    21918    21876    21852    21843    21813    21774 
   21751    21720    21681    21651    21617    21582    21546    21496 
   21442    21397    21361    21325    21296    21277    21254    21222 
   21192    21161    21132    21111    21092    21078    21073    21070 
   21062    21054    21057    21068    21084    21109    21126    21134 
   21150    21168    21186    21216    21254    21289    21323    21367 
   21425    21478    21509    21540    21577    21605    21635    21671 
   21699    21724    21756    21774    21778    21789    21786    21775 
   21772    21767    21762    21771    21780    21790    21798    21790 
   21779    21786    21791    21791    21791    21790    21791    21795 
   21789    21768    21740    21717    21701    21678    21644    21606 
   21567    21531    21498    21469    21443    21413    21386    21362 
   21334    21309    21288    21262    21249    21244    21234    21226 
   21232    21242    21255    21271    21289    21315    21346    21379 
   21417    21451    21481    21514    21550    21571    21586    21618 
   21656    21686    21717    21745    21775    21803    21826    21853 
   21876    21895    21919    21933    21934    21940    21948    21945 
   21942    21956    21980    21995    22014    22040    22052    22067 
   22077    22079    22092    22114    22129    22134    22134    22131 
   22117    22095    22088    22086    22081    22086    22083    22068 
   22052    22041    22034    22023    22007    21996    21992    21986 
   21983    21987    21992    21995    21998    21999    22002    22011 
   22022    22026    22021    22007    21988    21959    21929    21905 
   21886    21870    21847    21822    21817    21818    21806    21786 
   21770    21755    21735    21712    21694    21691    21690    21686 
   21681    21667    21655    21651    21651    21648    21636    21629 
   21635    21639    21636    21637    21637    21627    21608    21593 
   21581    21559    21533    21517    21502    21470    21431    21402 
   21374    21346    21323    21289    21247    21216    21188    21165 
   21150    21132    21115    21099    21093    21103    21109    21107 
   21107    21116    21134    21149    21166    21193    21215    21239 
   21274    21308    21340    21382    21421    21455    21494    21539 
   21583    21631    21683    21744    21805    21853    21910    21979 
   22044    22110    22179    22241    22296    22349    22401    22462 
   22518    22551    22578    22617    22663    22701    22734    22769 
   22804    22835    22856    22879    22916    22944    22956    22975 
   22994    23001    22998    22982    22956    22924    22879    22816 
   22747    22675    22585    22486    22392    22292    22179    22059 
   21936    21813    21689    21566    21451    21340    21230    21118 
   21004    20902    20804    20699    20598    20515    20441    20368 
   20299    20247    20202    20164    20146    20136    20127    20129 
   20142    20155    20171    20191    20214    20237    20279    20335 
   20385    20436    20491    20555    20626    20706    20796    20900 
   21007    21107    21212    21319    21415    21498    21571    21656 
   21743    21814    21887    21967    22045    22125    22196    22266 
   22350    22426    22486    22550    22609    22657    22696    22736 
   22773    22796    22816    22843    22862    22859    22851    22840 
   22819    22789    22758    22717    22663    22609    22565    22516 
   22459    22399    22329    22257    22194    22129    22059    21991 
   21933    21870    21803    21735    21667    21610    21558    21498 
   21451    21417    21381    21344    21323    21311    21292    21270 
   21255    21240    21234    21242    21247    21243    21231    21213 
   21201    21197    21184    21174    21190    21219    21249    21286 
   21319    21347    21382    21425    21470    21513    21548    21585 
   21627    21654    21676    21717    21757    21783    21802    21826 
   21851    21871    21890    21898    21899    21907    21913    21919 
   21933    21949    21968    21973    21975    21983    21987    21988 
   21990    21987    21992    22007    22022    22038    22045    22048 
   22048    22041    22038    22042    22041    22033    22029    22027 
   22025    22022    22023    22036    22050    22061    22081    22100 
   22108    22125    22145    22152    22160    22169    22162    22152 
   22144    22135    22122    22098    22067    22038    22013    21983 
   21955    21928    21902    21883    21870    21852    21828    21801 
   21775    21752    21740    21732    21732    21736    21740    21753 
   21768    21768    21759    21752    21748    21751    21760    21770 
   21778    21786    21793    21803    21814    21820    21825    21833 
   21838    21845    21851    21856    21875    21901    21918    21936 
   21957    21979    22002    22029    22052    22059    22064    22079 
   22087    22081    22072    22060    22049    22048    22045    22036 
   22025    22014    22003    21994    21980    21972    21963    21948 
   21936    21933    21940    21949    21948    21942    21938    21940 
   21956    21971    21982    21994    22011    22027    22042    22063 
   22084    22103    22127    22154    22175    22189    22195    22191 
   22183    22168    22160    22176    22185    22179    22183    22184 
   22165    22148    22138    22117    22090    22068    22036    21995 
   21957    21929    21905    21875    21852    21833    21802    21767 
   21737    21716    21701    21679    21655    21643    21639    21640 
   21636    21627    21637    21660    21667    21672    21693    21709 
   21717    21733    21748    21764    21772    21774    21779    21778 
   21778    21790    21795    21807    21829    21836    21843    21859 
   21870    21879    21891    21905    21922    21932    21928    21921 
   21913    21905    21892    21878    21871    21861    21836    21810 
   21786    21753    21728    21703    21668    21645    21629    21601 
   21577    21562    21533    21498    21471    21442    21411    21386 
   21361    21335    21309    21280    21250    21222    21197    21176 
   21147    21119    21096    21070    21047    21037    21042    21050 
   21046    21039    21033    21011    20983    20954    20923    20892 
   20862    20835    20818    20804    20795    20785    20777    20769 
   20761    20752    20744    20738    20740    20748    20765    20794 
   20831    20889    20960    21026    21100    21174    21240    21316 
   21396    21475    21554    21624    21697    21776    21856    21938 
   22025    22108    22187    22262    22330    22391    22455    22509 
   22551    22593    22632    22657    22678    22702    22729    22761 
   22783    22794    22800    22797    22783    22779    22788    22779 
   22759    22744    22727    22700    22673    22646    22611    22567 
   22523    22476    22427    22380    22330    22275    22215    22158 
   22108    22049    21982    21926    21868    21801    21737    21681 
   21627    21567    21512    21459    21400    21338    21284    21230 
   21166    21108    21055    20997    20939    20883    20819    20760 
   20710    20671    20632    20596    20571    20544    20511    20490 
   20483    20475    20468    20468    20471    20471    20467    20468 
   20476    20483    20502    20524    20530    20537    20545    20557 
   20582    20606    20621    20637    20657    20677    20704    20742 
   20784    20830    20888    20956    21023    21095    21185    21277 
   21355    21448    21546    21624    21716    21810    21888    21983 
   22092    22187    22273    22370    22455    22516    22578    22650 
   22716    22774    22819    22847    22877    22904    22917    22925 
   22928    22916    22905    22898    22883    22866    22851    22823 
   22788    22759    22729    22692    22657    22627    22585    22546 
   22513    22472    22426    22391    22351    22303    22261    22222 
   22173    22117    22060    22009    21953    21895    21843    21787 
   21725    21667    21613    21551    21482    21424    21370    21311 
   21253    21203    21158    21115    21073    21037    21004    20979 
   20958    20933    20911    20896    20893    20891    20876    20872 
   20888    20900    20904    20908    20914    20922    20937    20962 
   20997    21034    21070    21107    21150    21199    21251    21304 
   21359    21415    21474    21535    21590    21639    21682    21725 
   21768    21813    21852    21890    21934    21984    22030    22064 
   22095    22126    22148    22167    22192    22215    22230    22248 
   22264    22273    22280    22292    22311    22329    22335    22341 
   22354    22364    22360    22349    22331    22308    22288    22269 
