Origin Time       2025/01/13 21:19:00
Lat.              31.8
Long.             131.6
Depth. (km)       30
Mag.              6.9
Station Code      TKSH02
Station Lat.      34.0112
Station Long.     134.0918
Station Height(m) 190
Record Time       2025/01/13 21:20:41
Sampling Freq(Hz) 100Hz
Duration Time(s)  133
Dir.              6
Scale Factor      7845(gal)/8223790
Max. Acc. (gal)   0.585
Last Correction   2025/01/13 21:20:42
Memo.             
[...]
    1811     1775     1745     1728     1730     1773     1857     1938 
    1973     1953     1907     1856     1800     1761     1772     1823 
    1865     1853     1796     1734     1702     1721     1798     1895 
    1948     1938     1895     1841     1787     1772     1825     1907 
    1941     1903     1844     1809     1788     1786     1822     1873 
    1883     1863     1841     1822     1804     1806     1837     1895 
    1941     1945     1903     1825     1737     1679     1665     1694 
    1769     1865     1930     1944     1919     1872     1829     1803 
    1794     1794     1777     1740     1710     1713     1732     1755 
    1788     1821     1848     1881     1903     1884     1834     1787 
    1749     1715     1694     1709     1741     1767     1799     1845 
    1876     1879     1869     1857     1848     1831     1807     1792 
    1795     1821     1871     1927     1968     1984     1975     1942 
    1890     1833     1776     1729     1705     1698     1706     1725 
    1753     1794     1840     1865     1853     1818     1764     1701 
    1661     1668     1702     1729     1742     1764     1803     1849 
    1885     1894     1876     1860     1861     1877     1906     1944 
    1979     1985     1948     1883     1819     1769     1730     1711 
    1718     1752     1798     1837     1880     1944     1996     2006 
    1977     1941     1900     1848     1798     1772     1767     1780 
    1825     1894     1935     1919     1871     1829     1799     1768 
    1748     1759     1802     1857     1898     1912     1894     1850 
    1804     1771     1748     1733     1726     1728     1737     1749 
    1761     1767     1757     1736     1710     1692     1698     1719 
    1733     1730     1725     1736     1760     1794     1829     1838 
    1800     1734     1684     1682     1721     1777     1814     1796 
    1738     1676     1641     1636     1659     1703     1765     1837 
    1899     1929     1922     1885     1845     1830     1844     1852 
    1841     1823     1813     1799     1795     1830     1903     1971 
    1995     1980     1950     1923     1906     1888     1858     1815 
    1767     1722     1691     1701     1775     1884     1954     1944 
    1871     1768     1679     1651     1691     1752     1795     1810 
    1800     1780     1765     1753     1740     1730     1710     1668 
    1630     1618     1634     1682     1746     1811     1860     1875 
    1872     1881     1911     1946     1958     1935     1884     1817 
    1759     1740     1752     1767     1791     1833     1867     1861 
    1833     1818     1826     1854     1898     1935     1961     1976 
    1954     1887     1809     1759     1742     1732     1730     1761 
    1810     1819     1776     1718     1684     1678     1690     1714 
    1749     1787     1821     1850     1892     1941     1980     2004 
    2019     2030     2008     1953     1908     1899     1903     1910 
    1926     1939     1929     1904     1880     1854     1837     1845 
    1864     1881     1911     1952     1965     1938     1907     1895 
    1894     1896     1894     1879     1868     1873     1877     1869 
    1850     1823     1794     1768     1756     1759     1763     1767 
    1783     1811     1842     1873     1902     1918     1902     1845 
    1764     1696     1683     1738     1811     1838     1819     1788 
    1763     1741     1740     1775     1840     1908     1956     1964 
    1930     1872     1822     1799     1803     1825     1857     1898 
    1926     1923     1892     1864     1860     1873     1903     1954 
    1996     2000     1972     1925     1869     1819     1773     1734 
    1711     1691     1667     1649     1644     1661     1710     1784 
    1857     1894     1877     1821     1741     1657     1597     1584 
    1615     1651     1671     1687     1692     1692     1713     1767 
    1834     1883     1885     1833     1757     1699     1687     1722 
    1786     1845     1876     1872     1840     1796     1757     1730 
    1726     1746     1776     1798     1807     1811     1814     1815 
    1827     1854     1876     1884     1885     1876     1856     1837 
    1817     1794     1780     1783     1811     1857     1899     1915 
    1898     1863     1840     1821     1794     1773     1784     1819 
    1854     1885     1917     1946     1973     2004     2030     2042 
    2057     2089     2116     2126     2122     2104     2087     2077 
    2083     2096     2112     2119     2111     2089     2064     2041 
    2030     2043     2084     2112     2103     2065     2027     2004 
    1999     1998     1976     1945     1926     1918     1935     1985 
    2030     2023     1953     1852     1756     1690     1669     1690 
    1728     1767     1795     1809     1806     1794     1779     1752 
    1729     1721     1706     1672     1647     1640     1651     1686 
    1741     1799     1854     1890     1887     1852     1804     1760 
    1734     1738     1769     1817     1854     1854     1811     1764 
    1750     1769     1807     1840     1840     1807     1761     1713 
    1671     1656     1683     1738     1784     1791     1756     1691 
    1637     1625     1651     1694     1732     1756     1772     1795 
    1827     1871     1917     1945     1934     1875     1779     1686 
    1629     1621     1645     1679     1707     1732     1744     1734 
    1725     1730     1730     1722     1726     1742     1750     1750 
    1761     1787     1815     1838     1860     1876     1881     1861 
    1809     1746     1702     1676     1672     1695     1749     1810 
    1848     1858     1856     1853     1836     1788     1732     1682 
    1640     1610     1609     1638     1683     1726     1767     1802 
    1807     1780     1746     1726     1709     1683     1668     1675 
    1683     1686     1692     1702     1699     1687     1679     1678 
    1684     1696     1706     1714     1733     1763     1782     1790 
    1803     1822     1829     1833     1845     1863     1875     1885 
    1911     1954     1989     2006     2007     1985     1949     1923 
    1926     1953     1983     1996     1993     1979     1962     1958 
    1964     1966     1958     1949     1945     1948     1941     1930 
    1927     1942     1960     1957     1948     1957     1989     2035 
    2092     2147     2168     2141     2100     2066     2034     2004 
    1984     1965     1930     1876     1830     1815     1830     1858 
    1884     1895     1885     1852     1806     1763     1725     1698 
    1683     1675     1671     1674     1692     1726     1750     1752 
    1746     1741     1741     1755     1787     1822     1840     1834 
    1803     1760     1740     1749     1759     1759     1764     1776 
    1788     1807     1837     1861     1857     1826     1788     1761 
    1740     1713     1680     1651     1628     1622     1644     1680 
    1715     1749     1784     1804     1813     1819     1826     1838 
    1869     1899     1892     1853     1807     1763     1723     1709 
    1714     1713     1711     1719     1728     1726     1734     1776 
    1850     1926     1987     2031     2047     2027     1985     1935 
    1891     1875     1883     1891     1892     1896     1898     1881 
    1854     1830     1806     1775     1738     1706     1680     1665 
    1665     1691     1734     1771     1788     1798     1803     1799 
    1794     1795     1786     1746     1687     1622     1576     1580 
    1634     1702     1748     1741     1688     1628     1588     1584 
    1620     1680     1736     1764     1769     1765     1763     1782 
    1830     1884     1917     1926     1929     1942     1972     2012 
    2038     2029     1999     1958     1921     1910     1934     1969 
    2006     2046     2079     2083     2080     2101     2139     2157 
    2146     2122     2100     2083     2068     2065     2083     2101 
    2114     2127     2145     2160     2176     2195     2204     2199 
    2182     2161     2142     2126     2118     2112     2099     2069 
    2020     1965     1929     1918     1921     1934     1952     1961 
    1949     1930     1927     1944     1962     1976     1981     1975 
    1949     1896     1825     1759     1718     1715     1752     1810 
    1844     1842     1831     1830     1836     1845     1846     1825 
    1782     1744     1730     1729     1722     1710     1691     1659 
    1611     1563     1514     1467     1426     1394     1372     1366 
    1379     1418     1478     1534     1586     1637     1667     1668 
    1661     1655     1651     1659     1687     1725     1748     1753 
    1759     1760     1744     1714     1692     1674     1648     1629 
    1629     1644     1676     1733     1803     1864     1898     1902 
    1887     1864     1842     1838     1856     1881     1906     1919 
    1915     1896     1875     1857     1856     1858     1860     1869 
    1880     1895     1917     1918     1890     1858     1833     1817 
    1823     1849     1883     1915     1933     1922     1899     1887 
    1892     1903     1908     1904     1898     1899     1907     1921 
    1935     1935     1917     1892     1872     1849     1829     1825 
    1826     1825     1837     1854     1860     1863     1875     1881 
    1863     1819     1761     1706     1668     1642     1625     1621 
    1622     1621     1614     1605     1590     1580     1576     1571 
    1571     1582     1611     1647     1675     1687     1672     1629 
    1576     1536     1517     1521     1543     1567     1575     1574 
    1574     1571     1578     1611     1661     1699     1699     1674 
    1630     1578     1544     1555     1606     1674     1738     1794 
    1830     1838     1836     1853     1888     1921     1935     1938 
    1929     1914     1904     1902     1910     1927     1934     1933 
    1935     1946     1960     1972     1991     2015     2037     2050 
    2050     2033     2004     1981     1965     1946     1908     1861 
    1836     1846     1876     1911     1953     1999     2045     2083 
    2111     2134     2147     2143     2123     2089     2056     2030 
    2008     1999     2019     2057     2091     2099     2084     2057 
    2018     1980     1962     1948     1912     1867     1819     1765 
    1718     1692     1682     1680     1691     1710     1729     1736 
    1729     1721     1718     1723     1746     1786     1837     1888 
    1925     1941     1935     1919     1908     1907     1907     1898 
    1881     1857     1829     1807     1804     1821     1857     1911 
    1965     1993     1989     1962     1925     1908     1922     1957 
    1998     2020     2019     2010     2006     2008     2015     2026 
    2034     2030     2016     2002     1981     1952     1911     1872 
    1838     1802     1759     1729     1714     1696     1676     1651 
    1609     1547     1480     1436     1424     1429     1441     1458 
    1476     1489     1490     1498     1520     1545     1564     1575 
    1586     1597     1597     1601     1622     1649     1682     1710 
    1719     1721     1723     1723     1721     1715     1703     1691 
    1695     1719     1753     1779     1787     1788     1786     1777 
    1775     1790     1813     1821     1800     1759     1719     1698 
    1695     1703     1714     1725     1718     1698     1690     1694 
    1691     1682     1671     1659     1640     1615     1599     1598 
    1607     1617     1618     1609     1598     1588     1587     1590 
    1588     1584     1583     1584     1595     1615     1638     1663 
    1683     1699     1715     1730     1742     1763     1799     1844 
    1871     1876     1876     1875     1876     1891     1917     1941 
    1965     1991     2000     1988     1968     1953     1962     1991 
    2027     2060     2080     2087     2084     2077     2073     2074 
    2080     2073     2056     2045     2041     2020     1977     1931 
    1892     1868     1858     1858     1871     1883     1884     1876 
    1860     1842     1831     1830     1837     1845     1848     1841 
    1830     1818     1814     1827     1856     1885     1911     1922 
    1910     1888     1868     1856     1853     1864     1885     1917 
    1954     1984     1992     1979     1944     1891     1845     1815 
    1799     1790     1780     1775     1788     1818     1848     1868 
    1883     1892     1902     1915     1938     1968     1995     2004 
    1988     1958     1926     1892     1872     1877     1896     1911 
    1923     1921     1898     1864     1818     1769     1729     1698 
    1675     1665     1671     1684     1702     1717     1723     1713 
    1694     1684     1680     1669     1653     1628     1597     1574 
    1572     1591     1615     1629     1624     1601     1571     1534 
    1487     1445     1421     1408     1386     1363     1359     1374 
    1401     1436     1468     1491     1505     1512     1513     1518 
    1543     1587     1628     1659     1692     1736     1787     1831 
    1861     1894     1935     1980     2027     2074     2111     2137 
    2153     2169     2191     2226     2270     2309     2332     2336 
    2323     2288     2246     2216     2211     2231     2266     2303 
    2334     2353     2365     2380     2389     2380     2361     2349 
    2349     2362     2380     2390     2388     2370     2344     2320 
    2307     2308     2323     2354     2390     2421     2442     2439 
    2417     2374     2311     2241     2187     2166     2177     2192 
    2196     2191     2174     2143     2112     2091     2069     2050 
    2046     2054     2062     2064     2064     2058     2052     2052 
    2064     2083     2095     2089     2068     2039     2010     1987 
    1980     1983     1985     1987     1983     1966     1937     1902 
    1871     1846     1834     1830     1826     1817     1811     1823 
    1845     1854     1849     1823     1776     1722     1679     1648 
    1624     1599     1576     1560     1543     1522     1516     1522 
    1534     1545     1549     1536     1498     1447     1402     1359 
    1321     1304     1316     1348     1391     1431     1444     1437 
    1432     1428     1420     1414     1420     1433     1444     1449 
    1458     1475     1501     1525     1545     1552     1540     1509 
    1476     1453     1441     1441     1459     1491     1530     1560 
    1572     1566     1547     1529     1528     1536     1540     1528 
    1498     1472     1458     1458     1485     1528     1571     1605 
    1621     1620     1607     1578     1544     1536     1563     1605 
    1649     1701     1746     1769     1761     1737     1714     1706 
    1709     1722     1749     1783     1813     1846     1885     1908 
    1917     1937     1976     2014     2041     2058     2065     2061 
    2058     2068     2081     2089     2079     2050     2011     1968 
    1941     1939     1960     1989     2011     2010     1989     1953 
    1912     1883     1864     1846     1827     1814     1813     1821 
    1842     1871     1884     1879     1858     1831     1813     1810 
    1809     1800     1790     1769     1748     1748     1773     1809 
    1842     1873     1896     1912     1934     1957     1972     1968 
    1954     1946     1939     1934     1933     1931     1929     1931 
    1944     1950     1942     1925     1908     1891     1873     1868 
    1883     1910     1939     1975     2008     2016     1995     1956 
    1918     1887     1857     1829     1806     1795     1792     1786 
    1779     1768     1753     1738     1721     1698     1668     1633 
    1590     1549     1522     1516     1530     1555     1574     1588 
    1606     1628     1652     1679     1699     1707     1713     1721 
    1726     1730     1732     1725     1706     1684     1674     1683 
    1717     1765     1817     1861     1887     1891     1887     1884 
    1873     1860     1854     1857     1864     1883     1911     1939 
    1968     1995     2010     2010     1993     1961     1927     1906 
    1896     1896     1902     1895     1881     1876     1872     1869 
    1876     1885     1890     1892     1891     1877     1852     1838 
    1844     1861     1869     1846     1809     1769     1736     1715 
    1709     1714     1723     1730     1732     1722     1705     1694 
    1692     1705     1718     1717     1702     1694     1702     1713 
    1717     1713     1698     1678     1659     1653     1665     1676 
    1674     1663     1653     1645     1652     1675     1702     1719 
    1719     1710     1707     1718     1734     1755     1771     1779 
    1777     1772     1765     1756     1744     1730     1717     1706 
    1703     1714     1736     1769     1810     1846     1875     1896 
    1906     1906     1906     1912     1917     1918     1931     1961 
    1989     2014     2033     2037     2038     2047     2057     2057 
    2049     2043     2045     2042     2039     2046     2053     2049 
    2035     2016     1998     1980     1968     1957     1952     1956 
    1968     1987     2004     2016     2026     2033     2027     2016 
    2010     2003     1995     1996     2011     2034     2049     2053 
    2052     2042     2033     2023     2007     1979     1937     1896 
    1871     1858     1853     1840     1817     1800     1788     1776 
    1777     1792     1800     1794     1767     1725     1690     1676 
    1680     1692     1701     1709     1714     1706     1687     1665 
    1652     1655     1672     1699     1726     1745     1759     1769 
    1765     1753     1749     1749     1744     1736     1719     1694 
    1672     1661     1659     1656     1657     1668     1680     1694 
    1718     1745     1764     1779     1798     1826     1853     1869 
    1875     1871     1858     1842     1823     1802     1777     1752 
    1734     1728     1730     1744     1767     1790     1800     1803 
    1807     1809     1795     1769     1745     1733     1734     1756 
    1799     1841     1861     1860     1841     1813     1787     1772 
    1776     1796     1815     1826     1826     1815     1799     1790 
    1787     1792     1804     1822     1834     1834     1826     1826 
    1831     1838     1849     1856     1848     1829     1813     1802 
    1791     1777     1769     1775     1788     1804     1822     1844 
    1860     1856     1833     1806     1782     1767     1772     1790 
    1813     1838     1867     1898     1923     1930     1925     1914 
    1899     1891     1903     1929     1954     1969     1968     1961 
    1960     1969     1989     2010     2012     1993     1958     1919 
    1895     1894     1907     1929     1956     1971     1961     1941 
    1922     1907     1898     1891     1884     1871     1838     1795 
    1756     1726     1711     1718     1737     1752     1759     1757 
    1749     1742     1738     1740     1750     1767     1786     1802 
    1806     1795     1782     1775     1782     1802     1830     1854 
    1864     1861     1854     1844     1833     1830     1844     1867 
    1884     1888     1880     1860     1838     1830     1845     1876 
    1900     1900     1885     1854     1803     1749     1719     1717 
