Origin Time       2025/01/13 21:19:00
Lat.              31.8
Long.             131.6
Depth. (km)       30
Mag.              6.9
Station Code      TTRH06
Station Lat.      35.3946
Station Long.     134.1988
Station Height(m) 30
Record Time       2025/01/13 21:21:16
Sampling Freq(Hz) 100Hz
Duration Time(s)  120
Dir.              4
Scale Factor      7845(gal)/8223790
Max. Acc. (gal)   0.807
Last Correction   2025/01/13 21:21:17
Memo.             
[...]
    3854     3854     3855     3858     3865     3870     3869     3865 
    3855     3844     3836     3829     3816     3805     3801     3796 
    3796     3804     3809     3800     3775     3744     3713     3680 
    3650     3631     3628     3635     3642     3645     3639     3627 
    3608     3582     3554     3526     3497     3472     3446     3424 
    3412     3406     3403     3406     3412     3422     3435     3447 
    3456     3457     3457     3460     3462     3458     3443     3430 
    3429     3439     3462     3495     3531     3573     3616     3653 
    3680     3690     3682     3666     3642     3612     3585     3564 
    3547     3546     3558     3584     3618     3655     3697     3734 
    3758     3766     3758     3735     3701     3663     3631     3613 
    3612     3632     3665     3705     3750     3793     3820     3823 
    3804     3766     3713     3654     3597     3546     3503     3478 
    3480     3497     3518     3545     3576     3599     3603     3597 
    3585     3565     3542     3523     3501     3484     3476     3476 
    3488     3512     3534     3550     3566     3588     3612     3634 
    3657     3682     3707     3732     3754     3771     3785     3793 
    3793     3788     3777     3753     3720     3690     3661     3635 
    3616     3596     3573     3551     3542     3541     3542     3549 
    3559     3569     3576     3577     3574     3569     3561     3554 
    3549     3542     3537     3526     3510     3496     3488     3478 
    3462     3446     3437     3426     3412     3400     3392     3388 
    3377     3365     3357     3348     3343     3352     3361     3368 
    3373     3375     3373     3369     3369     3377     3389     3399 
    3402     3402     3399     3395     3396     3404     3418     3438 
    3465     3491     3510     3523     3532     3534     3535     3539 
    3542     3550     3564     3578     3595     3612     3626     3639 
    3650     3658     3663     3672     3681     3688     3697     3707 
    3709     3709     3705     3696     3686     3676     3661     3639 
    3618     3597     3582     3573     3570     3577     3597     3630 
    3665     3696     3719     3731     3732     3728     3720     3712 
    3711     3719     3732     3746     3769     3790     3804     3816 
    3825     3828     3827     3827     3825     3821     3817     3815 
    3819     3827     3836     3843     3843     3840     3832     3820 
    3815     3812     3812     3821     3836     3851     3870     3892 
    3913     3933     3944     3946     3940     3927     3909     3892 
    3871     3846     3823     3801     3781     3761     3736     3707 
    3680     3657     3638     3623     3612     3601     3595     3595 
    3596     3597     3597     3591     3578     3564     3549     3538 
    3531     3530     3532     3538     3543     3554     3578     3612 
    3650     3682     3707     3728     3736     3730     3719     3705 
    3693     3686     3686     3694     3705     3707     3709     3717 
    3720     3715     3709     3704     3692     3678     3672     3667 
    3667     3677     3696     3723     3759     3796     3825     3848 
    3873     3890     3897     3897     3894     3896     3896     3892 
    3890     3888     3883     3877     3869     3859     3843     3815 
    3785     3763     3748     3744     3748     3754     3769     3786 
    3796     3796     3780     3754     3732     3711     3690     3682 
    3685     3692     3708     3730     3750     3767     3785     3802 
    3819     3834     3847     3856     3859     3855     3844     3827 
    3812     3809     3816     3825     3836     3844     3850     3854 
    3851     3839     3825     3807     3788     3766     3735     3701 
    3672     3646     3631     3630     3643     3670     3711     3757 
    3808     3861     3904     3933     3951     3951     3931     3901 
    3863     3827     3801     3777     3754     3732     3715     3700 
    3689     3684     3680     3678     3677     3665     3638     3596 
    3538     3473     3418     3370     3333     3308     3292     3277 
    3265     3254     3240     3223     3207     3195     3194     3199 
    3207     3218     3225     3234     3241     3242     3241     3240 
    3240     3238     3241     3253     3265     3280     3300     3323 
    3348     3373     3396     3412     3429     3446     3456     3456 
    3446     3429     3407     3381     3354     3334     3330     3342 
    3369     3411     3460     3519     3581     3632     3670     3697 
    3711     3723     3738     3755     3777     3801     3823     3843 
    3861     3878     3896     3906     3909     3906     3897     3871 
    3836     3798     3762     3730     3700     3667     3645     3626 
    3605     3592     3582     3576     3576     3574     3573     3574 
    3577     3578     3574     3566     3557     3553     3546     3538 
    3539     3547     3557     3565     3577     3591     3601     3608 
    3612     3613     3612     3608     3601     3592     3582     3574 
    3570     3577     3595     3616     3634     3646     3653     3651 
    3639     3620     3599     3574     3550     3527     3510     3500 
    3497     3504     3520     3542     3568     3597     3623     3643 
    3657     3665     3672     3677     3688     3704     3724     3747 
    3770     3792     3805     3807     3807     3809     3811     3811 
    3817     3834     3848     3862     3875     3888     3893     3889 
    3879     3862     3838     3804     3770     3738     3696     3659 
    3634     3611     3589     3578     3574     3572     3572     3577 
    3585     3596     3607     3613     3619     3626     3622     3613 
    3607     3596     3581     3565     3543     3519     3499     3485 
    3480     3488     3514     3549     3589     3635     3680     3720 
    3758     3788     3811     3832     3850     3865     3879     3888 
    3890     3892     3893     3902     3920     3940     3974     4018 
    4066     4116     4166     4209     4240     4257     4264     4259 
    4236     4198     4152     4104     4055     4010     3975     3954 
    3942     3937     3940     3947     3952     3952     3947     3931 
    3902     3867     3825     3781     3736     3685     3635     3595 
    3554     3518     3488     3465     3456     3458     3465     3480 
    3493     3499     3503     3496     3469     3434     3389     3335 
    3287     3241     3198     3160     3130     3107     3090     3078 
    3069     3063     3059     3056     3052     3051     3056     3065 
    3078     3099     3132     3172     3215     3260     3299     3329 
    3352     3368     3379     3395     3422     3461     3514     3580 
    3651     3727     3798     3856     3898     3925     3932     3925 
    3906     3882     3854     3823     3794     3777     3763     3754 
    3758     3774     3796     3824     3846     3862     3871     3867 
    3846     3817     3782     3742     3703     3663     3626     3593 
    3572     3566     3576     3589     3607     3624     3634     3635 
    3630     3615     3595     3570     3553     3535     3520     3510 
    3500     3489     3484     3480     3478     3480     3477     3469 
    3451     3422     3384     3342     3300     3269     3249     3238 
    3234     3230     3229     3233     3240     3242     3249     3262 
    3279     3302     3331     3360     3391     3422     3447     3470 
    3489     3503     3514     3518     3522     3537     3562     3595 
    3635     3684     3730     3770     3794     3797     3775     3735 
    3689     3643     3597     3550     3512     3488     3477     3480 
    3495     3519     3545     3566     3582     3595     3599     3599 
    3604     3619     3635     3654     3674     3694     3715     3732 
    3750     3766     3780     3794     3805     3811     3817     3821 
    3820     3816     3812     3805     3798     3794     3788     3778 
    3769     3753     3734     3716     3705     3700     3694     3692 
    3688     3677     3662     3647     3631     3616     3607     3603 
    3600     3596     3593     3592     3588     3578     3564     3545 
    3530     3519     3516     3526     3543     3565     3586     3611 
    3628     3636     3636     3634     3626     3613     3601     3588 
    3574     3572     3581     3600     3626     3657     3692     3726 
    3755     3775     3785     3792     3794     3789     3780     3769 
    3748     3715     3680     3647     3623     3611     3608     3618 
    3642     3669     3688     3701     3711     3715     3719     3720 
    3719     3709     3693     3673     3649     3623     3596     3570 
    3550     3534     3522     3515     3511     3512     3516     3524 
    3535     3550     3559     3568     3578     3586     3588     3589 
    3589     3586     3584     3584     3589     3604     3623     3646 
    3669     3686     3700     3713     3716     3716     3723     3732 
    3742     3751     3765     3784     3804     3823     3843     3865 
    3885     3901     3920     3936     3948     3964     3982     4004 
    4031     4058     4081     4101     4113     4112     4097     4075 
    4055     4033     4008     3986     3978     3973     3971     3975 
    3983     3987     3982     3962     3935     3901     3856     3808 
    3762     3723     3685     3654     3627     3601     3584     3570 
    3561     3551     3541     3524     3505     3485     3460     3433 
    3408     3385     3365     3349     3341     3334     3330     3330 
    3331     3330     3331     3335     3339     3349     3365     3381 
    3403     3423     3437     3449     3460     3460     3449     3433 
    3418     3403     3383     3365     3356     3360     3368     3377 
    3392     3407     3412     3411     3403     3388     3365     3335 
    3303     3276     3258     3241     3230     3233     3241     3253 
    3268     3279     3287     3294     3302     3308     3308     3302 
    3292     3283     3275     3265     3261     3262     3265     3275 
    3292     3318     3350     3392     3442     3497     3551     3609 
    3669     3723     3771     3815     3846     3869     3886     3894 
    3894     3890     3885     3878     3870     3867     3871     3877 
    3883     3897     3915     3929     3940     3944     3939     3919 
    3890     3856     3821     3790     3767     3759     3763     3777 
    3801     3832     3865     3901     3935     3964     3987     4000 
    4004     4002     3993     3979     3963     3946     3927     3909 
    3898     3889     3874     3861     3848     3829     3807     3786 
    3762     3736     3709     3680     3653     3626     3595     3565 
    3537     3503     3473     3447     3423     3408     3399     3389 
    3381     3372     3361     3345     3321     3292     3267     3244 
    3222     3203     3191     3180     3167     3159     3160     3167 
    3177     3198     3223     3248     3276     3310     3337     3357 
    3372     3379     3383     3383     3380     3375     3373     3379 
    3387     3397     3411     3431     3454     3478     3505     3531 
    3557     3581     3608     3636     3661     3682     3707     3735 
    3767     3804     3838     3871     3909     3943     3971     4001 
    4031     4060     4089     4117     4144     4166     4180     4193 
    4194     4189     4178     4167     4162     4158     4148     4136 
    4126     4116     4101     4087     4075     4064     4059     4054 
    4048     4050     4051     4047     4045     4047     4039     4020 
    3996     3969     3937     3909     3882     3854     3836     3825 
    3812     3801     3797     3785     3766     3742     3713     3677 
    3636     3596     3554     3515     3480     3451     3431     3422 
    3415     3412     3412     3406     3393     3377     3354     3326 
    3299     3269     3237     3208     3190     3177     3171     3171 
    3176     3177     3179     3183     3181     3179     3180     3181 
    3188     3200     3210     3222     3234     3238     3235     3230 
    3223     3215     3207     3203     3210     3227     3256     3288 
    3321     3352     3379     3399     3416     3429     3430     3433 
    3437     3439     3445     3451     3461     3476     3495     3519 
    3543     3561     3574     3593     3609     3613     3615     3615 
    3608     3595     3584     3573     3561     3550     3538     3531 
    3531     3530     3531     3538     3547     3554     3557     3554 
    3550     3547     3546     3545     3551     3568     3585     3611 
    3640     3667     3696     3726     3751     3775     3789     3789 
    3786     3781     3773     3773     3781     3793     3817     3850 
    3882     3910     3929     3939     3943     3939     3925     3909 
    3896     3885     3882     3889     3896     3900     3902     3898 
    3893     3885     3866     3842     3816     3782     3746     3716 
    3685     3647     3613     3584     3553     3526     3500     3473 
    3447     3424     3400     3379     3360     3343     3329     3316 
    3306     3299     3298     3292     3285     3280     3276     3276 
    3280     3294     3312     3337     3365     3397     3435     3473 
    3510     3543     3573     3600     3626     3651     3676     3700 
    3736     3777     3820     3866     3912     3955     3996     4039 
    4086     4135     4180     4226     4275     4322     4361     4395 
    4423     4449     4468     4477     4476     4464     4442     4415 
    4384     4351     4318     4286     4252     4220     4182     4133 
    4082     4025     3959     3896     3835     3774     3726     3686 
    3650     3618     3589     3561     3532     3500     3462     3418 
    3372     3322     3271     3222     3177     3132     3092     3059 
    3028     3003     2987     2975     2965     2963     2961     2964 
    2978     2988     2994     3003     3011     3022     3037     3049 
    3064     3083     3102     3122     3149     3179     3207     3241 
    3284     3330     3372     3419     3468     3511     3553     3597 
    3636     3673     3707     3735     3761     3785     3804     3820 
    3836     3856     3878     3900     3921     3937     3950     3956 
    3950     3932     3909     3879     3848     3820     3794     3773 
    3754     3736     3723     3712     3701     3685     3672     3658 
    3649     3642     3635     3631     3628     3628     3630     3634 
    3636     3636     3636     3638     3639     3642     3649     3659 
    3673     3688     3701     3713     3724     3732     3739     3743 
    3742     3738     3740     3747     3757     3766     3780     3796 
    3812     3829     3846     3858     3865     3865     3858     3843 
    3825     3809     3794     3784     3777     3775     3774     3767 
    3757     3746     3731     3712     3688     3661     3636     3613 
    3591     3570     3551     3539     3537     3534     3530     3527 
    3526     3524     3519     3516     3519     3523     3522     3520 
    3520     3514     3500     3489     3478     3468     3460     3454 
    3453     3449     3445     3439     3441     3445     3447     3453 
    3457     3457     3458     3461     3461     3462     3469     3472 
    3473     3476     3477     3480     3487     3495     3510     3523 
    3535     3547     3557     3559     3561     3562     3558     3551 
    3546     3541     3531     3527     3527     3526     3531     3542 
    3555     3570     3585     3593     3596     3596     3592     3582 
    3568     3553     3546     3545     3547     3557     3568     3582 
    3603     3626     3651     3674     3690     3704     3717     3727 
    3730     3727     3723     3720     3723     3730     3742     3751 
    3755     3757     3755     3751     3743     3728     3711     3699 
    3689     3676     3661     3646     3634     3622     3608     3596 
    3586     3572     3557     3547     3545     3546     3551     3562 
    3570     3573     3580     3580     3568     3553     3542     3530 
    3520     3511     3497     3484     3473     3464     3457     3453 
    3451     3454     3460     3466     3477     3492     3507     3518 
    3522     3522     3519     3514     3504     3497     3492     3491 
    3501     3518     3539     3566     3597     3627     3659     3690 
    3715     3732     3742     3746     3750     3751     3751     3751 
    3751     3750     3744     3742     3734     3719     3703     3686 
    3669     3653     3638     3624     3615     3611     3603     3591 
    3578     3564     3546     3524     3503     3487     3476     3468 
    3469     3476     3487     3505     3526     3541     3557     3572 
    3577     3574     3569     3561     3553     3539     3522     3510 
    3504     3496     3485     3481     3484     3483     3478     3474 
    3468     3464     3460     3451     3450     3450     3447     3450 
    3458     3470     3484     3496     3514     3534     3555     3578 
    3597     3615     3628     3639     3653     3665     3669     3674 
    3689     3708     3731     3757     3781     3801     3820     3832 
    3835     3831     3820     3804     3785     3766     3747     3735 
    3730     3726     3720     3717     3709     3694     3681     3665 
    3646     3628     3612     3599     3584     3570     3555     3535 
    3512     3488     3462     3435     3410     3387     3366     3353 
    3348     3352     3358     3366     3379     3389     3399     3407 
    3410     3408     3408     3406     3404     3404     3407     3419 
    3438     3457     3478     3505     3531     3549     3559     3569 
    3574     3574     3576     3582     3593     3607     3622     3639 
    3661     3685     3708     3727     3740     3754     3761     3761 
    3761     3762     3765     3769     3777     3792     3807     3820 
    3835     3847     3855     3861     3861     3862     3865     3871 
    3877     3885     3896     3910     3928     3946     3962     3974 
    3986     3997     4009     4016     4016     4014     4016     4014 
    4006     3997     3986     3974     3962     3950     3937     3919 
    3900     3877     3848     3815     3782     3747     3713     3686 
    3659     3628     3603     3578     3558     3545     3531     3519 
    3515     3510     3499     3491     3480     3466     3453     3435 
    3418     3404     3388     3369     3353     3341     3330     3323 
    3321     3321     3325     3331     3337     3349     3361     3369 
    3376     3385     3396     3412     3431     3447     3466     3489 
    3515     3541     3568     3593     3613     3635     3654     3670 
    3688     3707     3723     3739     3751     3759     3767     3769 
    3769     3775     3786     3797     3811     3827     3842     3854 
    3865     3874     3885     3897     3913     3928     3937     3943 
    3944     3942     3939     3933     3927     3924     3919     3919 
    3920     3917     3912     3900     3882     3861     3839     3816 
    3790     3763     3735     3709     3685     3659     3634     3609 
    3586     3564     3541     3522     3505     3488     3474     3465 
    3451     3443     3443     3445     3445     3447     3450     3447 
    3442     3434     3424     3414     3402     3396     3393     3388 
