Origin Time       2025/01/13 21:19:00
Lat.              31.8
Long.             131.6
Depth. (km)       30
Mag.              6.9
Station Code      TTRH03
Station Lat.      35.3553
Station Long.     133.4918
Station Height(m) 420
Record Time       2025/01/13 21:21:33
Sampling Freq(Hz) 100Hz
Duration Time(s)  120
Dir.              6
Scale Factor      7845(gal)/8223790
Max. Acc. (gal)   0.436
Last Correction   2025/01/13 21:21:36
Memo.             
[...]
   16229    16202    16174    16155    16147    16143    16147    16151 
   16141    16117    16090    16075    16081    16105    16136    16163 
   16177    16182    16193    16210    16225    16229    16222    16204 
   16177    16143    16114    16096    16083    16075    16078    16094 
   16114    16136    16151    16156    16160    16163    16163    16162 
   16158    16147    16121    16087    16060    16043    16028    16009 
   15992    15977    15970    15973    15975    15969    15955    15942 
   15932    15934    15947    15970    15994    16016    16035    16054 
   16075    16094    16104    16101    16082    16050    16012    15977 
   15955    15950    15954    15966    15986    16009    16032    16056 
   16085    16114    16137    16155    16179    16208    16232    16239 
   16224    16197    16167    16139    16114    16087    16052    16006 
   15954    15913    15896    15903    15930    15967    16009    16052 
   16097    16140    16186    16237    16281    16302    16308    16310 
   16312    16312    16306    16287    16251    16206    16164    16120 
   16071    16021    15974    15934    15905    15897    15905    15921 
   15946    15978    16002    16021    16039    16065    16093    16116 
   16124    16119    16104    16089    16077    16069    16063    16062 
   16066    16077    16090    16102    16116    16132    16146    16159 
   16174    16187    16200    16210    16216    16218    16224    16224 
   16214    16198    16177    16154    16123    16086    16051    16023 
   15989    15950    15912    15886    15869    15865    15876    15893 
   15917    15951    15988    16028    16071    16112    16146    16170 
   16189    16209    16220    16216    16200    16171    16135    16093 
   16050    16009    15974    15946    15921    15911    15915    15924 
   15938    15959    15982    15998    16017    16042    16065    16081 
   16092    16097    16094    16083    16071    16066    16065    16062 
   16055    16052    16060    16075    16092    16109    16129    16160 
   16189    16214    16237    16254    16256    16252    16243    16231 
   16210    16178    16141    16110    16089    16070    16048    16029 
   16019    16015    16011    16011    16016    16035    16062    16090 
   16124    16160    16190    16209    16216    16214    16214    16220 
   16225    16218    16204    16189    16178    16168    16158    16155 
   16164    16170    16164    16156    16150    16143    16133    16127 
   16120    16113    16114    16120    16123    16125    16128    16127 
   16124    16123    16116    16109    16110    16114    16114    16112 
   16112    16116    16127    16144    16160    16162    16150    16136 
   16124    16117    16120    16125    16125    16109    16085    16069 
   16059    16050    16048    16047    16040    16036    16047    16071 
   16110    16151    16181    16201    16213    16221    16232    16245 
   16251    16240    16218    16182    16141    16104    16066    16028 
   15993    15959    15930    15916    15919    15924    15936    15955 
   15978    15998    16020    16039    16052    16065    16073    16077 
   16078    16081    16089    16094    16100    16112    16120    16124 
   16131    16143    16148    16150    16150    16150    16141    16133 
   16133    16135    16132    16121    16110    16102    16092    16077 
   16058    16032    16006    15989    15981    15981    15978    15979 
   15992    16008    16025    16043    16056    16077    16104    16128 
   16155    16183    16200    16210    16221    16222    16213    16204 
   16195    16186    16170    16155    16141    16121    16101    16081 
   16059    16039    16020    16004    15993    15986    15986    15988 
   15988    15997    16020    16044    16067    16090    16108    16119 
   16124    16125    16116    16098    16087    16081    16069    16060 
   16060    16063    16067    16075    16083    16093    16101    16105 
   16104    16104    16109    16120    16132    16136    16136    16133 
   16128    16121    16117    16113    16105    16092    16074    16060 
   16066    16086    16110    16135    16158    16183    16213    16239 
   16252    16262    16267    16272    16276    16274    16264    16249 
   16232    16212    16198    16190    16190    16191    16190    16189 
   16189    16194    16209    16227    16240    16251    16259    16262 
   16264    16260    16251    16235    16212    16187    16168    16156 
   16147    16139    16131    16128    16131    16137    16150    16156 
   16158    16162    16170    16177    16183    16190    16191    16189 
   16187    16190    16194    16190    16178    16160    16140    16121 
   16102    16083    16066    16051    16033    16024    16025    16032 
   16042    16055    16063    16073    16086    16102    16120    16136 
   16144    16148    16146    16135    16116    16090    16052    16013 
   15974    15940    15911    15886    15870    15863    15863    15874 
   15893    15921    15957    15998    16036    16063    16086    16105 
   16120    16128    16127    16119    16104    16083    16058    16031 
   16000    15962    15928    15907    15892    15878    15863    15850 
   15838    15827    15823    15824    15830    15843    15863    15886 
   15907    15925    15944    15961    15974    15986    15993    15994 
   15989    15981    15971    15966    15969    15974    15986    16001 
   16012    16025    16044    16062    16077    16089    16101    16105 
   16101    16097    16093    16089    16082    16077    16074    16067 
   16051    16027    16000    15969    15943    15924    15907    15892 
   15888    15892    15901    15920    15946    15975    16006    16029 
   16051    16078    16108    16133    16158    16185    16204    16221 
   16243    16259    16270    16276    16276    16271    16267    16270 
   16275    16276    16275    16272    16267    16255    16247    16245 
   16241    16240    16244    16245    16243    16244    16248    16254 
   16262    16270    16271    16270    16268    16266    16262    16259 
   16258    16264    16276    16293    16312    16336    16360    16380 
   16405    16428    16438    16448    16460    16455    16437    16420 
   16395    16370    16349    16325    16293    16256    16221    16186 
   16162    16150    16144    16147    16162    16186    16218    16259 
   16309    16363    16413    16457    16494    16519    16529    16525 
   16510    16476    16430    16382    16329    16268    16198    16129 
   16065    16004    15943    15885    15830    15785    15761    15753 
   15759    15781    15815    15863    15923    15988    16052    16109 
   16160    16210    16252    16276    16290    16290    16271    16239 
   16197    16147    16090    16029    15966    15905    15851    15800 
   15755    15730    15731    15754    15793    15840    15890    15943 
   16000    16051    16082    16096    16097    16083    16046    15998 
   15952    15909    15871    15839    15812    15799    15804    15832 
   15876    15927    15982    16035    16090    16150    16202    16252 
   16291    16310    16314    16303    16279    16248    16205    16150 
   16093    16040    15993    15951    15920    15903    15896    15900 
   15915    15936    15966    15998    16028    16051    16069    16089 
   16106    16123    16140    16155    16160    16152    16137    16123 
   16109    16096    16082    16065    16044    16025    16017    16023 
   16032    16043    16052    16059    16063    16069    16075    16083 
   16090    16092    16087    16083    16081    16077    16070    16060 
   16050    16039    16023    16006    15993    15979    15970    15967 
   15963    15963    15970    15979    15990    16006    16027    16050 
   16074    16100    16124    16148    16178    16208    16232    16252 
   16271    16291    16310    16325    16325    16314    16299    16282 
   16263    16245    16221    16195    16174    16151    16125    16100 
   16077    16052    16028    16006    15990    15982    15982    15989 
   16004    16024    16051    16085    16117    16146    16173    16195 
   16214    16231    16245    16260    16272    16276    16272    16263 
   16254    16243    16227    16201    16178    16154    16124    16098 
   16078    16062    16056    16063    16069    16075    16090    16105 
   16113    16116    16120    16121    16121    16125    16124    16120 
   16114    16108    16104    16100    16092    16087    16087    16089 
   16093    16104    16116    16129    16143    16151    16151    16150 
   16144    16135    16125    16116    16101    16085    16066    16047 
   16029    16019    16009    16002    16004    16006    16009    16016 
   16029    16036    16033    16029    16021    16006    15986    15967 
   15946    15921    15898    15874    15846    15812    15777    15743 
   15716    15703    15700    15708    15734    15776    15828    15894 
   15974    16055    16133    16205    16266    16314    16351    16376 
   16391    16395    16391    16383    16371    16355    16344    16333 
   16322    16316    16312    16310    16314    16321    16336    16362 
   16387    16414    16444    16474    16502    16526    16538    16540 
   16534    16519    16498    16474    16447    16418    16394    16376 
   16360    16349    16345    16341    16335    16330    16329    16325 
   16316    16303    16290    16268    16237    16202    16164    16127 
   16092    16059    16028    15992    15955    15923    15896    15871 
   15854    15844    15843    15847    15858    15873    15889    15904 
   15921    15942    15965    15985    16001    16019    16033    16047 
   16059    16069    16075    16089    16097    16100    16100    16096 
   16083    16073    16060    16048    16042    16036    16027    16024 
   16029    16035    16042    16051    16062    16069    16067    16056 
   16038    16017    15996    15975    15962    15951    15942    15936 
   15931    15925    15932    15948    15969    15993    16019    16043 
   16070    16104    16139    16167    16189    16205    16217    16222 
   16214    16198    16177    16148    16114    16081    16052    16025 
   16000    15985    15985    15998    16019    16038    16058    16079 
   16097    16120    16146    16170    16195    16227    16258    16289 
   16321    16345    16363    16371    16370    16363    16348    16325 
   16301    16272    16243    16213    16186    16166    16155    16147 
   16141    16137    16132    16127    16121    16110    16096    16075 
   16048    16015    15977    15934    15890    15847    15804    15766 
   15735    15708    15691    15691    15697    15716    15746    15782 
   15826    15870    15903    15924    15943    15955    15952    15940 
   15927    15908    15881    15855    15842    15839    15847    15865 
   15890    15925    15967    16012    16051    16086    16117    16143 
   16166    16183    16191    16187    16173    16152    16133    16117 
   16100    16086    16070    16056    16051    16050    16051    16059 
   16075    16097    16117    16139    16158    16175    16193    16208 
   16209    16201    16187    16177    16167    16154    16139    16127 
   16119    16113    16109    16106    16109    16117    16123    16123 
   16125    16132    16136    16140    16146    16151    16156    16164 
   16174    16181    16186    16195    16202    16208    16216    16227 
   16240    16255    16270    16285    16297    16312    16325    16329 
   16322    16313    16298    16282    16270    16255    16241    16237 
   16241    16248    16256    16263    16264    16263    16262    16264 
   16271    16276    16282    16286    16286    16287    16293    16297 
   16293    16281    16266    16247    16231    16220    16212    16208 
   16213    16222    16237    16256    16278    16301    16324    16343 
   16356    16362    16357    16344    16321    16290    16252    16212 
   16173    16137    16108    16085    16066    16052    16044    16042 
   16044    16048    16058    16073    16089    16101    16112    16123 
   16135    16148    16163    16174    16178    16171    16155    16132 
   16109    16087    16063    16043    16027    16011    15993    15979 
   15967    15959    15954    15952    15954    15955    15959    15963 
   15970    15981    15993    16004    16011    16013    16011    16008 
   16006    16004    15997    15990    15989    15996    16006    16020 
   16038    16051    16060    16070    16083    16094    16094    16087 
   16082    16073    16063    16059    16054    16051    16052    16056 
   16058    16056    16054    16046    16038    16027    16008    15990 
   15973    15957    15944    15936    15935    15940    15951    15963 
   15975    15985    15992    15992    15985    15973    15954    15935 
   15919    15901    15882    15866    15854    15846    15842    15835 
   15832    15838    15850    15866    15889    15919    15957    16001 
   16046    16089    16127    16154    16175    16182    16170    16146 
   16112    16063    16009    15957    15903    15851    15815    15788 
   15772    15768    15777    15799    15830    15867    15904    15942 
   15978    16012    16044    16070    16082    16083    16074    16052 
   16028    15998    15962    15928    15898    15874    15855    15842 
   15839    15844    15853    15869    15896    15930    15967    16002 
   16035    16067    16098    16119    16131    16136    16136    16132 
   16128    16121    16119    16117    16123    16140    16166    16197 
   16235    16278    16320    16367    16417    16464    16502    16533 
   16553    16561    16556    16538    16507    16460    16409    16362 
   16316    16274    16240    16210    16189    16181    16182    16193 
   16210    16228    16247    16268    16283    16293    16301    16310 
   16321    16330    16337    16341    16339    16329    16316    16299 
   16282    16260    16240    16222    16206    16193    16182    16171 
   16167    16173    16182    16190    16202    16216    16228    16236 
   16245    16255    16263    16268    16271    16267    16258    16241 
   16217    16186    16146    16096    16043    15990    15934    15880 
   15835    15799    15774    15768    15769    15780    15803    15835 
   15873    15920    15970    16021    16077    16129    16177    16214 
   16244    16264    16275    16282    16278    16259    16235    16208 
   16174    16141    16114    16092    16073    16059    16052    16052 
   16052    16052    16060    16069    16075    16081    16087    16093 
   16100    16117    16135    16144    16154    16168    16178    16190 
   16210    16228    16240    16252    16266    16285    16299    16312 
   16316    16308    16295    16278    16251    16218    16182    16135 
   16083    16033    15989    15947    15909    15881    15861    15851 
   15853    15863    15884    15911    15939    15973    16011    16042 
   16071    16096    16110    16120    16124    16124    16121    16113 
   16102    16093    16079    16067    16062    16058    16052    16054 
   16060    16070    16085    16102    16120    16143    16168    16195 
   16218    16240    16258    16267    16276    16286    16290    16289 
   16286    16282    16278    16276    16271    16263    16252    16243 
   16236    16231    16225    16217    16208    16200    16185    16163 
   16141    16120    16098    16083    16069    16054    16038    16025 
   16019    16008    15994    15986    15979    15975    15974    15975 
   15979    15984    15986    15992    15996    15997    15996    15994 
   15992    15989    15986    15981    15975    15970    15973    15984 
   15996    16013    16040    16065    16087    16113    16139    16159 
   16173    16185    16190    16190    16186    16179    16164    16143 
   16124    16105    16078    16044    16015    15982    15946    15911 
   15876    15836    15795    15758    15732    15714    15705    15712 
   15728    15754    15790    15830    15877    15935    15994    16051 
   16108    16159    16205    16247    16278    16293    16297    16291 
   16279    16259    16233    16202    16166    16132    16102    16074 
   16056    16048    16046    16051    16065    16083    16105    16129 
   16154    16174    16191    16206    16214    16217    16214    16205 
   16197    16189    16177    16166    16164    16174    16186    16201 
   16222    16248    16276    16305    16329    16356    16383    16402 
   16416    16426    16432    16432    16425    16416    16399    16379 
   16360    16341    16320    16302    16287    16274    16268    16267 
   16264    16267    16278    16291    16301    16308    16310    16312 
   16308    16294    16275    16252    16221    16191    16163    16133 
   16102    16074    16046    16016    15989    15970    15961    15962 
   15966    15969    15977    15988    16001    16019    16038    16051 
   16058    16067    16077    16081    16082    16081    16073    16066 
   16059    16047    16032    16013    15992    15973    15957    15939 
   15925    15915    15904    15894    15885    15877    15874    15874 
   15877    15886    15901    15917    15931    15944    15963    15985 
   16001    16016    16033    16050    16065    16075    16078    16075 
   16070    16058    16047    16033    16019    16008    16002    16005 
   16015    16025    16043    16066    16082    16094    16106    16116 
   16117    16109    16096    16079    16062    16044    16031    16021 
   16011    16001    15997    15994    15994    16001    16011    16020 
   16028    16039    16051    16063    16070    16073    16073    16073 
   16070    16062    16051    16040    16032    16031    16032    16044 
   16067    16089    16116    16150    16185    16222    16262    16301 
   16339    16371    16395    16411    16425    16438    16445    16449 
   16451    16444    16434    16425    16413    16397    16380    16363 
   16347    16336    16326    16318    16312    16303    16295    16285 
   16272    16264    16252    16232    16212    16186    16147    16109 
   16077    16042    16008    15979    15954    15930    15911    15893 
   15877    15863    15851    15838    15827    15820    15817    15822 
   15831    15846    15866    15889    15916    15946    15973    16000 
   16025    16044    16052    16051    16046    16035    16019    15997 
   15975    15957    15943    15939    15942    15955    15978    16005 
   16038    16074    16113    16154    16193    16224    16247    16262 
   16267    16259    16241    16217    16185    16143    16097    16052 
   16012    15981    15962    15951    15952    15967    15990    16024 
   16066    16104    16140    16179    16213    16236    16252    16258 
   16249    16232    16212    16189    16160    16129    16101    16075 
   16052    16035    16025    16024    16029    16046    16067    16092 
   16120    16150    16177    16204    16232    16256    16267    16271 
   16274    16270    16262    16249    16236    16227    16220    16212 
   16209    16210    16210    16214    16228    16244    16259    16274 
   16290    16308    16324    16337    16351    16360    16363    16353 
   16336    16313    16282    16241    16201    16158    16113    16069 
   16031    16002    15978    15957    15944    15940    15938    15939 
   15944    15948    15954    15965    15981    15996    16005    16011 
   16017    16024    16023    16019    16013    16008    16000    15986 
   15971    15966    15965    15966    15975    15988    15994    16000 
