Origin Time       2025/01/13 21:19:00
Lat.              31.8
Long.             131.6
Depth. (km)       30
Mag.              6.9
Station Code      TTRH04
Station Lat.      35.4668
Station Long.     133.6307
Station Height(m) -93
Record Time       2025/01/13 21:21:05
Sampling Freq(Hz) 100Hz
Duration Time(s)  147
Dir.              1
Scale Factor      3923(gal)/8224838
Max. Acc. (gal)   0.517
Last Correction   2025/01/13 21:21:07
Memo.             
[...]
    6648     6639     6629     6620     6609     6602     6597     6590 
    6586     6583     6583     6582     6579     6581     6588     6598 
    6606     6613     6623     6628     6629     6631     6629     6627 
    6629     6627     6624     6625     6619     6610     6606     6598 
    6589     6578     6569     6562     6555     6554     6554     6551 
    6551     6551     6555     6558     6552     6543     6534     6520 
    6511     6500     6489     6478     6466     6450     6436     6415 
    6385     6359     6331     6304     6288     6273     6251     6237 
    6226     6214     6208     6210     6208     6208     6212     6215 
    6211     6207     6203     6193     6181     6162     6139     6115 
    6091     6065     6035     6010     5987     5968     5952     5937 
    5926     5918     5908     5903     5906     5914     5922     5935 
    5954     5973     5989     6008     6031     6053     6077     6103 
    6129     6157     6187     6212     6239     6269     6292     6316 
    6345     6377     6411     6447     6488     6532     6578     6623 
    6674     6727     6772     6816     6862     6905     6943     6978 
    7009     7034     7056     7072     7084     7087     7084     7075 
    7057     7034     7011     6988     6966     6941     6917     6890 
    6856     6821     6785     6744     6706     6670     6631     6596 
    6565     6535     6508     6485     6466     6450     6434     6421 
    6413     6408     6411     6413     6417     6428     6440     6450 
    6465     6478     6490     6505     6517     6529     6544     6556 
    6567     6579     6588     6593     6600     6605     6609     6613 
    6616     6621     6631     6637     6643     6655     6666     6670 
    6678     6687     6693     6698     6708     6714     6717     6718 
    6720     6718     6713     6706     6697     6686     6671     6654 
    6636     6616     6589     6558     6527     6489     6447     6405 
    6359     6305     6253     6203     6149     6095     6048     6008 
    5971     5941     5918     5895     5872     5857     5846     5836 
    5829     5827     5830     5833     5841     5850     5860     5873 
    5890     5908     5925     5935     5949     5968     5988     6008 
    6031     6061     6092     6127     6169     6208     6242     6280 
    6316     6347     6374     6396     6412     6421     6426     6430 
    6428     6424     6421     6416     6408     6400     6389     6377 
    6365     6345     6324     6307     6284     6255     6228     6197 
    6166     6130     6089     6052     6015     5975     5938     5900 
    5859     5822     5784     5749     5722     5692     5668     5653 
    5638     5629     5620     5614     5620     5628     5637     5653 
    5672     5695     5721     5748     5782     5822     5859     5892 
    5931     5971     6008     6048     6087     6124     6164     6200 
    6235     6272     6308     6342     6370     6394     6419     6439 
    6453     6462     6471     6478     6478     6473     6465     6450 
    6430     6405     6380     6353     6318     6278     6245     6212 
    6176     6139     6110     6080     6049     6022     6007     5995 
    5984     5981     5985     5989     5995     6003     6011     6014 
    6016     6021     6025     6029     6035     6039     6045     6057 
    6069     6081     6102     6127     6153     6180     6214     6250 
    6286     6324     6367     6408     6448     6490     6531     6570 
    6608     6643     6678     6710     6739     6770     6805     6832 
    6859     6891     6924     6949     6980     7014     7044     7072 
    7102     7128     7149     7168     7180     7188     7198     7202 
    7202     7203     7203     7200     7196     7190     7182     7176 
    7168     7159     7150     7144     7137     7134     7133     7130 
    7132     7133     7132     7141     7146     7146     7153     7161 
    7163     7167     7173     7175     7180     7187     7186     7183 
    7179     7165     7144     7118     7087     7053     7021     6983 
    6939     6894     6849     6801     6748     6696     6644     6596 
    6548     6505     6461     6421     6386     6353     6320     6296 
    6274     6254     6237     6222     6215     6214     6211     6205 
    6197     6191     6188     6181     6174     6170     6164     6156 
    6153     6156     6154     6154     6160     6160     6157     6160 
    6160     6154     6156     6154     6146     6141     6138     6126 
    6114     6107     6099     6092     6087     6083     6080     6080 
    6083     6088     6092     6100     6112     6124     6138     6153 
    6168     6178     6187     6195     6205     6215     6223     6235 
    6245     6254     6272     6293     6312     6331     6355     6378 
    6397     6416     6430     6438     6443     6446     6443     6442 
    6443     6439     6434     6430     6420     6405     6392     6373 
    6351     6334     6313     6291     6268     6246     6231     6218 
    6207     6201     6197     6200     6205     6214     6231     6258 
    6288     6322     6361     6404     6453     6508     6562     6619 
    6674     6727     6774     6813     6843     6866     6889     6903 
    6909     6912     6910     6901     6893     6886     6874     6864 
    6856     6845     6837     6835     6831     6828     6828     6831 
    6832     6835     6839     6837     6836     6835     6829     6818 
    6804     6786     6766     6743     6717     6689     6660     6631 
    6596     6563     6534     6498     6467     6440     6413     6388 
    6362     6336     6319     6303     6288     6274     6268     6264 
    6257     6257     6264     6274     6288     6304     6319     6335 
    6351     6365     6377     6388     6394     6400     6401     6401 
    6394     6385     6377     6365     6349     6332     6308     6276 
    6239     6201     6165     6124     6085     6052     6016     5984 
    5957     5934     5918     5911     5911     5917     5926     5944 
    5968     5996     6029     6064     6097     6135     6178     6220 
    6254     6288     6326     6358     6386     6412     6434     6453 
    6465     6469     6471     6474     6470     6469     6466     6457 
    6453     6453     6444     6439     6436     6434     6431     6432 
    6436     6442     6450     6454     6457     6458     6454     6447 
    6442     6432     6417     6401     6386     6374     6361     6353 
    6347     6335     6324     6320     6316     6312     6316     6323 
    6328     6334     6340     6350     6363     6376     6386     6400 
    6415     6421     6426     6438     6455     6467     6481     6494 
    6507     6517     6525     6536     6552     6570     6592     6615 
    6639     6663     6683     6704     6718     6729     6741     6752 
    6759     6770     6778     6781     6786     6790     6791     6794 
    6799     6799     6798     6795     6787     6778     6768     6756 
    6744     6728     6708     6693     6675     6652     6629     6608 
    6583     6556     6529     6507     6485     6461     6434     6408 
    6385     6365     6342     6322     6304     6286     6269     6253 
    6238     6224     6214     6204     6195     6187     6180     6174 
    6170     6168     6169     6173     6177     6184     6195     6205 
    6218     6234     6255     6278     6303     6331     6362     6392 
    6424     6458     6488     6516     6548     6581     6610     6633 
    6654     6675     6693     6708     6721     6732     6740     6745 
    6743     6736     6728     6709     6683     6655     6621     6579 
    6538     6498     6454     6407     6362     6320     6278     6242 
    6211     6180     6153     6134     6115     6102     6095     6091 
    6096     6107     6123     6143     6170     6199     6234     6272 
    6309     6349     6389     6432     6477     6520     6569     6617 
    6660     6700     6733     6767     6797     6822     6840     6849 
    6855     6858     6856     6851     6841     6828     6816     6797 
    6772     6747     6720     6690     6658     6621     6582     6543 
    6505     6466     6423     6380     6339     6299     6258     6220 
    6184     6146     6114     6087     6062     6046     6034     6025 
    6022     6031     6042     6057     6083     6111     6142     6178 
    6211     6243     6277     6305     6331     6355     6378     6399 
    6416     6431     6443     6458     6467     6475     6485     6492 
    6494     6497     6500     6504     6502     6500     6501     6500 
    6493     6489     6488     6482     6470     6459     6450     6436 
    6416     6392     6367     6340     6313     6291     6266     6243 
    6226     6208     6191     6176     6161     6149     6137     6126 
    6111     6099     6093     6089     6087     6089     6092     6095 
    6097     6099     6099     6097     6093     6087     6083     6080 
    6079     6076     6080     6085     6092     6102     6111     6124 
    6141     6160     6181     6200     6220     6245     6264     6282 
    6308     6330     6347     6365     6382     6397     6408     6412 
    6413     6417     6416     6411     6405     6397     6388     6381 
    6374     6370     6369     6366     6362     6363     6367     6367 
    6366     6370     6373     6370     6366     6366     6365     6363 
    6365     6367     6370     6374     6378     6386     6394     6409 
    6428     6444     6462     6480     6496     6512     6525     6538 
    6555     6570     6578     6589     6601     6609     6615     6619 
    6627     6631     6632     6637     6640     6642     6646     6647 
    6647     6650     6648     6650     6652     6658     6663     6664 
    6669     6675     6681     6686     6691     6700     6709     6716 
    6723     6729     6729     6727     6721     6706     6689     6674 
    6654     6631     6606     6579     6550     6517     6484     6447 
    6409     6370     6335     6297     6258     6224     6196     6170 
    6147     6123     6104     6089     6075     6066     6064     6060 
    6057     6056     6054     6053     6052     6049     6043     6038 
    6033     6025     6016     6007     5999     5988     5975     5964 
    5956     5944     5931     5918     5904     5891     5877     5864 
    5850     5841     5837     5829     5821     5810     5798     5784 
    5767     5748     5729     5710     5686     5660     5637     5618 
    5599     5584     5574     5566     5563     5564     5571     5586 
    5606     5634     5668     5706     5748     5795     5845     5894 
    5945     6000     6053     6107     6166     6228     6289     6347 
    6405     6467     6532     6590     6646     6704     6760     6813 
    6866     6918     6964     7002     7036     7071     7095     7111 
    7126     7133     7128     7117     7099     7075     7048     7013 
    6975     6936     6890     6839     6786     6732     6678     6619 
    6558     6505     6454     6404     6362     6327     6291     6262 
    6243     6224     6208     6203     6203     6207     6218     6230 
    6247     6272     6303     6340     6381     6428     6482     6536 
    6594     6660     6727     6791     6858     6924     6988     7055 
    7113     7165     7219     7267     7304     7338     7365     7383 
    7392     7393     7388     7373     7348     7312     7269     7219 
    7163     7099     7036     6971     6901     6828     6755     6681 
    6615     6552     6489     6426     6370     6322     6280     6243 
    6212     6189     6172     6156     6143     6135     6129     6124 
    6126     6130     6135     6142     6153     6166     6181     6200 
    6220     6241     6266     6295     6320     6346     6372     6394 
    6420     6446     6471     6500     6527     6550     6571     6593 
    6612     6631     6646     6654     6667     6678     6681     6678 
    6678     6677     6673     6666     6659     6652     6648     6644 
    6639     6632     6628     6628     6625     6617     6613     6610 
    6604     6597     6593     6585     6577     6569     6556     6543 
    6531     6516     6502     6488     6474     6463     6454     6447 
    6443     6442     6440     6438     6436     6434     6432     6430 
    6424     6420     6415     6409     6403     6390     6376     6358 
    6336     6315     6292     6262     6237     6214     6185     6161 
    6141     6119     6099     6081     6062     6052     6046     6041 
    6042     6053     6068     6088     6115     6145     6181     6222 
    6264     6307     6355     6404     6454     6507     6561     6619 
    6673     6718     6764     6812     6852     6887     6918     6947 
    6967     6983     6998     7006     7006     7006     7001     6993 
    6982     6964     6941     6916     6882     6844     6806     6762 
    6717     6681     6636     6589     6552     6516     6478     6443 
    6413     6390     6370     6349     6336     6330     6323     6322 
    6327     6336     6350     6366     6389     6415     6440     6469 
    6497     6524     6552     6582     6608     6633     6662     6685 
    6701     6714     6725     6731     6733     6733     6727     6714 
    6698     6678     6655     6632     6605     6571     6536     6498 
    6454     6405     6354     6297     6237     6177     6118     6050 
    5987     5927     5864     5805     5749     5692     5640     5587 
    5537     5497     5460     5427     5402     5381     5362     5354 
    5348     5348     5351     5359     5377     5397     5418     5448 
    5482     5518     5559     5597     5638     5687     5737     5783 
    5836     5895     5954     6014     6072     6134     6199     6262 
    6327     6396     6461     6521     6583     6644     6697     6748 
    6795     6837     6875     6909     6934     6957     6979     6997 
    7009     7018     7028     7032     7034     7033     7032     7033 
    7029     7020     7013     7003     6986     6970     6955     6937 
    6917     6895     6878     6858     6832     6804     6775     6747 
    6718     6687     6655     6625     6596     6563     6538     6515 
    6492     6474     6462     6453     6447     6444     6444     6446 
    6450     6457     6465     6471     6477     6485     6493     6496 
    6497     6497     6496     6497     6497     6493     6488     6486 
    6485     6480     6473     6469     6463     6458     6448     6439 
    6430     6420     6405     6393     6382     6367     6349     6331 
    6315     6296     6277     6254     6231     6216     6201     6177 
    6160     6147     6130     6114     6104     6097     6087     6083 
    6085     6088     6093     6106     6120     6135     6157     6188 
    6219     6247     6281     6322     6359     6397     6439     6484 
    6527     6573     6620     6660     6701     6743     6778     6809 
    6841     6866     6880     6894     6907     6909     6903     6898 
    6889     6871     6851     6831     6808     6783     6759     6729 
    6696     6667     6639     6602     6569     6539     6511     6484 
    6459     6438     6413     6390     6374     6359     6345     6336 
    6328     6324     6323     6323     6327     6334     6342     6350 
    6354     6362     6372     6378     6390     6405     6413     6427 
    6447     6462     6471     6482     6488     6490     6490     6489 
    6492     6490     6484     6478     6474     6465     6448     6438 
    6426     6409     6393     6377     6363     6349     6330     6318 
    6311     6297     6286     6282     6274     6268     6262     6257 
    6251     6242     6238     6235     6234     6235     6239     6241 
    6246     6254     6264     6270     6278     6288     6300     6313 
    6331     6347     6365     6385     6405     6420     6440     6462 
    6478     6494     6508     6519     6531     6539     6542     6550 
    6558     6561     6562     6562     6561     6559     6552     6548 
    6546     6540     6534     6527     6519     6512     6505     6498 
    6492     6482     6474     6466     6455     6444     6435     6423 
    6412     6405     6397     6392     6393     6393     6393     6396 
    6403     6411     6416     6426     6440     6454     6473     6493 
    6509     6534     6561     6581     6604     6629     6651     6677 
    6697     6714     6733     6755     6774     6795     6818     6839 
    6858     6882     6906     6925     6943     6961     6983     6999 
    7010     7025     7041     7051     7060     7069     7068     7061 
    7055     7045     7029     7007     6984     6963     6939     6909 
    6880     6851     6822     6795     6766     6737     6710     6685 
    6663     6640     6621     6605     6592     6579     6567     6558 
    6551     6546     6538     6534     6534     6529     6524     6521 
    6517     6509     6498     6494     6490     6480     6466     6457 
    6450     6442     6427     6415     6405     6392     6381     6369 
    6354     6338     6324     6309     6295     6282     6269     6250 
    6230     6215     6200     6178     6160     6143     6127     6112 
    6097     6085     6076     6068     6060     6057     6056     6052 
    6048     6046     6048     6046     6043     6045     6046     6046 
    6048     6053     6057     6060     6061     6062     6065     6072 
    6077     6081     6089     6096     6103     6110     6120     6133 
    6143     6154     6166     6177     6192     6207     6219     6231 
    6247     6262     6277     6291     6303     6319     6334     6350 
    6366     6382     6397     6411     6426     6444     6459     6469 
    6485     6498     6505     6515     6525     6531     6540     6547 
    6546     6544     6539     6535     6529     6519     6507     6497 
    6488     6475     6465     6455     6448     6439     6430     6421 
    6420     6421     6420     6421     6426     6431     6438     6440 
    6444     6453     6462     6471     6484     6497     6508     6524 
    6544     6562     6579     6601     6620     6640     6667     6690 
    6712     6739     6767     6789     6808     6828     6849     6867 
    6882     6889     6893     6899     6898     6891     6883     6871 
    6858     6844     6826     6809     6787     6762     6740     6714 
    6687     6669     6651     6629     6610     6592     6573     6561 
    6550     6538     6529     6524     6520     6519     6520     6524 
    6528     6535     6543     6551     6562     6574     6592     6610 
    6633     6655     6675     6697     6721     6739     6758     6777 
    6791     6802     6810     6820     6825     6826     6826     6822 
    6812     6797     6777     6752     6724     6694     6658     6621 
    6585     6543     6498     6459     6420     6381     6340     6301 
    6262     6223     6188     6162     6137     6110     6088     6072 
    6058     6045     6034     6026     6021     6016     6018     6025 
    6029     6034     6046     6058     6064     6072     6084     6092 
    6102     6112     6118     6124     6134     6139     6145     6153 
    6157     6162     6168     6169     6170     6172     6174     6170 
    6168     6166     6162     6158     6160     6156     6153     6153 
    6150     6153     6157     6165     6178     6189     6201     6223 
    6243     6262     6289     6318     6342     6365     6393     6426 
