Origin Time       2025/01/13 21:19:00
Lat.              31.8
Long.             131.6
Depth. (km)       30
Mag.              6.9
Station Code      TTRH06
Station Lat.      35.3946
Station Long.     134.1988
Station Height(m) 30
Record Time       2025/01/13 21:21:16
Sampling Freq(Hz) 100Hz
Duration Time(s)  120
Dir.              6
Scale Factor      7845(gal)/8223790
Max. Acc. (gal)   0.409
Last Correction   2025/01/13 21:21:17
Memo.             
[...]
     581      584      584      580      577      580      585      595 
     600      596      591      584      579      576      571      562 
     554      550      550      552      548      545      549      552 
     556      561      564      567      569      568      561      558 
     560      565      568      561      561      568      573      576 
     577      573      571      569      565      558      556      560 
     562      567      572      572      571      572      575      585 
     596      599      596      594      599      604      607      611 
     612      614      619      630      641      650      652      646 
     648      656      662      661      658      664      676      688 
     700      708      710      712      719      727      735      737 
     737      734      727      722      719      719      723      729 
     738      751      760      761      760      761      768      770 
     765      753      743      742      745      749      753      753 
     751      751      749      743      737      730      719      708 
     695      681      670      664      654      641      627      610 
     595      589      589      587      579      567      552      544 
     540      540      538      531      521      508      498      490 
     484      483      487      499      513      522      534      550 
     564      579      587      588      583      583      588      591 
     592      592      591      591      598      606      614      625 
     635      646      656      661      656      649      643      634 
     630      633      638      648      656      666      680      693 
     703      714      722      727      729      729      727      724 
     720      724      734      746      751      751      760      774 
     781      789      793      788      780      776      773      768 
     757      745      737      734      734      733      726      719 
     715      710      702      699      697      688      677      668 
     664      660      656      654      658      661      660      660 
     664      668      672      676      683      692      700      710 
     719      724      719      710      703      697      688      681 
     681      684      681      672      662      653      642      637 
     637      635      633      626      615      603      589      572 
     552      540      525      513      507      503      496      498 
     500      503      511      521      523      526      529      533 
     538      544      548      552      556      556      556      564 
     573      579      587      596      600      595      592      594 
     594      588      583      579      579      585      591      592 
     591      589      588      594      603      612      623      630 
     633      629      627      631      634      637      645      649 
     649      649      653      657      658      658      665      668 
     664      665      670      675      680      687      691      689 
     688      688      685      685      689      691      695      704 
     719      731      741      746      743      741      741      739 
     737      734      738      742      743      750      756      762 
     769      776      780      783      785      788      791      797 
     804      805      807      812      816      816      816      812 
     804      795      788      784      780      772      760      749 
     741      734      729      722      710      696      681      668 
     653      639      622      604      595      591      588      589 
     591      585      580      579      575      573      580      584 
     585      589      598      610      616      615      612      611 
     607      599      592      587      581      580      581      580 
     576      568      560      552      544      531      518      507 
     495      488      483      473      464      461      460      459 
     459      452      445      448      450      446      445      449 
     461      477      491      504      519      533      546      564 
     580      592      610      627      638      642      643      642 
     634      623      616      614      603      591      585      583 
     584      591      594      591      591      591      587      581 
     581      585      585      583      576      571      576      581 
     588      592      594      596      604      615      623      625 
     619      619      625      630      631      634      634      625 
     618      616      611      604      596      583      569      561 
     552      544      541      535      529      522      513      503 
     502      500      499      500      503      508      518      527 
     531      542      554      562      572      577      575      575 
     576      573      573      575      575      579      584      585 
     589      596      599      599      600      603      603      600 
     603      612      623      627      629      638      646      652 
     657      666      679      692      699      704      712      715 
     714      714      722      730      729      726      729      731 
     730      731      733      734      730      726      722      712 
     704      707      714      714      712      704      692      689 
     684      675      668      665      668      670      669      670 
     675      683      695      702      704      703      697      692 
     687      676      664      652      639      629      616      611 
     610      603      595      589      580      567      550      533 
     518      511      510      506      502      500      496      492 
     494      498      498      494      486      479      479      476 
     472      473      486      495      494      488      490      492 
     495      496      496      495      491      487      481      480 
     481      480      473      465      461      460      454      448 
     441      434      426      422      419      418      417      410 
     407      406      402      400      409      419      427      433 
     440      449      459      471      484      491      498      511 
     530      546      558      572      594      622      645      662 
     681      703      720      731      739      751      762      768 
     773      783      795      805      810      812      823      834 
     839      845      850      851      851      854      857      859 
     868      876      881      888      893      897      903      907 
     908      909      916      924      932      940      950      957 
     954      950      949      954      962      965      963      962 
     963      965      969      974      974      970      972      969 
     962      955      949      945      942      930      915      904 
     892      880      869      857      841      826      811      796 
     783      766      747      731      714      692      676      660 
     646      637      623      606      589      576      561      549 
     538      529      525      522      522      523      523      522 
     526      533      538      541      535      531      530      526 
     518      513      513      514      510      508      515      525 
     527      526      530      538      542      542      542      546 
     548      548      552      556      562      575      588      598 
     602      606      612      618      622      625      635      650 
     661      672      681      691      711      731      745      756 
     764      773      784      788      787      789      795      799 
     805      810      808      808      815      823      828      831 
     827      819      814      808      800      789      778      766 
     758      749      737      724      714      702      689      679 
     665      648      622      595      575      561      549      537 
     521      503      496      495      491      487      490      491 
     491      492      496      498      499      496      491      491 
     492      492      488      481      477      476      472      469 
     468      463      452      444      436      427      422      419 
     411      405      405      406      409      417      427      440 
     452      464      475      483      488      496      508      518 
     521      521      522      527      537      546      549      550 
     548      545      542      540      535      531      526      518 
     506      495      481      467      450      436      423      407 
     392      382      372      367      360      346      334      324 
     310      299      298      305      311      317      324      334 
     345      355      360      364      369      373      378      387 
     402      417      432      449      471      498      518      529 
     540      552      558      560      558      558      565      572 
     576      579      580      577      573      575      579      577 
     575      580      588      587      587      592      596      599 
     603      606      606      608      612      618      623      626 
     631      638      641      638      642      641      638      641 
     642      642      646      649      654      661      668      670 
     672      676      681      688      692      691      695      700 
     706      712      722      731      738      742      753      769 
     783      792      804      823      842      854      872      889 
     903      913      922      928      943      957      961      959 
     961      961      965      969      973      980      986      989 
     992      999     1003     1003     1003     1004     1007     1008 
    1008     1011     1015     1012     1004     1003     1009     1015 
    1015     1013     1008      997      993      986      974      966 
     961      949      935      924      915      904      892      880 
     866      851      839      823      804      787      773      762 
     749      734      723      718      704      688      679      669 
     653      631      612      596      580      564      546      533 
     522      507      494      486      473      457      441      426 
     414      403      391      375      363      353      340      326 
     315      306      297      283      271      268      263      255 
     249      249      247      240      233      229      229      229 
     230      233      237      243      248      255      264      276 
     287      299      314      330      344      355      361      372 
     388      405      418      432      448      467      486      507 
     531      557      587      618      643      664      681      702 
     724      741      753      768      787      807      824      837 
     849      859      864      869      872      872      874      876 
     878      884      891      896      901      905      909      905 
     901      900      897      895      891      885      877      865 
     855      849      838      824      815      810      796      773 
     757      742      723      704      685      665      646      629 
     614      596      583      576      572      568      571      573 
     573      576      580      580      576      571      564      556 
     552      550      545      540      540      537      531      527 
     519      510      504      495      483      473      464      452 
     437      423      417      411      405      396      390      387 
     387      391      396      405      413      417      423      429 
     432      436      440      446      454      463      471      480 
     494      511      530      548      568      588      602      622 
     645      664      681      699      718      739      761      777 
     793      815      835      847      855      865      877      881 
     880      886      892      888      884      878      870      862 
     853      843      828      815      803      789      776      765 
     754      745      734      722      708      693      680      666 
     649      642      642      638      633      623      611      603 
     599      592      587      581      571      562      561      556 
     550      548      544      537      531      529      526      525 
     527      527      526      527      531      540      548      553 
     562      577      591      602      616      633      645      654 
     665      675      679      680      684      695      702      706 
     712      718      727      738      741      741      745      742 
     737      734      731      726      716      706      697      691 
     685      685      689      695      699      697      697      706 
     712      714      714      715      718      719      723      729 
     737      746      758      769      777      785      793      801 
     810      819      828      838      847      859      869      876 
     885      893      896      899      903      907      909      912 
     918      926      930      926      922      919      915      909 
     899      881      862      843      828      812      795      777 
     757      737      716      691      665      645      621      589 
     564      540      514      491      467      446      430      407 
     384      373      360      337      317      298      280      268 
     255      243      233      224      218      210      202      202 
     205      206      210      214      217      220      220      225 
     238      251      260      278      299      318      337      359 
     376      392      413      433      453      469      488      506 
     518      533      548      557      568      577      585      595 
     600      606      614      618      619      622      623      625 
     630      634      633      633      634      642      649      652 
     656      664      669      675      677      683      695      704 
     712      723      733      742      753      761      766      774 
     784      791      800      811      815      816      820      823 
     823      819      815      812      805      796      784      773 
     760      746      737      723      707      695      685      675 
     662      648      630      612      595      580      564      546 
     531      521      508      494      479      463      442      421 
     406      396      384      369      359      349      338      326 
     319      314      307      302      301      305      310      318 
     329      344      356      367      379      391      403      418 
     436      449      460      472      487      506      527      549 
     572      595      615      637      660      679      696      714 
     731      750      768      787      799      807      814      819 
     827      835      841      839      838      839      837      832 
     832      832      831      830      827      823      815      805 
     797      791      781      773      765      760      754      746 
     737      735      734      727      724      729      733      733 
     735      741      746      749      754      761      766      772 
     777      778      774      772      772      768      760      749 
     734      723      711      697      685      666      645      625 
     610      596      583      567      549      534      521      510 
     499      488      479      469      464      460      457      460 
     460      460      460      460      464      473      483      488 
     496      508      517      523      531      538      544      549 
     553      554      554      556      558      562      567      573 
     581      591      599      606      611      615      621      623 
     627      639      649      652      660      675      687      697 
     710      720      726      733      741      749      754      761 
     770      778      785      795      804      812      822      831 
     839      845      851      864      873      876      878      885 
     895      901      904      905      908      905      903      903 
     897      892      886      878      869      861      855      847 
     839      830      819      803      787      772      758      738 
     715      696      676      656      639      623      604      584 
     564      546      531      514      494      472      453      436 
     417      396      376      363      353      345      340      337 
     334      334      332      328      325      322      314      303 
     292      284      283      283      280      283      287      291 
     298      307      315      321      324      329      341      355 
     365      376      391      411      434      457      479      503 
     525      545      564      581      598      614      631      650 
     662      670      680      693      708      720      731      739 
     747      756      762      766      770      774      780      788 
     795      799      803      805      804      805      808      810 
     811      814      815      815      814      814      815      811 
     804      799      795      789      792      793      787      783 
     783      777      774      773      765      760      758      757 
     754      743      730      724      720      712      704      697 
     685      675      670      662      649      637      627      619 
     612      606      599      594      592      587      573      562 
     553      544      538      533      529      525      518      513 
     511      513      511      507      510      514      517      523 
     529      535      546      557      568      579      585      594 
     603      610      621      630      633      642      658      672 
     683      693      704      715      723      727      735      739 
     738      735      734      734      735      734      734      735 
     733      729      724      719      718      716      711      704 
     697      691      685      679      672      666      657      648 
     643      637      629      622      614      602      594      585 
     576      571      561      552      548      546      540      538 
     540      538      534      534      533      533      534      538 
     541      542      546      558      571      577      585      592 
     600      608      614      616      623      633      641      645 
     649      660      672      680      687      691      696      700 
     697      693      696      699      699      699      699      704 
     708      707      708      707      707      707      707      707 
     710      710      712      715      716      715      716      720 
     720      716      714      707      697      689      677      665 
     656      639      623      608      595      581      568      550 
     535      521      502      480      464      448      426      402 
     384      371      352      329      313      299      290      283 
     278      267      260      260      263      268      272      276 
     284      295      305      315      329      346      363      378 
     394      410      426      448      467      476      494      515 
