Origin Time       2025/01/13 21:19:00
Lat.              31.8
Long.             131.6
Depth. (km)       30
Mag.              6.9
Station Code      TTRH04
Station Lat.      35.4668
Station Long.     133.6307
Station Height(m) 114
Record Time       2025/01/13 21:21:05
Sampling Freq(Hz) 100Hz
Duration Time(s)  147
Dir.              6
Scale Factor      7845(gal)/8223790
Max. Acc. (gal)   0.600
Last Correction   2025/01/13 21:21:07
Memo.             
[...]
  -15761   -15732   -15707   -15678   -15653   -15635   -15615   -15600 
  -15593   -15579   -15570   -15577   -15583   -15589   -15600   -15611 
  -15628   -15649   -15665   -15688   -15711   -15726   -15747   -15769 
  -15778   -15789   -15800   -15807   -15815   -15816   -15812   -15820 
  -15828   -15828   -15835   -15840   -15844   -15853   -15858   -15867 
  -15884   -15894   -15907   -15923   -15931   -15938   -15948   -15955 
  -15962   -15970   -15975   -15984   -15992   -15996   -15996   -15989 
  -15984   -15985   -15979   -15966   -15951   -15942   -15931   -15919 
  -15907   -15898   -15892   -15882   -15870   -15861   -15853   -15846 
  -15836   -15827   -15813   -15796   -15784   -15773   -15754   -15734 
  -15723   -15711   -15697   -15691   -15684   -15677   -15672   -15660 
  -15646   -15638   -15624   -15607   -15593   -15577   -15562   -15552 
  -15537   -15520   -15511   -15507   -15507   -15507   -15507   -15516 
  -15534   -15554   -15574   -15596   -15619   -15642   -15665   -15681 
  -15697   -15711   -15723   -15739   -15755   -15766   -15773   -15784 
  -15799   -15822   -15844   -15862   -15881   -15905   -15925   -15951 
  -15978   -16004   -16031   -16052   -16067   -16085   -16094   -16096 
  -16101   -16104   -16094   -16085   -16073   -16052   -16033   -16011 
  -15986   -15967   -15944   -15920   -15898   -15880   -15857   -15834 
  -15817   -15799   -15778   -15755   -15732   -15715   -15696   -15672 
  -15651   -15638   -15623   -15610   -15603   -15596   -15592   -15592 
  -15592   -15597   -15601   -15606   -15611   -15619   -15627   -15630 
  -15631   -15631   -15635   -15641   -15645   -15651   -15658   -15662 
  -15666   -15673   -15674   -15674   -15678   -15680   -15678   -15684 
  -15691   -15701   -15708   -15712   -15722   -15731   -15738   -15747 
  -15754   -15759   -15765   -15765   -15765   -15770   -15772   -15769 
  -15766   -15766   -15772   -15774   -15766   -15765   -15769   -15772 
  -15772   -15766   -15761   -15755   -15750   -15746   -15746   -15745 
  -15741   -15736   -15738   -15742   -15749   -15754   -15759   -15766 
  -15778   -15788   -15793   -15803   -15809   -15813   -15816   -15807 
  -15796   -15789   -15774   -15759   -15743   -15720   -15700   -15684 
  -15665   -15645   -15626   -15614   -15603   -15591   -15588   -15588 
  -15585   -15588   -15593   -15601   -15614   -15623   -15634   -15646 
  -15651   -15661   -15676   -15685   -15696   -15705   -15711   -15719 
  -15727   -15735   -15747   -15758   -15765   -15770   -15777   -15789 
  -15799   -15799   -15801   -15808   -15815   -15819   -15822   -15820 
  -15820   -15820   -15816   -15815   -15815   -15811   -15809   -15815 
  -15820   -15824   -15824   -15831   -15843   -15853   -15861   -15874 
  -15885   -15890   -15898   -15909   -15921   -15925   -15925   -15934 
  -15942   -15948   -15963   -15981   -15998   -16017   -16040   -16069 
  -16106   -16141   -16173   -16206   -16241   -16274   -16302   -16326 
  -16345   -16356   -16363   -16362   -16352   -16336   -16321   -16305 
  -16283   -16254   -16222   -16194   -16171   -16144   -16110   -16079 
  -16050   -16023   -15994   -15961   -15925   -15896   -15865   -15834 
  -15803   -15769   -15742   -15716   -15689   -15669   -15649   -15626 
  -15611   -15596   -15580   -15568   -15558   -15552   -15547   -15542 
  -15533   -15526   -15526   -15523   -15515   -15516   -15526   -15534 
  -15539   -15545   -15554   -15568   -15580   -15587   -15595   -15608 
  -15622   -15626   -15626   -15623   -15622   -15612   -15595   -15580 
  -15561   -15535   -15511   -15484   -15453   -15423   -15398   -15372 
  -15350   -15336   -15325   -15317   -15315   -15318   -15321   -15329 
  -15341   -15357   -15383   -15410   -15434   -15462   -15492   -15525 
  -15561   -15595   -15627   -15662   -15700   -15736   -15772   -15805 
  -15843   -15882   -15916   -15946   -15973   -15996   -16021   -16042 
  -16055   -16063   -16067   -16071   -16074   -16070   -16065   -16058 
  -16048   -16042   -16036   -16029   -16023   -16024   -16028   -16031 
  -16033   -16043   -16050   -16054   -16062   -16070   -16081   -16098 
  -16109   -16116   -16128   -16139   -16147   -16150   -16151   -16150 
  -16141   -16133   -16123   -16106   -16090   -16077   -16063   -16046 
  -16025   -16006   -15988   -15970   -15952   -15934   -15912   -15896 
  -15884   -15862   -15840   -15822   -15799   -15778   -15755   -15727 
  -15697   -15668   -15633   -15601   -15570   -15538   -15510   -15479 
  -15450   -15429   -15403   -15377   -15363   -15353   -15341   -15336 
  -15341   -15346   -15357   -15372   -15384   -15403   -15429   -15453 
  -15479   -15506   -15541   -15579   -15608   -15634   -15661   -15689 
  -15718   -15741   -15761   -15782   -15800   -15813   -15826   -15835 
  -15846   -15853   -15859   -15865   -15871   -15877   -15880   -15888 
  -15896   -15901   -15907   -15913   -15919   -15927   -15935   -15938 
  -15940   -15944   -15944   -15946   -15944   -15938   -15935   -15930 
  -15917   -15908   -15903   -15897   -15889   -15885   -15880   -15871 
  -15867   -15866   -15863   -15861   -15861   -15863   -15869   -15874 
  -15882   -15894   -15903   -15909   -15920   -15930   -15932   -15934 
  -15934   -15928   -15919   -15907   -15892   -15873   -15851   -15827 
  -15800   -15774   -15751   -15734   -15718   -15701   -15689   -15681 
  -15676   -15674   -15676   -15678   -15680   -15680   -15687   -15691 
  -15693   -15701   -15707   -15707   -15712   -15718   -15718   -15718 
  -15716   -15714   -15704   -15696   -15692   -15689   -15687   -15680 
  -15678   -15684   -15688   -15689   -15693   -15704   -15716   -15730 
  -15746   -15757   -15766   -15781   -15792   -15803   -15816   -15826 
  -15834   -15846   -15855   -15858   -15863   -15871   -15880   -15885 
  -15886   -15889   -15893   -15900   -15907   -15911   -15913   -15917 
  -15924   -15930   -15934   -15932   -15931   -15935   -15939   -15938 
  -15928   -15921   -15913   -15900   -15885   -15863   -15840   -15822 
  -15803   -15780   -15750   -15719   -15691   -15665   -15642   -15614 
  -15589   -15572   -15554   -15541   -15527   -15512   -15507   -15506 
  -15507   -15515   -15527   -15541   -15558   -15577   -15597   -15623 
  -15650   -15684   -15726   -15761   -15792   -15832   -15873   -15912 
  -15951   -15990   -16025   -16060   -16093   -16123   -16151   -16170 
  -16182   -16194   -16208   -16210   -16204   -16200   -16195   -16181 
  -16158   -16136   -16113   -16085   -16055   -16017   -15978   -15947 
  -15915   -15882   -15849   -15817   -15790   -15765   -15749   -15734 
  -15719   -15712   -15705   -15701   -15701   -15704   -15709   -15714 
  -15716   -15720   -15726   -15734   -15745   -15753   -15758   -15770 
  -15784   -15795   -15807   -15817   -15828   -15843   -15857   -15869 
  -15877   -15886   -15897   -15904   -15907   -15908   -15913   -15916 
  -15912   -15908   -15905   -15907   -15905   -15900   -15903   -15905 
  -15901   -15901   -15901   -15898   -15900   -15903   -15900   -15900 
  -15904   -15901   -15900   -15901   -15900   -15896   -15896   -15893 
  -15894   -15897   -15898   -15894   -15890   -15888   -15882   -15874 
  -15863   -15854   -15847   -15836   -15824   -15813   -15797   -15777 
  -15763   -15750   -15731   -15715   -15699   -15680   -15662   -15645 
  -15626   -15604   -15591   -15580   -15568   -15556   -15550   -15550 
  -15546   -15547   -15554   -15558   -15568   -15592   -15616   -15638 
  -15657   -15681   -15712   -15745   -15769   -15786   -15809   -15836 
  -15858   -15871   -15880   -15886   -15897   -15909   -15909   -15904 
  -15905   -15901   -15896   -15893   -15886   -15881   -15880   -15871 
  -15863   -15859   -15855   -15851   -15843   -15832   -15827   -15823 
  -15812   -15797   -15782   -15770   -15759   -15746   -15726   -15701 
  -15684   -15666   -15646   -15619   -15589   -15564   -15542   -15525 
  -15512   -15495   -15481   -15480   -15483   -15489   -15499   -15510 
  -15530   -15557   -15587   -15620   -15657   -15697   -15739   -15780 
  -15826   -15871   -15911   -15957   -16006   -16054   -16098   -16139 
  -16175   -16212   -16247   -16278   -16298   -16316   -16332   -16339 
  -16340   -16337   -16326   -16308   -16285   -16256   -16220   -16181 
  -16136   -16086   -16039   -15990   -15938   -15888   -15834   -15777 
  -15728   -15682   -15635   -15596   -15554   -15510   -15473   -15441 
  -15411   -15387   -15365   -15345   -15326   -15314   -15311   -15310 
  -15307   -15307   -15317   -15330   -15341   -15353   -15371   -15392 
  -15417   -15442   -15465   -15492   -15522   -15550   -15580   -15611 
  -15639   -15665   -15689   -15711   -15727   -15746   -15765   -15777 
  -15789   -15800   -15808   -15813   -15823   -15830   -15838   -15846 
  -15854   -15862   -15876   -15893   -15915   -15935   -15950   -15966 
  -15988   -16006   -16020   -16028   -16040   -16052   -16056   -16060 
  -16062   -16062   -16063   -16060   -16055   -16050   -16044   -16039 
  -16035   -16024   -16013   -16002   -15989   -15981   -15971   -15959 
  -15951   -15946   -15938   -15930   -15927   -15921   -15919   -15920 
  -15920   -15920   -15920   -15919   -15919   -15925   -15931   -15935 
  -15939   -15943   -15946   -15948   -15952   -15955   -15951   -15946 
  -15944   -15942   -15935   -15921   -15907   -15893   -15877   -15861 
  -15840   -15822   -15801   -15776   -15751   -15730   -15704   -15680 
  -15655   -15634   -15614   -15591   -15573   -15561   -15545   -15530 
  -15520   -15515   -15508   -15504   -15498   -15492   -15488   -15481 
  -15479   -15480   -15476   -15472   -15475   -15476   -15477   -15480 
  -15477   -15479   -15481   -15481   -15487   -15498   -15507   -15519 
  -15533   -15549   -15569   -15587   -15604   -15626   -15651   -15681 
  -15711   -15735   -15754   -15781   -15813   -15838   -15859   -15878 
  -15896   -15916   -15931   -15942   -15954   -15965   -15971   -15974 
  -15970   -15973   -15975   -15971   -15966   -15958   -15951   -15944 
  -15935   -15927   -15920   -15913   -15905   -15894   -15885   -15878 
  -15873   -15863   -15855   -15844   -15831   -15822   -15815   -15804 
  -15795   -15784   -15777   -15774   -15772   -15766   -15763   -15763 
  -15766   -15763   -15758   -15754   -15753   -15753   -15755   -15753 
  -15749   -15746   -15745   -15743   -15745   -15749   -15757   -15768 
  -15774   -15782   -15796   -15809   -15820   -15831   -15843   -15855 
  -15861   -15867   -15877   -15881   -15886   -15889   -15885   -15880 
  -15880   -15882   -15881   -15869   -15857   -15843   -15832   -15822 
  -15807   -15790   -15777   -15762   -15747   -15734   -15720   -15708 
  -15697   -15688   -15681   -15674   -15668   -15669   -15669   -15661 
  -15653   -15649   -15647   -15647   -15639   -15631   -15633   -15630 
  -15627   -15628   -15624   -15626   -15628   -15627   -15628   -15634 
  -15641   -15649   -15655   -15660   -15668   -15673   -15680   -15691 
  -15696   -15699   -15708   -15714   -15718   -15726   -15732   -15738 
  -15743   -15749   -15754   -15758   -15763   -15770   -15769   -15772 
  -15776   -15774   -15772   -15768   -15765   -15762   -15755   -15743 
  -15732   -15723   -15714   -15700   -15684   -15673   -15666   -15658 
  -15650   -15645   -15647   -15653   -15661   -15673   -15689   -15705 
  -15728   -15754   -15780   -15803   -15828   -15858   -15889   -15913 
  -15938   -15965   -15992   -16016   -16035   -16044   -16056   -16073 
  -16079   -16078   -16075   -16070   -16069   -16069   -16059   -16044 
  -16033   -16025   -16017   -16008   -15996   -15985   -15975   -15966 
  -15958   -15950   -15939   -15934   -15927   -15917   -15915   -15913 
  -15907   -15898   -15897   -15894   -15888   -15886   -15889   -15889 
  -15885   -15880   -15877   -15876   -15874   -15871   -15869   -15863 
  -15859   -15861   -15857   -15850   -15850   -15847   -15840   -15835 
  -15834   -15828   -15826   -15826   -15823   -15817   -15811   -15803 
  -15797   -15792   -15781   -15770   -15762   -15750   -15734   -15723 
  -15714   -15699   -15682   -15666   -15651   -15641   -15630   -15615 
  -15606   -15597   -15584   -15574   -15568   -15558   -15554   -15552 
  -15545   -15541   -15539   -15539   -15543   -15547   -15547   -15549 
  -15561   -15577   -15587   -15593   -15604   -15623   -15646   -15665 
  -15684   -15705   -15726   -15751   -15777   -15799   -15820   -15844 
  -15869   -15890   -15916   -15940   -15961   -15981   -16002   -16025 
  -16044   -16056   -16071   -16090   -16101   -16110   -16119   -16121 
  -16125   -16129   -16132   -16132   -16129   -16124   -16120   -16119 
  -16114   -16104   -16097   -16092   -16082   -16071   -16062   -16047 
  -16036   -16029   -16016   -16001   -15986   -15967   -15950   -15932 
  -15911   -15889   -15867   -15843   -15819   -15796   -15773   -15755 
  -15736   -15715   -15695   -15682   -15669   -15658   -15651   -15647 
  -15651   -15658   -15661   -15664   -15676   -15693   -15707   -15723 
  -15739   -15753   -15770   -15786   -15799   -15813   -15828   -15840 
  -15854   -15867   -15880   -15890   -15903   -15913   -15923   -15932 
  -15943   -15955   -15965   -15970   -15974   -15977   -15974   -15973 
  -15967   -15961   -15950   -15935   -15917   -15896   -15876   -15853 
  -15824   -15793   -15761   -15724   -15691   -15660   -15628   -15592 
  -15558   -15530   -15498   -15461   -15431   -15406   -15377   -15349 
  -15322   -15295   -15272   -15253   -15232   -15214   -15196   -15182 
  -15171   -15163   -15160   -15161   -15165   -15175   -15187   -15199 
  -15218   -15241   -15260   -15284   -15318   -15349   -15376   -15407 
  -15442   -15476   -15511   -15546   -15579   -15611   -15643   -15676 
  -15708   -15736   -15765   -15792   -15812   -15832   -15851   -15867 
  -15882   -15898   -15915   -15928   -15939   -15948   -15962   -15973 
  -15982   -15992   -16002   -16016   -16027   -16033   -16039   -16042 
  -16046   -16048   -16051   -16050   -16042   -16040   -16036   -16028 
  -16023   -16011   -16000   -15992   -15978   -15966   -15955   -15939 
  -15924   -15911   -15894   -15880   -15867   -15855   -15843   -15828 
  -15813   -15800   -15788   -15777   -15763   -15746   -15734   -15722 
  -15705   -15689   -15673   -15655   -15641   -15624   -15612   -15600 
  -15589   -15583   -15576   -15568   -15564   -15562   -15554   -15550 
  -15552   -15556   -15558   -15557   -15557   -15561   -15564   -15562 
  -15566   -15572   -15572   -15574   -15579   -15581   -15587   -15592 
  -15599   -15610   -15622   -15633   -15645   -15662   -15682   -15704 
  -15727   -15746   -15769   -15795   -15822   -15849   -15870   -15893 
  -15920   -15940   -15959   -15978   -15990   -16001   -16012   -16020 
  -16021   -16021   -16023   -16020   -16008   -15993   -15982   -15966 
  -15944   -15924   -15907   -15885   -15858   -15834   -15817   -15800 
  -15781   -15765   -15746   -15728   -15716   -15703   -15689   -15680 
  -15666   -15655   -15647   -15638   -15628   -15620   -15615   -15612 
  -15604   -15596   -15593   -15591   -15588   -15585   -15587   -15587 
  -15585   -15589   -15595   -15597   -15600   -15608   -15616   -15619 
  -15628   -15635   -15638   -15647   -15662   -15676   -15688   -15699 
  -15715   -15734   -15751   -15773   -15795   -15815   -15836   -15857 
  -15881   -15901   -15915   -15935   -15954   -15965   -15973   -15981 
  -15989   -15992   -15992   -15993   -15993   -15988   -15982   -15975 
  -15970   -15963   -15955   -15946   -15932   -15923   -15919   -15912 
  -15904   -15897   -15889   -15882   -15874   -15867   -15862   -15859 
  -15854   -15849   -15844   -15840   -15836   -15834   -15830   -15823 
  -15815   -15808   -15803   -15797   -15786   -15776   -15766   -15754 
  -15739   -15724   -15715   -15703   -15691   -15680   -15666   -15654 
  -15643   -15633   -15620   -15611   -15604   -15597   -15589   -15580 
  -15576   -15574   -15572   -15565   -15560   -15558   -15565   -15569 
  -15572   -15581   -15591   -15595   -15604   -15615   -15626   -15642 
  -15655   -15669   -15685   -15699   -15712   -15727   -15743   -15758 
  -15770   -15777   -15788   -15799   -15809   -15817   -15820   -15820 
  -15824   -15828   -15830   -15827   -15823   -15819   -15813   -15805 
  -15796   -15788   -15781   -15772   -15762   -15754   -15745   -15738 
  -15735   -15735   -15734   -15735   -15739   -15746   -15750   -15757 
  -15763   -15774   -15792   -15805   -15819   -15831   -15840   -15855 
  -15866   -15874   -15888   -15898   -15905   -15916   -15920   -15923 
  -15931   -15938   -15943   -15950   -15954   -15955   -15962   -15970 
  -15971   -15974   -15975   -15977   -15979   -15975   -15971   -15974 
  -15971   -15965   -15962   -15957   -15951   -15942   -15928   -15921 
  -15913   -15898   -15885   -15874   -15863   -15853   -15843   -15835 
  -15823   -15812   -15807   -15803   -15799   -15796   -15796   -15795 
  -15792   -15789   -15795   -15801   -15803   -15800   -15800   -15803 
  -15797   -15790   -15788   -15780   -15772   -15768   -15761   -15758 
  -15753   -15745   -15739   -15734   -15727   -15722   -15715   -15707 
  -15705   -15701   -15695   -15692   -15687   -15681   -15680   -15673 
  -15666   -15662   -15658   -15655   -15653   -15645   -15638   -15631 
  -15620   -15611   -15607   -15600   -15589   -15580   -15572   -15564 
  -15553   -15543   -15537   -15530   -15523   -15519   -15514   -15510 
  -15507   -15504   -15504   -15506   -15504   -15504   -15508   -15515 
  -15520   -15526   -15537   -15552   -15568   -15581   -15600   -15620 
  -15635   -15653   -15672   -15688   -15705   -15724   -15741   -15757 
  -15772   -15784   -15797   -15812   -15824   -15836   -15847   -15858 
  -15869   -15878   -15889   -15901   -15912   -15921   -15931   -15942 
  -15955   -15963   -15970   -15975   -15978   -15982   -15989   -15986 
  -15981   -15978   -15975   -15969   -15959   -15952   -15947   -15939 
  -15927   -15916   -15908   -15898   -15892   -15886   -15876   -15863 
  -15857   -15850   -15842   -15838   -15832   -15828   -15824   -15819 
  -15811   -15805   -15801   -15797   -15793   -15788   -15781   -15777 
  -15772   -15766   -15762   -15758   -15757   -15754   -15750   -15750 
  -15750   -15753   -15757   -15753   -15754   -15758   -15759   -15759 
  -15761   -15762   -15765   -15763   -15758   -15758   -15761   -15762 
  -15759   -15754   -15754   -15754   -15753   -15753   -15751   -15754 
  -15758   -15758   -15758   -15759   -15762   -15765   -15766   -15765 
  -15762   -15766   -15773   -15774   -15776   -15778   -15781   -15784 
  -15788   -15792   -15793   -15799   -15805   -15808   -15812   -15817 
  -15820   -15820   -15823   -15824   -15822   -15817   -15813   -15809 
  -15805   -15801   -15796   -15788   -15784   -15778   -15773   -15770 
  -15768   -15762   -15758   -15755   -15751   -15746   -15742   -15738 
  -15731   -15730   -15726   -15715   -15708   -15708   -15705   -15699 
  -15692   -15682   -15676   -15673   -15672   -15676   -15676   -15674 
  -15674   -15674   -15680   -15689   -15696   -15705   -15716   -15727 
  -15742   -15755   -15766   -15776   -15789   -15801   -15808   -15817 
  -15832   -15844   -15849   -15851   -15854   -15854   -15857   -15861 
  -15862   -15859   -15857   -15858   -15859   -15855   -15853   -15853 
  -15850   -15851   -15854   -15857   -15862   -15869   -15870   -15876 
