Origin Time       2025/01/13 21:19:00
Lat.              31.8
Long.             131.6
Depth. (km)       30
Mag.              6.9
Station Code      TTRH06
Station Lat.      35.3946
Station Long.     134.1988
Station Height(m) -70
Record Time       2025/01/13 21:21:16
Sampling Freq(Hz) 100Hz
Duration Time(s)  120
Dir.              2
Scale Factor      2942(gal)/8224139
Max. Acc. (gal)   0.391
Last Correction   2025/01/13 21:21:17
Memo.             
[...]
  129162   129162   129159   129159   129158   129159   129158   129154 
  129154   129157   129150   129147   129149   129147   129142   129138 
  129130   129119   129114   129103   129088   129078   129064   129051 
  129042   129027   129010   128996   128984   128969   128950   128930 
  128911   128887   128862   128842   128826   128810   128790   128771 
  128753   128726   128698   128673   128644   128614   128590   128563 
  128534   128510   128488   128470   128457   128445   128437   128430 
  128424   128420   128416   128410   128406   128406   128410   128417 
  128424   128430   128443   128453   128463   128479   128498   128520 
  128542   128571   128602   128636   128673   128711   128746   128781 
  128817   128856   128896   128937   128979   129014   129038   129064 
  129089   129107   129116   129127   129135   129143   129154   129163 
  129165   129169   129180   129182   129178   129173   129163   129154 
  129145   129128   129115   129101   129078   129054   129030   129003 
  128976   128946   128915   128891   128864   128829   128798   128772 
  128738   128699   128660   128622   128583   128547   128509   128470 
  128440   128413   128383   128358   128336   128317   128304   128293 
  128291   128299   128310   128322   128336   128353   128374   128394 
  128417   128443   128466   128484   128505   128522   128538   128565 
  128598   128629   128664   128706   128748   128785   128823   128862 
  128892   128922   128954   128979   128995   129012   129030   129045 
  129053   129061   129068   129073   129080   129082   129087   129092 
  129093   129096   129108   129115   129115   129111   129109   129109 
  129105   129099   129099   129097   129093   129095   129097   129097 
  129099   129103   129107   129112   129119   129126   129128   129126 
  129128   129135   129136   129139   129149   129158   129169   129186 
  129200   129216   129242   129270   129301   129336   129370   129400 
  129431   129470   129505   129535   129563   129590   129613   129637 
  129663   129682   129705   129732   129747   129760   129779   129794 
  129806   129817   129828   129836   129841   129845   129847   129848 
  129856   129859   129856   129852   129845   129837   129829   129817 
  129801   129778   129752   129722   129687   129652   129613   129571 
  129528   129492   129458   129421   129386   129352   129313   129277 
  129244   129213   129178   129143   129115   129087   129055   129027 
  128993   128956   128922   128888   128852   128817   128780   128744 
  128715   128692   128667   128638   128618   128599   128579   128564 
  128556   128547   128540   128542   128542   128542   128551   128560 
  128568   128578   128590   128605   128622   128638   128653   128671 
  128688   128707   128729   128752   128777   128803   128827   128852 
  128873   128899   128930   128958   128984   129018   129054   129093 
  129141   129193   129240   129292   129344   129392   129431   129469 
  129502   129525   129543   129556   129571   129583   129590   129594 
  129597   129598   129601   129604   129595   129591   129595   129594 
  129586   129579   129570   129559   129543   129523   129504   129479 
  129447   129416   129386   129355   129324   129290   129254   129219 
  129189   129155   129114   129072   129030   128985   128941   128891 
  128838   128785   128731   128679   128632   128587   128540   128495 
  128452   128410   128375   128345   128314   128293   128277   128260 
  128251   128250   128250   128256   128272   128291   128314   128339 
  128371   128409   128445   128479   128520   128563   128605   128648 
  128696   128752   128811   128868   128920   128973   129027   129074 
  129123   129170   129211   129250   129286   129315   129343   129370 
  129394   129416   129439   129460   129479   129496   129512   129531 
  129548   129563   129574   129575   129573   129574   129573   129566 
  129555   129544   129532   129512   129493   129479   129460   129438 
  129419   129398   129370   129344   129319   129293   129262   129224 
  129188   129157   129123   129089   129060   129031   129007   128987 
  128964   128938   128918   128904   128892   128880   128873   128875 
  128871   128868   128873   128875   128877   128891   128904   128914 
  128927   128949   128974   128997   129027   129066   129101   129136 
  129180   129220   129257   129305   129348   129377   129405   129435 
  129456   129469   129477   129485   129489   129485   129474   129458 
  129444   129431   129413   129390   129366   129343   129323   129296 
  129269   129243   129216   129188   129161   129136   129122   129107 
  129091   129077   129068   129055   129046   129039   129031   129022 
  129010   129000   128989   128977   128968   128964   128957   128953 
  128957   128960   128964   128974   128985   128997   129010   129018 
  129022   129026   129024   129027   129035   129038   129038   129041 
  129045   129050   129053   129061   129069   129073   129081   129091 
  129093   129101   129114   129116   129112   129111   129105   129097 
  129088   129074   129055   129026   128991   128960   128925   128891 
  128860   128827   128792   128761   128733   128704   128682   128671 
  128661   128653   128655   128659   128669   128684   128702   128725 
  128757   128791   128827   128865   128904   128952   129001   129054 
  129111   129168   129224   129285   129343   129398   129458   129517 
  129571   129624   129670   129709   129751   129789   129820   129852 
  129878   129894   129907   129911   129909   129898   129879   129852 
  129825   129797   129763   129726   129689   129651   129617   129583 
  129548   129517   129483   129452   129429   129404   129377   129357 
  129339   129324   129312   129300   129288   129270   129250   129232 
  129217   129205   129199   129192   129184   129176   129170   129165 
  129162   129158   129155   129157   129163   129169   129177   129192 
  129208   129222   129235   129247   129261   129274   129284   129293 
  129305   129317   129330   129343   129358   129371   129386   129406 
  129423   129431   129439   129446   129452   129459   129456   129443 
  129435   129424   129405   129389   129377   129361   129343   129332 
  129315   129289   129269   129250   129226   129201   129181   129157 
  129127   129099   129070   129047   129028   129000   128973   128956 
  128935   128908   128884   128860   128831   128808   128795   128780 
  128763   128746   128729   128711   128688   128667   128650   128630 
  128605   128587   128569   128547   128525   128506   128487   128471 
  128459   128444   128433   128429   128428   128430   128437   128444 
  128460   128482   128495   128515   128541   128560   128582   128609 
  128637   128669   128700   128725   128749   128773   128799   128825 
  128850   128880   128910   128935   128964   128993   129019   129043 
  129068   129088   129103   129116   129127   129136   129139   129134 
  129134   129135   129130   129122   129115   129105   129092   129077 
  129065   129057   129050   129050   129043   129033   129027   129026 
  129023   129020   129020   129019   129018   129022   129027   129024 
  129015   129007   129006   129008   129001   128995   128997   128996 
  128985   128980   128974   128977   128985   128985   128984   128992 
  128996   128996   129001   129007   129008   129016   129031   129039 
  129041   129049   129057   129060   129066   129074   129078   129084 
  129091   129103   129119   129136   129154   129176   129204   129232 
  129255   129284   129323   129361   129397   129442   129486   129528 
  129571   129617   129654   129686   129725   129763   129791   129816 
  129833   129841   129849   129857   129863   129864   129857   129844 
  129832   129817   129797   129776   129751   129724   129701   129671 
  129631   129586   129544   129500   129451   129398   129344   129297 
  129253   129208   129163   129119   129074   129033   128997   128958 
  128920   128891   128862   128825   128795   128775   128753   128731 
  128713   128699   128690   128679   128667   128660   128656   128649 
  128645   128649   128652   128652   128653   128657   128668   128683 
  128699   128717   128733   128754   128777   128799   128825   128850 
  128873   128899   128923   128943   128962   128974   128981   128992 
  129004   129014   129022   129037   129058   129077   129093   129119 
  129147   129178   129212   129250   129289   129324   129354   129389 
  129425   129456   129489   129520   129547   129571   129594   129614 
  129635   129652   129672   129690   129699   129709   129718   129721 
  129718   129717   129709   129693   129670   129644   129614   129583 
  129548   129509   129465   129416   129369   129321   129263   129205 
  129153   129101   129049   128996   128943   128893   128848   128803 
  128761   128726   128691   128659   128633   128611   128590   128576 
  128572   128575   128586   128609   128641   128673   128709   128752 
  128799   128853   128911   128968   129024   129081   129139   129196 
  129250   129303   129359   129412   129458   129506   129554   129593 
  129628   129662   129690   129708   129721   129730   129732   129725 
  129714   129694   129674   129651   129617   129579   129540   129496 
  129448   129398   129343   129282   129223   129163   129101   129046 
  128995   128942   128891   128839   128798   128761   128718   128683 
  128661   128636   128613   128598   128584   128576   128571   128567 
  128569   128576   128588   128609   128634   128659   128691   128726 
  128758   128794   128834   128872   128910   128946   128979   129008 
  129043   129074   129101   129123   129138   129154   129166   129168 
  129168   129170   129168   129158   129150   129139   129122   129105 
  129087   129055   129022   128989   128956   128916   128876   128837 
  128800   128767   128731   128695   128665   128641   128615   128592 
  128574   128556   128545   128538   128533   128533   128538   128547 
  128557   128579   128607   128640   128672   128703   128742   128787 
  128827   128872   128918   128961   129015   129072   129126   129182 
  129238   129293   129352   129406   129456   129509   129559   129605 
  129647   129687   129725   129755   129782   129806   129826   129844 
  129859   129864   129865   129863   129853   129841   129829   129813 
  129793   129766   129739   129708   129670   129631   129593   129552 
  129512   129477   129435   129394   129357   129316   129277   129242 
  129204   129172   129141   129104   129069   129042   129022   129003 
  128985   128974   128962   128956   128960   128962   128964   128977 
  128992   129006   129020   129038   129057   129081   129107   129130 
  129151   129174   129199   129223   129244   129262   129278   129294 
  129309   129321   129328   129328   129328   129324   129315   129307 
  129296   129277   129253   129235   129212   129178   129150   129120 
  129085   129050   129012   128972   128931   128893   128854   128812 
  128773   128737   128695   128650   128606   128568   128537   128509 
  128484   128467   128448   128429   128418   128409   128407   128414 
  128417   128425   128443   128457   128470   128488   128505   128520 
  128538   128557   128574   128590   128610   128630   128648   128668 
  128687   128699   128706   128714   128719   128725   128733   128742 
  128746   128750   128760   128769   128772   128777   128790   128806 
  128826   128846   128869   128893   128918   128943   128970   129003 
  129041   129076   129109   129146   129180   129209   129242   129276 
  129308   129342   129377   129404   129428   129455   129481   129501 
  129521   129539   129555   129570   129586   129601   129613   129621 
  129631   129641   129645   129649   129656   129658   129655   129652 
  129641   129629   129621   129609   129597   129585   129566   129544 
  129523   129501   129475   129454   129432   129406   129384   129365 
  129340   129319   129297   129269   129247   129231   129215   129200 
  129184   129163   129147   129134   129116   129103   129089   129073 
  129062   129057   129050   129041   129037   129031   129026   129022 
  129022   129026   129027   129028   129037   129047   129060   129076 
  129089   129104   129120   129136   129151   129170   129188   129199 
  129209   129227   129244   129258   129270   129278   129286   129297 
  129305   129315   129331   129346   129355   129362   129369   129377 
  129384   129385   129384   129384   129378   129369   129365   129359 
  129352   129344   129334   129325   129313   129297   129285   129270 
  129250   129230   129212   129197   129184   129166   129146   129128 
  129115   129105   129099   129091   129082   129076   129072   129068 
  129068   129070   129070   129072   129070   129066   129066   129066 
  129061   129058   129053   129042   129028   129014   128996   128980 
  128961   128941   128920   128903   128881   128857   128834   128814 
  128792   128776   128757   128736   128722   128711   128695   128680 
  128665   128649   128636   128622   128610   128599   128586   128569 
  128556   128545   128537   128534   128532   128532   128534   128541 
  128549   128565   128590   128615   128641   128672   128707   128749 
  128795   128845   128896   128947   129003   129061   129120   129188 
  129257   129325   129398   129475   129546   129614   129685   129752 
  129817   129878   129929   129978   130025   130065   130099   130130 
  130160   130181   130196   130204   130206   130206   130203   130192 
  130173   130154   130130   130099   130071   130040   129999   129957 
  129914   129865   129821   129776   129729   129685   129641   129590 
  129537   129485   129429   129375   129323   129269   129209   129153 
  129096   129038   128981   128929   128873   128819   128768   128718 
  128669   128626   128586   128544   128505   128471   128437   128410 
  128386   128362   128341   128324   128312   128306   128305   128308 
  128316   128322   128335   128355   128378   128406   128439   128471 
  128507   128541   128582   128629   128672   128713   128760   128807 
  128857   128907   128956   129010   129064   129115   129162   129212 
  129263   129315   129366   129416   129460   129502   129537   129571 
  129608   129639   129666   129698   129721   129739   129757   129770 
  129782   129797   129805   129811   129817   129811   129805   129799 
  129791   129780   129762   129739   129721   129699   129670   129641 
  129613   129591   129573   129544   129516   129492   129467   129443 
  129421   129394   129363   129339   129311   129282   129261   129239 
  129222   129207   129189   129173   129168   129161   129153   129147 
  129145   129146   129149   129146   129150   129162   129170   129176 
  129184   129192   129200   129209   129217   129226   129236   129249 
  129254   129255   129266   129277   129278   129288   129301   129309 
  129319   129332   129339   129347   129361   129375   129389   129400 
  129411   129423   129438   129452   129459   129466   129479   129492 
  129500   129510   129517   129520   129528   129536   129537   129537 
  129537   129537   129532   129523   129512   129500   129485   129469 
  129451   129433   129413   129389   129367   129346   129323   129304 
  129282   129257   129239   129220   129192   129170   129150   129123 
  129103   129087   129065   129043   129026   129004   128987   128970 
  128950   128934   128920   128904   128892   128880   128862   128848 
  128834   128821   128810   128798   128784   128777   128776   128769 
  128761   128760   128758   128756   128760   128764   128764   128765 
  128772   128776   128781   128791   128800   128804   128814   128827 
  128841   128854   128871   128889   128906   128919   128933   128949 
  128965   128980   128993   129008   129019   129031   129042   129049 
  129051   129055   129060   129060   129058   129060   129055   129051 
  129049   129042   129033   129024   129016   129011   129001   128985 
  128977   128972   128960   128946   128938   128933   128929   128926 
  128926   128927   128931   128941   128949   128958   128970   128981 
  128995   129012   129026   129042   129055   129066   129080   129093 
  129104   129115   129127   129139   129146   129147   129149   129151 
  129153   129150   129149   129150   129151   129149   129146   129145 
  129143   129145   129145   129141   129138   129136   129130   129124 
  129115   129107   129101   129093   129081   129070   129058   129047 
  129037   129023   129011   128996   128981   128970   128956   128942 
  128934   128926   128915   128907   128898   128888   128879   128868 
  128861   128853   128845   128841   128839   128837   128838   128842 
  128849   128861   128872   128880   128892   128910   128929   128946 
  128961   128979   129004   129024   129046   129072   129099   129126 
  129151   129178   129203   129227   129257   129286   129313   129338 
  129359   129378   129400   129419   129432   129446   129460   129474 
  129483   129489   129492   129490   129486   129479   129469   129454 
  129439   129420   129396   129371   129344   129311   129278   129253 
  129223   129185   129150   129116   129084   129049   129018   128991 
  128964   128939   128920   128902   128887   128877   128869   128862 
  128861   128865   128872   128881   128895   128912   128929   128946 
  128966   128992   129022   129047   129074   129109   129136   129157 
  129185   129213   129234   129253   129276   129296   129308   129320 
  129330   129339   129343   129342   129342   129338   129331   129321 
  129313   129305   129294   129284   129271   129254   129239   129227 
  129211   129192   129170   129151   129136   129120   129101   129088 
  129073   129053   129039   129028   129016   129007   128997   128991 
  128987   128974   128960   128945   128929   128916   128904   128887 
  128868   128850   128831   128818   128804   128785   128772   128758 
  128742   128726   128714   128704   128694   128686   128682   128684 
  128686   128690   128694   128694   128698   128713   128727   128736 
  128746   128765   128784   128798   128810   128826   128842   128861 
  128877   128891   128908   128926   128937   128949   128966   128984 
  128997   129015   129031   129042   129053   129062   129070   129078 
  129084   129091   129099   129101   129104   129111   129114   129116 
  129123   129128   129134   129139   129143   129150   129161   129166 
  129174   129184   129190   129195   129205   129217   129223   129226 
  129231   129240   129250   129261   129274   129281   129286   129298 
  129308   129315   129327   129339   129344   129348   129357   129361 
  129362   129365   129369   129373   129375   129378   129378   129374 
  129374   129375   129371   129367   129363   129358   129357   129357 
  129354   129350   129347   129346   129343   129338   129332   129325 
  129317   129308   129300   129289   129281   129273   129261   129249 
  129236   129219   129201   129184   129162   129146   129132   129109 
  129091   129081   129066   129046   129028   129010   128993   128981 
  128972   128961   128952   128945   128939   128934   128926   128920 
  128918   128919   128920   128919   128919   128925   128929   128927 
  128926   128925   128922   128919   128911   128898   128885   128875 
