Origin Time       2025/01/13 21:19:00
Lat.              31.8
Long.             131.6
Depth. (km)       30
Mag.              6.9
Station Code      TTRH01
Station Lat.      35.2604
Station Long.     134.2173
Station Height(m) 230
Record Time       2025/01/13 21:21:12
Sampling Freq(Hz) 100Hz
Duration Time(s)  120
Dir.              5
Scale Factor      7845(gal)/8223790
Max. Acc. (gal)   0.678
Last Correction   2025/01/13 21:21:12
Memo.             
[...]
    1402     1418     1420     1405     1389     1370     1348     1328 
    1313     1302     1293     1290     1297     1304     1306     1314 
    1327     1336     1352     1364     1364     1360     1356     1347 
    1329     1310     1300     1302     1316     1336     1358     1363 
    1355     1345     1341     1337     1335     1329     1321     1312 
    1298     1277     1252     1236     1231     1239     1255     1277 
    1297     1318     1340     1355     1364     1370     1368     1368 
    1370     1364     1356     1347     1339     1339     1345     1350 
    1351     1348     1340     1329     1318     1314     1321     1341 
    1370     1399     1429     1448     1453     1447     1433     1413 
    1383     1356     1340     1331     1329     1340     1350     1358 
    1366     1368     1363     1355     1343     1323     1297     1269 
    1250     1243     1244     1254     1263     1260     1254     1244 
    1239     1248     1269     1297     1325     1348     1367     1383 
    1390     1386     1375     1358     1337     1325     1327     1336 
    1350     1368     1386     1399     1410     1412     1401     1385 
    1360     1329     1300     1278     1267     1264     1264     1267 
    1269     1266     1264     1263     1262     1259     1256     1255 
    1255     1260     1269     1281     1304     1339     1374     1401 
    1421     1440     1459     1470     1474     1474     1471     1464 
    1448     1422     1398     1383     1377     1378     1379     1378 
    1371     1362     1358     1364     1377     1390     1406     1420 
    1431     1440     1440     1428     1410     1393     1378     1368 
    1363     1358     1347     1335     1325     1318     1316     1317 
    1316     1309     1305     1310     1328     1347     1360     1367 
    1362     1354     1348     1348     1356     1363     1367     1374 
    1383     1397     1409     1416     1417     1418     1421     1425 
    1426     1420     1402     1377     1348     1320     1294     1271 
    1254     1247     1248     1256     1267     1275     1277     1269 
    1252     1236     1220     1205     1194     1189     1193     1206 
    1228     1252     1275     1296     1314     1331     1345     1359 
    1372     1386     1397     1406     1413     1410     1401     1391 
    1387     1387     1390     1398     1413     1429     1436     1429 
    1417     1408     1401     1389     1371     1355     1335     1309 
    1285     1260     1240     1231     1232     1247     1266     1278 
    1286     1294     1301     1302     1300     1300     1304     1309 
    1320     1335     1350     1360     1366     1366     1352     1331 
    1308     1285     1275     1281     1290     1304     1323     1347 
    1372     1397     1409     1412     1406     1394     1375     1358 
    1345     1336     1332     1327     1320     1317     1317     1318 
    1324     1339     1352     1360     1366     1370     1372     1372 
    1368     1360     1354     1350     1344     1339     1335     1329 
    1323     1317     1312     1302     1286     1269     1256     1252 
    1256     1273     1291     1314     1344     1368     1386     1399 
    1401     1389     1372     1351     1329     1314     1302     1291 
    1290     1293     1297     1297     1293     1290     1293     1294 
    1291     1285     1277     1270     1273     1279     1285     1283 
    1278     1270     1266     1270     1279     1291     1304     1316 
    1329     1336     1340     1343     1339     1325     1309     1296 
    1286     1283     1282     1286     1296     1305     1308     1310 
    1312     1313     1314     1308     1302     1308     1318     1333 
    1355     1374     1385     1395     1405     1406     1402     1402 
    1404     1408     1416     1424     1428     1428     1421     1408 
    1401     1395     1386     1375     1366     1358     1348     1337 
    1324     1302     1275     1255     1242     1233     1235     1244 
    1260     1275     1282     1286     1294     1298     1296     1291 
    1287     1281     1275     1271     1271     1271     1266     1259 
    1252     1244     1235     1225     1219     1215     1210     1206 
    1208     1213     1221     1235     1254     1271     1296     1324 
    1350     1371     1383     1387     1383     1371     1355     1339 
    1332     1333     1341     1356     1370     1379     1383     1374 
    1356     1345     1340     1335     1337     1341     1344     1352 
    1367     1378     1385     1382     1372     1359     1358     1366 
    1375     1379     1387     1397     1397     1389     1378     1366 
    1355     1347     1333     1320     1306     1298     1290     1283 
    1286     1294     1301     1306     1309     1314     1325     1332 
    1335     1336     1333     1325     1314     1298     1285     1274 
    1259     1247     1243     1248     1262     1285     1312     1331 
    1340     1344     1345     1343     1343     1345     1344     1339 
    1329     1318     1313     1308     1304     1305     1308     1312 
    1316     1321     1327     1331     1333     1336     1340     1340 
    1337     1335     1329     1321     1312     1297     1286     1282 
    1275     1273     1277     1287     1302     1316     1328     1336 
    1339     1336     1336     1341     1350     1364     1374     1378 
    1378     1371     1356     1336     1310     1282     1259     1246 
    1244     1248     1255     1263     1274     1285     1291     1293 
    1290     1290     1296     1301     1308     1314     1323     1328 
    1333     1341     1354     1364     1374     1381     1381     1375 
    1366     1356     1345     1339     1328     1306     1278     1251 
    1231     1217     1209     1205     1205     1210     1216     1223 
    1227     1223     1219     1212     1201     1196     1196     1193 
    1190     1193     1201     1213     1223     1231     1243     1254 
    1259     1264     1271     1271     1266     1258     1250     1252 
    1273     1298     1320     1340     1358     1375     1394     1412 
    1421     1424     1418     1410     1409     1406     1399     1391 
    1383     1372     1366     1362     1354     1347     1341     1335 
    1331     1328     1324     1321     1314     1306     1298     1293 
    1289     1281     1271     1270     1273     1281     1296     1313 
    1333     1356     1374     1386     1402     1416     1422     1428 
    1436     1443     1444     1445     1444     1440     1433     1422 
    1412     1406     1399     1398     1405     1414     1417     1420 
    1421     1418     1414     1410     1409     1408     1404     1399 
    1394     1389     1383     1371     1354     1333     1316     1306 
    1300     1297     1304     1314     1328     1343     1350     1347 
    1341     1335     1331     1327     1325     1329     1336     1344 
    1359     1372     1386     1401     1413     1413     1410     1408 
    1401     1393     1387     1381     1367     1352     1345     1344 
    1339     1336     1335     1324     1308     1290     1273     1260 
    1254     1256     1267     1285     1302     1312     1312     1306 
    1294     1278     1266     1255     1247     1244     1246     1251 
    1260     1271     1283     1294     1300     1300     1301     1304 
    1309     1321     1331     1335     1336     1332     1329     1325 
    1320     1318     1316     1313     1314     1317     1323     1329 
    1333     1335     1333     1331     1324     1317     1314     1314 
    1317     1323     1329     1339     1348     1354     1352     1344 
    1327     1306     1290     1277     1264     1256     1252     1258 
    1267     1278     1289     1293     1290     1282     1273     1264 
    1255     1244     1240     1236     1231     1233     1244     1258 
    1273     1286     1296     1305     1314     1320     1328     1337 
    1339     1335     1331     1331     1336     1350     1366     1383 
    1395     1408     1422     1429     1428     1428     1429     1433 
    1440     1453     1470     1485     1503     1524     1539     1549 
    1559     1563     1566     1570     1574     1580     1591     1602 
    1609     1609     1606     1603     1599     1594     1586     1575 
    1566     1561     1556     1551     1549     1549     1548     1545 
    1544     1539     1533     1532     1532     1530     1526     1517 
    1505     1487     1466     1437     1406     1370     1331     1294 
    1266     1243     1227     1219     1217     1216     1212     1200 
    1182     1159     1132     1105     1081     1057     1034     1015 
    1003      996      992      988      985      977      965      957 
     951      946      943      939      938      934      928      923 
     918      916      920      926      930      940      955      976 
    1000     1021     1042     1062     1080     1100     1119     1135 
    1152     1173     1196     1215     1228     1236     1237     1235 
    1232     1229     1228     1232     1243     1254     1263     1267 
    1274     1282     1287     1290     1290     1289     1290     1296 
    1309     1325     1340     1351     1358     1356     1350     1340 
    1329     1320     1312     1312     1317     1324     1337     1356 
    1375     1397     1418     1433     1445     1464     1485     1503 
    1526     1547     1559     1567     1576     1582     1586     1594 
    1606     1621     1634     1648     1661     1672     1676     1672 
    1667     1659     1649     1637     1622     1605     1588     1572 
    1549     1521     1491     1467     1447     1428     1412     1398 
    1391     1386     1378     1375     1375     1374     1371     1367 
    1362     1354     1345     1337     1325     1314     1306     1300 
    1294     1290     1287     1287     1291     1294     1296     1300 
    1305     1312     1324     1335     1340     1341     1341     1335 
    1325     1313     1296     1275     1258     1240     1213     1185 
    1161     1136     1112     1094     1082     1070     1059     1043 
    1026     1011      992      970      949      927      911      904 
     903      904      911      920      932      945      959      974 
     984      992      996      993      992      997     1009     1028 
    1055     1080     1101     1124     1140     1148     1154     1158 
    1162     1167     1179     1198     1221     1244     1264     1285 
    1301     1317     1331     1337     1339     1339     1341     1347 
    1358     1367     1374     1378     1383     1390     1398     1406 
    1414     1422     1433     1448     1466     1490     1514     1537 
    1567     1597     1628     1656     1682     1703     1723     1734 
    1736     1730     1721     1707     1695     1684     1674     1661 
    1653     1651     1655     1656     1652     1647     1642     1640 
    1641     1647     1653     1660     1669     1679     1691     1705 
    1717     1725     1725     1714     1701     1684     1663     1641 
    1624     1603     1583     1571     1563     1553     1544     1530 
    1512     1491     1467     1444     1425     1408     1394     1382 
    1371     1363     1356     1343     1327     1306     1285     1267 
    1254     1239     1221     1204     1189     1177     1165     1152 
    1144     1140     1138     1138     1138     1138     1140     1150 
    1159     1173     1194     1217     1235     1259     1290     1323 
    1354     1385     1416     1441     1463     1480     1490     1494 
    1491     1479     1467     1452     1432     1413     1399     1383 
    1368     1356     1340     1328     1317     1304     1293     1283 
    1273     1258     1240     1224     1212     1201     1194     1188 
    1181     1174     1166     1158     1159     1166     1179     1196 
    1212     1229     1248     1269     1296     1328     1358     1383 
    1405     1420     1432     1441     1448     1451     1449     1443 
    1432     1418     1401     1387     1378     1370     1366     1367 
    1368     1374     1379     1382     1379     1372     1359     1339 
    1314     1291     1273     1260     1250     1237     1227     1215 
    1204     1196     1185     1171     1156     1140     1127     1120 
    1121     1127     1135     1146     1159     1178     1205     1232 
    1258     1283     1305     1325     1341     1356     1364     1364 
    1359     1350     1344     1339     1327     1310     1290     1266 
    1240     1215     1190     1169     1147     1128     1116     1108 
    1104     1100     1097     1092     1082     1074     1067     1063 
    1062     1053     1047     1047     1047     1046     1046     1044 
    1040     1035     1027     1017     1011     1011     1009     1011 
    1020     1032     1042     1050     1057     1065     1075     1085 
    1089     1093     1096     1096     1092     1086     1080     1070 
    1062     1059     1057     1054     1055     1057     1054     1055 
    1062     1073     1090     1117     1148     1185     1231     1283 
    1340     1397     1455     1513     1568     1621     1668     1707 
    1742     1776     1804     1826     1846     1860     1864     1867 
    1867     1860     1846     1829     1807     1784     1757     1733 
    1709     1682     1657     1626     1587     1547     1503     1460 
    1418     1374     1324     1275     1229     1189     1146     1101 
    1057     1011      963      916      872      830      792      751 
     712      679      649      626      614      612      615      622 
     634      645      660      675      693      716      743      773 
     801      830      859      888      916      950      986     1024 
    1062     1098     1132     1163     1193     1221     1243     1259 
    1278     1301     1320     1339     1354     1360     1362     1362 
    1360     1358     1352     1344     1333     1325     1321     1320 
    1324     1333     1343     1356     1370     1379     1387     1391 
    1391     1387     1381     1371     1366     1362     1359     1355 
    1354     1354     1350     1340     1325     1304     1285     1267 
    1246     1224     1210     1200     1190     1188     1190     1194 
    1200     1202     1202     1204     1201     1197     1194     1194 
    1197     1206     1221     1237     1258     1281     1308     1332 
    1355     1372     1387     1401     1418     1437     1459     1479 
    1497     1517     1536     1555     1571     1586     1598     1609 
    1620     1633     1647     1667     1691     1715     1737     1761 
    1784     1803     1821     1838     1856     1871     1880     1891 
    1899     1902     1902     1894     1877     1858     1838     1814 
    1788     1765     1740     1714     1691     1667     1640     1614 
    1590     1567     1541     1510     1482     1453     1421     1389 
    1358     1324     1291     1260     1233     1209     1190     1177 
    1165     1154     1144     1136     1125     1117     1112     1109 
    1109     1107     1101     1097     1094     1092     1089     1084 
    1081     1081     1085     1088     1094     1105     1111     1113 
    1120     1125     1129     1134     1135     1135     1136     1131 
    1123     1117     1112     1105     1102     1105     1107     1109 
    1116     1127     1146     1169     1190     1217     1255     1294 
    1337     1386     1432     1471     1503     1528     1544     1551 
    1551     1545     1537     1525     1513     1502     1495     1486 
    1470     1452     1435     1410     1389     1368     1347     1331 
    1321     1316     1314     1318     1327     1339     1354     1370 
    1385     1394     1404     1417     1428     1439     1452     1463 
    1471     1480     1489     1501     1517     1532     1544     1549 
    1548     1549     1552     1553     1557     1560     1560     1561 
    1561     1557     1553     1548     1537     1525     1510     1489 
    1460     1429     1397     1367     1336     1301     1263     1224 
    1185     1147     1112     1078     1048     1017      989      967 
     951      940      934      934      943      962      984     1009 
    1040     1071     1102     1136     1173     1209     1248     1289 
    1332     1372     1410     1444     1474     1502     1526     1548 
    1567     1582     1595     1602     1605     1603     1599     1590 
    1576     1563     1544     1518     1498     1468     1433     1402 
    1371     1340     1313     1282     1248     1224     1202     1181 
    1163     1148     1142     1140     1140     1140     1140     1139 
    1131     1121     1115     1108     1100     1097     1092     1084 
    1075     1063     1048     1032     1013      993      970      945 
     920      896      870      849      832      826      822      824 
     839      861      882      904      931      959      989     1021 
    1061     1100     1138     1175     1213     1254     1294     1331 
    1368     1406     1439     1472     1506     1537     1568     1603 
    1637     1668     1698     1726     1750     1775     1800     1825 
    1848     1865     1877     1885     1892     1896     1895     1891 
    1884     1876     1861     1840     1817     1791     1763     1730 
    1690     1641     1590     1534     1479     1425     1375     1328 
    1282     1240     1201     1165     1127     1093     1065     1034 
     999      969      943      924      912      901      891      889 
     889      885      885      888      891      897      904      912 
     924      939      954      976     1003     1030     1059     1089 
    1119     1151     1185     1213     1246     1274     1301     1329 
    1356     1379     1405     1429     1449     1471     1491     1507 
    1520     1528     1533     1540     1553     1567     1576     1588 
    1601     1607     1610     1613     1609     1603     1597     1587 
    1578     1568     1559     1555     1553     1553     1553     1556 
    1560     1563     1567     1571     1578     1586     1595     1607 
    1621     1632     1636     1638     1638     1633     1628     1622 
    1620     1617     1615     1618     1617     1611     1605     1590 
    1568     1543     1509     1471     1433     1395     1356     1317 
    1278     1240     1198     1155     1115     1074     1035     1001 
     973      953      936      922      912      904      897      892 
     889      889      897      911      931      954      976     1000 
    1024     1047     1069     1089     1109     1129     1146     1163 
    1182     1202     1224     1242     1256     1273     1293     1305 
    1313     1324     1335     1347     1358     1367     1381     1395 
    1408     1421     1435     1441     1448     1458     1460     1458 
    1456     1451     1443     1439     1429     1416     1406     1393 
    1375     1359     1339     1321     1302     1286     1274     1260 
    1248     1240     1232     1223     1216     1215     1217     1220 
    1227     1237     1251     1264     1277     1286     1296     1302 
    1306     1314     1321     1328     1340     1355     1370     1390 
    1412     1436     1462     1483     1506     1525     1536     1541 
    1547     1548     1544     1541     1536     1526     1520     1513 
    1501     1490     1475     1458     1437     1417     1397     1377 
