Origin Time       2025/01/13 21:19:00
Lat.              31.8
Long.             131.6
Depth. (km)       30
Mag.              6.9
Station Code      TTRH01
Station Lat.      35.2604
Station Long.     134.2173
Station Height(m) 30
Record Time       2025/01/13 21:21:12
Sampling Freq(Hz) 100Hz
Duration Time(s)  120
Dir.              3
Scale Factor      2942(gal)/8224139
Max. Acc. (gal)   0.455
Last Correction   2025/01/13 21:21:12
Memo.             
[...]
   13710    13714    13711    13713    13721    13717    13718    13726 
   13732    13736    13743    13757    13776    13795    13811    13830 
   13851    13867    13886    13903    13917    13932    13936    13936 
   13937    13925    13907    13898    13890    13880    13878    13875 
   13861    13848    13848    13848    13830    13828    13845    13828 
   13788    13772    13768    13753    13743    13748    13741    13729 
   13730    13721    13705    13699    13728    13756    13722    13687 
   13710    13710    13680    13680    13679    13670    13674    13662 
   13644    13649    13662    13655    13647    13644    13613    13602 
   13639    13637    13622    13639    13620    13594    13614    13614 
   13599    13614    13620    13613    13624    13636    13640    13643 
   13645    13639    13626    13622    13636    13644    13636    13635 
   13644    13649    13663    13659    13637    13645    13662    13660 
   13663    13662    13647    13635    13640    13666    13666    13649 
   13663    13679    13682    13693    13684    13678    13703    13707 
   13690    13701    13711    13698    13703    13720    13690    13667 
   13687    13680    13670    13686    13689    13698    13717    13716 
   13714    13722    13728    13729    13730    13733    13733    13728 
   13717    13701    13693    13699    13702    13680    13667    13668 
   13655    13655    13667    13670    13676    13671    13652    13660 
   13675    13674    13680    13690    13691    13697    13702    13707 
   13717    13724    13733    13749    13760    13763    13771    13772 
   13767    13764    13760    13755    13759    13767    13774    13778 
   13782    13788    13794    13802    13813    13814    13805    13811 
   13840    13848    13832    13834    13840    13825    13822    13815 
   13799    13798    13791    13776    13776    13779    13776    13757 
   13732    13736    13751    13753    13745    13730    13728    13733 
   13718    13691    13666    13662    13656    13635    13624    13609 
   13590    13570    13549    13537    13517    13505    13514    13504 
   13479    13478    13471    13451    13444    13443    13444    13436 
   13404    13396    13428    13444    13440    13451    13468    13474 
   13483    13489    13489    13502    13505    13501    13512    13521 
   13532    13543    13545    13554    13563    13579    13617    13647 
   13639    13637    13674    13693    13693    13721    13757    13765 
   13770    13795    13809    13803    13814    13822    13832    13840 
   13824    13825    13851    13846    13836    13842    13838    13829 
   13826    13817    13805    13786    13767    13767    13768    13745 
   13726    13720    13699    13686    13684    13674    13666    13670 
   13668    13643    13614    13614    13617    13599    13605    13636 
   13639    13617    13622    13643    13632    13629    13643    13633 
   13624    13637    13666    13697    13701    13690    13697    13718 
   13736    13745    13755    13760    13761    13768    13774    13779 
   13791    13798    13799    13802    13805    13807    13807    13809 
   13811    13814    13809    13798    13799    13805    13794    13794 
   13802    13794    13791    13802    13799    13795    13797    13794 
   13788    13778    13767    13757    13747    13738    13732    13722 
   13713    13705    13699    13694    13684    13679    13678    13675 
   13668    13657    13671    13695    13691    13684    13695    13697 
   13691    13699    13705    13699    13680    13670    13687    13687 
   13670    13680    13689    13682    13689    13690    13680    13686 
   13689    13678    13676    13679    13675    13671    13663    13656 
   13653    13644    13624    13614    13632    13645    13633    13616 
   13605    13594    13593    13601    13614    13612    13598    13606 
   13616    13610    13590    13571    13594    13610    13590    13594 
   13617    13616    13629    13652    13637    13613    13635    13672 
   13653    13617    13637    13645    13622    13635    13648    13641 
   13643    13637    13622    13614    13621    13640    13633    13617 
   13630    13636    13636    13657    13651    13622    13629    13643 
   13628    13620    13622    13612    13616    13639    13645    13633 
   13632    13645    13653    13666    13693    13702    13690    13698 
   13721    13710    13714    13767    13799    13799    13805    13809 
   13826    13871    13886    13875    13898    13936    13952    13964 
   13992    14037    14061    14072    14104    14123    14129    14143 
   14152    14154    14152    14148    14145    14142    14146    14138 
   14110    14098    14100    14083    14068    14065    14044    14025 
   14013    13991    13968    13942    13914    13894    13867    13834 
   13810    13788    13759    13734    13714    13689    13662    13635 
   13612    13601    13582    13558    13539    13506    13479    13485 
   13474    13440    13448    13451    13408    13393    13409    13408 
   13408    13414    13420    13428    13427    13431    13466    13491 
   13486    13504    13533    13545    13567    13593    13620    13660 
   13680    13683    13710    13749    13778    13819    13851    13852 
   13882    13921    13921    13936    13959    13959    13968    13980 
   13983    13981    13969    13963    13968    13964    13941    13933 
   13940    13930    13905    13875    13864    13857    13832    13821 
   13815    13790    13775    13770    13755    13736    13725    13713 
   13687    13664    13668    13684    13671    13637    13616    13603 
   13591    13575    13560    13556    13549    13529    13516    13520 
   13514    13498    13495    13486    13466    13455    13451    13448 
   13440    13435    13432    13429    13433    13437    13436    13431 
   13429    13437    13448    13451    13443    13439    13460    13494 
   13505    13512    13540    13570    13586    13591    13605    13641 
   13663    13671    13702    13726    13741    13760    13778    13803 
   13825    13836    13856    13867    13865    13865    13861    13853 
   13864    13890    13892    13864    13842    13841    13828    13809 
   13819    13828    13809    13817    13828    13802    13792    13814 
   13821    13817    13826    13833    13828    13840    13867    13876 
   13878    13899    13918    13933    13960    13975    13968    13979 
   14004    14008    14015    14033    14027    14025    14031    14025 
   14030    14046    14035    14021    14026    14021    14017    14021 
   13988    13952    13945    13933    13900    13876    13856    13826 
   13801    13768    13728    13699    13695    13693    13648    13599 
   13594    13575    13539    13524    13505    13482    13473    13463 
   13458    13456    13443    13429    13437    13452    13444    13427 
   13431    13431    13429    13443    13448    13451    13460    13471 
   13491    13493    13477    13493    13510    13505    13518    13536 
   13540    13554    13562    13564    13576    13586    13589    13589 
   13578    13578    13603    13612    13599    13603    13605    13593 
   13602    13616    13618    13612    13599    13622    13660    13655 
   13649    13671    13689    13703    13726    13753    13784    13807 
   13825    13846    13872    13892    13905    13934    13979    14000 
   14002    14025    14046    14044    14056    14075    14085    14095 
   14089    14088    14098    14094    14099    14110    14103    14110 
   14125    14129    14137    14139    14135    14138    14138    14134 
   14138    14138    14130    14123    14115    14106    14096    14094 
   14092    14088    14088    14088    14085    14084    14073    14071 
   14085    14084    14071    14083    14100    14080    14042    14033 
   14033    14013    13994    13983    13960    13936    13917    13896 
   13876    13856    13822    13776    13755    13755    13736    13699 
   13676    13663    13645    13637    13614    13570    13548    13540 
   13514    13498    13495    13474    13443    13424    13414    13414 
   13406    13382    13366    13355    13335    13333    13340    13332 
   13315    13308    13329    13340    13333    13352    13375    13378 
   13386    13404    13419    13436    13452    13456    13462    13486 
   13513    13517    13521    13554    13581    13578    13571    13583 
   13612    13622    13629    13662    13686    13701    13722    13736 
   13763    13799    13813    13837    13875    13892    13914    13950 
   13972    13987    14013    14048    14079    14089    14087    14102 
   14125    14129    14135    14148    14145    14149    14156    14157 
   14165    14170    14169    14168    14165    14158    14153    14145 
   14119    14084    14056    14044    14023    13975    13936    13917 
   13875    13818    13774    13743    13702    13649    13616    13576 
   13537    13521    13482    13439    13427    13397    13371    13370 
   13350    13309    13284    13277    13261    13242    13235    13219 
   13200    13190    13180    13166    13146    13124    13122    13138 
   13147    13136    13124    13130    13151    13171    13186    13216 
   13242    13265    13296    13324    13352    13374    13394    13424 
   13448    13467    13490    13514    13531    13548    13568    13585 
   13595    13606    13618    13626    13625    13629    13635    13625 
   13609    13609    13635    13648    13630    13610    13602    13605 
   13605    13593    13593    13597    13587    13589    13591    13581 
   13576    13590    13613    13613    13608    13628    13647    13657 
   13668    13662    13671    13698    13703    13707    13721    13724 
   13730    13734    13734    13741    13747    13748    13749    13755 
   13760    13763    13771    13780    13780    13784    13794    13809 
   13822    13829    13840    13865    13899    13932    13937    13953 
   13999    14018    14026    14058    14077    14092    14111    14121 
   14131    14138    14141    14148    14150    14152    14156    14160 
   14165    14161    14154    14157    14161    14161    14164    14168 
   14170    14172    14184    14211    14223    14214    14224    14245 
   14238    14237    14238    14220    14204    14187    14160    14135 
   14107    14072    14038    14010    13971    13929    13890    13845 
   13794    13744    13693    13643    13595    13548    13505    13468 
   13425    13381    13343    13308    13270    13232    13204    13207 
   13203    13155    13132    13158    13161    13147    13154    13163 
   13180    13220    13266    13269    13275    13327    13351    13386 
   13455    13474    13486    13513    13525    13551    13568    13576 
   13591    13591    13598    13605    13594    13591    13587    13571 
   13563    13556    13539    13522    13510    13493    13478    13468 
   13456    13444    13437    13437    13433    13432    13436    13440 
   13447    13464    13477    13482    13490    13514    13531    13533 
   13548    13570    13583    13599    13620    13633    13647    13659 
   13672    13687    13702    13718    13736    13749    13756    13757 
   13768    13802    13828    13833    13851    13860    13844    13852 
   13867    13851    13852    13865    13842    13825    13832    13824 
   13803    13798    13787    13784    13782    13753    13744    13755 
   13740    13729    13736    13732    13730    13725    13709    13699 
   13694    13683    13671    13655    13637    13613    13589    13571 
   13547    13514    13491    13464    13419    13377    13348    13342 
   13340    13305    13257    13250    13250    13228    13220    13228 
   13228    13232    13246    13259    13271    13285    13302    13327 
   13371    13431    13474    13527    13591    13629    13674    13751 
   13810    13861    13929    13984    14027    14079    14129    14169 
   14207    14242    14265    14281    14295    14299    14304    14327 
   14341    14307    14265    14260    14243    14195    14158    14123 
   14075    14040    14003    13950    13903    13863    13818    13765 
   13718    13702    13690    13630    13576    13563    13535    13490 
   13474    13455    13423    13409    13410    13416    13414    13408 
   13421    13443    13452    13459    13470    13495    13516    13518 
   13548    13597    13616    13624    13659    13689    13709    13747 
   13779    13801    13837    13867    13896    13938    13971    13998 
   14040    14084    14107    14125    14168    14216    14239    14273 
   14316    14341    14369    14407    14438    14467    14490    14515 
   14547    14566    14577    14592    14615    14652    14679    14662 
   14673    14710    14702    14701    14724    14719    14709    14706 
   14697    14686    14671    14661    14647    14624    14605    14588 
   14573    14555    14527    14501    14482    14455    14424    14396 
   14372    14349    14322    14296    14273    14245    14223    14203 
   14176    14156    14134    14107    14089    14069    14042    14022 
   14007    13981    13953    13942    13929    13900    13882    13871 
   13851    13825    13803    13786    13768    13748    13729    13709 
   13690    13674    13647    13622    13605    13579    13547    13518 
   13493    13470    13440    13410    13385    13351    13308    13263 
   13223    13196    13174    13130    13085    13059    13001    12941 
   12923    12885    12831    12802    12760    12711    12684    12676 
   12671    12641    12600    12571    12549    12536    12507    12478 
   12464    12467    12490    12478    12444    12460    12484    12476 
   12494    12534    12550    12556    12583    12627    12687    12735 
   12749    12779    12846    12887    12915    12978    13031    13063 
   13112    13170    13216    13262    13305    13343    13382    13417 
   13448    13481    13505    13522    13536    13541    13545    13549 
   13552    13551    13549    13555    13549    13539    13536    13529 
   13514    13494    13473    13481    13494    13478    13458    13444 
   13420    13416    13414    13398    13396    13387    13377    13371 
   13363    13360    13362    13363    13363    13366    13374    13382 
   13393    13416    13432    13436    13460    13489    13501    13525 
   13547    13558    13574    13579    13593    13632    13655    13652 
   13664    13683    13684    13689    13699    13711    13717    13713 
   13720    13730    13733    13734    13736    13747    13756    13743 
   13732    13747    13741    13718    13718    13710    13695    13691 
   13682    13668    13659    13651    13640    13628    13616    13608 
   13603    13598    13594    13593    13593    13593    13594    13598 
   13605    13606    13614    13625    13629    13640    13651    13652 
   13662    13672    13679    13693    13705    13710    13721    13756 
   13794    13792    13790    13828    13852    13864    13899    13917 
   13932    13965    13986    14014    14052    14075    14098    14139 
   14177    14208    14243    14273    14295    14320    14358    14423 
   14473    14477    14493    14543    14571    14592    14627    14646 
   14659    14686    14706    14720    14732    14742    14751    14758 
   14763    14766    14760    14752    14737    14727    14733    14732 
   14708    14693    14692    14656    14615    14602    14582    14531 
   14490    14473    14457    14412    14358    14326    14283    14226 
   14191    14148    14092    14044    14003    13964    13900    13819 
   13780    13775    13737    13694    13672    13624    13582    13572 
   13533    13497    13485    13455    13425    13408    13382    13352 
   13331    13316    13300    13278    13257    13239    13223    13205 
   13193    13182    13174    13167    13155    13144    13139    13126 
   13115    13112    13107    13095    13089    13095    13096    13090 
   13090    13097    13105    13116    13131    13142    13155    13185 
   13215    13240    13263    13282    13324    13382    13409    13431 
   13474    13505    13531    13567    13595    13622    13649    13670 
   13697    13722    13743    13763    13774    13803    13849    13844 
   13841    13902    13923    13922    13964    13990    14010    14040 
   14048    14076    14134    14165    14176    14208    14243    14256 
   14270    14296    14318    14335    14334    14316    14308    14315 
   14330    14346    14323    14291    14295    14280    14257    14273 
   14257    14220    14218    14208    14173    14134    14099    14081 
   14057    14023    13999    13972    13945    13929    13905    13876 
   13855    13836    13811    13786    13760    13741    13725    13698 
   13670    13651    13633    13613    13591    13574    13560    13549 
   13536    13525    13517    13506    13494    13485    13471    13451 
   13435    13425    13414    13401    13390    13379    13369    13360 
   13358    13355    13348    13343    13343    13343    13342    13346 
   13344    13347    13360    13363    13373    13393    13400    13408 
   13424    13435    13443    13448    13455    13466    13468    13473 
   13490    13498    13498    13504    13506    13506    13509    13510 
   13516    13514    13508    13508    13506    13501    13506    13504 
   13483    13478    13498    13506    13478    13456    13463    13463 
   13471    13479    13467    13475    13489    13491    13510    13528 
   13535    13529    13533    13556    13560    13563    13582    13582 
   13587    13605    13608    13616    13625    13620    13630    13666 
   13680    13674    13695    13720    13726    13740    13744    13772 
   13817    13822    13834    13868    13890    13918    13930    13923 
   13946    13967    13963    13976    13994    13998    14013    14026 
   14027    14040    14057    14068    14073    14076    14073    14071 
   14083    14102    14100    14098    14112    14107    14098    14110 
   14107    14106    14115    14107    14100    14104    14099    14095 
   14094    14084    14077    14072    14061    14052    14044    14038 
   14038    14034    14013    13991    13991    13983    13961    13952 
   13938    13918    13905    13887    13865    13842    13813    13786 
   13764    13738    13706    13675    13647    13614    13581    13548 
   13518    13487    13455    13424    13396    13367    13333    13311 
   13286    13248    13216    13211    13220    13205    13180    13178 
   13171    13161    13163    13163    13166    13173    13178    13188 
   13203    13227    13254    13284    13305    13308    13324    13360 
   13382    13405    13437    13458    13481    13513    13537    13562 
   13590    13613    13633    13653    13679    13713    13724    13717 
   13733    13755    13753    13760    13771    13765    13761    13764 
   13764    13756    13756    13760    13749    13732    13736    13748 
   13733    13724    13749    13744    13707    13707    13717    13710 
   13702    13703    13709    13714    13724    13737    13751    13772 
   13791    13805    13824    13849    13872    13891    13909    13925 
   13942    13960    13973    13981    13998    14010    14010    14017 
   14030    14025    14014    14023    14037    14027    14014    14008 
   13990    13972    13957    13927    13900    13883    13855    13822 
   13806    13791    13747    13702    13690    13662    13606    13583 
   13586    13576    13537    13491    13468    13446    13413    13413 
