Origin Time       2025/01/13 21:19:00
Lat.              31.8
Long.             131.6
Depth. (km)       30
Mag.              6.9
Station Code      TTRH03
Station Lat.      35.3553
Station Long.     133.4918
Station Height(m) 220
Record Time       2025/01/13 21:21:33
Sampling Freq(Hz) 100Hz
Duration Time(s)  120
Dir.              2
Scale Factor      2942(gal)/8224139
Max. Acc. (gal)   0.337
Last Correction   2025/01/13 21:21:36
Memo.             
[...]
  160115   160108   160103   160097   160092   160087   160087   160096 
  160100   160101   160114   160128   160141   160153   160154   160147 
  160146   160153   160165   160186   160216   160239   160259   160276 
  160281   160281   160280   160285   160303   160323   160327   160320 
  160323   160320   160307   160297   160282   160266   160270   160278 
  160282   160290   160296   160288   160267   160234   160201   160186 
  160181   160172   160168   160166   160157   160142   160119   160097 
  160085   160081   160087   160100   160108   160122   160146   160162 
  160166   160155   160130   160112   160122   160135   160143   160150 
  160151   160147   160149   160155   160159   160162   160164   160165 
  160169   160173   160172   160166   160164   160161   160155   160154 
  160164   160170   160166   160165   160162   160154   160158   160170 
  160184   160197   160199   160196   160204   160211   160216   160223 
  160231   160255   160290   160317   160350   160385   160394   160388 
  160384   160382   160380   160373   160362   160346   160335   160330 
  160324   160319   160308   160297   160294   160296   160296   160300 
  160299   160290   160290   160301   160311   160315   160305   160285 
  160273   160278   160282   160277   160276   160267   160254   160255 
  160263   160261   160262   160265   160270   160282   160297   160308 
  160324   160331   160319   160309   160308   160304   160301   160297 
  160290   160288   160286   160284   160276   160265   160259   160251 
  160238   160240   160247   160242   160238   160235   160227   160219 
  160208   160197   160199   160208   160224   160239   160242   160247 
  160258   160258   160258   160269   160267   160255   160255   160254 
  160246   160246   160242   160234   160231   160228   160230   160235 
  160236   160230   160220   160216   160215   160222   160231   160235 
  160232   160227   160231   160245   160254   160262   160263   160249 
  160235   160234   160245   160257   160257   160247   160235   160226 
  160227   160227   160232   160240   160231   160208   160197   160204 
  160220   160235   160247   160257   160261   160251   160243   160243 
  160242   160232   160230   160220   160204   160196   160195   160193 
  160199   160205   160209   160215   160226   160235   160240   160247 
  160261   160286   160313   160323   160326   160335   160339   160331 
  160324   160316   160300   160285   160280   160281   160285   160286 
  160289   160288   160278   160276   160273   160259   160242   160227 
  160213   160208   160208   160211   160211   160209   160207   160209 
  160215   160208   160195   160186   160184   160181   160174   160168 
  160168   160164   160158   160161   160161   160154   160157   160164 
  160169   160173   160170   160161   160145   160126   160115   160111 
  160123   160143   160150   160153   160158   160161   160165   160168 
  160169   160173   160174   160181   160189   160188   160191   160197 
  160200   160200   160201   160201   160200   160201   160204   160212 
  160223   160226   160234   160251   160269   160285   160299   160309 
  160323   160336   160344   160353   160358   160362   160366   160365 
  160359   160357   160354   160344   160340   160343   160342   160332 
  160315   160297   160285   160277   160274   160273   160274   160284 
  160300   160308   160312   160319   160327   160335   160344   160348 
  160353   160357   160359   160359   160351   160334   160323   160319 
  160305   160289   160285   160288   160289   160285   160281   160290 
  160300   160300   160299   160292   160278   160276   160284   160290 
  160299   160297   160280   160262   160254   160250   160245   160236 
  160231   160232   160232   160232   160232   160228   160230   160227 
  160213   160205   160197   160186   160182   160176   160168   160166 
  160166   160157   160138   160116   160095   160065   160035   160014 
  159995   159979   159964   159946   159929   159910   159895   159884 
  159881   159888   159888   159884   159887   159891   159889   159891 
  159892   159885   159869   159854   159846   159844   159838   159833 
  159840   159853   159860   159862   159871   159881   159888   159896 
  159900   159898   159894   159892   159892   159900   159914   159919 
  159915   159906   159892   159884   159879   159872   159868   159864 
  159857   159850   159854   159862   159860   159857   159868   159883 
  159892   159904   159933   159965   159996   160034   160070   160100 
  160124   160137   160145   160157   160165   160174   160189   160207 
  160224   160236   160243   160254   160265   160266   160265   160265 
  160259   160255   160262   160262   160250   160243   160239   160235 
  160238   160247   160257   160265   160266   160262   160265   160266 
  160263   160263   160261   160253   160247   160239   160228   160220 
  160218   160216   160216   160219   160222   160222   160218   160216 
  160209   160199   160193   160195   160196   160193   160185   160170 
  160153   160146   160146   160138   160127   160116   160104   160096 
  160093   160088   160083   160073   160061   160051   160039   160030 
  160030   160034   160043   160054   160061   160072   160087   160093 
  160097   160103   160103   160107   160116   160115   160114   160122 
  160124   160123   160124   160126   160126   160131   160134   160127 
  160114   160101   160095   160092   160091   160088   160074   160060 
  160047   160037   160029   160030   160035   160039   160046   160049 
  160046   160039   160029   160026   160024   160012   160004   160002 
  159995   159989   159995   159999   159993   159992   159993   159996 
  160010   160039   160070   160096   160120   160146   160162   160176 
  160200   160216   160220   160240   160266   160274   160286   160305 
  160316   160326   160336   160343   160347   160350   160354   160357 
  160365   160382   160397   160411   160423   160429   160432   160444 
  160463   160485   160510   160529   160539   160542   160544   160550 
  160556   160558   160562   160573   160578   160571   160566   160571 
  160577   160583   160589   160586   160583   160573   160552   160539 
  160528   160512   160498   160479   160465   160454   160432   160415 
  160407   160389   160367   160350   160328   160308   160293   160282 
  160267   160257   160251   160246   160240   160240   160234   160222 
  160218   160215   160205   160196   160189   160178   160169   160166 
  160161   160159   160159   160150   160137   160134   160137   160142 
  160146   160151   160161   160170   160180   160188   160197   160208 
  160213   160216   160220   160224   160230   160236   160246   160258 
  160267   160272   160266   160258   160254   160251   160251   160255 
  160253   160239   160232   160226   160208   160196   160191   160180 
  160169   160161   160154   160150   160147   160137   160124   160118 
  160108   160091   160072   160056   160047   160042   160041   160038 
  160034   160033   160023   160003   159997   160002   159996   159987 
  159979   159960   159941   159931   159930   159934   159937   159926 
  159918   159921   159925   159930   159931   159926   159923   159922 
  159919   159918   159922   159930   159945   159960   159970   159972 
  159973   159979   159989   160007   160033   160050   160056   160069 
  160092   160110   160123   160135   160145   160153   160157   160154 
  160154   160162   160169   160178   160189   160191   160193   160197 
  160188   160181   160181   160174   160165   160164   160169   160174 
  160176   160176   160176   160174   160172   160168   160162   160161 
  160159   160149   160134   160122   160118   160111   160096   160085 
  160076   160061   160051   160049   160047   160042   160039   160039 
  160034   160026   160015   159999   159983   159969   159962   159954 
  159938   159926   159915   159895   159880   159876   159872   159862 
  159853   159853   159861   159868   159872   159869   159860   159854 
  159854   159857   159864   159868   159865   159861   159858   159854 
  159857   159861   159857   159853   159849   159848   159842   159831 
  159823   159825   159825   159825   159825   159825   159821   159814 
  159808   159804   159794   159776   159757   159742   159723   159709 
  159702   159692   159672   159653   159640   159624   159609   159603 
  159599   159599   159611   159621   159624   159628   159636   159642 
  159651   159664   159682   159707   159741   159767   159786   159804 
  159825   159846   159869   159887   159898   159907   159911   159915 
  159923   159931   159938   159945   159953   159965   159975   159983 
  159993   160002   160012   160034   160053   160074   160101   160131 
  160169   160209   160239   160267   160304   160342   160371   160402 
  160435   160466   160498   160529   160562   160590   160610   160623 
  160636   160655   160670   160681   160687   160689   160687   160686 
  160686   160691   160685   160675   160670   160658   160650   160648 
  160647   160637   160629   160627   160627   160624   160623   160621 
  160620   160621   160618   160613   160614   160610   160597   160591 
  160594   160591   160583   160575   160571   160567   160562   160556 
  160548   160539   160523   160504   160493   160481   160463   160454 
  160447   160434   160419   160402   160388   160380   160380   160380 
  160378   160377   160375   160375   160380   160385   160390   160397 
  160405   160408   160402   160398   160398   160394   160390   160388 
  160385   160381   160377   160374   160374   160374   160377   160382 
  160382   160378   160378   160384   160386   160385   160386   160390 
  160390   160393   160402   160405   160401   160404   160405   160405 
  160409   160415   160417   160420   160421   160424   160424   160428 
  160434   160431   160427   160428   160428   160431   160439   160447 
  160447   160438   160424   160409   160394   160381   160369   160350 
  160324   160305   160284   160255   160235   160218   160197   160177 
  160155   160131   160111   160093   160076   160058   160042   160027 
  160015   160012   160008   160002   160003   160008   160012   160018 
  160033   160053   160066   160081   160105   160131   160151   160174 
  160197   160209   160227   160249   160257   160265   160272   160269 
  160266   160262   160249   160235   160226   160212   160193   160185 
  160176   160161   160149   160142   160132   160130   160135   160141 
  160143   160154   160168   160180   160185   160182   160186   160191 
  160185   160178   160172   160165   160154   160132   160104   160074 
  160041   160004   159965   159922   159883   159840   159790   159745 
  159703   159657   159613   159567   159526   159494   159459   159422 
  159395   159375   159358   159351   159349   159347   159349   159354 
  159359   159372   159393   159410   159428   159443   159457   159474 
  159483   159491   159491   159486   159484   159482   159479   159486 
  159491   159494   159506   159518   159530   159547   159563   159578 
  159591   159606   159625   159645   159668   159695   159721   159745 
  159772   159802   159825   159849   159877   159902   159916   159930 
  159945   159961   159979   160002   160029   160053   160072   160091 
  160112   160131   160154   160178   160197   160218   160240   160259 
  160277   160294   160311   160330   160346   160359   160371   160384 
  160396   160413   160434   160447   160450   160454   160461   160465 
  160463   160467   160474   160470   160466   160469   160463   160451 
  160438   160421   160402   160386   160369   160348   160332   160319 
  160303   160288   160273   160258   160243   160230   160220   160211 
  160197   160191   160185   160176   160172   160166   160155   160147 
  160143   160138   160132   160128   160120   160114   160111   160105 
  160099   160091   160076   160064   160054   160041   160026   160012 
  159989   159965   159946   159923   159900   159881   159864   159842 
  159822   159808   159795   159779   159769   159763   159757   159754 
  159761   159773   159784   159806   159834   159858   159883   159911 
  159934   159962   159996   160022   160049   160080   160114   160146 
  160172   160193   160218   160243   160269   160292   160312   160330 
  160343   160361   160382   160396   160413   160429   160440   160456 
  160470   160473   160479   160488   160497   160515   160532   160546 
  160564   160587   160604   160613   160624   160631   160635   160631 
  160628   160628   160623   160616   160609   160597   160583   160566 
  160544   160525   160508   160486   160465   160442   160419   160397 
  160373   160342   160308   160277   160245   160211   160174   160139 
  160103   160068   160037   160010   159983   159961   159949   159939 
  159933   159934   159939   159952   159965   159979   159996   160011 
  160022   160037   160051   160062   160074   160092   160116   160135 
  160150   160164   160174   160186   160200   160216   160231   160240 
  160249   160259   160273   160288   160299   160307   160304   160300 
  160294   160282   160276   160273   160257   160239   160232   160224 
  160211   160200   160192   160181   160168   160161   160150   160134 
  160122   160107   160085   160068   160046   160019   159995   159968 
  159934   159904   159875   159842   159804   159760   159725   159695 
  159655   159614   159584   159557   159534   159509   159484   159463 
  159436   159408   159391   159375   159352   159329   159309   159283 
  159259   159244   159235   159225   159224   159227   159224   159225 
  159235   159246   159255   159271   159295   159316   159328   159344 
  159360   159372   159387   159405   159425   159443   159460   159482 
  159499   159526   159559   159584   159611   159644   159673   159702 
  159737   159777   159815   159854   159895   159933   159969   160008 
  160046   160081   160115   160151   160189   160218   160239   160262 
  160288   160309   160323   160339   160362   160388   160416   160446 
  160474   160502   160528   160547   160559   160574   160591   160601 
  160602   160605   160609   160606   160602   160598   160593   160596 
  160598   160593   160586   160582   160575   160562   160544   160527 
  160510   160494   160477   160461   160444   160429   160416   160400 
  160385   160373   160366   160358   160347   160343   160346   160343 
  160338   160339   160346   160353   160357   160358   160361   160365 
  160366   160370   160374   160374   160371   160373   160375   160374 
  160375   160380   160377   160370   160369   160369   160367   160365 
  160358   160350   160347   160350   160346   160343   160351   160350 
  160343   160342   160344   160347   160353   160362   160378   160398 
  160420   160440   160459   160479   160498   160519   160533   160544 
  160558   160571   160579   160589   160590   160583   160581   160585 
  160582   160579   160583   160585   160579   160583   160586   160582 
  160582   160587   160589   160591   160591   160590   160590   160587 
  160589   160591   160589   160583   160577   160571   160564   160552 
  160543   160532   160512   160500   160490   160475   160465   160463 
  160462   160456   160451   160444   160439   160438   160436   160434 
  160432   160436   160446   160459   160471   160482   160492   160501 
  160513   160528   160546   160566   160585   160598   160602   160598 
  160596   160602   160608   160608   160610   160613   160612   160610 
  160612   160614   160625   160632   160631   160637   160643   160640 
  160636   160633   160631   160625   160620   160616   160613   160612 
  160606   160597   160590   160583   160573   160555   160533   160512 
  160486   160451   160417   160386   160351   160315   160276   160232 
  160197   160157   160111   160077   160041   160004   159979   159954 
  159933   159919   159899   159880   159869   159862   159852   159845 
  159846   159849   159853   159857   159861   159867   159871   159876 
  159885   159898   159903   159906   159916   159929   159939   159950 
  159961   159975   159991   160004   160024   160047   160069   160093 
  160112   160126   160139   160154   160165   160178   160189   160196 
  160203   160208   160213   160218   160216   160215   160208   160193 
  160176   160161   160149   160128   160107   160092   160073   160051 
  160035   160012   159985   159968   159950   159927   159904   159876 
  159845   159817   159786   159753   159722   159691   159661   159629 
  159594   159560   159530   159499   159472   159453   159440   159424 
  159408   159391   159381   159372   159366   159356   159354   159354 
  159356   159366   159379   159393   159408   159421   159436   159448 
  159459   159476   159497   159513   159534   159556   159572   159597 
  159626   159651   159675   159700   159723   159745   159771   159799 
  159823   159846   159873   159898   159919   159938   159957   159976 
  159997   160018   160038   160057   160070   160085   160108   160127 
  160142   160164   160181   160199   160216   160226   160232   160239 
  160242   160242   160242   160239   160235   160227   160220   160213 
  160205   160200   160189   160173   160157   160142   160131   160120 
  160105   160096   160085   160073   160066   160060   160051   160049 
  160047   160043   160050   160058   160057   160066   160083   160093 
  160111   160127   160141   160164   160189   160216   160249   160272 
  160303   160343   160367   160393   160428   160454   160475   160504 
  160529   160548   160570   160591   160614   160637   160658   160677 
  160694   160712   160729   160751   160772   160790   160807   160822 
  160840   160861   160874   160884   160903   160915   160918   160930 
  160941   160940   160940   160949   160952   160949   160944   160934 
  160926   160924   160911   160887   160870   160864   160853   160829 
  160806   160783   160762   160739   160718   160701   160672   160640 
  160618   160601   160577   160558   160542   160519   160501   160485 
  160461   160439   160420   160404   160392   160381   160374   160363 
  160344   160324   160309   160293   160276   160257   160231   160209 
  160196   160177   160155   160142   160123   160099   160074   160049 
  160030   160008   159984   159965   159950   159939   159930   159919 
  159908   159896   159888   159880   159869   159861   159853   159845 
  159841   159834   159823   159813   159799   159788   159780   159768 
  159757   159750   159741   159733   159729   159719   159713   159703 
  159688   159682   159673   159660   159652   159641   159629   159622 
  159611   159598   159587   159583   159578   159574   159578   159580 
  159584   159594   159603   159613   159625   159638   159651   159667 
  159687   159705   159723   159749   159772   159787   159807   159833 
  159852   159867   159888   159908   159925   159941   159957   159973 
  159989   160002   160012   160026   160033   160035   160042   160057 
  160064   160065   160073   160073   160064   160070   160074   160062 
  160053   160051   160049   160043   160038   160038   160039   160039 
  160043   160045   160045   160043   160041   160039   160038   160030 
  160022   160015   160006   160000   160000   160002   160000   160002 
  160006   160012   160022   160027   160030   160042   160054   160060 
  160066   160078   160088   160095   160108   160116   160126   160151 
