Origin Time       2025/01/13 21:19:00
Lat.              31.8
Long.             131.6
Depth. (km)       30
Mag.              6.9
Station Code      TTRH06
Station Lat.      35.3946
Station Long.     134.1988
Station Height(m) -70
Record Time       2025/01/13 21:21:16
Sampling Freq(Hz) 100Hz
Duration Time(s)  120
Dir.              1
Scale Factor      2942(gal)/8224139
Max. Acc. (gal)   0.599
Last Correction   2025/01/13 21:21:17
Memo.             
[...]
  -78784   -78780   -78776   -78773   -78772   -78775   -78786   -78804 
  -78827   -78853   -78877   -78900   -78923   -78946   -78969   -78992 
  -79018   -79050   -79087   -79118   -79145   -79172   -79201   -79232 
  -79266   -79301   -79339   -79382   -79424   -79466   -79506   -79540 
  -79567   -79593   -79616   -79637   -79662   -79689   -79714   -79740 
  -79763   -79780   -79795   -79809   -79820   -79829   -79834   -79834 
  -79832   -79824   -79813   -79799   -79782   -79766   -79752   -79736 
  -79717   -79697   -79677   -79654   -79627   -79601   -79585   -79564 
  -79537   -79513   -79486   -79458   -79435   -79417   -79400   -79382 
  -79370   -79359   -79340   -79321   -79305   -79282   -79255   -79232 
  -79211   -79197   -79189   -79184   -79180   -79182   -79185   -79188 
  -79193   -79203   -79213   -79224   -79238   -79255   -79270   -79285 
  -79294   -79303   -79313   -79328   -79347   -79366   -79385   -79407 
  -79434   -79458   -79479   -79497   -79510   -79521   -79535   -79547 
  -79551   -79547   -79542   -79533   -79521   -79506   -79489   -79471 
  -79455   -79435   -79412   -79393   -79377   -79357   -79335   -79317 
  -79301   -79285   -79273   -79262   -79255   -79250   -79247   -79246 
  -79240   -79231   -79222   -79215   -79209   -79205   -79207   -79212 
  -79216   -79222   -79232   -79246   -79263   -79288   -79309   -79338 
  -79369   -79397   -79425   -79456   -79490   -79527   -79569   -79605 
  -79636   -79663   -79685   -79706   -79732   -79758   -79785   -79812 
  -79834   -79859   -79887   -79910   -79929   -79947   -79964   -79984 
  -80001   -80013   -80028   -80038   -80041   -80038   -80033   -80022 
  -80006   -79990   -79975   -79959   -79948   -79942   -79933   -79924 
  -79914   -79903   -79888   -79872   -79852   -79829   -79807   -79786 
  -79766   -79747   -79726   -79706   -79685   -79660   -79633   -79608 
  -79586   -79560   -79532   -79509   -79490   -79469   -79450   -79435 
  -79415   -79397   -79388   -79374   -79355   -79339   -79321   -79305 
  -79297   -79289   -79278   -79272   -79265   -79258   -79254   -79250 
  -79246   -79246   -79247   -79249   -79249   -79245   -79238   -79227 
  -79212   -79200   -79186   -79169   -79151   -79134   -79115   -79099 
  -79084   -79070   -79054   -79037   -79020   -79002   -78981   -78965 
  -78952   -78937   -78925   -78912   -78900   -78889   -78880   -78869 
  -78857   -78845   -78833   -78817   -78802   -78788   -78775   -78768 
  -78765   -78763   -78761   -78767   -78775   -78781   -78791   -78804 
  -78817   -78829   -78844   -78857   -78872   -78891   -78912   -78934 
  -78954   -78976   -78999   -79018   -79037   -79058   -79088   -79126 
  -79168   -79208   -79249   -79288   -79323   -79355   -79385   -79412 
  -79432   -79454   -79474   -79488   -79496   -79500   -79500   -79500 
  -79498   -79493   -79485   -79474   -79459   -79439   -79413   -79388 
  -79361   -79330   -79299   -79273   -79251   -79234   -79218   -79201 
  -79188   -79181   -79176   -79170   -79168   -79164   -79153   -79141 
  -79131   -79122   -79110   -79097   -79087   -79077   -79066   -79060 
  -79050   -79034   -79022   -79016   -79008   -79000   -78996   -78991 
  -78984   -78979   -78973   -78965   -78957   -78945   -78931   -78921 
  -78908   -78900   -78900   -78900   -78902   -78906   -78914   -78921 
  -78934   -78950   -78962   -78976   -78987   -79000   -79015   -79030 
  -79041   -79045   -79049   -79051   -79046   -79038   -79031   -79019 
  -79010   -79003   -78997   -78993   -78984   -78969   -78953   -78938 
  -78923   -78911   -78894   -78876   -78858   -78842   -78829   -78822 
  -78825   -78831   -78844   -78858   -78872   -78883   -78895   -78904 
  -78912   -78923   -78934   -78945   -78956   -78966   -78972   -78970 
  -78975   -78984   -78991   -78996   -79002   -79004   -79008   -79018 
  -79027   -79037   -79049   -79064   -79073   -79081   -79095   -79111 
  -79127   -79143   -79164   -79191   -79220   -79249   -79276   -79304 
  -79336   -79373   -79412   -79454   -79497   -79544   -79601   -79659 
  -79710   -79766   -79824   -79870   -79911   -79956   -79996   -80034 
  -80069   -80099   -80127   -80154   -80175   -80195   -80212   -80226 
  -80238   -80246   -80254   -80260   -80257   -80250   -80244   -80234 
  -80223   -80207   -80188   -80168   -80145   -80122   -80100   -80083 
  -80063   -80038   -80015   -79990   -79960   -79929   -79895   -79857 
  -79820   -79787   -79758   -79724   -79690   -79655   -79616   -79573 
  -79528   -79482   -79440   -79400   -79355   -79313   -79273   -79230 
  -79186   -79149   -79118   -79088   -79060   -79038   -79022   -79006 
  -78999   -79000   -79007   -79016   -79024   -79034   -79049   -79069 
  -79087   -79107   -79132   -79162   -79191   -79223   -79257   -79289 
  -79324   -79363   -79396   -79423   -79450   -79470   -79482   -79498 
  -79510   -79516   -79525   -79531   -79529   -79531   -79535   -79536 
  -79536   -79540   -79539   -79529   -79519   -79509   -79494   -79477 
  -79467   -79463   -79455   -79451   -79450   -79451   -79456   -79462 
  -79466   -79469   -79473   -79478   -79482   -79485   -79490   -79494 
  -79497   -79502   -79508   -79510   -79512   -79513   -79513   -79508 
  -79502   -79493   -79478   -79461   -79439   -79420   -79398   -79370 
  -79343   -79315   -79281   -79249   -79216   -79185   -79158   -79134 
  -79110   -79087   -79066   -79049   -79031   -79016   -79003   -78992 
  -78985   -78984   -78984   -78991   -79003   -79014   -79020   -79035 
  -79060   -79087   -79112   -79138   -79168   -79199   -79227   -79251 
  -79277   -79303   -79326   -79354   -79382   -79407   -79428   -79448 
  -79466   -79485   -79498   -79509   -79519   -79524   -79527   -79524 
  -79512   -79500   -79488   -79466   -79440   -79411   -79371   -79328 
  -79284   -79238   -79191   -79147   -79105   -79060   -79010   -78965 
  -78918   -78865   -78811   -78759   -78702   -78645   -78591   -78536 
  -78483   -78433   -78382   -78337   -78300   -78266   -78235   -78210 
  -78192   -78174   -78163   -78151   -78139   -78136   -78139   -78142 
  -78150   -78163   -78179   -78200   -78224   -78258   -78304   -78351 
  -78403   -78464   -78528   -78597   -78669   -78738   -78803   -78865 
  -78926   -78989   -79054   -79120   -79185   -79251   -79321   -79392 
  -79459   -79525   -79591   -79655   -79722   -79793   -79856   -79917 
  -79975   -80033   -80090   -80146   -80202   -80254   -80304   -80349 
  -80392   -80434   -80468   -80495   -80519   -80538   -80553   -80559 
  -80559   -80562   -80563   -80555   -80546   -80534   -80514   -80487 
  -80454   -80414   -80366   -80314   -80254   -80192   -80125   -80048 
  -79969   -79888   -79805   -79722   -79643   -79563   -79485   -79408 
  -79336   -79274   -79216   -79162   -79108   -79057   -79008   -78960 
  -78918   -78887   -78862   -78845   -78835   -78833   -78831   -78833 
  -78835   -78841   -78852   -78867   -78887   -78907   -78927   -78946 
  -78966   -78991   -79019   -79049   -79083   -79122   -79158   -79195 
  -79234   -79267   -79303   -79342   -79384   -79420   -79458   -79497 
  -79528   -79560   -79598   -79636   -79671   -79709   -79748   -79789 
  -79824   -79856   -79890   -79924   -79956   -79986   -80015   -80048 
  -80079   -80103   -80122   -80136   -80145   -80154   -80161   -80163 
  -80165   -80171   -80169   -80157   -80146   -80133   -80114   -80090 
  -80063   -80028   -79988   -79944   -79901   -79856   -79809   -79764 
  -79722   -79686   -79652   -79620   -79589   -79558   -79524   -79493 
  -79467   -79446   -79428   -79417   -79407   -79397   -79392   -79388 
  -79380   -79373   -79369   -79367   -79366   -79363   -79359   -79359 
  -79358   -79350   -79339   -79331   -79319   -79303   -79285   -79267 
  -79249   -79231   -79209   -79189   -79173   -79158   -79143   -79130 
  -79115   -79100   -79089   -79080   -79074   -79072   -79072   -79072 
  -79072   -79072   -79076   -79080   -79081   -79085   -79092   -79100 
  -79110   -79119   -79128   -79141   -79155   -79170   -79189   -79207 
  -79220   -79231   -79245   -79259   -79270   -79284   -79301   -79309 
  -79313   -79321   -79328   -79330   -79331   -79334   -79336   -79340 
  -79344   -79348   -79353   -79362   -79371   -79374   -79380   -79384 
  -79382   -79378   -79371   -79362   -79354   -79346   -79338   -79334 
  -79332   -79332   -79335   -79340   -79347   -79355   -79363   -79369 
  -79374   -79381   -79384   -79382   -79382   -79381   -79377   -79371 
  -79367   -79363   -79354   -79348   -79347   -79346   -79348   -79350 
  -79351   -79359   -79367   -79374   -79380   -79392   -79405   -79417 
  -79428   -79440   -79454   -79467   -79481   -79493   -79504   -79517 
  -79532   -79542   -79548   -79558   -79562   -79562   -79559   -79551 
  -79543   -79535   -79521   -79504   -79486   -79467   -79447   -79424 
  -79400   -79375   -79350   -79321   -79292   -79265   -79240   -79212 
  -79184   -79158   -79127   -79097   -79072   -79037   -78996   -78956 
  -78915   -78873   -78829   -78780   -78733   -78687   -78644   -78603 
  -78567   -78533   -78501   -78471   -78441   -78413   -78390   -78371 
  -78356   -78343   -78332   -78325   -78322   -78318   -78320   -78327 
  -78337   -78354   -78371   -78394   -78421   -78452   -78487   -78529 
  -78574   -78617   -78663   -78710   -78763   -78817   -78875   -78938 
  -79003   -79065   -79128   -79192   -79254   -79321   -79386   -79448 
  -79509   -79569   -79625   -79675   -79722   -79768   -79809   -79841 
  -79871   -79897   -79915   -79929   -79940   -79952   -79961   -79967 
  -79974   -79984   -79990   -79996   -80003   -80009   -80013   -80015 
  -80015   -80015   -80017   -80017   -80015   -80017   -80017   -80015 
  -80015   -80019   -80025   -80030   -80040   -80049   -80061   -80076 
  -80095   -80107   -80121   -80138   -80152   -80161   -80172   -80179 
  -80187   -80199   -80211   -80223   -80233   -80241   -80253   -80264 
  -80269   -80275   -80281   -80283   -80281   -80271   -80254   -80237 
  -80214   -80187   -80157   -80119   -80077   -80034   -79984   -79926 
  -79868   -79812   -79753   -79695   -79632   -79563   -79497   -79427 
  -79351   -79278   -79211   -79142   -79074   -79012   -78954   -78899 
  -78849   -78807   -78772   -78738   -78715   -78699   -78680   -78668 
  -78663   -78656   -78652   -78653   -78655   -78655   -78657   -78661 
  -78663   -78667   -78673   -78678   -78683   -78695   -78705   -78713 
  -78723   -78730   -78736   -78742   -78749   -78756   -78761   -78768 
  -78776   -78781   -78790   -78800   -78811   -78822   -78835   -78853 
  -78872   -78892   -78912   -78935   -78964   -78995   -79024   -79060 
  -79099   -79141   -79186   -79230   -79274   -79323   -79375   -79427 
  -79479   -79535   -79591   -79645   -79701   -79756   -79814   -79870 
  -79920   -79967   -80014   -80056   -80091   -80126   -80164   -80198 
  -80229   -80256   -80279   -80302   -80316   -80327   -80338   -80346 
  -80349   -80347   -80338   -80325   -80308   -80289   -80269   -80241 
  -80208   -80180   -80144   -80102   -80061   -80021   -79975   -79925 
  -79874   -79821   -79766   -79708   -79647   -79581   -79513   -79443 
  -79367   -79290   -79215   -79138   -79062   -78988   -78916   -78845 
  -78773   -78703   -78636   -78570   -78513   -78460   -78408   -78359 
  -78314   -78277   -78240   -78209   -78182   -78162   -78147   -78136 
  -78128   -78128   -78133   -78146   -78162   -78181   -78202   -78225 
  -78256   -78285   -78309   -78337   -78368   -78395   -78422   -78451 
  -78476   -78505   -78530   -78552   -78575   -78598   -78622   -78655 
  -78687   -78719   -78754   -78792   -78827   -78864   -78903   -78941 
  -78984   -79030   -79072   -79112   -79158   -79207   -79253   -79301 
  -79351   -79402   -79455   -79505   -79560   -79618   -79674   -79728 
  -79780   -79834   -79886   -79933   -79983   -80032   -80073   -80118 
  -80160   -80198   -80230   -80264   -80293   -80320   -80349   -80374 
  -80396   -80418   -80439   -80460   -80476   -80491   -80503   -80508 
  -80511   -80511   -80505   -80497   -80487   -80472   -80455   -80437 
  -80414   -80389   -80361   -80333   -80300   -80266   -80231   -80194 
  -80154   -80118   -80080   -80038   -79995   -79952   -79905   -79856 
  -79812   -79767   -79724   -79682   -79645   -79608   -79574   -79546 
  -79517   -79490   -79467   -79448   -79429   -79417   -79411   -79405 
  -79405   -79405   -79402   -79404   -79412   -79420   -79425   -79431 
  -79438   -79446   -79450   -79451   -79452   -79455   -79452   -79444 
  -79439   -79434   -79425   -79417   -79408   -79393   -79375   -79353 
  -79326   -79296   -79265   -79228   -79192   -79159   -79123   -79085 
  -79051   -79016   -78981   -78948   -78918   -78889   -78862   -78838 
  -78817   -78796   -78773   -78754   -78744   -78736   -78727   -78726 
  -78732   -78742   -78759   -78779   -78803   -78830   -78861   -78899 
  -78939   -78980   -79020   -79065   -79115   -79165   -79216   -79273 
  -79331   -79386   -79443   -79504   -79563   -79620   -79677   -79736 
  -79797   -79853   -79907   -79956   -79995   -80032   -80068   -80098 
  -80122   -80137   -80148   -80156   -80152   -80141   -80125   -80100 
  -80075   -80045   -80005   -79955   -79903   -79844   -79778   -79706 
  -79631   -79552   -79465   -79367   -79270   -79173   -79064   -78956 
  -78852   -78746   -78642   -78541   -78440   -78341   -78251   -78163 
  -78078   -78004   -77940   -77881   -77827   -77784   -77747   -77719 
  -77699   -77687   -77681   -77685   -77700   -77722   -77749   -77787 
  -77831   -77880   -77938   -78001   -78067   -78140   -78220   -78305 
  -78397   -78493   -78594   -78695   -78798   -78900   -79010   -79123 
  -79234   -79344   -79456   -79563   -79668   -79772   -79870   -79961 
  -80053   -80138   -80214   -80285   -80352   -80414   -80473   -80526 
  -80576   -80622   -80662   -80696   -80724   -80744   -80762   -80775 
  -80782   -80778   -80766   -80751   -80734   -80707   -80670   -80627 
  -80578   -80526   -80470   -80407   -80339   -80277   -80211   -80141 
  -80073   -80002   -79926   -79848   -79772   -79694   -79614   -79536 
  -79459   -79389   -79324   -79259   -79197   -79143   -79095   -79050 
  -79012   -78980   -78953   -78933   -78919   -78911   -78910   -78911 
  -78914   -78919   -78929   -78943   -78956   -78970   -78991   -79008 
  -79024   -79043   -79062   -79080   -79096   -79114   -79132   -79149 
  -79162   -79172   -79182   -79191   -79192   -79195   -79199   -79199 
  -79201   -79203   -79204   -79203   -79199   -79193   -79186   -79177 
  -79165   -79154   -79142   -79124   -79107   -79092   -79077   -79058 
  -79039   -79023   -79008   -78997   -78992   -78987   -78981   -78979 
  -78977   -78979   -78980   -78984   -78989   -78997   -79010   -79023 
  -79034   -79049   -79066   -79085   -79108   -79132   -79153   -79173 
  -79195   -79213   -79232   -79253   -79277   -79297   -79315   -79335 
  -79355   -79373   -79390   -79408   -79427   -79448   -79466   -79483 
  -79504   -79524   -79537   -79552   -79569   -79585   -79600   -79616 
  -79629   -79640   -79652   -79663   -79675   -79691   -79710   -79725 
  -79740   -79753   -79766   -79779   -79795   -79807   -79820   -79832 
  -79844   -79853   -79859   -79860   -79859   -79859   -79857   -79851 
  -79844   -79837   -79829   -79817   -79806   -79797   -79786   -79771 
  -79753   -79735   -79717   -79698   -79679   -79659   -79639   -79627 
  -79614   -79598   -79583   -79570   -79555   -79542   -79523   -79500 
  -79481   -79463   -79442   -79420   -79397   -79374   -79350   -79323 
  -79296   -79273   -79253   -79234   -79216   -79203   -79188   -79173 
  -79165   -79157   -79145   -79137   -79132   -79126   -79116   -79111 
  -79110   -79107   -79104   -79110   -79116   -79124   -79138   -79154 
  -79170   -79191   -79213   -79232   -79253   -79277   -79301   -79321 
  -79340   -79359   -79374   -79389   -79405   -79420   -79435   -79452 
  -79470   -79486   -79502   -79520   -79537   -79556   -79578   -79600 
  -79621   -79643   -79664   -79683   -79701   -79716   -79728   -79741 
  -79748   -79749   -79756   -79766   -79771   -79778   -79785   -79786 
  -79786   -79780   -79771   -79764   -79758   -79744   -79728   -79713 
  -79690   -79658   -79628   -79598   -79563   -79531   -79498   -79466 
  -79438   -79409   -79382   -79355   -79327   -79305   -79284   -79263 
  -79245   -79231   -79219   -79203   -79191   -79185   -79174   -79166 
  -79168   -79165   -79165   -79174   -79181   -79193   -79213   -79230 
  -79246   -79266   -79285   -79308   -79334   -79355   -79375   -79398 
  -79420   -79440   -79462   -79483   -79498   -79515   -79535   -79551 
  -79566   -79582   -79598   -79612   -79624   -79635   -79641   -79651 
  -79660   -79670   -79677   -79683   -79691   -79698   -79705   -79712 
  -79721   -79728   -79729   -79733   -79737   -79737   -79733   -79725 
  -79714   -79706   -79695   -79682   -79666   -79651   -79636   -79618 
  -79597   -79579   -79558   -79531   -79505   -79478   -79447   -79415 
  -79381   -79350   -79320   -79292   -79266   -79239   -79209   -79184 
  -79162   -79145   -79127   -79111   -79097   -79087   -79080   -79078 
  -79080   -79084   -79088   -79095   -79103   -79111   -79119   -79131 
  -79149   -79166   -79185   -79211   -79240   -79267   -79299   -79328 
  -79357   -79392   -79431   -79470   -79506   -79539   -79574   -79612 
  -79644   -79678   -79713   -79747   -79779   -79810   -79839   -79863 
  -79882   -79898   -79914   -79925   -79932   -79933   -79930   -79928 
  -79921   -79909   -79897   -79884   -79867   -79849   -79832   -79809 
  -79783   -79758   -79729   -79699   -79667   -79632   -79601   -79567 
  -79532   -79500   -79469   -79434   -79400   -79366   -79334   -79300 
  -79266   -79234   -79201   -79169   -79139   -79111   -79080   -79049 
  -79020   -78995   -78966   -78935   -78907   -78880   -78853   -78825 
  -78792   -78761   -78736   -78710   -78680   -78656   -78636   -78611 
  -78588   -78567   -78548   -78532   -78520   -78507   -78498   -78495 
  -78495   -78497   -78505   -78513   -78522   -78540   -78563   -78587 
  -78615   -78648   -78682   -78718   -78759   -78800   -78844   -78889 
  -78937   -78984   -79033   -79083   -79131   -79180   -79231   -79282 
  -79334   -79388   -79439   -79488   -79539   -79589   -79633   -79679 
  -79726   -79767   -79805   -79839   -79871   -79901   -79928   -79952 
  -79974   -79992   -80009   -80018   -80023   -80029   -80026   -80019 
  -80011   -80003   -79992   -79980   -79965   -79944   -79920   -79891 
  -79859   -79824   -79790   -79753   -79712   -79670   -79633   -79594 
  -79548   -79504   -79462   -79416   -79371   -79330   -79284   -79236 
  -79197   -79158   -79116   -79076   -79041   -79007   -78975   -78941 
  -78911   -78887   -78862   -78837   -78815   -78799   -78784   -78769 
  -78756   -78741   -78729   -78723   -78717   -78709   -78706   -78706 
  -78705   -78705   -78710   -78719   -78727   -78740   -78754   -78767 
  -78783   -78807   -78833   -78860   -78892   -78929   -78962   -79000 
  -79037   -79074   -79115   -79154   -79195   -79236   -79278   -79319 
  -79359   -79396   -79429   -79469   -79508   -79542   -79575   -79608 
  -79639   -79670   -79699   -79726   -79752   -79774   -79791   -79806 
  -79821   -79832   -79840   -79845   -79848   -79851   -79849   -79845 
