Origin Time       2025/01/13 21:19:00
Lat.              31.8
Long.             131.6
Depth. (km)       30
Mag.              6.9
Station Code      TTRH03
Station Lat.      35.3553
Station Long.     133.4918
Station Height(m) 420
Record Time       2025/01/13 21:21:33
Sampling Freq(Hz) 100Hz
Duration Time(s)  120
Dir.              4
Scale Factor      7845(gal)/8223790
Max. Acc. (gal)   2.490
Last Correction   2025/01/13 21:21:36
Memo.             
[...]
    3229     3311     3385     3441     3474     3491     3488     3456 
    3396     3315     3219     3107     2987     2859     2722     2582 
    2425     2250     2060     1860     1652     1444     1247     1062 
     891      742      611      492      388      301      226      163 
     120      101      110      144      206      292      402      533 
     687      864     1059     1263     1464     1661     1856     2043 
    2228     2413     2592     2760     2921     3067     3196     3311 
    3410     3483     3531     3565     3580     3573     3550     3508 
    3450     3373     3280     3173     3051     2909     2749     2578 
    2403     2238     2080     1919     1761     1602     1445     1294 
    1148     1013      888      773      673      591      522      473 
     444      429      430      444      467      506      561      635 
     731      845      976     1120     1279     1451     1630     1819 
    2012     2201     2384     2556     2708     2832     2930     3006 
    3060     3095     3111     3105     3073     3011     2924     2820 
    2705     2579     2447     2313     2174     2039     1911     1786 
    1672     1578     1494     1424     1364     1314     1281     1262 
    1256     1269     1291     1324     1366     1418     1482     1557 
    1642     1734     1830     1926     2015     2097     2177     2253 
    2322     2392     2458     2513     2556     2585     2600     2605 
    2600     2585     2562     2529     2494     2461     2425     2394 
    2374     2361     2346     2324     2289     2243     2187     2120 
    2053     1987     1919     1849     1779     1713     1652     1601 
    1563     1533     1514     1509     1509     1520     1545     1579 
    1621     1667     1711     1753     1796     1838     1876     1915 
    1960     2008     2061     2115     2166     2211     2246     2270 
    2290     2307     2313     2313     2305     2295     2286     2274 
    2258     2242     2222     2195     2165     2137     2107     2083 
    2068     2061     2057     2058     2069     2081     2095     2112 
    2138     2169     2207     2243     2278     2312     2339     2353 
    2350     2335     2312     2281     2242     2197     2147     2096 
    2049     2008     1977     1956     1938     1922     1912     1907 
    1896     1887     1877     1864     1846     1830     1814     1796 
    1780     1767     1759     1756     1756     1763     1771     1776 
    1783     1794     1804     1817     1830     1845     1860     1877 
    1895     1912     1927     1935     1939     1937     1931     1925 
    1921     1918     1917     1917     1911     1900     1894     1887 
    1880     1879     1887     1896     1908     1926     1946     1968 
    1991     2012     2023     2023     2016     2008     1996     1979 
    1958     1942     1933     1934     1942     1956     1971     1989 
    2004     2022     2046     2065     2080     2097     2118     2134 
    2146     2153     2149     2139     2138     2141     2145     2155 
    2166     2180     2191     2200     2211     2220     2226     2226 
    2222     2214     2199     2180     2154     2122     2083     2034 
    1977     1914     1842     1767     1694     1628     1560     1498 
    1443     1389     1333     1281     1228     1183     1152     1129 
    1116     1115     1124     1147     1186     1240     1313     1404 
    1506     1617     1737     1858     1976     2091     2209     2331 
    2447     2555     2650     2722     2772     2801     2810     2802 
    2774     2722     2651     2559     2457     2349     2239     2134 
    2037     1944     1854     1771     1694     1621     1556     1498 
    1448     1402     1366     1340     1321     1309     1310     1325 
    1356     1399     1445     1499     1557     1620     1687     1764 
    1853     1948     2039     2124     2196     2257     2303     2331 
    2346     2350     2335     2308     2277     2238     2193     2151 
    2108     2065     2020     1972     1926     1884     1841     1802 
    1769     1741     1717     1702     1695     1694     1699     1714 
    1740     1771     1806     1844     1881     1923     1972     2020 
    2072     2128     2188     2245     2299     2346     2389     2424 
    2451     2469     2477     2477     2470     2451     2427     2398 
    2369     2343     2317     2292     2261     2227     2196     2160 
    2118     2074     2034     1996     1965     1944     1926     1914 
    1904     1895     1890     1877     1857     1836     1810     1777 
    1741     1706     1671     1634     1595     1553     1507     1459 
    1412     1375     1354     1345     1350     1367     1399     1445 
    1509     1593     1692     1806     1931     2062     2192     2326 
    2459     2590     2716     2833     2941     3040     3127     3196 
    3252     3289     3310     3318     3312     3284     3238     3172 
    3083     2972     2844     2694     2532     2363     2189     2012 
    1840     1674     1510     1352     1205     1073      966      882 
     814      769      753      762      797      858      943     1048 
    1169     1302     1445     1588     1726     1864     2000     2133 
    2257     2369     2471     2560     2636     2697     2745     2779 
    2795     2791     2774     2739     2686     2623     2551     2470 
    2388     2307     2228     2153     2080     2011     1946     1880 
    1817     1756     1699     1651     1613     1579     1548     1532 
    1530     1534     1548     1576     1615     1664     1725     1796 
    1877     1964     2049     2135     2222     2299     2365     2425 
    2481     2524     2560     2592     2606     2609     2612     2602 
    2581     2554     2520     2473     2416     2350     2272     2184 
    2089     1996     1902     1809     1719     1634     1556     1483 
    1417     1358     1308     1262     1219     1182     1148     1119 
    1101     1093     1096     1107     1119     1138     1165     1204 
    1255     1312     1371     1444     1532     1632     1737     1846 
    1960     2073     2188     2301     2408     2505     2596     2681 
    2759     2830     2894     2951     2991     3015     3029     3026 
    3005     2971     2918     2849     2771     2689     2597     2494 
    2392     2289     2185     2080     1969     1858     1752     1642 
    1541     1455     1377     1305     1244     1193     1161     1144 
    1142     1155     1183     1220     1260     1308     1363     1425 
    1498     1587     1690     1802     1923     2053     2178     2293 
    2403     2501     2583     2659     2727     2778     2820     2849 
    2864     2857     2836     2798     2735     2651     2552     2442 
    2320     2189     2049     1902     1753     1614     1487     1370 
    1264     1177     1109     1067     1048     1046     1061     1094 
    1147     1219     1312     1425     1552     1694     1846     2000 
    2154     2304     2442     2566     2681     2781     2866     2941 
    3002     3045     3073     3088     3080     3055     3009     2936 
    2836     2712     2566     2398     2214     2014     1799     1574 
    1343     1111      882      666      468      292      139       13 
     -82     -151     -193     -202     -175     -114      -13      128 
     301      507      745     1005     1285     1574     1864     2155 
    2442     2718     2979     3222     3442     3635     3801     3935 
    4035     4105     4140     4136     4097     4027     3924     3796 
    3643     3461     3257     3040     2814     2583     2350     2119 
    1898     1687     1485     1293     1117      955      808      684 
     584      511      469      454      467      504      565      654 
     772      918     1088     1275     1471     1671     1877     2085 
    2289     2489     2691     2889     3073     3245     3403     3541 
    3651     3730     3777     3797     3794     3767     3719     3650 
    3558     3447     3319     3181     3024     2847     2656     2455 
    2243     2033     1831     1637     1448     1270     1109      969 
     845      739      657      591      545      519      508      514 
     534      568      618      685      766      858      962     1077 
    1201     1337     1480     1621     1761     1904     2039     2161 
    2277     2384     2477     2554     2617     2664     2694     2708 
    2706     2689     2654     2601     2539     2466     2381     2289 
    2192     2088     1984     1879     1771     1657     1543     1432 
    1324     1221     1132     1058     1000      961      940      935 
     945      972     1013     1066     1135     1216     1305     1409 
    1525     1651     1782     1917     2052     2185     2322     2457 
    2581     2697     2810     2922     3024     3114     3191     3250 
    3287     3303     3298     3271     3227     3167     3088     2999 
    2902     2795     2687     2579     2467     2355     2246     2139 
    2030     1926     1833     1750     1676     1621     1578     1551 
    1540     1537     1543     1553     1567     1586     1605     1625 
    1651     1680     1710     1741     1775     1800     1821     1841 
    1860     1872     1885     1900     1915     1933     1952     1971 
    1988     2006     2022     2037     2050     2065     2080     2099 
    2122     2143     2161     2181     2197     2208     2216     2220 
    2222     2219     2216     2216     2212     2199     2184     2168 
    2145     2122     2101     2077     2056     2034     2010     1989 
    1968     1946     1926     1907     1892     1880     1872     1858 
    1841     1821     1795     1761     1721     1672     1621     1572 
    1522     1472     1429     1390     1352     1316     1285     1263 
    1246     1231     1228     1235     1248     1271     1305     1347 
    1398     1456     1524     1599     1679     1755     1833     1915 
    1991     2064     2141     2219     2299     2382     2463     2539 
    2609     2671     2727     2772     2802     2816     2821     2816 
    2802     2782     2751     2713     2667     2609     2543     2466 
    2376     2280     2174     2064     1952     1831     1709     1590 
    1471     1360     1263     1169     1084     1016      958      909 
     877      859      861      880      915      969     1042     1131 
    1231     1344     1476     1618     1763     1911     2057     2191 
    2312     2423     2516     2593     2655     2701     2728     2737 
    2727     2693     2635     2560     2470     2363     2249     2126 
    1998     1868     1746     1634     1532     1437     1354     1281 
    1225     1181     1144     1121     1113     1117     1132     1163 
    1205     1262     1327     1394     1468     1547     1622     1696 
    1773     1849     1919     1987     2054     2116     2178     2245 
    2309     2365     2415     2457     2490     2513     2525     2532 
    2532     2521     2502     2482     2454     2415     2371     2324 
    2273     2219     2161     2103     2043     1984     1927     1876 
    1833     1798     1773     1760     1761     1776     1806     1845 
    1898     1962     2037     2123     2216     2315     2423     2540 
    2659     2779     2889     2987     3076     3150     3207     3244 
    3258     3250     3221     3165     3087     2987     2867     2728 
    2575     2411     2235     2050     1863     1676     1495     1317 
    1147      989      841      704      588      492      419      371 
     352      360      391      445      522      627      762      926 
    1116     1328     1563     1811     2065     2316     2567     2809 
    3034     3245     3435     3605     3755     3875     3963     4013 
    4028     4006     3948     3848     3716     3555     3369     3156 
    2925     2682     2427     2164     1898     1630     1367     1112 
     872      650      452      280      141       36      -35      -70 
     -70      -35       33      135      263      421      608      822 
    1055     1309     1575     1850     2127     2403     2674     2934 
    3171     3389     3591     3763     3902     4006     4072     4098 
    4091     4047     3960     3839     3685     3499     3284     3048 
    2791     2524     2245     1961     1680     1401     1129      872 
     623      388      180        1     -151     -270     -352     -399 
    -406     -375     -309     -202      -58      116      315      549 
     810     1086     1375     1672     1976     2274     2559     2830 
    3087     3321     3531     3713     3866     3987     4074     4125 
    4143     4126     4074     3987     3867     3709     3524     3318 
    3084     2836     2581     2320     2056     1796     1544     1300 
    1067      850      649      467      306      172       67      -10 
     -58      -76      -68      -28       39      133      257      405 
     573      770      988     1220     1470     1729     1991     2254 
    2519     2774     3014     3237     3441     3618     3774     3905 
    4005     4074     4113     4124     4104     4058     3983     3879 
    3754     3607     3433     3234     3017     2776     2525     2270 
    2008     1741     1470     1201      936      681      441      218 
      24     -137     -268     -365     -429     -456     -448     -406 
    -328     -216      -68      112      321      558      826     1108 
    1401     1703     2010     2315     2617     2911     3191     3460 
    3712     3939     4136     4303     4436     4530     4584     4596 
    4573     4510     4407     4268     4094     3890     3663     3415 
    3152     2875     2590     2305     2020     1737     1459     1194 
     953      733      534      361      221      112       27      -31 
     -63      -71      -55      -13       48      129      229      348 
     481      625      780      949     1123     1298     1478     1656 
    1830     2003     2173     2338     2494     2643     2781     2906 
    3017     3114     3196     3261     3303     3327     3342     3338 
    3316     3284     3238     3179     3109     3025     2934     2832 
    2718     2597     2471     2342     2211     2080     1949     1822 
    1695     1572     1452     1337     1233     1139     1057      993 
     942      901      878      873      878      900      939      986 
    1044     1123     1220     1328     1448     1576     1714     1861 
    2007     2147     2286     2421     2547     2659     2760     2855 
    2937     3003     3057     3094     3106     3100     3076     3034 
    2975     2899     2808     2702     2585     2455     2322     2188 
    2047     1904     1767     1632     1497     1366     1240     1127 
    1031      953      896      858      841      842      864      904 
     962     1043     1142     1255     1386     1532     1686     1853 
    2031     2212     2396     2579     2756     2925     3084     3231 
    3370     3492     3591     3674     3742     3786     3811     3817 
    3801     3761     3697     3611     3503     3376     3233     3076 
    2909     2728     2540     2347     2147     1950     1759     1571 
    1391     1221     1058      908      777      668      579      514 
     481      479      500      557      638      738      862     1004 
    1161     1335     1516     1701     1891     2081     2268     2446 
    2610     2760     2894     3006     3090     3149     3191     3207 
    3196     3167     3119     3053     2967     2864     2745     2609 
    2465     2313     2154     1998     1852     1713     1574     1441 
    1320     1210     1108     1019      943      881      843      824 
     819      834      870      920      981     1057     1142     1235 
    1335     1444     1567     1698     1831     1969     2106     2234 
    2351     2461     2562     2651     2727     2786     2828     2853 
    2866     2860     2840     2808     2759     2701     2635     2558 
    2474     2382     2280     2173     2065     1953     1849     1752 
    1657     1574     1502     1436     1378     1328     1285     1255 
    1239     1229     1232     1250     1277     1317     1364     1417 
    1475     1537     1602     1672     1741     1807     1876     1944 
    2008     2074     2138     2197     2255     2309     2365     2415 
    2458     2501     2539     2565     2589     2613     2631     2640 
    2650     2655     2658     2659     2652     2632     2608     2578 
    2547     2515     2479     2443     2407     2366     2315     2259 
    2201     2135     2064     1993     1923     1853     1788     1722 
    1653     1586     1517     1444     1375     1314     1259     1213 
    1179     1161     1152     1150     1161     1179     1202     1233 
    1274     1328     1393     1464     1549     1648     1750     1858 
    1968     2077     2187     2300     2413     2523     2629     2733 
    2835     2925     2994     3052     3100     3132     3145     3142 
    3126     3090     3032     2957     2874     2771     2658     2539 
    2413     2282     2150     2020     1891     1767     1656     1555 
    1464     1387     1325     1274     1235     1209     1196     1198 
    1212     1235     1267     1308     1354     1406     1460     1514 
    1579     1645     1711     1780     1848     1915     1980     2042 
    2106     2169     2226     2277     2324     2363     2396     2421 
    2435     2435     2424     2403     2374     2336     2293     2245 
    2193     2139     2084     2029     1972     1921     1875     1831 
    1792     1760     1729     1705     1692     1688     1691     1702 
    1715     1729     1748     1765     1780     1798     1817     1841 
    1868     1895     1922     1950     1980     2006     2033     2062 
    2089     2108     2126     2139     2149     2153     2153     2147 
    2138     2126     2110     2087     2064     2038     2014     1988 
    1961     1931     1902     1877     1856     1836     1822     1814 
    1811     1811     1813     1815     1825     1840     1858     1880 
    1902     1923     1945     1962     1983     2008     2031     2056 
    2083     2107     2128     2149     2168     2181     2192     2201 
    2209     2205     2192     2180     2164     2145     2127     2106 
    2079     2049     2015     1977     1941     1904     1872     1842 
    1814     1791     1776     1761     1746     1737     1730     1722 
    1714     1706     1696     1696     1705     1710     1721     1740 
    1757     1776     1800     1829     1858     1888     1925     1962 
    1999     2039     2085     2135     2189     2247     2305     2359 
    2412     2461     2502     2535     2555     2566     2567     2555 
    2538     2511     2470     2423     2370     2311     2247     2184 
    2116     2047     1983     1922     1868     1822     1782     1746 
    1721     1709     1707     1713     1730     1756     1786     1821 
    1869     1929     1992     2060     2127     2192     2254     2312 
    2361     2398     2431     2455     2471     2478     2470     2448 
    2415     2367     2308     2239     2161     2077     1988     1895 
    1810     1729     1649     1571     1499     1440     1389     1343 
    1308     1283     1269     1262     1267     1281     1306     1345 
    1390     1441     1498     1557     1620     1684     1746     1809 
