Origin Time       2025/01/13 21:19:00
Lat.              31.8
Long.             131.6
Depth. (km)       30
Mag.              6.9
Station Code      TTRH04
Station Lat.      35.4668
Station Long.     133.6307
Station Height(m) 114
Record Time       2025/01/13 21:21:05
Sampling Freq(Hz) 100Hz
Duration Time(s)  147
Dir.              5
Scale Factor      7845(gal)/8223790
Max. Acc. (gal)   1.408
Last Correction   2025/01/13 21:21:07
Memo.             
[...]
   -8021    -8054    -8095    -8154    -8220    -8291    -8367    -8436 
   -8505    -8571    -8625    -8671    -8716    -8753    -8785    -8823 
   -8857    -8883    -8905    -8920    -8931    -8937    -8930    -8920 
   -8915    -8908    -8905    -8907    -8908    -8903    -8884    -8861 
   -8829    -8787    -8745    -8704    -8665    -8626    -8577    -8526 
   -8475    -8418    -8363    -8314    -8266    -8224    -8186    -8143 
   -8101    -8068    -8047    -8039    -8040    -8047    -8055    -8059 
   -8059    -8058    -8060    -8075    -8102    -8139    -8185    -8233 
   -8282    -8334    -8388    -8434    -8475    -8514    -8552    -8583 
   -8618    -8660    -8694    -8723    -8754    -8773    -8787    -8799 
   -8804    -8810    -8820    -8834    -8845    -8849    -8849    -8845 
   -8838    -8837    -8841    -8847    -8854    -8847    -8834    -8822 
   -8807    -8796    -8795    -8797    -8802    -8806    -8806    -8804 
   -8795    -8780    -8766    -8752    -8742    -8748    -8750    -8754 
   -8764    -8766    -8769    -8781    -8792    -8810    -8835    -8857 
   -8876    -8895    -8910    -8922    -8934    -8950    -8969    -8995 
   -9023    -9042    -9057    -9066    -9061    -9047    -9034    -9018 
   -8997    -8980    -8959    -8928    -8891    -8845    -8789    -8737 
   -8685    -8625    -8564    -8498    -8425    -8357    -8294    -8236 
   -8190    -8155    -8129    -8112    -8094    -8081    -8071    -8056 
   -8044    -8036    -8032    -8041    -8060    -8081    -8104    -8124 
   -8135    -8147    -8160    -8166    -8181    -8202    -8220    -8244 
   -8274    -8302    -8326    -8345    -8360    -8372    -8383    -8392 
   -8399    -8398    -8391    -8380    -8368    -8355    -8343    -8329 
   -8318    -8303    -8283    -8260    -8235    -8216    -8201    -8191 
   -8190    -8193    -8197    -8198    -8189    -8170    -8152    -8139 
   -8125    -8116    -8114    -8106    -8085    -8055    -8012    -7962 
   -7917    -7878    -7846    -7815    -7776    -7734    -7695    -7651 
   -7612    -7580    -7554    -7535    -7519    -7504    -7499    -7497 
   -7497    -7508    -7537    -7573    -7614    -7654    -7685    -7711 
   -7735    -7766    -7805    -7846    -7892    -7933    -7959    -7977 
   -7994    -8013    -8033    -8052    -8070    -8091    -8105    -8106 
   -8101    -8087    -8067    -8047    -8019    -7989    -7965    -7935 
   -7901    -7871    -7843    -7815    -7792    -7776    -7762    -7754 
   -7755    -7770    -7794    -7821    -7851    -7886    -7921    -7960 
   -8001    -8037    -8070    -8106    -8149    -8193    -8237    -8283 
   -8328    -8370    -8413    -8452    -8502    -8557    -8603    -8638 
   -8668    -8685    -8691    -8698    -8703    -8704    -8706    -8702 
   -8692    -8681    -8667    -8649    -8634    -8615    -8594    -8581 
   -8568    -8544    -8519    -8499    -8482    -8467    -8451    -8430 
   -8413    -8392    -8370    -8349    -8329    -8301    -8266    -8229 
   -8193    -8155    -8127    -8104    -8074    -8050    -8031    -8006 
   -7978    -7947    -7916    -7886    -7867    -7861    -7859    -7867 
   -7882    -7892    -7893    -7898    -7911    -7921    -7936    -7960 
   -7983    -8001    -8027    -8055    -8082    -8113    -8144    -8168 
   -8193    -8213    -8235    -8259    -8283    -8306    -8332    -8356 
   -8375    -8388    -8401    -8407    -8419    -8429    -8441    -8460 
   -8479    -8500    -8529    -8553    -8573    -8596    -8618    -8641 
   -8668    -8698    -8733    -8766    -8799    -8826    -8851    -8881 
   -8907    -8927    -8950    -8965    -8966    -8959    -8950    -8945 
   -8943    -8938    -8930    -8919    -8897    -8872    -8845    -8815 
   -8781    -8748    -8711    -8672    -8626    -8575    -8526    -8469 
   -8409    -8356    -8302    -8255    -8213    -8168    -8121    -8079 
   -8037    -8005    -7982    -7966    -7952    -7939    -7929    -7920 
   -7912    -7912    -7919    -7927    -7936    -7948    -7959    -7973 
   -7990    -8013    -8036    -8060    -8086    -8120    -8158    -8205 
   -8257    -8309    -8359    -8405    -8455    -8506    -8554    -8603 
   -8649    -8702    -8758    -8808    -8856    -8900    -8931    -8962 
   -8992    -9019    -9046    -9069    -9090    -9107    -9109    -9107 
   -9103    -9100    -9101    -9094    -9080    -9069    -9055    -9035 
   -9016    -9003    -8984    -8961    -8935    -8908    -8878    -8851 
   -8824    -8793    -8765    -8739    -8708    -8679    -8649    -8615 
   -8576    -8537    -8496    -8461    -8429    -8397    -8371    -8348 
   -8322    -8298    -8279    -8255    -8230    -8213    -8195    -8181 
   -8171    -8164    -8156    -8140    -8121    -8101    -8073    -8044 
   -8017    -7990    -7963    -7931    -7897    -7867    -7838    -7809 
   -7782    -7759    -7744    -7743    -7746    -7750    -7751    -7749 
   -7742    -7742    -7750    -7769    -7798    -7832    -7861    -7886 
   -7908    -7927    -7947    -7974    -8004    -8031    -8056    -8079 
   -8100    -8112    -8122    -8133    -8143    -8144    -8144    -8135 
   -8116    -8091    -8066    -8039    -8005    -7960    -7909    -7854 
   -7794    -7731    -7666    -7605    -7551    -7501    -7454    -7414 
   -7385    -7366    -7354    -7358    -7375    -7392    -7422    -7461 
   -7506    -7560    -7624    -7704    -7793    -7877    -7955    -8031 
   -8100    -8171    -8247    -8325    -8406    -8479    -8544    -8607 
   -8661    -8703    -8737    -8758    -8775    -8792    -8804    -8818 
   -8833    -8841    -8845    -8849    -8854    -8870    -8899    -8931 
   -8965    -9001    -9039    -9072    -9100    -9127    -9148    -9165 
   -9174    -9180    -9186    -9190    -9188    -9188    -9186    -9178 
   -9173    -9166    -9154    -9144    -9131    -9109    -9084    -9059 
   -9035    -9015    -8995    -8970    -8950    -8927    -8900    -8877 
   -8856    -8837    -8815    -8792    -8777    -8765    -8749    -8739 
   -8738    -8735    -8737    -8746    -8754    -8761    -8766    -8775 
   -8783    -8787    -8789    -8792    -8792    -8792    -8792    -8791 
   -8787    -8781    -8775    -8761    -8746    -8734    -8714    -8688 
   -8654    -8610    -8563    -8509    -8442    -8374    -8301    -8217 
   -8136    -8058    -7974    -7892    -7807    -7723    -7647    -7584 
   -7537    -7495    -7462    -7442    -7420    -7396    -7380    -7366 
   -7361    -7366    -7369    -7384    -7419    -7457    -7504    -7555 
   -7599    -7642    -7682    -7715    -7754    -7793    -7830    -7867 
   -7901    -7931    -7956    -7975    -7987    -7998    -8000    -8001 
   -8012    -8029    -8051    -8068    -8085    -8112    -8140    -8174 
   -8224    -8279    -8333    -8391    -8451    -8506    -8563    -8621 
   -8669    -8710    -8750    -8787    -8815    -8838    -8856    -8868 
   -8876    -8874    -8866    -8856    -8834    -8795    -8753    -8711 
   -8664    -8615    -8572    -8523    -8469    -8421    -8372    -8318 
   -8270    -8225    -8182    -8147    -8116    -8083    -8052    -8025 
   -7997    -7967    -7942    -7920    -7906    -7905    -7905    -7908 
   -7924    -7943    -7960    -7983    -8005    -8027    -8056    -8100 
   -8147    -8195    -8252    -8307    -8368    -8437    -8506    -8577 
   -8650    -8716    -8779    -8843    -8907    -8958    -9003    -9042 
   -9070    -9088    -9103    -9111    -9108    -9100    -9081    -9053 
   -9019    -8984    -8953    -8919    -8881    -8849    -8814    -8773 
   -8730    -8683    -8635    -8598    -8568    -8541    -8517    -8488 
   -8455    -8418    -8387    -8363    -8344    -8328    -8314    -8301 
   -8291    -8282    -8270    -8260    -8255    -8253    -8259    -8263 
   -8271    -8282    -8283    -8282    -8282    -8279    -8266    -8253 
   -8240    -8216    -8183    -8149    -8114    -8079    -8044    -8005 
   -7966    -7923    -7877    -7838    -7800    -7755    -7711    -7666 
   -7620    -7576    -7533    -7491    -7452    -7422    -7400    -7380 
   -7362    -7352    -7339    -7326    -7319    -7315    -7311    -7308 
   -7310    -7310    -7306    -7303    -7300    -7302    -7310    -7321 
   -7334    -7354    -7376    -7399    -7427    -7469    -7520    -7574 
   -7635    -7695    -7750    -7807    -7866    -7928    -7998    -8068 
   -8135    -8201    -8262    -8317    -8372    -8429    -8487    -8544 
   -8604    -8671    -8731    -8788    -8842    -8889    -8934    -8972 
   -9004    -9036    -9065    -9078    -9085    -9086    -9084    -9077 
   -9070    -9062    -9054    -9046    -9034    -9020    -9015    -9012 
   -9009    -9012    -9020    -9022    -9019    -9013    -9003    -8991 
   -8978    -8970    -8969    -8973    -8974    -8968    -8955    -8943 
   -8930    -8918    -8911    -8904    -8897    -8900    -8905    -8905 
   -8910    -8924    -8939    -8955    -8978    -8996    -9007    -9019 
   -9036    -9054    -9072    -9093    -9112    -9123    -9135    -9139 
   -9135    -9138    -9140    -9142    -9143    -9140    -9132    -9124 
   -9119    -9113    -9101    -9081    -9058    -9022    -8972    -8931 
   -8896    -8857    -8818    -8779    -8733    -8684    -8637    -8588 
   -8542    -8505    -8465    -8429    -8399    -8365    -8328    -8291 
   -8253    -8209    -8170    -8139    -8109    -8075    -8039    -8002 
   -7966    -7932    -7905    -7884    -7871    -7862    -7857    -7858 
   -7859    -7862    -7873    -7882    -7896    -7916    -7942    -7970 
   -8002    -8029    -8052    -8077    -8097    -8120    -8143    -8159 
   -8171    -8182    -8187    -8186    -8185    -8181    -8175    -8168 
   -8154    -8133    -8110    -8083    -8055    -8027    -7996    -7969 
   -7938    -7909    -7889    -7865    -7834    -7800    -7769    -7739 
   -7711    -7690    -7674    -7668    -7677    -7686    -7696    -7717 
   -7743    -7759    -7776    -7793    -7807    -7815    -7823    -7830 
   -7830    -7825    -7821    -7805    -7786    -7766    -7735    -7708 
   -7681    -7654    -7632    -7612    -7589    -7574    -7566    -7561 
   -7564    -7574    -7585    -7595    -7607    -7627    -7658    -7697 
   -7750    -7813    -7877    -7932    -7987    -8041    -8091    -8148 
   -8213    -8279    -8340    -8402    -8459    -8500    -8538    -8581 
   -8621    -8661    -8702    -8738    -8775    -8808    -8834    -8856 
   -8876    -8887    -8887    -8877    -8865    -8853    -8842    -8833 
   -8822    -8808    -8792    -8776    -8761    -8745    -8730    -8721 
   -8708    -8695    -8683    -8672    -8662    -8649    -8630    -8613 
   -8598    -8583    -8573    -8561    -8538    -8509    -8476    -8440 
   -8407    -8382    -8368    -8359    -8344    -8322    -8302    -8283 
   -8266    -8253    -8244    -8239    -8239    -8230    -8218    -8206 
   -8194    -8185    -8182    -8179    -8175    -8170    -8159    -8140 
   -8116    -8094    -8077    -8060    -8048    -8037    -8021    -8006 
   -7993    -7978    -7960    -7942    -7924    -7911    -7901    -7904 
   -7908    -7911    -7917    -7923    -7927    -7936    -7955    -7981 
   -8006    -8035    -8070    -8110    -8155    -8205    -8255    -8302 
   -8351    -8403    -8461    -8523    -8579    -8634    -8688    -8738 
   -8785    -8833    -8877    -8914    -8943    -8965    -8977    -8989 
   -9001    -9008    -9005    -8996    -8982    -8968    -8946    -8916 
   -8883    -8843    -8802    -8765    -8727    -8684    -8637    -8579 
   -8515    -8457    -8409    -8364    -8333    -8311    -8293    -8280 
   -8276    -8275    -8284    -8310    -8344    -8384    -8436    -8492 
   -8545    -8600    -8658    -8712    -8764    -8819    -8876    -8918 
   -8946    -8972    -8984    -8980    -8976    -8974    -8962    -8941 
   -8912    -8873    -8831    -8788    -8739    -8691    -8640    -8590 
   -8544    -8499    -8456    -8415    -8378    -8345    -8320    -8299 
   -8295    -8299    -8302    -8306    -8316    -8325    -8337    -8349 
   -8360    -8368    -8384    -8407    -8430    -8457    -8484    -8510 
   -8536    -8560    -8581    -8603    -8627    -8652    -8675    -8696 
   -8712    -8722    -8729    -8735    -8738    -8742    -8754    -8765 
   -8761    -8753    -8741    -8718    -8689    -8661    -8631    -8598 
   -8554    -8510    -8468    -8419    -8367    -8318    -8270    -8222 
   -8182    -8141    -8100    -8064    -8032    -7996    -7965    -7946 
   -7935    -7931    -7929    -7929    -7932    -7936    -7943    -7956 
   -7971    -7982    -7998    -8019    -8036    -8052    -8073    -8097 
   -8124    -8152    -8185    -8214    -8240    -8266    -8291    -8311 
   -8333    -8355    -8367    -8375    -8382    -8386    -8391    -8395 
   -8394    -8390    -8375    -8353    -8332    -8305    -8276    -8251 
   -8217    -8176    -8129    -8074    -8014    -7958    -7901    -7839 
   -7781    -7724    -7663    -7605    -7549    -7492    -7449    -7415 
   -7388    -7369    -7358    -7357    -7362    -7380    -7410    -7450 
   -7501    -7566    -7638    -7715    -7801    -7893    -7986    -8085 
   -8187    -8293    -8407    -8519    -8627    -8737    -8838    -8931 
   -9023    -9107    -9188    -9262    -9320    -9366    -9404    -9428 
   -9437    -9435    -9423    -9400    -9366    -9324    -9271    -9211 
   -9140    -9063    -8988    -8907    -8823    -8745    -8660    -8564 
   -8465    -8364    -8263    -8162    -8062    -7962    -7865    -7774 
   -7686    -7599    -7508    -7419    -7339    -7265    -7191    -7130 
   -7078    -7030    -6990    -6951    -6920    -6901    -6885    -6878 
   -6875    -6870    -6872    -6883    -6901    -6928    -6957    -6997 
   -7047    -7103    -7164    -7236    -7312    -7396    -7483    -7572 
   -7666    -7762    -7858    -7947    -8040    -8136    -8233    -8330 
   -8430    -8529    -8621    -8700    -8769    -8833    -8893    -8950 
   -8997    -9036    -9073    -9105    -9123    -9128    -9127    -9124 
   -9120    -9112    -9101    -9086    -9065    -9042    -9018    -8996 
   -8976    -8950    -8920    -8892    -8866    -8849    -8831    -8812 
   -8797    -8781    -8761    -8743    -8737    -8735    -8730    -8719 
   -8704    -8689    -8677    -8664    -8649    -8633    -8614    -8594 
   -8572    -8553    -8538    -8518    -8491    -8464    -8436    -8413 
   -8391    -8371    -8352    -8329    -8297    -8266    -8240    -8216 
   -8193    -8175    -8160    -8149    -8144    -8136    -8128    -8122 
   -8117    -8112    -8109    -8106    -8104    -8104    -8110    -8120 
   -8124    -8127    -8131    -8131    -8128    -8124    -8122    -8129 
   -8140    -8155    -8170    -8183    -8201    -8224    -8247    -8268 
   -8298    -8330    -8357    -8387    -8421    -8453    -8492    -8532 
   -8572    -8615    -8654    -8692    -8731    -8770    -8816    -8858 
   -8895    -8935    -8970    -8997    -9022    -9043    -9063    -9078 
   -9082    -9088    -9088    -9081    -9076    -9069    -9051    -9026 
   -8991    -8943    -8888    -8829    -8765    -8692    -8618    -8538 
   -8453    -8367    -8282    -8197    -8113    -8027    -7946    -7866 
   -7788    -7719    -7653    -7589    -7534    -7481    -7433    -7393 
   -7357    -7322    -7290    -7264    -7244    -7225    -7214    -7218 
   -7227    -7241    -7260    -7280    -7304    -7334    -7373    -7414 
   -7458    -7511    -7569    -7626    -7684    -7743    -7801    -7861 
   -7924    -7985    -8043    -8101    -8152    -8202    -8252    -8302 
   -8348    -8390    -8429    -8468    -8507    -8545    -8575    -8602 
   -8629    -8654    -8677    -8699    -8716    -8735    -8752    -8766 
   -8783    -8799    -8812    -8826    -8833    -8838    -8846    -8854 
   -8866    -8877    -8881    -8880    -8881    -8883    -8880    -8876 
   -8872    -8866    -8865    -8870    -8876    -8883    -8891    -8897 
   -8908    -8920    -8927    -8931    -8934    -8938    -8943    -8943 
   -8943    -8943    -8939    -8927    -8912    -8901    -8892    -8876 
   -8857    -8833    -8800    -8765    -8733    -8695    -8654    -8617 
   -8577    -8540    -8506    -8472    -8440    -8411    -8388    -8367 
   -8347    -8330    -8309    -8287    -8270    -8257    -8251    -8252 
   -8253    -8249    -8244    -8236    -8226    -8220    -8214    -8205 
   -8189    -8171    -8154    -8135    -8120    -8102    -8083    -8063 
   -8043    -8027    -8017    -8013    -8016    -8023    -8032    -8043 
   -8056    -8075    -8098    -8131    -8164    -8197    -8239    -8286 
   -8334    -8382    -8430    -8475    -8514    -8556    -8600    -8638 
   -8671    -8700    -8729    -8753    -8766    -8776    -8785    -8788 
   -8784    -8775    -8762    -8749    -8733    -8707    -8679    -8653 
   -8618    -8579    -8545    -8509    -8472    -8442    -8410    -8379 
   -8348    -8316    -8284    -8255    -8228    -8205    -8186    -8171 
   -8160    -8147    -8135    -8128    -8117    -8109    -8108    -8105 
   -8101    -8100    -8098    -8095    -8093    -8087    -8082    -8078 
   -8078    -8078    -8081    -8082    -8078    -8081    -8086    -8087 
   -8091    -8094    -8095    -8100    -8098    -8095    -8098    -8095 
   -8093    -8095    -8101    -8108    -8118    -8132    -8140    -8148 
   -8159    -8172    -8187    -8203    -8221    -8240    -8260    -8282 
   -8306    -8333    -8368    -8403    -8438    -8478    -8519    -8559 
   -8594    -8629    -8662    -8692    -8723    -8756    -8787    -8816 
   -8847    -8877    -8904    -8931    -8953    -8965    -8969    -8969 
   -8969    -8965    -8959    -8954    -8945    -8934    -8923    -8915 
   -8904    -8896    -8885    -8869    -8862    -8858    -8857    -8864 
   -8870    -8873    -8874    -8880    -8889    -8904    -8920    -8935 
   -8953    -8969    -8982    -8999    -9018    -9027    -9024    -9023 
   -9023    -9018    -9015    -9012    -8995    -8970    -8943    -8908 
   -8872    -8839    -8804    -8766    -8723    -8679    -8631    -8584 
   -8533    -8475    -8414    -8353    -8295    -8240    -8181    -8124 
   -8068    -8010    -7955    -7905    -7857    -7809    -7762    -7716 
   -7670    -7627    -7591    -7561    -7533    -7508    -7485    -7468 
   -7456    -7446    -7439    -7438    -7445    -7454    -7469    -7493 
   -7519    -7541    -7562    -7585    -7611    -7643    -7680    -7722 
   -7765    -7805    -7843    -7878    -7912    -7951    -7992    -8029 
   -8071    -8110    -8144    -8176    -8201    -8218    -8239    -8255 
   -8271    -8291    -8299    -8301    -8303    -8302    -8305    -8307 
   -8306    -8307    -8307    -8302    -8301    -8298    -8294    -8295 
   -8298    -8299    -8299    -8306    -8317    -8317    -8310    -8307 
   -8302    -8293    -8289    -8283    -8275    -8270    -8263    -8255 
   -8251    -8252    -8252    -8244    -8230    -8221    -8213    -8203 
   -8199    -8199    -8197    -8195    -8197    -8198    -8198    -8199 
   -8199    -8202    -8212    -8226    -8245    -8264    -8286    -8305 
   -8322    -8341    -8365    -8395    -8421    -8445    -8472    -8499 
   -8527    -8561    -8595    -8629    -8656    -8679    -8704    -8727 
   -8748    -8765    -8776    -8787    -8795    -8797    -8796    -8784 
   -8761    -8734    -8703    -8669    -8633    -8594    -8550    -8500 
   -8445    -8386    -8330    -8276    -8220    -8166    -8118    -8079 
   -8046    -8014    -7986    -7959    -7933    -7908    -7894    -7890 
   -7884    -7879    -7884    -7892    -7902    -7916    -7935    -7954 
