Origin Time       2025/01/13 21:19:00
Lat.              31.8
Long.             131.6
Depth. (km)       30
Mag.              6.9
Station Code      TTRH04
Station Lat.      35.4668
Station Long.     133.6307
Station Height(m) -93
Record Time       2025/01/13 21:21:05
Sampling Freq(Hz) 100Hz
Duration Time(s)  147
Dir.              2
Scale Factor      3923(gal)/8224838
Max. Acc. (gal)   0.583
Last Correction   2025/01/13 21:21:07
Memo.             
[...]
    9580     9568     9558     9552     9551     9555     9559     9562 
    9564     9570     9576     9586     9597     9612     9626     9641 
    9656     9670     9680     9691     9701     9713     9729     9744 
    9757     9775     9798     9821     9840     9864     9891     9914 
    9937     9954     9969     9985     9996    10006    10012    10014 
   10008    10000     9991     9975     9956     9940     9925     9910 
    9896     9880     9863     9842     9819     9798     9780     9764 
    9747     9732     9717     9699     9683     9672     9661     9648 
    9629     9613     9602     9589     9571     9566     9568     9566 
    9566     9574     9580     9587     9598     9612     9628     9647 
    9668     9688     9709     9734     9757     9776     9798     9818 
    9830     9842     9863     9880     9890     9903     9919     9934 
    9948     9964     9976     9981     9985     9985     9981     9975 
    9965     9954     9949     9942     9931     9921     9914     9906 
    9898     9891     9886     9873     9857     9845     9828     9802 
    9778     9756     9732     9706     9682     9660     9640     9618 
    9597     9572     9547     9524     9501     9475     9456     9441 
    9429     9423     9421     9424     9428     9431     9435     9443 
    9452     9463     9483     9509     9535     9563     9598     9637 
    9672     9707     9741     9772     9805     9833     9855     9871 
    9890     9910     9923     9933     9941     9944     9946     9949 
    9949     9953     9957     9958     9957     9953     9948     9940 
    9930     9922     9913     9898     9886     9873     9863     9852 
    9841     9826     9811     9796     9776     9753     9730     9709 
    9687     9672     9664     9656     9651     9648     9644     9643 
    9643     9648     9657     9668     9679     9697     9722     9751 
    9775     9803     9833     9855     9872     9896     9919     9937 
    9956     9979    10002    10025    10050    10077    10103    10129 
   10154    10176    10199    10220    10237    10247    10254    10261 
   10265    10262    10258    10253    10245    10237    10227    10214 
   10196    10183    10170    10157    10139    10125    10114    10106 
   10102    10100    10098    10095    10092    10087    10081    10075 
   10068    10060    10053    10046    10042    10034    10018    10006 
    9995     9980     9965     9952     9934     9913     9891     9869 
    9852     9830     9810     9801     9792     9784     9783     9783 
    9782     9783     9791     9803     9819     9842     9864     9882 
    9898     9917     9931     9937     9938     9938     9934     9927 
    9919     9910     9902     9888     9869     9850     9833     9814 
    9792     9775     9764     9749     9733     9724     9714     9703 
    9697     9686     9671     9661     9651     9634     9622     9620 
    9618     9620     9624     9628     9634     9637     9632     9632 
    9630     9620     9614     9606     9589     9570     9555     9539 
    9524     9510     9493     9478     9466     9452     9439     9425 
    9417     9414     9410     9410     9416     9429     9443     9452 
    9470     9495     9518     9544     9574     9597     9620     9645 
    9667     9687     9707     9730     9751     9764     9776     9791 
    9801     9809     9818     9828     9836     9849     9867     9880 
    9890     9904     9925     9944     9958     9975     9991    10002 
   10015    10031    10045    10061    10075    10084    10098    10114 
   10127    10142    10160    10176    10195    10214    10233    10250 
   10265    10276    10287    10291    10293    10292    10288    10287 
   10288    10288    10285    10282    10278    10272    10266    10268 
   10266    10258    10260    10268    10272    10280    10291    10301 
   10308    10314    10319    10322    10326    10326    10323    10328 
   10335    10338    10342    10349    10353    10355    10361    10359 
   10353    10346    10339    10328    10311    10291    10276    10264 
   10249    10234    10223    10211    10197    10187    10176    10162 
   10146    10130    10115    10102    10084    10066    10049    10030 
   10014    10002     9985     9971     9961     9953     9946     9942 
    9936     9931     9929     9921     9909     9894     9879     9867 
    9850     9832     9818     9803     9787     9776     9772     9768 
    9763     9760     9756     9751     9747     9741     9736     9726 
    9710     9694     9683     9675     9660     9644     9634     9624 
    9606     9590     9576     9563     9555     9545     9532     9522 
    9513     9501     9486     9468     9451     9435     9417     9398 
    9382     9364     9346     9328     9312     9300     9289     9281 
    9282     9292     9305     9317     9336     9356     9373     9389 
    9406     9421     9437     9458     9479     9499     9520     9537 
    9555     9574     9590     9607     9628     9647     9660     9672 
    9682     9687     9693     9699     9702     9702     9699     9693 
    9683     9671     9655     9634     9607     9578     9551     9526 
    9504     9483     9463     9439     9414     9394     9371     9344 
    9325     9305     9277     9252     9232     9212     9193     9180 
    9165     9154     9144     9134     9124     9120     9116     9115 
    9117     9121     9121     9124     9127     9128     9131     9132 
    9132     9132     9135     9142     9148     9157     9165     9165 
    9162     9161     9161     9158     9153     9148     9138     9117 
    9100     9078     9057     9038     9015     8989     8973     8959 
    8947     8937     8927     8923     8920     8920     8926     8928 
    8932     8939     8949     8961     8976     8991     9007     9026 
    9047     9069     9096     9126     9159     9198     9240     9281 
    9323     9364     9404     9444     9485     9518     9551     9583 
    9610     9640     9666     9678     9693     9710     9715     9721 
    9726     9724     9722     9724     9720     9713     9707     9705 
    9702     9697     9695     9701     9707     9717     9725     9730 
    9734     9738     9745     9749     9745     9747     9744     9732 
    9724     9717     9707     9699     9697     9690     9688     9694 
    9699     9706     9718     9726     9736     9752     9768     9783 
    9799     9815     9830     9848     9872     9895     9921     9956 
    9990    10022    10061    10096    10127    10158    10189    10219 
   10239    10258    10276    10285    10293    10301    10305    10312 
   10318    10320    10323    10327    10332    10331    10326    10324 
   10324    10326    10326    10327    10328    10330    10334    10341 
   10343    10345    10346    10343    10343    10343    10343    10345 
   10346    10346    10355    10368    10378    10392    10413    10436 
   10457    10477    10496    10515    10534    10548    10559    10570 
   10581    10592    10600    10608    10616    10624    10629    10639 
   10654    10665    10673    10683    10693    10694    10696    10696 
   10694    10693    10690    10681    10667    10651    10633    10615 
   10592    10569    10546    10523    10496    10470    10446    10422 
   10396    10369    10342    10319    10295    10269    10243    10216 
   10191    10169    10146    10123    10104    10088    10076    10068 
   10058    10050    10048    10045    10044    10046    10052    10058 
   10071    10084    10099    10112    10123    10134    10143    10152 
   10158    10165    10174    10180    10181    10188    10191    10189 
   10189    10187    10181    10174    10166    10160    10153    10143 
   10133    10126    10120    10112    10104    10099    10099    10096 
   10091    10085    10079    10071    10062    10056    10052    10045 
   10033    10025    10017    10006     9992     9980     9967     9954 
    9937     9917     9896     9877     9853     9828     9806     9780 
    9756     9736     9715     9690     9664     9644     9622     9601 
    9585     9571     9560     9555     9553     9552     9556     9568 
    9580     9593     9614     9639     9663     9688     9713     9734 
    9753     9771     9791     9809     9826     9845     9861     9875 
    9890     9900     9913     9927     9940     9948     9958     9973 
    9990    10004    10018    10030    10034    10039    10049    10049 
   10042    10038    10035    10026    10012    10004     9992     9975 
    9957     9937     9913     9890     9867     9844     9818     9794 
    9768     9741     9715     9695     9675     9652     9634     9620 
    9602     9585     9572     9562     9547     9533     9522     9509 
    9491     9478     9460     9439     9420     9400     9377     9351 
    9325     9301     9277     9251     9225     9198     9171     9148 
    9127     9100     9076     9058     9045     9035     9028     9027 
    9034     9042     9054     9072     9085     9100     9119     9136 
    9154     9177     9198     9221     9252     9281     9309     9343 
    9374     9404     9432     9458     9478     9495     9513     9528 
    9536     9543     9549     9555     9560     9563     9567     9572 
    9574     9578     9585     9593     9599     9606     9617     9625 
    9629     9634     9643     9652     9661     9674     9684     9695 
    9710     9726     9744     9763     9779     9794     9809     9826 
    9844     9865     9887     9911     9940     9968     9994    10017 
   10038    10057    10073    10087    10102    10115    10130    10145 
   10162    10187    10212    10237    10266    10299    10330    10363 
   10395    10423    10451    10480    10503    10520    10542    10562 
   10574    10586    10594    10598    10606    10617    10620    10617 
   10621    10625    10623    10620    10613    10602    10594    10589 
   10579    10567    10557    10544    10530    10517    10504    10489 
   10473    10453    10434    10417    10399    10377    10358    10341 
   10323    10297    10270    10246    10214    10179    10149    10118 
   10084    10057    10030    10004     9977     9950     9927     9904 
    9882     9863     9844     9822     9803     9787     9771     9755 
    9742     9730     9717     9703     9695     9688     9680     9676 
    9674     9670     9666     9659     9652     9645     9637     9628 
    9616     9601     9583     9563     9539     9512     9479     9440 
    9400     9356     9305     9252     9201     9147     9093     9039 
    8986     8934     8887     8843     8802     8765     8737     8715 
    8695     8677     8668     8662     8662     8671     8683     8700 
    8726     8752     8779     8814     8851     8895     8941     8985 
    9034     9084     9126     9171     9223     9269     9309     9351 
    9397     9444     9483     9524     9568     9612     9653     9697 
    9742     9788     9838     9891     9938     9979    10021    10057 
   10087    10115    10142    10162    10176    10187    10197    10200 
   10193    10183    10170    10153    10130    10106    10079    10050 
   10025     9999     9973     9945     9919     9900     9884     9869 
    9863     9860     9863     9873     9887     9902     9923     9950 
    9975    10003    10031    10053    10076    10103    10120    10141 
   10162    10179    10195    10207    10218    10237    10250    10258 
   10270    10285    10295    10301    10311    10322    10332    10347 
   10359    10370    10385    10400    10411    10420    10432    10442 
   10444    10444    10443    10435    10422    10407    10390    10369 
   10342    10311    10284    10251    10212    10170    10129    10083 
   10035     9991     9945     9894     9844     9796     9747     9699 
    9655     9610     9568     9533     9498     9467     9443     9417 
    9394     9378     9366     9352     9343     9339     9337     9340 
    9342     9347     9352     9352     9352     9359     9369     9378 
    9390     9406     9428     9447     9466     9490     9520     9548 
    9578     9612     9644     9675     9706     9732     9756     9783 
    9805     9823     9838     9848     9850     9846     9838     9826 
    9810     9792     9772     9751     9730     9710     9690     9672 
    9657     9644     9634     9625     9616     9614     9617     9620 
    9628     9645     9664     9686     9711     9738     9769     9803 
    9840     9877     9918     9958     9996    10031    10066    10110 
   10150    10183    10220    10264    10305    10346    10388    10434 
   10476    10515    10559    10604    10640    10674    10709    10741 
   10766    10787    10810    10828    10837    10848    10852    10849 
   10841    10827    10809    10789    10763    10733    10698    10659 
   10627    10592    10548    10507    10470    10432    10393    10359 
   10326    10292    10265    10242    10220    10203    10189    10181 
   10177    10174    10179    10187    10192    10199    10211    10220 
   10230    10239    10242    10242    10246    10243    10234    10226 
   10214    10195    10168    10142    10118    10085    10053    10022 
    9987     9952     9919     9884     9844     9806     9767     9725 
    9688     9651     9607     9566     9522     9471     9423     9375 
    9323     9267     9213     9161     9111     9062     9016     8973 
    8931     8893     8858     8823     8795     8766     8738     8719 
    8698     8673     8658     8648     8631     8621     8619     8617 
    8611     8611     8614     8613     8615     8625     8634     8642 
    8653     8667     8684     8699     8714     8734     8757     8783 
    8812     8837     8864     8895     8927     8958     8995     9031 
    9065     9103     9144     9182     9215     9247     9277     9302 
    9323     9337     9350     9360     9367     9370     9373     9375 
    9378     9381     9387     9396     9408     9423     9436     9451 
    9468     9486     9501     9514     9526     9539     9555     9575 
    9594     9613     9632     9651     9671     9693     9711     9730 
    9752     9775     9802     9832     9864     9899     9938     9984 
   10031    10077    10126    10174    10219    10265    10307    10349 
   10390    10431    10471    10512    10551    10586    10619    10646 
   10670    10697    10725    10750    10775    10804    10829    10854 
   10882    10912    10940    10964    10984    11003    11020    11025 
   11029    11028    11020    11011    10995    10972    10952    10929 
   10901    10874    10841    10806    10771    10735    10697    10656 
   10615    10575    10538    10497    10458    10424    10397    10368 
   10336    10309    10285    10257    10226    10199    10174    10147 
   10125    10106    10088    10077    10068    10053    10041    10031 
   10018    10004     9994     9981     9968     9956     9942     9930 
    9919     9906     9892     9880     9868     9857     9848     9840 
    9833     9830     9830     9833     9838     9842     9848     9859 
    9868     9877     9888     9899     9907     9915     9922     9929 
    9940     9949     9952     9961     9972     9975     9980     9987 
    9994    10004    10010    10014    10022    10030    10037    10049 
   10057    10064    10069    10069    10072    10075    10071    10061 
   10054    10048    10035    10025    10021    10017    10011    10007 
   10006    10006    10003    10002    10004    10010    10015    10021 
   10025    10031    10042    10053    10062    10068    10075    10079 
   10081    10079    10072    10064    10053    10035    10017     9994 
    9964     9934     9907     9876     9842     9809     9778     9748 
    9721     9694     9668     9645     9624     9605     9591     9578 
    9564     9553     9543     9532     9524     9521     9518     9516 
    9514     9516     9521     9526     9532     9539     9548     9555 
    9567     9582     9597     9612     9629     9644     9657     9674 
    9686     9699     9714     9725     9736     9748     9757     9768 
    9784     9795     9798     9803     9809     9814     9814     9811 
    9810     9803     9794     9782     9764     9744     9725     9703 
    9676     9648     9621     9591     9559     9522     9485     9445 
    9408     9370     9329     9290     9256     9219     9182     9155 
    9131     9105     9085     9073     9058     9050     9050     9046 
    9042     9046     9053     9059     9067     9077     9086     9097 
    9104     9109     9116     9124     9131     9136     9140     9146 
    9155     9169     9184     9201     9221     9240     9262     9286 
    9312     9337     9370     9404     9432     9463     9497     9525 
    9551     9576     9594     9613     9633     9647     9656     9666 
    9671     9674     9676     9680     9679     9676     9679     9682 
    9682     9687     9690     9690     9691     9693     9695     9697 
    9695     9702     9713     9718     9722     9728     9730     9737 
    9741     9742     9749     9755     9753     9756     9760     9761 
    9765     9772     9782     9788     9796     9807     9819     9828 
    9838     9850     9865     9879     9894     9915     9936     9948 
    9965     9988    10008    10031    10054    10073    10093    10118 
   10141    10166    10191    10218    10245    10272    10300    10326 
   10347    10368    10385    10403    10415    10423    10430    10434 
   10434    10431    10426    10416    10401    10385    10366    10345 
   10319    10288    10255    10219    10176    10133    10092    10053 
   10014     9980     9946     9913     9884     9864     9845     9828 
    9813     9806     9802     9803     9810     9819     9834     9850 
    9868     9891     9914     9936     9964     9991    10011    10039 
   10071    10092    10114    10143    10165    10185    10215    10241 
   10260    10282    10309    10335    10355    10377    10403    10428 
   10451    10471    10496    10521    10542    10559    10574    10588 
   10596    10601    10604    10601    10596    10590    10584    10569 
   10550    10532    10515    10492    10470    10444    10416    10390 
   10365    10339    10314    10287    10261    10239    10218    10196 
   10177    10161    10146    10129    10114    10106    10096    10088 
   10084    10080    10076    10075    10072    10071    10071    10071 
   10071    10073    10076    10073    10076    10080    10081    10080 
   10081    10088    10092    10093    10100    10107    10110    10114 
   10116    10115    10114    10112    10110    10103    10093    10083 
   10075    10062    10048    10029    10011     9992     9969     9948 
    9929     9907     9887     9868     9848     9826     9805     9784 
    9761     9740     9720     9699     9676     9660     9645     9630 
    9621     9612     9598     9587     9580     9571     9559     9551 
    9547     9540     9537     9539     9543     9548     9552     9560 
    9570     9580     9593     9602     9614     9629     9641     9656 
    9670     9683     9695     9702     9711     9728     9741     9753 
    9764     9774     9784     9794     9799     9802     9805     9810 
    9809     9803     9801     9795     9788     9780     9769     9761 
    9751     9732     9715     9698     9679     9657     9634     9613 
    9593     9572     9548     9525     9509     9494     9472     9460 
