Origin Time       2025/01/13 21:19:00
Lat.              31.8
Long.             131.6
Depth. (km)       30
Mag.              6.9
Station Code      TTRH04
Station Lat.      35.4668
Station Long.     133.6307
Station Height(m) -93
Record Time       2025/01/13 21:21:05
Sampling Freq(Hz) 100Hz
Duration Time(s)  147
Dir.              3
Scale Factor      3923(gal)/8224838
Max. Acc. (gal)   0.362
Last Correction   2025/01/13 21:21:07
Memo.             
[...]
  -30963   -30943   -30923   -30905   -30889   -30871   -30851   -30834 
  -30819   -30805   -30788   -30771   -30754   -30739   -30730   -30717 
  -30705   -30700   -30692   -30688   -30688   -30685   -30688   -30699 
  -30709   -30720   -30736   -30753   -30770   -30789   -30807   -30827 
  -30848   -30869   -30892   -30919   -30942   -30960   -30981   -31001 
  -31018   -31037   -31060   -31079   -31098   -31118   -31135   -31152 
  -31171   -31186   -31202   -31222   -31240   -31256   -31275   -31297 
  -31311   -31325   -31340   -31349   -31356   -31360   -31355   -31345 
  -31330   -31306   -31282   -31259   -31225   -31186   -31148   -31105 
  -31060   -31017   -30977   -30939   -30901   -30861   -30825   -30793 
  -30758   -30724   -30697   -30676   -30658   -30643   -30634   -30624 
  -30616   -30618   -30622   -30626   -30636   -30654   -30674   -30700 
  -30728   -30755   -30786   -30816   -30847   -30881   -30910   -30942 
  -30973   -30998   -31024   -31045   -31063   -31075   -31083   -31093 
  -31101   -31102   -31108   -31112   -31108   -31105   -31102   -31093 
  -31081   -31072   -31063   -31052   -31036   -31021   -31005   -30987 
  -30969   -30946   -30924   -30904   -30883   -30869   -30852   -30836 
  -30825   -30820   -30816   -30809   -30804   -30801   -30798   -30797 
  -30794   -30793   -30793   -30793   -30794   -30797   -30800   -30800 
  -30801   -30802   -30809   -30813   -30811   -30817   -30823   -30819 
  -30819   -30820   -30817   -30816   -30815   -30811   -30804   -30793 
  -30784   -30774   -30762   -30748   -30736   -30721   -30707   -30689 
  -30666   -30649   -30632   -30611   -30588   -30565   -30545   -30528 
  -30514   -30504   -30497   -30489   -30484   -30484   -30489   -30492 
  -30493   -30503   -30518   -30532   -30549   -30566   -30589   -30616 
  -30642   -30666   -30693   -30720   -30743   -30769   -30794   -30815 
  -30831   -30848   -30866   -30882   -30896   -30910   -30929   -30947 
  -30962   -30975   -30993   -31009   -31023   -31037   -31050   -31060 
  -31068   -31074   -31077   -31079   -31075   -31067   -31063   -31060 
  -31047   -31033   -31025   -31013   -30990   -30974   -30964   -30951 
  -30937   -30928   -30915   -30901   -30886   -30870   -30856   -30847 
  -30838   -30825   -30819   -30816   -30815   -30812   -30813   -30816 
  -30815   -30819   -30827   -30832   -30836   -30842   -30843   -30844 
  -30846   -30847   -30847   -30846   -30843   -30839   -30836   -30832 
  -30828   -30828   -30832   -30836   -30838   -30842   -30847   -30847 
  -30850   -30861   -30869   -30882   -30900   -30917   -30937   -30962 
  -30983   -31005   -31028   -31051   -31071   -31091   -31109   -31124 
  -31136   -31141   -31147   -31153   -31155   -31152   -31147   -31135 
  -31121   -31109   -31090   -31068   -31055   -31043   -31029   -31021 
  -31016   -31010   -31010   -31009   -31009   -31017   -31028   -31040 
  -31058   -31075   -31095   -31116   -31139   -31167   -31191   -31218 
  -31245   -31268   -31293   -31315   -31333   -31355   -31372   -31382 
  -31391   -31396   -31401   -31405   -31403   -31398   -31392   -31380 
  -31369   -31359   -31344   -31324   -31303   -31283   -31256   -31225 
  -31194   -31164   -31133   -31104   -31075   -31043   -31010   -30982 
  -30951   -30916   -30882   -30851   -30819   -30786   -30755   -30723 
  -30692   -30661   -30627   -30601   -30581   -30558   -30534   -30514 
  -30496   -30477   -30461   -30445   -30427   -30411   -30399   -30385 
  -30373   -30362   -30353   -30349   -30349   -30350   -30350   -30356 
  -30362   -30369   -30380   -30389   -30397   -30407   -30419   -30430 
  -30442   -30457   -30470   -30481   -30491   -30504   -30519   -30531 
  -30539   -30549   -30565   -30584   -30601   -30619   -30639   -30665 
  -30693   -30716   -30740   -30769   -30793   -30820   -30854   -30885 
  -30916   -30951   -30986   -31021   -31059   -31097   -31136   -31178 
  -31217   -31260   -31305   -31345   -31379   -31415   -31449   -31480 
  -31510   -31536   -31557   -31577   -31595   -31604   -31611   -31615 
  -31615   -31608   -31599   -31590   -31576   -31558   -31541   -31519 
  -31496   -31471   -31440   -31407   -31376   -31344   -31310   -31275 
  -31244   -31214   -31180   -31148   -31120   -31090   -31063   -31041 
  -31017   -30990   -30970   -30952   -30928   -30906   -30889   -30869 
  -30852   -30832   -30809   -30789   -30762   -30734   -30711   -30684 
  -30653   -30626   -30600   -30573   -30546   -30522   -30496   -30473 
  -30457   -30438   -30419   -30407   -30396   -30387   -30377   -30370 
  -30369   -30370   -30370   -30377   -30391   -30404   -30420   -30442 
  -30465   -30489   -30518   -30547   -30580   -30608   -30634   -30665 
  -30692   -30719   -30748   -30778   -30804   -30823   -30840   -30863 
  -30883   -30904   -30923   -30943   -30963   -30983   -30998   -31012 
  -31027   -31043   -31056   -31070   -31089   -31106   -31124   -31141 
  -31158   -31175   -31194   -31213   -31234   -31255   -31272   -31288 
  -31305   -31320   -31332   -31336   -31341   -31345   -31340   -31330 
  -31326   -31317   -31303   -31288   -31272   -31257   -31239   -31214 
  -31191   -31167   -31140   -31112   -31079   -31045   -31013   -30983 
  -30954   -30921   -30893   -30866   -30835   -30805   -30778   -30750 
  -30724   -30701   -30678   -30654   -30631   -30611   -30591   -30573 
  -30561   -30554   -30547   -30546   -30545   -30545   -30547   -30551 
  -30554   -30559   -30566   -30577   -30589   -30603   -30618   -30634 
  -30653   -30677   -30699   -30726   -30755   -30780   -30807   -30839 
  -30867   -30896   -30927   -30955   -30982   -31009   -31033   -31055 
  -31078   -31099   -31116   -31132   -31148   -31159   -31167   -31172 
  -31176   -31176   -31170   -31162   -31152   -31141   -31128   -31113 
  -31097   -31078   -31055   -31031   -31006   -30983   -30958   -30931 
  -30908   -30882   -30858   -30835   -30812   -30793   -30777   -30759 
  -30744   -30732   -30717   -30708   -30705   -30701   -30699   -30699 
  -30704   -30711   -30716   -30724   -30739   -30753   -30765   -30778 
  -30793   -30808   -30820   -30835   -30851   -30866   -30879   -30889 
  -30904   -30921   -30936   -30950   -30966   -30978   -30989   -31004 
  -31016   -31021   -31029   -31040   -31045   -31050   -31058   -31063 
  -31070   -31078   -31086   -31098   -31112   -31120   -31133   -31149 
  -31164   -31180   -31201   -31218   -31234   -31252   -31270   -31284 
  -31299   -31320   -31336   -31347   -31363   -31378   -31387   -31398 
  -31411   -31421   -31428   -31433   -31434   -31436   -31436   -31429 
  -31417   -31406   -31394   -31374   -31352   -31336   -31315   -31288 
  -31264   -31241   -31216   -31194   -31171   -31144   -31118   -31097 
  -31072   -31052   -31028   -31006   -30987   -30967   -30951   -30936 
  -30919   -30906   -30898   -30896   -30894   -30897   -30902   -30910 
  -30924   -30940   -30954   -30970   -30987   -31002   -31018   -31033 
  -31044   -31054   -31063   -31068   -31071   -31071   -31072   -31071 
  -31070   -31064   -31058   -31054   -31045   -31036   -31029   -31021 
  -31005   -30989   -30977   -30960   -30943   -30924   -30902   -30883 
  -30863   -30839   -30820   -30801   -30771   -30743   -30721   -30693 
  -30659   -30630   -30599   -30564   -30532   -30501   -30476   -30453 
  -30427   -30406   -30393   -30383   -30376   -30370   -30375   -30380 
  -30384   -30399   -30422   -30442   -30464   -30489   -30518   -30546 
  -30576   -30604   -30632   -30663   -30699   -30735   -30770   -30805 
  -30843   -30878   -30909   -30943   -30974   -30998   -31023   -31051 
  -31075   -31097   -31117   -31137   -31156   -31171   -31180   -31191 
  -31201   -31210   -31220   -31224   -31225   -31226   -31229   -31228 
  -31221   -31217   -31212   -31203   -31195   -31187   -31178   -31168 
  -31156   -31144   -31137   -31132   -31124   -31114   -31108   -31104 
  -31097   -31093   -31089   -31081   -31077   -31077   -31075   -31072 
  -31072   -31072   -31068   -31063   -31062   -31060   -31058   -31058 
  -31056   -31051   -31045   -31043   -31033   -31024   -31014   -31008 
  -30997   -30987   -30981   -30969   -30954   -30939   -30923   -30901 
  -30881   -30863   -30840   -30817   -30796   -30773   -30750   -30730 
  -30711   -30692   -30674   -30659   -30650   -30642   -30631   -30622 
  -30615   -30611   -30605   -30601   -30604   -30607   -30608   -30612 
  -30619   -30626   -30630   -30632   -30634   -30640   -30647   -30647 
  -30651   -30661   -30662   -30662   -30670   -30677   -30684   -30694 
  -30704   -30716   -30731   -30747   -30762   -30780   -30798   -30819 
  -30840   -30861   -30881   -30904   -30925   -30944   -30966   -30986 
  -31005   -31021   -31037   -31048   -31059   -31070   -31077   -31081 
  -31083   -31086   -31085   -31081   -31083   -31081   -31072   -31067 
  -31066   -31060   -31052   -31050   -31047   -31041   -31039   -31037 
  -31032   -31029   -31027   -31018   -31012   -31009   -31004   -30998 
  -30993   -30986   -30979   -30975   -30969   -30964   -30964   -30960 
  -30958   -30963   -30969   -30971   -30975   -30983   -30991   -31000 
  -31012   -31027   -31036   -31047   -31063   -31075   -31086   -31102 
  -31118   -31129   -31140   -31156   -31168   -31178   -31190   -31202 
  -31213   -31224   -31229   -31237   -31241   -31239   -31239   -31237 
  -31228   -31216   -31203   -31190   -31168   -31145   -31121   -31093 
  -31060   -31024   -30990   -30956   -30913   -30874   -30842   -30802 
  -30765   -30732   -30697   -30666   -30639   -30612   -30588   -30572 
  -30555   -30545   -30541   -30535   -30531   -30535   -30545   -30554 
  -30568   -30582   -30600   -30620   -30639   -30658   -30682   -30707 
  -30728   -30746   -30763   -30784   -30800   -30812   -30824   -30832 
  -30835   -30843   -30844   -30844   -30846   -30842   -30834   -30828 
  -30820   -30808   -30798   -30792   -30778   -30765   -30755   -30742 
  -30724   -30711   -30700   -30685   -30669   -30661   -30653   -30645 
  -30640   -30639   -30636   -30639   -30649   -30658   -30667   -30685 
  -30707   -30727   -30751   -30782   -30816   -30851   -30888   -30921 
  -30952   -30983   -31013   -31040   -31066   -31089   -31112   -31132 
  -31148   -31163   -31180   -31191   -31199   -31210   -31216   -31216 
  -31218   -31220   -31216   -31212   -31202   -31189   -31175   -31158 
  -31136   -31118   -31099   -31074   -31045   -31023   -31001   -30979 
  -30956   -30933   -30915   -30894   -30873   -30855   -30834   -30809 
  -30789   -30767   -30743   -30723   -30701   -30685   -30670   -30654 
  -30636   -30619   -30607   -30597   -30588   -30578   -30573   -30570 
  -30572   -30570   -30569   -30570   -30576   -30584   -30592   -30600 
  -30615   -30627   -30638   -30653   -30665   -30676   -30692   -30704 
  -30717   -30732   -30744   -30758   -30775   -30790   -30800   -30812 
  -30829   -30843   -30852   -30866   -30874   -30881   -30889   -30894 
  -30897   -30902   -30906   -30906   -30904   -30902   -30901   -30898 
  -30896   -30892   -30888   -30883   -30883   -30885   -30886   -30886 
  -30888   -30888   -30889   -30892   -30890   -30893   -30898   -30900 
  -30904   -30913   -30920   -30923   -30928   -30936   -30943   -30951 
  -30964   -30977   -30982   -30989   -31004   -31014   -31024   -31036 
  -31052   -31064   -31078   -31095   -31116   -31135   -31149   -31164 
  -31180   -31195   -31209   -31222   -31233   -31241   -31248   -31255 
  -31255   -31253   -31253   -31248   -31237   -31229   -31220   -31205 
  -31191   -31178   -31162   -31147   -31131   -31110   -31091   -31075 
  -31058   -31037   -31020   -31004   -30983   -30966   -30951   -30931 
  -30915   -30902   -30889   -30877   -30865   -30856   -30852   -30842 
  -30836   -30835   -30834   -30831   -30829   -30831   -30829   -30827 
  -30829   -30831   -30829   -30825   -30820   -30819   -30817   -30813 
  -30809   -30805   -30804   -30801   -30793   -30786   -30788   -30786 
  -30778   -30777   -30775   -30770   -30767   -30763   -30759   -30758 
  -30757   -30758   -30762   -30762   -30766   -30775   -30784   -30792 
  -30802   -30813   -30819   -30827   -30838   -30840   -30846   -30855 
  -30858   -30863   -30874   -30881   -30888   -30896   -30902   -30910 
  -30919   -30928   -30940   -30951   -30963   -30978   -30993   -31008 
  -31021   -31036   -31056   -31075   -31094   -31114   -31135   -31153 
  -31175   -31194   -31212   -31225   -31240   -31260   -31276   -31291 
  -31307   -31324   -31338   -31351   -31363   -31374   -31384   -31392 
  -31401   -31407   -31414   -31417   -31422   -31426   -31426   -31423 
  -31422   -31414   -31406   -31401   -31388   -31371   -31357   -31344 
  -31325   -31305   -31288   -31274   -31257   -31239   -31218   -31197 
  -31175   -31155   -31133   -31114   -31090   -31067   -31045   -31023 
  -31002   -30983   -30962   -30944   -30928   -30912   -30900   -30888 
  -30875   -30862   -30851   -30844   -30838   -30835   -30834   -30829 
  -30827   -30835   -30843   -30847   -30852   -30862   -30870   -30878 
  -30886   -30893   -30901   -30909   -30913   -30917   -30921   -30920 
  -30920   -30924   -30927   -30925   -30920   -30913   -30906   -30896 
  -30881   -30865   -30846   -30823   -30800   -30777   -30751   -30723 
  -30694   -30666   -30636   -30607   -30576   -30543   -30508   -30476 
  -30439   -30403   -30373   -30346   -30316   -30291   -30268   -30245 
  -30227   -30217   -30199   -30184   -30179   -30172   -30160   -30154 
  -30152   -30152   -30153   -30153   -30157   -30168   -30175   -30184 
  -30196   -30207   -30219   -30238   -30254   -30272   -30292   -30315 
  -30338   -30361   -30384   -30411   -30435   -30460   -30487   -30514 
  -30537   -30564   -30597   -30626   -30654   -30686   -30715   -30743 
  -30775   -30805   -30829   -30855   -30885   -30913   -30940   -30967 
  -30994   -31023   -31050   -31072   -31091   -31112   -31131   -31144 
  -31158   -31174   -31186   -31191   -31194   -31201   -31205   -31202 
  -31203   -31205   -31202   -31202   -31199   -31191   -31187   -31183 
  -31174   -31166   -31159   -31151   -31140   -31125   -31106   -31093 
  -31078   -31056   -31033   -31017   -30998   -30973   -30952   -30933 
  -30908   -30885   -30862   -30838   -30815   -30792   -30769   -30748 
  -30727   -30705   -30685   -30667   -30651   -30638   -30623   -30609 
  -30599   -30591   -30584   -30578   -30572   -30572   -30574   -30578 
  -30582   -30588   -30596   -30608   -30620   -30630   -30642   -30655 
  -30673   -30686   -30699   -30716   -30732   -30746   -30763   -30781 
  -30800   -30819   -30839   -30859   -30881   -30900   -30919   -30944 
  -30966   -30977   -30986   -31001   -31014   -31021   -31025   -31032 
  -31035   -31036   -31037   -31036   -31033   -31032   -31029   -31024 
  -31018   -31010   -31000   -30986   -30977   -30964   -30951   -30937 
  -30925   -30915   -30900   -30885   -30871   -30858   -30846   -30834 
  -30820   -30811   -30800   -30788   -30777   -30767   -30759   -30754 
  -30747   -30740   -30736   -30732   -30734   -30735   -30734   -30732 
  -30735   -30739   -30743   -30748   -30757   -30762   -30770   -30784 
  -30796   -30804   -30819   -30838   -30854   -30869   -30885   -30902 
  -30920   -30936   -30950   -30969   -30986   -30996   -31008   -31018 
  -31025   -31031   -31035   -31035   -31037   -31036   -31029   -31025 
  -31025   -31021   -31017   -31014   -31012   -31006   -31000   -30998 
  -30997   -30991   -30983   -30979   -30979   -30971   -30962   -30956 
  -30950   -30942   -30933   -30923   -30913   -30906   -30896   -30886 
  -30877   -30869   -30862   -30855   -30846   -30836   -30831   -30829 
  -30825   -30823   -30820   -30816   -30815   -30812   -30805   -30802 
  -30802   -30798   -30796   -30794   -30794   -30793   -30789   -30789 
  -30790   -30786   -30785   -30789   -30789   -30789   -30792   -30792 
  -30790   -30790   -30792   -30789   -30785   -30780   -30775   -30767 
  -30759   -30755   -30750   -30742   -30738   -30735   -30730   -30724 
  -30724   -30723   -30723   -30724   -30731   -30736   -30743   -30750 
  -30757   -30765   -30774   -30786   -30798   -30809   -30819   -30832 
  -30843   -30850   -30862   -30874   -30881   -30889   -30896   -30901 
  -30910   -30916   -30917   -30917   -30919   -30919   -30920   -30921 
  -30917   -30913   -30910   -30909   -30908   -30905   -30908   -30912 
  -30912   -30916   -30924   -30929   -30935   -30944   -30955   -30966 
  -30977   -30987   -30998   -31010   -31024   -31037   -31052   -31064 
  -31077   -31090   -31102   -31113   -31124   -31133   -31144   -31155 
  -31162   -31170   -31180   -31190   -31195   -31199   -31205   -31207 
  -31207   -31210   -31209   -31203   -31197   -31190   -31185   -31179 
  -31171   -31162   -31153   -31147   -31136   -31126   -31118   -31108 
  -31098   -31090   -31083   -31071   -31059   -31052   -31043   -31029 
  -31016   -31005   -30993   -30977   -30959   -30944   -30929   -30915 
  -30897   -30879   -30867   -30852   -30836   -30828   -30817   -30804 
  -30792   -30778   -30766   -30758   -30744   -30732   -30730   -30724 
  -30712   -30708   -30707   -30703   -30700   -30699   -30696   -30693 
  -30693   -30693   -30690   -30689   -30685   -30678   -30674   -30670 
  -30667   -30662   -30655   -30651   -30646   -30636   -30630   -30627 
  -30623   -30616   -30609   -30607   -30603   -30599   -30595   -30586 
  -30581   -30577   -30573   -30570   -30569   -30565   -30565   -30565 
  -30564   -30566   -30572   -30574   -30576   -30585   -30596   -30600 
  -30612   -30630   -30643   -30657   -30673   -30693   -30713   -30728 
  -30747   -30769   -30784   -30800   -30824   -30843   -30859   -30881 
  -30901   -30916   -30933   -30948   -30959   -30973   -30983   -30991 
  -30997   -30998   -31001   -31006   -31008   -31009   -31009   -31006 
  -31009   -31010   -31006   -31004   -31004   -30997   -30991   -30990 
  -30989   -30985   -30979   -30975   -30973   -30969   -30964   -30959 
  -30952   -30948   -30947   -30942   -30940   -30937   -30929   -30925 
  -30923   -30917   -30915   -30916   -30916   -30916   -30919   -30921 
  -30925   -30929   -30935   -30937   -30940   -30942   -30946   -30950 
  -30955   -30956   -30958   -30962   -30962   -30962   -30960   -30958 
  -30956   -30954   -30951   -30950   -30948   -30946   -30942   -30936 
  -30931   -30931   -30928   -30920   -30919   -30920   -30917   -30919 
  -30920   -30924   -30927   -30928   -30931   -30936   -30937   -30939 
  -30942   -30942   -30940   -30942   -30944   -30943   -30940   -30943 
  -30942   -30936   -30933   -30933   -30936   -30935   -30932   -30931 
  -30929   -30925   -30924   -30927   -30927   -30923   -30920   -30923 
  -30924   -30920   -30917   -30913   -30906   -30901   -30897   -30893 
  -30890   -30885   -30875   -30869   -30863   -30856   -30847   -30839 
  -30831   -30823   -30812   -30800   -30790   -30784   -30774   -30767 
  -30765   -30757   -30750   -30753   -30753   -30748   -30753   -30758 
  -30759   -30765   -30771   -30780   -30790   -30801   -30812   -30823 
  -30834   -30844   -30855   -30869   -30879   -30889   -30901   -30915 
  -30924   -30932   -30944   -30952   -30962   -30973   -30979   -30989 
  -31001   -31009   -31020   -31031   -31037   -31043   -31051   -31058 
  -31063   -31071   -31081   -31085   -31090   -31098   -31102   -31106 
