Origin Time       2025/01/13 21:19:00
Lat.              31.8
Long.             131.6
Depth. (km)       30
Mag.              6.9
Station Code      TTRH01
Station Lat.      35.2604
Station Long.     134.2173
Station Height(m) 230
Record Time       2025/01/13 21:21:12
Sampling Freq(Hz) 100Hz
Duration Time(s)  120
Dir.              4
Scale Factor      7845(gal)/8223790
Max. Acc. (gal)   0.596
Last Correction   2025/01/13 21:21:12
Memo.             
[...]
   -6976    -6957    -6944    -6936    -6939    -6949    -6959    -6966 
   -6966    -6964    -6964    -6963    -6957    -6948    -6940    -6937 
   -6941    -6956    -6983    -7020    -7049    -7064    -7075    -7079 
   -7075    -7068    -7065    -7071    -7084    -7105    -7118    -7126 
   -7132    -7129    -7117    -7105    -7092    -7080    -7072    -7067 
   -7067    -7074    -7078    -7075    -7064    -7049    -7034    -7020 
   -7006    -6993    -6982    -6972    -6968    -6971    -6979    -6990 
   -6997    -6999    -7002    -7005    -7001    -6998    -6999    -7002 
   -7006    -7011    -7020    -7032    -7042    -7044    -7038    -7025 
   -7001    -6978    -6960    -6940    -6922    -6916    -6907    -6895 
   -6879    -6859    -6841    -6828    -6814    -6808    -6805    -6813 
   -6829    -6851    -6879    -6912    -6939    -6956    -6966    -6970 
   -6974    -6982    -6995    -7010    -7025    -7045    -7063    -7069 
   -7071    -7067    -7059    -7052    -7045    -7045    -7057    -7072 
   -7079    -7080    -7074    -7056    -7038    -7021    -7005    -6995 
   -6987    -6971    -6955    -6939    -6926    -6922    -6924    -6930 
   -6945    -6959    -6968    -6975    -6974    -6971    -6968    -6963 
   -6961    -6960    -6957    -6953    -6952    -6947    -6939    -6929 
   -6916    -6901    -6886    -6872    -6867    -6870    -6878    -6895 
   -6918    -6936    -6943    -6937    -6924    -6910    -6899    -6894 
   -6898    -6910    -6936    -6964    -6988    -7010    -7017    -7009 
   -6995    -6982    -6967    -6955    -6949    -6956    -6968    -6984 
   -7001    -7018    -7032    -7037    -7042    -7049    -7053    -7068 
   -7086    -7096    -7107    -7122    -7130    -7134    -7134    -7126 
   -7113    -7096    -7086    -7080    -7079    -7080    -7076    -7069 
   -7060    -7048    -7029    -7001    -6968    -6941    -6917    -6902 
   -6901    -6907    -6914    -6922    -6928    -6926    -6920    -6912 
   -6905    -6895    -6882    -6871    -6868    -6871    -6875    -6880 
   -6889    -6898    -6905    -6907    -6906    -6897    -6883    -6872 
   -6867    -6866    -6875    -6895    -6918    -6939    -6957    -6976 
   -6987    -6995    -7006    -7014    -7021    -7032    -7042    -7055 
   -7069    -7083    -7091    -7090    -7084    -7075    -7064    -7055 
   -7044    -7033    -7020    -7010    -7006    -7002    -6994    -6983 
   -6972    -6964    -6960    -6959    -6955    -6952    -6953    -6959 
   -6963    -6966    -6966    -6966    -6961    -6949    -6930    -6912 
   -6898    -6887    -6882    -6880    -6882    -6880    -6876    -6874 
   -6875    -6883    -6898    -6917    -6936    -6956    -6974    -6986 
   -6995    -7005    -7014    -7020    -7021    -7024    -7026    -7021 
   -7014    -7010    -7014    -7024    -7033    -7040    -7040    -7030 
   -7022    -7018    -7011    -7010    -7011    -7010    -7011    -7015 
   -7015    -7013    -7014    -7021    -7036    -7061    -7087    -7103 
   -7110    -7109    -7096    -7083    -7065    -7045    -7026    -7011 
   -7007    -7011    -7014    -7011    -7001    -6983    -6966    -6952 
   -6944    -6941    -6940    -6943    -6948    -6953    -6961    -6967 
   -6968    -6966    -6961    -6957    -6956    -6960    -6968    -6978 
   -6991    -7005    -7013    -7014    -7005    -6986    -6959    -6930 
   -6898    -6864    -6841    -6832    -6829    -6833    -6841    -6852 
   -6862    -6866    -6868    -6878    -6887    -6898    -6914    -6928 
   -6936    -6940    -6941    -6943    -6944    -6948    -6955    -6961 
   -6968    -6976    -6982    -6986    -6994    -6999    -7005    -7011 
   -7020    -7029    -7036    -7044    -7056    -7069    -7082    -7095 
   -7102    -7102    -7099    -7092    -7079    -7071    -7069    -7069 
   -7075    -7079    -7080    -7079    -7071    -7061    -7052    -7038 
   -7025    -7015    -7009    -7005    -7003    -7007    -7018    -7032 
   -7045    -7057    -7065    -7069    -7067    -7061    -7053    -7048 
   -7042    -7037    -7037    -7040    -7036    -7026    -7011    -6993 
   -6975    -6961    -6951    -6941    -6934    -6928    -6925    -6928 
   -6932    -6934    -6933    -6929    -6922    -6918    -6913    -6910 
   -6914    -6914    -6912    -6913    -6914    -6913    -6914    -6917 
   -6916    -6914    -6914    -6914    -6921    -6932    -6937    -6940 
   -6945    -6949    -6951    -6952    -6952    -6948    -6943    -6937 
   -6932    -6926    -6930    -6937    -6941    -6945    -6948    -6944 
   -6939    -6933    -6922    -6913    -6903    -6891    -6879    -6871 
   -6864    -6860    -6863    -6862    -6859    -6859    -6859    -6862 
   -6872    -6882    -6891    -6902    -6909    -6913    -6920    -6928 
   -6932    -6930    -6922    -6917    -6913    -6910    -6907    -6907 
   -6906    -6903    -6898    -6889    -6883    -6879    -6875    -6875 
   -6882    -6897    -6913    -6929    -6943    -6959    -6978    -6998 
   -7020    -7044    -7069    -7096    -7122    -7145    -7168    -7186 
   -7198    -7202    -7203    -7207    -7209    -7207    -7210    -7210 
   -7207    -7210    -7221    -7238    -7254    -7264    -7268    -7269 
   -7272    -7279    -7290    -7299    -7304    -7308    -7317    -7321 
   -7318    -7317    -7312    -7303    -7287    -7268    -7245    -7222 
   -7202    -7182    -7165    -7152    -7133    -7113    -7094    -7069 
   -7041    -7020    -7005    -6991    -6979    -6968    -6953    -6937 
   -6918    -6902    -6886    -6867    -6848    -6826    -6804    -6786 
   -6775    -6766    -6755    -6743    -6728    -6705    -6681    -6662 
   -6647    -6639    -6636    -6639    -6646    -6655    -6660    -6667 
   -6678    -6681    -6677    -6674    -6671    -6671    -6677    -6685 
   -6696    -6709    -6720    -6728    -6732    -6732    -6731    -6725 
   -6717    -6709    -6701    -6691    -6690    -6691    -6693    -6700 
   -6708    -6714    -6725    -6735    -6740    -6754    -6770    -6787 
   -6810    -6837    -6862    -6882    -6898    -6914    -6933    -6953 
   -6972    -6994    -7021    -7042    -7061    -7080    -7091    -7096 
   -7110    -7122    -7129    -7140    -7153    -7164    -7175    -7187 
   -7199    -7207    -7214    -7217    -7215    -7214    -7214    -7209 
   -7202    -7196    -7192    -7187    -7172    -7153    -7133    -7115 
   -7098    -7084    -7072    -7057    -7040    -7024    -7010    -6997 
   -6984    -6976    -6967    -6956    -6948    -6941    -6932    -6921 
   -6909    -6898    -6893    -6894    -6902    -6916    -6929    -6947 
   -6961    -6975    -6990    -7007    -7020    -7030    -7038    -7044 
   -7051    -7061    -7068    -7071    -7071    -7069    -7074    -7078 
   -7079    -7080    -7082    -7079    -7076    -7071    -7064    -7057 
   -7048    -7042    -7040    -7030    -7022    -7017    -7005    -6994 
   -6984    -6970    -6957    -6948    -6932    -6910    -6886    -6860 
   -6832    -6802    -6779    -6762    -6743    -6727    -6717    -6714 
   -6714    -6714    -6716    -6721    -6723    -6718    -6717    -6717 
   -6713    -6708    -6710    -6716    -6721    -6729    -6732    -6736 
   -6744    -6750    -6747    -6747    -6750    -6752    -6760    -6775 
   -6793    -6812    -6829    -6845    -6860    -6874    -6887    -6901 
   -6918    -6936    -6955    -6972    -6987    -7002    -7020    -7037 
   -7056    -7079    -7098    -7113    -7129    -7146    -7161    -7176 
   -7195    -7213    -7223    -7226    -7223    -7219    -7210    -7196 
   -7186    -7175    -7167    -7159    -7148    -7136    -7122    -7106 
   -7087    -7071    -7060    -7047    -7033    -7024    -7017    -7013 
   -7010    -7007    -7005    -7001    -6994    -6991    -6994    -7001 
   -7017    -7040    -7063    -7086    -7109    -7129    -7141    -7148 
   -7152    -7150    -7146    -7148    -7155    -7156    -7157    -7160 
   -7159    -7152    -7142    -7129    -7117    -7107    -7096    -7082 
   -7065    -7047    -7034    -7026    -7020    -7021    -7025    -7024 
   -7020    -7018    -7018    -7018    -7022    -7037    -7057    -7079 
   -7098    -7110    -7113    -7111    -7105    -7092    -7086    -7079 
   -7069    -7061    -7052    -7040    -7033    -7025    -7018    -7018 
   -7025    -7026    -7026    -7029    -7026    -7022    -7021    -7020 
   -7014    -7007    -6998    -6986    -6971    -6949    -6925    -6906 
   -6885    -6862    -6843    -6829    -6816    -6802    -6791    -6782 
   -6772    -6764    -6759    -6755    -6750    -6747    -6747    -6750 
   -6756    -6767    -6787    -6813    -6841    -6868    -6899    -6929 
   -6955    -6976    -6997    -7018    -7045    -7075    -7102    -7128 
   -7152    -7167    -7175    -7179    -7183    -7190    -7192    -7192 
   -7195    -7198    -7199    -7203    -7204    -7198    -7192    -7187 
   -7177    -7163    -7145    -7126    -7107    -7090    -7076    -7068 
   -7061    -7056    -7059    -7057    -7053    -7053    -7052    -7049 
   -7051    -7052    -7061    -7076    -7087    -7095    -7109    -7115 
   -7119    -7126    -7130    -7130    -7133    -7134    -7132    -7132 
   -7130    -7123    -7110    -7088    -7069    -7053    -7041    -7034 
   -7032    -7028    -7028    -7028    -7022    -7022    -7029    -7030 
   -7032    -7040    -7049    -7057    -7067    -7074    -7075    -7074 
   -7069    -7061    -7049    -7036    -7018    -6998    -6975    -6953 
   -6932    -6912    -6893    -6868    -6841    -6820    -6799    -6774 
   -6750    -6729    -6706    -6681    -6659    -6642    -6620    -6593 
   -6569    -6550    -6528    -6505    -6485    -6466    -6450    -6435 
   -6424    -6421    -6424    -6432    -6443    -6463    -6488    -6517 
   -6552    -6590    -6628    -6669    -6708    -6748    -6791    -6839 
   -6887    -6932    -6971    -7007    -7038    -7063    -7086    -7107 
   -7123    -7137    -7148    -7153    -7159    -7165    -7173    -7180 
   -7187    -7190    -7188    -7187    -7186    -7186    -7188    -7191 
   -7190    -7182    -7172    -7163    -7150    -7134    -7118    -7101 
   -7076    -7053    -7034    -7013    -6988    -6971    -6951    -6924 
   -6898    -6868    -6839    -6812    -6787    -6768    -6756    -6744 
   -6735    -6731    -6727    -6723    -6721    -6721    -6720    -6713 
   -6705    -6698    -6689    -6685    -6687    -6690    -6691    -6691 
   -6689    -6685    -6681    -6679    -6679    -6678    -6681    -6685 
   -6690    -6700    -6713    -6728    -6745    -6760    -6772    -6785 
   -6797    -6806    -6814    -6822    -6832    -6844    -6855    -6862 
   -6862    -6864    -6866    -6860    -6859    -6862    -6863    -6868 
   -6876    -6883    -6891    -6901    -6913    -6929    -6945    -6961 
   -6982    -7007    -7036    -7064    -7090    -7111    -7129    -7140 
   -7144    -7138    -7129    -7115    -7096    -7082    -7071    -7057 
   -7048    -7041    -7033    -7021    -7006    -6986    -6964    -6945 
   -6926    -6906    -6887    -6867    -6847    -6829    -6812    -6794 
   -6781    -6767    -6756    -6752    -6752    -6752    -6756    -6763 
   -6772    -6787    -6802    -6818    -6837    -6858    -6878    -6895 
   -6912    -6929    -6944    -6957    -6972    -6984    -6990    -6997 
   -6998    -7001    -7006    -7010    -7017    -7025    -7036    -7052 
   -7067    -7075    -7084    -7094    -7101    -7109    -7119    -7130 
   -7144    -7161    -7179    -7195    -7214    -7237    -7260    -7280 
   -7295    -7310    -7323    -7333    -7344    -7357    -7368    -7379 
   -7389    -7392    -7387    -7377    -7364    -7345    -7327    -7310 
   -7288    -7261    -7238    -7215    -7192    -7172    -7150    -7125 
   -7105    -7090    -7076    -7068    -7057    -7040    -7021    -6998 
   -6970    -6937    -6907    -6880    -6855    -6829    -6802    -6777 
   -6751    -6729    -6710    -6689    -6663    -6643    -6628    -6613 
   -6602    -6593    -6582    -6575    -6573    -6570    -6567    -6569 
   -6573    -6579    -6590    -6602    -6615    -6629    -6646    -6662 
   -6678    -6696    -6717    -6745    -6774    -6799    -6825    -6852 
   -6880    -6907    -6929    -6949    -6961    -6966    -6974    -6979 
   -6984    -6994    -7006    -7020    -7037    -7055    -7068    -7087 
   -7111    -7133    -7153    -7176    -7195    -7207    -7218    -7226 
   -7230    -7234    -7240    -7241    -7240    -7238    -7236    -7237 
   -7234    -7226    -7219    -7215    -7211    -7210    -7209    -7206 
   -7202    -7198    -7191    -7184    -7177    -7167    -7152    -7140 
   -7126    -7115    -7101    -7084    -7071    -7056    -7041    -7029 
   -7013    -6993    -6971    -6949    -6926    -6906    -6887    -6868 
   -6849    -6835    -6821    -6810    -6801    -6789    -6781    -6779 
   -6775    -6772    -6775    -6777    -6778    -6787    -6801    -6813 
   -6828    -6847    -6864    -6882    -6907    -6936    -6959    -6979 
   -7001    -7018    -7034    -7053    -7074    -7092    -7114    -7137 
   -7156    -7179    -7207    -7230    -7249    -7267    -7284    -7295 
   -7304    -7314    -7323    -7335    -7342    -7345    -7346    -7342 
   -7333    -7321    -7310    -7299    -7283    -7264    -7245    -7226 
   -7202    -7179    -7153    -7128    -7105    -7080    -7052    -7024 
   -6997    -6972    -6953    -6934    -6916    -6897    -6879    -6860 
   -6840    -6822    -6806    -6790    -6779    -6772    -6767    -6760 
   -6751    -6741    -6729    -6713    -6690    -6664    -6642    -6615 
   -6582    -6550    -6521    -6493    -6469    -6448    -6431    -6413 
   -6397    -6385    -6373    -6359    -6351    -6355    -6369    -6390 
   -6417    -6450    -6488    -6532    -6582    -6635    -6690    -6745 
   -6802    -6860    -6921    -6983    -7048    -7110    -7171    -7231 
   -7287    -7335    -7377    -7410    -7439    -7465    -7483    -7499 
   -7512    -7516    -7514    -7510    -7500    -7487    -7476    -7465 
   -7449    -7433    -7414    -7392    -7373    -7356    -7331    -7308 
   -7290    -7271    -7242    -7204    -7167    -7128    -7088    -7051 
   -7020    -6994    -6967    -6945    -6926    -6902    -6878    -6860 
   -6844    -6831    -6820    -6810    -6802    -6791    -6782    -6777 
   -6772    -6768    -6767    -6764    -6759    -6760    -6764    -6768 
   -6782    -6799    -6818    -6841    -6866    -6889    -6917    -6947 
   -6976    -7009    -7041    -7069    -7095    -7123    -7150    -7175 
   -7199    -7218    -7230    -7237    -7238    -7240    -7241    -7244 
   -7250    -7258    -7265    -7269    -7269    -7263    -7253    -7245 
   -7236    -7219    -7199    -7175    -7146    -7113    -7076    -7034 
   -6990    -6945    -6901    -6863    -6833    -6804    -6778    -6755 
   -6732    -6705    -6682    -6666    -6652    -6642    -6635    -6632 
   -6632    -6636    -6640    -6648    -6660    -6674    -6690    -6709 
   -6725    -6744    -6766    -6789    -6813    -6839    -6862    -6885 
   -6907    -6920    -6925    -6932    -6934    -6930    -6926    -6928 
   -6929    -6930    -6929    -6921    -6913    -6903    -6891    -6880 
   -6868    -6853    -6836    -6820    -6808    -6799    -6793    -6787 
   -6785    -6782    -6778    -6777    -6782    -6795    -6816    -6844 
   -6875    -6909    -6949    -6987    -7024    -7059    -7095    -7132 
   -7167    -7202    -7233    -7257    -7277    -7295    -7303    -7307 
   -7312    -7314    -7314    -7315    -7318    -7318    -7318    -7319 
   -7318    -7310    -7296    -7281    -7258    -7229    -7196    -7161 
   -7123    -7087    -7049    -7010    -6972    -6939    -6906    -6875 
   -6844    -6818    -6797    -6779    -6766    -6758    -6756    -6759 
   -6766    -6777    -6786    -6798    -6809    -6814    -6820    -6828 
   -6840    -6855    -6870    -6885    -6906    -6928    -6952    -6979 
   -7003    -7026    -7051    -7069    -7083    -7094    -7103    -7113 
   -7123    -7132    -7134    -7138    -7142    -7145    -7146    -7146 
   -7140    -7130    -7122    -7113    -7099    -7087    -7079    -7067 
   -7052    -7036    -7020    -7003    -6987    -6971    -6957    -6947 
   -6932    -6922    -6918    -6914    -6906    -6897    -6885    -6870 
   -6852    -6832    -6810    -6790    -6774    -6762    -6750    -6741 
   -6735    -6731    -6728    -6728    -6729    -6735    -6741    -6751 
   -6763    -6778    -6790    -6808    -6826    -6845    -6864    -6882 
   -6901    -6920    -6934    -6952    -6971    -6990    -7010    -7028 
   -7044    -7061    -7078    -7091    -7102    -7107    -7110    -7114 
   -7117    -7118    -7118    -7114    -7109    -7099    -7083    -7068 
   -7053    -7036    -7020    -7005    -6990    -6978    -6968    -6966 
   -6967    -6970    -6978    -6988    -6997    -7005    -7014    -7022 
   -7029    -7032    -7034    -7042    -7052    -7059    -7056    -7052 
   -7048    -7041    -7026    -7010    -6990    -6968    -6948    -6929 
   -6913    -6898    -6885    -6868    -6852    -6840    -6829    -6821 
   -6813    -6808    -6808    -6813    -6818    -6822    -6832    -6840 
   -6844    -6851    -6856    -6860    -6868    -6878    -6885    -6893 
   -6902    -6910    -6917    -6924    -6929    -6934    -6939    -6944 
   -6955    -6967    -6979    -6993    -7007    -7021    -7037    -7056 
   -7075    -7094    -7113    -7136    -7160    -7180    -7204    -7230 
   -7254    -7280    -7302    -7317    -7330    -7345    -7356    -7364 
   -7373    -7387    -7400    -7411    -7420    -7433    -7446    -7456 
   -7462    -7464    -7461    -7452    -7441    -7430    -7411    -7383 
   -7354    -7330    -7304    -7277    -7252    -7225    -7196    -7167 
   -7141    -7113    -7080    -7055    -7032    -7006    -6983    -6960 
   -6940    -6921    -6906    -6891    -6879    -6875    -6871    -6867 
   -6867    -6870    -6876    -6887    -6897    -6905    -6910    -6916 
   -6922    -6930    -6936    -6941    -6944    -6944    -6941    -6937 
   -6930    -6924    -6912    -6894    -6875    -6858    -6843    -6826 
   -6810    -6799    -6787    -6771    -6759    -6754    -6743    -6732 
   -6723    -6713    -6702    -6696    -6687    -6682    -6681    -6683 
   -6694    -6705    -6713    -6725    -6739    -6751    -6760    -6770 
   -6777    -6785    -6799    -6816    -6829    -6844    -6862    -6875 
   -6889    -6903    -6918    -6936    -6953    -6971    -6988    -7006 
   -7018    -7025    -7024    -7014    -7003    -6993    -6982    -6972 
   -6963    -6949    -6940    -6930    -6918    -6906    -6895    -6880 
   -6864    -6848    -6831    -6817    -6809    -6797    -6789    -6789 
   -6790    -6793    -6797    -6801    -6806    -6812    -6821    -6833 
   -6847    -6860    -6875    -6891    -6906    -6921    -6936    -6949 
   -6964    -6979    -6988    -6998    -7007    -7015    -7021    -7024 
   -7028    -7034    -7041    -7048    -7057    -7064    -7069    -7075 
   -7079    -7086    -7099    -7111    -7122    -7140    -7152    -7163 
   -7175    -7183    -7190    -7198    -7202    -7204    -7209    -7211 
   -7213    -7211    -7207    -7200    -7194    -7186    -7175    -7163 
   -7148    -7132    -7117    -7102    -7088    -7076    -7064    -7052 
   -7038    -7022    -7003    -6987    -6970    -6951    -6933    -6914 
   -6891    -6867    -6844    -6825    -6808    -6787    -6768    -6747 
   -6723    -6700    -6681    -6662    -6647    -6632    -6621    -6617 
   -6615    -6609    -6608    -6608    -6609    -6619    -6632    -6650 
