Origin Time       2025/01/13 21:19:00
Lat.              31.8
Long.             131.6
Depth. (km)       30
Mag.              6.9
Station Code      TTRH06
Station Lat.      35.3946
Station Long.     134.1988
Station Height(m) 30
Record Time       2025/01/13 21:21:16
Sampling Freq(Hz) 100Hz
Duration Time(s)  120
Dir.              5
Scale Factor      7845(gal)/8223790
Max. Acc. (gal)   0.582
Last Correction   2025/01/13 21:21:17
Memo.             
[...]
  -24740   -24721   -24703   -24691   -24684   -24682   -24684   -24687 
  -24690   -24691   -24692   -24696   -24703   -24707   -24706   -24705 
  -24702   -24696   -24691   -24680   -24667   -24660   -24655   -24641 
  -24629   -24621   -24614   -24619   -24638   -24665   -24699   -24734 
  -24765   -24791   -24811   -24830   -24848   -24862   -24877   -24891 
  -24902   -24906   -24906   -24904   -24907   -24907   -24903   -24900 
  -24902   -24902   -24900   -24902   -24907   -24918   -24930   -24949 
  -24975   -25003   -25030   -25057   -25078   -25092   -25092   -25078 
  -25058   -25030   -24991   -24952   -24921   -24896   -24887   -24891 
  -24904   -24926   -24945   -24961   -24973   -24973   -24958   -24933 
  -24894   -24848   -24804   -24768   -24738   -24713   -24687   -24663 
  -24638   -24619   -24602   -24588   -24583   -24583   -24578   -24572 
  -24572   -24576   -24586   -24606   -24634   -24664   -24684   -24695 
  -24699   -24696   -24684   -24673   -24665   -24656   -24652   -24652 
  -24653   -24660   -24671   -24688   -24709   -24738   -24783   -24829 
  -24875   -24921   -24964   -24992   -25006   -25012   -25016   -25012 
  -25010   -25011   -25008   -25002   -25004   -25012   -25026   -25046 
  -25066   -25084   -25096   -25093   -25081   -25065   -25043   -25019 
  -25002   -24983   -24964   -24950   -24934   -24915   -24899   -24879 
  -24857   -24841   -24823   -24806   -24791   -24777   -24767   -24761 
  -24759   -24759   -24760   -24765   -24765   -24754   -24738   -24715 
  -24683   -24648   -24617   -24595   -24587   -24594   -24614   -24645 
  -24678   -24705   -24722   -24733   -24737   -24727   -24707   -24680 
  -24655   -24633   -24618   -24614   -24617   -24628   -24651   -24683 
  -24717   -24744   -24760   -24769   -24769   -24760   -24742   -24719 
  -24696   -24673   -24652   -24637   -24633   -24632   -24632   -24638 
  -24648   -24649   -24638   -24628   -24621   -24617   -24615   -24613 
  -24610   -24614   -24621   -24621   -24613   -24601   -24580   -24555 
  -24526   -24495   -24464   -24437   -24414   -24398   -24395   -24405 
  -24425   -24441   -24451   -24456   -24447   -24426   -24403   -24371 
  -24336   -24309   -24287   -24275   -24270   -24273   -24286   -24309 
  -24339   -24374   -24414   -24448   -24475   -24498   -24510   -24517 
  -24524   -24533   -24543   -24555   -24579   -24615   -24657   -24702 
  -24746   -24791   -24823   -24833   -24829   -24815   -24792   -24767 
  -24748   -24740   -24746   -24769   -24799   -24837   -24884   -24925 
  -24953   -24968   -24970   -24958   -24941   -24922   -24900   -24885 
  -24880   -24876   -24880   -24898   -24919   -24948   -24977   -24997 
  -25011   -25015   -25000   -24966   -24916   -24865   -24827   -24800 
  -24779   -24769   -24773   -24779   -24787   -24800   -24811   -24819 
  -24822   -24815   -24803   -24788   -24765   -24737   -24707   -24679 
  -24653   -24634   -24626   -24626   -24629   -24634   -24638   -24637 
  -24630   -24613   -24583   -24547   -24503   -24457   -24409   -24362 
  -24324   -24298   -24287   -24300   -24335   -24382   -24444   -24511 
  -24570   -24613   -24640   -24648   -24640   -24614   -24578   -24543 
  -24511   -24487   -24475   -24479   -24502   -24544   -24592   -24638 
  -24682   -24718   -24742   -24749   -24744   -24732   -24719   -24710 
  -24700   -24699   -24711   -24729   -24754   -24787   -24822   -24854 
  -24891   -24935   -24981   -25029   -25078   -25127   -25165   -25191 
  -25211   -25224   -25222   -25207   -25184   -25155   -25120   -25085 
  -25053   -25026   -25008   -25000   -24989   -24968   -24942   -24915 
  -24884   -24852   -24818   -24784   -24749   -24717   -24682   -24646 
  -24619   -24599   -24579   -24568   -24565   -24557   -24551   -24549 
  -24545   -24540   -24537   -24533   -24528   -24526   -24530   -24536 
  -24544   -24552   -24556   -24553   -24545   -24529   -24501   -24468 
  -24440   -24414   -24389   -24374   -24367   -24371   -24391   -24425 
  -24468   -24516   -24565   -24617   -24661   -24694   -24713   -24719 
  -24717   -24707   -24696   -24688   -24684   -24688   -24705   -24725 
  -24746   -24771   -24799   -24826   -24846   -24861   -24873   -24881 
  -24885   -24881   -24875   -24871   -24857   -24833   -24808   -24787 
  -24760   -24736   -24714   -24696   -24688   -24687   -24687   -24686 
  -24688   -24688   -24684   -24682   -24676   -24661   -24640   -24611 
  -24576   -24541   -24507   -24479   -24452   -24430   -24417   -24417 
  -24426   -24440   -24460   -24483   -24511   -24547   -24584   -24622 
  -24659   -24694   -24722   -24745   -24763   -24775   -24783   -24790 
  -24795   -24798   -24795   -24792   -24788   -24781   -24772   -24761 
  -24754   -24746   -24740   -24736   -24730   -24723   -24718   -24717 
  -24719   -24726   -24744   -24769   -24796   -24819   -24842   -24862 
  -24880   -24894   -24903   -24908   -24906   -24895   -24875   -24844 
  -24806   -24763   -24719   -24680   -24648   -24624   -24613   -24613 
  -24617   -24621   -24626   -24629   -24628   -24626   -24621   -24618 
  -24621   -24621   -24625   -24641   -24660   -24683   -24715   -24750 
  -24788   -24826   -24860   -24885   -24906   -24923   -24943   -24962 
  -24981   -25004   -25023   -25033   -25033   -25023   -25006   -24983 
  -24953   -24923   -24899   -24875   -24850   -24825   -24792   -24754 
  -24718   -24680   -24637   -24592   -24547   -24498   -24445   -24395 
  -24351   -24314   -24285   -24274   -24274   -24278   -24289   -24304 
  -24321   -24337   -24355   -24375   -24398   -24424   -24447   -24463 
  -24468   -24464   -24456   -24443   -24426   -24412   -24402   -24401 
  -24409   -24426   -24459   -24505   -24565   -24628   -24682   -24725 
  -24753   -24754   -24737   -24711   -24675   -24633   -24594   -24567 
  -24553   -24545   -24548   -24565   -24587   -24605   -24626   -24644 
  -24655   -24667   -24682   -24695   -24707   -24721   -24737   -24754 
  -24768   -24777   -24781   -24767   -24740   -24711   -24678   -24642 
  -24607   -24578   -24553   -24534   -24521   -24506   -24489   -24479 
  -24478   -24476   -24480   -24493   -24506   -24514   -24524   -24534 
  -24537   -24536   -24538   -24544   -24553   -24568   -24587   -24609 
  -24632   -24653   -24673   -24690   -24703   -24707   -24699   -24691 
  -24683   -24668   -24649   -24633   -24624   -24619   -24628   -24642 
  -24659   -24678   -24700   -24727   -24753   -24772   -24784   -24798 
  -24813   -24827   -24845   -24861   -24879   -24894   -24911   -24937 
  -24964   -24988   -25012   -25035   -25056   -25069   -25069   -25060 
  -25047   -25033   -25015   -24999   -24984   -24976   -24975   -24969 
  -24969   -24979   -24984   -24981   -24977   -24969   -24957   -24949 
  -24937   -24922   -24911   -24903   -24894   -24879   -24857   -24835 
  -24813   -24779   -24741   -24709   -24682   -24657   -24641   -24640 
  -24652   -24673   -24696   -24715   -24737   -24754   -24763   -24760 
  -24749   -24737   -24722   -24703   -24684   -24672   -24669   -24665 
  -24661   -24667   -24676   -24682   -24687   -24692   -24699   -24707 
  -24713   -24721   -24732   -24742   -24754   -24767   -24776   -24783 
  -24784   -24783   -24777   -24771   -24764   -24756   -24749   -24742 
  -24737   -24729   -24722   -24721   -24722   -24723   -24725   -24722 
  -24714   -24703   -24694   -24688   -24692   -24705   -24717   -24726 
  -24732   -24738   -24748   -24754   -24760   -24760   -24750   -24736 
  -24719   -24702   -24683   -24663   -24646   -24633   -24621   -24614 
  -24609   -24599   -24588   -24584   -24574   -24556   -24537   -24510 
  -24476   -24447   -24425   -24403   -24382   -24370   -24360   -24354 
  -24348   -24343   -24335   -24328   -24324   -24322   -24325   -24331 
  -24343   -24363   -24393   -24432   -24475   -24520   -24564   -24598 
  -24621   -24640   -24652   -24653   -24649   -24652   -24660   -24672 
  -24691   -24715   -24738   -24759   -24776   -24794   -24808   -24821 
  -24829   -24838   -24849   -24853   -24854   -24854   -24850   -24841 
  -24830   -24821   -24819   -24819   -24823   -24842   -24872   -24904 
  -24934   -24956   -24970   -24979   -24972   -24950   -24918   -24873 
  -24825   -24780   -24744   -24721   -24711   -24714   -24733   -24761 
  -24790   -24815   -24835   -24848   -24854   -24850   -24842   -24833 
  -24814   -24791   -24764   -24732   -24705   -24686   -24669   -24660 
  -24659   -24664   -24672   -24680   -24687   -24688   -24678   -24657 
  -24626   -24584   -24537   -24482   -24424   -24376   -24336   -24302 
  -24281   -24275   -24283   -24302   -24325   -24345   -24364   -24387 
  -24402   -24405   -24408   -24408   -24402   -24398   -24397   -24402 
  -24413   -24429   -24452   -24487   -24526   -24564   -24605   -24648 
  -24691   -24733   -24772   -24807   -24840   -24868   -24894   -24916 
  -24938   -24954   -24973   -24996   -25014   -25029   -25045   -25056 
  -25062   -25066   -25068   -25064   -25056   -25043   -25024   -25002 
  -24973   -24938   -24900   -24860   -24819   -24771   -24718   -24663 
  -24607   -24552   -24502   -24453   -24414   -24386   -24366   -24355 
  -24354   -24358   -24366   -24374   -24383   -24391   -24393   -24390 
  -24386   -24381   -24374   -24370   -24370   -24375   -24389   -24414 
  -24452   -24493   -24538   -24582   -24619   -24655   -24682   -24705 
  -24727   -24749   -24767   -24783   -24798   -24810   -24827   -24850 
  -24873   -24902   -24927   -24950   -24975   -24995   -25010   -25022 
  -25022   -25016   -25011   -24999   -24983   -24961   -24931   -24898 
  -24864   -24833   -24808   -24788   -24772   -24764   -24754   -24740 
  -24722   -24702   -24679   -24652   -24621   -24587   -24555   -24528 
  -24509   -24499   -24503   -24524   -24556   -24597   -24637   -24676 
  -24715   -24749   -24777   -24799   -24818   -24837   -24852   -24869 
  -24888   -24900   -24912   -24927   -24938   -24946   -24960   -24975 
  -24992   -25015   -25037   -25051   -25062   -25066   -25064   -25054 
  -25033   -25011   -24989   -24961   -24933   -24912   -24898   -24885 
  -24877   -24873   -24867   -24857   -24846   -24821   -24781   -24736 
  -24691   -24648   -24606   -24567   -24537   -24517   -24499   -24493 
  -24489   -24482   -24476   -24467   -24448   -24426   -24405   -24378 
  -24362   -24356   -24356   -24360   -24374   -24395   -24416   -24435 
  -24449   -24457   -24453   -24444   -24436   -24426   -24418   -24418 
  -24428   -24445   -24468   -24497   -24529   -24563   -24598   -24629 
  -24656   -24680   -24696   -24707   -24717   -24722   -24726   -24729 
  -24734   -24745   -24753   -24754   -24756   -24756   -24749   -24736 
  -24722   -24709   -24696   -24682   -24667   -24656   -24649   -24640 
  -24633   -24630   -24628   -24622   -24614   -24609   -24602   -24594 
  -24590   -24583   -24574   -24571   -24570   -24563   -24555   -24551 
  -24555   -24559   -24564   -24575   -24587   -24601   -24619   -24640 
  -24660   -24688   -24717   -24742   -24776   -24810   -24841   -24873 
  -24910   -24941   -24966   -24992   -25018   -25037   -25051   -25062 
  -25070   -25077   -25087   -25093   -25096   -25103   -25108   -25104 
  -25095   -25080   -25054   -25020   -24983   -24948   -24922   -24895 
  -24871   -24852   -24841   -24831   -24825   -24821   -24822   -24821 
  -24818   -24814   -24807   -24803   -24804   -24807   -24807   -24806 
  -24799   -24788   -24776   -24761   -24748   -24738   -24737   -24742 
  -24752   -24760   -24769   -24775   -24776   -24773   -24760   -24738 
  -24710   -24682   -24653   -24619   -24592   -24579   -24572   -24571 
  -24572   -24574   -24572   -24568   -24559   -24541   -24525   -24511 
  -24495   -24486   -24482   -24482   -24489   -24497   -24505   -24510 
  -24511   -24514   -24516   -24516   -24518   -24524   -24530   -24536 
  -24544   -24555   -24563   -24568   -24575   -24582   -24582   -24580 
  -24579   -24578   -24579   -24583   -24586   -24592   -24601   -24603 
  -24607   -24613   -24614   -24614   -24615   -24618   -24624   -24630 
  -24640   -24652   -24669   -24690   -24703   -24717   -24737   -24753 
  -24760   -24764   -24768   -24769   -24764   -24760   -24753   -24744 
  -24737   -24733   -24726   -24722   -24721   -24717   -24710   -24705 
  -24700   -24694   -24688   -24686   -24680   -24675   -24664   -24655 
  -24646   -24633   -24619   -24606   -24594   -24588   -24586   -24582 
  -24586   -24597   -24602   -24610   -24621   -24628   -24632   -24636 
  -24636   -24630   -24621   -24610   -24594   -24576   -24561   -24549 
  -24540   -24537   -24540   -24547   -24556   -24570   -24583   -24599 
  -24618   -24634   -24649   -24664   -24672   -24676   -24679   -24679 
  -24679   -24683   -24686   -24692   -24706   -24719   -24732   -24741 
  -24745   -24748   -24744   -24725   -24702   -24687   -24673   -24660 
  -24653   -24656   -24660   -24667   -24675   -24679   -24684   -24695 
  -24707   -24721   -24737   -24752   -24764   -24783   -24806   -24827 
  -24850   -24873   -24894   -24907   -24916   -24923   -24926   -24931 
  -24937   -24937   -24937   -24941   -24945   -24949   -24953   -24958 
  -24962   -24968   -24975   -24981   -24985   -24985   -24985   -24983 
  -24981   -24984   -24988   -24991   -24995   -24997   -24993   -24984 
  -24970   -24954   -24933   -24900   -24862   -24819   -24772   -24722 
  -24672   -24625   -24580   -24540   -24502   -24466   -24435   -24410 
  -24382   -24349   -24320   -24290   -24258   -24224   -24187   -24150 
  -24117   -24096   -24086   -24088   -24101   -24127   -24156   -24190 
  -24229   -24267   -24293   -24304   -24309   -24309   -24304   -24304 
  -24314   -24329   -24349   -24379   -24416   -24453   -24493   -24526 
  -24551   -24570   -24582   -24590   -24595   -24598   -24601   -24609 
  -24622   -24644   -24669   -24700   -24736   -24775   -24814   -24850 
  -24888   -24923   -24950   -24977   -25002   -25019   -25034   -25045 
  -25053   -25062   -25069   -25073   -25074   -25077   -25084   -25085 
  -25085   -25085   -25088   -25091   -25088   -25076   -25061   -25043 
  -25019   -24991   -24962   -24933   -24903   -24873   -24842   -24813 
  -24788   -24769   -24756   -24746   -24741   -24733   -24719   -24707 
  -24696   -24678   -24655   -24628   -24599   -24567   -24534   -24498 
  -24460   -24425   -24394   -24367   -24349   -24339   -24328   -24324 
  -24333   -24349   -24366   -24385   -24398   -24409   -24416   -24421 
  -24428   -24435   -24436   -24437   -24443   -24448   -24453   -24464 
  -24479   -24497   -24518   -24540   -24560   -24578   -24591   -24605 
  -24615   -24619   -24625   -24630   -24633   -24636   -24636   -24630 
  -24625   -24622   -24618   -24617   -24622   -24629   -24642   -24663 
  -24683   -24705   -24726   -24741   -24749   -24748   -24740   -24722 
  -24696   -24672   -24651   -24629   -24614   -24606   -24602   -24609 
  -24619   -24628   -24636   -24642   -24645   -24642   -24637   -24626 
  -24613   -24607   -24602   -24601   -24609   -24618   -24628   -24636 
  -24642   -24644   -24640   -24629   -24614   -24594   -24571   -24548 
  -24526   -24506   -24490   -24478   -24470   -24470   -24471   -24471 
  -24471   -24470   -24470   -24468   -24463   -24460   -24464   -24472 
  -24479   -24493   -24511   -24534   -24563   -24588   -24610   -24630 
  -24649   -24663   -24672   -24680   -24687   -24692   -24700   -24713 
  -24727   -24742   -24757   -24769   -24781   -24791   -24794   -24792 
  -24792   -24794   -24795   -24800   -24810   -24823   -24842   -24861 
  -24876   -24889   -24899   -24902   -24902   -24896   -24889   -24885 
  -24880   -24875   -24872   -24875   -24881   -24889   -24902   -24912 
  -24914   -24911   -24903   -24883   -24854   -24827   -24804   -24783 
  -24763   -24748   -24741   -24738   -24740   -24745   -24754   -24763 
  -24768   -24771   -24771   -24765   -24752   -24737   -24717   -24696 
  -24680   -24667   -24655   -24648   -24646   -24648   -24649   -24656 
  -24669   -24682   -24694   -24709   -24719   -24729   -24738   -24740 
  -24737   -24737   -24734   -24733   -24740   -24744   -24744   -24745 
  -24746   -24748   -24746   -24742   -24738   -24733   -24732   -24736 
  -24733   -24730   -24732   -24730   -24721   -24709   -24702   -24690 
  -24672   -24657   -24645   -24637   -24634   -24636   -24640   -24651 
  -24665   -24679   -24688   -24696   -24703   -24703   -24699   -24691 
  -24686   -24682   -24673   -24668   -24671   -24675   -24675   -24680 
  -24687   -24688   -24690   -24688   -24683   -24679   -24675   -24669 
  -24672   -24679   -24684   -24694   -24711   -24733   -24756   -24779 
  -24798   -24815   -24829   -24838   -24845   -24848   -24844   -24837 
  -24830   -24823   -24814   -24807   -24804   -24800   -24796   -24799 
  -24803   -24803   -24802   -24796   -24788   -24781   -24776   -24771 
  -24767   -24765   -24763   -24753   -24744   -24734   -24718   -24700 
  -24687   -24675   -24660   -24646   -24632   -24621   -24610   -24598 
  -24587   -24578   -24567   -24557   -24549   -24543   -24536   -24536 
  -24541   -24544   -24544   -24549   -24556   -24561   -24565   -24568 
  -24574   -24579   -24582   -24586   -24594   -24603   -24609   -24618 
  -24637   -24653   -24673   -24694   -24713   -24738   -24764   -24784 
  -24804   -24822   -24834   -24845   -24849   -24849   -24846   -24841 
  -24840   -24837   -24831   -24823   -24815   -24804   -24790   -24775 
  -24760   -24738   -24717   -24700   -24683   -24664   -24649   -24634 
  -24622   -24613   -24601   -24590   -24580   -24579   -24579   -24575 
  -24575   -24582   -24584   -24583   -24590   -24598   -24606   -24611 
  -24621   -24634   -24648   -24660   -24671   -24680   -24686   -24692 
  -24702   -24706   -24703   -24700   -24696   -24688   -24684   -24683 
  -24680   -24675   -24672   -24673   -24675   -24676   -24682   -24688 
  -24698   -24709   -24721   -24730   -24736   -24741   -24749   -24754 
  -24760   -24772   -24786   -24803   -24825   -24844   -24862   -24884 
  -24899   -24906   -24910   -24910   -24906   -24903   -24903   -24900 
  -24898   -24896   -24900   -24907   -24907   -24904   -24903   -24900 
  -24889   -24876   -24861   -24842   -24826   -24807   -24788   -24772 
  -24752   -24734   -24726   -24721   -24713   -24710   -24709   -24703 
  -24702   -24699   -24698   -24703   -24709   -24711   -24715   -24717 
  -24718   -24719   -24711   -24702   -24698   -24691   -24683   -24675 
  -24667   -24663   -24663   -24665   -24675   -24688   -24696   -24706 
  -24713   -24713   -24710   -24707   -24703   -24692   -24682   -24672 
  -24663   -24653   -24642   -24632   -24629   -24630   -24630   -24634 
  -24644   -24649   -24653   -24657   -24657   -24655   -24652   -24646 
  -24640   -24634   -24629   -24619   -24609   -24601   -24595   -24595 
  -24598   -24598   -24606   -24617   -24621   -24621   -24626   -24632 
  -24628   -24622   -24619   -24615   -24611   -24607   -24605   -24605 
  -24606   -24606   -24607   -24610   -24611   -24615   -24621   -24626 
  -24634   -24642   -24648   -24655   -24661   -24667   -24672   -24676 
  -24679   -24682   -24686   -24687   -24687   -24687   -24695   -24702 
  -24705   -24709   -24713   -24713   -24711   -24711   -24711   -24711 
  -24711   -24713   -24715   -24719   -24723   -24729   -24729   -24730 
  -24733   -24732   -24727   -24725   -24725   -24725   -24726   -24729 
