Origin Time       2025/01/13 21:19:00
Lat.              31.8
Long.             131.6
Depth. (km)       30
Mag.              6.9
Station Code      TTRH03
Station Lat.      35.3553
Station Long.     133.4918
Station Height(m) 220
Record Time       2025/01/13 21:21:33
Sampling Freq(Hz) 100Hz
Duration Time(s)  120
Dir.              1
Scale Factor      2942(gal)/8224139
Max. Acc. (gal)   0.247
Last Correction   2025/01/13 21:21:36
Memo.             
[...]
  110394   110390   110394   110398   110403   110409   110419   110431 
  110440   110448   110448   110442   110442   110442   110432   110423 
  110419   110419   110421   110419   110412   110409   110412   110411 
  110405   110396   110384   110377   110373   110365   110367   110373 
  110366   110355   110340   110324   110311   110303   110297   110292 
  110285   110282   110284   110280   110273   110270   110268   110262 
  110254   110246   110236   110226   110220   110216   110208   110209 
  110228   110238   110235   110245   110257   110257   110257   110261 
  110265   110270   110269   110262   110259   110261   110262   110270 
  110273   110277   110289   110295   110295   110300   110305   110304 
  110301   110297   110292   110292   110286   110276   110263   110254 
  110254   110263   110272   110280   110292   110303   110313   110328 
  110340   110347   110355   110373   110393   110397   110390   110392 
  110390   110382   110381   110381   110382   110384   110381   110380 
  110373   110363   110353   110344   110340   110334   110327   110330 
  110335   110331   110331   110331   110319   110303   110292   110276 
  110268   110270   110263   110257   110254   110246   110241   110242 
  110239   110241   110245   110246   110251   110251   110241   110236 
  110236   110232   110227   110230   110235   110246   110254   110255 
  110262   110269   110273   110276   110281   110284   110280   110270 
  110263   110258   110249   110235   110222   110215   110204   110191 
  110178   110162   110147   110138   110119   110103   110104   110100 
  110085   110074   110062   110050   110041   110033   110031   110034 
  110037   110041   110045   110045   110046   110043   110034   110023 
  110011   109999   109996   109996   109995   109996   109999   110000 
  109999   110006   110018   110025   110031   110035   110031   110033 
  110039   110045   110054   110062   110066   110070   110065   110056 
  110056   110056   110056   110056   110054   110057   110062   110069 
  110073   110072   110074   110080   110084   110089   110097   110108 
  110122   110135   110149   110164   110182   110200   110209   110208 
  110197   110188   110185   110178   110166   110158   110150   110142 
  110139   110139   110142   110150   110162   110182   110207   110224 
  110238   110253   110262   110276   110296   110312   110330   110346 
  110353   110365   110382   110392   110394   110392   110385   110377 
  110366   110355   110347   110336   110330   110323   110308   110290 
  110281   110274   110265   110255   110250   110245   110242   110242 
  110243   110247   110251   110251   110249   110251   110254   110243 
  110227   110212   110188   110166   110158   110149   110135   110123 
  110112   110104   110097   110089   110085   110081   110074   110066 
  110056   110052   110058   110066   110080   110089   110093   110101 
  110112   110128   110147   110158   110164   110170   110177   110187 
  110197   110211   110228   110247   110258   110265   110270   110272 
  110272   110274   110276   110266   110254   110250   110250   110251 
  110259   110266   110274   110282   110286   110295   110304   110300 
  110289   110286   110285   110276   110265   110258   110250   110239 
  110223   110207   110192   110178   110166   110155   110141   110130 
  110126   110114   110093   110072   110054   110042   110034   110023 
  110012   110008   110004   109998   109999   110004   110011   110014 
  110016   110026   110038   110049   110056   110058   110065   110072 
  110081   110096   110116   110130   110142   110157   110172   110180 
  110188   110201   110208   110207   110212   110222   110223   110220 
  110219   110216   110216   110218   110215   110214   110212   110201 
  110192   110185   110176   110174   110178   110178   110170   110153 
  110139   110137   110131   110124   110116   110101   110088   110080 
  110073   110066   110060   110053   110053   110052   110050   110054 
  110064   110073   110077   110076   110077   110081   110083   110087 
  110093   110096   110095   110097   110106   110111   110114   110124 
  110135   110138   110138   110142   110153   110161   110169   110184 
  110196   110209   110224   110234   110251   110273   110288   110305 
  110330   110351   110371   110393   110416   110436   110452   110471 
  110492   110508   110521   110538   110563   110590   110612   110635 
  110654   110664   110677   110690   110697   110704   110710   110708 
  110691   110675   110663   110651   110633   110617   110606   110592 
  110569   110544   110520   110492   110465   110444   110428   110415 
  110408   110403   110396   110396   110400   110398   110396   110401 
  110411   110419   110431   110446   110461   110477   110493   110506 
  110515   110531   110550   110567   110589   110610   110628   110651 
  110673   110698   110724   110737   110754   110776   110794   110810 
  110824   110837   110851   110853   110851   110853   110853   110853 
  110860   110864   110862   110860   110863   110862   110857   110848 
  110829   110803   110774   110743   110709   110678   110650   110612 
  110571   110535   110489   110446   110408   110357   110301   110253 
  110203   110157   110112   110064   110018   109979   109941   109906 
  109876   109849   109819   109794   109771   109746   109718   109692 
  109674   109660   109649   109642   109641   109642   109645   109649 
  109657   109668   109680   109695   109713   109729   109744   109768 
  109790   109807   109829   109854   109879   109904   109933   109961 
  109992   110018   110041   110061   110074   110092   110114   110128 
  110145   110172   110196   110209   110224   110242   110258   110274 
  110288   110297   110300   110297   110292   110290   110286   110276 
  110262   110253   110239   110222   110203   110185   110170   110147 
  110124   110107   110084   110054   110020   109991   109961   109930 
  109900   109863   109821   109791   109769   109742   109719   109703 
  109687   109672   109665   109660   109657   109659   109663   109665 
  109668   109674   109682   109691   109706   109721   109738   109759 
  109786   109815   109845   109872   109899   109927   109956   109981 
  110008   110029   110043   110062   110081   110101   110124   110150 
  110176   110200   110222   110243   110263   110281   110292   110300 
  110309   110317   110327   110332   110344   110359   110370   110386 
  110409   110420   110425   110438   110447   110455   110465   110473 
  110478   110475   110467   110459   110454   110447   110439   110428 
  110420   110419   110413   110404   110401   110398   110388   110380 
  110371   110362   110355   110343   110330   110326   110326   110322 
  110328   110340   110344   110350   110361   110373   110384   110394 
  110404   110415   110425   110436   110444   110451   110452   110452 
  110452   110455   110459   110458   110454   110458   110459   110457 
  110457   110452   110447   110443   110434   110425   110420   110419 
  110417   110416   110419   110423   110423   110421   110420   110419 
  110420   110420   110416   110412   110412   110409   110401   110398 
  110397   110393   110386   110380   110376   110370   110365   110358 
  110350   110342   110335   110328   110320   110309   110299   110290 
  110281   110268   110255   110239   110222   110214   110208   110199 
  110197   110199   110199   110196   110192   110187   110178   110168 
  110160   110150   110141   110138   110137   110137   110141   110145 
  110145   110142   110141   110139   110134   110127   110120   110111 
  110097   110088   110080   110068   110050   110038   110027   110006 
  109987   109973   109958   109944   109930   109918   109910   109911 
  109917   109925   109937   109952   109971   109992   110014   110042 
  110070   110092   110116   110146   110173   110195   110215   110235 
  110254   110268   110278   110285   110292   110299   110305   110307 
  110300   110290   110278   110265   110249   110231   110212   110195 
  110178   110158   110135   110114   110092   110070   110049   110033 
  110023   110011   109998   109996   109999   110003   110008   110016 
  110025   110030   110041   110058   110066   110074   110088   110100 
  110112   110120   110128   110138   110142   110143   110149   110149 
  110146   110141   110126   110108   110097   110084   110064   110043 
  110023   110003   109981   109957   109935   109919   109906   109898 
  109894   109888   109885   109885   109883   109884   109891   109900 
  109906   109910   109919   109926   109925   109927   109939   109946 
  109953   109965   109976   109979   109985   109992   109995   110000 
  110007   110012   110016   110015   110012   110010   110012   110016 
  110019   110023   110027   110029   110035   110045   110046   110042 
  110041   110043   110045   110047   110054   110062   110072   110080 
  110091   110101   110110   110118   110124   110128   110130   110131 
  110130   110123   110116   110114   110114   110110   110099   110092 
  110096   110097   110091   110087   110089   110089   110088   110087 
  110088   110092   110095   110100   110112   110126   110143   110155 
  110166   110182   110200   110212   110227   110243   110258   110280 
  110303   110320   110336   110350   110361   110366   110370   110377 
  110378   110380   110378   110370   110365   110357   110340   110327 
  110316   110305   110295   110288   110288   110282   110273   110266 
  110268   110270   110276   110285   110295   110300   110308   110320 
  110330   110335   110340   110344   110347   110353   110357   110357 
  110357   110351   110340   110332   110324   110315   110301   110289 
  110282   110269   110254   110249   110245   110239   110232   110227 
  110228   110230   110230   110234   110242   110250   110258   110268 
  110280   110297   110316   110334   110353   110380   110412   110444 
  110470   110493   110516   110538   110558   110578   110590   110602 
  110614   110623   110625   110627   110625   110620   110619   110620 
  110616   110604   110593   110578   110562   110546   110529   110512 
  110489   110469   110450   110428   110404   110381   110361   110334 
  110307   110285   110262   110245   110234   110220   110208   110205 
  110203   110203   110208   110211   110212   110218   110224   110235 
  110249   110265   110284   110308   110327   110342   110367   110394 
  110408   110424   110443   110455   110471   110489   110500   110505 
  110513   110519   110519   110520   110524   110528   110533   110532 
  110524   110520   110516   110501   110485   110473   110459   110446 
  110434   110413   110392   110369   110342   110309   110281   110253 
  110228   110203   110174   110146   110118   110091   110062   110033 
  110003   109980   109961   109942   109919   109903   109894   109884 
  109877   109873   109872   109871   109867   109867   109869   109869 
  109875   109881   109884   109891   109898   109907   109923   109939 
  109957   109977   109996   110020   110052   110079   110099   110116 
  110137   110155   110170   110187   110200   110209   110219   110220 
  110223   110227   110224   110226   110231   110227   110219   110214 
  110208   110205   110204   110204   110205   110204   110204   110212 
  110219   110223   110230   110235   110246   110257   110262   110270 
  110277   110278   110278   110280   110270   110261   110262   110259 
  110250   110251   110258   110255   110258   110265   110268   110274 
  110280   110289   110303   110308   110308   110311   110313   110309 
  110300   110295   110286   110276   110269   110259   110246   110238 
  110230   110222   110215   110211   110209   110208   110207   110209 
  110214   110218   110224   110231   110238   110247   110257   110265 
  110277   110292   110304   110312   110322   110330   110339   110343 
  110340   110335   110335   110335   110324   110311   110304   110289 
  110274   110265   110250   110235   110226   110205   110184   110166 
  110143   110115   110093   110073   110046   110019   109995   109966 
  109942   109925   109910   109894   109877   109863   109849   109838 
  109836   109830   109821   109814   109813   109810   109807   109810 
  109809   109804   109804   109796   109783   109779   109772   109760 
  109755   109746   109738   109736   109738   109741   109746   109756 
  109768   109780   109788   109799   109815   109833   109849   109871 
  109896   109921   109946   109972   109995   110023   110054   110083 
  110114   110154   110193   110224   110251   110272   110290   110313 
  110335   110354   110380   110405   110421   110442   110465   110488 
  110511   110531   110550   110567   110579   110593   110608   110616 
  110624   110631   110639   110646   110650   110652   110656   110662 
  110662   110658   110658   110662   110659   110659   110656   110651 
  110655   110662   110660   110666   110671   110671   110671   110674 
  110683   110695   110697   110697   110702   110700   110695   110693 
  110679   110667   110650   110623   110601   110583   110559   110532 
  110504   110475   110451   110425   110390   110361   110338   110311 
  110285   110258   110226   110197   110172   110146   110120   110096 
  110073   110047   110014   109983   109957   109926   109899   109876 
  109852   109823   109799   109779   109761   109745   109728   109713 
  109699   109686   109674   109657   109636   109617   109601   109583 
  109570   109556   109543   109534   109526   109518   109520   109520 
  109518   109521   109526   109539   109557   109576   109597   109621 
  109651   109679   109706   109741   109777   109804   109833   109872 
  109911   109945   109981   110022   110062   110104   110145   110185 
  110223   110257   110289   110328   110366   110398   110432   110465 
  110490   110520   110552   110577   110598   110617   110631   110641 
  110648   110651   110658   110659   110651   110643   110635   110624 
  110613   110600   110586   110571   110562   110554   110542   110529 
  110517   110508   110502   110494   110481   110473   110463   110452 
  110443   110435   110430   110424   110413   110401   110392   110386 
  110382   110376   110361   110351   110351   110350   110342   110340 
  110344   110344   110342   110343   110347   110351   110357   110361 
  110369   110378   110381   110384   110390   110394   110397   110401 
  110404   110404   110407   110409   110408   110401   110394   110386 
  110377   110362   110346   110328   110305   110282   110259   110230 
  110199   110174   110146   110111   110077   110047   110022   109998 
  109972   109946   109921   109899   109879   109860   109836   109810 
  109791   109773   109756   109740   109722   109710   109701   109687 
  109676   109675   109672   109668   109669   109675   109678   109686 
  109703   109718   109730   109748   109769   109795   109821   109838 
  109857   109881   109903   109925   109945   109962   109980   110000 
  110019   110035   110053   110070   110083   110095   110106   110112 
  110118   110119   110118   110118   110116   110116   110119   110116 
  110108   110101   110099   110095   110087   110073   110061   110052 
  110037   110019   110003   109989   109977   109965   109956   109949 
  109944   109939   109938   109937   109938   109939   109944   109950 
  109957   109960   109965   109976   109984   109995   110006   110014 
  110018   110019   110019   110022   110020   110012   110004   110002 
  109996   109985   109972   109960   109946   109933   109921   109908 
  109891   109872   109856   109838   109822   109804   109786   109773 
  109764   109755   109744   109730   109722   109718   109715   109717 
  109719   109722   109728   109737   109746   109761   109780   109796 
  109810   109833   109858   109876   109894   109917   109939   109961 
  109981   110002   110025   110043   110058   110079   110097   110110 
  110124   110141   110153   110165   110181   110201   110224   110246 
  110266   110290   110316   110340   110366   110392   110417   110447 
  110470   110486   110504   110531   110556   110579   110598   110621 
  110646   110663   110677   110694   110710   110724   110735   110743 
  110752   110758   110763   110770   110771   110770   110767   110767 
  110764   110759   110758   110749   110736   110725   110714   110701 
  110687   110667   110648   110635   110619   110598   110578   110559 
  110543   110529   110516   110497   110481   110473   110465   110455 
  110450   110443   110431   110420   110409   110394   110381   110369 
  110357   110344   110334   110320   110303   110289   110277   110265 
  110253   110242   110230   110220   110215   110215   110209   110199 
  110193   110196   110201   110204   110199   110197   110205   110214 
  110219   110228   110235   110245   110258   110270   110280   110293 
  110307   110316   110323   110328   110330   110332   110334   110332 
  110331   110330   110326   110322   110317   110308   110299   110288 
  110276   110263   110253   110243   110228   110211   110197   110185 
  110169   110154   110139   110130   110123   110114   110104   110099 
  110091   110084   110073   110061   110053   110046   110034   110025 
  110018   110016   110015   110010   110006   110006   110007   110004 
  109998   109996   110002   110002   110002   110003   110002   109999 
  110000   109996   109995   109998   109991   109984   109983   109977 
  109976   109975   109968   109966   109972   109969   109965   109965 
  109968   109965   109962   109961   109961   109956   109953   109958 
  109960   109962   109972   109976   109981   109991   109996   110002 
  110007   110015   110022   110022   110026   110038   110043   110045 
  110050   110057   110062   110074   110083   110087   110097   110108 
  110112   110120   110135   110147   110155   110168   110181   110193 
  110203   110209   110212   110220   110226   110226   110230   110235 
  110235   110236   110239   110239   110246   110251   110249   110246 
  110242   110234   110231   110231   110226   110219   110211   110207 
  110207   110199   110185   110177   110168   110154   110143   110134 
  110127   110115   110099   110089   110080   110069   110065   110064 
  110060   110056   110053   110053   110054   110057   110064   110076 
  110083   110084   110091   110103   110111   110115   110124   110139 
  110151   110162   110174   110187   110200   110215   110232   110247 
  110261   110277   110292   110304   110319   110335   110349   110358 
  110371   110382   110386   110388   110393   110396   110397   110397 
  110392   110389   110385   110377   110369   110359   110350   110338 
  110326   110316   110305   110292   110278   110263   110249   110232 
  110215   110199   110178   110155   110137   110118   110097   110077 
  110058   110039   110025   110011   109993   109979   109973   109966 
  109956   109946   109944   109942   109941   109946   109954   109961 
  109976   109991   110003   110016   110030   110042   110057   110072 
  110088   110108   110122   110135   110155   110176   110191   110207 
  110226   110242   110255   110266   110280   110293   110304   110315 
  110324   110330   110332   110336   110338   110339   110340   110340 
  110339   110342   110343   110343   110343   110343   110340   110343 
