Origin Time       2025/01/13 21:19:00
Lat.              31.8
Long.             131.6
Depth. (km)       30
Mag.              6.9
Station Code      TTRH06
Station Lat.      35.3946
Station Long.     134.1988
Station Height(m) -70
Record Time       2025/01/13 21:21:16
Sampling Freq(Hz) 100Hz
Duration Time(s)  120
Dir.              3
Scale Factor      2942(gal)/8224139
Max. Acc. (gal)   0.399
Last Correction   2025/01/13 21:21:17
Memo.             
[...]
   77400    77404    77400    77396    77398    77398    77395    77386 
   77372    77365    77357    77349    77345    77338    77330    77325 
   77318    77310    77306    77306    77302    77295    77294    77292 
   77286    77282    77282    77280    77278    77275    77275    77278 
   77279    77284    77283    77282    77287    77295    77299    77303 
   77309    77315    77325    77341    77357    77371    77394    77414 
   77427    77440    77456    77471    77480    77490    77500    77508 
   77517    77527    77535    77537    77544    77550    77553    77558 
   77565    77572    77580    77593    77610    77623    77635    77647 
   77657    77665    77676    77685    77691    77703    77718    77726 
   77731    77739    77742    77739    77738    77742    77741    77739 
   77745    77747    77743    77743    77746    77751    77758    77768 
   77776    77780    77784    77787    77784    77777    77772    77769 
   77764    77758    77755    77745    77733    77720    77703    77685 
   77668    77649    77629    77615    77593    77566    77541    77514 
   77483    77453    77423    77398    77375    77350    77326    77303 
   77286    77271    77253    77241    77230    77220    77213    77211 
   77214    77218    77224    77238    77255    77267    77286    77307 
   77326    77349    77372    77383    77392    77406    77414    77418 
   77425    77431    77436    77438    77440    77446    77454    77456 
   77453    77457    77463    77469    77479    77485    77495    77508 
   77519    77526    77539    77556    77572    77589    77606    77620 
   77635    77653    77674    77693    77707    77723    77746    77764 
   77776    77791    77809    77823    77831    77838    77842    77843 
   77843    77842    77839    77832    77823    77816    77812    77804 
   77797    77792    77784    77773    77758    77742    77726    77715 
   77704    77693    77683    77665    77649    77639    77627    77614 
   77607    77604    77593    77581    77576    77575    77576    77577 
   77577    77584    77592    77595    77602    77612    77619    77623 
   77627    77627    77625    77622    77618    77614    77612    77607 
   77596    77587    77576    77562    77549    77535    77521    77507 
   77492    77475    77450    77431    77414    77394    77376    77359 
   77340    77325    77310    77290    77276    77269    77261    77257 
   77257    77256    77256    77263    77269    77279    77286    77294 
   77306    77318    77326    77333    77340    77346    77355    77360 
   77367    77375    77377    77376    77377    77382    77377    77372 
   77372    77369    77367    77367    77363    77357    77357    77359 
   77360    77364    77365    77364    77368    77375    77383    77392 
   77404    77417    77430    77446    77461    77475    77490    77504 
   77515    77522    77530    77539    77550    77561    77571    77576 
   77585    77595    77602    77607    77611    77619    77633    77638 
   77641    77650    77660    77669    77679    77688    77696    77700 
   77699    77697    77700    77704    77711    77715    77711    77711 
   77718    77724    77731    77742    77753    77765    77780    77797 
   77815    77830    77847    77866    77881    77896    77909    77922 
   77931    77939    77946    77950    77953    77954    77950    77944 
   77936    77919    77900    77884    77863    77841    77822    77803 
   77782    77762    77738    77714    77695    77670    77645    77623 
   77602    77579    77556    77539    77527    77512    77498    77484 
   77477    77476    77477    77481    77483    77481    77483    77480 
   77479    77479    77475    77468    77464    77457    77442    77426 
   77410    77392    77375    77355    77330    77305    77283    77260 
   77237    77217    77198    77179    77164    77148    77132    77120 
   77105    77091    77086    77082    77076    77068    77066    77067 
   77064    77064    77068    77071    77074    77083    77095    77105 
   77113    77130    77153    77175    77201    77236    77268    77295 
   77325    77360    77392    77422    77448    77469    77490    77506 
   77518    77526    77533    77533    77529    77525    77518    77507 
   77502    77496    77485    77481    77480    77473    77471    77472 
   77468    77460    77456    77448    77438    77436    77431    77425 
   77421    77419    77417    77418    77423    77426    77423    77421 
   77418    77417    77413    77409    77406    77402    77396    77388 
   77382    77371    77359    77350    77338    77323    77311    77299 
   77288    77276    77260    77247    77238    77230    77221    77213 
   77205    77199    77199    77202    77207    77217    77230    77242 
   77251    77260    77276    77294    77313    77332    77348    77365 
   77384    77403    77421    77434    77448    77458    77464    77471 
   77475    77477    77483    77488    77491    77496    77502    77503 
   77507    77511    77510    77514    77529    77544    77556    77573 
   77588    77604    77626    77642    77652    77661    77670    77674 
   77676    77681    77685    77685    77684    77674    77664    77660 
   77654    77647    77643    77635    77626    77619    77614    77610 
   77604    77602    77600    77599    77603    77612    77618    77622 
   77627    77637    77643    77649    77658    77666    77666    77668 
   77670    77670    77673    77673    77665    77653    77641    77623 
   77600    77580    77560    77538    77518    77500    77484    77464 
   77438    77414    77394    77372    77348    77323    77307    77292 
   77274    77256    77238    77217    77198    77182    77166    77153 
   77143    77129    77113    77103    77101    77097    77095    77101 
   77103    77099    77097    77099    77101    77106    77113    77120 
   77124    77126    77128    77132    77143    77149    77151    77145 
   77137    77130    77124    77117    77105    77086    77068    77049 
   77029    77014    76998    76983    76975    76964    76956    76958 
   76959    76959    76963    76972    76983    76997    77008    77022 
   77043    77064    77089    77117    77147    77172    77202    77238 
   77271    77305    77344    77380    77415    77452    77492    77531 
   77568    77603    77641    77674    77708    77743    77773    77803 
   77838    77868    77899    77934    77961    77982    78009    78031 
   78048    78071    78094    78116    78142    78165    78181    78198 
   78214    78229    78247    78264    78275    78286    78294    78298 
   78304    78308    78304    78298    78294    78287    78283    78282 
   78279    78275    78277    78275    78275    78278    78281    78282 
   78282    78279    78274    78268    78262    78255    78248    78235 
   78217    78204    78189    78175    78162    78140    78116    78094 
   78067    78031    77997    77963    77926    77885    77842    77799 
   77761    77720    77674    77634    77595    77557    77517    77475 
   77440    77413    77387    77367    77349    77329    77317    77311 
   77307    77305    77306    77310    77314    77323    77337    77344 
   77348    77356    77361    77365    77372    77379    77379    77382 
   77383    77383    77383    77387    77394    77398    77399    77400 
   77399    77396    77396    77399    77404    77407    77406    77410 
   77417    77421    77421    77421    77425    77429    77429    77437 
   77448    77452    77461    77473    77481    77494    77508    77522 
   77541    77566    77588    77607    77630    77647    77664    77687 
   77707    77720    77734    77751    77765    77772    77778    77788 
   77797    77808    77814    77815    77820    77826    77827    77828 
   77832    77832    77827    77820    77814    77807    77799    77784 
   77762    77739    77718    77696    77669    77639    77604    77565 
   77529    77492    77457    77427    77399    77372    77349    77326 
   77306    77291    77275    77257    77247    77238    77229    77220 
   77215    77213    77210    77210    77207    77199    77194    77193 
   77191    77186    77182    77175    77163    77149    77141    77132 
   77122    77116    77105    77098    77095    77090    77083    77080 
   77078    77079    77086    77094    77103    77116    77125    77129 
   77134    77144    77156    77168    77176    77180    77188    77198 
   77205    77209    77213    77213    77211    77207    77203    77202 
   77198    77191    77184    77175    77160    77145    77129    77109 
   77086    77062    77037    77013    76986    76956    76928    76901 
   76869    76833    76798    76769    76738    76707    76682    76661 
   76640    76624    76611    76600    76594    76593    76601    76612 
   76621    76643    76675    76708    76742    76778    76819    76862 
   76906    76950    76990    77029    77067    77106    77147    77183 
   77215    77247    77278    77302    77322    77345    77363    77377 
   77391    77400    77410    77422    77430    77436    77440    77444 
   77448    77452    77456    77457    77456    77457    77461    77465 
   77471    77475    77477    77480    77487    77494    77498    77502 
   77506    77508    77515    77518    77521    77523    77527    77530 
   77534    77535    77534    77531    77530    77531    77530    77530 
   77531    77534    77538    77546    77554    77568    77584    77600 
   77619    77641    77664    77693    77722    77755    77797    77838 
   77880    77926    77970    78015    78062    78108    78152    78197 
   78241    78278    78313    78349    78379    78408    78432    78453 
   78474    78491    78501    78509    78518    78520    78517    78517 
   78517    78514    78510    78505    78502    78495    78484    78474 
   78464    78457    78452    78439    78425    78420    78413    78403 
   78391    78379    78367    78354    78340    78327    78305    78278 
   78255    78225    78190    78163    78136    78102    78067    78035 
   78001    77965    77924    77888    77855    77820    77780    77743 
   77708    77674    77645    77618    77585    77557    77533    77506 
   77479    77454    77433    77415    77394    77371    77353    77329 
   77301    77276    77249    77222    77198    77172    77147    77116 
   77082    77049    77017    76982    76950    76920    76885    76847 
   76815    76786    76754    76720    76688    76659    76635    76607 
   76580    76558    76540    76524    76512    76500    76488    76480 
   76472    76468    76469    76472    76478    76489    76504    76518 
   76535    76557    76584    76611    76642    76677    76715    76756 
   76802    76852    76901    76955    77013    77071    77129    77194 
   77263    77329    77394    77460    77525    77588    77656    77722 
   77782    77838    77888    77936    77982    78024    78059    78088 
   78115    78140    78162    78177    78187    78196    78198    78197 
   78196    78189    78182    78177    78170    78158    78144    78124 
   78101    78082    78062    78032    78004    77980    77955    77930 
   77899    77868    77841    77812    77782    77753    77723    77691 
   77660    77630    77593    77558    77530    77503    77480    77458 
   77437    77415    77398    77388    77379    77367    77360    77360 
   77356    77348    77342    77338    77337    77338    77337    77334 
   77332    77326    77321    77315    77306    77298    77286    77264 
   77245    77230    77210    77186    77161    77137    77116    77094 
   77074    77053    77036    77024    77009    76994    76985    76981 
   76978    76978    76981    76982    76986    76995    77006    77018 
   77032    77047    77063    77089    77113    77134    77160    77191 
   77226    77263    77301    77341    77383    77430    77479    77526 
   77575    77623    77672    77719    77769    77819    77865    77905 
   77944    77984    78016    78039    78061    78079    78092    78102 
   78106    78101    78096    78090    78077    78061    78043    78024 
   77997    77963    77928    77896    77862    77824    77785    77747 
   77708    77666    77625    77584    77548    77514    77480    77448 
   77418    77391    77363    77338    77323    77305    77287    77279 
   77275    77269    77263    77256    77252    77242    77234    77233 
   77230    77226    77224    77224    77225    77228    77229    77234 
   77244    77255    77269    77286    77301    77322    77346    77373 
   77403    77433    77464    77492    77521    77552    77587    77618 
   77646    77677    77707    77731    77758    77788    77811    77827 
   77843    77859    77873    77884    77892    77896    77893    77888 
   77884    77876    77865    77854    77843    77832    77820    77805 
   77793    77781    77768    77758    77751    77745    77739    77738 
   77738    77741    77749    77757    77762    77770    77785    77799 
   77809    77826    77845    77862    77880    77896    77913    77936 
   77957    77973    77990    78005    78021    78042    78058    78071 
   78092    78109    78117    78127    78142    78152    78156    78159 
   78159    78154    78146    78138    78128    78113    78094    78075 
   78055    78028    78000    77967    77931    77892    77851    77804 
   77755    77708    77658    77606    77554    77499    77444    77387 
   77326    77268    77213    77153    77094    77039    76983    76928 
   76875    76824    76774    76725    76681    76639    76594    76554 
   76523    76491    76461    76443    76427    76410    76396    76388 
   76384    76384    76388    76396    76410    76426    76447    76472 
   76495    76520    76554    76586    76623    76666    76709    76751 
   76797    76843    76882    76923    76971    77021    77066    77106 
   77151    77194    77236    77276    77313    77346    77379    77407 
   77434    77458    77483    77506    77523    77539    77557    77568 
   77581    77599    77614    77627    77641    77652    77664    77677 
   77693    77712    77724    77741    77760    77776    77793    77815 
   77832    77853    77874    77893    77911    77926    77936    77950 
   77961    77965    77967    77967    77965    77958    77946    77935 
   77917    77892    77868    77845    77815    77784    77754    77722 
   77684    77645    77611    77580    77546    77511    77475    77436 
   77402    77368    77329    77296    77267    77234    77203    77172 
   77143    77114    77082    77055    77031    77006    76982    76958 
   76931    76905    76879    76858    76842    76828    76815    76801 
   76796    76796    76796    76800    76808    76819    76833    76847 
   76866    76893    76920    76950    76977    77004    77036    77074 
   77109    77144    77182    77220    77257    77298    77340    77383 
   77422    77463    77507    77549    77588    77627    77668    77707 
   77742    77776    77808    77841    77872    77900    77926    77943 
   77959    77974    77985    77993    77997    78000    78001    77996 
   77988    77981    77970    77955    77943    77930    77909    77888 
   77868    77849    77831    77805    77781    77766    77751    77734 
   77722    77716    77712    77710    77711    77714    77716    77726 
   77735    77741    77754    77766    77773    77784    77795    77803 
   77807    77807    77801    77795    77782    77766    77749    77730 
   77710    77687    77658    77629    77602    77573    77538    77503 
   77468    77431    77399    77368    77333    77298    77269    77244 
   77220    77197    77179    77166    77153    77144    77140    77136 
   77134    77136    77140    77149    77164    77175    77186    77202 
   77218    77234    77252    77269    77288    77307    77323    77342 
   77360    77368    77372    77380    77392    77399    77403    77414 
   77422    77427    77431    77434    77440    77450    77458    77464 
   77473    77485    77496    77508    77522    77534    77552    77568 
   77584    77608    77633    77654    77680    77704    77731    77761 
   77787    77815    77846    77873    77904    77936    77961    77989 
   78019    78046    78071    78094    78109    78125    78139    78151 
   78163    78175    78185    78190    78190    78190    78190    78187 
   78182    78174    78167    78152    78133    78117    78100    78073 
   78046    78019    77986    77950    77911    77869    77826    77781 
   77734    77680    77626    77571    77510    77453    77395    77336 
   77282    77228    77168    77114    77067    77017    76966    76921 
   76881    76844    76812    76781    76755    76734    76709    76689 
   76675    76661    76651    76647    76640    76636    76638    76638 
   76635    76635    76634    76628    76626    76628    76634    76642 
   76654    76666    76684    76704    76721    76748    76783    76816 
   76848    76889    76933    76981    77035    77089    77140    77190 
   77251    77309    77361    77422    77480    77533    77584    77633 
   77674    77719    77761    77793    77823    77850    77870    77888 
   77903    77915    77924    77935    77939    77939    77940    77942 
   77942    77943    77942    77939    77934    77924    77922    77917 
   77904    77897    77890    77878    77865    77855    77846    77836 
   77828    77823    77814    77797    77785    77774    77764    77753 
   77742    77734    77727    77718    77707    77697    77685    77670 
   77660    77649    77637    77630    77623    77611    77596    77584 
   77572    77562    77554    77546    77537    77526    77514    77504 
   77494    77481    77469    77456    77442    77423    77406    77392 
   77382    77368    77356    77340    77321    77307    77302    77291 
   77280    77278    77278    77274    77274    77282    77291    77299 
   77309    77319    77336    77352    77368    77384    77404    77423 
   77441    77460    77479    77499    77525    77544    77556    77575 
   77591    77604    77626    77642    77654    77672    77688    77696 
   77708    77720    77727    77730    77738    77746    77742    77738 
   77735    77726    77716    77710    77699    77685    77674    77656 
   77634    77619    77599    77572    77550    77527    77499    77471 
   77448    77426    77404    77380    77357    77338    77319    77302 
   77288    77276    77265    77259    77259    77257    77252    77253 
   77261    77267    77269    77278    77291    77299    77309    77325 
   77340    77353    77365    77384    77404    77422    77438    77456 
   77475    77494    77506    77517    77533    77549    77561    77573 
   77584    77595    77608    77622    77631    77641    77650    77657 
   77662    77668    77673    77674    77672    77666    77668    77668 
   77669    77670    77666    77661    77658    77658    77660    77662 
   77662    77664    77665    77666    77669    77670    77669    77666 
   77661    77650    77641    77629    77612    77592    77571    77546 
   77522    77491    77457    77427    77392    77352    77317    77278 
   77233    77191    77147    77101    77059    77020    76977    76932 
   76894    76856    76816    76781    76750    76717    76692    76667 
   76643    76630    76621    76613    76609    76616    76628    76643 
   76662    76680    76704    76742    76778    76812    76850    76890 
   76931    76977    77020    77064    77117    77166    77211    77260 
   77309    77353    77395    77436    77477    77517    77553    77588 
