Origin Time       2025/01/13 21:19:00
Lat.              31.8
Long.             131.6
Depth. (km)       30
Mag.              6.9
Station Code      TTRH01
Station Lat.      35.2604
Station Long.     134.2173
Station Height(m) 30
Record Time       2025/01/13 21:21:12
Sampling Freq(Hz) 100Hz
Duration Time(s)  120
Dir.              2
Scale Factor      2942(gal)/8224139
Max. Acc. (gal)   0.493
Last Correction   2025/01/13 21:21:12
Memo.             
[...]
  146897   146911   146923   146931   146935   146938   146935   146931 
  146931   146929   146932   146939   146948   146961   146989   147019 
  147035   147042   147047   147047   147043   147039   147040   147046 
  147048   147039   147016   146993   146975   146951   146925   146913 
  146915   146916   146928   146950   146963   146970   146977   146978 
  146977   146971   146969   146969   146962   146952   146951   146950 
  146946   146944   146944   146946   146946   146946   146951   146962 
  146974   146992   147020   147047   147067   147083   147097   147105 
  147109   147112   147105   147090   147073   147059   147052   147051 
  147052   147051   147046   147044   147042   147036   147040   147048 
  147054   147056   147054   147048   147051   147052   147050   147042 
  147027   147009   146990   146982   146982   146982   146988   146993 
  146994   146996   146992   146982   146979   146979   146974   146965 
  146958   146959   146958   146952   146954   146963   146970   146977 
  146988   146990   146986   146979   146966   146946   146929   146921 
  146916   146909   146908   146913   146920   146921   146920   146919 
  146916   146919   146928   146938   146942   146947   146959   146979 
  147002   147027   147046   147059   147073   147090   147108   147124 
  147135   147143   147148   147145   147140   147136   147128   147120 
  147116   147109   147094   147077   147067   147062   147059   147058 
  147059   147062   147073   147091   147112   147121   147123   147128 
  147133   147137   147139   147139   147133   147128   147124   147123 
  147128   147139   147143   147139   147137   147140   147145   147150 
  147151   147143   147131   147120   147104   147086   147073   147060 
  147039   147020   147006   147000   146998   146997   146996   147000 
  147008   147017   147032   147042   147040   147037   147031   147023 
  147017   147005   146994   146996   147005   147013   147013   147010 
  147009   147002   146997   146998   146996   146988   146977   146969 
  146966   146965   146962   146965   146967   146967   146971   146978 
  146981   146983   146982   146979   146978   146979   146982   146990 
  146992   146983   146983   146993   147002   147005   147006   147013 
  147024   147032   147036   147044   147051   147052   147054   147054 
  147046   147031   147017   147005   146990   146979   146978   146985 
  146990   146993   146994   146996   146997   147004   147006   147002 
  147002   147002   147004   147008   147005   146996   146989   146986 
  146985   146981   146970   146958   146947   146940   146936   146934 
  146934   146936   146944   146962   146978   146992   147000   147001 
  146996   146986   146975   146966   146965   146963   146958   146958 
  146963   146970   146977   146982   146990   146996   146996   147002 
  147015   147025   147033   147040   147044   147048   147054   147059 
  147063   147063   147059   147059   147056   147047   147036   147025 
  147009   146996   146985   146975   146975   146978   146975   146979 
  146990   146998   147005   147009   147010   147004   146998   146998 
  146996   146989   146979   146969   146966   146967   146966   146967 
  146979   146994   147001   147002   146996   146982   146970   146963 
  146956   146943   146932   146927   146921   146916   146915   146912 
  146909   146908   146909   146909   146911   146912   146912   146907 
  146892   146882   146885   146885   146881   146871   146865   146866 
  146870   146875   146884   146896   146911   146921   146931   146946 
  146961   146973   146983   146992   146996   147002   147008   147013 
  147015   147013   147017   147024   147031   147046   147064   147078 
  147085   147086   147086   147086   147083   147085   147090   147093 
  147087   147081   147071   147059   147040   147010   146989   146979 
  146969   146965   146970   146977   146977   146977   146974   146970 
  146965   146966   146971   146967   146956   146951   146950   146948 
  146950   146951   146950   146943   146932   146923   146911   146890 
  146866   146840   146820   146805   146797   146794   146797   146803 
  146813   146826   146840   146855   146867   146880   146889   146890 
  146890   146889   146886   146886   146897   146908   146920   146936 
  146950   146961   146970   146975   146983   146997   147010   147017 
  147021   147025   147028   147027   147023   147020   147019   147019 
  147020   147025   147029   147028   147029   147035   147043   147048 
  147046   147039   147039   147037   147031   147025   147019   147006 
  147001   146997   146994   147001   147015   147021   147023   147025 
  147032   147039   147036   147029   147023   147012   146997   146979 
  146967   146963   146959   146955   146955   146952   146952   146959 
  146969   146978   146986   146989   146990   146993   146993   146986 
  146977   146969   146959   146943   146924   146913   146915   146913 
  146915   146916   146919   146925   146928   146927   146931   146938 
  146939   146940   146947   146951   146948   146950   146951   146950 
  146952   146956   146958   146956   146955   146954   146954   146952 
  146948   146940   146931   146925   146927   146934   146940   146946 
  146956   146969   146979   146989   146993   146993   146994   146997 
  146998   146994   146988   146979   146969   146956   146950   146947 
  146943   146946   146947   146947   146951   146952   146950   146950 
  146951   146955   146962   146970   146973   146971   146973   146971 
  146971   146975   146971   146963   146965   146965   146955   146947 
  146940   146938   146932   146921   146913   146917   146919   146913 
  146913   146913   146905   146893   146885   146873   146857   146838 
  146823   146812   146804   146796   146793   146785   146776   146769 
  146762   146754   146750   146747   146746   146750   146754   146755 
  146761   146774   146786   146799   146813   146828   146843   146858 
  146877   146896   146908   146916   146924   146928   146927   146928 
  146932   146931   146929   146928   146928   146934   146940   146942 
  146944   146948   146944   146944   146954   146959   146959   146959 
  146961   146965   146973   146979   146981   146985   146993   147001 
  147010   147020   147032   147043   147056   147073   147082   147091 
  147100   147101   147102   147104   147104   147100   147093   147091 
  147091   147089   147096   147100   147096   147097   147101   147102 
  147104   147104   147102   147108   147114   147118   147124   147135 
  147145   147156   147163   147163   147166   147177   147178   147175 
  147175   147172   147172   147174   147175   147172   147170   147167 
  147159   147147   147135   147118   147104   147096   147087   147077 
  147073   147071   147069   147066   147064   147067   147070   147071 
  147074   147073   147066   147062   147060   147059   147058   147060 
  147069   147075   147082   147087   147091   147093   147089   147078 
  147069   147060   147056   147054   147051   147047   147040   147029 
  147017   147004   146986   146970   146955   146938   146921   146904 
  146885   146865   146844   146834   146827   146821   146823   146830 
  146839   146847   146857   146870   146882   146890   146896   146902 
  146909   146909   146905   146905   146911   146912   146917   146925 
  146928   146929   146938   146943   146944   146951   146961   146965 
  146965   146967   146969   146967   146970   146975   146981   146982 
  146981   146982   146983   146977   146970   146965   146959   146956 
  146954   146952   146952   146948   146946   146950   146956   146954 
  146944   146932   146919   146911   146905   146894   146885   146877 
  146869   146858   146847   146840   146838   146832   146819   146809 
  146809   146811   146811   146812   146811   146813   146823   146834 
  146847   146863   146878   146893   146908   146924   146940   146959 
  146979   146998   147020   147047   147069   147090   147112   147131 
  147155   147186   147214   147237   147258   147278   147298   147322 
  147349   147375   147397   147415   147437   147457   147476   147494 
  147509   147517   147522   147533   147541   147545   147557   147571 
  147580   147591   147602   147611   147623   147636   147646   147656 
  147663   147671   147671   147658   147645   147633   147610   147579 
  147553   147525   147491   147463   147429   147394   147370   147344 
  147309   147276   147237   147195   147151   147102   147051   147000 
  146948   146898   146846   146792   146743   146695   146643   146597 
  146551   146506   146462   146418   146379   146349   146322   146288 
  146254   146227   146200   146168   146142   146122   146101   146083 
  146068   146051   146037   146029   146024   146024   146024   146028 
  146036   146045   146060   146079   146094   146109   146125   146145 
  146167   146191   146214   146238   146267   146296   146327   146364 
  146399   146431   146461   146493   146531   146560   146583   146610 
  146638   146661   146685   146711   146738   146765   146789   146809 
  146824   146838   146853   146867   146878   146892   146907   146923 
  146940   146961   146988   147012   147036   147064   147089   147114 
  147144   147171   147197   147226   147252   147274   147297   147320 
  147337   147352   147372   147391   147411   147432   147453   147478 
  147498   147514   147536   147555   147565   147580   147591   147592 
  147592   147590   147580   147571   147559   147544   147532   147517 
  147499   147487   147474   147456   147440   147428   147415   147406 
  147394   147378   147359   147347   147332   147310   147295   147280 
  147264   147253   147239   147221   147208   147193   147177   147163 
  147148   147135   147125   147112   147096   147085   147070   147051 
  147040   147025   147006   146990   146975   146955   146932   146912 
  146890   146862   146836   146816   146796   146774   146757   146743 
  146723   146697   146669   146642   146611   146576   146546   146520 
  146487   146450   146422   146395   146365   146344   146325   146302 
  146283   146265   146244   146223   146205   146188   146173   146160 
  146152   146145   146140   146141   146144   146144   146144   146152 
  146161   146171   146186   146207   146229   146253   146284   146314 
  146342   146375   146408   146442   146477   146508   146542   146580 
  146614   146645   146678   146713   146749   146777   146805   146840 
  146874   146901   146928   146956   146982   147010   147047   147082 
  147113   147148   147189   147232   147276   147316   147352   147383 
  147406   147425   147441   147455   147465   147478   147490   147496 
  147502   147514   147526   147538   147555   147572   147587   147603 
  147623   147642   147658   147680   147703   147729   147752   147771 
  147793   147814   147831   147847   147858   147864   147870   147872 
  147866   147865   147865   147861   147853   147847   147841   147835 
  147831   147822   147806   147793   147781   147765   147745   147723 
  147698   147668   147638   147609   147575   147541   147507   147465 
  147420   147379   147337   147294   147252   147214   147179   147145 
  147112   147078   147052   147032   147009   146989   146970   146952 
  146940   146928   146913   146905   146901   146896   146897   146900 
  146898   146902   146912   146919   146925   146938   146954   146965 
  146970   146979   146989   146993   146997   147000   146994   146986 
  146979   146971   146966   146963   146959   146952   146950   146951 
  146947   146944   146943   146939   146931   146925   146919   146912 
  146907   146894   146882   146873   146862   146853   146847   146843 
  146842   146838   146839   146844   146847   146854   146867   146880 
  146889   146898   146904   146907   146912   146917   146919   146915 
  146911   146912   146909   146901   146894   146886   146875   146873 
  146877   146880   146892   146907   146920   146939   146959   146978 
  147000   147015   147021   147031   147043   147050   147050   147050 
  147050   147042   147032   147021   147005   146983   146962   146939 
  146911   146885   146866   146846   146827   146813   146801   146794 
  146792   146789   146793   146797   146800   146808   146817   146827 
  146835   146839   146844   146848   146848   146855   146862   146865 
  146867   146867   146865   146862   146861   146855   146851   146850 
  146850   146847   146843   146835   146823   146808   146790   146770 
  146746   146722   146696   146668   146643   146612   146574   146547 
  146524   146499   146470   146438   146408   146381   146352   146326 
  146307   146288   146276   146268   146259   146248   146238   146226 
  146214   146205   146194   146176   146156   146137   146117   146101 
  146088   146078   146068   146064   146065   146078   146091   146105 
  146124   146146   146173   146206   146245   146283   146326   146376 
  146430   146489   146546   146601   146661   146722   146781   146844 
  146904   146962   147017   147074   147133   147189   147237   147287 
  147333   147372   147413   147452   147488   147518   147540   147559 
  147580   147596   147610   147625   147637   147641   147641   147637 
  147627   147614   147599   147577   147552   147522   147488   147449 
  147406   147359   147314   147266   147213   147166   147110   147047 
  146988   146924   146851   146778   146708   146631   146550   146475 
  146400   146322   146244   146173   146105   146030   145960   145899 
  145840   145782   145731   145685   145651   145625   145605   145594 
  145594   145600   145611   145631   145659   145693   145732   145778 
  145827   145883   145949   146016   146082   146152   146225   146292 
  146353   146412   146475   146531   146584   146630   146673   146715 
  146757   146793   146830   146865   146900   146936   146970   147000 
  147031   147059   147075   147087   147102   147113   147113   147112 
  147109   147105   147101   147093   147081   147067   147048   147025 
  147002   146979   146956   146931   146904   146880   146854   146832 
  146813   146792   146773   146758   146742   146727   146711   146695 
  146682   146672   146662   146657   146657   146661   146670   146682 
  146696   146712   146732   146754   146777   146804   146834   146866 
  146900   146935   146967   147002   147039   147077   147114   147156 
  147195   147231   147267   147305   147341   147383   147429   147469 
  147511   147555   147590   147631   147680   147718   147756   147802 
  147842   147880   147918   147951   147984   148015   148042   148065 
  148085   148100   148111   148119   148119   148116   148120   148120 
  148116   148113   148101   148081   148061   148038   148007   147977 
  147945   147910   147870   147822   147772   147721   147661   147600 
  147540   147478   147418   147355   147291   147233   147177   147118 
  147067   147020   146971   146924   146878   146830   146784   146746 
  146711   146676   146647   146623   146601   146587   146573   146558 
  146547   146543   146535   146524   146519   146516   146511   146502 
  146493   146488   146483   146477   146473   146469   146468   146469 
  146469   146468   146469   146479   146485   146491   146506   146523 
  146538   146564   146588   146614   146647   146678   146709   146749 
  146784   146813   146847   146873   146889   146912   146935   146951 
  146969   146986   147000   147010   147017   147024   147028   147031 
  147040   147048   147054   147062   147070   147082   147098   147113 
  147128   147147   147167   147185   147199   147214   147231   147251 
  147268   147279   147290   147299   147305   147313   147322   147329 
  147336   147340   147340   147339   147336   147332   147330   147330 
  147330   147330   147325   147318   147312   147302   147290   147278 
  147267   147255   147245   147235   147217   147204   147193   147178 
  147166   147160   147152   147143   147137   147128   147117   147102 
  147085   147067   147050   147028   147005   146981   146961   146943 
  146920   146892   146867   146844   146815   146786   146761   146735 
  146715   146701   146693   146689   146688   146689   146696   146707 
  146719   146736   146758   146782   146803   146821   146846   146871 
  146894   146917   146946   146974   147002   147031   147055   147082 
  147101   147110   147121   147131   147132   147133   147132   147124 
  147109   147100   147091   147071   147050   147039   147025   147008 
  146992   146967   146935   146905   146869   146827   146789   146754 
  146716   146677   146639   146601   146562   146523   146487   146454 
  146421   146384   146352   146322   146292   146264   146236   146215 
  146203   146195   146192   146196   146202   146206   146210   146219 
  146238   146259   146280   146313   146346   146379   146419   146461 
  146500   146542   146588   146631   146677   146724   146765   146812 
  146863   146909   146958   147015   147063   147106   147150   147198 
  147244   147286   147328   147374   147418   147459   147503   147549 
  147588   147630   147672   147708   147742   147773   147799   147818 
  147831   147843   147847   147845   147838   147825   147804   147781 
  147753   147718   147677   147637   147594   147546   147501   147451 
  147397   147344   147289   147225   147159   147091   147028   146966 
  146896   146828   146767   146705   146645   146588   146533   146483 
  146438   146395   146361   146335   146313   146295   146290   146290 
  146290   146298   146313   146327   146349   146371   146391   146422 
  146452   146481   146512   146542   146572   146607   146638   146665 
  146697   146734   146765   146793   146823   146853   146878   146901 
  146928   146958   146988   147010   147031   147056   147082   147100 
  147117   147135   147150   147163   147179   147193   147209   147226 
  147245   147270   147298   147324   147353   147387   147417   147452 
  147494   147533   147568   147602   147631   147656   147676   147691 
  147706   147717   147719   147723   147729   147730   147726   147721 
  147712   147700   147680   147657   147631   147596   147559   147522 
  147486   147445   147398   147351   147307   147263   147218   147170 
  147120   147070   147023   146977   146934   146893   146855   146817 
  146777   146738   146700   146669   146641   146612   146587   146565 
  146545   146529   146516   146504   146491   146476   146465   146457 
  146446   146435   146423   146410   146400   146395   146394   146394 
  146389   146388   146387   146391   146406   146423   146438   146461 
  146489   146523   146558   146596   146642   146686   146728   146772 
  146817   146858   146894   146932   146971   147008   147033   147051 
  147067   147078   147082   147085   147085   147079   147073   147067 
  147056   147040   147028   147015   146994   146977   146963   146954 
  146946   146935   146932   146934   146932   146932   146936   146938 
  146939   146946   146952   146961   146970   146985   147004   147021 
  147043   147069   147096   147123   147148   147177   147209   147237 
  147258   147276   147295   147310   147320   147329   147334   147339 
  147340   147336   147334   147332   147320   147309   147298   147282 
  147268   147256   147243   147233   147220   147201   147186   147172 
  147145   147116   147086   147058   147027   146996   146969   146936 
