Origin Time       2025/01/13 21:19:00
Lat.              31.8
Long.             131.6
Depth. (km)       30
Mag.              6.9
Station Code      TTRH01
Station Lat.      35.2604
Station Long.     134.2173
Station Height(m) 30
Record Time       2025/01/13 21:21:12
Sampling Freq(Hz) 100Hz
Duration Time(s)  120
Dir.              1
Scale Factor      2942(gal)/8224139
Max. Acc. (gal)   0.383
Last Correction   2025/01/13 21:21:12
Memo.             
[...]
  -45125   -45138   -45156   -45165   -45172   -45176   -45171   -45165 
  -45171   -45177   -45187   -45202   -45218   -45230   -45242   -45252 
  -45256   -45257   -45260   -45265   -45266   -45273   -45288   -45306 
  -45320   -45331   -45341   -45350   -45354   -45361   -45370   -45376 
  -45378   -45384   -45392   -45401   -45408   -45416   -45423   -45423 
  -45419   -45414   -45409   -45404   -45399   -45399   -45401   -45401 
  -45400   -45396   -45396   -45397   -45395   -45395   -45399   -45396 
  -45393   -45393   -45389   -45384   -45382   -45380   -45376   -45365 
  -45354   -45342   -45320   -45300   -45281   -45261   -45241   -45229 
  -45216   -45203   -45192   -45181   -45173   -45166   -45160   -45152 
  -45144   -45135   -45135   -45137   -45135   -45142   -45160   -45169 
  -45171   -45176   -45183   -45188   -45189   -45191   -45192   -45195 
  -45198   -45200   -45202   -45202   -45207   -45215   -45225   -45241 
  -45250   -45253   -45260   -45268   -45270   -45269   -45268   -45264 
  -45258   -45253   -45252   -45249   -45245   -45239   -45237   -45235 
  -45238   -45243   -45253   -45264   -45276   -45287   -45295   -45297 
  -45292   -45285   -45281   -45262   -45239   -45226   -45210   -45188 
  -45175   -45161   -45142   -45131   -45131   -45130   -45129   -45133 
  -45134   -45130   -45127   -45123   -45117   -45108   -45103   -45095 
  -45084   -45083   -45088   -45090   -45095   -45108   -45121   -45127 
  -45131   -45130   -45122   -45119   -45121   -45123   -45131   -45139 
  -45148   -45156   -45162   -45173   -45185   -45198   -45210   -45226 
  -45243   -45260   -45276   -45288   -45301   -45319   -45331   -45343 
  -45357   -45370   -45385   -45399   -45409   -45422   -45430   -45434 
  -45438   -45439   -45441   -45439   -45430   -45414   -45391   -45368 
  -45353   -45342   -45333   -45324   -45318   -45312   -45306   -45303 
  -45299   -45288   -45279   -45272   -45257   -45245   -45242   -45238 
  -45235   -45234   -45230   -45226   -45218   -45210   -45204   -45196 
  -45177   -45160   -45148   -45137   -45129   -45126   -45119   -45114 
  -45108   -45102   -45096   -45092   -45088   -45090   -45096   -45106 
  -45119   -45130   -45139   -45148   -45156   -45165   -45175   -45177 
  -45179   -45183   -45185   -45189   -45192   -45195   -45200   -45207 
  -45212   -45218   -45225   -45238   -45256   -45266   -45274   -45281 
  -45289   -45301   -45311   -45315   -45316   -45315   -45308   -45299 
  -45281   -45262   -45242   -45219   -45206   -45196   -45183   -45169 
  -45162   -45162   -45165   -45165   -45171   -45177   -45185   -45188 
  -45187   -45187   -45185   -45179   -45177   -45177   -45171   -45166 
  -45161   -45152   -45142   -45130   -45121   -45119   -45117   -45117 
  -45125   -45127   -45131   -45146   -45162   -45177   -45199   -45226 
  -45252   -45277   -45301   -45324   -45343   -45362   -45385   -45407 
  -45423   -45439   -45451   -45454   -45453   -45443   -45431   -45418 
  -45401   -45393   -45391   -45382   -45368   -45351   -45337   -45322 
  -45311   -45304   -45293   -45292   -45297   -45297   -45300   -45310 
  -45315   -45318   -45322   -45318   -45308   -45301   -45299   -45293 
  -45291   -45295   -45299   -45297   -45288   -45273   -45258   -45246 
  -45229   -45206   -45191   -45184   -45175   -45165   -45161   -45156 
  -45148   -45139   -45135   -45133   -45130   -45127   -45129   -45134 
  -45137   -45133   -45131   -45129   -45117   -45110   -45107   -45103 
  -45098   -45088   -45077   -45075   -45073   -45072   -45069   -45073 
  -45081   -45090   -45100   -45112   -45126   -45144   -45162   -45177 
  -45195   -45211   -45220   -45231   -45242   -45249   -45262   -45283 
  -45297   -45311   -45330   -45343   -45355   -45370   -45385   -45404 
  -45423   -45436   -45447   -45453   -45451   -45451   -45457   -45458 
  -45453   -45457   -45466   -45463   -45459   -45458   -45449   -45438 
  -45432   -45428   -45422   -45412   -45397   -45382   -45369   -45353 
  -45335   -45322   -45307   -45296   -45289   -45285   -45284   -45285 
  -45287   -45284   -45283   -45285   -45284   -45274   -45264   -45257 
  -45249   -45241   -45238   -45230   -45216   -45203   -45189   -45172 
  -45161   -45152   -45137   -45122   -45107   -45094   -45083   -45079 
  -45079   -45079   -45080   -45081   -45087   -45095   -45103   -45108 
  -45117   -45125   -45129   -45135   -45141   -45146   -45150   -45156 
  -45161   -45165   -45161   -45153   -45148   -45135   -45126   -45122 
  -45112   -45106   -45099   -45088   -45079   -45072   -45069   -45068 
  -45071   -45073   -45075   -45075   -45076   -45072   -45063   -45061 
  -45060   -45050   -45044   -45036   -45021   -45015   -45011   -45002 
  -44998   -44998   -44995   -44995   -44999   -45002   -45010   -45018 
  -45025   -45036   -45046   -45056   -45069   -45085   -45103   -45121 
  -45133   -45152   -45172   -45183   -45196   -45211   -45222   -45237 
  -45257   -45272   -45281   -45291   -45303   -45314   -45323   -45334 
  -45346   -45361   -45384   -45414   -45447   -45485   -45524   -45562 
  -45597   -45628   -45658   -45688   -45716   -45743   -45769   -45792 
  -45813   -45835   -45855   -45877   -45891   -45906   -45917   -45921 
  -45921   -45920   -45913   -45906   -45897   -45883   -45866   -45847 
  -45827   -45804   -45779   -45754   -45728   -45706   -45681   -45651 
  -45625   -45603   -45573   -45540   -45508   -45472   -45432   -45396 
  -45364   -45331   -45304   -45272   -45238   -45210   -45179   -45139 
  -45100   -45057   -45014   -44979   -44944   -44907   -44875   -44849 
  -44826   -44803   -44784   -44760   -44734   -44714   -44698   -44678 
  -44655   -44640   -44629   -44612   -44598   -44589   -44574   -44560 
  -44551   -44544   -44537   -44531   -44527   -44525   -44523   -44521 
  -44529   -44537   -44544   -44548   -44552   -44560   -44563   -44566 
  -44577   -44593   -44610   -44626   -44644   -44664   -44683   -44707 
  -44730   -44753   -44782   -44801   -44817   -44844   -44872   -44898 
  -44928   -44959   -44987   -45021   -45063   -45103   -45139   -45176 
  -45216   -45261   -45300   -45334   -45366   -45403   -45443   -45478 
  -45505   -45534   -45561   -45574   -45584   -45592   -45597   -45597 
  -45598   -45598   -45596   -45592   -45585   -45580   -45574   -45566 
  -45563   -45562   -45557   -45558   -45554   -45544   -45538   -45524 
  -45511   -45497   -45482   -45470   -45458   -45438   -45420   -45411 
  -45401   -45389   -45377   -45366   -45351   -45333   -45319   -45310 
  -45303   -45296   -45292   -45289   -45285   -45279   -45270   -45268 
  -45265   -45264   -45264   -45264   -45268   -45276   -45280   -45283 
  -45289   -45296   -45296   -45297   -45299   -45299   -45297   -45295 
  -45289   -45287   -45281   -45270   -45260   -45250   -45237   -45220 
  -45199   -45171   -45142   -45115   -45092   -45072   -45052   -45037 
  -45017   -45002   -44998   -44992   -44980   -44965   -44953   -44934 
  -44915   -44898   -44880   -44861   -44840   -44824   -44809   -44794 
  -44779   -44772   -44770   -44764   -44760   -44756   -44751   -44748 
  -44747   -44748   -44749   -44749   -44749   -44751   -44748   -44748 
  -44756   -44771   -44784   -44799   -44820   -44840   -44857   -44878 
  -44902   -44930   -44965   -45000   -45030   -45063   -45096   -45130 
  -45164   -45198   -45238   -45281   -45316   -45345   -45374   -45401 
  -45432   -45458   -45480   -45509   -45538   -45553   -45565   -45574 
  -45580   -45585   -45586   -45582   -45580   -45576   -45573   -45571 
  -45561   -45554   -45554   -45549   -45547   -45547   -45540   -45540 
  -45543   -45542   -45549   -45561   -45569   -45576   -45582   -45585 
  -45588   -45593   -45594   -45594   -45596   -45596   -45592   -45588 
  -45580   -45566   -45550   -45535   -45519   -45503   -45485   -45470 
  -45454   -45430   -45412   -45397   -45376   -45358   -45349   -45338 
  -45328   -45324   -45322   -45316   -45316   -45319   -45322   -45334 
  -45346   -45362   -45380   -45392   -45407   -45422   -45430   -45443 
  -45454   -45454   -45454   -45454   -45451   -45451   -45454   -45457 
  -45457   -45454   -45457   -45454   -45441   -45434   -45432   -45423 
  -45415   -45414   -45405   -45391   -45381   -45370   -45357   -45341 
  -45322   -45301   -45284   -45268   -45253   -45241   -45222   -45202 
  -45189   -45177   -45160   -45141   -45125   -45107   -45088   -45067 
  -45045   -45025   -45000   -44973   -44956   -44940   -44922   -44909 
  -44899   -44894   -44888   -44888   -44894   -44903   -44918   -44940 
  -44964   -44991   -45011   -45036   -45067   -45094   -45121   -45154 
  -45184   -45214   -45254   -45292   -45328   -45370   -45412   -45445 
  -45469   -45492   -45511   -45527   -45540   -45553   -45562   -45576 
  -45589   -45596   -45605   -45621   -45632   -45639   -45651   -45659 
  -45663   -45669   -45675   -45684   -45690   -45698   -45702   -45702 
  -45700   -45698   -45697   -45690   -45681   -45671   -45657   -45638 
  -45619   -45603   -45580   -45549   -45522   -45499   -45472   -45451 
  -45435   -45422   -45416   -45412   -45407   -45403   -45393   -45388 
  -45389   -45395   -45403   -45409   -45420   -45436   -45451   -45457 
  -45462   -45466   -45465   -45462   -45455   -45439   -45423   -45407 
  -45387   -45364   -45342   -45320   -45292   -45265   -45242   -45212 
  -45180   -45153   -45123   -45091   -45060   -45027   -44990   -44953 
  -44921   -44887   -44851   -44814   -44774   -44733   -44691   -44649 
  -44609   -44566   -44523   -44485   -44455   -44431   -44409   -44393 
  -44382   -44375   -44377   -44374   -44366   -44362   -44367   -44374 
  -44385   -44402   -44423   -44444   -44466   -44493   -44521   -44550 
  -44581   -44612   -44645   -44682   -44717   -44752   -44798   -44847 
  -44892   -44944   -44998   -45046   -45099   -45158   -45214   -45266 
  -45318   -45372   -45422   -45466   -45505   -45540   -45571   -45592 
  -45604   -45619   -45630   -45632   -45632   -45630   -45619   -45607 
  -45594   -45574   -45553   -45532   -45508   -45481   -45455   -45428 
  -45397   -45362   -45330   -45297   -45265   -45235   -45203   -45166 
  -45131   -45098   -45063   -45025   -44991   -44957   -44918   -44884 
  -44852   -44813   -44776   -44743   -44705   -44674   -44647   -44622 
  -44599   -44579   -44564   -44556   -44551   -44550   -44550   -44550 
  -44552   -44559   -44563   -44568   -44582   -44594   -44602   -44614 
  -44626   -44636   -44649   -44664   -44672   -44682   -44695   -44707 
  -44718   -44732   -44745   -44761   -44778   -44801   -44821   -44838 
  -44863   -44892   -44923   -44955   -44987   -45017   -45050   -45081 
  -45100   -45119   -45139   -45153   -45164   -45173   -45177   -45184 
  -45189   -45193   -45200   -45211   -45223   -45233   -45242   -45253 
  -45262   -45270   -45277   -45281   -45284   -45285   -45281   -45274 
  -45266   -45256   -45243   -45227   -45207   -45185   -45162   -45139 
  -45118   -45102   -45090   -45077   -45063   -45048   -45038   -45030 
  -45022   -45018   -45018   -45018   -45019   -45029   -45037   -45044 
  -45053   -45063   -45069   -45076   -45083   -45085   -45092   -45104 
  -45111   -45114   -45123   -45131   -45137   -45148   -45160   -45173 
  -45189   -45207   -45225   -45246   -45272   -45303   -45341   -45377 
  -45411   -45445   -45480   -45512   -45546   -45581   -45616   -45650 
  -45679   -45711   -45740   -45762   -45782   -45804   -45820   -45836 
  -45854   -45864   -45875   -45883   -45882   -45882   -45883   -45882 
  -45879   -45875   -45875   -45881   -45877   -45868   -45855   -45833 
  -45809   -45779   -45744   -45708   -45666   -45620   -45573   -45528 
  -45482   -45434   -45389   -45345   -45300   -45260   -45219   -45177 
  -45135   -45094   -45053   -45014   -44976   -44940   -44905   -44878 
  -44851   -44814   -44784   -44761   -44736   -44710   -44689   -44664 
  -44637   -44616   -44593   -44568   -44554   -44541   -44527   -44513 
  -44508   -44500   -44493   -44496   -44500   -44501   -44504   -44517 
  -44531   -44548   -44570   -44597   -44628   -44660   -44691   -44728 
  -44774   -44825   -44879   -44940   -45002   -45057   -45111   -45165 
  -45218   -45266   -45319   -45372   -45418   -45461   -45505   -45546 
  -45581   -45615   -45643   -45669   -45697   -45720   -45735   -45755 
  -45778   -45792   -45805   -45817   -45825   -45835   -45844   -45850 
  -45851   -45852   -45855   -45856   -45855   -45852   -45850   -45839 
  -45824   -45812   -45798   -45778   -45755   -45731   -45700   -45667 
  -45635   -45597   -45557   -45516   -45472   -45423   -45378   -45333 
  -45281   -45237   -45195   -45150   -45110   -45076   -45041   -45011 
  -44990   -44967   -44946   -44930   -44921   -44911   -44899   -44892 
  -44891   -44891   -44891   -44894   -44898   -44905   -44915   -44932 
  -44946   -44967   -44992   -45022   -45057   -45091   -45126   -45169 
  -45208   -45241   -45276   -45315   -45355   -45401   -45447   -45493 
  -45540   -45584   -45625   -45665   -45701   -45742   -45778   -45808 
  -45836   -45864   -45885   -45900   -45916   -45927   -45933   -45941 
  -45941   -45939   -45932   -45916   -45897   -45875   -45844   -45808 
  -45770   -45731   -45690   -45647   -45598   -45551   -45508   -45462 
  -45414   -45365   -45318   -45273   -45227   -45177   -45134   -45090 
  -45033   -44975   -44922   -44865   -44810   -44756   -44701   -44648 
  -44601   -44552   -44502   -44456   -44410   -44365   -44329   -44298 
  -44266   -44239   -44220   -44199   -44177   -44161   -44155   -44162 
  -44172   -44185   -44211   -44240   -44275   -44321   -44375   -44429 
  -44490   -44556   -44626   -44695   -44761   -44828   -44898   -44965 
  -45031   -45098   -45161   -45220   -45274   -45323   -45374   -45426 
  -45470   -45513   -45558   -45601   -45642   -45678   -45713   -45748 
  -45781   -45810   -45837   -45854   -45864   -45874   -45874   -45868 
  -45862   -45852   -45839   -45824   -45812   -45794   -45769   -45742 
  -45716   -45694   -45671   -45646   -45619   -45593   -45565   -45532 
  -45497   -45462   -45428   -45385   -45343   -45304   -45260   -45219 
  -45191   -45160   -45127   -45098   -45071   -45048   -45029   -45014 
  -45004   -45000   -45004   -45011   -45019   -45033   -45048   -45061 
  -45081   -45107   -45127   -45149   -45175   -45196   -45219   -45249 
  -45274   -45300   -45328   -45355   -45384   -45414   -45445   -45473 
  -45499   -45523   -45549   -45571   -45585   -45593   -45597   -45593 
  -45586   -45578   -45561   -45540   -45526   -45509   -45492   -45478 
  -45461   -45439   -45418   -45389   -45358   -45330   -45304   -45279 
  -45252   -45219   -45188   -45162   -45129   -45096   -45071   -45041 
  -45013   -44987   -44956   -44928   -44907   -44890   -44874   -44859 
  -44848   -44844   -44840   -44836   -44834   -44834   -44834   -44838 
  -44847   -44859   -44868   -44879   -44887   -44895   -44906   -44913 
  -44915   -44918   -44917   -44914   -44910   -44901   -44887   -44878 
  -44864   -44848   -44837   -44826   -44817   -44807   -44803   -44806 
  -44810   -44820   -44836   -44849   -44865   -44891   -44923   -44956 
  -44991   -45029   -45064   -45096   -45130   -45161   -45196   -45233 
  -45264   -45296   -45339   -45382   -45424   -45472   -45522   -45569 
  -45613   -45659   -45704   -45740   -45773   -45804   -45825   -45843 
  -45860   -45870   -45866   -45863   -45854   -45832   -45810   -45787 
  -45763   -45735   -45704   -45671   -45638   -45601   -45563   -45524 
  -45488   -45454   -45420   -45387   -45355   -45326   -45297   -45266 
  -45242   -45220   -45193   -45166   -45149   -45135   -45125   -45118 
  -45111   -45108   -45107   -45104   -45103   -45106   -45108   -45110 
  -45115   -45126   -45138   -45149   -45162   -45179   -45195   -45214 
  -45238   -45261   -45280   -45299   -45318   -45335   -45353   -45370 
  -45385   -45396   -45408   -45420   -45428   -45430   -45431   -45432 
  -45428   -45422   -45414   -45403   -45385   -45368   -45347   -45323 
  -45293   -45260   -45226   -45191   -45150   -45108   -45075   -45037 
  -44994   -44955   -44922   -44886   -44852   -44826   -44802   -44779 
  -44760   -44748   -44740   -44733   -44726   -44724   -44721   -44720 
  -44725   -44739   -44752   -44768   -44788   -44809   -44829   -44851 
  -44875   -44898   -44923   -44952   -44977   -45004   -45038   -45071 
  -45103   -45137   -45165   -45195   -45222   -45239   -45260   -45276 
  -45291   -45308   -45319   -45324   -45333   -45338   -45339   -45342 
  -45346   -45349   -45354   -45365   -45372   -45380   -45391   -45397 
  -45400   -45405   -45412   -45415   -45416   -45420   -45419   -45414 
  -45409   -45401   -45395   -45385   -45373   -45365   -45362   -45349 
  -45335   -45330   -45322   -45310   -45299   -45289   -45283   -45276 
  -45268   -45260   -45252   -45249   -45247   -45245   -45243   -45241 
  -45241   -45242   -45234   -45220   -45207   -45188   -45169   -45152 
  -45126   -45099   -45077   -45058   -45034   -45009   -44986   -44967 
  -44955   -44946   -44942   -44940   -44941   -44950   -44965   -44976 
  -44992   -45014   -45037   -45061   -45087   -45115   -45150   -45187 
  -45222   -45261   -45297   -45330   -45368   -45404   -45435   -45472 
  -45509   -45547   -45588   -45631   -45673   -45713   -45756   -45798 
  -45833   -45864   -45897   -45931   -45955   -45972   -45997   -46013 
  -46020   -46029   -46037   -46039   -46039   -46043   -46047   -46047 
  -46044   -46039   -46035   -46025   -46010   -45997   -45979   -45954 
  -45928   -45902   -45871   -45837   -45805   -45766   -45723   -45679 
  -45638   -45590   -45543   -45504   -45470   -45435   -45396   -45362 
  -45334   -45303   -45272   -45247   -45223   -45196   -45176   -45156 
  -45134   -45115   -45098   -45075   -45058   -45048   -45033   -45017 
  -45007   -44998   -44986   -44977   -44971   -44964   -44959   -44950 
  -44942   -44934   -44925   -44918   -44909   -44896   -44886   -44878 
  -44872   -44864   -44853   -44844   -44834   -44829   -44826   -44821 
  -44820   -44820   -44818   -44818   -44821   -44825   -44829   -44833 
  -44841   -44851   -44860   -44874   -44892   -44910   -44928   -44949 
  -44972   -44990   -45007   -45026   -45038   -45053   -45076   -45091 
  -45102   -45117   -45125   -45130   -45138   -45144   -45145   -45146 
  -45142   -45135   -45127   -45115   -45108   -45100   -45084   -45065 
  -45049   -45034   -45017   -44996   -44977   -44963   -44945   -44933 
  -44922   -44907   -44898   -44901   -44899   -44896   -44899   -44901 
  -44903   -44909   -44914   -44921   -44929   -44937   -44948   -44957 
  -44965   -44973   -44982   -44990   -44998   -45011   -45022   -45031 
  -45045   -45060   -45073   -45085   -45102   -45123   -45142   -45161 
  -45185   -45210   -45233   -45260   -45292   -45322   -45353   -45385 
  -45418   -45449   -45485   -45520   -45551   -45582   -45615   -45646 
  -45670   -45689   -45711   -45727   -45738   -45748   -45752   -45754 
  -45754   -45751   -45744   -45731   -45711   -45694   -45675   -45647 
  -45616   -45586   -45549   -45509   -45472   -45427   -45382   -45339 
  -45293   -45246   -45203   -45161   -45121   -45077   -45036   -44999 
  -44967   -44930   -44899   -44867   -44837   -44813   -44791   -44770 
  -44756   -44744   -44732   -44722   -44716   -44710   -44712   -44712 
