Origin Time       2025/01/13 21:19:00
Lat.              31.8
Long.             131.6
Depth. (km)       30
Mag.              6.9
Station Code      TTRH03
Station Lat.      35.3553
Station Long.     133.4918
Station Height(m) 420
Record Time       2025/01/13 21:21:33
Sampling Freq(Hz) 100Hz
Duration Time(s)  120
Dir.              5
Scale Factor      7845(gal)/8223790
Max. Acc. (gal)   2.206
Last Correction   2025/01/13 21:21:36
Memo.             
[...]
    4662     4793     4912     5019     5116     5202     5271     5317 
    5346     5356     5343     5302     5240     5161     5062     4957 
    4846     4733     4622     4515     4411     4317     4236     4160 
    4094     4043     3996     3947     3906     3878     3854     3834 
    3819     3808     3794     3778     3762     3758     3770     3794 
    3836     3901     3987     4091     4209     4338     4471     4595 
    4710     4812     4899     4968     5017     5049     5057     5046 
    5026     5000     4969     4936     4897     4845     4789     4739 
    4691     4642     4598     4560     4526     4487     4445     4402 
    4353     4305     4256     4198     4132     4063     3993     3920 
    3850     3782     3727     3686     3653     3631     3624     3630 
    3647     3674     3707     3750     3800     3848     3904     3964 
    4021     4082     4148     4217     4297     4387     4484     4592 
    4706     4818     4934     5054     5165     5265     5355     5427 
    5475     5498     5490     5454     5397     5317     5216     5090 
    4947     4791     4625     4465     4317     4182     4066     3964 
    3879     3808     3746     3699     3670     3658     3657     3659 
    3672     3689     3712     3746     3789     3843     3910     3987 
    4066     4147     4225     4294     4353     4406     4455     4487 
    4496     4488     4459     4409     4340     4248     4137     4013 
    3877     3734     3586     3442     3310     3195     3098     3017 
    2959     2932     2930     2951     2999     3075     3169     3289 
    3431     3584     3753     3932     4117     4307     4503     4693 
    4877     5055     5224     5381     5530     5671     5798     5910 
    6002     6066     6107     6111     6080     6019     5930     5811 
    5672     5524     5362     5184     4995     4793     4579     4351 
    4118     3883     3649     3426     3218     3025     2848     2690 
    2552     2432     2328     2241     2176     2128     2097     2085 
    2097     2134     2191     2261     2344     2447     2565     2691 
    2826     2972     3125     3276     3426     3578     3735     3896 
    4059     4226     4395     4558     4718     4869     5009     5143 
    5266     5381     5485     5575     5657     5726     5778     5817 
    5840     5842     5823     5782     5718     5636     5533     5413 
    5274     5115     4946     4773     4587     4394     4202     4013 
    3821     3632     3446     3267     3095     2936     2798     2681 
    2589     2528     2501     2505     2539     2601     2691     2806 
    2945     3105     3280     3466     3666     3877     4087     4290 
    4482     4660     4822     4966     5097     5215     5313     5390 
    5448     5489     5510     5513     5491     5452     5391     5310 
    5211     5090     4953     4803     4646     4486     4317     4147 
    3987     3836     3696     3577     3481     3403     3341     3299 
    3279     3272     3284     3315     3360     3420     3501     3595 
    3705     3838     3982     4136     4290     4442     4595     4738 
    4872     5003     5124     5225     5312     5387     5448     5490 
    5514     5528     5526     5509     5479     5441     5389     5323 
    5251     5173     5089     5003     4915     4827     4747     4672 
    4599     4525     4452     4380     4320     4275     4241     4216 
    4201     4195     4193     4186     4175     4156     4129     4097 
    4054     4000     3942     3882     3825     3773     3715     3653 
    3600     3554     3512     3478     3453     3431     3418     3412 
    3418     3431     3454     3488     3531     3582     3647     3721 
    3808     3910     4020     4133     4251     4372     4495     4621 
    4742     4858     4963     5044     5104     5147     5169     5175 
    5170     5150     5116     5073     5017     4947     4869     4787 
    4700     4614     4522     4426     4325     4222     4114     4006 
    3902     3800     3699     3597     3495     3395     3300     3215 
    3141     3082     3036     2999     2978     2972     2976     2992 
    3019     3055     3103     3161     3227     3304     3388     3473 
    3558     3639     3712     3780     3846     3904     3960     4024 
    4091     4164     4245     4336     4430     4527     4626     4720 
    4812     4905     4990     5065     5131     5188     5238     5271 
    5287     5289     5279     5262     5238     5211     5177     5131 
    5080     5024     4955     4878     4793     4699     4594     4477 
    4356     4233     4105     3973     3838     3697     3555     3415 
    3276     3142     3030     2937     2856     2794     2756     2745 
    2758     2798     2862     2944     3042     3157     3285     3424 
    3578     3740     3902     4062     4221     4375     4519     4653 
    4780     4896     4997     5094     5179     5248     5305     5346 
    5368     5378     5371     5344     5302     5244     5171     5085 
    4988     4882     4773     4661     4554     4453     4351     4255 
    4172     4101     4037     3987     3950     3924     3905     3885 
    3866     3850     3829     3808     3788     3763     3740     3723 
    3707     3686     3663     3643     3630     3624     3628     3650 
    3686     3736     3801     3873     3951     4037     4126     4216 
    4305     4395     4483     4569     4653     4735     4818     4899 
    4973     5043     5108     5166     5223     5279     5329     5368 
    5402     5422     5420     5393     5341     5271     5185     5082 
    4968     4846     4711     4565     4415     4270     4126     3994 
    3878     3775     3685     3607     3543     3492     3450     3415 
    3392     3375     3361     3353     3353     3361     3380     3410 
    3442     3481     3537     3600     3667     3750     3840     3935 
    4040     4152     4261     4372     4487     4594     4693     4784 
    4868     4941     5004     5058     5104     5146     5174     5189 
    5193     5184     5166     5144     5112     5074     5032     4980 
    4919     4850     4776     4698     4610     4513     4413     4309 
    4197     4083     3971     3861     3755     3658     3566     3481 
    3404     3335     3276     3229     3191     3168     3161     3164 
    3180     3213     3257     3315     3381     3457     3545     3640 
    3748     3866     3991     4126     4271     4418     4567     4716 
    4862     5001     5131     5255     5364     5459     5540     5613 
    5670     5699     5709     5703     5678     5628     5560     5478 
    5382     5274     5154     5019     4868     4703     4525     4341 
    4160     3979     3801     3630     3469     3319     3181     3059 
    2955     2871     2808     2766     2748     2755     2785     2836 
    2907     2997     3103     3225     3361     3508     3659     3811 
    3959     4104     4240     4364     4471     4560     4629     4684 
    4723     4741     4742     4738     4725     4698     4660     4617 
    4568     4513     4452     4391     4330     4268     4206     4151 
    4106     4066     4033     4009     3993     3991     4001     4013 
    4036     4071     4116     4168     4236     4311     4391     4479 
    4576     4672     4765     4854     4941     5020     5086     5139 
    5174     5190     5192     5175     5140     5092     5028     4945 
    4845     4726     4590     4444     4286     4125     3964     3794 
    3623     3461     3307     3165     3048     2951     2872     2817 
    2786     2781     2799     2841     2906     2999     3117     3253 
    3408     3576     3754     3937     4118     4301     4482     4650 
    4808     4953     5080     5196     5296     5373     5433     5482 
    5513     5526     5529     5521     5495     5451     5391     5317 
    5223     5111     4985     4851     4704     4544     4375     4206 
    4033     3858     3689     3530     3380     3242     3117     2999 
    2902     2829     2771     2735     2725     2737     2768     2828 
    2910     3010     3132     3279     3445     3624     3813     4009 
    4207     4409     4607     4799     4981     5150     5302     5435 
    5543     5626     5684     5711     5710     5684     5630     5547 
    5435     5296     5128     4942     4741     4526     4302     4067 
    3824     3584     3352     3127     2920     2732     2563     2419 
    2301     2205     2138     2099     2089     2115     2174     2263 
    2382     2528     2698     2889     3096     3315     3543     3781 
    4025     4271     4515     4754     4986     5208     5413     5602 
    5778     5931     6064     6177     6270     6339     6384     6409 
    6415     6396     6353     6296     6219     6118     6004     5879 
    5736     5583     5424     5254     5074     4889     4700     4507 
    4311     4114     3923     3731     3541     3357     3187     3032 
    2893     2772     2678     2608     2556     2533     2542     2577 
    2632     2705     2799     2917     3053     3203     3370     3549 
    3730     3913     4098     4282     4461     4638     4806     4958 
    5104     5238     5354     5455     5539     5599     5641     5661 
    5652     5616     5557     5474     5363     5236     5098     4943 
    4772     4592     4402     4203     4004     3804     3611     3433 
    3275     3134     3006     2898     2818     2764     2731     2720 
    2740     2791     2870     2975     3110     3264     3435     3624 
    3829     4043     4259     4471     4681     4884     5078     5259 
    5424     5563     5678     5767     5832     5869     5886     5879 
    5849     5799     5725     5629     5510     5374     5228     5069 
    4897     4725     4552     4372     4197     4028     3865     3712 
    3576     3450     3341     3250     3177     3123     3084     3060 
    3055     3064     3084     3117     3163     3219     3284     3358 
    3442     3528     3623     3727     3831     3936     4051     4168 
    4283     4395     4503     4610     4714     4808     4892     4968 
    5035     5089     5131     5163     5188     5194     5188     5178 
    5159     5130     5097     5055     4997     4926     4845     4760 
    4666     4564     4460     4352     4243     4132     4017     3902 
    3788     3676     3566     3458     3354     3254     3164     3084 
    3019     2974     2938     2916     2916     2937     2971     3025 
    3103     3200     3316     3449     3601     3770     3946     4129 
    4318     4504     4688     4864     5031     5190     5333     5456 
    5559     5641     5705     5745     5765     5769     5759     5729 
    5682     5618     5533     5427     5301     5154     4992     4814 
    4625     4430     4229     4024     3823     3624     3430     3245 
    3076     2918     2778     2662     2570     2498     2452     2432 
    2434     2458     2511     2587     2689     2810     2952     3111 
    3285     3472     3674     3890     4110     4332     4553     4769 
    4978     5178     5366     5536     5690     5823     5930     6011 
    6072     6103     6107     6092     6054     5996     5921     5826 
    5721     5605     5476     5340     5197     5053     4908     4761 
    4614     4468     4321     4179     4048     3928     3817     3716 
    3622     3538     3465     3403     3354     3322     3308     3310 
    3325     3356     3403     3466     3543     3636     3744     3863 
    3987     4120     4266     4407     4538     4665     4789     4900 
    4999     5085     5155     5212     5252     5271     5273     5262 
    5229     5170     5097     5012     4912     4803     4681     4552 
    4422     4283     4133     3983     3838     3693     3554     3423 
    3304     3200     3110     3038     2988     2957     2944     2953 
    2978     3022     3090     3168     3256     3361     3477     3601 
    3732     3871     4017     4166     4315     4468     4617     4758 
    4893     5020     5134     5235     5324     5393     5445     5481 
    5490     5475     5443     5389     5306     5204     5086     4955 
    4806     4641     4467     4283     4090     3894     3699     3511 
    3331     3159     3002     2860     2737     2637     2558     2498 
    2467     2461     2474     2511     2569     2650     2759     2887 
    3032     3194     3370     3557     3751     3952     4160     4372 
    4581     4789     4992     5185     5366     5529     5676     5802 
    5902     5983     6048     6088     6108     6107     6079     6025 
    5945     5846     5728     5587     5432     5266     5084     4895 
    4700     4495     4288     4085     3875     3667     3468     3276 
    3090     2918     2763     2623     2500     2394     2313     2261 
    2234     2235     2261     2311     2381     2471     2582     2714 
    2864     3029     3208     3399     3599     3807     4017     4225 
    4433     4639     4838     5031     5213     5377     5522     5656 
    5778     5879     5957     6016     6056     6072     6060     6026 
    5975     5902     5805     5687     5549     5395     5219     5026 
    4816     4598     4372     4141     3910     3681     3451     3231 
    3028     2839     2668     2524     2404     2308     2246     2215 
    2214     2246     2312     2407     2531     2678     2844     3033 
    3242     3466     3705     3956     4216     4476     4733     4984 
    5232     5468     5687     5887     6065     6219     6346     6442 
    6508     6542     6542     6507     6436     6332     6196     6029 
    5830     5603     5359     5100     4828     4554     4278     4001 
    3732     3473     3225     2999     2797     2614     2461     2338 
    2246     2187     2158     2161     2196     2258     2340     2447 
    2577     2722     2883     3061     3253     3456     3669     3885 
    4101     4317     4529     4730     4915     5085     5239     5374 
    5489     5579     5645     5691     5717     5718     5695     5649 
    5587     5510     5417     5314     5202     5084     4963     4843 
    4715     4584     4452     4318     4189     4063     3943     3832 
    3732     3636     3541     3451     3373     3303     3237     3181 
    3138     3106     3079     3064     3063     3072     3091     3127 
    3173     3227     3292     3366     3445     3531     3626     3724 
    3827     3931     4036     4148     4261     4369     4471     4569 
    4664     4749     4827     4897     4959     5013     5058     5093 
    5120     5132     5132     5120     5093     5051     4990     4915 
    4828     4730     4625     4511     4390     4267     4144     4024 
    3909     3797     3690     3593     3508     3438     3377     3330 
    3299     3283     3283     3299     3331     3379     3443     3522 
    3613     3719     3834     3960     4091     4229     4369     4509 
    4645     4776     4897     5007     5104     5190     5263     5316 
    5352     5375     5373     5348     5302     5236     5150     5049 
    4931     4804     4669     4527     4384     4240     4097     3958 
    3821     3694     3577     3466     3365     3276     3199     3132 
    3075     3033     3007     2992     2987     2988     3003     3034 
    3075     3123     3181     3250     3327     3411     3505     3612 
    3727     3851     3982     4114     4244     4374     4509     4642 
    4770     4895     5013     5125     5231     5324     5401     5466 
    5513     5541     5551     5545     5525     5493     5443     5375 
    5296     5198     5089     4966     4833     4687     4531     4371 
    4209     4048     3890     3735     3586     3447     3322     3207 
    3107     3025     2963     2924     2906     2911     2941     2991 
    3060     3152     3264     3393     3538     3699     3870     4043 
    4220     4396     4571     4738     4899     5050     5188     5309 
    5418     5512     5583     5629     5653     5656     5633     5590 
    5524     5435     5329     5208     5071     4919     4752     4572 
    4384     4193     3998     3802     3609     3423     3245     3079 
    2929     2799     2689     2597     2531     2485     2463     2465 
    2488     2531     2594     2679     2785     2907     3044     3192 
    3354     3531     3720     3913     4109     4307     4504     4695 
    4877     5057     5229     5393     5547     5684     5806     5913 
    6000     6066     6112     6135     6129     6099     6046     5965 
    5863     5741     5602     5444     5271     5082     4884     4676 
    4464     4252     4039     3823     3611     3411     3225     3053 
    2902     2774     2663     2573     2508     2461     2436     2440 
    2470     2521     2592     2681     2790     2920     3065     3225 
    3389     3559     3738     3917     4095     4274     4449     4622 
    4789     4949     5097     5236     5362     5474     5574     5656 
    5714     5749     5765     5764     5751     5721     5675     5609 
    5524     5422     5306     5175     5039     4899     4753     4603 
    4448     4290     4128     3964     3805     3654     3512     3380 
    3258     3149     3055     2972     2906     2859     2829     2817 
    2826     2856     2901     2961     3040     3127     3225     3330 
    3441     3558     3681     3811     3943     4075     4209     4337 
    4460     4579     4687     4787     4881     4962     5034     5092 
    5134     5165     5181     5181     5167     5138     5097     5049 
    4985     4916     4842     4757     4665     4572     4479     4384 
    4290     4202     4117     4035     3958     3888     3824     3765 
    3715     3677     3649     3626     3609     3603     3604     3613 
    3632     3663     3704     3751     3811     3877     3946     4020 
    4101     4189     4278     4361     4446     4533     4617     4702 
    4784     4861     4932     4992     5038     5076     5104     5120 
    5130     5131     5121     5101     5071     5035     4990     4934 
    4874     4808     4733     4657     4581     4507     4436     4367 
    4299     4237     4183     4131     4081     4040     4006     3978 
    3951     3929     3920     3923     3929     3944     3970     3997 
    4025     4064     4104     4143     4187     4229     4270     4310 
    4351     4390     4422     4448     4471     4486     4496     4502 
    4498     4486     4467     4441     4405     4367     4328     4284 
    4239     4194     4147     4095     4041     3993     3943     3892 
    3846     3804     3766     3739     3719     3703     3692     3690 
    3693     3700     3717     3747     3778     3812     3855     3905 
    3959     4023     4094     4164     4234     4306     4376     4442 
    4504     4564     4622     4672     4718     4760     4796     4824 
    4849     4872     4889     4897     4896     4887     4864     4833 
    4791     4737     4675     4606     4526     4437     4338     4233 
    4126     4009     3886     3769     3651     3531     3424     3333 
    3254     3194     3150     3121     3103     3103     3121     3148 
    3188     3250     3327     3414     3514     3623     3739     3862 
    3990     4120     4249     4376     4499     4615     4723     4823 
    4912     4985     5040     5082     5111     5121     5115     5090 
    5049     4997     4927     4839     4743     4639     4529     4414 
