Origin Time       2025/01/13 21:19:00
Lat.              31.8
Long.             131.6
Depth. (km)       30
Mag.              6.9
Station Code      TTRH01
Station Lat.      35.2604
Station Long.     134.2173
Station Height(m) 230
Record Time       2025/01/13 21:21:12
Sampling Freq(Hz) 100Hz
Duration Time(s)  120
Dir.              6
Scale Factor      7845(gal)/8223790
Max. Acc. (gal)   0.465
Last Correction   2025/01/13 21:21:12
Memo.             
[...]
   18036    18041    18046    18052    18057    18063    18064    18069 
   18072    18072    18073    18077    18083    18088    18090    18091 
   18090    18088    18090    18096    18099    18098    18094    18087 
   18081    18077    18075    18069    18065    18058    18049    18041 
   18034    18029    18029    18031    18033    18034    18033    18031 
   18030    18025    18021    18021    18018    18014    18014    18021 
   18023    18021    18019    18019    18021    18022    18018    18015 
   18014    18011    18013    18017    18018    18017    18017    18011 
   18004    17998    17991    17986    17979    17975    17977    17980 
   17983    17987    17986    17987    17992    17992    17990    17996 
   18007    18013    18013    18017    18021    18018    18014    18013 
   18010    18006    18004    18004    17999    17990    17984    17982 
   17984    17988    17988    17987    17986    17983    17983    17984 
   17984    17988    17999    18010    18014    18011    18007    18004 
   18003    18000    17995    17988    17983    17982    17988    18000 
   18009    18014    18015    18011    18010    18015    18022    18025 
   18030    18037    18041    18045    18049    18049    18048    18049 
   18050    18050    18045    18041    18038    18036    18034    18036 
   18037    18034    18030    18027    18022    18015    18014    18011 
   18006    18004    18004    18002    18002    18003    18009    18013 
   18015    18017    18018    18021    18022    18025    18027    18029 
   18030    18031    18029    18027    18027    18027    18034    18040 
   18041    18045    18049    18052    18057    18063    18064    18063 
   18061    18063    18063    18060    18060    18063    18060    18053 
   18049    18048    18052    18053    18049    18046    18044    18042 
   18040    18034    18030    18031    18036    18037    18037    18037 
   18030    18026    18023    18018    18011    18007    18003    17996 
   17991    17984    17976    17965    17959    17952    17941    17929 
   17922    17915    17907    17901    17892    17886    17884    17890 
   17896    17903    17907    17906    17902    17903    17907    17915 
   17926    17938    17946    17952    17959    17965    17969    17971 
   17975    17977    17982    17987    17994    17996    18000    18003 
   18004    18009    18011    18015    18021    18022    18022    18025 
   18029    18033    18033    18031    18029    18033    18041    18046 
   18052    18054    18056    18060    18063    18063    18068    18073 
   18076    18077    18081    18084    18084    18083    18084    18084 
   18080    18077    18075    18069    18064    18061    18056    18050 
   18044    18031    18014    18000    17994    17988    17983    17976 
   17972    17971    17968    17963    17959    17956    17955    17956 
   17959    17959    17959    17963    17969    17976    17984    17990 
   17994    17995    18002    18014    18025    18037    18046    18053 
   18063    18069    18073    18076    18077    18079    18077    18072 
   18069    18072    18072    18069    18069    18069    18068    18067 
   18061    18053    18044    18040    18042    18044    18040    18034 
   18033    18031    18026    18023    18025    18021    18015    18015 
   18014    18014    18014    18014    18014    18018    18018    18018 
   18019    18015    18011    18013    18015    18017    18019    18025 
   18025    18021    18018    18019    18022    18022    18023    18022 
   18017    18014    18017    18017    18018    18022    18025    18025 
   18027    18026    18022    18018    18018    18014    18010    18009 
   18010    18009    18004    18002    17996    17992    17991    17987 
   17983    17984    17984    17982    17980    17976    17975    17976 
   17977    17975    17971    17968    17972    17980    17990    17995 
   17999    18002    18002    17999    18003    18007    18010    18013 
   18014    18010    18009    18010    18010    18009    18007    18002 
   18000    18002    18000    17996    17991    17986    17980    17976 
   17971    17968    17967    17964    17961    17964    17968    17968 
   17969    17967    17961    17961    17961    17959    17961    17965 
   17971    17977    17987    17996    18003    18011    18021    18031 
   18040    18045    18050    18056    18060    18065    18071    18076 
   18083    18092    18100    18104    18108    18117    18129    18139 
   18145    18149    18153    18154    18156    18158    18158    18160 
   18165    18171    18173    18175    18176    18177    18179    18177 
   18173    18168    18162    18160    18157    18150    18139    18129 
   18122    18117    18107    18099    18096    18094    18088    18084 
   18076    18065    18054    18048    18042    18033    18023    18017 
   18009    17999    17990    17980    17969    17963    17956    17949 
   17941    17928    17913    17899    17894    17899    17903    17903 
   17906    17909    17911    17917    17923    17923    17926    17936 
   17946    17955    17963    17969    17976    17988    17999    18010 
   18023    18036    18046    18058    18071    18081    18091    18102 
   18110    18119    18127    18130    18131    18131    18129    18126 
   18123    18121    18121    18118    18111    18108    18104    18099 
   18094    18085    18077    18069    18061    18056    18048    18037 
   18029    18022    18018    18018    18017    18013    18010    18007 
   18006    18009    18009    18004    18003    18004    18006    18009 
   18010    18009    18006    18003    18000    17996    17991    17987 
   17980    17975    17971    17965    17963    17959    17950    17945 
   17941    17933    17926    17919    17910    17906    17903    17895 
   17888    17890    17887    17879    17874    17869    17871    17876 
   17884    17896    17907    17921    17936    17949    17963    17979 
   17994    18006    18019    18031    18042    18053    18064    18072 
   18079    18085    18094    18100    18107    18111    18111    18107 
   18102    18099    18095    18090    18084    18079    18072    18064 
   18054    18046    18037    18030    18023    18021    18022    18021 
   18015    18010    18007    18009    18017    18021    18025    18029 
   18034    18042    18052    18061    18068    18079    18094    18107 
   18121    18135    18148    18158    18166    18173    18179    18180 
   18181    18180    18179    18177    18173    18171    18168    18160 
   18153    18150    18144    18137    18130    18115    18098    18085 
   18073    18056    18040    18029    18015    18000    17987    17975 
   17964    17957    17953    17945    17933    17925    17923    17922 
   17919    17918    17918    17918    17923    17932    17941    17946 
   17948    17950    17955    17960    17963    17965    17968    17972 
   17977    17984    17990    17988    17988    17988    17990    17995 
   17999    17998    17992    17988    17983    17979    17976    17971 
   17965    17963    17963    17961    17956    17953    17950    17950 
   17955    17953    17950    17953    17956    17963    17975    17980 
   17983    17988    17994    17999    18007    18014    18023    18034 
   18045    18057    18067    18077    18087    18091    18098    18104 
   18110    18115    18119    18118    18119    18126    18130    18133 
   18139    18145    18148    18149    18150    18149    18149    18152 
   18150    18146    18148    18152    18154    18156    18156    18154 
   18152    18152    18149    18149    18154    18160    18162    18166 
   18175    18185    18195    18203    18212    18219    18226    18233 
   18239    18243    18245    18242    18238    18235    18231    18219 
   18207    18196    18177    18160    18144    18125    18108    18092 
   18075    18060    18045    18030    18017    18003    17991    17982 
   17973    17963    17955    17946    17940    17934    17929    17925 
   17923    17922    17919    17914    17913    17911    17909    17910 
   17913    17913    17915    17921    17923    17928    17934    17937 
   17936    17937    17938    17937    17936    17933    17928    17926 
   17926    17925    17926    17923    17914    17909    17910    17913 
   17918    17919    17919    17921    17921    17923    17929    17936 
   17944    17956    17967    17973    17983    17998    18013    18026 
   18041    18052    18063    18076    18085    18095    18107    18117 
   18125    18137    18148    18156    18165    18172    18177    18184 
   18189    18193    18195    18191    18191    18195    18193    18192 
   18195    18196    18200    18204    18200    18192    18185    18181 
   18177    18169    18158    18149    18138    18127    18119    18112 
   18103    18092    18081    18068    18057    18054    18046    18033 
   18017    18003    17994    17984    17972    17956    17938    17919 
   17901    17882    17865    17849    17834    17821    17805    17791 
   17783    17771    17761    17756    17749    17745    17745    17743 
   17741    17745    17752    17761    17774    17786    17798    17810 
   17820    17825    17833    17845    17859    17874    17888    17899 
   17911    17928    17941    17950    17961    17972    17983    17995 
   18006    18017    18033    18044    18050    18061    18072    18076 
   18083    18087    18083    18083    18080    18075    18073    18072 
   18064    18053    18042    18029    18014    18003    17996    17987 
   17976    17965    17956    17945    17938    17934    17930    17925 
   17923    17921    17917    17915    17913    17911    17917    17923 
   17925    17926    17929    17933    17937    17944    17953    17963 
   17973    17986    17999    18011    18029    18046    18057    18071 
   18090    18104    18114    18125    18135    18144    18156    18165 
   18171    18180    18187    18187    18192    18198    18198    18196 
   18195    18195    18191    18187    18184    18177    18171    18166 
   18164    18160    18162    18169    18173    18176    18180    18187 
   18196    18206    18212    18218    18223    18233    18241    18247 
   18253    18257    18261    18265    18266    18264    18254    18243 
   18231    18215    18198    18180    18156    18134    18111    18085 
   18063    18037    18010    17983    17955    17926    17902    17880 
   17861    17845    17836    17828    17817    17811    17810    17806 
   17799    17795    17797    17797    17797    17805    17813    17818 
   17825    17837    17848    17857    17867    17878    17887    17896 
   17909    17917    17918    17925    17938    17945    17945    17949 
   17953    17955    17959    17963    17967    17969    17971    17969 
   17973    17975    17972    17969    17968    17964    17961    17959 
   17952    17948    17944    17940    17936    17934    17933    17930 
   17928    17932    17934    17934    17936    17938    17941    17941 
   17942    17945    17946    17948    17953    17961    17965    17969 
   17979    17986    17995    18009    18021    18030    18041    18053 
   18064    18075    18081    18088    18094    18095    18098    18102 
   18100    18096    18091    18085    18083    18077    18069    18064 
   18058    18053    18050    18048    18048    18049    18049    18048 
   18048    18046    18046    18048    18048    18048    18046    18041 
   18041    18040    18033    18022    18014    18006    17995    17983 
   17969    17953    17936    17921    17909    17896    17882    17865 
   17852    17845    17836    17825    17820    17815    17810    17807 
   17810    17814    17820    17826    17837    17851    17865    17880 
   17896    17914    17933    17953    17975    17995    18015    18036 
   18056    18076    18098    18122    18144    18160    18175    18191 
   18207    18219    18233    18246    18253    18260    18264    18262 
   18260    18256    18246    18238    18233    18222    18208    18198 
   18184    18172    18161    18150    18139    18122    18102    18084 
   18068    18052    18036    18018    18000    17987    17975    17961 
   17948    17937    17926    17914    17901    17892    17886    17879 
   17874    17868    17860    17855    17852    17851    17853    17857 
   17860    17868    17878    17884    17895    17913    17932    17949 
   17971    17994    18011    18030    18057    18083    18108    18135 
   18156    18175    18196    18216    18237    18257    18273    18287 
   18301    18314    18322    18331    18339    18345    18354    18365 
   18372    18377    18382    18388    18395    18400    18405    18409 
   18409    18407    18405    18407    18407    18407    18408    18411 
   18415    18418    18415    18416    18416    18414    18414    18414 
   18408    18397    18391    18385    18376    18368    18357    18343 
   18327    18312    18300    18287    18270    18254    18237    18222 
   18210    18192    18175    18160    18144    18126    18112    18099 
   18083    18068    18054    18044    18033    18023    18013    18003 
   17996    17992    17991    17988    17984    17980    17975    17971 
   17968    17968    17967    17967    17971    17972    17969    17967 
   17964    17955    17945    17938    17928    17915    17902    17888 
   17872    17859    17847    17833    17818    17805    17793    17779 
   17766    17752    17740    17726    17712    17699    17686    17671 
   17655    17639    17626    17617    17609    17602    17593    17579 
   17568    17562    17552    17545    17544    17541    17537    17539 
   17539    17539    17543    17550    17558    17566    17578    17593 
   17605    17618    17637    17655    17671    17691    17712    17729 
   17747    17767    17786    17805    17825    17847    17864    17880 
   17896    17913    17929    17942    17956    17972    17984    17995 
   18002    18009    18015    18022    18027    18029    18031    18034 
   18033    18027    18019    18015    18010    18002    17994    17984 
   17971    17957    17946    17933    17922    17913    17898    17886 
   17876    17863    17852    17848    17841    17830    17828    17828 
   17828    17832    17837    17841    17851    17865    17879    17892 
   17906    17922    17937    17949    17967    17983    17996    18013 
   18026    18040    18056    18068    18079    18088    18092    18098 
   18104    18107    18106    18103    18098    18091    18083    18072 
   18060    18048    18037    18022    18006    17994    17980    17964 
   17952    17940    17929    17923    17914    17907    17905    17899 
   17895    17896    17896    17898    17902    17910    17919    17928 
   17941    17955    17961    17969    17977    17986    17998    18011 
   18023    18036    18045    18053    18064    18075    18081    18090 
   18099    18106    18114    18117    18117    18121    18123    18123 
   18126    18130    18135    18142    18149    18154    18162    18171 
   18179    18188    18198    18208    18226    18242    18257    18272 
   18285    18299    18312    18327    18343    18358    18373    18388 
   18399    18408    18416    18427    18432    18438    18445    18453 
   18457    18458    18461    18462    18461    18461    18459    18455 
   18450    18445    18436    18428    18416    18401    18385    18368 
   18355    18343    18328    18311    18293    18279    18262    18243 
   18229    18214    18195    18176    18157    18139    18121    18102 
   18083    18065    18048    18027    18007    17990    17971    17950 
   17932    17914    17898    17879    17863    17847    17832    17820 
   17809    17797    17786    17775    17768    17761    17755    17748 
   17747    17744    17740    17739    17740    17741    17744    17751 
   17757    17768    17778    17786    17798    17811    17824    17836 
   17849    17860    17871    17879    17884    17892    17902    17906 
   17909    17918    17926    17928    17928    17932    17937    17941 
   17945    17950    17959    17965    17973    17982    17988    17994 
   18000    18011    18022    18031    18042    18053    18063    18072 
   18084    18094    18102    18112    18122    18130    18141    18156 
   18168    18179    18187    18196    18203    18207    18212    18218 
   18220    18222    18223    18227    18233    18235    18241    18243 
   18245    18249    18254    18258    18261    18258    18252    18249 
   18245    18237    18226    18218    18210    18199    18185    18173 
   18158    18142    18127    18115    18103    18090    18076    18058 
   18044    18033    18019    18007    18000    17992    17983    17975 
   17965    17956    17945    17941    17941    17937    17929    17926 
   17926    17926    17923    17926    17929    17928    17928    17928 
   17929    17928    17926    17928    17929    17929    17932    17934 
   17932    17930    17933    17933    17929    17925    17923    17919 
   17914    17910    17905    17898    17892    17886    17882    17879 
   17874    17868    17867    17865    17864    17865    17865    17864 
   17865    17869    17875    17879    17884    17895    17902    17909 
   17919    17930    17937    17945    17952    17957    17965    17972 
   17979    17979    17979    17982    17986    17986    17987    17991 
   17994    17995    17994    17992    17995    17995    17994    17995 
   17999    18000    17999    18002    18007    18013    18015    18017 
   18021    18023    18023    18025    18026    18026    18026    18025 
   18022    18025    18030    18034    18041    18049    18054    18061 
   18072    18079    18084    18091    18099    18107    18112    18118 
   18123    18125    18127    18130    18131    18131    18131    18134 
   18134    18135    18138    18138    18137    18135    18135    18137 
   18137    18138    18139    18139    18141    18141    18137    18135 
   18139    18138    18137    18137    18138    18139    18138    18138 
   18139    18142    18145    18149    18152    18154    18157    18160 
   18161    18162    18162    18161    18162    18161    18158    18157 
   18152    18146    18138    18130    18122    18108    18098    18085 
   18071    18058    18044    18022    18004    17988    17971    17956 
   17941    17922    17905    17888    17874    17860    17849    17837 
   17824    17814    17806    17798    17794    17793    17790    17788 
   17793    17797    17802    17809    17814    17818    17825    17832 
   17837    17845    17855    17860    17865    17874    17884    17898 
   17911    17925    17938    17948    17956    17971    17983    17990 
   17998    18010    18019    18029    18034    18040    18049    18054 
   18052    18053    18054    18053    18050    18049    18045    18042 
   18038    18038    18041    18041    18042    18046    18046    18046 
   18046    18049    18053    18054    18056    18060    18064    18065 
   18067    18068    18072    18073    18073    18075    18073    18071 
   18071    18069    18068    18068    18069    18069    18068    18067 
   18069    18075    18075    18075    18076    18076    18077    18080 
   18077    18076    18076    18079    18080    18080    18081    18081 
   18079    18075    18072    18071    18067    18060    18053    18048 
   18045    18041    18036    18030    18025    18018    18009    17996 
   17984    17973    17961    17948    17936    17921    17906    17895 
   17882    17868    17856    17845    17836    17825    17813    17805 
