Origin Time       2025/01/13 21:19:00
Lat.              31.8
Long.             131.6
Depth. (km)       30
Mag.              6.9
Station Code      TTRH04
Station Lat.      35.4668
Station Long.     133.6307
Station Height(m) 114
Record Time       2025/01/13 21:21:05
Sampling Freq(Hz) 100Hz
Duration Time(s)  147
Dir.              4
Scale Factor      7845(gal)/8223790
Max. Acc. (gal)   1.693
Last Correction   2025/01/13 21:21:07
Memo.             
[...]
   -6251    -6274    -6299    -6320    -6351    -6389    -6420    -6446 
   -6458    -6459    -6466    -6480    -6497    -6521    -6547    -6569 
   -6583    -6581    -6559    -6538    -6529    -6532    -6547    -6578 
   -6617    -6654    -6679    -6693    -6701    -6708    -6710    -6713 
   -6729    -6755    -6782    -6812    -6844    -6870    -6891    -6913 
   -6930    -6953    -6978    -6984    -6982    -6983    -6980    -6968 
   -6959    -6952    -6944    -6939    -6929    -6916    -6897    -6866 
   -6828    -6791    -6752    -6721    -6694    -6667    -6642    -6616 
   -6582    -6542    -6493    -6440    -6390    -6346    -6301    -6257 
   -6219    -6187    -6145    -6108    -6085    -6065    -6058    -6069 
   -6092    -6120    -6150    -6180    -6205    -6230    -6262    -6303 
   -6345    -6389    -6434    -6467    -6498    -6527    -6544    -6558 
   -6583    -6613    -6635    -6660    -6689    -6712    -6731    -6747 
   -6762    -6783    -6802    -6820    -6843    -6858    -6863    -6871 
   -6880    -6895    -6918    -6945    -6976    -7017    -7057    -7092 
   -7119    -7145    -7172    -7200    -7230    -7263    -7292    -7318 
   -7341    -7354    -7366    -7384    -7396    -7415    -7435    -7445 
   -7447    -7439    -7419    -7406    -7399    -7398    -7392    -7384 
   -7377    -7358    -7326    -7290    -7257    -7237    -7231    -7229 
   -7219    -7207    -7190    -7160    -7129    -7106    -7086    -7079 
   -7078    -7069    -7064    -7061    -7042    -7020    -7006    -6991 
   -6976    -6974    -6974    -6967    -6959    -6951    -6934    -6910 
   -6878    -6840    -6801    -6760    -6712    -6669    -6636    -6596 
   -6552    -6517    -6480    -6442    -6412    -6389    -6376    -6367 
   -6361    -6357    -6354    -6343    -6332    -6327    -6324    -6316 
   -6307    -6300    -6300    -6307    -6315    -6326    -6336    -6343 
   -6346    -6347    -6347    -6349    -6351    -6354    -6365    -6377 
   -6385    -6392    -6390    -6384    -6377    -6373    -6369    -6367 
   -6381    -6400    -6420    -6450    -6493    -6538    -6586    -6642 
   -6700    -6756    -6810    -6863    -6917    -6972    -7025    -7067 
   -7105    -7134    -7150    -7152    -7146    -7140    -7117    -7082 
   -7048    -7007    -6963    -6921    -6878    -6843    -6809    -6770 
   -6735    -6705    -6683    -6674    -6681    -6706    -6736    -6760 
   -6793    -6825    -6853    -6893    -6936    -6980    -7044    -7110 
   -7160    -7202    -7233    -7246    -7248    -7238    -7227    -7222 
   -7214    -7198    -7175    -7153    -7130    -7094    -7059    -7032 
   -7005    -6988    -6982    -6972    -6964    -6959    -6953    -6952 
   -6955    -6960    -6978    -7002    -7029    -7064    -7098    -7125 
   -7156    -7186    -7217    -7254    -7304    -7354    -7400    -7437 
   -7456    -7468    -7473    -7468    -7457    -7443    -7426    -7402 
   -7365    -7317    -7260    -7203    -7142    -7082    -7028    -6979 
   -6934    -6894    -6859    -6832    -6809    -6781    -6755    -6737 
   -6718    -6704    -6701    -6704    -6709    -6717    -6728    -6739 
   -6754    -6764    -6768    -6775    -6779    -6772    -6766    -6763 
   -6760    -6768    -6775    -6772    -6777    -6783    -6783    -6783 
   -6783    -6785    -6789    -6801    -6818    -6835    -6851    -6864 
   -6875    -6885    -6885    -6882    -6889    -6897    -6909    -6937 
   -6959    -6982    -7011    -7033    -7060    -7099    -7137    -7177 
   -7223    -7269    -7315    -7356    -7392    -7427    -7460    -7491 
   -7519    -7543    -7573    -7600    -7608    -7609    -7604    -7581 
   -7547    -7519    -7488    -7456    -7425    -7392    -7354    -7319 
   -7287    -7257    -7233    -7209    -7183    -7155    -7128    -7103 
   -7083    -7060    -7042    -7037    -7033    -7021    -7005    -6986 
   -6963    -6941    -6918    -6894    -6876    -6864    -6840    -6810 
   -6785    -6755    -6718    -6685    -6655    -6632    -6613    -6590 
   -6565    -6535    -6497    -6463    -6436    -6404    -6370    -6340 
   -6303    -6261    -6215    -6164    -6118    -6073    -6022    -5983 
   -5948    -5900    -5860    -5829    -5794    -5767    -5753    -5752 
   -5765    -5787    -5815    -5849    -5886    -5925    -5968    -6014 
   -6058    -6106    -6160    -6215    -6261    -6307    -6353    -6390 
   -6430    -6470    -6511    -6559    -6609    -6651    -6694    -6725 
   -6741    -6758    -6766    -6768    -6782    -6795    -6812    -6826 
   -6832    -6829    -6816    -6793    -6781    -6774    -6772    -6783 
   -6797    -6806    -6816    -6821    -6826    -6840    -6855    -6871 
   -6890    -6910    -6933    -6951    -6960    -6963    -6953    -6939 
   -6920    -6903    -6891    -6878    -6862    -6848    -6828    -6802 
   -6779    -6756    -6731    -6706    -6682    -6658    -6637    -6624 
   -6616    -6613    -6623    -6640    -6654    -6667    -6681    -6693 
   -6704    -6714    -6729    -6755    -6787    -6817    -6840    -6858 
   -6871    -6879    -6886    -6898    -6909    -6922    -6945    -6966 
   -6982    -6998    -7013    -7041    -7072    -7102    -7148    -7192 
   -7227    -7265    -7299    -7333    -7380    -7433    -7485    -7534 
   -7573    -7603    -7619    -7619    -7620    -7620    -7615    -7616 
   -7616    -7605    -7591    -7561    -7520    -7483    -7437    -7393 
   -7360    -7321    -7284    -7250    -7209    -7169    -7125    -7074 
   -7037    -7007    -6978    -6948    -6912    -6872    -6828    -6777 
   -6728    -6671    -6613    -6556    -6488    -6419    -6347    -6269 
   -6204    -6154    -6102    -6062    -6029    -5989    -5964    -5940 
   -5915    -5906    -5906    -5914    -5935    -5957    -5983    -6015 
   -6048    -6087    -6138    -6189    -6254    -6335    -6403    -6465 
   -6538    -6589    -6625    -6670    -6702    -6721    -6743    -6756 
   -6763    -6764    -6751    -6733    -6712    -6685    -6666    -6651 
   -6632    -6620    -6616    -6612    -6612    -6613    -6617    -6637 
   -6670    -6709    -6758    -6812    -6867    -6926    -6990    -7057 
   -7115    -7171    -7231    -7285    -7323    -7356    -7380    -7395 
   -7395    -7377    -7344    -7303    -7261    -7215    -7168    -7115 
   -7061    -7009    -6948    -6883    -6824    -6771    -6732    -6704 
   -6678    -6666    -6664    -6659    -6659    -6663    -6662    -6673 
   -6690    -6706    -6731    -6752    -6766    -6785    -6794    -6801 
   -6817    -6828    -6835    -6845    -6847    -6839    -6835    -6832 
   -6828    -6831    -6841    -6852    -6867    -6879    -6883    -6895 
   -6912    -6930    -6967    -7011    -7049    -7095    -7138    -7173 
   -7213    -7252    -7287    -7323    -7352    -7373    -7399    -7412 
   -7419    -7427    -7427    -7419    -7400    -7365    -7329    -7287 
   -7236    -7188    -7138    -7082    -7028    -6974    -6918    -6870 
   -6829    -6797    -6770    -6743    -6720    -6705    -6690    -6671 
   -6666    -6669    -6671    -6679    -6685    -6687    -6694    -6698 
   -6698    -6704    -6706    -6702    -6698    -6697    -6681    -6655 
   -6632    -6608    -6579    -6558    -6547    -6536    -6525    -6519 
   -6505    -6489    -6474    -6457    -6443    -6438    -6428    -6428 
   -6443    -6453    -6458    -6469    -6477    -6482    -6489    -6490 
   -6492    -6486    -6473    -6462    -6447    -6430    -6417    -6404 
   -6393    -6389    -6381    -6373    -6372    -6373    -6384    -6407 
   -6436    -6469    -6507    -6551    -6596    -6639    -6685    -6733 
   -6782    -6828    -6876    -6922    -6957    -6983    -7007    -7025 
   -7038    -7053    -7074    -7096    -7117    -7130    -7142    -7153 
   -7160    -7169    -7179    -7186    -7199    -7215    -7230    -7248 
   -7264    -7285    -7312    -7333    -7353    -7379    -7404    -7434 
   -7464    -7497    -7531    -7553    -7569    -7582    -7585    -7581 
   -7573    -7562    -7549    -7531    -7510    -7480    -7437    -7392 
   -7346    -7296    -7253    -7210    -7159    -7110    -7056    -6990 
   -6924    -6855    -6787    -6724    -6659    -6596    -6536    -6467 
   -6396    -6331    -6262    -6207    -6162    -6118    -6084    -6057 
   -6031    -6008    -5987    -5961    -5944    -5934    -5931    -5934 
   -5946    -5967    -5992    -6021    -6052    -6083    -6115    -6158 
   -6215    -6285    -6358    -6438    -6525    -6601    -6670    -6739 
   -6802    -6860    -6920    -6982    -7047    -7098    -7138    -7176 
   -7202    -7217    -7223    -7227    -7227    -7219    -7206    -7192 
   -7175    -7148    -7118    -7084    -7047    -7010    -6975    -6939 
   -6903    -6871    -6836    -6802    -6771    -6737    -6702    -6670 
   -6642    -6613    -6596    -6585    -6575    -6574    -6582    -6593 
   -6609    -6631    -6652    -6682    -6720    -6759    -6799    -6837 
   -6868    -6901    -6929    -6949    -6968    -6983    -6997    -7011 
   -7011    -6997    -6974    -6948    -6922    -6901    -6882    -6864 
   -6849    -6832    -6805    -6768    -6732    -6697    -6662    -6642 
   -6628    -6610    -6596    -6583    -6566    -6543    -6523    -6512 
   -6512    -6515    -6524    -6535    -6539    -6536    -6531    -6532 
   -6542    -6555    -6583    -6621    -6659    -6701    -6744    -6790 
   -6847    -6903    -6967    -7033    -7095    -7156    -7215    -7268 
   -7315    -7362    -7414    -7462    -7508    -7554    -7592    -7619 
   -7643    -7665    -7676    -7682    -7688    -7692    -7689    -7688 
   -7686    -7678    -7674    -7668    -7649    -7638    -7624    -7597 
   -7573    -7546    -7507    -7474    -7445    -7414    -7389    -7368 
   -7341    -7302    -7256    -7206    -7148    -7086    -7034    -6987 
   -6941    -6901    -6863    -6821    -6783    -6748    -6706    -6669 
   -6636    -6601    -6571    -6539    -6502    -6469    -6435    -6394 
   -6354    -6311    -6264    -6222    -6189    -6145    -6095    -6054 
   -6006    -5958    -5922    -5888    -5860    -5840    -5826    -5822 
   -5821    -5827    -5852    -5886    -5922    -5965    -6015    -6068 
   -6122    -6176    -6235    -6304    -6372    -6443    -6521    -6593 
   -6663    -6732    -6795    -6856    -6916    -6972    -7018    -7056 
   -7098    -7140    -7176    -7213    -7244    -7269    -7299    -7323 
   -7342    -7362    -7384    -7407    -7426    -7442    -7458    -7465 
   -7461    -7458    -7457    -7456    -7456    -7450    -7443    -7435 
   -7416    -7389    -7362    -7331    -7299    -7272    -7242    -7204 
   -7164    -7118    -7068    -7014    -6957    -6899    -6844    -6790 
   -6735    -6681    -6631    -6589    -6552    -6519    -6496    -6486 
   -6484    -6482    -6482    -6484    -6496    -6520    -6544    -6571 
   -6610    -6658    -6702    -6751    -6794    -6833    -6874    -6910 
   -6947    -6983    -7018    -7056    -7086    -7113    -7141    -7163 
   -7183    -7211    -7237    -7257    -7275    -7288    -7306    -7317 
   -7319    -7325    -7331    -7334    -7335    -7335    -7339    -7345 
   -7342    -7334    -7327    -7323    -7317    -7308    -7302    -7296 
   -7288    -7273    -7257    -7248    -7245    -7238    -7237    -7244 
   -7242    -7234    -7233    -7234    -7238    -7246    -7265    -7294 
   -7318    -7334    -7352    -7364    -7372    -7376    -7377    -7379 
   -7377    -7366    -7348    -7319    -7283    -7245    -7200    -7141 
   -7074    -7005    -6922    -6825    -6725    -6629    -6534    -6434 
   -6330    -6226    -6120    -6014    -5921    -5836    -5755    -5684 
   -5625    -5570    -5518    -5479    -5455    -5448    -5463    -5487 
   -5521    -5568    -5621    -5668    -5711    -5764    -5826    -5892 
   -5964    -6041    -6104    -6160    -6218    -6272    -6316    -6367 
   -6423    -6467    -6504    -6534    -6551    -6563    -6574    -6582 
   -6590    -6604    -6610    -6613    -6615    -6613    -6610    -6612 
   -6620    -6635    -6651    -6666    -6674    -6681    -6681    -6675 
   -6678    -6686    -6700    -6720    -6744    -6770    -6798    -6822 
   -6845    -6876    -6916    -6956    -6997    -7045    -7098    -7138 
   -7177    -7222    -7260    -7298    -7342    -7384    -7423    -7466 
   -7506    -7541    -7572    -7592    -7604    -7618    -7628    -7628 
   -7623    -7604    -7576    -7542    -7499    -7445    -7388    -7330 
   -7269    -7209    -7142    -7074    -7003    -6936    -6868    -6801 
   -6743    -6686    -6633    -6592    -6551    -6513    -6484    -6461 
   -6443    -6424    -6409    -6401    -6394    -6394    -6397    -6404 
   -6413    -6415    -6419    -6431    -6438    -6447    -6459    -6467 
   -6478    -6489    -6489    -6488    -6489    -6485    -6475    -6467 
   -6462    -6459    -6455    -6451    -6442    -6430    -6415    -6396 
   -6377    -6367    -6362    -6357    -6354    -6358    -6367    -6376 
   -6389    -6408    -6438    -6474    -6511    -6554    -6608    -6659 
   -6714    -6775    -6831    -6886    -6949    -7017    -7090    -7161 
   -7236    -7307    -7371    -7433    -7492    -7551    -7615    -7673 
   -7723    -7770    -7815    -7852    -7885    -7917    -7948    -7969 
   -7981    -7987    -7983    -7977    -7963    -7932    -7897    -7852 
   -7790    -7727    -7654    -7566    -7483    -7396    -7300    -7206 
   -7105    -6993    -6878    -6764    -6652    -6543    -6438    -6331 
   -6231    -6131    -6025    -5922    -5819    -5719    -5626    -5537 
   -5456    -5385    -5313    -5247    -5186    -5132    -5088    -5058 
   -5049    -5054    -5066    -5096    -5146    -5197    -5258    -5335 
   -5421    -5526    -5641    -5765    -5903    -6041    -6176    -6315 
   -6451    -6589    -6741    -6898    -7051    -7204    -7353    -7487 
   -7607    -7717    -7815    -7904    -7992    -8063    -8124    -8181 
   -8225    -8253    -8276    -8286    -8278    -8266    -8248    -8221 
   -8191    -8163    -8129    -8091    -8050    -8001    -7954    -7904 
   -7848    -7801    -7750    -7695    -7643    -7597    -7547    -7493 
   -7443    -7396    -7346    -7299    -7252    -7203    -7161    -7122 
   -7083    -7047    -7014    -6979    -6945    -6917    -6895    -6870 
   -6847    -6832    -6820    -6808    -6804    -6805    -6808    -6808 
   -6805    -6802    -6795    -6786    -6772    -6752    -6727    -6704 
   -6683    -6662    -6637    -6615    -6589    -6558    -6525    -6493 
   -6465    -6440    -6417    -6400    -6388    -6372    -6350    -6326 
   -6301    -6282    -6268    -6254    -6245    -6238    -6230    -6223 
   -6214    -6203    -6189    -6176    -6166    -6158    -6150    -6147 
   -6147    -6147    -6150    -6160    -6173    -6185    -6196    -6216 
   -6241    -6264    -6288    -6319    -6359    -6405    -6450    -6504 
   -6559    -6612    -6667    -6720    -6775    -6840    -6902    -6960 
   -7025    -7087    -7145    -7207    -7271    -7331    -7389    -7445 
   -7491    -7530    -7565    -7591    -7609    -7622    -7626    -7620 
   -7604    -7569    -7535    -7497    -7445    -7389    -7329    -7258 
   -7190    -7123    -7059    -7001    -6949    -6902    -6856    -6814 
   -6775    -6736    -6702    -6681    -6660    -6642    -6628    -6619 
   -6610    -6608    -6605    -6602    -6606    -6615    -6621    -6633 
   -6644    -6659    -6679    -6705    -6735    -6767    -6799    -6828 
   -6856    -6880    -6894    -6913    -6934    -6945    -6953    -6963 
   -6961    -6953    -6941    -6926    -6907    -6875    -6841    -6812 
   -6779    -6745    -6709    -6667    -6627    -6589    -6548    -6513 
   -6481    -6446    -6416    -6390    -6366    -6346    -6326    -6313 
   -6311    -6305    -6305    -6312    -6326    -6345    -6367    -6393 
   -6431    -6473    -6517    -6565    -6615    -6669    -6727    -6782 
   -6839    -6895    -6945    -6997    -7049    -7102    -7149    -7182 
   -7211    -7241    -7261    -7272    -7284    -7291    -7292    -7284 
   -7267    -7242    -7215    -7187    -7155    -7122    -7090    -7059 
   -7025    -6983    -6939    -6898    -6858    -6816    -6775    -6739 
   -6705    -6669    -6633    -6598    -6563    -6531    -6505    -6488 
   -6474    -6465    -6459    -6453    -6450    -6459    -6470    -6485 
   -6517    -6556    -6594    -6637    -6681    -6716    -6754    -6793 
   -6831    -6870    -6914    -6956    -6991    -7024    -7051    -7069 
   -7086    -7094    -7101    -7110    -7118    -7123    -7130    -7130 
   -7119    -7105    -7095    -7083    -7068    -7061    -7052    -7041 
   -7032    -7021    -7007    -6991    -6978    -6967    -6951    -6939 
   -6932    -6918    -6898    -6880    -6867    -6852    -6833    -6818 
   -6808    -6791    -6775    -6759    -6737    -6712    -6687    -6664 
   -6644    -6631    -6621    -6615    -6615    -6615    -6619    -6628 
   -6636    -6647    -6667    -6690    -6709    -6727    -6743    -6758 
   -6777    -6797    -6809    -6817    -6822    -6821    -6817    -6810 
   -6794    -6775    -6755    -6731    -6704    -6675    -6640    -6605 
   -6570    -6538    -6512    -6485    -6451    -6416    -6382    -6354 
   -6331    -6308    -6286    -6277    -6272    -6268    -6266    -6268 
   -6270    -6278    -6289    -6303    -6319    -6336    -6358    -6378 
   -6393    -6405    -6417    -6426    -6435    -6448    -6463    -6477 
   -6485    -6493    -6498    -6502    -6511    -6515    -6516    -6519 
   -6521    -6520    -6517    -6515    -6511    -6504    -6502    -6508 
   -6516    -6528    -6544    -6559    -6573    -6590    -6604    -6619 
   -6639    -6658    -6686    -6724    -6759    -6797    -6839    -6878 
   -6916    -6956    -6995    -7032    -7075    -7122    -7172    -7219 
   -7264    -7308    -7346    -7376    -7412    -7452    -7488    -7519 
   -7543    -7564    -7578    -7588    -7595    -7600    -7601    -7600 
   -7599    -7593    -7573    -7547    -7522    -7485    -7452    -7422 
   -7387    -7352    -7315    -7273    -7229    -7183    -7134    -7088 
   -7041    -6997    -6953    -6909    -6868    -6833    -6801    -6771 
   -6751    -6735    -6720    -6708    -6700    -6696    -6698    -6704 
   -6716    -6733    -6754    -6781    -6810    -6835    -6855    -6876 
   -6895    -6909    -6922    -6933    -6943    -6951    -6953    -6957 
   -6961    -6956    -6947    -6932    -6916    -6902    -6886    -6874 
   -6863    -6847    -6833    -6816    -6793    -6778    -6768    -6755 
   -6744    -6732    -6718    -6708    -6694    -6679    -6670    -6660 
   -6651    -6642    -6631    -6620    -6612    -6608    -6604    -6600 
   -6596    -6592    -6590    -6585    -6581    -6583    -6588    -6593 
   -6604    -6612    -6617    -6628    -6640    -6646    -6651    -6663 
   -6675    -6685    -6690    -6694    -6702    -6714    -6729    -6741 
   -6748    -6755    -6759    -6763    -6763    -6763    -6762    -6755 
   -6740    -6729    -6717    -6691    -6663    -6642    -6613    -6583 
   -6558    -6531    -6501    -6470    -6440    -6421    -6405    -6384 
   -6367    -6359    -6355    -6354    -6357    -6366    -6377    -6386 
   -6405    -6427    -6447    -6470    -6492    -6515    -6535    -6547 
   -6556    -6570    -6586    -6602    -6620    -6637    -6656    -6669 
   -6671    -6670    -6671    -6674    -6678    -6690    -6706    -6721 
   -6736    -6748    -6759    -6767    -6774    -6786    -6805    -6824 
   -6849    -6878    -6905    -6932    -6955    -6976    -7003    -7034 
