Origin Time       2025/01/13 21:19:00
Lat.              31.8
Long.             131.6
Depth. (km)       30
Mag.              6.9
Station Code      TTRH03
Station Lat.      35.3553
Station Long.     133.4918
Station Height(m) 220
Record Time       2025/01/13 21:21:33
Sampling Freq(Hz) 100Hz
Duration Time(s)  120
Dir.              3
Scale Factor      2942(gal)/8224139
Max. Acc. (gal)   0.318
Last Correction   2025/01/13 21:21:36
Memo.             
[...]
   74542    74534    74534    74540    74545    74549    74544    74529 
   74524    74530    74542    74557    74565    74564    74557    74548 
   74538    74529    74525    74513    74499    74498    74497    74484 
   74474    74466    74453    74448    74445    74440    74430    74422 
   74430    74449    74459    74466    74479    74487    74487    74488 
   74499    74510    74510    74507    74506    74507    74522    74545 
   74557    74561    74575    74583    74586    74598    74611    74617 
   74621    74619    74615    74615    74621    74626    74634    74642 
   74646    74648    74652    74656    74655    74656    74664    74668 
   74664    74655    74644    74632    74625    74628    74636    74644 
   74644    74644    74648    74650    74652    74646    74634    74632 
   74638    74634    74614    74607    74606    74590    74578    74575 
   74565    74557    74557    74556    74556    74564    74571    74574 
   74579    74594    74607    74618    74636    74646    74653    74664 
   74682    74694    74698    74703    74710    74714    74718    74726 
   74734    74738    74738    74741    74749    74760    74758    74749 
   74749    74757    74760    74754    74744    74736    74729    74717 
   74706    74694    74676    74671    74664    74641    74622    74607 
   74595    74598    74595    74575    74561    74560    74552    74548 
   74549    74549    74544    74528    74510    74499    74487    74480 
   74484    74490    74494    74514    74544    74563    74584    74607 
   74615    74622    74637    74648    74660    74682    74694    74703 
   74715    74717    74710    74709    74711    74709    74706    74706 
   74699    74688    74684    74687    74684    74673    74663    74650 
   74638    74632    74628    74617    74610    74607    74602    74598 
   74603    74605    74601    74596    74582    74560    74542    74536 
   74540    74542    74541    74538    74533    74536    74542    74548 
   74552    74552    74551    74556    74561    74564    74564    74563 
   74561    74556    74555    74557    74556    74559    74572    74579 
   74569    74561    74556    74549    74552    74555    74556    74559 
   74556    74553    74552    74549    74542    74536    74530    74530 
   74533    74530    74529    74532    74532    74526    74525    74521 
   74510    74509    74513    74505    74493    74479    74467    74461 
   74455    74448    74447    74437    74430    74441    74451    74451 
   74457    74464    74460    74453    74444    74440    74441    74439 
   74436    74433    74430    74437    74441    74437    74441    74449 
   74449    74445    74447    74455    74467    74479    74484    74484 
   74488    74491    74484    74475    74470    74461    74448    74436 
   74437    74441    74444    74449    74453    74461    74472    74475 
   74478    74479    74474    74470    74467    74470    74476    74483 
   74486    74488    74497    74502    74494    74487    74487    74487 
   74488    74498    74513    74529    74545    74555    74559    74565 
   74574    74582    74587    74591    74595    74599    74606    74613 
   74617    74622    74629    74634    74638    74642    74645    74649 
   74661    74669    74667    74669    74682    74692    74700    74703 
   74704    74706    74699    74690    74692    74694    74690    74686 
   74673    74663    74664    74663    74655    74646    74641    74637 
   74636    74638    74636    74622    74614    74614    74613    74614 
   74618    74619    74630    74636    74629    74628    74628    74621 
   74613    74610    74603    74594    74587    74584    74578    74568 
   74568    74565    74552    74544    74542    74534    74533    74537 
   74536    74532    74529    74533    74547    74557    74563    74565 
   74574    74586    74595    74599    74602    74601    74594    74588 
   74590    74596    74603    74605    74606    74609    74610    74619 
   74629    74629    74625    74625    74629    74636    74637    74633 
   74636    74646    74650    74648    74648    74653    74661    74664 
   74661    74665    74672    74673    74680    74687    74695    74713 
   74730    74740    74758    74781    74798    74807    74808    74806 
   74807    74804    74808    74808    74804    74810    74812    74799 
   74794    74798    74795    74788    74781    74781    74783    74780 
   74788    74799    74796    74792    74792    74785    74784    74788 
   74779    74768    74769    74773    74773    74771    74767    74760 
   74752    74750    74758    74758    74754    74757    74758    74757 
   74756    74749    74741    74730    74717    74707    74700    74695 
   74696    74699    74696    74695    74691    74677    74664    74650 
   74638    74633    74622    74598    74575    74551    74525    74509 
   74497    74488    74480    74468    74455    74444    74434    74429 
   74425    74420    74414    74403    74390    74383    74383    74380 
   74385    74393    74401    74405    74409    74409    74406    74401 
   74397    74399    74405    74403    74399    74398    74398    74402 
   74405    74405    74410    74420    74430    74448    74468    74479 
   74483    74501    74526    74542    74553    74571    74587    74591 
   74592    74599    74606    74611    74621    74629    74632    74633 
   74636    74630    74619    74613    74613    74610    74603    74596 
   74591    74588    74591    74594    74594    74594    74595    74592 
   74587    74574    74559    74552    74553    74547    74537    74530 
   74521    74510    74505    74503    74498    74490    74479    74472 
   74466    74461    74464    74463    74463    74471    74482    74493 
   74507    74521    74529    74537    74549    74568    74587    74598 
   74607    74623    74638    74646    74648    74649    74655    74663 
   74665    74663    74661    74663    74660    74655    74645    74632 
   74613    74599    74594    74587    74578    74568    74552    74538 
   74532    74518    74502    74498    74497    74488    74478    74468 
   74459    74449    74445    74445    74447    74447    74439    74430 
   74428    74424    74414    74405    74401    74394    74383    74370 
   74353    74339    74336    74343    74347    74348    74349    74355 
   74359    74368    74385    74397    74407    74421    74436    74452 
   74464    74470    74479    74498    74515    74525    74532    74529 
   74529    74547    74564    74567    74576    74592    74605    74611 
   74614    74615    74619    74625    74637    74648    74656    74673 
   74684    74694    74707    74709    74706    74713    74715    74713 
   74713    74719    74727    74726    74722    74722    74713    74706 
   74711    74713    74707    74700    74695    74692    74690    74695 
   74696    74684    74673    74673    74667    74663    74671    74672 
   74668    74667    74667    74669    74671    74667    74667    74665 
   74660    74660    74663    74664    74668    74668    74664    74665 
   74675    74679    74682    74687    74683    74673    74669    74671 
   74665    74656    74655    74657    74649    74632    74625    74625 
   74617    74607    74606    74602    74591    74588    74592    74588 
   74583    74579    74569    74563    74557    74553    74553    74553 
   74553    74556    74555    74555    74556    74549    74545    74540 
   74532    74529    74518    74507    74513    74520    74518    74522 
   74529    74526    74517    74517    74522    74522    74526    74530 
   74526    74524    74520    74515    74514    74510    74505    74501 
   74498    74497    74491    74483    74483    74488    74494    74495 
   74491    74494    74499    74498    74502    74509    74517    74521 
   74524    74528    74526    74520    74518    74520    74517    74518 
   74525    74526    74528    74528    74525    74525    74530    74532 
   74536    74548    74557    74563    74572    74582    74590    74596 
   74601    74602    74609    74618    74618    74615    74615    74613 
   74614    74617    74609    74592    74576    74567    74557    74542 
   74536    74533    74525    74517    74513    74511    74515    74518 
   74517    74515    74507    74501    74499    74499    74499    74501 
   74498    74498    74498    74491    74486    74490    74497    74497 
   74503    74515    74522    74532    74549    74564    74571    74576 
   74588    74609    74625    74633    74644    74661    74671    74677 
   74688    74696    74707    74721    74729    74740    74756    74763 
   74764    74768    74768    74767    74773    74776    74775    74775 
   74768    74765    74767    74768    74768    74765    74757    74754 
   74757    74763    74771    74775    74777    74785    74794    74802 
   74808    74819    74838    74854    74865    74881    74903    74922 
   74933    74938    74947    74961    74964    74961    74965    74960 
   74949    74938    74922    74904    74893    74877    74857    74834 
   74806    74777    74753    74733    74710    74683    74659    74637 
   74611    74587    74569    74548    74526    74514    74503    74494 
   74486    74478    74472    74472    74475    74475    74471    74472 
   74476    74479    74484    74494    74505    74510    74507    74502 
   74501    74501    74502    74499    74497    74497    74495    74488 
   74486    74483    74472    74459    74448    74437    74428    74413 
   74401    74393    74380    74362    74348    74340    74326    74310 
   74298    74289    74274    74262    74258    74252    74245    74239 
   74229    74221    74212    74202    74198    74189    74174    74163 
   74163    74166    74169    74175    74183    74189    74196    74204 
   74210    74221    74231    74233    74231    74232    74235    74237 
   74243    74251    74255    74254    74256    74263    74268    74266 
   74263    74264    74262    74260    74266    74270    74270    74271 
   74272    74272    74275    74274    74279    74291    74298    74306 
   74316    74328    74340    74348    74359    74375    74391    74401 
   74410    74425    74437    74443    74453    74463    74474    74488 
   74502    74514    74532    74552    74569    74592    74615    74637 
   74667    74700    74733    74760    74783    74804    74823    74842 
   74862    74876    74887    74895    74898    74906    74918    74931 
   74949    74965    74974    74985    74997    75015    75030    75035 
   75049    75072    75088    75101    75118    75134    75153    75170 
   75180    75196    75212    75223    75242    75259    75267    75281 
   75294    75300    75305    75313    75315    75304    75293    75290 
   75276    75253    75234    75208    75181    75162    75138    75114 
   75096    75077    75058    75039    75023    75011    74996    74984 
   74976    74961    74943    74931    74922    74912    74900    74889 
   74880    74871    74856    74834    74823    74815    74798    74781 
   74761    74736    74714    74692    74668    74641    74610    74583 
   74552    74513    74484    74464    74441    74418    74402    74380 
   74362    74351    74339    74325    74316    74304    74290    74281 
   74268    74262    74255    74241    74231    74225    74220    74216 
   74208    74206    74213    74213    74209    74210    74216    74216 
   74212    74220    74232    74229    74231    74239    74245    74254 
   74263    74278    74295    74310    74320    74333    74353    74374 
   74386    74398    74406    74414    74428    74437    74444    74444 
   74441    74444    74445    74441    74440    74444    74439    74434 
   74434    74434    74436    74444    74444    74436    74433    74437 
   74440    74445    74453    74459    74468    74479    74486    74498 
   74514    74528    74542    74555    74561    74568    74576    74579 
   74580    74579    74578    74578    74575    74568    74561    74559 
   74551    74537    74522    74510    74499    74495    74488    74476 
   74467    74459    74455    74455    74449    74447    74452    74455 
   74452    74452    74461    74472    74476    74482    74486    74486 
   74493    74505    74513    74517    74522    74532    74542    74553 
   74563    74579    74598    74615    74628    74636    74645    74655 
   74664    74673    74682    74688    74700    74706    74713    74725 
   74727    74723    74723    74723    74719    74713    74704    74695 
   74690    74687    74679    74673    74665    74656    74652    74648 
   74641    74633    74626    74623    74619    74615    74618    74618 
   74621    74630    74637    74641    74644    74648    74655    74661 
   74669    74679    74687    74698    74706    74714    74723    74731 
   74736    74737    74737    74741    74740    74740    74745    74742 
   74736    74733    74729    74723    74722    74715    74709    74704 
   74700    74696    74691    74686    74684    74676    74667    74664 
   74652    74638    74632    74619    74603    74591    74578    74561 
   74544    74526    74509    74494    74474    74451    74428    74406 
   74383    74360    74336    74312    74289    74264    74239    74214 
   74186    74169    74162    74152    74142    74136    74129    74123 
   74124    74123    74119    74123    74132    74144    74162    74182 
   74201    74225    74254    74281    74312    74339    74364    74399 
   74440    74482    74525    74565    74607    74653    74700    74749 
   74796    74848    74896    74945    74991    75034    75084    75134 
   75174    75215    75255    75286    75317    75351    75375    75393 
   75417    75438    75446    75454    75466    75473    75470    75463 
   75451    75435    75420    75404    75378    75350    75319    75286 
   75254    75222    75185    75142    75097    75054    75010    74969 
   74933    74887    74841    74803    74758    74711    74673    74632 
   74586    74542    74505    74468    74436    74401    74363    74332 
   74305    74277    74258    74237    74216    74204    74194    74186 
   74190    74201    74209    74221    74235    74248    74266    74287 
   74308    74322    74337    74363    74386    74402    74418    74428 
   74443    74461    74471    74483    74495    74502    74510    74506 
   74491    74484    74483    74471    74452    74436    74418    74401 
   74390    74383    74371    74366    74359    74349    74348    74345 
   74344    74353    74364    74368    74376    74393    74406    74417 
   74433    74451    74460    74475    74493    74503    74515    74529 
   74537    74544    74552    74565    74579    74592    74605    74615 
   74630    74648    74661    74675    74694    74709    74722    74740 
   74756    74767    74776    74790    74802    74814    74831    74846 
   74854    74861    74864    74864    74861    74854    74850    74841 
   74821    74799    74785    74769    74740    74709    74686    74657 
   74622    74586    74549    74514    74474    74439    74413    74380 
   74340    74306    74274    74241    74213    74183    74156    74135 
   74116    74101    74092    74081    74069    74061    74056    74054 
   74052    74052    74048    74044    74051    74055    74050    74054 
   74065    74063    74059    74066    74079    74086    74088    74098 
   74113    74121    74135    74148    74162    74179    74194    74205 
   74227    74250    74264    74286    74316    74349    74385    74416 
   74443    74472    74497    74526    74565    74596    74619    74642 
   74665    74688    74709    74726    74745    74764    74771    74776 
   74794    74811    74815    74822    74839    74850    74848    74848 
   74850    74846    74841    74841    74842    74837    74829    74822 
   74818    74818    74817    74810    74807    74810    74807    74802 
   74808    74819    74826    74835    74849    74861    74872    74881 
   74887    74892    74900    74906    74908    74910    74906    74906 
   74915    74919    74920    74929    74929    74930    74934    74930 
   74933    74938    74934    74931    74930    74930    74937    74938 
   74938    74943    74946    74953    74966    74976    74976    74984 
   74999    75007    75006    75011    75024    75035    75049    75058 
   75065    75078    75091    75095    75097    75100    75104    75104 
   75095    75089    75085    75074    75062    75047    75027    75008 
   74985    74957    74929    74899    74861    74819    74781    74749 
   74714    74676    74641    74609    74578    74542    74509    74483 
   74460    74436    74416    74402    74380    74355    74337    74321 
   74299    74282    74270    74256    74244    74239    74236    74235 
   74233    74235    74243    74248    74244    74251    74267    74271 
   74271    74281    74289    74295    74304    74310    74317    74321 
   74324    74326    74333    74344    74356    74367    74375    74385 
   74394    74399    74409    74420    74426    74434    74439    74443 
   74451    74453    74452    74456    74455    74447    74443    74437 
   74430    74428    74426    74425    74421    74414    74417    74425 
   74422    74420    74421    74416    74405    74401    74394    74378 
   74364    74355    74340    74326    74313    74297    74285    74270 
   74250    74233    74217    74193    74173    74156    74133    74112 
   74098    74083    74067    74056    74048    74036    74028    74023 
   74016    74019    74024    74023    74029    74044    74050    74055 
   74066    74074    74082    74094    74109    74120    74125    74137 
   74154    74162    74169    74182    74193    74202    74214    74224 
   74231    74237    74244    74254    74263    74277    74289    74295 
   74306    74322    74335    74340    74348    74362    74371    74383 
   74399    74413    74429    74451    74466    74482    74501    74517 
   74533    74549    74567    74587    74609    74629    74648    74665 
   74682    74704    74727    74749    74776    74803    74826    74849 
   74877    74908    74935    74960    74979    74991    75011    75033 
   75042    75051    75066    75073    75076    75077    75080    75085 
   75092    75089    75085    75088    75089    75088    75081    75073 
   75074    75076    75069    75068    75065    75061    75062    75061 
   75061    75069    75076    75077    75082    75085    75089    75096 
   75099    75097    75097    75104    75108    75100    75093    75087 
   75074    75061    75045    75023    74997    74970    74942    74912 
   74881    74845    74807    74776    74741    74700    74664    74625 
   74584    74544    74503    74464    74428    74391    74358    74328 
   74299    74275    74258    74244    74229    74216    74208    74206 
   74206    74210    74216    74221    74239    74259    74268    74285 
   74316    74337    74360    74394    74428    74455    74487    74521 
   74547    74572    74603    74630    74650    74673    74694    74713 
   74734    74753    74767    74779    74792    74804    74814    74819 
   74822    74831    74841    74841    74844    74850    74850    74849 
   74852    74848    74838    74837    74834    74822    74807    74791 
   74773    74753    74727    74709    74686    74653    74622    74598 
   74574    74541    74513    74491    74470    74449    74434    74424 
   74413    74402    74393    74385    74382    74385    74390    74391 
   74394    74403    74407    74412    74422    74436    74448    74461 
   74472    74486    74506    74522    74529    74542    74565    74587 
