Origin Time       2025/01/13 21:19:00
Lat.              31.8
Long.             131.6
Depth. (km)       30
Mag.              6.9
Station Code      TYMH04
Station Lat.      36.7914
Station Long.     137.4689
Station Height(m) 154
Record Time       2025/01/13 21:23:46
Sampling Freq(Hz) 100Hz
Duration Time(s)  120
Dir.              5
Scale Factor      7845(gal)/8223790
Max. Acc. (gal)   0.250
Last Correction   2025/01/13 21:23:48
Memo.             
[...]
    1838     1838     1840     1838     1840     1842     1842     1842 
    1846     1849     1846     1846     1849     1852     1853     1849 
    1849     1852     1852     1850     1850     1854     1854     1856 
    1854     1852     1853     1857     1857     1854     1853     1853 
    1853     1854     1856     1852     1852     1854     1852     1850 
    1854     1853     1849     1849     1849     1846     1848     1852 
    1850     1845     1844     1842     1841     1841     1841     1840 
    1840     1838     1836     1836     1836     1834     1831     1830 
    1831     1830     1829     1830     1827     1823     1825     1826 
    1823     1822     1821     1819     1819     1819     1818     1817 
    1818     1817     1814     1815     1815     1811     1811     1815 
    1813     1810     1814     1814     1811     1813     1810     1806 
    1810     1811     1807     1807     1809     1807     1804     1807 
    1806     1803     1804     1804     1803     1803     1803     1802 
    1802     1800     1802     1802     1800     1800     1798     1796 
    1799     1796     1795     1798     1796     1795     1795     1796 
    1795     1794     1794     1796     1794     1790     1791     1792 
    1790     1792     1795     1792     1791     1791     1791     1791 
    1792     1791     1791     1792     1790     1788     1788     1791 
    1791     1791     1791     1792     1790     1788     1791     1791 
    1790     1791     1792     1792     1792     1791     1791     1790 
    1790     1788     1790     1791     1790     1788     1788     1790 
    1790     1786     1786     1788     1786     1784     1784     1782 
    1780     1780     1777     1775     1777     1777     1772     1772 
    1772     1767     1765     1767     1768     1767     1761     1756 
    1757     1757     1753     1752     1750     1749     1749     1750 
    1748     1742     1741     1738     1736     1736     1733     1733 
    1733     1732     1733     1732     1729     1729     1728     1726 
    1726     1726     1728     1728     1726     1725     1728     1729 
    1729     1728     1730     1733     1732     1732     1733     1736 
    1736     1734     1738     1741     1740     1742     1746     1744 
    1746     1753     1755     1756     1757     1760     1760     1761 
    1764     1769     1769     1771     1775     1776     1776     1780 
    1782     1783     1786     1787     1790     1792     1791     1792 
    1802     1804     1803     1806     1807     1809     1814     1817 
    1815     1818     1821     1819     1822     1827     1827     1827 
    1829     1829     1829     1834     1836     1834     1837     1840 
    1838     1838     1842     1844     1842     1841     1846     1848 
    1849     1849     1846     1845     1849     1850     1848     1849 
    1853     1850     1849     1852     1849     1848     1849     1849 
    1850     1850     1848     1845     1848     1845     1842     1845 
    1842     1838     1838     1840     1837     1836     1836     1831 
    1829     1830     1830     1829     1826     1823     1822     1822 
    1821     1817     1817     1817     1813     1811     1814     1813 
    1809     1809     1806     1804     1807     1807     1803     1802 
    1800     1799     1803     1804     1798     1795     1798     1799 
    1796     1796     1799     1792     1788     1792     1794     1791 
    1791     1791     1790     1787     1788     1790     1787     1784 
    1782     1779     1780     1784     1783     1780     1777     1775 
    1773     1775     1776     1772     1768     1768     1769     1771 
    1769     1767     1764     1760     1757     1759     1759     1756 
    1750     1748     1748     1748     1750     1748     1741     1740 
    1740     1740     1741     1737     1730     1728     1729     1729 
    1728     1726     1719     1715     1719     1721     1718     1717 
    1715     1711     1710     1711     1711     1709     1707     1707 
    1706     1706     1709     1709     1705     1705     1706     1709 
    1713     1710     1709     1710     1713     1715     1717     1718 
    1717     1717     1722     1726     1729     1730     1730     1730 
    1737     1744     1746     1748     1750     1753     1757     1759 
    1763     1765     1767     1771     1776     1779     1783     1787 
    1788     1792     1795     1798     1802     1806     1804     1804 
    1810     1817     1822     1821     1819     1821     1825     1830 
    1834     1833     1834     1837     1841     1844     1846     1846 
    1842     1844     1849     1850     1850     1850     1850     1852 
    1854     1856     1854     1854     1854     1854     1856     1857 
    1858     1858     1858     1858     1856     1853     1858     1861 
    1857     1856     1856     1856     1857     1856     1856     1854 
    1853     1852     1853     1856     1854     1853     1850     1849 
    1852     1854     1852     1848     1850     1853     1850     1850 
    1850     1849     1848     1848     1845     1845     1846     1844 
    1841     1844     1845     1840     1838     1841     1837     1830 
    1831     1833     1831     1830     1830     1830     1827     1823 
    1825     1822     1821     1821     1818     1811     1811     1811 
    1807     1807     1806     1803     1800     1799     1796     1794 
    1791     1790     1788     1787     1787     1783     1775     1777 
    1780     1773     1771     1771     1765     1761     1765     1765 
    1763     1759     1755     1753     1756     1756     1752     1749 
    1749     1750     1749     1746     1748     1746     1741     1741 
    1741     1740     1740     1741     1740     1737     1738     1741 
    1740     1738     1738     1736     1736     1740     1741     1740 
    1740     1738     1741     1744     1741     1742     1744     1742 
    1741     1744     1748     1746     1742     1745     1749     1748 
    1749     1749     1748     1750     1753     1750     1753     1761 
    1760     1756     1759     1760     1760     1763     1765     1765 
    1767     1767     1764     1767     1775     1776     1772     1773 
    1779     1779     1776     1777     1780     1780     1784     1787 
    1791     1794     1791     1787     1790     1795     1800     1803 
    1798     1794     1799     1807     1810     1807     1807     1809 
    1814     1818     1818     1815     1817     1819     1821     1823 
    1830     1833     1827     1823     1827     1838     1848     1842 
    1830     1833     1845     1849     1846     1840     1836     1840 
    1852     1854     1848     1844     1848     1852     1850     1852 
    1854     1852     1846     1848     1853     1857     1853     1842 
    1840     1849     1858     1852     1841     1838     1841     1845 
    1846     1842     1833     1830     1836     1837     1831     1829 
    1825     1819     1818     1819     1819     1815     1810     1800 
    1799     1807     1809     1798     1790     1788     1786     1784 
    1784     1782     1772     1764     1763     1768     1769     1756 
    1749     1753     1750     1746     1746     1744     1733     1723 
    1729     1738     1736     1725     1709     1705     1718     1728 
    1718     1706     1702     1694     1692     1713     1719     1694 
    1679     1688     1695     1694     1694     1687     1675     1672 
    1682     1692     1690     1668     1657     1674     1686     1676 
    1671     1674     1663     1655     1672     1691     1678     1651 
    1653     1675     1684     1678     1668     1663     1661     1667 
    1679     1688     1679     1663     1665     1682     1691     1687 
    1680     1680     1683     1687     1695     1702     1699     1691 
    1696     1710     1714     1710     1711     1714     1718     1725 
    1730     1733     1734     1734     1737     1744     1749     1752 
    1755     1756     1759     1765     1771     1773     1776     1779 
    1779     1783     1792     1796     1796     1799     1802     1804 
    1810     1814     1817     1819     1822     1821     1827     1833 
    1830     1831     1844     1849     1846     1845     1848     1853 
    1858     1860     1864     1871     1868     1860     1868     1887 
    1883     1871     1879     1888     1883     1890     1902     1891 
    1883     1900     1910     1900     1902     1904     1900     1904 
    1918     1919     1914     1907     1902     1910     1931     1931 
    1910     1910     1919     1911     1918     1934     1922     1907 
    1915     1921     1919     1922     1922     1915     1911     1915 
    1919     1915     1914     1912     1907     1912     1917     1911 
    1906     1903     1899     1902     1902     1896     1895     1895 
    1894     1891     1888     1887     1890     1884     1873     1871 
    1877     1880     1873     1865     1861     1860     1860     1860 
    1853     1849     1849     1845     1840     1842     1842     1834 
    1826     1822     1827     1831     1821     1810     1813     1813 
    1809     1809     1809     1798     1787     1794     1802     1792 
    1782     1784     1787     1786     1776     1772     1782     1777 
    1757     1764     1783     1771     1750     1759     1771     1757 
    1749     1764     1764     1740     1741     1768     1765     1737 
    1737     1759     1756     1740     1745     1753     1744     1734 
    1741     1748     1745     1737     1736     1742     1738     1729 
    1738     1746     1733     1723     1740     1744     1723     1723 
    1745     1740     1719     1725     1740     1733     1719     1723 
    1733     1728     1722     1728     1734     1726     1717     1722 
    1734     1728     1715     1723     1733     1721     1718     1730 
    1730     1718     1718     1728     1728     1723     1726     1726 
    1722     1725     1733     1733     1728     1726     1728     1732 
    1733     1733     1734     1736     1738     1740     1740     1744 
    1742     1740     1748     1752     1746     1753     1759     1752 
    1752     1759     1767     1771     1768     1765     1767     1776 
    1788     1784     1777     1788     1787     1786     1809     1811 
    1790     1796     1815     1810     1813     1829     1827     1811 
    1817     1845     1850     1836     1837     1836     1841     1864 
    1858     1846     1868     1863     1841     1876     1906     1865 
    1848     1883     1880     1865     1907     1914     1858     1868 
    1914     1896     1892     1921     1891     1868     1912     1926 
    1899     1899     1908     1892     1891     1918     1926     1899 
    1885     1898     1907     1915     1912     1898     1895     1888 
    1885     1915     1911     1875     1883     1894     1873     1887 
    1900     1872     1857     1871     1876     1873     1871     1850 
    1844     1871     1867     1833     1852     1867     1815     1815 
    1871     1844     1798     1827     1836     1806     1815     1826 
    1804     1790     1799     1807     1795     1787     1788     1779 
    1787     1788     1763     1780     1792     1744     1755     1806 
    1763     1728     1773     1775     1734     1746     1771     1749 
    1732     1749     1748     1741     1757     1742     1721     1750 
    1755     1728     1744     1750     1726     1729     1749     1749 
    1736     1730     1742     1737     1728     1760     1765     1718 
    1722     1764     1752     1732     1750     1759     1738     1738 
    1765     1765     1738     1749     1768     1750     1749     1771 
    1767     1748     1750     1772     1772     1752     1769     1787 
    1752     1752     1796     1780     1756     1782     1786     1769 
    1769     1786     1800     1776     1767     1802     1796     1772 
    1788     1810     1803     1775     1790     1825     1796     1779 
    1817     1811     1784     1815     1833     1792     1792     1833 
    1823     1806     1829     1826     1811     1819     1821     1833 
    1842     1815     1821     1837     1826     1842     1848     1818 
    1827     1853     1844     1829     1837     1854     1840     1822 
    1853     1869     1837     1833     1841     1852     1864     1836 
    1841     1869     1830     1830     1876     1852     1829     1849 
    1850     1844     1850     1854     1850     1836     1838     1861 
    1848     1836     1854     1846     1831     1842     1848     1852 
    1831     1822     1856     1849     1818     1838     1852     1827 
    1827     1841     1841     1841     1825     1826     1848     1827 
    1826     1852     1827     1815     1841     1836     1818     1825 
    1844     1837     1813     1821     1837     1829     1821     1826 
    1841     1826     1811     1837     1833     1807     1841     1842 
    1804     1825     1845     1821     1817     1829     1827     1827 
    1823     1825     1836     1825     1810     1821     1830     1830 
    1819     1807     1822     1827     1814     1817     1815     1810 
    1821     1815     1803     1811     1815     1804     1802     1806 
    1813     1807     1786     1782     1804     1811     1795     1777 
    1780     1799     1786     1765     1790     1791     1764     1761 
    1769     1780     1776     1749     1745     1764     1775     1761 
    1734     1744     1761     1742     1750     1768     1726     1719 
    1768     1741     1699     1765     1802     1718     1641     1695 
    1818     1782     1636     1715     1854     1671     1533     1819 
    1931     1601     1595     1867     1728     1590     1802     1836 
    1645     1625     1809     1833     1607     1655     1892     1734 
    1571     1794     1875     1657     1602     1823     1861     1624 
    1688     1895     1706     1607     1834     1850     1692     1672 
    1779     1827     1725     1723     1831     1757     1698     1794 
    1802     1753     1768     1787     1771     1745     1795     1829 
    1750     1746     1834     1807     1745     1798     1829     1773 
    1783     1823     1790     1783     1834     1819     1769     1803 
    1838     1807     1810     1830     1811     1804     1823     1838 
    1830     1814     1822     1827     1823     1840     1842     1826 
    1831     1826     1837     1873     1841     1806     1849     1861 
    1830     1852     1871     1834     1831     1873     1868     1844 
    1856     1848     1854     1896     1858     1788     1849     1941 
    1908     1821     1803     1858     1884     1858     1890     1921 
    1848     1776     1815     1919     1941     1865     1826     1827 
    1844     1904     1900     1804     1787     1887     1953     1884 
    1794     1813     1860     1845     1857     1915     1891     1776 
    1757     1887     1937     1830     1795     1853     1846     1815 
    1846     1858     1811     1791     1826     1868     1888     1811 
    1725     1814     1876     1800     1827     1865     1768     1763 
    1853     1822     1767     1823     1838     1761     1767     1840 
    1821     1775     1779     1780     1807     1806     1760     1794 
    1818     1755     1761     1810     1782     1768     1794     1767 
    1749     1784     1794     1775     1768     1764     1755     1768 
    1791     1777     1750     1746     1765     1787     1780     1755 
    1755     1757     1755     1777     1788     1755     1732     1752 
    1773     1776     1768     1756     1744     1744     1767     1787 
    1775     1744     1741     1763     1772     1772     1767     1752 
    1745     1759     1777     1777     1761     1746     1748     1764 
    1775     1769     1761     1752     1752     1764     1771     1771 
    1757     1742     1750     1769     1773     1763     1745     1750 
    1764     1761     1759     1757     1749     1749     1760     1764 
    1756     1752     1753     1752     1756     1763     1757     1748 
    1750     1759     1757     1757     1760     1750     1752     1763 
    1760     1756     1760     1763     1763     1765     1767     1764 
    1765     1771     1769     1771     1773     1769     1773     1783 
    1777     1772     1779     1780     1780     1788     1788     1782 
    1787     1791     1790     1796     1796     1779     1782     1802 
    1800     1796     1803     1802     1792     1790     1809     1819 
    1794     1780     1804     1821     1806     1780     1787     1813 
    1817     1811     1806     1788     1787     1806     1807     1795 
    1802     1817     1794     1761     1800     1853     1803     1729 
    1760     1837     1834     1763     1746     1798     1813     1788 
    1783     1782     1769     1768     1780     1777     1779     1804 
    1791     1728     1736     1817     1821     1738     1710     1771 
    1815     1775     1723     1753     1788     1760     1746     1761 
    1752     1742     1757     1764     1755     1752     1757     1744 
    1730     1763     1788     1745     1711     1745     1776     1761 
    1745     1750     1746     1737     1757     1772     1750     1744 
    1760     1752     1748     1768     1767     1746     1745     1764 
    1775     1759     1757     1773     1765     1755     1773     1790 
    1776     1761     1773     1788     1776     1775     1795     1794 
    1777     1788     1799     1790     1791     1807     1811     1791 
    1779     1800     1826     1818     1803     1811     1815     1804 
    1813     1829     1826     1814     1815     1826     1827     1826 
    1830     1836     1834     1822     1837     1861     1827     1799 
    1848     1877     1841     1826     1849     1841     1825     1850 
    1861     1845     1842     1842     1846     1853     1846     1841 
    1852     1857     1845     1848     1858     1842     1836     1860 
    1875     1856     1830     1830     1850     1867     1858     1837 
    1840     1852     1844     1846     1858     1848     1831     1841 
    1858     1845     1829     1842     1849     1834     1840     1858 
    1840     1809     1829     1860     1852     1829     1822     1829 
    1833     1827     1827     1837     1831     1811     1821     1838 
    1823     1813     1817     1809     1809     1830     1827     1803 
    1800     1810     1804     1807     1814     1800     1788     1796 
    1798     1791     1795     1796     1788     1788     1788     1779 
    1776     1777     1776     1779     1773     1764     1765     1771 
    1764     1759     1763     1757     1753     1764     1765     1742 
    1740     1755     1749     1742     1750     1745     1728     1730 
    1746     1744     1732     1729     1730     1729     1733     1737 
    1729     1721     1723     1729     1732     1730     1719     1713 
    1722     1730     1730     1729     1721     1715     1721     1728 
    1732     1728     1717     1719     1732     1734     1732     1726 
    1725     1726     1733     1742     1738     1728     1732     1741 
    1744     1748     1749     1740     1737     1749     1759     1757 
    1749     1746     1756     1764     1767     1767     1763     1763 
    1769     1773     1779     1780     1772     1773     1780     1786 
    1791     1791     1784     1782     1794     1802     1795     1795 
    1799     1798     1800     1806     1803     1800     1809     1813 
