Origin Time       2025/01/13 21:19:00
Lat.              31.8
Long.             131.6
Depth. (km)       30
Mag.              6.9
Station Code      TYMH04
Station Lat.      36.7914
Station Long.     137.4689
Station Height(m) 154
Record Time       2025/01/13 21:23:46
Sampling Freq(Hz) 100Hz
Duration Time(s)  120
Dir.              4
Scale Factor      7845(gal)/8223790
Max. Acc. (gal)   0.161
Last Correction   2025/01/13 21:23:48
Memo.             
[...]
   -6075    -6070    -6068    -6062    -6060    -6057    -6053    -6053 
   -6052    -6046    -6043    -6041    -6041    -6041    -6038    -6035 
   -6034    -6030    -6026    -6027    -6027    -6025    -6023    -6023 
   -6023    -6018    -6015    -6018    -6019    -6021    -6021    -6018 
   -6018    -6019    -6019    -6021    -6022    -6021    -6022    -6026 
   -6026    -6026    -6027    -6030    -6033    -6033    -6034    -6037 
   -6041    -6043    -6046    -6048    -6049    -6052    -6056    -6060 
   -6061    -6062    -6066    -6070    -6073    -6077    -6080    -6080 
   -6083    -6088    -6089    -6092    -6097    -6099    -6102    -6108 
   -6112    -6112    -6118    -6120    -6119    -6120    -6124    -6129 
   -6130    -6131    -6135    -6138    -6137    -6139    -6143    -6145 
   -6146    -6149    -6153    -6153    -6149    -6150    -6154    -6154 
   -6156    -6158    -6160    -6160    -6160    -6160    -6161    -6161 
   -6158    -6158    -6161    -6161    -6158    -6158    -6158    -6158 
   -6157    -6156    -6157    -6157    -6156    -6153    -6151    -6151 
   -6153    -6153    -6151    -6149    -6149    -6149    -6149    -6149 
   -6146    -6146    -6146    -6145    -6142    -6143    -6142    -6141 
   -6141    -6142    -6141    -6139    -6142    -6139    -6137    -6137 
   -6138    -6138    -6137    -6135    -6138    -6138    -6138    -6138 
   -6137    -6135    -6138    -6137    -6135    -6138    -6142    -6139 
   -6139    -6143    -6143    -6141    -6142    -6145    -6146    -6146 
   -6145    -6147    -6151    -6150    -6153    -6157    -6157    -6158 
   -6160    -6161    -6164    -6165    -6162    -6164    -6169    -6170 
   -6172    -6174    -6174    -6174    -6177    -6178    -6180    -6183 
   -6183    -6183    -6185    -6185    -6185    -6188    -6191    -6191 
   -6192    -6193    -6192    -6193    -6197    -6196    -6196    -6199 
   -6200    -6199    -6199    -6196    -6197    -6201    -6201    -6201 
   -6205    -6205    -6201    -6204    -6205    -6204    -6207    -6207 
   -6204    -6207    -6210    -6207    -6207    -6208    -6207    -6207 
   -6210    -6212    -6211    -6208    -6211    -6215    -6212    -6208 
   -6212    -6214    -6210    -6210    -6214    -6216    -6216    -6216 
   -6216    -6216    -6215    -6216    -6218    -6216    -6216    -6216 
   -6218    -6220    -6220    -6219    -6220    -6220    -6219    -6220 
   -6224    -6223    -6220    -6219    -6220    -6219    -6219    -6222 
   -6222    -6224    -6224    -6222    -6222    -6223    -6220    -6219 
   -6218    -6216    -6219    -6219    -6215    -6214    -6214    -6214 
   -6211    -6210    -6210    -6208    -6205    -6203    -6201    -6199 
   -6196    -6192    -6188    -6187    -6188    -6184    -6178    -6176 
   -6174    -6170    -6169    -6168    -6160    -6156    -6157    -6154 
   -6149    -6145    -6142    -6137    -6133    -6130    -6129    -6122 
   -6115    -6114    -6111    -6104    -6102    -6099    -6092    -6087 
   -6084    -6083    -6079    -6075    -6069    -6066    -6064    -6060 
   -6054    -6049    -6048    -6046    -6039    -6035    -6035    -6033 
   -6026    -6021    -6019    -6016    -6014    -6012    -6008    -6004 
   -6004    -6003    -6000    -5999    -5998    -5992    -5989    -5991 
   -5991    -5988    -5984    -5980    -5980    -5983    -5985    -5981 
   -5977    -5980    -5981    -5980    -5980    -5981    -5981    -5981 
   -5981    -5983    -5985    -5989    -5989    -5987    -5987    -5992 
   -5999    -5999    -5995    -5996    -6000    -6003    -6007    -6011 
   -6015    -6018    -6019    -6019    -6023    -6030    -6033    -6033 
   -6038    -6043    -6046    -6050    -6054    -6058    -6060    -6064 
   -6073    -6077    -6077    -6083    -6087    -6092    -6100    -6106 
   -6108    -6111    -6114    -6118    -6124    -6129    -6134    -6141 
   -6142    -6143    -6151    -6160    -6162    -6165    -6170    -6174 
   -6178    -6183    -6187    -6192    -6195    -6199    -6203    -6207 
   -6212    -6215    -6216    -6220    -6223    -6226    -6231    -6232 
   -6235    -6239    -6239    -6245    -6249    -6247    -6247    -6253 
   -6255    -6254    -6257    -6258    -6257    -6259    -6262    -6262 
   -6261    -6262    -6262    -6261    -6261    -6264    -6262    -6261 
   -6261    -6261    -6261    -6259    -6259    -6259    -6258    -6253 
   -6253    -6257    -6254    -6250    -6250    -6249    -6249    -6250 
   -6247    -6245    -6242    -6241    -6241    -6238    -6238    -6237 
   -6234    -6232    -6232    -6232    -6232    -6231    -6230    -6227 
   -6224    -6224    -6224    -6223    -6223    -6224    -6222    -6220 
   -6220    -6222    -6220    -6220    -6218    -6216    -6218    -6219 
   -6216    -6215    -6216    -6215    -6211    -6212    -6215    -6212 
   -6211    -6211    -6207    -6208    -6210    -6207    -6208    -6208 
   -6203    -6203    -6204    -6203    -6203    -6204    -6203    -6201 
   -6200    -6197    -6197    -6197    -6196    -6195    -6196    -6195 
   -6192    -6192    -6193    -6191    -6187    -6188    -6187    -6184 
   -6184    -6184    -6180    -6178    -6177    -6177    -6177    -6174 
   -6174    -6173    -6168    -6169    -6172    -6166    -6165    -6165 
   -6160    -6160    -6161    -6158    -6156    -6154    -6153    -6150 
   -6147    -6145    -6145    -6145    -6142    -6138    -6137    -6137 
   -6138    -6137    -6134    -6131    -6131    -6130    -6127    -6127 
   -6130    -6126    -6122    -6126    -6124    -6119    -6122    -6124 
   -6119    -6118    -6120    -6122    -6124    -6119    -6115    -6120 
   -6119    -6116    -6118    -6118    -6118    -6119    -6119    -6116 
   -6116    -6118    -6116    -6118    -6118    -6119    -6119    -6115 
   -6114    -6115    -6115    -6115    -6115    -6112    -6112    -6111 
   -6110    -6110    -6110    -6110    -6110    -6110    -6110    -6106 
   -6103    -6107    -6104    -6103    -6110    -6108    -6099    -6097 
   -6103    -6102    -6099    -6103    -6106    -6103    -6100    -6096 
   -6095    -6096    -6102    -6103    -6099    -6095    -6093    -6093 
   -6092    -6093    -6096    -6097    -6096    -6091    -6088    -6092 
   -6097    -6095    -6089    -6089    -6095    -6100    -6095    -6085 
   -6089    -6099    -6103    -6097    -6089    -6091    -6097    -6095 
   -6095    -6100    -6100    -6099    -6099    -6099    -6107    -6115 
   -6111    -6103    -6096    -6104    -6120    -6123    -6115    -6112 
   -6120    -6129    -6124    -6118    -6122    -6135    -6138    -6135 
   -6135    -6135    -6137    -6142    -6143    -6146    -6151    -6154 
   -6151    -6150    -6153    -6161    -6166    -6164    -6161    -6165 
   -6174    -6176    -6172    -6176    -6176    -6177    -6185    -6191 
   -6188    -6188    -6189    -6188    -6188    -6195    -6200    -6197 
   -6196    -6203    -6204    -6201    -6201    -6204    -6204    -6204 
   -6208    -6211    -6208    -6203    -6205    -6214    -6218    -6218 
   -6211    -6203    -6205    -6216    -6219    -6218    -6218    -6208 
   -6200    -6210    -6227    -6227    -6214    -6208    -6210    -6210 
   -6214    -6223    -6222    -6203    -6196    -6214    -6224    -6214 
   -6204    -6208    -6211    -6208    -6212    -6218    -6208    -6192 
   -6195    -6215    -6220    -6203    -6191    -6196    -6199    -6193 
   -6199    -6207    -6195    -6181    -6187    -6196    -6188    -6180 
   -6183    -6181    -6176    -6174    -6177    -6177    -6168    -6158 
   -6164    -6172    -6165    -6154    -6154    -6156    -6151    -6150 
   -6149    -6146    -6143    -6137    -6134    -6139    -6137    -6126 
   -6124    -6127    -6123    -6120    -6118    -6112    -6111    -6110 
   -6107    -6108    -6106    -6099    -6097    -6099    -6095    -6093 
   -6093    -6087    -6084    -6087    -6087    -6083    -6076    -6073 
   -6076    -6077    -6072    -6070    -6068    -6066    -6070    -6069 
   -6065    -6065    -6062    -6057    -6061    -6064    -6065    -6069 
   -6061    -6048    -6053    -6068    -6070    -6060    -6054    -6064 
   -6062    -6052    -6064    -6076    -6060    -6056    -6072    -6068 
   -6057    -6072    -6077    -6060    -6061    -6083    -6084    -6072 
   -6070    -6075    -6080    -6085    -6081    -6083    -6093    -6085 
   -6073    -6091    -6110    -6095    -6085    -6103    -6103    -6089 
   -6100    -6114    -6102    -6096    -6112    -6116    -6104    -6108 
   -6115    -6108    -6111    -6120    -6116    -6114    -6119    -6118 
   -6116    -6119    -6118    -6122    -6124    -6119    -6119    -6127 
   -6126    -6122    -6122    -6119    -6118    -6123    -6120    -6118 
   -6120    -6122    -6119    -6118    -6119    -6119    -6119    -6116 
   -6107    -6108    -6122    -6122    -6108    -6104    -6112    -6112 
   -6104    -6103    -6110    -6108    -6102    -6099    -6102    -6106 
   -6099    -6096    -6104    -6102    -6088    -6095    -6106    -6096 
   -6085    -6095    -6107    -6100    -6081    -6083    -6104    -6104 
   -6083    -6088    -6104    -6096    -6083    -6093    -6111    -6096 
   -6077    -6100    -6123    -6095    -6083    -6118    -6120    -6085 
   -6092    -6126    -6122    -6099    -6103    -6124    -6131    -6116 
   -6112    -6134    -6135    -6118    -6127    -6153    -6146    -6126 
   -6139    -6166    -6153    -6134    -6160    -6178    -6156    -6150 
   -6180    -6187    -6166    -6166    -6188    -6193    -6183    -6188 
   -6204    -6200    -6192    -6200    -6212    -6214    -6203    -6211 
   -6228    -6218    -6207    -6230    -6246    -6232    -6224    -6235 
   -6249    -6241    -6232    -6250    -6259    -6246    -6247    -6261 
   -6258    -6253    -6258    -6264    -6259    -6257    -6265    -6272 
   -6269    -6265    -6268    -6276    -6272    -6264    -6270    -6280 
   -6274    -6266    -6270    -6270    -6266    -6278    -6284    -6270 
   -6259    -6255    -6254    -6265    -6274    -6274    -6270    -6259 
   -6242    -6232    -6249    -6272    -6264    -6243    -6238    -6234 
   -6220    -6224    -6253    -6243    -6210    -6215    -6228    -6211 
   -6199    -6207    -6207    -6195    -6196    -6201    -6195    -6187 
   -6166    -6153    -6181    -6193    -6160    -6149    -6166    -6146 
   -6122    -6161    -6170    -6108    -6115    -6158    -6115    -6096 
   -6145    -6120    -6076    -6115    -6123    -6083    -6100    -6111 
   -6072    -6072    -6103    -6097    -6065    -6066    -6093    -6070 
   -6048    -6080    -6084    -6053    -6056    -6064    -6062    -6066 
   -6054    -6052    -6069    -6052    -6045    -6068    -6054    -6042 
   -6058    -6054    -6048    -6052    -6046    -6053    -6060    -6049 
   -6054    -6064    -6043    -6033    -6061    -6084    -6056    -6033 
   -6062    -6070    -6041    -6062    -6089    -6060    -6049    -6069 
   -6076    -6069    -6062    -6073    -6081    -6064    -6069    -6092 
   -6087    -6065    -6061    -6100    -6114    -6060    -6068    -6126 
   -6096    -6062    -6104    -6122    -6091    -6076    -6100    -6120 
   -6108    -6099    -6107    -6108    -6107    -6119    -6115    -6104 
   -6120    -6130    -6112    -6110    -6129    -6130    -6122    -6131 
   -6120    -6116    -6162    -6147    -6092    -6129    -6168    -6134 
   -6120    -6147    -6158    -6135    -6122    -6150    -6158    -6131 
   -6147    -6169    -6127    -6129    -6183    -6164    -6118    -6145 
   -6181    -6151    -6138    -6174    -6151    -6124    -6177    -6177 
   -6130    -6154    -6174    -6153    -6153    -6156    -6161    -6172 
   -6150    -6145    -6168    -6157    -6146    -6168    -6170    -6149 
   -6146    -6168    -6168    -6139    -6154    -6188    -6153    -6129 
   -6176    -6184    -6138    -6135    -6183    -6169    -6116    -6162 
   -6196    -6120    -6127    -6193    -6153    -6124    -6169    -6161 
   -6124    -6141    -6169    -6158    -6122    -6137    -6176    -6142 
   -6118    -6162    -6157    -6119    -6130    -6151    -6157    -6131 
   -6111    -6145    -6156    -6110    -6118    -6161    -6131    -6093 
   -6130    -6162    -6118    -6092    -6143    -6143    -6085    -6115 
   -6156    -6106    -6095    -6133    -6119    -6100    -6112    -6122 
   -6112    -6093    -6106    -6119    -6103    -6103    -6103    -6099 
   -6115    -6095    -6084    -6126    -6097    -6060    -6112    -6124 
   -6080    -6087    -6110    -6093    -6080    -6100    -6107    -6079 
   -6081    -6103    -6091    -6079    -6084    -6089    -6103    -6088 
   -6061    -6091    -6103    -6061    -6076    -6108    -6079    -6060 
   -6087    -6092    -6065    -6077    -6102    -6069    -6064    -6097 
   -6081    -6066    -6087    -6080    -6075    -6088    -6080    -6073 
   -6085    -6084    -6075    -6080    -6091    -6096    -6083    -6068 
   -6093    -6106    -6077    -6091    -6111    -6085    -6091    -6111 
   -6095    -6096    -6115    -6108    -6099    -6115    -6120    -6104 
   -6110    -6129    -6126    -6127    -6134    -6116    -6126    -6151 
   -6137    -6131    -6150    -6149    -6138    -6151    -6168    -6162 
   -6150    -6149    -6168    -6177    -6165    -6162    -6172    -6178 
   -6177    -6168    -6189    -6207    -6169    -6165    -6216    -6207 
   -6172    -6203    -6216    -6181    -6185    -6207    -6219    -6241 
   -6195    -6153    -6237    -6253    -6157    -6219    -6307    -6178 
   -6129    -6274    -6259    -6168    -6250    -6254    -6176    -6203 
   -6230    -6273    -6242    -6138    -6259    -6303    -6139    -6212 
   -6309    -6214    -6168    -6222    -6311    -6227    -6112    -6281 
   -6299    -6138    -6241    -6278    -6180    -6223    -6218    -6228 
   -6266    -6177    -6214    -6251    -6166    -6238    -6247    -6170 
   -6232    -6205    -6178    -6250    -6189    -6173    -6239    -6189 
   -6177    -6215    -6193    -6193    -6192    -6176    -6193    -6196 
   -6176    -6169    -6181    -6188    -6165    -6160    -6184    -6168 
   -6150    -6177    -6173    -6133    -6146    -6181    -6150    -6122 
   -6156    -6149    -6120    -6158    -6153    -6099    -6129    -6154 
   -6118    -6114    -6129    -6118    -6106    -6116    -6131    -6115 
   -6096    -6097    -6099    -6108    -6103    -6092    -6102    -6091 
   -6075    -6096    -6104    -6080    -6075    -6073    -6079    -6116 
   -6088    -6006    -6060    -6157    -6097    -5999    -6035    -6126 
   -6107    -6025    -6041    -6095    -6048    -6027    -6112    -6110 
   -6030    -6039    -6053    -6029    -6085    -6142    -6077    -6004 
   -6019    -6085    -6127    -6069    -5999    -6079    -6145    -6041 
   -6021    -6141    -6092    -5975    -6093    -6208    -6085    -5998 
   -6045    -6088    -6154    -6153    -6023    -6046    -6164    -6096 
   -6052    -6141    -6143    -6068    -6060    -6133    -6158    -6093 
   -6107    -6116    -6054    -6137    -6201    -6084    -6075    -6158 
   -6130    -6106    -6123    -6119    -6153    -6169    -6102    -6077 
   -6143    -6168    -6122    -6130    -6165    -6100    -6088    -6188 
   -6162    -6092    -6139    -6145    -6120    -6154    -6133    -6104 
   -6153    -6151    -6114    -6141    -6147    -6115    -6126    -6138 
   -6137    -6146    -6131    -6114    -6133    -6143    -6134    -6138 
   -6137    -6114    -6122    -6156    -6149    -6119    -6124    -6139 
   -6129    -6127    -6146    -6150    -6131    -6123    -6137    -6145 
   -6149    -6145    -6126    -6124    -6147    -6154    -6134    -6131 
   -6153    -6149    -6131    -6149    -6161    -6138    -6135    -6150 
   -6154    -6160    -6158    -6147    -6149    -6154    -6158    -6164 
   -6165    -6157    -6151    -6161    -6165    -6160    -6168    -6168 
   -6161    -6169    -6173    -6172    -6177    -6169    -6169    -6183 
   -6180    -6178    -6184    -6185    -6183    -6177    -6187    -6199 
   -6189    -6187    -6193    -6191    -6195    -6200    -6196    -6201 
   -6204    -6199    -6203    -6203    -6201    -6214    -6218    -6210 
   -6208    -6216    -6223    -6219    -6216    -6222    -6224    -6223 
   -6227    -6226    -6224    -6232    -6237    -6232    -6230    -6237 
   -6238    -6235    -6238    -6246    -6245    -6231    -6234    -6253 
   -6250    -6243    -6249    -6239    -6227    -6237    -6257    -6270 
   -6259    -6219    -6205    -6255    -6286    -6246    -6212    -6222 
   -6251    -6262    -6232    -6208    -6230    -6264    -6239    -6185 
   -6203    -6258    -6237    -6177    -6192    -6254    -6253    -6170 
   -6139    -6224    -6262    -6184    -6146    -6176    -6185    -6204 
   -6212    -6153    -6131    -6199    -6203    -6110    -6111    -6199 
   -6192    -6124    -6120    -6151    -6151    -6122    -6106    -6134 
   -6156    -6119    -6092    -6108    -6104    -6103    -6133    -6119 
   -6076    -6088    -6104    -6068    -6079    -6135    -6104    -6041 
   -6062    -6103    -6083    -6068    -6093    -6080    -6038    -6060 
   -6096    -6072    -6057    -6081    -6064    -6030    -6065    -6097 
   -6060    -6043    -6073    -6068    -6053    -6061    -6062    -6075 
   -6079    -6041    -6042    -6087    -6073    -6052    -6079    -6076 
   -6045    -6068    -6091    -6065    -6061    -6084    -6080    -6065 
   -6072    -6079    -6084    -6087    -6075    -6079    -6102    -6096 
   -6077    -6084    -6099    -6100    -6096    -6097    -6102    -6107 
   -6114    -6115    -6106    -6097    -6116    -6141    -6120    -6095 
   -6130    -6164    -6131    -6114    -6153    -6164    -6133    -6127 
   -6150    -6161    -6160    -6164    -6168    -6166    -6162    -6170 
   -6183    -6184    -6176    -6176    -6201    -6211    -6183    -6184 
   -6224    -6220    -6184    -6195    -6237    -6238    -6212    -6201 
   -6224    -6250    -6238    -6220    -6237    -6249    -6234    -6235 
   -6261    -6255    -6239    -6264    -6269    -6232    -6242    -6292 
   -6277    -6235    -6254    -6285    -6272    -6250    -6262    -6295 
   -6292    -6245    -6232    -6277    -6297    -6282    -6277    -6268 
   -6255    -6265    -6276    -6274    -6274    -6280    -6270    -6253 
   -6264    -6276    -6265    -6270    -6269    -6243    -6254    -6277 
   -6261    -6243    -6255    -6262    -6251    -6242    -6249    -6253 
   -6243    -6237    -6238    -6242    -6239    -6231    -6231    -6232 
   -6223    -6222    -6228    -6216    -6205    -6215    -6219    -6205 
   -6204    -6208    -6195    -6185    -6195    -6197    -6188    -6181 
   -6181    -6181    -6173    -6172    -6176    -6168    -6160    -6157 
   -6157    -6158    -6153    -6145    -6143    -6142    -6139    -6137 
   -6133    -6130    -6126    -6122    -6123    -6122    -6115    -6112 
   -6112    -6106    -6104    -6114    -6110    -6093    -6091    -6100 
   -6100    -6093    -6089    -6091    -6089    -6085    -6084    -6087 
   -6088    -6085    -6085    -6084    -6083    -6085    -6083    -6075 
   -6076    -6084    -6085    -6080    -6075    -6077    -6084    -6084 
   -6083    -6084    -6083    -6081    -6087    -6089    -6089    -6089 
   -6091    -6091    -6091    -6092    -6099    -6097    -6092    -6096 
   -6106    -6104    -6100    -6103    -6108    -6108    -6108    -6111 
   -6111    -6114    -6118    -6116    -6112    -6116    -6122    -6122 
   -6120    -6120    -6120    -6123    -6127    -6127    -6127    -6129 
   -6126    -6124    -6131    -6134    -6131    -6134    -6135    -6130 
