Origin Time       2025/01/13 21:19:00
Lat.              31.8
Long.             131.6
Depth. (km)       30
Mag.              6.9
Station Code      TYMH04
Station Lat.      36.7914
Station Long.     137.4689
Station Height(m) 154
Record Time       2025/01/13 21:23:46
Sampling Freq(Hz) 100Hz
Duration Time(s)  120
Dir.              6
Scale Factor      7845(gal)/8223790
Max. Acc. (gal)   0.091
Last Correction   2025/01/13 21:23:48
Memo.             
[...]
    2493     2494     2494     2494     2493     2492     2496     2497 
    2494     2497     2500     2498     2498     2500     2500     2501 
    2504     2502     2501     2504     2505     2502     2504     2505 
    2505     2506     2509     2508     2508     2509     2508     2508 
    2508     2508     2509     2509     2506     2506     2508     2508 
    2509     2509     2505     2504     2508     2508     2504     2504 
    2505     2504     2502     2504     2502     2501     2500     2498 
    2498     2498     2497     2498     2497     2496     2497     2494 
    2493     2494     2493     2489     2489     2490     2489     2489 
    2489     2486     2485     2486     2488     2485     2484     2482 
    2482     2485     2482     2481     2482     2481     2477     2477 
    2478     2478     2478     2479     2475     2473     2475     2477 
    2473     2474     2474     2470     2470     2474     2473     2471 
    2471     2470     2466     2465     2467     2465     2462     2463 
    2465     2466     2463     2461     2462     2462     2458     2461 
    2463     2461     2461     2461     2461     2458     2457     2457 
    2458     2458     2455     2458     2461     2461     2459     2461 
    2461     2458     2458     2458     2459     2462     2465     2463 
    2462     2462     2463     2465     2467     2466     2465     2467 
    2469     2469     2473     2473     2471     2473     2475     2475 
    2474     2474     2478     2481     2484     2485     2486     2489 
    2488     2488     2492     2493     2493     2494     2497     2498 
    2500     2500     2502     2502     2502     2506     2508     2505 
    2504     2509     2513     2513     2515     2516     2515     2516 
    2517     2517     2519     2521     2521     2521     2521     2521 
    2523     2524     2523     2523     2521     2523     2523     2520 
    2525     2529     2524     2519     2521     2520     2517     2517 
    2517     2516     2517     2516     2515     2512     2509     2512 
    2512     2508     2506     2506     2502     2501     2501     2501 
    2500     2497     2497     2496     2492     2492     2492     2489 
    2490     2489     2488     2485     2484     2484     2484     2482 
    2481     2479     2478     2478     2481     2481     2477     2478 
    2481     2478     2477     2478     2478     2477     2477     2475 
    2477     2477     2475     2478     2479     2479     2481     2482 
    2481     2484     2486     2485     2484     2488     2490     2490 
    2493     2494     2494     2496     2496     2497     2501     2504 
    2504     2505     2508     2511     2512     2513     2515     2516 
    2515     2515     2519     2521     2520     2523     2527     2524 
    2524     2528     2528     2529     2531     2531     2532     2532 
    2531     2531     2531     2533     2535     2532     2528     2528 
    2529     2528     2528     2527     2528     2528     2525     2523 
    2521     2521     2521     2520     2519     2515     2513     2512 
    2511     2511     2511     2508     2506     2505     2501     2498 
    2498     2497     2496     2494     2493     2489     2486     2485 
    2482     2482     2482     2481     2477     2477     2478     2478 
    2477     2475     2475     2474     2471     2471     2473     2471 
    2470     2471     2473     2473     2471     2470     2469     2470 
    2471     2470     2471     2471     2473     2474     2471     2474 
    2477     2477     2474     2475     2478     2479     2478     2481 
    2481     2479     2484     2485     2484     2486     2485     2484 
    2488     2489     2490     2492     2492     2490     2492     2492 
    2494     2496     2496     2497     2496     2494     2496     2498 
    2501     2500     2500     2502     2501     2500     2501     2502 
    2504     2504     2502     2502     2504     2504     2501     2501 
    2501     2498     2501     2502     2501     2498     2498     2498 
    2497     2496     2494     2490     2490     2492     2489     2486 
    2486     2485     2484     2484     2481     2477     2474     2477 
    2475     2470     2469     2470     2469     2467     2465     2461 
    2462     2463     2461     2459     2455     2452     2455     2457 
    2451     2450     2451     2452     2450     2447     2447     2447 
    2446     2444     2444     2443     2442     2442     2443     2440 
    2438     2440     2439     2436     2438     2438     2436     2440 
    2439     2435     2436     2440     2440     2439     2439     2436 
    2439     2442     2440     2440     2443     2444     2444     2448 
    2451     2451     2452     2455     2455     2457     2459     2459 
    2461     2465     2467     2469     2471     2473     2474     2477 
    2478     2479     2482     2485     2485     2486     2490     2492 
    2493     2497     2497     2493     2496     2500     2500     2500 
    2501     2502     2502     2502     2505     2504     2504     2506 
    2506     2505     2506     2509     2508     2508     2508     2506 
    2506     2509     2509     2506     2505     2505     2505     2506 
    2508     2508     2505     2505     2506     2502     2501     2504 
    2505     2502     2502     2501     2498     2498     2498     2497 
    2494     2494     2496     2492     2492     2490     2486     2485 
    2485     2485     2479     2475     2479     2481     2474     2470 
    2469     2469     2466     2465     2462     2459     2457     2455 
    2455     2452     2450     2448     2446     2442     2439     2436 
    2435     2435     2431     2425     2424     2424     2423     2421 
    2420     2419     2416     2415     2415     2413     2412     2411 
    2411     2409     2408     2409     2407     2405     2407     2405 
    2405     2409     2409     2407     2407     2407     2404     2408 
    2412     2409     2409     2413     2413     2412     2413     2417 
    2423     2421     2420     2423     2425     2430     2430     2430 
    2434     2436     2436     2439     2442     2442     2443     2446 
    2446     2447     2452     2455     2454     2455     2457     2459 
    2462     2461     2461     2466     2467     2470     2471     2467 
    2466     2470     2475     2478     2475     2471     2474     2477 
    2478     2479     2478     2478     2481     2479     2479     2482 
    2479     2481     2482     2481     2482     2484     2482     2477 
    2474     2478     2485     2482     2474     2471     2474     2478 
    2477     2473     2474     2475     2471     2470     2470     2469 
    2469     2473     2473     2466     2461     2465     2470     2465 
    2459     2465     2469     2465     2459     2461     2461     2458 
    2457     2459     2459     2457     2457     2462     2461     2458 
    2459     2463     2462     2459     2455     2455     2461     2462 
    2458     2461     2465     2462     2459     2459     2459     2462 
    2462     2462     2463     2465     2466     2467     2465     2465 
    2470     2473     2469     2466     2471     2477     2475     2474 
    2478     2481     2479     2477     2481     2486     2488     2489 
    2485     2481     2488     2497     2496     2492     2492     2493 
    2492     2493     2496     2501     2504     2498     2494     2498 
    2506     2508     2505     2505     2506     2509     2513     2511 
    2504     2511     2521     2516     2512     2517     2519     2516 
    2516     2515     2520     2525     2517     2511     2516     2519 
    2517     2516     2516     2521     2519     2513     2519     2520 
    2515     2513     2515     2513     2512     2509     2509     2506 
    2506     2506     2504     2504     2504     2500     2500     2501 
    2496     2494     2496     2494     2490     2488     2488     2485 
    2482     2484     2482     2479     2477     2474     2474     2474 
    2470     2466     2469     2467     2463     2462     2461     2461 
    2459     2458     2458     2458     2454     2448     2448     2454 
    2455     2450     2447     2450     2448     2446     2446     2448 
    2454     2448     2439     2440     2450     2451     2447     2447 
    2452     2450     2443     2450     2455     2448     2450     2455 
    2455     2451     2454     2457     2455     2458     2461     2465 
    2470     2466     2455     2461     2474     2471     2465     2473 
    2478     2470     2473     2478     2474     2475     2485     2485 
    2481     2481     2482     2484     2488     2489     2484     2488 
    2494     2488     2486     2493     2494     2492     2497     2498 
    2493     2496     2497     2493     2496     2500     2496     2496 
    2498     2498     2497     2500     2498     2496     2500     2502 
    2497     2500     2502     2498     2501     2504     2500     2498 
    2504     2504     2500     2498     2501     2502     2500     2497 
    2496     2497     2498     2500     2500     2497     2496     2497 
    2497     2494     2493     2496     2498     2492     2489     2493 
    2492     2490     2490     2486     2484     2485     2482     2485 
    2488     2481     2475     2484     2484     2473     2470     2477 
    2478     2471     2469     2474     2474     2467     2463     2467 
    2469     2465     2463     2467     2463     2458     2461     2463 
    2459     2454     2452     2461     2461     2450     2451     2462 
    2458     2450     2454     2457     2451     2448     2452     2458 
    2452     2447     2450     2452     2454     2452     2450     2450 
    2451     2450     2454     2457     2451     2451     2458     2458 
    2454     2454     2457     2452     2452     2461     2462     2457 
    2455     2461     2462     2461     2462     2465     2469     2465 
    2463     2471     2474     2467     2466     2474     2477     2475 
    2478     2481     2479     2482     2484     2486     2485     2485 
    2492     2493     2489     2493     2497     2493     2494     2500 
    2500     2500     2501     2501     2502     2502     2500     2511 
    2517     2506     2494     2494     2506     2519     2520     2512 
    2501     2498     2508     2515     2515     2512     2509     2506 
    2502     2501     2512     2520     2508     2496     2505     2512 
    2506     2497     2489     2501     2513     2502     2498     2505 
    2498     2489     2489     2497     2501     2492     2486     2488 
    2489     2493     2490     2486     2492     2485     2470     2484 
    2493     2474     2475     2486     2474     2473     2488     2481 
    2471     2477     2478     2477     2477     2471     2475     2478 
    2469     2471     2479     2478     2475     2473     2471     2479 
    2479     2473     2477     2478     2471     2474     2477     2479 
    2481     2478     2484     2481     2462     2478     2505     2481 
    2461     2488     2494     2471     2481     2490     2478     2485 
    2484     2469     2490     2504     2471     2473     2497     2481 
    2471     2489     2481     2471     2488     2494     2473     2471 
    2502     2486     2458     2492     2496     2466     2485     2490 
    2470     2492     2494     2459     2477     2512     2481     2451 
    2489     2508     2481     2478     2485     2478     2493     2489 
    2462     2481     2500     2477     2482     2486     2474     2500 
    2494     2459     2488     2505     2478     2475     2479     2490 
    2504     2475     2474     2501     2482     2486     2504     2471 
    2482     2517     2485     2471     2501     2496     2485     2493 
    2490     2486     2494     2502     2488     2477     2497     2497 
    2484     2494     2485     2482     2506     2485     2467     2500 
    2497     2478     2486     2482     2482     2493     2488     2484 
    2482     2485     2492     2485     2475     2484     2488     2478 
    2481     2493     2482     2473     2489     2490     2471     2479 
    2490     2477     2477     2484     2479     2485     2485     2481 
    2486     2479     2484     2496     2484     2482     2494     2488 
    2488     2492     2485     2494     2497     2481     2496     2511 
    2489     2492     2501     2496     2504     2497     2488     2506 
    2509     2497     2496     2500     2512     2502     2490     2509 
    2509     2490     2504     2508     2496     2504     2506     2504 
    2497     2489     2511     2508     2474     2496     2512     2484 
    2489     2497     2493     2500     2481     2486     2501     2479 
    2481     2494     2475     2479     2498     2481     2471     2479 
    2478     2488     2475     2462     2486     2478     2467     2484 
    2470     2467     2478     2469     2471     2471     2466     2477 
    2471     2458     2474     2479     2465     2467     2474     2470 
    2470     2473     2475     2470     2471     2479     2471     2469 
    2482     2479     2471     2479     2481     2482     2482     2478 
    2486     2486     2485     2494     2490     2485     2496     2498 
    2482     2486     2506     2497     2488     2502     2505     2497 
    2497     2500     2500     2512     2513     2496     2498     2517 
    2516     2505     2506     2506     2512     2520     2506     2501 
    2524     2517     2496     2516     2532     2506     2502     2525 
    2516     2511     2532     2511     2493     2536     2532     2494 
    2520     2531     2511     2524     2511     2489     2546     2558 
    2474     2504     2579     2494     2466     2578     2559     2467 
    2506     2558     2515     2497     2543     2538     2490     2517 
    2552     2523     2496     2508     2551     2542     2488     2523 
    2558     2490     2485     2559     2544     2482     2508     2546 
    2511     2496     2533     2524     2493     2511     2521     2509 
    2512     2501     2501     2516     2506     2505     2502     2497 
    2506     2498     2500     2505     2478     2492     2515     2478 
    2486     2517     2484     2474     2494     2488     2494     2492 
    2474     2484     2494     2493     2478     2467     2492     2500 
    2469     2474     2490     2470     2482     2493     2466     2475 
    2493     2479     2478     2482     2477     2485     2493     2470 
    2473     2501     2482     2461     2485     2504     2475     2462 
    2500     2501     2463     2488     2509     2465     2471     2515 
    2484     2469     2497     2477     2477     2523     2513     2452 
    2450     2519     2538     2469     2435     2509     2552     2463 
    2435     2523     2524     2484     2484     2474     2502     2520 
    2466     2451     2490     2527     2548     2490     2413     2477 
    2574     2508     2403     2484     2577     2481     2436     2519 
    2509     2478     2492     2479     2523     2523     2425     2465 
    2550     2488     2466     2519     2498     2467     2482     2500 
    2504     2484     2477     2517     2515     2473     2488     2504 
    2482     2485     2527     2515     2447     2490     2554     2490 
    2466     2508     2502     2517     2524     2477     2497     2546 
    2492     2478     2544     2513     2482     2536     2527     2488 
    2515     2531     2516     2513     2515     2521     2527     2513 
    2512     2527     2525     2515     2519     2521     2515     2524 
    2527     2506     2512     2531     2517     2516     2531     2512 
    2501     2523     2525     2505     2505     2519     2520     2505 
    2497     2506     2512     2501     2500     2506     2502     2496 
    2494     2490     2496     2501     2482     2478     2494     2489 
    2475     2481     2482     2475     2471     2470     2473     2467 
    2467     2477     2466     2455     2465     2466     2461     2461 
    2458     2462     2459     2450     2457     2459     2451     2452 
    2455     2454     2454     2454     2452     2452     2455     2458 
    2455     2458     2462     2457     2459     2466     2462     2465 
    2474     2471     2469     2475     2479     2477     2481     2488 
    2485     2489     2497     2493     2494     2502     2504     2505 
    2513     2511     2508     2515     2520     2520     2524     2527 
    2525     2527     2533     2535     2532     2539     2540     2535 
    2540     2543     2535     2538     2548     2546     2533     2538 
    2558     2559     2529     2523     2547     2548     2544     2552 
    2531     2519     2548     2543     2513     2532     2554     2532 
    2519     2521     2527     2539     2528     2501     2515     2539 
    2519     2492     2501     2524     2536     2509     2463     2481 
    2528     2508     2473     2490     2501     2484     2494     2502 
    2458     2461     2517     2486     2431     2474     2517     2478 
    2444     2466     2488     2467     2446     2461     2471     2458 
    2461     2470     2452     2450     2481     2470     2428     2446 
    2489     2463     2425     2454     2481     2452     2440     2470 
    2465     2435     2455     2474     2444     2444     2481     2465 
    2432     2459     2484     2458     2444     2470     2471     2447 
    2457     2479     2473     2458     2458     2474     2479     2465 
    2467     2484     2473     2462     2484     2490     2467     2474 
    2494     2479     2466     2489     2500     2479     2471     2489 
    2498     2490     2479     2486     2501     2496     2478     2482 
    2501     2502     2492     2493     2497     2492     2485     2494 
    2506     2498     2486     2493     2498     2496     2500     2506 
    2497     2485     2497     2505     2486     2478     2496     2505 
    2494     2492     2496     2490     2479     2484     2496     2494 
    2482     2478     2482     2492     2494     2479     2478     2490 
    2471     2465     2486     2492     2475     2463     2479     2494 
    2466     2451     2482     2493     2463     2454     2482     2489 
    2459     2446     2469     2482     2470     2469     2467     2448 
    2454     2481     2477     2451     2455     2475     2466     2444 
    2457     2478     2465     2452     2469     2473     2458     2451 
    2457     2467     2467     2463     2466     2458     2459     2469 
    2452     2451     2474     2470     2454     2461     2466     2459 
    2458     2466     2470     2463     2462     2462     2454     2463 
    2474     2461     2452     2461     2465     2465     2463     2458 
    2462     2470     2461     2458     2469     2465     2459     2467 
    2467     2462     2463     2465     2463     2461     2469     2475 
    2466     2463     2471     2469     2466     2473     2477     2471 
    2467     2470     2473     2474     2475     2473     2474     2477 
    2474     2474     2478     2478     2474     2473     2475     2475 
    2475     2479     2477     2471     2477     2478     2474     2471 
    2474     2477     2475     2473     2477     2477     2471     2471 
    2477     2474     2470     2473     2474     2471     2469     2470 
    2470     2470     2469     2466     2466     2466     2466     2469 
    2466     2462     2465     2469     2465     2459     2463     2469 
    2463     2459     2467     2465     2458     2462     2463     2461 
    2462     2463     2462     2462     2461     2462     2463     2461 
