Origin Time       2025/01/13 21:19:00
Lat.              31.8
Long.             131.6
Depth. (km)       30
Mag.              6.9
Station Code      TYMH04
Station Lat.      36.7914
Station Long.     137.4689
Station Height(m) 54
Record Time       2025/01/13 21:23:46
Sampling Freq(Hz) 100Hz
Duration Time(s)  120
Dir.              2
Scale Factor      2942(gal)/8224139
Max. Acc. (gal)   0.145
Last Correction   2025/01/13 21:23:48
Memo.             
[...]
  -86358   -86360   -86362   -86363   -86366   -86368   -86373   -86374 
  -86374   -86377   -86381   -86385   -86386   -86389   -86393   -86397 
  -86401   -86402   -86405   -86412   -86417   -86417   -86421   -86429 
  -86436   -86440   -86441   -86447   -86455   -86460   -86466   -86475 
  -86479   -86482   -86490   -86498   -86503   -86510   -86517   -86525 
  -86530   -86536   -86544   -86551   -86556   -86566   -86574   -86579 
  -86584   -86591   -86597   -86602   -86609   -86616   -86621   -86626 
  -86633   -86638   -86643   -86647   -86651   -86656   -86660   -86664 
  -86667   -86671   -86674   -86678   -86680   -86682   -86684   -86686 
  -86683   -86687   -86691   -86690   -86688   -86691   -86692   -86692 
  -86690   -86690   -86690   -86688   -86687   -86686   -86683   -86683 
  -86683   -86679   -86675   -86674   -86671   -86665   -86663   -86660 
  -86657   -86652   -86648   -86645   -86640   -86636   -86633   -86628 
  -86622   -86618   -86613   -86607   -86601   -86595   -86590   -86586 
  -86582   -86574   -86567   -86564   -86559   -86549   -86540   -86537 
  -86535   -86528   -86520   -86514   -86506   -86499   -86494   -86486 
  -86479   -86475   -86468   -86462   -86455   -86447   -86443   -86436 
  -86428   -86424   -86417   -86410   -86405   -86400   -86393   -86389 
  -86381   -86375   -86371   -86367   -86362   -86358   -86352   -86350 
  -86346   -86339   -86335   -86333   -86329   -86323   -86319   -86317 
  -86314   -86312   -86310   -86306   -86301   -86300   -86298   -86297 
  -86296   -86294   -86292   -86287   -86285   -86283   -86281   -86279 
  -86282   -86282   -86279   -86279   -86279   -86278   -86277   -86277 
  -86275   -86275   -86274   -86273   -86273   -86271   -86270   -86269 
  -86269   -86269   -86269   -86267   -86265   -86267   -86269   -86267 
  -86266   -86265   -86266   -86266   -86265   -86265   -86269   -86269 
  -86269   -86269   -86267   -86267   -86271   -86271   -86269   -86271 
  -86274   -86275   -86275   -86275   -86278   -86281   -86282   -86286 
  -86289   -86290   -86294   -86298   -86297   -86300   -86302   -86304 
  -86306   -86312   -86316   -86320   -86324   -86325   -86329   -86335 
  -86339   -86344   -86347   -86351   -86356   -86360   -86366   -86371 
  -86373   -86378   -86383   -86387   -86391   -86397   -86401   -86406 
  -86413   -86417   -86420   -86425   -86432   -86435   -86439   -86443 
  -86445   -86451   -86459   -86462   -86463   -86466   -86470   -86474 
  -86479   -86482   -86483   -86486   -86491   -86493   -86494   -86498 
  -86499   -86498   -86501   -86505   -86506   -86506   -86509   -86513 
  -86516   -86514   -86514   -86516   -86517   -86516   -86514   -86516 
  -86517   -86516   -86516   -86517   -86518   -86517   -86514   -86513 
  -86513   -86510   -86509   -86513   -86514   -86513   -86512   -86509 
  -86505   -86503   -86505   -86503   -86499   -86499   -86501   -86497 
  -86494   -86495   -86497   -86495   -86493   -86491   -86490   -86487 
  -86486   -86486   -86485   -86485   -86482   -86479   -86478   -86476 
  -86476   -86474   -86474   -86475   -86475   -86474   -86472   -86470 
  -86470   -86470   -86468   -86467   -86467   -86467   -86467   -86467 
  -86466   -86464   -86466   -86466   -86464   -86462   -86462   -86462 
  -86460   -86462   -86463   -86462   -86460   -86458   -86456   -86458 
  -86460   -86460   -86458   -86456   -86456   -86455   -86452   -86451 
  -86452   -86454   -86451   -86448   -86448   -86448   -86449   -86448 
  -86444   -86444   -86445   -86444   -86443   -86439   -86439   -86440 
  -86437   -86435   -86435   -86432   -86431   -86429   -86431   -86431 
  -86429   -86429   -86428   -86425   -86422   -86424   -86424   -86422 
  -86422   -86421   -86420   -86420   -86421   -86422   -86422   -86421 
  -86420   -86420   -86420   -86418   -86420   -86421   -86421   -86421 
  -86422   -86424   -86424   -86422   -86424   -86427   -86427   -86427 
  -86431   -86431   -86432   -86436   -86435   -86433   -86435   -86435 
  -86437   -86441   -86441   -86441   -86443   -86445   -86448   -86451 
  -86454   -86454   -86455   -86460   -86464   -86466   -86467   -86468 
  -86472   -86481   -86483   -86483   -86486   -86490   -86491   -86495 
  -86502   -86506   -86510   -86514   -86520   -86524   -86528   -86529 
  -86530   -86537   -86541   -86545   -86551   -86556   -86557   -86560 
  -86566   -86570   -86570   -86574   -86578   -86578   -86582   -86587 
  -86589   -86591   -86595   -86597   -86597   -86601   -86602   -86602 
  -86602   -86605   -86605   -86606   -86609   -86609   -86609   -86609 
  -86607   -86609   -86610   -86609   -86607   -86607   -86606   -86605 
  -86603   -86602   -86601   -86598   -86597   -86595   -86594   -86593 
  -86590   -86586   -86584   -86580   -86578   -86576   -86575   -86572 
  -86571   -86567   -86564   -86562   -86560   -86556   -86553   -86551 
  -86545   -86545   -86545   -86541   -86539   -86537   -86535   -86530 
  -86528   -86526   -86526   -86524   -86521   -86520   -86517   -86516 
  -86514   -86512   -86509   -86508   -86506   -86503   -86502   -86501 
  -86501   -86499   -86497   -86498   -86497   -86493   -86493   -86494 
  -86490   -86487   -86486   -86487   -86487   -86483   -86483   -86482 
  -86481   -86479   -86478   -86476   -86475   -86474   -86472   -86472 
  -86471   -86467   -86467   -86468   -86468   -86464   -86463   -86463 
  -86463   -86462   -86459   -86458   -86458   -86452   -86451   -86451 
  -86451   -86449   -86447   -86447   -86447   -86445   -86443   -86443 
  -86443   -86440   -86435   -86435   -86437   -86433   -86432   -86433 
  -86432   -86431   -86429   -86428   -86425   -86425   -86425   -86422 
  -86420   -86421   -86422   -86418   -86418   -86421   -86420   -86414 
  -86414   -86414   -86413   -86413   -86416   -86414   -86414   -86414 
  -86412   -86408   -86410   -86413   -86412   -86409   -86409   -86408 
  -86408   -86410   -86412   -86409   -86406   -86408   -86409   -86408 
  -86409   -86410   -86409   -86412   -86413   -86413   -86412   -86413 
  -86417   -86418   -86416   -86416   -86420   -86420   -86420   -86422 
  -86424   -86424   -86425   -86428   -86428   -86429   -86429   -86429 
  -86429   -86431   -86432   -86433   -86433   -86432   -86433   -86433 
  -86435   -86437   -86437   -86437   -86439   -86439   -86439   -86437 
  -86439   -86437   -86437   -86439   -86436   -86435   -86436   -86437 
  -86437   -86437   -86433   -86431   -86432   -86433   -86429   -86428 
  -86429   -86425   -86421   -86422   -86421   -86417   -86416   -86414 
  -86413   -86410   -86406   -86404   -86402   -86400   -86395   -86395 
  -86395   -86391   -86389   -86386   -86383   -86379   -86378   -86378 
  -86373   -86370   -86368   -86366   -86360   -86359   -86359   -86356 
  -86352   -86352   -86351   -86351   -86348   -86344   -86343   -86344 
  -86340   -86339   -86340   -86339   -86335   -86333   -86333   -86333 
  -86333   -86333   -86335   -86337   -86337   -86335   -86337   -86339 
  -86337   -86337   -86343   -86346   -86344   -86346   -86351   -86354 
  -86358   -86363   -86364   -86366   -86370   -86374   -86377   -86382 
  -86387   -86389   -86393   -86400   -86406   -86410   -86416   -86418 
  -86424   -86431   -86436   -86440   -86447   -86452   -86455   -86460 
  -86467   -86474   -86478   -86481   -86486   -86493   -86498   -86502 
  -86506   -86510   -86516   -86521   -86522   -86525   -86532   -86537 
  -86541   -86544   -86548   -86552   -86556   -86559   -86562   -86566 
  -86568   -86572   -86575   -86576   -86578   -86583   -86586   -86590 
  -86591   -86593   -86597   -86599   -86601   -86602   -86605   -86606 
  -86607   -86609   -86611   -86611   -86616   -86620   -86618   -86618 
  -86620   -86621   -86621   -86622   -86621   -86622   -86625   -86625 
  -86624   -86624   -86624   -86624   -86624   -86624   -86622   -86621 
  -86620   -86621   -86621   -86617   -86614   -86616   -86616   -86611 
  -86609   -86607   -86605   -86603   -86601   -86598   -86595   -86593 
  -86590   -86586   -86583   -86580   -86578   -86578   -86574   -86567 
  -86564   -86564   -86560   -86556   -86555   -86551   -86548   -86547 
  -86544   -86540   -86537   -86533   -86533   -86532   -86525   -86522 
  -86522   -86518   -86516   -86516   -86512   -86509   -86508   -86506 
  -86502   -86499   -86498   -86494   -86489   -86489   -86489   -86483 
  -86481   -86482   -86478   -86474   -86472   -86471   -86468   -86466 
  -86463   -86460   -86456   -86452   -86449   -86447   -86443   -86440 
  -86437   -86435   -86432   -86429   -86425   -86422   -86421   -86416 
  -86410   -86406   -86405   -86402   -86400   -86397   -86390   -86383 
  -86383   -86383   -86378   -86373   -86371   -86364   -86360   -86360 
  -86360   -86356   -86354   -86351   -86350   -86346   -86340   -86339 
  -86339   -86336   -86336   -86337   -86332   -86332   -86332   -86328 
  -86328   -86331   -86328   -86328   -86328   -86329   -86331   -86331 
  -86331   -86332   -86333   -86333   -86336   -86337   -86339   -86341 
  -86344   -86346   -86347   -86351   -86358   -86360   -86362   -86366 
  -86374   -86378   -86381   -86386   -86390   -86391   -86397   -86404 
  -86409   -86414   -86418   -86425   -86431   -86435   -86443   -86449 
  -86455   -86460   -86467   -86474   -86481   -86489   -86495   -86501 
  -86509   -86514   -86517   -86525   -86535   -86540   -86545   -86552 
  -86557   -86564   -86575   -86582   -86589   -86595   -86603   -86610 
  -86616   -86620   -86628   -86634   -86637   -86643   -86651   -86656 
  -86661   -86667   -86671   -86674   -86680   -86686   -86687   -86690 
  -86695   -86699   -86701   -86703   -86707   -86709   -86710   -86709 
  -86713   -86714   -86713   -86713   -86715   -86714   -86714   -86715 
  -86713   -86710   -86711   -86710   -86706   -86702   -86701   -86699 
  -86697   -86691   -86687   -86684   -86680   -86675   -86672   -86668 
  -86660   -86653   -86648   -86643   -86636   -86630   -86625   -86617 
  -86610   -86603   -86594   -86587   -86584   -86575   -86564   -86557 
  -86549   -86541   -86535   -86524   -86514   -86509   -86499   -86490 
  -86483   -86475   -86464   -86455   -86447   -86436   -86428   -86421 
  -86413   -86402   -86393   -86385   -86378   -86370   -86359   -86352 
  -86344   -86335   -86327   -86321   -86313   -86304   -86297   -86293 
  -86285   -86277   -86271   -86265   -86259   -86255   -86250   -86244 
  -86239   -86233   -86228   -86224   -86223   -86220   -86213   -86209 
  -86206   -86204   -86201   -86200   -86200   -86198   -86197   -86196 
  -86196   -86197   -86196   -86196   -86200   -86202   -86202   -86202 
  -86205   -86208   -86211   -86212   -86213   -86219   -86224   -86227 
  -86231   -86235   -86238   -86244   -86251   -86255   -86259   -86263 
  -86270   -86277   -86283   -86290   -86293   -86298   -86306   -86313 
  -86317   -86324   -86328   -86333   -86341   -86348   -86354   -86362 
  -86364   -86367   -86375   -86383   -86389   -86393   -86394   -86401 
  -86409   -86414   -86418   -86424   -86427   -86429   -86433   -86439 
  -86444   -86447   -86451   -86458   -86459   -86458   -86462   -86467 
  -86471   -86474   -86474   -86475   -86479   -86481   -86481   -86482 
  -86485   -86489   -86491   -86490   -86490   -86493   -86494   -86494 
  -86495   -86495   -86494   -86495   -86497   -86495   -86494   -86495 
  -86497   -86495   -86495   -86495   -86494   -86493   -86493   -86491 
  -86491   -86491   -86490   -86490   -86490   -86487   -86489   -86489 
  -86486   -86487   -86487   -86485   -86485   -86485   -86485   -86486 
  -86485   -86483   -86483   -86482   -86483   -86486   -86483   -86482 
  -86485   -86486   -86485   -86485   -86482   -86482   -86483   -86482 
  -86482   -86485   -86487   -86485   -86485   -86489   -86490   -86487 
  -86485   -86486   -86490   -86490   -86489   -86490   -86490   -86490 
  -86493   -86494   -86494   -86494   -86495   -86498   -86499   -86499 
  -86501   -86503   -86505   -86505   -86506   -86509   -86512   -86513 
  -86516   -86518   -86520   -86520   -86522   -86529   -86532   -86532 
  -86535   -86539   -86543   -86544   -86544   -86547   -86549   -86553 
  -86557   -86560   -86562   -86566   -86570   -86571   -86574   -86579 
  -86582   -86583   -86589   -86591   -86591   -86595   -86599   -86601 
  -86603   -86609   -86613   -86616   -86618   -86621   -86624   -86628 
  -86632   -86634   -86637   -86641   -86643   -86644   -86647   -86649 
  -86653   -86656   -86660   -86663   -86663   -86663   -86665   -86670 
  -86674   -86675   -86678   -86680   -86682   -86682   -86682   -86683 
  -86684   -86687   -86688   -86688   -86691   -86691   -86688   -86692 
  -86694   -86692   -86692   -86692   -86691   -86691   -86692   -86692 
  -86690   -86690   -86690   -86687   -86686   -86687   -86686   -86680 
  -86676   -86675   -86674   -86668   -86665   -86664   -86663   -86660 
  -86656   -86652   -86648   -86643   -86637   -86633   -86626   -86618 
  -86613   -86609   -86603   -86594   -86586   -86579   -86571   -86564 
  -86556   -86547   -86539   -86530   -86521   -86513   -86503   -86493 
  -86485   -86474   -86463   -86452   -86443   -86431   -86421   -86413 
  -86398   -86386   -86378   -86368   -86358   -86347   -86336   -86324 
  -86314   -86306   -86296   -86283   -86274   -86265   -86254   -86247 
  -86238   -86228   -86221   -86211   -86200   -86193   -86184   -86173 
  -86166   -86159   -86152   -86144   -86139   -86132   -86125   -86121 
  -86116   -86108   -86101   -86100   -86097   -86089   -86085   -86084 
  -86082   -86080   -86076   -86073   -86073   -86073   -86070   -86065 
  -86065   -86070   -86070   -86070   -86073   -86071   -86070   -86074 
  -86077   -86078   -86081   -86082   -86086   -86092   -86093   -86094 
  -86098   -86103   -86107   -86112   -86116   -86120   -86127   -86132 
  -86134   -86139   -86147   -86154   -86159   -86165   -86170   -86178 
  -86188   -86194   -86201   -86208   -86217   -86227   -86236   -86246 
  -86255   -86265   -86274   -86282   -86289   -86302   -86316   -86324 
  -86332   -86344   -86356   -86367   -86379   -86394   -86404   -86412 
  -86425   -86439   -86448   -86460   -86474   -86485   -86495   -86506 
  -86518   -86532   -86543   -86553   -86564   -86575   -86587   -86598 
  -86607   -86617   -86626   -86634   -86647   -86657   -86661   -86670 
  -86682   -86688   -86695   -86703   -86710   -86715   -86724   -86729 
  -86733   -86741   -86745   -86746   -86753   -86756   -86757   -86764 
  -86768   -86768   -86771   -86772   -86775   -86776   -86775   -86778 
  -86780   -86780   -86780   -86780   -86778   -86779   -86779   -86778 
  -86778   -86776   -86773   -86772   -86769   -86767   -86765   -86764 
  -86763   -86761   -86759   -86756   -86753   -86752   -86748   -86741 
  -86738   -86740   -86737   -86734   -86732   -86728   -86725   -86721 
  -86717   -86717   -86715   -86713   -86710   -86709   -86705   -86702 
  -86699   -86697   -86694   -86692   -86690   -86686   -86686   -86686 
  -86683   -86679   -86678   -86675   -86671   -86671   -86670   -86665 
  -86661   -86659   -86656   -86656   -86655   -86653   -86649   -86645 
  -86643   -86640   -86638   -86637   -86634   -86632   -86628   -86621 
  -86620   -86620   -86614   -86613   -86610   -86605   -86602   -86599 
  -86595   -86590   -86587   -86583   -86578   -86575   -86575   -86571 
  -86566   -86563   -86560   -86556   -86553   -86549   -86547   -86541 
  -86536   -86533   -86533   -86528   -86524   -86518   -86513   -86512 
  -86509   -86503   -86501   -86497   -86494   -86491   -86489   -86487 
  -86482   -86476   -86472   -86471   -86467   -86464   -86460   -86458 
  -86455   -86451   -86447   -86445   -86444   -86439   -86433   -86432 
  -86431   -86425   -86420   -86417   -86417   -86414   -86412   -86410 
  -86406   -86404   -86402   -86400   -86398   -86393   -86387   -86389 
  -86387   -86383   -86383   -86382   -86378   -86377   -86375   -86373 
  -86373   -86373   -86368   -86368   -86370   -86367   -86363   -86364 
  -86364   -86362   -86362   -86363   -86363   -86360   -86360   -86362 
  -86362   -86360   -86359   -86359   -86360   -86360   -86360   -86360 
  -86359   -86359   -86359   -86359   -86360   -86362   -86360   -86360 
  -86360   -86360   -86362   -86359   -86358   -86360   -86360   -86360 
  -86363   -86363   -86362   -86362   -86363   -86364   -86364   -86363 
  -86363   -86366   -86370   -86370   -86366   -86367   -86367   -86367 
  -86368   -86367   -86367   -86371   -86373   -86371   -86374   -86377 
  -86374   -86373   -86377   -86382   -86382   -86379   -86385   -86389 
  -86386   -86387   -86394   -86395   -86395   -86400   -86405   -86408 
  -86410   -86412   -86414   -86421   -86427   -86427   -86429   -86435 
  -86439   -86441   -86447   -86451   -86452   -86460   -86467   -86467 
  -86472   -86481   -86485   -86490   -86491   -86495   -86505   -86510 
  -86512   -86514   -86520   -86525   -86530   -86535   -86539   -86543 
  -86547   -86549   -86553   -86556   -86560   -86566   -86570   -86571 
  -86578   -86583   -86584   -86587   -86590   -86591   -86594   -86597 
  -86602   -86605   -86605   -86605   -86609   -86614   -86614   -86610 
  -86611   -86616   -86617   -86616   -86618   -86621   -86618   -86616 
  -86621   -86626   -86622   -86618   -86620   -86620   -86618   -86620 
  -86618   -86611   -86610   -86614   -86616   -86610   -86605   -86606 
  -86605   -86599   -86598   -86597   -86593   -86591   -86586   -86583 
  -86584   -86582   -86574   -86570   -86567   -86566   -86563   -86557 
  -86552   -86549   -86545   -86541   -86536   -86532   -86530   -86528 
  -86521   -86518   -86514   -86509   -86505   -86502   -86499   -86494 
  -86489   -86485   -86479   -86474   -86471   -86468   -86464   -86458 
  -86455   -86452   -86444   -86437   -86436   -86433   -86428   -86425 
  -86421   -86417   -86413   -86408   -86404   -86400   -86395   -86391 
  -86387   -86383   -86381   -86378   -86374   -86368   -86364   -86362 
  -86360   -86356   -86352   -86350   -86346   -86341   -86341   -86339 
  -86336   -86332   -86329   -86332   -86331   -86328   -86328   -86328 
  -86324   -86321   -86319   -86317   -86316   -86316   -86317   -86320 
  -86320   -86316   -86313   -86317   -86321   -86317   -86316   -86321 
  -86321   -86320   -86325   -86328   -86325   -86328   -86331   -86331 
  -86335   -86340   -86341   -86341   -86343   -86344   -86350   -86354 
  -86354   -86354   -86359   -86363   -86364   -86364   -86368   -86374 
  -86375   -86377   -86382   -86385   -86387   -86389   -86391   -86395 
  -86398   -86398   -86398   -86402   -86408   -86409   -86408   -86409 
  -86413   -86414   -86417   -86420   -86421   -86421   -86422   -86425 
  -86428   -86429   -86431   -86431   -86432   -86431   -86429   -86432 
  -86432   -86431   -86432   -86431   -86429   -86431   -86429   -86425 
  -86425   -86429   -86429   -86425   -86424   -86424   -86421   -86418 
  -86418   -86417   -86412   -86412   -86410   -86408   -86405   -86402 
  -86398   -86398   -86394   -86389   -86387   -86386   -86383   -86381 
  -86378   -86378   -86377   -86374   -86368   -86366   -86364   -86364 
  -86364   -86360   -86359   -86358   -86355   -86355   -86354   -86350 
  -86351   -86352   -86350   -86347   -86348   -86351   -86350   -86348 
  -86351   -86352   -86351   -86352   -86355   -86355   -86355   -86359 
  -86360   -86363   -86367   -86370   -86375   -86378   -86375   -86378 
