Origin Time       2025/01/13 21:19:00
Lat.              31.8
Long.             131.6
Depth. (km)       30
Mag.              6.9
Station Code      TYMH04
Station Lat.      36.7914
Station Long.     137.4689
Station Height(m) 54
Record Time       2025/01/13 21:23:46
Sampling Freq(Hz) 100Hz
Duration Time(s)  120
Dir.              1
Scale Factor      2942(gal)/8224139
Max. Acc. (gal)   0.123
Last Correction   2025/01/13 21:23:48
Memo.             
[...]
  -94193   -94192   -94190   -94189   -94189   -94188   -94182   -94181 
  -94184   -94182   -94180   -94178   -94177   -94177   -94174   -94170 
  -94170   -94167   -94163   -94163   -94162   -94158   -94155   -94153 
  -94150   -94144   -94140   -94139   -94138   -94134   -94130   -94124 
  -94120   -94119   -94113   -94107   -94101   -94097   -94092   -94088 
  -94084   -94078   -94072   -94063   -94058   -94053   -94047   -94041 
  -94034   -94024   -94015   -94012   -94005   -93996   -93991   -93984 
  -93974   -93968   -93960   -93954   -93949   -93938   -93931   -93926 
  -93918   -93914   -93907   -93896   -93889   -93885   -93881   -93877 
  -93873   -93866   -93861   -93857   -93853   -93852   -93849   -93842 
  -93838   -93839   -93838   -93835   -93835   -93837   -93837   -93837 
  -93835   -93835   -93839   -93841   -93841   -93843   -93847   -93847 
  -93850   -93857   -93860   -93862   -93869   -93873   -93879   -93887 
  -93893   -93897   -93904   -93911   -93916   -93924   -93934   -93942 
  -93950   -93958   -93965   -93972   -93981   -93991   -94000   -94008 
  -94018   -94027   -94036   -94046   -94055   -94065   -94074   -94082 
  -94090   -94097   -94107   -94119   -94127   -94136   -94147   -94154 
  -94161   -94170   -94180   -94188   -94194   -94201   -94208   -94216 
  -94223   -94231   -94240   -94247   -94252   -94259   -94266   -94271 
  -94278   -94281   -94286   -94296   -94298   -94302   -94309   -94312 
  -94315   -94321   -94325   -94329   -94332   -94333   -94340   -94346 
  -94346   -94346   -94350   -94352   -94352   -94358   -94362   -94365 
  -94365   -94363   -94365   -94367   -94367   -94367   -94366   -94365 
  -94367   -94369   -94367   -94365   -94366   -94365   -94363   -94363 
  -94360   -94356   -94356   -94355   -94351   -94348   -94348   -94348 
  -94344   -94340   -94340   -94339   -94332   -94328   -94327   -94323 
  -94320   -94319   -94317   -94313   -94306   -94300   -94297   -94296 
  -94292   -94288   -94285   -94282   -94277   -94271   -94269   -94265 
  -94259   -94254   -94251   -94246   -94238   -94234   -94232   -94225 
  -94220   -94213   -94211   -94208   -94200   -94196   -94193   -94188 
  -94181   -94178   -94171   -94166   -94162   -94155   -94151   -94147 
  -94140   -94134   -94131   -94127   -94120   -94113   -94112   -94108 
  -94103   -94097   -94092   -94086   -94082   -94078   -94073   -94068 
  -94065   -94063   -94057   -94051   -94047   -94043   -94041   -94038 
  -94032   -94028   -94026   -94023   -94019   -94018   -94015   -94011 
  -94007   -94007   -94003   -93997   -93996   -93996   -93993   -93993 
  -93992   -93989   -93988   -93987   -93988   -93988   -93988   -93987 
  -93987   -93988   -93988   -93987   -93989   -93995   -93996   -93997 
  -93999   -94000   -94003   -94005   -94009   -94014   -94018   -94019 
  -94023   -94027   -94034   -94038   -94041   -94046   -94050   -94054 
  -94061   -94066   -94069   -94073   -94080   -94088   -94093   -94096 
  -94099   -94108   -94113   -94116   -94122   -94128   -94132   -94136 
  -94139   -94147   -94153   -94157   -94161   -94165   -94167   -94173 
  -94177   -94181   -94189   -94190   -94192   -94198   -94204   -94207 
  -94209   -94213   -94213   -94217   -94223   -94224   -94225   -94228 
  -94231   -94234   -94235   -94236   -94240   -94244   -94243   -94242 
  -94247   -94247   -94246   -94248   -94248   -94246   -94248   -94252 
  -94252   -94250   -94250   -94251   -94251   -94250   -94250   -94250 
  -94252   -94251   -94248   -94248   -94250   -94250   -94251   -94251 
  -94247   -94244   -94247   -94246   -94242   -94242   -94242   -94240 
  -94238   -94236   -94234   -94232   -94231   -94228   -94225   -94223 
  -94220   -94216   -94212   -94211   -94209   -94207   -94200   -94196 
  -94196   -94193   -94185   -94178   -94176   -94176   -94173   -94169 
  -94165   -94161   -94154   -94149   -94147   -94146   -94139   -94134 
  -94131   -94128   -94122   -94116   -94115   -94112   -94108   -94103 
  -94099   -94095   -94090   -94088   -94085   -94081   -94074   -94072 
  -94069   -94066   -94062   -94058   -94054   -94050   -94049   -94047 
  -94043   -94039   -94034   -94031   -94031   -94027   -94023   -94019 
  -94018   -94019   -94016   -94012   -94011   -94008   -94005   -94005 
  -94005   -94001   -94001   -94001   -94000   -93999   -93999   -93999 
  -93999   -93997   -93997   -93997   -93997   -93997   -93999   -94000 
  -94000   -93999   -93999   -94001   -94005   -94005   -94007   -94009 
  -94011   -94011   -94012   -94015   -94016   -94020   -94023   -94023 
  -94023   -94027   -94031   -94035   -94039   -94041   -94043   -94050 
  -94053   -94053   -94058   -94065   -94065   -94065   -94072   -94078 
  -94082   -94085   -94089   -94095   -94100   -94104   -94108   -94112 
  -94117   -94126   -94128   -94132   -94138   -94143   -94147   -94151 
  -94157   -94162   -94167   -94173   -94181   -94186   -94189   -94193 
  -94200   -94205   -94208   -94213   -94221   -94223   -94225   -94235 
  -94239   -94242   -94247   -94251   -94254   -94258   -94263   -94266 
  -94271   -94275   -94278   -94282   -94285   -94284   -94288   -94293 
  -94298   -94301   -94301   -94302   -94306   -94309   -94311   -94313 
  -94316   -94317   -94317   -94319   -94319   -94320   -94324   -94323 
  -94319   -94320   -94321   -94323   -94324   -94323   -94323   -94324 
  -94321   -94320   -94321   -94320   -94319   -94317   -94315   -94311 
  -94308   -94308   -94308   -94306   -94304   -94301   -94297   -94294 
  -94290   -94289   -94286   -94282   -94282   -94279   -94273   -94271 
  -94270   -94266   -94265   -94261   -94257   -94255   -94252   -94247 
  -94244   -94243   -94239   -94238   -94235   -94231   -94230   -94228 
  -94227   -94224   -94220   -94219   -94219   -94216   -94212   -94208 
  -94208   -94209   -94208   -94204   -94200   -94197   -94196   -94193 
  -94190   -94189   -94188   -94190   -94190   -94185   -94184   -94181 
  -94180   -94178   -94177   -94174   -94174   -94174   -94170   -94169 
  -94167   -94166   -94163   -94161   -94161   -94159   -94158   -94155 
  -94155   -94154   -94151   -94150   -94150   -94150   -94147   -94146 
  -94147   -94146   -94144   -94143   -94143   -94143   -94140   -94142 
  -94143   -94140   -94138   -94138   -94138   -94139   -94138   -94135 
  -94136   -94136   -94135   -94135   -94135   -94136   -94135   -94136 
  -94136   -94132   -94132   -94132   -94131   -94134   -94132   -94128 
  -94128   -94128   -94127   -94126   -94123   -94123   -94122   -94117 
  -94115   -94116   -94116   -94112   -94111   -94109   -94108   -94105 
  -94101   -94100   -94099   -94096   -94093   -94089   -94086   -94085 
  -94081   -94078   -94076   -94072   -94068   -94065   -94061   -94057 
  -94053   -94051   -94049   -94042   -94038   -94036   -94032   -94028 
  -94024   -94019   -94016   -94015   -94011   -94007   -94004   -94000 
  -93997   -93996   -93993   -93988   -93985   -93982   -93981   -93981 
  -93977   -93972   -93974   -93973   -93970   -93969   -93966   -93966 
  -93966   -93964   -93962   -93961   -93960   -93958   -93961   -93964 
  -93964   -93964   -93965   -93968   -93969   -93972   -93972   -93973 
  -93976   -93978   -93981   -93984   -93987   -93989   -93993   -93999 
  -94003   -94004   -94008   -94015   -94018   -94023   -94027   -94030 
  -94035   -94042   -94046   -94049   -94055   -94061   -94065   -94070 
  -94074   -94077   -94081   -94086   -94093   -94097   -94100   -94104 
  -94108   -94113   -94119   -94120   -94126   -94131   -94132   -94136 
  -94144   -94149   -94151   -94155   -94161   -94163   -94165   -94169 
  -94173   -94176   -94180   -94185   -94186   -94186   -94190   -94197 
  -94197   -94198   -94205   -94207   -94207   -94213   -94216   -94216 
  -94221   -94224   -94224   -94227   -94227   -94227   -94234   -94239 
  -94238   -94238   -94239   -94240   -94240   -94243   -94246   -94246 
  -94244   -94246   -94248   -94250   -94248   -94248   -94250   -94248 
  -94250   -94251   -94250   -94248   -94248   -94251   -94251   -94247 
  -94247   -94248   -94248   -94248   -94247   -94246   -94244   -94244 
  -94244   -94243   -94240   -94240   -94240   -94239   -94236   -94236 
  -94236   -94234   -94232   -94230   -94231   -94232   -94228   -94225 
  -94223   -94220   -94221   -94221   -94219   -94216   -94213   -94211 
  -94207   -94205   -94205   -94204   -94201   -94197   -94193   -94188 
  -94185   -94184   -94178   -94174   -94170   -94166   -94162   -94158 
  -94155   -94151   -94146   -94140   -94136   -94132   -94130   -94122 
  -94113   -94112   -94107   -94099   -94095   -94090   -94086   -94081 
  -94077   -94069   -94062   -94057   -94053   -94049   -94043   -94036 
  -94032   -94028   -94023   -94016   -94012   -94009   -94005   -94001 
  -93997   -93993   -93991   -93985   -93982   -93982   -93978   -93970 
  -93968   -93969   -93965   -93958   -93960   -93961   -93957   -93954 
  -93955   -93955   -93954   -93951   -93951   -93953   -93950   -93950 
  -93953   -93954   -93954   -93953   -93953   -93955   -93958   -93961 
  -93961   -93962   -93966   -93969   -93970   -93972   -93977   -93981 
  -93982   -93984   -93988   -93992   -93995   -93999   -94004   -94009 
  -94014   -94015   -94016   -94023   -94030   -94034   -94036   -94041 
  -94045   -94049   -94054   -94061   -94065   -94069   -94073   -94076 
  -94080   -94089   -94095   -94097   -94104   -94109   -94112   -94119 
  -94124   -94127   -94134   -94142   -94146   -94149   -94154   -94161 
  -94165   -94170   -94176   -94180   -94188   -94193   -94193   -94197 
  -94205   -94209   -94212   -94215   -94221   -94228   -94228   -94230 
  -94236   -94240   -94242   -94242   -94244   -94251   -94255   -94257 
  -94258   -94261   -94263   -94266   -94267   -94267   -94266   -94270 
  -94275   -94274   -94273   -94275   -94277   -94277   -94277   -94277 
  -94278   -94275   -94275   -94277   -94277   -94277   -94275   -94273 
  -94271   -94273   -94273   -94270   -94266   -94263   -94263   -94263 
  -94259   -94255   -94255   -94251   -94248   -94247   -94243   -94236 
  -94236   -94236   -94230   -94224   -94223   -94220   -94216   -94213 
  -94209   -94205   -94201   -94197   -94193   -94189   -94185   -94182 
  -94177   -94171   -94167   -94162   -94155   -94154   -94153   -94146 
  -94139   -94136   -94132   -94130   -94127   -94117   -94112   -94111 
  -94105   -94100   -94097   -94096   -94092   -94085   -94081   -94077 
  -94073   -94069   -94068   -94062   -94057   -94053   -94050   -94049 
  -94047   -94045   -94041   -94038   -94036   -94032   -94030   -94028 
  -94024   -94020   -94020   -94020   -94018   -94016   -94016   -94012 
  -94011   -94011   -94008   -94008   -94008   -94007   -94007   -94005 
  -94004   -94004   -94001   -94000   -94003   -94003   -94003   -94003 
  -94004   -94005   -94004   -94005   -94005   -94005   -94008   -94009 
  -94009   -94012   -94015   -94012   -94016   -94019   -94018   -94019 
  -94023   -94026   -94028   -94031   -94032   -94035   -94041   -94046 
  -94046   -94045   -94050   -94055   -94057   -94058   -94062   -94068 
  -94070   -94074   -94078   -94084   -94089   -94092   -94093   -94097 
  -94104   -94109   -94113   -94119   -94126   -94130   -94131   -94136 
  -94144   -94149   -94153   -94159   -94163   -94166   -94173   -94180 
  -94184   -94186   -94192   -94198   -94200   -94204   -94213   -94217 
  -94219   -94224   -94230   -94231   -94234   -94239   -94244   -94247 
  -94250   -94252   -94254   -94255   -94259   -94263   -94266   -94270 
  -94271   -94271   -94273   -94277   -94277   -94278   -94279   -94277 
  -94277   -94277   -94278   -94281   -94278   -94277   -94275   -94274 
  -94274   -94271   -94266   -94265   -94263   -94262   -94257   -94251 
  -94250   -94250   -94247   -94240   -94232   -94230   -94228   -94224 
  -94220   -94215   -94208   -94203   -94200   -94196   -94189   -94181 
  -94177   -94173   -94166   -94158   -94153   -94147   -94140   -94134 
  -94127   -94120   -94113   -94107   -94099   -94093   -94085   -94076 
  -94069   -94063   -94057   -94050   -94043   -94036   -94027   -94022 
  -94015   -94007   -93996   -93989   -93985   -93977   -93969   -93964 
  -93958   -93953   -93946   -93935   -93926   -93923   -93918   -93908 
  -93903   -93897   -93892   -93885   -93879   -93872   -93866   -93860 
  -93856   -93852   -93847   -93843   -93839   -93833   -93826   -93820 
  -93819   -93819   -93815   -93807   -93804   -93810   -93806   -93800 
  -93799   -93798   -93798   -93798   -93795   -93793   -93796   -93800 
  -93800   -93799   -93802   -93806   -93806   -93808   -93812   -93814 
  -93816   -93823   -93827   -93829   -93835   -93841   -93843   -93849 
  -93856   -93861   -93869   -93874   -93880   -93888   -93897   -93904 
  -93910   -93919   -93926   -93931   -93941   -93949   -93958   -93968 
  -93973   -93982   -93995   -94001   -94008   -94019   -94027   -94038 
  -94047   -94055   -94062   -94072   -94081   -94088   -94096   -94105 
  -94115   -94123   -94131   -94138   -94147   -94158   -94166   -94173 
  -94184   -94192   -94198   -94205   -94213   -94221   -94231   -94238 
  -94243   -94252   -94261   -94269   -94277   -94285   -94293   -94301 
  -94308   -94315   -94320   -94329   -94336   -94340   -94350   -94359 
  -94363   -94370   -94377   -94382   -94389   -94394   -94401   -94408 
  -94412   -94416   -94421   -94428   -94432   -94436   -94440   -94444 
  -94450   -94454   -94458   -94462   -94464   -94464   -94468   -94473 
  -94471   -94473   -94477   -94478   -94479   -94479   -94478   -94477 
  -94479   -94478   -94477   -94478   -94475   -94473   -94474   -94471 
  -94466   -94462   -94460   -94459   -94456   -94450   -94446   -94446 
  -94440   -94432   -94431   -94428   -94419   -94412   -94408   -94401 
  -94397   -94393   -94385   -94377   -94373   -94366   -94359   -94354 
  -94348   -94342   -94333   -94327   -94321   -94316   -94309   -94302 
  -94296   -94285   -94279   -94277   -94270   -94262   -94254   -94246 
  -94240   -94232   -94227   -94221   -94213   -94205   -94200   -94193 
  -94186   -94181   -94176   -94169   -94163   -94158   -94150   -94140 
  -94135   -94131   -94124   -94119   -94113   -94108   -94104   -94101 
  -94093   -94088   -94085   -94080   -94073   -94072   -94068   -94061 
  -94058   -94054   -94049   -94045   -94042   -94038   -94034   -94031 
  -94028   -94024   -94022   -94020   -94018   -94014   -94011   -94008 
  -94005   -94003   -93999   -93997   -93996   -93993   -93991   -93988 
  -93985   -93984   -93982   -93978   -93974   -93970   -93968   -93965 
  -93962   -93962   -93964   -93961   -93958   -93955   -93951   -93950 
  -93950   -93947   -93945   -93945   -93941   -93938   -93939   -93935 
  -93933   -93934   -93933   -93930   -93927   -93927   -93926   -93922 
  -93922   -93926   -93926   -93923   -93922   -93920   -93922   -93923 
  -93923   -93924   -93924   -93924   -93927   -93926   -93926   -93930 
  -93934   -93934   -93938   -93945   -93947   -93947   -93951   -93955 
  -93957   -93964   -93970   -93973   -93978   -93985   -93989   -93995 
  -94000   -94005   -94011   -94018   -94024   -94032   -94042   -94050 
  -94053   -94059   -94070   -94078   -94085   -94090   -94100   -94112 
  -94120   -94128   -94139   -94147   -94153   -94163   -94177   -94182 
  -94189   -94203   -94212   -94219   -94230   -94240   -94247   -94257 
  -94265   -94273   -94281   -94292   -94301   -94308   -94315   -94321 
  -94329   -94338   -94344   -94350   -94358   -94365   -94370   -94379 
  -94386   -94389   -94394   -94400   -94400   -94405   -94412   -94412 
  -94413   -94416   -94424   -94425   -94421   -94424   -94427   -94425 
  -94427   -94427   -94423   -94421   -94424   -94423   -94417   -94417 
  -94414   -94406   -94404   -94402   -94396   -94390   -94389   -94379 
  -94373   -94373   -94366   -94359   -94354   -94344   -94338   -94333 
  -94327   -94320   -94313   -94302   -94293   -94289   -94279   -94269 
  -94262   -94255   -94250   -94242   -94231   -94223   -94216   -94208 
  -94201   -94193   -94184   -94177   -94171   -94163   -94153   -94144 
  -94138   -94134   -94128   -94122   -94116   -94109   -94101   -94097 
  -94095   -94086   -94077   -94073   -94069   -94065   -94062   -94058 
  -94053   -94049   -94047   -94045   -94041   -94038   -94036   -94031 
  -94026   -94026   -94028   -94026   -94019   -94019   -94020   -94016 
  -94014   -94014   -94011   -94011   -94011   -94012   -94014   -94016 
  -94014   -94011   -94014   -94015   -94014   -94014   -94015   -94018 
  -94019   -94020   -94020   -94022   -94024   -94026   -94026   -94027 
  -94032   -94036   -94036   -94039   -94041   -94041   -94043   -94047 
  -94049   -94051   -94057   -94057   -94057   -94062   -94065   -94065 
  -94069   -94072   -94074   -94080   -94084   -94085   -94088   -94095 
  -94100   -94101   -94105   -94111   -94113   -94117   -94123   -94124 
  -94130   -94136   -94138   -94142   -94149   -94154   -94159   -94165 
  -94170   -94176   -94181   -94185   -94190   -94197   -94203   -94207 
  -94212   -94216   -94221   -94228   -94234   -94240   -94244   -94248 
  -94255   -94258   -94261   -94265   -94271   -94274   -94275   -94281 
  -94285   -94286   -94289   -94292   -94297   -94301   -94301   -94302 
  -94304   -94304   -94304   -94305   -94308   -94312   -94308   -94305 
  -94306   -94305   -94308   -94309   -94304   -94304   -94305   -94302 
  -94300   -94298   -94297   -94296   -94296   -94294   -94292   -94292 
  -94288   -94282   -94281   -94279   -94275   -94277   -94275   -94271 
  -94273   -94273   -94269   -94266   -94262   -94259   -94263   -94259 
  -94252   -94252   -94254   -94250   -94250   -94248   -94247   -94250 
  -94248   -94247   -94247   -94246   -94242   -94243   -94243   -94240 
  -94240   -94242   -94239   -94239   -94239   -94239   -94240   -94239 
  -94236   -94235   -94235   -94236   -94234   -94231   -94230   -94230 
  -94228   -94225   -94223   -94221   -94219   -94215   -94215   -94216 
  -94212   -94208   -94207   -94201   -94197   -94194   -94189   -94186 
  -94186   -94182   -94177   -94171   -94165   -94161   -94157   -94150 
  -94147   -94143   -94136   -94134   -94130   -94123   -94116   -94109 
  -94104   -94100   -94092   -94086   -94085   -94077   -94069   -94065 
  -94057   -94050   -94046   -94042   -94035   -94028   -94023   -94019 
  -94015   -94009   -94000   -93995   -93989   -93984   -93981   -93977 
  -93970   -93966   -93965   -93961   -93957   -93954   -93950   -93943 
  -93942   -93939   -93934   -93933   -93931   -93928   -93927   -93927 
  -93924   -93923   -93924   -93924   -93922   -93926   -93924   -93922 
  -93930   -93933   -93924   -93928   -93938   -93937   -93933   -93935 
  -93946   -93946   -93943   -93953   -93960   -93955   -93960   -93969 
  -93973   -93972   -93976   -93985   -93989   -93989   -93997   -94008 
  -94007   -94008   -94022   -94027   -94026   -94031   -94042   -94050 
  -94050   -94057   -94069   -94070   -94072   -94082   -94090   -94092 
  -94099   -94105   -94111   -94117   -94123   -94127   -94131   -94138 
  -94146   -94151   -94157   -94162   -94166   -94171   -94178   -94186 
  -94190   -94194   -94201   -94207   -94209   -94216   -94224   -94225 
  -94227   -94235   -94242   -94242   -94246   -94257   -94259   -94259 
  -94267   -94273   -94274   -94277   -94281   -94286   -94286   -94290 
