Origin Time       2025/01/13 21:19:00
Lat.              31.8
Long.             131.6
Depth. (km)       30
Mag.              6.9
Station Code      TYMH04
Station Lat.      36.7914
Station Long.     137.4689
Station Height(m) 54
Record Time       2025/01/13 21:23:46
Sampling Freq(Hz) 100Hz
Duration Time(s)  120
Dir.              3
Scale Factor      2942(gal)/8224139
Max. Acc. (gal)   0.072
Last Correction   2025/01/13 21:23:48
Memo.             
[...]
 -291452  -291451  -291454  -291455  -291455  -291455  -291452  -291452 
 -291456  -291456  -291454  -291455  -291458  -291459  -291459  -291460 
 -291459  -291456  -291460  -291466  -291466  -291463  -291466  -291470 
 -291467  -291466  -291470  -291470  -291470  -291473  -291474  -291473 
 -291474  -291475  -291477  -291481  -291481  -291481  -291483  -291487 
 -291490  -291490  -291487  -291489  -291493  -291493  -291494  -291496 
 -291493  -291494  -291497  -291498  -291501  -291501  -291498  -291500 
 -291501  -291501  -291501  -291502  -291506  -291508  -291505  -291506 
 -291509  -291508  -291512  -291516  -291514  -291514  -291516  -291519 
 -291520  -291519  -291519  -291523  -291524  -291524  -291527  -291527 
 -291527  -291529  -291532  -291533  -291535  -291535  -291537  -291541 
 -291540  -291541  -291547  -291548  -291547  -291548  -291552  -291554 
 -291555  -291556  -291556  -291559  -291564  -291567  -291566  -291570 
 -291574  -291573  -291575  -291579  -291582  -291585  -291585  -291585 
 -291589  -291593  -291595  -291597  -291600  -291604  -291604  -291606 
 -291612  -291612  -291614  -291617  -291618  -291618  -291621  -291624 
 -291627  -291628  -291627  -291628  -291631  -291632  -291632  -291632 
 -291631  -291629  -291631  -291631  -291629  -291625  -291627  -291625 
 -291621  -291624  -291624  -291617  -291613  -291610  -291605  -291602 
 -291600  -291591  -291589  -291589  -291581  -291571  -291567  -291563 
 -291559  -291554  -291551  -291546  -291540  -291536  -291528  -291521 
 -291514  -291512  -291509  -291504  -291498  -291496  -291493  -291487 
 -291483  -291483  -291481  -291478  -291477  -291474  -291474  -291471 
 -291471  -291475  -291474  -291473  -291474  -291478  -291481  -291483 
 -291486  -291487  -291492  -291497  -291504  -291508  -291509  -291514 
 -291521  -291527  -291532  -291537  -291544  -291551  -291554  -291559 
 -291566  -291571  -291578  -291583  -291589  -291597  -291602  -291601 
 -291606  -291613  -291616  -291617  -291620  -291624  -291627  -291632 
 -291636  -291636  -291636  -291637  -291636  -291635  -291639  -291639 
 -291636  -291636  -291635  -291632  -291629  -291627  -291624  -291622 
 -291618  -291617  -291614  -291610  -291606  -291604  -291600  -291595 
 -291591  -291585  -291579  -291577  -291571  -291566  -291563  -291558 
 -291554  -291550  -291544  -291540  -291536  -291535  -291529  -291523 
 -291520  -291513  -291505  -291502  -291501  -291494  -291490  -291486 
 -291478  -291474  -291473  -291469  -291462  -291458  -291454  -291450 
 -291446  -291443  -291440  -291438  -291432  -291431  -291428  -291427 
 -291423  -291420  -291421  -291419  -291415  -291413  -291413  -291413 
 -291413  -291413  -291416  -291420  -291417  -291419  -291423  -291425 
 -291428  -291429  -291432  -291438  -291440  -291443  -291450  -291456 
 -291460  -291466  -291474  -291479  -291483  -291492  -291498  -291505 
 -291512  -291520  -291528  -291539  -291547  -291554  -291562  -291570 
 -291578  -291586  -291595  -291604  -291609  -291620  -291627  -291633 
 -291643  -291649  -291655  -291662  -291667  -291674  -291679  -291685 
 -291689  -291693  -291698  -291702  -291708  -291710  -291712  -291710 
 -291712  -291713  -291714  -291716  -291716  -291713  -291712  -291712 
 -291710  -291709  -291706  -291702  -291703  -291701  -291694  -291691 
 -291689  -291683  -291679  -291672  -291670  -291668  -291662  -291658 
 -291654  -291648  -291643  -291637  -291633  -291629  -291622  -291617 
 -291614  -291610  -291606  -291600  -291594  -291593  -291589  -291583 
 -291578  -291573  -291570  -291568  -291566  -291562  -291555  -291551 
 -291550  -291547  -291544  -291541  -291537  -291535  -291533  -291533 
 -291532  -291528  -291525  -291521  -291520  -291520  -291517  -291519 
 -291519  -291514  -291512  -291513  -291513  -291513  -291512  -291509 
 -291508  -291506  -291509  -291509  -291505  -291502  -291502  -291505 
 -291505  -291504  -291504  -291502  -291502  -291504  -291505  -291504 
 -291502  -291502  -291502  -291501  -291501  -291501  -291501  -291500 
 -291500  -291500  -291498  -291497  -291496  -291494  -291494  -291493 
 -291493  -291493  -291490  -291487  -291489  -291487  -291487  -291487 
 -291486  -291485  -291485  -291483  -291482  -291482  -291483  -291482 
 -291477  -291478  -291479  -291477  -291478  -291478  -291474  -291474 
 -291477  -291475  -291477  -291477  -291474  -291473  -291474  -291477 
 -291475  -291475  -291477  -291478  -291478  -291478  -291478  -291478 
 -291479  -291479  -291479  -291481  -291482  -291479  -291479  -291482 
 -291482  -291483  -291483  -291482  -291482  -291483  -291482  -291481 
 -291481  -291479  -291477  -291475  -291477  -291477  -291475  -291473 
 -291473  -291471  -291470  -291471  -291471  -291469  -291467  -291467 
 -291465  -291462  -291460  -291460  -291459  -291458  -291456  -291455 
 -291456  -291456  -291455  -291454  -291452  -291452  -291452  -291454 
 -291451  -291451  -291452  -291454  -291454  -291455  -291455  -291452 
 -291452  -291452  -291452  -291455  -291458  -291456  -291456  -291459 
 -291459  -291462  -291467  -291469  -291467  -291467  -291467  -291470 
 -291470  -291469  -291471  -291475  -291474  -291474  -291477  -291477 
 -291478  -291479  -291479  -291481  -291483  -291481  -291478  -291481 
 -291479  -291479  -291479  -291478  -291477  -291477  -291477  -291477 
 -291477  -291474  -291473  -291473  -291470  -291469  -291470  -291469 
 -291466  -291466  -291466  -291465  -291460  -291459  -291458  -291455 
 -291454  -291452  -291451  -291448  -291448  -291448  -291448  -291447 
 -291446  -291444  -291443  -291440  -291440  -291440  -291438  -291438 
 -291442  -291439  -291435  -291438  -291435  -291433  -291436  -291438 
 -291438  -291439  -291439  -291440  -291442  -291439  -291436  -291439 
 -291442  -291444  -291444  -291444  -291448  -291450  -291451  -291452 
 -291455  -291456  -291459  -291463  -291463  -291465  -291471  -291474 
 -291474  -291475  -291479  -291482  -291485  -291489  -291493  -291494 
 -291500  -291502  -291502  -291509  -291516  -291516  -291517  -291521 
 -291524  -291528  -291532  -291536  -291541  -291544  -291547  -291551 
 -291556  -291558  -291559  -291563  -291567  -291567  -291570  -291575 
 -291575  -291578  -291585  -291587  -291590  -291593  -291594  -291595 
 -291601  -291604  -291605  -291610  -291612  -291609  -291612  -291613 
 -291613  -291614  -291618  -291618  -291620  -291621  -291622  -291622 
 -291624  -291624  -291625  -291624  -291624  -291628  -291625  -291625 
 -291628  -291627  -291627  -291627  -291624  -291625  -291624  -291622 
 -291622  -291621  -291622  -291625  -291622  -291620  -291621  -291624 
 -291625  -291624  -291621  -291622  -291624  -291621  -291622  -291622 
 -291622  -291622  -291620  -291621  -291624  -291621  -291621  -291625 
 -291625  -291622  -291620  -291622  -291625  -291624  -291621  -291622 
 -291624  -291624  -291622  -291621  -291620  -291620  -291620  -291620 
 -291620  -291618  -291617  -291618  -291617  -291616  -291617  -291617 
 -291616  -291614  -291614  -291613  -291612  -291610  -291609  -291606 
 -291604  -291605  -291605  -291604  -291600  -291598  -291598  -291598 
 -291594  -291591  -291591  -291589  -291586  -291582  -291581  -291581 
 -291578  -291574  -291570  -291568  -291566  -291562  -291559  -291558 
 -291555  -291551  -291546  -291543  -291541  -291539  -291536  -291533 
 -291529  -291527  -291524  -291521  -291519  -291516  -291514  -291513 
 -291508  -291505  -291508  -291508  -291505  -291502  -291504  -291502 
 -291500  -291497  -291498  -291498  -291498  -291500  -291500  -291500 
 -291500  -291500  -291502  -291502  -291502  -291505  -291508  -291508 
 -291509  -291510  -291510  -291513  -291516  -291519  -291523  -291523 
 -291523  -291524  -291525  -291531  -291536  -291537  -291540  -291540 
 -291543  -291547  -291546  -291547  -291551  -291550  -291551  -291552 
 -291552  -291554  -291556  -291556  -291556  -291556  -291556  -291556 
 -291558  -291556  -291555  -291554  -291554  -291554  -291552  -291551 
 -291552  -291548  -291544  -291544  -291541  -291536  -291533  -291533 
 -291531  -291527  -291525  -291521  -291517  -291514  -291512  -291508 
 -291504  -291500  -291494  -291490  -291487  -291483  -291478  -291475 
 -291474  -291470  -291463  -291458  -291456  -291454  -291448  -291444 
 -291443  -291442  -291438  -291432  -291431  -291429  -291424  -291424 
 -291425  -291423  -291419  -291416  -291417  -291419  -291416  -291416 
 -291421  -291421  -291421  -291424  -291428  -291429  -291432  -291436 
 -291442  -291444  -291447  -291450  -291455  -291459  -291465  -291470 
 -291475  -291481  -291486  -291494  -291500  -291508  -291514  -291520 
 -291527  -291535  -291540  -291547  -291556  -291563  -291568  -291577 
 -291585  -291589  -291594  -291602  -291610  -291616  -291621  -291627 
 -291633  -291639  -291644  -291649  -291654  -291658  -291664  -291670 
 -291671  -291675  -291678  -291678  -291679  -291685  -291687  -291687 
 -291690  -291691  -291691  -291693  -291693  -291691  -291693  -291689 
 -291686  -291687  -291683  -291679  -291679  -291679  -291675  -291671 
 -291671  -291668  -291663  -291658  -291656  -291654  -291649  -291645 
 -291641  -291639  -291633  -291627  -291622  -291620  -291616  -291610 
 -291604  -291601  -291601  -291594  -291586  -291582  -291581  -291575 
 -291570  -291567  -291562  -291554  -291548  -291547  -291543  -291535 
 -291529  -291525  -291520  -291513  -291508  -291502  -291497  -291494 
 -291492  -291482  -291477  -291474  -291466  -291462  -291459  -291451 
 -291447  -291444  -291438  -291435  -291435  -291431  -291425  -291423 
 -291421  -291419  -291413  -291411  -291409  -291409  -291408  -291408 
 -291408  -291405  -291402  -291404  -291406  -291408  -291406  -291408 
 -291409  -291413  -291416  -291419  -291423  -291428  -291429  -291431 
 -291433  -291439  -291443  -291447  -291451  -291456  -291465  -291470 
 -291470  -291473  -291482  -291487  -291492  -291498  -291505  -291508 
 -291514  -291523  -291527  -291531  -291537  -291541  -291546  -291552 
 -291559  -291563  -291570  -291575  -291582  -291587  -291591  -291594 
 -291600  -291605  -291609  -291610  -291616  -291621  -291625  -291632 
 -291635  -291637  -291643  -291645  -291645  -291648  -291651  -291652 
 -291654  -291658  -291662  -291663  -291660  -291659  -291660  -291660 
 -291659  -291660  -291660  -291656  -291651  -291648  -291645  -291644 
 -291641  -291635  -291631  -291627  -291618  -291613  -291610  -291605 
 -291597  -291593  -291586  -291577  -291570  -291562  -291554  -291547 
 -291539  -291529  -291521  -291513  -291506  -291498  -291489  -291479 
 -291474  -291466  -291455  -291450  -291444  -291435  -291429  -291425 
 -291420  -291415  -291409  -291404  -291400  -291398  -291394  -291393 
 -291394  -291394  -291392  -291388  -291388  -291392  -291394  -291396 
 -291398  -291402  -291406  -291409  -291412  -291420  -291425  -291429 
 -291439  -291448  -291455  -291460  -291469  -291477  -291486  -291496 
 -291504  -291512  -291521  -291532  -291541  -291551  -291559  -291566 
 -291575  -291586  -291595  -291602  -291610  -291618  -291625  -291632 
 -291640  -291647  -291654  -291658  -291663  -291668  -291671  -291675 
 -291683  -291687  -291687  -291689  -291690  -291693  -291694  -291697 
 -291697  -291694  -291693  -291691  -291689  -291686  -291683  -291681 
 -291679  -291674  -291671  -291668  -291664  -291663  -291656  -291649 
 -291647  -291644  -291637  -291631  -291627  -291621  -291616  -291612 
 -291605  -291598  -291594  -291590  -291585  -291577  -291571  -291570 
 -291566  -291560  -291559  -291555  -291548  -291544  -291543  -291536 
 -291532  -291532  -291529  -291524  -291523  -291521  -291519  -291516 
 -291516  -291514  -291513  -291514  -291516  -291514  -291510  -291512 
 -291516  -291517  -291516  -291516  -291514  -291514  -291519  -291520 
 -291520  -291524  -291525  -291525  -291528  -291532  -291537  -291539 
 -291537  -291541  -291547  -291548  -291550  -291551  -291556  -291562 
 -291563  -291564  -291567  -291570  -291574  -291577  -291578  -291581 
 -291583  -291586  -291589  -291589  -291593  -291595  -291594  -291597 
 -291600  -291598  -291601  -291602  -291601  -291602  -291604  -291605 
 -291605  -291604  -291605  -291604  -291605  -291606  -291604  -291604 
 -291604  -291602  -291600  -291597  -291595  -291595  -291590  -291587 
 -291586  -291587  -291587  -291583  -291581  -291578  -291574  -291571 
 -291568  -291567  -291566  -291562  -291558  -291555  -291550  -291547 
 -291547  -291541  -291540  -291539  -291533  -291531  -291531  -291527 
 -291523  -291519  -291516  -291514  -291514  -291510  -291508  -291505 
 -291502  -291502  -291500  -291496  -291494  -291493  -291490  -291490 
 -291489  -291486  -291485  -291485  -291485  -291485  -291482  -291478 
 -291478  -291481  -291481  -291479  -291478  -291477  -291478  -291478 
 -291474  -291471  -291474  -291475  -291473  -291473  -291471  -291470 
 -291471  -291470  -291469  -291467  -291465  -291465  -291466  -291463 
 -291460  -291458  -291456  -291454  -291450  -291450  -291447  -291442 
 -291440  -291439  -291435  -291433  -291428  -291423  -291420  -291419 
 -291413  -291408  -291405  -291402  -291400  -291397  -291393  -291386 
 -291381  -291379  -291378  -291373  -291369  -291366  -291361  -291359 
 -291357  -291351  -291350  -291347  -291340  -291339  -291340  -291338 
 -291334  -291332  -291332  -291331  -291327  -291327  -291328  -291325 
 -291324  -291325  -291325  -291323  -291324  -291328  -291328  -291328 
 -291331  -291334  -291335  -291338  -291339  -291340  -291346  -291348 
 -291350  -291352  -291355  -291359  -291366  -291371  -291373  -291374 
 -291378  -291384  -291388  -291393  -291400  -291401  -291405  -291411 
 -291415  -291419  -291423  -291428  -291435  -291438  -291439  -291448 
 -291454  -291455  -291459  -291463  -291467  -291471  -291474  -291478 
 -291483  -291489  -291492  -291493  -291497  -291501  -291506  -291508 
 -291506  -291510  -291517  -291519  -291520  -291524  -291527  -291528 
 -291527  -291528  -291529  -291532  -291533  -291533  -291535  -291537 
 -291540  -291539  -291540  -291544  -291543  -291540  -291540  -291543 
 -291544  -291543  -291543  -291543  -291541  -291543  -291543  -291541 
 -291544  -291544  -291543  -291541  -291540  -291540  -291539  -291539 
 -291541  -291539  -291537  -291537  -291535  -291535  -291535  -291533 
 -291533  -291533  -291533  -291531  -291529  -291529  -291529  -291529 
 -291529  -291527  -291524  -291525  -291524  -291521  -291524  -291523 
 -291519  -291520  -291523  -291520  -291516  -291514  -291519  -291520 
 -291517  -291516  -291519  -291517  -291516  -291516  -291516  -291517 
 -291517  -291516  -291517  -291519  -291516  -291519  -291524  -291524 
 -291521  -291524  -291527  -291528  -291528  -291528  -291528  -291532 
 -291536  -291536  -291537  -291539  -291539  -291540  -291543  -291544 
 -291550  -291552  -291551  -291552  -291554  -291555  -291558  -291559 
 -291562  -291563  -291564  -291564  -291567  -291570  -291570  -291570 
 -291571  -291571  -291571  -291574  -291577  -291578  -291578  -291578 
 -291579  -291578  -291577  -291578  -291579  -291579  -291577  -291577 
 -291578  -291578  -291575  -291577  -291578  -291577  -291575  -291577 
 -291578  -291578  -291577  -291578  -291579  -291578  -291577  -291577 
 -291578  -291578  -291579  -291579  -291578  -291579  -291581  -291581 
 -291578  -291579  -291581  -291579  -291579  -291581  -291582  -291579 
 -291579  -291582  -291583  -291581  -291577  -291578  -291582  -291583 
 -291581  -291582  -291585  -291582  -291579  -291581  -291581  -291583 
 -291582  -291578  -291578  -291578  -291575  -291574  -291575  -291574 
 -291573  -291570  -291567  -291566  -291566  -291563  -291560  -291562 
 -291560  -291555  -291552  -291551  -291550  -291547  -291544  -291540 
 -291539  -291537  -291535  -291537  -291535  -291529  -291528  -291528 
 -291525  -291524  -291523  -291521  -291521  -291519  -291517  -291517 
 -291514  -291514  -291513  -291510  -291509  -291513  -291514  -291513 
 -291510  -291510  -291512  -291512  -291512  -291512  -291510  -291510 
 -291510  -291509  -291509  -291510  -291508  -291509  -291514  -291513 
 -291510  -291514  -291516  -291514  -291514  -291517  -291517  -291519 
 -291520  -291520  -291520  -291521  -291524  -291524  -291527  -291527 
 -291524  -291527  -291532  -291529  -291528  -291531  -291529  -291529 
 -291533  -291535  -291531  -291532  -291536  -291535  -291533  -291535 
 -291536  -291537  -291537  -291537  -291537  -291536  -291536  -291539 
 -291540  -291537  -291537  -291540  -291540  -291537  -291539  -291541 
 -291541  -291541  -291539  -291537  -291540  -291544  -291541  -291541 
 -291544  -291543  -291543  -291544  -291543  -291543  -291546  -291543 
 -291544  -291548  -291546  -291544  -291548  -291550  -291547  -291547 
 -291550  -291550  -291550  -291554  -291556  -291550  -291548  -291551 
 -291552  -291550  -291551  -291551  -291550  -291551  -291551  -291546 
 -291546  -291550  -291547  -291546  -291548  -291546  -291543  -291544 
 -291543  -291544  -291544  -291544  -291543  -291541  -291540  -291539 
 -291541  -291540  -291537  -291537  -291541  -291539  -291536  -291537 
 -291535  -291533  -291536  -291536  -291535  -291536  -291535  -291533 
 -291536  -291536  -291536  -291536  -291533  -291532  -291533  -291536 
 -291536  -291536  -291537  -291537  -291535  -291536  -291541  -291541 
 -291539  -291540  -291541  -291541  -291543  -291544  -291544  -291543 
 -291546  -291547  -291547  -291548  -291551  -291552  -291551  -291551 
 -291554  -291556  -291556  -291555  -291558  -291560  -291563  -291563 
 -291562  -291562  -291563  -291562  -291564  -291566  -291564  -291563 
 -291564  -291564  -291566  -291566  -291563  -291562  -291563  -291564 
 -291562  -291556  -291555  -291558  -291555  -291552  -291551  -291550 
 -291548  -291544  -291543  -291540  -291536  -291535  -291533  -291528 
 -291524  -291523  -291516  -291512  -291510  -291509  -291505  -291500 
 -291496  -291492  -291489  -291486  -291479  -291475  -291474  -291470 
 -291466  -291463  -291459  -291456  -291454  -291448  -291446  -291443 
 -291438  -291433  -291433  -291432  -291429  -291425  -291423  -291424 
 -291421  -291417  -291416  -291416  -291415  -291411  -291409  -291413 
 -291413  -291412  -291411  -291408  -291406  -291408  -291409  -291408 
 -291408  -291409  -291408  -291411  -291412  -291411  -291412  -291416 
 -291415  -291413  -291415  -291417  -291419  -291419  -291420  -291423 
 -291424  -291424  -291425  -291427  -291428  -291432  -291432  -291431 
 -291435  -291439  -291438  -291440  -291446  -291448  -291452  -291455 
 -291452  -291454  -291456  -291460  -291463  -291466  -291467  -291470 
 -291471  -291475  -291478  -291481  -291482  -291483  -291486  -291487 
 -291489  -291493  -291494  -291494  -291496  -291498  -291500  -291500 
 -291501  -291504  -291506  -291508  -291506  -291506  -291509  -291510 
 -291509  -291508  -291509  -291509  -291506  -291508  -291509  -291506 
 -291505  -291506  -291504  -291504  -291504  -291502  -291500  -291497 
 -291494  -291494  -291493  -291490  -291487  -291487  -291486  -291482 
 -291479  -291479  -291478  -291475  -291475  -291474  -291471  -291470 
 -291469  -291469  -291465  -291463  -291465  -291460  -291460  -291463 
