Origin Time       2025/01/13 21:19:00
Lat.              31.8
Long.             131.6
Depth. (km)       30
Mag.              6.9
Station Code      WKYH06
Station Lat.      33.6948
Station Long.     135.5953
Station Height(m) 118
Record Time       2025/01/13 21:21:54
Sampling Freq(Hz) 100Hz
Duration Time(s)  120
Dir.              3
Scale Factor      2942(gal)/8224139
Max. Acc. (gal)   0.160
Last Correction   2025/01/13 21:21:55
Memo.             
[...]
   43151    43152    43155    43158    43160    43160    43162    43163 
   43162    43156    43147    43144    43140    43132    43129    43129 
   43120    43114    43116    43109    43101    43101    43093    43087 
   43089    43083    43075    43074    43073    43065    43059    43055 
   43047    43043    43035    43025    43020    43013    43004    42996 
   42989    42981    42974    42970    42967    42962    42957    42959 
   42963    42965    42967    42973    42977    42977    42977    42981 
   42986    42989    42990    42990    42986    42986    42989    42992 
   42988    42982    42979    42975    42973    42969    42961    42961 
   42962    42959    42958    42957    42954    42948    42943    42942 
   42936    42925    42917    42907    42896    42890    42889    42884 
   42878    42874    42870    42867    42865    42859    42859    42862 
   42861    42861    42862    42863    42865    42863    42867    42876 
   42881    42882    42888    42896    42905    42915    42924    42934 
   42944    42959    42973    42989    43009    43027    43046    43069 
   43093    43114    43141    43163    43181    43204    43224    43239 
   43255    43272    43287    43302    43316    43326    43336    43340 
   43344    43353    43362    43367    43371    43370    43371    43375 
   43375    43370    43362    43355    43349    43341    43330    43317 
   43308    43302    43295    43286    43275    43263    43254    43244 
   43232    43224    43217    43202    43190    43187    43182    43171 
   43167    43162    43148    43140    43136    43129    43121    43110 
   43100    43092    43087    43082    43077    43069    43058    43046 
   43033    43023    43016    43004    42989    42975    42967    42958 
   42948    42942    42931    42919    42912    42907    42901    42897 
   42890    42885    42885    42885    42884    42889    42894    42894 
   42894    42897    42907    42915    42919    42925    42936    42943 
   42950    42961    42973    42982    42989    42997    43004    43009 
   43015    43016    43017    43023    43025    43023    43025    43024 
   43016    43015    43011    43002    42997    42990    42985    42985 
   42982    42978    42974    42969    42963    42958    42955    42955 
   42952    42955    42959    42962    42970    42977    42982    42996 
   43008    43012    43023    43038    43046    43051    43059    43073 
   43086    43093    43094    43102    43112    43113    43116    43124 
   43129    43132    43133    43132    43132    43135    43133    43131 
   43132    43132    43124    43119    43117    43112    43105    43096 
   43087    43079    43074    43071    43063    43058    43055    43051 
   43046    43033    43027    43025    43021    43017    43013    43005 
   43001    43001    43000    43001    43005    43008    43015    43021 
   43024    43028    43035    43040    43044    43048    43055    43060 
   43063    43066    43070    43074    43075    43079    43081    43078 
   43075    43074    43070    43065    43065    43069    43063    43054 
   43052    43052    43048    43042    43033    43028    43027    43025 
   43025    43021    43023    43024    43020    43020    43025    43029 
   43033    43035    43038    43043    43048    43055    43059    43059 
   43060    43066    43070    43071    43074    43075    43078    43083 
   43085    43085    43089    43090    43089    43086    43083    43083 
   43078    43071    43074    43070    43065    43065    43063    43063 
   43066    43065    43063    43066    43069    43071    43073    43077 
   43083    43087    43090    43096    43098    43104    43109    43109 
   43112    43119    43123    43124    43128    43135    43133    43131 
   43129    43129    43127    43124    43121    43119    43117    43117 
   43114    43113    43110    43102    43097    43090    43083    43079 
   43078    43079    43077    43073    43073    43074    43071    43074 
   43075    43070    43066    43066    43063    43060    43059    43054 
   43047    43044    43042    43035    43031    43029    43024    43015 
   43011    43009    43006    43000    42989    42984    42979    42969 
   42966    42966    42959    42950    42946    42939    42928    42921 
   42919    42909    42897    42890    42885    42874    42870    42865 
   42858    42854    42849    42844    42847    42847    42846    42850 
   42855    42859    42866    42873    42882    42893    42901    42915 
   42930    42939    42952    42971    42993    43013    43028    43046 
   43065    43081    43096    43114    43131    43144    43159    43177 
   43191    43202    43209    43217    43225    43231    43235    43237 
   43237    43240    43247    43245    43241    43237    43232    43225 
   43220    43210    43197    43185    43177    43166    43150    43136 
   43128    43116    43101    43089    43079    43066    43051    43042 
   43035    43020    43006    42997    42986    42978    42965    42950 
   42943    42936    42921    42912    42911    42911    42908    42905 
   42900    42897    42898    42897    42892    42888    42888    42884 
   42885    42889    42889    42893    42894    42893    42897    42904 
   42904    42901    42903    42904    42909    42917    42923    42925 
   42934    42940    42943    42950    42954    42952    42958    42966 
   42970    42973    42979    42984    42986    42994    43005    43013 
   43023    43032    43043    43054    43063    43074    43087    43100 
   43114    43131    43146    43162    43177    43191    43210    43225 
   43241    43263    43279    43290    43309    43329    43343    43360 
   43379    43391    43402    43413    43417    43420    43421    43418 
   43414    43410    43403    43393    43383    43374    43360    43351 
   43340    43321    43308    43299    43283    43263    43249    43239 
   43224    43212    43198    43183    43174    43163    43151    43143 
   43133    43121    43116    43112    43100    43090    43085    43081 
   43074    43067    43062    43055    43046    43036    43028    43017 
   43006    42994    42981    42970    42962    42950    42936    42927 
   42912    42896    42886    42877    42867    42855    42850    42847 
   42842    42843    42847    42849    42850    42854    42861    42867 
   42871    42873    42877    42880    42881    42884    42888    42889 
   42890    42893    42900    42909    42917    42924    42934    42950 
   42966    42982    42997    43013    43032    43052    43073    43090 
   43106    43123    43139    43154    43167    43181    43190    43198 
   43208    43217    43224    43225    43225    43229    43229    43224 
   43220    43221    43222    43224    43222    43218    43216    43216 
   43213    43212    43208    43200    43195    43189    43181    43177 
   43168    43156    43147    43139    43135    43129    43119    43113 
   43110    43100    43092    43087    43079    43075    43070    43059 
   43056    43055    43050    43048    43048    43046    43044    43043 
   43043    43040    43033    43033    43039    43035    43031    43033 
   43033    43028    43027    43028    43028    43025    43027    43033 
   43033    43032    43038    43042    43035    43038    43046    43042 
   43039    43042    43036    43032    43032    43027    43025    43027 
   43021    43012    43011    43011    43009    43011    43009    43005 
   43006    43006    43000    43000    43001    43001    42998    42998 
   42997    42993    42989    42990    42992    42989    42988    42982 
   42978    42981    42981    42974    42973    42971    42969    42969 
   42969    42969    42966    42963    42966    42966    42967    42971 
   42975    42979    42984    42986    42989    42998    43008    43012 
   43015    43019    43024    43027    43027    43029    43033    43038 
   43046    43051    43054    43058    43065    43073    43077    43081 
   43094    43108    43110    43113    43123    43129    43135    43140 
   43148    43156    43163    43167    43173    43175    43177    43181 
   43179    43182    43186    43183    43179    43186    43189    43189 
   43191    43198    43204    43205    43208    43212    43213    43216 
   43217    43218    43222    43225    43227    43225    43227    43228 
   43229    43225    43217    43206    43197    43187    43173    43158 
   43144    43128    43110    43096    43078    43060    43042    43021 
   43001    42985    42966    42946    42930    42913    42901    42889 
   42874    42862    42853    42840    42834    42827    42820    42819 
   42817    42813    42817    42820    42812    42809    42812    42813 
   42816    42813    42811    42812    42815    42817    42819    42823 
   42830    42831    42828    42827    42827    42824    42820    42815 
   42813    42815    42813    42809    42805    42801    42801    42800 
   42803    42807    42804    42804    42809    42815    42819    42824 
   42828    42835    42843    42849    42855    42865    42873    42878 
   42886    42893    42897    42908    42917    42924    42930    42936 
   42940    42944    42950    42957    42962    42963    42969    42981 
   42985    42982    42989    42998    43002    43011    43015    43019 
   43024    43029    43036    43043    43046    43052    43060    43063 
   43069    43077    43078    43081    43090    43096    43096    43096 
   43097    43100    43097    43094    43093    43093    43093    43096 
   43097    43096    43093    43094    43097    43097    43098    43101 
   43109    43112    43110    43119    43129    43132    43136    43146 
   43154    43163    43177    43183    43193    43206    43217    43228 
   43237    43247    43258    43263    43270    43279    43289    43298 
   43302    43305    43309    43313    43320    43324    43322    43324 
   43326    43324    43321    43316    43309    43306    43301    43289 
   43276    43270    43260    43245    43233    43224    43209    43195 
   43186    43175    43160    43143    43127    43112    43096    43078 
   43058    43038    43020    43000    42974    42955    42936    42909 
   42888    42871    42847    42828    42813    42796    42778    42765 
   42751    42739    42724    42715    42711    42704    42695    42691 
   42689    42682    42678    42680    42677    42674    42680    42681 
   42678    42681    42682    42681    42682    42685    42684    42685 
   42689    42691    42693    42705    42714    42715    42728    42745 
   42751    42759    42774    42788    42801    42817    42834    42849 
   42865    42881    42900    42919    42932    42947    42966    42979 
   42992    43009    43025    43035    43043    43054    43063    43069 
   43074    43082    43089    43090    43094    43104    43109    43113 
   43121    43124    43124    43129    43135    43135    43136    43139 
   43144    43147    43148    43155    43155    43156    43166    43173 
   43175    43179    43182    43182    43186    43187    43190    43200 
   43204    43206    43212    43220    43225    43232    43241    43245 
   43248    43258    43264    43267    43271    43275    43275    43271 
   43271    43271    43267    43259    43251    43243    43232    43220 
   43208    43195    43183    43170    43162    43150    43135    43124 
   43112    43098    43086    43075    43065    43056    43047    43038 
   43031    43029    43025    43020    43019    43017    43019    43023 
   43023    43028    43040    43043    43050    43062    43066    43074 
   43087    43093    43098    43112    43120    43125    43140    43156 
   43160    43167    43183    43190    43189    43195    43198    43193 
   43191    43190    43189    43186    43179    43170    43166    43162 
   43158    43152    43146    43139    43135    43125    43119    43116 
   43109    43105    43101    43090    43081    43079    43075    43067 
   43058    43048    43043    43036    43031    43024    43013    43005 
   42997    42989    42978    42963    42951    42942    42927    42913 
   42903    42889    42876    42862    42849    42834    42820    42808 
   42796    42785    42773    42762    42755    42746    42732    42727 
   42726    42719    42711    42708    42705    42701    42707    42711 
   42714    42720    42727    42732    42746    42757    42765    42778 
   42795    42805    42819    42836    42858    42867    42874    42894 
   42911    42913    42928    42944    42946    42948    42962    42970 
   42974    42978    42982    42990    42993    42990    42993    42998 
   42998    42998    43001    43004    43005    43008    43008    43011 
   43015    43016    43019    43028    43033    43035    43040    43052 
   43058    43056    43063    43073    43073    43079    43089    43089 
   43092    43097    43096    43096    43097    43094    43093    43092 
   43086    43082    43081    43078    43071    43062    43052    43046 
   43036    43027    43012    42996    42981    42969    42957    42942 
   42923    42904    42892    42878    42858    42843    42830    42812 
   42797    42784    42768    42754    42739    42723    42709    42696 
   42685    42680    42673    42664    42661    42660    42658    42661 
   42669    42677    42687    42700    42712    42723    42734    42747 
   42769    42792    42812    42835    42857    42877    42898    42920 
   42940    42962    42981    42997    43017    43040    43058    43079 
   43098    43116    43139    43158    43174    43198    43216    43232 
   43256    43275    43290    43309    43328    43344    43359    43378 
   43394    43405    43418    43430    43440    43452    43459    43463 
   43471    43474    43476    43479    43476    43470    43467    43464 
   43456    43449    43444    43434    43428    43421    43410    43399 
   43387    43371    43362    43353    43337    43326    43321    43310 
   43299    43291    43281    43272    43270    43263    43251    43243 
   43237    43235    43229    43217    43210    43206    43200    43190 
   43182    43177    43168    43156    43148    43139    43127    43116 
   43100    43082    43071    43059    43038    43019    43009    42994 
   42970    42947    42928    42911    42890    42870    42847    42828 
   42813    42795    42778    42766    42751    42741    42736    42734 
   42730    42726    42731    42742    42749    42751    42761    42770 
   42777    42785    42797    42808    42817    42830    42840    42847 
   42858    42870    42878    42885    42892    42896    42903    42908 
   42907    42909    42917    42920    42921    42927    42923    42923 
   42930    42930    42931    42938    42939    42932    42932    42938 
   42932    42924    42924    42924    42923    42921    42919    42920 
   42920    42913    42913    42919    42921    42923    42924    42925 
   42927    42930    42931    42931    42932    42934    42936    42942 
   42948    42952    42955    42962    42969    42973    42975    42979 
   42988    42992    42996    43005    43011    43015    43024    43029 
   43036    43046    43052    43059    43067    43073    43077    43085 
   43089    43092    43098    43104    43106    43113    43117    43116 
   43119    43119    43119    43120    43113    43105    43108    43104 
   43094    43093    43094    43087    43079    43078    43073    43062 
   43058    43054    43044    43032    43024    43016    43006    43000 
   42997    42988    42975    42971    42970    42967    42963    42961 
   42955    42951    42946    42943    42943    42936    42932    42932 
   42927    42923    42921    42916    42911    42909    42908    42905 
   42901    42897    42896    42896    42897    42897    42896    42894 
   42894    42897    42897    42894    42893    42896    42897    42897 
   42898    42900    42897    42897    42897    42896    42897    42897 
   42897    42898    42898    42894    42892    42892    42889    42884 
   42881    42880    42877    42881    42885    42885    42889    42894 
   42898    42907    42912    42916    42930    42943    42950    42961 
   42970    42978    42992    43005    43016    43028    43039    43052 
   43067    43077    43085    43097    43104    43110    43124    43133 
   43139    43148    43156    43160    43163    43167    43168    43171 
   43175    43177    43175    43171    43170    43168    43166    43166 
   43166    43163    43158    43154    43154    43154    43150    43146 
   43140    43136    43135    43129    43127    43125    43121    43117 
   43114    43110    43106    43102    43100    43097    43094    43096 
   43094    43092    43086    43079    43077    43075    43069    43062 
   43055    43052    43052    43047    43040    43038    43038    43032 
   43024    43021    43024    43019    43015    43016    43012    43008 
   43008    43006    43006    43004    43001    43005    43008    43006 
   43005    43005    43005    43005    43004    43002    42998    42993 
   42993    42992    42985    42979    42975    42970    42962    42954 
   42947    42939    42925    42915    42908    42896    42878    42863 
   42849    42834    42820    42807    42788    42768    42754    42746 
   42728    42712    42699    42685    42674    42665    42653    42646 
   42642    42634    42630    42628    42624    42623    42624    42628 
   42628    42628    42635    42643    42646    42653    42660    42669 
   42680    42685    42693    42709    42720    42726    42734    42745 
   42758    42766    42773    42785    42797    42807    42815    42826 
   42835    42847    42863    42878    42888    42903    42920    42935 
   42948    42963    42979    42996    43012    43027    43042    43058 
   43074    43092    43106    43117    43129    43146    43158    43164 
   43173    43185    43201    43214    43222    43232    43241    43252 
   43266    43275    43282    43287    43294    43302    43306    43308 
   43312    43318    43318    43316    43317    43316    43309    43303 
   43297    43285    43276    43267    43249    43235    43222    43206 
   43187    43173    43160    43147    43129    43112    43097    43086 
   43071    43058    43044    43031    43020    43008    42996    42988 
   42979    42966    42955    42951    42943    42935    42930    42920 
   42916    42915    42907    42897    42897    42897    42894    42894 
   42893    42886    42882    42881    42881    42881    42880    42877 
   42874    42876    42874    42871    42871    42873    42873    42873 
   42870    42871    42880    42881    42881    42882    42885    42890 
   42896    42896    42897    42900    42904    42907    42911    42913 
   42915    42921    42930    42934    42939    42946    42948    42954 
   42959    42963    42970    42975    42985    42996    42998    43004 
   43012    43020    43027    43032    43039    43048    43055    43058 
   43065    43074    43086    43096    43104    43116    43129    43136 
   43144    43159    43163    43166    43181    43189    43191    43197 
   43204    43206    43209    43214    43218    43222    43222    43225 
   43232    43233    43235    43239    43239    43236    43237    43239 
   43235    43229    43231    43232    43232    43232    43231    43229 
   43225    43222    43222    43217    43209    43205    43202    43193 
   43182    43171    43164    43158    43151    43143    43133    43125 
   43114    43098    43087    43073    43052    43042    43025    43006 
   42992    42974    42955    42940    42923    42904    42886    42873 
   42858    42840    42828    42819    42805    42793    42789    42785 
