Origin Time       2025/01/13 21:19:00
Lat.              31.8
Long.             131.6
Depth. (km)       30
Mag.              6.9
Station Code      WKYH10
Station Lat.      33.8248
Station Long.     135.2172
Station Height(m) -60
Record Time       2025/01/13 21:21:08
Sampling Freq(Hz) 100Hz
Duration Time(s)  120
Dir.              3
Scale Factor      2942(gal)/8224139
Max. Acc. (gal)   0.149
Last Correction   2025/01/13 21:21:08
Memo.             
[...]
  -64675   -64666   -64651   -64632   -64617   -64606   -64597   -64588 
  -64573   -64557   -64550   -64547   -64539   -64528   -64523   -64517 
  -64513   -64513   -64516   -64517   -64521   -64524   -64520   -64516 
  -64525   -64542   -64555   -64569   -64581   -64590   -64598   -64612 
  -64628   -64642   -64647   -64646   -64639   -64632   -64631   -64635 
  -64632   -64627   -64621   -64615   -64608   -64604   -64596   -64586 
  -64579   -64579   -64582   -64589   -64593   -64600   -64611   -64628 
  -64647   -64665   -64682   -64701   -64717   -64727   -64737   -64746 
  -64755   -64762   -64763   -64763   -64766   -64764   -64754   -64744 
  -64744   -64743   -64731   -64719   -64713   -64706   -64700   -64700 
  -64698   -64698   -64701   -64705   -64705   -64702   -64698   -64697 
  -64700   -64704   -64712   -64720   -64725   -64729   -64736   -64746 
  -64752   -64759   -64767   -64774   -64782   -64795   -64809   -64818 
  -64824   -64831   -64831   -64825   -64824   -64824   -64822   -64820 
  -64820   -64820   -64821   -64822   -64824   -64831   -64841   -64847 
  -64845   -64844   -64845   -64843   -64836   -64832   -64824   -64814 
  -64809   -64802   -64800   -64802   -64806   -64816   -64825   -64829 
  -64833   -64844   -64851   -64851   -64852   -64854   -64854   -64855 
  -64859   -64859   -64859   -64863   -64863   -64862   -64871   -64879 
  -64876   -64875   -64876   -64876   -64876   -64879   -64881   -64876 
  -64872   -64874   -64867   -64854   -64843   -64833   -64817   -64808 
  -64808   -64808   -64802   -64800   -64809   -64821   -64818   -64818 
  -64821   -64820   -64821   -64824   -64817   -64808   -64800   -64790 
  -64786   -64785   -64782   -64782   -64785   -64785   -64782   -64782 
  -64775   -64758   -64744   -64731   -64717   -64712   -64701   -64683 
  -64669   -64656   -64647   -64633   -64613   -64593   -64574   -64557 
  -64542   -64528   -64520   -64512   -64504   -64500   -64497   -64493 
  -64490   -64490   -64492   -64497   -64504   -64517   -64531   -64543 
  -64562   -64584   -64598   -64612   -64629   -64647   -64660   -64667 
  -64670   -64665   -64650   -64638   -64635   -64632   -64623   -64613 
  -64612   -64613   -64613   -64620   -64625   -64628   -64636   -64643 
  -64644   -64646   -64651   -64652   -64652   -64652   -64654   -64652 
  -64655   -64658   -64654   -64654   -64658   -64659   -64660   -64662 
  -64660   -64662   -64669   -64670   -64667   -64662   -64660   -64654 
  -64644   -64640   -64638   -64629   -64620   -64616   -64619   -64620 
  -64621   -64625   -64624   -64616   -64605   -64593   -64579   -64562 
  -64538   -64517   -64504   -64493   -64488   -64488   -64489   -64494 
  -64504   -64512   -64524   -64534   -64532   -64530   -64534   -64536 
  -64536   -64534   -64528   -64528   -64532   -64534   -64536   -64544 
  -64550   -64552   -64563   -64578   -64589   -64600   -64612   -64623 
  -64631   -64647   -64665   -64678   -64682   -64681   -64687   -64697 
  -64701   -64708   -64716   -64717   -64716   -64720   -64724   -64724 
  -64720   -64716   -64710   -64702   -64698   -64698   -64696   -64689 
  -64682   -64677   -64677   -64675   -64670   -64665   -64656   -64652 
  -64650   -64647   -64642   -64636   -64636   -64633   -64628   -64628 
  -64627   -64620   -64617   -64615   -64612   -64613   -64611   -64600 
  -64596   -64600   -64601   -64598   -64598   -64597   -64593   -64589 
  -64594   -64600   -64602   -64611   -64619   -64623   -64625   -64629 
  -64635   -64643   -64646   -64646   -64648   -64650   -64652   -64656 
  -64662   -64669   -64677   -64682   -64689   -64697   -64704   -64712 
  -64720   -64724   -64727   -64728   -64728   -64724   -64719   -64719 
  -64716   -64706   -64700   -64694   -64685   -64683   -64692   -64700 
  -64702   -64704   -64705   -64709   -64714   -64719   -64717   -64717 
  -64720   -64721   -64721   -64719   -64717   -64719   -64723   -64733 
  -64743   -64747   -64759   -64773   -64778   -64786   -64797   -64805 
  -64809   -64810   -64808   -64800   -64789   -64781   -64775   -64768 
  -64762   -64756   -64747   -64737   -64735   -64743   -64751   -64758 
  -64766   -64778   -64794   -64808   -64818   -64827   -64833   -64841 
  -64845   -64841   -64836   -64829   -64824   -64820   -64817   -64813 
  -64808   -64801   -64798   -64797   -64797   -64795   -64795   -64797 
  -64797   -64790   -64783   -64771   -64754   -64740   -64731   -64723 
  -64713   -64704   -64698   -64696   -64692   -64687   -64681   -64671 
  -64666   -64665   -64662   -64655   -64647   -64642   -64642   -64639 
  -64635   -64633   -64635   -64632   -64627   -64623   -64613   -64606 
  -64605   -64601   -64598   -64600   -64601   -64604   -64612   -64619 
  -64619   -64627   -64643   -64646   -64640   -64642   -64643   -64643 
  -64647   -64648   -64647   -64644   -64640   -64638   -64639   -64642 
  -64646   -64648   -64644   -64640   -64642   -64643   -64639   -64635 
  -64629   -64623   -64620   -64615   -64608   -64605   -64608   -64608 
  -64609   -64613   -64612   -64609   -64615   -64623   -64623   -64616 
  -64609   -64605   -64594   -64582   -64570   -64555   -64543   -64538 
  -64536   -64536   -64538   -64542   -64547   -64552   -64559   -64567 
  -64575   -64581   -64586   -64589   -64588   -64590   -64594   -64596 
  -64594   -64600   -64604   -64601   -64598   -64601   -64602   -64605 
  -64605   -64604   -64604   -64605   -64602   -64602   -64606   -64602 
  -64593   -64585   -64585   -64586   -64585   -64581   -64579   -64577 
  -64577   -64579   -64578   -64579   -64586   -64590   -64597   -64604 
  -64605   -64612   -64621   -64624   -64623   -64624   -64621   -64621 
  -64627   -64631   -64628   -64627   -64623   -64617   -64613   -64615 
  -64625   -64631   -64628   -64623   -64621   -64625   -64632   -64631 
  -64631   -64635   -64636   -64632   -64633   -64638   -64638   -64636 
  -64636   -64633   -64631   -64633   -64639   -64646   -64654   -64658 
  -64659   -64662   -64660   -64656   -64658   -64659   -64658   -64660 
  -64660   -64660   -64666   -64666   -64660   -64660   -64665   -64665 
  -64671   -64683   -64692   -64701   -64714   -64721   -64725   -64727 
  -64725   -64723   -64719   -64713   -64712   -64709   -64702   -64700 
  -64698   -64694   -64690   -64683   -64678   -64678   -64677   -64674 
  -64670   -64663   -64660   -64659   -64659   -64666   -64670   -64671 
  -64675   -64673   -64667   -64667   -64665   -64660   -64660   -64660 
  -64659   -64662   -64666   -64669   -64670   -64670   -64667   -64669 
  -64675   -64675   -64670   -64665   -64659   -64656   -64656   -64658 
  -64660   -64662   -64667   -64678   -64689   -64702   -64717   -64732 
  -64746   -64754   -64760   -64764   -64767   -64768   -64773   -64778 
  -64785   -64793   -64802   -64808   -64808   -64809   -64813   -64820 
  -64828   -64833   -64840   -64843   -64841   -64840   -64840   -64843 
  -64844   -64844   -64840   -64837   -64836   -64840   -64848   -64852 
  -64855   -64863   -64871   -64876   -64879   -64882   -64885   -64887 
  -64885   -64881   -64871   -64855   -64832   -64816   -64804   -64786 
  -64768   -64756   -64740   -64723   -64710   -64697   -64683   -64678 
  -64678   -64675   -64670   -64663   -64660   -64659   -64655   -64656 
  -64660   -64665   -64669   -64674   -64681   -64690   -64705   -64714 
  -64716   -64719   -64723   -64723   -64731   -64740   -64750   -64759 
  -64768   -64775   -64783   -64794   -64805   -64813   -64818   -64833 
  -64848   -64858   -64872   -64885   -64886   -64891   -64905   -64914 
  -64921   -64924   -64926   -64935   -64944   -64953   -64966   -64975 
  -64978   -64979   -64983   -64990   -64993   -64991   -64984   -64974 
  -64967   -64964   -64953   -64939   -64926   -64918   -64905   -64890 
  -64885   -64878   -64864   -64854   -64845   -64832   -64818   -64806 
  -64790   -64770   -64751   -64732   -64712   -64690   -64667   -64650 
  -64636   -64623   -64612   -64605   -64597   -64589   -64590   -64596 
  -64598   -64601   -64605   -64608   -64615   -64624   -64631   -64635 
  -64640   -64648   -64651   -64647   -64647   -64650   -64650   -64651 
  -64650   -64646   -64644   -64642   -64642   -64646   -64646   -64646 
  -64648   -64647   -64650   -64654   -64655   -64663   -64678   -64689 
  -64700   -64713   -64725   -64739   -64755   -64770   -64785   -64800 
  -64814   -64832   -64847   -64854   -64863   -64870   -64871   -64874 
  -64878   -64879   -64879   -64882   -64885   -64882   -64882   -64890 
  -64898   -64906   -64917   -64925   -64932   -64936   -64937   -64944 
  -64948   -64945   -64940   -64933   -64925   -64913   -64902   -64895 
  -64882   -64868   -64856   -64840   -64822   -64805   -64789   -64775 
  -64759   -64747   -64739   -64727   -64716   -64708   -64697   -64690 
  -64687   -64685   -64682   -64677   -64670   -64660   -64647   -64635 
  -64625   -64615   -64608   -64604   -64601   -64598   -64590   -64581 
  -64577   -64569   -64561   -64557   -64551   -64540   -64538   -64535 
  -64523   -64509   -64501   -64494   -64488   -64481   -64477   -64476 
  -64476   -64477   -64481   -64488   -64500   -64517   -64531   -64539 
  -64552   -64569   -64586   -64600   -64609   -64623   -64636   -64648 
  -64659   -64669   -64679   -64692   -64702   -64714   -64731   -64740 
  -64747   -64759   -64766   -64767   -64773   -64777   -64777   -64779 
  -64778   -64771   -64762   -64758   -64758   -64756   -64756   -64756 
  -64755   -64759   -64762   -64762   -64766   -64771   -64771   -64773 
  -64777   -64782   -64785   -64786   -64783   -64778   -64771   -64764 
  -64760   -64751   -64737   -64728   -64723   -64713   -64706   -64702 
  -64694   -64686   -64678   -64666   -64654   -64644   -64633   -64619 
  -64602   -64589   -64578   -64567   -64551   -64538   -64534   -64534 
  -64531   -64528   -64531   -64536   -64539   -64539   -64543   -64548 
  -64552   -64557   -64555   -64550   -64551   -64562   -64573   -64579 
  -64584   -64585   -64592   -64602   -64609   -64615   -64621   -64629 
  -64639   -64648   -64655   -64663   -64671   -64673   -64674   -64681 
  -64685   -64683   -64681   -64674   -64669   -64669   -64667   -64666 
  -64667   -64665   -64660   -64658   -64656   -64652   -64656   -64662 
  -64662   -64655   -64648   -64643   -64638   -64633   -64632   -64631 
  -64632   -64631   -64628   -64632   -64640   -64643   -64648   -64660 
  -64674   -64683   -64690   -64697   -64705   -64710   -64714   -64719 
  -64723   -64724   -64721   -64716   -64714   -64716   -64714   -64709 
  -64704   -64700   -64696   -64692   -64689   -64685   -64683   -64683 
  -64678   -64673   -64663   -64647   -64628   -64612   -64598   -64582 
  -64561   -64546   -64536   -64524   -64513   -64507   -64498   -64493 
  -64489   -64489   -64492   -64496   -64497   -64500   -64504   -64507 
  -64511   -64519   -64528   -64534   -64536   -64542   -64547   -64551 
  -64555   -64566   -64578   -64586   -64598   -64611   -64624   -64639 
  -64652   -64659   -64667   -64679   -64690   -64698   -64708   -64716 
  -64721   -64727   -64735   -64739   -64739   -64736   -64736   -64736 
  -64736   -64731   -64725   -64719   -64713   -64709   -64701   -64694 
  -64693   -64694   -64693   -64687   -64683   -64682   -64678   -64675 
  -64677   -64675   -64674   -64673   -64674   -64681   -64689   -64696 
  -64700   -64700   -64698   -64702   -64704   -64705   -64708   -64710 
  -64713   -64719   -64723   -64724   -64728   -64736   -64741   -64746 
  -64751   -64754   -64755   -64755   -64756   -64756   -64758   -64751 
  -64737   -64721   -64710   -64702   -64696   -64685   -64671   -64660 
  -64650   -64639   -64632   -64625   -64619   -64613   -64606   -64600 
  -64600   -64601   -64602   -64605   -64612   -64616   -64621   -64632 
  -64646   -64658   -64670   -64682   -64694   -64705   -64716   -64728 
  -64739   -64750   -64759   -64770   -64782   -64790   -64794   -64800 
  -64804   -64806   -64809   -64810   -64809   -64809   -64812   -64814 
  -64816   -64817   -64817   -64817   -64821   -64827   -64829   -64828 
  -64825   -64824   -64822   -64817   -64810   -64805   -64801   -64801 
  -64804   -64809   -64818   -64827   -64832   -64840   -64851   -64856 
  -64859   -64863   -64867   -64867   -64867   -64868   -64868   -64859 
  -64849   -64845   -64839   -64824   -64813   -64804   -64793   -64781 
  -64764   -64751   -64741   -64733   -64727   -64723   -64716   -64706 
  -64698   -64693   -64683   -64670   -64658   -64647   -64632   -64616 
  -64605   -64590   -64578   -64571   -64561   -64551   -64546   -64546 
  -64551   -64557   -64559   -64563   -64567   -64575   -64581   -64585 
  -64590   -64594   -64594   -64601   -64612   -64619   -64624   -64633 
  -64648   -64660   -64671   -64689   -64706   -64720   -64733   -64746 
  -64751   -64754   -64760   -64768   -64771   -64771   -64777   -64783 
  -64785   -64781   -64782   -64785   -64782   -64779   -64782   -64783 
  -64779   -64771   -64763   -64756   -64747   -64735   -64725   -64717 
  -64705   -64697   -64690   -64683   -64677   -64673   -64669   -64663 
  -64656   -64652   -64650   -64644   -64640   -64638   -64632   -64628 
  -64628   -64631   -64633   -64639   -64642   -64638   -64633   -64632 
  -64627   -64617   -64609   -64598   -64584   -64570   -64558   -64540 
  -64520   -64504   -64488   -64470   -64450   -64434   -64419   -64408 
  -64396   -64381   -64365   -64353   -64347   -64338   -64326   -64315 
  -64301   -64287   -64276   -64264   -64257   -64258   -64258   -64257 
  -64257   -64255   -64258   -64268   -64276   -64284   -64292   -64299 
  -64305   -64318   -64335   -64345   -64353   -64365   -64378   -64390 
  -64405   -64417   -64424   -64435   -64451   -64462   -64474   -64490 
  -64505   -64517   -64535   -64554   -64571   -64590   -64609   -64624 
  -64638   -64651   -64665   -64679   -64694   -64708   -64720   -64731 
  -64741   -64750   -64750   -64747   -64746   -64751   -64756   -64755 
  -64754   -64754   -64748   -64743   -64740   -64737   -64736   -64733 
  -64732   -64731   -64728   -64728   -64731   -64731   -64728   -64733 
  -64739   -64740   -64741   -64743   -64741   -64740   -64744   -64747 
  -64743   -64743   -64750   -64754   -64755   -64760   -64767   -64777 
  -64785   -64793   -64802   -64812   -64825   -64837   -64843   -64851 
  -64860   -64863   -64866   -64868   -64870   -64870   -64867   -64864 
  -64863   -64858   -64851   -64851   -64855   -64855   -64855   -64855 
  -64855   -64856   -64856   -64855   -64856   -64858   -64854   -64847 
  -64847   -64848   -64847   -64844   -64845   -64845   -64845   -64848 
  -64851   -64854   -64858   -64862   -64862   -64858   -64855   -64856 
  -64858   -64856   -64854   -64852   -64852   -64849   -64848   -64851 
  -64852   -64851   -64849   -64856   -64862   -64859   -64858   -64855 
  -64847   -64840   -64835   -64824   -64813   -64806   -64804   -64798 
  -64793   -64791   -64791   -64793   -64794   -64797   -64800   -64798 
  -64793   -64789   -64785   -64782   -64781   -64779   -64778   -64778 
  -64781   -64775   -64771   -64774   -64774   -64768   -64767   -64766 
  -64762   -64762   -64767   -64766   -64762   -64762   -64762   -64762 
  -64766   -64762   -64755   -64755   -64754   -64751   -64750   -64748 
  -64744   -64737   -64733   -64729   -64716   -64702   -64692   -64675 
  -64658   -64635   -64612   -64590   -64566   -64540   -64516   -64494 
  -64469   -64443   -64419   -64390   -64369   -64354   -64336   -64326 
  -64320   -64312   -64308   -64309   -64307   -64303   -64305   -64305 
  -64304   -64307   -64308   -64304   -64300   -64297   -64297   -64299 
  -64297   -64296   -64297   -64297   -64297   -64301   -64300   -64299 
  -64304   -64311   -64314   -64323   -64334   -64343   -64353   -64362 
  -64376   -64390   -64400   -64413   -64430   -64443   -64459   -64474 
  -64485   -64496   -64507   -64513   -64524   -64535   -64542   -64548 
  -64555   -64561   -64562   -64566   -64574   -64582   -64594   -64612 
  -64632   -64654   -64678   -64705   -64729   -64754   -64778   -64804 
  -64828   -64849   -64874   -64894   -64912   -64928   -64947   -64960 
  -64972   -64987   -64998   -65005   -65009   -65010   -65011   -65017 
  -65018   -65013   -65006   -64999   -64994   -64984   -64975   -64967 
  -64959   -64948   -64937   -64928   -64922   -64917   -64908   -64894 
  -64883   -64876   -64863   -64845   -64833   -64822   -64813   -64804 
  -64790   -64775   -64767   -64760   -64751   -64740   -64729   -64721 
  -64716   -64714   -64712   -64708   -64700   -64692   -64686   -64682 
  -64677   -64670   -64663   -64656   -64651   -64648   -64644   -64639 
  -64632   -64628   -64627   -64625   -64623   -64628   -64632   -64632 
  -64632   -64636   -64638   -64639   -64642   -64640   -64639   -64639 
  -64636   -64627   -64617   -64615   -64613   -64612   -64606   -64602 
  -64604   -64604   -64600   -64600   -64602   -64600   -64601   -64608 
  -64616   -64627   -64639   -64646   -64648   -64655   -64665   -64669 
  -64670   -64670   -64671   -64670   -64666   -64662   -64658   -64652 
  -64646   -64636   -64621   -64604   -64589   -64574   -64557   -64542 
  -64531   -64517   -64503   -64494   -64482   -64467   -64455   -64443 
  -64430   -64420   -64411   -64393   -64378   -64369   -64359   -64350 
  -64345   -64339   -64335   -64332   -64332   -64338   -64341   -64341 
  -64339   -64338   -64341   -64345   -64347   -64346   -64345   -64345 
  -64346   -64347   -64350   -64353   -64358   -64366   -64373   -64382 
  -64395   -64405   -64411   -64417   -64427   -64434   -64439   -64449 
  -64458   -64462   -64465   -64467   -64476   -64486   -64493   -64500 
  -64511   -64517   -64524   -64539   -64554   -64563   -64575   -64596 
  -64613   -64629   -64646   -64660   -64673   -64687   -64698   -64706 
  -64713   -64714   -64717   -64723   -64725   -64725   -64727   -64727 
  -64723   -64717   -64714   -64708   -64697   -64693   -64687   -64682 
  -64678   -64671   -64667   -64665   -64663   -64662   -64659   -64656 
  -64652   -64650   -64654   -64659   -64660   -64666   -64674   -64681 
  -64692   -64704   -64713   -64719   -64724   -64731   -64739   -64746 
  -64750   -64748   -64748   -64751   -64751   -64751   -64751   -64751 
  -64747   -64744   -64747   -64747   -64750   -64758   -64764   -64766 
  -64766   -64766   -64767   -64771   -64773   -64771   -64770   -64771 
  -64773   -64774   -64774   -64775   -64774   -64773   -64771   -64767 
  -64762   -64755   -64747   -64739   -64729   -64721   -64716   -64706 
  -64697   -64693   -64687   -64681   -64675   -64671   -64666   -64660 
  -64651   -64639   -64627   -64615   -64605   -64596   -64581   -64573 
  -64573   -64566   -64557   -64551   -64546   -64539   -64531   -64525 
  -64519   -64508   -64504   -64504   -64497   -64493   -64496   -64497 
  -64500   -64507   -64512   -64515   -64520   -64527   -64531   -64535 
  -64536   -64538   -64539   -64539   -64536   -64536   -64536   -64538 
  -64546   -64551   -64557   -64566   -64577   -64589   -64604   -64616 
  -64628   -64642   -64656   -64675   -64692   -64705   -64720   -64735 
  -64744   -64755   -64766   -64771   -64775   -64779   -64778   -64775 
  -64773   -64768   -64764   -64755   -64746   -64735   -64720   -64705 
  -64690   -64675   -64662   -64647   -64629   -64612   -64598   -64582 
  -64561   -64542   -64525   -64512   -64498   -64485   -64470   -64455 
