Origin Time       2025/01/13 21:19:00
Lat.              31.8
Long.             131.6
Depth. (km)       30
Mag.              6.9
Station Code      WKYH06
Station Lat.      33.6948
Station Long.     135.5953
Station Height(m) 218
Record Time       2025/01/13 21:21:54
Sampling Freq(Hz) 100Hz
Duration Time(s)  120
Dir.              5
Scale Factor      7845(gal)/8223790
Max. Acc. (gal)   0.172
Last Correction   2025/01/13 21:21:55
Memo.             
[...]
   -2393    -2386    -2384    -2381    -2373    -2367    -2365    -2362 
   -2366    -2374    -2381    -2384    -2382    -2378    -2367    -2359 
   -2355    -2349    -2349    -2353    -2358    -2363    -2370    -2371 
   -2370    -2363    -2357    -2355    -2354    -2359    -2369    -2378 
   -2388    -2400    -2405    -2404    -2400    -2397    -2394    -2398 
   -2411    -2423    -2435    -2447    -2457    -2458    -2455    -2455 
   -2452    -2450    -2452    -2462    -2475    -2482    -2484    -2485 
   -2478    -2471    -2469    -2470    -2471    -2477    -2485    -2492 
   -2497    -2497    -2485    -2469    -2459    -2458    -2461    -2463 
   -2465    -2462    -2452    -2444    -2440    -2434    -2427    -2421 
   -2420    -2420    -2417    -2407    -2390    -2377    -2373    -2376 
   -2380    -2380    -2378    -2376    -2371    -2365    -2359    -2358 
   -2355    -2357    -2362    -2367    -2369    -2366    -2363    -2366 
   -2371    -2380    -2385    -2386    -2386    -2385    -2384    -2388 
   -2396    -2405    -2412    -2417    -2423    -2430    -2432    -2432 
   -2432    -2430    -2431    -2432    -2431    -2430    -2430    -2430 
   -2436    -2446    -2448    -2443    -2435    -2424    -2419    -2421 
   -2431    -2440    -2448    -2452    -2457    -2455    -2444    -2434 
   -2427    -2420    -2416    -2420    -2420    -2413    -2407    -2400 
   -2392    -2384    -2380    -2374    -2371    -2376    -2378    -2381 
   -2388    -2388    -2381    -2380    -2384    -2389    -2398    -2411 
   -2417    -2413    -2407    -2398    -2392    -2390    -2398    -2408 
   -2416    -2424    -2431    -2431    -2428    -2424    -2425    -2432 
   -2443    -2457    -2473    -2482    -2479    -2469    -2454    -2440 
   -2438    -2446    -2457    -2463    -2462    -2457    -2452    -2448 
   -2447    -2450    -2451    -2451    -2454    -2455    -2450    -2440 
   -2427    -2416    -2415    -2421    -2428    -2436    -2443    -2438 
   -2424    -2407    -2394    -2390    -2390    -2397    -2408    -2419 
   -2423    -2421    -2416    -2409    -2405    -2403    -2401    -2404 
   -2413    -2419    -2417    -2417    -2415    -2408    -2401    -2403 
   -2407    -2416    -2427    -2436    -2444    -2446    -2434    -2420 
   -2407    -2396    -2390    -2394    -2401    -2405    -2400    -2389 
   -2377    -2367    -2362    -2362    -2363    -2365    -2365    -2366 
   -2369    -2370    -2370    -2370    -2373    -2378    -2377    -2371 
   -2365    -2355    -2351    -2354    -2361    -2376    -2386    -2393 
   -2396    -2394    -2390    -2385    -2381    -2381    -2389    -2401 
   -2417    -2432    -2434    -2420    -2405    -2393    -2385    -2385 
   -2392    -2400    -2407    -2412    -2419    -2416    -2404    -2393 
   -2388    -2386    -2388    -2396    -2403    -2407    -2411    -2412 
   -2411    -2405    -2401    -2397    -2396    -2396    -2393    -2393 
   -2389    -2385    -2384    -2388    -2393    -2396    -2404    -2416 
   -2424    -2427    -2425    -2424    -2427    -2431    -2439    -2447 
   -2455    -2466    -2475    -2478    -2477    -2470    -2462    -2462 
   -2466    -2470    -2475    -2484    -2489    -2492    -2494    -2490 
   -2481    -2474    -2469    -2466    -2470    -2477    -2481    -2482 
   -2482    -2475    -2466    -2457    -2442    -2431    -2428    -2430 
   -2425    -2423    -2423    -2421    -2417    -2409    -2396    -2382 
   -2371    -2363    -2365    -2371    -2384    -2393    -2396    -2394 
   -2394    -2394    -2397    -2405    -2417    -2427    -2434    -2439 
   -2439    -2434    -2427    -2421    -2424    -2432    -2439    -2444 
   -2446    -2440    -2432    -2425    -2421    -2424    -2436    -2448 
   -2452    -2450    -2443    -2436    -2434    -2432    -2427    -2423 
   -2421    -2417    -2415    -2411    -2404    -2400    -2389    -2377 
   -2366    -2354    -2349    -2350    -2343    -2336    -2339    -2343 
   -2350    -2350    -2347    -2344    -2340    -2336    -2336    -2342 
   -2349    -2358    -2374    -2384    -2394    -2407    -2412    -2413 
   -2415    -2423    -2439    -2455    -2473    -2488    -2494    -2497 
   -2501    -2498    -2501    -2511    -2520    -2529    -2538    -2540 
   -2540    -2535    -2523    -2513    -2511    -2506    -2501    -2494 
   -2489    -2485    -2478    -2470    -2462    -2450    -2444    -2443 
   -2436    -2431    -2425    -2413    -2401    -2393    -2389    -2388 
   -2386    -2390    -2394    -2396    -2393    -2385    -2371    -2358 
   -2347    -2342    -2340    -2342    -2344    -2349    -2351    -2351 
   -2346    -2338    -2332    -2334    -2338    -2343    -2350    -2357 
   -2358    -2357    -2358    -2358    -2358    -2366    -2376    -2376 
   -2373    -2377    -2380    -2378    -2382    -2392    -2396    -2393 
   -2390    -2385    -2380    -2376    -2367    -2362    -2365    -2370 
   -2371    -2370    -2366    -2361    -2354    -2351    -2354    -2362 
   -2376    -2388    -2394    -2394    -2394    -2390    -2388    -2393 
   -2397    -2394    -2392    -2388    -2386    -2388    -2393    -2403 
   -2407    -2405    -2411    -2419    -2421    -2419    -2411    -2403 
   -2400    -2398    -2400    -2400    -2401    -2404    -2405    -2407 
   -2407    -2400    -2386    -2377    -2376    -2371    -2371    -2377 
   -2381    -2378    -2382    -2388    -2386    -2389    -2394    -2397 
   -2398    -2401    -2403    -2408    -2417    -2423    -2425    -2424 
   -2419    -2413    -2412    -2415    -2420    -2423    -2423    -2424 
   -2428    -2427    -2424    -2425    -2428    -2428    -2431    -2432 
   -2431    -2431    -2431    -2432    -2435    -2444    -2452    -2451 
   -2447    -2442    -2436    -2435    -2435    -2432    -2432    -2436 
   -2440    -2440    -2438    -2434    -2430    -2423    -2413    -2408 
   -2405    -2398    -2390    -2388    -2393    -2397    -2394    -2386 
   -2376    -2367    -2359    -2353    -2353    -2357    -2357    -2354 
   -2350    -2342    -2330    -2316    -2305    -2303    -2307    -2317 
   -2328    -2335    -2340    -2343    -2342    -2336    -2335    -2342 
   -2354    -2363    -2369    -2376    -2377    -2371    -2371    -2371 
   -2371    -2374    -2374    -2380    -2389    -2393    -2400    -2407 
   -2404    -2400    -2403    -2404    -2403    -2409    -2420    -2427 
   -2431    -2432    -2432    -2435    -2440    -2446    -2450    -2447 
   -2443    -2446    -2443    -2436    -2438    -2438    -2436    -2439 
   -2443    -2440    -2435    -2432    -2432    -2432    -2438    -2447 
   -2455    -2458    -2457    -2454    -2451    -2450    -2451    -2458 
   -2463    -2463    -2467    -2470    -2469    -2465    -2458    -2455 
   -2452    -2452    -2452    -2451    -2452    -2455    -2452    -2448 
   -2446    -2451    -2455    -2450    -2446    -2446    -2443    -2442 
   -2440    -2432    -2423    -2420    -2415    -2408    -2405    -2404 
   -2397    -2389    -2380    -2367    -2354    -2343    -2339    -2339 
   -2339    -2336    -2334    -2327    -2320    -2316    -2315    -2316 
   -2322    -2326    -2323    -2319    -2313    -2311    -2315    -2324 
   -2336    -2346    -2353    -2357    -2359    -2357    -2354    -2358 
   -2367    -2382    -2403    -2416    -2423    -2424    -2421    -2424 
   -2439    -2459    -2478    -2492    -2502    -2515    -2519    -2519 
   -2519    -2520    -2524    -2535    -2542    -2546    -2552    -2558 
   -2554    -2551    -2552    -2552    -2551    -2547    -2540    -2532 
   -2528    -2529    -2533    -2536    -2538    -2532    -2524    -2521 
   -2517    -2509    -2504    -2502    -2504    -2508    -2512    -2511 
   -2504    -2502    -2501    -2498    -2498    -2500    -2508    -2513 
   -2513    -2515    -2513    -2506    -2502    -2500    -2502    -2509 
   -2513    -2511    -2505    -2506    -2506    -2504    -2502    -2504 
   -2502    -2498    -2498    -2496    -2486    -2478    -2473    -2471 
   -2471    -2471    -2475    -2485    -2488    -2484    -2475    -2465 
   -2450    -2443    -2442    -2439    -2439    -2438    -2434    -2424 
   -2415    -2411    -2401    -2386    -2378    -2374    -2371    -2367 
   -2367    -2373    -2376    -2369    -2363    -2359    -2351    -2346 
   -2346    -2347    -2354    -2359    -2362    -2359    -2355    -2350 
   -2344    -2342    -2344    -2349    -2354    -2361    -2367    -2370 
   -2369    -2366    -2363    -2365    -2366    -2366    -2370    -2374 
   -2373    -2369    -2366    -2367    -2369    -2373    -2381    -2390 
   -2400    -2411    -2417    -2423    -2423    -2421    -2421    -2427 
   -2434    -2443    -2455    -2466    -2473    -2477    -2478    -2481 
   -2482    -2479    -2474    -2469    -2465    -2465    -2465    -2465 
   -2463    -2458    -2457    -2458    -2461    -2459    -2455    -2447 
   -2436    -2431    -2430    -2424    -2417    -2419    -2415    -2401 
   -2394    -2389    -2376    -2362    -2361    -2362    -2361    -2361 
   -2362    -2361    -2357    -2354    -2346    -2336    -2334    -2340 
   -2349    -2361    -2374    -2381    -2380    -2378    -2378    -2381 
   -2382    -2385    -2393    -2404    -2412    -2416    -2416    -2417 
   -2420    -2421    -2423    -2425    -2431    -2432    -2431    -2431 
   -2432    -2431    -2431    -2428    -2425    -2423    -2421    -2420 
   -2424    -2435    -2440    -2435    -2430    -2425    -2421    -2419 
   -2420    -2424    -2428    -2427    -2425    -2425    -2425    -2425 
   -2417    -2409    -2408    -2413    -2420    -2432    -2443    -2447 
   -2447    -2442    -2435    -2434    -2438    -2443    -2455    -2466 
   -2471    -2474    -2473    -2473    -2478    -2486    -2494    -2500 
   -2502    -2504    -2506    -2509    -2511    -2509    -2512    -2519 
   -2521    -2523    -2527    -2531    -2533    -2535    -2536    -2542 
   -2548    -2548    -2544    -2542    -2540    -2535    -2533    -2533 
   -2536    -2536    -2532    -2524    -2516    -2506    -2498    -2494 
   -2490    -2485    -2481    -2477    -2469    -2467    -2473    -2470 
   -2466    -2466    -2461    -2451    -2442    -2442    -2447    -2452 
   -2457    -2462    -2462    -2458    -2454    -2448    -2446    -2448 
   -2458    -2467    -2470    -2467    -2467    -2466    -2461    -2462 
   -2469    -2470    -2470    -2474    -2467    -2457    -2444    -2432 
   -2423    -2415    -2409    -2411    -2408    -2401    -2397    -2388 
   -2370    -2354    -2342    -2332    -2331    -2332    -2328    -2319 
   -2313    -2307    -2299    -2293    -2296    -2296    -2292    -2292 
   -2295    -2297    -2303    -2311    -2315    -2317    -2322    -2322 
   -2319    -2322    -2327    -2336    -2343    -2350    -2358    -2361 
   -2358    -2357    -2354    -2353    -2358    -2362    -2362    -2367 
   -2380    -2388    -2394    -2401    -2407    -2408    -2409    -2411 
   -2417    -2427    -2431    -2434    -2439    -2444    -2446    -2447 
   -2447    -2446    -2448    -2450    -2447    -2443    -2440    -2436 
   -2435    -2435    -2439    -2446    -2452    -2459    -2465    -2469 
   -2467    -2465    -2465    -2463    -2465    -2470    -2477    -2482 
   -2489    -2493    -2493    -2496    -2501    -2506    -2506    -2502 
   -2501    -2500    -2498    -2501    -2509    -2515    -2524    -2536 
   -2546    -2546    -2543    -2540    -2533    -2524    -2523    -2527 
   -2533    -2540    -2546    -2550    -2551    -2546    -2536    -2529 
   -2524    -2520    -2520    -2521    -2523    -2523    -2519    -2512 
   -2504    -2493    -2484    -2479    -2479    -2477    -2479    -2482 
   -2477    -2465    -2454    -2448    -2444    -2446    -2444    -2438 
   -2432    -2430    -2427    -2424    -2417    -2409    -2400    -2398 
   -2401    -2404    -2405    -2408    -2409    -2407    -2403    -2403 
   -2405    -2409    -2413    -2413    -2416    -2417    -2413    -2413 
   -2413    -2411    -2409    -2411    -2412    -2413    -2411    -2404 
   -2396    -2390    -2386    -2386    -2389    -2390    -2390    -2390 
   -2386    -2377    -2369    -2365    -2361    -2358    -2365    -2373 
   -2378    -2380    -2377    -2367    -2359    -2355    -2354    -2354 
   -2358    -2358    -2355    -2358    -2363    -2361    -2357    -2355 
   -2351    -2350    -2354    -2358    -2358    -2358    -2355    -2357 
   -2361    -2361    -2361    -2363    -2366    -2371    -2374    -2376 
   -2380    -2385    -2389    -2397    -2404    -2409    -2417    -2430 
   -2436    -2444    -2452    -2457    -2457    -2458    -2458    -2457 
   -2459    -2467    -2474    -2479    -2489    -2494    -2493    -2490 
   -2492    -2490    -2490    -2493    -2500    -2506    -2508    -2508 
   -2506    -2504    -2500    -2497    -2496    -2494    -2493    -2492 
   -2486    -2479    -2474    -2470    -2466    -2461    -2455    -2448 
   -2438    -2430    -2430    -2428    -2421    -2417    -2413    -2404 
   -2397    -2393    -2384    -2376    -2377    -2377    -2378    -2382 
   -2384    -2376    -2370    -2366    -2359    -2359    -2366    -2373 
   -2378    -2384    -2384    -2382    -2382    -2388    -2393    -2397 
   -2405    -2412    -2416    -2419    -2424    -2428    -2432    -2443 
   -2454    -2462    -2467    -2474    -2482    -2486    -2481    -2473 
   -2467    -2469    -2477    -2486    -2494    -2500    -2497    -2490 
   -2486    -2479    -2474    -2475    -2481    -2486    -2497    -2508 
   -2509    -2506    -2506    -2509    -2513    -2521    -2532    -2542 
   -2546    -2551    -2554    -2554    -2562    -2566    -2566    -2574 
   -2582    -2587    -2593    -2601    -2606    -2605    -2605    -2606 
   -2604    -2604    -2602    -2597    -2592    -2592    -2589    -2582 
   -2582    -2581    -2573    -2562    -2551    -2539    -2527    -2521 
   -2515    -2504    -2497    -2492    -2481    -2471    -2465    -2459 
   -2450    -2440    -2436    -2434    -2427    -2421    -2416    -2409 
   -2405    -2403    -2403    -2403    -2401    -2403    -2403    -2394 
   -2386    -2378    -2370    -2366    -2367    -2369    -2366    -2361 
   -2357    -2354    -2353    -2349    -2342    -2340    -2339    -2335 
   -2335    -2338    -2340    -2346    -2351    -2361    -2365    -2366 
   -2370    -2376    -2380    -2386    -2394    -2405    -2416    -2424 
   -2430    -2434    -2435    -2434    -2438    -2447    -2454    -2455 
   -2455    -2455    -2452    -2451    -2451    -2450    -2447    -2444 
   -2439    -2432    -2428    -2428    -2423    -2419    -2417    -2415 
   -2412    -2409    -2405    -2403    -2397    -2389    -2385    -2384 
   -2380    -2378    -2382    -2386    -2385    -2374    -2363    -2353 
   -2343    -2336    -2336    -2344    -2353    -2353    -2353    -2355 
   -2351    -2346    -2344    -2343    -2347    -2358    -2365    -2370 
   -2376    -2371    -2366    -2370    -2371    -2366    -2367    -2371 
   -2380    -2392    -2398    -2401    -2408    -2413    -2413    -2415 
   -2417    -2421    -2430    -2438    -2448    -2457    -2462    -2469 
   -2470    -2467    -2470    -2474    -2478    -2485    -2494    -2501 
   -2509    -2516    -2520    -2525    -2532    -2538    -2544    -2555 
   -2562    -2562    -2567    -2574    -2574    -2573    -2570    -2567 
   -2569    -2573    -2578    -2583    -2586    -2583    -2577    -2574 
   -2577    -2578    -2579    -2583    -2582    -2575    -2571    -2569 
   -2565    -2563    -2567    -2570    -2567    -2566    -2565    -2558 
   -2555    -2552    -2548    -2542    -2536    -2536    -2539    -2539 
   -2538    -2539    -2536    -2528    -2519    -2515    -2513    -2512 
   -2512    -2509    -2506    -2506    -2500    -2484    -2471    -2461 
   -2448    -2444    -2444    -2440    -2432    -2425    -2417    -2404 
   -2393    -2392    -2389    -2386    -2390    -2392    -2389    -2386 
   -2376    -2362    -2355    -2355    -2357    -2357    -2357    -2355 
   -2350    -2343    -2342    -2346    -2350    -2355    -2363    -2373 
   -2377    -2385    -2392    -2392    -2394    -2400    -2404    -2407 
   -2415    -2428    -2439    -2444    -2451    -2450    -2448    -2455 
   -2457    -2452    -2459    -2469    -2473    -2477    -2482    -2484 
   -2478    -2477    -2481    -2484    -2486    -2490    -2489    -2482 
   -2478    -2479    -2478    -2477    -2474    -2469    -2461    -2455 
   -2454    -2454    -2454    -2454    -2454    -2451    -2448    -2451 
   -2454    -2454    -2457    -2465    -2467    -2467    -2466    -2461 
   -2452    -2447    -2447    -2446    -2447    -2446    -2439    -2436 
   -2434    -2432    -2428    -2424    -2424    -2425    -2430    -2431 
   -2427    -2423    -2423    -2421    -2419    -2416    -2415    -2417 
   -2421    -2421    -2423    -2424    -2423    -2417    -2413    -2411 
   -2408    -2408    -2411    -2416    -2419    -2419    -2417    -2419 
   -2415    -2411    -2412    -2415    -2416    -2417    -2415    -2412 
   -2408    -2405    -2401    -2403    -2409    -2417    -2424    -2431 
   -2432    -2431    -2424    -2420    -2420    -2424    -2430    -2438 
   -2444    -2452    -2458    -2462    -2466    -2469    -2471    -2475 
   -2477    -2479    -2485    -2485    -2486    -2492    -2492    -2492 
   -2494    -2496    -2494    -2494    -2494    -2492    -2489    -2489 
   -2490    -2489    -2486    -2482    -2479    -2478    -2475    -2471 
   -2465    -2452    -2444    -2439    -2435    -2438    -2444    -2446 
   -2442    -2435    -2430    -2424    -2419    -2417    -2425    -2434 
   -2442    -2452    -2459    -2461    -2455    -2451    -2451    -2455 
   -2462    -2471    -2479    -2485    -2489    -2489    -2486    -2492 
   -2497    -2498    -2502    -2509    -2511    -2511    -2511    -2506 
   -2498    -2497    -2498    -2500    -2500    -2498    -2492    -2484 
   -2474    -2462    -2450    -2446    -2444    -2439    -2434    -2431 
   -2425    -2416    -2409    -2400    -2389    -2382    -2378    -2374 
   -2374    -2373    -2369    -2362    -2355    -2344    -2336    -2332 
   -2331    -2334    -2339    -2342    -2342    -2339    -2334    -2328 
   -2327    -2332    -2340    -2344    -2347    -2351    -2357    -2362 
   -2366    -2367    -2369    -2367    -2363    -2359    -2359    -2357 
   -2359    -2367    -2373    -2376    -2374    -2367    -2357    -2353 
   -2358    -2366    -2373    -2380    -2384    -2381    -2374    -2366 
   -2358    -2353    -2355    -2361    -2370    -2380    -2380    -2373 
   -2370    -2371    -2378    -2382    -2388    -2396    -2408    -2417 
   -2420    -2424    -2430    -2435    -2439    -2447    -2454    -2461 
   -2466    -2471    -2481    -2489    -2486    -2484    -2485    -2484 
   -2488    -2498    -2504    -2501    -2500    -2501    -2500    -2496 
   -2496    -2492    -2488    -2486    -2484    -2478    -2475    -2474 
   -2473    -2469    -2466    -2469    -2469    -2466    -2465    -2465 
   -2458    -2450    -2444    -2443    -2439    -2436    -2434    -2431 
   -2427    -2419    -2408    -2403    -2401    -2398    -2396    -2394 
   -2396    -2396    -2396    -2394    -2389    -2385    -2388    -2388 
   -2389    -2393    -2398    -2405    -2408    -2411    -2413    -2413 
   -2415    -2416    -2416    -2420    -2424    -2427    -2430    -2438 
   -2443    -2440    -2436    -2434    -2430    -2427    -2430    -2431 
   -2427    -2427    -2430    -2427    -2420    -2415    -2408    -2398 
   -2389    -2382    -2380    -2376    -2369    -2362    -2353    -2340 
