Origin Time       2025/01/13 21:19:00
Lat.              31.8
Long.             131.6
Depth. (km)       30
Mag.              6.9
Station Code      WKYH06
Station Lat.      33.6948
Station Long.     135.5953
Station Height(m) 218
Record Time       2025/01/13 21:21:54
Sampling Freq(Hz) 100Hz
Duration Time(s)  120
Dir.              4
Scale Factor      7845(gal)/8223790
Max. Acc. (gal)   0.189
Last Correction   2025/01/13 21:21:55
Memo.             
[...]
    3032     3038     3046     3053     3061     3061     3048     3026 
    3007     2988     2978     2983     3002     3019     3024     3011 
    2992     2979     2976     2990     3006     3021     3029     3026 
    3011     2997     2983     2975     2979     2994     3009     3017 
    3019     3017     3007     2998     2991     2986     2986     2992 
    3002     3011     3017     3010     2998     2988     2984     2987 
    2992     2994     2988     2982     2974     2965     2956     2944 
    2938     2934     2928     2922     2921     2921     2922     2928 
    2928     2921     2913     2909     2901     2899     2906     2913 
    2922     2933     2933     2930     2933     2930     2926     2925 
    2924     2926     2934     2945     2953     2959     2959     2952 
    2948     2952     2957     2965     2983     2997     3003     3006 
    3001     2994     2995     3002     3014     3032     3042     3041 
    3030     3010     2995     3001     3013     3029     3044     3045 
    3034     3021     3010     3003     3009     3022     3034     3038 
    3040     3037     3030     3030     3040     3052     3064     3069 
    3065     3063     3067     3073     3087     3107     3125     3132 
    3133     3132     3123     3111     3107     3113     3119     3130 
    3138     3140     3144     3144     3130     3114     3100     3090 
    3086     3087     3092     3098     3098     3091     3079     3067 
    3057     3053     3052     3056     3061     3068     3061     3045 
    3037     3029     3015     3003     2999     2999     3002     3003 
    3002     3002     2995     2982     2968     2957     2949     2947 
    2951     2961     2978     2991     2998     2999     2994     2982 
    2974     2972     2974     2979     2984     2980     2976     2974 
    2963     2952     2953     2963     2979     2997     3009     3005 
    2986     2960     2937     2926     2929     2938     2945     2955 
    2961     2956     2943     2936     2934     2934     2933     2936 
    2943     2944     2941     2941     2941     2941     2943     2945 
    2949     2960     2975     2991     3003     3007     3002     2986 
    2965     2948     2937     2940     2955     2972     2986     2991 
    2980     2961     2952     2949     2952     2965     2984     2998 
    3005     3006     3002     2997     2992     2991     2994     2997 
    2994     2992     2997     3006     3013     3018     3024     3021 
    3007     2999     3003     3014     3029     3042     3053     3053 
    3045     3037     3037     3051     3071     3087     3092     3090 
    3084     3076     3071     3072     3078     3080     3084     3091 
    3092     3082     3067     3051     3037     3036     3038     3038 
    3033     3025     3014     3001     2990     2982     2980     2987 
    2997     3005     3011     3014     3010     3001     2995     2994 
    2992     2997     3003     3010     3014     3011     3006     3003 
    2992     2983     2984     2988     2992     2997     2999     2998 
    2994     2984     2974     2968     2965     2967     2974     2983 
    2988     2991     2987     2978     2972     2975     2983     2997 
    3010     3022     3034     3038     3033     3029     3021     3010 
    3009     3015     3022     3029     3033     3026     3009     2990 
    2974     2957     2949     2952     2959     2961     2961     2952 
    2937     2928     2932     2943     2955     2970     2972     2956 
    2940     2929     2920     2921     2928     2930     2934     2943 
    2947     2937     2928     2925     2925     2930     2947     2961 
    2968     2970     2963     2956     2959     2968     2976     2982 
    2980     2976     2971     2967     2965     2963     2960     2960 
    2957     2953     2953     2955     2957     2965     2974     2976 
    2980     2983     2980     2980     2986     2992     3001     3011 
    3017     3013     3001     2987     2983     2986     2986     2995 
    3014     3025     3025     3021     3011     3003     3005     3018 
    3037     3056     3069     3075     3076     3072     3067     3061 
    3055     3055     3065     3075     3079     3079     3075     3067 
    3060     3059     3061     3069     3082     3091     3091     3090 
    3087     3080     3072     3069     3068     3065     3067     3071 
    3072     3073     3076     3079     3075     3071     3068     3061 
    3053     3048     3040     3036     3034     3033     3038     3041 
    3040     3040     3037     3028     3021     3022     3025     3030 
    3037     3038     3033     3024     3014     3007     3002     2999 
    2997     2990     2975     2967     2967     2971     2978     2986 
    2982     2974     2965     2951     2936     2930     2932     2932 
    2933     2938     2938     2933     2933     2936     2940     2944 
    2938     2930     2924     2921     2918     2918     2921     2926 
    2925     2916     2907     2898     2886     2882     2886     2893 
    2899     2909     2921     2925     2925     2926     2932     2938 
    2947     2948     2944     2944     2947     2953     2965     2979 
    2990     3002     3010     3011     3013     3013     3009     3005 
    3003     3007     3017     3026     3034     3034     3028     3019 
    3013     3003     2994     2984     2979     2983     2991     2990 
    2986     2987     2988     2988     2994     3002     3006     3006 
    3006     3002     2997     2998     3001     2992     2984     2986 
    2987     2992     3003     3007     3007     3007     3006     3006 
    3009     3005     2997     2991     2992     3005     3022     3037 
    3041     3032     3014     2999     2990     2992     3006     3021 
    3034     3041     3042     3034     3022     3010     3007     3014 
    3028     3040     3046     3045     3036     3025     3018     3011 
    3009     3018     3030     3030     3028     3025     3017     3011 
    3018     3025     3029     3033     3036     3041     3046     3044 
    3042     3040     3034     3033     3033     3026     3019     3015 
    3007     2999     3001     3005     3010     3015     3018     3021 
    3015     3005     2998     2994     2994     3005     3017     3024 
    3025     3021     3018     3015     3017     3022     3030     3033 
    3036     3040     3036     3028     3028     3033     3037     3042 
    3046     3042     3033     3025     3018     3014     3018     3022 
    3018     3011     3001     2986     2971     2959     2947     2934 
    2929     2930     2932     2933     2932     2926     2920     2916 
    2910     2909     2910     2907     2903     2905     2907     2906 
    2906     2911     2922     2937     2948     2951     2952     2953 
    2955     2961     2970     2972     2972     2968     2960     2960 
    2968     2980     2997     3017     3030     3034     3032     3030 
    3034     3045     3061     3079     3087     3084     3079     3072 
    3068     3072     3080     3090     3100     3106     3103     3092 
    3078     3060     3045     3038     3042     3049     3051     3046 
    3036     3015     2999     2988     2983     2988     2998     3005 
    3006     3003     2991     2976     2971     2976     2983     2987 
    2991     2995     2998     3001     3010     3018     3018     3018 
    3014     3003     2994     2991     2998     3009     3018     3019 
    3014     3009     3001     2995     2995     2998     3005     3011 
    3017     3015     3013     3007     3009     3015     3022     3026 
    3032     3033     3025     3014     3002     2991     2983     2976 
    2975     2983     2994     2999     2998     2992     2987     2983 
    2984     2988     2995     2998     2994     2986     2978     2972 
    2967     2965     2964     2965     2971     2974     2978     2986 
    2986     2986     2987     2984     2980     2980     2976     2974 
    2971     2967     2964     2961     2957     2959     2965     2968 
    2967     2968     2971     2970     2971     2974     2971     2968 
    2974     2983     2992     3002     3006     3003     2995     2992 
    2988     2980     2978     2988     3001     3011     3021     3024 
    3022     3021     3022     3019     3019     3026     3037     3048 
    3057     3061     3056     3045     3038     3034     3029     3030 
    3034     3032     3032     3033     3032     3026     3022     3017 
    3014     3009     3005     3006     3009     3007     3005     2998 
    2988     2980     2976     2975     2974     2972     2979     2986 
    2987     2988     2986     2980     2978     2976     2979     2986 
    2992     2990     2982     2972     2964     2953     2951     2953 
    2953     2956     2961     2960     2949     2936     2928     2921 
    2917     2918     2924     2924     2922     2922     2920     2913 
    2909     2911     2913     2916     2925     2936     2944     2947 
    2948     2949     2953     2955     2951     2951     2955     2957 
    2965     2976     2984     2988     2988     2988     2995     3003 
    3005     3001     2994     2984     2976     2978     2983     2988 
    2988     2986     2983     2979     2971     2965     2965     2970 
    2975     2979     2983     2978     2961     2952     2951     2951 
    2955     2957     2959     2961     2960     2960     2960     2959 
    2955     2951     2945     2934     2924     2922     2926     2933 
    2944     2953     2955     2947     2937     2929     2929     2937 
    2945     2953     2955     2945     2934     2922     2918     2926 
    2936     2945     2959     2970     2975     2979     2982     2978 
    2975     2976     2976     2975     2975     2975     2972     2972 
    2979     2983     2983     2983     2983     2982     2982     2988 
    2997     2994     2984     2972     2965     2964     2968     2979 
    2992     3001     2998     2990     2987     2983     2979     2987 
    2998     3005     3010     3010     3005     2999     2995     2992 
    2997     3005     3010     3018     3022     3017     3009     3009 
    3009     3011     3017     3026     3038     3051     3059     3059 
    3053     3052     3053     3057     3065     3072     3080     3084 
    3079     3076     3079     3078     3076     3073     3073     3078 
    3076     3072     3072     3072     3068     3067     3067     3063 
    3057     3057     3060     3064     3065     3060     3051     3042 
    3032     3021     3021     3025     3026     3021     3010     2998 
    2988     2980     2975     2976     2979     2976     2975     2971 
    2956     2938     2926     2914     2903     2899     2899     2897 
    2893     2890     2890     2891     2889     2887     2889     2891 
    2893     2893     2890     2884     2882     2883     2889     2897 
    2902     2902     2905     2905     2905     2906     2909     2913 
    2914     2916     2920     2918     2913     2907     2902     2898 
    2902     2910     2916     2921     2918     2907     2897     2891 
    2890     2897     2910     2921     2926     2929     2925     2921 
    2925     2934     2943     2948     2955     2961     2963     2963 
    2967     2972     2971     2967     2965     2961     2959     2955 
    2949     2949     2952     2949     2949     2953     2953     2956 
    2959     2956     2951     2952     2953     2956     2957     2956 
    2956     2956     2949     2944     2945     2949     2951     2951 
    2949     2943     2936     2930     2926     2924     2928     2934 
    2943     2951     2963     2970     2971     2967     2960     2956 
    2955     2957     2967     2980     2990     2992     2987     2978 
    2967     2955     2944     2937     2937     2940     2945     2955 
    2960     2961     2963     2959     2955     2957     2960     2964 
    2971     2975     2983     2990     2992     2995     2995     2995 
    2995     2998     3006     3015     3025     3036     3036     3033 
    3034     3033     3028     3029     3036     3037     3034     3036 
    3036     3026     3015     3009     3002     2998     2999     3005 
    3005     2998     2991     2982     2970     2964     2963     2964 
    2971     2980     2988     2990     2983     2971     2956     2938 
    2925     2925     2930     2938     2948     2956     2959     2961 
    2965     2967     2968     2970     2974     2980     2988     2998 
    3005     3013     3025     3037     3049     3064     3069     3072 
    3073     3071     3061     3052     3052     3056     3061     3067 
    3068     3060     3051     3042     3036     3030     3032     3033 
    3030     3026     3015     3001     2994     2994     2991     2992 
    2999     3002     2999     2998     2999     2998     2997     2999 
    3002     3005     3006     3010     3017     3025     3030     3033 
    3036     3038     3040     3040     3044     3052     3060     3069 
    3071     3065     3059     3053     3049     3053     3060     3061 
    3063     3063     3064     3071     3082     3090     3098     3105 
    3105     3098     3084     3072     3067     3071     3080     3090 
    3092     3088     3076     3067     3060     3057     3057     3055 
    3046     3037     3021     3006     3001     2995     2987     2980 
    2968     2951     2940     2930     2918     2914     2910     2901 
    2890     2874     2856     2844     2836     2830     2829     2830 
    2832     2829     2822     2817     2814     2813     2816     2820 
    2821     2816     2808     2801     2797     2798     2801     2805 
    2810     2816     2820     2822     2828     2837     2845     2847 
    2851     2855     2857     2862     2860     2860     2866     2870 
    2868     2870     2874     2876     2883     2894     2907     2920 
    2928     2934     2936     2938     2949     2961     2971     2976 
    2986     2994     2998     3003     3014     3022     3028     3036 
    3042     3052     3064     3073     3083     3098     3109     3111 
    3115     3122     3129     3134     3134     3133     3129     3122 
    3115     3109     3105     3102     3092     3086     3082     3078 
    3075     3068     3061     3060     3061     3060     3064     3072 
    3079     3084     3086     3084     3080     3075     3075     3079 
    3084     3088     3096     3102     3103     3107     3111     3113 
    3115     3117     3121     3125     3129     3132     3130     3125 
    3118     3111     3107     3107     3099     3087     3080     3072 
    3060     3051     3040     3028     3021     3017     3013     3009 
    3003     2998     2990     2978     2970     2965     2963     2959 
    2956     2952     2945     2943     2951     2959     2964     2971 
    2971     2968     2965     2963     2965     2971     2975     2979 
    2982     2983     2982     2983     2986     2988     2991     2997 
    2998     2994     2994     2992     2990     2991     2994     2997 
    2995     2986     2974     2967     2968     2978     2990     2995 
    2997     2999     2998     2997     2997     2994     2995     3003 
    3009     3011     3015     3017     3015     3018     3018     3018 
    3024     3025     3025     3026     3021     3017     3021     3026 
    3028     3029     3025     3018     3017     3019     3021     3021 
    3014     3002     2991     2982     2975     2972     2972     2967 
    2963     2961     2956     2948     2945     2949     2952     2957 
    2972     2991     3005     3011     3013     3011     3011     3014 
    3022     3030     3037     3045     3051     3055     3057     3055 
    3052     3048     3041     3036     3030     3022     3018     3019 
    3022     3026     3029     3025     3014     3002     2991     2983 
    2979     2980     2983     2984     2980     2974     2972     2971 
    2970     2979     2988     2991     2994     2998     2998     2995 
    2990     2984     2983     2986     2988     2992     2997     3002 
    3010     3015     3017     3014     3009     3005     3007     3015 
    3026     3037     3046     3051     3052     3052     3049     3049 
    3051     3059     3078     3092     3099     3105     3110     3106 
    3103     3106     3109     3114     3122     3132     3138     3141 
    3145     3146     3140     3130     3122     3118     3118     3118 
    3115     3111     3103     3098     3092     3079     3068     3060 
    3048     3038     3038     3041     3030     3013     2997     2983 
    2974     2967     2963     2963     2960     2952     2944     2930 
    2920     2913     2909     2910     2920     2928     2928     2922 
    2917     2913     2916     2920     2926     2934     2943     2944 
    2944     2943     2945     2949     2956     2964     2974     2974 
    2970     2964     2960     2961     2965     2970     2971     2974 
    2974     2974     2978     2980     2987     2995     2999     3002 
    3006     3009     3013     3015     3017     3019     3025     3028 
    3026     3026     3026     3026     3028     3034     3038     3038 
    3041     3038     3032     3030     3034     3038     3046     3055 
    3060     3056     3049     3044     3037     3033     3033     3036 
    3038     3036     3029     3019     3006     2995     2992     2992 
    2995     2997     2991     2978     2960     2947     2934     2926 
    2925     2920     2910     2906     2899     2890     2882     2876 
    2870     2863     2866     2867     2864     2864     2864     2864 
    2862     2859     2857     2860     2867     2878     2886     2891 
    2897     2898     2894     2894     2901     2906     2911     2917 
    2917     2918     2924     2928     2937     2948     2955     2960 
    2961     2963     2967     2972     2982     2990     2994     2995 
    2992     2988     2987     2984     2990     3003     3011     3013 
    3013     3006     2995     2988     2984     2986     2999     3013 
    3022     3026     3024     3018     3014     3017     3025     3034 
    3040     3044     3048     3046     3048     3059     3071     3079 
    3092     3103     3106     3109     3118     3127     3136     3144 
    3152     3154     3150     3152     3156     3156     3154     3153 
    3149     3146     3140     3129     3119     3109     3099     3096 
    3092     3084     3073     3067     3060     3046     3036     3033 
    3025     3015     3013     3010     3005     3002     3005     3007 
    3011     3015     3017     3015     3011     3006     3001     2999 
    3005     3017     3028     3032     3036     3032     3021     3010 
    3003     3009     3022     3032     3033     3030     3026     3018 
    3007     3001     2998     2998     2998     2997     2994     2992 
    2990     2984     2980     2982     2983     2980     2980     2983 
    2980     2976     2975     2974     2971     2968     2960     2952 
    2947     2944     2944     2944     2944     2944     2941     2932 
    2916     2899     2891     2889     2889     2893     2898     2895 
    2887     2878     2871     2860     2852     2851     2848     2845 
    2847     2844     2840     2837     2833     2826     2825     2826 
    2830     2839     2845     2845     2847     2852     2853     2851 
    2852     2856     2857     2859     2866     2875     2882     2887 
    2893     2899     2906     2910     2911     2916     2917     2910 
