Origin Time       2025/01/13 21:19:00
Lat.              31.8
Long.             131.6
Depth. (km)       30
Mag.              6.9
Station Code      WKYH03
Station Lat.      34.1314
Station Long.     135.3244
Station Height(m) 120
Record Time       2025/01/13 21:21:17
Sampling Freq(Hz) 100Hz
Duration Time(s)  120
Dir.              4
Scale Factor      7845(gal)/8223790
Max. Acc. (gal)   0.259
Last Correction   2025/01/13 21:21:17
Memo.             
[...]
   -5934    -5942    -5948    -5944    -5941    -5940    -5938    -5937 
   -5931    -5930    -5930    -5927    -5925    -5919    -5917    -5918 
   -5911    -5904    -5904    -5898    -5895    -5899    -5900    -5903 
   -5906    -5902    -5903    -5904    -5900    -5900    -5900    -5903 
   -5907    -5899    -5888    -5892    -5895    -5902    -5913    -5915 
   -5915    -5922    -5926    -5926    -5926    -5929    -5940    -5949 
   -5956    -5967    -5971    -5973    -5983    -5984    -5980    -5983 
   -5976    -5968    -5964    -5962    -5962    -5964    -5964    -5968 
   -5969    -5961    -5958    -5958    -5958    -5962    -5973    -5981 
   -5987    -5988    -5987    -5984    -5979    -5977    -5979    -5979 
   -5977    -5975    -5971    -5971    -5976    -5976    -5971    -5962 
   -5958    -5958    -5952    -5941    -5938    -5941    -5940    -5942 
   -5949    -5958    -5965    -5962    -5960    -5964    -5967    -5965 
   -5962    -5958    -5967    -5975    -5971    -5975    -5980    -5972 
   -5958    -5953    -5953    -5958    -5961    -5964    -5971    -5977 
   -5989    -5996    -5989    -5992    -6006    -6010    -6015    -6022 
   -6014    -6007    -6012    -6012    -6006    -6010    -6019    -6025 
   -6029    -6034    -6035    -6031    -6030    -6029    -6019    -6003 
   -5999    -6004    -6007    -6004    -6000    -5999    -5998    -5996 
   -5994    -5985    -5983    -5983    -5972    -5958    -5954    -5952 
   -5949    -5949    -5944    -5944    -5956    -5960    -5957    -5965 
   -5968    -5964    -5958    -5948    -5940    -5937    -5938    -5942 
   -5944    -5945    -5949    -5950    -5948    -5952    -5956    -5956 
   -5956    -5954    -5953    -5954    -5953    -5949    -5945    -5940 
   -5938    -5935    -5933    -5934    -5927    -5921    -5930    -5938 
   -5940    -5942    -5941    -5945    -5949    -5942    -5944    -5953 
   -5952    -5953    -5954    -5946    -5941    -5935    -5925    -5919 
   -5915    -5914    -5921    -5922    -5910    -5899    -5896    -5903 
   -5904    -5903    -5904    -5904    -5902    -5904    -5904    -5902 
   -5910    -5918    -5917    -5917    -5911    -5910    -5917    -5917 
   -5915    -5915    -5907    -5902    -5902    -5900    -5902    -5907 
   -5914    -5927    -5933    -5933    -5935    -5935    -5938    -5948 
   -5952    -5950    -5952    -5952    -5953    -5954    -5953    -5952 
   -5957    -5960    -5961    -5958    -5954    -5954    -5954    -5954 
   -5958    -5965    -5968    -5965    -5958    -5957    -5964    -5964 
   -5962    -5965    -5962    -5957    -5952    -5945    -5942    -5937 
   -5926    -5919    -5921    -5921    -5918    -5915    -5919    -5926 
   -5926    -5921    -5921    -5923    -5930    -5937    -5938    -5937 
   -5935    -5938    -5953    -5967    -5965    -5965    -5972    -5977 
   -5980    -5979    -5973    -5975    -5975    -5969    -5968    -5967 
   -5958    -5954    -5953    -5956    -5958    -5954    -5954    -5958 
   -5953    -5944    -5942    -5944    -5949    -5954    -5954    -5957 
   -5958    -5960    -5964    -5965    -5969    -5976    -5975    -5975 
   -5980    -5979    -5979    -5979    -5973    -5971    -5967    -5957 
   -5957    -5960    -5960    -5968    -5972    -5965    -5965    -5968 
   -5965    -5960    -5956    -5954    -5961    -5964    -5960    -5958 
   -5956    -5957    -5962    -5965    -5968    -5971    -5972    -5984 
   -5995    -5998    -6002    -6007    -6015    -6025    -6023    -6015 
   -6012    -6011    -6011    -6011    -6007    -6006    -6006    -6003 
   -6002    -5992    -5981    -5984    -5987    -5983    -5979    -5975 
   -5975    -5979    -5977    -5969    -5969    -5972    -5976    -5977 
   -5976    -5980    -5988    -5994    -5995    -5995    -5991    -5984 
   -5975    -5967    -5964    -5961    -5962    -5971    -5969    -5968 
   -5972    -5969    -5965    -5968    -5968    -5972    -5975    -5965 
   -5962    -5967    -5967    -5967    -5957    -5938    -5929    -5925 
   -5919    -5919    -5915    -5914    -5925    -5933    -5935    -5935 
   -5930    -5930    -5937    -5940    -5944    -5941    -5931    -5930 
   -5931    -5930    -5931    -5937    -5942    -5946    -5944    -5938 
   -5929    -5915    -5911    -5917    -5919    -5918    -5918    -5921 
   -5927    -5937    -5945    -5961    -5979    -5989    -5995    -5999 
   -6003    -6007    -6004    -6002    -6006    -6010    -6010    -6003 
   -5991    -5984    -5983    -5980    -5984    -5985    -5983    -5984 
   -5979    -5967    -5964    -5962    -5954    -5946    -5934    -5926 
   -5921    -5914    -5911    -5915    -5913    -5910    -5908    -5904 
   -5907    -5904    -5894    -5894    -5891    -5879    -5872    -5868 
   -5860    -5856    -5854    -5852    -5853    -5853    -5854    -5861 
   -5863    -5865    -5869    -5864    -5863    -5865    -5856    -5853 
   -5860    -5861    -5857    -5854    -5850    -5850    -5850    -5854 
   -5856    -5854    -5861    -5865    -5861    -5863    -5863    -5857 
   -5865    -5876    -5883    -5894    -5903    -5903    -5903    -5900 
   -5902    -5911    -5918    -5923    -5929    -5930    -5935    -5942 
   -5940    -5940    -5948    -5954    -5962    -5971    -5973    -5983 
   -5998    -6004    -6012    -6026    -6031    -6034    -6035    -6031 
   -6031    -6037    -6048    -6052    -6045    -6037    -6034    -6033 
   -6033    -6030    -6027    -6029    -6030    -6030    -6031    -6029 
   -6027    -6034    -6029    -6022    -6019    -6012    -6010    -6011 
   -6003    -5995    -5989    -5983    -5979    -5977    -5975    -5981 
   -5989    -5991    -5994    -6002    -6006    -6008    -6011    -6011 
   -6012    -6012    -6015    -6014    -6003    -5998    -5991    -5983 
   -5983    -5984    -5976    -5973    -5972    -5965    -5965    -5968 
   -5965    -5971    -5979    -5977    -5979    -5980    -5979    -5983 
   -5981    -5980    -5985    -5991    -5995    -5998    -5996    -5992 
   -5988    -5984    -5980    -5972    -5957    -5945    -5933    -5922 
   -5915    -5907    -5902    -5903    -5898    -5888    -5884    -5877 
   -5875    -5876    -5876    -5876    -5876    -5871    -5869    -5872 
   -5873    -5876    -5876    -5875    -5877    -5879    -5879    -5888 
   -5892    -5896    -5904    -5904    -5900    -5902    -5902    -5910 
   -5921    -5921    -5929    -5940    -5944    -5952    -5954    -5952 
   -5956    -5961    -5965    -5972    -5975    -5975    -5979    -5984 
   -5995    -6008    -6019    -6027    -6031    -6038    -6045    -6042 
   -6038    -6042    -6046    -6045    -6042    -6034    -6030    -6034 
   -6034    -6035    -6041    -6042    -6050    -6058    -6052    -6049 
   -6048    -6039    -6031    -6029    -6026    -6022    -6015    -6007 
   -5999    -5991    -5985    -5984    -5985    -5988    -5983    -5972 
   -5976    -5981    -5976    -5977    -5983    -5981    -5983    -5991 
   -5995    -5999    -6003    -6007    -6014    -6010    -6002    -6004 
   -6007    -6006    -6004    -5994    -5985    -5989    -5996    -6002 
   -6003    -5996    -5996    -6002    -5999    -5996    -5999    -6004 
   -6003    -6000    -5996    -5992    -5991    -5994    -5994    -5988 
   -5985    -5984    -5981    -5981    -5979    -5971    -5973    -5975 
   -5969    -5968    -5968    -5962    -5967    -5972    -5971    -5972 
   -5967    -5960    -5960    -5956    -5956    -5967    -5972    -5975 
   -5977    -5980    -5983    -5985    -5981    -5977    -5973    -5972 
   -5975    -5971    -5961    -5960    -5960    -5956    -5953    -5953 
   -5957    -5967    -5972    -5976    -5983    -5987    -5987    -5985 
   -5983    -5984    -5988    -5987    -5981    -5969    -5961    -5961 
   -5953    -5945    -5942    -5931    -5921    -5919    -5910    -5895 
   -5890    -5886    -5880    -5875    -5868    -5861    -5860    -5861 
   -5865    -5868    -5865    -5868    -5871    -5867    -5867    -5864 
   -5854    -5849    -5844    -5838    -5841    -5842    -5848    -5853 
   -5860    -5871    -5877    -5876    -5879    -5883    -5890    -5899 
   -5906    -5918    -5937    -5946    -5946    -5950    -5954    -5960 
   -5969    -5972    -5972    -5975    -5976    -5981    -5988    -5992 
   -5992    -5989    -5987    -5981    -5973    -5972    -5973    -5969 
   -5962    -5962    -5960    -5958    -5962    -5960    -5957    -5965 
   -5973    -5973    -5972    -5972    -5975    -5979    -5984    -5992 
   -5998    -6000    -6008    -6010    -6008    -6018    -6029    -6037 
   -6048    -6056    -6065    -6070    -6073    -6083    -6095    -6103 
   -6110    -6110    -6107    -6114    -6116    -6112    -6110    -6106 
   -6108    -6115    -6114    -6112    -6116    -6112    -6107    -6107 
   -6102    -6099    -6104    -6100    -6093    -6095    -6093    -6088 
   -6084    -6081    -6084    -6087    -6087    -6084    -6077    -6076 
   -6076    -6069    -6070    -6073    -6065    -6064    -6062    -6054 
   -6060    -6065    -6061    -6058    -6054    -6050    -6052    -6052 
   -6045    -6041    -6038    -6035    -6029    -6018    -6011    -6003 
   -5992    -5987    -5979    -5965    -5958    -5952    -5940    -5930 
   -5921    -5910    -5903    -5891    -5880    -5875    -5871    -5872 
   -5871    -5864    -5867    -5875    -5877    -5884    -5884    -5883 
   -5890    -5896    -5896    -5900    -5906    -5911    -5919    -5927 
   -5934    -5944    -5953    -5960    -5965    -5964    -5969    -5981 
   -5984    -5989    -5996    -5998    -6004    -6015    -6015    -6014 
   -6016    -6021    -6023    -6019    -6016    -6016    -6006    -5998 
   -6000    -6000    -5999    -5999    -5992    -5983    -5975    -5965 
   -5964    -5965    -5965    -5971    -5977    -5979    -5983    -5980 
   -5977    -5983    -5989    -5998    -6006    -6002    -5999    -6003 
   -6000    -5999    -5999    -5995    -5999    -6010    -6010    -6007 
   -6007    -6006    -6006    -6012    -6015    -6012    -6012    -6015 
   -6018    -6014    -6015    -6023    -6030    -6034    -6031    -6026 
   -6027    -6033    -6034    -6037    -6034    -6029    -6030    -6025 
   -6010    -6003    -6000    -5995    -5994    -5999    -6002    -6004 
   -6002    -5995    -5989    -5980    -5971    -5969    -5971    -5968 
   -5965    -5957    -5949    -5944    -5940    -5938    -5934    -5927 
   -5927    -5926    -5921    -5917    -5910    -5902    -5899    -5895 
   -5896    -5903    -5898    -5895    -5895    -5891    -5898    -5907 
   -5906    -5907    -5915    -5921    -5922    -5915    -5908    -5908 
   -5908    -5911    -5915    -5910    -5903    -5903    -5899    -5896 
   -5898    -5896    -5896    -5895    -5891    -5890    -5888    -5886 
   -5887    -5888    -5894    -5902    -5902    -5906    -5917    -5918 
   -5919    -5927    -5927    -5923    -5927    -5934    -5941    -5946 
   -5948    -5949    -5949    -5952    -5954    -5956    -5964    -5980 
   -5988    -5994    -6003    -6007    -6010    -6026    -6043    -6054 
   -6062    -6065    -6072    -6080    -6085    -6096    -6103    -6107 
   -6118    -6119    -6115    -6115    -6110    -6106    -6106    -6100 
   -6093    -6092    -6089    -6088    -6088    -6088    -6092    -6095 
   -6092    -6091    -6089    -6092    -6100    -6099    -6091    -6088 
   -6084    -6076    -6072    -6066    -6060    -6060    -6058    -6057 
   -6054    -6052    -6049    -6052    -6058    -6065    -6069    -6075 
   -6080    -6083    -6083    -6085    -6085    -6085    -6088    -6081 
   -6076    -6081    -6083    -6080    -6080    -6076    -6072    -6072 
   -6070    -6068    -6066    -6062    -6058    -6052    -6043    -6042 
   -6042    -6041    -6039    -6035    -6031    -6027    -6018    -6014 
   -6014    -6010    -6004    -5995    -5991    -5992    -5988    -5981 
   -5977    -5969    -5962    -5960    -5954    -5948    -5946    -5944 
   -5941    -5942    -5940    -5940    -5942    -5944    -5954    -5968 
   -5971    -5977    -5984    -5985    -5992    -6000    -6008    -6018 
   -6023    -6031    -6045    -6056    -6065    -6075    -6080    -6088 
   -6096    -6097    -6097    -6095    -6092    -6096    -6095    -6085 
   -6080    -6072    -6058    -6050    -6041    -6030    -6027    -6019 
   -6002    -5983    -5968    -5957    -5945    -5930    -5918    -5902 
   -5880    -5867    -5854    -5838    -5827    -5819    -5810    -5805 
   -5795    -5788    -5791    -5788    -5787    -5790    -5787    -5784 
   -5782    -5772    -5769    -5771    -5767    -5769    -5778    -5779 
   -5780    -5784    -5788    -5790    -5786    -5783    -5782    -5778 
   -5778    -5778    -5769    -5768    -5769    -5765    -5768    -5771 
   -5764    -5763    -5761    -5756    -5756    -5751    -5741    -5737 
   -5737    -5741    -5742    -5737    -5740    -5741    -5736    -5737 
   -5744    -5748    -5756    -5760    -5756    -5757    -5763    -5767 
   -5769    -5773    -5780    -5786    -5788    -5792    -5799    -5805 
   -5811    -5822    -5830    -5838    -5846    -5853    -5867    -5880 
   -5888    -5898    -5907    -5914    -5929    -5942    -5952    -5967 
   -5979    -5984    -5995    -6004    -6011    -6019    -6022    -6026 
   -6035    -6045    -6053    -6057    -6054    -6056    -6056    -6056 
   -6054    -6053    -6057    -6068    -6072    -6076    -6083    -6087 
   -6095    -6106    -6112    -6122    -6134    -6143    -6153    -6164 
   -6169    -6176    -6185    -6191    -6200    -6214    -6223    -6232 
   -6237    -6238    -6238    -6235    -6232    -6235    -6234    -6235 
   -6237    -6237    -6237    -6234    -6230    -6234    -6237    -6234 
   -6228    -6224    -6220    -6215    -6207    -6197    -6193    -6191 
   -6185    -6181    -6178    -6177    -6177    -6174    -6170    -6164 
   -6149    -6137    -6133    -6129    -6120    -6112    -6108    -6104 
   -6096    -6087    -6080    -6072    -6061    -6056    -6052    -6048 
   -6043    -6038    -6037    -6035    -6033    -6035    -6039    -6038 
   -6042    -6045    -6041    -6043    -6049    -6049    -6050    -6053 
   -6050    -6043    -6035    -6026    -6018    -6010    -6004    -5998 
   -5991    -5988    -5985    -5981    -5981    -5980    -5976    -5973 
   -5969    -5957    -5946    -5938    -5930    -5922    -5910    -5903 
   -5899    -5896    -5896    -5892    -5886    -5884    -5881    -5881 
   -5887    -5888    -5888    -5895    -5895    -5890    -5888    -5888 
   -5888    -5890    -5888    -5891    -5899    -5902    -5904    -5914 
   -5921    -5925    -5931    -5933    -5931    -5935    -5934    -5935 
   -5938    -5938    -5935    -5934    -5933    -5934    -5935    -5941 
   -5950    -5948    -5945    -5941    -5930    -5925    -5918    -5908 
   -5906    -5902    -5887    -5877    -5871    -5861    -5856    -5850 
   -5844    -5838    -5827    -5817    -5811    -5800    -5798    -5803 
   -5805    -5805    -5807    -5805    -5803    -5806    -5805    -5802 
   -5809    -5809    -5802    -5795    -5791    -5787    -5784    -5784 
   -5786    -5787    -5788    -5787    -5786    -5786    -5786    -5788 
   -5795    -5798    -5798    -5806    -5817    -5822    -5830    -5840 
   -5845    -5857    -5868    -5873    -5880    -5883    -5887    -5890 
   -5887    -5888    -5891    -5892    -5895    -5896    -5899    -5906 
   -5910    -5910    -5919    -5929    -5931    -5940    -5952    -5960 
   -5973    -5985    -5989    -5996    -6010    -6025    -6034    -6042 
   -6054    -6061    -6061    -6072    -6081    -6084    -6092    -6100 
   -6100    -6104    -6110    -6114    -6118    -6119    -6122    -6127 
   -6126    -6127    -6127    -6122    -6126    -6130    -6126    -6127 
   -6129    -6127    -6129    -6127    -6126    -6127    -6124    -6120 
   -6123    -6122    -6122    -6127    -6124    -6119    -6118    -6110 
   -6110    -6114    -6110    -6107    -6104    -6097    -6100    -6099 
   -6089    -6085    -6079    -6069    -6068    -6061    -6052    -6045 
   -6034    -6026    -6025    -6019    -6012    -6008    -6003    -5999 
   -5991    -5979    -5972    -5967    -5957    -5956    -5952    -5942 
   -5938    -5933    -5927    -5926    -5925    -5922    -5922    -5923 
   -5930    -5935    -5935    -5934    -5937    -5940    -5944    -5942 
   -5944    -5952    -5956    -5962    -5973    -5977    -5979    -5983 
   -5979    -5976    -5980    -5976    -5972    -5976    -5984    -5994 
   -5999    -5998    -5999    -5999    -5994    -5994    -5994    -5991 
   -6000    -6006    -5999    -5996    -5999    -5998    -5995    -5992 
   -5987    -5981    -5979    -5977    -5972    -5961    -5956    -5956 
   -5952    -5952    -5949    -5940    -5931    -5922    -5914    -5911 
   -5902    -5891    -5890    -5883    -5876    -5871    -5861    -5849 
   -5842    -5838    -5829    -5814    -5803    -5799    -5791    -5784 
   -5787    -5784    -5783    -5790    -5791    -5790    -5795    -5798 
   -5799    -5799    -5798    -5799    -5803    -5806    -5810    -5815 
   -5821    -5827    -5832    -5833    -5842    -5850    -5856    -5865 
   -5872    -5877    -5887    -5892    -5894    -5903    -5907    -5906 
   -5907    -5906    -5908    -5911    -5911    -5913    -5914    -5913 
   -5918    -5919    -5914    -5917    -5919    -5917    -5922    -5927 
   -5927    -5930    -5934    -5940    -5948    -5953    -5956    -5957 
   -5962    -5972    -5977    -5977    -5984    -5989    -5991    -5995 
   -5995    -5994    -5996    -5998    -6000    -6008    -6015    -6019 
   -6018    -6012    -6014    -6016    -6018    -6026    -6030    -6029 
   -6034    -6042    -6043    -6046    -6046    -6043    -6050    -6053 
   -6046    -6045    -6045    -6046    -6048    -6045    -6043    -6049 
   -6049    -6052    -6056    -6058    -6066    -6075    -6076    -6075 
   -6076    -6080    -6085    -6089    -6091    -6089    -6089    -6088 
   -6085    -6083    -6081    -6079    -6075    -6072    -6066    -6060 
   -6057    -6050    -6045    -6045    -6041    -6035    -6034    -6029 
   -6019    -6012    -6007    -6003    -5998    -5991    -5988    -5988 
   -5992    -6000    -6007    -6008    -6010    -6010    -6006    -6006 
   -6010    -6008    -6010    -6010    -6011    -6018    -6022    -6026 
   -6037    -6041    -6043    -6049    -6049    -6054    -6066    -6069 
   -6072    -6081    -6087    -6092    -6096    -6096    -6099    -6102 
   -6102    -6100    -6092    -6080    -6070    -6058    -6045    -6034 
   -6021    -6008    -5999    -5985    -5977    -5972    -5962    -5954 
   -5944    -5935    -5933    -5923    -5913    -5904    -5895    -5886 
   -5880    -5872    -5867    -5863    -5857    -5854    -5849    -5838 
   -5825    -5814    -5805    -5796    -5790    -5784    -5783    -5782 
   -5780    -5784    -5787    -5790    -5800    -5805    -5813    -5829 
   -5829    -5833    -5846    -5853    -5860    -5869    -5876    -5891 
   -5903    -5908    -5918    -5925    -5931    -5940    -5942    -5946 
   -5953    -5954    -5954    -5956    -5957    -5961    -5965    -5971 
   -5975    -5971    -5967    -5967    -5964    -5958    -5960    -5957 
   -5952    -5954    -5958    -5956    -5954    -5960    -5964    -5962 
   -5956    -5958    -5961    -5958    -5961    -5960    -5952    -5953 
   -5953    -5948    -5949    -5950    -5948    -5954    -5956    -5949 
   -5949    -5949    -5950    -5952    -5946    -5944    -5946    -5944 
   -5940    -5934    -5927    -5929    -5933    -5926    -5917    -5908 
