Origin Time       2025/01/13 21:19:00
Lat.              31.8
Long.             131.6
Depth. (km)       30
Mag.              6.9
Station Code      WKYH03
Station Lat.      34.1314
Station Long.     135.3244
Station Height(m) 19.9
Record Time       2025/01/13 21:21:17
Sampling Freq(Hz) 100Hz
Duration Time(s)  120
Dir.              2
Scale Factor      3923(gal)/8224838
Max. Acc. (gal)   0.178
Last Correction   2025/01/13 21:21:17
Memo.             
[...]
  -10300   -10308   -10316   -10327   -10334   -10336   -10343   -10353 
  -10355   -10355   -10355   -10358   -10357   -10353   -10353   -10350 
  -10345   -10343   -10349   -10349   -10347   -10350   -10353   -10353 
  -10355   -10362   -10368   -10369   -10370   -10372   -10372   -10377 
  -10378   -10374   -10372   -10372   -10369   -10366   -10362   -10355 
  -10347   -10343   -10339   -10335   -10328   -10318   -10308   -10299 
  -10288   -10277   -10268   -10255   -10249   -10243   -10233   -10223 
  -10219   -10211   -10199   -10187   -10179   -10169   -10160   -10152 
  -10139   -10126   -10115   -10100   -10080   -10062   -10045   -10022 
  -10004    -9991    -9976    -9964    -9953    -9942    -9934    -9930 
   -9922    -9917    -9918    -9918    -9917    -9918    -9921    -9925 
   -9927    -9930    -9934    -9937    -9940    -9946    -9950    -9952 
   -9954    -9956    -9958    -9961    -9964    -9968    -9976    -9980 
   -9981    -9981    -9984    -9984    -9983    -9983    -9983    -9983 
   -9985    -9988    -9991    -9994    -9991    -9990    -9990    -9987 
   -9984    -9985    -9988    -9990    -9995   -10002   -10008   -10017 
  -10023   -10030   -10039   -10050   -10068   -10087   -10103   -10125 
  -10149   -10170   -10193   -10215   -10235   -10260   -10280   -10299 
  -10318   -10338   -10354   -10363   -10370   -10381   -10390   -10397 
  -10403   -10405   -10407   -10409   -10413   -10411   -10408   -10407 
  -10403   -10399   -10396   -10393   -10392   -10392   -10390   -10389 
  -10386   -10384   -10382   -10377   -10366   -10357   -10351   -10343 
  -10330   -10318   -10304   -10288   -10274   -10264   -10249   -10231 
  -10212   -10196   -10183   -10169   -10154   -10147   -10141   -10134 
  -10134   -10131   -10126   -10126   -10126   -10120   -10116   -10116 
  -10114   -10112   -10115   -10115   -10115   -10115   -10118   -10118 
  -10118   -10116   -10116   -10120   -10125   -10127   -10134   -10143 
  -10152   -10160   -10168   -10179   -10189   -10200   -10212   -10224 
  -10235   -10243   -10253   -10261   -10270   -10277   -10287   -10297 
  -10307   -10315   -10318   -10319   -10324   -10331   -10335   -10336 
  -10338   -10338   -10341   -10343   -10346   -10350   -10353   -10353 
  -10350   -10349   -10349   -10347   -10345   -10342   -10341   -10339 
  -10332   -10326   -10319   -10311   -10301   -10289   -10278   -10272 
  -10266   -10258   -10250   -10243   -10235   -10226   -10220   -10216 
  -10212   -10212   -10212   -10208   -10204   -10204   -10204   -10200 
  -10197   -10192   -10187   -10187   -10185   -10181   -10180   -10181 
  -10180   -10180   -10180   -10181   -10180   -10174   -10172   -10172 
  -10174   -10174   -10170   -10166   -10162   -10157   -10150   -10147 
  -10143   -10139   -10135   -10130   -10123   -10116   -10110   -10104 
  -10100   -10098   -10093   -10087   -10084   -10083   -10079   -10080 
  -10081   -10081   -10080   -10081   -10083   -10084   -10085   -10087 
  -10088   -10092   -10092   -10092   -10092   -10092   -10093   -10089 
  -10083   -10081   -10083   -10079   -10075   -10072   -10071   -10068 
  -10066   -10071   -10071   -10068   -10069   -10072   -10075   -10080 
  -10087   -10087   -10089   -10096   -10100   -10103   -10108   -10115 
  -10120   -10126   -10133   -10137   -10143   -10152   -10157   -10162 
  -10169   -10172   -10174   -10179   -10183   -10185   -10188   -10191 
  -10195   -10200   -10204   -10204   -10201   -10199   -10197   -10191 
  -10184   -10176   -10168   -10162   -10158   -10149   -10139   -10133 
  -10126   -10119   -10114   -10110   -10106   -10102   -10099   -10100 
  -10106   -10111   -10116   -10122   -10126   -10133   -10138   -10139 
  -10146   -10152   -10154   -10164   -10170   -10173   -10177   -10180 
  -10184   -10192   -10197   -10201   -10207   -10214   -10222   -10233 
  -10241   -10245   -10251   -10260   -10268   -10274   -10282   -10291 
  -10300   -10308   -10318   -10326   -10331   -10339   -10346   -10350 
  -10357   -10362   -10366   -10374   -10377   -10374   -10376   -10377 
  -10372   -10363   -10358   -10353   -10343   -10334   -10322   -10311 
  -10301   -10291   -10278   -10266   -10255   -10246   -10239   -10234 
  -10228   -10226   -10224   -10223   -10222   -10223   -10227   -10231 
  -10238   -10245   -10253   -10265   -10280   -10293   -10308   -10322 
  -10334   -10350   -10365   -10377   -10389   -10397   -10405   -10411 
  -10417   -10426   -10434   -10438   -10439   -10442   -10442   -10439 
  -10434   -10424   -10415   -10409   -10404   -10393   -10382   -10372 
  -10361   -10350   -10338   -10326   -10312   -10297   -10285   -10274 
  -10266   -10255   -10246   -10241   -10237   -10233   -10233   -10234 
  -10233   -10234   -10237   -10235   -10231   -10228   -10227   -10226 
  -10222   -10220   -10223   -10222   -10218   -10215   -10214   -10212 
  -10214   -10212   -10210   -10211   -10214   -10214   -10218   -10224 
  -10231   -10239   -10245   -10245   -10245   -10249   -10251   -10253 
  -10251   -10251   -10250   -10245   -10238   -10235   -10230   -10222 
  -10216   -10212   -10208   -10206   -10203   -10199   -10193   -10191 
  -10191   -10184   -10174   -10170   -10170   -10166   -10164   -10160 
  -10156   -10152   -10145   -10141   -10138   -10135   -10134   -10134 
  -10130   -10127   -10129   -10131   -10134   -10137   -10142   -10147 
  -10150   -10157   -10162   -10166   -10173   -10180   -10181   -10188 
  -10192   -10192   -10196   -10200   -10203   -10208   -10212   -10211 
  -10211   -10211   -10208   -10207   -10201   -10195   -10188   -10185 
  -10183   -10174   -10162   -10150   -10139   -10129   -10119   -10114 
  -10106   -10099   -10098   -10093   -10087   -10080   -10075   -10071 
  -10068   -10066   -10066   -10062   -10058   -10057   -10054   -10054 
  -10054   -10050   -10050   -10050   -10050   -10054   -10060   -10065 
  -10071   -10077   -10087   -10095   -10103   -10115   -10125   -10130 
  -10138   -10150   -10162   -10177   -10191   -10204   -10212   -10222 
  -10235   -10247   -10260   -10277   -10289   -10299   -10314   -10330 
  -10338   -10343   -10350   -10358   -10368   -10377   -10386   -10397 
  -10408   -10415   -10423   -10432   -10444   -10457   -10466   -10471 
  -10481   -10492   -10504   -10513   -10519   -10528   -10539   -10542 
  -10543   -10547   -10551   -10555   -10558   -10559   -10562   -10563 
  -10565   -10563   -10562   -10561   -10559   -10558   -10557   -10555 
  -10550   -10543   -10540   -10539   -10535   -10531   -10527   -10521 
  -10513   -10507   -10498   -10490   -10482   -10476   -10466   -10455 
  -10444   -10434   -10419   -10404   -10392   -10378   -10359   -10343 
  -10332   -10319   -10301   -10287   -10274   -10261   -10247   -10233 
  -10223   -10211   -10200   -10191   -10180   -10170   -10165   -10156 
  -10147   -10142   -10137   -10131   -10131   -10126   -10119   -10116 
  -10118   -10119   -10119   -10118   -10120   -10125   -10126   -10127 
  -10129   -10127   -10129   -10133   -10138   -10141   -10143   -10147 
  -10152   -10160   -10164   -10169   -10180   -10185   -10191   -10199 
  -10203   -10208   -10218   -10227   -10234   -10237   -10237   -10241 
  -10242   -10241   -10243   -10247   -10250   -10254   -10255   -10254 
  -10255   -10254   -10251   -10254   -10255   -10257   -10261   -10265 
  -10268   -10272   -10273   -10276   -10282   -10291   -10296   -10303 
  -10312   -10322   -10330   -10342   -10353   -10359   -10369   -10376 
  -10382   -10395   -10405   -10411   -10417   -10424   -10427   -10428 
  -10427   -10427   -10427   -10424   -10420   -10415   -10408   -10401 
  -10395   -10385   -10377   -10370   -10365   -10354   -10341   -10328 
  -10315   -10297   -10281   -10268   -10251   -10235   -10222   -10210 
  -10196   -10181   -10168   -10156   -10143   -10131   -10115   -10099 
  -10088   -10079   -10069   -10057   -10048   -10041   -10034   -10025 
  -10014   -10006   -10004   -10003   -10000   -10002   -10002   -10004 
  -10003   -10002   -10006   -10011   -10019   -10030   -10041   -10049 
  -10060   -10071   -10079   -10088   -10099   -10110   -10120   -10133 
  -10147   -10160   -10170   -10183   -10200   -10215   -10226   -10238 
  -10250   -10255   -10266   -10280   -10289   -10299   -10309   -10318 
  -10327   -10339   -10347   -10351   -10357   -10366   -10376   -10384 
  -10392   -10400   -10405   -10409   -10413   -10415   -10416   -10416 
  -10415   -10409   -10403   -10393   -10386   -10382   -10380   -10377 
  -10374   -10369   -10366   -10363   -10361   -10359   -10357   -10354 
  -10353   -10357   -10358   -10361   -10365   -10366   -10366   -10370 
  -10369   -10370   -10374   -10377   -10384   -10392   -10396   -10401 
  -10404   -10405   -10409   -10411   -10412   -10412   -10412   -10413 
  -10408   -10403   -10400   -10396   -10388   -10382   -10380   -10373 
  -10366   -10362   -10358   -10353   -10347   -10345   -10343   -10343 
  -10342   -10336   -10332   -10330   -10326   -10323   -10319   -10315 
  -10312   -10311   -10311   -10311   -10309   -10308   -10309   -10312 
  -10312   -10314   -10316   -10318   -10322   -10323   -10327   -10338 
  -10346   -10347   -10349   -10353   -10355   -10355   -10355   -10355 
  -10353   -10347   -10343   -10342   -10341   -10336   -10330   -10318 
  -10307   -10299   -10287   -10277   -10270   -10260   -10250   -10243 
  -10233   -10226   -10218   -10211   -10207   -10206   -10203   -10199 
  -10193   -10189   -10185   -10181   -10176   -10168   -10162   -10161 
  -10157   -10152   -10152   -10152   -10150   -10146   -10141   -10135 
  -10133   -10134   -10138   -10141   -10141   -10142   -10143   -10145 
  -10147   -10150   -10152   -10154   -10157   -10157   -10157   -10158 
  -10160   -10161   -10164   -10169   -10173   -10176   -10180   -10181 
  -10181   -10187   -10192   -10195   -10200   -10207   -10212   -10218 
  -10222   -10226   -10228   -10230   -10234   -10237   -10235   -10238 
  -10242   -10241   -10237   -10235   -10234   -10230   -10224   -10226 
  -10223   -10218   -10218   -10218   -10214   -10214   -10215   -10215 
  -10216   -10218   -10220   -10226   -10233   -10237   -10238   -10238 
  -10239   -10237   -10237   -10239   -10242   -10245   -10243   -10239 
  -10239   -10239   -10237   -10233   -10228   -10223   -10218   -10212 
  -10210   -10211   -10211   -10206   -10206   -10206   -10200   -10200 
  -10204   -10204   -10204   -10204   -10207   -10210   -10212   -10216 
  -10222   -10224   -10226   -10226   -10227   -10227   -10228   -10233 
  -10235   -10237   -10242   -10249   -10250   -10254   -10262   -10270 
  -10272   -10270   -10276   -10282   -10287   -10291   -10292   -10293 
  -10296   -10300   -10301   -10301   -10303   -10305   -10308   -10309 
  -10314   -10319   -10327   -10334   -10338   -10343   -10351   -10359 
  -10369   -10380   -10388   -10399   -10411   -10419   -10428   -10439 
  -10444   -10450   -10459   -10466   -10471   -10474   -10473   -10476 
  -10474   -10463   -10458   -10455   -10446   -10434   -10424   -10415 
  -10403   -10389   -10373   -10357   -10343   -10330   -10314   -10299 
  -10288   -10277   -10258   -10239   -10226   -10210   -10193   -10180 
  -10165   -10147   -10131   -10115   -10103   -10091   -10075   -10057 
  -10046   -10034   -10023   -10012   -10002    -9994    -9987    -9984 
   -9983    -9980    -9980    -9983    -9985    -9988    -9992   -10000 
  -10006   -10012   -10023   -10038   -10052   -10065   -10081   -10096 
  -10114   -10129   -10138   -10154   -10172   -10184   -10196   -10208 
  -10222   -10237   -10251   -10261   -10272   -10280   -10285   -10293 
  -10303   -10311   -10316   -10323   -10328   -10335   -10341   -10347 
  -10351   -10354   -10359   -10370   -10378   -10381   -10384   -10389 
  -10393   -10393   -10393   -10393   -10390   -10388   -10388   -10388 
  -10388   -10386   -10385   -10382   -10381   -10380   -10374   -10370 
  -10369   -10362   -10355   -10353   -10342   -10334   -10332   -10327 
  -10320   -10318   -10314   -10308   -10303   -10296   -10287   -10280 
  -10277   -10273   -10266   -10258   -10251   -10243   -10234   -10227 
  -10220   -10211   -10204   -10199   -10193   -10191   -10188   -10184 
  -10181   -10181   -10183   -10184   -10184   -10184   -10183   -10183 
  -10180   -10179   -10181   -10180   -10174   -10172   -10173   -10172 
  -10169   -10168   -10169   -10166   -10166   -10170   -10174   -10176 
  -10179   -10184   -10187   -10189   -10192   -10193   -10196   -10197 
  -10195   -10193   -10192   -10191   -10188   -10185   -10180   -10174 
  -10169   -10162   -10158   -10156   -10149   -10143   -10145   -10141 
  -10134   -10134   -10131   -10129   -10127   -10123   -10120   -10118 
  -10116   -10115   -10116   -10115   -10112   -10110   -10110   -10111 
  -10114   -10115   -10115   -10116   -10118   -10118   -10118   -10115 
  -10112   -10110   -10107   -10106   -10104   -10102   -10098   -10093 
  -10092   -10087   -10081   -10080   -10081   -10079   -10076   -10076 
  -10076   -10071   -10069   -10071   -10072   -10073   -10072   -10073 
  -10077   -10077   -10075   -10076   -10079   -10077   -10084   -10091 
  -10096   -10104   -10112   -10119   -10130   -10142   -10153   -10166 
  -10180   -10193   -10210   -10226   -10239   -10253   -10266   -10284 
  -10301   -10315   -10331   -10350   -10366   -10384   -10401   -10416 
  -10430   -10444   -10458   -10473   -10489   -10503   -10516   -10531 
  -10542   -10550   -10559   -10567   -10574   -10578   -10582   -10586 
  -10594   -10598   -10600   -10601   -10602   -10601   -10597   -10590 
  -10584   -10574   -10567   -10559   -10547   -10535   -10525   -10513 
  -10496   -10477   -10459   -10440   -10423   -10404   -10386   -10370 
  -10351   -10332   -10315   -10297   -10280   -10266   -10253   -10239 
  -10223   -10210   -10199   -10185   -10172   -10160   -10146   -10135 
  -10126   -10112   -10102   -10095   -10083   -10072   -10068   -10058 
  -10048   -10042   -10037   -10030   -10027   -10026   -10023   -10022 
  -10026   -10030   -10031   -10035   -10041   -10045   -10049   -10057 
  -10065   -10071   -10077   -10088   -10099   -10107   -10115   -10126 
  -10138   -10146   -10150   -10157   -10166   -10174   -10180   -10187 
  -10193   -10200   -10203   -10208   -10215   -10220   -10222   -10224 
  -10228   -10233   -10234   -10233   -10233   -10233   -10230   -10230 
  -10230   -10226   -10223   -10223   -10219   -10216   -10215   -10210 
  -10207   -10206   -10203   -10200   -10200   -10200   -10197   -10196 
  -10197   -10197   -10196   -10199   -10200   -10199   -10200   -10201 
  -10204   -10207   -10208   -10212   -10216   -10218   -10222   -10226 
  -10227   -10227   -10230   -10231   -10230   -10231   -10235   -10234 
  -10233   -10235   -10235   -10233   -10234   -10234   -10233   -10233 
  -10231   -10231   -10234   -10233   -10230   -10227   -10224   -10227 
  -10230   -10228   -10228   -10231   -10233   -10234   -10237   -10241 
  -10245   -10247   -10247   -10249   -10251   -10255   -10261   -10266 
  -10270   -10273   -10274   -10274   -10273   -10273   -10273   -10272 
  -10269   -10268   -10266   -10268   -10265   -10258   -10254   -10253 
  -10249   -10246   -10242   -10235   -10228   -10222   -10215   -10210 
  -10206   -10197   -10189   -10187   -10181   -10169   -10165   -10166 
  -10162   -10160   -10157   -10154   -10154   -10156   -10154   -10156 
  -10158   -10160   -10158   -10160   -10158   -10156   -10156   -10157 
  -10157   -10157   -10157   -10158   -10160   -10158   -10153   -10153 
  -10154   -10152   -10153   -10157   -10157   -10156   -10157   -10157 
  -10156   -10161   -10164   -10164   -10166   -10170   -10172   -10174 
  -10180   -10184   -10188   -10193   -10195   -10197   -10203   -10207 
  -10208   -10210   -10214   -10216   -10222   -10227   -10228   -10230 
  -10233   -10234   -10235   -10242   -10246   -10249   -10254   -10260 
  -10265   -10272   -10277   -10280   -10284   -10287   -10291   -10293 
  -10296   -10297   -10296   -10296   -10293   -10289   -10289   -10285 
  -10277   -10274   -10272   -10266   -10260   -10254   -10249   -10238 
  -10228   -10224   -10219   -10215   -10212   -10210   -10204   -10203 
  -10204   -10203   -10196   -10197   -10200   -10197   -10196   -10200 
  -10204   -10206   -10207   -10214   -10218   -10220   -10224   -10231 
  -10235   -10238   -10243   -10249   -10251   -10258   -10266   -10272 
  -10273   -10274   -10278   -10285   -10287   -10284   -10284   -10287 
  -10287   -10288   -10289   -10288   -10288   -10285   -10284   -10285 
  -10284   -10284   -10287   -10287   -10282   -10278   -10277   -10274 
  -10273   -10272   -10269   -10269   -10266   -10264   -10262   -10261 
  -10258   -10258   -10258   -10255   -10251   -10251   -10253   -10250 
  -10246   -10245   -10241   -10239   -10239   -10238   -10235   -10234 
  -10231   -10228   -10228   -10228   -10227   -10227   -10226   -10224 
  -10226   -10226   -10224   -10224   -10223   -10222   -10220   -10219 
  -10215   -10214   -10215   -10214   -10210   -10207   -10203   -10197 
  -10193   -10191   -10183   -10177   -10173   -10165   -10158   -10153 
  -10147   -10143   -10142   -10137   -10133   -10131   -10127   -10125 
  -10125   -10120   -10118   -10120   -10122   -10120   -10118   -10119 
  -10120   -10122   -10125   -10126   -10127   -10131   -10134   -10137 
  -10138   -10138   -10142   -10146   -10152   -10158   -10164   -10170 
  -10177   -10183   -10187   -10184   -10188   -10195   -10199   -10203 
  -10211   -10215   -10219   -10227   -10234   -10237   -10239   -10245 
  -10246   -10250   -10255   -10258   -10261   -10266   -10270   -10274 
  -10277   -10274   -10273   -10274   -10272   -10270   -10269   -10268 
  -10268   -10264   -10258   -10253   -10249   -10243   -10235   -10230 
  -10224   -10215   -10204   -10199   -10191   -10179   -10165   -10157 
  -10149   -10137   -10129   -10122   -10111   -10102   -10092   -10085 
  -10080   -10073   -10066   -10062   -10057   -10049   -10044   -10039 
  -10037   -10038   -10038   -10035   -10035   -10037   -10037   -10041 
  -10042   -10046   -10052   -10056   -10060   -10068   -10075   -10080 
  -10087   -10092   -10099   -10107   -10112   -10116   -10122   -10129 
  -10137   -10145   -10153   -10161   -10169   -10176   -10183   -10188 
  -10193   -10201   -10206   -10207   -10211   -10215   -10215   -10218 
  -10222   -10219   -10218   -10223   -10227   -10226   -10227   -10227 
  -10227   -10228   -10228   -10227   -10227   -10228   -10233   -10235 
  -10235   -10238   -10238   -10239   -10245   -10247   -10250   -10254 
  -10255   -10258   -10265   -10266   -10269   -10276   -10278   -10278 
  -10282   -10288   -10289   -10293   -10297   -10300   -10301   -10301 
  -10301   -10300   -10297   -10296   -10293   -10288   -10281   -10277 
  -10272   -10264   -10258   -10253   -10245   -10235   -10227   -10220 
  -10212   -10204   -10196   -10189   -10181   -10179   -10174   -10168 
  -10162   -10158   -10149   -10143   -10141   -10137   -10130   -10126 
  -10125   -10123   -10123   -10120   -10118   -10119   -10120   -10120 
  -10120   -10123   -10126   -10127   -10130   -10135   -10143   -10149 
  -10156   -10164   -10172   -10179   -10185   -10193   -10203   -10211 
  -10218   -10226   -10235   -10247   -10258   -10268   -10278   -10289 
  -10300   -10308   -10314   -10323   -10332   -10338   -10346   -10353 
