Origin Time       2025/01/13 21:19:00
Lat.              31.8
Long.             131.6
Depth. (km)       30
Mag.              6.9
Station Code      WKYH10
Station Lat.      33.8248
Station Long.     135.2172
Station Height(m) -60
Record Time       2025/01/13 21:21:08
Sampling Freq(Hz) 100Hz
Duration Time(s)  120
Dir.              2
Scale Factor      2942(gal)/8224139
Max. Acc. (gal)   0.201
Last Correction   2025/01/13 21:21:08
Memo.             
[...]
   76373    76366    76362    76369    76378    76383    76387    76381 
   76385    76391    76377    76381    76396    76399    76407    76416 
   76416    76414    76427    76439    76422    76420    76447    76455 
   76462    76476    76484    76503    76520    76519    76511    76518 
   76528    76522    76516    76516    76489    76488    76519    76509 
   76488    76488    76465    76441    76442    76441    76428    76426 
   76427    76415    76391    76377    76383    76378    76362    76346 
   76334    76338    76337    76327    76337    76338    76326    76324 
   76315    76310    76312    76310    76316    76329    76329    76326 
   76330    76339    76350    76364    76376    76383    76399    76416 
   76418    76419    76430    76437    76435    76442    76449    76451 
   76453    76459    76474    76491    76496    76493    76492    76485 
   76461    76453    76468    76469    76461    76453    76443    76434 
   76419    76415    76423    76418    76408    76408    76411    76416 
   76410    76401    76403    76416    76434    76437    76422    76415 
   76415    76404    76403    76403    76397    76407    76411    76392 
   76377    76374    76373    76374    76373    76370    76362    76350 
   76351    76362    76368    76362    76349    76343    76351    76368 
   76388    76392    76380    76378    76393    76419    76439    76453 
   76470    76469    76462    76473    76484    76492    76500    76503 
   76496    76476    76461    76465    76469    76473    76476    76466 
   76446    76435    76435    76437    76437    76434    76430    76424 
   76410    76400    76414    76428    76423    76426    76432    76432 
   76432    76427    76420    76423    76435    76453    76461    76464 
   76476    76476    76465    76466    76474    76478    76485    76489 
   76484    76476    76462    76441    76437    76454    76442    76408 
   76404    76404    76384    76392    76399    76369    76362    76380 
   76383    76383    76381    76384    76400    76399    76383    76381 
   76391    76404    76412    76407    76412    76428    76430    76430 
   76431    76428    76437    76442    76439    76439    76441    76442 
   76438    76431    76441    76453    76455    76459    76445    76423 
   76420    76423    76424    76430    76430    76423    76415    76412 
   76412    76410    76410    76415    76414    76401    76392    76395 
   76392    76392    76399    76388    76365    76374    76397    76388 
   76388    76408    76403    76401    76420    76424    76430    76435 
   76422    76411    76427    76449    76451    76443    76438    76430 
   76426    76426    76428    76422    76415    76426    76434    76423 
   76415    76414    76408    76404    76401    76400    76399    76403 
   76407    76411    76405    76392    76391    76384    76366    76364 
   76369    76370    76376    76383    76392    76399    76395    76400 
   76403    76395    76397    76410    76418    76414    76410    76423 
   76435    76438    76450    76459    76464    76462    76447    76439 
   76447    76454    76450    76439    76437    76442    76454    76462 
   76464    76468    76472    76459    76451    76461    76461    76455 
   76461    76454    76446    76459    76464    76454    76451    76435 
   76419    76423    76423    76412    76420    76424    76408    76401 
   76400    76397    76403    76401    76407    76422    76418    76416 
   76420    76419    76422    76419    76410    76411    76411    76407 
   76420    76428    76418    76418    76446    76488    76513    76505 
   76488    76478    76477    76489    76496    76488    76480    76473 
   76469    76473    76468    76451    76449    76443    76427    76428 
   76426    76408    76407    76397    76380    76378    76372    76364 
   76365    76370    76384    76384    76381    76393    76401    76401 
   76399    76392    76393    76403    76411    76426    76428    76416 
   76412    76414    76405    76403    76399    76374    76362    76374 
   76377    76376    76378    76377    76384    76388    76392    76405 
   76408    76399    76399    76411    76422    76434    76450    76461 
   76461    76457    76459    76481    76496    76499    76513    76528 
   76538    76550    76557    76551    76550    76554    76550    76538 
   76527    76516    76509    76512    76515    76501    76478    76473 
   76477    76465    76465    76480    76472    76461    76466    76464 
   76464    76462    76450    76451    76465    76464    76455    76449 
   76446    76442    76432    76437    76449    76450    76446    76441 
   76430    76419    76397    76377    76383    76387    76369    76369 
   76380    76373    76372    76374    76372    76381    76389    76380 
   76372    76381    76393    76393    76389    76391    76405    76422 
   76423    76434    76449    76441    76435    76446    76441    76427 
   76428    76443    76449    76432    76414    76405    76392    76385 
   76403    76420    76416    76414    76414    76411    76420    76434 
   76441    76445    76447    76447    76445    76443    76441    76426 
   76408    76401    76392    76380    76377    76373    76360    76360 
   76374    76378    76366    76347    76330    76333    76349    76364 
   76366    76369    76380    76378    76373    76391    76405    76405 
   76415    76422    76422    76420    76411    76414    76420    76419 
   76432    76443    76438    76445    76451    76447    76453    76462 
   76466    76451    76428    76420    76423    76441    76470    76468 
   76449    76453    76454    76447    76447    76445    76431    76415 
   76400    76383    76369    76369    76370    76366    76364    76353 
   76333    76316    76312    76306    76295    76289    76276    76260 
   76273    76291    76296    76296    76287    76281    76288    76293 
   76299    76304    76315    76334    76343    76357    76380    76392 
   76404    76423    76431    76447    76465    76473    76485    76478 
   76462    76472    76482    76495    76504    76486    76461    76455 
   76459    76466    76472    76470    76453    76434    76424    76415 
   76410    76408    76396    76387    76384    76383    76393    76410 
   76411    76410    76411    76407    76404    76399    76392    76396 
   76416    76441    76453    76458    76458    76459    76478    76503 
   76512    76523    76523    76515    76518    76515    76503    76499 
   76491    76486    76511    76523    76504    76491    76477    76462 
   76465    76468    76454    76445    76461    76489    76488    76459 
   76443    76446    76446    76432    76418    76397    76378    76380 
   76384    76393    76415    76439    76464    76480    76486    76496 
   76493    76473    76455    76450    76453    76466    76465    76458 
   76477    76493    76495    76511    76522    76520    76532    76542 
   76536    76542    76547    76531    76509    76486    76462    76459 
   76468    76465    76455    76434    76426    76447    76454    76446 
   76449    76443    76412    76387    76374    76351    76331    76319 
   76307    76319    76337    76327    76323    76316    76302    76312 
   76326    76312    76293    76269    76229    76184    76157    76156 
   76169    76176    76189    76221    76252    76277    76303    76320 
   76323    76327    76350    76381    76411    76443    76455    76443 
   76422    76396    76391    76405    76418    76434    76437    76424 
   76420    76423    76437    76443    76410    76353    76306    76289 
   76289    76288    76302    76324    76351    76387    76416    76441 
   76447    76424    76396    76369    76345    76341    76329    76297 
   76262    76231    76226    76253    76293    76354    76422    76461 
   76482    76489    76466    76450    76455    76457    76461    76472 
   76468    76454    76445    76447    76472    76499    76512    76501 
   76465    76422    76369    76319    76302    76307    76322    76342 
   76361    76388    76427    76465    76513    76572    76597    76585 
   76582    76570    76522    76468    76411    76357    76322    76307 
   76318    76353    76392    76414    76410    76400    76396    76391 
   76397    76403    76392    76387    76377    76341    76311    76307 
   76292    76300    76362    76428    76480    76503    76476    76422 
   76374    76342    76324    76337    76370    76381    76378    76384 
   76381    76396    76437    76461    76472    76482    76495    76504 
   76508    76501    76474    76437    76407    76373    76318    76253 
   76204    76214    76288    76378    76455    76503    76512    76509 
   76520    76559    76626    76670    76650    76578    76473    76374 
   76342    76370    76415    76455    76482    76526    76600    76677 
   76740    76766    76750    76734    76697    76628    76570    76536 
   76545    76597    76659    76724    76793    76850    76866    76831 
   76767    76696    76624    76574    76551    76546    76551    76562 
   76563    76540    76526    76532    76518    76486    76466    76441 
   76405    76357    76302    76253    76229    76234    76243    76268 
   76338    76420    76496    76546    76535    76509    76503    76496 
   76495    76472    76422    76392    76377    76361    76377    76427 
   76493    76569    76612    76621    76634    76612    76531    76427 
   76291    76142    76084    76108    76129    76165    76246    76306 
   76357    76461    76581    76688    76756    76739    76677    76590 
   76489    76414    76347    76295    76284    76302    76360    76462 
   76546    76555    76492    76401    76335    76306    76287    76256 
   76231    76219    76207    76222    76270    76314    76334    76343 
   76353    76380    76422    76454    76451    76404    76318    76243 
   76233    76272    76324    76384    76435    76451    76450    76450 
   76437    76422    76401    76351    76272    76194    76146    76133 
   76148    76207    76292    76369    76427    76462    76511    76572 
   76596    76573    76523    76474    76441    76442    76489    76538 
   76562    76600    76638    76642    76617    76593    76577    76543 
   76472    76358    76243    76188    76196    76254    76358    76459 
   76526    76551    76507    76424    76357    76303    76293    76337 
   76399    76466    76507    76486    76443    76430    76442    76427 
   76377    76323    76257    76202    76214    76280    76358    76424 
   76464    76484    76477    76443    76411    76401    76411    76403 
   76370    76361    76361    76353    76368    76399    76466    76582 
   76677    76719    76698    76628    76539    76431    76339    76300 
   76280    76273    76315    76404    76504    76585    76630    76623 
   76593    76576    76565    76565    76546    76476    76387    76323 
   76292    76303    76350    76401    76446    76478    76449    76362 
   76276    76207    76176    76172    76156    76141    76135    76134 
   76160    76210    76261    76296    76302    76315    76370    76437 
   76459    76445    76449    76481    76500    76492    76472    76438 
   76387    76342    76315    76277    76234    76223    76249    76292 
   76326    76330    76308    76280    76276    76303    76361    76427 
   76437    76400    76374    76345    76341    76415    76528    76624 
   76684    76701    76682    76640    76590    76565    76584    76623 
   76626    76578    76551    76576    76589    76562    76538    76505 
   76442    76377    76320    76260    76225    76230    76253    76284 
   76307    76310    76304    76280    76230    76195    76219    76314 
   76426    76503    76543    76550    76530    76512    76513    76531 
   76558    76590    76631    76639    76588    76515    76437    76368 
   76327    76318    76327    76356    76439    76563    76640    76627 
   76570    76516    76491    76508    76559    76639    76740    76790 
   76746    76651    76559    76489    76453    76449    76447    76415 
   76358    76319    76323    76351    76369    76389    76401    76388 
   76397    76420    76408    76384    76362    76335    76329    76331 
   76318    76318    76350    76370    76361    76368    76373    76362 
   76383    76435    76504    76573    76594    76577    76567    76593 
   76632    76623    76567    76504    76437    76387    76385    76450 
   76566    76653    76661    76624    76577    76538    76488    76411 
   76339    76273    76211    76192    76211    76248    76303    76361 
   76427    76495    76495    76450    76464    76535    76607    76680 
   76755    76775    76705    76607    76545    76518    76495    76488 
   76522    76513    76403    76288    76249    76237    76238    76249 
   76203    76110    76032    75992    76038    76173    76331    76469 
   76543    76547    76520    76485    76495    76569    76650    76680 
   76642    76565    76496    76447    76439    76500    76586    76654 
   76688    76644    76538    76446    76389    76350    76343    76366 
   76381    76364    76326    76285    76266    76275    76281    76276 
   76252    76222    76237    76312    76407    76495    76559    76592 
   76634    76707    76762    76759    76717    76671    76626    76557 
   76477    76419    76400    76404    76397    76373    76353    76356 
   76364    76369    76369    76337    76258    76175    76126    76122 
   76164    76245    76338    76415    76443    76446    76469    76509 
   76551    76588    76578    76511    76396    76276    76241    76308 
   76365    76356    76327    76280    76215    76167    76118    76048 
   75964    75890    75855    75861    75910    76011    76126    76221 
   76296    76339    76342    76323    76327    76395    76470    76489 
   76451    76381    76324    76291    76253    76264    76369    76495 
   76559    76559    76515    76462    76441    76437    76432    76447 
   76478    76499    76499    76485    76476    76491    76524    76557 
   76590    76644    76675    76626    76530    76432    76362    76324 
   76297    76270    76246    76265    76360    76472    76538    76569 
   76593    76626    76674    76713    76724    76701    76612    76485 
   76392    76324    76269    76245    76248    76268    76285    76283 
   76261    76222    76194    76194    76196    76218    76249    76260 
   76264    76280    76324    76407    76497    76581    76659    76711 
   76739    76766    76792    76815    76827    76788    76680    76562 
   76482    76447    76457    76478    76469    76411    76334    76287 
   76266    76252    76262    76299    76335    76360    76358    76349 
   76361    76401    76446    76468    76496    76534    76522    76466 
   76445    76469    76482    76468    76455    76426    76400    76427 
   76453    76459    76497    76519    76496    76466    76431    76399 
   76380    76376    76380    76368    76316    76231    76154    76138 
   76145    76119    76100    76104    76121    76187    76288    76381 
   76450    76496    76545    76590    76589    76572    76565    76559 
   76596    76648    76643    76611    76570    76501    76438    76400 
   76384    76384    76388    76395    76393    76376    76353    76311 
   76275    76266    76262    76250    76248    76261    76293    76337 
   76366    76358    76338    76347    76374    76418    76478    76508 
   76509    76519    76516    76477    76439    76449    76504    76574 
   76623    76642    76650    76642    76596    76509    76411    76330 
   76269    76225    76191    76149    76141    76202    76277    76314 
   76314    76287    76248    76223    76221    76238    76275    76307 
   76337    76361    76380    76404    76427    76450    76500    76546 
   76546    76504    76446    76408    76393    76392    76392    76377 
   76365    76361    76353    76374    76434    76474    76482    76469 
   76441    76415    76397    76377    76364    76374    76410    76430 
   76416    76423    76482    76554    76605    76646    76657    76647 
   76651    76635    76581    76530    76518    76542    76574    76584 
   76562    76526    76489    76453    76408    76377    76385    76416 
   76445    76466    76477    76472    76453    76441    76447    76469 
   76495    76495    76477    76470    76462    76461    76482    76485 
   76446    76377    76297    76243    76218    76227    76291    76380 
   76450    76489    76485    76454    76430    76420    76427    76450 
   76485    76520    76535    76516    76495    76501    76504    76466 
   76395    76314    76265    76268    76276    76283    76323    76373 
   76400    76391    76356    76354    76387    76416    76462    76542 
   76594    76599    76597    76582    76547    76513    76473    76422 
   76385    76381    76387    76378    76369    76365    76369    76364 
   76324    76276    76234    76221    76252    76291    76333    76385 
   76423    76441    76454    76474    76477    76441    76380    76320 
   76311    76364    76408    76412    76374    76304    76246    76215 
   76211    76245    76285    76322    76354    76378    76419    76465 
   76492    76499    76478    76458    76461    76485    76534    76581 
   76607    76624    76640    76648    76639    76607    76558    76508 
   76473    76447    76411    76358    76316    76302    76303    76303 
   76308    76324    76323    76277    76238    76233    76223    76235 
   76273    76273    76253    76268    76306    76366    76439    76478 
   76493    76496    76466    76434    76430    76441    76455    76464 
   76454    76438    76423    76401    76372    76356    76351    76353 
   76374    76400    76427    76472    76511    76518    76503    76480 
   76458    76424    76395    76399    76434    76489    76547    76593 
   76612    76588    76562    76540    76484    76410    76346    76304 
   76302    76326    76329    76319    76337    76385    76457    76513 
   76526    76528    76534    76508    76469    76457    76489    76534 
   76545    76539    76530    76501    76482    76481    76472    76468 
   76461    76426    76399    76408    76419    76407    76377    76335 
   76300    76303    76356    76442    76530    76574    76567    76528 
   76496    76508    76547    76565    76559    76545    76504    76462 
   76459    76474    76481    76476    76462    76472    76484    76450 
   76415    76405    76399    76411    76419    76414    76431    76468 
   76511    76520    76476    76449    76454    76458    76468    76462 
   76443    76430    76385    76326    76310    76329    76350    76383 
   76428    76449    76428    76415    76431    76453    76462    76461 
   76455    76450    76454    76476    76489    76488    76499    76501 
   76484    76464    76439    76419    76414    76418    76430    76442 
   76441    76423    76404    76381    76351    76358    76393    76404 
   76391    76365    76327    76279    76215    76171    76169    76179 
   76181    76177    76179    76200    76227    76265    76311    76345 
   76347    76326    76329    76357    76365    76356    76351    76369 
   76378    76361    76384    76441    76454    76447    76442    76404 
   76354    76326    76307    76306    76323    76341    76343    76337 
   76329    76334    76365    76395    76389    76378    76389    76396 
   76396    76374    76318    76277    76272    76280    76310    76346 
   76361    76353    76346    76360    76381    76400    76407    76400 
   76401    76401    76376    76370    76410    76450    76480    76485 
