Origin Time       2025/01/13 21:19:00
Lat.              31.8
Long.             131.6
Depth. (km)       30
Mag.              6.9
Station Code      WKYH03
Station Lat.      34.1314
Station Long.     135.3244
Station Height(m) 120
Record Time       2025/01/13 21:21:17
Sampling Freq(Hz) 100Hz
Duration Time(s)  120
Dir.              5
Scale Factor      7845(gal)/8223790
Max. Acc. (gal)   0.301
Last Correction   2025/01/13 21:21:17
Memo.             
[...]
   -1537    -1559    -1566    -1555    -1541    -1539    -1544    -1547 
   -1541    -1534    -1532    -1533    -1540    -1544    -1540    -1539 
   -1543    -1549    -1549    -1548    -1555    -1563    -1559    -1545 
   -1530    -1528    -1529    -1518    -1509    -1507    -1503    -1494 
   -1487    -1489    -1493    -1490    -1485    -1483    -1490    -1497 
   -1501    -1501    -1503    -1507    -1507    -1512    -1526    -1544 
   -1552    -1553    -1553    -1557    -1552    -1547    -1553    -1559 
   -1559    -1566    -1571    -1564    -1555    -1552    -1556    -1555 
   -1547    -1541    -1532    -1516    -1505    -1491    -1479    -1485 
   -1503    -1524    -1528    -1520    -1521    -1528    -1532    -1540 
   -1548    -1547    -1543    -1544    -1547    -1549    -1547    -1539 
   -1536    -1536    -1536    -1541    -1539    -1525    -1510    -1493 
   -1475    -1462    -1456    -1462    -1470    -1472    -1471    -1468 
   -1463    -1460    -1460    -1459    -1462    -1467    -1471    -1474 
   -1475    -1479    -1490    -1499    -1506    -1514    -1517    -1520 
   -1524    -1517    -1510    -1518    -1532    -1545    -1555    -1548 
   -1544    -1548    -1544    -1532    -1522    -1516    -1522    -1537 
   -1537    -1537    -1545    -1548    -1545    -1541    -1541    -1548 
   -1547    -1533    -1526    -1528    -1525    -1528    -1534    -1537 
   -1540    -1549    -1552    -1543    -1533    -1540    -1552    -1553 
   -1545    -1537    -1539    -1553    -1568    -1576    -1584    -1597 
   -1606    -1602    -1593    -1586    -1583    -1584    -1582    -1571 
   -1563    -1559    -1560    -1571    -1580    -1576    -1568    -1561 
   -1556    -1551    -1534    -1518    -1521    -1532    -1536    -1544 
   -1555    -1561    -1566    -1568    -1564    -1560    -1559    -1561 
   -1567    -1564    -1557    -1552    -1541    -1539    -1547    -1547 
   -1537    -1526    -1525    -1533    -1540    -1529    -1518    -1526 
   -1548    -1564    -1568    -1566    -1563    -1561    -1556    -1545 
   -1537    -1543    -1555    -1557    -1553    -1551    -1552    -1553 
   -1551    -1553    -1566    -1575    -1579    -1586    -1586    -1575 
   -1568    -1571    -1575    -1576    -1578    -1579    -1579    -1579 
   -1582    -1576    -1566    -1555    -1543    -1533    -1528    -1517 
   -1509    -1512    -1522    -1536    -1545    -1553    -1564    -1568 
   -1559    -1548    -1536    -1514    -1502    -1503    -1503    -1503 
   -1505    -1509    -1517    -1525    -1532    -1536    -1536    -1539 
   -1545    -1548    -1555    -1560    -1552    -1541    -1541    -1537 
   -1526    -1522    -1516    -1507    -1505    -1497    -1493    -1503 
   -1506    -1499    -1499    -1513    -1529    -1529    -1517    -1510 
   -1503    -1497    -1497    -1498    -1490    -1486    -1495    -1505 
   -1501    -1486    -1479    -1483    -1486    -1485    -1486    -1490 
   -1487    -1479    -1475    -1476    -1482    -1489    -1495    -1499 
   -1503    -1505    -1503    -1503    -1501    -1498    -1501    -1498 
   -1495    -1506    -1512    -1506    -1507    -1510    -1510    -1512 
   -1509    -1505    -1505    -1498    -1497    -1512    -1526    -1536 
   -1543    -1549    -1552    -1545    -1532    -1526    -1529    -1532 
   -1533    -1529    -1524    -1528    -1529    -1530    -1537    -1541 
   -1536    -1530    -1529    -1521    -1509    -1502    -1494    -1483 
   -1476    -1476    -1487    -1503    -1507    -1501    -1498    -1494 
   -1491    -1497    -1510    -1524    -1529    -1526    -1521    -1526 
   -1541    -1549    -1549    -1547    -1532    -1518    -1516    -1518 
   -1526    -1541    -1561    -1575    -1574    -1570    -1570    -1556 
   -1543    -1545    -1551    -1553    -1561    -1568    -1572    -1574 
   -1576    -1583    -1591    -1588    -1574    -1563    -1564    -1570 
   -1567    -1566    -1578    -1586    -1571    -1557    -1556    -1557 
   -1549    -1526    -1514    -1526    -1545    -1560    -1561    -1549 
   -1544    -1544    -1540    -1543    -1545    -1540    -1541    -1551 
   -1559    -1559    -1553    -1549    -1545    -1539    -1543    -1556 
   -1561    -1559    -1556    -1544    -1537    -1547    -1560    -1571 
   -1568    -1561    -1570    -1579    -1579    -1579    -1574    -1574 
   -1582    -1580    -1568    -1564    -1572    -1582    -1575    -1552 
   -1548    -1560    -1555    -1533    -1516    -1510    -1518    -1537 
   -1561    -1578    -1575    -1574    -1588    -1597    -1591    -1579 
   -1571    -1575    -1578    -1572    -1571    -1574    -1571    -1571 
   -1572    -1566    -1551    -1543    -1551    -1557    -1549    -1536 
   -1539    -1548    -1547    -1525    -1507    -1509    -1514    -1503 
   -1490    -1487    -1499    -1513    -1512    -1505    -1507    -1507 
   -1505    -1510    -1517    -1518    -1517    -1509    -1499    -1495 
   -1501    -1510    -1516    -1518    -1525    -1529    -1524    -1518 
   -1525    -1543    -1553    -1545    -1530    -1514    -1497    -1493 
   -1497    -1497    -1509    -1533    -1543    -1536    -1533    -1534 
   -1533    -1533    -1541    -1552    -1561    -1571    -1584    -1594 
   -1593    -1584    -1574    -1564    -1556    -1544    -1532    -1528 
   -1536    -1536    -1517    -1502    -1505    -1516    -1522    -1520 
   -1518    -1524    -1521    -1509    -1498    -1486    -1471    -1470 
   -1485    -1491    -1495    -1510    -1522    -1526    -1536    -1541 
   -1541    -1545    -1553    -1552    -1539    -1530    -1536    -1549 
   -1557    -1559    -1560    -1563    -1564    -1564    -1561    -1551 
   -1540    -1536    -1544    -1561    -1580    -1580    -1568    -1570 
   -1579    -1580    -1571    -1556    -1547    -1548    -1549    -1549 
   -1547    -1549    -1560    -1568    -1564    -1559    -1560    -1571 
   -1580    -1583    -1582    -1575    -1561    -1551    -1548    -1544 
   -1543    -1552    -1564    -1570    -1563    -1549    -1537    -1518 
   -1491    -1480    -1493    -1509    -1522    -1516    -1491    -1474 
   -1463    -1463    -1479    -1494    -1505    -1525    -1539    -1551 
   -1575    -1584    -1579    -1584    -1591    -1590    -1567    -1525 
   -1506    -1524    -1540    -1529    -1506    -1501    -1530    -1568 
   -1582    -1570    -1547    -1528    -1525    -1528    -1529    -1537 
   -1551    -1557    -1559    -1560    -1556    -1547    -1544    -1549 
   -1545    -1524    -1486    -1439    -1410    -1422    -1445    -1456 
   -1474    -1506    -1539    -1545    -1510    -1463    -1440    -1443 
   -1464    -1506    -1541    -1548    -1524    -1498    -1491    -1493 
   -1499    -1525    -1564    -1591    -1594    -1566    -1525    -1501 
   -1489    -1458    -1414    -1391    -1408    -1445    -1467    -1472 
   -1479    -1489    -1497    -1505    -1521    -1552    -1586    -1609 
   -1611    -1610    -1624    -1641    -1637    -1609    -1575    -1553 
   -1545    -1536    -1528    -1524    -1509    -1483    -1464    -1441 
   -1399    -1359    -1348    -1375    -1418    -1453    -1475    -1509 
   -1555    -1586    -1579    -1545    -1521    -1533    -1570    -1611 
   -1640    -1645    -1641    -1630    -1586    -1514    -1439    -1383 
   -1372    -1401    -1447    -1490    -1518    -1530    -1544    -1576 
   -1629    -1675    -1694    -1692    -1667    -1617    -1561    -1521 
   -1518    -1553    -1579    -1553    -1501    -1471    -1486    -1512 
   -1509    -1497    -1499    -1498    -1483    -1480    -1501    -1543 
   -1595    -1618    -1571    -1471    -1410    -1440    -1510    -1557 
   -1576    -1587    -1599    -1598    -1578    -1571    -1588    -1610 
   -1628    -1626    -1590    -1549    -1541    -1549    -1545    -1530 
   -1512    -1486    -1458    -1422    -1382    -1374    -1428    -1522 
   -1599    -1633    -1629    -1618    -1629    -1638    -1618    -1591 
   -1567    -1541    -1534    -1541    -1530    -1512    -1510    -1507 
   -1478    -1432    -1416    -1449    -1502    -1541    -1568    -1579 
   -1570    -1537    -1487    -1443    -1413    -1404    -1439    -1517 
   -1597    -1641    -1655    -1664    -1687    -1715    -1710    -1665 
   -1609    -1547    -1485    -1443    -1437    -1455    -1480    -1505 
   -1513    -1487    -1443    -1412    -1424    -1474    -1525    -1555 
   -1576    -1617    -1664    -1679    -1659    -1625    -1579    -1507 
   -1436    -1406    -1432    -1505    -1594    -1663    -1702    -1714 
   -1682    -1607    -1518    -1464    -1474    -1501    -1487    -1464 
   -1471    -1503    -1553    -1598    -1626    -1642    -1641    -1634 
   -1642    -1657    -1663    -1661    -1657    -1647    -1640    -1644 
   -1636    -1615    -1606    -1591    -1537    -1462    -1413    -1412 
   -1441    -1485    -1539    -1607    -1656    -1632    -1570    -1539 
   -1537    -1529    -1503    -1462    -1428    -1426    -1451    -1475 
   -1489    -1489    -1474    -1443    -1428    -1463    -1518    -1557 
   -1580    -1603    -1621    -1593    -1521    -1464    -1455    -1459 
   -1441    -1421    -1451    -1540    -1618    -1615    -1536    -1436 
   -1377    -1360    -1364    -1383    -1414    -1443    -1485    -1543 
   -1582    -1575    -1529    -1489    -1490    -1507    -1520    -1530 
   -1522    -1471    -1397    -1351    -1370    -1422    -1472    -1522 
   -1571    -1603    -1611    -1586    -1547    -1533    -1529    -1501 
   -1479    -1502    -1547    -1571    -1543    -1466    -1395    -1390 
   -1459    -1553    -1611    -1613    -1587    -1560    -1517    -1453 
   -1405    -1401    -1441    -1497    -1530    -1528    -1520    -1526 
   -1547    -1575    -1593    -1591    -1586    -1583    -1564    -1530 
   -1502    -1470    -1439    -1421    -1420    -1440    -1483    -1539 
   -1597    -1642    -1634    -1593    -1595    -1637    -1640    -1586 
   -1516    -1458    -1440    -1459    -1489    -1534    -1607    -1678 
   -1686    -1606    -1493    -1412    -1382    -1390    -1440    -1522 
   -1587    -1591    -1556    -1543    -1574    -1615    -1617    -1578 
   -1537    -1517    -1506    -1518    -1578    -1664    -1705    -1652 
   -1540    -1448    -1412    -1402    -1390    -1378    -1375    -1397 
   -1444    -1493    -1526    -1557    -1593    -1624    -1655    -1695 
   -1725    -1721    -1688    -1659    -1633    -1588    -1521    -1462 
   -1451    -1502    -1574    -1601    -1579    -1567    -1584    -1609 
   -1624    -1641    -1675    -1713    -1719    -1669    -1580    -1497 
   -1453    -1475    -1534    -1571    -1560    -1545    -1576    -1649 
   -1705    -1688    -1610    -1513    -1420    -1340    -1327    -1404 
   -1514    -1580    -1598    -1611    -1651    -1705    -1722    -1680 
   -1615    -1574    -1557    -1532    -1493    -1471    -1456    -1426 
   -1399    -1401    -1436    -1502    -1575    -1629    -1642    -1606 
   -1552    -1510    -1498    -1512    -1544    -1574    -1548    -1479 
   -1440    -1458    -1506    -1561    -1587    -1580    -1597    -1655 
   -1699    -1686    -1620    -1548    -1521    -1513    -1482    -1452 
   -1464    -1521    -1563    -1528    -1447    -1397    -1401    -1437 
   -1501    -1574    -1620    -1625    -1611    -1590    -1545    -1464 
   -1370    -1308    -1317    -1372    -1417    -1448    -1486    -1502 
   -1482    -1472    -1507    -1570    -1634    -1667    -1638    -1563 
   -1497    -1476    -1505    -1520    -1487    -1466    -1502    -1557 
   -1574    -1533    -1468    -1443    -1478    -1528    -1551    -1566 
   -1591    -1595    -1551    -1485    -1426    -1404    -1436    -1483 
   -1494    -1490    -1522    -1598    -1664    -1671    -1644    -1632 
   -1617    -1561    -1475    -1404    -1374    -1370    -1386    -1431 
   -1478    -1499    -1505    -1521    -1557    -1597    -1632    -1667 
   -1669    -1615    -1551    -1524    -1525    -1539    -1544    -1528 
   -1478    -1399    -1337    -1348    -1436    -1570    -1691    -1721 
   -1661    -1598    -1579    -1594    -1595    -1548    -1487    -1476 
   -1524    -1590    -1626    -1632    -1626    -1582    -1485    -1389 
   -1347    -1368    -1437    -1532    -1626    -1686    -1702    -1705 
   -1705    -1696    -1694    -1688    -1659    -1605    -1533    -1468 
   -1451    -1489    -1548    -1578    -1555    -1516    -1493    -1478 
   -1468    -1460    -1440    -1412    -1387    -1377    -1406    -1483 
   -1567    -1617    -1621    -1611    -1615    -1615    -1599    -1613 
   -1674    -1715    -1698    -1653    -1634    -1645    -1651    -1624 
   -1583    -1564    -1570    -1553    -1499    -1468    -1497    -1532 
   -1530    -1518    -1526    -1529    -1495    -1476    -1518    -1575 
   -1580    -1556    -1533    -1475    -1366    -1281    -1298    -1399 
   -1498    -1545    -1549    -1539    -1541    -1541    -1521    -1510 
   -1540    -1598    -1641    -1655    -1653    -1624    -1557    -1485 
   -1409    -1329    -1291    -1310    -1331    -1312    -1300    -1344 
   -1421    -1468    -1468    -1451    -1464    -1530    -1613    -1679 
   -1738    -1790    -1806    -1779    -1718    -1645    -1572    -1495 
   -1425    -1386    -1401    -1464    -1543    -1603    -1634    -1625 
   -1575    -1534    -1539    -1553    -1544    -1522    -1525    -1571 
   -1605    -1583    -1539    -1516    -1503    -1479    -1441    -1424 
   -1433    -1441    -1445    -1475    -1533    -1586    -1586    -1534 
   -1463    -1377    -1289    -1271    -1360    -1510    -1642    -1702 
   -1709    -1722    -1721    -1661    -1611    -1629    -1703    -1804 
   -1850    -1791    -1675    -1551    -1447    -1395    -1413    -1502 
   -1636    -1715    -1695    -1634    -1575    -1526    -1499    -1526 
   -1615    -1713    -1771    -1773    -1709    -1613    -1557    -1548 
   -1534    -1506    -1483    -1475    -1475    -1480    -1512    -1559 
   -1597    -1594    -1537    -1464    -1422    -1412    -1408    -1409 
   -1421    -1448    -1463    -1448    -1440    -1466    -1516    -1556 
   -1556    -1529    -1526    -1568    -1630    -1651    -1605    -1552 
   -1533    -1518    -1490    -1486    -1539    -1626    -1665    -1607 
   -1521    -1495    -1521    -1563    -1632    -1710    -1748    -1718 
   -1641    -1566    -1530    -1551    -1603    -1640    -1609    -1514 
   -1424    -1397    -1414    -1422    -1413    -1426    -1489    -1567 
   -1609    -1591    -1557    -1561    -1603    -1634    -1615    -1557 
   -1494    -1443    -1420    -1431    -1458    -1503    -1576    -1641 
   -1648    -1594    -1513    -1453    -1447    -1474    -1498    -1498 
   -1478    -1482    -1501    -1486    -1433    -1394    -1422    -1507 
   -1570    -1566    -1528    -1495    -1491    -1506    -1522    -1530 
   -1526    -1514    -1513    -1486    -1402    -1331    -1355    -1460 
   -1587    -1678    -1695    -1653    -1609    -1588    -1576    -1545 
   -1514    -1514    -1537    -1555    -1547    -1509    -1480    -1498 
   -1553    -1586    -1557    -1501    -1472    -1462    -1432    -1395 
   -1375    -1402    -1476    -1537    -1545    -1530    -1540    -1576 
   -1594    -1557    -1512    -1507    -1552    -1625    -1667    -1638 
   -1572    -1513    -1478    -1476    -1510    -1548    -1567    -1557 
   -1528    -1506    -1507    -1540    -1583    -1582    -1534    -1505 
   -1534    -1594    -1637    -1667    -1703    -1726    -1691    -1617 
   -1561    -1548    -1560    -1560    -1528    -1490    -1467    -1455 
   -1456    -1460    -1470    -1497    -1522    -1512    -1475    -1459 
   -1489    -1533    -1553    -1553    -1549    -1549    -1551    -1555 
   -1549    -1521    -1476    -1452    -1471    -1505    -1522    -1513 
   -1487    -1471    -1468    -1482    -1516    -1557    -1586    -1593 
   -1551    -1464    -1412    -1433    -1489    -1534    -1570    -1606 
   -1637    -1617    -1548    -1480    -1452    -1463    -1480    -1501 
   -1564    -1642    -1664    -1617    -1541    -1470    -1426    -1416 
   -1429    -1463    -1502    -1533    -1555    -1556    -1547    -1552 
   -1583    -1618    -1613    -1556    -1497    -1470    -1479    -1516 
   -1553    -1574    -1583    -1578    -1556    -1513    -1451    -1422 
   -1468    -1533    -1536    -1487    -1449    -1448    -1459    -1478 
   -1524    -1601    -1665    -1648    -1551    -1480    -1495    -1518 
   -1499    -1474    -1485    -1529    -1568    -1560    -1530    -1541 
   -1594    -1621    -1586    -1539    -1539    -1575    -1587    -1568 
   -1563    -1580    -1587    -1557    -1510    -1482    -1485    -1502 
   -1507    -1485    -1478    -1510    -1547    -1566    -1587    -1606 
   -1610    -1597    -1579    -1559    -1541    -1543    -1566    -1572 
   -1545    -1505    -1466    -1435    -1414    -1405    -1406    -1418 
   -1436    -1451    -1471    -1512    -1556    -1571    -1551    -1528 
   -1525    -1524    -1524    -1545    -1593    -1629    -1630    -1620 
   -1615    -1594    -1547    -1505    -1475    -1443    -1416    -1422 
   -1456    -1479    -1483    -1499    -1517    -1498    -1459    -1444 
   -1460    -1493    -1512    -1522    -1543    -1560    -1563    -1568 
   -1568    -1553    -1541    -1532    -1512    -1491    -1475    -1464 
   -1464    -1456    -1449    -1462    -1486    -1520    -1557    -1587 
   -1606    -1625    -1634    -1632    -1629    -1624    -1599    -1570 
   -1551    -1537    -1521    -1502    -1495    -1503    -1524    -1547 
   -1566    -1575    -1568    -1549    -1530    -1537    -1576    -1605 
   -1599    -1590    -1598    -1601    -1575    -1541    -1532    -1552 
   -1579    -1597    -1614    -1632    -1638    -1632    -1613    -1586 
   -1563    -1556    -1557    -1549    -1543    -1561    -1582    -1571 
   -1552    -1572    -1626    -1674    -1680    -1644    -1603    -1580 
   -1564    -1552    -1547    -1545    -1544    -1533    -1518    -1510 
   -1503    -1498    -1499    -1507    -1512    -1520    -1547    -1576 
   -1579    -1555    -1520    -1490    -1483    -1506    -1536    -1552 
   -1560    -1570    -1583    -1590    -1582    -1580    -1579    -1552 
   -1524    -1518    -1522    -1526    -1532    -1539    -1539    -1514 
   -1482    -1470    -1468    -1464    -1480    -1516    -1533    -1536 
   -1532    -1520    -1518    -1516    -1513    -1524    -1522    -1507 
   -1506    -1513    -1518    -1526    -1530    -1528    -1522    -1516 
   -1513    -1521    -1530    -1539    -1544    -1543    -1543    -1545 
   -1545    -1549    -1560    -1583    -1598    -1575    -1545    -1552 
   -1574    -1567    -1537    -1510    -1493    -1478    -1462    -1452 
   -1455    -1479    -1516    -1547    -1557    -1556    -1551    -1551 
   -1541    -1506    -1468    -1459    -1464    -1460    -1448    -1437 
   -1448    -1471    -1486    -1493    -1512    -1529    -1539    -1543 
   -1540    -1540    -1541    -1534    -1526    -1526    -1521    -1501 
   -1470    -1444    -1440    -1451    -1452    -1444    -1453    -1480 
   -1487    -1471    -1462    -1475    -1513    -1556    -1567    -1549 
   -1540    -1551    -1578    -1591    -1574    -1553    -1549    -1548 
   -1536    -1518    -1503    -1505    -1530    -1545    -1525    -1483 
   -1449    -1441    -1448    -1445    -1443    -1467    -1506    -1534 
   -1548    -1567    -1582    -1578    -1560    -1560    -1588    -1611 
   -1610    -1595    -1587    -1580    -1561    -1532    -1521    -1534 
   -1557    -1567    -1552    -1528    -1524    -1553    -1584    -1590 
