Origin Time       2025/01/13 21:19:00
Lat.              31.8
Long.             131.6
Depth. (km)       30
Mag.              6.9
Station Code      WKYH10
Station Lat.      33.8248
Station Long.     135.2172
Station Height(m) 40
Record Time       2025/01/13 21:21:08
Sampling Freq(Hz) 100Hz
Duration Time(s)  120
Dir.              4
Scale Factor      7845(gal)/8223790
Max. Acc. (gal)   0.637
Last Correction   2025/01/13 21:21:08
Memo.             
[...]
    1273     1278     1297     1316     1324     1321     1308     1301 
    1310     1320     1318     1314     1328     1350     1356     1355 
    1347     1328     1314     1309     1302     1305     1320     1336 
    1348     1354     1355     1355     1343     1323     1304     1290 
    1291     1309     1325     1333     1332     1328     1328     1327 
    1313     1293     1279     1278     1289     1310     1339     1362 
    1377     1379     1367     1350     1331     1316     1312     1312 
    1301     1291     1302     1320     1324     1321     1314     1309 
    1309     1302     1291     1291     1309     1317     1304     1289 
    1296     1316     1324     1317     1310     1305     1300     1298 
    1297     1294     1298     1305     1306     1305     1310     1323 
    1331     1332     1327     1317     1312     1312     1305     1298 
    1312     1345     1377     1382     1370     1356     1348     1340 
    1318     1294     1290     1306     1320     1324     1320     1313 
    1309     1308     1317     1337     1351     1345     1332     1340 
    1364     1382     1395     1393     1360     1318     1302     1310 
    1325     1332     1339     1356     1371     1370     1366     1360 
    1339     1308     1290     1287     1297     1318     1348     1367 
    1363     1352     1356     1362     1352     1339     1328     1301 
    1273     1274     1300     1320     1320     1306     1301     1298 
    1287     1278     1296     1328     1340     1320     1297     1293 
    1298     1298     1289     1278     1278     1302     1343     1381 
    1399     1410     1414     1395     1350     1317     1305     1286 
    1263     1266     1294     1323     1340     1344     1343     1345 
    1347     1343     1333     1313     1293     1286     1289     1287 
    1291     1308     1317     1314     1317     1328     1331     1313 
    1291     1285     1287     1289     1287     1294     1305     1320 
    1337     1347     1359     1375     1379     1358     1318     1290 
    1291     1297     1297     1306     1323     1336     1347     1351 
    1333     1312     1306     1306     1300     1300     1312     1327 
    1341     1368     1387     1378     1348     1324     1317     1318 
    1314     1314     1337     1363     1366     1356     1348     1340 
    1327     1308     1293     1297     1316     1329     1335     1340 
    1339     1327     1316     1316     1328     1344     1341     1318 
    1308     1314     1316     1302     1283     1279     1297     1316 
    1317     1316     1324     1328     1312     1302     1309     1308 
    1293     1293     1314     1339     1355     1362     1356     1341 
    1320     1297     1285     1296     1321     1335     1318     1296 
    1308     1328     1316     1304     1325     1355     1356     1335 
    1323     1331     1337     1335     1323     1304     1302     1321 
    1332     1332     1345     1360     1351     1332     1327     1335 
    1332     1321     1314     1309     1302     1300     1290     1271 
    1264     1278     1301     1323     1339     1348     1345     1328 
    1309     1302     1296     1287     1293     1308     1310     1316 
    1333     1339     1327     1331     1350     1351     1331     1314 
    1313     1321     1333     1341     1335     1327     1336     1360 
    1372     1364     1352     1351     1340     1312     1285     1269 
    1264     1277     1297     1314     1333     1359     1377     1372 
    1360     1360     1375     1382     1360     1321     1293     1282 
    1274     1263     1263     1279     1298     1309     1313     1327 
    1356     1386     1389     1360     1331     1328     1345     1355 
    1354     1341     1327     1324     1320     1304     1290     1297 
    1318     1327     1314     1314     1341     1362     1359     1333 
    1306     1308     1320     1304     1278     1287     1325     1364 
    1377     1360     1350     1358     1364     1352     1335     1341 
    1372     1394     1394     1375     1352     1341     1341     1323 
    1289     1278     1302     1325     1325     1325     1331     1324 
    1314     1309     1309     1317     1327     1320     1293     1277 
    1283     1297     1305     1314     1324     1323     1318     1321 
    1316     1304     1308     1321     1325     1340     1367     1381 
    1374     1367     1351     1317     1289     1283     1281     1275 
    1291     1321     1333     1329     1333     1337     1329     1318 
    1300     1274     1273     1297     1313     1300     1274     1273 
    1298     1323     1333     1337     1339     1341     1356     1374 
    1370     1352     1336     1317     1296     1283     1291     1312 
    1327     1336     1339     1327     1318     1329     1325     1301 
    1294     1310     1317     1317     1335     1362     1382     1387 
    1378     1358     1336     1313     1291     1283     1294     1316 
    1331     1328     1327     1328     1309     1279     1281     1306 
    1317     1310     1308     1306     1294     1281     1281     1304 
    1335     1351     1355     1351     1348     1343     1328     1310 
    1308     1318     1320     1301     1290     1313     1359     1391 
    1386     1352     1323     1297     1267     1250     1270     1304 
    1323     1320     1321     1333     1350     1367     1381     1379 
    1366     1336     1294     1255     1240     1255     1277     1293 
    1313     1340     1362     1377     1387     1386     1371     1341 
    1302     1275     1270     1278     1294     1309     1312     1309 
    1323     1350     1359     1348     1347     1344     1321     1301 
    1296     1294     1304     1316     1316     1321     1355     1397 
    1406     1394     1399     1399     1362     1309     1262     1219 
    1197     1216     1255     1298     1352     1405     1426     1409 
    1366     1335     1335     1337     1314     1279     1264     1290 
    1331     1350     1339     1325     1337     1362     1368     1358 
    1347     1354     1370     1368     1355     1343     1328     1325 
    1340     1368     1405     1431     1436     1421     1383     1344 
    1332     1333     1325     1323     1325     1324     1332     1363 
    1389     1385     1351     1312     1296     1302     1327     1356 
    1367     1364     1368     1375     1362     1345     1350     1345 
    1314     1293     1306     1327     1332     1335     1348     1368 
    1401     1456     1509     1516     1485     1447     1406     1347 
    1281     1242     1224     1215     1223     1251     1301     1372 
    1435     1455     1444     1429     1410     1363     1304     1278 
    1290     1321     1331     1304     1289     1308     1328     1325 
    1304     1290     1298     1310     1317     1324     1344     1372 
    1379     1358     1340     1321     1278     1235     1224     1229 
    1251     1291     1333     1372     1410     1440     1447     1432 
    1409     1375     1317     1267     1251     1247     1260     1317 
    1399     1468     1501     1489     1445     1393     1351     1320 
    1289     1251     1209     1169     1146     1150     1175     1221 
    1305     1404     1466     1499     1536     1549     1521     1476 
    1439     1383     1298     1210     1146     1119     1129     1188 
    1286     1383     1428     1422     1408     1405     1382     1305 
    1197     1101     1035     1009     1036     1131     1287     1468 
    1611     1687     1729     1763     1752     1645     1437     1202 
    1024      926      886      903      996     1147     1291     1418 
    1528     1574     1540     1466     1360     1236     1143     1082 
    1032     1024     1080     1166     1255     1345     1448     1551 
    1622     1649     1606     1468     1300     1179     1108     1054 
    1011      997     1042     1139     1266     1389     1468     1493 
    1471     1395     1293     1233     1221     1198     1156     1143 
    1206     1332     1452     1528     1544     1510     1460     1413 
    1367     1329     1287     1216     1140     1116     1138     1148 
    1139     1138     1181     1281     1387     1437     1439     1449 
    1476     1470     1406     1310     1217     1152     1123     1123 
    1166     1247     1309     1323     1327     1347     1345     1297 
    1248     1262     1340     1445     1556     1640     1647     1543 
    1344     1139     1013      977      989     1036     1142     1325 
    1553     1737     1806     1776     1696     1567     1398     1273 
    1236     1231     1185     1117     1092     1120     1151     1155 
    1150     1185     1294     1463     1617     1683     1632     1501 
    1362     1258     1208     1216     1247     1273     1325     1422 
    1505     1521     1462     1337     1185     1053      992     1028 
    1120     1219     1321     1445     1593     1732     1827     1844 
    1742     1560     1398     1283     1171     1061      976      928 
     932     1005     1154     1350     1549     1709     1779     1738 
    1632     1482     1293     1113     1004      970      997     1077 
    1181     1250     1277     1313     1387     1476     1543     1557 
    1506     1421     1358     1327     1291     1235     1167     1139 
    1205     1351     1509     1603     1610     1563     1491     1391 
    1278     1189     1120     1036      959      967     1085     1252 
    1412     1549     1664     1740     1775     1767     1691     1540 
    1344     1154      993      895      932     1102     1258     1305 
    1298     1317     1379     1472     1541     1536     1472     1420 
    1402     1377     1321     1259     1212     1185     1169     1178 
    1247     1324     1312     1237     1235     1358     1534     1687 
    1771     1764     1675     1524     1304     1046      831      724 
     724      797      924     1096     1320     1560     1699     1688 
    1611     1547     1471     1341     1198     1131     1173     1298 
    1460     1579     1593     1503     1352     1179     1017      907 
     877      913      967      997     1015     1096     1269     1476 
    1634     1703     1710     1707     1696     1651     1563     1449 
    1317     1162     1005      888      831      839      913     1046 
    1229     1445     1633     1740     1738     1636     1487     1355 
    1252     1166     1094     1039     1004     1019     1102     1228 
    1347     1441     1507     1524     1480     1447     1466     1475 
    1428     1359     1332     1368     1426     1433     1370     1271 
    1202     1206     1259     1306     1343     1378     1387     1367 
    1348     1341     1335     1310     1287     1285     1306     1356 
    1448     1575     1688     1737     1721     1660     1566     1448 
    1331     1235     1169     1155     1225     1344     1406     1348 
    1223     1123     1096     1123     1174     1236     1317     1432 
    1570     1645     1590     1449     1314     1250     1264     1316 
    1337     1285     1178     1112     1146     1252     1385     1512 
    1595     1609     1560     1464     1321     1169     1085     1077 
    1086     1080     1070     1088     1178     1363     1570     1683 
    1660     1570     1494     1443     1389     1306     1190     1086 
    1035     1016     1004     1020     1070     1116     1154     1258 
    1443     1611     1678     1651     1560     1422     1260     1115 
    1013      997     1100     1274     1432     1545     1624     1645 
    1595     1497     1383     1246     1077      924      843      849 
     950     1129     1306     1401     1409     1401     1439     1510 
    1582     1625     1588     1462     1289     1131     1027     1001 
    1054     1159     1298     1485     1713     1904     1948     1798 
    1517     1215      973      846      854      939     1028     1136 
    1302     1485     1621     1688     1671     1566     1413     1269 
    1155     1067      990      932      940     1063     1293     1545 
    1698     1682     1549     1394     1236     1094     1017     1017 
    1058     1139     1281     1459     1625     1721     1699     1571 
    1402     1266     1179     1131     1117     1135     1173     1235 
    1325     1404     1429     1409     1355     1289     1243     1236 
    1260     1301     1354     1408     1424     1420     1459     1510 
    1505     1447     1413     1443     1459     1375     1236     1135 
    1082     1040     1007      997     1032     1139     1336     1566 
    1723     1771     1734     1645     1526     1375     1210     1105 
    1089     1121     1181     1277     1412     1545     1637     1668 
    1610     1447     1215      974      781      697      772      985 
    1259     1509     1665     1694     1615     1486     1364     1278 
    1205     1152     1171     1247     1314     1381     1472     1548 
    1548     1459     1314     1169     1059      999     1017     1162 
    1401     1594     1622     1524     1397     1297     1232     1181 
    1125     1081     1057     1055     1093     1158     1202     1209 
    1227     1300     1410     1521     1599     1613     1556     1444 
    1310     1205     1154     1159     1206     1298     1445     1624 
    1757     1783     1680     1491     1277     1063      877      757 
     715      760      909     1167     1462     1688     1819     1875 
    1876     1833     1719     1506     1229      970      808      799 
     919     1067     1174     1263     1425     1683     1912     1989 
    1912     1749     1556     1360     1171     1015      911      877 
     918     1001     1108     1252     1410     1506     1501     1431 
    1360     1312     1260     1181     1088     1047     1125     1308 
    1512     1637     1628     1512     1379     1308     1324     1360 
    1310     1188     1124     1197     1345     1458     1476     1431 
    1385     1381     1398     1385     1340     1301     1304     1348 
    1387     1360     1264     1146     1062     1066     1193     1377 
    1487     1482     1420     1328     1216     1138     1116     1100 
    1098     1165     1287     1455     1644     1775     1765     1625 
    1443     1283     1139     1023      981     1028     1119     1193 
    1235     1267     1286     1278     1247     1225     1231     1246 
    1252     1258     1314     1468     1665     1776     1750     1648 
    1541     1425     1281     1150     1082     1070     1094     1163 
    1283     1440     1572     1603     1532     1437     1339     1178 
     955      769      699      742      851      982     1117     1250 
    1343     1375     1370     1364     1406     1525     1676     1784 
    1818     1798     1726     1609     1480     1358     1215     1062 
     953      935     1042     1256     1491     1651     1702     1684 
    1637     1567     1458     1304     1150     1061     1051     1078 
    1112     1148     1189     1225     1227     1205     1215     1285 
    1417     1583     1688     1682     1601     1505     1441     1413 
    1374     1304     1240     1217     1215     1225     1270     1325 
    1341     1306     1252     1244     1314     1409     1444     1393 
    1282     1182     1134     1129     1165     1221     1283     1333 
    1366     1394     1406     1360     1285     1246     1273     1336 
    1381     1404     1437     1464     1448     1389     1298     1202 
    1138     1116     1123     1161     1225     1294     1351     1372 
    1358     1339     1323     1296     1291     1340     1397     1422 
    1428     1424     1382     1287     1177     1127     1163     1248 
    1344     1449     1553     1607     1591     1534     1452     1344 
    1239     1182     1188     1247     1358     1497     1620     1690 
    1656     1505     1306     1134     1017      957      961     1027 
    1136     1274     1425     1571     1680     1701     1607     1435 
    1233     1069      996     1000     1059     1177     1323     1449 
    1539     1587     1599     1566     1493     1410     1335     1278 
    1267     1297     1310     1273     1204     1148     1148     1208 
    1287     1343     1345     1325     1316     1301     1271     1255 
    1232     1151     1027      939      970     1138     1351     1528 
    1649     1703     1691     1633     1521     1381     1267     1178 
    1113     1101     1147     1228     1317     1367     1372     1362 
    1337     1313     1300     1270     1227     1205     1236     1324 
    1431     1494     1479     1424     1402     1436     1467     1467 
    1443     1389     1340     1362     1443     1497     1474     1395 
    1300     1239     1228     1237     1231     1196     1152     1156 
    1220     1282     1310     1314     1310     1325     1367     1417 
    1451     1447     1393     1304     1216     1162     1152     1171 
    1197     1217     1237     1269     1316     1362     1393     1414 
    1432     1441     1447     1441     1405     1344     1290     1259 
    1236     1215     1194     1197     1223     1239     1240     1233 
    1200     1162     1179     1259     1329     1347     1347     1354 
    1337     1294     1267     1275     1312     1343     1324     1263 
    1221     1255     1341     1395     1379     1337     1310     1296 
    1305     1318     1275     1213     1224     1296     1377     1453 
    1501     1491     1426     1310     1171     1098     1136     1248 
    1383     1505     1567     1551     1497     1435     1366     1306 
    1262     1215     1183     1225     1329     1397     1390     1372 
    1385     1381     1323     1242     1188     1186     1217     1258 
    1331     1453     1561     1571     1494     1402     1301     1163 
    1030      974     1019     1117     1209     1278     1348     1436 
    1506     1502     1429     1348     1286     1242     1216     1228 
    1281     1327     1336     1335     1336     1333     1328     1310 
    1283     1271     1282     1287     1251     1197     1183     1216 
    1255     1271     1259     1246     1278     1343     1387     1406 
    1426     1447     1458     1456     1451     1452     1436     1382 
    1327     1296     1275     1256     1233     1212     1212     1260 
    1348     1422     1441     1432     1421     1401     1377     1358 
    1324     1267     1228     1228     1266     1332     1390     1408 
    1397     1385     1364     1312     1243     1208     1210     1247 
    1316     1398     1467     1491     1478     1470     1479     1480 
    1449     1395     1348     1343     1377     1390     1348     1289 
    1259     1254     1237     1209     1206     1224     1227     1229 
    1259     1300     1313     1297     1274     1270     1290     1290 
    1250     1219     1242     1302     1370     1424     1426     1378 
    1314     1260     1223     1208     1209     1210     1209     1229 
    1289     1364     1414     1426     1418     1402     1381     1359 
    1355     1366     1352     1317     1296     1297     1310     1343 
    1377     1364     1314     1290     1312     1344     1348     1318 
    1263     1209     1213     1281     1367     1435     1471     1458 
    1391     1286     1179     1129     1150     1194     1232     1273 
    1318     1371     1421     1426     1356     1251     1173     1138 
