Origin Time       2025/01/13 21:19:00
Lat.              31.8
Long.             131.6
Depth. (km)       30
Mag.              6.9
Station Code      WKYH10
Station Lat.      33.8248
Station Long.     135.2172
Station Height(m) 40
Record Time       2025/01/13 21:21:08
Sampling Freq(Hz) 100Hz
Duration Time(s)  120
Dir.              5
Scale Factor      7845(gal)/8223790
Max. Acc. (gal)   0.773
Last Correction   2025/01/13 21:21:08
Memo.             
[...]
   -4495    -4506    -4510    -4504    -4490    -4473    -4473    -4496 
   -4514    -4496    -4448    -4401    -4402    -4442    -4482    -4507 
   -4525    -4531    -4522    -4494    -4471    -4480    -4499    -4496 
   -4480    -4480    -4499    -4529    -4548    -4542    -4529    -4526 
   -4521    -4504    -4475    -4436    -4419    -4446    -4502    -4553 
   -4572    -4553    -4531    -4541    -4568    -4575    -4537    -4475 
   -4425    -4407    -4425    -4461    -4498    -4536    -4583    -4610 
   -4595    -4550    -4506    -4480    -4472    -4469    -4477    -4509 
   -4537    -4530    -4507    -4503    -4523    -4538    -4522    -4486 
   -4461    -4463    -4480    -4498    -4504    -4504    -4490    -4463 
   -4444    -4442    -4452    -4464    -4463    -4446    -4436    -4456 
   -4500    -4530    -4536    -4533    -4525    -4509    -4498    -4480 
   -4444    -4410    -4396    -4406    -4449    -4513    -4567    -4599 
   -4619    -4611    -4572    -4517    -4473    -4455    -4455    -4467 
   -4483    -4502    -4529    -4558    -4569    -4561    -4544    -4503 
   -4453    -4432    -4438    -4452    -4476    -4498    -4500    -4511 
   -4544    -4569    -4579    -4572    -4536    -4484    -4441    -4406 
   -4382    -4383    -4405    -4436    -4477    -4531    -4581    -4611 
   -4607    -4568    -4511    -4482    -4482    -4473    -4456    -4442 
   -4438    -4460    -4499    -4525    -4533    -4541    -4550    -4558 
   -4567    -4571    -4557    -4525    -4488    -4457    -4450    -4472 
   -4494    -4499    -4503    -4503    -4503    -4515    -4533    -4546 
   -4552    -4536    -4504    -4482    -4476    -4487    -4503    -4509 
   -4511    -4525    -4546    -4569    -4577    -4561    -4538    -4518 
   -4494    -4465    -4449    -4453    -4473    -4494    -4514    -4534 
   -4554    -4576    -4594    -4594    -4563    -4523    -4503    -4506 
   -4518    -4533    -4549    -4548    -4525    -4488    -4450    -4455 
   -4507    -4544    -4534    -4517    -4503    -4498    -4510    -4525 
   -4517    -4490    -4467    -4456    -4456    -4480    -4514    -4527 
   -4522    -4506    -4475    -4450    -4441    -4438    -4449    -4475 
   -4495    -4491    -4469    -4456    -4469    -4500    -4526    -4538 
   -4525    -4503    -4504    -4514    -4514    -4509    -4487    -4453 
   -4437    -4442    -4460    -4486    -4506    -4514    -4521    -4536 
   -4538    -4517    -4473    -4428    -4421    -4455    -4483    -4488 
   -4504    -4546    -4580    -4569    -4525    -4484    -4469    -4475 
   -4483    -4483    -4484    -4498    -4515    -4529    -4531    -4526 
   -4534    -4553    -4558    -4549    -4538    -4526    -4504    -4479 
   -4453    -4437    -4450    -4490    -4531    -4565    -4583    -4581 
   -4576    -4563    -4525    -4492    -4482    -4465    -4442    -4440 
   -4473    -4540    -4591    -4575    -4519    -4487    -4495    -4522 
   -4537    -4517    -4480    -4463    -4467    -4487    -4511    -4525 
   -4517    -4496    -4476    -4467    -4479    -4509    -4526    -4514 
   -4487    -4469    -4484    -4517    -4546    -4569    -4577    -4557 
   -4531    -4525    -4521    -4506    -4488    -4468    -4450    -4450 
   -4469    -4498    -4522    -4530    -4523    -4518    -4518    -4509 
   -4483    -4457    -4452    -4476    -4515    -4533    -4531    -4529 
   -4529    -4529    -4527    -4515    -4502    -4499    -4503    -4503 
   -4499    -4490    -4491    -4515    -4544    -4553    -4538    -4509 
   -4482    -4472    -4464    -4445    -4426    -4428    -4455    -4506 
   -4557    -4576    -4563    -4542    -4536    -4537    -4527    -4500 
   -4463    -4440    -4437    -4452    -4487    -4529    -4557    -4572 
   -4558    -4522    -4491    -4475    -4473    -4480    -4473    -4457 
   -4460    -4483    -4518    -4545    -4538    -4513    -4486    -4452 
   -4423    -4421    -4430    -4434    -4440    -4448    -4461    -4488 
   -4521    -4531    -4518    -4507    -4509    -4517    -4521    -4513 
   -4498    -4486    -4487    -4517    -4558    -4571    -4540    -4492 
   -4463    -4473    -4509    -4534    -4536    -4526    -4525    -4541 
   -4556    -4545    -4518    -4500    -4502    -4513    -4521    -4523 
   -4529    -4538    -4548    -4541    -4522    -4504    -4476    -4453 
   -4453    -4457    -4457    -4461    -4479    -4513    -4548    -4564 
   -4568    -4561    -4538    -4509    -4480    -4463    -4456    -4455 
   -4476    -4515    -4553    -4585    -4592    -4568    -4541    -4515 
   -4484    -4463    -4452    -4453    -4471    -4491    -4500    -4510 
   -4518    -4526    -4527    -4519    -4514    -4515    -4513    -4509 
   -4498    -4472    -4460    -4487    -4523    -4548    -4554    -4530 
   -4495    -4473    -4464    -4457    -4457    -4467    -4488    -4511 
   -4526    -4548    -4571    -4572    -4553    -4526    -4509    -4511 
   -4523    -4530    -4523    -4515    -4504    -4483    -4457    -4445 
   -4460    -4498    -4533    -4544    -4544    -4540    -4515    -4471 
   -4437    -4428    -4425    -4428    -4436    -4446    -4461    -4472 
   -4465    -4453    -4449    -4449    -4441    -4432    -4436    -4456 
   -4487    -4509    -4503    -4487    -4480    -4479    -4496    -4536 
   -4563    -4572    -4569    -4545    -4527    -4534    -4534    -4507 
   -4476    -4464    -4479    -4502    -4525    -4552    -4575    -4585 
   -4581    -4567    -4550    -4545    -4545    -4537    -4521    -4507 
   -4499    -4510    -4537    -4548    -4537    -4526    -4513    -4503 
   -4507    -4495    -4471    -4464    -4471    -4475    -4483    -4492 
   -4494    -4496    -4498    -4487    -4472    -4467    -4471    -4464 
   -4441    -4422    -4426    -4450    -4488    -4519    -4534    -4545 
   -4563    -4563    -4546    -4530    -4502    -4460    -4436    -4446 
   -4472    -4506    -4536    -4538    -4518    -4500    -4492    -4492 
   -4496    -4488    -4471    -4455    -4457    -4482    -4503    -4510 
   -4522    -4538    -4538    -4531    -4529    -4534    -4552    -4556 
   -4537    -4525    -4530    -4534    -4526    -4509    -4492    -4488 
   -4506    -4529    -4537    -4529    -4506    -4476    -4468    -4495 
   -4523    -4523    -4488    -4440    -4418    -4433    -4449    -4459 
   -4461    -4456    -4464    -4484    -4496    -4506    -4511    -4500 
   -4490    -4480    -4464    -4460    -4477    -4492    -4491    -4488 
   -4499    -4527    -4561    -4567    -4542    -4506    -4468    -4448 
   -4459    -4477    -4479    -4472    -4468    -4475    -4494    -4514 
   -4523    -4530    -4531    -4515    -4486    -4464    -4449    -4441 
   -4450    -4461    -4467    -4475    -4488    -4499    -4502    -4499 
   -4500    -4507    -4515    -4521    -4529    -4541    -4541    -4522 
   -4509    -4509    -4506    -4500    -4499    -4492    -4487    -4500 
   -4521    -4529    -4519    -4495    -4473    -4467    -4467    -4473 
   -4487    -4504    -4521    -4523    -4518    -4515    -4510    -4499 
   -4488    -4477    -4471    -4473    -4479    -4484    -4490    -4491 
   -4490    -4488    -4488    -4490    -4498    -4506    -4509    -4511 
   -4517    -4522    -4518    -4504    -4488    -4483    -4488    -4502 
   -4521    -4537    -4549    -4544    -4517    -4496    -4496    -4499 
   -4503    -4510    -4503    -4502    -4515    -4519    -4518    -4514 
   -4487    -4452    -4437    -4434    -4449    -4486    -4518    -4538 
   -4548    -4531    -4499    -4483    -4477    -4467    -4465    -4471 
   -4480    -4504    -4530    -4540    -4534    -4521    -4498    -4482 
   -4486    -4499    -4507    -4513    -4521    -4526    -4533    -4534 
   -4526    -4525    -4533    -4533    -4525    -4525    -4526    -4517 
   -4498    -4468    -4444    -4452    -4484    -4515    -4534    -4536 
   -4522    -4503    -4491    -4483    -4473    -4459    -4442    -4438 
   -4455    -4482    -4509    -4522    -4519    -4502    -4477    -4471 
   -4491    -4506    -4502    -4483    -4455    -4449    -4482    -4510 
   -4504    -4484    -4468    -4469    -4482    -4492    -4502    -4507 
   -4498    -4479    -4464    -4469    -4494    -4517    -4521    -4517 
   -4509    -4504    -4521    -4531    -4522    -4503    -4475    -4450 
   -4457    -4490    -4523    -4544    -4541    -4518    -4494    -4477 
   -4473    -4488    -4514    -4521    -4504    -4487    -4483    -4495 
   -4499    -4472    -4428    -4402    -4413    -4453    -4498    -4515 
   -4496    -4471    -4482    -4522    -4548    -4538    -4509    -4484 
   -4469    -4473    -4487    -4494    -4496    -4502    -4495    -4492 
   -4519    -4561    -4584    -4573    -4525    -4483    -4477    -4492 
   -4509    -4507    -4482    -4457    -4452    -4460    -4490    -4531 
   -4554    -4552    -4522    -4483    -4479    -4504    -4515    -4511 
   -4511    -4514    -4530    -4546    -4538    -4513    -4495    -4490 
   -4496    -4502    -4491    -4476    -4469    -4476    -4495    -4525 
   -4553    -4558    -4531    -4492    -4472    -4469    -4452    -4396 
   -4341    -4336    -4378    -4440    -4488    -4495    -4487    -4495 
   -4495    -4471    -4441    -4434    -4452    -4473    -4483    -4475 
   -4464    -4475    -4499    -4513    -4507    -4488    -4469    -4465 
   -4476    -4479    -4471    -4460    -4450    -4452    -4472    -4503 
   -4530    -4540    -4519    -4490    -4477    -4475    -4463    -4444 
   -4430    -4449    -4495    -4531    -4553    -4560    -4549    -4536 
   -4530    -4530    -4540    -4549    -4550    -4548    -4533    -4514 
   -4510    -4509    -4496    -4487    -4483    -4486    -4502    -4513 
   -4511    -4518    -4527    -4514    -4482    -4446    -4433    -4456 
   -4491    -4502    -4492    -4494    -4515    -4540    -4538    -4514 
   -4496    -4496    -4504    -4509    -4495    -4473    -4464    -4465 
   -4473    -4490    -4500    -4498    -4498    -4509    -4523    -4536 
   -4533    -4509    -4473    -4459    -4468    -4490    -4506    -4513 
   -4515    -4530    -4557    -4575    -4569    -4548    -4522    -4507 
   -4509    -4513    -4517    -4530    -4548    -4553    -4546    -4527 
   -4490    -4446    -4426    -4445    -4487    -4522    -4531    -4514 
   -4487    -4468    -4449    -4437    -4440    -4450    -4468    -4498 
   -4529    -4545    -4530    -4496    -4482    -4488    -4498    -4498 
   -4491    -4484    -4490    -4509    -4517    -4506    -4494    -4475 
   -4452    -4442    -4461    -4498    -4534    -4552    -4549    -4542 
   -4541    -4546    -4557    -4571    -4575    -4557    -4531    -4526 
   -4542    -4563    -4575    -4575    -4577    -4588    -4594    -4585 
   -4567    -4545    -4522    -4503    -4484    -4472    -4484    -4514 
   -4542    -4557    -4540    -4506    -4483    -4455    -4417    -4394 
   -4388    -4401    -4433    -4473    -4506    -4526    -4537    -4527 
   -4491    -4465    -4471    -4471    -4456    -4459    -4479    -4499 
   -4531    -4558    -4552    -4534    -4522    -4506    -4503    -4511 
   -4504    -4495    -4494    -4486    -4476    -4479    -4488    -4500 
   -4499    -4472    -4450    -4482    -4531    -4544    -4529    -4509 
   -4486    -4461    -4419    -4365    -4348    -4383    -4438    -4486 
   -4504    -4495    -4480    -4477    -4486    -4496    -4506    -4517 
   -4526    -4529    -4519    -4491    -4448    -4419    -4433    -4480 
   -4536    -4565    -4560    -4531    -4495    -4460    -4432    -4414 
   -4410    -4434    -4494    -4564    -4615    -4633    -4608    -4546 
   -4476    -4421    -4383    -4357    -4351    -4367    -4403    -4453 
   -4495    -4519    -4525    -4526    -4537    -4556    -4552    -4507 
   -4459    -4438    -4433    -4423    -4405    -4375    -4364    -4398 
   -4445    -4475    -4495    -4515    -4529    -4540    -4550    -4561 
   -4563    -4538    -4492    -4459    -4457    -4490    -4533    -4546 
   -4526    -4503    -4502    -4538    -4595    -4619    -4606    -4581 
   -4556    -4544    -4556    -4564    -4552    -4534    -4527    -4537 
   -4563    -4592    -4610    -4603    -4584    -4581    -4599    -4627 
   -4639    -4599    -4513    -4446    -4433    -4455    -4476    -4482 
   -4483    -4480    -4461    -4444    -4441    -4445    -4446    -4438 
   -4436    -4464    -4522    -4587    -4630    -4631    -4595    -4553 
   -4538    -4544    -4545    -4530    -4506    -4495    -4507    -4541 
   -4580    -4588    -4546    -4484    -4422    -4379    -4367    -4372 
   -4399    -4461    -4533    -4595    -4657    -4727    -4779    -4788 
   -4754    -4676    -4557    -4438    -4341    -4270    -4239    -4243 
   -4271    -4349    -4471    -4569    -4600    -4573    -4531    -4504 
   -4490    -4475    -4442    -4410    -4441    -4540    -4638    -4714 
   -4754    -4742    -4692    -4603    -4461    -4299    -4167    -4095 
   -4105    -4191    -4330    -4473    -4564    -4610    -4645    -4657 
   -4652    -4638    -4602    -4552    -4507    -4471    -4456    -4456 
   -4457    -4483    -4523    -4560    -4608    -4660    -4673    -4621 
   -4498    -4348    -4259    -4257    -4302    -4356    -4432    -4576 
   -4768    -4885    -4862    -4743    -4602    -4513    -4490    -4477 
   -4459    -4456    -4463    -4450    -4414    -4340    -4244    -4197 
   -4255    -4406    -4591    -4739    -4789    -4730    -4619    -4513 
   -4409    -4320    -4291    -4340    -4456    -4619    -4752    -4792 
   -4757    -4672    -4541    -4413    -4340    -4318    -4306    -4270 
   -4205    -4132    -4104    -4174    -4330    -4531    -4745    -4920 
   -5023    -5054    -4985    -4746    -4356    -3966    -3728    -3689 
   -3805    -4008    -4232    -4465    -4707    -4892    -4938    -4824 
   -4602    -4349    -4140    -4017    -4004    -4105    -4278    -4444 
   -4572    -4680    -4772    -4812    -4756    -4603    -4414    -4257 
   -4166    -4137    -4179    -4283    -4415    -4550    -4685    -4819 
   -4941    -4993    -4919    -4738    -4527    -4361    -4272    -4230 
   -4205    -4216    -4284    -4409    -4546    -4644    -4679    -4645 
   -4544    -4415    -4295    -4194    -4159    -4253    -4460    -4680 
   -4811    -4841    -4797    -4689    -4560    -4463    -4430    -4483 
   -4581    -4633    -4606    -4552    -4490    -4405    -4318    -4276 
   -4270    -4268    -4283    -4334    -4434    -4550    -4615    -4622 
   -4637    -4704    -4774    -4769    -4665    -4496    -4324    -4220 
   -4229    -4342    -4498    -4630    -4731    -4827    -4878    -4796 
   -4585    -4359    -4209    -4156    -4194    -4326    -4530    -4734 
   -4850    -4847    -4783    -4719    -4662    -4585    -4483    -4364 
   -4259    -4195    -4164    -4159    -4206    -4315    -4475    -4684 
   -4911    -5071    -5104    -4996    -4801    -4602    -4456    -4369 
   -4288    -4195    -4159    -4213    -4311    -4407    -4482    -4522 
   -4540    -4548    -4518    -4441    -4375    -4347    -4334    -4325 
   -4306    -4288    -4359    -4541    -4726    -4822    -4849    -4851 
   -4842    -4791    -4658    -4463    -4257    -4072    -3932    -3883 
   -3981    -4247    -4587    -4878    -5097    -5232    -5215    -5013 
   -4684    -4341    -4113    -4014    -3973    -3969    -4063    -4293 
   -4587    -4839    -4992    -5015    -4920    -4770    -4614    -4456 
   -4293    -4149    -4104    -4191    -4332    -4440    -4550    -4695 
   -4814    -4847    -4796    -4681    -4527    -4321    -4058    -3852 
   -3850    -4048    -4337    -4631    -4882    -5046    -5089    -5001 
   -4807    -4550    -4270    -4028    -3905    -3929    -4089    -4336 
   -4579    -4776    -4908    -4949    -4899    -4776    -4583    -4353 
   -4182    -4136    -4191    -4272    -4356    -4496    -4718    -4968 
   -5150    -5204    -5136    -4980    -4743    -4432    -4086    -3805 
   -3705    -3823    -4090    -4428    -4746    -4951    -5038    -5053 
   -4992    -4792    -4461    -4147    -4005    -4064    -4228    -4376 
   -4463    -4544    -4669    -4804    -4892    -4920    -4882    -4783 
   -4635    -4459    -4274    -4126    -4075    -4132    -4264    -4450 
   -4653    -4803    -4861    -4835    -4745    -4590    -4372    -4135 
   -3964    -3921    -4017    -4205    -4396    -4523    -4587    -4635 
   -4695    -4703    -4600    -4438    -4329    -4330    -4401    -4479 
   -4571    -4691    -4791    -4827    -4812    -4774    -4714    -4618 
   -4506    -4421    -4378    -4365    -4376    -4387    -4369    -4330 
   -4315    -4351    -4402    -4426    -4434    -4459    -4498    -4499 
   -4448    -4401    -4414    -4492    -4594    -4658    -4668    -4652 
   -4626    -4583    -4506    -4371    -4207    -4110    -4121    -4212 
   -4363    -4556    -4719    -4766    -4641    -4369    -4087    -3956 
   -4035    -4272    -4568    -4826    -4992    -5039    -4970    -4828 
   -4669    -4507    -4353    -4252    -4248    -4309    -4372    -4405 
   -4407    -4425    -4504    -4612    -4673    -4691    -4729    -4791 
   -4789    -4627    -4345    -4122    -4077    -4195    -4399    -4599 
   -4738    -4780    -4711    -4577    -4414    -4225    -4044    -3942 
   -3975    -4148    -4368    -4541    -4668    -4768    -4799    -4741 
   -4638    -4544    -4506    -4523    -4549    -4590    -4662    -4707 
   -4666    -4584    -4522    -4488    -4452    -4390    -4301    -4197 
   -4135    -4191    -4359    -4506    -4536    -4499    -4465    -4426 
   -4380    -4364    -4411    -4509    -4595    -4631    -4611    -4548 
   -4500    -4567    -4714    -4799    -4774    -4692    -4602    -4554 
   -4554    -4556    -4565    -4563    -4471    -4306    -4191    -4190 
   -4264    -4363    -4484    -4600    -4627    -4554    -4455    -4401 
   -4419    -4473    -4503    -4502    -4464    -4364    -4248    -4198 
   -4252    -4403    -4604    -4792    -4915    -4927    -4818    -4650 
   -4504    -4409    -4351    -4297    -4249    -4283    -4434    -4652 
   -4866    -4976    -4880    -4623    -4321    -4040    -3855    -3813 
   -3883    -4055    -4301    -4526    -4656    -4704    -4738    -4818 
   -4927    -4973    -4882    -4668    -4428    -4247    -4143    -4141 
   -4259    -4444    -4658    -4896    -5097    -5173    -5084    -4834 
   -4472    -4095    -3824    -3732    -3827    -4051    -4302    -4506 
   -4662    -4796    -4908    -4999    -5043    -4974    -4776    -4564 
   -4449    -4405    -4378    -4378    -4436    -4575    -4773    -4947 
   -5022    -4990    -4887    -4737    -4523    -4245    -3979    -3808 
   -3785    -3970    -4349    -4780    -5090    -5202    -5148    -5015 
   -4849    -4649    -4429    -4255    -4156    -4085    -4021    -4021 
   -4108    -4248    -4407    -4573    -4753    -4884    -4860    -4687 
   -4503    -4394    -4341    -4298    -4245    -4232    -4307    -4421 
   -4484    -4504    -4553    -4650    -4735    -4735    -4660    -4600 
   -4598    -4600    -4522    -4326    -4118    -4066    -4186    -4360 
   -4495    -4564    -4608    -4669    -4708    -4687    -4611    -4482 
   -4344    -4295    -4378    -4529    -4646    -4679    -4684    -4746 
   -4860    -4931    -4900    -4776    -4581    -4347    -4139    -4024 
   -3982    -3960    -3967    -4070    -4279    -4495    -4606    -4590 
   -4507    -4441    -4422    -4417    -4440    -4533    -4649    -4715 
   -4738    -4734    -4691    -4595    -4476    -4387    -4365    -4437 
   -4572    -4664    -4642    -4536    -4411    -4348    -4380    -4452 
