Origin Time       2025/01/13 21:19:00
Lat.              31.8
Long.             131.6
Depth. (km)       30
Mag.              6.9
Station Code      WKYH03
Station Lat.      34.1314
Station Long.     135.3244
Station Height(m) 19.9
Record Time       2025/01/13 21:21:17
Sampling Freq(Hz) 100Hz
Duration Time(s)  120
Dir.              3
Scale Factor      3923(gal)/8224838
Max. Acc. (gal)   0.185
Last Correction   2025/01/13 21:21:17
Memo.             
[...]
  -29867   -29851   -29833   -29822   -29806   -29787   -29771   -29756 
  -29744   -29731   -29714   -29704   -29698   -29691   -29686   -29675 
  -29666   -29664   -29660   -29652   -29651   -29650   -29648   -29650 
  -29650   -29648   -29652   -29655   -29662   -29671   -29683   -29695 
  -29709   -29724   -29740   -29756   -29775   -29793   -29810   -29828 
  -29845   -29864   -29880   -29897   -29909   -29922   -29938   -29952 
  -29965   -29978   -29992   -30009   -30026   -30041   -30052   -30067 
  -30082   -30092   -30106   -30119   -30127   -30134   -30138   -30140 
  -30142   -30145   -30142   -30137   -30137   -30134   -30127   -30121 
  -30113   -30100   -30091   -30080   -30065   -30048   -30034   -30022 
  -30009   -29995   -29983   -29971   -29953   -29938   -29928   -29918 
  -29910   -29898   -29886   -29879   -29870   -29859   -29853   -29851 
  -29844   -29841   -29844   -29844   -29847   -29853   -29857   -29863 
  -29872   -29883   -29894   -29902   -29907   -29914   -29921   -29924 
  -29928   -29932   -29934   -29936   -29936   -29936   -29940   -29940 
  -29938   -29938   -29938   -29938   -29940   -29943   -29941   -29938 
  -29936   -29934   -29928   -29921   -29920   -29917   -29911   -29907 
  -29902   -29894   -29884   -29874   -29867   -29857   -29844   -29828 
  -29816   -29802   -29785   -29768   -29751   -29732   -29714   -29700 
  -29685   -29670   -29658   -29647   -29639   -29633   -29629   -29627 
  -29625   -29624   -29627   -29631   -29633   -29640   -29648   -29655 
  -29667   -29679   -29690   -29702   -29712   -29722   -29739   -29754 
  -29766   -29783   -29799   -29814   -29830   -29845   -29860   -29875 
  -29889   -29903   -29914   -29926   -29941   -29952   -29961   -29972 
  -29980   -29986   -29992   -29999   -30003   -30006   -30010   -30011 
  -30014   -30017   -30018   -30017   -30015   -30014   -30011   -30011 
  -30011   -30007   -30005   -29999   -29991   -29982   -29972   -29963 
  -29952   -29943   -29932   -29920   -29909   -29898   -29889   -29878 
  -29866   -29856   -29849   -29843   -29835   -29828   -29824   -29818 
  -29812   -29808   -29802   -29798   -29798   -29798   -29795   -29795 
  -29799   -29799   -29798   -29803   -29806   -29808   -29813   -29818 
  -29818   -29820   -29821   -29820   -29818   -29818   -29816   -29814 
  -29810   -29802   -29795   -29787   -29782   -29776   -29770   -29759 
  -29748   -29740   -29732   -29721   -29710   -29701   -29694   -29685 
  -29675   -29666   -29659   -29655   -29650   -29646   -29643   -29636 
  -29632   -29631   -29628   -29625   -29624   -29624   -29624   -29624 
  -29624   -29624   -29621   -29619   -29619   -29621   -29621   -29621 
  -29621   -29621   -29621   -29623   -29624   -29624   -29623   -29621 
  -29620   -29620   -29623   -29628   -29635   -29641   -29650   -29658 
  -29670   -29685   -29702   -29718   -29737   -29756   -29775   -29790 
  -29806   -29824   -29839   -29851   -29860   -29872   -29886   -29898 
  -29909   -29920   -29933   -29947   -29956   -29967   -29979   -29991 
  -30005   -30017   -30033   -30044   -30053   -30063   -30072   -30079 
  -30086   -30094   -30092   -30092   -30096   -30095   -30094   -30094 
  -30090   -30087   -30083   -30079   -30078   -30072   -30063   -30053 
  -30044   -30036   -30028   -30014   -29998   -29988   -29978   -29964 
  -29952   -29937   -29925   -29916   -29906   -29894   -29882   -29871 
  -29856   -29843   -29833   -29820   -29808   -29801   -29789   -29774 
  -29764   -29755   -29741   -29732   -29725   -29716   -29708   -29702 
  -29694   -29686   -29675   -29662   -29652   -29644   -29640   -29639 
  -29633   -29628   -29625   -29625   -29625   -29624   -29624   -29627 
  -29631   -29639   -29650   -29659   -29666   -29675   -29683   -29693 
  -29706   -29724   -29737   -29754   -29768   -29785   -29803   -29820 
  -29835   -29855   -29875   -29887   -29903   -29922   -29938   -29952 
  -29965   -29979   -29990   -30001   -30018   -30034   -30044   -30052 
  -30064   -30073   -30079   -30083   -30087   -30090   -30094   -30091 
  -30087   -30083   -30073   -30064   -30055   -30042   -30030   -30014 
  -29995   -29975   -29956   -29934   -29911   -29887   -29864   -29841 
  -29818   -29795   -29772   -29751   -29733   -29716   -29698   -29681 
  -29663   -29650   -29636   -29625   -29617   -29612   -29612   -29605 
  -29601   -29606   -29610   -29613   -29624   -29631   -29637   -29648 
  -29659   -29668   -29681   -29697   -29709   -29721   -29735   -29747 
  -29760   -29772   -29781   -29789   -29801   -29812   -29818   -29825 
  -29830   -29833   -29837   -29844   -29847   -29847   -29852   -29855 
  -29851   -29852   -29855   -29855   -29855   -29856   -29862   -29863 
  -29859   -29859   -29859   -29855   -29851   -29844   -29837   -29833 
  -29830   -29828   -29822   -29816   -29809   -29805   -29797   -29793 
  -29791   -29787   -29786   -29786   -29783   -29783   -29786   -29791 
  -29794   -29798   -29805   -29810   -29814   -29821   -29828   -29837 
  -29844   -29849   -29855   -29860   -29868   -29874   -29879   -29883 
  -29886   -29886   -29887   -29889   -29884   -29880   -29879   -29871 
  -29864   -29856   -29845   -29835   -29824   -29810   -29797   -29786 
  -29779   -29771   -29768   -29764   -29758   -29756   -29755   -29751 
  -29754   -29758   -29758   -29760   -29766   -29768   -29771   -29774 
  -29771   -29772   -29772   -29768   -29766   -29763   -29760   -29759 
  -29754   -29747   -29743   -29743   -29741   -29737   -29740   -29743 
  -29741   -29741   -29743   -29741   -29739   -29737   -29733   -29728 
  -29727   -29722   -29717   -29712   -29705   -29695   -29686   -29679 
  -29674   -29667   -29659   -29651   -29644   -29636   -29629   -29625 
  -29623   -29621   -29620   -29619   -29623   -29624   -29628   -29633 
  -29639   -29646   -29655   -29666   -29675   -29683   -29694   -29700 
  -29702   -29709   -29716   -29721   -29727   -29729   -29732   -29736 
  -29740   -29743   -29749   -29756   -29760   -29764   -29770   -29776 
  -29785   -29793   -29799   -29801   -29806   -29814   -29820   -29825 
  -29830   -29837   -29843   -29851   -29859   -29868   -29880   -29893 
  -29906   -29920   -29933   -29948   -29957   -29963   -29972   -29978 
  -29979   -29980   -29983   -29980   -29975   -29970   -29964   -29960 
  -29957   -29949   -29940   -29936   -29930   -29918   -29910   -29903 
  -29895   -29887   -29882   -29875   -29870   -29868   -29866   -29864 
  -29864   -29863   -29862   -29864   -29867   -29870   -29875   -29880 
  -29883   -29884   -29889   -29894   -29899   -29906   -29913   -29913 
  -29917   -29918   -29920   -29926   -29932   -29930   -29928   -29926 
  -29925   -29922   -29918   -29910   -29903   -29897   -29889   -29880 
  -29871   -29867   -29862   -29857   -29856   -29855   -29852   -29852 
  -29853   -29852   -29851   -29851   -29847   -29844   -29845   -29841 
  -29841   -29844   -29845   -29848   -29849   -29852   -29855   -29853 
  -29852   -29849   -29847   -29844   -29835   -29825   -29818   -29809 
  -29799   -29789   -29775   -29762   -29747   -29728   -29713   -29702 
  -29686   -29670   -29655   -29637   -29619   -29601   -29585   -29567 
  -29550   -29536   -29519   -29502   -29488   -29473   -29463   -29458 
  -29452   -29448   -29450   -29452   -29457   -29465   -29477   -29488 
  -29500   -29511   -29521   -29536   -29550   -29560   -29573   -29589 
  -29602   -29613   -29625   -29639   -29652   -29664   -29677   -29693 
  -29712   -29729   -29747   -29763   -29781   -29798   -29816   -29837 
  -29857   -29875   -29894   -29911   -29929   -29948   -29964   -29979 
  -29997   -30010   -30021   -30032   -30037   -30045   -30052   -30053 
  -30056   -30055   -30049   -30046   -30042   -30036   -30028   -30021 
  -30011   -30005   -29998   -29988   -29980   -29972   -29965   -29957 
  -29951   -29945   -29941   -29936   -29932   -29928   -29924   -29920 
  -29922   -29921   -29917   -29916   -29916   -29914   -29914   -29913 
  -29913   -29910   -29907   -29905   -29899   -29895   -29889   -29880 
  -29874   -29868   -29864   -29855   -29845   -29841   -29835   -29830 
  -29826   -29824   -29822   -29822   -29822   -29824   -29821   -29821 
  -29824   -29824   -29821   -29822   -29820   -29817   -29816   -29812 
  -29810   -29809   -29803   -29801   -29801   -29798   -29797   -29797 
  -29798   -29801   -29805   -29808   -29810   -29816   -29820   -29822 
  -29826   -29828   -29830   -29833   -29833   -29836   -29836   -29829 
  -29824   -29821   -29818   -29817   -29816   -29813   -29812   -29810 
  -29813   -29816   -29814   -29820   -29830   -29837   -29843   -29849 
  -29857   -29866   -29871   -29879   -29890   -29898   -29906   -29920 
  -29930   -29938   -29949   -29960   -29970   -29979   -29986   -29997 
  -30011   -30018   -30022   -30030   -30037   -30037   -30036   -30037 
  -30036   -30029   -30021   -30014   -30005   -29994   -29983   -29965 
  -29948   -29933   -29913   -29889   -29867   -29848   -29828   -29812 
  -29797   -29778   -29756   -29736   -29720   -29706   -29693   -29682 
  -29678   -29668   -29656   -29648   -29643   -29639   -29633   -29628 
  -29625   -29624   -29623   -29620   -29617   -29619   -29620   -29624 
  -29625   -29628   -29629   -29632   -29635   -29639   -29648   -29654 
  -29659   -29668   -29677   -29683   -29695   -29708   -29716   -29725 
  -29740   -29752   -29762   -29770   -29778   -29783   -29791   -29797 
  -29794   -29795   -29797   -29791   -29786   -29783   -29779   -29772 
  -29763   -29758   -29751   -29743   -29736   -29731   -29727   -29720 
  -29714   -29708   -29700   -29694   -29687   -29681   -29673   -29666 
  -29664   -29662   -29655   -29656   -29663   -29663   -29662   -29666 
  -29670   -29673   -29678   -29681   -29682   -29689   -29695   -29700 
  -29704   -29706   -29709   -29712   -29716   -29717   -29717   -29717 
  -29714   -29713   -29710   -29706   -29704   -29698   -29693   -29686 
  -29678   -29674   -29673   -29668   -29670   -29673   -29673   -29678 
  -29687   -29697   -29710   -29722   -29733   -29749   -29766   -29783 
  -29799   -29814   -29829   -29840   -29851   -29862   -29871   -29878 
  -29884   -29890   -29891   -29891   -29894   -29897   -29901   -29907 
  -29909   -29910   -29916   -29916   -29914   -29921   -29928   -29929 
  -29932   -29938   -29944   -29947   -29948   -29952   -29956   -29959 
  -29963   -29967   -29968   -29972   -29976   -29975   -29976   -29978 
  -29974   -29975   -29976   -29975   -29976   -29982   -29987   -29990 
  -29994   -29998   -30003   -30007   -30007   -30010   -30017   -30015 
  -30013   -30013   -30011   -30005   -29994   -29987   -29979   -29967 
  -29953   -29943   -29930   -29918   -29902   -29889   -29879   -29866 
  -29851   -29841   -29830   -29821   -29809   -29794   -29781   -29770 
  -29756   -29743   -29728   -29713   -29701   -29690   -29678   -29664 
  -29658   -29650   -29637   -29628   -29624   -29617   -29608   -29601 
  -29596   -29589   -29585   -29581   -29577   -29575   -29575   -29575 
  -29577   -29581   -29587   -29592   -29596   -29602   -29610   -29617 
  -29624   -29636   -29648   -29660   -29675   -29690   -29705   -29717 
  -29731   -29744   -29758   -29774   -29787   -29801   -29816   -29829 
  -29843   -29855   -29868   -29883   -29898   -29913   -29924   -29937 
  -29951   -29960   -29971   -29978   -29988   -29998   -30003   -30007 
  -30011   -30015   -30018   -30019   -30019   -30017   -30013   -30010 
  -30002   -29992   -29984   -29972   -29957   -29944   -29925   -29905 
  -29890   -29870   -29851   -29832   -29809   -29790   -29774   -29756 
  -29739   -29720   -29702   -29686   -29668   -29648   -29633   -29621 
  -29606   -29593   -29579   -29565   -29554   -29544   -29538   -29538 
  -29539   -29538   -29538   -29542   -29548   -29556   -29563   -29570 
  -29581   -29592   -29605   -29621   -29633   -29647   -29663   -29681 
  -29697   -29708   -29724   -29744   -29762   -29779   -29795   -29814 
  -29836   -29853   -29871   -29886   -29901   -29916   -29932   -29945 
  -29957   -29968   -29972   -29979   -29986   -29983   -29978   -29976 
  -29971   -29963   -29957   -29949   -29940   -29930   -29920   -29909 
  -29899   -29889   -29878   -29870   -29862   -29853   -29843   -29833 
  -29824   -29812   -29802   -29793   -29782   -29771   -29763   -29756 
  -29749   -29740   -29731   -29724   -29717   -29710   -29708   -29704 
  -29701   -29695   -29691   -29690   -29685   -29679   -29677   -29677 
  -29677   -29675   -29675   -29675   -29677   -29679   -29683   -29689 
  -29693   -29694   -29702   -29714   -29721   -29729   -29741   -29749 
  -29755   -29763   -29767   -29774   -29782   -29787   -29791   -29797 
  -29802   -29808   -29810   -29818   -29824   -29828   -29837   -29848 
  -29857   -29867   -29880   -29894   -29906   -29917   -29932   -29947 
  -29960   -29972   -29986   -30001   -30015   -30028   -30042   -30057 
  -30071   -30084   -30098   -30110   -30122   -30134   -30145   -30154 
  -30161   -30171   -30175   -30176   -30179   -30181   -30181   -30181 
  -30180   -30177   -30175   -30172   -30167   -30159   -30149   -30144 
  -30136   -30123   -30113   -30100   -30083   -30069   -30057   -30038 
  -30018   -30001   -29983   -29960   -29936   -29913   -29890   -29866 
  -29840   -29814   -29791   -29768   -29744   -29724   -29706   -29686 
  -29666   -29646   -29624   -29608   -29593   -29575   -29558   -29544 
  -29529   -29515   -29500   -29485   -29477   -29467   -29455   -29447 
  -29444   -29440   -29435   -29435   -29439   -29440   -29446   -29459 
  -29470   -29481   -29493   -29508   -29524   -29542   -29558   -29574 
  -29589   -29604   -29620   -29636   -29651   -29670   -29685   -29700 
  -29716   -29729   -29741   -29755   -29768   -29779   -29790   -29802 
  -29809   -29814   -29822   -29826   -29829   -29836   -29840   -29841 
  -29841   -29837   -29832   -29830   -29830   -29825   -29818   -29812 
  -29808   -29802   -29797   -29793   -29789   -29786   -29787   -29787 
  -29785   -29786   -29791   -29795   -29801   -29812   -29821   -29828 
  -29836   -29847   -29856   -29867   -29879   -29890   -29901   -29909 
  -29916   -29928   -29937   -29944   -29952   -29959   -29965   -29970 
  -29974   -29980   -29979   -29978   -29978   -29975   -29972   -29964 
  -29957   -29953   -29949   -29937   -29925   -29918   -29909   -29898 
  -29889   -29875   -29863   -29852   -29836   -29825   -29820   -29810 
  -29798   -29790   -29783   -29772   -29760   -29751   -29743   -29735 
  -29729   -29724   -29717   -29709   -29708   -29702   -29693   -29689 
  -29689   -29685   -29683   -29681   -29677   -29677   -29677   -29678 
  -29681   -29681   -29682   -29687   -29690   -29691   -29694   -29698 
  -29705   -29708   -29714   -29722   -29729   -29736   -29747   -29758 
  -29764   -29771   -29782   -29789   -29795   -29806   -29813   -29814 
  -29817   -29824   -29829   -29830   -29830   -29833   -29833   -29830 
  -29833   -29828   -29820   -29818   -29810   -29799   -29794   -29786 
  -29772   -29763   -29758   -29751   -29743   -29732   -29724   -29720 
  -29714   -29712   -29710   -29708   -29709   -29713   -29717   -29722 
  -29731   -29739   -29745   -29754   -29760   -29767   -29778   -29787 
  -29795   -29802   -29809   -29816   -29821   -29830   -29840   -29845 
  -29852   -29859   -29864   -29870   -29876   -29879   -29882   -29889 
  -29895   -29899   -29903   -29910   -29913   -29914   -29917   -29920 
  -29922   -29925   -29925   -29924   -29925   -29922   -29920   -29918 
  -29913   -29911   -29909   -29902   -29895   -29893   -29893   -29890 
  -29886   -29886   -29883   -29879   -29876   -29874   -29868   -29863 
  -29862   -29857   -29853   -29851   -29847   -29843   -29840   -29840 
  -29840   -29837   -29835   -29835   -29833   -29833   -29832   -29829 
  -29829   -29830   -29826   -29825   -29825   -29822   -29822   -29824 
  -29821   -29816   -29814   -29817   -29816   -29812   -29808   -29802 
  -29797   -29789   -29779   -29770   -29763   -29755   -29743   -29731 
  -29721   -29709   -29695   -29685   -29675   -29667   -29659   -29652 
  -29644   -29639   -29639   -29639   -29637   -29637   -29637   -29640 
  -29641   -29643   -29648   -29656   -29660   -29666   -29675   -29683 
  -29695   -29709   -29720   -29732   -29747   -29762   -29776   -29791 
  -29808   -29824   -29837   -29851   -29866   -29879   -29891   -29909 
  -29922   -29934   -29951   -29963   -29972   -29984   -29995   -30005 
  -30014   -30024   -30026   -30026   -30032   -30033   -30030   -30029 
  -30028   -30021   -30014   -30010   -30001   -29995   -29991   -29982 
  -29975   -29968   -29959   -29949   -29940   -29932   -29925   -29916 
  -29906   -29894   -29883   -29876   -29867   -29855   -29843   -29833 
  -29822   -29808   -29794   -29783   -29771   -29755   -29739   -29727 
  -29713   -29697   -29683   -29673   -29660   -29650   -29643   -29632 
  -29628   -29627   -29623   -29621   -29621   -29624   -29628   -29632 
  -29636   -29640   -29643   -29651   -29656   -29660   -29670   -29679 
  -29683   -29691   -29704   -29716   -29728   -29743   -29755   -29766 
  -29782   -29797   -29808   -29822   -29837   -29849   -29864   -29878 
  -29887   -29901   -29911   -29922   -29930   -29938   -29944   -29951 
  -29957   -29960   -29960   -29960   -29963   -29967   -29965   -29965 
  -29968   -29968   -29970   -29972   -29972   -29972   -29974   -29978 
  -29980   -29983   -29987   -29986   -29988   -29990   -29990   -29987 
  -29986   -29982   -29978   -29978   -29978   -29970   -29960   -29956 
  -29949   -29940   -29933   -29929   -29920   -29910   -29905   -29895 
  -29889   -29884   -29878   -29871   -29866   -29862   -29859   -29856 
  -29849   -29847   -29843   -29836   -29828   -29824   -29821   -29818 
  -29814   -29812   -29809   -29805   -29802   -29798   -29795   -29793 
  -29793   -29793   -29790   -29787   -29787   -29786   -29785   -29782 
  -29779   -29781   -29779   -29775   -29772   -29771   -29768   -29766 
  -29766   -29764   -29762   -29763   -29763   -29762   -29763   -29766 
  -29770   -29770   -29770   -29775   -29781   -29783   -29790   -29797 
  -29801   -29808   -29817   -29824   -29828   -29835   -29844   -29853 
  -29860   -29867   -29870   -29875   -29880   -29883   -29886   -29886 
  -29883   -29880   -29879   -29878   -29875   -29870   -29863   -29857 
  -29853   -29847   -29839   -29832   -29828   -29825   -29821   -29820 
  -29818   -29814   -29812   -29814   -29816   -29812   -29812   -29814 
  -29814   -29816   -29818   -29822   -29828   -29830   -29832   -29836 
  -29840   -29843   -29847   -29852   -29857   -29864   -29871   -29875 
  -29882   -29884   -29889   -29898   -29903   -29907   -29913   -29920 
  -29924   -29928   -29937   -29943   -29948   -29957   -29964   -29968 
  -29974   -29979   -29983   -29988   -29994   -29998   -30001   -30005 
  -30006   -30007   -30013   -30014   -30015   -30018   -30021   -30022 
  -30025   -30026   -30026   -30026   -30026   -30032   -30033   -30034 
  -30040   -30041   -30044   -30049   -30053   -30057   -30061   -30067 
  -30072   -30073   -30079   -30087   -30091   -30092   -30095   -30099 
  -30100   -30103   -30105   -30105   -30105   -30106   -30107   -30105 
  -30103   -30100   -30096   -30094   -30092   -30086   -30076   -30069 
  -30065   -30057   -30045   -30036   -30026   -30015   -30003   -29992 
