Origin Time       2025/01/13 21:19:00
Lat.              31.8
Long.             131.6
Depth. (km)       30
Mag.              6.9
Station Code      WKYH03
Station Lat.      34.1314
Station Long.     135.3244
Station Height(m) 120
Record Time       2025/01/13 21:21:17
Sampling Freq(Hz) 100Hz
Duration Time(s)  120
Dir.              6
Scale Factor      7845(gal)/8223790
Max. Acc. (gal)   0.179
Last Correction   2025/01/13 21:21:17
Memo.             
[...]
   12765    12761    12761    12757    12757    12764    12766    12768 
   12768    12765    12766    12766    12762    12761    12760    12757 
   12760    12756    12750    12750    12746    12745    12746    12739 
   12737    12741    12739    12738    12737    12733    12733    12730 
   12726    12725    12719    12715    12719    12718    12721    12731 
   12730    12725    12729    12726    12722    12725    12726    12729 
   12734    12738    12741    12742    12744    12745    12744    12742 
   12744    12741    12741    12745    12742    12739    12742    12737 
   12734    12737    12737    12737    12737    12738    12739    12744 
   12750    12756    12753    12753    12758    12756    12750    12750 
   12746    12744    12741    12731    12726    12727    12729    12731 
   12734    12733    12735    12735    12730    12731    12733    12730 
   12734    12741    12744    12749    12754    12758    12764    12771 
   12780    12787    12791    12798    12799    12798    12803    12803 
   12803    12808    12810    12810    12814    12815    12814    12818 
   12816    12816    12815    12808    12810    12814    12814    12822 
   12830    12830    12833    12833    12831    12830    12825    12823 
   12829    12830    12830    12833    12830    12831    12838    12839 
   12838    12839    12834    12833    12833    12829    12830    12831 
   12831    12839    12842    12842    12847    12849    12849    12850 
   12849    12846    12849    12850    12849    12850    12850    12854 
   12857    12853    12854    12853    12846    12842    12835    12825 
   12822    12815    12807    12803    12796    12793    12789    12776 
   12766    12760    12748    12738    12729    12717    12707    12698 
   12688    12685    12684    12680    12679    12677    12675    12677 
   12680    12683    12692    12696    12698    12703    12702    12706 
   12717    12721    12727    12739    12744    12749    12760    12765 
   12773    12780    12788    12799    12806    12816    12829    12833 
   12841    12849    12849    12854    12860    12854    12860    12866 
   12865    12868    12872    12870    12873    12873    12869    12870 
   12868    12858    12853    12845    12841    12838    12831    12830 
   12831    12825    12820    12818    12808    12810    12808    12799 
   12796    12795    12789    12787    12780    12776    12772    12765 
   12764    12761    12756    12754    12753    12749    12748    12742 
   12739    12744    12744    12742    12748    12754    12756    12760 
   12766    12772    12777    12781    12789    12798    12800    12802 
   12802    12806    12816    12819    12823    12831    12831    12830 
   12833    12829    12823    12825    12819    12810    12803    12793 
   12785    12779    12769    12766    12768    12762    12764    12765 
   12758    12756    12754    12748    12749    12752    12750    12753 
   12753    12754    12753    12750    12753    12758    12758    12761 
   12764    12764    12769    12772    12769    12773    12779    12777 
   12780    12787    12788    12789    12795    12795    12796    12799 
   12803    12806    12808    12814    12820    12820    12826    12833 
   12833    12835    12837    12833    12834    12834    12834    12837 
   12834    12833    12838    12839    12839    12841    12837    12835 
   12837    12831    12830    12833    12826    12819    12820    12815 
   12812    12810    12808    12810    12804    12800    12800    12792 
   12784    12785    12781    12776    12775    12768    12760    12757 
   12753    12750    12746    12742    12745    12744    12741    12741 
   12731    12727    12731    12729    12731    12738    12735    12735 
   12738    12735    12733    12730    12726    12729    12729    12725 
   12722    12719    12715    12712    12710    12707    12704    12706 
   12712    12715    12717    12723    12730    12735    12741    12744 
   12741    12745    12750    12752    12757    12761    12764    12769 
   12772    12779    12792    12796    12800    12811    12816    12819 
   12827    12830    12837    12847    12854    12864    12872    12869 
   12873    12877    12876    12876    12873    12870    12870    12869 
   12868    12865    12865    12865    12862    12861    12862    12860 
   12856    12858    12854    12849    12849    12845    12839    12837 
   12831    12825    12823    12815    12811    12808    12799    12795 
   12798    12792    12788    12791    12785    12783    12785    12780 
   12777    12780    12777    12777    12781    12781    12781    12781 
   12781    12781    12775    12773    12779    12777    12776    12776 
   12771    12772    12773    12769    12771    12771    12765    12765 
   12764    12760    12760    12758    12757    12761    12756    12750 
   12752    12752    12750    12752    12752    12752    12749    12746 
   12744    12739    12734    12731    12726    12723    12723    12718 
   12712    12708    12702    12695    12694    12692    12694    12692 
   12685    12685    12684    12680    12679    12675    12669    12669 
   12668    12668    12673    12672    12671    12676    12677    12680 
   12685    12685    12690    12698    12699    12702    12708    12710 
   12711    12712    12714    12717    12718    12718    12725    12730 
   12733    12741    12745    12742    12746    12752    12753    12758 
   12761    12765    12777    12785    12792    12799    12798    12800 
   12806    12806    12810    12812    12818    12825    12826    12830 
   12837    12834    12834    12837    12833    12830    12829    12823 
   12819    12818    12816    12818    12816    12814    12814    12808 
   12806    12808    12806    12804    12808    12810    12811    12815 
   12815    12818    12820    12818    12823    12827    12826    12830 
   12834    12834    12838    12835    12826    12829    12831    12827 
   12829    12827    12830    12835    12833    12830    12831    12826 
   12820    12819    12811    12807    12802    12791    12783    12773 
   12760    12752    12744    12734    12730    12723    12717    12712 
   12706    12704    12706    12703    12706    12706    12703    12707 
   12707    12704    12711    12718    12725    12729    12731    12738 
   12750    12757    12765    12777    12787    12795    12804    12810 
   12815    12823    12826    12834    12841    12843    12849    12853 
   12853    12858    12861    12858    12862    12866    12869    12872 
   12868    12866    12868    12865    12864    12862    12857    12853 
   12846    12835    12831    12822    12810    12804    12798    12787 
   12776    12765    12760    12753    12745    12739    12737    12727 
   12721    12714    12702    12695    12688    12673    12668    12663 
   12652    12648    12641    12633    12631    12623    12617    12615 
   12611    12611    12613    12609    12613    12617    12613    12614 
   12619    12619    12627    12634    12638    12649    12660    12669 
   12679    12685    12692    12700    12704    12714    12725    12729 
   12737    12746    12750    12758    12765    12768    12776    12781 
   12781    12783    12785    12787    12787    12785    12781    12779 
   12780    12776    12766    12761    12758    12753    12745    12742 
   12741    12735    12735    12734    12731    12735    12738    12733 
   12730    12727    12726    12726    12723    12723    12726    12723 
   12719    12721    12721    12721    12727    12731    12731    12734 
   12738    12742    12745    12749    12758    12765    12771    12780 
   12787    12793    12800    12807    12818    12831    12838    12850 
   12861    12866    12876    12883    12885    12889    12889    12889 
   12892    12888    12887    12888    12884    12880    12877    12870 
   12869    12865    12853    12847    12843    12831    12823    12815 
   12806    12799    12793    12788    12783    12775    12766    12761 
   12752    12745    12741    12730    12725    12725    12719    12714 
   12714    12710    12707    12707    12703    12699    12696    12694 
   12691    12688    12687    12688    12685    12684    12685    12683 
   12680    12683    12677    12676    12683    12684    12688    12695 
   12700    12706    12711    12714    12721    12725    12729    12734 
   12735    12741    12750    12753    12758    12768    12772    12779 
   12787    12788    12791    12791    12789    12795    12796    12793 
   12800    12803    12803    12806    12807    12807    12807    12802 
   12800    12800    12796    12798    12802    12802    12806    12808 
   12806    12810    12812    12811    12814    12816    12818    12820 
   12818    12820    12826    12825    12827    12837    12839    12842 
   12850    12852    12856    12861    12861    12864    12869    12870 
   12873    12876    12874    12879    12879    12876    12873    12870 
   12872    12876    12872    12873    12877    12876    12877    12876 
   12872    12874    12877    12873    12870    12869    12869    12874 
   12874    12873    12879    12879    12876    12876    12874    12872 
   12866    12858    12854    12846    12838    12837    12827    12816 
   12812    12804    12792    12789    12783    12772    12765    12757 
   12750    12749    12745    12737    12727    12717    12710    12704 
   12691    12683    12679    12668    12661    12656    12649    12645 
   12641    12637    12638    12637    12634    12636    12634    12634 
   12638    12640    12642    12648    12648    12649    12653    12658 
   12664    12668    12672    12680    12690    12699    12712    12717 
   12721    12733    12739    12742    12749    12753    12757    12766 
   12771    12776    12779    12781    12789    12798    12806    12815 
   12819    12820    12826    12827    12825    12829    12833    12839 
   12843    12842    12846    12852    12850    12853    12857    12860 
   12868    12872    12874    12883    12883    12880    12880    12877 
   12876    12880    12876    12872    12869    12865    12861    12854 
   12847    12843    12839    12833    12826    12816    12804    12798 
   12791    12783    12779    12769    12758    12752    12744    12734 
   12727    12719    12715    12707    12698    12695    12688    12676 
   12669    12663    12654    12654    12653    12646    12648    12648 
   12645    12648    12649    12654    12663    12665    12671    12677 
   12681    12690    12699    12707    12722    12738    12748    12762 
   12780    12789    12803    12819    12829    12837    12841    12846 
   12854    12860    12866    12874    12881    12887    12892    12896 
   12901    12900    12896    12896    12892    12885    12884    12880 
   12873    12870    12866    12861    12854    12843    12835    12829 
   12818    12812    12806    12793    12789    12785    12777    12775 
   12769    12765    12766    12761    12754    12757    12753    12753 
   12758    12756    12754    12758    12757    12757    12758    12756 
   12762    12766    12762    12769    12775    12775    12780    12784 
   12784    12791    12793    12793    12799    12799    12800    12804 
   12804    12807    12808    12806    12806    12807    12804    12804 
   12802    12795    12792    12789    12788    12785    12777    12769 
   12765    12760    12753    12749    12745    12742    12742    12739 
   12737    12739    12741    12739    12741    12744    12744    12745 
   12752    12757    12760    12768    12780    12787    12796    12808 
   12814    12822    12831    12829    12829    12837    12837    12837 
   12835    12831    12831    12830    12829    12829    12825    12819 
   12818    12812    12810    12810    12804    12802    12803    12800 
   12799    12799    12796    12798    12800    12799    12798    12796 
   12795    12796    12793    12792    12792    12788    12788    12796 
   12799    12800    12808    12812    12818    12826    12830    12835 
   12843    12849    12852    12853    12858    12865    12868    12870 
   12879    12880    12883    12888    12892    12892    12891    12889 
   12888    12885    12883    12881    12880    12879    12877    12874 
   12872    12870    12866    12862    12860    12856    12852    12853 
   12852    12847    12849    12846    12839    12837    12831    12827 
   12823    12818    12811    12807    12803    12800    12799    12792 
   12792    12792    12785    12779    12776    12771    12762    12757 
   12749    12738    12727    12722    12717    12710    12708    12708 
   12704    12702    12704    12707    12710    12710    12712    12721 
   12722    12721    12725    12727    12730    12735    12738    12742 
   12748    12748    12749    12753    12756    12762    12766    12768 
   12771    12766    12761    12761    12758    12757    12757    12752 
   12752    12752    12744    12745    12745    12739    12739    12739 
   12733    12733    12731    12727    12727    12725    12725    12726 
   12725    12727    12731    12731    12735    12742    12744    12750 
   12760    12761    12765    12771    12771    12771    12769    12766 
   12768    12766    12766    12769    12771    12773    12776    12776 
   12780    12784    12780    12777    12780    12780    12781    12780 
   12777    12780    12780    12779    12781    12780    12780    12789 
   12792    12796    12803    12803    12807    12815    12818    12827 
   12839    12845    12853    12864    12870    12880    12889    12893 
   12901    12912    12920    12931    12938    12945    12953    12958 
   12962    12969    12968    12968    12970    12966    12960    12957 
   12947    12939    12931    12922    12914    12906    12897    12892 
   12883    12873    12872    12865    12858    12857    12849    12839 
   12835    12825    12814    12806    12792    12783    12772    12758 
   12753    12748    12737    12727    12717    12707    12700    12690 
   12680    12676    12665    12661    12660    12652    12648    12650 
   12649    12650    12652    12654    12660    12665    12669    12677 
   12685    12692    12702    12708    12712    12717    12718    12721 
   12723    12729    12737    12742    12742    12746    12749    12749 
   12752    12752    12750    12754    12752    12748    12750    12749 
   12745    12750    12750    12748    12753    12753    12752    12757 
   12756    12757    12764    12766    12772    12773    12773    12781 
   12784    12781    12785    12788    12787    12789    12791    12791 
   12791    12791    12791    12791    12791    12795    12796    12792 
   12795    12799    12799    12803    12804    12804    12808    12807 
   12808    12810    12802    12796    12796    12791    12789    12793 
   12787    12781    12785    12781    12780    12780    12776    12776 
   12779    12779    12781    12781    12780    12781    12781    12780 
   12779    12772    12772    12771    12766    12766    12764    12758 
   12758    12754    12749    12749    12746    12742    12741    12734 
   12727    12726    12719    12712    12708    12703    12698    12691 
   12684    12681    12677    12672    12675    12672    12669    12673 
   12675    12671    12679    12681    12683    12695    12702    12707 
   12718    12726    12737    12748    12753    12765    12781    12789 
   12799    12811    12816    12825    12834    12839    12847    12854 
   12857    12864    12869    12873    12879    12879    12881    12883 
   12883    12885    12887    12885    12885    12881    12880    12880 
   12876    12873    12877    12876    12870    12869    12866    12862 
   12858    12854    12849    12845    12839    12835    12831    12827 
   12825    12820    12814    12812    12807    12796    12795    12796 
   12795    12796    12792    12795    12804    12804    12806    12811 
   12814    12816    12816    12816    12820    12820    12819    12827 
   12830    12827    12831    12834    12835    12842    12843    12843 
   12847    12846    12849    12853    12849    12849    12852    12850 
   12850    12850    12847    12847    12845    12843    12842    12839 
   12842    12845    12841    12845    12849    12845    12842    12842 
   12843    12846    12846    12847    12853    12857    12856    12858 
   12862    12866    12870    12872    12870    12869    12868    12864 
   12860    12854    12849    12843    12835    12831    12826    12814 
   12806    12799    12788    12784    12781    12772    12766    12764 
   12757    12757    12754    12752    12754    12752    12745    12748 
   12745    12739    12739    12735    12734    12733    12725    12723 
   12725    12721    12719    12718    12714    12715    12718    12714 
   12714    12714    12712    12711    12711    12711    12711    12708 
   12707    12710    12707    12707    12710    12706    12702    12702 
   12700    12698    12694    12694    12691    12685    12683    12679 
   12673    12676    12679    12677    12680    12685    12688    12695 
   12702    12706    12715    12722    12727    12735    12742    12750 
   12760    12762    12765    12775    12777    12783    12792    12796 
   12803    12814    12822    12830    12839    12845    12853    12861 
   12868    12873    12876    12881    12888    12891    12893    12897 
   12899    12903    12907    12908    12914    12916    12915    12918 
   12915    12910    12910    12908    12899    12895    12893    12885 
   12880    12877    12870    12864    12857    12850    12845    12838 
   12829    12822    12815    12807    12799    12787    12783    12781 
   12772    12768    12762    12753    12749    12742    12733    12729 
   12721    12711    12706    12698    12692    12692    12690    12687 
   12685    12685    12687    12687    12685    12685    12683    12683 
   12685    12687    12692    12700    12704    12714    12725    12733 
   12744    12754    12761    12772    12784    12791    12803    12815 
   12823    12837    12849    12853    12862    12874    12884    12892 
   12900    12907    12911    12915    12924    12930    12930    12935 
   12938    12935    12935    12933    12927    12926    12922    12915 
   12912    12906    12895    12888    12879    12868    12862    12853 
   12842    12834    12825    12815    12806    12792    12781    12776 
   12769    12762    12756    12748    12742    12734    12725    12718 
   12712    12707    12706    12703    12703    12707    12707    12708 
   12711    12714    12719    12725    12727    12734    12739    12744 
   12752    12753    12754    12764    12768    12769    12775    12777 
   12781    12788    12787    12792    12802    12803    12807    12815 
   12814    12816    12820    12823    12827    12827    12826    12833 
   12834    12831    12834    12834    12838    12841    12837    12838 
   12842    12839    12837    12838    12838    12837    12834    12833 
   12834    12830    12826    12826    12820    12815    12815    12808 
   12802    12802    12800    12796    12798    12796    12792    12792 
   12792    12789    12785    12783    12785    12783    12777    12776 
   12769    12768    12768    12761    12754    12753    12746    12739 
   12734    12727    12722    12717    12706    12699    12695    12687 
   12680    12675    12668    12663    12658    12653    12648    12641 
   12636    12633    12626    12625    12625    12618    12618    12619 
   12615    12615    12617    12618    12623    12622    12619    12626 
