Origin Time       2025/01/13 21:19:00
Lat.              31.8
Long.             131.6
Depth. (km)       30
Mag.              6.9
Station Code      WKYH10
Station Lat.      33.8248
Station Long.     135.2172
Station Height(m) -60
Record Time       2025/01/13 21:21:08
Sampling Freq(Hz) 100Hz
Duration Time(s)  120
Dir.              1
Scale Factor      2942(gal)/8224139
Max. Acc. (gal)   0.269
Last Correction   2025/01/13 21:21:08
Memo.             
[...]
  -18733   -18725   -18711   -18698   -18690   -18682   -18677   -18673 
  -18673   -18674   -18673   -18670   -18662   -18658   -18661   -18658 
  -18650   -18647   -18650   -18650   -18644   -18642   -18642   -18640 
  -18640   -18636   -18634   -18634   -18632   -18628   -18628   -18624 
  -18619   -18616   -18612   -18608   -18607   -18600   -18588   -18577 
  -18563   -18547   -18531   -18522   -18517   -18516   -18519   -18519 
  -18512   -18507   -18500   -18488   -18476   -18473   -18481   -18490 
  -18496   -18501   -18509   -18512   -18512   -18513   -18509   -18503 
  -18499   -18499   -18497   -18497   -18496   -18493   -18489   -18486 
  -18478   -18468   -18465   -18466   -18458   -18450   -18450   -18449 
  -18445   -18439   -18430   -18422   -18416   -18412   -18408   -18397 
  -18387   -18377   -18368   -18361   -18358   -18355   -18353   -18357 
  -18361   -18358   -18351   -18350   -18357   -18365   -18372   -18378 
  -18385   -18393   -18404   -18409   -18411   -18411   -18405   -18403 
  -18404   -18404   -18405   -18408   -18407   -18403   -18404   -18412 
  -18416   -18408   -18401   -18399   -18395   -18395   -18404   -18405 
  -18400   -18396   -18391   -18385   -18381   -18377   -18377   -18384 
  -18388   -18397   -18411   -18420   -18435   -18451   -18462   -18477 
  -18493   -18505   -18523   -18544   -18570   -18593   -18612   -18630 
  -18640   -18650   -18658   -18667   -18675   -18677   -18678   -18681 
  -18685   -18686   -18689   -18698   -18712   -18720   -18724   -18728 
  -18729   -18735   -18742   -18750   -18756   -18758   -18751   -18744 
  -18738   -18729   -18720   -18709   -18689   -18666   -18646   -18625 
  -18607   -18594   -18584   -18574   -18563   -18559   -18557   -18551 
  -18546   -18535   -18523   -18526   -18532   -18535   -18539   -18544 
  -18551   -18558   -18558   -18553   -18549   -18546   -18543   -18542 
  -18538   -18528   -18516   -18505   -18496   -18492   -18493   -18492 
  -18485   -18485   -18485   -18485   -18488   -18486   -18484   -18489 
  -18489   -18485   -18492   -18503   -18507   -18513   -18527   -18546 
  -18569   -18589   -18593   -18588   -18590   -18598   -18609   -18621 
  -18632   -18639   -18647   -18657   -18669   -18685   -18701   -18715 
  -18728   -18738   -18746   -18758   -18767   -18774   -18779   -18786 
  -18792   -18794   -18798   -18806   -18812   -18814   -18817   -18821 
  -18824   -18827   -18831   -18833   -18833   -18832   -18835   -18836 
  -18833   -18836   -18840   -18844   -18850   -18854   -18850   -18844 
  -18844   -18846   -18840   -18835   -18837   -18840   -18837   -18829 
  -18813   -18797   -18782   -18767   -18754   -18739   -18725   -18712 
  -18697   -18682   -18670   -18658   -18643   -18628   -18612   -18594 
  -18581   -18567   -18553   -18539   -18532   -18531   -18527   -18517 
  -18511   -18508   -18508   -18507   -18509   -18515   -18523   -18538 
  -18562   -18581   -18592   -18605   -18623   -18636   -18654   -18675 
  -18696   -18713   -18728   -18744   -18762   -18778   -18797   -18814 
  -18835   -18858   -18875   -18889   -18898   -18910   -18921   -18922 
  -18917   -18910   -18905   -18898   -18893   -18889   -18883   -18874 
  -18867   -18862   -18856   -18848   -18836   -18816   -18801   -18786 
  -18769   -18756   -18746   -18729   -18715   -18698   -18675   -18655 
  -18640   -18625   -18611   -18596   -18580   -18561   -18543   -18527 
  -18509   -18493   -18478   -18468   -18461   -18455   -18446   -18431 
  -18418   -18407   -18396   -18384   -18369   -18353   -18342   -18337 
  -18326   -18312   -18300   -18285   -18270   -18264   -18258   -18252 
  -18246   -18243   -18243   -18239   -18231   -18225   -18223   -18223 
  -18231   -18247   -18260   -18270   -18287   -18300   -18306   -18311 
  -18323   -18331   -18337   -18355   -18378   -18395   -18414   -18441 
  -18469   -18500   -18531   -18558   -18578   -18600   -18627   -18652 
  -18681   -18716   -18752   -18790   -18828   -18860   -18887   -18913 
  -18935   -18956   -18978   -18998   -19014   -19032   -19051   -19070 
  -19086   -19094   -19099   -19102   -19103   -19105   -19103   -19101 
  -19099   -19093   -19086   -19080   -19074   -19064   -19056   -19048 
  -19037   -19026   -19018   -19009   -18998   -18987   -18972   -18954 
  -18940   -18928   -18913   -18894   -18873   -18854   -18835   -18813 
  -18797   -18779   -18755   -18725   -18705   -18689   -18667   -18640 
  -18617   -18596   -18571   -18554   -18540   -18531   -18526   -18517 
  -18505   -18501   -18503   -18501   -18492   -18480   -18472   -18462 
  -18451   -18442   -18434   -18430   -18427   -18423   -18420   -18422 
  -18420   -18419   -18423   -18430   -18431   -18432   -18434   -18435 
  -18436   -18441   -18446   -18451   -18457   -18468   -18481   -18492 
  -18503   -18515   -18527   -18534   -18539   -18547   -18562   -18578 
  -18590   -18597   -18605   -18623   -18639   -18651   -18665   -18679 
  -18693   -18708   -18721   -18738   -18759   -18775   -18789   -18806 
  -18823   -18839   -18851   -18859   -18868   -18881   -18894   -18914 
  -18936   -18954   -18964   -18972   -18978   -18981   -18983   -18990 
  -18997   -19005   -19009   -19009   -19009   -19009   -19013   -19014 
  -19010   -19005   -18995   -18986   -18978   -18968   -18958   -18951 
  -18951   -18954   -18949   -18941   -18932   -18921   -18910   -18898 
  -18887   -18874   -18864   -18860   -18852   -18846   -18839   -18831 
  -18825   -18821   -18821   -18827   -18829   -18823   -18812   -18804 
  -18801   -18800   -18796   -18786   -18775   -18760   -18743   -18724 
  -18705   -18693   -18689   -18685   -18678   -18666   -18658   -18654 
  -18652   -18647   -18644   -18647   -18647   -18639   -18628   -18619 
  -18605   -18590   -18586   -18582   -18573   -18571   -18573   -18565 
  -18563   -18569   -18570   -18574   -18581   -18588   -18596   -18604 
  -18613   -18625   -18636   -18647   -18657   -18663   -18671   -18682 
  -18696   -18708   -18715   -18719   -18720   -18720   -18725   -18738 
  -18747   -18754   -18762   -18769   -18770   -18771   -18778   -18786 
  -18792   -18794   -18796   -18798   -18800   -18801   -18804   -18812 
  -18819   -18819   -18816   -18810   -18809   -18813   -18814   -18810 
  -18800   -18785   -18774   -18767   -18759   -18751   -18748   -18739 
  -18723   -18708   -18693   -18682   -18681   -18681   -18675   -18669 
  -18663   -18657   -18655   -18663   -18673   -18679   -18682   -18684 
  -18684   -18684   -18684   -18684   -18682   -18679   -18677   -18677 
  -18677   -18675   -18679   -18688   -18690   -18688   -18689   -18692 
  -18692   -18692   -18697   -18704   -18704   -18702   -18701   -18694 
  -18688   -18685   -18674   -18663   -18659   -18651   -18640   -18632 
  -18621   -18611   -18601   -18596   -18589   -18578   -18574   -18574 
  -18567   -18561   -18557   -18551   -18551   -18558   -18565   -18569 
  -18576   -18586   -18601   -18615   -18631   -18648   -18658   -18666 
  -18682   -18697   -18712   -18727   -18738   -18746   -18755   -18758 
  -18758   -18758   -18756   -18755   -18751   -18742   -18731   -18720 
  -18711   -18704   -18694   -18677   -18651   -18623   -18589   -18561 
  -18538   -18512   -18488   -18470   -18458   -18446   -18434   -18426 
  -18415   -18401   -18392   -18387   -18378   -18380   -18389   -18395 
  -18403   -18418   -18432   -18445   -18455   -18459   -18462   -18473 
  -18486   -18497   -18512   -18526   -18539   -18558   -18578   -18592 
  -18605   -18624   -18636   -18644   -18657   -18675   -18696   -18719 
  -18742   -18759   -18782   -18804   -18817   -18828   -18839   -18850 
  -18859   -18874   -18891   -18906   -18914   -18924   -18935   -18941 
  -18951   -18960   -18971   -18982   -18990   -18995   -19001   -19006 
  -19008   -19010   -19012   -19009   -18999   -18993   -18995   -18997 
  -18991   -18983   -18979   -18976   -18970   -18963   -18956   -18947 
  -18932   -18909   -18886   -18868   -18848   -18833   -18819   -18792 
  -18766   -18751   -18736   -18719   -18701   -18684   -18663   -18642 
  -18616   -18593   -18571   -18550   -18539   -18536   -18531   -18531 
  -18528   -18522   -18520   -18524   -18524   -18519   -18513   -18512 
  -18511   -18516   -18524   -18527   -18524   -18522   -18517   -18511 
  -18505   -18505   -18504   -18496   -18492   -18490   -18485   -18473 
  -18461   -18453   -18446   -18438   -18439   -18442   -18436   -18435 
  -18443   -18451   -18459   -18466   -18472   -18476   -18478   -18482 
  -18489   -18493   -18493   -18493   -18490   -18485   -18482   -18478 
  -18474   -18476   -18480   -18478   -18478   -18481   -18482   -18485 
  -18490   -18496   -18504   -18517   -18534   -18547   -18558   -18574 
  -18594   -18609   -18621   -18638   -18648   -18655   -18666   -18681 
  -18698   -18717   -18738   -18754   -18766   -18775   -18782   -18783 
  -18785   -18787   -18796   -18800   -18798   -18794   -18796   -18797 
  -18793   -18786   -18781   -18771   -18758   -18746   -18731   -18715 
  -18705   -18701   -18690   -18677   -18663   -18648   -18634   -18617 
  -18600   -18578   -18557   -18538   -18523   -18509   -18493   -18473 
  -18457   -18441   -18420   -18400   -18380   -18360   -18343   -18331 
  -18318   -18306   -18300   -18299   -18297   -18297   -18295   -18291 
  -18291   -18291   -18288   -18287   -18292   -18299   -18307   -18315 
  -18318   -18320   -18327   -18334   -18338   -18346   -18361   -18376 
  -18393   -18411   -18422   -18430   -18438   -18438   -18442   -18453 
  -18462   -18468   -18476   -18484   -18486   -18492   -18505   -18522 
  -18538   -18554   -18571   -18588   -18604   -18616   -18627   -18643 
  -18659   -18675   -18697   -18717   -18732   -18748   -18769   -18790 
  -18806   -18819   -18833   -18850   -18867   -18881   -18887   -18897 
  -18910   -18918   -18928   -18940   -18948   -18952   -18960   -18964 
  -18967   -18972   -18979   -18986   -18995   -19006   -19012   -19016 
  -19022   -19028   -19029   -19036   -19047   -19056   -19063   -19072 
  -19079   -19084   -19091   -19099   -19111   -19121   -19126   -19134 
  -19136   -19130   -19128   -19122   -19113   -19105   -19095   -19083 
  -19071   -19059   -19041   -19022   -19003   -18983   -18964   -18944 
  -18920   -18894   -18866   -18837   -18810   -18783   -18755   -18727 
  -18700   -18673   -18644   -18612   -18582   -18551   -18519   -18489 
  -18461   -18428   -18396   -18366   -18345   -18326   -18307   -18292 
  -18277   -18260   -18243   -18227   -18211   -18200   -18187   -18173 
  -18169   -18169   -18164   -18161   -18166   -18171   -18173   -18187 
  -18203   -18216   -18229   -18245   -18265   -18291   -18320   -18346 
  -18370   -18400   -18426   -18441   -18463   -18495   -18523   -18551 
  -18584   -18616   -18642   -18659   -18675   -18692   -18698   -18698 
  -18711   -18729   -18742   -18752   -18763   -18767   -18770   -18770 
  -18771   -18779   -18787   -18792   -18796   -18796   -18792   -18794 
  -18798   -18800   -18806   -18810   -18806   -18802   -18802   -18798 
  -18794   -18798   -18804   -18802   -18809   -18819   -18823   -18831 
  -18843   -18848   -18852   -18858   -18856   -18856   -18858   -18852 
  -18851   -18855   -18859   -18860   -18855   -18846   -18839   -18828 
  -18813   -18802   -18792   -18774   -18758   -18748   -18740   -18733 
  -18725   -18715   -18702   -18696   -18690   -18682   -18673   -18663 
  -18651   -18638   -18628   -18620   -18611   -18600   -18588   -18574 
  -18562   -18551   -18542   -18534   -18524   -18515   -18509   -18507 
  -18503   -18501   -18501   -18501   -18505   -18512   -18516   -18522 
  -18530   -18538   -18544   -18555   -18569   -18582   -18594   -18612 
  -18634   -18657   -18681   -18702   -18720   -18747   -18775   -18798 
  -18820   -18843   -18862   -18879   -18893   -18910   -18929   -18944 
  -18959   -18979   -18997   -19009   -19024   -19035   -19041   -19052 
  -19063   -19067   -19071   -19082   -19091   -19101   -19106   -19110 
  -19114   -19116   -19114   -19110   -19106   -19098   -19086   -19074 
  -19056   -19035   -19017   -18999   -18985   -18967   -18947   -18924 
  -18904   -18881   -18859   -18841   -18823   -18800   -18781   -18762 
  -18743   -18723   -18702   -18681   -18658   -18638   -18612   -18584 
  -18559   -18536   -18515   -18497   -18474   -18454   -18434   -18408 
  -18381   -18358   -18335   -18312   -18293   -18281   -18268   -18254 
  -18245   -18241   -18231   -18223   -18218   -18211   -18208   -18206 
  -18196   -18189   -18191   -18192   -18196   -18203   -18211   -18222 
  -18233   -18249   -18265   -18277   -18293   -18312   -18331   -18353 
  -18372   -18388   -18405   -18427   -18455   -18482   -18505   -18527 
  -18549   -18569   -18590   -18611   -18627   -18640   -18654   -18671 
  -18688   -18700   -18713   -18727   -18736   -18751   -18759   -18759 
  -18765   -18773   -18778   -18783   -18783   -18778   -18769   -18756 
  -18750   -18743   -18728   -18709   -18685   -18665   -18650   -18631 
  -18613   -18597   -18584   -18569   -18553   -18534   -18511   -18489 
  -18472   -18450   -18432   -18418   -18399   -18385   -18374   -18358 
  -18343   -18330   -18322   -18319   -18315   -18318   -18324   -18331 
  -18342   -18355   -18370   -18389   -18412   -18436   -18461   -18489 
  -18526   -18562   -18596   -18634   -18674   -18712   -18751   -18793 
  -18837   -18882   -18931   -18983   -19032   -19076   -19121   -19159 
  -19191   -19221   -19251   -19287   -19319   -19341   -19357   -19372 
  -19380   -19384   -19390   -19388   -19375   -19357   -19348   -19337 
  -19318   -19298   -19273   -19252   -19234   -19211   -19182   -19153 
  -19128   -19103   -19074   -19041   -19012   -18981   -18948   -18921 
  -18898   -18871   -18837   -18806   -18775   -18740   -18708   -18682 
  -18655   -18630   -18605   -18584   -18562   -18536   -18508   -18482 
  -18459   -18434   -18408   -18387   -18373   -18357   -18338   -18326 
  -18318   -18307   -18293   -18283   -18273   -18261   -18245   -18231 
  -18225   -18220   -18218   -18216   -18212   -18211   -18216   -18219 
  -18222   -18229   -18239   -18250   -18262   -18276   -18287   -18299 
  -18314   -18328   -18337   -18345   -18357   -18368   -18372   -18380 
  -18388   -18392   -18395   -18399   -18403   -18401   -18399   -18400 
  -18401   -18399   -18396   -18392   -18380   -18370   -18368   -18364 
  -18362   -18368   -18373   -18380   -18389   -18399   -18414   -18428 
  -18442   -18457   -18473   -18485   -18496   -18507   -18520   -18539 
  -18562   -18582   -18603   -18624   -18640   -18650   -18659   -18671 
  -18682   -18690   -18696   -18702   -18711   -18719   -18729   -18739 
  -18748   -18760   -18766   -18771   -18779   -18779   -18773   -18773 
  -18775   -18775   -18774   -18773   -18770   -18767   -18763   -18754 
  -18744   -18744   -18744   -18738   -18732   -18732   -18729   -18728 
  -18728   -18727   -18727   -18728   -18736   -18744   -18746   -18747 
  -18754   -18760   -18766   -18770   -18777   -18782   -18786   -18792 
  -18800   -18809   -18819   -18829   -18843   -18851   -18860   -18868 
  -18873   -18886   -18904   -18917   -18935   -18952   -18964   -18976 
  -18985   -18993   -19003   -19013   -19017   -19022   -19024   -19017 
  -19013   -19005   -18994   -18986   -18972   -18956   -18940   -18920 
  -18894   -18866   -18836   -18806   -18779   -18752   -18724   -18692 
  -18657   -18623   -18590   -18554   -18522   -18488   -18449   -18415 
  -18388   -18361   -18335   -18314   -18291   -18272   -18252   -18229 
  -18210   -18191   -18172   -18156   -18144   -18134   -18126   -18118 
  -18114   -18111   -18106   -18100   -18096   -18092   -18088   -18087 
  -18085   -18090   -18099   -18110   -18118   -18134   -18153   -18171 
  -18189   -18207   -18229   -18252   -18268   -18288   -18311   -18328 
  -18343   -18361   -18380   -18401   -18420   -18439   -18466   -18488 
  -18509   -18535   -18559   -18582   -18605   -18627   -18651   -18675 
  -18698   -18723   -18748   -18770   -18792   -18814   -18836   -18856 
  -18870   -18881   -18894   -18904   -18913   -18927   -18936   -18944 
  -18948   -18948   -18949   -18949   -18945   -18943   -18943   -18944 
  -18945   -18948   -18955   -18959   -18966   -18971   -18967   -18964 
  -18966   -18959   -18952   -18949   -18945   -18943   -18944   -18949 
  -18951   -18951   -18951   -18948   -18941   -18935   -18925   -18914 
  -18900   -18885   -18871   -18852   -18833   -18819   -18802   -18783 
  -18767   -18754   -18735   -18715   -18696   -18673   -18648   -18625 
  -18604   -18584   -18562   -18542   -18524   -18504   -18481   -18459 
  -18436   -18416   -18399   -18380   -18366   -18355   -18339   -18320 
  -18301   -18283   -18264   -18242   -18225   -18206   -18184   -18169 
  -18158   -18142   -18131   -18126   -18117   -18112   -18114   -18112 
  -18110   -18111   -18112   -18112   -18115   -18121   -18123   -18130 
  -18137   -18141   -18150   -18157   -18161   -18165   -18169   -18175 
  -18183   -18193   -18204   -18211   -18219   -18231   -18245   -18262 
  -18274   -18287   -18301   -18315   -18327   -18341   -18355   -18373 
  -18395   -18414   -18432   -18453   -18473   -18490   -18508   -18528 
  -18549   -18574   -18597   -18615   -18631   -18647   -18669   -18693 
  -18715   -18735   -18751   -18763   -18774   -18785   -18794   -18804 
  -18813   -18819   -18821   -18824   -18823   -18823   -18824   -18824 
  -18823   -18814   -18804   -18794   -18785   -18774   -18765   -18751 
  -18732   -18715   -18698   -18679   -18662   -18651   -18646   -18642 
  -18640   -18640   -18639   -18642   -18644   -18642   -18642   -18646 
  -18646   -18644   -18651   -18666   -18682   -18694   -18701   -18706 
  -18711   -18719   -18725   -18731   -18738   -18744   -18744   -18739 
  -18738   -18732   -18719   -18709   -18700   -18692   -18682   -18670 
  -18659   -18652   -18643   -18630   -18616   -18603   -18592   -18581 
  -18570   -18559   -18549   -18534   -18524   -18519   -18519   -18522 
  -18520   -18517   -18519   -18523   -18523   -18526   -18535   -18546 
  -18558   -18574   -18586   -18593   -18603   -18613   -18625   -18636 
  -18646   -18651   -18659   -18665   -18670   -18675   -18673   -18667 
  -18669   -18669   -18667   -18663   -18658   -18652   -18647   -18634 
  -18620   -18611   -18600   -18590   -18578   -18567   -18562   -18558 
  -18550   -18536   -18526   -18517   -18513   -18509   -18500   -18490 
  -18486   -18485   -18482   -18484   -18486   -18488   -18493   -18495 
  -18496   -18496   -18496   -18497   -18500   -18499   -18500   -18504 
  -18508   -18511   -18512   -18509   -18508   -18512   -18515   -18513 
  -18516   -18520   -18523   -18524   -18527   -18538   -18550   -18555 
  -18562   -18573   -18578   -18586   -18596   -18604   -18612   -18619 
  -18619   -18615   -18613   -18612   -18613   -18616   -18620   -18621 
  -18623   -18628   -18634   -18635   -18638   -18639   -18636   -18638 
  -18640   -18643   -18646   -18644   -18640   -18635   -18631   -18628 
  -18631   -18635   -18639   -18646   -18650   -18651   -18657   -18662 
  -18667   -18674   -18678   -18679   -18684   -18688   -18685   -18685 
  -18688   -18689   -18689   -18690   -18689   -18684   -18679   -18674 
  -18670   -18670   -18669   -18662   -18655   -18651   -18648   -18647 
  -18646   -18644   -18644   -18648   -18651   -18651   -18647   -18643 
