Origin Time       2025/01/13 21:19:00
Lat.              31.8
Long.             131.6
Depth. (km)       30
Mag.              6.9
Station Code      WKYH03
Station Lat.      34.1314
Station Long.     135.3244
Station Height(m) 19.9
Record Time       2025/01/13 21:21:17
Sampling Freq(Hz) 100Hz
Duration Time(s)  120
Dir.              1
Scale Factor      3923(gal)/8224838
Max. Acc. (gal)   0.232
Last Correction   2025/01/13 21:21:17
Memo.             
[...]
  -64693   -64694   -64701   -64706   -64708   -64712   -64714   -64716 
  -64714   -64709   -64704   -64704   -64705   -64704   -64704   -64705 
  -64708   -64704   -64694   -64685   -64677   -64666   -64654   -64650 
  -64650   -64646   -64640   -64639   -64638   -64635   -64635   -64635 
  -64636   -64639   -64638   -64633   -64629   -64625   -64627   -64629 
  -64633   -64638   -64638   -64636   -64639   -64646   -64652   -64662 
  -64667   -64671   -64683   -64697   -64706   -64717   -64731   -64740 
  -64751   -64762   -64766   -64764   -64768   -64771   -64768   -64767 
  -64770   -64771   -64771   -64767   -64764   -64767   -64766   -64763 
  -64763   -64764   -64767   -64770   -64770   -64770   -64771   -64774 
  -64777   -64775   -64777   -64778   -64775   -64774   -64775   -64773 
  -64767   -64764   -64759   -64751   -64748   -64747   -64741   -64735 
  -64728   -64725   -64729   -64732   -64733   -64736   -64741   -64748 
  -64752   -64756   -64760   -64763   -64766   -64773   -64781   -64783 
  -64785   -64783   -64779   -64778   -64777   -64773   -64768   -64770 
  -64771   -64774   -64782   -64790   -64790   -64795   -64804   -64805 
  -64810   -64820   -64822   -64827   -64832   -64837   -64839   -64843 
  -64847   -64848   -64851   -64851   -64845   -64845   -64844   -64841 
  -64836   -64829   -64824   -64824   -64827   -64824   -64820   -64820 
  -64818   -64813   -64809   -64808   -64802   -64794   -64787   -64782 
  -64779   -64774   -64766   -64763   -64759   -64754   -64755   -64752 
  -64746   -64741   -64740   -64739   -64735   -64732   -64732   -64736 
  -64737   -64736   -64739   -64744   -64747   -64748   -64748   -64750 
  -64750   -64750   -64747   -64744   -64750   -64752   -64747   -64746 
  -64746   -64743   -64741   -64740   -64737   -64736   -64736   -64733 
  -64731   -64729   -64725   -64720   -64717   -64714   -64712   -64712 
  -64712   -64712   -64714   -64720   -64721   -64720   -64714   -64709 
  -64706   -64698   -64690   -64687   -64685   -64677   -64671   -64667 
  -64663   -64659   -64655   -64655   -64656   -64655   -64654   -64656 
  -64658   -64659   -64665   -64667   -64669   -64669   -64671   -64675 
  -64678   -64675   -64675   -64671   -64667   -64666   -64663   -64663 
  -64666   -64669   -64671   -64674   -64673   -64670   -64667   -64667 
  -64670   -64673   -64677   -64682   -64690   -64696   -64698   -64708 
  -64713   -64716   -64721   -64728   -64729   -64731   -64733   -64736 
  -64737   -64737   -64739   -64739   -64739   -64735   -64731   -64729 
  -64728   -64731   -64731   -64729   -64729   -64728   -64724   -64723 
  -64721   -64717   -64713   -64712   -64710   -64712   -64714   -64712 
  -64708   -64705   -64701   -64698   -64697   -64693   -64689   -64687 
  -64686   -64686   -64690   -64694   -64700   -64706   -64708   -64712 
  -64720   -64725   -64728   -64733   -64739   -64741   -64741   -64739 
  -64735   -64733   -64731   -64728   -64731   -64731   -64724   -64714 
  -64706   -64700   -64696   -64689   -64683   -64685   -64689   -64698 
  -64705   -64709   -64714   -64721   -64728   -64735   -64741   -64746 
  -64746   -64747   -64756   -64766   -64771   -64775   -64782   -64789 
  -64791   -64793   -64794   -64794   -64794   -64793   -64790   -64793 
  -64793   -64789   -64787   -64786   -64785   -64783   -64779   -64771 
  -64766   -64762   -64756   -64756   -64762   -64762   -64759   -64758 
  -64762   -64768   -64770   -64773   -64779   -64783   -64789   -64793 
  -64795   -64802   -64810   -64812   -64814   -64821   -64824   -64824 
  -64825   -64825   -64824   -64825   -64824   -64821   -64816   -64805 
  -64797   -64798   -64797   -64790   -64787   -64786   -64786   -64786 
  -64782   -64782   -64786   -64786   -64786   -64789   -64790   -64790 
  -64793   -64789   -64783   -64782   -64779   -64777   -64779   -64786 
  -64787   -64783   -64779   -64775   -64768   -64766   -64764   -64756 
  -64752   -64755   -64756   -64758   -64759   -64754   -64744   -64737 
  -64733   -64723   -64709   -64701   -64698   -64697   -64697   -64700 
  -64702   -64704   -64705   -64702   -64698   -64698   -64700   -64696 
  -64697   -64700   -64698   -64697   -64701   -64704   -64705   -64708 
  -64706   -64705   -64698   -64686   -64683   -64689   -64687   -64683 
  -64685   -64689   -64689   -64692   -64700   -64710   -64717   -64723 
  -64728   -64737   -64747   -64756   -64768   -64781   -64789   -64800 
  -64809   -64816   -64821   -64822   -64825   -64828   -64829   -64835 
  -64837   -64836   -64835   -64832   -64827   -64818   -64808   -64795 
  -64786   -64778   -64768   -64755   -64746   -64739   -64728   -64717 
  -64708   -64698   -64687   -64679   -64673   -64662   -64652   -64644 
  -64632   -64621   -64615   -64608   -64596   -64585   -64575   -64566 
  -64561   -64555   -64548   -64543   -64538   -64539   -64536   -64530 
  -64530   -64531   -64528   -64528   -64531   -64536   -64536   -64536 
  -64543   -64543   -64543   -64546   -64543   -64544   -64550   -64551 
  -64554   -64558   -64566   -64574   -64579   -64586   -64594   -64600 
  -64605   -64611   -64619   -64627   -64632   -64639   -64647   -64656 
  -64669   -64679   -64683   -64690   -64705   -64717   -64728   -64740 
  -64751   -64762   -64775   -64786   -64795   -64808   -64817   -64822 
  -64832   -64843   -64849   -64858   -64871   -64883   -64891   -64895 
  -64893   -64894   -64897   -64895   -64891   -64890   -64891   -64889 
  -64889   -64891   -64893   -64893   -64889   -64881   -64878   -64874 
  -64866   -64863   -64860   -64851   -64843   -64836   -64828   -64822 
  -64818   -64810   -64801   -64801   -64798   -64795   -64798   -64801 
  -64801   -64801   -64802   -64809   -64813   -64817   -64821   -64821 
  -64820   -64818   -64820   -64817   -64810   -64802   -64794   -64786 
  -64781   -64775   -64775   -64778   -64775   -64773   -64777   -64777 
  -64774   -64777   -64781   -64786   -64791   -64797   -64801   -64805 
  -64809   -64812   -64809   -64808   -64810   -64809   -64801   -64793 
  -64786   -64775   -64766   -64754   -64743   -64732   -64721   -64710 
  -64697   -64682   -64670   -64660   -64654   -64642   -64631   -64628 
  -64625   -64620   -64620   -64617   -64611   -64605   -64602   -64602 
  -64604   -64602   -64604   -64609   -64616   -64617   -64616   -64620 
  -64628   -64632   -64633   -64639   -64647   -64655   -64662   -64670 
  -64677   -64679   -64682   -64689   -64697   -64705   -64714   -64723 
  -64729   -64743   -64756   -64768   -64783   -64795   -64806   -64817 
  -64822   -64828   -64841   -64849   -64854   -64856   -64859   -64863 
  -64866   -64863   -64864   -64867   -64870   -64872   -64878   -64879 
  -64878   -64875   -64871   -64868   -64868   -64867   -64866   -64866 
  -64862   -64859   -64859   -64852   -64844   -64839   -64832   -64827 
  -64822   -64816   -64813   -64814   -64812   -64808   -64813   -64820 
  -64824   -64825   -64828   -64835   -64843   -64845   -64849   -64855 
  -64855   -64855   -64860   -64866   -64867   -64867   -64867   -64870 
  -64870   -64867   -64866   -64864   -64860   -64855   -64849   -64839 
  -64831   -64828   -64818   -64808   -64808   -64806   -64801   -64800 
  -64798   -64793   -64787   -64785   -64785   -64781   -64777   -64777 
  -64777   -64775   -64774   -64771   -64768   -64767   -64767   -64767 
  -64766   -64766   -64766   -64763   -64763   -64764   -64762   -64762 
  -64767   -64767   -64773   -64778   -64781   -64785   -64790   -64791 
  -64790   -64786   -64782   -64782   -64782   -64781   -64777   -64773 
  -64764   -64763   -64767   -64763   -64759   -64763   -64767   -64763 
  -64764   -64768   -64773   -64777   -64777   -64777   -64774   -64770 
  -64766   -64763   -64758   -64747   -64737   -64729   -64721   -64709 
  -64698   -64690   -64681   -64671   -64663   -64652   -64642   -64638 
  -64632   -64628   -64629   -64627   -64620   -64617   -64615   -64609 
  -64605   -64601   -64592   -64586   -64586   -64581   -64571   -64566 
  -64563   -64562   -64559   -64557   -64557   -64555   -64554   -64552 
  -64552   -64558   -64569   -64585   -64598   -64612   -64627   -64638 
  -64647   -64659   -64673   -64682   -64690   -64701   -64714   -64728 
  -64743   -64758   -64767   -64773   -64779   -64782   -64782   -64786 
  -64789   -64786   -64787   -64787   -64787   -64787   -64789   -64791 
  -64793   -64791   -64793   -64793   -64789   -64787   -64789   -64793 
  -64798   -64801   -64808   -64813   -64814   -64816   -64821   -64822 
  -64822   -64833   -64845   -64854   -64860   -64870   -64878   -64889 
  -64902   -64913   -64917   -64922   -64930   -64939   -64949   -64959 
  -64966   -64971   -64974   -64978   -64983   -64986   -64993   -64998 
  -64999   -65002   -65006   -65007   -65009   -65010   -65007   -65006 
  -65005   -65005   -65002   -64998   -64999   -64999   -64994   -64993 
  -64991   -64983   -64979   -64982   -64979   -64971   -64967   -64963 
  -64956   -64951   -64947   -64943   -64940   -64933   -64928   -64925 
  -64924   -64920   -64914   -64910   -64906   -64899   -64897   -64893 
  -64886   -64879   -64875   -64866   -64851   -64839   -64827   -64813 
  -64800   -64786   -64773   -64758   -64743   -64729   -64710   -64696 
  -64683   -64670   -64654   -64643   -64636   -64627   -64623   -64624 
  -64620   -64616   -64616   -64617   -64620   -64624   -64628   -64632 
  -64639   -64648   -64659   -64670   -64677   -64683   -64692   -64697 
  -64705   -64714   -64723   -64731   -64741   -64752   -64763   -64774 
  -64785   -64795   -64804   -64809   -64818   -64822   -64820   -64821 
  -64820   -64817   -64820   -64818   -64816   -64817   -64813   -64804 
  -64795   -64790   -64782   -64773   -64768   -64771   -64773   -64774 
  -64779   -64783   -64783   -64783   -64786   -64790   -64794   -64794 
  -64795   -64802   -64806   -64808   -64808   -64813   -64816   -64816 
  -64818   -64821   -64821   -64820   -64822   -64825   -64828   -64831 
  -64835   -64836   -64837   -64841   -64845   -64849   -64852   -64854 
  -64856   -64855   -64856   -64860   -64862   -64863   -64868   -64870 
  -64870   -64870   -64866   -64862   -64862   -64862   -64859   -64856 
  -64859   -64858   -64854   -64852   -64848   -64840   -64835   -64828 
  -64818   -64814   -64809   -64802   -64797   -64793   -64785   -64773 
  -64762   -64752   -64743   -64735   -64725   -64716   -64705   -64693 
  -64682   -64675   -64669   -64663   -64655   -64646   -64639   -64632 
  -64621   -64613   -64611   -64608   -64606   -64608   -64606   -64605 
  -64602   -64601   -64602   -64605   -64608   -64608   -64608   -64611 
  -64613   -64611   -64609   -64609   -64606   -64605   -64604   -64601 
  -64598   -64598   -64598   -64600   -64604   -64608   -64615   -64620 
  -64624   -64629   -64638   -64644   -64651   -64655   -64659   -64667 
  -64679   -64687   -64693   -64700   -64708   -64712   -64714   -64721 
  -64729   -64741   -64756   -64771   -64785   -64797   -64809   -64825 
  -64839   -64852   -64868   -64883   -64902   -64921   -64930   -64944 
  -64963   -64971   -64975   -64986   -64995   -65001   -65005   -65003 
  -65002   -65005   -65006   -65003   -65001   -65001   -64998   -64994 
  -64994   -64994   -64991   -64989   -64990   -64990   -64991   -64990 
  -64986   -64984   -64984   -64983   -64982   -64980   -64974   -64967 
  -64960   -64953   -64947   -64943   -64936   -64928   -64922   -64921 
  -64918   -64917   -64918   -64921   -64918   -64917   -64917   -64920 
  -64922   -64922   -64921   -64922   -64926   -64929   -64929   -64929 
  -64930   -64932   -64932   -64929   -64929   -64926   -64921   -64916 
  -64912   -64913   -64914   -64913   -64912   -64912   -64912   -64908 
  -64901   -64898   -64897   -64891   -64886   -64885   -64881   -64874 
  -64867   -64860   -64852   -64843   -64831   -64817   -64802   -64791 
  -64781   -64771   -64763   -64754   -64746   -64741   -64736   -64735 
  -64737   -64737   -64739   -64747   -64754   -64756   -64766   -64781 
  -64791   -64800   -64812   -64829   -64844   -64860   -64878   -64891 
  -64906   -64925   -64936   -64945   -64957   -64970   -64979   -64986 
  -64990   -64993   -64993   -64990   -64984   -64979   -64971   -64960 
  -64949   -64937   -64925   -64909   -64890   -64870   -64848   -64822 
  -64797   -64771   -64748   -64727   -64705   -64682   -64658   -64633 
  -64608   -64585   -64569   -64548   -64528   -64513   -64500   -64486 
  -64478   -64470   -64455   -64444   -64439   -64432   -64424   -64419 
  -64416   -64415   -64412   -64411   -64411   -64411   -64409   -64408 
  -64409   -64411   -64409   -64413   -64413   -64413   -64416   -64416 
  -64417   -64417   -64413   -64413   -64415   -64408   -64403   -64400 
  -64396   -64393   -64392   -64384   -64378   -64376   -64374   -64369 
  -64362   -64357   -64357   -64355   -64349   -64343   -64339   -64336 
  -64338   -64341   -64343   -64345   -64349   -64353   -64354   -64355 
  -64362   -64372   -64380   -64392   -64404   -64415   -64431   -64449 
  -64466   -64484   -64497   -64513   -64534   -64552   -64570   -64590 
  -64608   -64628   -64651   -64669   -64685   -64701   -64717   -64732 
  -64750   -64767   -64781   -64797   -64813   -64825   -64840   -64856 
  -64863   -64868   -64878   -64883   -64890   -64901   -64912   -64918 
  -64926   -64936   -64943   -64951   -64960   -64972   -64987   -65002 
  -65020   -65036   -65052   -65064   -65079   -65098   -65114   -65125 
  -65144   -65163   -65175   -65187   -65202   -65213   -65217   -65221 
  -65226   -65233   -65238   -65244   -65246   -65244   -65242   -65244 
  -65242   -65241   -65240   -65236   -65233   -65227   -65223   -65223 
  -65221   -65215   -65210   -65206   -65200   -65195   -65187   -65180 
  -65175   -65168   -65157   -65144   -65132   -65122   -65113   -65102 
  -65091   -65082   -65076   -65061   -65047   -65036   -65022   -65006 
  -64997   -64991   -64984   -64978   -64972   -64966   -64962   -64960 
  -64959   -64955   -64948   -64945   -64944   -64940   -64939   -64935 
  -64932   -64933   -64932   -64926   -64922   -64920   -64916   -64906 
  -64897   -64890   -64881   -64875   -64872   -64863   -64858   -64852 
  -64840   -64829   -64822   -64810   -64797   -64786   -64773   -64758 
  -64746   -64735   -64723   -64709   -64696   -64686   -64677   -64663 
  -64652   -64648   -64638   -64628   -64625   -64623   -64620   -64621 
  -64623   -64624   -64627   -64628   -64629   -64635   -64639   -64640 
  -64644   -64651   -64658   -64662   -64665   -64667   -64671   -64670 
  -64669   -64671   -64671   -64671   -64674   -64677   -64677   -64677 
  -64681   -64689   -64693   -64696   -64698   -64698   -64698   -64694 
  -64690   -64690   -64687   -64683   -64678   -64671   -64665   -64659 
  -64646   -64631   -64616   -64600   -64588   -64574   -64558   -64544 
  -64531   -64519   -64511   -64501   -64486   -64478   -64470   -64461 
  -64455   -64451   -64449   -64449   -64449   -64444   -64440   -64439 
  -64435   -64430   -64430   -64428   -64424   -64423   -64420   -64416 
  -64412   -64413   -64415   -64412   -64412   -64422   -64428   -64435 
  -64444   -64453   -64463   -64474   -64484   -64497   -64509   -64517 
  -64530   -64542   -64550   -64559   -64570   -64579   -64588   -64598 
  -64605   -64612   -64621   -64628   -64636   -64643   -64646   -64650 
  -64660   -64671   -64681   -64692   -64701   -64710   -64725   -64741 
  -64755   -64768   -64787   -64802   -64814   -64828   -64847   -64863 
  -64878   -64893   -64908   -64924   -64937   -64945   -64955   -64966 
  -64975   -64983   -64994   -65002   -65003   -65010   -65017   -65020 
  -65024   -65030   -65034   -65033   -65033   -65036   -65038   -65041 
  -65043   -65041   -65037   -65037   -65040   -65038   -65036   -65033 
  -65030   -65029   -65030   -65030   -65025   -65020   -65017   -65014 
  -65009   -65003   -64998   -64994   -64990   -64986   -64980   -64978 
  -64972   -64963   -64956   -64951   -64944   -64935   -64925   -64914 
  -64906   -64897   -64886   -64872   -64862   -64849   -64837   -64827 
  -64816   -64805   -64789   -64773   -64763   -64755   -64741   -64732 
  -64727   -64717   -64709   -64706   -64702   -64700   -64700   -64697 
  -64697   -64698   -64700   -64700   -64706   -64714   -64721   -64728 
  -64737   -64743   -64747   -64752   -64755   -64759   -64764   -64768 
  -64774   -64782   -64789   -64794   -64794   -64791   -64791   -64791 
  -64791   -64791   -64791   -64793   -64795   -64794   -64795   -64797 
  -64795   -64790   -64786   -64783   -64782   -64779   -64773   -64767 
  -64762   -64756   -64752   -64746   -64737   -64729   -64721   -64712 
  -64702   -64692   -64682   -64674   -64666   -64659   -64652   -64644 
  -64636   -64625   -64615   -64608   -64600   -64588   -64574   -64559 
  -64547   -64538   -64527   -64515   -64508   -64501   -64493   -64488 
  -64485   -64485   -64482   -64480   -64474   -64469   -64465   -64467 
  -64469   -64471   -64477   -64482   -64489   -64493   -64496   -64504 
  -64512   -64519   -64527   -64536   -64543   -64551   -64561   -64570 
  -64577   -64588   -64594   -64598   -64606   -64613   -64615   -64619 
  -64624   -64628   -64632   -64635   -64638   -64642   -64643   -64643 
  -64646   -64652   -64655   -64656   -64662   -64667   -64671   -64674 
  -64679   -64687   -64693   -64702   -64712   -64721   -64733   -64746 
  -64755   -64762   -64766   -64774   -64782   -64786   -64793   -64802 
  -64809   -64813   -64818   -64824   -64829   -64832   -64836   -64843 
  -64847   -64848   -64855   -64860   -64864   -64872   -64876   -64879 
  -64887   -64895   -64897   -64897   -64897   -64898   -64901   -64901 
  -64902   -64905   -64909   -64908   -64905   -64909   -64910   -64913 
  -64914   -64913   -64913   -64917   -64918   -64920   -64926   -64933 
  -64936   -64937   -64940   -64943   -64943   -64937   -64936   -64939 
  -64936   -64930   -64930   -64928   -64922   -64916   -64910   -64908 
  -64903   -64897   -64890   -64883   -64876   -64870   -64860   -64854 
  -64848   -64844   -64843   -64840   -64839   -64837   -64833   -64831 
  -64835   -64835   -64832   -64831   -64835   -64840   -64840   -64841 
  -64851   -64855   -64856   -64860   -64864   -64867   -64872   -64882 
  -64887   -64895   -64905   -64913   -64922   -64932   -64940   -64949 
  -64956   -64963   -64966   -64970   -64975   -64972   -64970   -64967 
  -64959   -64949   -64939   -64922   -64912   -64899   -64883   -64870 
  -64854   -64836   -64817   -64800   -64783   -64770   -64752   -64733 
  -64719   -64708   -64694   -64678   -64669   -64659   -64643   -64628 
  -64615   -64600   -64585   -64571   -64558   -64546   -64531   -64516 
  -64504   -64493   -64484   -64477   -64469   -64461   -64458   -64457 
  -64453   -64451   -64457   -64459   -64465   -64473   -64477   -64485 
  -64500   -64513   -64528   -64543   -64557   -64573   -64588   -64600 
  -64615   -64631   -64646   -64659   -64671   -64685   -64696   -64704 
  -64716   -64728   -64736   -64744   -64748   -64752   -64756   -64760 
  -64763   -64764   -64767   -64770   -64773   -64777   -64781   -64782 
  -64787   -64791   -64789   -64787   -64787   -64787   -64787   -64786 
  -64783   -64782   -64781   -64777   -64774   -64775   -64777   -64771 
  -64767   -64766   -64760   -64754   -64746   -64739   -64736   -64732 
  -64728   -64723   -64716   -64714   -64709   -64701   -64698   -64693 
