Origin Time       2025/01/13 21:19:00
Lat.              31.8
Long.             131.6
Depth. (km)       30
Mag.              6.9
Station Code      WKYH10
Station Lat.      33.8248
Station Long.     135.2172
Station Height(m) 40
Record Time       2025/01/13 21:21:08
Sampling Freq(Hz) 100Hz
Duration Time(s)  120
Dir.              6
Scale Factor      7845(gal)/8223790
Max. Acc. (gal)   0.325
Last Correction   2025/01/13 21:21:08
Memo.             
[...]
   14179    14188    14207    14206    14193    14191    14196    14218 
   14256    14291    14292    14257    14215    14204    14210    14203 
   14200    14211    14210    14192    14173    14175    14189    14191 
   14181    14181    14170    14146    14146    14166    14160    14133 
   14129    14139    14139    14145    14166    14183    14180    14170 
   14177    14202    14207    14181    14169    14193    14202    14176 
   14170    14200    14220    14212    14195    14179    14161    14146 
   14148    14152    14143    14141    14145    14137    14125    14125 
   14133    14135    14126    14116    14130    14149    14156    14152 
   14160    14172    14172    14181    14208    14214    14189    14173 
   14173    14173    14177    14192    14197    14189    14195    14208 
   14195    14165    14149    14142    14142    14145    14150    14164 
   14188    14200    14189    14170    14164    14172    14176    14166 
   14156    14161    14172    14168    14158    14164    14170    14170 
   14173    14181    14181    14165    14150    14157    14177    14191 
   14195    14197    14196    14199    14207    14197    14172    14162 
   14180    14197    14192    14184    14195    14192    14160    14146 
   14184    14227    14222    14193    14188    14207    14214    14196 
   14176    14180    14197    14208    14212    14214    14207    14185 
   14158    14149    14161    14181    14197    14192    14170    14157 
   14150    14141    14137    14137    14138    14145    14148    14150 
   14164    14177    14160    14131    14134    14148    14138    14135 
   14165    14184    14161    14137    14138    14145    14154    14158 
   14143    14126    14138    14160    14152    14133    14152    14195 
   14196    14161    14168    14208    14208    14172    14139    14122 
   14127    14164    14199    14212    14211    14203    14193    14183 
   14184    14196    14192    14166    14152    14149    14150    14161 
   14177    14185    14169    14145    14145    14148    14123    14110 
   14130    14142    14146    14168    14183    14172    14175    14187 
   14176    14161    14169    14188    14202    14203    14202    14196 
   14177    14176    14208    14230    14204    14161    14150    14179 
   14222    14245    14233    14197    14170    14177    14199    14200 
   14188    14181    14164    14130    14116    14130    14142    14156 
   14168    14156    14148    14168    14184    14166    14127    14095 
   14104    14143    14166    14156    14143    14161    14184    14177 
   14168    14189    14216    14227    14223    14197    14181    14206 
   14227    14208    14177    14160    14156    14162    14162    14135 
   14106    14111    14141    14143    14121    14122    14148    14152 
   14137    14142    14177    14219    14223    14184    14153    14170 
   14220    14249    14239    14227    14241    14269    14288    14274 
   14241    14238    14257    14237    14188    14169    14183    14188 
   14173    14148    14119    14115    14150    14172    14154    14146 
   14172    14184    14180    14191    14218    14233    14235    14234 
   14223    14207    14207    14206    14177    14156    14175    14202 
   14207    14207    14195    14165    14153    14153    14137    14126 
   14149    14168    14154    14141    14154    14169    14169    14168 
   14160    14154    14175    14206    14200    14158    14133    14139 
   14152    14154    14152    14143    14135    14133    14123    14092 
   14071    14095    14141    14150    14130    14131    14154    14157 
   14138    14122    14116    14115    14134    14169    14184    14165 
   14149    14149    14138    14127    14143    14168    14175    14177 
   14172    14152    14158    14192    14189    14146    14131    14152 
   14162    14149    14129    14116    14118    14129    14142    14141 
   14126    14107    14084    14073    14099    14133    14135    14126 
   14149    14185    14181    14157    14170    14208    14215    14185 
   14179    14204    14215    14202    14207    14239    14268    14262 
   14238    14222    14222    14227    14222    14192    14165    14164 
   14177    14183    14166    14143    14143    14164    14172    14172 
   14183    14188    14158    14112    14102    14133    14157    14162 
   14161    14157    14152    14157    14164    14148    14125    14121 
   14118    14106    14104    14104    14084    14081    14110    14131 
   14130    14114    14096    14095    14118    14146    14158    14154 
   14156    14170    14196    14216    14212    14192    14200    14222 
   14211    14192    14214    14254    14264    14256    14261    14260 
   14239    14214    14169    14118    14130    14199    14229    14214 
   14220    14224    14193    14176    14183    14158    14118    14112 
   14130    14129    14115    14135    14175    14184    14168    14173 
   14206    14218    14191    14152    14129    14133    14162    14188 
   14179    14152    14153    14199    14238    14229    14195    14183 
   14207    14249    14276    14265    14235    14220    14224    14229 
   14216    14196    14184    14181    14181    14191    14193    14173 
   14137    14116    14134    14157    14160    14162    14173    14169 
   14154    14150    14143    14122    14111    14122    14141    14164 
   14196    14207    14175    14148    14179    14220    14206    14170 
   14181    14218    14216    14189    14179    14176    14179    14210 
   14247    14242    14220    14237    14266    14247    14200    14168 
   14148    14118    14081    14065    14088    14127    14134    14094 
   14057    14076    14148    14203    14181    14122    14111    14148 
   14183    14191    14160    14106    14076    14088    14125    14153 
   14152    14131    14098    14073    14106    14168    14184    14158 
   14137    14112    14081    14079    14112    14127    14096    14060 
   14056    14084    14135    14176    14173    14168    14208    14253 
   14258    14237    14199    14154    14121    14114    14131    14154 
   14181    14210    14218    14199    14191    14218    14249    14251 
   14227    14192    14183    14199    14199    14175    14162    14165 
   14149    14131    14161    14191    14156    14118    14157    14211 
   14189    14134    14122    14125    14095    14067    14094    14165 
   14214    14199    14175    14208    14262    14281    14276    14269 
   14246    14203    14142    14075    14040    14046    14068    14084 
   14114    14170    14241    14291    14280    14224    14197    14200 
   14145    14045    14006    14035    14081    14123    14149    14172 
   14215    14256    14254    14215    14199    14242    14299    14295 
   14238    14164    14087    14053    14071    14076    14068    14115 
   14219    14303    14326    14323    14311    14269    14218    14183 
   14146    14119    14127    14153    14183    14224    14254    14246 
   14222    14227    14288    14350    14337    14270    14195    14114 
   14037    13998    13998    14026    14072    14098    14095    14104 
   14138    14156    14141    14133    14160    14212    14249    14215 
   14129    14088    14107    14099    14075    14112    14192    14249 
   14280    14299    14308    14296    14245    14152    14080    14083 
   14118    14115    14100    14154    14243    14256    14199    14160 
   14152    14146    14173    14278    14409    14476    14451    14361 
   14234    14126    14068    14029    13995    14018    14123    14227 
   14258    14258    14293    14338    14305    14196    14118    14139 
   14191    14199    14185    14177    14156    14127    14126    14145 
   14141    14123    14121    14116    14102    14106    14122    14123 
   14118    14121    14149    14203    14234    14237    14251    14264 
   14258    14249    14234    14188    14125    14098    14106    14091 
   14068    14096    14138    14133    14121    14160    14219    14266 
   14318    14370    14381    14347    14295    14218    14098    13968 
   13872    13840    13910    14081    14260    14362    14392    14376 
   14322    14272    14247    14207    14135    14079    14056    14041 
   14037    14067    14099    14114    14157    14265    14381    14409 
   14331    14230    14184    14169    14121    14046    14011    14031 
   14058    14057    14045    14079    14164    14234    14227    14184 
   14191    14238    14260    14250    14219    14154    14087    14089 
   14142    14148    14104    14116    14173    14189    14208    14278 
   14303    14208    14094    14085    14169    14234    14238    14210 
   14164    14146    14215    14326    14381    14373    14331    14258 
   14160    14094    14114    14161    14134    14034    14004    14108 
   14208    14202    14138    14099    14098    14126    14177    14197 
   14181    14203    14274    14319    14285    14196    14118    14096 
   14100    14096    14104    14146    14195    14245    14338    14450 
   14477    14409    14335    14258    14118    13964    13898    13911 
   13952    14011    14091    14158    14189    14181    14160    14161 
   14188    14199    14166    14131    14133    14153    14165    14188 
   14247    14311    14320    14288    14258    14229    14183    14158 
   14156    14121    14064    14026    14019    14052    14108    14139 
   14161    14210    14256    14265    14274    14299    14296    14256 
   14227    14219    14177    14104    14056    14027    13998    13996 
   14037    14088    14108    14102    14118    14177    14235    14264 
   14262    14206    14116    14077    14121    14192    14207    14129 
   13999    13905    13903    13996    14129    14231    14277    14307 
   14337    14337    14296    14230    14129    14014    13960    13994 
   14056    14089    14098    14125    14181    14230    14247    14247 
   14234    14204    14184    14196    14195    14146    14111    14129 
   14158    14188    14243    14274    14223    14138    14118    14176 
   14214    14175    14118    14085    14075    14123    14233    14304 
   14288    14266    14293    14274    14165    14065    14033    14033 
   14057    14123    14197    14227    14212    14199    14204    14210 
   14210    14185    14110    14046    14079    14188    14291    14316 
   14262    14212    14237    14277    14243    14176    14152    14138 
   14104    14089    14089    14076    14077    14108    14130    14108 
   14103    14185    14318    14386    14349    14295    14296    14292 
   14218    14115    14046    14037    14094    14164    14188    14180 
   14177    14168    14123    14071    14056    14096    14176    14266 
   14345    14366    14303    14200    14123    14092    14115    14188 
   14254    14260    14218    14170    14143    14122    14080    14031 
   14011    14061    14168    14246    14250    14246    14296    14327 
   14262    14161    14127    14156    14170    14152    14115    14053 
   14002    14026    14121    14216    14274    14289    14284    14277 
   14272    14266    14247    14193    14130    14111    14142    14183 
   14196    14183    14139    14079    14053    14083    14108    14099 
   14096    14118    14160    14223    14266    14229    14139    14099 
   14126    14138    14104    14058    14021    14004    14037    14118 
   14204    14265    14285    14256    14211    14172    14139    14138 
   14162    14180    14183    14172    14165    14185    14222    14258 
   14274    14243    14156    14041    13941    13899    13927    14015 
   14135    14223    14220    14165    14134    14154    14202    14246 
   14287    14323    14320    14266    14192    14133    14085    14048 
   14058    14116    14134    14067    13998    14019    14108    14187 
   14230    14247    14250    14234    14195    14165    14176    14193 
   14184    14172    14168    14180    14224    14261    14234    14185 
   14170    14152    14089    14031    14056    14168    14281    14318 
   14299    14280    14249    14154    14045    14027    14112    14195 
   14216    14214    14233    14268    14281    14235    14142    14077 
   14076    14095    14096    14094    14114    14146    14153    14127 
   14095    14075    14077    14104    14121    14106    14088    14098 
   14116    14134    14172    14200    14156    14089    14089    14138 
   14187    14239    14270    14230    14161    14137    14146    14133 
   14095    14071    14088    14133    14157    14160    14192    14258 
   14310    14331    14315    14262    14203    14157    14114    14083 
   14075    14068    14048    14037    14046    14087    14179    14281 
   14324    14301    14250    14191    14138    14110    14076    14006 
   13938    13948    14044    14176    14283    14318    14292    14269 
   14256    14212    14150    14108    14067    14002    13954    13975 
   14045    14099    14088    14041    14027    14057    14089    14111 
   14126    14125    14126    14170    14249    14318    14351    14345 
   14300    14231    14153    14088    14085    14162    14231    14219 
   14169    14121    14061    14013    14022    14064    14100    14164 
   14287    14397    14412    14343    14277    14256    14254    14243 
   14204    14137    14095    14111    14153    14177    14189    14191 
   14146    14068    14022    14031    14049    14027    13980    13959 
   13992    14057    14114    14152    14188    14218    14226    14207 
   14157    14100    14107    14170    14223    14249    14270    14258 
   14203    14150    14133    14141    14164    14166    14130    14104 
   14141    14206    14251    14307    14399    14485    14509    14447 
   14327    14203    14095    14023    14031    14095    14130    14127 
   14137    14139    14100    14076    14108    14142    14141    14146 
   14172    14188    14200    14230    14250    14238    14212    14181 
   14139    14116    14123    14156    14215    14284    14324    14327 
   14301    14264    14238    14246    14261    14229    14152    14085 
   14049    14015    13991    14000    14022    14041    14076    14129 
   14183    14233    14256    14203    14106    14058    14064    14085 
   14139    14212    14224    14157    14091    14098    14152    14168 
   14143    14121    14102    14088    14100    14142    14193    14249 
   14291    14269    14188    14118    14091    14081    14073    14075 
   14115    14173    14192    14184    14197    14203    14173    14158 
   14192    14242    14260    14229    14195    14211    14242    14242 
   14238    14230    14212    14241    14320    14364    14339    14301 
   14296    14293    14253    14206    14199    14229    14265    14278 
   14257    14219    14169    14114    14079    14072    14104    14172 
   14219    14208    14172    14156    14145    14110    14057    14023 
   14033    14057    14061    14071    14095    14110    14126    14176 
   14246    14285    14285    14278    14260    14215    14175    14158 
   14154    14149    14146    14165    14214    14266    14278    14227 
   14148    14092    14075    14081    14087    14077    14073    14100 
   14149    14196    14235    14262    14262    14229    14180    14145 
   14122    14092    14076    14080    14080    14100    14169    14229 
   14223    14175    14145    14150    14166    14164    14156    14169 
   14195    14193    14139    14068    14038    14064    14116    14176 
   14220    14250    14262    14223    14129    14046    14022    14022 
   14010    14003    14037    14102    14143    14149    14149    14162 
   14196    14227    14231    14214    14184    14168    14197    14243 
   14245    14220    14231    14260    14254    14241    14262    14283 
   14260    14216    14200    14229    14266    14276    14265    14245 
   14200    14142    14112    14121    14150    14191    14207    14193 
   14191    14216    14235    14218    14166    14103    14069    14088 
   14126    14143    14145    14152    14153    14137    14115    14085 
   14077    14115    14156    14162    14169    14208    14238    14226 
   14206    14202    14187    14162    14172    14199    14202    14192 
   14183    14154    14127    14138    14175    14204    14216    14222 
   14235    14234    14207    14184    14168    14138    14098    14077 
   14106    14161    14197    14197    14177    14149    14119    14107 
   14107    14114    14152    14219    14258    14253    14243    14226 
   14176    14119    14085    14080    14089    14096    14108    14152 
   14193    14184    14156    14154    14160    14156    14158    14176 
   14199    14210    14197    14153    14100    14108    14177    14223 
   14199    14150    14138    14168    14203    14222    14239    14258 
   14261    14243    14220    14180    14118    14073    14076    14112 
   14169    14220    14230    14207    14185    14158    14115    14085 
   14081    14072    14053    14057    14103    14166    14218    14247 
   14258    14256    14253    14261    14274    14285    14278    14250 
   14223    14211    14189    14164    14173    14211    14210    14149 
   14089    14088    14148    14216    14222    14179    14169    14199 
   14222    14218    14189    14152    14122    14123    14148    14164 
   14162    14150    14139    14134    14118    14073    14044    14071 
   14102    14084    14073    14106    14137    14142    14148    14166 
   14203    14243    14251    14218    14168    14133    14135    14160 
   14161    14141    14126    14118    14104    14098    14112    14146 
   14168    14138    14075    14053    14087    14112    14110    14119 
   14165    14222    14242    14215    14165    14134    14133    14141 
   14149    14180    14235    14270    14242    14187    14192    14260 
   14291    14235    14175    14175    14196    14202    14207    14210 
   14188    14143    14104    14089    14088    14107    14153    14185 
   14164    14135    14149    14169    14172    14189    14208    14191 
   14145    14110    14102    14103    14114    14141    14162    14162 
   14158    14162    14181    14211    14224    14222    14229    14250 
   14258    14242    14223    14207    14177    14149    14164    14195 
   14200    14204    14222    14237    14246    14247    14226    14185 
   14149    14137    14157    14199    14243    14285    14305    14289 
   14258    14237    14222    14207    14196    14203    14219    14229 
   14215    14179    14152    14168    14211    14239    14227    14188 
   14152    14125    14095    14072    14077    14110    14146    14187 
   14231    14256    14234    14188    14156    14142    14126    14121 
   14138    14157    14170    14192    14206    14193    14175    14164 
   14139    14106    14110    14158    14189    14180    14169    14153 
   14107    14049    14031    14072    14141    14193    14202    14170 
   14157    14185    14210    14204    14199    14207    14212    14211 
   14212    14214    14214    14215    14202    14165    14133    14130 
   14149    14165    14177    14193    14218    14235    14241    14251 
   14250    14200    14133    14100    14110    14149    14191    14211 
   14199    14165    14149    14166    14180    14172    14165    14172 
   14181    14181    14165    14138    14130    14149    14157    14139 
   14123    14134    14162    14177    14165    14150    14146    14149 
   14145    14121    14088    14079    14085    14088    14102    14129 
   14152    14170    14181    14184    14191    14188    14162    14139 
