Origin Time       2025/01/13 21:19:00
Lat.              31.8
Long.             131.6
Depth. (km)       30
Mag.              6.9
Station Code      WKYH06
Station Lat.      33.6948
Station Long.     135.5953
Station Height(m) 218
Record Time       2025/01/13 21:21:54
Sampling Freq(Hz) 100Hz
Duration Time(s)  120
Dir.              6
Scale Factor      7845(gal)/8223790
Max. Acc. (gal)   0.159
Last Correction   2025/01/13 21:21:55
Memo.             
[...]
   17266    17267    17267    17262    17262    17263    17262    17259 
   17262    17265    17265    17265    17266    17263    17257    17254 
   17251    17250    17250    17248    17244    17240    17235    17232 
   17234    17232    17230    17231    17232    17230    17226    17224 
   17220    17216    17217    17216    17208    17205    17205    17203 
   17199    17196    17197    17193    17186    17184    17181    17181 
   17184    17185    17184    17188    17192    17193    17192    17189 
   17192    17197    17197    17197    17200    17204    17208    17205 
   17197    17194    17197    17196    17194    17193    17192    17194 
   17193    17189    17190    17194    17196    17197    17197    17190 
   17186    17186    17184    17180    17180    17173    17163    17161 
   17157    17151    17150    17149    17151    17154    17154    17153 
   17153    17151    17149    17151    17155    17155    17150    17150 
   17153    17155    17162    17166    17166    17167    17167    17173 
   17181    17180    17181    17192    17203    17213    17223    17230 
   17238    17244    17250    17262    17274    17288    17297    17304 
   17308    17312    17313    17319    17324    17332    17340    17343 
   17343    17348    17350    17350    17352    17352    17351    17352 
   17350    17347    17347    17346    17338    17328    17327    17329 
   17324    17316    17308    17300    17296    17292    17289    17288 
   17281    17275    17275    17275    17271    17266    17258    17254 
   17254    17257    17257    17253    17250    17246    17243    17243 
   17242    17239    17240    17239    17234    17234    17235    17234 
   17231    17227    17220    17216    17215    17208    17204    17208 
   17205    17197    17192    17190    17188    17181    17173    17173 
   17174    17172    17167    17161    17157    17155    17158    17163 
   17167    17170    17172    17172    17167    17167    17173    17173 
   17174    17184    17189    17190    17196    17200    17199    17200 
   17205    17208    17209    17209    17208    17208    17208    17207 
   17207    17207    17207    17208    17208    17204    17200    17200 
   17199    17194    17192    17192    17192    17193    17192    17188 
   17188    17186    17184    17188    17194    17196    17199    17204 
   17207    17209    17215    17217    17223    17228    17227    17230 
   17238    17240    17242    17246    17248    17253    17254    17257 
   17258    17261    17262    17262    17262    17262    17258    17255 
   17258    17259    17257    17254    17255    17257    17253    17247 
   17243    17242    17239    17238    17238    17236    17232    17230 
   17228    17230    17230    17226    17220    17216    17216    17216 
   17212    17208    17208    17208    17207    17208    17211    17209 
   17211    17217    17221    17220    17220    17220    17223    17221 
   17221    17224    17226    17231    17239    17236    17235    17236 
   17232    17230    17232    17234    17235    17235    17230    17227 
   17226    17226    17226    17223    17220    17217    17219    17217 
   17212    17207    17208    17213    17216    17215    17216    17215 
   17207    17207    17212    17213    17213    17215    17216    17217 
   17219    17221    17220    17217    17223    17228    17227    17224 
   17224    17227    17234    17236    17232    17231    17231    17232 
   17235    17234    17230    17227    17226    17224    17228    17234 
   17232    17228    17228    17231    17235    17238    17238    17239 
   17247    17253    17253    17251    17253    17254    17254    17255 
   17259    17266    17269    17267    17269    17271    17273    17273 
   17271    17274    17273    17265    17263    17265    17262    17261 
   17258    17254    17254    17255    17247    17240    17242    17240 
   17236    17232    17228    17230    17231    17223    17217    17220 
   17223    17226    17227    17221    17216    17215    17217    17220 
   17219    17217    17219    17216    17208    17204    17201    17203 
   17201    17199    17197    17194    17192    17192    17190    17185 
   17181    17181    17185    17186    17178    17173    17176    17174 
   17167    17165    17166    17165    17163    17161    17157    17154 
   17154    17153    17151    17149    17147    17151    17154    17154 
   17155    17155    17153    17158    17169    17173    17173    17174 
   17180    17186    17192    17199    17205    17207    17215    17227 
   17232    17236    17244    17251    17257    17261    17267    17274 
   17277    17282    17290    17293    17294    17296    17296    17297 
   17298    17297    17297    17300    17302    17304    17302    17296 
   17292    17294    17290    17281    17275    17271    17265    17262 
   17257    17253    17251    17246    17240    17235    17230    17227 
   17224    17216    17211    17208    17200    17193    17193    17190 
   17186    17182    17178    17174    17173    17173    17170    17167 
   17166    17165    17162    17158    17154    17155    17159    17158 
   17151    17147    17147    17147    17145    17142    17140    17142 
   17146    17149    17149    17151    17154    17154    17154    17155 
   17155    17159    17165    17167    17172    17177    17178    17178 
   17180    17181    17188    17190    17190    17193    17199    17203 
   17209    17216    17217    17220    17228    17236    17238    17239 
   17246    17248    17253    17265    17273    17280    17288    17292 
   17294    17301    17313    17320    17325    17332    17342    17350 
   17356    17358    17361    17366    17371    17373    17371    17370 
   17370    17370    17367    17362    17361    17355    17351    17350 
   17343    17335    17328    17321    17316    17311    17301    17293 
   17292    17286    17281    17278    17270    17265    17262    17255 
   17250    17250    17251    17248    17246    17246    17244    17240 
   17238    17238    17235    17230    17227    17231    17230    17223 
   17219    17217    17213    17204    17197    17192    17189    17189 
   17184    17178    17177    17173    17162    17151    17147    17147 
   17147    17145    17149    17154    17153    17150    17151    17154 
   17155    17158    17159    17162    17163    17163    17159    17155 
   17157    17159    17165    17163    17159    17163    17170    17172 
   17173    17184    17193    17199    17207    17216    17221    17226 
   17234    17244    17251    17257    17265    17270    17275    17280 
   17282    17284    17286    17286    17282    17282    17289    17290 
   17289    17286    17284    17282    17282    17285    17289    17286 
   17282    17288    17292    17289    17286    17282    17278    17281 
   17284    17278    17271    17266    17266    17266    17262    17258 
   17258    17254    17246    17244    17244    17240    17235    17231 
   17228    17227    17227    17227    17224    17221    17220    17220 
   17219    17219    17221    17220    17219    17224    17221    17213 
   17213    17216    17219    17219    17215    17211    17216    17216 
   17209    17211    17217    17219    17217    17217    17219    17219 
   17217    17216    17216    17217    17216    17211    17207    17209 
   17211    17207    17203    17205    17207    17204    17200    17200 
   17203    17201    17203    17203    17204    17204    17203    17200 
   17197    17199    17200    17197    17197    17196    17194    17193 
   17190    17189    17189    17186    17188    17192    17186    17182 
   17184    17180    17177    17177    17177    17176    17174    17173 
   17177    17181    17181    17181    17186    17190    17190    17189 
   17189    17196    17204    17201    17201    17207    17207    17208 
   17215    17213    17215    17224    17227    17230    17239    17243 
   17244    17247    17251    17258    17263    17263    17267    17270 
   17269    17273    17278    17281    17282    17284    17284    17284 
   17285    17285    17285    17284    17284    17284    17285    17286 
   17285    17282    17282    17284    17286    17289    17289    17290 
   17294    17297    17297    17297    17301    17302    17301    17301 
   17297    17297    17300    17294    17288    17289    17285    17275 
   17269    17267    17262    17251    17243    17238    17227    17217 
   17212    17207    17200    17193    17182    17173    17169    17166 
   17161    17154    17149    17149    17147    17142    17140    17143 
   17140    17139    17142    17142    17140    17142    17140    17138 
   17139    17138    17135    17135    17138    17140    17139    17135 
   17132    17132    17132    17131    17131    17132    17132    17131 
   17128    17128    17130    17128    17128    17128    17124    17127 
   17130    17128    17127    17130    17130    17127    17128    17132 
   17138    17138    17136    17139    17146    17149    17150    17150 
   17151    17158    17162    17158    17159    17166    17169    17169 
   17172    17172    17173    17180    17181    17177    17174    17177 
   17182    17184    17184    17188    17190    17192    17193    17196 
   17201    17207    17207    17204    17205    17211    17216    17220 
   17223    17224    17227    17228    17231    17236    17238    17239 
   17238    17238    17239    17239    17242    17243    17240    17242 
   17244    17243    17244    17248    17248    17248    17250    17255 
   17258    17258    17261    17266    17267    17269    17271    17277 
   17281    17286    17290    17290    17294    17300    17302    17307 
   17309    17315    17319    17317    17316    17320    17325    17327 
   17327    17329    17335    17336    17331    17332    17336    17335 
   17335    17335    17331    17328    17328    17325    17320    17316 
   17313    17309    17301    17297    17292    17285    17282    17280 
   17273    17267    17262    17257    17250    17240    17235    17232 
   17226    17212    17204    17199    17188    17182    17178    17169 
   17161    17150    17138    17134    17131    17122    17112    17105 
   17097    17096    17096    17092    17085    17086    17085    17081 
   17080    17080    17077    17076    17074    17073    17073    17072 
   17070    17073    17076    17073    17070    17073    17076    17073 
   17072    17077    17081    17080    17082    17085    17089    17095 
   17099    17103    17111    17120    17124    17131    17135    17135 
   17145    17155    17159    17166    17178    17184    17190    17201 
   17207    17211    17217    17226    17230    17231    17234    17240 
   17250    17253    17251    17254    17261    17266    17265    17266 
   17270    17270    17270    17274    17274    17273    17273    17271 
   17273    17278    17278    17277    17278    17278    17281    17282 
   17280    17277    17280    17280    17274    17274    17280    17280 
   17275    17275    17278    17281    17288    17293    17293    17293 
   17297    17300    17297    17297    17301    17304    17300    17297 
   17300    17304    17302    17296    17296    17296    17289    17282 
   17277    17273    17271    17270    17262    17257    17254    17250 
   17244    17235    17228    17227    17221    17215    17211    17205 
   17201    17199    17197    17201    17204    17203    17200    17199 
   17200    17205    17209    17209    17212    17215    17216    17220 
   17224    17227    17231    17239    17243    17246    17253    17259 
   17261    17262    17263    17265    17271    17277    17275    17274 
   17277    17278    17277    17273    17271    17273    17274    17274 
   17269    17263    17263    17266    17267    17263    17259    17258 
   17255    17254    17251    17246    17242    17240    17239    17238 
   17236    17236    17234    17231    17227    17224    17223    17217 
   17211    17209    17209    17205    17197    17189    17186    17184 
   17177    17170    17167    17159    17147    17140    17139    17136 
   17131    17122    17112    17107    17107    17104    17100    17097 
   17096    17095    17093    17093    17095    17095    17093    17096 
   17097    17101    17107    17111    17113    17119    17123    17128 
   17136    17143    17146    17149    17158    17163    17163    17170 
   17178    17181    17182    17188    17192    17190    17189    17192 
   17196    17199    17199    17200    17201    17203    17205    17205 
   17201    17200    17207    17212    17208    17207    17209    17209 
   17209    17212    17216    17217    17216    17216    17223    17230 
   17231    17232    17232    17231    17235    17239    17238    17242 
   17247    17246    17240    17239    17238    17236    17236    17238 
   17235    17228    17226    17226    17219    17211    17207    17204 
   17203    17199    17188    17181    17181    17177    17169    17163 
   17159    17155    17146    17138    17134    17127    17120    17120 
   17118    17109    17103    17097    17095    17091    17086    17084 
   17078    17076    17074    17070    17069    17072    17077    17078 
   17080    17082    17088    17091    17093    17101    17107    17111 
   17120    17130    17134    17142    17154    17162    17170    17181 
   17186    17192    17203    17212    17220    17228    17232    17235 
   17242    17250    17255    17263    17271    17277    17284    17294 
   17300    17305    17312    17313    17320    17331    17335    17339 
   17347    17354    17358    17363    17365    17370    17377    17377 
   17374    17377    17379    17381    17383    17383    17377    17375 
   17379    17375    17370    17371    17371    17366    17363    17362 
   17361    17358    17355    17351    17346    17340    17334    17327 
   17327    17327    17327    17324    17317    17316    17315    17313 
   17312    17307    17302    17302    17297    17293    17290    17286 
   17284    17280    17274    17270    17270    17262    17251    17250 
   17244    17235    17230    17227    17215    17207    17204    17197 
   17188    17180    17172    17161    17151    17146    17138    17131 
   17127    17120    17115    17108    17101    17100    17097    17095 
   17095    17093    17095    17099    17101    17101    17107    17112 
   17118    17122    17123    17124    17131    17138    17142    17143 
   17146    17149    17154    17157    17161    17163    17165    17169 
   17173    17173    17174    17178    17180    17181    17182    17181 
   17182    17186    17186    17184    17188    17186    17185    17188 
   17186    17180    17180    17185    17184    17180    17178    17176 
   17173    17176    17178    17177    17178    17180    17181    17181 
   17181    17181    17180    17180    17181    17181    17181    17181 
   17184    17185    17184    17185    17190    17194    17194    17192 
   17192    17197    17200    17197    17200    17205    17207    17205 
   17205    17208    17217    17227    17227    17224    17231    17236 
   17235    17234    17234    17235    17240    17244    17247    17246 
   17244    17244    17246    17246    17246    17243    17244    17244 
   17243    17242    17240    17240    17242    17239    17232    17230 
   17228    17226    17223    17219    17217    17215    17211    17207 
   17204    17199    17193    17192    17193    17194    17193    17190 
   17188    17189    17188    17182    17181    17181    17178    17176 
   17176    17174    17170    17167    17169    17169    17165    17161 
   17159    17159    17159    17159    17158    17158    17158    17155 
   17157    17157    17158    17161    17159    17157    17158    17161 
   17159    17157    17159    17162    17165    17165    17166    17170 
   17170    17172    17172    17172    17170    17170    17173    17174 
   17173    17172    17169    17170    17173    17173    17176    17181 
   17178    17180    17185    17189    17192    17193    17197    17203 
   17207    17211    17216    17217    17221    17230    17231    17235 
   17240    17243    17246    17250    17255    17259    17262    17263 
   17265    17266    17269    17271    17273    17271    17273    17275 
   17275    17274    17274    17277    17275    17274    17271    17267 
   17262    17261    17263    17263    17259    17258    17255    17251 
   17250    17248    17247    17243    17240    17242    17240    17236 
   17238    17238    17232    17230    17231    17230    17228    17230 
   17228    17228    17232    17232    17228    17227    17227    17223 
   17220    17220    17217    17215    17215    17216    17213    17212 
   17211    17208    17207    17207    17205    17204    17203    17203 
   17203    17200    17203    17208    17208    17205    17207    17208 
   17207    17209    17209    17207    17208    17212    17209    17207 
   17204    17203    17207    17207    17201    17199    17197    17194 
   17192    17185    17180    17176    17170    17167    17166    17159 
   17151    17146    17136    17127    17124    17120    17108    17101 
   17099    17092    17085    17082    17076    17069    17066    17064 
   17059    17061    17059    17057    17061    17062    17057    17058 
   17064    17066    17066    17068    17070    17076    17080    17081 
   17086    17095    17097    17100    17103    17105    17113    17120 
   17123    17124    17127    17132    17139    17142    17145    17150 
   17154    17157    17161    17167    17176    17177    17177    17185 
   17197    17199    17199    17207    17216    17219    17224    17232 
   17235    17239    17248    17251    17253    17261    17262    17261 
   17265    17267    17271    17275    17278    17281    17286    17289 
   17290    17297    17301    17302    17302    17304    17309    17312 
   17309    17311    17315    17315    17313    17313    17313    17313 
   17312    17307    17301    17298    17294    17288    17281    17275 
   17270    17267    17267    17261    17253    17247    17242    17238 
   17236    17234    17228    17227    17223    17216    17213    17211 
   17204    17200    17203    17203    17199    17194    17192    17192 
   17189    17185    17184    17181    17178    17178    17178    17176 
   17174    17174    17176    17173    17169    17167    17167    17162 
   17157    17158    17163    17165    17163    17165    17162    17161 
   17163    17163    17163    17162    17159    17159    17161    17165 
   17167    17166    17166    17166    17165    17166    17169    17172 
   17173    17173    17172    17176    17177    17177    17180    17182 
   17184    17186    17189    17189    17192    17194    17197    17203 
   17207    17204    17209    17216    17216    17219    17224    17223 
   17226    17232    17235    17236    17238    17242    17247    17253 
   17257    17262    17265    17265    17266    17270    17274    17277 
   17277    17277    17278    17281    17282    17281    17280    17284 
   17286    17288    17289    17292    17293    17292    17292    17290 
   17293    17296    17294    17292    17293    17293    17293    17296 
   17293    17290    17294    17294    17289    17285    17284    17281 
   17277    17274    17271    17267    17267    17265    17258    17254 
   17253    17246    17242    17240    17236    17230    17223    17216 
   17211    17205    17196    17190    17186    17177    17172    17167 
   17159    17155    17153    17143    17140    17142    17138    17132 
