Origin Time       2025/01/13 21:19:00
Lat.              31.8
Long.             131.6
Depth. (km)       30
Mag.              6.9
Station Code      WKYH06
Station Lat.      33.6948
Station Long.     135.5953
Station Height(m) 118
Record Time       2025/01/13 21:21:54
Sampling Freq(Hz) 100Hz
Duration Time(s)  120
Dir.              1
Scale Factor      2942(gal)/8224139
Max. Acc. (gal)   0.157
Last Correction   2025/01/13 21:21:55
Memo.             
[...]
   95638    95627    95617    95617    95623    95621    95616    95617 
   95617    95612    95615    95620    95621    95629    95634    95636 
   95636    95628    95624    95623    95616    95612    95612    95608 
   95602    95602    95607    95608    95600    95594    95594    95597 
   95600    95600    95596    95593    95588    95580    95575    95571 
   95563    95563    95561    95554    95548    95538    95527    95511 
   95494    95486    95472    95457    95453    95445    95434    95427 
   95420    95409    95405    95404    95399    95392    95392    95391 
   95386    95388    95391    95391    95388    95386    95388    95382 
   95378    95385    95385    95380    95388    95399    95399    95400 
   95405    95413    95420    95427    95438    95449    95457    95463 
   95467    95477    95496    95512    95516    95523    95539    95547 
   95546    95553    95559    95563    95573    95581    95589    95597 
   95598    95607    95617    95621    95627    95640    95646    95644 
   95652    95661    95663    95669    95671    95674    95686    95692 
   95688    95692    95705    95720    95729    95735    95747    95762 
   95774    95786    95798    95808    95812    95813    95817    95818 
   95820    95823    95824    95828    95829    95827    95827    95825 
   95820    95818    95820    95816    95814    95810    95806    95809 
   95809    95809    95806    95800    95796    95787    95775    95766 
   95755    95743    95732    95719    95705    95690    95674    95665 
   95661    95652    95640    95628    95615    95601    95589    95580 
   95571    95567    95567    95569    95567    95569    95567    95558 
   95554    95555    95550    95542    95536    95531    95521    95519 
   95523    95521    95519    95524    95534    95534    95528    95527 
   95523    95511    95505    95503    95489    95480    95480    95470 
   95455    95445    95436    95431    95428    95427    95427    95427 
   95426    95430    95435    95434    95435    95440    95445    95449 
   95451    95454    95462    95472    95478    95484    95489    95492 
   95488    95486    95490    95493    95499    95505    95513    95520 
   95524    95527    95526    95523    95524    95520    95516    95521 
   95523    95523    95534    95543    95543    95544    95544    95539 
   95536    95536    95535    95534    95532    95535    95539    95539 
   95540    95543    95546    95548    95554    95566    95581    95585 
   95586    95597    95609    95615    95619    95634    95646    95654 
   95663    95674    95686    95697    95705    95715    95725    95728 
   95729    95743    95747    95739    95739    95737    95727    95723 
   95715    95704    95698    95690    95677    95663    95648    95638 
   95638    95636    95628    95620    95616    95612    95607    95607 
   95605    95609    95615    95616    95619    95623    95619    95615 
   95609    95601    95594    95593    95589    95585    95582    95581 
   95577    95575    95571    95565    95558    95555    95551    95543 
   95539    95539    95540    95539    95538    95539    95543    95548 
   95558    95565    95570    95581    95590    95590    95589    95589 
   95588    95584    95584    95586    95585    95586    95585    95578 
   95573    95569    95558    95553    95551    95550    95543    95535 
   95530    95524    95519    95517    95519    95516    95511    95505 
   95494    95484    95478    95469    95461    95457    95445    95432 
   95428    95422    95411    95404    95399    95393    95391    95393 
   95393    95386    95386    95400    95408    95408    95418    95432 
   95440    95445    95458    95472    95474    95474    95476    95477 
   95476    95477    95485    95486    95492    95505    95507    95507 
   95513    95512    95511    95509    95507    95512    95517    95519 
   95521    95526    95532    95536    95539    95544    95547    95548 
   95554    95559    95565    95573    95574    95577    95586    95592 
   95594    95604    95617    95628    95635    95640    95647    95655 
   95663    95666    95670    95677    95683    95688    95692    95696 
   95700    95701    95702    95710    95720    95727    95737    95748 
   95751    95755    95762    95759    95760    95767    95762    95752 
   95756    95756    95751    95755    95762    95759    95752    95752 
   95747    95736    95728    95723    95720    95710    95701    95704 
   95702    95694    95688    95683    95681    95681    95678    95673 
   95667    95665    95662    95654    95647    95644    95642    95635 
   95625    95617    95613    95607    95600    95593    95588    95586 
   95585    95574    95563    95558    95550    95534    95519    95512 
   95501    95485    95477    95473    95465    95461    95458    95449 
   95442    95440    95427    95416    95418    95413    95407    95407 
   95408    95407    95405    95403    95396    95386    95381    95378 
   95376    95373    95376    95380    95384    95386    95393    95399 
   95396    95393    95395    95397    95399    95400    95403    95411 
   95419    95430    95445    95457    95463    95476    95485    95488 
   95490    95497    95507    95513    95526    95539    95543    95551 
   95559    95555    95553    95550    95548    95553    95553    95548 
   95551    95555    95559    95565    95571    95580    95593    95596 
   95589    95589    95588    95580    95581    95581    95571    95566 
   95558    95551    95548    95547    95548    95550    95547    95544 
   95543    95542    95542    95542    95548    95554    95555    95562 
   95566    95566    95573    95575    95573    95580    95588    95596 
   95600    95604    95616    95629    95632    95636    95640    95643 
   95646    95647    95650    95651    95650    95656    95659    95654 
   95650    95647    95647    95648    95650    95654    95658    95663 
   95666    95662    95662    95666    95665    95661    95661    95662 
   95658    95655    95658    95656    95652    95651    95646    95643 
   95646    95635    95625    95627    95620    95611    95612    95608 
   95604    95607    95604    95600    95596    95589    95593    95598 
   95596    95594    95594    95592    95598    95604    95607    95613 
   95620    95623    95628    95635    95639    95642    95647    95650 
   95648    95651    95650    95646    95647    95648    95651    95654 
   95648    95639    95635    95629    95620    95608    95596    95588 
   95574    95561    95553    95544    95535    95524    95519    95511 
   95496    95481    95470    95453    95435    95419    95404    95391 
   95380    95373    95369    95365    95366    95373    95376    95381 
   95391    95392    95396    95409    95415    95418    95426    95430 
   95438    95450    95463    95477    95489    95500    95516    95532 
   95544    95559    95582    95604    95621    95636    95647    95656 
   95671    95692    95705    95710    95721    95732    95737    95743 
   95744    95740    95736    95735    95736    95740    95732    95723 
   95716    95704    95686    95671    95661    95654    95642    95631 
   95625    95617    95611    95611    95605    95597    95594    95589 
   95582    95581    95582    95582    95581    95582    95585    95584 
   95580    95575    95575    95577    95573    95573    95578    95578 
   95578    95581    95584    95590    95593    95592    95592    95589 
   95586    95588    95584    95578    95588    95597    95597    95601 
   95609    95608    95604    95605    95601    95593    95592    95586 
   95580    95581    95580    95581    95593    95593    95588    95593 
   95593    95588    95585    95585    95582    95575    95575    95575 
   95570    95569    95565    95558    95558    95559    95559    95562 
   95563    95566    95562    95557    95555    95553    95548    95543 
   95535    95528    95520    95511    95504    95499    95494    95488 
   95481    95484    95485    95482    95485    95486    95486    95489 
   95493    95497    95500    95501    95504    95512    95513    95509 
   95508    95504    95504    95515    95517    95519    95532    95543 
   95547    95559    95573    95573    95578    95592    95600    95605 
   95613    95621    95625    95629    95634    95636    95638    95647 
   95652    95648    95644    95650    95652    95650    95648    95648 
   95646    95638    95632    95628    95623    95616    95613    95609 
   95604    95598    95589    95581    95577    95574    95569    95565 
   95561    95558    95551    95547    95554    95554    95548    95550 
   95550    95546    95543    95539    95535    95527    95521    95517 
   95512    95508    95507    95500    95493    95489    95482    95474 
   95470    95461    95447    95438    95428    95422    95413    95404 
   95396    95391    95389    95386    95382    95384    95391    95396 
   95397    95399    95403    95403    95400    95400    95411    95422 
   95424    95430    95439    95453    95466    95477    95488    95494 
   95501    95511    95516    95520    95527    95528    95528    95535 
   95540    95539    95540    95543    95539    95538    95538    95535 
   95531    95528    95520    95513    95511    95508    95504    95499 
   95493    95489    95490    95490    95490    95493    95490    95485 
   95485    95482    95480    95477    95473    95469    95467    95467 
   95466    95462    95463    95467    95467    95463    95462    95459 
   95454    95450    95445    95439    95436    95434    95427    95432 
   95436    95432    95434    95436    95438    95443    95449    95451 
   95455    95458    95461    95466    95467    95459    95458    95467 
   95470    95466    95467    95473    95474    95477    95482    95485 
   95485    95488    95489    95490    95494    95500    95504    95505 
   95509    95509    95504    95504    95509    95513    95519    95523 
   95527    95535    95540    95539    95538    95538    95540    95542 
   95546    95551    95555    95563    95565    95563    95573    95578 
   95581    95590    95594    95596    95607    95620    95631    95639 
   95643    95656    95669    95674    95679    95688    95697    95705 
   95713    95723    95731    95746    95756    95756    95760    95766 
   95766    95767    95769    95769    95770    95770    95766    95760 
   95754    95751    95751    95748    95746    95746    95740    95733 
   95729    95720    95704    95694    95682    95666    95658    95648 
   95634    95627    95623    95617    95608    95593    95588    95582 
   95563    95543    95531    95511    95492    95474    95454    95436 
   95420    95404    95395    95380    95365    95357    95350    95347 
   95345    95341    95335    95328    95324    95320    95311    95310 
   95316    95316    95315    95319    95320    95322    95324    95327 
   95332    95335    95335    95337    95339    95339    95339    95343 
   95346    95346    95349    95354    95351    95346    95347    95345 
   95343    95342    95339    95339    95338    95339    95347    95349 
   95351    95361    95365    95366    95374    95385    95393    95401 
   95412    95422    95430    95438    95445    95449    95451    95453 
   95455    95458    95465    95466    95465    95472    95477    95474 
   95473    95473    95473    95473    95470    95465    95463    95463 
   95459    95457    95457    95455    95455    95449    95439    95439 
   95439    95435    95432    95430    95426    95422    95416    95409 
   95408    95412    95412    95415    95423    95422    95420    95430 
   95431    95431    95438    95440    95447    95458    95461    95459 
   95463    95465    95457    95454    95454    95453    95453    95454 
   95455    95461    95465    95466    95467    95470    95470    95469 
   95474    95482    95486    95492    95500    95503    95505    95513 
   95520    95526    95534    95542    95547    95557    95566    95571 
   95581    95592    95600    95609    95619    95627    95634    95638 
   95640    95646    95651    95651    95648    95643    95640    95634 
   95629    95634    95628    95613    95608    95604    95594    95584 
   95575    95567    95558    95550    95540    95528    95517    95507 
   95500    95492    95478    95472    95469    95465    95465    95465 
   95466    95470    95473    95477    95481    95484    95492    95500 
   95504    95516    95531    95543    95557    95571    95585    95600 
   95612    95621    95631    95639    95648    95656    95661    95670 
   95674    95675    95683    95692    95693    95692    95690    95688 
   95681    95675    95665    95654    95648    95643    95636    95629 
   95624    95623    95621    95616    95612    95609    95608    95605 
   95601    95601    95602    95602    95605    95607    95612    95621 
   95624    95625    95628    95629    95640    95648    95650    95658 
   95666    95667    95673    95682    95685    95688    95694    95698 
   95701    95709    95712    95712    95724    95735    95736    95740 
   95744    95744    95748    95754    95754    95756    95760    95758 
   95755    95758    95758    95755    95758    95759    95755    95750 
   95747    95740    95729    95720    95712    95702    95694    95683 
   95667    95651    95635    95616    95593    95571    95553    95531 
   95505    95480    95455    95430    95404    95381    95357    95332 
   95312    95297    95278    95260    95245    95235    95222    95206 
   95195    95188    95175    95162    95154    95146    95137    95130 
   95127    95123    95122    95122    95122    95126    95135    95143 
   95150    95157    95160    95166    95177    95184    95188    95188 
   95195    95203    95202    95208    95220    95224    95234    95246 
   95253    95268    95284    95288    95300    95323    95341    95353 
   95370    95388    95401    95413    95427    95443    95459    95481 
   95499    95516    95540    95561    95584    95615    95636    95661 
   95688    95706    95729    95755    95771    95785    95800    95808 
   95812    95820    95828    95831    95831    95831    95829    95828 
   95823    95814    95804    95796    95793    95787    95783    95781 
   95778    95775    95774    95773    95773    95769    95766    95769 
   95770    95769    95770    95777    95782    95790    95797    95804 
   95809    95813    95820    95828    95832    95836    95843    95844 
   95847    95854    95858    95860    95863    95862    95856    95851 
   95844    95836    95825    95812    95801    95794    95782    95767 
   95755    95740    95721    95704    95683    95669    95651    95624 
   95602    95586    95569    95555    95546    95534    95523    95519 
   95516    95509    95508    95508    95504    95499    95501    95505 
   95505    95508    95511    95513    95517    95520    95521    95526 
   95532    95532    95534    95539    95538    95536    95543    95546 
   95546    95542    95539    95542    95540    95538    95539    95544 
   95547    95544    95548    95554    95553    95553    95555    95557 
   95561    95561    95563    95573    95574    95574    95584    95590 
   95593    95600    95604    95605    95608    95613    95616    95617 
   95619    95623    95628    95631    95640    95648    95646    95643 
   95643    95636    95629    95628    95625    95620    95615    95602 
   95589    95580    95571    95559    95548    95540    95535    95526 
   95523    95526    95524    95526    95532    95536    95540    95547 
   95551    95558    95565    95570    95580    95589    95594    95598 
   95611    95620    95619    95620    95625    95623    95619    95619 
   95617    95613    95605    95598    95596    95589    95581    95570 
   95558    95548    95544    95539    95532    95528    95528    95527 
   95526    95530    95530    95531    95540    95542    95536    95538 
   95546    95546    95544    95548    95548    95547    95551    95557 
   95558    95565    95571    95571    95573    95582    95590    95592 
   95594    95605    95616    95627    95636    95639    95648    95662 
   95667    95677    95689    95697    95713    95732    95740    95748 
   95763    95777    95785    95796    95810    95821    95833    95841 
   95852    95871    95879    95881    95890    95894    95898    95909 
   95914    95908    95909    95909    95899    95887    95878    95866 
   95854    95837    95820    95808    95794    95770    95744    95720 
   95698    95682    95663    95642    95625    95608    95584    95562 
   95544    95526    95512    95500    95482    95470    95461    95446 
   95438    95428    95419    95413    95408    95401    95401    95403 
   95400    95399    95407    95413    95415    95420    95430    95432 
   95435    95438    95438    95438    95443    95453    95459    95463 
   95472    95478    95481    95489    95500    95505    95508    95515 
   95520    95521    95530    95539    95542    95544    95547    95550 
   95561    95569    95569    95577    95589    95594    95601    95611 
   95615    95615    95621    95632    95635    95638    95647    95654 
   95659    95669    95671    95670    95673    95679    95682    95686 
   95693    95692    95690    95696    95693    95685    95682    95681 
   95675    95665    95651    95636    95624    95612    95593    95570 
   95550    95530    95509    95489    95466    95447    95432    95413 
   95393    95376    95362    95345    95324    95311    95296    95278 
   95264    95251    95245    95241    95237    95237    95235    95231 
   95231    95235    95241    95246    95247    95251    95262    95272 
   95277    95287    95297    95311    95324    95335    95350    95364 
   95376    95388    95399    95411    95427    95438    95447    95458 
   95465    95473    95484    95490    95500    95512    95519    95524 
   95532    95538    95540    95547    95553    95558    95562    95563 
   95566    95569    95570    95573    95574    95580    95588    95590 
   95588    95593    95604    95613    95621    95634    95644    95654 
   95667    95688    95708    95720    95737    95762    95783    95808 
   95827    95840    95852    95866    95883    95898    95905    95913 
   95924    95924    95925    95932    95931    95922    95920    95914 
   95905    95898    95891    95877    95859    95850    95835    95812 
   95794    95777    95755    95740    95727    95709    95697    95685 
   95673    95665    95655    95647    95638    95624    95616    95615 
   95608    95604    95604    95605    95607    95605    95602    95601 
   95601    95604    95607    95608    95609    95611    95617    95620 
   95620    95621    95624    95623    95621    95620    95616    95616 
   95616    95612    95605    95596    95593    95592    95582    95577 
   95577    95571    95563    95558    95555    95548    95540    95535 
   95532    95524    95515    95509    95509    95503    95489    95481 
   95474    95463    95450    95435    95422    95412    95404    95386 
   95370    95362    95347    95335    95328    95315    95297    95287 
   95278    95270    95258    95245    95237    95233    95220    95206 
   95200    95196    95191    95185    95183    95180    95173    95169 
   95172    95166    95164    95168    95170    95175    95181    95189 
   95197    95202    95207    95219    95230    95237    95246    95254 
   95261    95269    95278    95293    95308    95319    95331    95347 
