Origin Time       2025/01/13 21:19:00
Lat.              31.8
Long.             131.6
Depth. (km)       30
Mag.              6.9
Station Code      WKYH06
Station Lat.      33.6948
Station Long.     135.5953
Station Height(m) 118
Record Time       2025/01/13 21:21:54
Sampling Freq(Hz) 100Hz
Duration Time(s)  120
Dir.              2
Scale Factor      2942(gal)/8224139
Max. Acc. (gal)   0.157
Last Correction   2025/01/13 21:21:55
Memo.             
[...]
  136961   136958   136956   136954   136952   136950   136954   136954 
  136952   136954   136961   136965   136966   136972   136975   136972 
  136972   136976   136980   136984   136987   136989   136995   137002 
  137006   137011   137014   137014   137018   137023   137025   137023 
  137026   137027   137026   137026   137029   137031   137031   137034 
  137039   137042   137045   137043   137043   137045   137047   137050 
  137056   137061   137068   137073   137081   137088   137093   137103 
  137115   137122   137127   137137   137146   137154   137160   137166 
  137176   137180   137181   137185   137191   137193   137196   137203 
  137208   137211   137214   137212   137212   137209   137205   137205 
  137204   137199   137196   137193   137187   137181   137173   137161 
  137149   137139   137128   137118   137115   137114   137106   137103 
  137100   137091   137088   137088   137081   137077   137079   137077 
  137074   137072   137074   137081   137084   137083   137081   137077 
  137073   137073   137076   137077   137081   137085   137089   137092 
  137093   137099   137103   137101   137103   137104   137100   137097 
  137093   137088   137088   137088   137083   137076   137069   137058 
  137049   137042   137034   137023   137008   136998   136992   136983 
  136969   136961   136954   136944   136933   136926   136918   136914 
  136910   136908   136907   136906   136908   136910   136908   136906 
  136900   136896   136898   136900   136907   136917   136926   136937 
  136944   136952   136957   136964   136979   136985   136993   137008 
  137019   137033   137052   137065   137073   137083   137092   137096 
  137096   137100   137099   137093   137096   137100   137095   137095 
  137096   137088   137081   137080   137076   137072   137072   137066 
  137058   137058   137061   137060   137054   137050   137049   137043 
  137034   137029   137027   137023   137018   137019   137020   137019 
  137019   137023   137030   137038   137043   137049   137054   137062 
  137070   137083   137097   137111   137122   137135   137149   137158 
  137166   137173   137180   137191   137199   137203   137211   137218 
  137215   137212   137211   137201   137193   137187   137176   137168 
  137158   137141   137128   137119   137097   137074   137060   137042 
  137020   137000   136981   136960   136941   136929   136912   136896 
  136883   136872   136865   136860   136853   136849   136846   136845 
  136850   136852   136853   136863   136873   136881   136891   136898 
  136906   136919   136929   136937   136949   136961   136975   136987 
  136998   137011   137020   137029   137037   137045   137054   137064 
  137073   137083   137089   137099   137107   137111   137118   137127 
  137134   137138   137142   137151   137164   137176   137176   137174 
  137182   137187   137181   137182   137187   137187   137188   137185 
  137184   137187   137187   137182   137178   137173   137166   137164 
  137165   137164   137155   137151   137153   137151   137149   137151 
  137150   137147   137153   137154   137154   137160   137161   137160 
  137161   137161   137162   137161   137154   137153   137150   137141 
  137133   137135   137138   137134   137131   137133   137131   137124 
  137120   137122   137119   137111   137107   137106   137101   137106 
  137110   137107   137108   137112   137118   137122   137124   137126 
  137124   137126   137131   137134   137137   137145   137149   137153 
  137158   137165   137168   137169   137168   137166   137164   137166 
  137169   137168   137161   137153   137146   137139   137130   137122 
  137119   137116   137108   137103   137097   137092   137084   137077 
  137076   137074   137068   137062   137058   137056   137052   137047 
  137045   137038   137027   137023   137019   137012   137003   136996 
  136993   136992   136989   136987   136984   136981   136980   136979 
  136976   136975   136973   136972   136976   136981   136983   136984 
  136991   137002   137006   137010   137018   137023   137029   137039 
  137049   137064   137077   137087   137097   137111   137123   137133 
  137142   137153   137168   137182   137197   137211   137226   137241 
  137251   137258   137263   137266   137266   137269   137268   137262 
  137261   137259   137257   137255   137257   137257   137250   137241 
  137235   137227   137220   137216   137205   137188   137180   137178 
  137172   137162   137155   137146   137139   137134   137120   137107 
  137100   137092   137080   137068   137060   137050   137037   137029 
  137023   137015   137010   137007   137000   136993   136989   136987 
  136989   136988   136983   136987   136989   136984   136979   136980 
  136979   136976   136972   136966   136964   136962   136958   136957 
  136954   136949   136945   136942   136941   136938   136938   136935 
  136934   136935   136935   136937   136938   136939   136944   136946 
  136944   136944   136949   136953   136956   136958   136962   136965 
  136968   136976   136983   136985   136991   137000   137004   137011 
  137020   137029   137041   137057   137070   137081   137096   137114 
  137127   137139   137155   137170   137182   137195   137207   137218 
  137227   137236   137246   137257   137268   137277   137280   137278 
  137278   137278   137274   137270   137265   137262   137258   137253 
  137247   137235   137224   137215   137201   137191   137182   137166 
  137143   137127   137114   137091   137064   137045   137027   137004 
  136983   136966   136948   136931   136919   136900   136879   136864 
  136852   136834   136818   136806   136794   136783   136777   136772 
  136765   136760   136756   136750   136748   136744   136742   136745 
  136746   136748   136755   136759   136760   136765   136768   136775 
  136783   136782   136782   136787   136786   136787   136791   136790 
  136787   136784   136782   136787   136792   136795   136798   136795 
  136790   136790   136792   136795   136795   136794   136790   136787 
  136791   136799   136803   136806   136813   136822   136829   136837 
  136846   136856   136864   136869   136875   136884   136894   136903 
  136911   136921   136929   136935   136944   136954   136965   136977 
  136988   136993   137002   137014   137027   137038   137050   137060 
  137070   137085   137100   137112   137120   137131   137142   137151 
  137160   137168   137174   137176   137174   137178   137184   137182 
  137185   137189   137189   137188   137191   137191   137187   137188 
  137187   137184   137182   137180   137180   137184   137184   137182 
  137184   137184   137181   137180   137177   137176   137176   137172 
  137165   137161   137153   137145   137137   137130   137120   137106 
  137092   137083   137069   137050   137035   137025   137015   137006 
  136993   136980   136972   136968   136964   136958   136953   136948 
  136944   136938   136934   136935   136935   136934   136937   136939 
  136942   136945   136950   136957   136962   136969   136977   136984 
  136993   137007   137020   137031   137045   137061   137074   137087 
  137097   137108   137119   137130   137142   137149   137154   137161 
  137165   137165   137165   137165   137166   137164   137161   137160 
  137155   137150   137147   137143   137134   137124   137119   137112 
  137104   137096   137093   137089   137080   137073   137072   137064 
  137058   137057   137057   137058   137058   137056   137058   137058 
  137057   137058   137060   137058   137060   137061   137062   137065 
  137069   137072   137073   137073   137073   137073   137072   137073 
  137076   137076   137077   137080   137074   137069   137073   137072 
  137065   137062   137061   137057   137050   137043   137039   137031 
  137022   137014   137007   137000   136993   136987   136975   136960 
  136948   136938   136927   136918   136911   136903   136894   136888 
  136881   136873   136867   136860   136850   136838   136827   136814 
  136804   136803   136794   136780   136776   136775   136767   136760 
  136757   136755   136748   136746   136753   136756   136761   136763 
  136761   136765   136772   136776   136779   136784   136790   136795 
  136802   136807   136814   136822   136831   136844   136854   136860 
  136869   136877   136881   136890   136895   136899   136904   136906 
  136907   136911   136912   136910   136911   136914   136914   136915 
  136912   136907   136906   136904   136902   136904   136912   136919 
  136929   136941   136945   136952   136965   136977   136988   137003 
  137025   137045   137061   137080   137100   137122   137141   137157 
  137178   137199   137211   137224   137242   137257   137270   137285 
  137295   137301   137308   137315   137315   137319   137326   137323 
  137322   137323   137317   137309   137307   137300   137289   137280 
  137278   137273   137263   137258   137254   137245   137236   137236 
  137232   137224   137220   137212   137204   137201   137192   137180 
  137172   137164   137151   137139   137130   137120   137107   137095 
  137084   137073   137066   137060   137054   137053   137049   137045 
  137045   137039   137031   137029   137026   137018   137012   137007 
  137000   136992   136984   136979   136975   136966   136960   136952 
  136942   136934   136925   136917   136908   136898   136891   136884 
  136879   136879   136873   136868   136864   136853   136842   136840 
  136831   136819   136811   136806   136799   136792   136788   136787 
  136782   136771   136764   136759   136755   136750   136750   136748 
  136744   136744   136744   136745   136750   136753   136752   136753 
  136759   136765   136772   136776   136780   136786   136795   136804 
  136813   136819   136829   136840   136845   136850   136857   136867 
  136879   136884   136885   136895   136907   136917   136927   136938 
  136945   136954   136965   136972   136983   136992   136996   137008 
  137018   137018   137026   137030   137027   137034   137038   137039 
  137045   137046   137050   137057   137058   137060   137066   137073 
  137077   137083   137088   137092   137097   137103   137108   137115 
  137126   137130   137134   137143   137151   137158   137166   137173 
  137174   137180   137189   137192   137191   137197   137207   137208 
  137205   137211   137212   137209   137208   137208   137209   137212 
  137214   137212   137212   137214   137214   137218   137220   137222 
  137224   137228   137224   137222   137223   137223   137219   137218 
  137218   137209   137200   137196   137192   137184   137172   137160 
  137147   137137   137124   137108   137091   137079   137068   137054 
  137042   137029   137014   137002   136989   136979   136969   136958 
  136952   136944   136930   136915   136902   136894   136883   136867 
  136854   136844   136833   136827   136822   136817   136815   136811 
  136806   136807   136810   136814   136818   136823   136829   136834 
  136842   136852   136863   136876   136887   136895   136906   136921 
  136935   136948   136962   136973   136985   137002   137014   137027 
  137041   137053   137066   137080   137093   137107   137116   137120 
  137126   137130   137134   137138   137138   137138   137141   137142 
  137142   137142   137135   137130   137128   137120   137110   137101 
  137093   137080   137068   137054   137038   137025   137016   137011 
  137006   136998   136985   136975   136969   136968   136962   136952 
  136946   136946   136944   136939   136935   136930   136925   136922 
  136915   136907   136904   136898   136888   136880   136868   136857 
  136849   136840   136829   136814   136800   136790   136773   136756 
  136742   136730   136717   136702   136687   136675   136661   136649 
  136644   136637   136628   136625   136624   136622   136621   136620 
  136622   136626   136628   136633   136644   136653   136661   136675 
  136690   136705   136722   136740   136755   136773   136792   136810 
  136826   136845   136863   136879   136896   136912   136929   136944 
  136953   136965   136979   136988   136995   137002   137008   137015 
  137023   137031   137038   137045   137054   137064   137070   137079 
  137089   137095   137103   137115   137122   137130   137142   137153 
  137162   137172   137177   137182   137187   137187   137187   137191 
  137189   137182   137178   137173   137164   137154   137145   137138 
  137131   137116   137104   137093   137083   137072   137058   137045 
  137035   137023   137011   137003   136998   136988   136980   136977 
  136979   136979   136977   136977   136981   136987   136988   136991 
  136999   137002   137007   137016   137023   137027   137035   137043 
  137052   137058   137064   137070   137076   137084   137089   137100 
  137119   137126   137126   137135   137145   137149   137155   137165 
  137169   137176   137181   137182   137185   137188   137193   137196 
  137193   137196   137199   137196   137197   137204   137203   137200 
  137201   137199   137196   137196   137193   137191   137187   137178 
  137174   137169   137160   137151   137142   137131   137116   137103 
  137095   137085   137070   137054   137042   137031   137014   136995 
  136983   136968   136949   136933   136914   136895   136877   136860 
  136844   136826   136810   136795   136782   136765   136749   136738 
  136726   136710   136698   136688   136676   136663   136649   136640 
  136632   136620   136613   136613   136609   136601   136595   136597 
  136597   136594   136590   136590   136593   136595   136598   136599 
  136605   136613   136621   136626   136636   136645   136652   136659 
  136664   136671   136682   136694   136702   136710   136719   136732 
  136742   136753   136767   136775   136784   136803   136817   136826 
  136842   136860   136876   136891   136902   136914   136934   136952 
  136966   136984   136996   137010   137029   137041   137049   137062 
  137074   137087   137096   137106   137114   137122   137131   137138 
  137145   137155   137161   137165   137173   137177   137176   137174 
  137176   137176   137172   137168   137165   137154   137143   137138 
  137127   137115   137110   137099   137081   137070   137064   137054 
  137041   137031   137026   137018   137011   137004   136998   136988 
  136981   136976   136968   136962   136958   136950   136944   136945 
  136938   136931   136931   136929   136927   136930   136931   136934 
  136939   136942   136944   136949   136953   136956   136960   136960 
  136957   136957   136957   136954   136952   136950   136950   136954 
  136957   136956   136960   136964   136965   136966   136969   136973 
  136979   136977   136979   136984   136987   136991   136992   136999 
  137004   137003   137011   137019   137019   137022   137026   137023 
  137025   137027   137026   137027   137025   137020   137019   137025 
  137026   137026   137026   137027   137030   137029   137025   137023 
  137027   137027   137022   137019   137015   137016   137022   137020 
  137018   137018   137020   137023   137025   137019   137019   137023 
  137022   137023   137027   137027   137026   137027   137029   137027 
  137023   137022   137022   137014   137003   137000   136992   136980 
  136977   136972   136961   136954   136948   136937   136929   136925 
  136919   136910   136904   136900   136896   136894   136890   136883 
  136883   136885   136880   136876   136876   136879   136884   136884 
  136884   136892   136900   136908   136912   136914   136923   136933 
  136937   136946   136953   136957   136966   136975   136979   136984 
  136987   136988   136989   136989   136991   136991   136988   136985 
  136983   136979   136973   136966   136956   136949   136941   136930 
  136922   136912   136902   136892   136885   136877   136869   136865 
  136863   136857   136853   136853   136850   136846   136852   136858 
  136860   136863   136869   136880   136892   136903   136912   136922 
  136931   136945   136957   136968   136981   136993   137008   137022 
  137031   137047   137062   137070   137081   137096   137110   137120 
  137133   137142   137149   137158   137170   137178   137181   137189 
  137196   137195   137193   137201   137208   137204   137201   137201 
  137195   137189   137189   137188   137185   137184   137184   137182 
  137181   137184   137177   137170   137174   137176   137172   137174 
  137178   137177   137174   137172   137170   137172   137173   137168 
  137166   137170   137172   137173   137178   137178   137177   137177 
  137174   137170   137169   137166   137161   137161   137158   137150 
  137143   137135   137127   137124   137114   137101   137089   137081 
  137077   137066   137047   137034   137020   137006   136998   136984 
  136968   136956   136946   136938   136930   136923   136915   136907 
  136900   136896   136891   136891   136891   136890   136890   136894 
  136895   136894   136895   136898   136900   136904   136910   136912 
  136915   136921   136926   136930   136934   136939   136946   136952 
  136956   136962   136972   136979   136985   136998   137007   137014 
  137025   137039   137046   137056   137069   137079   137081   137088 
  137096   137100   137103   137106   137104   137106   137104   137100 
  137100   137103   137101   137099   137095   137088   137087   137084 
  137077   137072   137070   137065   137060   137058   137056   137050 
  137049   137049   137045   137042   137043   137042   137043   137049 
  137054   137062   137069   137074   137083   137092   137103   137111 
  137119   137134   137147   137160   137172   137184   137199   137212 
  137223   137234   137245   137253   137261   137268   137270   137273 
  137280   137284   137280   137277   137278   137276   137269   137259 
  137250   137242   137232   137222   137208   137199   137187   137170 
  137158   137143   137126   137107   137091   137074   137056   137038 
  137022   137003   136983   136968   136949   136927   136910   136896 
  136883   136865   136849   136831   136817   136809   136796   136780 
  136771   136765   136757   136746   136738   136737   136736   136733 
  136736   136741   136745   136752   136761   136771   136783   136794 
  136810   136826   136840   136857   136880   136894   136908   136931 
  136954   136976   136999   137020   137039   137058   137076   137096 
  137118   137139   137157   137176   137197   137216   137232   137253 
  137268   137278   137290   137304   137315   137323   137331   137338 
  137343   137350   137357   137358   137359   137359   137358   137357 
  137351   137349   137350   137343   137334   137332   137330   137324 
  137317   137309   137300   137289   137282   137277   137265   137255 
  137253   137246   137236   137231   137223   137212   137205   137201 
  137192   137184   137176   137169   137164   137162   137155   137146 
  137143   137141   137133   137127   137124   137115   137106   137099 
  137091   137085   137083   137076   137068   137061   137054   137050 
  137042   137035   137033   137023   137014   137010   137004   136995 
  136988   136983   136979   136975   136969   136965   136962   136957 
  136953   136953   136948   136944   136944   136944   136942   136942 
  136946   136950   136952   136953   136956   136960   136966   136973 
  136973   136976   136989   136996   136999   137008   137020   137029 
