Origin Time       2025/01/13 21:19:00
Lat.              31.8
Long.             131.6
Depth. (km)       30
Mag.              6.9
Station Code      YMGH14
Station Lat.      34.3979
Station Long.     131.3774
Station Height(m) -95
Record Time       2025/01/13 21:20:25
Sampling Freq(Hz) 100Hz
Duration Time(s)  128
Dir.              2
Scale Factor      2940(gal)/6170270
Max. Acc. (gal)   0.675
Last Correction   2025/01/13 21:20:10
Memo.             
[...]
  -66756   -66784   -66814   -66845   -66871   -66885   -66891   -66899 
  -66910   -66920   -66928   -66939   -66952   -66962   -66964   -66961 
  -66956   -66960   -66971   -66980   -66988   -66994   -67003   -67026 
  -67055   -67088   -67130   -67171   -67203   -67226   -67245   -67266 
  -67293   -67325   -67357   -67375   -67382   -67387   -67388   -67375 
  -67346   -67307   -67258   -67204   -67145   -67084   -67019   -66947 
  -66869   -66788   -66704   -66618   -66531   -66451   -66382   -66320 
  -66259   -66196   -66131   -66071   -66021   -65976   -65936   -65901 
  -65872   -65850   -65832   -65816   -65804   -65796   -65794   -65793 
  -65786   -65772   -65755   -65738   -65720   -65701   -65684   -65672 
  -65666   -65667   -65682   -65707   -65732   -65760   -65792   -65816 
  -65828   -65825   -65813   -65801   -65795   -65799   -65815   -65837 
  -65855   -65866   -65871   -65877   -65888   -65900   -65912   -65929 
  -65955   -65992   -66036   -66078   -66113   -66143   -66170   -66194 
  -66213   -66228   -66238   -66248   -66259   -66273   -66296   -66329 
  -66366   -66406   -66447   -66483   -66513   -66543   -66574   -66601 
  -66625   -66643   -66656   -66667   -66675   -66680   -66676   -66665 
  -66658   -66655   -66654   -66657   -66661   -66664   -66669   -66680 
  -66693   -66705   -66718   -66733   -66746   -66757   -66765   -66773 
  -66779   -66783   -66782   -66770   -66747   -66720   -66692   -66658 
  -66616   -66569   -66518   -66464   -66412   -66367   -66328   -66295 
  -66263   -66232   -66209   -66194   -66184   -66178   -66177   -66180 
  -66188   -66198   -66213   -66231   -66248   -66269   -66300   -66335 
  -66370   -66406   -66447   -66493   -66538   -66581   -66618   -66646 
  -66666   -66680   -66685   -66679   -66665   -66646   -66624   -66599 
  -66570   -66543   -66518   -66492   -66467   -66450   -66443   -66445 
  -66454   -66464   -66474   -66483   -66492   -66501   -66514   -66533 
  -66556   -66577   -66598   -66618   -66630   -66638   -66650   -66664 
  -66676   -66684   -66689   -66687   -66678   -66666   -66655   -66644 
  -66636   -66632   -66631   -66628   -66622   -66617   -66620   -66625 
  -66628   -66627   -66619   -66610   -66603   -66596   -66588   -66584 
  -66583   -66587   -66597   -66607   -66618   -66633   -66648   -66659 
  -66666   -66667   -66661   -66647   -66628   -66606   -66579   -66546 
  -66509   -66478   -66460   -66452   -66444   -66438   -66436   -66434 
  -66425   -66409   -66387   -66361   -66342   -66337   -66344   -66357 
  -66375   -66398   -66427   -66459   -66488   -66516   -66541   -66560 
  -66579   -66599   -66620   -66648   -66693   -66753   -66818   -66883 
  -66943   -66994   -67041   -67086   -67123   -67148   -67166   -67180 
  -67190   -67199   -67205   -67203   -67184   -67148   -67098   -67039 
  -66977   -66919   -66871   -66832   -66800   -66774   -66749   -66727 
  -66710   -66693   -66673   -66655   -66642   -66629   -66619   -66618 
  -66628   -66650   -66679   -66711   -66739   -66757   -66765   -66765 
  -66757   -66740   -66714   -66678   -66632   -66574   -66512   -66454 
  -66405   -66365   -66333   -66298   -66260   -66229   -66208   -66193 
  -66183   -66174   -66164   -66154   -66145   -66134   -66123   -66109 
  -66094   -66077   -66060   -66045   -66039   -66047   -66067   -66095 
  -66125   -66156   -66186   -66211   -66237   -66264   -66289   -66310 
  -66325   -66328   -66321   -66305   -66284   -66260   -66237   -66220 
  -66211   -66208   -66213   -66227   -66246   -66266   -66285   -66308 
  -66336   -66367   -66399   -66428   -66453   -66473   -66490   -66504 
  -66514   -66517   -66513   -66504   -66498   -66501   -66505   -66509 
  -66518   -66531   -66548   -66569   -66591   -66618   -66644   -66654 
  -66649   -66642   -66637   -66634   -66629   -66626   -66627   -66631 
  -66634   -66640   -66650   -66658   -66664   -66675   -66681   -66678 
  -66673   -66668   -66660   -66650   -66637   -66620   -66602   -66581 
  -66557   -66534   -66512   -66494   -66477   -66461   -66448   -66441 
  -66439   -66433   -66423   -66414   -66406   -66395   -66380   -66363 
  -66346   -66329   -66311   -66291   -66268   -66232   -66179   -66117 
  -66051   -65984   -65921   -65868   -65824   -65782   -65740   -65704 
  -65672   -65641   -65617   -65600   -65588   -65580   -65575   -65577 
  -65592   -65616   -65646   -65678   -65711   -65743   -65773   -65798 
  -65821   -65849   -65883   -65920   -65956   -65990   -66024   -66054 
  -66076   -66091   -66101   -66107   -66114   -66126   -66136   -66140 
  -66132   -66110   -66080   -66048   -66009   -65958   -65900   -65843 
  -65788   -65738   -65689   -65638   -65593   -65551   -65512   -65481 
  -65457   -65440   -65427   -65414   -65403   -65399   -65403   -65411 
  -65416   -65424   -65442   -65475   -65517   -65567   -65630   -65705 
  -65789   -65881   -65972   -66051   -66118   -66172   -66212   -66246 
  -66279   -66309   -66331   -66347   -66359   -66370   -66378   -66383 
  -66385   -66375   -66356   -66338   -66314   -66276   -66233   -66189 
  -66146   -66105   -66065   -66023   -65981   -65943   -65910   -65884 
  -65867   -65857   -65856   -65859   -65868   -65885   -65910   -65934 
  -65952   -65972   -65992   -66007   -66025   -66052   -66082   -66115 
  -66161   -66221   -66295   -66377   -66468   -66562   -66651   -66735 
  -66811   -66881   -66948   -67009   -67064   -67115   -67162   -67208 
  -67255   -67297   -67334   -67368   -67403   -67434   -67465   -67500 
  -67535   -67573   -67610   -67632   -67637   -67632   -67617   -67590 
  -67554   -67519   -67489   -67458   -67418   -67368   -67309   -67241 
  -67168   -67096   -67028   -66962   -66898   -66839   -66790   -66748 
  -66706   -66673   -66653   -66639   -66635   -66643   -66660   -66687 
  -66724   -66761   -66794   -66828   -66862   -66894   -66923   -66946 
  -66964   -66978   -66986   -66993   -67008   -67028   -67055   -67091 
  -67129   -67166   -67198   -67219   -67232   -67239   -67239   -67236 
  -67234   -67228   -67215   -67201   -67187   -67171   -67153   -67136 
  -67121   -67101   -67075   -67051   -67029   -67009   -66994   -66981 
  -66965   -66945   -66921   -66893   -66864   -66831   -66793   -66752 
  -66707   -66663   -66621   -66574   -66522   -66470   -66423   -66385 
  -66356   -66338   -66330   -66334   -66350   -66375   -66402   -66432 
  -66467   -66505   -66548   -66596   -66644   -66686   -66722   -66758 
  -66793   -66827   -66859   -66889   -66915   -66940   -66967   -66993 
  -67014   -67030   -67044   -67055   -67060   -67060   -67058   -67055 
  -67055   -67056   -67056   -67056   -67054   -67053   -67057   -67066 
  -67078   -67087   -67095   -67101   -67101   -67096   -67083   -67058 
  -67028   -67001   -66981   -66969   -66965   -66966   -66962   -66949 
  -66935   -66927   -66922   -66920   -66918   -66912   -66899   -66881 
  -66864   -66852   -66843   -66839   -66832   -66818   -66801   -66780 
  -66752   -66725   -66703   -66689   -66672   -66643   -66610   -66577 
  -66541   -66495   -66435   -66366   -66286   -66197   -66104   -66011 
  -65921   -65844   -65779   -65718   -65665   -65620   -65573   -65522 
  -65472   -65425   -65387   -65358   -65341   -65332   -65332   -65340 
  -65351   -65363   -65375   -65384   -65389   -65394   -65401   -65410 
  -65421   -65438   -65462   -65493   -65527   -65559   -65587   -65608 
  -65627   -65644   -65661   -65685   -65720   -65761   -65804   -65852 
  -65905   -65966   -66033   -66106   -66183   -66263   -66345   -66428 
  -66514   -66600   -66684   -66764   -66837   -66901   -66958   -67004 
  -67038   -67062   -67078   -67092   -67108   -67125   -67138   -67148 
  -67159   -67170   -67176   -67176   -67170   -67159   -67146   -67129 
  -67104   -67074   -67036   -66989   -66939   -66890   -66840   -66789 
  -66735   -66686   -66648   -66620   -66604   -66605   -66618   -66637 
  -66663   -66695   -66731   -66771   -66813   -66851   -66886   -66920 
  -66952   -66980   -67000   -67012   -67014   -67004   -66985   -66960 
  -66934   -66908   -66883   -66860   -66839   -66815   -66791   -66763 
  -66724   -66674   -66616   -66553   -66491   -66435   -66387   -66345 
  -66304   -66264   -66225   -66182   -66135   -66086   -66032   -65973 
  -65911   -65850   -65793   -65738   -65689   -65644   -65597   -65550 
  -65507   -65466   -65429   -65398   -65375   -65362   -65357   -65360 
  -65367   -65374   -65386   -65401   -65414   -65429   -65446   -65464 
  -65488   -65514   -65541   -65571   -65612   -65669   -65738   -65819 
  -65904   -65987   -66066   -66142   -66216   -66292   -66364   -66431 
  -66494   -66552   -66604   -66652   -66697   -66736   -66766   -66789 
  -66804   -66814   -66822   -66824   -66819   -66811   -66802   -66794 
  -66783   -66771   -66762   -66752   -66740   -66730   -66718   -66700 
  -66677   -66655   -66633   -66604   -66571   -66538   -66507   -66483 
  -66470   -66461   -66454   -66453   -66457   -66461   -66471   -66488 
  -66515   -66549   -66584   -66614   -66640   -66663   -66677   -66681 
  -66683   -66688   -66691   -66692   -66692   -66694   -66696   -66698 
  -66701   -66704   -66710   -66718   -66733   -66754   -66771   -66782 
  -66794   -66812   -66836   -66861   -66878   -66892   -66908   -66918 
  -66916   -66911   -66902   -66885   -66869   -66852   -66829   -66801 
  -66770   -66738   -66700   -66650   -66592   -66523   -66445   -66370 
  -66297   -66219   -66133   -66042   -65947   -65844   -65742   -65652 
  -65578   -65517   -65469   -65430   -65395   -65370   -65359   -65355 
  -65363   -65384   -65414   -65444   -65473   -65504   -65539   -65570 
  -65598   -65628   -65659   -65681   -65695   -65709   -65724   -65742 
  -65761   -65779   -65796   -65815   -65836   -65858   -65881   -65911 
  -65947   -65978   -66009   -66042   -66068   -66085   -66093   -66096 
  -66098   -66101   -66107   -66118   -66131   -66143   -66156   -66173 
  -66187   -66200   -66214   -66227   -66237   -66247   -66260   -66277 
  -66297   -66317   -66333   -66347   -66356   -66356   -66349   -66343 
  -66338   -66332   -66330   -66341   -66357   -66372   -66387   -66407 
  -66435   -66471   -66511   -66555   -66600   -66646   -66698   -66752 
  -66803   -66845   -66878   -66902   -66914   -66910   -66895   -66877 
  -66853   -66820   -66790   -66769   -66750   -66735   -66730   -66734 
  -66746   -66768   -66795   -66822   -66843   -66862   -66881   -66893 
  -66901   -66906   -66907   -66903   -66893   -66872   -66843   -66809 
  -66776   -66742   -66705   -66673   -66647   -66626   -66606   -66586 
  -66563   -66542   -66522   -66503   -66486   -66476   -66470   -66469 
  -66473   -66488   -66515   -66549   -66580   -66609   -66639   -66670 
  -66704   -66741   -66778   -66815   -66850   -66886   -66920   -66944 
  -66959   -66963   -66959   -66948   -66933   -66912   -66883   -66848 
  -66810   -66766   -66717   -66665   -66614   -66565   -66513   -66457 
  -66396   -66336   -66278   -66223   -66172   -66127   -66085   -66044 
  -66007   -65978   -65956   -65937   -65922   -65911   -65903   -65904 
  -65919   -65944   -65971   -66003   -66038   -66067   -66088   -66108 
  -66125   -66138   -66151   -66164   -66173   -66178   -66183   -66192 
  -66206   -66225   -66251   -66285   -66326   -66372   -66421   -66473 
  -66527   -66582   -66635   -66680   -66715   -66746   -66777   -66803 
  -66818   -66826   -66825   -66816   -66802   -66787   -66774   -66764 
  -66754   -66744   -66735   -66727   -66718   -66709   -66701   -66695 
  -66687   -66677   -66663   -66647   -66625   -66596   -66564   -66533 
  -66503   -66474   -66446   -66414   -66380   -66346   -66310   -66276 
  -66247   -66219   -66193   -66170   -66148   -66126   -66107   -66098 
  -66101   -66117   -66148   -66192   -66245   -66314   -66399   -66495 
  -66598   -66705   -66810   -66910   -67007   -67099   -67183   -67255 
  -67321   -67389   -67458   -67523   -67586   -67645   -67694   -67732 
  -67762   -67781   -67787   -67781   -67767   -67745   -67713   -67669 
  -67615   -67551   -67474   -67383   -67278   -67165   -67054   -66947 
  -66841   -66734   -66631   -66536   -66446   -66365   -66293   -66227 
  -66161   -66098   -66042   -65994   -65947   -65900   -65859   -65826 
  -65801   -65782   -65767   -65760   -65753   -65741   -65731   -65727 
  -65730   -65740   -65753   -65767   -65786   -65804   -65819   -65837 
  -65859   -65876   -65890   -65902   -65911   -65915   -65920   -65923 
  -65923   -65924   -65923   -65920   -65919   -65920   -65928   -65944 
  -65960   -65977   -65995   -66012   -66025   -66038   -66052   -66068 
  -66089   -66116   -66146   -66180   -66215   -66251   -66286   -66318 
  -66350   -66382   -66411   -66438   -66465   -66492   -66518   -66541 
  -66564   -66590   -66620   -66651   -66676   -66696   -66716   -66735 
  -66749   -66761   -66770   -66777   -66786   -66791   -66788   -66783 
  -66776   -66764   -66744   -66716   -66683   -66652   -66619   -66588 
  -66561   -66538   -66519   -66497   -66471   -66443   -66418   -66392 
  -66364   -66337   -66311   -66284   -66259   -66237   -66215   -66194 
  -66175   -66152   -66122   -66091   -66063   -66038   -66016   -65999 
  -65990   -65985   -65986   -65994   -66009   -66028   -66050   -66073 
  -66097   -66123   -66149   -66178   -66218   -66266   -66323   -66393 
  -66470   -66551   -66637   -66728   -66819   -66913   -67014   -67121 
  -67224   -67326   -67426   -67518   -67600   -67673   -67737   -67788 
  -67825   -67848   -67858   -67856   -67841   -67815   -67777   -67729 
  -67673   -67610   -67543   -67469   -67389   -67307   -67220   -67128 
  -67036   -66943   -66846   -66753   -66667   -66589   -66523   -66463 
  -66406   -66360   -66326   -66302   -66286   -66279   -66275   -66271 
  -66270   -66270   -66266   -66258   -66245   -66226   -66202   -66176 
  -66149   -66117   -66080   -66042   -66001   -65956   -65908   -65861 
  -65811   -65760   -65707   -65650   -65592   -65529   -65465   -65400 
  -65335   -65273   -65221   -65179   -65156   -65151   -65158   -65176 
  -65202   -65237   -65278   -65326   -65377   -65429   -65482   -65540 
  -65599   -65655   -65706   -65753   -65795   -65830   -65855   -65870 
  -65877   -65880   -65884   -65892   -65906   -65925   -65948   -65971 
  -65992   -66015   -66041   -66066   -66099   -66138   -66182   -66232 
  -66285   -66339   -66394   -66448   -66496   -66541   -66582   -66619 
  -66656   -66690   -66717   -66744   -66769   -66792   -66818   -66845 
  -66875   -66908   -66941   -66978   -67014   -67045   -67074   -67103 
  -67128   -67147   -67164   -67180   -67187   -67186   -67185   -67183 
  -67178   -67169   -67152   -67130   -67105   -67079   -67054   -67028 
  -67000   -66976   -66959   -66943   -66931   -66927   -66926   -66925 
  -66922   -66914   -66903   -66894   -66882   -66865   -66844   -66813 
  -66774   -66733   -66693   -66654   -66619   -66589   -66564   -66539 
  -66517   -66503   -66496   -66497   -66507   -66519   -66535   -66554 
  -66575   -66597   -66622   -66653   -66689   -66726   -66766   -66811 
  -66855   -66895   -66929   -66951   -66966   -66975   -66980   -66981 
  -66978   -66973   -66969   -66960   -66949   -66937   -66919   -66894 
  -66864   -66833   -66800   -66765   -66732   -66702   -66672   -66643 
  -66614   -66586   -66558   -66532   -66504   -66478   -66452   -66429 
  -66413   -66399   -66391   -66390   -66390   -66390   -66391   -66388 
  -66379   -66367   -66345   -66313   -66282   -66248   -66208   -66166 
  -66126   -66082   -66038   -66000   -65964   -65926   -65889   -65856 
  -65823   -65794   -65769   -65747   -65729   -65723   -65726   -65730 
  -65736   -65745   -65753   -65761   -65772   -65785   -65801   -65818 
  -65842   -65875   -65909   -65945   -65982   -66017   -66052   -66087 
  -66119   -66147   -66170   -66191   -66208   -66215   -66213   -66209 
  -66205   -66195   -66179   -66162   -66146   -66130   -66116   -66104 
  -66095   -66093   -66095   -66103   -66115   -66131   -66153   -66181 
  -66211   -66241   -66271   -66310   -66354   -66395   -66431   -66467 
  -66506   -66546   -66584   -66621   -66655   -66679   -66695   -66704 
  -66708   -66705   -66701   -66700   -66699   -66699   -66699   -66694 
  -66685   -66675   -66664   -66654   -66645   -66637   -66631   -66627 
  -66624   -66620   -66613   -66602   -66591   -66581   -66563   -66544 
  -66531   -66517   -66499   -66479   -66458   -66437   -66414   -66390 
  -66369   -66349   -66328   -66308   -66289   -66269   -66246   -66221 
  -66200   -66182   -66166   -66155   -66146   -66136   -66127   -66120 
  -66113   -66107   -66104   -66099   -66089   -66077   -66066   -66053 
  -66037   -66020   -66003   -65987   -65973   -65960   -65952   -65942 
  -65931   -65920   -65911   -65905   -65903   -65906   -65911   -65914 
  -65916   -65920   -65925   -65928   -65929   -65931   -65936   -65945 
  -65962   -65982   -66004   -66032   -66067   -66102   -66138   -66178 
  -66221   -66268   -66319   -66372   -66426   -66480   -66534   -66588 
  -66639   -66687   -66731   -66775   -66818   -66857   -66891   -66923 
  -66950   -66974   -66997   -67013   -67019   -67020   -67018   -67012 
  -67000   -66980   -66953   -66925   -66895   -66864   -66837   -66812 
  -66785   -66761   -66739   -66715   -66693   -66680   -66671   -66661 
  -66654   -66651   -66650   -66650   -66651   -66654   -66657   -66658 
  -66660   -66664   -66668   -66672   -66676   -66680   -66683   -66684 
  -66681   -66673   -66663   -66654   -66643   -66630   -66615   -66601 
  -66589   -66576   -66564   -66556   -66549   -66543   -66538   -66534 
  -66530   -66528   -66525   -66523   -66523   -66524   -66528   -66531 
  -66534   -66544   -66558   -66566   -66573   -66581   -66582   -66578 
  -66579   -66577   -66570   -66561   -66550   -66536   -66521   -66505 
  -66492   -66482   -66475   -66472   -66470   -66468   -66468   -66472 
  -66478   -66487   -66497   -66505   -66511   -66517   -66520   -66522 
  -66522   -66516   -66511   -66511   -66514   -66517   -66522   -66527 
  -66530   -66532   -66532   -66530   -66529   -66522   -66508   -66492 
  -66476   -66461   -66449   -66433   -66415   -66402   -66391   -66379 
  -66369   -66357   -66344   -66336   -66329   -66323   -66317   -66311 
  -66305   -66300   -66294   -66292   -66295   -66298   -66303   -66311 
  -66317   -66321   -66325   -66328   -66331   -66337   -66343   -66348 
  -66353   -66355   -66358   -66365   -66370   -66373   -66377   -66378 
  -66373   -66363   -66355   -66347   -66336   -66321   -66307   -66292 
  -66275   -66259   -66247   -66232   -66214   -66201   -66188   -66174 
  -66162   -66155   -66149   -66143   -66137   -66130   -66125   -66121 
  -66118   -66115   -66114   -66113   -66116   -66120   -66121   -66123 
  -66128   -66133   -66141   -66154   -66168   -66183   -66201   -66219 
  -66231   -66241   -66249   -66256   -66260   -66263   -66269   -66280 
  -66291   -66302   -66310   -66317   -66324   -66331   -66339   -66348 
  -66358   -66367   -66375   -66381   -66383   -66385   -66385   -66385 
  -66388   -66387   -66382   -66377   -66373   -66368   -66364   -66363 
  -66360   -66358   -66358   -66359   -66366   -66378   -66390   -66400 
  -66411   -66425   -66445   -66465   -66486   -66511   -66539   -66567 
  -66595   -66623   -66647   -66672   -66701   -66734   -66769   -66801 
