Origin Time       2025/01/13 21:19:00
Lat.              31.8
Long.             131.6
Depth. (km)       30
Mag.              6.9
Station Code      YMGH10
Station Lat.      34.4837
Station Long.     131.6329
Station Height(m) 365
Record Time       2025/01/13 21:20:30
Sampling Freq(Hz) 100Hz
Duration Time(s)  141
Dir.              6
Scale Factor      7845(gal)/8223790
Max. Acc. (gal)   0.757
Last Correction   2025/01/13 21:20:13
Memo.             
[...]
   23830    23814    23800    23793    23795    23797    23801    23814 
   23832    23859    23899    23936    23955    23961    23963    23965 
   23966    23961    23946    23934    23935    23957    23994    24023 
   24031    24032    24034    24038    24044    24044    24035    24024 
   24012    24001    23993    23986    23981    23974    23963    23949 
   23936    23938    23946    23947    23939    23919    23901    23899 
   23907    23913    23908    23899    23896    23904    23926    23950 
   23967    23974    23980    23990    24003    24009    24012    24009 
   24004    23986    23959    23932    23915    23912    23913    23904 
   23900    23903    23901    23901    23896    23881    23872    23861 
   23845    23834    23826    23824    23828    23830    23831    23830 
   23820    23811    23811    23819    23827    23823    23809    23789 
   23777    23782    23796    23801    23795    23793    23811    23834 
   23845    23830    23805    23784    23766    23746    23712    23661 
   23615    23599    23611    23639    23657    23658    23680    23720 
   23754    23777    23789    23797    23814    23834    23850    23851 
   23847    23855    23878    23908    23932    23942    23943    23947 
   23955    23962    23970    23980    23992    24011    24035    24048 
   24047    24048    24059    24073    24088    24098    24098    24089 
   24070    24052    24046    24042    24031    24016    24007    24008 
   24019    24038    24055    24062    24050    24028    24012    23997 
   23971    23935    23897    23873    23869    23869    23873    23881 
   23886    23901    23927    23946    23954    23961    23973    23988 
   24000    24003    23986    23958    23930    23911    23904    23897 
   23878    23853    23834    23815    23803    23800    23795    23788 
   23799    23820    23849    23881    23907    23919    23928    23928 
   23920    23919    23922    23923    23930    23931    23926    23922 
   23922    23917    23913    23915    23923    23934    23947    23962 
   23971    23978    23994    24024    24057    24082    24100    24101 
   24085    24065    24051    24046    24042    24027    24001    23984 
   23982    23981    23965    23939    23913    23893    23881    23872 
   23859    23846    23834    23826    23828    23846    23869    23889 
   23899    23903    23908    23916    23930    23940    23943    23939 
   23935    23922    23901    23874    23845    23823    23814    23812 
   23818    23824    23826    23828    23835    23849    23869    23892 
   23913    23934    23951    23965    23973    23974    23971    23963 
   23954    23943    23928    23904    23882    23869    23861    23849 
   23832    23823    23816    23801    23782    23765    23755    23761 
   23768    23776    23777    23768    23761    23758    23760    23768 
   23770    23776    23793    23807    23814    23824    23832    23828 
   23824    23827    23830    23836    23841    23826    23797    23772 
   23755    23753    23755    23757    23757    23758    23772    23799 
   23819    23827    23838    23855    23884    23919    23949    23958 
   23957    23962    23984    24009    24031    24034    24023    24016 
   24012    24003    23985    23961    23944    23944    23951    23953 
   23938    23916    23900    23892    23888    23882    23863    23842 
   23834    23842    23858    23868    23868    23863    23862    23861 
   23857    23842    23819    23800    23797    23814    23841    23859 
   23857    23851    23855    23870    23892    23904    23904    23908 
   23928    23959    23984    23988    23976    23959    23946    23938 
   23931    23917    23899    23884    23876    23872    23873    23874 
   23865    23849    23834    23826    23831    23845    23859    23878 
   23904    23931    23953    23963    23962    23969    23997    24030 
   24051    24067    24077    24081    24081    24075    24063    24052 
   24052    24046    24028    24001    23973    23942    23904    23859 
   23815    23781    23768    23764    23766    23778    23799    23827 
   23862    23890    23905    23913    23919    23916    23909    23907 
   23905    23899    23888    23881    23886    23903    23913    23917 
   23924    23930    23935    23953    23976    23993    24004    24011 
   24011    24007    24000    23989    23977    23966    23949    23922 
   23897    23874    23854    23842    23835    23828    23826    23827 
   23835    23847    23861    23869    23876    23874    23869    23865 
   23863    23872    23893    23909    23911    23913    23930    23955 
   23974    23971    23949    23919    23907    23916    23928    23928 
   23919    23915    23924    23935    23928    23907    23881    23862 
   23862    23870    23868    23863    23870    23890    23912    23928 
   23932    23924    23915    23915    23927    23939    23940    23926 
   23897    23876    23866    23859    23846    23828    23815    23818 
   23842    23868    23881    23881    23878    23882    23884    23874 
   23858    23842    23828    23812    23795    23777    23760    23754 
   23757    23754    23741    23715    23691    23680    23679    23676 
   23670    23665    23658    23660    23670    23683    23697    23716 
   23735    23750    23764    23780    23797    23811    23826    23842 
   23857    23878    23907    23930    23950    23969    23982    23993 
   24005    24013    24012    24015    24024    24034    24044    24061 
   24077    24085    24078    24058    24035    24016    23996    23976 
   23951    23916    23884    23865    23851    23842    23830    23808 
   23785    23772    23773    23781    23791    23799    23807    23822 
   23857    23904    23939    23951    23950    23944    23942    23946 
   23953    23953    23957    23971    23996    24025    24051    24069 
   24084    24104    24124    24125    24105    24073    24046    24028 
   24015    24000    23982    23961    23949    23943    23932    23915 
   23892    23869    23863    23872    23873    23859    23839    23824 
   23819    23816    23805    23774    23737    23716    23719    23737 
   23754    23762    23760    23758    23762    23764    23743    23707 
   23673    23653    23645    23641    23633    23629    23638    23656 
   23674    23685    23681    23679    23684    23696    23710    23720 
   23735    23753    23772    23789    23800    23807    23815    23828 
   23839    23843    23842    23843    23850    23863    23882    23892 
   23882    23866    23859    23870    23874    23862    23854    23858 
   23880    23922    23955    23965    23962    23961    23966    23981 
   23994    23996    23992    23993    23994    23992    23988    23978 
   23961    23951    23951    23950    23942    23928    23913    23907 
   23915    23935    23959    23984    24001    24012    24021    24030 
   24034    24036    24035    24023    24009    24012    24024    24039 
   24048    24050    24050    24055    24062    24067    24057    24035 
   24017    24003    23982    23967    23958    23951    23939    23924 
   23919    23915    23903    23886    23868    23850    23846    23850 
   23849    23845    23839    23834    23836    23841    23834    23818 
   23801    23792    23793    23799    23803    23811    23819    23826 
   23827    23824    23820    23818    23811    23799    23780    23758 
   23754    23762    23778    23799    23815    23826    23836    23839 
   23824    23793    23761    23733    23711    23696    23685    23687 
   23697    23699    23693    23691    23692    23697    23703    23703 
   23704    23715    23742    23778    23814    23842    23866    23889 
   23904    23907    23903    23901    23908    23922    23938    23954 
   23963    23967    23974    23976    23969    23967    23970    23971 
   23970    23962    23961    23973    23986    23986    23977    23967 
   23963    23967    23971    23966    23950    23931    23924    23935 
   23958    23986    24015    24042    24071    24106    24142    24170 
   24182    24179    24160    24143    24131    24115    24094    24075 
   24058    24050    24054    24063    24061    24051    24035    24020 
   24025    24040    24048    24048    24039    24027    24031    24046 
   24057    24069    24081    24094    24121    24156    24186    24200 
   24190    24169    24150    24133    24119    24106    24096    24084 
   24079    24089    24092    24074    24050    24021    23998    23990 
   23990    23988    23973    23954    23943    23943    23953    23962 
   23963    23951    23930    23905    23878    23845    23804    23753 
   23701    23665    23649    23642    23633    23627    23635    23656 
   23687    23704    23703    23696    23699    23712    23727    23720 
   23697    23676    23660    23645    23627    23596    23560    23535 
   23523    23521    23521    23511    23490    23475    23469    23460 
   23440    23407    23364    23332    23322    23319    23311    23301 
   23295    23303    23319    23319    23305    23282    23264    23261 
   23264    23261    23260    23268    23288    23322    23365    23400 
   23426    23449    23471    23495    23525    23553    23575    23587 
   23603    23637    23685    23735    23780    23819    23854    23889 
   23931    23969    23992    24005    24021    24039    24058    24074 
   24075    24067    24065    24065    24062    24061    24058    24055 
   24062    24075    24079    24085    24101    24106    24105    24097 
   24081    24066    24063    24074    24090    24108    24120    24115 
   24120    24148    24166    24169    24173    24169    24167    24181 
   24187    24175    24159    24155    24162    24170    24170    24152 
   24133    24117    24105    24093    24075    24052    24034    24016 
   24000    23986    23978    23967    23946    23919    23895    23881 
   23882    23895    23907    23908    23907    23905    23907    23912 
   23916    23916    23911    23901    23892    23885    23878    23869 
   23850    23824    23792    23760    23734    23711    23687    23654 
   23620    23606    23618    23642    23662    23670    23668    23668 
   23681    23701    23715    23724    23735    23754    23777    23795 
   23799    23789    23789    23800    23818    23836    23850    23861 
   23876    23895    23924    23949    23954    23954    23962    23967 
   23973    23986    24005    24020    24028    24036    24048    24069 
   24093    24120    24155    24192    24219    24236    24251    24262 
   24270    24273    24273    24277    24282    24290    24301    24309 
   24317    24333    24347    24360    24386    24412    24433    24448 
   24448    24440    24435    24439    24451    24457    24459    24456 
   24451    24451    24451    24448    24447    24447    24444    24439 
   24426    24410    24399    24391    24379    24362    24343    24332 
   24324    24314    24305    24294    24279    24264    24251    24240 
   24231    24217    24196    24167    24135    24104    24078    24054 
   24030    24003    23965    23928    23897    23868    23841    23822 
   23803    23785    23774    23770    23764    23758    23754    23743 
   23733    23720    23712    23711    23707    23700    23700    23704 
   23714    23724    23724    23714    23699    23687    23676    23661 
   23643    23620    23595    23573    23552    23533    23512    23484 
   23460    23452    23458    23468    23475    23479    23485    23498 
   23518    23546    23571    23580    23588    23600    23610    23615 
   23626    23643    23660    23670    23672    23661    23650    23643 
   23635    23629    23622    23622    23629    23638    23652    23662 
   23668    23665    23662    23658    23654    23652    23653    23657 
   23662    23679    23697    23719    23749    23774    23782    23780 
   23774    23774    23781    23784    23777    23777    23791    23808 
   23816    23812    23803    23796    23796    23803    23797    23784 
   23776    23780    23795    23820    23847    23876    23917    23973 
   24032    24088    24143    24198    24247    24293    24333    24368 
   24394    24405    24409    24412    24412    24416    24420    24425 
   24425    24426    24436    24460    24474    24464    24451    24441 
   24436    24436    24429    24417    24408    24401    24395    24387 
   24372    24352    24329    24298    24258    24208    24159    24116 
   24069    24021    23974    23927    23888    23857    23824    23799 
   23789    23788    23788    23792    23793    23782    23768    23751 
   23734    23716    23696    23672    23649    23626    23604    23581 
   23549    23506    23467    23438    23423    23413    23395    23369 
   23342    23321    23301    23279    23257    23232    23211    23206 
   23213    23224    23232    23237    23247    23260    23275    23291 
   23309    23328    23348    23363    23372    23380    23394    23413 
   23430    23446    23463    23483    23498    23498    23491    23479 
   23463    23452    23445    23442    23442    23442    23454    23477 
   23492    23499    23517    23541    23552    23565    23579    23579 
   23584    23585    23576    23566    23550    23533    23535    23546 
   23556    23566    23577    23595    23620    23653    23677    23683 
   23681    23695    23724    23760    23789    23811    23820    23830 
   23846    23865    23876    23885    23899    23911    23924    23939 
   23958    23986    24020    24050    24078    24120    24171    24225 
   24283    24337    24383    24430    24482    24529    24568    24597 
   24618    24637    24659    24679    24682    24673    24664    24649 
   24640    24651    24659    24649    24632    24610    24590    24576 
   24564    24541    24510    24475    24443    24418    24403    24391 
   24371    24343    24321    24308    24297    24281    24258    24235 
   24212    24187    24169    24155    24142    24121    24101    24088 
   24082    24082    24085    24089    24094    24106    24127    24146 
   24154    24152    24152    24158    24166    24166    24146    24120 
   24105    24097    24086    24067    24040    24001    23962    23927 
   23893    23863    23834    23799    23766    23743    23735    23735 
   23730    23718    23700    23684    23674    23668    23653    23630 
   23603    23581    23568    23557    23548    23534    23517    23498 
   23485    23481    23481    23472    23454    23440    23441    23456 
   23473    23484    23484    23485    23495    23507    23521    23531 
   23542    23557    23571    23580    23589    23585    23569    23550 
   23526    23491    23464    23450    23444    23449    23460    23463 
   23468    23483    23503    23525    23534    23539    23549    23561 
   23580    23607    23631    23642    23646    23657    23672    23693 
   23715    23730    23737    23747    23765    23791    23818    23831 
   23838    23846    23861    23882    23907    23923    23938    23959 
   23984    24007    24024    24039    24052    24063    24079    24096 
   24108    24116    24117    24120    24128    24138    24140    24128 
   24113    24105    24100    24094    24077    24046    24013    23986 
   23965    23947    23932    23916    23899    23884    23870    23851 
   23828    23814    23800    23784    23769    23764    23760    23754 
   23760    23772    23780    23791    23799    23808    23823    23842 
   23862    23884    23899    23905    23912    23926    23932    23928 
   23923    23919    23922    23932    23942    23946    23940    23928 
   23927    23934    23934    23923    23907    23895    23893    23900 
   23905    23908    23908    23915    23928    23943    23963    23989 
   24015    24046    24073    24090    24105    24119    24125    24127 
   24121    24105    24086    24065    24039    24011    23986    23963 
   23942    23919    23893    23863    23827    23785    23747    23719 
   23699    23680    23664    23653    23654    23676    23707    23728 
   23741    23750    23758    23764    23770    23780    23785    23788 
   23796    23808    23823    23838    23854    23870    23885    23899 
   23912    23930    23958    23994    24032    24070    24105    24135 
   24166    24201    24240    24281    24321    24356    24386    24418 
   24455    24486    24510    24533    24545    24552    24561    24564 
   24552    24532    24510    24494    24483    24471    24457    24443 
   24428    24410    24389    24358    24322    24291    24264    24239 
   24214    24194    24177    24165    24158    24151    24135    24109 
   24074    24031    23990    23961    23936    23912    23889    23873 
   23863    23861    23861    23849    23826    23808    23799    23793 
   23801    23824    23846    23861    23881    23901    23920    23936 
   23936    23920    23905    23904    23913    23926    23927    23911 
   23893    23889    23896    23907    23905    23881    23854    23841 
   23832    23819    23797    23773    23757    23755    23761    23764 
   23760    23753    23751    23754    23762    23773    23776    23776 
   23778    23789    23811    23830    23843    23853    23855    23849 
   23836    23824    23816    23807    23791    23773    23758    23743 
   23731    23720    23707    23687    23664    23645    23634    23623 
   23606    23584    23552    23517    23484    23452    23419    23384 
   23348    23319    23307    23310    23317    23315    23305    23291 
   23288    23302    23317    23329    23340    23348    23368    23398 
   23429    23454    23472    23479    23485    23496    23512    23526 
   23535    23546    23556    23571    23602    23634    23660    23679 
   23696    23719    23750    23784    23823    23863    23896    23926 
   23957    23988    24020    24047    24069    24090    24113    24140 
   24167    24185    24197    24208    24212    24220    24229    24229 
   24225    24221    24213    24209    24206    24209    24208    24198 
   24189    24175    24155    24135    24113    24090    24062    24025 
   23986    23959    23942    23920    23904    23888    23869    23861 
   23863    23865    23862    23851    23841    23838    23845    23855 
   23863    23868    23869    23877    23897    23915    23924    23928 
   23939    23959    23985    24004    24015    24020    24031    24052 
   24075    24090    24101    24113    24123    24132    24146    24154 
   24156    24166    24182    24206    24232    24246    24254    24267 
   24278    24285    24286    24282    24275    24270    24271    24278 
   24285    24290    24291    24289    24279    24255    24224    24205 
   24189    24166    24151    24144    24128    24119    24116    24104 
   24098    24096    24085    24079    24078    24079    24086    24097 
   24108    24113    24116    24124    24127    24124    24121    24111 
   24088    24067    24046    24021    24001    23988    23969    23947 
   23927    23909    23901    23901    23903    23897    23881    23872 
   23868    23859    23838    23803    23766    23738    23718    23695 
   23657    23608    23562    23523    23496    23472    23440    23407 
   23386    23371    23360    23356    23359    23357    23350    23356 
   23369    23382    23400    23421    23437    23454    23475    23498 
   23530    23564    23598    23629    23658    23697    23745    23791 
   23827    23850    23869    23896    23927    23963    23998    24027 
   24046    24071    24106    24143    24175    24201    24220    24243 
