Origin Time       2025/01/13 21:19:00
Lat.              31.8
Long.             131.6
Depth. (km)       30
Mag.              6.9
Station Code      YMGH14
Station Lat.      34.3979
Station Long.     131.3774
Station Height(m) 5
Record Time       2025/01/13 21:20:25
Sampling Freq(Hz) 100Hz
Duration Time(s)  128
Dir.              4
Scale Factor      3920(gal)/6170801
Max. Acc. (gal)   1.930
Last Correction   2025/01/13 21:20:10
Memo.             
[...]
     469      474      503      570      670      789      909     1016 
    1097     1152     1178     1184     1204     1271     1395     1579 
    1806     2025     2186     2269     2279     2226     2131     2027 
    1946     1909     1926     1986     2060     2114     2120     2076 
    2001     1919     1852     1823     1838     1895     1991     2121 
    2268     2406     2499     2515     2452     2336     2197     2067 
    1963     1877     1782     1643     1440     1175      878      596 
     380      275      292      412      607      849     1112     1377 
    1623     1838     2038     2254     2502     2777     3049     3265 
    3378     3365     3221     2956     2602     2212     1849     1568 
    1378     1244     1119      968      791      610      447      338 
     322      415      615      906     1239     1557     1818     1989 
    2067     2072     2024     1940     1823     1669     1480     1277 
    1087      932      821      743      679      622      584      594 
     679      851     1099     1396     1701     1981     2201     2325 
    2336     2247     2088     1908     1746     1622     1539     1477 
    1409     1328     1244     1171     1130     1137     1200     1328 
    1511     1720     1919     2081     2186     2249     2287     2305 
    2313     2313     2289     2230     2128     1987     1816     1631 
    1448     1291     1170     1084     1049     1088     1205     1378 
    1579     1784     1970     2122     2240     2334     2405     2444 
    2443     2388     2272     2103     1891     1652     1404     1173 
     992      896      901      985     1099     1195     1239     1229 
    1198     1181     1217     1324     1488     1682     1883     2060 
    2191     2261     2266     2206     2101     1984     1899     1874 
    1912     1988     2056     2084     2071     2041     2028     2056 
    2131     2243     2370     2484     2552     2553     2486     2357 
    2191     2013     1825     1617     1388     1155      934      746 
     606      515      466      452      471      530      635      789 
     989     1217     1452     1688     1936     2214     2527     2848 
    3117     3276     3284     3138     2887     2594     2300     2027 
    1776     1541     1328     1143      992      874      769      667 
     571      502      489      558      717      942     1182     1391 
    1546     1636     1668     1661     1636     1614     1617     1641 
    1668     1687     1690     1673     1639     1599     1561     1522 
    1482     1451     1450     1494     1586     1700     1793     1822 
    1767     1650     1502     1347     1198     1056      926      823 
     774      793      857      928      969      972      962      984 
    1074     1243     1478     1748     2025     2288     2515     2692 
    2814     2886     2918     2922     2915     2916     2912     2866 
    2748     2552     2299     2039     1824     1683     1612     1590 
    1601     1629     1651     1659     1653     1626     1589     1578 
    1611     1674     1752     1825     1881     1926     1978     2044 
    2114     2172     2195     2166     2088     1979     1868     1793 
    1760     1744     1712     1647     1551     1457     1409     1429 
    1506     1606     1691     1745     1777     1814     1865     1911 
    1916     1853     1709     1500     1271     1078      957      904 
     890      882      857      820      797      819      900     1028 
    1174     1312     1434     1549     1684     1858     2053     2226 
    2331     2346     2286     2191     2100     2027     1975     1934 
    1886     1830     1771     1721     1714     1768     1871     1990 
    2095     2173     2224     2247     2225     2142     2003     1832 
    1660     1521     1429     1382     1378     1407     1441     1441 
    1372     1219     1009      789      611      501      450      428 
     412      400      413      472      585      732      877      986 
    1059     1119     1198     1313     1454     1606     1747     1871 
    1990     2120     2262     2401     2517     2592     2614     2577 
    2473     2299     2052     1749     1434     1158      951      827 
     800      870     1035     1291     1629     2019     2407     2724 
    2916     2967     2894     2762     2650     2584     2538     2470 
    2345     2145     1882     1594     1328     1115      967      896 
     903      966     1062     1177     1307     1456     1627     1813 
    2005     2196     2366     2494     2575     2617     2621     2587 
    2507     2368     2174     1959     1756     1590     1472     1404 
    1377     1363     1332     1266     1160     1038      945      913 
     947     1024     1105     1159     1176     1177     1197     1266 
    1402     1593     1812     2036     2247     2441     2615     2761 
    2867     2917     2892     2802     2677     2549     2435     2327 
    2198     2036     1847     1656     1497     1391     1332     1304 
    1289     1275     1264     1269     1301     1368     1450     1508 
    1505     1433     1312     1191     1140     1207     1396     1668 
    1946     2156     2262     2253     2150     1991     1801     1615 
    1473     1392     1359     1343     1316     1247     1126      974 
     820      681      565      481      436      440      516      673 
     900     1173     1441     1667     1844     1983     2107     2229 
    2346     2434     2464     2431     2353     2250     2144     2042 
    1926     1782     1608     1405     1188      980      800      677 
     616      604      635      695      764      836      914     1026 
    1202     1450     1756     2087     2408     2688     2900     3029 
    3060     2983     2801     2536     2230     1937     1700     1548 
    1478     1469     1499     1550     1624     1714     1806     1894 
    1965     2013     2028     1996     1911     1777     1618     1465 
    1341     1242     1128      969      780      600      478      457 
     553      749     1009     1298     1601     1913     2220     2499 
    2724     2869     2921     2876     2737     2522     2254     1955 
    1648     1346     1056      783      537      337      208      178 
     263      467      784     1189     1635     2069     2449     2750 
    2947     3037     3039     2971     2857     2720     2555     2341 
    2058     1697     1270      826      417       75     -186     -359 
    -437     -410     -274      -28      317      721     1126     1490 
    1792     2028     2214     2359     2456     2486     2438     2309 
    2120     1907     1722     1606     1572     1602     1669     1752 
    1837     1923     2021     2131     2233     2306     2341     2337 
    2300     2224     2103     1945     1746     1507     1250      981 
     699      419      142     -132     -388     -607     -772     -856 
    -843     -737     -551     -292       26      389      778     1159 
    1506     1815     2096     2361     2605     2809     2951     3027 
    3056     3055     3035     2997     2942     2870     2778     2660 
    2513     2335     2138     1933     1733     1553     1408     1298 
    1231     1221     1274     1391     1550     1717     1879     2026 
    2149     2251     2324     2365     2383     2373     2336     2277 
    2195     2094     1979     1862     1763     1677     1589     1499 
    1412     1333     1269     1214     1149     1081     1030     1010 
    1032     1093     1160     1211     1230     1208     1155     1085 
    1006      916      806      664      477      262       50     -135 
    -288     -413     -513     -573     -571     -477     -268       61 
     499     1003     1515     1988     2384     2672     2844     2915 
    2926     2920     2928     2969     3037     3110     3163     3160 
    3084     2937     2746     2571     2468     2471     2583     2765 
    2956     3102     3160     3113     2963     2717     2390     1999 
    1568     1122      696      330       35     -192     -343     -404 
    -360     -211       27      335      691     1081     1505     1960 
    2434     2901     3312     3609     3758     3759     3641     3448 
    3227     3005     2783     2551     2294     1997     1668     1321 
     974      660      426      315      340      483      712      991 
    1278     1540     1745     1861     1871     1796     1684     1577 
    1500     1458     1431     1387     1307     1200     1102     1061 
    1114     1278     1546     1888     2266     2657     3055     3458 
    3842     4166     4395     4512     4503     4379     4167     3895 
    3591     3262     2893     2467     1993     1496     1013      586 
     253       18     -136     -223     -255     -240     -175      -68 
      76      243      427      628      830     1012     1159     1253 
    1280     1248     1174     1077      980      913      892      910 
     957     1011     1054     1090     1132     1197     1301     1452 
    1640     1838     2022     2177     2288     2346     2352     2300 
    2187     2027     1846     1676     1537     1433     1360     1308 
    1267     1230     1192     1163     1154     1170     1217     1303 
    1439     1634     1873     2116     2305     2404     2417     2364 
    2283     2213     2173     2165     2176     2182     2157     2087 
    1968     1823     1691     1613     1622     1725     1904     2122 
    2320     2446     2489     2470     2421     2374     2341     2326 
    2330     2340     2331     2283     2183     2028     1835     1622 
    1412     1229     1093     1016      996     1018     1067     1124 
    1190     1278     1390     1520     1656     1786     1889     1940 
    1925     1850     1718     1549     1380     1230     1098      985 
     892      827      808      842      921     1037     1181     1333 
    1475     1605     1729     1851     1969     2081     2169     2203 
    2176     2092     1972     1845     1729     1632     1548     1463 
    1380     1314     1279     1289     1348     1441     1548     1648 
    1719     1745     1730     1687     1631     1573     1507     1416 
    1286     1119      947      791      659      555      484      455 
     491      600      777     1020     1323     1669     2038     2404 
    2750     3064     3338     3567     3740     3852     3892     3862 
    3782     3663     3512     3326     3093     2802     2469     2127 
    1814     1548     1319     1109      906      710      525      370 
     258      172       96       33        2       29      128      299 
     518      748      967     1174     1383     1611     1883     2203 
    2541     2869     3171     3443     3705     3970     4226     4446 
    4592     4636     4573     4407     4144     3802     3399     2956 
    2501     2048     1595     1141      690      243     -184     -563 
    -871    -1087    -1198    -1200    -1100     -909     -642     -312 
      63      459      846     1199     1521     1824     2120     2407 
    2652     2829     2937     2978     2955     2889     2788     2647 
    2467     2261     2048     1836     1644     1483     1341     1204 
    1059      902      726      530      319      100     -113     -295 
    -426     -500     -517     -476     -387     -259      -87      131 
     390      679      999     1347     1723     2134     2573     3022 
    3451     3815     4074     4212     4232     4142     3955     3697 
    3391     3055     2717     2401     2135     1932     1779     1642 
    1501     1352     1216     1126     1099     1123     1173     1225 
    1265     1300     1336     1381     1442     1512     1588     1669 
    1755     1850     1959     2085     2227     2371     2501     2607 
    2686     2745     2780     2789     2770     2717     2640     2559 
    2481     2406     2332     2239     2107     1932     1722     1494 
    1266     1056      875      717      575      440      303      158 
       5     -149     -290     -394     -445     -442     -386     -286 
    -158      -11      155      339      546      768      988     1197 
    1381     1530     1651     1753     1839     1898     1915     1875 
    1770     1604     1395     1172      963      783      636      537 
     500      526      600      700      798      883      954     1011 
    1051     1079     1104     1136     1191     1263     1335     1393 
    1428     1440     1441     1444     1455     1482     1537     1631 
    1758     1912     2095     2285     2454     2580     2641     2636 
    2587     2509     2417     2312     2169     1950     1638     1238 
     784      322     -104     -463     -736     -921    -1018    -1020 
    -925     -736     -455      -92      335      812     1328     1864 
    2387     2857     3247     3545     3744     3858     3910     3920 
    3894     3831     3723     3557     3332     3055     2739     2403 
    2071     1760     1481     1242     1041      867      709      557 
     419      325      295      338      457      639      852     1075 
    1297     1515     1740     1990     2278     2600     2942     3287 
    3616     3910     4164     4377     4534     4627     4648     4587 
    4454     4270     4049     3792     3499     3171     2801     2385 
    1927     1441      960      520      144     -165     -427     -664 
    -888    -1090    -1235    -1275    -1175     -933     -577     -146 
     325      821     1335     1855     2375     2883     3360     3791 
    4158     4437     4610     4670     4607     4420     4123     3730 
    3260     2751     2232     1718     1216      725      252     -171 
    -509     -728     -805     -752     -588     -331      -13      327 
     646      909     1098     1212     1268     1297     1339     1405 
    1488     1580     1669     1734     1763     1755     1721     1680 
    1666     1719     1874     2124     2436     2760     3042     3240 
    3332     3316     3217     3068     2898     2722     2547     2383 
    2235     2086     1904     1672     1389     1075      774      522 
     348      271      290      383      519      660      772      840 
     863      859      863      892      961     1081     1245     1434 
    1633     1826     1987     2111     2212     2306     2409     2541 
    2711     2910     3122     3330     3507     3631     3679     3633 
    3487     3245     2920     2535     2111     1668     1223      785 
     368      -18     -358     -634     -825     -919     -912     -803 
    -613     -359      -55      282      645     1029     1419     1795 
    2142     2451     2712     2919     3066     3149     3159     3084 
    2919     2679     2398     2115     1848     1603     1381     1181 
    1012      886      806      767      754      747      740      737 
     753      791      839      879      895      883      848      815 
     804      827      895     1005     1141     1296     1464     1627 
    1770     1898     2016     2115     2198     2273     2339     2392 
    2432     2446     2417     2338     2223     2081     1932     1795 
    1665     1529     1386     1250     1134     1039      974      942 
     923      904      883      847      779      684      582      494 
     445      470      597      824     1125     1460     1787     2074 
    2309     2507     2688     2860     3016     3151     3268     3359 
    3417     3427     3367     3229     3026     2774     2491     2193 
    1891     1598     1330     1094      899      746      636      571 
     552      576      642      736      832      922     1024     1161 
    1345     1574     1829     2077     2281     2413     2468     2453 
    2374     2242     2075     1883     1675     1465     1260     1059 
     866      677      494      334      223      184      225      331 
     476      638      800      959     1129     1317     1514     1702 
    1865     1999     2115     2229     2350     2474     2589     2680 
    2729     2719     2649     2528     2368     2197     2040     1916 
    1829     1767     1710     1642     1551     1428     1281     1118 
     962      841      769      755      808      911     1036     1163 
    1278     1391     1535     1747     2046     2415     2808     3172 
    3456     3639     3729     3737     3669     3530     3333     3089 
    2801     2463     2075     1631     1138      621      114     -346 
    -724     -996    -1153    -1189    -1100     -897     -608     -262 
     116      517      938     1374     1819     2267     2709     3134 
    3515     3821     4021     4092     4041     3897     3685     3418 
    3110     2773     2416     2051     1687     1321      958      617 
     310       46     -159     -290     -340     -315     -229     -103 
      23      105      140      145      141      165      239      364 
     536      748      988     1251     1536     1841     2167     2514 
    2875     3236     3584     3912     4203     4437     4594     4663 
    4631     4488     4239     3911     3526     3094     2624     2134 
    1643     1165      714      313      -26     -292     -468     -545 
    -529     -427     -244       12      329      686     1068     1456 
    1820     2129     2361     2505     2576     2593     2579     2552 
    2519     2473     2409     2329     2235     2141     2066     2036 
    2076     2182     2335     2501     2651     2765     2830     2834 
    2768     2624     2413     2151     1857     1554     1257      975 
     720      487      273       88      -60     -143     -132      -25 
     169      439      765     1132     1527     1923     2284     2582 
    2806     2949     3010     2990     2890     2716     2482     2199 
    1885     1560     1253      998      807      673      587      542 
     538      594      714      877     1058     1245     1436     1631 
    1830     2024     2197     2329     2411     2436     2410     2344 
    2255     2156     2053     1950     1847     1741     1636     1546 
    1481     1435     1401     1386     1407     1477     1593     1733 
    1870     1984     2065     2109     2117     2086     2025     1949 
    1874     1819     1790     1765     1719     1635     1519     1392 
    1281     1204     1176     1201     1280     1409     1579     1760 
    1925     2061     2161     2217     2223     2173     2072     1931 
    1765     1586     1405     1228     1072      951      882      867 
     880      900      916      925      936      958      992     1049 
    1140     1268     1416     1550     1649     1698     1685     1625 
    1538     1429     1295     1146      989      837      708      607 
     532      487      474      494      548      628      727      847 
     991     1150     1312     1472     1633     1794     1953     2091 
    2187     2233     2230     2183     2109     2034     1968     1909 
    1860     1820     1779     1737     1701     1680     1687     1732 
    1805     1894     1984     2060     2111     2133     2132     2117 
    2089     2049     1997     1928     1836     1730     1624     1538 
    1493     1495     1538     1614     1704     1797     1887     1962 
    2018     2057     2078     2075     2047     1988     1886     1739 
    1550     1315     1041      754      478      233       38     -103 
    -190     -222     -196     -105       53      270      525      796 
