Origin Time       2025/01/13 21:19:00
Lat.              31.8
Long.             131.6
Depth. (km)       30
Mag.              6.9
Station Code      YMGH16
Station Lat.      33.8260
Station Long.     132.1040
Station Height(m) -41
Record Time       2025/01/13 21:20:12
Sampling Freq(Hz) 100Hz
Duration Time(s)  145
Dir.              1
Scale Factor      2940(gal)/6170270
Max. Acc. (gal)   1.481
Last Correction   2025/01/13 21:19:57
Memo.             
[...]
  143662   143605   143545   143501   143467   143444   143446   143462 
  143471   143481   143503   143516   143504   143480   143463   143456 
  143454   143455   143452   143429   143384   143336   143287   143228 
  143156   143088   143036   143008   143000   143000   143004   143010 
  143019   143039   143058   143058   143044   143022   142992   142957 
  142914   142864   142822   142796   142777   142764   142757   142759 
  142779   142812   142847   142882   142912   142942   142974   143004 
  143024   143030   143024   143013   142995   142976   142968   142967 
  142967   142972   142981   142987   142988   142988   143002   143035 
  143070   143096   143119   143147   143187   143231   143276   143321 
  143358   143384   143401   143413   143422   143432   143441   143439 
  143415   143381   143351   143336   143342   143364   143386   143423 
  143493   143581   143655   143702   143740   143787   143821   143820 
  143797   143765   143724   143674   143612   143541   143464   143381 
  143281   143155   143013   142873   142740   142603   142458   142328 
  142240   142189   142157   142139   142123   142104   142098   142117 
  142162   142225   142296   142369   142437   142494   142542   142593 
  142652   142712   142775   142844   142909   142963   143002   143019 
  143023   143034   143059   143094   143138   143191   143246   143305 
  143364   143395   143387   143350   143293   143232   143179   143130 
  143074   143008   142934   142848   142758   142669   142581   142503 
  142445   142406   142391   142400   142422   142444   142468   142502 
  142557   142635   142731   142837   142935   143026   143117   143204 
  143286   143363   143425   143481   143537   143591   143643   143692 
  143724   143730   143722   143704   143671   143629   143587   143545 
  143505   143467   143431   143397   143360   143323   143286   143247 
  143211   143183   143171   143183   143204   143218   143227   143232 
  143223   143207   143194   143181   143166   143161   143165   143166 
  143159   143148   143130   143108   143091   143072   143050   143031 
  143019   143010   142987   142942   142895   142873   142863   142849 
  142839   142842   142851   142861   142869   142874   142886   142910 
  142939   142969   142996   143013   143015   143015   143025   143049 
  143070   143067   143051   143050   143077   143101   143097   143079 
  143061   143031   142989   142952   142920   142899   142893   142891 
  142894   142913   142943   142975   143005   143031   143062   143101 
  143140   143175   143202   143222   143227   143209   143184   143163 
  143138   143100   143048   143000   142967   142937   142897   142854 
  142822   142807   142801   142802   142820   142857   142901   142948 
  143000   143036   143046   143049   143051   143045   143032   143020 
  143009   142991   142979   142991   143017   143033   143031   143019 
  143006   143002   143010   143021   143028   143039   143052   143054 
  143048   143047   143048   143042   143035   143036   143046   143067 
  143092   143106   143112   143115   143107   143090   143084   143100 
  143138   143186   143229   143265   143299   143338   143378   143409 
  143427   143438   143440   143429   143411   143387   143352   143304 
  143250   143196   143151   143128   143126   143112   143062   142998 
  142948   142912   142884   142858   142826   142796   142786   142798 
  142824   142859   142889   142895   142885   142867   142839   142797 
  142735   142656   142581   142530   142493   142466   142464   142498 
  142549   142604   142662   142717   142761   142792   142809   142808 
  142807   142832   142873   142906   142933   142969   143008   143048 
  143092   143130   143153   143162   143175   143212   143268   143315 
  143337   143334   143311   143294   143291   143283   143267   143255 
  143239   143219   143202   143179   143147   143113   143069   143013 
  142965   142946   142945   142951   142978   143032   143089   143125 
  143137   143140   143153   143186   143225   143253   143270   143291 
  143311   143320   143323   143325   143326   143332   143349   143370 
  143387   143393   143368   143311   143249   143205   143175   143150 
  143137   143146   143163   143167   143169   143191   143226   143260 
  143288   143313   143339   143372   143418   143474   143538   143596 
  143637   143666   143686   143693   143696   143695   143685   143670 
  143657   143644   143622   143579   143517   143447   143372   143294 
  143218   143138   143067   143026   143017   143023   143025   143019 
  143009   142997   142977   142940   142892   142834   142771   142716 
  142681   142663   142657   142659   142663   142664   142659   142649 
  142648   142654   142656   142665   142688   142719   142762   142821 
  142891   142962   143015   143050   143084   143115   143135   143151 
  143172   143206   143260   143327   143411   143512   143607   143681 
  143749   143824   143889   143926   143936   143931   143926   143918 
  143877   143790   143671   143536   143403   143280   143162   143060 
  142975   142896   142821   142769   142748   142735   142720   142720 
  142745   142783   142812   142829   142840   142846   142859   142889 
  142926   142965   143018   143088   143154   143195   143206   143193 
  143161   143119   143072   143023   142983   142967   142982   143014 
  143039   143048   143063   143098   143144   143198   143261   143324 
  143372   143393   143389   143360   143301   143212   143112   143028 
  142975   142949   142934   142927   142934   142944   142940   142930 
  142936   142960   142975   142979   142982   142990   143002   143010 
  143021   143056   143098   143120   143129   143149   143189   143248 
  143316   143374   143413   143442   143475   143506   143523   143529 
  143532   143530   143504   143459   143417   143375   143314   143240 
  143173   143108   143027   142924   142812   142703   142601   142500 
  142400   142320   142275   142267   142282   142309   142341   142374 
  142413   142469   142545   142628   142703   142747   142752   142734 
  142707   142670   142630   142603   142591   142584   142571   142561 
  142566   142582   142597   142618   142669   142736   142785   142815 
  142843   142866   142874   142868   142852   142840   142858   142919 
  143001   143086   143177   143272   143353   143396   143389   143345 
  143286   143215   143122   143020   142928   142857   142812   142779 
  142734   142667   142593   142530   142471   142415   142383   142395 
  142429   142447   142450   142467   142512   142579   142674   142795 
  142918   143024   143121   143205   143271   143323   143361   143386 
  143416   143467   143531   143572   143567   143525   143467   143409 
  143370   143352   143324   143266   143182   143077   142955   142837 
  142748   142695   142675   142680   142701   142738   142796   142859 
  142906   142929   142927   142889   142822   142756   142715   142702 
  142703   142717   142757   142823   142904   143007   143125   143227 
  143303   143363   143410   143430   143419   143413   143438   143483 
  143526   143568   143612   143651   143676   143681   143668   143650 
  143640   143617   143565   143517   143504   143513   143518   143513 
  143510   143516   143530   143548   143556   143541   143502   143454 
  143413   143386   143375   143373   143359   143321   143261   143190 
  143122   143062   143012   142970   142941   142930   142933   142953 
  143007   143097   143202   143296   143372   143423   143434   143405 
  143356   143294   143223   143155   143104   143084   143085   143077 
  143047   143013   142985   142953   142915   142896   142923   142980 
  143029   143052   143049   143018   142969   142918   142868   142819 
  142760   142694   142643   142609   142566   142505   142436   142367 
  142306   142255   142215   142190   142183   142196   142236   142297 
  142362   142414   142450   142478   142510   142548   142594   142653 
  142719   142785   142862   142964   143080   143188   143282   143364 
  143438   143505   143568   143629   143693   143755   143812   143867 
  143915   143953   143992   144029   144052   144054   144044   144024 
  143997   143965   143913   143826   143723   143621   143524   143430 
  143346   143283   143238   143205   143185   143176   143175   143200 
  143248   143292   143321   143350   143384   143413   143437   143460 
  143476   143502   143549   143598   143626   143626   143599   143548 
  143473   143381   143288   143197   143111   143042   142987   142928 
  142852   142761   142672   142607   142574   142560   142548   142536 
  142537   142544   142535   142503   142448   142366   142276   142198 
  142135   142099   142104   142148   142212   142277   142336   142387 
  142439   142503   142577   142657   142744   142835   142926   143004 
  143055   143089   143118   143142   143165   143199   143262   143342 
  143421   143501   143585   143668   143750   143830   143890   143919 
  143925   143923   143907   143872   143830   143804   143802   143821 
  143857   143900   143935   143965   143989   143989   143960   143913 
  143860   143810   143758   143698   143644   143603   143563   143522 
  143476   143425   143385   143366   143354   143345   143336   143309 
  143255   143198   143142   143081   143020   142960   142901   142848 
  142800   142749   142687   142613   142537   142474   142433   142406 
  142384   142358   142325   142289   142265   142267   142284   142296 
  142303   142319   142345   142372   142395   142414   142426   142422 
  142399   142384   142415   142503   142639   142816   143037   143295 
  143561   143801   144005   144172   144292   144369   144430   144483 
  144515   144513   144481   144436   144388   144335   144281   144245 
  144224   144197   144155   144104   144055   144007   143960   143911 
  143854   143779   143692   143604   143520   143441   143354   143259 
  143172   143101   143036   142974   142916   142863   142808   142750 
  142705   142675   142646   142613   142576   142538   142519   142535 
  142573   142597   142587   142555   142518   142466   142385   142291 
  142203   142110   141999   141875   141755   141647   141539   141418 
  141287   141160   141057   140987   140938   140895   140864   140860 
  140887   140923   140928   140888   140824   140757   140693   140630 
  140571   140537   140546   140591   140664   140761   140870   140963 
  141036   141118   141228   141361   141504   141645   141788   141948 
  142125   142302   142463   142597   142713   142821   142917   142997 
  143074   143160   143251   143335   143408   143466   143505   143531 
  143545   143546   143532   143499   143446   143379   143292   143182 
  143055   142931   142833   142769   142750   142768   142789   142798 
  142819   142860   142900   142925   142932   142934   142935   142935 
  142924   142896   142858   142829   142823   142839   142864   142883 
  142902   142927   142969   143025   143081   143122   143150   143180 
  143227   143288   143360   143458   143580   143712   143855   144002 
  144139   144278   144427   144555   144642   144699   144736   144754 
  144754   144759   144790   144848   144922   145003   145092   145189 
  145290   145390   145469   145504   145495   145472   145448   145401 
  145320   145241   145184   145117   145016   144891   144753   144595 
  144422   144245   144064   143871   143684   143541   143447   143377 
  143319   143278   143259   143264   143284   143312   143345   143382 
  143414   143435   143456   143478   143492   143495   143496   143498 
  143487   143444   143363   143255   143135   143028   142939   142854 
  142762   142671   142599   142555   142538   142539   142560   142606 
  142659   142709   142755   142791   142815   142834   142844   142838 
  142825   142817   142804   142768   142719   142681   142660   142644 
  142632   142643   142685   142752   142834   142919   143004   143085 
  143155   143218   143291   143371   143446   143513   143561   143578 
  143572   143554   143529   143506   143485   143468   143451   143422 
  143372   143320   143292   143282   143274   143255   143230   143214 
  143210   143204   143197   143202   143223   143259   143322   143399 
  143453   143478   143494   143509   143519   143521   143515   143510 
  143513   143524   143546   143589   143655   143736   143841   143979 
  144139   144307   144471   144613   144714   144768   144781   144763 
  144716   144641   144549   144458   144372   144280   144165   144031 
  143895   143755   143613   143490   143391   143308   143237   143186 
  143158   143152   143158   143164   143159   143136   143102   143066 
  143024   142960   142875   142787   142712   142651   142590   142530 
  142483   142450   142422   142389   142342   142273   142176   142039 
  141872   141714   141595   141513   141444   141377   141321   141290 
  141298   141352   141450   141585   141740   141894   142038   142177 
  142319   142464   142612   142761   142915   143077   143231   143367 
  143491   143606   143703   143765   143803   143842   143885   143930 
  143980   144033   144098   144186   144296   144411   144500   144541 
  144529   144469   144370   144239   144070   143865   143639   143408 
  143180   142943   142674   142361   142015   141671   141362   141089 
  140857   140675   140538   140427   140330   140256   140204   140167 
  140147   140147   140152   140147   140128   140101   140067   140028 
  139991   139966   139971   140014   140078   140146   140212   140279 
  140346   140409   140478   140569   140682   140812   140963   141146 
  141353   141577   141812   142054   142290   142497   142671   142828 
  142995   143180   143371   143571   143783   144007   144238   144467 
  144693   144910   145089   145211   145296   145368   145434   145493 
  145534   145551   145555   145545   145510   145454   145378   145288 
  145185   145060   144904   144721   144534   144359   144186   144004 
  143830   143694   143603   143542   143503   143500   143536   143579 
  143598   143581   143530   143458   143381   143301   143211   143110 
  143003   142905   142828   142781   142767   142782   142829   142903 
  142980   143045   143107   143151   143160   143136   143098   143075 
  143080   143100   143122   143144   143170   143198   143226   143247 
  143251   143238   143234   143251   143289   143340   143392   143432 
  143456   143465   143468   143472   143479   143496   143535   143594 
  143658   143726   143782   143801   143774   143718   143640   143544 
  143450   143373   143304   143228   143139   143045   142962   142895 
  142843   142792   142727   142643   142533   142404   142275   142157 
  142049   141957   141892   141863   141867   141892   141942   142035 
  142159   142293   142434   142581   142735   142910   143108   143323 
  143550   143775   143990   144195   144379   144530   144665   144796 
  144912   144999   145041   145041   145018   144991   144974   144971 
  144965   144946   144914   144874   144827   144772   144722   144680 
  144630   144552   144443   144309   144154   143970   143767   143570 
  143386   143210   143038   142874   142711   142536   142345   142149 
  141951   141758   141587   141455   141365   141316   141300   141318 
  141368   141442   141541   141663   141785   141897   142012   142131 
  142233   142318   142404   142493   142589   142711   142873   143077 
  143326   143607   143892   144173   144447   144711   144959   145173 
  145343   145463   145526   145546   145544   145521   145463   145382 
  145293   145176   145017   144842   144671   144484   144269   144043 
  143832   143632   143429   143223   143022   142837   142677   142528 
  142366   142188   142005   141813   141602   141398   141236   141118 
  141017   140927   140873   140853   140844   140847   140872   140916 
  140968   141016   141057   141109   141190   141309   141470   141669 
  141888   142111   142343   142587   142829   143067   143304   143530 
  143743   143939   144093   144184   144206   144167   144079   143961 
  143823   143679   143559   143478   143416   143343   143262   143185 
  143119   143044   142925   142757   142576   142400   142217   142029 
  141851   141694   141569   141484   141439   141428   141443   141491 
  141563   141640   141737   141868   142026   142201   142395   142610 
  142831   143033   143213   143373   143505   143609   143691   143748 
  143787   143838   143916   144006   144086   144147   144200   144266 
  144341   144407   144459   144493   144497   144467   144416   144366 
  144325   144280   144225   144169   144118   144054   143960   143849 
  143736   143633   143555   143505   143453   143380   143294   143209 
  143129   143054   142973   142876   142759   142637   142530   142442 
  142354   142252   142140   142031   141927   141823   141728   141654 
  141612   141611   141635   141660   141685   141717   141753   141803 
  141871   141950   142027   142106   142195   142285   142368   142437 
  142495   142545   142593   142638   142673   142700   142723   142759 
  142824   142900   142947   142960   142958   142943   142907   142861 
  142811   142748   142672   142599   142531   142461   142382   142290 
  142178   142063   141967   141888   141826   141789   141777   141783 
  141811   141867   141942   142035   142158   142298   142436   142571 
  142696   142794   142870   142933   142982   143015   143029   143025 
  143006   142975   142945   142932   142938   142963   143011   143074 
  143146   143230   143328   143450   143591   143731   143868   144020 
  144187   144354   144520   144680   144832   144989   145150   145294 
  145415   145518   145602   145665   145707   145746   145793   145852 
  145915   145964   145983   145970   145934   145872   145765   145606 
  145412   145189   144931   144646   144357   144091   143863   143677 
  143519   143385   143281   143197   143119   143048   142995   142962 
  142935   142900   142855   142816   142787   142748   142685   142631 
  142620   142651   142703   142770   142847   142925   143004   143078 
  143143   143197   143235   143248   143232   143197   143150   143086 
  143007   142929   142850   142760   142665   142576   142499   142431 
  142370   142320   142279   142242   142210   142189   142177   142167 
  142165   142177   142202   142235   142273   142320   142382   142465 
  142567   142681   142806   142936   143052   143143   143226   143308 
  143377   143435   143487   143517   143514   143488   143444   143381 
  143306   143217   143115   143006   142893   142790   142705   142612 
  142500   142394   142310   142235   142154   142070   141990   141917 
  141851   141796   141756   141732   141737   141771   141818   141872 
  141949   142053   142171   142292   142411   142514   142596   142667 
  142730   142797   142879   142967   143054   143141   143228   143306 
  143361   143399   143438   143480   143513   143527   143511   143465 
  143399   143321   143248   143193   143158   143139   143131   143126 
  143116   143097   143079   143068   143060   143051   143043   143017 
  142949   142836   142690   142518   142329   142132   141934   141744 
  141578   141445   141335   141243   141177   141140   141131   141159 
  141222   141307   141403   141504   141609   141729   141864   142000 
