Origin Time       2025/01/13 21:19:00
Lat.              31.8
Long.             131.6
Depth. (km)       30
Mag.              6.9
Station Code      YMGH06
Station Lat.      33.9893
Station Long.     131.3012
Station Height(m) 80
Record Time       2025/01/13 21:20:14
Sampling Freq(Hz) 100Hz
Duration Time(s)  175
Dir.              4
Scale Factor      7845(gal)/8223790
Max. Acc. (gal)   1.469
Last Correction   2025/01/13 21:20:14
Memo.             
[...]
   -4074    -4083    -4087    -4087    -4085    -4078    -4066    -4048 
   -4028    -4006    -3978    -3943    -3910    -3881    -3854    -3828 
   -3807    -3786    -3765    -3747    -3730    -3713    -3697    -3684 
   -3667    -3659    -3658    -3666    -3684    -3704    -3726    -3747 
   -3770    -3798    -3835    -3870    -3908    -3950    -3987    -4021 
   -4056    -4093    -4126    -4158    -4180    -4194    -4197    -4189 
   -4171    -4148    -4122    -4094    -4067    -4041    -4018    -3993 
   -3966    -3943    -3921    -3901    -3883    -3873    -3871    -3875 
   -3883    -3898    -3913    -3927    -3940    -3952    -3960    -3966 
   -3971    -3974    -3975    -3974    -3978    -3985    -3989    -3994 
   -4005    -4016    -4027    -4043    -4062    -4075    -4085    -4090 
   -4094    -4098    -4099    -4097    -4091    -4083    -4067    -4045 
   -4031    -4018    -4006    -3998    -3994    -3994    -4000    -4009 
   -4024    -4040    -4052    -4059    -4063    -4058    -4043    -4021 
   -3994    -3964    -3933    -3904    -3873    -3840    -3809    -3780 
   -3755    -3739    -3732    -3731    -3736    -3746    -3753    -3761 
   -3773    -3789    -3807    -3825    -3844    -3861    -3877    -3893 
   -3901    -3904    -3898    -3882    -3861    -3836    -3807    -3775 
   -3744    -3715    -3689    -3672    -3661    -3655    -3655    -3661 
   -3672    -3689    -3708    -3730    -3751    -3778    -3811    -3843 
   -3882    -3932    -3982    -4035    -4083    -4122    -4155    -4178 
   -4189    -4189    -4180    -4164    -4140    -4114    -4091    -4070 
   -4047    -4028    -4009    -3985    -3964    -3943    -3920    -3898 
   -3883    -3874    -3871    -3871    -3871    -3874    -3877    -3879 
   -3879    -3881    -3885    -3889    -3898    -3910    -3924    -3939 
   -3950    -3951    -3954    -3956    -3956    -3960    -3971    -3981 
   -3990    -4004    -4020    -4039    -4059    -4077    -4093    -4101 
   -4105    -4108    -4099    -4082    -4062    -4040    -4013    -3983 
   -3958    -3935    -3915    -3898    -3888    -3881    -3882    -3888 
   -3894    -3904    -3919    -3932    -3947    -3963    -3974    -3982 
   -3987    -3991    -3996    -4001    -4002    -4005    -4008    -4012 
   -4020    -4029    -4039    -4047    -4051    -4048    -4041    -4028 
   -4013    -4002    -3986    -3971    -3966    -3962    -3962    -3967 
   -3973    -3981    -3989    -3990    -3991    -3989    -3982    -3981 
   -3977    -3970    -3963    -3952    -3936    -3921    -3902    -3882 
   -3869    -3859    -3859    -3873    -3892    -3919    -3951    -3979 
   -4004    -4018    -4023    -4017    -3996    -3963    -3932    -3896 
   -3858    -3829    -3802    -3778    -3765    -3758    -3753    -3746 
   -3740    -3732    -3717    -3705    -3696    -3689    -3688    -3692 
   -3705    -3726    -3754    -3786    -3820    -3844    -3861    -3874 
   -3885    -3893    -3898    -3900    -3897    -3892    -3881    -3866 
   -3847    -3829    -3817    -3804    -3793    -3792    -3797    -3808 
   -3821    -3834    -3848    -3866    -3878    -3890    -3900    -3905 
   -3910    -3917    -3919    -3920    -3916    -3904    -3892    -3881 
   -3869    -3854    -3842    -3829    -3816    -3797    -3782    -3770 
   -3761    -3750    -3740    -3732    -3724    -3720    -3719    -3717 
   -3716    -3715    -3712    -3712    -3720    -3735    -3753    -3770 
   -3785    -3800    -3812    -3821    -3831    -3846    -3858    -3866 
   -3874    -3890    -3909    -3932    -3960    -3986    -4008    -4027 
   -4043    -4058    -4074    -4085    -4090    -4090    -4085    -4074 
   -4064    -4060    -4058    -4056    -4058    -4058    -4055    -4052 
   -4052    -4045    -4029    -4009    -3982    -3950    -3913    -3878 
   -3843    -3808    -3775    -3747    -3720    -3693    -3669    -3651 
   -3643    -3646    -3663    -3685    -3708    -3734    -3761    -3781 
   -3796    -3809    -3817    -3821    -3819    -3815    -3809    -3801 
   -3793    -3792    -3789    -3785    -3788    -3793    -3798    -3809 
   -3820    -3834    -3848    -3863    -3885    -3910    -3936    -3963 
   -3986    -4005    -4020    -4033    -4047    -4062    -4081    -4099 
   -4120    -4145    -4172    -4197    -4218    -4237    -4255    -4270 
   -4280    -4290    -4297    -4299    -4299    -4294    -4283    -4270 
   -4255    -4237    -4218    -4198    -4176    -4158    -4137    -4117 
   -4104    -4094    -4089    -4089    -4091    -4091    -4093    -4091 
   -4081    -4063    -4040    -4010    -3978    -3944    -3915    -3888 
   -3866    -3852    -3843    -3838    -3842    -3856    -3875    -3900 
   -3925    -3951    -3979    -4002    -4023    -4041    -4054    -4063 
   -4067    -4060    -4050    -4035    -4018    -4005    -3994    -3985 
   -3981    -3982    -3987    -3997    -4008    -4018    -4031    -4041 
   -4048    -4051    -4052    -4048    -4039    -4032    -4027    -4016 
   -4002    -3987    -3970    -3951    -3931    -3910    -3898    -3892 
   -3889    -3892    -3905    -3928    -3952    -3979    -4012    -4043 
   -4075    -4105    -4128    -4151    -4172    -4187    -4206    -4234 
   -4263    -4294    -4325    -4351    -4374    -4394    -4407    -4414 
   -4415    -4414    -4410    -4405    -4395    -4382    -4371    -4353 
   -4322    -4280    -4234    -4179    -4117    -4052    -3983    -3917 
   -3858    -3801    -3747    -3701    -3661    -3623    -3588    -3558 
   -3531    -3510    -3493    -3480    -3464    -3451    -3442    -3434 
   -3427    -3426    -3426    -3429    -3435    -3446    -3468    -3499 
   -3538    -3588    -3642    -3700    -3763    -3828    -3892    -3952 
   -4008    -4062    -4113    -4152    -4183    -4209    -4232    -4251 
   -4263    -4267    -4261    -4248    -4232    -4207    -4176    -4145 
   -4114    -4083    -4055    -4035    -4018    -4009    -4006    -4006 
   -4004    -4002    -4005    -4010    -4016    -4020    -4027    -4035 
   -4039    -4041    -4037    -4025    -4008    -3986    -3958    -3927 
   -3892    -3852    -3817    -3792    -3777    -3770    -3774    -3785 
   -3798    -3812    -3827    -3840    -3851    -3859    -3866    -3869 
   -3870    -3863    -3852    -3843    -3831    -3817    -3801    -3785 
   -3771    -3767    -3771    -3785    -3811    -3847    -3890    -3939 
   -3990    -4044    -4102    -4160    -4214    -4264    -4311    -4356 
   -4396    -4428    -4448    -4457    -4453    -4436    -4406    -4361 
   -4309    -4247    -4175    -4105    -4041    -3982    -3927    -3882 
   -3843    -3807    -3775    -3746    -3720    -3699    -3677    -3658 
   -3640    -3624    -3607    -3592    -3580    -3570    -3565    -3564 
   -3573    -3593    -3618    -3650    -3690    -3735    -3782    -3829 
   -3874    -3913    -3951    -3985    -4012    -4035    -4060    -4087 
   -4112    -4140    -4170    -4197    -4224    -4248    -4264    -4278 
   -4288    -4290    -4283    -4278    -4271    -4257    -4240    -4220 
   -4195    -4168    -4144    -4121    -4094    -4063    -4025    -3982 
   -3939    -3893    -3846    -3798    -3754    -3711    -3673    -3635 
   -3597    -3562    -3524    -3489    -3460    -3434    -3415    -3402 
   -3392    -3384    -3377    -3376    -3379    -3380    -3385    -3395 
   -3410    -3431    -3457    -3487    -3523    -3562    -3605    -3645 
   -3678    -3711    -3744    -3777    -3809    -3846    -3881    -3915 
   -3950    -3989    -4024    -4058    -4094    -4131    -4163    -4193 
   -4221    -4247    -4272    -4299    -4322    -4341    -4355    -4361 
   -4363    -4361    -4355    -4345    -4333    -4315    -4299    -4284 
   -4264    -4237    -4209    -4174    -4137    -4098    -4052    -4004 
   -3955    -3901    -3842    -3780    -3715    -3651    -3588    -3524 
   -3460    -3400    -3346    -3295    -3245    -3202    -3168    -3137 
   -3117    -3107    -3100    -3106    -3119    -3130    -3141    -3153 
   -3165    -3176    -3192    -3213    -3238    -3273    -3326    -3393 
   -3477    -3576    -3680    -3788    -3901    -4009    -4108    -4194 
   -4271    -4334    -4386    -4426    -4455    -4475    -4487    -4490 
   -4484    -4468    -4449    -4426    -4402    -4382    -4368    -4359 
   -4360    -4369    -4387    -4411    -4438    -4465    -4492    -4522 
   -4553    -4588    -4631    -4681    -4737    -4796    -4855    -4916 
   -4974    -5024    -5066    -5098    -5116    -5123    -5119    -5103 
   -5080    -5051    -5013    -4968    -4915    -4853    -4787    -4712 
   -4633    -4549    -4465    -4386    -4310    -4243    -4186    -4139 
   -4102    -4072    -4051    -4035    -4021    -4010    -4002    -3994 
   -3979    -3963    -3947    -3929    -3908    -3881    -3846    -3802 
   -3754    -3707    -3658    -3608    -3561    -3515    -3468    -3426 
   -3392    -3365    -3346    -3341    -3346    -3356    -3372    -3393 
   -3416    -3437    -3456    -3473    -3489    -3503    -3515    -3532 
   -3553    -3573    -3595    -3616    -3636    -3653    -3663    -3670 
   -3673    -3667    -3658    -3645    -3622    -3596    -3570    -3542 
   -3511    -3480    -3453    -3430    -3403    -3376    -3356    -3331 
   -3304    -3277    -3246    -3213    -3177    -3140    -3103    -3068 
   -3034    -3005    -2980    -2961    -2955    -2960    -2982    -3011 
   -3048    -3092    -3141    -3187    -3235    -3281    -3329    -3379 
   -3429    -3483    -3534    -3580    -3624    -3666    -3707    -3746 
   -3782    -3812    -3839    -3863    -3885    -3901    -3915    -3929 
   -3943    -3955    -3967    -3975    -3983    -3990    -3998    -4012 
   -4028    -4041    -4054    -4064    -4077    -4085    -4090    -4093 
   -4090    -4086    -4078    -4066    -4050    -4028    -4002    -3978 
   -3955    -3931    -3909    -3889    -3870    -3858    -3850    -3846 
   -3843    -3836    -3829    -3817    -3801    -3782    -3763    -3743 
   -3720    -3699    -3680    -3665    -3649    -3634    -3618    -3600 
   -3584    -3572    -3561    -3553    -3547    -3550    -3561    -3577 
   -3605    -3642    -3684    -3739    -3807    -3883    -3962    -4043 
   -4124    -4201    -4272    -4341    -4403    -4459    -4509    -4553 
   -4592    -4625    -4649    -4665    -4673    -4679    -4677    -4671 
   -4669    -4666    -4650    -4629    -4606    -4576    -4540    -4507 
   -4479    -4450    -4426    -4409    -4394    -4383    -4380    -4380 
   -4388    -4403    -4417    -4433    -4446    -4453    -4453    -4444 
   -4423    -4394    -4348    -4287    -4221    -4152    -4075    -3993 
   -3913    -3838    -3766    -3704    -3653    -3611    -3578    -3551 
   -3534    -3520    -3505    -3492    -3476    -3457    -3438    -3420 
   -3404    -3396    -3395    -3399    -3408    -3423    -3441    -3460 
   -3484    -3511    -3543    -3577    -3609    -3643    -3676    -3707 
   -3742    -3781    -3824    -3873    -3923    -3975    -4033    -4089 
   -4140    -4186    -4222    -4249    -4268    -4276    -4283    -4287 
   -4282    -4278    -4279    -4280    -4278    -4280    -4290    -4305 
   -4324    -4341    -4359    -4372    -4382    -4388    -4394    -4401 
   -4406    -4409    -4410    -4414    -4418    -4423    -4426    -4426 
   -4429    -4428    -4418    -4409    -4394    -4371    -4338    -4302 
   -4260    -4216    -4167    -4114    -4060    -4004    -3951    -3898 
   -3850    -3804    -3759    -3716    -3676    -3639    -3605    -3568 
   -3527    -3492    -3456    -3415    -3377    -3341    -3306    -3280 
   -3265    -3258    -3258    -3267    -3285    -3312    -3342    -3383 
   -3426    -3472    -3520    -3572    -3623    -3678    -3736    -3793 
   -3852    -3915    -3977    -4040    -4104    -4164    -4222    -4275 
   -4324    -4367    -4406    -4442    -4472    -4495    -4514    -4527 
   -4540    -4546    -4550    -4550    -4545    -4533    -4518    -4500 
   -4484    -4469    -4457    -4446    -4436    -4426    -4417    -4406 
   -4394    -4376    -4352    -4329    -4305    -4279    -4255    -4236 
   -4218    -4205    -4190    -4171    -4148    -4118    -4082    -4041 
   -3993    -3937    -3881    -3821    -3761    -3705    -3657    -3612 
   -3574    -3547    -3530    -3520    -3515    -3514    -3515    -3519 
   -3520    -3520    -3527    -3528    -3526    -3518    -3505    -3491 
   -3474    -3458    -3445    -3439    -3437    -3433    -3435    -3439 
   -3442    -3449    -3460    -3469    -3483    -3499    -3519    -3546 
   -3580    -3624    -3681    -3744    -3811    -3889    -3970    -4050 
   -4129    -4213    -4291    -4361    -4422    -4473    -4515    -4548 
   -4569    -4581    -4591    -4594    -4594    -4595    -4599    -4602 
   -4607    -4612    -4614    -4612    -4604    -4590    -4567    -4538 
   -4506    -4469    -4429    -4384    -4336    -4290    -4245    -4201 
   -4156    -4113    -4067    -4023    -3982    -3942    -3904    -3874 
   -3852    -3836    -3828    -3825    -3821    -3821    -3827    -3825 
   -3823    -3823    -3819    -3812    -3809    -3808    -3804    -3804 
   -3812    -3823    -3835    -3856    -3881    -3909    -3944    -3983 
   -4021    -4060    -4101    -4136    -4164    -4183    -4195    -4194 
   -4183    -4166    -4144    -4116    -4085    -4056    -4029    -3997 
   -3963    -3929    -3893    -3856    -3819    -3777    -3731    -3685 
   -3638    -3585    -3528    -3464    -3392    -3319    -3248    -3177 
   -3109    -3041    -2978    -2917    -2856    -2802    -2754    -2706 
   -2662    -2616    -2567    -2527    -2493    -2459    -2436    -2420 
   -2407    -2401    -2398    -2398    -2404    -2415    -2431    -2454 
   -2485    -2524    -2578    -2646    -2728    -2825    -2932    -3049 
   -3175    -3307    -3443    -3580    -3709    -3832    -3948    -4054 
   -4151    -4239    -4315    -4383    -4450    -4514    -4575    -4639 
   -4710    -4781    -4855    -4931    -5003    -5066    -5125    -5178 
   -5220    -5248    -5271    -5286    -5292    -5289    -5273    -5254 
   -5235    -5204    -5166    -5130    -5092    -5050    -5005    -4957 
   -4912    -4868    -4818    -4766    -4718    -4665    -4606    -4548 
   -4488    -4422    -4352    -4280    -4209    -4140    -4070    -4001 
   -3935    -3875    -3819    -3767    -3730    -3705    -3690    -3689 
   -3707    -3736    -3775    -3825    -3886    -3951    -4020    -4097 
   -4178    -4257    -4342    -4432    -4518    -4602    -4685    -4761 
   -4831    -4895    -4949    -4990    -5023    -5046    -5058    -5062 
   -5055    -5040    -5024    -5005    -4976    -4938    -4897    -4846 
   -4784    -4722    -4658    -4594    -4533    -4476    -4418    -4357 
   -4295    -4228    -4158    -4082    -4002    -3919    -3829    -3740 
   -3655    -3572    -3495    -3423    -3354    -3287    -3223    -3161 
   -3099    -3044    -2991    -2940    -2897    -2863    -2839    -2825 
   -2825    -2829    -2839    -2851    -2860    -2868    -2878    -2884 
   -2894    -2907    -2922    -2938    -2964    -2995    -3033    -3080 
   -3137    -3196    -3261    -3326    -3389    -3460    -3532    -3608 
   -3686    -3766    -3848    -3935    -4017    -4095    -4171    -4240 
   -4303    -4359    -4407    -4449    -4484    -4507    -4525    -4536 
   -4536    -4529    -4515    -4496    -4475    -4452    -4430    -4410 
   -4395    -4386    -4375    -4365    -4359    -4349    -4338    -4330 
   -4322    -4310    -4294    -4279    -4264    -4245    -4228    -4212 
   -4193    -4171    -4149    -4125    -4101    -4078    -4054    -4031 
   -4002    -3969    -3931    -3888    -3835    -3778    -3721    -3661 
   -3601    -3545    -3489    -3438    -3391    -3345    -3304    -3269 
   -3240    -3222    -3215    -3218    -3231    -3252    -3280    -3316 
   -3360    -3408    -3461    -3515    -3573    -3628    -3681    -3738 
   -3792    -3840    -3889    -3935    -3974    -4008    -4033    -4050 
   -4059    -4060    -4062    -4064    -4063    -4064    -4070    -4074 
   -4079    -4085    -4089    -4093    -4093    -4089    -4083    -4074 
   -4063    -4052    -4035    -4014    -3993    -3966    -3936    -3909 
   -3874    -3834    -3793    -3754    -3715    -3677    -3640    -3605 
   -3573    -3539    -3507    -3473    -3434    -3389    -3343    -3294 
   -3240    -3183    -3132    -3088    -3049    -3018    -3002    -2997 
   -3002    -3026    -3064    -3111    -3168    -3234    -3308    -3389 
   -3473    -3557    -3642    -3726    -3804    -3877    -3946    -4009 
   -4066    -4117    -4166    -4207    -4245    -4282    -4315    -4349 
   -4383    -4414    -4444    -4479    -4515    -4553    -4591    -4633 
   -4671    -4702    -4726    -4743    -4749    -4741    -4725    -4706 
   -4680    -4648    -4612    -4577    -4540    -4500    -4460    -4422 
   -4387    -4356    -4328    -4307    -4291    -4283    -4284    -4287 
   -4297    -4307    -4311    -4311    -4303    -4287    -4271    -4249 
   -4226    -4202    -4174    -4149    -4126    -4098    -4072    -4052 
   -4028    -4001    -3981    -3960    -3939    -3921    -3902    -3883 
   -3863    -3843    -3823    -3802    -3784    -3766    -3751    -3739 
   -3731    -3726    -3727    -3731    -3736    -3744    -3755    -3765 
   -3777    -3792    -3812    -3836    -3859    -3879    -3898    -3910 
   -3917    -3923    -3931    -3937    -3948    -3967    -3989    -4014 
   -4045    -4079    -4118    -4164    -4212    -4259    -4311    -4364 
   -4417    -4469    -4523    -4576    -4623    -4664    -4698    -4720 
   -4734    -4739    -4741    -4733    -4718    -4700    -4677    -4652 
   -4625    -4595    -4560    -4529    -4495    -4452    -4409    -4361 
   -4310    -4255    -4202    -4144    -4085    -4023    -3963    -3905 
   -3847    -3790    -3736    -3680    -3623    -3565    -3510    -3460 
   -3412    -3372    -3338    -3306    -3281    -3267    -3254    -3246 
   -3242    -3244    -3248    -3253    -3264    -3276    -3291    -3311 
   -3335    -3364    -3399    -3438    -3477    -3516    -3557    -3599 
   -3643    -3690    -3736    -3782    -3828    -3871    -3917    -3963 
   -4008    -4055    -4098    -4141    -4191    -4237    -4279    -4322 
   -4363    -4401    -4438    -4473    -4507    -4540    -4569    -4598 
   -4623    -4645    -4666    -4683    -4695    -4703    -4707    -4702 
   -4687    -4668    -4642    -4607    -4561    -4509    -4448    -4378 
   -4301    -4221    -4133    -4044    -3954    -3863    -3775    -3693 
   -3616    -3542    -3472    -3406    -3343    -3288    -3237    -3188 
   -3150    -3115    -3084    -3063    -3048    -3040    -3033    -3032 
   -3033    -3040    -3049    -3061    -3076    -3096    -3126    -3163 
   -3203    -3253    -3312    -3373    -3438    -3504    -3570    -3639 
   -3712    -3788    -3859    -3929    -4001    -4066    -4125    -4176 
   -4217    -4247    -4263    -4270    -4266    -4253    -4237    -4220 
   -4203    -4189    -4180    -4174    -4168    -4170    -4170    -4170 
   -4168    -4164    -4158    -4148    -4135    -4121    -4105    -4082 
   -4054    -4021    -3986    -3947    -3898    -3844    -3789    -3730 
   -3665    -3603    -3546    -3495    -3454    -3423    -3396    -3383 
   -3379    -3383    -3396    -3420    -3449    -3488    -3539    -3595 
   -3658    -3728    -3802    -3877    -3955    -4037    -4117    -4195 
   -4274    -4352    -4428    -4499    -4565    -4631    -4695    -4747 
   -4796    -4843    -4882    -4915    -4941    -4962    -4981    -4997 
