Origin Time       2025/01/13 21:19:00
Lat.              31.8
Long.             131.6
Depth. (km)       30
Mag.              6.9
Station Code      YMGH08
Station Lat.      34.1349
Station Long.     130.9323
Station Height(m) -156
Record Time       2025/01/13 21:20:20
Sampling Freq(Hz) 100Hz
Duration Time(s)  148
Dir.              2
Scale Factor      3923(gal)/8224838
Max. Acc. (gal)   1.116
Last Correction   2025/01/13 21:20:20
Memo.             
[...]
  -57561   -57543   -57522   -57503   -57485   -57473   -57466   -57460 
  -57450   -57443   -57441   -57442   -57445   -57442   -57434   -57419 
  -57392   -57364   -57337   -57318   -57298   -57276   -57260   -57245 
  -57227   -57215   -57213   -57214   -57221   -57235   -57260   -57287 
  -57310   -57325   -57334   -57338   -57343   -57349   -57350   -57345 
  -57331   -57314   -57299   -57289   -57287   -57292   -57298   -57304 
  -57312   -57321   -57326   -57323   -57316   -57312   -57315   -57321 
  -57329   -57339   -57354   -57377   -57407   -57441   -57466   -57481 
  -57485   -57485   -57476   -57465   -57458   -57451   -57442   -57435 
  -57435   -57434   -57430   -57426   -57423   -57423   -57427   -57438 
  -57454   -57481   -57522   -57570   -57620   -57669   -57708   -57738 
  -57759   -57765   -57759   -57754   -57747   -57736   -57730   -57724 
  -57712   -57694   -57678   -57659   -57630   -57601   -57582   -57564 
  -57545   -57539   -57546   -57558   -57574   -57592   -57608   -57613 
  -57604   -57588   -57562   -57519   -57469   -57420   -57365   -57319 
  -57291   -57269   -57257   -57258   -57256   -57245   -57233   -57211 
  -57177   -57145   -57114   -57080   -57046   -57021   -57003   -56997 
  -57006   -57025   -57042   -57060   -57080   -57099   -57117   -57133 
  -57142   -57148   -57150   -57157   -57171   -57186   -57199   -57215 
  -57233   -57253   -57283   -57319   -57353   -57384   -57418   -57454 
  -57493   -57538   -57584   -57620   -57650   -57672   -57682   -57696 
  -57713   -57724   -57735   -57750   -57759   -57766   -57770   -57770 
  -57766   -57763   -57754   -57738   -57716   -57693   -57667   -57647 
  -57628   -57618   -57622   -57630   -57634   -57645   -57658   -57665 
  -57673   -57678   -57674   -57669   -57665   -57655   -57643   -57636 
  -57632   -57634   -57635   -57634   -57622   -57600   -57573   -57541 
  -57501   -57456   -57403   -57349   -57306   -57273   -57252   -57238 
  -57227   -57221   -57223   -57235   -57254   -57283   -57314   -57343 
  -57376   -57411   -57442   -57464   -57480   -57489   -57484   -57470 
  -57450   -57420   -57396   -57379   -57354   -57326   -57299   -57273 
  -57253   -57238   -57227   -57222   -57223   -57226   -57229   -57241 
  -57262   -57288   -57322   -57362   -57404   -57453   -57497   -57526 
  -57546   -57549   -57537   -57524   -57512   -57493   -57474   -57454 
  -57429   -57407   -57389   -57370   -57357   -57349   -57346   -57345 
  -57345   -57350   -57357   -57366   -57384   -57411   -57441   -57473 
  -57497   -57519   -57541   -57562   -57576   -57581   -57589   -57599 
  -57605   -57613   -57626   -57632   -57635   -57636   -57622   -57589 
  -57550   -57499   -57443   -57392   -57334   -57272   -57217   -57167 
  -57126   -57102   -57082   -57057   -57042   -57038   -57037   -57044 
  -57067   -57095   -57123   -57156   -57191   -57226   -57268   -57310 
  -57348   -57383   -57411   -57429   -57443   -57454   -57454   -57454 
  -57461   -57470   -57485   -57501   -57516   -57530   -57545   -57566 
  -57584   -57597   -57612   -57627   -57642   -57658   -57667   -57676 
  -57686   -57696   -57705   -57712   -57711   -57705   -57699   -57692 
  -57684   -57678   -57669   -57663   -57657   -57647   -57643   -57639 
  -57626   -57611   -57597   -57582   -57572   -57568   -57558   -57558 
  -57572   -57585   -57600   -57612   -57619   -57624   -57630   -57628 
  -57626   -57618   -57603   -57582   -57554   -57523   -57493   -57464 
  -57437   -57410   -57387   -57369   -57349   -57327   -57319   -57314 
  -57303   -57298   -57298   -57298   -57300   -57306   -57315   -57323 
  -57331   -57338   -57343   -57349   -57356   -57361   -57362   -57362 
  -57358   -57349   -57338   -57331   -57321   -57302   -57280   -57258 
  -57237   -57215   -57198   -57184   -57171   -57160   -57160   -57171 
  -57190   -57213   -57237   -57269   -57307   -57341   -57369   -57395 
  -57418   -57441   -57461   -57481   -57499   -57512   -57520   -57520 
  -57512   -57492   -57460   -57420   -57379   -57339   -57307   -57279 
  -57256   -57241   -57238   -57253   -57276   -57302   -57329   -57358 
  -57375   -57377   -57377   -57370   -57354   -57338   -57322   -57310 
  -57308   -57318   -57333   -57345   -57357   -57369   -57381   -57392 
  -57407   -57420   -57437   -57458   -57476   -57488   -57499   -57511 
  -57518   -57519   -57518   -57520   -57526   -57534   -57550   -57570 
  -57593   -57620   -57657   -57694   -57732   -57766   -57794   -57821 
  -57846   -57856   -57851   -57840   -57821   -57798   -57780   -57762 
  -57743   -57732   -57723   -57715   -57701   -57680   -57655   -57634 
  -57608   -57582   -57553   -57522   -57496   -57472   -57449   -57427 
  -57406   -57379   -57346   -57325   -57315   -57304   -57299   -57304 
  -57312   -57323   -57335   -57346   -57350   -57342   -57331   -57319 
  -57300   -57280   -57260   -57237   -57219   -57206   -57196   -57195 
  -57199   -57200   -57200   -57199   -57196   -57187   -57175   -57167 
  -57156   -57148   -57146   -57141   -57138   -57141   -57134   -57132 
  -57138   -57138   -57138   -57141   -57132   -57119   -57110   -57098 
  -57086   -57075   -57063   -57049   -57045   -57041   -57030   -57019 
  -57013   -57006   -57001   -56992   -56988   -56988   -56984   -56980 
  -56986   -57001   -57019   -57040   -57060   -57087   -57114   -57137 
  -57160   -57187   -57207   -57227   -57249   -57265   -57285   -57314 
  -57346   -57389   -57442   -57493   -57541   -57588   -57630   -57663 
  -57696   -57726   -57742   -57757   -57767   -57777   -57789   -57800 
  -57811   -57828   -57844   -57854   -57862   -57869   -57867   -57861 
  -57856   -57861   -57874   -57892   -57904   -57912   -57913   -57905 
  -57896   -57882   -57866   -57852   -57836   -57821   -57811   -57790 
  -57763   -57738   -57709   -57678   -57650   -57632   -57624   -57616 
  -57611   -57608   -57600   -57582   -57559   -57539   -57519   -57505 
  -57504   -57511   -57524   -57547   -57570   -57595   -57620   -57638 
  -57645   -57645   -57640   -57639   -57649   -57662   -57677   -57688 
  -57693   -57697   -57694   -57690   -57685   -57674   -57669   -57665 
  -57662   -57659   -57655   -57646   -57632   -57612   -57585   -57555 
  -57516   -57472   -57424   -57375   -57322   -57268   -57207   -57144 
  -57082   -57028   -56983   -56947   -56911   -56883   -56856   -56829 
  -56806   -56787   -56766   -56741   -56717   -56689   -56664   -56646 
  -56623   -56598   -56585   -56574   -56563   -56556   -56555   -56558 
  -56566   -56579   -56601   -56628   -56656   -56690   -56728   -56760 
  -56793   -56821   -56839   -56851   -56860   -56866   -56870   -56874 
  -56875   -56876   -56874   -56876   -56890   -56906   -56921   -56938 
  -56967   -56998   -57032   -57071   -57119   -57173   -57231   -57291 
  -57353   -57408   -57456   -57496   -57534   -57565   -57596   -57627 
  -57661   -57696   -57730   -57761   -57785   -57804   -57819   -57829 
  -57843   -57858   -57875   -57893   -57910   -57932   -57954   -57975 
  -58005   -58039   -58066   -58095   -58132   -58163   -58187   -58212 
  -58237   -58261   -58279   -58291   -58297   -58294   -58287   -58276 
  -58261   -58251   -58244   -58234   -58229   -58232   -58243   -58251 
  -58252   -58248   -58233   -58210   -58187   -58163   -58137   -58121 
  -58113   -58099   -58081   -58059   -58035   -58009   -57982   -57952 
  -57919   -57886   -57859   -57828   -57800   -57771   -57732   -57682 
  -57627   -57564   -57493   -57418   -57345   -57279   -57218   -57161 
  -57114   -57073   -57038   -57003   -56967   -56932   -56902   -56883 
  -56874   -56866   -56862   -56859   -56851   -56847   -56845   -56844 
  -56853   -56871   -56884   -56897   -56909   -56925   -56944   -56965 
  -56990   -57007   -57021   -57036   -57048   -57057   -57065   -57068 
  -57069   -57073   -57078   -57078   -57078   -57073   -57059   -57036 
  -57010   -56982   -56951   -56918   -56887   -56852   -56814   -56783 
  -56755   -56724   -56701   -56691   -56687   -56697   -56722   -56755 
  -56791   -56835   -56875   -56914   -56959   -57003   -57042   -57083 
  -57117   -57145   -57175   -57204   -57237   -57267   -57294   -57321 
  -57339   -57356   -57376   -57402   -57431   -57472   -57519   -57574 
  -57632   -57688   -57731   -57765   -57794   -57817   -57834   -57846 
  -57848   -57854   -57867   -57886   -57902   -57912   -57917   -57924 
  -57925   -57923   -57916   -57905   -57890   -57862   -57827   -57788 
  -57739   -57684   -57628   -57578   -57531   -57488   -57447   -57408 
  -57369   -57334   -57302   -57277   -57264   -57260   -57267   -57284 
  -57304   -57331   -57368   -57404   -57437   -57473   -57508   -57528 
  -57541   -57549   -57554   -57561   -57573   -57585   -57601   -57623 
  -57646   -57676   -57715   -57753   -57786   -57815   -57834   -57847 
  -57851   -57846   -57842   -57836   -57824   -57816   -57808   -57796 
  -57785   -57777   -57767   -57748   -57723   -57693   -57658   -57626 
  -57597   -57572   -57549   -57528   -57511   -57496   -57484   -57476 
  -57468   -57464   -57465   -57469   -57476   -57488   -57493   -57488 
  -57474   -57451   -57418   -57379   -57337   -57288   -57240   -57192 
  -57150   -57118   -57100   -57096   -57098   -57100   -57117   -57137 
  -57153   -57168   -57177   -57177   -57176   -57168   -57157   -57152 
  -57146   -57137   -57133   -57137   -57141   -57145   -57156   -57172 
  -57190   -57213   -57235   -57254   -57280   -57306   -57327   -57350 
  -57373   -57395   -57418   -57442   -57469   -57497   -57526   -57555 
  -57588   -57624   -57666   -57715   -57769   -57819   -57869   -57921 
  -57967   -58004   -58039   -58074   -58094   -58106   -58121   -58133 
  -58145   -58163   -58185   -58205   -58226   -58248   -58267   -58286 
  -58303   -58309   -58302   -58286   -58261   -58239   -58222   -58205 
  -58186   -58171   -58156   -58140   -58129   -58125   -58121   -58117 
  -58109   -58097   -58090   -58083   -58068   -58054   -58037   -58012 
  -57978   -57942   -57906   -57867   -57828   -57792   -57755   -57717 
  -57680   -57638   -57593   -57545   -57496   -57454   -57418   -57387 
  -57364   -57345   -57327   -57312   -57298   -57283   -57271   -57257 
  -57238   -57215   -57183   -57146   -57109   -57065   -57017   -56976 
  -56947   -56924   -56914   -56914   -56916   -56922   -56934   -56936 
  -56930   -56932   -56933   -56926   -56924   -56924   -56916   -56906 
  -56898   -56895   -56901   -56909   -56921   -56934   -56948   -56964 
  -56975   -56984   -56999   -57010   -57024   -57041   -57061   -57088 
  -57119   -57154   -57199   -57249   -57298   -57352   -57415   -57483 
  -57550   -57622   -57693   -57759   -57823   -57877   -57923   -57971 
  -58017   -58056   -58093   -58124   -58152   -58187   -58214   -58233 
  -58249   -58257   -58253   -58243   -58232   -58216   -58198   -58183 
  -58166   -58144   -58122   -58101   -58078   -58060   -58044   -58028 
  -58020   -58017   -58018   -58025   -58036   -58044   -58048   -58044 
  -58037   -58028   -58012   -57990   -57967   -57943   -57920   -57896 
  -57871   -57858   -57848   -57840   -57838   -57836   -57831   -57820 
  -57812   -57808   -57802   -57793   -57784   -57781   -57777   -57769 
  -57759   -57750   -57739   -57724   -57700   -57669   -57636   -57603 
  -57566   -57527   -57488   -57447   -57402   -57360   -57323   -57294 
  -57272   -57264   -57272   -57298   -57334   -57375   -57416   -57457 
  -57492   -57527   -57558   -57580   -57601   -57622   -57636   -57651 
  -57663   -57672   -57676   -57665   -57647   -57623   -57582   -57537 
  -57493   -57447   -57410   -57383   -57361   -57348   -57343   -57339 
  -57338   -57329   -57308   -57288   -57261   -57225   -57186   -57141 
  -57096   -57060   -57025   -56994   -56965   -56932   -56894   -56857 
  -56818   -56771   -56722   -56671   -56620   -56569   -56519   -56474 
  -56434   -56394   -56361   -56336   -56319   -56308   -56301   -56296 
  -56289   -56285   -56278   -56270   -56259   -56245   -56226   -56207 
  -56178   -56145   -56107   -56064   -56016   -55962   -55912   -55872 
  -55836   -55803   -55783   -55771   -55764   -55765   -55776   -55786 
  -55795   -55810   -55826   -55838   -55854   -55877   -55906   -55930 
  -55953   -55981   -56012   -56042   -56073   -56110   -56150   -56196 
  -56251   -56309   -56369   -56432   -56497   -56565   -56640   -56727 
  -56814   -56902   -56999   -57096   -57191   -57291   -57391   -57487 
  -57576   -57657   -57721   -57778   -57829   -57874   -57910   -57950 
  -57991   -58035   -58081   -58126   -58170   -58213   -58256   -58303 
  -58356   -58410   -58467   -58526   -58581   -58633   -58685   -58738 
  -58792   -58846   -58891   -58927   -58966   -59009   -59042   -59067 
  -59088   -59096   -59093   -59089   -59081   -59071   -59062   -59057 
  -59054   -59058   -59071   -59092   -59116   -59142   -59165   -59182 
  -59201   -59219   -59225   -59229   -59236   -59236   -59233   -59229 
  -59213   -59190   -59167   -59139   -59103   -59067   -59026   -58980 
  -58935   -58885   -58831   -58787   -58739   -58691   -58650   -58611 
  -58571   -58527   -58479   -58426   -58368   -58306   -58236   -58160 
  -58079   -57994   -57906   -57819   -57727   -57630   -57528   -57423 
  -57316   -57203   -57084   -56970   -56857   -56745   -56631   -56516 
  -56407   -56296   -56185   -56081   -55981   -55887   -55802   -55723 
  -55652   -55590   -55530   -55471   -55425   -55383   -55341   -55302 
  -55263   -55223   -55186   -55155   -55127   -55107   -55101   -55108 
  -55117   -55136   -55166   -55198   -55237   -55281   -55329   -55387 
  -55456   -55529   -55606   -55686   -55765   -55845   -55923   -56000 
  -56079   -56147   -56209   -56277   -56344   -56412   -56489   -56573 
  -56655   -56740   -56829   -56926   -57024   -57122   -57217   -57308 
  -57396   -57477   -57555   -57631   -57704   -57775   -57842   -57902 
  -57963   -58031   -58101   -58168   -58236   -58303   -58368   -58423 
  -58471   -58522   -58576   -58626   -58673   -58720   -58764   -58808 
  -58849   -58884   -58915   -58939   -58954   -58968   -58977   -58986 
  -59000   -59016   -59032   -59047   -59059   -59065   -59058   -59044 
  -59024   -59000   -58969   -58931   -58895   -58860   -58830   -58797 
  -58762   -58727   -58692   -58657   -58622   -58588   -58558   -58530 
  -58502   -58476   -58452   -58426   -58399   -58371   -58344   -58320 
  -58297   -58274   -58249   -58226   -58199   -58166   -58133   -58102 
  -58058   -58012   -57967   -57917   -57861   -57804   -57747   -57690 
  -57631   -57576   -57518   -57456   -57395   -57330   -57264   -57199 
  -57132   -57061   -56990   -56913   -56837   -56768   -56698   -56624 
  -56554   -56484   -56412   -56349   -56290   -56241   -56207   -56191 
  -56182   -56185   -56196   -56209   -56231   -56259   -56285   -56308 
  -56335   -56362   -56385   -56409   -56440   -56481   -56524   -56571 
  -56627   -56683   -56737   -56793   -56847   -56893   -56930   -56963 
  -56990   -57014   -57040   -57071   -57106   -57146   -57188   -57234 
  -57287   -57346   -57406   -57466   -57526   -57584   -57643   -57701 
  -57753   -57796   -57834   -57863   -57883   -57894   -57898   -57901 
  -57897   -57889   -57881   -57867   -57836   -57800   -57762   -57715 
  -57667   -57620   -57565   -57512   -57460   -57404   -57350   -57300 
  -57254   -57210   -57169   -57132   -57094   -57056   -57015   -56970 
  -56929   -56891   -56856   -56829   -56809   -56794   -56787   -56783 
  -56778   -56781   -56786   -56790   -56794   -56802   -56816   -56836 
  -56859   -56879   -56898   -56924   -56951   -56971   -56991   -57013 
  -57032   -57046   -57055   -57059   -57064   -57072   -57087   -57110 
  -57145   -57195   -57257   -57326   -57402   -57476   -57545   -57608 
  -57666   -57712   -57742   -57766   -57786   -57802   -57819   -57832 
  -57846   -57856   -57865   -57875   -57889   -57902   -57917   -57928 
  -57932   -57935   -57931   -57921   -57913   -57910   -57912   -57925 
  -57950   -57978   -58013   -58052   -58089   -58126   -58164   -58193 
  -58210   -58230   -58247   -58255   -58257   -58256   -58247   -58232 
  -58213   -58194   -58174   -58147   -58121   -58097   -58077   -58058 
  -58031   -58008   -57994   -57971   -57944   -57924   -57905   -57894 
  -57890   -57889   -57885   -57875   -57869   -57859   -57838   -57817 
  -57802   -57782   -57757   -57736   -57719   -57703   -57689   -57681 
  -57670   -57653   -57634   -57619   -57607   -57595   -57596   -57607 
  -57618   -57631   -57653   -57670   -57681   -57689   -57689   -57682 
  -57666   -57639   -57603   -57554   -57491   -57422   -57348   -57267 
  -57175   -57084   -57001   -56922   -56848   -56783   -56728   -56677 
  -56631   -56590   -56558   -56531   -56506   -56492   -56482   -56474 
  -56470   -56473   -56477   -56481   -56493   -56509   -56525   -56543 
  -56562   -56575   -56590   -56605   -56620   -56637   -56658   -56682 
  -56712   -56745   -56786   -56826   -56864   -56905   -56943   -56979 
  -57013   -57040   -57057   -57067   -57072   -57075   -57069   -57059 
  -57053   -57051   -57048   -57051   -57060   -57073   -57095   -57118 
  -57145   -57177   -57214   -57254   -57300   -57353   -57403   -57446 
  -57484   -57516   -57539   -57557   -57574   -57588   -57592   -57589 
  -57582   -57574   -57562   -57549   -57534   -57520   -57501   -57477 
  -57450   -57419   -57391   -57364   -57339   -57323   -57311   -57300 
  -57289   -57279   -57265   -57256   -57245   -57225   -57210   -57195 
  -57176   -57159   -57137   -57109   -57082   -57049   -57011   -56978 
  -56949   -56921   -56893   -56871   -56853   -56847   -56845   -56849 
  -56862   -56880   -56903   -56936   -56967   -56994   -57022   -57046 
  -57067   -57092   -57115   -57137   -57163   -57190   -57213   -57234 
  -57253   -57268   -57281   -57291   -57299   -57303   -57312   -57331 
  -57346   -57357   -57381   -57408   -57433   -57457   -57485   -57522 
  -57568   -57613   -57662   -57719   -57770   -57819   -57870   -57919 
  -57962   -58008   -58048   -58085   -58122   -58159   -58193   -58230 
  -58270   -58303   -58337   -58374   -58409   -58442   -58476   -58510 
  -58542   -58576   -58610   -58644   -58676   -58708   -58738   -58766 
  -58795   -58820   -58835   -58849   -58857   -58857   -58853   -58846 
  -58831   -58807   -58777   -58746   -58710   -58662   -58608   -58548 
  -58480   -58410   -58330   -58243   -58149   -58055   -57955   -57855 
  -57761   -57672   -57584   -57504   -57434   -57368   -57308   -57252 
  -57206   -57165   -57121   -57078   -57038   -57002   -56976   -56957 
  -56943   -56933   -56925   -56918   -56918   -56922   -56930   -56948 
  -56978   -57014   -57057   -57113   -57164   -57211   -57264   -57318 
  -57368   -57418   -57470   -57523   -57572   -57619   -57661   -57694 
  -57728   -57754   -57763   -57766   -57762   -57746   -57730   -57715 
  -57694   -57676   -57661   -57642   -57620   -57597   -57573   -57538 
  -57505   -57480   -57456   -57427   -57403   -57384   -57366   -57348 
  -57330   -57310   -57289   -57268   -57246   -57229   -57215   -57199 
  -57183   -57169   -57159   -57148   -57145   -57149   -57150   -57160 
  -57176   -57194   -57218   -57246   -57276   -57311   -57352   -57397 
  -57443   -57492   -57542   -57591   -57643   -57690   -57730   -57773 
