Origin Time       2025/01/13 21:19:00
Lat.              31.8
Long.             131.6
Depth. (km)       30
Mag.              6.9
Station Code      YMGH08
Station Lat.      34.1349
Station Long.     130.9323
Station Height(m) 45
Record Time       2025/01/13 21:20:20
Sampling Freq(Hz) 100Hz
Duration Time(s)  148
Dir.              5
Scale Factor      7845(gal)/8223790
Max. Acc. (gal)   1.647
Last Correction   2025/01/13 21:20:20
Memo.             
[...]
    1354     1325     1282     1231     1183     1144     1112     1105 
    1134     1181     1239     1302     1363     1422     1480     1534 
    1590     1633     1657     1668     1665     1653     1636     1618 
    1610     1614     1618     1611     1586     1544     1501     1460 
    1428     1404     1393     1401     1406     1404     1398     1383 
    1350     1298     1239     1198     1189     1200     1225     1269 
    1318     1358     1387     1420     1453     1475     1502     1541 
    1574     1601     1637     1667     1676     1682     1686     1669 
    1628     1563     1489     1409     1321     1244     1200     1178 
    1175     1186     1204     1232     1264     1287     1300     1302 
    1289     1275     1266     1266     1282     1309     1347     1395 
    1440     1472     1498     1517     1518     1497     1458     1390 
    1293     1179     1067      981      943      951      996     1058 
    1121     1178     1223     1250     1254     1244     1227     1201 
    1189     1212     1244     1271     1316     1379     1439     1503 
    1570     1634     1698     1752     1795     1814     1792     1742 
    1683     1617     1544     1478     1428     1395     1390     1412 
    1449     1502     1564     1624     1656     1659     1668     1676 
    1668     1659     1655     1653     1660     1669     1678     1688 
    1686     1652     1594     1524     1451     1379     1318     1269 
    1213     1151     1097     1058     1034     1027     1038     1069 
    1117     1169     1209     1247     1289     1321     1339     1344 
    1323     1279     1240     1206     1178     1175     1196     1221 
    1259     1312     1374     1425     1470     1503     1498     1458 
    1393     1306     1200     1078      957      853      764      715 
     719      761      853      986     1135     1294     1448     1579 
    1684     1765     1826     1861     1865     1840     1787     1710 
    1620     1537     1467     1410     1381     1366     1366     1395 
    1444     1499     1552     1593     1621     1641     1660     1680 
    1691     1683     1653     1587     1487     1374     1263     1169 
    1097     1044      999      955      919      911      942     1009 
    1104     1209     1316     1426     1534     1633     1715     1761 
    1775     1767     1733     1687     1648     1617     1598     1587 
    1579     1576     1561     1534     1501     1455     1404     1358 
    1306     1252     1213     1181     1147     1119     1098     1086 
    1094     1127     1162     1194     1231     1250     1242     1212 
    1165     1115     1070     1039     1032     1053     1086     1139 
    1205     1271     1333     1405     1499     1605     1711     1814 
    1902     1958     1983     1992     1995     1987     1972     1954 
    1923     1883     1833     1761     1675     1586     1495     1405 
    1314     1236     1189     1169     1165     1170     1174     1166 
    1151     1148     1170     1206     1243     1283     1317     1331 
    1332     1327     1323     1339     1368     1395     1424     1452 
    1466     1458     1425     1379     1320     1258     1200     1131 
    1055     1003      965      930      916      916      931      966 
    1012     1071     1151     1248     1348     1424     1474     1502 
    1501     1482     1441     1379     1323     1279     1247     1228 
    1217     1221     1247     1281     1317     1360     1404     1439 
    1468     1502     1530     1556     1588     1615     1618     1597 
    1553     1498     1441     1389     1344     1305     1271     1259 
    1270     1291     1331     1387     1441     1503     1575     1640 
    1696     1744     1769     1767     1737     1680     1605     1528 
    1456     1394     1355     1327     1271     1219     1204     1200 
    1201     1235     1281     1327     1379     1425     1455     1476 
    1499     1516     1522     1537     1551     1547     1524     1482 
    1421     1359     1305     1267     1246     1242     1262     1305 
    1352     1401     1444     1480     1510     1533     1555     1586 
    1614     1621     1607     1584     1557     1532     1513     1498 
    1499     1517     1529     1530     1530     1522     1499     1466 
    1412     1354     1317     1304     1300     1301     1312     1325 
    1340     1363     1394     1426     1449     1452     1432     1375 
    1297     1217     1138     1063     1027     1030     1050     1084 
    1135     1182     1216     1246     1256     1244     1229     1212 
    1189     1174     1177     1179     1171     1163     1147     1117 
    1108     1123     1155     1219     1294     1366     1436     1490 
    1521     1540     1551     1559     1568     1587     1605     1607 
    1593     1574     1564     1547     1506     1456     1401     1347 
    1312     1304     1323     1362     1412     1462     1505     1539 
    1561     1579     1584     1564     1521     1476     1439     1414 
    1409     1409     1408     1424     1449     1479     1509     1533 
    1564     1602     1629     1649     1675     1699     1706     1698 
    1675     1637     1594     1553     1522     1512     1521     1549 
    1587     1621     1656     1695     1726     1741     1740     1721 
    1686     1628     1555     1478     1398     1329     1287     1267 
    1279     1324     1383     1449     1517     1571     1601     1603 
    1587     1559     1522     1490     1472     1462     1452     1448 
    1441     1420     1389     1370     1355     1335     1317     1294 
    1251     1185     1108     1032      977      951      950      965 
     984      994      992      982      985     1003     1039     1108 
    1185     1242     1275     1290     1289     1279     1258     1236 
    1232     1228     1215     1202     1189     1185     1200     1227 
    1275     1343     1405     1453     1485     1494     1486     1467 
    1443     1418     1401     1393     1377     1345     1313     1289 
    1266     1246     1248     1270     1296     1312     1308     1279 
    1228     1158     1080     1009      957      922      911      931 
     988     1069     1162     1273     1385     1483     1578     1661 
    1717     1736     1719     1675     1602     1510     1421     1343 
    1282     1252     1262     1296     1351     1437     1537     1640 
    1746     1840     1907     1964     2011     2045     2081     2100 
    2080     2038     1971     1877     1776     1684     1610     1555 
    1518     1498     1486     1479     1491     1520     1563     1632 
    1728     1833     1939     2041     2116     2160     2170     2134 
    2057     1961     1838     1691     1548     1410     1283     1188 
    1131     1111     1116     1146     1194     1251     1316     1394 
    1487     1590     1687     1765     1821     1838     1809     1736 
    1632     1510     1387     1262     1140     1038      955      892 
     861      864      891      943     1008     1058     1097     1127 
    1121     1088     1044     1003      982      988     1005     1028 
    1051     1067     1070     1066     1062     1070     1090     1109 
    1123     1117     1075     1000      900      800      724      683 
     679      707      754      812      876      936      997     1067 
    1136     1190     1229     1242     1206     1138     1048      949 
     865      819      805      830      888      962     1036     1116 
    1208     1301     1383     1470     1563     1642     1711     1772 
    1819     1854     1872     1861     1845     1848     1857     1872 
    1899     1907     1879     1838     1787     1717     1652     1595 
    1536     1491     1466     1456     1470     1502     1544     1582 
    1605     1625     1641     1645     1645     1633     1607     1590 
    1564     1499     1436     1387     1325     1264     1235     1227 
    1242     1289     1363     1449     1534     1625     1723     1827 
    1927     2015     2088     2146     2176     2174     2164     2150 
    2127     2099     2069     2022     1957     1892     1830     1763 
    1683     1583     1478     1375     1275     1196     1136     1090 
    1063     1043     1027     1020     1024     1051     1090     1129 
    1181     1228     1248     1258     1264     1259     1235     1192 
    1135     1065      988      919      877      865      878      916 
     972     1030     1082     1138     1196     1242     1285     1335 
    1374     1395     1413     1424     1428     1437     1455     1451 
    1421     1406     1398     1383     1401     1437     1466     1503 
    1548     1583     1610     1628     1641     1645     1636     1618 
    1590     1552     1509     1464     1417     1362     1291     1210 
    1117     1028      946      876      851      866      905      981 
    1080     1175     1273     1370     1460     1524     1557     1564 
    1541     1490     1398     1275     1158     1058      972      905 
     878      891      923      966     1032     1116     1200     1300 
    1404     1494     1578     1644     1678     1692     1687     1663 
    1632     1609     1594     1598     1613     1614     1598     1567 
    1525     1478     1425     1374     1336     1312     1305     1317 
    1350     1391     1440     1494     1544     1590     1636     1668 
    1690     1705     1705     1691     1667     1624     1564     1494 
    1428     1372     1331     1306     1305     1321     1350     1401 
    1463     1529     1605     1668     1706     1730     1733     1706 
    1649     1572     1490     1394     1291     1190     1081      984 
     901      823      769      743      727      730      756      781 
     804      827      835      834      830      820      816      824 
     831      838      857      876      882      886      897      924 
     967     1011     1063     1135     1186     1200     1179     1124 
    1046      958      873      818      792      788      830      904 
     981     1067     1159     1246     1328     1404     1468     1518 
    1547     1551     1530     1494     1459     1424     1401     1393 
    1394     1399     1402     1412     1422     1424     1426     1447 
    1490     1563     1665     1784     1900     1993     2047     2060 
    2034     1971     1881     1772     1640     1487     1336     1209 
    1124     1086     1105     1181     1302     1443     1580     1714 
    1831     1911     1949     1944     1911     1868     1814     1755 
    1696     1652     1625     1621     1636     1667     1715     1777 
    1841     1879     1879     1860     1804     1694     1566     1435 
    1290     1166     1089     1030      997      999     1019     1054 
    1090     1116     1127     1111     1074     1030      963      877 
     787      703      634      580      544      545      579      639 
     726      830      946     1042     1113     1179     1219     1231 
    1228     1202     1175     1148     1112     1102     1129     1173 
    1250     1344     1431     1513     1588     1630     1634     1602 
    1534     1436     1310     1175     1047      931      834      762 
     706      666      661      691      758      864     1004     1151 
    1274     1362     1417     1441     1435     1408     1372     1337 
    1310     1296     1296     1298     1306     1327     1344     1354 
    1370     1393     1426     1467     1498     1530     1567     1580 
    1588     1598     1586     1557     1529     1502     1471     1437 
    1399     1350     1287     1223     1158     1102     1062     1032 
    1023     1039     1062     1096     1148     1202     1247     1285 
    1321     1368     1408     1417     1422     1449     1474     1483 
    1512     1552     1593     1642     1698     1744     1786     1833 
    1864     1877     1880     1867     1844     1813     1782     1761 
    1757     1767     1786     1810     1845     1884     1910     1921 
    1914     1881     1844     1818     1794     1783     1810     1856 
    1910     1995     2101     2205     2316     2420     2490     2529 
    2540     2519     2470     2405     2342     2284     2231     2220 
    2247     2277     2324     2378     2416     2455     2477     2465 
    2450     2423     2365     2300     2241     2168     2089     2015 
    1956     1923     1894     1860     1837     1814     1790     1767 
    1734     1696     1664     1641     1605     1557     1522     1472 
    1398     1310     1217     1121     1017      919      853      801 
     762      745      727      704      695      702      707      714 
     726      720      703      696      685      680      691      696 
     692      700      718      727      743      781      822      855 
     886      896      880      851      808      756      708      654 
     580      490      398      299      193       94       16      -25 
     -27       -8       28      106      206      314      448      594 
     727      838      920      970      972      918      830      720 
     599      487      399      344      341      380      442      537 
     662      785      888      974     1039     1070     1070     1051 
    1024     1011     1005     1005     1013     1038     1086     1143 
    1204     1283     1372     1464     1580     1699     1786     1849 
    1900     1925     1937     1956     1989     2049     2110     2174 
    2257     2327     2400     2488     2559     2620     2682     2743 
    2803     2871     2951     3033     3096     3111     3080     3042 
    2983     2894     2809     2729     2643     2571     2511     2459 
    2423     2404     2389     2358     2331     2322     2289     2242 
    2222     2204     2169     2142     2116     2070     2003     1911 
    1790     1644     1489     1329     1178     1054      961      895 
     859      853      861      892      953     1013     1071     1134 
    1189     1231     1255     1250     1213     1150     1061      963 
     866      776      700      652      629      616      603      595 
     588      560      515      463      403      334      263      201 
     155      135      147      182      244      338      454      579 
     711      841      955     1051     1127     1179     1202     1185 
    1138     1070      990      913      837      760      688      637 
     610      607      633      687      757      835      915      988 
    1050     1104     1158     1209     1244     1240     1215     1188 
    1146     1102     1077     1065     1066     1081     1094     1109 
    1138     1175     1216     1274     1347     1422     1499     1568 
    1624     1676     1730     1777     1815     1852     1881     1903 
    1929     1957     1981     2004     2035     2072     2104     2134 
    2158     2174     2185     2192     2195     2182     2143     2097 
    2049     1989     1933     1885     1846     1817     1784     1748 
    1710     1674     1641     1605     1563     1524     1490     1466 
    1445     1437     1455     1489     1541     1615     1684     1726 
    1738     1713     1657     1593     1521     1439     1362     1304 
    1271     1255     1248     1258     1274     1281     1283     1269 
    1229     1183     1124     1048      981      923      868      831 
     818      824      857      915      986     1057     1120     1171 
    1206     1229     1258     1290     1332     1395     1463     1530 
    1599     1667     1733     1795     1846     1888     1922     1939 
    1944     1941     1922     1894     1868     1845     1831     1834 
    1850     1880     1906     1921     1921     1908     1876     1810 
    1741     1691     1630     1563     1513     1471     1432     1406 
    1391     1382     1385     1393     1404     1417     1421     1409 
    1391     1379     1370     1364     1374     1390     1391     1379 
    1360     1309     1227     1134     1031      930      853      801 
     780      791      827      881      942      994     1053     1119 
    1170     1209     1240     1248     1240     1213     1173     1147 
    1142     1148     1175     1233     1308     1374     1420     1440 
    1436     1408     1352     1282     1212     1146     1082     1026 
     982      940      888      832      788      757      741      747 
     777      818      859      909      966     1027     1101     1189 
    1285     1379     1463     1530     1579     1602     1597     1566 
    1510     1440     1370     1298     1233     1196     1182     1169 
    1167     1188     1209     1227     1243     1247     1231     1204 
    1173     1128     1077     1035     1003      990     1005     1044 
    1100     1178     1278     1395     1513     1618     1711     1783 
    1829     1865     1895     1915     1945     1995     2046     2107 
    2203     2295     2346     2385     2405     2385     2343     2288 
    2209     2108     2000     1896     1779     1668     1586     1506 
    1433     1402     1394     1390     1408     1439     1460     1470 
    1478     1498     1525     1571     1632     1682     1722     1753 
    1749     1714     1668     1647     1637     1587     1540     1541 
    1522     1485     1478     1471     1453     1445     1440     1439 
    1451     1470     1497     1532     1564     1580     1576     1548 
    1489     1404     1296     1169     1043      935      843      788 
     772      778      807      851      897      947     1011     1100 
    1213     1351     1505     1652     1784     1891     1965     2006 
    2014     1995     1973     1935     1872     1799     1723     1657 
    1601     1544     1501     1482     1468     1459     1452     1437 
    1418     1404     1394     1399     1420     1449     1483     1516 
    1544     1572     1613     1659     1699     1749     1804     1846 
    1868     1875     1868     1841     1809     1782     1741     1702 
    1679     1641     1579     1516     1436     1336     1250     1179 
    1119     1093     1097     1109     1138     1185     1223     1255 
    1287     1312     1318     1290     1235     1159     1054      950 
     864      778      718      703      718      757      816      874 
     919      943      936      904      855      787      702      610 
     513      423      349      284      244      236      247      276 
     314      353      395      441      494      550      612      679 
     745      811      878      953     1021     1085     1148     1209 
    1264     1318     1370     1420     1476     1537     1598     1652 
    1722     1803     1865     1908     1948     1971     1976     1965 
    1933     1880     1810     1726     1633     1541     1458     1383 
    1325     1293     1289     1309     1345     1401     1466     1516 
    1549     1572     1579     1567     1549     1522     1478     1425 
    1360     1277     1193     1125     1069     1032     1023     1032 
    1054     1086     1121     1155     1182     1200     1212     1213 
    1210     1204     1197     1208     1235     1269     1314     1367 
    1418     1468     1521     1570     1621     1676     1725     1776 
    1830     1858     1868     1887     1892     1864     1827     1790 
    1730     1655     1583     1520     1458     1398     1362     1341 
    1321     1323     1341     1345     1340     1328     1298     1264 
