Origin Time       2025/01/13 21:19:00
Lat.              31.8
Long.             131.6
Depth. (km)       30
Mag.              6.9
Station Code      YMGH09
Station Lat.      34.6257
Station Long.     131.6681
Station Height(m) 10
Record Time       2025/01/13 21:20:26
Sampling Freq(Hz) 100Hz
Duration Time(s)  140
Dir.              4
Scale Factor      7845(gal)/8223790
Max. Acc. (gal)   1.006
Last Correction   2025/01/13 21:20:28
Memo.             
[...]
    3534     3537     3522     3499     3469     3439     3427     3430 
    3435     3433     3419     3406     3391     3373     3361     3365 
    3392     3447     3520     3580     3616     3632     3631     3616 
    3586     3546     3514     3503     3526     3591     3676     3754 
    3809     3827     3793     3708     3586     3460     3365     3321 
    3315     3343     3404     3483     3554     3597     3608     3595 
    3566     3537     3515     3507     3512     3534     3561     3578 
    3584     3578     3557     3527     3500     3476     3443     3399 
    3356     3327     3306     3285     3277     3285     3300     3316 
    3333     3346     3362     3379     3391     3396     3385     3364 
    3342     3326     3339     3395     3478     3569     3649     3703 
    3724     3709     3663     3600     3543     3511     3504     3522 
    3555     3586     3599     3585     3542     3461     3345     3217 
    3109     3037     3005     3006     3030     3071     3118     3160 
    3190     3213     3221     3221     3237     3279     3346     3433 
    3530     3636     3753     3852     3915     3927     3896     3831 
    3736     3627     3528     3458     3427     3433     3456     3483 
    3505     3514     3491     3439     3381     3338     3331     3376 
    3464     3573     3677     3757     3802     3798     3739     3631 
    3497     3365     3252     3179     3163     3206     3292     3403 
    3516     3612     3673     3690     3667     3627     3593     3574 
    3564     3551     3543     3535     3520     3495     3469     3450 
    3438     3442     3462     3497     3542     3582     3608     3615 
    3597     3554     3487     3415     3358     3314     3279     3258 
    3262     3289     3334     3391     3453     3510     3549     3568 
    3576     3572     3562     3557     3554     3549     3542     3528 
    3504     3476     3449     3426     3416     3431     3473     3527 
    3573     3605     3616     3613     3604     3585     3559     3545 
    3532     3505     3468     3435     3424     3442     3480     3527 
    3581     3630     3655     3654     3628     3582     3532     3496 
    3478     3485     3524     3584     3640     3682     3690     3655 
    3588     3500     3414     3346     3306     3304     3342     3407 
    3480     3546     3592     3618     3620     3600     3569     3538 
    3512     3492     3478     3468     3454     3431     3400     3373 
    3358     3361     3385     3427     3464     3491     3510     3515 
    3511     3500     3472     3424     3365     3303     3250     3214 
    3204     3225     3267     3319     3377     3437     3491     3528 
    3534     3508     3469     3426     3392     3381     3407     3474 
    3568     3659     3731     3767     3767     3731     3659     3566 
    3477     3404     3354     3345     3377     3430     3484     3520 
    3528     3503     3446     3365     3283     3226     3210     3230 
    3284     3356     3419     3457     3461     3439     3397     3342 
    3292     3260     3248     3253     3272     3311     3364     3416 
    3460     3499     3534     3562     3573     3559     3528     3495 
    3469     3457     3456     3469     3497     3534     3569     3580 
    3558     3524     3487     3460     3456     3470     3496     3528 
    3559     3580     3576     3547     3516     3504     3516     3547 
    3595     3645     3682     3689     3659     3608     3551     3500 
    3469     3458     3460     3458     3443     3420     3399     3375 
    3349     3333     3335     3358     3395     3447     3515     3585 
    3647     3682     3689     3674     3640     3595     3550     3516 
    3504     3514     3530     3549     3578     3622     3676     3731 
    3771     3788     3781     3755     3717     3682     3662     3657 
    3657     3663     3682     3704     3713     3711     3699     3663 
    3595     3501     3397     3304     3241     3214     3214     3234 
    3267     3294     3308     3316     3323     3330     3338     3349 
    3360     3368     3379     3393     3404     3403     3393     3377 
    3357     3348     3360     3400     3464     3537     3603     3650 
    3672     3663     3639     3609     3586     3573     3568     3562 
    3545     3518     3476     3416     3343     3269     3202     3160 
    3153     3173     3218     3272     3312     3329     3316     3269 
    3198     3115     3040     3005     3032     3118     3253     3411 
    3564     3692     3774     3804     3793     3774     3766     3775 
    3805     3846     3879     3905     3917     3913     3890     3851 
    3798     3742     3681     3619     3574     3559     3572     3600 
    3616     3600     3559     3503     3430     3352     3280     3229 
    3207     3207     3214     3223     3242     3275     3321     3364 
    3397     3420     3422     3399     3357     3307     3252     3210 
    3196     3222     3284     3364     3441     3508     3554     3565 
    3532     3464     3375     3291     3240     3221     3223     3230 
    3234     3240     3261     3306     3358     3410     3450     3465 
    3457     3438     3404     3365     3331     3310     3310     3341 
    3403     3492     3593     3693     3780     3842     3870     3855 
    3797     3715     3631     3568     3535     3531     3543     3561 
    3582     3608     3639     3666     3680     3682     3678     3653 
    3596     3518     3426     3338     3284     3276     3307     3357 
    3393     3406     3387     3327     3227     3096     2957     2841 
    2763     2733     2752     2817     2920     3044     3163     3249 
    3294     3306     3299     3285     3291     3333     3408     3503 
    3592     3657     3690     3688     3649     3597     3559     3546 
    3551     3580     3632     3697     3759     3808     3840     3861 
    3866     3852     3825     3788     3742     3697     3655     3609 
    3565     3527     3508     3510     3516     3519     3511     3487 
    3439     3373     3306     3264     3273     3327     3410     3500 
    3581     3638     3673     3686     3673     3640     3592     3535 
    3501     3499     3522     3569     3638     3717     3797     3850 
    3861     3831     3761     3659     3553     3453     3380     3346 
    3352     3396     3473     3568     3646     3682     3672     3624 
    3550     3450     3333     3226     3153     3123     3129     3149 
    3161     3160     3138     3102     3063     3030     3017     3029 
    3063     3110     3152     3171     3173     3163     3148     3140 
    3140     3157     3202     3269     3354     3458     3569     3655 
    3696     3682     3620     3532     3446     3388     3373     3411 
    3499     3618     3731     3808     3821     3773     3680     3574 
    3478     3418     3404     3430     3485     3550     3595     3605 
    3586     3546     3504     3470     3451     3460     3485     3514 
    3528     3518     3487     3439     3388     3353     3353     3387 
    3437     3489     3531     3559     3569     3572     3592     3630 
    3667     3692     3690     3646     3557     3447     3356     3296 
    3268     3275     3299     3331     3365     3391     3415     3441 
    3462     3484     3499     3497     3496     3500     3504     3508 
    3518     3531     3538     3522     3474     3404     3341     3304 
    3295     3315     3373     3465     3574     3684     3778     3844 
    3862     3828     3755     3658     3547     3441     3361     3323 
    3327     3365     3411     3447     3474     3497     3522     3542 
    3555     3553     3531     3495     3457     3426     3403     3393 
    3402     3415     3411     3376     3318     3261     3227     3218 
    3234     3275     3334     3399     3456     3495     3508     3496 
    3461     3412     3353     3289     3249     3258     3323     3438 
    3582     3724     3844     3928     3971     3969     3919     3834 
    3736     3646     3584     3564     3592     3657     3734     3811 
    3881     3927     3927     3875     3785     3669     3542     3419 
    3311     3237     3202     3191     3190     3188     3181     3168 
    3153     3138     3123     3100     3067     3033     3007     2997 
    3006     3044     3107     3191     3277     3334     3338     3283 
    3192     3102     3033     2997     3017     3099     3217     3348 
    3462     3532     3554     3537     3487     3416     3342     3292 
    3298     3360     3453     3554     3643     3701     3715     3693 
    3651     3613     3611     3645     3693     3734     3753     3738 
    3689     3622     3554     3504     3492     3528     3616     3734 
    3851     3947     4021     4063     4060     4028     3987     3959 
    3952     3960     3969     3958     3925     3882     3829     3771 
    3720     3682     3665     3670     3694     3730     3765     3796 
    3828     3863     3886     3885     3869     3840     3797     3742 
    3677     3608     3550     3504     3472     3458     3465     3508 
    3582     3658     3717     3751     3742     3685     3585     3445 
    3291     3157     3076     3065     3121     3214     3312     3395 
    3454     3495     3520     3531     3526     3501     3457     3392 
    3306     3208     3118     3046     3003     2986     2987     2999 
    3014     3032     3056     3078     3084     3072     3041     2988 
    2920     2849     2798     2785     2814     2886     2988     3099 
    3196     3262     3291     3275     3215     3126     3024     2934 
    2884     2891     2960     3086     3249     3418     3551     3623 
    3622     3553     3442     3318     3211     3160     3177     3252 
    3360     3470     3565     3639     3684     3693     3677     3655 
    3649     3678     3758     3881     4028     4178     4295     4348 
    4311     4182     3998     3802     3623     3489     3416     3396 
    3420     3469     3522     3576     3630     3674     3701     3703 
    3682     3642     3582     3523     3483     3469     3477     3496 
    3514     3527     3535     3549     3581     3630     3689     3744 
    3784     3805     3805     3789     3766     3739     3716     3701 
    3692     3690     3701     3711     3719     3730     3746     3770 
    3786     3778     3742     3689     3632     3574     3511     3445 
    3377     3314     3257     3208     3176     3168     3180     3202 
    3225     3227     3202     3156     3106     3071     3063     3088 
    3144     3219     3303     3375     3420     3443     3454     3464 
    3477     3504     3545     3597     3649     3685     3690     3653 
    3574     3469     3361     3277     3221     3183     3159     3136 
    3113     3076     3025     2976     2951     2957     2988     3034 
    3082     3122     3146     3153     3149     3144     3148     3179 
    3248     3343     3451     3573     3696     3794     3852     3854 
    3802     3721     3636     3570     3542     3559     3622     3723 
    3846     3960     4037     4063     4036     3948     3813     3655 
    3489     3327     3199     3133     3140     3215     3337     3474 
    3603     3696     3730     3703     3626     3524     3430     3366 
    3346     3370     3426     3492     3550     3599     3650     3704 
    3753     3792     3812     3800     3753     3673     3580     3507 
    3478     3507     3595     3731     3889     4040     4158     4216 
    4207     4135     4008     3859     3713     3600     3549     3569 
    3650     3767     3886     3971     3996     3947     3832     3669 
    3481     3298     3148     3053     3036     3094     3214     3361 
    3496     3592     3634     3618     3554     3469     3397     3356 
    3354     3402     3488     3584     3659     3704     3713     3693 
    3647     3584     3518     3476     3468     3487     3523     3580 
    3647     3715     3770     3807     3811     3777     3711     3618 
    3504     3383     3265     3163     3095     3060     3049     3051 
    3053     3045     3025     2992     2959     2929     2920     2947 
    3006     3090     3183     3261     3298     3292     3256     3200 
    3129     3049     2965     2891     2837     2809     2798     2799 
    2813     2839     2875     2925     2994     3080     3171     3254 
    3325     3370     3384     3377     3373     3388     3427     3485 
    3557     3642     3724     3786     3816     3823     3817     3801 
    3780     3758     3739     3721     3712     3711     3728     3771 
    3843     3942     4056     4152     4206     4216     4176     4095 
    3986     3863     3747     3646     3565     3511     3484     3484 
    3515     3564     3612     3653     3680     3694     3694     3672 
    3628     3558     3458     3342     3235     3159     3125     3134 
    3186     3269     3375     3481     3573     3639     3665     3645 
    3586     3503     3406     3310     3233     3190     3176     3181 
    3194     3195     3177     3146     3113     3086     3069     3069 
    3078     3086     3080     3044     2978     2902     2835     2795 
    2808     2878     2990     3117     3223     3280     3285     3257 
    3199     3117     3026     2944     2883     2853     2843     2844 
    2857     2890     2951     3030     3107     3165     3213     3261 
    3318     3393     3493     3618     3761     3898     4002     4062 
    4071     4032     3960     3874     3802     3774     3819     3933 
    4098     4270     4407     4496     4527     4500     4422     4318 
    4203     4086     3969     3854     3743     3640     3555     3496 
    3465     3453     3445     3426     3389     3333     3269     3208 
    3157     3117     3088     3078     3073     3071     3072     3075 
    3069     3048     3024     3025     3069     3163     3296     3449 
    3599     3736     3847     3908     3910     3873     3819     3784 
    3793     3847     3933     4054     4201     4348     4460     4517 
    4509     4436     4310     4143     3952     3765     3601     3476 
    3395     3352     3331     3322     3300     3242     3148     3030 
    2909     2809     2751     2744     2782     2844     2914     2980 
    3030     3055     3045     3006     2945     2882     2828     2787 
    2768     2778     2825     2917     3051     3206     3369     3526 
    3658     3750     3780     3740     3653     3545     3438     3352 
    3299     3291     3331     3416     3524     3640     3762     3870 
    3944     3986     3982     3929     3831     3696     3543     3389 
    3253     3146     3087     3078     3103     3146     3183     3196 
    3180     3133     3061     2988     2936     2918     2949     3033 
    3160     3304     3435     3527     3570     3562     3512     3433 
    3342     3277     3264     3299     3385     3516     3655     3769 
    3836     3852     3823     3762     3694     3626     3564     3518 
    3481     3456     3446     3456     3478     3510     3549     3589 
    3620     3636     3631     3605     3561     3497     3427     3354 
    3294     3260     3256     3284     3343     3437     3554     3676 
    3797     3919     4023     4098     4155     4195     4216     4203 
    4155     4083     3989     3863     3713     3566     3457     3410 
    3445     3551     3700     3846     3948     3989     3969     3886 
    3759     3615     3478     3376     3316     3296     3303     3330 
    3379     3451     3538     3619     3684     3715     3708     3681 
    3650     3622     3595     3565     3523     3469     3412     3369 
    3356     3388     3461     3554     3651     3732     3778     3788 
    3770     3742     3713     3676     3609     3503     3360     3202 
    3057     2952     2907     2940     3044     3187     3335     3453 
    3516     3518     3454     3337     3195     3063     2967     2928 
    2938     2974     3006     3010     2980     2921     2849     2787 
    2762     2795     2883     2995     3102     3179     3226     3257 
    3277     3291     3302     3307     3303     3291     3268     3241 
    3214     3200     3218     3279     3362     3447     3524     3581 
    3609     3607     3578     3543     3504     3472     3462     3484 
    3541     3626     3720     3813     3897     3963     4006     4040 
    4075     4108     4135     4140     4117     4070     3996     3904 
    3804     3707     3631     3582     3559     3566     3607     3667 
    3726     3767     3789     3786     3759     3704     3631     3550 
    3464     3381     3327     3312     3338     3402     3478     3538 
    3555     3518     3430     3314     3200     3125     3099     3121 
    3176     3244     3300     3338     3357     3365     3376     3380 
    3373     3358     3330     3298     3283     3307     3384     3519 
    3693     3879     4050     4180     4256     4283     4268     4213 
    4140     4066     4008     3973     3951     3932     3923     3925 
    3927     3915     3874     3805     3712     3604     3497     3408 
    3350     3327     3334     3364     3408     3451     3484     3504 
    3505     3480     3433     3364     3285     3206     3130     3061 
    3006     2972     2961     2971     2994     3029     3083     3150 
    3223     3300     3385     3476     3554     3622     3680     3713 
    3708     3669     3620     3589     3595     3634     3696     3762 
    3819     3852     3854     3825     3789     3763     3754     3758 
    3773     3797     3819     3824     3817     3802     3777     3739 
    3690     3636     3580     3524     3473     3427     3384     3343 
    3304     3267     3227     3204     3210     3235     3283     3348 
    3416     3480     3531     3561     3566     3543     3491     3415 
    3322     3227     3157     3133     3168     3261     3384     3496 
    3572     3584     3518     3388     3231     3080     2965     2907 
    2916     2980     3072     3160     3218     3229     3180     3086 
    2976     2890     2844     2849     2895     2963     3038     3111 
    3176     3233     3288     3331     3360     3379     3385     3384 
    3384     3392     3412     3446     3477     3501     3526     3559 
    3616     3693     3774     3844     3901     3935     3936     3901 
    3838     3769     3712     3665     3626     3600     3589     3584 
    3581     3569     3538     3487     3418     3335     3258     3202 
    3179     3196     3261     3366     3485     3585     3643     3645 
    3600     3526     3439     3366     3326     3314     3329     3362 
    3402     3438     3476     3510     3531     3535     3518     3476 
    3418     3346     3280     3233     3222     3258     3329     3422 
    3528     3627     3697     3726     3696     3615     3501     3387 
    3294     3237     3227     3258     3307     3361     3408     3447 
    3465     3462     3466     3487     3516     3558     3603     3628 
    3619     3561     3456     3316     3173     3067     3032     3068 
    3161     3279     3380     3441     3457     3426     3358     3281 
    3235     3246     3312     3422     3554     3678     3774     3827 
    3843     3847     3856     3882     3921     3959     3990     3994 
    3951     3862     3740     3603     3464     3343     3261     3227 
    3240     3289     3358     3422     3465     3472     3438     3379 
