Origin Time       2025/01/13 21:19:00
Lat.              31.8
Long.             131.6
Depth. (km)       30
Mag.              6.9
Station Code      YMGH15
Station Lat.      33.9725
Station Long.     131.8149
Station Height(m) -10
Record Time       2025/01/13 21:20:12
Sampling Freq(Hz) 100Hz
Duration Time(s)  136
Dir.              1
Scale Factor      2940(gal)/6170270
Max. Acc. (gal)   1.044
Last Correction   2025/01/13 21:19:57
Memo.             
[...]
  282756   282693   282621   282566   282537   282542   282576   282609 
  282619   282601   282561   282523   282501   282483   282460   282441 
  282428   282422   282423   282416   282389   282357   282333   282311 
  282284   282254   282215   282168   282123   282087   282060   282044 
  282040   282049   282061   282060   282044   282023   282003   281973 
  281927   281889   281866   281844   281806   281739   281653   281569 
  281498   281442   281404   281375   281340   281296   281256   281232 
  281236   281270   281318   281370   281438   281540   281678   281842 
  282011   282165   282286   282368   282419   282455   282483   282500 
  282498   282475   282436   282392   282357   282337   282319   282297 
  282288   282306   282360   282449   282552   282655   282751   282833 
  282901   282946   282956   282949   282955   282974   282992   283004 
  283012   283010   282984   282931   282858   282768   282658   282542 
  282436   282352   282309   282313   282340   282368   282398   282421 
  282419   282389   282354   282335   282326   282312   282289   282262 
  282244   282250   282267   282278   282281   282274   282255   282226 
  282195   282158   282110   282058   282018   281993   281978   281961 
  281944   281934   281925   281914   281915   281940   281987   282043 
  282086   282115   282145   282186   282244   282320   282412   282516 
  282621   282709   282770   282809   282835   282854   282868   282875 
  282872   282855   282824   282787   282740   282662   282546   282403 
  282240   282068   281895   281741   281633   281583   281582   281618 
  281657   281661   281627   281581   281542   281507   281477   281450 
  281417   281386   281377   281396   281439   281498   281572   281660 
  281747   281819   281893   282009   282183   282393   282619   282836 
  283010   283139   283231   283279   283287   283271   283246   283228 
  283220   283204   283167   283129   283104   283071   283019   282972 
  282941   282912   282877   282839   282793   282726   282627   282492 
  282338   282198   282080   281992   281950   281950   281967   281979 
  281971   281943   281902   281863   281843   281851   281881   281923 
  281976   282051   282148   282266   282407   282566   282740   282919 
  283075   283197   283311   283440   283587   283747   283912   284071 
  284213   284326   284407   284468   284517   284539   284527   284477 
  284380   284238   284082   283932   283798   283679   283566   283446 
  283291   283083   282839   282599   282386   282214   282087   281997 
  281935   281902   281893   281909   281943   281981   282019   282061 
  282115   282182   282246   282307   282380   282463   282540   282613 
  282695   282795   282896   282976   283025   283055   283092   283157 
  283248   283341   283405   283429   283411   283358   283291   283217 
  283131   283025   282900   282760   282618   282489   282372   282257 
  282140   282028   281936   281868   281818   281780   281757   281754 
  281765   281781   281810   281861   281928   281997   282059   282121 
  282196   282278   282355   282422   282473   282497   282500   282492 
  282464   282410   282350   282301   282258   282213   282173   282157 
  282179   282233   282304   282382   282459   282526   282589   282665 
  282751   282825   282867   282873   282847   282787   282691   282561 
  282412   282276   282169   282078   281988   281905   281844   281805 
  281778   281760   281744   281731   281723   281703   281662   281609 
  281558   281513   281468   281416   281351   281275   281182   281076 
  280973   280877   280789   280731   280714   280704   280689   280683 
  280710   280799   280958   281171   281401   281604   281761   281890 
  282019   282162   282324   282494   282655   282809   282974   283143 
  283294   283424   283532   283619   283705   283790   283853   283880 
  283877   283843   283773   283678   283560   283409   283237   283063 
  282900   282763   282666   282597   282539   282482   282409   282305 
  282183   282077   281994   281917   281840   281764   281688   281610 
  281533   281464   281410   281381   281377   281380   281381   281380 
  281387   281416   281465   281520   281587   281670   281767   281874 
  281983   282085   282160   282205   282235   282265   282318   282421 
  282556   282684   282793   282900   283019   283156   283287   283390 
  283464   283529   283590   283628   283632   283600   283539   283465 
  283375   283257   283123   282993   282867   282744   282630   282525 
  282415   282289   282148   281994   281836   281689   281560   281447 
  281344   281255   281189   281150   281136   281158   281212   281279 
  281354   281440   281515   281566   281608   281651   281691   281725 
  281749   281757   281754   281747   281745   281762   281803   281864 
  281938   282008   282057   282074   282068   282054   282031   281999 
  281960   281919   281878   281842   281807   281771   281744   281738 
  281763   281814   281883   281965   282044   282117   282204   282309 
  282403   282471   282515   282550   282589   282634   282668   282686 
  282694   282696   282700   282725   282767   282811   282846   282869 
  282878   282891   282928   282997   283088   283177   283248   283316 
  283385   283448   283503   283555   283599   283644   283705   283764 
  283803   283824   283824   283808   283787   283759   283718   283667 
  283614   283563   283505   283427   283329   283225   283124   283018 
  282909   282813   282739   282676   282612   282537   282447   282351 
  282264   282199   282156   282115   282055   281985   281922   281884 
  281897   281964   282052   282131   282196   282251   282305   282362 
  282422   282487   282562   282627   282657   282658   282638   282587 
  282506   282414   282341   282285   282223   282137   282026   281907 
  281804   281723   281655   281597   281563   281569   281607   281656 
  281701   281734   281748   281740   281725   281726   281749   281785 
  281825   281855   281874   281899   281936   281981   282030   282069 
  282084   282080   282064   282033   281994   281953   281908   281874 
  281882   281929   281989   282041   282071   282084   282096   282118 
  282160   282228   282322   282443   282596   282777   282972   283162 
  283335   283479   283592   283687   283768   283836   283892   283924 
  283922   283900   283876   283831   283743   283618   283480   283342 
  283203   283057   282902   282755   282638   282565   282535   282525 
  282507   282476   282438   282399   282363   282335   282310   282287 
  282279   282284   282289   282298   282321   282350   282362   282340 
  282296   282253   282226   282224   282241   282268   282304   282347 
  282397   282454   282503   282528   282529   282520   282515   282518 
  282527   282539   282544   282541   282539   282548   282566   282586 
  282602   282615   282622   282608   282566   282498   282406   282294 
  282177   282061   281946   281826   281683   281510   281325   281155 
  281007   280877   280761   280656   280572   280518   280485   280472 
  280481   280506   280546   280602   280669   280741   280804   280850 
  280884   280923   280967   281011   281048   281073   281082   281077 
  281065   281056   281060   281081   281121   281196   281317   281476 
  281652   281842   282042   282250   282471   282695   282909   283118 
  283328   283533   283723   283887   284002   284067   284101   284118 
  284131   284154   284183   284205   284204   284163   284086   283981 
  283847   283693   283535   283382   283232   283082   282927   282749 
  282541   282330   282139   281987   281893   281848   281831   281835 
  281849   281879   281945   282053   282200   282377   282566   282741 
  282881   282996   283112   283242   283379   283504   283600   283660 
  283692   283714   283727   283726   283723   283722   283728   283739 
  283742   283728   283691   283620   283515   283384   283233   283062 
  282874   282675   282472   282273   282088   281917   281760   281623 
  281509   281405   281289   281156   281021   280901   280804   280733 
  280692   280676   280678   280699   280746   280814   280889   280970 
  281067   281181   281307   281448   281604   281770   281948   282138 
  282316   282464   282596   282729   282847   282932   282987   283021 
  283040   283042   283020   282977   282923   282866   282800   282709 
  282586   282434   282266   282101   281951   281828   281743   281683 
  281630   281571   281506   281426   281331   281235   281155   281094 
  281051   281034   281053   281104   281175   281260   281362   281480 
  281605   281728   281848   281969   282090   282211   282341   282489 
  282662   282852   283028   283179   283310   283417   283505   283574 
  283617   283641   283658   283668   283672   283671   283653   283618 
  283592   283575   283552   283518   283472   283411   283334   283240 
  283134   283030   282941   282859   282774   282691   282622   282588 
  282582   282570   282543   282519   282501   282479   282447   282416 
  282389   282354   282296   282215   282120   282033   281970   281921 
  281880   281850   281824   281797   281770   281749   281745   281766 
  281815   281894   281994   282109   282238   282371   282502   282620 
  282708   282766   282810   282837   282842   282826   282777   282688 
  282569   282440   282313   282198   282097   282004   281913   281828 
  281745   281661   281585   281525   281481   281458   281458   281480 
  281524   281583   281657   281747   281862   282007   282175   282345 
  282504   282660   282832   283021   283212   283389   283548   283690 
  283815   283927   284024   284104   284169   284218   284250   284266 
  284266   284256   284237   284207   284173   284136   284092   284043 
  284000   283956   283890   283791   283664   283530   283411   283311 
  283216   283108   282972   282801   282598   282380   282174   282004 
  281867   281750   281647   281549   281438   281305   281169   281053 
  280954   280866   280786   280710   280642   280595   280568   280565 
  280599   280667   280736   280782   280809   280840   280894   280970 
  281056   281149   281241   281317   281380   281442   281507   281573 
  281644   281711   281762   281785   281778   281760   281753   281755 
  281757   281761   281761   281753   281745   281741   281735   281738 
  281762   281800   281849   281909   281975   282038   282103   282177 
  282267   282371   282481   282592   282696   282788   282876   282967 
  283068   283184   283304   283420   283519   283596   283654   283690 
  283708   283722   283736   283756   283787   283827   283880   283937 
  283981   284009   284037   284069   284089   284080   284037   283963 
  283866   283759   283648   283531   283400   283250   283081   282890 
  282676   282444   282214   281998   281788   281591   281419   281277 
  281166   281081   281011   280959   280938   280940   280944   280941 
  280940   280956   280987   281014   281034   281064   281108   281163 
  281223   281282   281336   281395   281466   281543   281612   281675 
  281738   281804   281877   281953   282033   282116   282202   282289 
  282381   282486   282591   282686   282768   282833   282876   282896 
  282888   282864   282846   282837   282833   282835   282836   282821 
  282775   282705   282625   282538   282445   282354   282265   282159 
  282028   281885   281747   281621   281501   281389   281293   281208 
  281136   281092   281082   281100   281139   281194   281269   281370 
  281487   281602   281712   281832   281973   282131   282299   282460 
  282600   282705   282768   282794   282796   282778   282732   282652 
  282553   282446   282329   282202   282075   281958   281847   281735 
  281625   281524   281440   281387   281362   281355   281371   281410 
  281462   281519   281588   281682   281801   281923   282042   282165 
  282280   282374   282455   282528   282587   282638   282687   282737 
  282786   282826   282856   282875   282890   282900   282903   282907 
  282922   282944   282962   282971   282984   283013   283050   283076 
  283090   283097   283108   283130   283156   283176   283181   283175 
  283169   283163   283152   283128   283096   283060   283012   282940 
  282850   282762   282681   282597   282510   282431   282359   282292 
  282236   282196   282172   282149   282112   282069   282032   282001 
  281971   281950   281950   281970   282000   282031   282066   282116 
  282183   282254   282323   282388   282442   282483   282520   282548 
  282565   282573   282565   282533   282475   282396   282300   282198 
  282099   282009   281929   281854   281779   281713   281676   281671 
  281691   281728   281768   281797   281822   281846   281866   281898 
  281956   282036   282117   282194   282273   282357   282440   282519 
  282589   282653   282710   282765   282826   282893   282971   283056 
  283140   283213   283268   283295   283295   283274   283236   283176 
  283089   282989   282897   282816   282735   282648   282553   282437 
  282301   282156   282016   281891   281783   281683   281578   281464 
  281347   281233   281123   281012   280904   280809   280729   280659 
  280602   280569   280575   280620   280699   280810   280951   281118 
  281311   281520   281738   281970   282218   282465   282698   282917 
  283121   283301   283463   283617   283760   283887   283992   284074 
  284135   284179   284211   284229   284232   284228   284223   284215 
  284218   284239   284280   284335   284394   284450   284497   284531 
  284552   284561   284556   284538   284501   284440   284366   284276 
  284155   284004   283832   283641   283435   283220   282997   282774 
  282563   282370   282187   282004   281830   281673   281539   281434 
  281361   281318   281294   281282   281282   281295   281319   281346 
  281375   281406   281434   281457   281465   281455   281431   281394 
  281345   281285   281214   281141   281076   281013   280950   280890 
  280838   280791   280744   280702   280671   280656   280660   280685 
  280728   280786   280853   280929   281012   281108   281225   281354 
  281486   281626   281777   281935   282086   282207   282288   282341 
  282381   282398   282389   282372   282358   282344   282325   282300 
  282268   282224   282166   282103   282041   281983   281926   281869 
  281835   281838   281857   281865   281860   281848   281835   281832 
  281841   281860   281885   281919   281969   282039   282129   282230 
  282338   282451   282559   282661   282761   282865   282981   283107 
  283235   283357   283469   283563   283636   283689   283719   283723 
  283710   283691   283665   283628   283584   283533   283469   283387 
  283286   283173   283053   282926   282801   282680   282547   282401 
  282254   282104   281949   281801   281668   281554   281451   281360 
  281288   281243   281233   281255   281298   281352   281410   281480 
  281560   281639   281727   281834   281951   282066   282179   282299 
  282434   282581   282731   282883   283033   283169   283296   283422 
  283531   283609   283667   283714   283742   283747   283741   283734 
  283725   283704   283660   283582   283479   283367   283250   283129 
  283015   282919   282841   282765   282680   282590   282489   282377 
  282256   282127   281996   281873   281760   281659   281567   281472 
  281372   281277   281200   281135   281077   281028   280995   280980 
  280981   280990   280997   281015   281058   281107   281147   281182 
  281218   281250   281276   281294   281308   281327   281354   281397 
  281458   281529   281609   281702   281800   281891   281963   282012 
  282040   282063   282094   282132   282168   282189   282194   282181 
  282146   282098   282046   281998   281962   281938   281911   281879 
  281859   281858   281872   281895   281921   281959   282013   282082 
  282172   282284   282405   282529   282657   282786   282914   283040 
  283165   283295   283428   283554   283661   283747   283817   283872 
  283908   283921   283918   283910   283902   283895   283890   283881 
  283861   283830   283786   283738   283691   283643   283599   283564 
  283530   283480   283412   283328   283234   283138   283048   282967 
  282890   282811   282733   282660   282593   282522   282436   282345 
  282261   282190   282138   282111   282112   282132   282162   282197 
  282235   282274   282307   282322   282317   282303   282286   282258 
  282217   282171   282127   282084   282036   281980   281918   281862 
  281826   281813   281822   281858   281914   281979   282052   282139 
  282236   282335   282432   282535   282648   282764   282869   282946 
  282991   283014   283024   283023   283010   282980   282932   282871 
  282807   282739   282661   282572   282484   282403   282323   282248 
  282186   282136   282096   282063   282039   282023   282009   281992 
  281973   281956   281944   281930   281904   281865   281819   281778 
  281745   281719   281698   281684   281671   281650   281629   281618 
  281617   281623   281633   281641   281648   281661   281675   281687 
  281705   281726   281747   281763   281775   281787   281810   281846 
  281898   281965   282041   282118   282195   282280   282372   282460 
  282540   282617   282701   282790   282877   282954   283013   283047 
  283062   283064   283055   283040   283023   283007   282995   282979 
  282956   282937   282920   282891   282847   282800   282750   282695 
  282633   282561   282481   282402   282329   282269   282232   282208 
  282177   282140   282115   282097   282084   282072   282061   282058 
  282063   282074   282092   282112   282132   282155   282172   282170 
  282155   282133   282099   282067   282051   282047   282053   282074 
  282113   282170   282237   282307   282375   282437   282503   282574 
  282638   282697   282760   282824   282878   282919   282946   282959 
  282967   282978   282996   283011   283022   283027   283030   283034 
  283032   283026   283027   283039   283060   283082   283098   283110 
  283121   283126   283133   283142   283149   283157   283159   283146 
  283114   283062   282991   282910   282830   282759   282690   282618 
  282544   282466   282387   282316   282258   282208   282157   282112 
  282086   282081   282087   282095   282109   282140   282189   282242 
  282287   282322   282342   282343   282319   282275   282223   282165 
  282097   282024   281952   281882   281818   281764   281712   281658 
  281608   281568   281538   281518   281502   281484   281460   281438 
  281426   281427   281444   281469   281491   281509   281530   281567 
  281626   281702   281796   281916   282058   282209   282367   282524 
  282673   282813   282943   283069   283195   283324   283448   283553 
  283627   283675   283709   283741   283767   283781   283787   283790 
  283788   283771   283735   283682   283613   283534   283458   283389 
  283319   283249   283183   283115   283046   282981   282917   282862 
  282822   282784   282739   282687   282630   282568   282500   282433 
  282372   282313   282249   282180   282113   282054   281999   281948 
  281906   281874   281848   281826   281807   281794   281780   281763 
  281751   281747   281750   281751   281744   281735   281727   281718 
  281714   281722   281750   281795   281852   281910   281968   282024 
  282075   282121   282170   282222   282273   282323   282370   282409 
