Origin Time       2025/01/13 21:19:00
Lat.              31.8
Long.             131.6
Depth. (km)       30
Mag.              6.9
Station Code      YMGH08
Station Lat.      34.1349
Station Long.     130.9323
Station Height(m) -156
Record Time       2025/01/13 21:20:20
Sampling Freq(Hz) 100Hz
Duration Time(s)  148
Dir.              1
Scale Factor      3923(gal)/8224838
Max. Acc. (gal)   0.944
Last Correction   2025/01/13 21:20:20
Memo.             
[...]
  -52879   -52853   -52818   -52778   -52736   -52701   -52674   -52655 
  -52647   -52654   -52668   -52690   -52716   -52735   -52756   -52785 
  -52803   -52820   -52834   -52839   -52836   -52839   -52851   -52867 
  -52886   -52909   -52934   -52953   -52968   -52980   -52982   -52975 
  -52965   -52953   -52940   -52925   -52910   -52894   -52887   -52887 
  -52884   -52880   -52875   -52860   -52845   -52834   -52825   -52813 
  -52806   -52809   -52816   -52825   -52837   -52853   -52868   -52882 
  -52893   -52903   -52921   -52937   -52951   -52963   -52969   -52975 
  -52984   -52992   -53006   -53022   -53037   -53053   -53068   -53073 
  -53080   -53086   -53079   -53065   -53050   -53029   -53005   -52980 
  -52957   -52936   -52917   -52898   -52882   -52875   -52872   -52868 
  -52861   -52851   -52833   -52812   -52787   -52759   -52726   -52701 
  -52686   -52679   -52679   -52687   -52695   -52706   -52714   -52713 
  -52704   -52690   -52670   -52645   -52623   -52601   -52582   -52562 
  -52546   -52539   -52547   -52563   -52586   -52613   -52640   -52666 
  -52693   -52713   -52726   -52733   -52736   -52739   -52740   -52741 
  -52744   -52745   -52748   -52753   -52760   -52775   -52795   -52814 
  -52836   -52860   -52883   -52910   -52952   -52990   -53017   -53041 
  -53057   -53067   -53065   -53048   -53015   -52975   -52929   -52880 
  -52837   -52791   -52748   -52716   -52690   -52670   -52660   -52655 
  -52645   -52636   -52633   -52628   -52623   -52618   -52610   -52593 
  -52573   -52547   -52513   -52478   -52443   -52412   -52385   -52353 
  -52319   -52286   -52254   -52228   -52218   -52215   -52219   -52234 
  -52255   -52280   -52304   -52328   -52347   -52362   -52374   -52384 
  -52396   -52405   -52412   -52421   -52431   -52440   -52451   -52470 
  -52496   -52521   -52547   -52579   -52610   -52639   -52666   -52685 
  -52697   -52702   -52702   -52695   -52682   -52675   -52682   -52694 
  -52713   -52745   -52785   -52825   -52860   -52886   -52907   -52930 
  -52947   -52956   -52968   -52982   -52999   -53021   -53042   -53071 
  -53104   -53138   -53171   -53206   -53242   -53265   -53275   -53281 
  -53281   -53268   -53242   -53207   -53165   -53118   -53068   -53017 
  -52969   -52933   -52910   -52894   -52887   -52888   -52894   -52909 
  -52925   -52934   -52940   -52942   -52937   -52928   -52914   -52898 
  -52876   -52855   -52839   -52826   -52812   -52799   -52791   -52786 
  -52780   -52778   -52775   -52768   -52762   -52753   -52743   -52739 
  -52743   -52753   -52780   -52817   -52852   -52887   -52924   -52956 
  -52982   -53002   -53017   -53026   -53030   -53029   -53022   -53015 
  -53013   -53014   -53022   -53033   -53041   -53045   -53050   -53050 
  -53045   -53044   -53040   -53030   -53018   -53005   -52992   -52979 
  -52971   -52969   -52969   -52974   -52980   -52986   -52992   -53001 
  -53002   -52994   -52979   -52955   -52918   -52880   -52836   -52786 
  -52741   -52699   -52666   -52647   -52639   -52637   -52640   -52643 
  -52640   -52633   -52617   -52594   -52567   -52535   -52506   -52483 
  -52462   -52444   -52442   -52446   -52454   -52469   -52494   -52517 
  -52537   -52555   -52573   -52585   -52591   -52594   -52596   -52600 
  -52613   -52625   -52635   -52651   -52663   -52671   -52689   -52701 
  -52709   -52720   -52729   -52733   -52733   -52735   -52739   -52741 
  -52745   -52751   -52756   -52763   -52772   -52783   -52797   -52814 
  -52832   -52848   -52861   -52875   -52894   -52911   -52929   -52949 
  -52972   -52992   -53011   -53033   -53050   -53068   -53087   -53100 
  -53113   -53118   -53110   -53103   -53104   -53103   -53100   -53103 
  -53102   -53092   -53073   -53048   -53018   -52988   -52960   -52940 
  -52928   -52913   -52897   -52886   -52884   -52886   -52891   -52903 
  -52918   -52926   -52936   -52948   -52955   -52961   -52965   -52960 
  -52952   -52936   -52906   -52868   -52822   -52770   -52714   -52658 
  -52609   -52566   -52533   -52519   -52516   -52516   -52520   -52523 
  -52521   -52521   -52519   -52513   -52513   -52512   -52505   -52500 
  -52493   -52488   -52486   -52482   -52481   -52479   -52473   -52466 
  -52462   -52461   -52463   -52463   -52461   -52459   -52463   -52466 
  -52463   -52461   -52458   -52451   -52439   -52436   -52443   -52456 
  -52485   -52523   -52559   -52604   -52652   -52697   -52737   -52775 
  -52805   -52829   -52844   -52847   -52841   -52832   -52816   -52797 
  -52776   -52755   -52733   -52710   -52689   -52670   -52655   -52655 
  -52658   -52663   -52678   -52694   -52709   -52722   -52728   -52732 
  -52736   -52737   -52737   -52745   -52755   -52767   -52795   -52832 
  -52868   -52903   -52940   -52974   -52999   -53014   -53017   -53006 
  -52984   -52956   -52929   -52901   -52874   -52851   -52833   -52820 
  -52814   -52802   -52782   -52764   -52743   -52720   -52702   -52693 
  -52690   -52686   -52681   -52675   -52667   -52660   -52658   -52651 
  -52647   -52643   -52636   -52635   -52643   -52650   -52655   -52660 
  -52663   -52658   -52654   -52648   -52635   -52618   -52597   -52573 
  -52548   -52528   -52510   -52492   -52470   -52455   -52439   -52417 
  -52393   -52361   -52321   -52286   -52253   -52222   -52199   -52185 
  -52182   -52193   -52208   -52223   -52246   -52270   -52296   -52332 
  -52369   -52396   -52428   -52461   -52494   -52536   -52589   -52647 
  -52705   -52759   -52812   -52856   -52894   -52932   -52965   -52990 
  -53011   -53025   -53030   -53036   -53038   -53044   -53057   -53068 
  -53075   -53076   -53071   -53065   -53060   -53053   -53055   -53060 
  -53068   -53082   -53094   -53103   -53114   -53122   -53119   -53110 
  -53092   -53065   -53036   -53002   -52965   -52937   -52913   -52893 
  -52886   -52886   -52893   -52909   -52924   -52933   -52942   -52952 
  -52959   -52959   -52955   -52951   -52944   -52936   -52930   -52926 
  -52925   -52929   -52934   -52945   -52960   -52972   -52988   -53005 
  -53007   -53007   -53007   -53002   -52994   -52988   -52982   -52975 
  -52974   -52971   -52967   -52965   -52963   -52959   -52948   -52932 
  -52910   -52878   -52845   -52816   -52778   -52743   -52716   -52693 
  -52681   -52683   -52686   -52683   -52677   -52662   -52637   -52610 
  -52579   -52543   -52508   -52477   -52444   -52411   -52380   -52355 
  -52334   -52311   -52286   -52266   -52250   -52231   -52208   -52188 
  -52174   -52166   -52162   -52168   -52182   -52207   -52240   -52280 
  -52319   -52359   -52401   -52440   -52477   -52510   -52539   -52566 
  -52594   -52625   -52654   -52683   -52721   -52758   -52790   -52829 
  -52868   -52898   -52928   -52957   -52986   -53013   -53041   -53072 
  -53100   -53123   -53140   -53152   -53160   -53161   -53157   -53148 
  -53134   -53125   -53119   -53115   -53111   -53107   -53102   -53095 
  -53088   -53076   -53061   -53044   -53021   -52996   -52971   -52949 
  -52930   -52914   -52903   -52894   -52882   -52868   -52856   -52844 
  -52840   -52839   -52840   -52847   -52857   -52866   -52872   -52871 
  -52859   -52839   -52812   -52779   -52748   -52717   -52681   -52652 
  -52640   -52632   -52639   -52662   -52683   -52705   -52732   -52753 
  -52775   -52797   -52812   -52821   -52836   -52855   -52867   -52879 
  -52894   -52905   -52907   -52907   -52906   -52898   -52890   -52880 
  -52866   -52855   -52836   -52806   -52780   -52755   -52716   -52672 
  -52635   -52597   -52563   -52536   -52520   -52519   -52519   -52525 
  -52537   -52542   -52542   -52547   -52547   -52539   -52537   -52536 
  -52537   -52542   -52542   -52537   -52529   -52521   -52515   -52510 
  -52508   -52510   -52523   -52540   -52562   -52596   -52632   -52663 
  -52691   -52718   -52740   -52758   -52778   -52795   -52816   -52836 
  -52853   -52875   -52903   -52932   -52961   -52998   -53036   -53079 
  -53130   -53176   -53219   -53266   -53315   -53362   -53410   -53450 
  -53484   -53505   -53509   -53500   -53485   -53466   -53442   -53415 
  -53396   -53389   -53385   -53387   -53396   -53411   -53422   -53430 
  -53435   -53434   -53422   -53410   -53387   -53350   -53307   -53258 
  -53210   -53160   -53109   -53061   -53013   -52961   -52914   -52864 
  -52809   -52760   -52713   -52666   -52628   -52596   -52560   -52532 
  -52512   -52496   -52486   -52477   -52465   -52452   -52444   -52440 
  -52435   -52431   -52420   -52407   -52405   -52404   -52400   -52412 
  -52436   -52471   -52520   -52575   -52633   -52698   -52764   -52824 
  -52878   -52928   -52967   -52996   -53018   -53032   -53038   -53037 
  -53022   -53002   -52979   -52947   -52909   -52875   -52834   -52799 
  -52778   -52756   -52740   -52741   -52753   -52775   -52805   -52843 
  -52879   -52911   -52936   -52948   -52948   -52947   -52942   -52932 
  -52915   -52898   -52875   -52851   -52822   -52790   -52755   -52722 
  -52693   -52663   -52640   -52625   -52614   -52610   -52612   -52614 
  -52621   -52629   -52628   -52625   -52616   -52587   -52554   -52519 
  -52473   -52425   -52384   -52336   -52289   -52240   -52188   -52132 
  -52083   -52035   -51991   -51956   -51931   -51915   -51912   -51921 
  -51930   -51949   -51979   -52020   -52077   -52143   -52216   -52299 
  -52385   -52473   -52558   -52631   -52695   -52752   -52793   -52824 
  -52849   -52861   -52864   -52868   -52872   -52874   -52875   -52876 
  -52876   -52880   -52890   -52899   -52914   -52940   -52976   -53018 
  -53063   -53107   -53150   -53194   -53235   -53275   -53308   -53339 
  -53361   -53374   -53380   -53372   -53354   -53338   -53322   -53304 
  -53291   -53283   -53280   -53275   -53264   -53257   -53252   -53241 
  -53231   -53226   -53214   -53192   -53168   -53141   -53104   -53064 
  -53026   -52988   -52957   -52936   -52917   -52894   -52875   -52860 
  -52847   -52833   -52825   -52828   -52832   -52834   -52841   -52849 
  -52851   -52847   -52837   -52824   -52806   -52786   -52760   -52733 
  -52710   -52687   -52668   -52652   -52632   -52610   -52593   -52570 
  -52540   -52508   -52474   -52444   -52420   -52404   -52394   -52390 
  -52393   -52404   -52417   -52434   -52455   -52478   -52501   -52517 
  -52525   -52521   -52510   -52492   -52467   -52438   -52408   -52377 
  -52350   -52330   -52311   -52294   -52284   -52274   -52263   -52255 
  -52255   -52266   -52285   -52317   -52357   -52397   -52439   -52488 
  -52540   -52598   -52660   -52725   -52795   -52868   -52940   -53011 
  -53079   -53142   -53195   -53235   -53266   -53285   -53292   -53302 
  -53311   -53314   -53312   -53307   -53292   -53279   -53264   -53244 
  -53226   -53212   -53191   -53172   -53156   -53133   -53104   -53073 
  -53040   -53002   -52957   -52910   -52868   -52826   -52785   -52747 
  -52716   -52691   -52671   -52652   -52636   -52624   -52612   -52598 
  -52574   -52544   -52513   -52477   -52432   -52385   -52342   -52299 
  -52258   -52223   -52193   -52169   -52157   -52164   -52180   -52207 
  -52259   -52327   -52402   -52486   -52563   -52631   -52694   -52745 
  -52786   -52825   -52853   -52872   -52891   -52906   -52918   -52929 
  -52933   -52933   -52933   -52932   -52926   -52917   -52911   -52905 
  -52899   -52897   -52890   -52879   -52866   -52847   -52826   -52812 
  -52801   -52789   -52775   -52763   -52752   -52737   -52724   -52714 
  -52705   -52691   -52683   -52686   -52687   -52686   -52689   -52689 
  -52686   -52686   -52691   -52695   -52698   -52702   -52702   -52706 
  -52712   -52710   -52710   -52722   -52732   -52748   -52770   -52783 
  -52802   -52822   -52832   -52844   -52856   -52857   -52860   -52870 
  -52874   -52874   -52876   -52882   -52880   -52871   -52860   -52840 
  -52812   -52778   -52733   -52681   -52627   -52567   -52505   -52446 
  -52390   -52343   -52299   -52257   -52215   -52176   -52145   -52119 
  -52097   -52085   -52078   -52073   -52072   -52073   -52077   -52087 
  -52103   -52127   -52164   -52212   -52269   -52331   -52396   -52463 
  -52528   -52590   -52651   -52706   -52755   -52799   -52843   -52879 
  -52915   -52953   -52987   -53021   -53060   -53106   -53154   -53202 
  -53252   -53304   -53353   -53388   -53411   -53423   -53423   -53415 
  -53410   -53400   -53391   -53385   -53377   -53366   -53361   -53357 
  -53353   -53357   -53358   -53360   -53368   -53374   -53377   -53376 
  -53368   -53350   -53322   -53292   -53264   -53230   -53194   -53161 
  -53134   -53104   -53071   -53040   -53014   -52986   -52955   -52926 
  -52899   -52874   -52852   -52828   -52805   -52783   -52762   -52740 
  -52720   -52704   -52693   -52686   -52685   -52677   -52664   -52656 
  -52644   -52629   -52613   -52596   -52585   -52574   -52560   -52556 
  -52556   -52554   -52551   -52548   -52544   -52539   -52532   -52519 
  -52508   -52492   -52469   -52442   -52415   -52386   -52354   -52320 
  -52294   -52267   -52235   -52201   -52173   -52146   -52122   -52100 
  -52081   -52061   -52039   -52016   -51992   -51968   -51943   -51923 
  -51907   -51892   -51881   -51872   -51868   -51872   -51881   -51896 
  -51922   -51957   -52000   -52057   -52119   -52191   -52273   -52359 
  -52444   -52525   -52594   -52658   -52717   -52767   -52814   -52859 
  -52895   -52933   -52974   -53011   -53049   -53088   -53126   -53165 
  -53206   -53245   -53288   -53337   -53392   -53454   -53527   -53609 
  -53701   -53798   -53898   -54001   -54103   -54207   -54314   -54411 
  -54500   -54581   -54648   -54697   -54734   -54751   -54758   -54754 
  -54743   -54724   -54696   -54660   -54618   -54572   -54525   -54472 
  -54414   -54349   -54276   -54198   -54113   -54021   -53928   -53838 
  -53750   -53669   -53592   -53516   -53443   -53364   -53277   -53192 
  -53106   -53015   -52932   -52853   -52780   -52706   -52633   -52559 
  -52482   -52397   -52315   -52232   -52145   -52062   -51988   -51915 
  -51853   -51804   -51761   -51727   -51700   -51678   -51661   -51646 
  -51630   -51613   -51595   -51579   -51568   -51567   -51576   -51592 
  -51617   -51645   -51676   -51711   -51750   -51790   -51835   -51887 
  -51934   -51980   -52027   -52069   -52110   -52149   -52178   -52201 
  -52224   -52239   -52251   -52267   -52285   -52307   -52327   -52342 
  -52353   -52353   -52344   -52330   -52296   -52255   -52215   -52170 
  -52132   -52096   -52060   -52030   -52002   -51970   -51943   -51922 
  -51910   -51904   -51911   -51925   -51939   -51957   -51976   -51996 
  -52023   -52053   -52084   -52120   -52161   -52208   -52267   -52336 
  -52409   -52486   -52571   -52658   -52748   -52837   -52921   -53001 
  -53073   -53145   -53211   -53266   -53319   -53374   -53423   -53470 
  -53516   -53554   -53584   -53607   -53616   -53615   -53609   -53599 
  -53578   -53551   -53520   -53484   -53441   -53396   -53354   -53316 
  -53285   -53266   -53257   -53254   -53260   -53275   -53289   -53303 
  -53314   -53319   -53315   -53304   -53289   -53268   -53239   -53204 
  -53169   -53137   -53103   -53075   -53048   -53017   -52987   -52956 
  -52924   -52891   -52857   -52821   -52785   -52753   -52724   -52695 
  -52670   -52647   -52631   -52625   -52627   -52636   -52652   -52672 
  -52697   -52721   -52741   -52766   -52789   -52801   -52809   -52816 
  -52814   -52805   -52789   -52767   -52737   -52698   -52655   -52616 
  -52579   -52548   -52529   -52524   -52535   -52554   -52577   -52602 
  -52631   -52658   -52685   -52712   -52736   -52752   -52764   -52775 
  -52775   -52759   -52739   -52712   -52679   -52652   -52627   -52600 
  -52579   -52555   -52535   -52523   -52505   -52493   -52490   -52483 
  -52478   -52473   -52469   -52467   -52469   -52467   -52469   -52473 
  -52479   -52483   -52485   -52481   -52471   -52455   -52431   -52397 
  -52358   -52311   -52258   -52199   -52134   -52072   -52012   -51954 
  -51903   -51862   -51826   -51792   -51768   -51757   -51752   -51753 
  -51764   -51776   -51787   -51803   -51817   -51827   -51842   -51860 
  -51880   -51912   -51956   -52007   -52070   -52137   -52207   -52285 
  -52373   -52466   -52563   -52666   -52771   -52874   -52975   -53071 
  -53161   -53245   -53322   -53395   -53465   -53538   -53609   -53671 
  -53725   -53770   -53805   -53835   -53855   -53866   -53875   -53879 
  -53878   -53877   -53870   -53862   -53850   -53832   -53813   -53789 
  -53759   -53724   -53682   -53642   -53608   -53577   -53543   -53516 
  -53491   -53464   -53438   -53404   -53360   -53314   -53271   -53227 
  -53181   -53141   -53104   -53071   -53042   -53011   -52975   -52938 
  -52909   -52880   -52855   -52836   -52817   -52799   -52793   -52797 
  -52805   -52818   -52837   -52856   -52871   -52886   -52905   -52925 
  -52944   -52965   -52990   -53014   -53038   -53061   -53086   -53109 
  -53130   -53152   -53173   -53195   -53214   -53233   -53248   -53264 
  -53277   -53280   -53284   -53291   -53296   -53304   -53315   -53330 
  -53346   -53360   -53369   -53380   -53389   -53391   -53387   -53383 
  -53379   -53369   -53352   -53330   -53302   -53260   -53208   -53150 
  -53080   -53003   -52924   -52840   -52755   -52674   -52604   -52542 
  -52485   -52438   -52405   -52380   -52357   -52340   -52331   -52324 
  -52321   -52326   -52336   -52350   -52374   -52404   -52434   -52469 
  -52506   -52547   -52589   -52633   -52677   -52712   -52736   -52755 
  -52766   -52760   -52741   -52718   -52693   -52660   -52627   -52594 
  -52562   -52532   -52508   -52490   -52477   -52469   -52465   -52462 
  -52462   -52463   -52462   -52458   -52454   -52447   -52439   -52429 
  -52416   -52401   -52385   -52367   -52344   -52320   -52294   -52273 
  -52255   -52242   -52231   -52228   -52232   -52245   -52262   -52284 
  -52305   -52321   -52334   -52338   -52338   -52335   -52324   -52307 
  -52282   -52253   -52220   -52185   -52143   -52104   -52068   -52033 
  -52004   -51984   -51968   -51960   -51964   -51973   -51991   -52018 
  -52047   -52085   -52137   -52197   -52263   -52343   -52431   -52521 
  -52616   -52702   -52782   -52853   -52905   -52948   -52986   -53007 
  -53022   -53037   -53044   -53048   -53053   -53055   -53055   -53061 
  -53072   -53083   -53100   -53115   -53127   -53145   -53156   -53169 
  -53196   -53222   -53246   -53280   -53319   -53358   -53401   -53442 
  -53482   -53524   -53566   -53599   -53622   -53639   -53650   -53654 
  -53650   -53640   -53631   -53620   -53612   -53611   -53609   -53611 
  -53613   -53608   -53605   -53605   -53601   -53600   -53596   -53592 
  -53595   -53607   -53628   -53650   -53670   -53694   -53708   -53708 
  -53704   -53694   -53670   -53639   -53605   -53566   -53518   -53465 
  -53404   -53341   -53276   -53210   -53141   -53068   -52988   -52913 
  -52840   -52758   -52672   -52587   -52498   -52404   -52308   -52209 
  -52116   -52027   -51946   -51875   -51808   -51749   -51696   -51651 
  -51609   -51574   -51549   -51537   -51540   -51556   -51587   -51634 
  -51691   -51752   -51815   -51884   -51952   -52012   -52068   -52119 
  -52161   -52195   -52226   -52255   -52285   -52321   -52355   -52388 
  -52428   -52470   -52509   -52552   -52600   -52648   -52705   -52767 
  -52829   -52895   -52965   -53028   -53080   -53123   -53158   -53185 
  -53208   -53227   -53238   -53245   -53246   -53239   -53226   -53207 
