Origin Time       2025/01/13 21:19:00
Lat.              31.8
Long.             131.6
Depth. (km)       30
Mag.              6.9
Station Code      YMGH09
Station Lat.      34.6257
Station Long.     131.6681
Station Height(m) -90
Record Time       2025/01/13 21:20:26
Sampling Freq(Hz) 100Hz
Duration Time(s)  140
Dir.              3
Scale Factor      2942(gal)/8224139
Max. Acc. (gal)   0.838
Last Correction   2025/01/13 21:20:28
Memo.             
[...]
  123264   123287   123304   123314   123322   123336   123346   123352 
  123360   123365   123372   123392   123417   123437   123446   123450 
  123449   123438   123425   123418   123415   123411   123411   123417 
  123427   123435   123427   123402   123361   123311   123255   123192 
  123124   123056   122994   122926   122860   122810   122771   122746 
  122740   122737   122727   122720   122717   122716   122721   122729 
  122740   122767   122797   122823   122855   122890   122928   122963 
  122986   122999   123007   123003   122991   122979   122972   122974 
  122980   122991   123012   123037   123071   123113   123148   123174 
  123196   123209   123210   123206   123190   123151   123098   123040 
  122980   122924   122866   122817   122785   122760   122737   122723 
  122712   122706   122713   122732   122755   122771   122783   122801 
  122832   122870   122908   122939   122962   122982   122999   123014 
  123036   123064   123098   123128   123148   123167   123196   123244 
  123302   123367   123427   123484   123545   123606   123660   123715 
  123769   123826   123889   123954   124012   124066   124119   124170 
  124222   124271   124302   124320   124329   124325   124308   124289 
  124276   124267   124254   124243   124224   124195   124173   124154 
  124132   124112   124100   124093   124086   124069   124046   124024 
  123997   123975   123965   123946   123915   123889   123862   123824 
  123786   123746   123691   123622   123554   123481   123398   123319 
  123253   123186   123114   123047   122980   122914   122855   122804 
  122756   122712   122673   122629   122580   122527   122470   122412 
  122358   122308   122270   122242   122214   122195   122187   122179 
  122172   122169   122169   122176   122188   122199   122207   122218 
  122224   122226   122230   122233   122229   122229   122226   122220 
  122223   122226   122229   122249   122281   122319   122358   122395 
  122435   122489   122557   122621   122674   122717   122754   122782 
  122806   122836   122866   122893   122931   122974   123017   123063 
  123101   123130   123159   123179   123194   123203   123198   123187 
  123183   123176   123157   123141   123133   123121   123106   123097 
  123094   123095   123103   123114   123130   123152   123174   123195 
  123228   123260   123290   123323   123365   123407   123450   123496 
  123541   123587   123635   123692   123750   123799   123844   123894 
  123936   123969   123998   124024   124044   124070   124096   124116 
  124133   124141   124141   124137   124129   124120   124106   124092 
  124073   124042   124013   123996   123982   123973   123966   123962 
  123952   123939   123932   123930   123921   123909   123896   123877 
  123849   123815   123782   123749   123715   123685   123653   123618 
  123585   123545   123503   123468   123434   123396   123352   123314 
  123288   123265   123240   123213   123192   123176   123157   123136 
  123110   123080   123055   123033   123001   122960   122914   122875 
  122841   122798   122747   122698   122647   122593   122543   122493 
  122451   122418   122381   122350   122338   122337   122342   122351 
  122358   122359   122355   122351   122346   122337   122331   122330 
  122327   122320   122305   122288   122276   122270   122260   122245 
  122234   122233   122239   122246   122253   122261   122269   122276 
  122284   122293   122315   122353   122401   122459   122524   122594 
  122665   122737   122806   122872   122940   123009   123075   123137 
  123194   123248   123290   123315   123340   123358   123367   123373 
  123377   123375   123372   123372   123368   123363   123361   123364 
  123368   123375   123391   123419   123449   123476   123508   123546 
  123577   123606   123631   123653   123670   123681   123691   123696 
  123699   123705   123720   123735   123754   123781   123812   123843 
  123876   123903   123925   123947   123962   123962   123955   123950 
  123952   123967   123984   123989   123988   123986   123992   123992 
  123978   123961   123940   123916   123884   123846   123804   123761 
  123712   123660   123603   123543   123493   123452   123407   123361 
  123325   123292   123260   123234   123217   123202   123188   123183 
  123179   123182   123187   123186   123180   123171   123155   123140 
  123122   123098   123066   123021   122978   122945   122917   122901 
  122891   122879   122867   122858   122848   122847   122851   122851 
  122848   122839   122833   122833   122831   122818   122808   122797 
  122782   122763   122746   122729   122709   122694   122697   122706 
  122725   122751   122771   122785   122793   122793   122789   122781 
  122767   122752   122744   122750   122754   122759   122777   122801 
  122828   122864   122902   122928   122953   122980   123010   123049 
  123098   123155   123223   123296   123368   123449   123539   123628 
  123716   123805   123893   123971   124046   124114   124179   124235 
  124275   124310   124348   124389   124429   124468   124503   124533 
  124572   124621   124663   124696   124726   124752   124772   124785 
  124791   124803   124822   124843   124868   124893   124916   124945 
  124981   125019   125054   125080   125093   125099   125095   125082 
  125064   125030   124970   124892   124800   124691   124569   124438 
  124298   124158   124021   123888   123762   123649   123549   123462 
  123391   123334   123292   123267   123250   123242   123242   123250 
  123263   123269   123273   123275   123269   123265   123263   123255 
  123245   123241   123238   123237   123236   123228   123211   123184 
  123147   123098   123041   122978   122902   122816   122729   122644 
  122551   122453   122359   122273   122199   122134   122075   122018 
  121967   121926   121900   121888   121882   121883   121899   121919 
  121942   121972   122008   122054   122111   122175   122237   122305 
  122380   122458   122542   122623   122700   122779   122852   122918 
  122976   123026   123072   123113   123148   123178   123195   123206 
  123217   123223   123226   123230   123233   123240   123252   123272 
  123302   123334   123357   123368   123371   123373   123379   123383 
  123380   123368   123341   123302   123255   123201   123144   123083 
  123013   122943   122874   122787   122702   122646   122597   122543 
  122500   122480   122472   122457   122443   122436   122431   122435 
  122440   122436   122443   122459   122474   122496   122530   122573 
  122629   122697   122770   122844   122916   122990   123056   123117 
  123182   123246   123309   123375   123444   123508   123568   123627 
  123680   123735   123803   123863   123912   123954   123978   123981 
  123973   123959   123939   123912   123876   123839   123805   123762 
  123712   123673   123643   123616   123592   123566   123541   123520 
  123508   123492   123473   123460   123457   123460   123454   123446 
  123438   123427   123423   123429   123429   123431   123437   123439 
  123446   123446   123431   123415   123398   123379   123356   123321 
  123273   123225   123175   123122   123075   123029   122982   122943 
  122910   122886   122870   122855   122844   122841   122840   122839 
  122835   122824   122816   122813   122806   122796   122778   122752 
  122725   122700   122670   122638   122612   122589   122567   122550 
  122534   122517   122513   122516   122515   122512   122515   122512 
  122509   122513   122521   122524   122530   122540   122548   122558 
  122570   122588   122609   122638   122671   122709   122742   122771 
  122801   122827   122843   122851   122850   122844   122837   122824 
  122804   122787   122779   122774   122766   122755   122747   122748 
  122755   122767   122790   122817   122850   122890   122932   122980 
  123041   123105   123169   123238   123313   123385   123454   123522 
  123583   123638   123688   123731   123774   123816   123853   123896 
  123950   124008   124067   124127   124187   124245   124295   124340 
  124380   124413   124432   124436   124425   124405   124374   124335 
  124298   124262   124216   124164   124120   124073   124020   123961 
  123893   123813   123732   123637   123527   123426   123329   123230 
  123142   123066   122993   122929   122881   122841   122805   122778 
  122758   122744   122737   122731   122720   122716   122720   122725 
  122729   122736   122752   122775   122794   122809   122824   122839 
  122855   122875   122897   122917   122945   122975   122999   123032 
  123068   123090   123094   123097   123094   123088   123084   123083 
  123082   123080   123075   123067   123056   123048   123044   123039 
  123033   123026   123017   123002   122986   122967   122944   122917 
  122890   122868   122845   122818   122793   122778   122770   122760 
  122756   122769   122786   122802   122825   122851   122887   122935 
  122989   123055   123134   123223   123322   123433   123557   123692 
  123830   123966   124096   124213   124310   124384   124437   124472 
  124494   124502   124494   124472   124441   124405   124359   124299 
  124228   124143   124047   123950   123853   123751   123653   123554 
  123450   123345   123250   123155   123059   122968   122885   122808 
  122735   122665   122598   122542   122501   122476   122459   122447 
  122442   122451   122478   122521   122586   122662   122751   122845 
  122939   123032   123121   123199   123276   123352   123423   123498 
  123566   123628   123692   123754   123816   123874   123924   123970 
  124013   124050   124081   124104   124117   124113   124090   124051 
  123996   123927   123843   123749   123646   123538   123425   123317 
  123222   123136   123056   122989   122932   122882   122841   122806 
  122775   122754   122739   122719   122688   122651   122611   122558 
  122496   122435   122377   122320   122261   122193   122126   122064 
  122004   121950   121902   121860   121821   121788   121763   121733 
  121705   121689   121689   121699   121720   121751   121790   121833 
  121886   121942   122000   122062   122133   122211   122292   122377 
  122462   122546   122627   122698   122773   122848   122918   122989 
  123057   123124   123201   123283   123364   123454   123552   123651 
  123762   123881   124004   124127   124243   124356   124468   124582 
  124681   124771   124860   124943   125015   125085   125150   125199 
  125236   125255   125251   125230   125184   125119   125042   124950 
  124842   124725   124603   124484   124367   124247   124137   124046 
  123963   123889   123830   123781   123746   123719   123697   123688 
  123689   123696   123712   123730   123736   123742   123754   123774 
  123803   123835   123871   123920   123975   124032   124085   124141 
  124210   124286   124356   124418   124474   124524   124573   124625 
  124677   124733   124784   124827   124865   124896   124908   124906 
  124888   124858   124816   124758   124683   124594   124492   124378 
  124255   124129   123990   123844   123701   123560   123423   123298 
  123175   123055   122936   122824   122727   122639   122559   122496 
  122443   122405   122384   122370   122362   122362   122365   122368 
  122374   122381   122385   122389   122395   122403   122409   122412 
  122411   122401   122376   122343   122311   122270   122223   122175 
  122126   122083   122044   122000   121960   121932   121909   121892 
  121888   121892   121902   121921   121952   121987   122033   122094 
  122165   122250   122347   122445   122544   122651   122760   122866 
  122964   123061   123145   123210   123268   123317   123353   123375 
  123379   123365   123336   123292   123240   123172   123086   122994 
  122899   122793   122683   122571   122450   122327   122203   122079 
  121963   121857   121767   121687   121617   121560   121514   121473 
  121440   121428   121439   121464   121500   121544   121597   121645 
  121693   121748   121799   121842   121892   121940   121979   122014 
  122042   122065   122084   122108   122146   122185   122223   122264 
  122316   122377   122447   122532   122628   122724   122827   122945 
  123074   123201   123329   123469   123611   123747   123882   124017 
  124148   124270   124386   124491   124576   124646   124698   124733 
  124753   124753   124738   124714   124669   124617   124565   124511 
  124456   124401   124351   124309   124276   124254   124231   124205 
  124182   124156   124124   124086   124039   123981   123913   123830 
  123734   123628   123522   123418   123319   123232   123161   123106 
  123064   123037   123022   123021   123037   123064   123095   123136 
  123194   123259   123325   123392   123466   123550   123646   123746 
  123846   123950   124051   124144   124233   124320   124394   124457 
  124518   124572   124614   124650   124684   124718   124745   124768 
  124796   124825   124843   124853   124857   124858   124860   124853 
  124842   124833   124819   124806   124788   124768   124753   124738 
  124722   124700   124676   124650   124615   124568   124514   124452 
  124387   124329   124279   124231   124183   124146   124113   124083 
  124059   124035   124012   123990   123959   123912   123850   123772 
  123681   123584   123473   123348   123217   123082   122943   122804 
  122666   122531   122395   122254   122118   121981   121849   121725 
  121608   121501   121405   121317   121238   121162   121088   121020 
  120970   120937   120908   120891   120891   120903   120930   120981 
  121058   121159   121277   121412   121564   121729   121906   122091 
  122280   122470   122665   122862   123052   123238   123422   123603 
  123774   123931   124077   124213   124337   124455   124564   124660 
  124740   124806   124852   124889   124923   124943   124937   124914 
  124880   124831   124767   124688   124598   124495   124379   124254 
  124127   124005   123886   123768   123660   123560   123465   123379 
  123299   123219   123148   123079   123007   122947   122890   122831 
  122775   122727   122693   122674   122659   122661   122673   122697 
  122737   122791   122855   122926   123009   123099   123191   123286 
  123380   123466   123546   123618   123676   123728   123766   123781 
  123778   123762   123735   123696   123634   123558   123468   123354 
  123230   123097   122947   122787   122620   122451   122287   122123 
  121969   121833   121706   121589   121489   121408   121342   121296 
  121266   121254   121263   121292   121336   121406   121498   121614 
  121757   121915   122081   122265   122459   122665   122877   123083 
  123279   123466   123639   123788   123913   124013   124081   124124 
  124141   124125   124085   124024   123940   123836   123712   123568 
  123417   123256   123087   122914   122742   122569   122401   122246 
  122110   121994   121899   121826   121772   121737   121722   121729 
  121757   121801   121857   121934   122027   122131   122245   122369 
  122504   122643   122781   122922   123072   123219   123368   123523 
  123677   123822   123966   124109   124240   124363   124486   124596 
  124692   124781   124854   124906   124942   124968   124980   124973 
  124953   124924   124887   124846   124807   124762   124721   124679 
  124637   124590   124542   124492   124449   124413   124376   124332 
  124278   124213   124139   124060   123978   123893   123801   123703 
  123607   123519   123438   123363   123300   123253   123205   123157 
  123117   123078   123049   123030   123017   123010   123006   123001 
  122990   122975   122963   122952   122943   122933   122921   122908 
  122894   122887   122890   122901   122920   122944   122963   122975 
  122989   122995   122994   122985   122970   122944   122912   122874 
  122823   122758   122692   122615   122527   122443   122359   122278 
  122202   122129   122060   121998   121940   121890   121846   121817 
  121797   121786   121788   121805   121832   121879   121948   122035 
  122137   122250   122380   122526   122677   122832   122993   123148 
  123296   123442   123583   123715   123842   123967   124081   124181 
  124276   124364   124440   124511   124579   124633   124672   124699 
  124706   124695   124673   124641   124599   124549   124488   124410 
  124322   124231   124136   124033   123928   123822   123714   123601 
  123481   123357   123226   123094   122963   122835   122701   122566 
  122435   122312   122196   122088   121990   121899   121818   121745 
  121682   121632   121589   121551   121525   121510   121506   121518 
  121539   121570   121622   121691   121771   121867   121986   122119 
  122264   122424   122588   122746   122906   123072   123232   123383 
  123527   123655   123772   123869   123947   124012   124066   124100 
  124120   124135   124136   124121   124098   124065   124021   123975 
  123927   123880   123844   123819   123800   123790   123789   123792 
  123800   123816   123836   123858   123885   123917   123952   123982 
  124009   124032   124042   124040   124032   124011   123977   123934 
  123885   123834   123773   123704   123645   123595   123542   123492 
  123450   123411   123380   123361   123350   123352   123364   123379 
  123399   123427   123454   123481   123515   123543   123568   123593 
  123610   123620   123633   123641   123638   123626   123608   123581 
  123546   123510   123473   123439   123406   123379   123360   123341 
  123326   123315   123300   123284   123265   123244   123221   123194 
  123167   123137   123103   123068   123040   123017   122995   122974 
  122958   122947   122939   122933   122933   122944   122966   122997 
  123036   123075   123114   123157   123213   123282   123357   123435 
  123510   123584   123662   123738   123800   123844   123877   123894 
  123892   123876   123849   123805   123749   123682   123619   123565 
  123511   123452   123384   123314   123249   123184   123117   123049 
  122982   122912   122844   122779   122715   122655   122594   122534 
  122476   122422   122370   122326   122288   122260   122241   122231 
  122231   122241   122258   122285   122326   122370   122419   122473 
  122528   122586   122646   122704   122756   122809   122860   122906 
  122948   122994   123037   123082   123125   123164   123202   123232 
  123245   123257   123267   123268   123265   123263   123260   123256 
  123252   123250   123248   123253   123271   123299   123338   123385 
  123430   123473   123514   123545   123568   123581   123588   123593 
  123595   123592   123589   123579   123569   123568   123570   123566 
  123562   123556   123543   123534   123529   123522   123512   123503 
  123493   123483   123468   123456   123442   123417   123377   123333 
  123291   123245   123192   123136   123082   123026   122970   122916 
  122863   122804   122747   122696   122643   122592   122538   122477 
  122424   122384   122342   122299   122268   122250   122234   122226 
  122227   122235   122246   122266   122300   122346   122396   122451 
  122520   122597   122679   122763   122847   122935   123022   123107 
  123192   123265   123322   123376   123422   123456   123481   123493 
  123499   123502   123502   123498   123496   123489   123468   123448 
  123427   123403   123381   123363   123340   123314   123283   123242 
