Origin Time       2025/01/13 21:19:00
Lat.              31.8
Long.             131.6
Depth. (km)       30
Mag.              6.9
Station Code      YMGH10
Station Lat.      34.4837
Station Long.     131.6329
Station Height(m) 165
Record Time       2025/01/13 21:20:30
Sampling Freq(Hz) 100Hz
Duration Time(s)  141
Dir.              2
Scale Factor      3923(gal)/8224838
Max. Acc. (gal)   0.718
Last Correction   2025/01/13 21:20:13
Memo.             
[...]
  -97946   -97938   -97927   -97920   -97916   -97914   -97922   -97933 
  -97941   -97956   -97973   -97987   -98005   -98020   -98028   -98035 
  -98038   -98039   -98043   -98049   -98053   -98062   -98076   -98080 
  -98081   -98091   -98101   -98113   -98124   -98135   -98151   -98167 
  -98180   -98190   -98197   -98199   -98199   -98199   -98197   -98203 
  -98215   -98230   -98250   -98274   -98293   -98305   -98316   -98321 
  -98321   -98316   -98308   -98304   -98301   -98298   -98301   -98304 
  -98304   -98307   -98308   -98305   -98300   -98292   -98277   -98257 
  -98235   -98212   -98193   -98186   -98190   -98196   -98201   -98205 
  -98201   -98193   -98185   -98173   -98159   -98153   -98154   -98155 
  -98150   -98146   -98142   -98131   -98118   -98107   -98092   -98077 
  -98070   -98064   -98054   -98045   -98039   -98034   -98026   -98015 
  -98001   -97992   -97987   -97980   -97969   -97957   -97942   -97920 
  -97899   -97881   -97866   -97860   -97856   -97856   -97864   -97873 
  -97879   -97885   -97896   -97904   -97911   -97922   -97939   -97960 
  -97985   -98015   -98042   -98064   -98077   -98088   -98100   -98115 
  -98128   -98143   -98161   -98172   -98182   -98196   -98215   -98236 
  -98258   -98280   -98302   -98321   -98331   -98338   -98347   -98354 
  -98354   -98354   -98351   -98342   -98327   -98315   -98302   -98289 
  -98285   -98290   -98298   -98307   -98307   -98300   -98297   -98296 
  -98296   -98305   -98316   -98331   -98351   -98371   -98388   -98400 
  -98406   -98400   -98383   -98369   -98352   -98332   -98313   -98294 
  -98274   -98257   -98242   -98227   -98215   -98205   -98200   -98197 
  -98194   -98186   -98178   -98169   -98155   -98143   -98130   -98115 
  -98104   -98097   -98088   -98078   -98072   -98061   -98046   -98026 
  -98003   -97983   -97964   -97947   -97934   -97924   -97915   -97912 
  -97912   -97912   -97918   -97924   -97930   -97941   -97951   -97960 
  -97969   -97976   -97980   -97985   -97989   -97996   -98004   -98008 
  -98008   -98014   -98019   -98022   -98028   -98037   -98042   -98046 
  -98050   -98049   -98042   -98037   -98030   -98019   -98007   -97993 
  -97978   -97966   -97960   -97957   -97957   -97954   -97953   -97953 
  -97954   -97956   -97956   -97956   -97960   -97965   -97969   -97966 
  -97961   -97954   -97939   -97927   -97920   -97912   -97899   -97885 
  -97876   -97877   -97891   -97914   -97942   -97970   -98003   -98042 
  -98077   -98113   -98149   -98181   -98215   -98244   -98265   -98285 
  -98301   -98315   -98329   -98343   -98354   -98367   -98382   -98393 
  -98404   -98408   -98400   -98390   -98378   -98356   -98339   -98329 
  -98317   -98302   -98296   -98293   -98290   -98290   -98294   -98298 
  -98304   -98305   -98302   -98298   -98297   -98304   -98312   -98315 
  -98315   -98315   -98317   -98321   -98321   -98324   -98329   -98335 
  -98340   -98352   -98363   -98369   -98375   -98382   -98386   -98393 
  -98402   -98416   -98436   -98460   -98486   -98512   -98536   -98556 
  -98568   -98577   -98579   -98577   -98568   -98556   -98535   -98510 
  -98487   -98467   -98448   -98435   -98425   -98417   -98413   -98413 
  -98405   -98398   -98396   -98386   -98379   -98377   -98367   -98356 
  -98346   -98324   -98300   -98270   -98232   -98190   -98154   -98118 
  -98080   -98042   -98005   -97969   -97931   -97893   -97858   -97823 
  -97781   -97733   -97681   -97629   -97576   -97533   -97505   -97484 
  -97464   -97451   -97437   -97421   -97407   -97395   -97383   -97379 
  -97386   -97398   -97417   -97434   -97447   -97456   -97457   -97456 
  -97451   -97443   -97436   -97426   -97421   -97429   -97448   -97472 
  -97502   -97541   -97580   -97609   -97634   -97657   -97676   -97694 
  -97714   -97731   -97746   -97771   -97803   -97833   -97866   -97902 
  -97933   -97960   -97980   -97995   -98004   -98014   -98027   -98050 
  -98068   -98081   -98099   -98118   -98135   -98153   -98169   -98182 
  -98194   -98207   -98216   -98228   -98244   -98259   -98274   -98286 
  -98294   -98307   -98321   -98335   -98350   -98369   -98390   -98409 
  -98427   -98443   -98459   -98478   -98494   -98508   -98525   -98544 
  -98562   -98579   -98598   -98613   -98629   -98640   -98645   -98651 
  -98659   -98672   -98686   -98698   -98712   -98728   -98743   -98753 
  -98767   -98784   -98801   -98810   -98818   -98829   -98840   -98852 
  -98863   -98859   -98847   -98832   -98810   -98780   -98759   -98752 
  -98752   -98757   -98768   -98783   -98798   -98811   -98820   -98821 
  -98822   -98821   -98809   -98790   -98775   -98767   -98763   -98767 
  -98774   -98770   -98759   -98740   -98709   -98672   -98629   -98587 
  -98547   -98512   -98482   -98458   -98433   -98409   -98383   -98351 
  -98311   -98262   -98201   -98132   -98054   -97970   -97885   -97800 
  -97717   -97638   -97571   -97505   -97437   -97379   -97335   -97305 
  -97283   -97268   -97252   -97240   -97236   -97233   -97228   -97220 
  -97213   -97202   -97190   -97179   -97173   -97160   -97151   -97148 
  -97147   -97143   -97147   -97164   -97185   -97202   -97227   -97259 
  -97291   -97325   -97359   -97387   -97417   -97449   -97472   -97484 
  -97486   -97479   -97475   -97475   -97475   -97478   -97484   -97491 
  -97501   -97510   -97522   -97534   -97544   -97553   -97575   -97606 
  -97638   -97673   -97708   -97745   -97781   -97821   -97865   -97910 
  -97954   -98003   -98055   -98103   -98149   -98193   -98231   -98267 
  -98307   -98343   -98378   -98408   -98431   -98448   -98462   -98475 
  -98493   -98512   -98539   -98572   -98602   -98631   -98663   -98689 
  -98703   -98709   -98707   -98702   -98698   -98703   -98716   -98726 
  -98743   -98763   -98782   -98795   -98803   -98798   -98787   -98779 
  -98770   -98766   -98766   -98772   -98778   -98780   -98784   -98786 
  -98782   -98771   -98755   -98733   -98709   -98674   -98624   -98568 
  -98513   -98459   -98415   -98385   -98369   -98363   -98365   -98370 
  -98373   -98374   -98375   -98377   -98378   -98377   -98363   -98340 
  -98313   -98285   -98255   -98230   -98204   -98180   -98158   -98132 
  -98105   -98084   -98065   -98043   -98015   -97985   -97951   -97912 
  -97873   -97843   -97822   -97807   -97794   -97780   -97771   -97762 
  -97761   -97768   -97775   -97781   -97794   -97804   -97810   -97814 
  -97822   -97835   -97852   -97876   -97902   -97922   -97939   -97953 
  -97966   -97985   -98004   -98023   -98041   -98057   -98074   -98091 
  -98099   -98103   -98100   -98086   -98066   -98042   -98015   -97989 
  -97966   -97949   -97943   -97946   -97957   -97972   -97989   -98008 
  -98027   -98043   -98065   -98096   -98128   -98158   -98186   -98211 
  -98230   -98246   -98257   -98270   -98290   -98317   -98352   -98397 
  -98454   -98524   -98599   -98675   -98748   -98815   -98876   -98925 
  -98967   -99007   -99042   -99072   -99102   -99126   -99141   -99149 
  -99152   -99149   -99148   -99141   -99130   -99118   -99104   -99084 
  -99056   -99022   -98982   -98938   -98888   -98840   -98797   -98759 
  -98728   -98702   -98682   -98674   -98672   -98671   -98666   -98653 
  -98640   -98622   -98598   -98571   -98545   -98521   -98494   -98462 
  -98421   -98379   -98339   -98296   -98251   -98204   -98155   -98113 
  -98078   -98042   -98011   -97987   -97962   -97945   -97934   -97922 
  -97914   -97904   -97889   -97873   -97854   -97827   -97789   -97744 
  -97695   -97645   -97600   -97559   -97526   -97498   -97470   -97441 
  -97414   -97386   -97357   -97333   -97312   -97294   -97285   -97285 
  -97294   -97310   -97328   -97344   -97362   -97374   -97378   -97383 
  -97386   -97389   -97401   -97420   -97443   -97472   -97505   -97530 
  -97559   -97588   -97613   -97636   -97660   -97686   -97713   -97742 
  -97772   -97800   -97823   -97846   -97865   -97880   -97895   -97908 
  -97914   -97915   -97912   -97907   -97899   -97884   -97868   -97848 
  -97826   -97811   -97796   -97784   -97781   -97785   -97794   -97799 
  -97800   -97802   -97804   -97807   -97814   -97822   -97831   -97849 
  -97870   -97892   -97912   -97934   -97957   -97976   -97991   -98004 
  -98004   -97992   -97980   -97966   -97947   -97938   -97935   -97937 
  -97938   -97938   -97924   -97903   -97877   -97849   -97819   -97791 
  -97752   -97702   -97650   -97596   -97538   -97480   -97426   -97379 
  -97339   -97302   -97275   -97262   -97256   -97259   -97274   -97293 
  -97309   -97317   -97320   -97318   -97313   -97309   -97312   -97322 
  -97347   -97383   -97425   -97468   -97511   -97552   -97592   -97637 
  -97681   -97719   -97754   -97787   -97823   -97864   -97903   -97942 
  -97991   -98045   -98096   -98140   -98190   -98244   -98297   -98355 
  -98424   -98493   -98562   -98632   -98701   -98759   -98806   -98848 
  -98882   -98906   -98923   -98936   -98941   -98946   -98948   -98945 
  -98942   -98941   -98944   -98950   -98956   -98963   -98967   -98961 
  -98949   -98934   -98914   -98892   -98874   -98861   -98855   -98845 
  -98833   -98824   -98814   -98805   -98803   -98813   -98828   -98842 
  -98857   -98868   -98868   -98857   -98842   -98828   -98810   -98791 
  -98774   -98756   -98744   -98730   -98717   -98705   -98693   -98680 
  -98668   -98652   -98628   -98601   -98572   -98539   -98502   -98469 
  -98442   -98423   -98410   -98396   -98377   -98365   -98354   -98344 
  -98339   -98339   -98354   -98379   -98413   -98456   -98502   -98548 
  -98593   -98628   -98656   -98676   -98693   -98705   -98710   -98706 
  -98699   -98683   -98659   -98631   -98595   -98558   -98516   -98469 
  -98421   -98379   -98344   -98312   -98285   -98263   -98247   -98239 
  -98240   -98253   -98274   -98300   -98327   -98351   -98377   -98402 
  -98429   -98452   -98469   -98482   -98491   -98493   -98487   -98473 
  -98455   -98436   -98420   -98412   -98412   -98419   -98433   -98454 
  -98470   -98481   -98493   -98500   -98496   -98489   -98481   -98470 
  -98463   -98471   -98489   -98514   -98547   -98578   -98604   -98628 
  -98651   -98672   -98697   -98717   -98729   -98737   -98748   -98763 
  -98784   -98813   -98845   -98879   -98913   -98944   -98969   -98991 
  -99003   -99007   -99006   -98998   -98979   -98944   -98899   -98852 
  -98795   -98732   -98668   -98593   -98504   -98416   -98329   -98246 
  -98167   -98092   -98019   -97947   -97876   -97808   -97745   -97687 
  -97633   -97587   -97552   -97529   -97515   -97509   -97505   -97503 
  -97507   -97517   -97526   -97533   -97542   -97556   -97569   -97582 
  -97595   -97613   -97634   -97659   -97681   -97703   -97730   -97757 
  -97779   -97792   -97795   -97789   -97781   -97768   -97753   -97741 
  -97730   -97714   -97688   -97652   -97605   -97549   -97488   -97428 
  -97368   -97309   -97254   -97204   -97158   -97117   -97079   -97047 
  -97016   -96979   -96940   -96905   -96871   -96840   -96813   -96790 
  -96773   -96766   -96766   -96769   -96778   -96790   -96801   -96807 
  -96808   -96807   -96805   -96811   -96819   -96830   -96849   -96869 
  -96896   -96928   -96965   -97001   -97038   -97073   -97108   -97139 
  -97168   -97200   -97229   -97262   -97294   -97335   -97389   -97445 
  -97501   -97563   -97626   -97686   -97748   -97808   -97864   -97919 
  -97972   -98019   -98065   -98103   -98134   -98162   -98189   -98219 
  -98254   -98288   -98321   -98358   -98385   -98402   -98417   -98421 
  -98417   -98413   -98410   -98415   -98421   -98428   -98439   -98448 
  -98459   -98475   -98494   -98517   -98547   -98581   -98620   -98655 
  -98690   -98725   -98760   -98791   -98818   -98833   -98837   -98834 
  -98828   -98817   -98799   -98784   -98774   -98761   -98753   -98751 
  -98748   -98745   -98745   -98749   -98753   -98755   -98761   -98772 
  -98779   -98790   -98807   -98818   -98830   -98847   -98861   -98874 
  -98891   -98909   -98925   -98942   -98963   -98986   -99009   -99026 
  -99042   -99058   -99073   -99081   -99081   -99076   -99058   -99033 
  -99004   -98977   -98952   -98932   -98911   -98890   -98875   -98860 
  -98844   -98825   -98803   -98775   -98745   -98710   -98676   -98644 
  -98610   -98579   -98555   -98535   -98514   -98496   -98478   -98459 
  -98442   -98428   -98406   -98382   -98359   -98332   -98309   -98294 
  -98284   -98286   -98300   -98317   -98343   -98374   -98408   -98450 
  -98497   -98544   -98595   -98658   -98722   -98783   -98840   -98892 
  -98944   -98995   -99046   -99099   -99154   -99211   -99270   -99330 
  -99385   -99439   -99486   -99519   -99536   -99546   -99543   -99528 
  -99507   -99477   -99441   -99404   -99368   -99324   -99280   -99230 
  -99168   -99095   -99010   -98917   -98826   -98739   -98652   -98572 
  -98500   -98425   -98347   -98269   -98192   -98119   -98050   -97984 
  -97918   -97846   -97777   -97711   -97648   -97596   -97556   -97524 
  -97509   -97507   -97505   -97505   -97515   -97532   -97553   -97582 
  -97617   -97660   -97707   -97756   -97806   -97852   -97891   -97929 
  -97961   -97985   -98010   -98031   -98049   -98065   -98073   -98076 
  -98076   -98066   -98055   -98051   -98043   -98034   -98024   -98016 
  -98011   -98004   -97996   -97985   -97974   -97964   -97947   -97924 
  -97902   -97875   -97849   -97830   -97815   -97800   -97791   -97780 
  -97754   -97722   -97684   -97633   -97571   -97507   -97440   -97366 
  -97290   -97213   -97136   -97054   -96969   -96894   -96826   -96765 
  -96716   -96680   -96654   -96639   -96638   -96653   -96677   -96712 
  -96763   -96824   -96888   -96961   -97039   -97119   -97204   -97294 
  -97382   -97465   -97552   -97640   -97725   -97807   -97885   -97962 
  -98037   -98104   -98169   -98235   -98297   -98354   -98405   -98452 
  -98498   -98541   -98582   -98620   -98647   -98667   -98683   -98698 
  -98712   -98722   -98732   -98737   -98741   -98743   -98741   -98740 
  -98740   -98739   -98739   -98736   -98726   -98717   -98707   -98694 
  -98672   -98645   -98617   -98579   -98532   -98478   -98420   -98363 
  -98316   -98273   -98235   -98207   -98180   -98154   -98127   -98097 
  -98064   -98024   -97981   -97943   -97908   -97872   -97838   -97808 
  -97779   -97750   -97722   -97692   -97663   -97634   -97606   -97580 
  -97555   -97533   -97518   -97509   -97501   -97494   -97490   -97487 
  -97486   -97490   -97498   -97507   -97517   -97528   -97537   -97541 
  -97542   -97544   -97544   -97545   -97542   -97538   -97536   -97534 
  -97540   -97551   -97564   -97583   -97602   -97618   -97630   -97641 
  -97654   -97672   -97690   -97707   -97731   -97761   -97792   -97833 
  -97884   -97934   -97980   -98027   -98072   -98108   -98139   -98162 
  -98174   -98182   -98185   -98184   -98178   -98172   -98165   -98159 
  -98158   -98157   -98151   -98145   -98136   -98124   -98105   -98078 
  -98050   -98020   -97988   -97956   -97929   -97910   -97893   -97880 
  -97865   -97846   -97830   -97818   -97808   -97808   -97812   -97818 
  -97821   -97826   -97834   -97843   -97854   -97868   -97885   -97906 
  -97929   -97956   -97987   -98016   -98046   -98078   -98111   -98139 
  -98173   -98209   -98240   -98266   -98293   -98317   -98339   -98352 
  -98365   -98369   -98366   -98363   -98356   -98350   -98346   -98342 
  -98339   -98338   -98331   -98329   -98334   -98340   -98350   -98367 
  -98388   -98405   -98421   -98432   -98439   -98442   -98442   -98436 
  -98423   -98409   -98392   -98371   -98351   -98334   -98315   -98300 
  -98289   -98274   -98263   -98257   -98248   -98243   -98242   -98242 
  -98251   -98271   -98294   -98320   -98351   -98386   -98424   -98462 
  -98498   -98533   -98567   -98598   -98629   -98655   -98671   -98682 
  -98690   -98691   -98693   -98702   -98717   -98736   -98759   -98787 
  -98813   -98836   -98855   -98872   -98880   -98880   -98871   -98853 
  -98833   -98810   -98776   -98733   -98691   -98648   -98606   -98574 
  -98539   -98500   -98469   -98439   -98406   -98377   -98342   -98296 
  -98248   -98199   -98140   -98077   -98010   -97942   -97873   -97796 
  -97719   -97646   -97573   -97502   -97444   -97390   -97343   -97314 
  -97295   -97275   -97259   -97249   -97245   -97248   -97259   -97274 
  -97297   -97318   -97339   -97363   -97390   -97424   -97468   -97517 
  -97575   -97641   -97708   -97777   -97848   -97916   -97983   -98053 
  -98122   -98188   -98254   -98321   -98383   -98444   -98501   -98556 
  -98614   -98664   -98705   -98745   -98779   -98806   -98828   -98841 
  -98851   -98855   -98856   -98859   -98865   -98871   -98872   -98871 
  -98863   -98851   -98836   -98810   -98779   -98745   -98709   -98672 
  -98645   -98625   -98608   -98598   -98589   -98581   -98577   -98577 
  -98570   -98556   -98540   -98518   -98493   -98466   -98435   -98405 
  -98379   -98355   -98339   -98327   -98313   -98301   -98293   -98292 
  -98294   -98305   -98321   -98338   -98356   -98374   -98390   -98408 
  -98428   -98448   -98469   -98486   -98502   -98514   -98520   -98521 
  -98518   -98513   -98505   -98489   -98464   -98436   -98401   -98362 
  -98321   -98282   -98246   -98213   -98182   -98154   -98124   -98092 
  -98057   -98016   -97974   -97926   -97868   -97804   -97742   -97680 
  -97617   -97559   -97507   -97456   -97405   -97356   -97308   -97268 
  -97235   -97201   -97173   -97152   -97135   -97127   -97123   -97123 
  -97128   -97140   -97158   -97181   -97209   -97237   -97266   -97295 
  -97324   -97353   -97390   -97428   -97467   -97510   -97555   -97598 
  -97642   -97690   -97737   -97783   -97829   -97877   -97926   -97974 
  -98020   -98064   -98101   -98134   -98166   -98201   -98235   -98274 
  -98316   -98355   -98396   -98433   -98470   -98509   -98544   -98572 
  -98604   -98635   -98659   -98680   -98703   -98726   -98755   -98787 
  -98820   -98851   -98886   -98919   -98949   -98975   -98999   -99018 
  -99025   -99023   -99017   -99004   -98988   -98967   -98941   -98918 
  -98896   -98878   -98867   -98859   -98848   -98842   -98844   -98840 
  -98833   -98824   -98810   -98797   -98784   -98770   -98756   -98744 
  -98729   -98710   -98690   -98666   -98635   -98598   -98552   -98501 
  -98448   -98389   -98323   -98255   -98182   -98104   -98027   -97957 
  -97891   -97821   -97760   -97710   -97665   -97634   -97611   -97590 
  -97571   -97557   -97548   -97542   -97540   -97542   -97553   -97571 
  -97591   -97615   -97646   -97684   -97730   -97779   -97827   -97877 
  -97922   -97960   -97999   -98035   -98065   -98091   -98113   -98128 
  -98131   -98127   -98120   -98108   -98091   -98069   -98041   -98010 
  -97978   -97943   -97907   -97870   -97833   -97798   -97767   -97731 
  -97702   -97677   -97649   -97621   -97599   -97579   -97556   -97538 
  -97528   -97524   -97522   -97529   -97545   -97564   -97590   -97622 
  -97652   -97686   -97725   -97767   -97808   -97856   -97907   -97954 
  -98001   -98050   -98099   -98146   -98194   -98240   -98282   -98316 
  -98347   -98375   -98397   -98415   -98435   -98459   -98485   -98509 
  -98539   -98574   -98606   -98637   -98672   -98702   -98725   -98747 
  -98767   -98784   -98798   -98810   -98818   -98820   -98818   -98806 
  -98786   -98763   -98730   -98689   -98639   -98582   -98525   -98466 
  -98405   -98352   -98307   -98263   -98226   -98190   -98161   -98134 
