Origin Time       2025/01/13 21:19:00
Lat.              31.8
Long.             131.6
Depth. (km)       30
Mag.              6.9
Station Code      YMGH06
Station Lat.      33.9893
Station Long.     131.3012
Station Height(m) -120
Record Time       2025/01/13 21:20:14
Sampling Freq(Hz) 100Hz
Duration Time(s)  175
Dir.              2
Scale Factor      2942(gal)/8224139
Max. Acc. (gal)   1.916
Last Correction   2025/01/13 21:20:14
Memo.             
[...]
   86895    86942    86985    87026    87061    87091    87123    87153 
   87172    87192    87215    87230    87247    87262    87266    87269 
   87272    87269    87261    87261    87277    87295    87304    87311 
   87313    87308    87300    87282    87255    87231    87196    87151 
   87112    87075    87030    86998    86983    86968    86945    86923 
   86903    86880    86853    86823    86790    86752    86713    86676 
   86637    86603    86579    86552    86524    86502    86485    86466 
   86441    86414    86390    86358    86319    86283    86248    86223 
   86211    86201    86193    86184    86171    86165    86157    86147 
   86142    86132    86120    86112    86107    86097    86084    86063 
   86042    86042    86055    86070    86086    86100    86107    86107 
   86086    86054    86009    85961    85922    85895    85878    85873 
   85878    85893    85918    85943    85959    85972    85985    86001 
   86022    86043    86058    86077    86107    86134    86157    86185 
   86216    86252    86289    86323    86366    86406    86437    86479 
   86537    86590    86633    86665    86678    86676    86675    86670 
   86664    86663    86667    86682    86690    86691    86695    86695 
   86688    86684    86678    86670    86660    86655    86664    86679 
   86690    86711    86746    86782    86825    86879    86934    86987 
   87030    87068    87099    87120    87139    87158    87173    87189 
   87195    87181    87170    87165    87160    87146    87122    87100 
   87079    87049    87018    86992    86968    86944    86908    86869 
   86837    86802    86761    86722    86680    86632    86579    86526 
   86486    86452    86424    86406    86395    86382    86366    86359 
   86358    86347    86328    86308    86281    86260    86251    86235 
   86215    86198    86188    86182    86190    86208    86233    86274 
   86321    86366    86418    86470    86506    86540    86574    86602 
   86625    86644    86664    86688    86710    86726    86733    86733 
   86730    86717    86692    86667    86645    86622    86602    86586 
   86568    86553    86539    86522    86498    86464    86429    86395 
   86352    86298    86254    86227    86208    86206    86223    86244 
   86269    86292    86317    86355    86400    86445    86487    86525 
   86551    86567    86575    86570    86549    86532    86521    86514 
   86510    86522    86548    86586    86636    86690    86756    86829 
   86894    86954    87008    87049    87084    87116    87135    87146 
   87158    87173    87191    87211    87238    87270    87307    87346 
   87389    87432    87474    87519    87563    87597    87620    87631 
   87633    87639    87644    87643    87650    87669    87690    87718 
   87750    87783    87824    87868    87916    87959    87999    88036 
   88048    88042    88028    87990    87937    87870    87785    87690 
   87601    87513    87432    87365    87304    87257    87228    87199 
   87166    87142    87108    87052    86984    86907    86821    86737 
   86664    86587    86503    86414    86327    86239    86155    86078 
   86011    85953    85908    85873    85851    85841    85820    85785 
   85741    85683    85614    85537    85460    85387    85322    85275 
   85236    85207    85190    85175    85166    85170    85172    85172 
   85170    85160    85149    85139    85114    85083    85056    85025 
   85001    84985    84971    84975    84993    85014    85050    85104 
   85170    85244    85326    85409    85480    85538    85580    85602 
   85607    85607    85598    85587    85585    85592    85596    85594 
   85587    85569    85533    85483    85429    85367    85302    85256 
   85230    85213    85210    85230    85266    85315    85394    85486 
   85567    85644    85730    85818    85899    85969    86026    86071 
   86101    86121    86131    86130    86131    86144    86161    86188 
   86232    86278    86328    86387    86447    86512    86578    86622 
   86659    86703    86738    86767    86796    86814    86815    86823 
   86837    86850    86877    86917    86971    87045    87124    87207 
   87309    87421    87532    87636    87729    87817    87895    87964 
   88025    88079    88128    88180    88227    88263    88290    88306 
   88306    88299    88284    88260    88246    88250    88252    88245 
   88238    88221    88187    88145    88102    88048    87988    87934 
   87870    87798    87732    87660    87588    87523    87453    87385 
   87326    87269    87226    87188    87153    87129    87115    87104 
   87100    87118    87147    87170    87193    87227    87264    87286 
   87307    87331    87346    87358    87378    87394    87415    87446 
   87481    87509    87536    87551    87559    87569    87578    87589 
   87610    87635    87659    87682    87700    87714    87733    87759 
   87801    87853    87913    87984    88059    88128    88195    88253 
   88290    88306    88299    88275    88233    88177    88121    88060 
   87994    87934    87880    87817    87750    87682    87608    87535 
   87463    87392    87324    87258    87183    87104    87033    86961 
   86900    86849    86798    86761    86737    86705    86674    86641 
   86603    86570    86537    86503    86471    86449    86443    86448 
   86470    86502    86537    86586    86644    86706    86775    86842 
   86895    86942    86991    87031    87066    87104    87131    87142 
   87149    87153    87150    87143    87134    87122    87100    87075 
   87048    87010    86969    86922    86850    86764    86667    86552 
   86436    86321    86204    86090    85986    85885    85781    85687 
   85600    85502    85396    85295    85195    85097    85002    84906 
   84815    84730    84657    84591    84531    84484    84439    84395 
   84356    84308    84254    84214    84169    84117    84073    84029 
   83987    83955    83925    83899    83879    83867    83859    83847 
   83835    83829    83809    83778    83752    83712    83658    83609 
   83562    83523    83497    83481    83479    83496    83519    83548 
   83596    83650    83705    83768    83836    83898    83964    84044 
   84121    84196    84283    84377    84480    84595    84713    84835 
   84951    85064    85179    85290    85403    85519    85630    85735 
   85839    85943    86042    86125    86190    86242    86279    86300 
   86312    86329    86343    86350    86367    86398    86433    86476 
   86530    86584    86633    86678    86715    86740    86753    86768 
   86782    86787    86791    86795    86799    86815    86833    86850 
   86883    86915    86942    86980    87015    87042    87068    87084 
   87092    87097    87088    87077    87073    87061    87045    87035 
   87025    87012    87000    86980    86956    86930    86895    86861 
   86827    86794    86769    86753    86740    86725    86702    86680 
   86668    86661    86664    86676    86687    86705    86725    86736 
   86749    86772    86794    86807    86817    86825    86832    86830 
   86827    86819    86803    86783    86757    86717    86665    86610 
   86545    86476    86410    86339    86263    86200    86151    86105 
   86067    86043    86024    86004    85989    85973    85953    85939 
   85930    85923    85926    85943    85993    86059    86119    86192 
   86274    86355    86449    86543    86614    86679    86736    86771 
   86796    86822    86844    86863    86884    86910    86950    87000 
   87060    87122    87184    87254    87324    87389    87457    87528 
   87605    87683    87759    87835    87909    87980    88052    88121 
   88184    88238    88281    88318    88341    88353    88368    88379 
   88381    88388    88398    88404    88416    88442    88480    88527 
   88584    88653    88722    88785    88846    88902    88944    88965 
   88974    88983    88989    88992    89014    89048    89085    89136 
   89191    89247    89299    89332    89352    89363    89352    89324 
   89293    89262    89229    89191    89148    89098    89046    88990 
   88932    88885    88844    88800    88753    88697    88631    88554 
   88464    88369    88268    88161    88057    87949    87833    87721 
   87612    87497    87386    87282    87183    87088    86995    86892 
   86784    86672    86557    86431    86292    86144    86004    85869 
   85735    85619    85523    85418    85318    85249    85198    85159 
   85144    85136    85135    85151    85171    85194    85228    85275 
   85329    85384    85438    85494    85553    85612    85676    85743 
   85819    85904    85996    86093    86188    86270    86348    86421 
   86482    86536    86580    86618    86661    86705    86751    86803 
   86863    86922    86976    87029    87081    87123    87161    87183 
   87181    87181    87177    87151    87118    87080    87038    86999 
   86962    86929    86903    86886    86873    86863    86849    86827 
   86802    86771    86732    86690    86648    86605    86568    86539 
   86516    86495    86482    86485    86503    86533    86576    86620 
   86653    86679    86699    86710    86718    86726    86725    86714 
   86694    86659    86613    86557    86489    86408    86327    86242 
   86144    86051    85957    85845    85726    85594    85437    85280 
   85128    84956    84785    84630    84485    84349    84225    84111 
   84011    83922    83840    83764    83695    83635    83578    83532 
   83497    83469    83439    83401    83358    83317    83270    83220 
   83172    83131    83100    83077    83079    83108    83153    83211 
   83285    83367    83446    83523    83597    83655    83700    83737 
   83762    83779    83806    83839    83878    83932    83992    84051 
   84107    84159    84194    84219    84245    84250    84238    84235 
   84238    84234    84234    84241    84249    84254    84262    84281 
   84312    84349    84395    84454    84530    84620    84719    84821 
   84933    85043    85143    85249    85359    85469    85592    85726 
   85869    86027    86194    86373    86555    86736    86922    87115 
   87305    87501    87704    87912    88122    88333    88545    88762 
   88974    89183    89392    89595    89796    89993    90178    90358 
   90522    90659    90783    90900    91004    91102    91197    91289 
   91378    91457    91516    91565    91602    91616    91608    91586 
   91548    91508    91459    91400    91336    91273    91206    91122 
   91027    90930    90823    90709    90593    90474    90350    90221 
   90089    89951    89802    89648    89498    89345    89185    89013 
   88828    88639    88452    88263    88079    87907    87747    87596 
   87450    87305    87165    87030    86896    86757    86616    86471 
   86332    86192    86039    85878    85722    85564    85399    85233 
   85070    84917    84770    84638    84531    84441    84361    84306 
   84272    84253    84241    84229    84218    84206    84186    84156 
   84122    84086    84042    83990    83936    83887    83845    83816 
   83801    83797    83808    83825    83845    83872    83905    83940 
   83971    84003    84042    84084    84127    84173    84217    84265 
   84321    84377    84439    84507    84584    84670    84762    84866 
   84979    85093    85198    85295    85383    85459    85522    85579 
   85630    85683    85745    85816    85896    85989    86088    86196 
   86309    86422    86533    86636    86732    86822    86907    86983 
   87053    87118    87176    87235    87301    87377    87465    87556 
   87651    87756    87871    87991    88118    88241    88352    88445 
   88516    88578    88641    88692    88730    88767    88804    88839 
   88869    88879    88886    88890    88878    88861    88835    88798 
   88759    88717    88672    88626    88578    88526    88469    88412 
   88358    88308    88261    88223    88199    88180    88169    88167 
   88156    88142    88128    88098    88052    87998    87930    87852 
   87768    87674    87575    87478    87373    87262    87150    87038 
   86921    86802    86684    86559    86435    86316    86192    86078 
   85990    85920    85869    85834    85811    85808    85814    85814 
   85827    85850    85872    85892    85909    85924    85939    85955 
   85982    86011    86027    86044    86073    86101    86127    86155 
   86190    86227    86269    86320    86370    86414    86462    86503 
   86539    86567    86583    86591    86587    86563    86521    86462 
   86389    86304    86211    86113    86020    85932    85839    85742 
   85654    85563    85465    85372    85279    85190    85108    85025 
   84951    84888    84834    84790    84747    84700    84653    84600 
   84543    84487    84426    84361    84292    84221    84149    84068 
   83982    83905    83829    83755    83691    83629    83573    83532 
   83502    83478    83457    83442    83425    83400    83373    83342 
   83305    83270    83231    83185    83145    83111    83080    83060 
   83047    83041    83049    83076    83122    83185    83272    83384 
   83524    83689    83866    84064    84280    84497    84713    84931 
   85141    85341    85526    85696    85860    86022    86181    86351 
   86537    86728    86921    87130    87350    87577    87817    88069 
   88333    88604    88871    89141    89419    89684    89924    90151 
   90360    90541    90705    90853    90984    91107    91223    91328 
   91423    91509    91589    91665    91732    91794    91847    91887 
   91921    91944    91939    91922    91909    91879    91841    91816 
   91787    91756    91729    91696    91651    91601    91550    91496 
   91436    91374    91304    91218    91116    91002    90876    90747 
   90617    90494    90381    90267    90161    90069    89982    89895 
   89802    89706    89596    89473    89345    89208    89059    88908 
   88744    88569    88395    88222    88045    87874    87708    87546 
   87396    87254    87112    86973    86836    86699    86564    86416 
   86254    86100    85939    85764    85596    85429    85245    85062 
   84889    84720    84562    84420    84289    84169    84069    83988 
   83925    83875    83836    83803    83779    83762    83745    83732 
   83721    83705    83690    83683    83679    83678    83681    83685 
   83694    83714    83740    83774    83816    83863    83917    83983 
   84059    84137    84221    84316    84418    84516    84615    84713 
   84812    84916    85018    85113    85209    85301    85382    85455 
   85517    85564    85591    85602    85606    85602    85583    85561 
   85552    85548    85548    85561    85576    85590    85610    85630 
   85652    85675    85704    85743    85777    85814    85874    85931 
   85985    86065    86148    86225    86312    86401    86483    86567 
   86652    86732    86798    86863    86923    86964    86988    87002 
   87000    86979    86933    86872    86798    86715    86638    86564 
   86491    86421    86355    86298    86246    86193    86155    86134 
   86121    86112    86108    86117    86127    86125    86119    86108 
   86082    86040    85989    85931    85858    85788    85722    85653 
   85591    85534    85479    85434    85398    85365    85344    85326 
   85306    85284    85257    85216    85164    85106    85045    84979 
   84912    84850    84792    84747    84720    84690    84662    84643 
   84632    84624    84618    84613    84609    84604    84597    84588 
   84577    84572    84577    84586    84595    84616    84650    84681 
   84719    84766    84816    84869    84924    84985    85055    85126 
   85199    85271    85341    85413    85484    85548    85603    85664 
   85723    85772    85822    85869    85909    85955    86001    86049 
   86108    86179    86270    86386    86505    86633    86779    86926 
   87072    87226    87380    87524    87658    87783    87899    87999 
   88086    88164    88231    88300    88377    88453    88535    88620 
   88705    88790    88867    88931    88983    89027    89068    89108 
   89145    89190    89241    89289    89332    89371    89403    89426 
   89441    89434    89406    89367    89311    89243    89170    89085 
   88990    88890    88785    88684    88589    88492    88406    88337 
   88275    88223    88188    88152    88115    88086    88047    87998 
   87945    87883    87818    87747    87670    87593    87513    87436 
   87370    87299    87230    87180    87137    87096    87065    87035 
   86998    86961    86933    86900    86867    86845    86837    86838 
   86854    86879    86899    86922    86942    86953    86956    86952 
   86937    86923    86906    86876    86848    86825    86803    86784 
   86769    86761    86764    86767    86760    86752    86744    86721 
   86687    86652    86609    86555    86505    86458    86417    86391 
   86378    86378    86395    86417    86444    86471    86487    86497 
   86491    86460    86417    86360    86290    86216    86135    86055 
   85985    85915    85846    85791    85746    85708    85679    85653 
   85631    85612    85595    85577    85565    85561    85554    85553 
   85564    85575    85594    85627    85675    85735    85803    85888 
   85988    86090    86198    86310    86420    86525    86624    86713 
   86790    86853    86898    86925    86944    86952    86940    86921 
   86899    86875    86850    86826    86810    86795    86784    86782 
   86780    86783    86792    86806    86827    86848    86860    86869 
   86869    86850    86822    86792    86752    86701    86647    86587 
   86525    86459    86389    86317    86244    86175    86107    86051 
   86016    85988    85974    85984    86007    86046    86111    86194 
   86287    86385    86491    86601    86711    86829    86945    87053 
   87156    87253    87335    87403    87461    87505    87534    87556 
   87573    87578    87578    87575    87571    87567    87561    87555 
   87556    87561    87559    87555    87552    87546    87538    87531 
   87516    87494    87473    87444    87404    87362    87316    87257 
   87185    87106    87021    86931    86845    86764    86690    86620 
   86560    86503    86443    86382    86328    86275    86221    86166 
   86111    86066    86028    85985    85942    85905    85864    85816 
   85772    85722    85665    85612    85560    85507    85459    85422 
   85394    85365    85334    85299    85267    85236    85199    85171 
   85152    85136    85126    85126    85133    85149    85168    85194 
   85233    85278    85325    85386    85459    85537    85615    85698 
   85787    85876    85969    86058    86142    86232    86324    86405 
   86493    86590    86679    86769    86863    86946    87034    87126 
   87216    87300    87373    87438    87498    87540    87562    87573 
   87577    87563    87531    87492    87447    87390    87328    87264 
   87196    87131    87064    86999    86945    86894    86840    86800 
   86769    86745    86738    86745    86755    86769    86794    86821 
   86848    86879    86910    86935    86958    86977    86980    86971 
   86957    86934    86895    86852    86811    86769    86722    86676 
   86630    86582    86528    86470    86408    86354    86310    86273 
   86236    86206    86192    86178    86151    86115    86071    86020 
   85963    85899    85830    85765    85710    85662    85629    85607 
