Origin Time       2025/01/13 21:19:00
Lat.              31.8
Long.             131.6
Depth. (km)       30
Mag.              6.9
Station Code      YMGH04
Station Lat.      34.0270
Station Long.     132.0626
Station Height(m) 175
Record Time       2025/01/13 21:20:17
Sampling Freq(Hz) 100Hz
Duration Time(s)  137
Dir.              6
Scale Factor      7845(gal)/8223790
Max. Acc. (gal)   1.572
Last Correction   2025/01/13 21:20:00
Memo.             
[...]
    1402     1414     1426     1418     1393     1370     1339     1287 
    1231     1182     1165     1167     1135     1075     1026      992 
     993     1011     1000      981      978      967      943      919 
     880      830      808      827      873      924      962      996 
    1026     1043     1063     1055     1005      973      978      989 
     988      969      958      976      997      999      981      978 
    1001     1027     1050     1067     1044     1020     1034     1024 
     978      962      967      978     1020     1074     1144     1232 
    1290     1333     1371     1366     1350     1356     1360     1355 
    1359     1385     1417     1437     1443     1436     1441     1468 
    1489     1482     1460     1456     1453     1409     1345     1286 
    1208     1113     1035      989      950      913      893      857 
     822      830      838      819      814      808      777      747 
     742      756      788      846      912      977     1061     1146 
    1181     1170     1158     1161     1177     1194     1182     1166 
    1182     1206     1240     1281     1312     1358     1412     1440 
    1464     1489     1490     1471     1441     1386     1321     1279 
    1255     1243     1235     1197     1154     1144     1136     1113 
    1107     1100     1067     1031     1011      999      967      934 
     923      908      878      904      985     1038     1067     1084 
    1071     1062     1059     1066     1092     1104     1116     1144 
    1159     1177     1217     1242     1237     1250     1293     1323 
    1325     1332     1339     1314     1244     1171     1136     1107 
    1066     1066     1101     1129     1146     1139     1135     1174 
    1244     1297     1305     1293     1273     1235     1224     1264 
    1290     1309     1359     1408     1441     1467     1464     1437 
    1418     1398     1367     1356     1355     1343     1337     1348 
    1354     1336     1324     1335     1356     1375     1363     1320 
    1289     1278     1262     1232     1190     1148     1120     1094 
    1074     1084     1108     1129     1144     1146     1138     1152 
    1183     1173     1104     1028      961      912      916      923 
     908      942     1011     1051     1090     1152     1205     1223 
    1224     1255     1297     1321     1381     1453     1468     1467 
    1479     1460     1405     1359     1328     1297     1286     1291 
    1300     1336     1375     1366     1321     1273     1243     1232 
    1219     1201     1156     1093     1071     1069     1044     1019 
     994      986     1000      990      974     1001     1047     1066 
    1084     1129     1189     1250     1305     1327     1314     1267 
    1182     1104     1069     1070     1100     1136     1142     1109 
    1067     1032     1001      959      891      826      789      772 
     762      772      807      847      864      853      828      795 
     761      762      822      892      974     1066     1108     1128 
    1183     1243     1259     1258     1285     1310     1287     1266 
    1275     1290     1318     1370     1418     1410     1351     1293 
    1255     1262     1294     1282     1244     1224     1212     1247 
    1313     1331     1328     1374     1448     1521     1567     1564 
    1552     1571     1582     1564     1544     1495     1416     1356 
    1305     1264     1278     1305     1298     1296     1298     1260 
    1216     1202     1185     1177     1190     1178     1158     1159 
    1155     1123     1069     1023      986      936      907      904 
     889      857      827      808      811      843      895      927 
     930      969     1043     1063     1038     1004      972      984 
     989      889      769      738      762      816      881      913 
     946     1005     1043     1040     1027     1026     1035     1059 
    1061     1035     1048     1096     1112     1107     1102     1115 
    1178     1244     1262     1255     1223     1161     1124     1113 
    1102     1092     1075     1066     1057     1013      978      992 
    1021     1080     1147     1192     1227     1244     1232     1210 
    1196     1188     1146     1085     1065     1048     1013      990 
     965      939      943      949      926      903      907      922 
     951      985     1005     1019     1051     1113     1162     1162 
    1136     1094     1053     1047     1069     1102     1136     1167 
    1198     1221     1248     1267     1254     1229     1209     1161 
    1085     1048     1059     1044     1035     1086     1147     1198 
    1273     1351     1405     1429     1448     1459     1443     1433 
    1441     1443     1445     1444     1418     1367     1278     1159 
    1077     1048     1013      966      951      977     1011     1040 
    1100     1186     1255     1312     1347     1314     1248     1225 
    1236     1237     1224     1197     1170     1146     1107     1086 
    1100     1082     1048     1061     1082     1088     1112     1132 
    1135     1158     1182     1161     1123     1101     1092     1101 
    1134     1166     1175     1185     1220     1244     1232     1209 
    1185     1188     1231     1262     1287     1328     1351     1358 
    1362     1355     1355     1363     1343     1293     1247     1216 
    1204     1212     1227     1221     1188     1148     1104     1040 
     992      978      959      942      934      908      866      831 
     824      841      864      911      972     1000     1000     1015 
    1054     1082     1109     1162     1212     1256     1317     1397 
    1486     1566     1638     1694     1714     1713     1694     1645 
    1599     1567     1499     1409     1360     1343     1289     1215 
    1156     1080      996      949      908      878      897      923 
     932      953      978      992     1008     1026     1015      982 
     950      928      946      986     1016     1044     1059     1069 
    1096     1129     1163     1188     1200     1225     1254     1263 
    1282     1320     1359     1410     1464     1497     1498     1472 
    1458     1462     1463     1467     1483     1497     1479     1425 
    1383     1371     1386     1421     1412     1360     1356     1383 
    1356     1308     1320     1383     1456     1530     1590     1617 
    1630     1652     1663     1669     1718     1767     1744     1702 
    1695     1687     1668     1652     1603     1544     1540     1561 
    1545     1526     1528     1509     1489     1506     1501     1432 
    1379     1377     1345     1273     1208     1147     1067     1001 
     989      986      945      913      903      854      797      769 
     734      673      606      565      564      589      623      633 
     614      618      639      622      584      575      599      633 
     675      747      812      849      892      923      924      943 
     976      970      939      931      939      951      977      990 
     988      984      990     1015     1047     1081     1134     1200 
    1271     1316     1321     1316     1294     1267     1256     1251 
    1260     1278     1269     1237     1217     1208     1196     1186 
    1209     1248     1243     1205     1175     1146     1108     1084 
    1069     1053     1048     1046     1040     1043     1008      930 
     873      835      812      811      823      845      877      934 
    1009     1061     1063     1067     1115     1148     1138     1140 
    1165     1167     1144     1127     1124     1090     1035      992 
     962      943      916      873      843      818      760      689 
     646      630      618      623      660      688      703      723 
     742      773      808      828      841      854      862      859 
     872      908      928      935      955      969      984     1023 
    1058     1062     1062     1053     1004      946      893      818 
     738      700      688      695      733      784      845      918 
     959      981     1017     1024      994      990      982      947 
     958      996     1000     1020     1085     1165     1237     1290 
    1331     1366     1394     1406     1382     1320     1231     1131 
    1040      978      932      892      864      828      789      781 
     814      859      889      905      936      972      999     1019 
    1017     1015     1046     1077     1078     1069     1058     1074 
    1102     1117     1169     1247     1275     1291     1345     1385 
    1394     1414     1421     1387     1343     1313     1283     1208 
    1111     1042     1019     1051     1059     1008      981      986 
    1013     1077     1147     1215     1271     1293     1300     1283 
    1252     1271     1327     1333     1298     1270     1236     1178 
    1089      980      903      885      904      927      918      868 
     845      873      897      920      957      955      923      896 
     878      870      857      835      819      800      788      801 
     823      831      818      812      826      832      854      904 
     932      959     1024     1050     1008      986     1015     1051 
    1081     1120     1179     1250     1343     1452     1557     1669 
    1756     1796     1837     1887     1942     2012     2053     2062 
    2081     2096     2115     2169     2235     2286     2315     2299 
    2255     2232     2222     2189     2139     2079     2023     2033 
    2065     2053     2054     2085     2095     2100     2093     2037 
    1957     1903     1876     1834     1777     1726     1669     1626 
    1587     1540     1539     1559     1539     1510     1476     1425 
    1406     1398     1355     1313     1289     1260     1239     1220 
    1170     1105     1054     1004      936      858      797      753 
     712      683      688      718      737      749      805      874 
     874      832      799      754      699      664      657      662 
     669      704      762      807      831      854      885      901 
     908      947      986      999     1028     1078     1105     1120 
    1144     1151     1140     1143     1138     1104     1082     1080 
    1062     1032     1023     1021      993      978      985      981 
    1004     1057     1096     1144     1224     1300     1360     1398 
    1397     1375     1359     1358     1360     1347     1321     1282 
    1231     1202     1194     1165     1113     1080     1065     1027 
     947      839      712      588      472      333      198       94 
      16       -9      -14      -31      -16       25       54       56 
      55       76      108      144      206      280      336      378 
     432      483      530      635      769      849      908     1001 
    1105     1183     1231     1233     1225     1260     1293     1308 
    1355     1413     1466     1495     1486     1512     1583     1660 
    1753     1842     1926     2037     2131     2187     2241     2277 
    2292     2316     2324     2305     2290     2295     2327     2380 
    2409     2398     2394     2425     2458     2471     2469     2458 
    2465     2481     2486     2471     2419     2339     2227     2084 
    1983     1908     1782     1655     1549     1428     1333     1273 
    1189     1104     1078     1109     1165     1219     1254     1267 
    1264     1242     1204     1166     1123     1070     1013      943 
     850      754      692      669      646      598      535      476 
     418      346      260      166       93       55       29       -2 
     -33      -45      -22       47      128      179      252      380 
     507      623      753      865      963     1059     1128     1186 
    1251     1318     1390     1445     1486     1545     1610     1661 
    1698     1726     1759     1784     1799     1823     1848     1873 
    1917     1929     1896     1888     1872     1802     1746     1684 
    1556     1433     1363     1289     1188     1109     1085     1058 
     999      951      907      853      822      820      847      912 
    1013     1128     1223     1313     1425     1524     1583     1622 
    1648     1672     1723     1759     1748     1752     1753     1715 
    1686     1669     1609     1528     1495     1482     1455     1437 
    1390     1312     1255     1200     1138     1097     1066     1017 
     955      882      780      703      711      710      677      683 
     664      608      591      581      546      538      565      584 
     589      612      643      657      646      611      584      602 
     638      664      681      706      731      729      675      614 
     602      610      599      572      530      486      449      410 
     356      292      260      249      214      149       98       58 
     -29     -149     -233     -271     -287     -318     -386     -445 
    -449     -423     -400     -357     -274     -168      -76        6 
      74      105      121      128      136      194      274      325 
     383      464      521      580      668      726      764      815 
     851      892      949      965      958      967      989     1028 
    1077     1129     1185     1229     1286     1363     1440     1518 
    1615     1695     1738     1806     1895     1927     1937     1988 
    2022     1998     1975     2012     2080     2142     2223     2315 
    2376     2435     2515     2567     2583     2625     2689     2705 
    2706     2728     2731     2744     2783     2797     2779     2745 
    2687     2612     2531     2439     2369     2322     2258     2181 
    2106     2015     1914     1827     1772     1733     1699     1656 
    1579     1505     1463     1404     1332     1306     1320     1333 
    1348     1378     1414     1428     1435     1456     1487     1517 
    1507     1453     1416     1389     1368     1372     1364     1351 
    1358     1358     1335     1289     1239     1200     1162     1112 
    1054     1001      962      919      855      812      796      765 
     742      724      687      665      670      685      693      680 
     691      756      804      826      864      904      951     1017 
    1061     1075     1090     1109     1139     1181     1233     1287 
    1333     1383     1441     1493     1532     1539     1516     1525 
    1574     1590     1566     1536     1518     1525     1541     1536 
    1505     1475     1462     1474     1494     1476     1443     1440 
    1420     1374     1344     1294     1202     1111     1005      888 
     781      676      589      513      410      340      326      317 
     319      341      372      444      544      637      730      797 
     832      888      961     1035     1120     1205     1271     1294 
    1283     1287     1290     1255     1229     1224     1200     1178 
    1174     1146     1082     1005      928      845      743      621 
     487      388      337      284      199      113       45        0 
     -31      -87     -153     -170     -168     -193     -198     -187 
    -186     -170     -122      -41       48      128      213      298 
     368      434      502      571      645      720      785      831 
     862      901      965     1023     1074     1125     1151     1192 
    1267     1312     1336     1389     1447     1501     1574     1642 
    1688     1745     1825     1896     1944     1976     2010     2070 
    2143     2203     2246     2295     2336     2346     2323     2274 
    2219     2184     2130     2031     1939     1877     1813     1736 
    1653     1588     1541     1487     1417     1350     1309     1275 
    1228     1175     1125     1075     1044     1024      982      935 
     936      986     1031     1050     1075     1115     1161     1224 
    1277     1283     1298     1360     1425     1464     1498     1534 
    1557     1551     1529     1510     1471     1433     1412     1358 
    1297     1298     1336     1364     1395     1429     1436     1455 
    1498     1487     1453     1475     1502     1503     1485     1448 
    1418     1408     1409     1406     1394     1386     1370     1340 
    1305     1256     1193     1128     1066     1012      974      954 
     943      955      963      945      943      959      953      953 
     963      934      895      878      876      895      911      909 
     924      950      969      992     1031     1086     1150     1200 
    1231     1287     1385     1467     1530     1614     1707     1803 
    1883     1938     2016     2114     2188     2255     2327     2369 
    2362     2332     2300     2241     2164     2096     2011     1914 
    1841     1768     1686     1609     1510     1398     1305     1219 
    1112     1016      967      942      900      854      832      831 
     832      816      785      758      726      654      560      480 
     418      357      294      211      110       31      -17      -68 
    -122     -140     -118      -79      -17       44       82      148 
     253      360      463      558      637      712      783      862 
     950     1024     1100     1181     1242     1302     1366     1390 
    1360     1318     1298     1282     1247     1198     1143     1102 
    1058      967      847      726      618      530      460      398 
     341      301      268      230      232      270      291      326 
     407      491      572      688      811      905     1012     1123 
    1206     1283     1343     1387     1460     1545     1620     1705 
    1784     1840     1873     1892     1931     1995     2035     2047 
    2065     2104     2153     2177     2180     2172     2158     2138 
    2131     2146     2139     2091     2050     2015     1948     1871 
    1795     1721     1691     1692     1669     1640     1628     1637 
    1647     1638     1629     1621     1590     1545     1503     1482 
    1462     1421     1402     1390     1356     1354     1363     1340 
    1318     1289     1235     1197     1151     1086     1059     1050 
    1020     1000     1005     1007      997      990      967      932 
     934      966      990      990      981      989      989      953 
     916      911      913      904      881      850      823      819 
     822      781      726      710      691      653      634      581 
     492      434      371      278      210      145       59      -10 
     -56      -97     -120     -116     -102      -75      -28       39 
     136      279      444      598      778      993     1179     1324 
    1458     1597     1740     1865     1953     2030     2122     2212 
    2263     2289     2324     2349     2353     2343     2293     2208 
    2151     2110     2037     1952     1872     1783     1707     1655 
    1611     1570     1526     1474     1425     1378     1325     1290 
    1263     1221     1209     1223     1235     1247     1251     1271 
    1329     1382     1402     1410     1405     1387     1386     1374 
    1328     1294     1297     1287     1239     1170     1102     1026 
     957      886      787      703      650      584      530      523 
     541      567      606      664      738      823      908      981 
    1028     1046     1031     1000      967      916      859      830 
     799      762      766      792      787      762      738      722 
