Origin Time       2025/01/13 21:19:00
Lat.              31.8
Long.             131.6
Depth. (km)       30
Mag.              6.9
Station Code      YMGH07
Station Lat.      34.1149
Station Long.     131.0506
Station Height(m) -170
Record Time       2025/01/13 21:20:19
Sampling Freq(Hz) 100Hz
Duration Time(s)  138
Dir.              1
Scale Factor      3923(gal)/8224838
Max. Acc. (gal)   0.953
Last Correction   2025/01/13 21:20:20
Memo.             
[...]
   -2710    -2727    -2744    -2759    -2760    -2745    -2724    -2704 
   -2686    -2675    -2679    -2687    -2694    -2705    -2720    -2731 
   -2736    -2735    -2724    -2712    -2693    -2664    -2629    -2594 
   -2560    -2523    -2484    -2443    -2400    -2359    -2331    -2316 
   -2307    -2297    -2296    -2301    -2311    -2330    -2358    -2381 
   -2398    -2411    -2420    -2432    -2447    -2461    -2470    -2477 
   -2485    -2500    -2516    -2531    -2551    -2569    -2585    -2601 
   -2608    -2604    -2597    -2589    -2578    -2567    -2555    -2544 
   -2542    -2550    -2560    -2571    -2582    -2587    -2592    -2594 
   -2593    -2590    -2582    -2565    -2543    -2517    -2490    -2470 
   -2457    -2442    -2420    -2393    -2369    -2349    -2328    -2311 
   -2296    -2278    -2265    -2254    -2242    -2234    -2224    -2211 
   -2196    -2178    -2162    -2153    -2155    -2165    -2177    -2188 
   -2205    -2230    -2251    -2269    -2282    -2297    -2322    -2355 
   -2390    -2436    -2494    -2551    -2602    -2654    -2701    -2737 
   -2770    -2805    -2845    -2889    -2926    -2965    -3005    -3038 
   -3069    -3102    -3127    -3150    -3172    -3190    -3203    -3211 
   -3210    -3202    -3186    -3165    -3152    -3142    -3140    -3146 
   -3153    -3150    -3137    -3117    -3078    -3018    -2956    -2894 
   -2830    -2779    -2744    -2718    -2700    -2693    -2693    -2701 
   -2716    -2733    -2749    -2754    -2745    -2732    -2713    -2689 
   -2664    -2646    -2637    -2635    -2625    -2620    -2616    -2604 
   -2589    -2573    -2551    -2535    -2525    -2521    -2519    -2511 
   -2496    -2478    -2462    -2444    -2432    -2424    -2417    -2417 
   -2424    -2436    -2454    -2470    -2485    -2501    -2516    -2535 
   -2562    -2579    -2589    -2598    -2598    -2597    -2594    -2590 
   -2593    -2598    -2604    -2608    -2605    -2593    -2583    -2571 
   -2558    -2548    -2546    -2548    -2555    -2562    -2577    -2597 
   -2620    -2646    -2667    -2685    -2708    -2735    -2763    -2787 
   -2809    -2839    -2876    -2916    -2955    -2990    -3019    -3048 
   -3063    -3067    -3067    -3057    -3034    -3013    -2991    -2964 
   -2932    -2899    -2860    -2818    -2782    -2752    -2733    -2718 
   -2705    -2695    -2685    -2666    -2643    -2616    -2583    -2554 
   -2531    -2511    -2494    -2485    -2477    -2470    -2463    -2452 
   -2434    -2407    -2381    -2361    -2343    -2328    -2317    -2312 
   -2311    -2313    -2317    -2328    -2342    -2358    -2376    -2394 
   -2412    -2421    -2417    -2405    -2394    -2385    -2378    -2374 
   -2380    -2397    -2424    -2451    -2475    -2494    -2511    -2536 
   -2570    -2606    -2644    -2681    -2713    -2744    -2774    -2805 
   -2835    -2860    -2883    -2902    -2917    -2929    -2937    -2940 
   -2940    -2943    -2947    -2952    -2960    -2968    -2967    -2961 
   -2960    -2956    -2944    -2925    -2901    -2876    -2859    -2840 
   -2818    -2795    -2763    -2721    -2685    -2659    -2644    -2632 
   -2614    -2596    -2571    -2538    -2504    -2474    -2444    -2417 
   -2392    -2366    -2344    -2326    -2311    -2303    -2300    -2303 
   -2308    -2316    -2324    -2328    -2330    -2331    -2328    -2323 
   -2317    -2311    -2305    -2305    -2320    -2350    -2388    -2428 
   -2470    -2504    -2529    -2548    -2558    -2559    -2560    -2555 
   -2543    -2539    -2538    -2532    -2524    -2511    -2493    -2478 
   -2467    -2459    -2455    -2461    -2482    -2520    -2570    -2625 
   -2679    -2735    -2790    -2841    -2891    -2936    -2980    -3028 
   -3069    -3103    -3130    -3144    -3148    -3152    -3150    -3140 
   -3127    -3107    -3078    -3052    -3032    -3007    -2979    -2945 
   -2902    -2855    -2803    -2748    -2694    -2648    -2609    -2575 
   -2548    -2521    -2494    -2465    -2434    -2405    -2385    -2376 
   -2369    -2361    -2355    -2349    -2334    -2315    -2295    -2268 
   -2239    -2209    -2174    -2138    -2099    -2056    -2011    -1965 
   -1918    -1876    -1845    -1825    -1809    -1794    -1779    -1773 
   -1780    -1788    -1810    -1849    -1888    -1929    -1969    -2012 
   -2056    -2099    -2149    -2204    -2265    -2331    -2400    -2470 
   -2533    -2589    -2632    -2664    -2686    -2698    -2705    -2709 
   -2710    -2710    -2713    -2718    -2721    -2721    -2717    -2710 
   -2710    -2718    -2731    -2740    -2754    -2766    -2772    -2781 
   -2786    -2791    -2812    -2840    -2870    -2902    -2934    -2964 
   -2988    -3009    -3029    -3051    -3071    -3092    -3118    -3146 
   -3177    -3202    -3214    -3217    -3215    -3206    -3191    -3179 
   -3165    -3152    -3136    -3117    -3096    -3071    -3040    -3002 
   -2953    -2903    -2859    -2825    -2802    -2789    -2782    -2776 
   -2771    -2762    -2745    -2736    -2739    -2741    -2739    -2731 
   -2710    -2681    -2647    -2610    -2579    -2551    -2523    -2502 
   -2488    -2471    -2462    -2458    -2450    -2440    -2435    -2431 
   -2427    -2425    -2425    -2432    -2439    -2444    -2448    -2447 
   -2446    -2444    -2439    -2430    -2415    -2393    -2371    -2343 
   -2304    -2272    -2247    -2218    -2189    -2162    -2134    -2112 
   -2097    -2088    -2083    -2083    -2083    -2085    -2092    -2101 
   -2115    -2133    -2146    -2155    -2170    -2188    -2208    -2231 
   -2254    -2273    -2288    -2301    -2312    -2320    -2330    -2339 
   -2349    -2363    -2384    -2409    -2438    -2467    -2496    -2524 
   -2552    -2581    -2608    -2635    -2660    -2679    -2693    -2710 
   -2736    -2759    -2783    -2816    -2852    -2893    -2940    -2988 
   -3038    -3087    -3126    -3161    -3192    -3217    -3231    -3238 
   -3242    -3249    -3260    -3272    -3289    -3306    -3314    -3311 
   -3294    -3262    -3225    -3188    -3159    -3130    -3105    -3083 
   -3064    -3042    -3029    -3025    -3022    -3017    -3010    -3001 
   -2991    -2975    -2949    -2917    -2883    -2841    -2795    -2751 
   -2705    -2655    -2612    -2577    -2550    -2535    -2528    -2520 
   -2511    -2504    -2504    -2500    -2488    -2478    -2469    -2461 
   -2457    -2454    -2454    -2455    -2447    -2430    -2412    -2398 
   -2396    -2404    -2415    -2427    -2439    -2446    -2447    -2444 
   -2443    -2444    -2450    -2459    -2471    -2490    -2513    -2535 
   -2558    -2587    -2617    -2647    -2678    -2705    -2735    -2766 
   -2793    -2816    -2835    -2843    -2845    -2845    -2840    -2837 
   -2832    -2820    -2814    -2812    -2810    -2817    -2825    -2837 
   -2856    -2883    -2911    -2933    -2951    -2968    -2974    -2963 
   -2943    -2914    -2878    -2832    -2775    -2713    -2651    -2593 
   -2540    -2489    -2443    -2404    -2370    -2343    -2331    -2339 
   -2355    -2366    -2376    -2386    -2398    -2409    -2415    -2417 
   -2420    -2421    -2419    -2412    -2404    -2389    -2365    -2340 
   -2317    -2296    -2284    -2277    -2276    -2288    -2308    -2338 
   -2377    -2419    -2457    -2488    -2512    -2525    -2532    -2533 
   -2532    -2525    -2520    -2520    -2523    -2527    -2529    -2532 
   -2539    -2551    -2565    -2582    -2609    -2646    -2691    -2740 
   -2789    -2843    -2890    -2926    -2951    -2964    -2970    -2968 
   -2960    -2944    -2929    -2914    -2901    -2890    -2882    -2878 
   -2880    -2879    -2871    -2857    -2837    -2813    -2793    -2776 
   -2767    -2766    -2764    -2760    -2755    -2745    -2727    -2701 
   -2674    -2640    -2606    -2582    -2559    -2544    -2548    -2558 
   -2571    -2589    -2601    -2610    -2620    -2636    -2656    -2682 
   -2708    -2732    -2755    -2774    -2787    -2799    -2816    -2829 
   -2837    -2844    -2848    -2848    -2844    -2833    -2818    -2803 
   -2786    -2764    -2735    -2700    -2666    -2632    -2598    -2566 
   -2533    -2504    -2479    -2455    -2432    -2420    -2411    -2400 
   -2394    -2388    -2382    -2384    -2381    -2369    -2357    -2350 
   -2346    -2344    -2351    -2362    -2376    -2394    -2420    -2448 
   -2482    -2517    -2555    -2601    -2651    -2694    -2736    -2774 
   -2803    -2828    -2844    -2852    -2856    -2852    -2841    -2825 
   -2806    -2791    -2783    -2785    -2793    -2795    -2799    -2810 
   -2817    -2828    -2851    -2879    -2916    -2961    -3007    -3053 
   -3099    -3130    -3146    -3160    -3163    -3153    -3141    -3123 
   -3096    -3069    -3052    -3034    -3018    -3005    -2984    -2963 
   -2949    -2937    -2925    -2913    -2901    -2887    -2879    -2880 
   -2883    -2890    -2911    -2941    -2967    -2988    -2999    -3002 
   -3001    -2987    -2965    -2933    -2897    -2862    -2825    -2786 
   -2745    -2705    -2668    -2637    -2606    -2575    -2551    -2539 
   -2540    -2556    -2581    -2602    -2616    -2617    -2614    -2613 
   -2601    -2583    -2565    -2539    -2511    -2489    -2463    -2430 
   -2396    -2365    -2336    -2308    -2276    -2239    -2203    -2165 
   -2124    -2088    -2054    -2022    -1995    -1976    -1968    -1969 
   -1969    -1968    -1969    -1968    -1968    -1968    -1966    -1961 
   -1960    -1966    -1979    -1993    -2014    -2031    -2047    -2064 
   -2076    -2089    -2101    -2112    -2124    -2137    -2151    -2177 
   -2211    -2242    -2273    -2301    -2317    -2330    -2343    -2358 
   -2374    -2394    -2412    -2431    -2454    -2478    -2500    -2523 
   -2540    -2558    -2579    -2605    -2632    -2664    -2700    -2736 
   -2772    -2809    -2841    -2870    -2891    -2907    -2921    -2930 
   -2941    -2956    -2979    -3003    -3030    -3057    -3082    -3106 
   -3125    -3136    -3141    -3148    -3152    -3148    -3140    -3130 
   -3119    -3113    -3110    -3106    -3100    -3098    -3096    -3092 
   -3080    -3061    -3042    -3026    -3014    -3005    -2998    -2991 
   -2983    -2972    -2957    -2944    -2925    -2899    -2871    -2847 
   -2826    -2813    -2801    -2791    -2783    -2782    -2779    -2774 
   -2772    -2764    -2745    -2724    -2704    -2693    -2690    -2687 
   -2675    -2663    -2647    -2623    -2596    -2574    -2547    -2517 
   -2484    -2440    -2393    -2343    -2296    -2255    -2216    -2181 
   -2157    -2134    -2112    -2100    -2091    -2079    -2074    -2081 
   -2089    -2101    -2112    -2126    -2135    -2141    -2147    -2155 
   -2165    -2178    -2195    -2209    -2223    -2241    -2254    -2261 
   -2266    -2272    -2266    -2258    -2249    -2236    -2222    -2209 
   -2199    -2184    -2172    -2164    -2157    -2154    -2162    -2172 
   -2181    -2192    -2200    -2203    -2208    -2216    -2218    -2209 
   -2199    -2191    -2184    -2187    -2200    -2220    -2246    -2277 
   -2308    -2339    -2369    -2397    -2427    -2458    -2489    -2525 
   -2563    -2602    -2643    -2689    -2737    -2783    -2826    -2870 
   -2913    -2952    -2984    -3011    -3030    -3044    -3059    -3073 
   -3090    -3109    -3136    -3169    -3200    -3225    -3242    -3257 
   -3267    -3265    -3256    -3242    -3225    -3206    -3187    -3167 
   -3145    -3118    -3084    -3053    -3022    -2999    -2986    -2976 
   -2972    -2974    -2974    -2978    -2982    -2980    -2979    -2974 
   -2963    -2948    -2929    -2906    -2879    -2849    -2828    -2812 
   -2801    -2795    -2794    -2798    -2806    -2818    -2828    -2839 
   -2853    -2862    -2872    -2889    -2905    -2925    -2949    -2968 
   -2979    -2984    -2986    -2984    -2979    -2968    -2952    -2925 
   -2887    -2837    -2778    -2712    -2639    -2565    -2492    -2417 
   -2346    -2286    -2231    -2176    -2123    -2072    -2018    -1961 
   -1900    -1840    -1783    -1730    -1679    -1632    -1598    -1580 
   -1567    -1553    -1549    -1557    -1563    -1570    -1580    -1588 
   -1598    -1611    -1620    -1629    -1644    -1656    -1671    -1694 
   -1718    -1738    -1765    -1798    -1827    -1861    -1900    -1942 
   -1995    -2056    -2118    -2189    -2266    -2342    -2421    -2502 
   -2582    -2664    -2749    -2830    -2910    -2990    -3064    -3136 
   -3207    -3276    -3348    -3416    -3480    -3541    -3601    -3661 
   -3720    -3781    -3847    -3913    -3967    -4014    -4051    -4067 
   -4066    -4052    -4025    -3982    -3927    -3865    -3801    -3743 
   -3690    -3645    -3603    -3558    -3512    -3464    -3411    -3364 
   -3322    -3283    -3248    -3221    -3192    -3161    -3125    -3080 
   -3028    -2967    -2894    -2817    -2741    -2664    -2589    -2515 
   -2442    -2366    -2295    -2232    -2172    -2108    -2041    -1972 
   -1906    -1838    -1775    -1719    -1665    -1617    -1576    -1533 
   -1493    -1463    -1432    -1402    -1378    -1355    -1333    -1310 
   -1286    -1267    -1250    -1235    -1231    -1239    -1258    -1285 
   -1318    -1356    -1402    -1453    -1503    -1552    -1598    -1647 
   -1698    -1748    -1798    -1853    -1911    -1971    -2029    -2091 
   -2158    -2228    -2300    -2381    -2466    -2550    -2632    -2722 
   -2813    -2897    -2980    -3064    -3144    -3223    -3311    -3403 
   -3497    -3596    -3693    -3786    -3870    -3943    -4005    -4067 
   -4128    -4189    -4247    -4299    -4351    -4406    -4459    -4500 
   -4537    -4569    -4600    -4623    -4630    -4629    -4621    -4604 
   -4579    -4549    -4510    -4461    -4399    -4328    -4257    -4183 
   -4108    -4029    -3948    -3863    -3773    -3674    -3568    -3464 
   -3362    -3257    -3154    -3053    -2948    -2843    -2737    -2631 
   -2523    -2416    -2309    -2207    -2111    -2018    -1923    -1836 
   -1755    -1679    -1609    -1540    -1471    -1409    -1359    -1317 
   -1285    -1262    -1243    -1225    -1206    -1185    -1162    -1144 
   -1132    -1120    -1111    -1111    -1115    -1119    -1125    -1136 
   -1151    -1174    -1201    -1224    -1246    -1270    -1291    -1314 
   -1344    -1377    -1410    -1443    -1471    -1495    -1522    -1557 
   -1594    -1633    -1676    -1715    -1752    -1790    -1825    -1863 
   -1908    -1960    -2012    -2070    -2133    -2192    -2246    -2300 
   -2350    -2396    -2446    -2492    -2529    -2566    -2594    -2616 
   -2636    -2647    -2652    -2662    -2670    -2677    -2690    -2701 
   -2708    -2716    -2724    -2728    -2731    -2729    -2720    -2717 
   -2720    -2727    -2745    -2776    -2813    -2857    -2910    -2968 
   -3028    -3090    -3154    -3226    -3302    -3381    -3462    -3543 
   -3626    -3707    -3782    -3858    -3929    -3989    -4037    -4081 
   -4122    -4156    -4186    -4216    -4244    -4275    -4303    -4329 
   -4352    -4365    -4372    -4372    -4360    -4337    -4306    -4264 
   -4205    -4140    -4067    -3978    -3882    -3780    -3667    -3546 
   -3420    -3291    -3153    -3011    -2874    -2744    -2619    -2504 
   -2398    -2300    -2211    -2124    -2046    -1979    -1918    -1864 
   -1814    -1771    -1736    -1709    -1686    -1667    -1648    -1622 
   -1593    -1560    -1525    -1494    -1472    -1453    -1443    -1441 
   -1447    -1464    -1491    -1524    -1561    -1595    -1632    -1675 
   -1717    -1759    -1802    -1844    -1881    -1914    -1944    -1969 
   -1995    -2022    -2053    -2088    -2130    -2180    -2242    -2317 
   -2397    -2477    -2559    -2640    -2721    -2803    -2884    -2963 
   -3037    -3103    -3161    -3213    -3252    -3283    -3311    -3335 
   -3362    -3392    -3423    -3454    -3483    -3515    -3550    -3581 
   -3609    -3635    -3653    -3661    -3663    -3655    -3640    -3616 
   -3589    -3565    -3541    -3510    -3470    -3426    -3376    -3319 
   -3268    -3219    -3168    -3119    -3075    -3030    -2984    -2934 
   -2880    -2826    -2774    -2720    -2670    -2620    -2569    -2525 
   -2486    -2451    -2425    -2398    -2371    -2349    -2326    -2300 
   -2277    -2257    -2239    -2230    -2228    -2232    -2239    -2250 
   -2254    -2255    -2251    -2235    -2218    -2200    -2182    -2174 
   -2178    -2185    -2201    -2224    -2247    -2277    -2309    -2338 
   -2365    -2388    -2409    -2432    -2451    -2469    -2492    -2519 
   -2547    -2577    -2608    -2637    -2668    -2690    -2702    -2716 
   -2725    -2727    -2722    -2716    -2708    -2700    -2693    -2686 
   -2678    -2664    -2650    -2635    -2617    -2592    -2567    -2547 
   -2524    -2502    -2482    -2462    -2447    -2439    -2430    -2420 
   -2413    -2407    -2400    -2396    -2393    -2388    -2381    -2370 
   -2361    -2354    -2340    -2323    -2309    -2296    -2285    -2282 
   -2280    -2280    -2286    -2293    -2300    -2313    -2331    -2347 
   -2366    -2393    -2427    -2463    -2498    -2535    -2570    -2600 
   -2628    -2655    -2681    -2700    -2705    -2705    -2697    -2677 
   -2650    -2623    -2596    -2581    -2577    -2579    -2587    -2601 
   -2620    -2643    -2664    -2686    -2710    -2728    -2748    -2774 
   -2798    -2822    -2855    -2890    -2926    -2964    -2999    -3034 
   -3067    -3091    -3117    -3140    -3152    -3159    -3163    -3163 
   -3163    -3161    -3160    -3157    -3153    -3144    -3129    -3113 
   -3095    -3073    -3048    -3019    -2992    -2964    -2940    -2920 
   -2898    -2871    -2849    -2826    -2805    -2793    -2790    -2795 
   -2808    -2824    -2843    -2864    -2887    -2905    -2921    -2930 
   -2929    -2920    -2903    -2882    -2856    -2830    -2799    -2766 
   -2727    -2678    -2631    -2586    -2542    -2497    -2451    -2407 
   -2357    -2305    -2257    -2207    -2154    -2104    -2064    -2029 
   -1992    -1962    -1942    -1930    -1923    -1919    -1922    -1930 
   -1935    -1944    -1960    -1981    -2007    -2035    -2062    -2087 
   -2115    -2151    -2191    -2227    -2266    -2305    -2342    -2370 
   -2394    -2417    -2438    -2458    -2478    -2493    -2505    -2519 
   -2528    -2536    -2547    -2562    -2579    -2601    -2624    -2650 
   -2679    -2708    -2735    -2762    -2782    -2799    -2812    -2820 
   -2825    -2829    -2830    -2826    -2816    -2802    -2782    -2758 
   -2732    -2706    -2682    -2654    -2625    -2602    -2583    -2577 
   -2574    -2571    -2577    -2589    -2598    -2613    -2632    -2651 
   -2670    -2687    -2700    -2708    -2716    -2717    -2717    -2722 
   -2724    -2721    -2725    -2731    -2733    -2740    -2751    -2756 
   -2760    -2766    -2774    -2778    -2778    -2776    -2770    -2759 
   -2744    -2727    -2708    -2687    -2663    -2640    -2616    -2590 
   -2565    -2540    -2509    -2477    -2450    -2424    -2397    -2378 
   -2365    -2354    -2351    -2354    -2362    -2377    -2389    -2400 
   -2415    -2431    -2448    -2467    -2488    -2504    -2517    -2531 
   -2551    -2569    -2577    -2581    -2581    -2577    -2581    -2593 
   -2606    -2628    -2656    -2681    -2710    -2743    -2763    -2776 
   -2785    -2779    -2768    -2756    -2747    -2740    -2737    -2740 
   -2747    -2754    -2763    -2776    -2794    -2818    -2843    -2866 
   -2890    -2909    -2929    -2961    -2998    -3032    -3075    -3121 
