Origin Time       2025/01/13 21:19:00
Lat.              31.8
Long.             131.6
Depth. (km)       30
Mag.              6.9
Station Code      YMGH04
Station Lat.      34.0270
Station Long.     132.0626
Station Height(m) 175
Record Time       2025/01/13 21:20:17
Sampling Freq(Hz) 100Hz
Duration Time(s)  137
Dir.              5
Scale Factor      7845(gal)/8223790
Max. Acc. (gal)   2.773
Last Correction   2025/01/13 21:20:00
Memo.             
[...]
   -3267    -3261    -3269    -3285    -3302    -3308    -3280    -3234 
   -3218    -3221    -3233    -3272    -3307    -3310    -3306    -3299 
   -3269    -3238    -3227    -3210    -3215    -3271    -3287    -3246 
   -3223    -3198    -3130    -3057    -2986    -2899    -2821    -2768 
   -2729    -2725    -2775    -2822    -2840    -2883    -2960    -3032 
   -3064    -3040    -2978    -2914    -2880    -2879    -2898    -2910 
   -2899    -2886    -2886    -2925    -3007    -3060    -3056    -3044 
   -3042    -3055    -3067    -3013    -2902    -2833    -2825    -2820 
   -2797    -2756    -2716    -2740    -2829    -2897    -2926    -2928 
   -2887    -2837    -2793    -2737    -2668    -2604    -2565    -2570 
   -2609    -2639    -2647    -2654    -2700    -2798    -2887    -2924 
   -2956    -3025    -3129    -3249    -3335    -3349    -3321    -3311 
   -3327    -3331    -3311    -3275    -3231    -3230    -3258    -3264 
   -3265    -3253    -3199    -3165    -3154    -3107    -3048    -3009 
   -2974    -2957    -2979    -2992    -2992    -3038    -3109    -3148 
   -3172    -3196    -3222    -3249    -3276    -3280    -3240    -3180 
   -3159    -3181    -3210    -3210    -3164    -3099    -3098    -3187 
   -3254    -3231    -3176    -3129    -3096    -3092    -3069    -3005 
   -2986    -3049    -3122    -3175    -3234    -3273    -3281    -3287 
   -3264    -3184    -3087    -3010    -2948    -2897    -2880    -2871 
   -2844    -2874    -2957    -3033    -3110    -3172    -3198    -3211 
   -3203    -3138    -3053    -2979    -2906    -2852    -2821    -2794 
   -2789    -2802    -2833    -2898    -2943    -2918    -2895    -2914 
   -2951    -3009    -3073    -3079    -3038    -3018    -2984    -2890 
   -2781    -2709    -2686    -2700    -2752    -2839    -2916    -2974 
   -3002    -2980    -2964    -2999    -3034    -3040    -3030    -3049 
   -3114    -3180    -3204    -3202    -3211    -3237    -3257    -3275 
   -3302    -3335    -3343    -3295    -3214    -3125    -3029    -2952 
   -2914    -2918    -2948    -2967    -2947    -2884    -2787    -2685 
   -2610    -2579    -2587    -2585    -2560    -2570    -2621    -2694 
   -2790    -2890    -3002    -3126    -3203    -3210    -3190    -3157 
   -3110    -3073    -3037    -2972    -2937    -2961    -2990    -3030 
   -3095    -3114    -3057    -2983    -2932    -2916    -2952    -2986 
   -2964    -2948    -2976    -2997    -2988    -2982    -2998    -3041 
   -3069    -3036    -2991    -2990    -2991    -2967    -2943    -2910 
   -2876    -2880    -2875    -2810    -2756    -2732    -2700    -2685 
   -2685    -2663    -2701    -2844    -3002    -3134    -3242    -3281 
   -3262    -3267    -3314    -3369    -3407    -3385    -3285    -3175 
   -3115    -3073    -3014    -2956    -2924    -2907    -2903    -2938 
   -2991    -2994    -2971    -2933    -2836    -2741    -2697    -2666 
   -2660    -2679    -2662    -2606    -2570    -2578    -2624    -2679 
   -2712    -2716    -2721    -2776    -2876    -2941    -2971    -3033 
   -3127    -3229    -3314    -3330    -3303    -3287    -3250    -3190 
   -3133    -3071    -3053    -3142    -3284    -3418    -3523    -3547 
   -3487    -3410    -3331    -3219    -3122    -3068    -3006    -2922 
   -2863    -2825    -2793    -2787    -2816    -2852    -2901    -2929 
   -2920    -2918    -2941    -2971    -2976    -2953    -2934    -2944 
   -3007    -3123    -3230    -3291    -3300    -3284    -3267    -3250 
   -3261    -3284    -3271    -3235    -3194    -3149    -3110    -3071 
   -3041    -3055    -3136    -3206    -3149    -3006    -2891    -2812 
   -2771    -2794    -2786    -2725    -2766    -2903    -3014    -3095 
   -3122    -3071    -3075    -3156    -3187    -3167    -3114    -2999 
   -2910    -2890    -2840    -2774    -2756    -2725    -2670    -2659 
   -2659    -2685    -2816    -2963    -3057    -3156    -3208    -3191 
   -3195    -3234    -3225    -3165    -3103    -3044    -3009    -3038 
   -3086    -3106    -3118    -3130    -3154    -3200    -3245    -3258 
   -3218    -3144    -3080    -3028    -2982    -3006    -3111    -3211 
   -3273    -3291    -3204    -3072    -3009    -2968    -2901    -2884 
   -2897    -2880    -2899    -2929    -2862    -2767    -2732    -2709 
   -2720    -2818    -2899    -2899    -2864    -2795    -2736    -2786 
   -2916    -3052    -3156    -3140    -3024    -2968    -2990    -3015 
   -3030    -3002    -2928    -2872    -2830    -2794    -2772    -2751 
   -2748    -2767    -2786    -2794    -2760    -2689    -2659    -2713 
   -2805    -2875    -2902    -2889    -2866    -2851    -2821    -2794 
   -2820    -2875    -2916    -2918    -2880    -2830    -2818    -2857 
   -2934    -3087    -3281    -3393    -3411    -3411    -3424    -3441 
   -3426    -3357    -3254    -3190    -3186    -3187    -3188    -3237 
   -3325    -3400    -3429    -3438    -3442    -3430    -3420    -3406 
   -3380    -3356    -3338    -3318    -3267    -3213    -3223    -3261 
   -3279    -3281    -3252    -3208    -3180    -3148    -3110    -3099 
   -3117    -3137    -3175    -3258    -3335    -3329    -3245    -3137 
   -3038    -2975    -2957    -2951    -2937    -2938    -2956    -2951 
   -2932    -2940    -2992    -3057    -3065    -2995    -2876    -2776 
   -2766    -2801    -2812    -2799    -2733    -2646    -2640    -2674 
   -2687    -2729    -2775    -2776    -2772    -2724    -2578    -2435 
   -2361    -2286    -2199    -2118    -2015    -1929    -1934    -1996 
   -2072    -2160    -2231    -2290    -2370    -2458    -2497    -2494 
   -2493    -2497    -2520    -2604    -2713    -2814    -2932    -3003 
   -2987    -2987    -3041    -3099    -3136    -3099    -2987    -2917 
   -2944    -3036    -3165    -3273    -3323    -3353    -3393    -3430 
   -3429    -3389    -3333    -3281    -3289    -3356    -3414    -3456 
   -3477    -3447    -3364    -3237    -3090    -2948    -2862    -2848 
   -2849    -2859    -2882    -2880    -2875    -2944    -3094    -3272 
   -3429    -3549    -3657    -3793    -3942    -4033    -4063    -4062 
   -4050    -4055    -4077    -4045    -3943    -3815    -3672    -3493 
   -3299    -3130    -3005    -2957    -3024    -3087    -3052    -2994 
   -2948    -2895    -2886    -2886    -2805    -2714    -2712    -2740 
   -2771    -2828    -2844    -2852    -2961    -3088    -3114    -3036 
   -2901    -2799    -2802    -2855    -2845    -2781    -2758    -2803 
   -2887    -2987    -3064    -3126    -3217    -3291    -3323    -3342 
   -3323    -3265    -3225    -3231    -3257    -3238    -3153    -3045 
   -2988    -3029    -3096    -3103    -3084    -3087    -3090    -3136 
   -3257    -3381    -3465    -3539    -3595    -3647    -3748    -3823 
   -3790    -3721    -3678    -3666    -3707    -3774    -3775    -3666 
   -3547    -3504    -3507    -3539    -3569    -3514    -3426    -3430 
   -3481    -3487    -3519    -3597    -3628    -3627    -3635    -3569 
   -3418    -3292    -3200    -3115    -3125    -3241    -3352    -3434 
   -3526    -3608    -3678    -3739    -3742    -3655    -3527    -3400 
   -3248    -3056    -2895    -2820    -2806    -2830    -2855    -2863 
   -2878    -2891    -2832    -2668    -2450    -2259    -2145    -2081 
   -2011    -1929    -1895    -1938    -2027    -2124    -2181    -2188 
   -2193    -2205    -2191    -2145    -2114    -2108    -2122    -2181 
   -2238    -2241    -2242    -2245    -2246    -2312    -2430    -2524 
   -2610    -2732    -2844    -2922    -2997    -3067    -3154    -3294 
   -3438    -3532    -3586    -3604    -3580    -3545    -3535    -3546 
   -3530    -3483    -3439    -3429    -3435    -3416    -3349    -3287 
   -3294    -3338    -3376    -3392    -3369    -3338    -3365    -3408 
   -3395    -3345    -3283    -3213    -3184    -3198    -3180    -3126 
   -3133    -3223    -3354    -3483    -3543    -3577    -3667    -3767 
   -3808    -3773    -3696    -3624    -3557    -3484    -3415    -3369 
   -3350    -3357    -3410    -3477    -3496    -3447    -3341    -3196 
   -3049    -2926    -2839    -2818    -2884    -2991    -3067    -3095 
   -3095    -3046    -2956    -2866    -2745    -2583    -2436    -2359 
   -2358    -2421    -2505    -2515    -2457    -2432    -2447    -2467 
   -2520    -2563    -2508    -2396    -2282    -2139    -2003    -1911 
   -1815    -1765    -1849    -1998    -2150    -2323    -2467    -2554 
   -2662    -2747    -2725    -2656    -2571    -2470    -2450    -2535 
   -2627    -2739    -2903    -3028    -3099    -3168    -3187    -3152 
   -3153    -3179    -3164    -3122    -3032    -2879    -2755    -2704 
   -2675    -2664    -2700    -2732    -2704    -2668    -2664    -2675 
   -2712    -2760    -2781    -2818    -2938    -3110    -3233    -3254 
   -3223    -3203    -3233    -3327    -3435    -3496    -3514    -3495 
   -3496    -3585    -3701    -3755    -3754    -3731    -3738    -3843 
   -3998    -4085    -4093    -4025    -3874    -3721    -3577    -3377 
   -3163    -3009    -2902    -2825    -2782    -2728    -2693    -2794 
   -2983    -3137    -3248    -3308    -3285    -3181    -3044    -2897 
   -2782    -2745    -2710    -2617    -2496    -2392    -2346    -2332 
   -2300    -2263    -2288    -2401    -2573    -2716    -2778    -2802 
   -2860    -2956    -3060    -3115    -3088    -3029    -3009    -3072 
   -3210    -3314    -3333    -3316    -3298    -3283    -3281    -3241 
   -3103    -2929    -2782    -2627    -2470    -2370    -2285    -2197 
   -2181    -2211    -2227    -2278    -2355    -2393    -2438    -2515 
   -2565    -2610    -2735    -2895    -3024    -3167    -3304    -3379 
   -3458    -3520    -3447    -3327    -3289    -3300    -3343    -3419 
   -3465    -3510    -3623    -3739    -3800    -3832    -3817    -3731 
   -3584    -3375    -3156    -2934    -2664    -2438    -2359    -2382 
   -2482    -2613    -2639    -2597    -2625    -2647    -2575    -2450 
   -2276    -2096    -2034    -2060    -2045    -2061    -2189    -2355 
   -2547    -2749    -2883    -2968    -3044    -3046    -2988    -2949 
   -2925    -2889    -2864    -2868    -2928    -3079    -3267    -3420 
   -3545    -3589    -3488    -3330    -3210    -3126    -3065    -2980 
   -2845    -2729    -2659    -2597    -2551    -2551    -2583    -2650 
   -2702    -2659    -2552    -2428    -2272    -2111    -1989    -1906 
   -1863    -1877    -1927    -1956    -1966    -1972    -1973    -2047 
   -2215    -2397    -2579    -2748    -2872    -2991    -3118    -3207 
   -3262    -3339    -3445    -3562    -3716    -3858    -3902    -3878 
   -3807    -3674    -3553    -3508    -3510    -3532    -3608    -3743 
   -3901    -4101    -4314    -4456    -4561    -4689    -4781    -4812 
   -4833    -4834    -4797    -4799    -4858    -4892    -4884    -4855 
   -4788    -4695    -4603    -4477    -4320    -4202    -4125    -4032 
   -3898    -3724    -3538    -3368    -3221    -3065    -2871    -2691 
   -2601    -2592    -2633    -2675    -2659    -2641    -2652    -2667 
   -2689    -2714    -2735    -2743    -2759    -2805    -2839    -2816 
   -2743    -2679    -2648    -2612    -2559    -2512    -2533    -2660 
   -2812    -2853    -2744    -2570    -2421    -2308    -2222    -2126 
   -2034    -2038    -2091    -2085    -2019    -1923    -1856    -1875 
   -1931    -1935    -1880    -1848    -1904    -2004    -2046    -2016 
   -1964    -1902    -1830    -1746    -1630    -1529    -1502    -1499 
   -1480    -1468    -1444    -1424    -1459    -1528    -1625    -1755 
   -1848    -1912    -1991    -2054    -2080    -2081    -2079    -2097 
   -2137    -2192    -2236    -2243    -2273    -2373    -2517    -2736 
   -3055    -3411    -3771    -4168    -4552    -4849    -5080    -5232 
   -5256    -5216    -5165    -5078    -4982    -4915    -4824    -4687 
   -4540    -4392    -4236    -4106    -4027    -3952    -3862    -3781 
   -3685    -3547    -3385    -3222    -3096    -3034    -2987    -2882 
   -2762    -2736    -2844    -3032    -3222    -3388    -3555    -3785 
   -4077    -4351    -4583    -4781    -4916    -5001    -5094    -5196 
   -5285    -5381    -5482    -5560    -5626    -5688    -5714    -5707 
   -5722    -5748    -5744    -5736    -5725    -5684    -5624    -5549 
   -5458    -5358    -5247    -5096    -4901    -4664    -4374    -4097 
   -3838    -3538    -3253    -3056    -2898    -2762    -2674    -2571 
   -2390    -2205    -2088    -2023    -2026    -2087    -2137    -2193 
   -2312    -2455    -2562    -2664    -2812    -2988    -3186    -3393 
   -3558    -3665    -3740    -3805    -3865    -3912    -3959    -3991 
   -3946    -3823    -3667    -3485    -3314    -3217    -3113    -2928 
   -2759    -2636    -2535    -2494    -2457    -2377    -2359    -2421 
   -2438    -2371    -2316    -2312    -2371    -2527    -2646    -2633 
   -2639    -2695    -2714    -2751    -2813    -2816    -2832    -2941 
   -3042    -3122    -3215    -3215    -3123    -3100    -3133    -3136 
   -3150    -3171    -3172    -3233    -3358    -3461    -3537    -3605 
   -3667    -3743    -3813    -3843    -3836    -3792    -3720    -3645 
   -3572    -3487    -3392    -3319    -3267    -3198    -3100    -2976 
   -2822    -2655    -2515    -2405    -2269    -2076    -1857    -1687 
   -1663    -1802    -1984    -2085    -2145    -2258    -2419    -2539 
   -2558    -2461    -2309    -2200    -2126    -2008    -1896    -1863 
   -1860    -1849    -1845    -1794    -1668    -1526    -1350    -1167 
   -1059     -928     -692     -467     -310     -202     -149     -128 
    -135     -217     -353     -468     -573     -749    -1000    -1242 
   -1406    -1532    -1684    -1849    -1992    -2096    -2151    -2211 
   -2322    -2417    -2471    -2569    -2745    -2929    -3064    -3145 
   -3172    -3183    -3234    -3277    -3279    -3292    -3333    -3375 
   -3403    -3430    -3472    -3516    -3566    -3577    -3488    -3368 
   -3294    -3204    -3038    -2848    -2667    -2519    -2486    -2567 
   -2671    -2760    -2835    -2917    -3041    -3196    -3310    -3341 
   -3330    -3310    -3302    -3333    -3379    -3438    -3539    -3666 
   -3794    -3925    -4024    -4070    -4118    -4232    -4345    -4376 
   -4375    -4372    -4337    -4328    -4345    -4326    -4324    -4359 
   -4365    -4340    -4317    -4268    -4180    -4105    -4005    -3819 
   -3605    -3443    -3354    -3321    -3272    -3163    -3073    -3082 
   -3125    -3132    -3083    -2979    -2914    -2951    -3011    -3036 
   -3056    -3115    -3210    -3289    -3308    -3295    -3310    -3395 
   -3541    -3639    -3622    -3559    -3541    -3580    -3654    -3703 
   -3669    -3585    -3501    -3383    -3198    -3007    -2862    -2763 
   -2736    -2759    -2735    -2662    -2631    -2675    -2776    -2870 
   -2878    -2849    -2937    -3149    -3354    -3477    -3481    -3414 
   -3403    -3422    -3339    -3150    -2868    -2513    -2214    -2007 
   -1806    -1588    -1351    -1096     -918     -864     -878     -918 
    -973    -1074    -1244    -1429    -1566    -1620    -1588    -1555 
   -1588    -1660    -1749    -1883    -2056    -2238    -2440    -2643 
   -2776    -2868    -3010    -3226    -3457    -3635    -3723    -3738 
   -3734    -3742    -3740    -3736    -3792    -3863    -3851    -3784 
   -3728    -3703    -3735    -3808    -3854    -3867    -3863    -3827 
   -3765    -3700    -3595    -3438    -3333    -3304    -3273    -3207 
   -3098    -2932    -2778    -2678    -2593    -2521    -2505    -2516 
   -2528    -2587    -2683    -2731    -2728    -2717    -2693    -2647 
   -2594    -2529    -2451    -2396    -2357    -2308    -2284    -2299 
   -2361    -2497    -2666    -2820    -2990    -3176    -3331    -3469 
   -3605    -3719    -3848    -3993    -4050    -4041    -4071    -4126 
   -4193    -4287    -4360    -4395    -4430    -4432    -4357    -4251 
   -4121    -3954    -3786    -3622    -3435    -3276    -3180    -3115 
   -3067    -3005    -2880    -2733    -2636    -2589    -2552    -2511 
   -2451    -2396    -2408    -2504    -2614    -2709    -2841    -3005 
   -3157    -3341    -3538    -3669    -3754    -3848    -3940    -4010 
   -4062    -4077    -4051    -4052    -4106    -4131    -4085    -4016 
   -3947    -3861    -3740    -3561    -3385    -3308    -3300    -3281 
   -3226    -3191    -3225    -3275    -3283    -3288    -3311    -3296 
   -3217    -3090    -2926    -2801    -2748    -2644    -2478    -2390 
   -2380    -2371    -2401    -2494    -2592    -2704    -2841    -2911 
   -2928    -2947    -2894    -2778    -2720    -2743    -2799    -2878 
   -2945    -3002    -3133    -3322    -3424    -3420    -3406    -3395 
   -3395    -3418    -3400    -3349    -3329    -3288    -3218    -3183 
   -3142    -3042    -2918    -2782    -2631    -2496    -2355    -2178 
   -2004    -1853    -1719    -1614    -1541    -1512    -1548    -1614 
   -1680    -1771    -1871    -1964    -2066    -2150    -2173    -2153 
   -2101    -2007    -1919    -1895    -1900    -1908    -1937    -1981 
   -2085    -2273    -2442    -2524    -2596    -2709    -2837    -2976 
   -3141    -3303    -3481    -3716    -3964    -4187    -4409    -4626 
   -4811    -4993    -5169    -5252    -5236    -5200    -5169    -5158 
   -5171    -5146    -5038    -4896    -4773    -4657    -4521    -4351 
   -4149    -3959    -3812    -3681    -3539    -3418    -3338    -3304 
   -3334    -3377    -3368    -3365    -3407    -3445    -3489    -3564 
   -3627    -3657    -3659    -3634    -3609    -3640    -3670    -3605 
   -3473    -3329    -3195    -3096    -2990    -2844    -2710    -2596 
   -2489    -2416    -2340    -2226    -2100    -1976    -1854    -1777 
   -1746    -1675    -1583    -1540    -1493    -1421    -1366    -1305 
   -1271    -1331    -1432    -1501    -1588    -1732    -1868    -1998 
   -2116    -2157    -2169    -2214    -2247    -2288    -2381    -2461 
   -2515    -2598    -2664    -2691    -2754    -2848    -2917    -2979 
   -3029    -3045    -3095    -3198    -3271    -3303    -3354    -3470 
   -3655    -3850    -3983    -4068    -4162    -4299    -4437    -4527 
   -4633    -4815    -5028    -5224    -5378    -5468    -5520    -5541 
   -5513    -5458    -5402    -5306    -5148    -4965    -4787    -4618 
   -4483    -4390    -4322    -4282    -4226    -4105    -3964    -3831 
   -3672    -3501    -3312    -3072    -2833    -2655    -2493    -2340 
   -2227    -2108    -1988    -1957    -1969    -1914    -1836    -1788 
   -1763    -1800    -1861    -1837    -1775    -1767    -1794    -1825 
   -1853    -1873    -1919    -2025    -2158    -2270    -2365    -2467 
   -2587    -2717    -2832    -2916    -3005    -3091    -3117    -3061 
   -2914    -2710    -2531    -2359    -2172    -2030    -1941    -1830 
   -1699    -1594    -1534    -1532    -1545    -1505    -1449    -1486 
   -1614    -1771    -1966    -2212    -2467    -2713    -2916    -3033 
   -3119    -3231    -3322    -3366    -3424    -3493    -3542    -3596 
   -3642    -3646    -3681    -3774    -3809    -3777    -3762    -3740 
   -3704    -3726    -3773    -3782    -3825    -3925    -3973    -3963 
   -3955    -3931    -3892    -3878    -3838    -3724    -3600    -3491 
   -3376    -3289    -3249    -3227    -3190    -3133    -3099    -3105 
   -3134    -3156    -3141    -3115    -3119    -3129    -3083    -3025 
