Origin Time       2025/01/13 21:19:00
Lat.              31.8
Long.             131.6
Depth. (km)       30
Mag.              6.9
Station Code      YMGH08
Station Lat.      34.1349
Station Long.     130.9323
Station Height(m) -156
Record Time       2025/01/13 21:20:20
Sampling Freq(Hz) 100Hz
Duration Time(s)  148
Dir.              3
Scale Factor      3923(gal)/8224838
Max. Acc. (gal)   0.850
Last Correction   2025/01/13 21:20:20
Memo.             
[...]
   27823    27792    27762    27745    27737    27735    27733    27724 
   27722    27727    27731    27745    27764    27776    27784    27792 
   27793    27789    27781    27769    27754    27750    27769    27797 
   27826    27861    27897    27922    27938    27947    27943    27936 
   27936    27947    27962    27988    28030    28078    28131    28185 
   28229    28267    28296    28304    28296    28283    28271    28252 
   28233    28213    28189    28171    28162    28150    28135    28119 
   28089    28053    28016    27981    27953    27930    27907    27885 
   27872    27861    27853    27854    27855    27847    27834    27822 
   27799    27772    27745    27716    27695    27683    27675    27669 
   27666    27666    27668    27666    27670    27681    27702    27727 
   27757    27797    27849    27903    27957    28000    28031    28053 
   28069    28086    28104    28117    28131    28148    28158    28159 
   28161    28158    28155    28154    28151    28146    28142    28146 
   28147    28144    28147    28150    28147    28144    28131    28105 
   28078    28047    28009    27965    27919    27880    27845    27814 
   27789    27770    27750    27733    27716    27700    27691    27692 
   27702    27712    27724    27741    27758    27776    27801    27824 
   27842    27866    27896    27915    27927    27934    27934    27927 
   27924    27920    27916    27918    27924    27938    27959    27986 
   28015    28043    28074    28104    28129    28147    28166    28193 
   28219    28235    28243    28246    28243    28240    28235    28213 
   28181    28150    28123    28100    28084    28071    28066    28065 
   28065    28071    28071    28058    28042    28023    28001    27977 
   27953    27931    27912    27896    27885    27881    27870    27857 
   27845    27828    27812    27800    27789    27780    27774    27776 
   27785    27799    27816    27837    27859    27885    27907    27920 
   27923    27922    27915    27900    27877    27857    27842    27832 
   27830    27832    27831    27827    27824    27808    27783    27768 
   27758    27754    27762    27776    27789    27810    27834    27855 
   27870    27878    27882    27885    27888    27892    27896    27895 
   27899    27901    27892    27872    27854    27838    27820    27805 
   27800    27799    27787    27770    27757    27731    27702    27675 
   27650    27629    27611    27598    27589    27594    27611    27637 
   27672    27716    27762    27803    27839    27870    27897    27926 
   27951    27973    27986    27986    27978    27969    27950    27923 
   27892    27862    27843    27828    27819    27820    27822    27822 
   27824    27824    27812    27797    27792    27800    27823    27846 
   27874    27911    27940    27963    27989    28009    28026    28042 
   28054    28066    28075    28082    28086    28084    28073    28051 
   28020    27980    27935    27900    27874    27861    27862    27872 
   27881    27895    27911    27931    27953    27972    27986    28007 
   28030    28054    28084    28112    28134    28154    28166    28166 
   28159    28156    28165    28171    28186    28208    28227    28243 
   28255    28262    28274    28290    28306    28332    28367    28406 
   28449    28491    28524    28545    28559    28566    28559    28544 
   28526    28499    28464    28422    28368    28312    28256    28200 
   28148    28100    28059    28024    27989    27951    27911    27870 
   27827    27784    27743    27706    27673    27649    27633    27623 
   27614    27602    27583    27561    27537    27510    27484    27463 
   27444    27425    27413    27411    27419    27438    27467    27496 
   27530    27569    27595    27610    27626    27641    27653    27662 
   27670    27685    27706    27723    27739    27751    27757    27756 
   27753    27753    27751    27754    27770    27795    27818    27838 
   27858    27876    27895    27911    27920    27927    27926    27918 
   27909    27904    27904    27915    27928    27938    27949    27959 
   27969    27974    27973    27970    27970    27976    27992    28017 
   28050    28090    28132    28174    28216    28247    28275    28304 
   28327    28344    28360    28371    28378    28389    28395    28406 
   28421    28433    28443    28444    28433    28416    28397    28378 
   28356    28329    28300    28266    28237    28217    28202    28186 
   28166    28146    28125    28104    28088    28074    28058    28040 
   28028    28021    28011    28005    28011    28027    28055    28082 
   28094    28098    28097    28085    28067    28046    28013    27974 
   27931    27880    27824    27772    27724    27691    27666    27643 
   27622    27606    27588    27567    27554    27548    27538    27537 
   27545    27550    27562    27585    27618    27654    27696    27743 
   27797    27849    27900    27951    27989    28016    28043    28063 
   28074    28081    28089    28102    28123    28142    28159    28170 
   28175    28174    28178    28185    28186    28192    28206    28224 
   28248    28285    28321    28358    28402    28447    28475    28495 
   28507    28513    28520    28529    28533    28534    28537    28530 
   28517    28503    28485    28460    28426    28390    28355    28321 
   28283    28252    28225    28200    28177    28146    28109    28071 
   28030    27992    27962    27928    27897    27873    27843    27814 
   27789    27758    27731    27716    27699    27683    27676    27666 
   27657    27652    27648    27656    27669    27679    27687    27688 
   27683    27675    27666    27649    27630    27615    27604    27599 
   27599    27600    27603    27602    27599    27595    27588    27579 
   27571    27567    27572    27581    27595    27611    27627    27646 
   27668    27695    27731    27768    27801    27842    27882    27920 
   27961    27999    28032    28062    28089    28108    28125    28140 
   28150    28156    28156    28148    28140    28125    28109    28105 
   28109    28119    28134    28150    28173    28200    28220    28235 
   28247    28260    28274    28285    28296    28304    28313    28321 
   28324    28323    28320    28316    28304    28282    28258    28233 
   28209    28186    28163    28142    28123    28108    28094    28090 
   28093    28100    28113    28129    28144    28159    28174    28186 
   28188    28177    28162    28136    28105    28075    28047    28024 
   28008    27986    27958    27935    27913    27886    27862    27841 
   27816    27793    27776    27764    27753    27746    27746    27750 
   27756    27762    27769    27780    27796    27810    27819    27827 
   27839    27858    27884    27915    27946    27966    27977    27980 
   27981    27994    28013    28034    28053    28075    28100    28111 
   28108    28100    28081    28058    28036    28017    28003    27999 
   28004    28011    28020    28030    28034    28032    28030    28024 
   28019    28017    28012    28004    28000    27999    28000    28000 
   27994    27986    27976    27953    27930    27908    27885    27872 
   27864    27850    27842    27834    27814    27795    27783    27768 
   27758    27761    27772    27791    27811    27830    27851    27870 
   27885    27895    27899    27896    27891    27878    27864    27855 
   27854    27855    27858    27865    27868    27866    27869    27872 
   27868    27865    27870    27876    27881    27888    27892    27889 
   27881    27866    27853    27843    27832    27828    27834    27837 
   27841    27850    27854    27855    27862    27873    27884    27896 
   27905    27922    27938    27945    27947    27954    27958    27961 
   27966    27972    27974    27985    28003    28024    28047    28071 
   28096    28119    28144    28171    28200    28225    28248    28271 
   28289    28302    28318    28337    28354    28371    28389    28402 
   28410    28417    28424    28433    28445    28459    28470    28470 
   28463    28451    28437    28422    28412    28401    28390    28381 
   28368    28352    28329    28300    28267    28232    28193    28147 
   28098    28055    28012    27967    27924    27886    27847    27810 
   27776    27742    27703    27666    27633    27596    27556    27517 
   27488    27457    27419    27390    27364    27340    27321    27310 
   27303    27302    27305    27306    27307    27311    27314    27306 
   27292    27276    27255    27238    27230    27226    27228    27230 
   27240    27251    27255    27256    27259    27263    27271    27284 
   27306    27328    27351    27382    27415    27450    27488    27529 
   27569    27614    27660    27703    27750    27799    27842    27881 
   27918    27950    27974    27989    28003    28016    28035    28058 
   28082    28108    28132    28148    28158    28162    28162    28166 
   28174    28185    28194    28201    28212    28225    28235    28246 
   28254    28266    28294    28331    28374    28424    28471    28514 
   28552    28579    28601    28621    28641    28663    28686    28707 
   28723    28734    28742    28746    28744    28734    28718    28691 
   28660    28624    28578    28522    28460    28395    28328    28259 
   28189    28123    28061    28000    27938    27882    27831    27781 
   27737    27702    27666    27629    27589    27553    27518    27481 
   27448    27417    27387    27363    27352    27348    27344    27349 
   27364    27380    27400    27425    27449    27479    27511    27544 
   27581    27619    27661    27707    27750    27792    27835    27873 
   27903    27932    27961    27988    28016    28046    28085    28132 
   28185    28236    28285    28327    28362    28391    28416    28433 
   28445    28458    28470    28480    28490    28495    28497    28493 
   28480    28459    28431    28395    28355    28316    28283    28254 
   28221    28189    28158    28119    28073    28026    27978    27939 
   27903    27865    27835    27807    27783    27776    27773    27766 
   27769    27780    27788    27803    27822    27841    27868    27901 
   27935    27965    27997    28034    28071    28108    28147    28188 
   28229    28271    28304    28329    28344    28351    28360    28371 
   28381    28390    28391    28391    28391    28385    28379    28371 
   28360    28348    28339    28327    28308    28285    28260    28231 
   28193    28150    28102    28055    28008    27961    27915    27866 
   27810    27741    27661    27575    27480    27390    27311    27236 
   27168    27114    27072    27043    27018    27001    26990    26985 
   26975    26964    26959    26956    26956    26963    26970    26978 
   26990    27004    27016    27036    27063    27093    27124    27156 
   27187    27217    27243    27268    27294    27324    27365    27411 
   27456    27503    27558    27618    27683    27751    27816    27880 
   27942    27996    28044    28092    28131    28162    28194    28217 
   28228    28235    28233    28225    28212    28193    28173    28154 
   28132    28111    28092    28088    28097    28117    28143    28165 
   28186    28213    28237    28259    28285    28316    28358    28404 
   28448    28499    28551    28588    28626    28664    28692    28719 
   28748    28768    28780    28786    28783    28776    28764    28744 
   28719    28694    28668    28642    28614    28584    28557    28532 
   28509    28487    28464    28441    28420    28390    28359    28329 
   28300    28275    28248    28217    28198    28178    28148    28131 
   28112    28082    28053    28020    27981    27942    27901    27853 
   27799    27745    27680    27610    27550    27496    27446    27403 
   27363    27321    27279    27236    27190    27145    27105    27072 
   27049    27043    27048    27054    27067    27087    27110    27139 
   27176    27220    27272    27332    27394    27454    27517    27577 
   27635    27695    27756    27820    27880    27932    27984    28028 
   28067    28094    28108    28120    28127    28128    28124    28112 
   28093    28070    28039    28004    27969    27935    27907    27881 
   27857    27846    27841    27835    27834    27837    27843    27853 
   27862    27874    27889    27905    27924    27942    27965    27997 
   28034    28075    28120    28159    28190    28213    28232    28248 
   28259    28267    28271    28271    28270    28263    28258    28259 
   28258    28248    28235    28210    28175    28138    28096    28055 
   28024    27999    27978    27967    27954    27934    27908    27882 
   27857    27834    27814    27799    27791    27787    27781    27776 
   27774    27776    27780    27784    27789    27800    27814    27835 
   27869    27904    27950    28012    28067    28123    28183    28236 
   28285    28332    28367    28393    28416    28435    28451    28470 
   28478    28482    28487    28493    28495    28499    28509    28517 
   28520    28524    28526    28530    28532    28536    28541    28545 
   28548    28556    28566    28576    28595    28615    28633    28649 
   28660    28659    28655    28647    28632    28615    28601    28586 
   28568    28555    28537    28514    28489    28460    28433    28410 
   28385    28360    28336    28309    28285    28263    28242    28215 
   28181    28144    28100    28048    27994    27938    27880    27820 
   27764    27706    27639    27569    27500    27430    27353    27274 
   27193    27109    27027    26944    26859    26779    26703    26624 
   26543    26466    26393    26325    26268    26230    26199    26181 
   26183    26190    26198    26222    26256    26298    26352    26418 
   26488    26566    26657    26751    26843    26936    27032    27132 
   27232    27332    27438    27549    27658    27764    27866    27970 
   28071    28167    28260    28358    28456    28547    28630    28715 
   28798    28872    28941    29006    29064    29108    29145    29180 
   29207    29230    29253    29272    29289    29303    29311    29316 
   29313    29307    29296    29274    29245    29216    29185    29153 
   29124    29096    29064    29034    28999    28956    28911    28860 
   28804    28750    28695    28638    28583    28534    28487    28441 
   28399    28359    28321    28285    28250    28217    28185    28154 
   28124    28097    28078    28069    28062    28059    28066    28075 
   28082    28092    28105    28123    28146    28171    28198    28225 
   28256    28287    28316    28343    28368    28389    28401    28408 
   28410    28408    28391    28370    28344    28316    28289    28260 
   28225    28185    28144    28101    28053    28003    27954    27905 
   27855    27800    27741    27670    27594    27521    27453    27384 
   27319    27267    27224    27189    27159    27137    27121    27105 
   27090    27081    27076    27072    27070    27078    27090    27097 
   27112    27130    27148    27167    27182    27197    27216    27237 
   27256    27275    27288    27302    27321    27344    27364    27388 
   27418    27449    27484    27531    27588    27650    27719    27792 
   27869    27942    28013    28090    28166    28237    28312    28386 
   28451    28509    28555    28588    28614    28633    28641    28641 
   28633    28617    28597    28574    28541    28503    28466    28433 
   28399    28364    28329    28290    28250    28212    28167    28117 
   28065    28011    27958    27901    27847    27803    27762    27722 
   27688    27657    27626    27599    27569    27531    27495    27460 
   27423    27395    27373    27355    27337    27318    27301    27295 
   27287    27274    27267    27268    27271    27282    27302    27329 
   27363    27402    27441    27486    27534    27584    27641    27700 
   27764    27832    27907    27981    28051    28117    28178    28232 
   28285    28332    28377    28417    28448    28478    28506    28526 
   28545    28564    28583    28595    28598    28599    28595    28588 
   28579    28559    28530    28502    28466    28418    28366    28310 
   28244    28173    28102    28039    27977    27915    27857    27799 
   27743    27691    27635    27581    27534    27490    27450    27415 
   27379    27345    27309    27270    27238    27213    27191    27183 
   27187    27197    27213    27236    27260    27287    27314    27342 
   27372    27400    27429    27457    27480    27504    27529    27546 
   27567    27594    27615    27631    27656    27684    27710    27734 
   27764    27799    27834    27873    27915    27953    27986    28023 
   28059    28101    28152    28197    28240    28289    28335    28372 
   28410    28448    28483    28517    28548    28575    28601    28624 
   28645    28672    28703    28728    28746    28761    28768    28768 
   28764    28756    28742    28725    28701    28671    28636    28599 
   28557    28517    28479    28441    28399    28351    28298    28242 
   28185    28129    28073    28016    27965    27913    27872    27838 
   27801    27770    27750    27739    27737    27737    27743    27758 
   27783    27816    27851    27888    27930    27970    28013    28061 
   28113    28169    28224    28281    28340    28402    28458    28512 
   28563    28609    28651    28687    28717    28741    28761    28772 
   28780    28784    28787    28790    28784    28775    28764    28745 
   28723    28696    28665    28640    28615    28588    28563    28533 
   28491    28445    28399    28348    28286    28221    28156    28086 
   28013    27949    27889    27832    27778    27720    27661    27606 
   27550    27494    27438    27390    27341    27291    27247    27205 
   27166    27129    27093    27064    27045    27022    27006    27001 
   27000    27004    27012    27027    27052    27075    27097    27129 
   27163    27199    27240    27286    27337    27394    27452    27511 
   27576    27642    27706    27776    27843    27901    27961    28021 
   28071    28113    28150    28182    28210    28231    28247    28263 
   28278    28287    28294    28296    28294    28290    28283    28274 
   28260    28243    28225    28208    28186    28162    28129    28090 
   28050    28007    27955    27903    27849    27797    27749    27710 
   27677    27646    27625    27606    27584    27568    27560    27557 
   27561    27567    27577    27592    27607    27622    27639    27656 
   27670    27685    27695    27703    27718    27726    27733    27745 
   27757    27769    27787    27801    27816    27837    27849    27854 
   27858    27855    27849    27847    27847    27849    27850    27849 
   27842    27830    27819    27808    27796    27789    27791    27791 
   27796    27804    27814    27828    27841    27851    27866    27885 
   27907    27932    27962    27997    28034    28071    28111    28154 
   28196    28240    28289    28337    28386    28437    28490    28540 
   28588    28634    28678    28714    28740    28761    28784    28804 
   28819    28834    28849    28858    28867    28869    28863    28848 
   28821    28787    28746    28701    28649    28595    28539    28479 
   28416    28354    28289    28223    28155    28088    28024    27957 
   27891    27831    27770    27714    27664    27615    27573    27542 
   27515    27495    27484    27472    27467    27472    27480    27490 
   27504    27525    27549    27583    27623    27670    27723    27777 
