Origin Time       2025/01/13 21:19:00
Lat.              31.8
Long.             131.6
Depth. (km)       30
Mag.              6.9
Station Code      YMGH16
Station Lat.      33.8260
Station Long.     132.1040
Station Height(m) -41
Record Time       2025/01/13 21:20:12
Sampling Freq(Hz) 100Hz
Duration Time(s)  145
Dir.              2
Scale Factor      2940(gal)/6170270
Max. Acc. (gal)   1.853
Last Correction   2025/01/13 21:19:57
Memo.             
[...]
  255541   255601   255656   255701   255732   255741   255727   255711 
  255707   255710   255695   255649   255594   255552   255516   255468 
  255404   255339   255283   255219   255137   255047   254975   254934 
  254908   254882   254854   254834   254837   254868   254923   254997 
  255072   255129   255172   255208   255228   255227   255202   255165 
  255126   255089   255058   255037   255020   254997   254970   254942 
  254916   254901   254905   254924   254958   255008   255052   255076 
  255086   255084   255070   255046   255022   254991   254944   254886 
  254826   254757   254690   254632   254575   254527   254494   254473 
  254469   254483   254498   254503   254509   254532   254570   254621 
  254680   254736   254794   254862   254923   254974   255032   255099 
  255159   255213   255271   255332   255388   255444   255513   255581 
  255630   255665   255689   255697   255690   255672   255635   255582 
  255520   255449   255370   255287   255194   255086   254977   254871 
  254762   254651   254559   254507   254493   254498   254507   254517 
  254532   254561   254603   254640   254660   254664   254661   254661 
  254675   254707   254754   254802   254845   254888   254922   254934 
  254942   254965   255007   255060   255097   255114   255134   255164 
  255183   255181   255171   255163   255155   255144   255131   255118 
  255103   255083   255058   255037   255026   255038   255087   255163 
  255242   255294   255314   255309   255277   255224   255184   255174 
  255174   255174   255180   255197   255225   255251   255258   255254 
  255258   255271   255284   255289   255276   255248   255228   255220 
  255206   255178   255143   255101   255052   255008   254979   254966 
  254953   254930   254897   254855   254815   254796   254817   254872 
  254933   254974   254984   254973   254961   254950   254936   254922 
  254902   254871   254849   254840   254821   254792   254761   254727 
  254696   254675   254669   254685   254711   254742   254801   254894 
  255003   255120   255237   255342   255433   255514   255588   255666 
  255752   255821   255838   255786   255679   255542   255406   255291 
  255190   255089   254977   254858   254755   254681   254630   254594 
  254570   254566   254585   254618   254658   254698   254728   254739 
  254743   254758   254785   254818   254856   254891   254917   254936 
  254944   254940   254927   254902   254862   254812   254761   254711 
  254666   254635   254610   254580   254555   254550   254569   254614 
  254673   254733   254783   254823   254859   254899   254944   254985 
  255018   255042   255051   255039   255002   254949   254900   254863 
  254827   254785   254732   254668   254598   254533   254479   254443 
  254431   254433   254425   254404   254385   254376   254377   254380 
  254391   254416   254452   254489   254523   254559   254602   254648 
  254691   254738   254792   254859   254954   255062   255156   255226 
  255263   255263   255243   255216   255184   255145   255092   255015 
  254923   254836   254757   254676   254598   254523   254444   254376 
  254324   254271   254217   254172   254134   254106   254098   254108 
  254133   254184   254276   254408   254559   254725   254907   255093 
  255274   255450   255624   255792   255949   256106   256265   256407 
  256524   256623   256708   256785   256869   256956   257028   257066 
  257069   257052   257029   256998   256959   256908   256838   256748 
  256660   256589   256525   256462   256418   256411   256430   256458 
  256491   256525   256551   256558   256549   256528   256501   256479 
  256472   256467   256456   256439   256415   256381   256334   256281 
  256231   256190   256162   256139   256107   256067   256031   256002 
  255969   255920   255858   255808   255792   255790   255764   255713 
  255670   255648   255640   255643   255646   255626   255586   255538 
  255486   255431   255367   255280   255172   255050   254924   254797 
  254666   254534   254400   254252   254093   253943   253812   253690 
  253575   253471   253385   253319   253266   253222   253189   253166 
  253157   253161   253168   253166   253155   253137   253125   253132 
  253152   253165   253166   253170   253199   253259   253338   253417 
  253488   253556   253629   253708   253787   253862   253935   253997 
  254043   254073   254081   254087   254117   254164   254212   254266 
  254331   254407   254496   254591   254691   254803   254931   255064 
  255183   255274   255336   255377   255406   255432   255465   255495 
  255497   255455   255365   255245   255124   255022   254926   254837 
  254768   254711   254642   254563   254492   254436   254388   254342 
  254306   254288   254285   254290   254296   254300   254299   254297 
  254307   254325   254342   254366   254412   254484   254590   254717 
  254837   254943   255043   255136   255217   255296   255371   255414 
  255419   255403   255375   255339   255307   255276   255234   255183 
  255138   255100   255059   255015   254974   254929   254873   254811 
  254749   254695   254654   254619   254580   254545   254519   254495 
  254474   254450   254419   254391   254382   254388   254388   254373 
  254362   254371   254392   254410   254422   254428   254430   254435 
  254441   254445   254449   254460   254478   254493   254501   254515 
  254544   254579   254599   254594   254579   254577   254599   254629 
  254651   254666   254669   254660   254652   254653   254652   254637 
  254601   254547   254470   254375   254289   254221   254156   254113 
  254119   254168   254237   254304   254353   254389   254424   254464 
  254519   254600   254708   254833   254967   255103   255222   255313 
  255389   255471   255563   255650   255726   255789   255832   255859 
  255880   255894   255905   255914   255909   255889   255857   255806 
  255748   255701   255676   255677   255695   255707   255703   255681 
  255641   255588   255534   255484   255425   255348   255260   255164 
  255062   254985   254953   254943   254920   254876   254821   254778 
  254758   254758   254776   254812   254861   254905   254933   254945 
  254952   254962   254972   254962   254929   254886   254840   254789 
  254737   254688   254643   254601   254557   254510   254473   254447 
  254429   254421   254421   254435   254485   254568   254671   254794 
  254923   255040   255143   255224   255274   255294   255308   255357 
  255457   255589   255733   255871   255987   256073   256136   256183 
  256227   256283   256355   256422   256477   256514   256525   256513 
  256492   256464   256422   256363   256289   256218   256164   256127 
  256091   256046   255995   255944   255894   255839   255773   255697 
  255606   255494   255372   255256   255156   255059   254954   254842 
  254743   254668   254624   254602   254578   254534   254472   254410 
  254366   254350   254357   254370   254365   254337   254304   254285 
  254289   254314   254333   254330   254306   254260   254196   254126 
  254047   253942   253820   253699   253579   253457   253333   253212 
  253095   252979   252866   252766   252666   252546   252427   252339 
  252283   252253   252251   252269   252297   252326   252357   252412 
  252512   252644   252790   252947   253120   253303   253470   253616 
  253759   253930   254143   254385   254628   254852   255038   255187 
  255316   255451   255602   255759   255913   256072   256236   256390 
  256518   256631   256758   256914   257098   257293   257471   257612 
  257713   257784   257844   257917   257994   258045   258058   258033 
  257967   257867   257747   257614   257468   257307   257118   256911 
  256712   256526   256346   256180   256034   255910   255804   255711 
  255628   255567   255538   255541   255568   255618   255676   255729 
  255783   255846   255905   255943   255961   255991   256055   256150 
  256261   256366   256452   256551   256678   256797   256878   256932 
  256974   256995   256981   256937   256870   256774   256662   256546 
  256426   256309   256209   256126   256058   256003   255949   255875 
  255770   255648   255531   255423   255316   255213   255130   255077 
  255055   255060   255089   255130   255170   255202   255228   255248 
  255274   255308   255338   255358   255356   255318   255238   255108 
  254936   254745   254553   254366   254185   254003   253832   253695 
  253607   253558   253526   253492   253463   253462   253489   253528 
  253568   253603   253626   253629   253595   253527   253448   253371 
  253283   253165   253004   252798   252566   252336   252127   251949 
  251804   251688   251593   251509   251447   251429   251461   251536 
  251655   251816   252018   252249   252480   252689   252880   253067 
  253264   253478   253706   253933   254130   254286   254422   254561 
  254691   254807   254929   255069   255212   255333   255421   255488 
  255553   255622   255702   255801   255905   255994   256070   256153 
  256241   256301   256318   256310   256286   256255   256244   256266 
  256307   256342   256355   256354   256362   256397   256457   256534 
  256638   256770   256903   257013   257094   257155   257206   257251 
  257299   257359   257422   257465   257483   257484   257471   257455 
  257449   257448   257436   257405   257349   257269   257167   257048 
  256921   256784   256636   256482   256317   256141   255961   255781 
  255619   255480   255329   255148   254962   254784   254605   254412 
  254203   253989   253778   253577   253399   253251   253120   252990 
  252862   252757   252680   252625   252591   252567   252526   252462 
  252395   252329   252268   252221   252183   252129   252054   251982 
  251934   251921   251961   252061   252205   252378   252582   252814 
  253068   253337   253614   253887   254146   254389   254630   254864 
  255058   255194   255289   255359   255412   255457   255490   255514 
  255545   255581   255600   255587   255538   255459   255359   255253 
  255160   255087   255013   254918   254805   254682   254538   254366 
  254171   253960   253751   253549   253346   253152   252985   252847 
  252729   252629   252552   252508   252502   252535   252604   252695 
  252807   252952   253128   253335   253583   253872   254187   254512 
  254827   255127   255418   255694   255947   256191   256426   256625 
  256780   256910   257021   257092   257115   257114   257101   257061 
  256988   256890   256778   256666   256562   256450   256312   256157 
  255996   255824   255628   255417   255197   254967   254721   254465 
  254225   254020   253852   253730   253654   253594   253531   253470 
  253424   253391   253361   253326   253289   253272   253285   253317 
  253354   253382   253404   253448   253523   253614   253721   253849 
  253996   254154   254310   254445   254547   254619   254666   254691 
  254702   254698   254677   254648   254622   254596   254572   254564 
  254573   254590   254610   254626   254637   254665   254732   254841 
  254973   255104   255212   255288   255331   255342   255321   255272 
  255191   255070   254917   254755   254594   254438   254286   254134 
  254002   253909   253843   253793   253764   253758   253779   253819 
  253855   253883   253925   254001   254114   254245   254369   254467 
  254538   254593   254643   254697   254767   254846   254917   254974 
  255028   255095   255181   255282   255401   255533   255663   255786 
  255898   256010   256127   256236   256334   256431   256529   256622 
  256719   256821   256920   257019   257132   257259   257387   257504 
  257606   257698   257775   257825   257844   257844   257825   257785 
  257722   257636   257536   257450   257386   257331   257285   257254 
  257234   257229   257246   257286   257344   257412   257478   257549 
  257624   257682   257708   257698   257651   257571   257462   257320 
  257147   256959   256767   256573   256369   256149   255914   255668 
  255412   255158   254924   254718   254517   254305   254092   253880 
  253659   253454   253299   253190   253114   253065   253026   252982 
  252959   252979   253037   253126   253246   253370   253478   253578 
  253693   253829   253976   254112   254228   254325   254408   254478 
  254539   254599   254672   254746   254794   254820   254842   254850 
  254841   254832   254835   254852   254876   254898   254910   254899 
  254865   254811   254741   254679   254636   254602   254562   254511 
  254459   254430   254428   254442   254468   254513   254572   254635 
  254685   254715   254729   254722   254681   254620   254561   254498 
  254424   254345   254259   254172   254104   254070   254067   254090 
  254127   254168   254203   254233   254271   254319   254361   254381 
  254377   254354   254321   254288   254264   254250   254246   254258 
  254291   254338   254388   254438   254495   254550   254591   254623 
  254668   254738   254831   254939   255056   255174   255295   255419 
  255547   255680   255811   255934   256049   256156   256254   256355 
  256460   256563   256679   256818   256969   257120   257262   257382 
  257474   257551   257627   257687   257713   257704   257650   257545 
  257411   257269   257128   256976   256796   256586   256361   256134 
  255904   255674   255448   255223   254993   254758   254525   254309 
  254117   253936   253749   253556   253367   253186   253018   252850 
  252674   252495   252326   252164   252001   251844   251700   251562 
  251432   251310   251199   251115   251075   251076   251105   251162 
  251260   251397   251560   251735   251916   252112   252328   252556 
  252787   253018   253247   253478   253705   253921   254115   254270 
  254377   254451   254510   254555   254580   254587   254591   254611 
  254642   254666   254679   254689   254703   254721   254738   254745 
  254737   254727   254736   254774   254838   254928   255041   255162 
  255286   255424   255572   255727   255899   256082   256253   256407 
  256557   256711   256852   256964   257051   257110   257129   257110 
  257067   257015   256970   256945   256934   256933   256949   256988 
  257037   257081   257119   257156   257201   257257   257309   257344 
  257363   257375   257387   257390   257375   257354   257326   257275 
  257202   257121   257034   256953   256888   256834   256786   256738 
  256680   256613   256544   256477   256413   256348   256278   256195 
  256091   255971   255843   255709   255566   255417   255272   255133 
  254995   254849   254700   254565   254453   254368   254296   254214 
  254110   253983   253846   253720   253613   253517   253418   253301 
  253165   253010   252840   252656   252463   252278   252105   251943 
  251800   251677   251577   251505   251461   251447   251468   251524 
  251616   251754   251926   252111   252302   252504   252723   252952 
  253180   253415   253675   253952   254220   254470   254722   254995 
  255286   255586   255897   256205   256498   256778   257052   257318 
  257572   257813   258020   258163   258250   258303   258323   258301 
  258240   258152   258045   257910   257745   257577   257428   257283 
  257116   256932   256750   256575   256400   256216   256017   255803 
  255568   255311   255043   254773   254499   254226   253965   253718 
  253480   253249   253019   252793   252580   252381   252203   252053 
  251933   251844   251785   251755   251748   251764   251806   251865 
  251933   252009   252086   252166   252264   252387   252520   252669 
  252853   253061   253268   253469   253672   253884   254111   254354 
  254609   254867   255130   255406   255694   255984   256254   256493 
  256707   256910   257101   257281   257449   257591   257709   257800 
  257843   257834   257775   257666   257524   257377   257223   257034 
  256802   256536   256238   255913   255570   255235   254934   254666 
  254410   254169   253960   253795   253677   253606   253582   253604 
  253662   253741   253829   253924   254027   254133   254235   254322 
  254398   254477   254566   254650   254704   254717   254701   254667 
  254620   254569   254527   254502   254481   254456   254436   254417 
  254389   254354   254325   254306   254294   254289   254293   254301 
  254313   254338   254384   254453   254553   254685   254832   254982 
  255131   255276   255411   255533   255641   255737   255811   255860 
  255885   255882   255854   255816   255784   255753   255705   255641 
  255574   255499   255412   255319   255226   255139   255053   254961 
  254854   254728   254592   254461   254348   254266   254223   254202 
  254200   254237   254311   254406   254517   254642   254784   254945 
  255109   255264   255415   255571   255725   255853   255953   256037 
  256110   256175   256226   256247   256242   256219   256185   256145 
  256092   256020   255937   255848   255759   255679   255611   255547 
  255479   255405   255324   255240   255165   255106   255064   255042 
  255029   255006   254971   254940   254923   254910   254886   254851 
  254803   254729   254619   254482   254334   254188   254052   253925 
  253798   253673   253554   253443   253352   253295   253282   253298 
  253334   253400   253503   253626   253747   253853   253956   254061 
  254160   254240   254310   254375   254422   254444   254447   254431 
  254387   254321   254257   254216   254188   254160   254126   254098 
  254088   254086   254092   254113   254149   254197   254260   254337 
  254426   254524   254620   254724   254851   254987   255122   255271 
  255439   255616   255785   255938   256067   256172   256260   256335 
  256397   256440   256453   256427   256374   256298   256184   256028 
  255852   255679   255508   255334   255160   254983   254798   254622 
  254471   254341   254229   254136   254055   253975   253887   253807 
  253751   253717   253696   253673   253648   253640   253654   253677 
  253693   253693   253679   253677   253700   253738   253787   253843 
  253892   253930   253951   253944   253927   253923   253929   253925 
  253901   253864   253828   253797   253777   253771   253779   253806 
  253858   253927   254004   254092   254197   254305   254408   254515 
  254630   254752   254889   255036   255186   255345   255519   255695 
  255855   256002   256150   256297   256431   256549   256656   256756 
  256833   256880   256901   256891   256861   256822   256770   256690 
  256589   256474   256343   256197   256048   255900   255759   255633 
  255515   255389   255256   255129   255010   254897   254794   254700 
  254608   254525   254453   254385   254324   254281   254263   254265 
  254273   254282   254294   254307   254323   254356   254425   254540 
  254688   254858   255053   255270   255503   255741   255976   256206 
  256438   256671   256902   257125   257326   257489   257600   257654 
  257660   257633   257583   257518   257434   257312   257154   256977 
  256788   256592   256396   256202   256019   255854   255703   255571 
  255456   255344   255225   255109   255010   254937   254891   254858 
  254826   254792   254755   254727   254716   254716   254715   254704 
  254688   254669   254646   254630   254633   254649   254679   254719 
  254764   254807   254846   254885   254925   254959   254988   255014 
  255029   255036   255034   255021   255006   254986   254951   254893 
