Origin Time       2025/01/13 21:19:00
Lat.              31.8
Long.             131.6
Depth. (km)       30
Mag.              6.9
Station Code      YMGH16
Station Lat.      33.8260
Station Long.     132.1040
Station Height(m) -41
Record Time       2025/01/13 21:20:12
Sampling Freq(Hz) 100Hz
Duration Time(s)  145
Dir.              3
Scale Factor      2940(gal)/6170270
Max. Acc. (gal)   1.985
Last Correction   2025/01/13 21:19:57
Memo.             
[...]
 -133295  -133360  -133431  -133515  -133591  -133659  -133746  -133847 
 -133940  -134031  -134122  -134194  -134251  -134303  -134345  -134381 
 -134428  -134479  -134526  -134576  -134615  -134633  -134637  -134631 
 -134606  -134566  -134526  -134489  -134442  -134372  -134280  -134167 
 -134031  -133889  -133757  -133638  -133527  -133414  -133311  -133232 
 -133166  -133104  -133052  -132999  -132942  -132900  -132876  -132858 
 -132852  -132877  -132941  -133037  -133155  -133288  -133423  -133545 
 -133663  -133793  -133930  -134051  -134156  -134264  -134379  -134477 
 -134534  -134552  -134555  -134551  -134535  -134508  -134475  -134430 
 -134361  -134272  -134179  -134088  -133998  -133910  -133831  -133772 
 -133748  -133759  -133785  -133821  -133889  -133985  -134095  -134215 
 -134326  -134396  -134416  -134400  -134367  -134327  -134276  -134220 
 -134154  -134070  -133972  -133880  -133806  -133749  -133702  -133668 
 -133664  -133683  -133702  -133721  -133748  -133782  -133825  -133886 
 -133956  -134038  -134134  -134220  -134284  -134343  -134398  -134445 
 -134498  -134553  -134594  -134621  -134643  -134644  -134611  -134552 
 -134475  -134374  -134251  -134114  -133976  -133839  -133704  -133582 
 -133482  -133400  -133336  -133304  -133301  -133326  -133389  -133470 
 -133536  -133595  -133643  -133653  -133626  -133581  -133509  -133407 
 -133298  -133203  -133124  -133061  -133016  -132980  -132963  -132976 
 -133003  -133034  -133072  -133120  -133196  -133307  -133420  -133516 
 -133604  -133681  -133739  -133782  -133808  -133810  -133804  -133804 
 -133795  -133777  -133763  -133758  -133756  -133749  -133734  -133717 
 -133695  -133670  -133659  -133669  -133695  -133737  -133790  -133861 
 -133956  -134058  -134153  -134247  -134346  -134444  -134535  -134615 
 -134674  -134707  -134731  -134751  -134736  -134675  -134587  -134470 
 -134321  -134162  -134000  -133843  -133712  -133599  -133487  -133400 
 -133339  -133279  -133221  -133179  -133147  -133133  -133139  -133142 
 -133158  -133218  -133297  -133374  -133462  -133555  -133656  -133776 
 -133893  -133987  -134056  -134093  -134095  -134075  -134043  -133992 
 -133919  -133836  -133767  -133724  -133695  -133676  -133681  -133717 
 -133783  -133866  -133953  -134047  -134160  -134280  -134388  -134470 
 -134533  -134583  -134628  -134669  -134690  -134682  -134647  -134581 
 -134495  -134410  -134309  -134192  -134094  -134012  -133919  -133830 
 -133763  -133711  -133673  -133663  -133677  -133693  -133716  -133767 
 -133837  -133914  -133991  -134049  -134087  -134110  -134115  -134099 
 -134067  -134020  -133978  -133951  -133922  -133889  -133868  -133850 
 -133822  -133789  -133756  -133717  -133665  -133589  -133499  -133410 
 -133325  -133256  -133202  -133151  -133107  -133079  -133063  -133057 
 -133062  -133069  -133080  -133100  -133123  -133143  -133173  -133213 
 -133272  -133362  -133472  -133588  -133710  -133834  -133961  -134100 
 -134250  -134408  -134558  -134677  -134757  -134820  -134885  -134938 
 -134957  -134946  -134923  -134896  -134866  -134831  -134785  -134720 
 -134640  -134555  -134469  -134399  -134348  -134297  -134233  -134161 
 -134089  -134020  -133949  -133886  -133855  -133850  -133847  -133846 
 -133855  -133865  -133861  -133841  -133808  -133767  -133741  -133742 
 -133750  -133751  -133750  -133751  -133763  -133805  -133877  -133952 
 -134018  -134081  -134140  -134190  -134230  -134252  -134258  -134256 
 -134250  -134245  -134248  -134241  -134221  -134209  -134208  -134198 
 -134163  -134110  -134057  -134000  -133925  -133831  -133736  -133647 
 -133565  -133502  -133467  -133440  -133394  -133327  -133255  -133196 
 -133157  -133128  -133091  -133035  -132967  -132905  -132851  -132785 
 -132714  -132661  -132642  -132662  -132721  -132801  -132895  -133002 
 -133126  -133275  -133449  -133629  -133787  -133915  -134025  -134109 
 -134145  -134135  -134106  -134064  -134002  -133925  -133837  -133731 
 -133621  -133523  -133430  -133353  -133304  -133266  -133242  -133260 
 -133307  -133362  -133432  -133506  -133578  -133664  -133758  -133841 
 -133903  -133943  -133975  -134011  -134049  -134072  -134073  -134060 
 -134056  -134066  -134088  -134116  -134147  -134185  -134239  -134297 
 -134350  -134408  -134467  -134515  -134566  -134627  -134680  -134728 
 -134776  -134810  -134814  -134782  -134720  -134643  -134572  -134509 
 -134440  -134352  -134247  -134131  -134003  -133864  -133731  -133608 
 -133497  -133417  -133354  -133276  -133194  -133127  -133066  -133006 
 -132953  -132901  -132842  -132778  -132710  -132634  -132557  -132507 
 -132507  -132554  -132637  -132756  -132902  -133045  -133162  -133260 
 -133373  -133526  -133710  -133889  -134043  -134180  -134303  -134392 
 -134438  -134458  -134453  -134418  -134359  -134282  -134192  -134086 
 -133960  -133830  -133712  -133610  -133530  -133478  -133441  -133414 
 -133403  -133430  -133502  -133597  -133704  -133830  -133963  -134092 
 -134212  -134306  -134370  -134407  -134416  -134395  -134351  -134293 
 -134234  -134189  -134163  -134153  -134155  -134159  -134154  -134144 
 -134138  -134131  -134111  -134074  -134033  -134004  -133980  -133957 
 -133949  -133953  -133952  -133927  -133872  -133795  -133711  -133615 
 -133506  -133398  -133283  -133153  -133022  -132906  -132807  -132733 
 -132686  -132658  -132639  -132629  -132630  -132648  -132684  -132721 
 -132755  -132809  -132898  -132999  -133097  -133204  -133334  -133473 
 -133609  -133753  -133895  -134016  -134134  -134257  -134370  -134476 
 -134589  -134694  -134787  -134880  -134971  -135052  -135106  -135113 
 -135077  -135015  -134925  -134804  -134656  -134496  -134341  -134200 
 -134074  -133960  -133855  -133762  -133689  -133643  -133617  -133597 
 -133580  -133571  -133560  -133552  -133554  -133560  -133573  -133600 
 -133645  -133724  -133826  -133917  -133995  -134084  -134180  -134266 
 -134336  -134372  -134366  -134341  -134318  -134291  -134266  -134254 
 -134248  -134249  -134255  -134243  -134194  -134117  -134026  -133942 
 -133869  -133790  -133716  -133661  -133602  -133521  -133440  -133383 
 -133358  -133361  -133382  -133420  -133479  -133544  -133592  -133624 
 -133641  -133631  -133604  -133591  -133601  -133603  -133587  -133562 
 -133521  -133471  -133437  -133414  -133398  -133398  -133406  -133414 
 -133434  -133471  -133514  -133555  -133603  -133686  -133816  -133968 
 -134131  -134319  -134499  -134631  -134731  -134819  -134892  -134940 
 -134961  -134955  -134924  -134879  -134825  -134761  -134691  -134620 
 -134552  -134489  -134416  -134328  -134234  -134132  -134022  -133921 
 -133837  -133769  -133727  -133703  -133679  -133665  -133675  -133704 
 -133756  -133826  -133899  -133965  -134031  -134111  -134207  -134290 
 -134349  -134398  -134440  -134469  -134480  -134469  -134421  -134336 
 -134229  -134103  -133968  -133837  -133697  -133545  -133406  -133296 
 -133220  -133179  -133171  -133190  -133233  -133300  -133389  -133488 
 -133602  -133728  -133849  -133955  -134037  -134083  -134098  -134091 
 -134058  -134013  -133970  -133913  -133847  -133817  -133833  -133868 
 -133917  -133985  -134055  -134110  -134157  -134209  -134260  -134300 
 -134328  -134346  -134349  -134331  -134296  -134239  -134147  -134033 
 -133901  -133737  -133560  -133393  -133225  -133055  -132909  -132785 
 -132663  -132540  -132426  -132338  -132290  -132277  -132296  -132336 
 -132389  -132453  -132531  -132609  -132680  -132754  -132824  -132881 
 -132931  -132972  -132991  -132988  -132977  -132961  -132931  -132897 
 -132877  -132858  -132842  -132841  -132856  -132888  -132942  -133009 
 -133078  -133147  -133223  -133308  -133393  -133462  -133512  -133562 
 -133613  -133654  -133686  -133710  -133724  -133725  -133715  -133710 
 -133720  -133760  -133836  -133929  -134021  -134118  -134219  -134317 
 -134399  -134465  -134522  -134579  -134630  -134668  -134712  -134767 
 -134819  -134873  -134937  -135007  -135073  -135131  -135176  -135208 
 -135232  -135243  -135240  -135244  -135263  -135280  -135289  -135311 
 -135361  -135430  -135508  -135588  -135649  -135682  -135707  -135728 
 -135733  -135740  -135755  -135745  -135689  -135596  -135473  -135323 
 -135171  -135041  -134925  -134816  -134729  -134677  -134648  -134631 
 -134630  -134645  -134660  -134659  -134642  -134604  -134533  -134430 
 -134303  -134147  -133953  -133723  -133456  -133163  -132878  -132625 
 -132400  -132203  -132047  -131929  -131830  -131751  -131708  -131679 
 -131639  -131589  -131536  -131484  -131446  -131417  -131378  -131343 
 -131325  -131329  -131373  -131460  -131573  -131709  -131860  -131997 
 -132116  -132232  -132337  -132425  -132496  -132555  -132612  -132658 
 -132678  -132678  -132668  -132661  -132670  -132693  -132731  -132785 
 -132848  -132925  -133020  -133117  -133212  -133307  -133395  -133475 
 -133555  -133645  -133748  -133865  -133986  -134098  -134192  -134270 
 -134326  -134349  -134342  -134322  -134294  -134258  -134213  -134152 
 -134077  -133996  -133930  -133893  -133869  -133836  -133790  -133729 
 -133658  -133588  -133529  -133471  -133404  -133320  -133221  -133121 
 -133043  -132994  -132952  -132899  -132830  -132743  -132650  -132580 
 -132539  -132502  -132455  -132412  -132383  -132357  -132317  -132267 
 -132235  -132238  -132273  -132348  -132466  -132598  -132722  -132842 
 -132965  -133093  -133214  -133315  -133412  -133516  -133617  -133717 
 -133817  -133906  -133991  -134097  -134224  -134356  -134485  -134612 
 -134735  -134844  -134934  -135015  -135098  -135194  -135299  -135384 
 -135434  -135465  -135495  -135527  -135552  -135579  -135622  -135665 
 -135685  -135698  -135720  -135746  -135778  -135813  -135832  -135827 
 -135796  -135741  -135673  -135611  -135554  -135497  -135445  -135393 
 -135324  -135242  -135161  -135081  -135008  -134950  -134887  -134810 
 -134742  -134691  -134653  -134639  -134662  -134707  -134755  -134797 
 -134832  -134857  -134877  -134897  -134908  -134887  -134824  -134733 
 -134617  -134469  -134306  -134146  -133986  -133831  -133691  -133561 
 -133448  -133355  -133271  -133192  -133120  -133061  -133005  -132929 
 -132820  -132692  -132563  -132452  -132366  -132297  -132240  -132213 
 -132229  -132281  -132376  -132525  -132718  -132942  -133182  -133420 
 -133663  -133932  -134205  -134440  -134631  -134783  -134895  -134974 
 -135032  -135065  -135077  -135082  -135076  -135061  -135047  -135028 
 -134992  -134950  -134909  -134853  -134782  -134709  -134631  -134548 
 -134480  -134438  -134409  -134380  -134350  -134314  -134270  -134233 
 -134202  -134163  -134122  -134083  -134057  -134056  -134078  -134115 
 -134175  -134263  -134367  -134478  -134600  -134727  -134851  -134961 
 -135042  -135083  -135095  -135091  -135055  -134978  -134876  -134766 
 -134651  -134552  -134485  -134443  -134432  -134469  -134544  -134633 
 -134723  -134824  -134950  -135092  -135224  -135341  -135456  -135555 
 -135618  -135653  -135675  -135686  -135693  -135701  -135685  -135620 
 -135510  -135371  -135225  -135095  -134962  -134809  -134659  -134519 
 -134380  -134259  -134162  -134076  -133996  -133923  -133846  -133758 
 -133662  -133565  -133466  -133362  -133259  -133148  -133012  -132867 
 -132727  -132583  -132443  -132333  -132233  -132122  -132022  -131953 
 -131908  -131884  -131892  -131926  -131973  -132029  -132089  -132148 
 -132214  -132293  -132373  -132431  -132459  -132477  -132505  -132526 
 -132519  -132485  -132435  -132370  -132294  -132223  -132170  -132123 
 -132075  -132029  -131984  -131949  -131941  -131948  -131950  -131968 
 -132015  -132069  -132130  -132208  -132283  -132341  -132391  -132450 
 -132531  -132625  -132695  -132739  -132766  -132767  -132753  -132743 
 -132739  -132745  -132776  -132825  -132869  -132906  -132953  -133026 
 -133123  -133229  -133336  -133454  -133575  -133678  -133771  -133872 
 -133970  -134070  -134176  -134266  -134318  -134344  -134356  -134348 
 -134327  -134301  -134269  -134224  -134182  -134162  -134155  -134159 
 -134193  -134240  -134277  -134330  -134414  -134509  -134605  -134701 
 -134795  -134879  -134941  -134987  -135032  -135062  -135060  -135039 
 -135012  -134977  -134940  -134898  -134831  -134739  -134633  -134519 
 -134402  -134294  -134204  -134122  -134038  -133956  -133881  -133810 
 -133737  -133662  -133585  -133509  -133441  -133387  -133345  -133311 
 -133274  -133229  -133182  -133134  -133081  -133039  -133018  -133010 
 -133001  -132975  -132929  -132882  -132847  -132831  -132845  -132875 
 -132897  -132921  -132962  -133008  -133051  -133098  -133142  -133189 
 -133262  -133361  -133468  -133565  -133644  -133727  -133826  -133916 
 -133991  -134067  -134133  -134166  -134165  -134143  -134123  -134125 
 -134149  -134189  -134239  -134294  -134360  -134443  -134540  -134646 
 -134755  -134861  -134965  -135070  -135171  -135257  -135294  -135257 
 -135159  -135010  -134816  -134607  -134401  -134190  -133969  -133741 
 -133506  -133274  -133077  -132925  -132807  -132719  -132656  -132613 
 -132580  -132551  -132521  -132488  -132449  -132405  -132348  -132270 
 -132176  -132075  -131979  -131891  -131808  -131732  -131675  -131646 
 -131657  -131696  -131738  -131792  -131881  -132016  -132191  -132405 
 -132657  -132939  -133240  -133559  -133895  -134251  -134618  -134974 
 -135303  -135609  -135895  -136166  -136422  -136660  -136877  -137063 
 -137220  -137367  -137517  -137669  -137806  -137907  -137968  -137997 
 -137995  -137959  -137900  -137841  -137767  -137659  -137518  -137347 
 -137135  -136887  -136605  -136301  -135996  -135700  -135416  -135156 
 -134928  -134740  -134598  -134497  -134423  -134372  -134344  -134328 
 -134302  -134251  -134178  -134092  -133988  -133864  -133729  -133583 
 -133422  -133258  -133114  -133004  -132926  -132856  -132777  -132707 
 -132666  -132652  -132645  -132639  -132654  -132698  -132752  -132805 
 -132859  -132915  -132973  -133041  -133119  -133193  -133257  -133313 
 -133358  -133401  -133462  -133538  -133611  -133667  -133693  -133693 
 -133690  -133700  -133718  -133717  -133686  -133635  -133571  -133483 
 -133370  -133255  -133144  -133032  -132933  -132865  -132822  -132784 
 -132743  -132697  -132628  -132519  -132379  -132214  -132013  -131794 
 -131584  -131374  -131152  -130929  -130721  -130538  -130393  -130293 
 -130230  -130187  -130159  -130154  -130177  -130229  -130304  -130382 
 -130454  -130538  -130633  -130725  -130823  -130935  -131065  -131225 
 -131409  -131595  -131782  -131972  -132173  -132404  -132658  -132915 
 -133172  -133413  -133631  -133849  -134085  -134326  -134556  -134774 
 -134974  -135150  -135307  -135445  -135555  -135642  -135715  -135769 
 -135789  -135769  -135728  -135694  -135685  -135696  -135714  -135724 
 -135724  -135712  -135679  -135622  -135553  -135473  -135379  -135267 
 -135139  -135006  -134873  -134747  -134627  -134519  -134434  -134375 
 -134343  -134344  -134373  -134422  -134487  -134558  -134628  -134701 
 -134766  -134799  -134798  -134786  -134766  -134724  -134663  -134611 
 -134576  -134539  -134502  -134491  -134502  -134509  -134510  -134530 
 -134584  -134663  -134760  -134870  -134981  -135080  -135168  -135241 
 -135284  -135293  -135275  -135239  -135195  -135132  -135021  -134878 
 -134738  -134606  -134476  -134361  -134261  -134169  -134087  -134022 
 -133962  -133891  -133813  -133730  -133635  -133540  -133464  -133395 
 -133319  -133250  -133205  -133172  -133148  -133147  -133172  -133209 
 -133260  -133325  -133392  -133452  -133520  -133613  -133730  -133871 
 -134024  -134167  -134303  -134439  -134562  -134648  -134683  -134675 
 -134634  -134550  -134407  -134215  -133999  -133776  -133560  -133363 
 -133182  -133018  -132868  -132728  -132614  -132539  -132488  -132450 
 -132432  -132430  -132435  -132444  -132456  -132466  -132461  -132438 
 -132405  -132356  -132280  -132184  -132085  -131984  -131875  -131765 
 -131659  -131557  -131484  -131465  -131480  -131503  -131549  -131630 
 -131736  -131861  -132002  -132151  -132297  -132437  -132572  -132699 
 -132817  -132937  -133042  -133106  -133140  -133167  -133184  -133198 
 -133231  -133292  -133375  -133481  -133604  -133730  -133848  -133961 
 -134076  -134192  -134301  -134407  -134523  -134644  -134763  -134888 
 -135021  -135148  -135266  -135383  -135495  -135606  -135730  -135871 
 -136022  -136182  -136351  -136518  -136685  -136847  -136983  -137082 
 -137152  -137197  -137211  -137190  -137139  -137076  -137017  -136960 
 -136889  -136804  -136716  -136625  -136535  -136456  -136380  -136285 
 -136175  -136070  -135965  -135827  -135651  -135455  -135230  -134971 
 -134698  -134408  -134081  -133726  -133363  -133013  -132687  -132392 
 -132128  -131879  -131639  -131418  -131232  -131103  -131025  -130982 
 -130972  -130979  -130991  -131021  -131054  -131064  -131069  -131090 
 -131119  -131136  -131134  -131125  -131108  -131084  -131069  -131073 
 -131088  -131107  -131125  -131151  -131189  -131227  -131258  -131294 
 -131336  -131378  -131425  -131484  -131555  -131645  -131752  -131875 
 -132020  -132179  -132342  -132523  -132734  -132959  -133178  -133394 
 -133628  -133888  -134164  -134446  -134721  -134985  -135241  -135493 
 -135735  -135968  -136198  -136420  -136613  -136781  -136942  -137091 
 -137215  -137310  -137378  -137433  -137485  -137527  -137550  -137555 
 -137540  -137504  -137449  -137383  -137317  -137243  -137141  -137000 
 -136829  -136650  -136470  -136281  -136077  -135861  -135645  -135419 
 -135178  -134941  -134721  -134520  -134345  -134191  -134049  -133913 
 -133779  -133643  -133503  -133361  -133227  -133103  -132982  -132858 
 -132739  -132631  -132522  -132404  -132284  -132179  -132092  -132023 
 -131974  -131951  -131957  -131987  -132040  -132122  -132220  -132304 
 -132371  -132437  -132510  -132585  -132653  -132702  -132727  -132727 
 -132720  -132739  -132783  -132824  -132853  -132880  -132905  -132927 
 -132946  -132961  -132970  -132973  -132976  -132988  -133013  -133050 
 -133098  -133154  -133215  -133280  -133344  -133404  -133466  -133536 
 -133612  -133676  -133730  -133788  -133845  -133880  -133890  -133887 
 -133867  -133828  -133776  -133715  -133654  -133597  -133544  -133505 
 -133475  -133439  -133403  -133377  -133353  -133318  -133284  -133274 
 -133289  -133311  -133337  -133366  -133391  -133411  -133424  -133434 
 -133448  -133453  -133444  -133424  -133389  -133340  -133288  -133248 
 -133217  -133198  -133199  -133214  -133243  -133300  -133389  -133508 
 -133645  -133785  -133912  -134017  -134103  -134180  -134249  -134307 
 -134353  -134385  -134405  -134418  -134426  -134429  -134435  -134461 
 -134518  -134599  -134698  -134823  -134960  -135088  -135213  -135335 
 -135444  -135558  -135667  -135744  -135794  -135837  -135864  -135848 
 -135792  -135724  -135649  -135562  -135470  -135373  -135274  -135190 
 -135135  -135110  -135106  -135112  -135120  -135136  -135152  -135137 
 -135080  -134987  -134860  -134704  -134523  -134322  -134110  -133896 
 -133690  -133487  -133289  -133125  -133006  -132908  -132826  -132765 
 -132715  -132675  -132654  -132651  -132668  -132690  -132697  -132688 
 -132679  -132672  -132658  -132626  -132576  -132526  -132485  -132448 
