Origin Time       2025/01/13 21:19:00
Lat.              31.8
Long.             131.6
Depth. (km)       30
Mag.              6.9
Station Code      YMGH15
Station Lat.      33.9725
Station Long.     131.8149
Station Height(m) 100
Record Time       2025/01/13 21:20:12
Sampling Freq(Hz) 100Hz
Duration Time(s)  136
Dir.              5
Scale Factor      3920(gal)/6170801
Max. Acc. (gal)   2.590
Last Correction   2025/01/13 21:19:57
Memo.             
[...]
   17150    17086    16912    16694    16498    16363    16318    16405 
   16589    16772    16906    16971    16953    16905    16910    16987 
   17060    17036    16934    16856    16847    16877    16922    16958 
   16944    16888    16815    16721    16595    16456    16347    16315 
   16376    16492    16597    16663    16714    16778    16830    16821 
   16767    16756    16836    16972    17092    17145    17126    17046 
   16939    16894    16999    17228    17419    17446    17330    17170 
   17063    17028    16993    16929    16893    16913    16962    17012 
   17048    17040    16946    16810    16725    16723    16784    16852 
   16858    16836    16881    16995    17091    17113    17099    17104 
   17128    17119    17030    16887    16752    16619    16448    16243 
   16059    15972    15984    16037    16164    16439    16770    16964 
   16961    16881    16867    16958    17107    17248    17302    17203 
   16962    16716    16632    16745    16948    17125    17222    17239 
   17186    17063    16912    16792    16708    16627    16514    16352 
   16240    16283    16409    16511    16586    16611    16551    16466 
   16422    16461    16617    16837    16993    17000    16868    16674 
   16527    16507    16595    16721    16856    16986    17054    17038 
   17003    17028    17110    17194    17250    17299    17346    17343 
   17269    17196    17215    17335    17476    17542    17516    17447 
   17367    17281    17196    17134    17128    17167    17183    17163 
   17144    17107    17010    16857    16739    16752    16827    16793 
   16626    16438    16328    16353    16491    16648    16801    16965 
   17065    17071    17079    17119    17101    16983    16830    16705 
   16614    16566    16571    16610    16660    16731    16843    16991 
   17135    17196    17112    16943    16835    16850    16929    16998 
   17047    17126    17268    17404    17425    17324    17168    16991 
   16842    16780    16764    16731    16711    16765    16875    16957 
   16955    16880    16771    16671    16594    16523    16433    16278 
   16058    15896    15931    16176    16531    16864    17086    17198 
   17200    17056    16840    16692    16663    16743    16891    17042 
   17169    17240    17225    17186    17185    17214    17258    17277 
   17259    17247    17223    17159    17135    17246    17443    17582 
   17585    17489    17396    17372    17424    17528    17629    17670 
   17641    17537    17332    17052    16783    16575    16440    16392 
   16377    16316    16229    16204    16311    16512    16618    16522 
   16349    16287    16408    16625    16795    16895    16968    16962 
   16844    16708    16666    16739    16876    17003    17086    17134 
   17101    16940    16719    16544    16444    16417    16490    16692 
   16977    17204    17274    17249    17280    17411    17539    17566 
   17501    17405    17302    17218    17230    17357    17473    17461 
   17362    17269    17195    17089    16951    16871    16907    17000 
   17059    17048    16974    16842    16675    16554    16571    16733 
   16929    17068    17189    17329    17430    17443    17365    17248 
   17171    17139    17108    17051    16924    16716    16520    16449 
   16585    16926    17321    17571    17564    17308    16913    16528 
   16249    16105    16107    16243    16430    16524    16444    16259 
   16102    16071    16187    16381    16573    16714    16789    16846 
   16950    17047    17019    16863    16682    16558    16520    16548 
   16604    16674    16750    16787    16793    16847    16942    16999 
   17017    17029    17019    16979    16933    16887    16836    16765 
   16654    16522    16439    16435    16450    16442    16440    16485 
   16597    16765    16957    17158    17395    17655    17786    17653 
   17375    17191    17169    17203    17195    17117    17002    16893 
   16806    16741    16692    16632    16582    16641    16858    17146 
   17376    17490    17481    17358    17179    17049    17032    17101 
   17199    17313    17425    17459    17372    17234    17099    16968 
   16863    16772    16678    16659    16799    17076    17422    17751 
   17972    18042    18008    17936    17810    17613    17435    17393 
   17503    17684    17852    17996    18095    18051    17782    17304 
   16709    16132    15733    15655    15890    16255    16580    16796 
   16884    16876    16846    16836    16852    16907    16993    17071 
   17155    17275    17393    17439    17402    17331    17253    17152 
   17041    16974    16948    16908    16872    16930    17102    17307 
   17437    17430    17336    17256    17237    17268    17324    17374 
   17350    17210    17040    16982    17063    17237    17466    17673 
   17802    17873    17867    17715    17443    17156    16918    16744 
   16625    16510    16373    16270    16245    16294    16429    16583 
   16606    16468    16282    16138    16081    16122    16212    16300 
   16426    16658    16944    17155    17187    16985    16634    16378 
   16421    16741    17143    17448    17552    17392    17007    16581 
   16313    16279    16376    16445    16469    16587    16825    16974 
   16840    16467    16033    15677    15433    15272    15228    15353 
   15583    15811    15997    16154    16258    16207    15959    15633 
   15398    15358    15531    15899    16391    16847    17124    17201 
   17147    17092    17132    17199    17186    17154    17236    17448 
   17700    17890    17976    17959    17809    17508    17211    17137 
   17298    17548    17785    17976    18096    18117    18036    17936 
   17924    17989    17998    17870    17651    17404    17145    16893 
   16681    16537    16471    16489    16616    16882    17214    17450 
   17486    17325    17050    16810    16724    16792    16896    16909 
   16835    16802    16881    17000    17072    17127    17258    17469 
   17656    17752    17816    17897    17934    17839    17609    17329 
   17124    17098    17263    17546    17865    18159    18369    18427 
   18294    18019    17738    17578    17592    17744    17925    18075 
   18197    18251    18181    17952    17588    17234    17021    16912 
   16803    16671    16602    16667    16836    17073    17336    17514 
   17535    17417    17223    17053    16950    16890    16917    17052 
   17194    17219    17053    16706    16338    16125    16092    16160 
   16256    16355    16487    16692    16907    16988    16883    16637 
   16297    15971    15757    15635    15594    15690    15941    16276 
   16555    16635    16511    16312    16116    15892    15673    15603 
   15750    16058    16432    16761    16941    16922    16758    16607 
   16577    16622    16637    16573    16489    16468    16497    16492 
   16428    16336    16237    16119    15987    15903    15896    15935 
   15994    16030    15987    15864    15688    15501    15392    15396 
   15443    15458    15402    15260    15092    15012    15105    15367 
   15739    16144    16499    16746    16905    17046    17202    17336 
   17403    17423    17438    17451    17459    17503    17586    17664 
   17715    17740    17723    17657    17554    17423    17290    17147 
   16939    16734    16694    16785    16851    16865    16853    16817 
   16803    16862    16990    17115    17118    16945    16704    16584 
   16673    16914    17193    17417    17525    17493    17392    17365 
   17436    17480    17457    17456    17490    17445    17262    17037 
   16906    16908    17006    17185    17433    17640    17674    17596 
   17595    17689    17719    17607    17434    17288    17172    17059 
   16993    17050    17199    17315    17327    17260    17130    16892 
   16542    16171    15851    15590    15419    15413    15617    15952 
   16245    16377    16368    16293    16190    16030    15809    15632 
   15598    15646    15665    15686    15822    16084    16387    16677 
   16963    17249    17498    17612    17542    17349    17121    16966 
   16973    17114    17270    17310    17207    17096    17116    17278 
   17507    17741    17954    18092    18122    18111    18135    18173 
   18171    18100    17935    17661    17271    16828    16529    16548 
   16828    17147    17350    17422    17381    17264    17155    17123 
   17151    17162    17120    17065    17056    17131    17271    17420 
   17562    17682    17728    17686    17603    17509    17380    17200 
   17006    16830    16657    16481    16349    16298    16288    16241 
   16159    16154    16254    16325    16248    16092    16030    16107 
   16201    16248    16319    16436    16563    16734    16971    17219 
   17402    17475    17472    17482    17519    17553    17618    17766 
   17979    18191    18374    18524    18595    18563    18496    18498 
   18611    18785    18913    18915    18812    18678    18551    18463 
   18479    18602    18748    18828    18764    18494    18056    17607 
   17293    17134    17041    16924    16767    16605    16439    16263 
   16114    16023    15974    15992    16129    16348    16543    16672 
   16751    16771    16728    16644    16538    16401    16212    15992 
   15851    15903    16162    16563    16990    17289    17338    17143 
   16845    16608    16513    16587    16786    16969    17050    17082 
   17113    17157    17206    17176    17028    16825    16596    16362 
   16191    16080    15966    15832    15683    15513    15338    15174 
   15023    14905    14820    14780    14830    14994    15230    15410 
   15426    15333    15281    15347    15516    15727    15886    15930 
   15852    15672    15423    15157    14928    14783    14762    14871 
   15074    15343    15653    15965    16229    16396    16425    16264 
   15878    15350    14889    14688    14804    15168    15680    16275 
   16874    17386    17750    17905    17799    17489    17132    16842 
   16618    16449    16431    16668    17119    17662    18217    18724 
   19084    19236    19220    19087    18850    18533    18203    17957 
   17858    17865    17882    17862    17840    17808    17663    17335 
   16872    16347    15860    15534    15404    15382    15354    15257 
   15132    15112    15265    15498    15744    16039    16378    16693 
   16911    16978    16894    16670    16362    16130    16127    16371 
   16754    17129    17454    17797    18173    18505    18729    18801 
   18710    18528    18377    18398    18653    19012    19280    19335 
   19171    18912    18662    18422    18214    18069    17958    17902 
   17961    18123    18348    18592    18798    18906    18858    18631 
   18284    17940    17681    17511    17395    17320    17323    17376 
   17352    17197    17012    16893    16885    17002    17182    17346 
   17417    17316    17049    16769    16655    16755    16998    17318 
   17644    17861    17859    17628    17315    17097    16991    16929 
   16933    17039    17156    17165    17077    16983    16890    16666 
   16220    15657    15154    14782    14557    14530    14725    15022 
   15225    15285    15354    15564    15899    16253    16531    16714 
   16836    16914    16975    17076    17220    17369    17550    17811 
   18075    18181    18057    17781    17428    16995    16537    16210 
   16105    16151    16238    16335    16462    16585    16590    16438 
   16230    16025    15782    15520    15392    15565    16017    16538 
   16901    16988    16839    16624    16527    16665    16985    17290 
   17479    17641    17884    18200    18486    18617    18554    18380 
   18224    18202    18385    18705    18987    19095    19049    18964 
   18945    19022    19158    19289    19330    19220    19015    18841 
   18767    18753    18714    18635    18513    18293    17964    17636 
   17448    17416    17411    17329    17162    16919    16617    16294 
   16006    15818    15774    15851    15961    16024    16039    16054 
   16118    16245    16394    16504    16501    16333    16059    15803 
   15637    15577    15613    15732    15931    16202    16493    16701 
   16736    16610    16450    16381    16435    16571    16746    16909 
   16991    16979    16924    16884    16895    16891    16801    16701 
   16666    16609    16431    16132    15757    15383    15073    14844 
   14714    14677    14677    14673    14681    14720    14757    14772 
   14781    14795    14805    14781    14690    14571    14535    14680 
   15002    15397    15764    16088    16381    16624    16802    16909 
   16945    16914    16800    16633    16500    16422    16353    16290 
   16229    16136    15992    15849    15803    15877    16000    16137 
   16325    16584    16815    16831    16560    16145    15776    15527 
   15392    15376    15537    15903    16350    16705    16934    17142 
   17421    17766    18122    18480    18849    19210    19546    19881 
   20215    20502    20709    20808    20734    20457    20051    19644 
   19344    19177    19096    19059    19048    19026    18955    18850 
   18757    18698    18625    18477    18276    18111    18038    18058 
   18136    18210    18256    18334    18488    18688    18898    19060 
   19067    18848    18443    17955    17526    17261    17174    17267 
   17526    17833    18023    17984    17684    17166    16482    15680 
   14836    14080    13544    13249    13150    13232    13460    13725 
   13927    14042    14067    13975    13756    13437    13108    12898 
   12832    12840    12941    13219    13686    14245    14728    15009 
   15114    15168    15282    15527    15906    16343    16729    17034 
   17320    17608    17821    17888    17827    17704    17544    17341 
   17123    16945    16775    16518    16179    15854    15578    15330 
   15132    15029    15012    14974    14789    14473    14187    14055 
   14109    14350    14738    15183    15613    16016    16385    16676 
   16857    16923    16896    16844    16835    16877    16959    17061 
   17147    17224    17342    17519    17727    17905    17984    17976 
   17969    18042    18225    18485    18752    18937    18985    18946 
   18918    18931    18942    18926    18952    19098    19311    19470 
   19534    19562    19597    19583    19490    19411    19387    19308 
   19055    18670    18317    18073    17883    17721    17610    17516 
   17386    17229    17085    16965    16820    16573    16242    15958 
   15789    15688    15603    15516    15418    15299    15136    14904 
   14604    14257    13891    13586    13467    13595    13878    14170 
   14418    14635    14802    14863    14803    14686    14606    14634 
   14796    15091    15495    15929    16320    16669    17020    17390 
   17767    18098    18338    18494    18597    18662    18716    18786 
   18864    18907    18884    18802    18676    18496    18230    17865 
   17468    17139    16928    16853    16929    17150    17413    17574 
   17601    17565    17512    17444    17353    17260    17211    17182 
   17141    17181    17384    17687    17963    18148    18263    18338 
   18380    18406    18469    18631    18925    19340    19799    20214 
   20525    20661    20614    20500    20408    20326    20241    20169 
   20115    20073    20030    19986    19954    19900    19756    19502 
   19159    18714    18139    17457    16799    16310    15992    15754 
   15570    15491    15533    15633    15688    15661    15549    15330 
   15022    14698    14413    14208    14101    14094    14202    14425 
   14688    14896    14984    14914    14703    14440    14221    14081 
   14012    14024    14162    14465    14890    15288    15508    15516 
   15387    15230    15107    15047    15086    15225    15429    15691 
   16008    16319    16564    16733    16826    16866    16887    16910 
   16970    17089    17239    17423    17683    17995    18289    18548 
   18797    19008    19114    19100    19016    18910    18771    18582 
   18355    18128    17934    17763    17587    17411    17262    17146 
   17042    16934    16819    16694    16534    16324    16125    16002 
   15946    15943    15979    16003    15987    15942    15906    15939 
   16054    16218    16437    16689    16881    16972    16985    16933 
   16851    16800    16840    17014    17320    17695    18049    18307 
   18457    18525    18540    18508    18414    18261    18122    18074 
   18129    18234    18304    18296    18246    18189    18116    18011 
   17854    17644    17427    17231    17040    16859    16720    16618 
   16513    16378    16219    16063    15921    15830    15850    15964 
   16091    16171    16185    16156    16140    16170    16244    16348 
   16450    16522    16564    16603    16695    16904    17233    17596 
   17875    18026    18105    18136    18089    17954    17756    17540 
   17380    17289    17225    17152    17018    16776    16445    16136 
   16003    16103    16346    16610    16832    17024    17215    17422 
   17652    17853    17935    17879    17743    17595    17482    17405 
   17337    17259    17140    16950    16745    16658    16751    16943 
   17088    17077    16912    16675    16414    16111    15791    15552 
   15450    15459    15555    15733    15944    16090    16110    16049 
   16000    15998    16039    16120    16212    16279    16297    16276 
   16267    16332    16505    16783    17144    17520    17840    18068 
   18168    18109    17920    17656    17376    17143    16976    16849 
   16733    16600    16430    16251    16093    15948    15820    15726 
   15676    15694    15779    15884    15972    16028    16049    16051 
   16069    16104    16124    16099    16045    16031    16137    16400 
   16759    17095    17289    17255    17001    16650    16350    16171 
   16095    16088    16132    16214    16325    16447    16563    16651 
   16670    16608    16542    16540    16581    16640    16748    16960 
   17292    17665    17948    18072    18041    17871    17595    17318 
   17178    17249    17473    17737    17970    18141    18209    18142 
   17982    17814    17708    17722    17852    18037    18225    18374 
   18421    18310    18052    17720    17371    17028    16734    16542 
   16484    16527    16584    16600    16569    16476    16328    16171 
   16017    15827    15570    15278    15035    14884    14746    14566 
   14428    14433    14585    14822    15085    15347    15572    15708 
   15765    15827    15941    16083    16254    16494    16807    17141 
   17438    17671    17856    18028    18181    18287    18334    18336 
   18328    18345    18407    18488    18532    18516    18473    18425 
   18364    18262    18105    17908    17679    17425    17205    17087 
   17078    17107    17071    16909    16637    16286    15886    15497 
   15206    15050    15010    15070    15235    15472    15689    15809 
   15851    15884    15941    16003    16075    16217    16476    16827 
   17205    17577    17938    18241    18435    18534    18551    18454 
   18221    17906    17611    17395    17235    17087    16948    16836 
   16755    16678    16587    16512    16486    16490    16491    16468 
   16412    16349    16324    16363    16453    16546    16622    16713 
   16831    16930    16993    17065    17177    17313    17452    17586 
   17707    17777    17765    17710    17671    17665    17699    17766 
