Origin Time       2025/01/13 21:19:00
Lat.              31.8
Long.             131.6
Depth. (km)       30
Mag.              6.9
Station Code      YMGH11
Station Lat.      34.2091
Station Long.     131.6859
Station Height(m) 120
Record Time       2025/01/13 21:20:18
Sampling Freq(Hz) 100Hz
Duration Time(s)  138
Dir.              5
Scale Factor      7845(gal)/8223790
Max. Acc. (gal)   1.923
Last Correction   2025/01/13 21:20:19
Memo.             
[...]
   -1683    -1779    -1961    -2147    -2241    -2181    -2015    -1863 
   -1799    -1842    -1988    -2182    -2323    -2353    -2312    -2263 
   -2249    -2293    -2390    -2498    -2562    -2571    -2550    -2529 
   -2547    -2596    -2610    -2544    -2412    -2272    -2196    -2232 
   -2363    -2508    -2565    -2471    -2247    -1988    -1807    -1773 
   -1877    -2039    -2160    -2185    -2149    -2118    -2133    -2174 
   -2199    -2158    -2038    -1906    -1879    -2019    -2286    -2554 
   -2689    -2629    -2386    -2080    -1887    -1918    -2131    -2392 
   -2563    -2569    -2407    -2169    -2002    -1993    -2141    -2359 
   -2528    -2559    -2439    -2241    -2081    -2035    -2103    -2238 
   -2359    -2398    -2335    -2209    -2108    -2093    -2180    -2320 
   -2421    -2408    -2292    -2141    -2029    -2025    -2160    -2380 
   -2560    -2598    -2457    -2193    -1945    -1845    -1950    -2205 
   -2485    -2654    -2621    -2407    -2118    -1910    -1902    -2099 
   -2386    -2623    -2685    -2538    -2278    -2058    -1989    -2118 
   -2389    -2678    -2843    -2809    -2614    -2374    -2200    -2153 
   -2220    -2335    -2423    -2430    -2355    -2249    -2169    -2145 
   -2170    -2234    -2326    -2425    -2523    -2608    -2673    -2682 
   -2608    -2457    -2280    -2150    -2119    -2185    -2309    -2440 
   -2524    -2505    -2389    -2253    -2177    -2203    -2342    -2550 
   -2739    -2841    -2803    -2609    -2334    -2099    -1987    -2026 
   -2192    -2405    -2567    -2586    -2444    -2218    -2012    -1912 
   -1965    -2173    -2474    -2749    -2882    -2825    -2614    -2326 
   -2069    -1965    -2081    -2373    -2693    -2870    -2798    -2488 
   -2069    -1738    -1661    -1868    -2230    -2540    -2636    -2461 
   -2106    -1763    -1620    -1742    -2054    -2380    -2539    -2454 
   -2177    -1852    -1625    -1593    -1756    -2007    -2199    -2223 
   -2069    -1814    -1583    -1494    -1587    -1811    -2062    -2238 
   -2251    -2072    -1787    -1551    -1487    -1628    -1906    -2178 
   -2307    -2220    -1961    -1668    -1501    -1549    -1798    -2126 
   -2381    -2450    -2339    -2154    -2031    -2058    -2245    -2504 
   -2700    -2727    -2571    -2316    -2088    -1979    -2020    -2188 
   -2390    -2515    -2500    -2376    -2223    -2124    -2124    -2216 
   -2365    -2515    -2604    -2596    -2515    -2421    -2369    -2380 
   -2438    -2502    -2513    -2430    -2270    -2108    -2020    -2043 
   -2173    -2365    -2527    -2577    -2500    -2344    -2193    -2123 
   -2169    -2308    -2486    -2632    -2678    -2621    -2521    -2446 
   -2446    -2547    -2712    -2845    -2872    -2778    -2600    -2409 
   -2301    -2338    -2484    -2628    -2681    -2624    -2490    -2351 
   -2296    -2367    -2521    -2659    -2698    -2624    -2484    -2376 
   -2388    -2517    -2687    -2802    -2808    -2704    -2562    -2489 
   -2546    -2693    -2816    -2817    -2677    -2440    -2211    -2100 
   -2146    -2292    -2423    -2438    -2311    -2110    -1953    -1927 
   -2034    -2185    -2269    -2218    -2050    -1853    -1729    -1742 
   -1876    -2046    -2157    -2153    -2060    -1969    -1954    -2029 
   -2158    -2293    -2362    -2320    -2182    -2038    -1975    -2023 
   -2161    -2332    -2473    -2532    -2486    -2366    -2239    -2158 
   -2133    -2160    -2224    -2281    -2292    -2257    -2203    -2162 
   -2149    -2157    -2168    -2170    -2157    -2130    -2112    -2123 
   -2149    -2178    -2201    -2199    -2181    -2187    -2245    -2336 
   -2413    -2440    -2417    -2378    -2363    -2400    -2501    -2650 
   -2787    -2849    -2829    -2786    -2775    -2813    -2897    -2998 
   -3082    -3111    -3087    -3053    -3052    -3061    -3053    -3029 
   -2998    -2972    -2972    -3011    -3072    -3113    -3096    -3013 
   -2882    -2762    -2690    -2663    -2667    -2682    -2686    -2679 
   -2664    -2641    -2594    -2506    -2388    -2263    -2173    -2161 
   -2236    -2347    -2424    -2432    -2370    -2288    -2258    -2324 
   -2452    -2563    -2583    -2501    -2363    -2236    -2184    -2224 
   -2317    -2373    -2330    -2192    -2019    -1904    -1904    -2014 
   -2164    -2250    -2200    -2019    -1773    -1570    -1509    -1624 
   -1854    -2068    -2133    -1995    -1702    -1383    -1201    -1275 
   -1591    -2000    -2305    -2354    -2104    -1665    -1251    -1065 
   -1210    -1622    -2093    -2401    -2413    -2155    -1800    -1561 
   -1587    -1880    -2292    -2623    -2732    -2581    -2253    -1908 
   -1713    -1733    -1900    -2066    -2111    -1987    -1730    -1452 
   -1291    -1309    -1455    -1615    -1694    -1656    -1549    -1466 
   -1489    -1629    -1807    -1906    -1871    -1726    -1560    -1479 
   -1544    -1721    -1899    -1962    -1869    -1676    -1489    -1404 
   -1453    -1594    -1728    -1764    -1692    -1574    -1486    -1493 
   -1593    -1718    -1799    -1800    -1736    -1660    -1647    -1737 
   -1911    -2088    -2188    -2182    -2088    -1948    -1823    -1779 
   -1844    -1983    -2130    -2212    -2188    -2058    -1884    -1740 
   -1709    -1826    -2043    -2246    -2338    -2281    -2118    -1956 
   -1908    -2054    -2373    -2737    -3002    -3088    -2992    -2793 
   -2617    -2567    -2671    -2883    -3103    -3233    -3215    -3061 
   -2843    -2651    -2562    -2614    -2775    -2960    -3087    -3091 
   -2953    -2729    -2523    -2434    -2516    -2741    -3006    -3181 
   -3180    -2991    -2679    -2363    -2165    -2138    -2236    -2371 
   -2473    -2512    -2517    -2540    -2635    -2803    -2988    -3121 
   -3159    -3110    -3029    -2998    -3060    -3195    -3348    -3447 
   -3445    -3345    -3204    -3095    -3071    -3130    -3227    -3311 
   -3352    -3339    -3298    -3272    -3295    -3354    -3422    -3462 
   -3443    -3353    -3218    -3084    -2999    -2990    -3052    -3141 
   -3200    -3196    -3123    -3003    -2875    -2779    -2751    -2787 
   -2844    -2878    -2879    -2862    -2849    -2882    -2991    -3171 
   -3383    -3555    -3627    -3601    -3520    -3449    -3460    -3576 
   -3746    -3886    -3921    -3807    -3573    -3335    -3230    -3316 
   -3551    -3808    -3931    -3843    -3573    -3244    -3022    -3014 
   -3199    -3442    -3564    -3453    -3126    -2714    -2392    -2263 
   -2317    -2448    -2516    -2425    -2180    -1876    -1661    -1632 
   -1765    -1957    -2093    -2103    -1968    -1745    -1540    -1424 
   -1398    -1413    -1399    -1309    -1136     -920     -734     -631 
    -618     -665     -733     -803     -870     -928     -966     -988 
    -992     -977     -940     -893     -869     -896     -978    -1071 
   -1123    -1107    -1028     -923     -853     -881    -1031    -1266 
   -1506    -1657    -1653    -1498    -1263    -1036     -893     -889 
   -1017    -1190    -1300    -1289    -1159     -965     -820     -827 
   -1004    -1279    -1514    -1586    -1448    -1162     -885     -799 
    -993    -1390    -1780    -1962    -1853    -1509    -1113     -911 
   -1044    -1445    -1899    -2178    -2145    -1822    -1379    -1040 
    -967    -1177    -1543    -1875    -2026    -1954    -1719    -1451 
   -1290    -1320    -1533    -1834    -2091    -2187    -2076    -1811 
   -1522    -1339    -1354    -1587    -1957    -2304    -2492    -2481 
   -2320    -2115    -1980    -1992    -2145    -2359    -2538    -2598 
   -2508    -2301    -2069    -1912    -1917    -2091    -2354    -2575 
   -2643    -2519    -2249    -1954    -1794    -1856    -2100    -2377 
   -2517    -2435    -2185    -1911    -1759    -1811    -2037    -2292 
   -2416    -2349    -2174    -2037    -2049    -2246    -2555    -2821 
   -2918    -2826    -2627    -2455    -2428    -2555    -2748    -2901 
   -2952    -2905    -2816    -2768    -2812    -2928    -3057    -3134 
   -3137    -3087    -3033    -3007    -3001    -2990    -2972    -2957 
   -2956    -2979    -3019    -3044    -3014    -2917    -2791    -2694 
   -2667    -2704    -2740    -2700    -2554    -2324    -2079    -1899 
   -1836    -1881    -1980    -2065    -2099    -2085    -2058    -2060 
   -2097    -2153    -2205    -2253    -2286    -2299    -2292    -2281 
   -2268    -2246    -2238    -2284    -2405    -2560    -2677    -2702 
   -2636    -2525    -2465    -2547    -2786    -3105    -3376    -3477 
   -3353    -3079    -2833    -2776    -2963    -3316    -3655    -3801 
   -3689    -3376    -3001    -2735    -2682    -2797    -2951    -3030 
   -2992    -2872    -2745    -2675    -2671    -2685    -2650    -2536 
   -2380    -2254    -2224    -2315    -2486    -2655    -2744    -2722 
   -2629    -2546    -2536    -2616    -2756    -2895    -2953    -2895 
   -2763    -2629    -2558    -2589    -2725    -2902    -3028    -3051 
   -2972    -2828    -2668    -2535    -2450    -2409    -2380    -2340 
   -2300    -2280    -2284    -2300    -2311    -2289    -2211    -2088 
   -1973    -1908    -1899    -1933    -1979    -1996    -1953    -1849 
   -1740    -1686    -1709    -1800    -1934    -2065    -2138    -2128 
   -2068    -2007    -1991    -2060    -2222    -2431    -2614    -2724 
   -2741    -2681    -2565    -2439    -2373    -2405    -2523    -2671 
   -2785    -2814    -2743    -2575    -2369    -2227    -2215    -2327 
   -2493    -2636    -2687    -2606    -2425    -2251    -2176    -2220 
   -2349    -2481    -2535    -2470    -2322    -2184    -2137    -2209 
   -2376    -2558    -2664    -2647    -2531    -2393    -2313    -2344 
   -2478    -2662    -2836    -2936    -2918    -2791    -2612    -2465 
   -2409    -2462    -2590    -2718    -2760    -2674    -2469    -2215 
   -2012    -1935    -1993    -2134    -2278    -2357    -2344    -2280 
   -2207    -2153    -2141    -2176    -2234    -2274    -2282    -2266 
   -2242    -2215    -2177    -2131    -2096    -2065    -2004    -1900 
   -1779    -1688    -1668    -1725    -1850    -2004    -2114    -2115 
   -2018    -1898    -1840    -1898    -2081    -2350    -2627    -2841 
   -2961    -2986    -2947    -2894    -2868    -2899    -3001    -3149 
   -3291    -3366    -3334    -3191    -2983    -2787    -2679    -2690 
   -2797    -2932    -3014    -2988    -2856    -2666    -2469    -2296 
   -2154    -2053    -2004    -2003    -2027    -2041    -1985    -1822 
   -1572    -1314    -1143    -1121    -1247    -1436    -1563    -1525 
   -1321    -1065     -916     -980    -1254    -1634    -1949    -2049 
   -1903    -1607    -1341    -1269    -1463    -1894    -2415    -2826 
   -2988    -2895    -2667    -2466    -2407    -2544    -2836    -3132 
   -3271    -3184    -2916    -2593    -2367    -2327    -2463    -2678 
   -2840    -2864    -2740    -2531    -2326    -2208    -2228    -2359 
   -2505    -2582    -2543    -2385    -2154    -1927    -1777    -1749 
   -1849    -2023    -2169    -2189    -2049    -1776    -1464    -1243 
   -1202    -1362    -1648    -1939    -2118    -2126    -2004    -1873 
   -1841    -1950    -2162    -2389    -2540    -2565    -2474    -2336 
   -2261    -2313    -2475    -2671    -2803    -2814    -2717    -2592 
   -2525    -2567    -2705    -2872    -2987    -2995    -2897    -2749 
   -2637    -2613    -2666    -2732    -2721    -2597    -2400    -2218 
   -2139    -2197    -2357    -2532    -2636    -2606    -2470    -2307 
   -2193    -2170    -2223    -2305    -2365    -2365    -2304    -2208 
   -2097    -1976    -1863    -1782    -1741    -1741    -1776    -1827 
   -1856    -1809    -1661    -1447    -1236    -1097    -1059    -1125 
   -1259    -1391    -1471    -1486    -1459    -1440    -1459    -1517 
   -1590    -1657    -1703    -1722    -1741    -1802    -1926    -2087 
   -2226    -2286    -2235    -2077    -1863    -1675    -1603    -1684 
   -1885    -2127    -2323    -2408    -2361    -2234    -2123    -2099 
   -2185    -2357    -2542    -2664    -2670    -2563    -2415    -2316 
   -2323    -2444    -2620    -2752    -2771    -2671    -2498    -2335 
   -2246    -2243    -2285    -2311    -2286    -2228    -2185    -2204 
   -2304    -2444    -2544    -2550    -2474    -2377    -2315    -2328 
   -2430    -2573    -2678    -2694    -2637    -2573    -2554    -2598 
   -2685    -2762    -2766    -2690    -2592    -2535    -2559    -2678 
   -2857    -3011    -3057    -2975    -2809    -2633    -2521    -2523 
   -2640    -2817    -2971    -3034    -2968    -2805    -2633    -2536 
   -2563    -2706    -2894    -3025    -3040    -2938    -2781    -2654 
   -2625    -2698    -2828    -2941    -2976    -2917    -2806    -2712 
   -2685    -2724    -2794    -2836    -2795    -2655    -2440    -2200 
   -1984    -1840    -1784    -1791    -1813    -1822    -1799    -1721 
   -1597    -1475    -1413    -1426    -1497    -1580    -1628    -1606 
   -1510    -1377    -1273    -1246    -1291    -1364    -1405    -1371 
   -1251    -1093     -967     -931     -986    -1084    -1159    -1166 
   -1107    -1028     -996    -1058    -1206    -1379    -1501    -1529 
   -1474    -1382    -1327    -1348    -1432    -1529    -1597    -1628 
   -1637    -1652    -1710    -1829    -1977    -2107    -2195    -2257 
   -2322    -2412    -2525    -2643    -2745    -2817    -2859    -2889 
   -2940    -3026    -3121    -3190    -3222    -3225    -3215    -3225 
   -3296    -3443    -3631    -3798    -3905    -3936    -3908    -3881 
   -3909    -4016    -4168    -4294    -4306    -4164    -3900    -3604 
   -3377    -3279    -3294    -3345    -3338    -3217    -2987    -2721 
   -2524    -2470    -2542    -2654    -2718    -2686    -2560    -2408 
   -2319    -2336    -2442    -2559    -2604    -2527    -2347    -2135 
   -1989    -1980    -2093    -2257    -2381    -2384    -2246    -2035 
   -1857    -1794    -1864    -2035    -2230    -2358    -2367    -2269 
   -2123    -2022    -2034    -2164    -2354    -2529    -2631    -2620 
   -2502    -2339    -2208    -2151    -2172    -2249    -2336    -2380 
   -2349    -2250    -2118    -1992    -1906    -1868    -1871    -1888 
   -1881    -1840    -1769    -1680    -1595    -1534    -1513    -1526 
   -1561    -1598    -1620    -1624    -1610    -1583    -1563    -1576 
   -1622    -1686    -1746    -1792    -1811    -1796    -1753    -1703 
   -1664    -1641    -1629    -1618    -1599    -1575    -1547    -1513 
   -1479    -1464    -1483    -1537    -1629    -1761    -1929    -2107 
   -2268    -2385    -2454    -2493    -2532    -2605    -2724    -2880 
   -3034    -3144    -3184    -3163    -3115    -3090    -3111    -3171 
   -3231    -3249    -3203    -3105    -2986    -2891    -2848    -2845 
   -2851    -2836    -2782    -2705    -2643    -2629    -2677    -2766 
   -2851    -2882    -2852    -2782    -2710    -2694    -2775    -2932 
   -3107    -3231    -3252    -3169    -3034    -2917    -2882    -2960 
   -3125    -3299    -3399    -3372    -3222    -3015    -2829    -2728 
   -2745    -2845    -2940    -2943    -2812    -2563    -2278    -2050 
   -1939    -1958    -2047    -2101    -2047    -1891    -1683    -1498 
   -1398    -1405    -1479    -1551    -1564    -1517    -1435    -1354 
   -1305    -1290    -1286    -1270    -1251    -1260    -1321    -1421 
   -1536    -1641    -1710    -1736    -1768    -1850    -1996    -2174 
   -2319    -2369    -2317    -2201    -2076    -2003    -2003    -2039 
   -2046    -1973    -1821    -1632    -1466    -1372    -1371    -1433 
   -1505    -1543    -1544    -1525    -1513    -1530    -1590    -1682 
   -1784    -1876    -1944    -1981    -1991    -1987    -1981    -1995 
   -2041    -2119    -2220    -2323    -2392    -2417    -2411    -2389 
   -2373    -2388    -2435    -2501    -2573    -2636    -2685    -2717 
   -2741    -2752    -2731    -2677    -2606    -2540    -2490    -2470 
   -2474    -2484    -2470    -2430    -2373    -2308    -2261    -2254 
   -2299    -2380    -2465    -2524    -2538    -2485    -2365    -2224 
   -2124    -2101    -2160    -2280    -2404    -2462    -2423    -2308 
   -2173    -2085    -2099    -2228    -2420    -2575    -2620    -2550 
   -2405    -2250    -2169    -2197    -2300    -2409    -2465    -2443 
   -2378    -2320    -2313    -2374    -2486    -2604    -2685    -2714 
   -2716    -2721    -2736    -2754    -2770    -2762    -2716    -2650 
   -2578    -2519    -2475    -2446    -2417    -2373    -2304    -2212 
   -2108    -2012    -1946    -1921    -1944    -2000    -2049    -2069 
   -2060    -2034    -2022    -2056    -2149    -2284    -2419    -2509 
   -2533    -2500    -2442    -2396    -2384    -2408    -2450    -2469 
   -2438    -2358    -2247    -2143    -2083    -2083    -2137    -2214 
   -2272    -2280    -2224    -2131    -2066    -2077    -2191    -2411 
   -2682    -2911    -3034    -3046    -2997    -2956    -3001    -3161 
   -3402    -3630    -3748    -3713    -3561    -3377    -3261    -3258 
   -3356    -3484    -3545    -3476    -3298    -3065    -2848    -2704 
   -2652    -2663    -2679    -2659    -2579    -2448    -2290    -2145 
   -2031    -1957    -1925    -1935    -1979    -2029    -2049    -2011 
   -1903    -1750    -1607    -1533    -1559    -1672    -1817    -1926 
   -1954    -1894    -1796    -1740    -1771    -1896    -2069    -2220 
   -2289    -2259    -2170    -2095    -2081    -2151    -2288    -2421 
   -2486    -2462    -2371    -2261    -2178    -2165    -2218    -2293 
   -2349    -2366    -2346    -2313    -2307    -2339    -2401    -2467 
   -2508    -2511    -2469    -2397    -2331    -2305    -2342    -2431 
   -2538    -2629    -2671    -2637    -2552    -2481    -2469    -2528 
   -2637    -2736    -2768    -2727    -2640    -2569    -2578    -2685 
   -2835    -2960    -3002    -2924    -2762    -2598    -2504    -2504 
   -2570    -2624    -2596    -2471    -2289    -2124    -2054    -2107 
   -2238    -2357    -2385    -2293    -2110    -1904    -1763    -1740 
   -1837    -1995    -2122    -2162    -2110    -1992    -1865    -1792 
   -1803    -1880    -1972    -2023    -1987    -1867    -1705    -1556 
   -1453    -1420    -1444    -1482    -1485    -1431    -1327    -1208 
   -1124    -1112    -1173    -1281    -1394    -1471    -1494    -1468 
   -1435    -1448    -1540    -1691    -1860    -2000    -2074    -2066 
   -2007    -1969    -2007    -2133    -2323    -2521    -2654    -2675 
   -2596    -2484    -2421    -2452    -2578    -2766    -2952    -3071 
   -3091    -3034    -2955    -2913    -2936    -3018    -3127    -3226 
   -3284    -3295    -3283    -3262    -3238    -3213    -3181    -3137 
   -3086    -3022    -2948    -2870    -2772    -2651    -2513    -2371 
   -2239    -2122    -2008    -1884    -1741    -1594    -1467    -1389 
   -1368    -1395    -1426    -1416    -1351    -1254    -1158    -1115 
   -1163    -1287    -1421    -1493    -1463    -1347    -1206    -1117 
   -1129    -1247    -1418    -1567    -1626    -1587    -1495    -1425 
   -1435    -1540    -1711    -1891    -2019    -2056    -2018    -1956 
   -1917    -1945    -2041    -2162    -2272    -2343    -2366    -2354 
   -2331    -2316    -2305    -2286    -2251    -2205    -2165    -2143 
   -2141    -2158    -2191    -2220    -2245    -2270    -2312    -2381 
   -2469    -2560    -2643    -2708    -2752    -2779    -2794    -2806 
