Origin Time       2025/01/13 21:19:00
Lat.              31.8
Long.             131.6
Depth. (km)       30
Mag.              6.9
Station Code      YMGH16
Station Lat.      33.8260
Station Long.     132.1040
Station Height(m) 65
Record Time       2025/01/13 21:20:12
Sampling Freq(Hz) 100Hz
Duration Time(s)  145
Dir.              5
Scale Factor      3920(gal)/6170801
Max. Acc. (gal)   3.508
Last Correction   2025/01/13 21:19:57
Memo.             
[...]
  -11041   -10796   -10542   -10275   -10022    -9836    -9754    -9784 
   -9888   -10025   -10188   -10376   -10569   -10732   -10855   -10947 
  -11034   -11163   -11308   -11435   -11599   -11801   -11974   -12084 
  -12127   -12059   -11846   -11541   -11238   -11012   -10875   -10783 
  -10701   -10643   -10628   -10668   -10784   -10923   -10971   -10892 
  -10736   -10564   -10417   -10321   -10283   -10273   -10226   -10122 
  -10012    -9916    -9847    -9878   -10045   -10295   -10542   -10725 
  -10841   -10919   -10919   -10810   -10691   -10613   -10513   -10388 
  -10277   -10213   -10248   -10416   -10719   -11111   -11471   -11700 
  -11786   -11780   -11722   -11611   -11449   -11252   -11029   -10810 
  -10618   -10438   -10269   -10172   -10203   -10349   -10533   -10688 
  -10829   -10976   -11099   -11181   -11215   -11146   -10965   -10774 
  -10687   -10704   -10742   -10734   -10666   -10570   -10532   -10584 
  -10671   -10759   -10815   -10810   -10797   -10812   -10818   -10807 
  -10769   -10677   -10573   -10521   -10508   -10467   -10388   -10337 
  -10324   -10276   -10164   -10026    -9935    -9963   -10101   -10271 
  -10446   -10640   -10836   -10997   -11086   -11070   -10931   -10711 
  -10517   -10436   -10488   -10625   -10761   -10862   -10939   -10957 
  -10894   -10786   -10680   -10602   -10551   -10495   -10440   -10443 
  -10512   -10615   -10727   -10800   -10809   -10808   -10872   -11010 
  -11143   -11211   -11263   -11360   -11474   -11509   -11420   -11264 
  -11103   -10953   -10819   -10715   -10655   -10638   -10653   -10701 
  -10790   -10929   -11079   -11130   -11022   -10812   -10612   -10510 
  -10500   -10531   -10571   -10626   -10709   -10797   -10863   -10890 
  -10844   -10750   -10670   -10617   -10565   -10525   -10517   -10532 
  -10580   -10688   -10825   -10932   -10952   -10886   -10821   -10809 
  -10808   -10785   -10751   -10710   -10651   -10571   -10493   -10448 
  -10462   -10556   -10711   -10863   -10986   -11074   -11113   -11114 
  -11088   -11035   -10997   -10996   -11017   -11044   -11053   -11026 
  -10968   -10920   -10947   -11067   -11227   -11370   -11485   -11588 
  -11662   -11683   -11647   -11516   -11270   -10957   -10605   -10239 
   -9956    -9840    -9873   -10013   -10196   -10339   -10462   -10622 
  -10789   -10915   -10984   -10986   -10914   -10794   -10670   -10537 
  -10396   -10279   -10204   -10165   -10113   -10011    -9944   -10005 
  -10166   -10340   -10488   -10642   -10850   -11099   -11318   -11455 
  -11512   -11500   -11421   -11285   -11109   -10919   -10756   -10635 
  -10564   -10564   -10636   -10776   -10965   -11180   -11390   -11506 
  -11470   -11321   -11135   -10974   -10833   -10655   -10446   -10284 
  -10215   -10224   -10242   -10203   -10149   -10135   -10126   -10103 
  -10128   -10244   -10453   -10741   -11015   -11198   -11333   -11436 
  -11488   -11532   -11540   -11423   -11196   -10962   -10813   -10790 
  -10861   -10943   -10986   -11003   -11003   -10985   -10976   -10987 
  -10971   -10896   -10780   -10657   -10569   -10557   -10623   -10715 
  -10814   -10933   -11032   -11082   -11114   -11165   -11235   -11269 
  -11233   -11176   -11149   -11122   -11056   -10978   -10945   -10961 
  -10979   -10983   -10950   -10855   -10709   -10538   -10374   -10253 
  -10173   -10113   -10059    -9990    -9905    -9835    -9800    -9826 
   -9928   -10101   -10341   -10597   -10814   -11024   -11237   -11396 
  -11492   -11533   -11498   -11403   -11269   -11100   -10950   -10864 
  -10832   -10844   -10874   -10890   -10928   -11022   -11137   -11252 
  -11371   -11460   -11461   -11347   -11131   -10883   -10693   -10584 
  -10525   -10495   -10487   -10506   -10566   -10645   -10693   -10672 
  -10586   -10505   -10466   -10424   -10349   -10278   -10294   -10465 
  -10742   -10996   -11155   -11188   -11104   -10990   -10914   -10867 
  -10795   -10658   -10480   -10342   -10335   -10476   -10684   -10880 
  -11054   -11203   -11302   -11341   -11322   -11244   -11108   -10908 
  -10665   -10439   -10284   -10221   -10224   -10269   -10363   -10504 
  -10681   -10890   -11092   -11232   -11273   -11217   -11128   -11069 
  -11001   -10850   -10651   -10506   -10475   -10556   -10668   -10705 
  -10660   -10592   -10556   -10589   -10675   -10743   -10758   -10770 
  -10840   -10950   -11038   -11070   -11021   -10895   -10739   -10586 
  -10486   -10484   -10565   -10703   -10842   -10900   -10881   -10864 
  -10885   -10920   -10942   -10967   -11016   -11086   -11179   -11288 
  -11413   -11535   -11562   -11428   -11186   -10907   -10634   -10398 
  -10183    -9974    -9831    -9817    -9915   -10059   -10211   -10379 
  -10575   -10815   -11122   -11464   -11758   -11930   -11957   -11891 
  -11776   -11557   -11194   -10750   -10326   -10017    -9855    -9792 
   -9781    -9798    -9810    -9809    -9829    -9855    -9869    -9923 
  -10006   -10043   -10036    -9996    -9903    -9829    -9864    -9985 
  -10123   -10247   -10350   -10458   -10612   -10797   -10944   -11043 
  -11153   -11298   -11420   -11443   -11345   -11181   -11075   -11093 
  -11147   -11132   -11036   -10889   -10718   -10511   -10223    -9889 
   -9630    -9517    -9551    -9711    -9935   -10181   -10498   -10878 
  -11228   -11465   -11554   -11523   -11400   -11196   -10985   -10809 
  -10654   -10532   -10443   -10357   -10269   -10222   -10246   -10313 
  -10373   -10410   -10491   -10699   -11013   -11345   -11664   -11935 
  -12075   -12069   -11945   -11713   -11442   -11235   -11133   -11090 
  -11012   -10884   -10772   -10726   -10735   -10758   -10773   -10774 
  -10752   -10721   -10697   -10665   -10599   -10485   -10332   -10158 
   -9973    -9792    -9649    -9591    -9645    -9771    -9900    -9997 
  -10063   -10125   -10214   -10293   -10327   -10361   -10449   -10609 
  -10829   -11034   -11164   -11242   -11328   -11464   -11634   -11772 
  -11865   -11948   -11994   -11942   -11748   -11424   -11056   -10723 
  -10471   -10324   -10234   -10158   -10179   -10391   -10752   -11116 
  -11337   -11348   -11185   -10934   -10658   -10396   -10195   -10103 
  -10078   -10049   -10027   -10038   -10095   -10213   -10361   -10497 
  -10635   -10804   -11005   -11200   -11343   -11402   -11365   -11214 
  -10947   -10644   -10434   -10378   -10428   -10492   -10491   -10399 
  -10274   -10212   -10260   -10393   -10546   -10658   -10697   -10680 
  -10636   -10581   -10527   -10466   -10358   -10164    -9938    -9783 
   -9750    -9883   -10186   -10579   -10958   -11259   -11461   -11578 
  -11611   -11536   -11356   -11141   -10963   -10846   -10764   -10657 
  -10495   -10314   -10186   -10199   -10377   -10645   -10901   -11076 
  -11139   -11110   -11080   -11100   -11094   -10978   -10798   -10673 
  -10669   -10774   -10912   -11014   -11102   -11191   -11241   -11242 
  -11202   -11124   -11056   -10985   -10854   -10680   -10477   -10198 
   -9863    -9499    -9109    -8795    -8657    -8716    -8970    -9326 
   -9662    -9951   -10188   -10407   -10717   -11149   -11608   -11964 
  -12147   -12221   -12282   -12337   -12332   -12203   -11921   -11550 
  -11185   -10885   -10686   -10545   -10390   -10253   -10205   -10277 
  -10460   -10686   -10866   -10959   -10928   -10779   -10619   -10551 
  -10565   -10604   -10634   -10662   -10735   -10886   -11091   -11323 
  -11546   -11715   -11829   -11891   -11850   -11668   -11372   -11019 
  -10642   -10315   -10093    -9943    -9835    -9787    -9816    -9923 
  -10093   -10337   -10668   -11042   -11404   -11692   -11844   -11874 
  -11801   -11615   -11378   -11188   -11094   -11087   -11141   -11260 
  -11416   -11524   -11549   -11540   -11512   -11422   -11228   -10946 
  -10654   -10431   -10332   -10364   -10456   -10526   -10580   -10650 
  -10703   -10718   -10712   -10676   -10565   -10375   -10154    -9971 
   -9921   -10083   -10413   -10787   -11094   -11279   -11400   -11558 
  -11749   -11885   -11936   -11928   -11881   -11820   -11790   -11799 
  -11808   -11796   -11764   -11716   -11651   -11532   -11307   -11002 
  -10666   -10326   -10025    -9782    -9573    -9392    -9244    -9126 
   -9026    -8935    -8868    -8863    -8901    -8898    -8808    -8636 
   -8436    -8331    -8371    -8502    -8693    -8926    -9171    -9426 
   -9697    -9943   -10089   -10102   -10030    -9951    -9924    -9970 
  -10051   -10111   -10114   -10042    -9922    -9781    -9612    -9429 
   -9229    -8980    -8696    -8462    -8362    -8411    -8593    -8872 
   -9208    -9592   -10003   -10372   -10627   -10720   -10679   -10600 
  -10538   -10475   -10371   -10235   -10105    -9991    -9884    -9777 
   -9694    -9688    -9790    -9998   -10252   -10463   -10622   -10755 
  -10852   -10889   -10821   -10647   -10465   -10343   -10303   -10382 
  -10566   -10780   -10978   -11162   -11378   -11646   -11896   -12037 
  -12051   -11984   -11902   -11865   -11920   -12059   -12238   -12426 
  -12578   -12655   -12662   -12625   -12545   -12424   -12301   -12190 
  -12073   -11947   -11802   -11662   -11633   -11776   -12034   -12318 
  -12545   -12651   -12642   -12571   -12456   -12254   -11924   -11472 
  -10940   -10447   -10143   -10042   -10075   -10214   -10455   -10800 
  -11198   -11558   -11857   -12080   -12175   -12121   -11951   -11712 
  -11431   -11091   -10670   -10173    -9650    -9220    -8980    -8935 
   -9040    -9234    -9491    -9855   -10356   -10900   -11319   -11512 
  -11516   -11433   -11371   -11416   -11523   -11605   -11678   -11755 
  -11774   -11696   -11544   -11369   -11193   -11033   -10984   -11125 
  -11415   -11747   -12006   -12121   -12094   -11925   -11638   -11309 
  -10987   -10723   -10599   -10607   -10627   -10554   -10362   -10095 
   -9848    -9659    -9512    -9426    -9419    -9478    -9602    -9831 
  -10198   -10672   -11142   -11489   -11654   -11658   -11566   -11416 
  -11214   -10988   -10743   -10500   -10346   -10337   -10460   -10691 
  -10987   -11325   -11688   -11994   -12162   -12176   -12063   -11876 
  -11634   -11340   -11029   -10733   -10490   -10348   -10331   -10466 
  -10719   -10974   -11171   -11308   -11404   -11511   -11623   -11649 
  -11548   -11353   -11130   -10954   -10862   -10841   -10841   -10810 
  -10753   -10731   -10788   -10909   -11045   -11192   -11341   -11455 
  -11542   -11586   -11553   -11498   -11489   -11486   -11433   -11343 
  -11289   -11328   -11417   -11496   -11543   -11564   -11581   -11584 
  -11516   -11349   -11088   -10743   -10373   -10052    -9864    -9896 
  -10114   -10401   -10658   -10777   -10719   -10541   -10262    -9930 
   -9636    -9413    -9279    -9249    -9308    -9439    -9653    -9925 
  -10168   -10318   -10362   -10282   -10093    -9904    -9809    -9818 
   -9929   -10101   -10253   -10335   -10342   -10284   -10179   -10078 
  -10056   -10160   -10367   -10578   -10721   -10815   -10910   -11041 
  -11209   -11364   -11435   -11368   -11210   -11094   -11083   -11136 
  -11196   -11224   -11171   -11015   -10798   -10596   -10450   -10365 
  -10332   -10354   -10442   -10630   -10922   -11215   -11425   -11567 
  -11642   -11640   -11598   -11519   -11404   -11296   -11197   -11070 
  -10931   -10855   -10892   -10987   -11013   -10895   -10640   -10318 
   -9998    -9711    -9496    -9412    -9476    -9662    -9938   -10255 
  -10499   -10586   -10530   -10324    -9939    -9421    -8871    -8410 
   -8174    -8206    -8442    -8831    -9328    -9831   -10246   -10528 
  -10637   -10596   -10501   -10416   -10370   -10365   -10361   -10294 
  -10128    -9910    -9712    -9547    -9441    -9459    -9626    -9929 
  -10341   -10809   -11273   -11681   -11959   -12035   -11925   -11743 
  -11612   -11540   -11427   -11211   -10991   -10915   -10991   -11152 
  -11329   -11430   -11432   -11407   -11401   -11400   -11391   -11390 
  -11411   -11420   -11386   -11368   -11421   -11516   -11628   -11743 
  -11861   -12039   -12324   -12696   -13080   -13355   -13477   -13523 
  -13542   -13510   -13404   -13216   -12989   -12843   -12837   -12907 
  -13000   -13086   -13134   -13137   -13071   -12891   -12598   -12242 
  -11876   -11492   -11065   -10650   -10307   -10065    -9984   -10077 
  -10277   -10531   -10763   -10852   -10752   -10535   -10292   -10066 
   -9886    -9718    -9444    -9047    -8669    -8416    -8320    -8388 
   -8514    -8555    -8491    -8368    -8217    -8046    -7847    -7643 
   -7468    -7339    -7258    -7238    -7302    -7483    -7810    -8292 
   -8884    -9459    -9919   -10269   -10545   -10760   -10912   -10982 
  -10988   -10987   -10982   -10941   -10899   -10861   -10771   -10603 
  -10351   -10067    -9889    -9885   -10014   -10178   -10231   -10135 
  -10000    -9883    -9736    -9558    -9415    -9343    -9321    -9284 
   -9153    -8952    -8784    -8694    -8665    -8651    -8606    -8539 
   -8536    -8674    -8933    -9244    -9600   -10023   -10480   -10912 
  -11248   -11407   -11358   -11137   -10805   -10429   -10074    -9755 
   -9497    -9400    -9528    -9811   -10162   -10565   -10998   -11387 
  -11625   -11612   -11339   -10897   -10416   -10014    -9755    -9642 
   -9662    -9804   -10070   -10461   -10930   -11387   -11751   -11982 
  -12125   -12264   -12410   -12547   -12699   -12866   -13026   -13141 
  -13114   -12875   -12452   -11915   -11375   -10932   -10594   -10357 
  -10228   -10222   -10375   -10704   -11191   -11775   -12376   -12966 
  -13553   -14161   -14802   -15430   -15948   -16254   -16278   -16065 
  -15731   -15334   -14869   -14354   -13811   -13222   -12599   -12000 
  -11443   -10958   -10605   -10377   -10195    -9993    -9829    -9858 
  -10133   -10554   -10998   -11389   -11693   -11892   -11922   -11686 
  -11167   -10465    -9731    -9091    -8616    -8341    -8276    -8396 
   -8651    -9019    -9478    -9932   -10262   -10422   -10431   -10328 
  -10101    -9743    -9363    -9095    -8979    -9009    -9160    -9372 
   -9600    -9820    -9967    -9975    -9847    -9617    -9327    -9021 
   -8734    -8495    -8315    -8182    -8067    -7937    -7806    -7747 
   -7840    -8091    -8425    -8752    -9028    -9261    -9423    -9457 
   -9357    -9178    -9027    -8998    -9092    -9271    -9490    -9715 
   -9942   -10166   -10375   -10593   -10857   -11155   -11442   -11670 
  -11807   -11850   -11821   -11769   -11722   -11669   -11632   -11681 
  -11888   -12290   -12835   -13361   -13729   -13911   -13924   -13793 
  -13575   -13340   -13115   -12873   -12617   -12441   -12442   -12641 
  -12990   -13381   -13713   -13962   -14115   -14169   -14161   -14119 
  -14030   -13842   -13468   -12862   -12081   -11260   -10528    -9901 
   -9313    -8759    -8322    -8104    -8181    -8537    -9036    -9521 
   -9925   -10238   -10455   -10578   -10652   -10722   -10761   -10728 
  -10606   -10392   -10122    -9868    -9715    -9721    -9884   -10186 
  -10587   -11014   -11413   -11761   -12061   -12336   -12584   -12795 
  -12994   -13219   -13501   -13808   -14036   -14163   -14240   -14270 
  -14190   -13930   -13490   -12964   -12455   -11963   -11481   -11059 
  -10726   -10486   -10307   -10104    -9807    -9424    -9020    -8714 
   -8581    -8572    -8580    -8514    -8333    -8109    -7982    -8017 
   -8194    -8452    -8722    -8981    -9244    -9528    -9813   -10054 
  -10244   -10426   -10613   -10763   -10813   -10742   -10621   -10582 
  -10721   -11035   -11452   -11890   -12309   -12708   -13087   -13402 
  -13580   -13583   -13394   -13043   -12603   -12129   -11664   -11268 
  -11000   -10940   -11133   -11514   -11984   -12476   -12923   -13241 
  -13375   -13304   -13033   -12577   -11954   -11231   -10508    -9846 
   -9294    -8875    -8588    -8447    -8489    -8778    -9330   -10055 
  -10834   -11577   -12230   -12755   -13086   -13127   -12830   -12268 
  -11599   -10961   -10415    -9951    -9564    -9287    -9138    -9106 
   -9151    -9222    -9318    -9490    -9783   -10188   -10651   -11127 
  -11621   -12184   -12808   -13377   -13765   -13901   -13787   -13490 
  -13083   -12590   -12025   -11477   -11069   -10843   -10763   -10762 
  -10794   -10901   -11121   -11392   -11628   -11749   -11674   -11406 
  -11052   -10733   -10499   -10316   -10133    -9950    -9832    -9818 
   -9870    -9916    -9891    -9774    -9592    -9388    -9206    -9082 
   -9035    -9036    -9030    -9016    -9038    -9095    -9125    -9077 
   -8943    -8721    -8430    -8120    -7829    -7585    -7421    -7371 
   -7426    -7508    -7580    -7702    -7904    -8146    -8395    -8647 
   -8935    -9299    -9707   -10011   -10064    -9855    -9475    -9031 
   -8597    -8219    -7920    -7688    -7528    -7511    -7700    -8047 
   -8419    -8747    -9047    -9323    -9555    -9731    -9860   -10007 
  -10231   -10536   -10899   -11296   -11700   -12064   -12327   -12459 
  -12497   -12522   -12593   -12682   -12729   -12750   -12813   -12934 
  -13076   -13165   -13106   -12850   -12469   -12105   -11869   -11768 
  -11749   -11764   -11772   -11771   -11767   -11746   -11721   -11681 
  -11559   -11298   -10891   -10429   -10043    -9805    -9754    -9895 
  -10171   -10505   -10792   -10926   -10918   -10832   -10694   -10552 
  -10469   -10495   -10662   -10908   -11137   -11324   -11452   -11486 
  -11434   -11339   -11252   -11206   -11207   -11215   -11149   -10989 
  -10798   -10620   -10451   -10295   -10172   -10090   -10080   -10169 
  -10308   -10465   -10678   -10968   -11314   -11682   -12001   -12210 
  -12321   -12384   -12430   -12432   -12330   -12098   -11781   -11456 
  -11157   -10876   -10643   -10503   -10446   -10441   -10476   -10562 
  -10742   -11063   -11509   -11944   -12209   -12275   -12216   -12084 
  -11879   -11589   -11236   -10896   -10664   -10549   -10493   -10481 
  -10506   -10538   -10540   -10442   -10234    -9989    -9749    -9515 
   -9279    -9036    -8835    -8730    -8726    -8778    -8812    -8799 
   -8760    -8716    -8683    -8632    -8504    -8292    -8042    -7809 
   -7656    -7629    -7681    -7742    -7846    -8081    -8487    -9065 
   -9745   -10394   -10934   -11338   -11586   -11724   -11846   -11982 
  -12086   -12094   -12015   -11940   -11985   -12227   -12614   -12994 
  -13261   -13355   -13273   -13113   -12991   -12971   -13054   -13193 
  -13369   -13584   -13819   -14038   -14200   -14281   -14276   -14184 
  -14031   -13877   -13776   -13736   -13697   -13623   -13550   -13480 
  -13348   -13079   -12651   -12129   -11645   -11290   -11053   -10908 
  -10832   -10783   -10720   -10606   -10408   -10139    -9855    -9643 
   -9600    -9780   -10161   -10674   -11235   -11790   -12298   -12670 
  -12786   -12598   -12174   -11599   -10953   -10362    -9954    -9801 
   -9878   -10095   -10382   -10657   -10821   -10815   -10611   -10244 
   -9797    -9300    -8777    -8288    -7858    -7546    -7479    -7682 
   -8048    -8438    -8762    -9034    -9313    -9608    -9897   -10162 
  -10380   -10508   -10527   -10432   -10209    -9887    -9508    -9080 
   -8635    -8217    -7848    -7599    -7554    -7700    -7974    -8298 
   -8620    -8921    -9155    -9287    -9333    -9323    -9289    -9286 
   -9360    -9519    -9722    -9895    -9991    -9979    -9830    -9583 
   -9357    -9248    -9266    -9348    -9425    -9500    -9628    -9821 
