Origin Time       2025/01/13 21:19:00
Lat.              31.8
Long.             131.6
Depth. (km)       30
Mag.              6.9
Station Code      YMGH15
Station Lat.      33.9725
Station Long.     131.8149
Station Height(m) -10
Record Time       2025/01/13 21:20:12
Sampling Freq(Hz) 100Hz
Duration Time(s)  136
Dir.              3
Scale Factor      2940(gal)/6170270
Max. Acc. (gal)   1.536
Last Correction   2025/01/13 21:19:57
Memo.             
[...]
  108063   108202   108301   108359   108370   108344   108291   108209 
  108114   108040   107985   107921   107843   107771   107715   107657 
  107590   107529   107487   107466   107455   107451   107465   107491 
  107518   107549   107580   107595   107595   107591   107579   107546 
  107503   107472   107437   107374   107310   107260   107206   107155 
  107138   107158   107202   107262   107333   107403   107465   107533 
  107607   107661   107693   107715   107720   107703   107669   107632 
  107598   107552   107501   107467   107438   107395   107353   107327 
  107315   107302   107296   107313   107348   107389   107426   107457 
  107485   107515   107547   107561   107530   107459   107371   107283 
  107192   107095   107010   106947   106903   106875   106855   106834 
  106827   106852   106893   106937   107000   107084   107172   107263 
  107348   107423   107495   107550   107574   107585   107598   107602 
  107590   107573   107567   107574   107587   107597   107596   107589 
  107594   107609   107611   107585   107551   107527   107501   107464 
  107432   107412   107396   107394   107422   107464   107503   107555 
  107615   107655   107675   107692   107715   107749   107791   107827 
  107866   107909   107942   107952   107939   107907   107858   107795 
  107714   107625   107551   107485   107408   107322   107237   107182 
  107172   107180   107186   107210   107264   107335   107401   107459 
  107510   107544   107559   107555   107532   107503   107481   107474 
  107483   107507   107560   107643   107711   107748   107788   107849 
  107901   107923   107929   107921   107876   107802   107724   107653 
  107574   107472   107356   107254   107169   107087   107016   106975 
  106967   106976   106993   107026   107080   107151   107243   107343 
  107437   107526   107612   107698   107778   107846   107897   107926 
  107941   107948   107923   107857   107764   107660   107559   107456 
  107349   107271   107230   107200   107175   107164   107180   107210 
  107236   107262   107301   107349   107393   107431   107474   107513 
  107537   107544   107536   107509   107470   107437   107418   107395 
  107367   107351   107348   107343   107334   107338   107365   107416 
  107485   107561   107621   107649   107673   107716   107748   107756 
  107758   107771   107805   107854   107905   107954   108000   108029 
  108043   108050   108041   108019   107991   107963   107946   107943 
  107934   107918   107917   107938   107961   107982   107998   107996 
  107979   107968   107967   107968   107960   107943   107922   107893 
  107844   107776   107706   107642   107571   107487   107393   107307 
  107231   107149   107067   107009   106969   106934   106909   106903 
  106910   106915   106921   106947   107011   107106   107210   107310 
  107412   107519   107613   107688   107750   107781   107765   107720 
  107655   107570   107481   107402   107321   107218   107103   106989 
  106872   106754   106651   106563   106493   106447   106427   106427 
  106442   106482   106544   106612   106688   106780   106862   106919 
  106965   107013   107075   107160   107268   107380   107485   107597 
  107711   107800   107860   107904   107922   107905   107866   107824 
  107781   107725   107673   107641   107628   107638   107670   107702 
  107722   107748   107802   107865   107907   107940   107980   108015 
  108033   108040   108042   108034   108010   107982   107966   107953 
  107934   107925   107931   107944   107964   107982   107990   107995 
  107998   108000   107990   107959   107919   107880   107834   107792 
  107779   107780   107760   107725   107703   107686   107652   107615 
  107593   107583   107596   107637   107695   107759   107807   107839 
  107890   107968   108028   108052   108062   108060   108021   107955 
  107880   107790   107694   107611   107541   107475   107421   107385 
  107357   107336   107333   107357   107392   107423   107452   107487 
  107538   107595   107640   107674   107705   107743   107780   107782 
  107750   107726   107710   107671   107602   107524   107451   107378 
  107307   107241   107181   107137   107114   107099   107083   107057 
  107028   107008   106986   106955   106929   106922   106938   106965 
  106989   107003   107012   107024   107033   107028   107020   107027 
  107043   107071   107111   107157   107212   107271   107303   107299 
  107279   107245   107188   107101   106993   106884   106784   106688 
  106607   106534   106453   106387   106337   106290   106262   106256 
  106264   106300   106361   106429   106508   106602   106708   106813 
  106908   107000   107112   107226   107320   107409   107508   107610 
  107693   107744   107776   107803   107819   107815   107795   107759 
  107705   107650   107615   107592   107558   107508   107475   107474 
  107470   107451   107430   107403   107371   107337   107300   107259 
  107202   107125   107058   107003   106936   106869   106833   106818 
  106796   106766   106720   106650   106573   106497   106420   106350 
  106308   106306   106341   106402   106487   106596   106730   106877 
  107017   107135   107212   107246   107270   107297   107309   107303 
  107292   107270   107232   107180   107111   107033   106967   106930 
  106936   106975   107024   107081   107152   107236   107330   107424 
  107501   107559   107614   107686   107780   107887   107975   108045 
  108123   108197   108245   108287   108334   108374   108400   108408 
  108391   108337   108239   108105   107951   107781   107608   107443 
  107292   107157   107038   106935   106855   106807   106779   106759 
  106750   106754   106778   106818   106866   106932   107006   107078 
  107162   107258   107349   107435   107513   107585   107660   107735 
  107796   107844   107881   107909   107920   107908   107876   107836 
  107783   107713   107642   107590   107549   107522   107526   107561 
  107625   107703   107784   107869   107939   107983   108018   108057 
  108093   108127   108162   108207   108258   108296   108340   108403 
  108470   108532   108581   108610   108621   108619   108601   108570 
  108524   108456   108380   108313   108235   108144   108055   107957 
  107859   107792   107753   107713   107672   107640   107629   107637 
  107641   107629   107612   107593   107562   107515   107456   107392 
  107333   107261   107172   107100   107046   106990   106954   106944 
  106938   106938   106962   107002   107031   107042   107043   107027 
  106992   106950   106916   106901   106912   106948   106993   107034 
  107083   107146   107208   107254   107285   107300   107305   107323 
  107366   107421   107491   107584   107685   107799   107938   108077 
  108191   108290   108377   108445   108505   108552   108568   108561 
  108533   108470   108389   108307   108214   108098   107950   107761 
  107551   107348   107158   106977   106795   106621   106463   106310 
  106171   106061   105967   105886   105830   105819   105855   105905 
  105962   106051   106159   106266   106376   106507   106667   106821 
  106948   107063   107175   107286   107398   107505   107598   107676 
  107738   107789   107832   107869   107909   107956   108012   108084 
  108159   108223   108292   108382   108472   108551   108625   108693 
  108752   108805   108850   108897   108953   108993   108990   108954 
  108900   108826   108730   108620   108520   108433   108352   108277 
  108208   108148   108102   108066   108031   107978   107909   107834 
  107743   107638   107543   107462   107395   107351   107333   107347 
  107390   107442   107504   107577   107652   107730   107814   107889 
  107938   107958   107966   107966   107946   107911   107865   107800 
  107717   107624   107536   107469   107428   107422   107449   107502 
  107586   107674   107747   107813   107873   107910   107932   107954 
  107978   107995   107992   107975   107961   107953   107937   107901 
  107845   107788   107745   107711   107680   107650   107629   107624 
  107633   107645   107646   107634   107623   107603   107555   107494 
  107443   107401   107352   107285   107210   107144   107081   107026 
  106988   106965   106959   106968   106968   106946   106925   106921 
  106918   106905   106884   106858   106826   106802   106788   106783 
  106797   106833   106880   106944   107017   107085   107157   107233 
  107303   107379   107464   107549   107637   107728   107811   107873 
  107900   107884   107844   107790   107709   107592   107446   107280 
  107123   106976   106825   106681   106558   106464   106404   106373 
  106357   106349   106336   106308   106282   106265   106239   106219 
  106233   106270   106300   106314   106319   106332   106356   106379 
  106393   106406   106431   106459   106484   106523   106580   106647 
  106724   106803   106881   106982   107114   107243   107366   107499 
  107639   107772   107896   108015   108132   108238   108336   108432 
  108512   108573   108630   108691   108754   108805   108843   108868 
  108877   108866   108837   108797   108761   108724   108666   108592 
  108522   108458   108391   108311   108212   108098   107972   107834 
  107694   107564   107455   107370   107296   107233   107194   107171 
  107153   107145   107146   107154   107177   107215   107265   107327 
  107394   107466   107550   107628   107692   107757   107813   107840 
  107854   107868   107879   107901   107936   107970   108000   108029 
  108042   108032   108021   108018   108009   107988   107958   107908 
  107838   107764   107700   107650   107610   107572   107537   107512 
  107499   107500   107508   107505   107487   107457   107420   107373 
  107315   107248   107169   107067   106955   106848   106742   106643 
  106562   106498   106447   106407   106382   106375   106395   106429 
  106457   106482   106526   106576   106614   106667   106754   106862 
  106977   107089   107195   107313   107448   107578   107701   107830 
  107956   108078   108206   108334   108454   108575   108695   108799 
  108887   108964   109022   109050   109052   109041   109021   108976 
  108909   108832   108742   108638   108525   108408   108292   108175 
  108054   107940   107850   107783   107733   107696   107674   107663 
  107660   107674   107714   107765   107817   107871   107919   107946 
  107938   107892   107822   107735   107624   107498   107366   107232 
  107099   106967   106851   106761   106686   106623   106587   106577 
  106580   106587   106599   106611   106622   106634   106639   106632 
  106610   106568   106505   106432   106354   106272   106191   106120 
  106058   106000   105953   105907   105857   105822   105810   105798 
  105778   105765   105773   105798   105827   105860   105907   105953 
  105985   106020   106069   106130   106211   106313   106415   106509 
  106610   106718   106815   106900   106984   107068   107149   107221 
  107287   107360   107434   107503   107577   107656   107743   107842 
  107950   108068   108199   108335   108474   108625   108795   108966 
  109119   109258   109382   109489   109587   109674   109748   109823 
  109886   109918   109929   109901   109804   109655   109486   109284 
  109036   108762   108472   108167   107860   107566   107287   107024 
  106772   106528   106292   106069   105877   105724   105587   105452 
  105335   105235   105154   105101   105073   105084   105146   105240 
  105365   105541   105770   106035   106316   106612   106923   107231 
  107526   107811   108083   108338   108568   108768   108955   109139 
  109307   109451   109578   109686   109768   109827   109859   109866 
  109864   109857   109822   109752   109673   109593   109503   109405 
  109288   109142   108976   108806   108643   108492   108344   108188 
  108046   107941   107852   107756   107670   107582   107485   107406 
  107348   107300   107265   107237   107206   107173   107139   107112 
  107097   107093   107078   107049   107029   107025   107033   107052 
  107084   107135   107207   107289   107373   107453   107531   107605 
  107663   107702   107738   107789   107849   107903   107948   107988 
  108024   108049   108063   108063   108044   108005   107944   107862 
  107758   107633   107503   107381   107263   107149   107049   106960 
  106867   106769   106678   106593   106496   106382   106258   106125 
  105982   105838   105698   105563   105446   105346   105248   105165 
  105120   105110   105137   105204   105298   105408   105532   105666 
  105821   105996   106178   106359   106539   106715   106893   107071 
  107236   107380   107507   107637   107773   107903   108034   108163 
  108281   108404   108545   108697   108846   108983   109107   109227 
  109334   109419   109491   109539   109556   109563   109565   109554 
  109535   109517   109491   109456   109412   109352   109279   109191 
  109068   108914   108741   108545   108332   108120   107930   107771 
  107630   107484   107337   107203   107080   106963   106843   106709 
  106560   106412   106266   106118   105977   105854   105744   105641 
  105539   105447   105379   105323   105273   105243   105235   105241 
  105258   105277   105286   105290   105308   105340   105368   105401 
  105462   105555   105663   105790   105949   106127   106318   106527 
  106761   107016   107274   107542   107837   108143   108443   108744 
  109043   109333   109617   109886   110120   110318   110482   110599 
  110668   110698   110696   110656   110567   110440   110286   110107 
  109917   109731   109558   109398   109255   109123   108993   108873 
  108766   108658   108546   108429   108306   108184   108070   107959 
  107850   107754   107670   107599   107541   107491   107452   107429 
  107423   107435   107463   107503   107556   107616   107672   107708 
  107717   107699   107669   107645   107624   107588   107543   107507 
  107469   107420   107370   107336   107330   107343   107371   107421 
  107479   107530   107568   107586   107599   107603   107585   107555 
  107517   107464   107409   107343   107251   107137   107015   106883 
  106743   106604   106465   106324   106201   106094   106002   105946 
  105924   105928   105968   106033   106116   106214   106321   106432 
  106539   106636   106728   106815   106898   106970   107013   107035 
  107047   107052   107051   107044   107039   107051   107084   107134 
  107203   107290   107386   107482   107578   107676   107768   107846 
  107906   107949   107972   107965   107929   107874   107803   107715 
  107614   107506   107394   107294   107209   107135   107076   107031 
  106990   106957   106922   106877   106840   106817   106791   106750 
  106706   106674   106657   106649   106650   106661   106689   106733 
  106787   106839   106881   106926   106979   107026   107070   107125 
  107188   107253   107322   107402   107499   107609   107724   107841 
  107973   108108   108221   108310   108383   108439   108495   108560 
  108617   108673   108755   108848   108932   109010   109089   109164 
  109240   109317   109384   109438   109479   109495   109481   109443 
  109387   109305   109193   109047   108855   108626   108383   108125 
  107855   107593   107331   107059   106790   106533   106288   106058 
  105844   105644   105463   105316   105204   105123   105084   105100 
  105158   105250   105361   105481   105616   105761   105901   106021 
  106120   106195   106249   106291   106343   106411   106490   106582 
  106685   106790   106894   106993   107086   107186   107285   107376 
  107463   107550   107648   107758   107855   107933   108005   108085 
  108166   108244   108319   108378   108417   108445   108461   108455 
  108424   108381   108334   108274   108196   108109   108011   107904 
  107806   107720   107639   107566   107514   107486   107486   107515 
  107561   107629   107718   107824   107961   108127   108296   108459 
  108620   108772   108903   109005   109085   109137   109149   109123 
  109071   108998   108905   108788   108649   108499   108338   108165 
  107987   107811   107637   107465   107298   107137   106976   106815 
  106664   106536   106423   106314   106214   106118   106023   105933 
  105844   105759   105675   105590   105522   105469   105422   105385 
  105353   105325   105317   105328   105347   105381   105437   105512 
  105599   105692   105796   105921   106064   106224   106402   106601 
  106825   107064   107298   107524   107735   107914   108063   108180 
  108263   108316   108338   108332   108300   108253   108196   108130 
  108064   107987   107908   107849   107795   107752   107743   107754 
  107777   107826   107894   107960   108023   108092   108160   108216 
  108255   108285   108299   108280   108240   108191   108129   108056 
  107986   107921   107853   107792   107747   107709   107671   107643 
  107625   107611   107603   107610   107640   107685   107739   107801 
  107871   107958   108058   108159   108269   108393   108524   108656 
  108788   108915   109029   109139   109240   109322   109384   109420 
  109429   109416   109378   109327   109270   109198   109108   109006 
  108891   108775   108663   108542   108407   108265   108126   107990 
  107846   107704   107582   107470   107367   107280   107208   107144 
  107072   106987   106900   106806   106692   106561   106421   106285 
  106158   106032   105915   105826   105758   105702   105670   105666 
  105674   105700   105753   105832   105930   106040   106159   106282 
  106406   106531   106656   106775   106897   107032   107182   107339 
  107499   107672   107846   108001   108150   108304   108447   108579 
  108717   108852   108977   109096   109204   109295   109370   109421 
  109439   109418   109355   109267   109157   109013   108839   108648 
  108454   108254   108040   107825   107620   107424   107235   107051 
  106871   106694   106525   106370   106222   106082   105960   105858 
  105771   105702   105653   105620   105609   105612   105613   105614 
  105610   105594   105568   105538   105505   105478   105463   105458 
  105465   105490   105530   105592   105676   105768   105862   105956 
  106046   106139   106238   106332   106422   106518   106622   106719 
  106810   106911   107030   107161   107303   107446   107575   107688 
  107801   107912   108004   108076   108130   108163   108172   108154 
  108119   108081   108030   107968   107904   107841   107781   107727 
  107679   107637   107593   107554   107536   107529   107526   107530 
  107528   107516   107501   107479   107449   107412   107361   107305 
  107251   107189   107126   107066   107008   106956   106908   106859 
  106817   106790   106777   106769   106774   106801   106837   106876 
  106928   106999   107085   107181   107289   107413   107544   107669 
  107786   107901   108013   108109   108181   108234   108274   108309 
  108345   108371   108387   108397   108409   108430   108461   108500 
  108552   108603   108645   108688   108741   108799   108849   108893 
  108946   108992   109011   109010   109005   109001   108992   108973 
  108946   108904   108842   108770   108700   108624   108534   108436 
  108330   108230   108142   108057   107977   107910   107855   107806 
  107754   107703   107650   107575   107486   107391   107285   107169 
