Origin Time       2025/01/13 21:19:00
Lat.              31.8
Long.             131.6
Depth. (km)       30
Mag.              6.9
Station Code      YMGH03
Station Lat.      34.1891
Station Long.     132.1260
Station Height(m) -115
Record Time       2025/01/13 21:20:20
Sampling Freq(Hz) 100Hz
Duration Time(s)  120
Dir.              2
Scale Factor      2942(gal)/8224139
Max. Acc. (gal)   1.121
Last Correction   2025/01/13 21:20:20
Memo.             
[...]
  184631   184635   184623   184608   184619   184650   184659   184647 
  184635   184609   184576   184551   184542   184558   184580   184562 
  184522   184504   184513   184518   184516   184524   184523   184505 
  184492   184486   184486   184481   184484   184516   184536   184540 
  184573   184611   184616   184600   184586   184572   184542   184501 
  184481   184492   184489   184462   184453   184468   184472   184453 
  184434   184423   184396   184334   184269   184231   184230   184256 
  184284   184312   184323   184303   184275   184239   184194   184171 
  184164   184150   184169   184221   184262   184302   184347   184392 
  184451   184518   184561   184574   184576   184592   184626   184658 
  184686   184715   184740   184765   184782   184793   184797   184817 
  184877   184947   185018   185103   185184   185264   185338   185384 
  185392   185394   185418   185440   185427   185407   185371   185306 
  185241   185191   185151   185130   185143   185149   185105   185036 
  184982   184933   184882   184847   184848   184862   184860   184829 
  184761   184680   184623   184585   184554   184531   184513   184489 
  184477   184484   184470   184457   184478   184484   184474   184507 
  184536   184507   184459   184438   184419   184389   184369   184370 
  184373   184399   184458   184526   184596   184662   184717   184773 
  184813   184812   184788   184770   184752   184724   184723   184756 
  184781   184771   184748   184746   184782   184840   184881   184873 
  184825   184794   184797   184806   184812   184804   184806   184864 
  184936   184970   184974   184959   184950   184951   184935   184909 
  184887   184866   184862   184862   184840   184816   184793   184755 
  184709   184661   184617   184597   184582   184555   184538   184536 
  184534   184512   184476   184443   184410   184356   184315   184306 
  184327   184395   184480   184535   184578   184628   184685   184752 
  184812   184842   184869   184900   184912   184898   184863   184846 
  184859   184862   184836   184789   184739   184725   184750   184798 
  184862   184890   184881   184898   184935   184928   184878   184827 
  184798   184773   184732   184682   184623   184557   184503   184470 
  184465   184484   184504   184504   184484   184470   184465   184472 
  184520   184611   184713   184792   184819   184810   184788   184761 
  184736   184713   184689   184670   184662   184685   184739   184774 
  184781   184786   184777   184735   184663   184555   184426   184324 
  184295   184341   184434   184524   184581   184607   184593   184532 
  184458   184412   184412   184443   184461   184447   184432   184439 
  184441   184437   184454   184485   184523   184572   184628   184697 
  184756   184785   184804   184812   184785   184740   184696   184643 
  184589   184563   184582   184624   184674   184705   184680   184627 
  184600   184594   184582   184565   184547   184542   184554   184561 
  184549   184532   184526   184509   184473   184451   184455   184453 
  184447   184486   184570   184642   184671   184682   184715   184790 
  184898   184999   185056   185060   185041   185033   185018   184964 
  184897   184864   184870   184866   184805   184719   184646   184590 
  184554   184535   184518   184531   184600   184675   184696   184661 
  184631   184646   184670   184662   184647   184655   184666   184667 
  184657   184658   184684   184693   184671   184666   184674   184673 
  184651   184615   184599   184617   184639   184670   184723   184758 
  184739   184690   184651   184655   184725   184806   184827   184812 
  184815   184823   184831   184848   184852   184825   184774   184719 
  184670   184638   184632   184620   184586   184545   184469   184370 
  184304   184268   184237   184210   184183   184142   184108   184123 
  184191   184289   184395   184464   184488   184501   184520   184563 
  184669   184821   184971   185068   185079   185013   184909   184809 
  184740   184689   184634   184580   184519   184431   184356   184362 
  184453   184557   184626   184685   184754   184793   184779   184725 
  184651   184604   184603   184588   184527   184477   184449   184412 
  184400   184423   184461   184515   184555   184577   184635   184712 
  184746   184771   184829   184863   184856   184839   184793   184748 
  184769   184820   184856   184874   184862   184831   184810   184806 
  184820   184843   184860   184855   184833   184801   184750   184717 
  184724   184746   184797   184867   184891   184852   184804   184797 
  184819   184823   184823   184851   184873   184860   184864   184906 
  184978   185087   185199   185269   185307   185318   185305   185286 
  185251   185184   185106   185045   185025   185036   185067   185128 
  185218   185294   185336   185359   185363   185334   185284   185222 
  185159   185103   185045   184950   184802   184671   184624   184639 
  184690   184793   184893   184940   184989   185044   185067   185055 
  184993   184909   184854   184808   184769   184747   184709   184669 
  184670   184704   184754   184820   184870   184902   184937   184948 
  184917   184855   184770   184697   184644   184574   184511   184484 
  184450   184405   184387   184376   184361   184349   184323   184253 
  184145   184049   183975   183891   183834   183845   183907   184017 
  184171   184312   184391   184423   184430   184401   184338   184250 
  184146   184044   183965   183928   183948   184036   184162   184308 
  184469   184623   184738   184788   184773   184715   184646   184589 
  184550   184543   184577   184603   184592   184596   184646   184698 
  184743   184797   184858   184904   184901   184854   184808   184794 
  184790   184779   184767   184761   184738   184707   184693   184704 
  184752   184831   184885   184881   184825   184754   184697   184689 
  184744   184821   184886   184966   185045   185059   185002   184910 
  184792   184667   184539   184377   184226   184169   184187   184227 
  184312   184431   184512   184538   184528   184507   184511   184559 
  184631   184712   184816   184925   185006   185052   185070   185037 
  184952   184885   184893   184931   184943   184948   184964   185014 
  185099   185145   185132   185124   185136   185136   185114   185080 
  185059   185053   185060   185070   185066   185047   185029   185035 
  185074   185106   185089   185063   185056   185044   185063   185117 
  185141   185140   185121   185076   185035   184999   184951   184912 
  184889   184852   184778   184644   184481   184385   184383   184387 
  184361   184323   184266   184218   184249   184349   184466   184563 
  184615   184620   184617   184644   184692   184709   184698   184678 
  184661   184646   184608   184562   184547   184546   184524   184468 
  184385   184303   184211   184103   184023   184017   184072   184118 
  184094   184044   184041   184092   184165   184249   184339   184400 
  184395   184327   184231   184145   184077   184027   184032   184076 
  184079   184038   183999   183960   183922   183924   183951   183944 
  183891   183844   183844   183883   183915   183934   183978   184000 
  183965   183944   183984   184061   184142   184203   184260   184342 
  184434   184530   184621   184658   184644   184631   184640   184702 
  184801   184870   184905   184947   185009   185076   185143   185207 
  185267   185345   185463   185546   185564   185589   185662   185733 
  185777   185774   185685   185554   185463   185421   185388   185330 
  185252   185197   185188   185211   185248   185315   185396   185452 
  185465   185434   185364   185267   185151   185033   184933   184859 
  184806   184766   184742   184724   184700   184674   184635   184581 
  184553   184542   184512   184447   184333   184158   183971   183821 
  183701   183586   183531   183586   183697   183813   183934   184056 
  184154   184204   184202   184184   184167   184125   184060   183961 
  183813   183666   183566   183525   183540   183591   183674   183779 
  183860   183894   183878   183805   183710   183641   183600   183583 
  183595   183616   183652   183732   183807   183826   183817   183848 
  183940   184038   184091   184121   184162   184221   184284   184342 
  184400   184428   184407   184387   184418   184523   184661   184756 
  184804   184844   184887   184931   184941   184909   184901   184913 
  184894   184873   184851   184817   184796   184815   184871   184955 
  185051   185110   185080   184999   184929   184878   184843   184839 
  184867   184890   184877   184866   184883   184916   184960   184982 
  184958   184936   184939   184918   184873   184874   184962   185037 
  185004   184966   185066   185215   185276   185225   185099   184945 
  184796   184666   184566   184465   184362   184302   184266   184185 
  184056   183940   183914   183971   184050   184117   184134   184045 
  183891   183793   183762   183737   183759   183874   184033   184191 
  184342   184485   184623   184744   184825   184874   184918   184941 
  184921   184894   184923   185022   185118   185171   185209   185183 
  185066   184963   184916   184867   184802   184723   184665   184659 
  184677   184701   184732   184758   184746   184670   184584   184534 
  184504   184497   184513   184526   184518   184458   184356   184299 
  184364   184527   184671   184742   184801   184882   184952   185006 
  185043   185049   185043   185052   185103   185207   185326   185396 
  185440   185511   185548   185508   185453   185384   185311   185328 
  185429   185515   185573   185612   185637   185695   185757   185718 
  185616   185535   185475   185430   185422   185467   185556   185664 
  185762   185791   185716   185577   185427   185290   185161   185020 
  184869   184738   184651   184608   184585   184562   184516   184451 
  184389   184356   184376   184408   184443   184545   184678   184716 
  184651   184572   184497   184414   184331   184238   184121   183995 
  183867   183728   183617   183571   183577   183640   183757   183859 
  183929   184023   184149   184248   184275   184245   184208   184187 
  184176   184171   184134   184050   183976   183955   183951   184005 
  184176   184389   184545   184638   184674   184680   184701   184692 
  184609   184531   184484   184397   184295   184275   184395   184611 
  184766   184762   184670   184615   184655   184771   184904   184986 
  184991   184991   185043   185121   185224   185333   185403   185438 
  185448   185433   185418   185421   185454   185521   185600   185679 
  185711   185693   185700   185745   185765   185733   185687   185665 
  185692   185768   185832   185851   185853   185824   185765   185720 
  185681   185615   185535   185476   185461   185504   185611   185738 
  185815   185841   185845   185842   185863   185881   185853   185811 
  185760   185639   185494   185395   185334   185305   185309   185321 
  185330   185355   185417   185530   185673   185791   185839   185816 
  185778   185781   185770   185669   185533   185431   185355   185322 
  185345   185361   185337   185283   185203   185103   184982   184829 
  184686   184612   184590   184558   184531   184567   184661   184751 
  184782   184770   184775   184796   184783   184739   184709   184717 
  184721   184678   184603   184550   184528   184528   184547   184551 
  184532   184530   184545   184594   184721   184867   184944   184966 
  184966   184954   184951   184971   185004   185031   185047   185055 
  185049   185044   185025   184960   184874   184839   184887   184968 
  184998   184974   184989   185045   185071   185075   185116   185182 
  185203   185139   185053   185022   185018   185001   184943   184828 
  184734   184694   184655   184640   184663   184631   184527   184447 
  184420   184419   184410   184354   184304   184315   184307   184261 
  184235   184173   184069   184037   184052   184027   183996   183964 
  183863   183720   183600   183483   183321   183139   183019   182980 
  182960   182941   182985   183118   183263   183351   183397   183438 
  183481   183497   183475   183448   183433   183444   183494   183541 
  183568   183621   183703   183768   183809   183868   183956   184050 
  184148   184237   184253   184192   184154   184171   184185   184177 
  184134   184054   183994   183965   183926   183884   183860   183807 
  183699   183570   183465   183409   183386   183355   183308   183234 
  183108   182931   182745   182615   182552   182486   182358   182201 
  182069   181982   181966   182023   182100   182154   182185   182204 
  182175   182090   182013   182008   182074   182202   182367   182533 
  182673   182796   182925   183046   183127   183204   183336   183498 
  183616   183666   183681   183708   183799   183948   184088   184198 
  184337   184519   184678   184771   184840   184960   185137   185279 
  185328   185330   185356   185399   185426   185473   185589   185739 
  185863   185967   186047   186074   186069   186062   186062   186075 
  186096   186104   186105   186085   186055   186074   186129   186194 
  186289   186359   186322   186273   186279   186252   186167   186089 
  186043   186019   185977   185899   185804   185695   185558   185409 
  185287   185186   185060   184879   184630   184373   184148   183905 
  183659   183450   183276   183141   183024   182919   182853   182814 
  182795   182792   182763   182667   182501   182345   182252   182152 
  182013   181889   181768   181634   181545   181510   181511   181564 
  181629   181672   181718   181768   181797   181800   181800   181842 
  181935   182056   182178   182298   182432   182578   182727   182931 
  183236   183587   183901   184150   184331   184426   184480   184584 
  184744   184881   184993   185149   185330   185461   185581   185754 
  185928   186043   186112   186160   186204   186237   186246   186267 
  186332   186414   186530   186676   186808   186911   186969   187018 
  187142   187315   187416   187427   187412   187407   187408   187423 
  187447   187474   187508   187552   187589   187601   187612   187628 
  187637   187654   187662   187593   187440   187304   187219   187103 
  186926   186726   186518   186333   186185   186055   185961   185881 
  185768   185649   185556   185483   185421   185337   185230   185133 
  185044   184940   184827   184712   184570   184415   184322   184284 
  184235   184165   184073   183964   183880   183811   183741   183698 
  183670   183624   183556   183465   183348   183231   183138   183101 
  183130   183193   183276   183344   183377   183431   183524   183586 
  183597   183578   183586   183685   183791   183794   183774   183841 
  183971   184107   184225   184314   184395   184499   184643   184837 
  185048   185209   185309   185386   185461   185546   185666   185822 
  185959   186040   186084   186100   186101   186108   186113   186111 
  186113   186079   185994   185915   185880   185851   185778   185681 
  185620   185598   185552   185453   185290   185063   184827   184628 
  184438   184215   183963   183743   183605   183505   183385   183247 
  183123   183055   183049   183049   183024   182965   182892   182841 
  182815   182810   182835   182891   182968   183045   183085   183105 
  183127   183120   183112   183146   183172   183182   183246   183369 
  183525   183709   183911   184119   184312   184459   184574   184675 
  184743   184793   184866   184917   184940   185005   185103   185194 
  185279   185360   185445   185541   185646   185750   185812   185834 
  185861   185890   185903   185882   185811   185695   185581   185503 
  185433   185350   185271   185201   185151   185136   185134   185129 
  185125   185107   185052   184983   184974   185040   185109   185132 
  185140   185160   185178   185191   185225   185260   185286   185367 
  185496   185564   185549   185550   185631   185743   185819   185835 
  185816   185788   185746   185711   185726   185772   185793   185785 
  185795   185835   185892   185950   185967   185931   185880   185809 
  185742   185710   185660   185573   185454   185286   185139   185074 
  185014   184905   184810   184785   184785   184752   184712   184724 
  184793   184871   184948   185004   184985   184929   184918   184943 
  184927   184831   184701   184578   184458   184365   184324   184284 
  184194   184092   184026   183973   183902   183794   183651   183521 
  183438   183392   183373   183370   183390   183416   183381   183296 
  183232   183217   183228   183216   183174   183145   183146   183170 
  183215   183261   183305   183379   183492   183613   183729   183845 
  183941   183982   183984   183991   184003   184003   184010   184072 
  184157   184207   184268   184404   184581   184729   184839   184958 
  185105   185248   185399   185576   185731   185827   185882   185943 
  186034   186109   186125   186115   186124   186152   186193   186228 
  186244   186279   186327   186325   186306   186331   186358   186355 
  186360   186352   186290   186236   186229   186200   186113   186015 
  185928   185832   185711   185554   185367   185186   185039   184904 
  184781   184675   184562   184442   184327   184194   184033   183836 
  183628   183485   183396   183286   183163   183050   182912   182787 
  182763   182815   182858   182888   182930   182981   183020   183024 
  182985   182919   182831   182742   182690   182640   182548   182471 
  182461   182502   182583   182692   182845   183055   183265   183433 
  183595   183749   183872   183968   184044   184104   184153   184196 
  184265   184343   184397   184472   184566   184619   184661   184740 
  184821   184860   184837   184789   184767   184766   184762   184770 
  184815   184879   184921   184960   185044   185156   185272   185399 
  185538   185650   185700   185724   185769   185814   185816   185778 
  185722   185653   185610   185626   185637   185598   185554   185529 
  185487   185411   185301   185161   185020   184867   184675   184492 
  184381   184326   184285   184252   184237   184219   184173   184126 
  184111   184121   184142   184157   184176   184191   184161   184122 
  184134   184168   184204   184241   184226   184181   184162   184130 
  184064   184013   183964   183888   183838   183824   183762   183643 
  183550   183523   183512   183469   183419   183392   183379   183385 
  183412   183432   183477   183595   183733   183851   183978   184084 
  184138   184154   184150   184149   184180   184249   184333   184384 
  184411   184459   184484   184464   184462   184492   184526   184561 
  184559   184489   184385   184291   184243   184245   184245   184237 
  184248   184273   184319   184361   184380   184418   184493   184546 
  184559   184569   184582   184596   184631   184678   184707   184727 
  184754   184766   184763   184747   184697   184621   184542   184459 
  184378   184303   184241   184210   184191   184130   184038   183988 
  184002   184037   184084   184160   184242   184291   184322   184366 
  184389   184373   184366   184395   184455   184538   184623   184709 
  184801   184874   184931   184999   185087   185161   185178   185129 
  185060   184999   184940   184870   184809   184806   184871   184931 
  184936   184936   184987   185072   185145   185194   185226   185241 
