Origin Time       2025/01/13 21:19:00
Lat.              31.8
Long.             131.6
Depth. (km)       30
Mag.              6.9
Station Code      YMGH06
Station Lat.      33.9893
Station Long.     131.3012
Station Height(m) 80
Record Time       2025/01/13 21:20:14
Sampling Freq(Hz) 100Hz
Duration Time(s)  175
Dir.              6
Scale Factor      7845(gal)/8223790
Max. Acc. (gal)   1.466
Last Correction   2025/01/13 21:20:14
Memo.             
[...]
   -9243    -9292    -9337    -9375    -9402    -9420    -9432    -9441 
   -9445    -9443    -9432    -9416    -9400    -9379    -9354    -9329 
   -9298    -9265    -9234    -9200    -9170    -9148    -9131    -9113 
   -9100    -9085    -9062    -9034    -9007    -8977    -8945    -8916 
   -8899    -8895    -8907    -8941    -8989    -9047    -9103    -9155 
   -9211    -9258    -9293    -9321    -9343    -9351    -9352    -9348 
   -9333    -9310    -9293    -9279    -9270    -9273    -9290    -9315 
   -9347    -9386    -9427    -9464    -9498    -9521    -9531    -9528 
   -9513    -9497    -9478    -9456    -9437    -9428    -9425    -9429 
   -9436    -9444    -9450    -9445    -9436    -9423    -9405    -9383 
   -9363    -9343    -9327    -9312    -9300    -9300    -9312    -9321 
   -9328    -9328    -9315    -9283    -9246    -9205    -9163    -9121 
   -9082    -9058    -9046    -9043    -9051    -9069    -9094    -9131 
   -9173    -9213    -9250    -9282    -9313    -9339    -9350    -9351 
   -9344    -9324    -9300    -9275    -9247    -9215    -9186    -9163 
   -9148    -9140    -9138    -9146    -9165    -9188    -9212    -9228 
   -9236    -9243    -9248    -9256    -9274    -9302    -9339    -9378 
   -9418    -9460    -9505    -9547    -9583    -9618    -9651    -9678 
   -9690    -9679    -9652    -9612    -9562    -9508    -9459    -9421 
   -9396    -9383    -9381    -9378    -9378    -9383    -9390    -9394 
   -9397    -9394    -9386    -9378    -9371    -9362    -9354    -9350 
   -9354    -9362    -9371    -9385    -9404    -9420    -9432    -9445 
   -9458    -9462    -9467    -9471    -9466    -9454    -9445    -9441 
   -9433    -9425    -9417    -9405    -9393    -9385    -9381    -9375 
   -9366    -9355    -9351    -9348    -9352    -9360    -9366    -9371 
   -9383    -9400    -9418    -9440    -9459    -9468    -9468    -9466 
   -9460    -9448    -9439    -9436    -9433    -9427    -9420    -9410 
   -9397    -9386    -9378    -9373    -9373    -9377    -9379    -9381 
   -9383    -9387    -9405    -9436    -9472    -9508    -9541    -9572 
   -9601    -9620    -9626    -9625    -9617    -9605    -9594    -9587 
   -9583    -9579    -9576    -9578    -9582    -9578    -9562    -9536 
   -9506    -9477    -9451    -9428    -9409    -9404    -9412    -9432 
   -9462    -9497    -9535    -9571    -9599    -9620    -9632    -9636 
   -9626    -9607    -9582    -9547    -9501    -9451    -9405    -9356 
   -9306    -9261    -9212    -9161    -9120    -9094    -9074    -9061 
   -9050    -9038    -9022    -9007    -8996    -8985    -8972    -8962 
   -8961    -8968    -8980    -9000    -9026    -9053    -9077    -9094 
   -9101    -9101    -9103    -9107    -9112    -9113    -9115    -9124 
   -9135    -9146    -9158    -9167    -9170    -9167    -9159    -9153 
   -9148    -9147    -9153    -9159    -9167    -9180    -9193    -9209 
   -9223    -9234    -9246    -9255    -9265    -9282    -9300    -9306 
   -9315    -9328    -9337    -9346    -9346    -9337    -9325    -9310 
   -9294    -9283    -9279    -9281    -9288    -9302    -9327    -9356 
   -9389    -9420    -9450    -9474    -9494    -9514    -9535    -9547 
   -9548    -9539    -9518    -9491    -9460    -9429    -9401    -9373 
   -9336    -9296    -9263    -9243    -9234    -9231    -9232    -9239 
   -9254    -9275    -9300    -9329    -9362    -9386    -9401    -9406 
   -9405    -9400    -9394    -9390    -9386    -9377    -9359    -9336 
   -9313    -9298    -9293    -9288    -9281    -9275    -9269    -9256 
   -9243    -9229    -9215    -9205    -9207    -9216    -9228    -9244 
   -9265    -9286    -9306    -9329    -9351    -9369    -9387    -9409 
   -9429    -9445    -9458    -9466    -9468    -9468    -9459    -9441 
   -9423    -9405    -9391    -9382    -9377    -9375    -9374    -9367 
   -9363    -9363    -9362    -9355    -9348    -9343    -9342    -9337 
   -9331    -9325    -9325    -9317    -9298    -9271    -9235    -9189 
   -9144    -9105    -9067    -9035    -9009    -8992    -8989    -8996 
   -9012    -9035    -9065    -9094    -9116    -9138    -9161    -9173 
   -9175    -9178    -9171    -9151    -9131    -9111    -9092    -9084 
   -9084    -9089    -9101    -9120    -9142    -9165    -9186    -9205 
   -9223    -9236    -9247    -9256    -9261    -9261    -9263    -9267 
   -9273    -9275    -9274    -9270    -9263    -9252    -9236    -9216 
   -9197    -9180    -9159    -9143    -9135    -9130    -9126    -9131 
   -9143    -9158    -9181    -9209    -9246    -9283    -9317    -9348 
   -9374    -9396    -9416    -9435    -9447    -9452    -9448    -9439 
   -9424    -9409    -9401    -9401    -9406    -9417    -9435    -9455 
   -9474    -9490    -9502    -9505    -9498    -9485    -9467    -9452 
   -9437    -9429    -9429    -9432    -9436    -9437    -9431    -9421 
   -9413    -9408    -9406    -9418    -9447    -9483    -9524    -9562 
   -9594    -9621    -9645    -9664    -9678    -9687    -9694    -9705 
   -9718    -9726    -9732    -9736    -9732    -9717    -9694    -9666 
   -9629    -9583    -9529    -9471    -9417    -9366    -9313    -9262 
   -9211    -9161    -9126    -9099    -9081    -9076    -9085    -9100 
   -9123    -9151    -9178    -9204    -9223    -9229    -9232    -9234 
   -9239    -9244    -9258    -9281    -9309    -9336    -9369    -9396 
   -9421    -9447    -9464    -9475    -9481    -9477    -9464    -9448 
   -9431    -9410    -9390    -9378    -9374    -9382    -9401    -9428 
   -9456    -9477    -9483    -9477    -9456    -9425    -9391    -9360 
   -9331    -9301    -9277    -9251    -9225    -9198    -9174    -9154 
   -9143    -9143    -9151    -9165    -9185    -9213    -9246    -9277 
   -9306    -9323    -9327    -9324    -9309    -9286    -9258    -9219 
   -9171    -9126    -9085    -9054    -9030    -9015    -9008    -9005 
   -9007    -9011    -9020    -9038    -9058    -9074    -9092    -9107 
   -9112    -9115    -9121    -9130    -9136    -9142    -9142    -9143 
   -9151    -9167    -9196    -9236    -9275    -9309    -9332    -9346 
   -9343    -9328    -9309    -9286    -9262    -9242    -9224    -9209 
   -9197    -9186    -9181    -9180    -9173    -9166    -9165    -9167 
   -9175    -9190    -9215    -9235    -9248    -9265    -9279    -9293 
   -9306    -9309    -9301    -9290    -9274    -9251    -9228    -9201 
   -9165    -9120    -9073    -9030    -8993    -8964    -8942    -8926 
   -8911    -8907    -8918    -8942    -8981    -9028    -9070    -9108 
   -9138    -9161    -9173    -9174    -9166    -9148    -9130    -9111 
   -9092    -9080    -9073    -9067    -9063    -9062    -9072    -9097 
   -9124    -9146    -9170    -9196    -9216    -9235    -9255    -9275 
   -9297    -9321    -9337    -9343    -9344    -9343    -9342    -9340 
   -9335    -9327    -9320    -9317    -9317    -9319    -9320    -9320 
   -9325    -9336    -9348    -9354    -9352    -9346    -9337    -9333 
   -9337    -9351    -9373    -9398    -9425    -9454    -9482    -9509 
   -9529    -9545    -9555    -9559    -9555    -9548    -9533    -9510 
   -9483    -9456    -9436    -9423    -9416    -9417    -9421    -9420 
   -9420    -9423    -9425    -9439    -9456    -9468    -9477    -9478 
   -9477    -9471    -9454    -9435    -9418    -9400    -9386    -9385 
   -9390    -9400    -9416    -9433    -9448    -9464    -9481    -9495 
   -9509    -9529    -9552    -9575    -9594    -9605    -9612    -9614 
   -9612    -9612    -9609    -9603    -9602    -9601    -9599    -9607 
   -9620    -9634    -9649    -9664    -9678    -9683    -9675    -9656 
   -9636    -9610    -9582    -9555    -9528    -9499    -9478    -9468 
   -9467    -9471    -9474    -9481    -9491    -9502    -9506    -9505 
   -9501    -9493    -9482    -9467    -9455    -9445    -9439    -9437 
   -9437    -9437    -9440    -9445    -9448    -9444    -9436    -9425 
   -9414    -9402    -9390    -9378    -9364    -9354    -9344    -9336 
   -9331    -9331    -9339    -9354    -9373    -9391    -9402    -9408 
   -9400    -9387    -9375    -9358    -9340    -9320    -9300    -9285 
   -9277    -9266    -9255    -9246    -9231    -9216    -9200    -9180 
   -9158    -9136    -9117    -9108    -9101    -9093    -9093    -9094 
   -9090    -9089    -9093    -9096    -9104    -9116    -9126    -9136 
   -9148    -9163    -9185    -9207    -9220    -9225    -9224    -9220 
   -9213    -9208    -9207    -9211    -9213    -9219    -9228    -9236 
   -9242    -9247    -9252    -9252    -9250    -9247    -9242    -9236 
   -9238    -9236    -9235    -9238    -9235    -9231    -9229    -9231 
   -9232    -9240    -9255    -9278    -9304    -9331    -9359    -9389 
   -9416    -9435    -9441    -9436    -9418    -9394    -9366    -9336 
   -9310    -9289    -9266    -9247    -9235    -9232    -9236    -9246 
   -9254    -9265    -9277    -9289    -9302    -9312    -9317    -9324 
   -9336    -9356    -9381    -9405    -9432    -9460    -9482    -9498 
   -9514    -9532    -9553    -9574    -9595    -9622    -9648    -9675 
   -9698    -9718    -9737    -9747    -9745    -9736    -9713    -9678 
   -9637    -9595    -9549    -9505    -9464    -9433    -9408    -9382 
   -9359    -9335    -9312    -9300    -9296    -9292    -9283    -9274 
   -9259    -9242    -9223    -9207    -9192    -9175    -9158    -9140 
   -9128    -9119    -9115    -9113    -9111    -9107    -9100    -9093 
   -9089    -9084    -9067    -9049    -9034    -9022    -9022    -9032 
   -9053    -9084    -9115    -9150    -9189    -9231    -9274    -9315 
   -9346    -9364    -9369    -9363    -9352    -9339    -9327    -9321 
   -9323    -9327    -9335    -9348    -9369    -9398    -9432    -9466 
   -9502    -9543    -9579    -9613    -9647    -9672    -9690    -9697 
   -9686    -9667    -9644    -9610    -9570    -9535    -9499    -9467 
   -9435    -9400    -9360    -9323    -9289    -9263    -9242    -9223 
   -9212    -9202    -9194    -9190    -9190    -9194    -9202    -9209 
   -9219    -9236    -9255    -9277    -9301    -9325    -9346    -9359 
   -9364    -9363    -9355    -9347    -9342    -9340    -9346    -9359 
   -9382    -9414    -9448    -9486    -9526    -9564    -9599    -9632 
   -9659    -9675    -9682    -9683    -9676    -9661    -9643    -9622 
   -9605    -9589    -9576    -9571    -9568    -9564    -9563    -9563 
   -9562    -9558    -9549    -9533    -9514    -9491    -9463    -9429 
   -9391    -9356    -9324    -9290    -9255    -9223    -9196    -9177 
   -9171    -9174    -9180    -9188    -9196    -9205    -9216    -9231 
   -9251    -9274    -9301    -9331    -9363    -9401    -9440    -9477 
   -9509    -9539    -9567    -9590    -9609    -9621    -9626    -9634 
   -9645    -9653    -9660    -9664    -9666    -9668    -9667    -9657 
   -9648    -9641    -9634    -9632    -9630    -9625    -9620    -9614 
   -9610    -9605    -9595    -9585    -9571    -9549    -9522    -9497 
   -9471    -9444    -9412    -9375    -9332    -9281    -9225    -9169 
   -9115    -9063    -9016    -8973    -8934    -8904    -8887    -8878 
   -8870    -8862    -8857    -8853    -8850    -8850    -8849    -8845 
   -8839    -8833    -8827    -8826    -8829    -8831    -8834    -8839 
   -8847    -8854    -8861    -8866    -8876    -8888    -8904    -8923 
   -8949    -8976    -9008    -9047    -9088    -9126    -9158    -9182 
   -9204    -9225    -9243    -9261    -9282    -9304    -9324    -9343 
   -9364    -9385    -9404    -9417    -9421    -9420    -9413    -9402 
   -9389    -9371    -9350    -9329    -9308    -9286    -9270    -9258 
   -9248    -9244    -9243    -9246    -9254    -9267    -9283    -9297 
   -9305    -9310    -9320    -9331    -9346    -9362    -9379    -9401 
   -9420    -9440    -9463    -9483    -9498    -9510    -9518    -9520 
   -9516    -9508    -9493    -9464    -9431    -9397    -9362    -9327 
   -9298    -9277    -9266    -9265    -9273    -9285    -9301    -9320 
   -9340    -9356    -9370    -9385    -9396    -9409    -9432    -9460 
   -9491    -9528    -9564    -9605    -9647    -9686    -9721    -9752 
   -9774    -9788    -9798    -9801    -9796    -9786    -9767    -9747 
   -9732    -9718    -9706    -9698    -9693    -9691    -9688    -9686 
   -9683    -9674    -9655    -9630    -9603    -9572    -9536    -9495 
   -9455    -9423    -9396    -9375    -9362    -9351    -9343    -9339 
   -9332    -9319    -9298    -9273    -9240    -9198    -9147    -9094 
   -9039    -8984    -8932    -8887    -8845    -8808    -8776    -8750 
   -8731    -8715    -8703    -8694    -8681    -8667    -8646    -8625 
   -8603    -8579    -8552    -8523    -8495    -8469    -8446    -8419 
   -8394    -8372    -8348    -8322    -8298    -8275    -8257    -8248 
   -8247    -8248    -8253    -8260    -8276    -8293    -8306    -8317 
   -8317    -8310    -8301    -8289    -8275    -8262    -8247    -8230 
   -8217    -8213    -8216    -8225    -8243    -8268    -8305    -8352 
   -8403    -8461    -8523    -8581    -8630    -8672    -8706    -8734 
   -8761    -8787    -8807    -8827    -8853    -8883    -8908    -8934 
   -8964    -8986    -9009    -9039    -9076    -9113    -9159    -9208 
   -9255    -9304    -9355    -9406    -9458    -9512    -9563    -9613 
   -9666    -9718    -9767    -9815    -9871    -9923    -9975   -10023 
  -10071   -10118   -10165   -10212   -10262   -10318   -10372   -10426 
  -10484   -10539   -10586   -10628   -10665   -10700   -10739   -10770 
  -10798   -10824   -10841   -10852   -10860   -10858   -10844   -10822 
  -10793   -10754   -10704   -10647   -10588   -10524   -10459   -10399 
  -10339   -10276   -10206   -10135   -10065    -9992    -9915    -9840 
   -9768    -9697    -9626    -9553    -9486    -9427    -9371    -9319 
   -9275    -9240    -9213    -9193    -9173    -9153    -9132    -9117 
   -9107    -9100    -9096    -9092    -9084    -9074    -9063    -9046 
   -9027    -9011    -9000    -8989    -8985    -8989    -8993    -8997 
   -9000    -8996    -8986    -8972    -8954    -8932    -8903    -8869 
   -8834    -8797    -8762    -8733    -8710    -8698    -8689    -8687 
   -8688    -8694    -8702    -8718    -8743    -8770    -8799    -8830 
   -8856    -8876    -8891    -8895    -8895    -8895    -8896    -8903 
   -8916    -8932    -8954    -8984    -9018    -9055    -9088    -9115 
   -9139    -9163    -9182    -9197    -9219    -9244    -9270    -9300 
   -9329    -9351    -9366    -9378    -9390    -9401    -9412    -9428 
   -9448    -9467    -9490    -9518    -9548    -9579    -9613    -9649 
   -9687    -9720    -9751    -9783    -9813    -9841    -9864    -9879 
   -9890    -9895    -9899    -9902    -9903    -9910    -9915    -9914 
   -9913    -9915    -9922    -9929    -9934    -9942    -9949    -9952 
   -9954    -9956    -9954    -9942    -9926    -9904    -9875    -9845 
   -9817    -9786    -9753    -9721    -9684    -9645    -9610    -9580 
   -9549    -9521    -9493    -9464    -9448    -9439    -9428    -9423 
   -9428    -9433    -9441    -9456    -9467    -9468    -9466    -9459 
   -9447    -9431    -9405    -9373    -9335    -9296    -9259    -9223 
   -9189    -9158    -9131    -9111    -9099    -9089    -9085    -9081 
   -9072    -9066    -9061    -9047    -9030    -9012    -8991    -8970 
   -8958    -8946    -8934    -8927    -8922    -8920    -8919    -8916 
   -8914    -8912    -8916    -8924    -8932    -8945    -8962    -8980 
   -9001    -9028    -9053    -9077    -9101    -9123    -9140    -9153 
   -9166    -9178    -9184    -9185    -9182    -9177    -9169    -9157 
   -9147    -9144    -9139    -9138    -9150    -9166    -9188    -9212 
   -9235    -9259    -9288    -9316    -9344    -9371    -9397    -9414 
   -9421    -9423    -9418    -9410    -9404    -9398    -9394    -9385 
   -9374    -9366    -9363    -9366    -9375    -9391    -9416    -9447 
   -9482    -9518    -9553    -9583    -9612    -9632    -9641    -9655 
   -9663    -9660    -9655    -9647    -9630    -9610    -9591    -9566 
   -9535    -9502    -9468    -9437    -9414    -9397    -9385    -9385 
   -9397    -9416    -9440    -9468    -9498    -9531    -9568    -9605 
   -9637    -9664    -9678    -9680    -9678    -9664    -9645    -9630 
   -9616    -9601    -9590    -9579    -9563    -9545    -9537    -9535 
   -9531    -9524    -9516    -9505    -9493    -9485    -9479    -9478 
   -9474    -9464    -9455    -9445    -9429    -9408    -9389    -9367 
   -9340    -9308    -9277    -9250    -9229    -9212    -9198    -9193 
   -9189    -9181    -9177    -9173    -9170    -9177    -9181    -9181 
   -9177    -9166    -9147    -9120    -9090    -9054    -9007    -8962 
   -8920    -8872    -8822    -8777    -8734    -8689    -8652    -8621 
   -8592    -8567    -8546    -8532    -8523    -8525    -8537    -8554 
   -8575    -8602    -8635    -8673    -8715    -8761    -8814    -8870 
   -8924    -8977    -9028    -9078    -9128    -9181    -9236    -9292 
   -9350    -9405    -9460    -9510    -9552    -9587    -9617    -9639 
   -9648    -9651    -9653    -9653    -9651    -9645    -9637    -9629 
   -9620    -9606    -9591    -9576    -9556    -9532    -9509    -9486 
   -9460    -9437    -9417    -9397    -9378    -9359    -9339    -9323 
   -9309    -9297    -9285    -9265    -9239    -9209    -9173    -9128 
   -9085    -9045    -9008    -8974    -8941    -8905    -8880    -8858 
   -8838    -8827    -8822    -8816    -8816    -8818    -8818    -8820 
   -8819    -8814    -8810    -8811    -8814    -8822    -8841    -8862 
   -8885    -8922    -8968    -9015    -9065    -9116    -9163    -9211 
   -9256    -9300    -9340    -9377    -9413    -9451    -9486    -9518 
   -9551    -9582    -9609    -9639    -9671    -9698    -9722    -9744 
   -9760    -9771    -9776    -9775    -9767    -9753    -9736    -9718 
   -9698    -9671    -9644    -9617    -9587    -9559    -9533    -9504 
   -9475    -9451    -9424    -9394    -9360    -9329    -9297    -9263 
   -9225    -9186    -9148    -9113    -9081    -9053    -9028    -9008 
   -8995    -8989    -8989    -8993    -8997    -9000    -9005    -9012 
   -9020    -9034    -9050    -9069    -9093    -9119    -9146    -9177 
   -9205    -9232    -9262    -9293    -9325    -9354    -9378    -9398 
   -9421    -9443    -9459    -9474    -9493    -9509    -9528    -9548 
   -9567    -9580    -9595    -9610    -9622    -9633    -9637    -9632 
   -9621    -9612    -9598    -9579    -9560    -9543    -9526    -9506 
   -9482    -9455    -9427    -9398    -9370    -9342    -9312    -9281 
   -9246    -9211    -9180    -9144    -9111    -9082    -9066    -9058 
   -9059    -9073    -9094    -9121    -9153    -9185    -9217    -9252 
   -9289    -9327    -9366    -9404    -9439    -9467    -9493    -9516 
   -9533    -9548    -9562    -9572    -9583    -9591    -9601    -9614 
   -9629    -9648    -9668    -9686    -9703    -9724    -9738    -9752 
   -9763    -9768    -9771    -9774    -9771    -9763    -9755    -9745 
   -9734    -9721    -9701    -9672    -9639    -9603    -9570    -9535 
   -9505    -9475    -9450    -9432    -9420    -9410    -9404    -9394 
   -9382    -9370    -9355    -9337    -9321    -9301    -9277    -9250 
   -9219    -9185    -9148    -9112    -9073    -9031    -8995    -8958 
   -8920    -8895    -8878    -8860    -8849    -8845    -8842    -8841 
