Origin Time       2025/01/13 21:19:00
Lat.              31.8
Long.             131.6
Depth. (km)       30
Mag.              6.9
Station Code      YMGH03
Station Lat.      34.1891
Station Long.     132.1260
Station Height(m) -115
Record Time       2025/01/13 21:20:20
Sampling Freq(Hz) 100Hz
Duration Time(s)  120
Dir.              3
Scale Factor      2942(gal)/8224139
Max. Acc. (gal)   0.934
Last Correction   2025/01/13 21:20:20
Memo.             
[...]
  102755   102744   102717   102667   102605   102529   102462   102428 
  102424   102454   102525   102616   102697   102751   102782   102813 
  102841   102840   102798   102749   102726   102713   102720   102760 
  102794   102811   102840   102884   102936   102983   103033   103102 
  103185   103260   103327   103423   103546   103648   103716   103761 
  103798   103835   103833   103800   103796   103810   103788   103735 
  103681   103624   103561   103505   103464   103423   103342   103223 
  103130   103084   103049   103005   102953   102903   102853   102775 
  102679   102604   102529   102420   102289   102174   102095   102039 
  101988   101953   101941   101965   102023   102058   102058   102076 
  102138   102236   102361   102475   102544   102571   102595   102621 
  102627   102614   102598   102593   102609   102639   102667   102691 
  102724   102759   102764   102745   102736   102767   102833   102894 
  102930   102941   102918   102875   102837   102813   102822   102853 
  102853   102816   102768   102720   102683   102672   102672   102662 
  102644   102645   102658   102659   102667   102683   102676   102639 
  102583   102548   102556   102581   102594   102617   102663   102726 
  102789   102832   102844   102829   102811   102824   102871   102933 
  102975   102973   102938   102884   102833   102795   102745   102656 
  102551   102465   102408   102361   102304   102249   102201   102138 
  102072   102031   102003   101977   101954   101937   101920   101900 
  101887   101891   101904   101916   101931   101970   102038   102115 
  102176   102213   102226   102201   102169   102162   102162   102154 
  102162   102207   102274   102369   102486   102597   102702   102817 
  102932   103021   103049   103030   103036   103096   103169   103233 
  103297   103372   103445   103505   103547   103576   103603   103644 
  103708   103779   103843   103873   103860   103837   103825   103820 
  103816   103802   103788   103789   103805   103821   103833   103846 
  103864   103889   103913   103920   103896   103843   103778   103697 
  103585   103469   103374   103303   103261   103243   103215   103171 
  103114   103042   102980   102941   102890   102810   102732   102654 
  102546   102452   102417   102424   102460   102504   102509   102481 
  102456   102436   102411   102389   102377   102379   102415   102466 
  102486   102463   102409   102335   102282   102271   102289   102313 
  102336   102379   102447   102525   102614   102701   102767   102807 
  102814   102805   102814   102847   102894   102956   103005   103013 
  102996   102980   102994   103030   103053   103052   103036   103000 
  102973   102995   103053   103106   103135   103154   103165   103171 
  103179   103189   103207   103211   103184   103134   103088   103048 
  102990   102915   102851   102801   102784   102801   102841   102909 
  102998   103100   103206   103283   103322   103339   103343   103338 
  103351   103388   103422   103466   103543   103635   103702   103747 
  103777   103804   103833   103851   103848   103843   103862   103894 
  103900   103885   103877   103864   103832   103775   103708   103642 
  103578   103513   103446   103374   103311   103262   103192   103072 
  102942   102847   102797   102790   102801   102806   102810   102811 
  102794   102753   102716   102679   102643   102620   102593   102546 
  102505   102483   102474   102510   102593   102678   102753   102849 
  102948   103005   103019   103014   102996   102960   102906   102872 
  102865   102868   102868   102865   102855   102838   102822   102822 
  102847   102891   102942   102992   103033   103033   102987   102949 
  102936   102930   102936   102955   102973   102986   103005   103048 
  103100   103148   103183   103187   103156   103114   103084   103054 
  102992   102911   102840   102780   102751   102760   102780   102782 
  102759   102697   102610   102529   102442   102342   102247   102178 
  102146   102136   102136   102157   102184   102208   102231   102220 
  102172   102134   102135   102159   102197   102250   102300   102332 
  102348   102342   102336   102382   102460   102524   102571   102598 
  102602   102606   102621   102610   102528   102405   102315   102262 
  102216   102184   102163   102147   102169   102232   102316   102432 
  102567   102687   102789   102886   102988   103092   103195   103300 
  103395   103462   103522   103574   103607   103647   103711   103762 
  103779   103752   103702   103659   103596   103489   103385   103304 
  103214   103080   102911   102748   102628   102539   102452   102397 
  102401   102425   102458   102527   102600   102635   102640   102648 
  102672   102702   102716   102721   102751   102817   102860   102828 
  102767   102733   102706   102659   102614   102575   102490   102331 
  102155   102028   101943   101869   101799   101731   101668   101615 
  101586   101583   101610   101660   101707   101746   101800   101881 
  101974   102069   102163   102254   102342   102428   102492   102513 
  102523   102555   102612   102667   102703   102726   102708   102639 
  102568   102517   102475   102447   102420   102374   102319   102238 
  102135   102057   102024   102027   102069   102135   102190   102213 
  102226   102263   102328   102394   102466   102533   102578   102618 
  102643   102639   102640   102658   102685   102725   102752   102753 
  102759   102776   102791   102794   102762   102713   102682   102632 
  102547   102459   102393   102348   102304   102240   102170   102108 
  102069   102058   102042   102008   101993   101981   101931   101861 
  101802   101758   101736   101736   101721   101688   101694   101748 
  101810   101866   101910   101950   102011   102078   102142   102220 
  102304   102371   102452   102551   102625   102667   102685   102687 
  102694   102693   102668   102640   102640   102659   102663   102654 
  102666   102702   102725   102714   102675   102625   102589   102586 
  102616   102659   102693   102709   102725   102771   102840   102913 
  102991   103076   103161   103239   103297   103349   103404   103453 
  103485   103515   103558   103615   103657   103667   103650   103615 
  103589   103582   103557   103496   103431   103372   103334   103335 
  103351   103350   103342   103312   103242   103158   103090   103048 
  103034   103038   103067   103104   103099   103054   103018   103003 
  102994   102949   102875   102820   102775   102728   102693   102676 
  102706   102784   102853   102898   102932   102940   102918   102888 
  102871   102860   102843   102821   102803   102789   102780   102798 
  102843   102913   102994   103042   103048   103044   103054   103068 
  103057   103045   103068   103104   103126   103145   103175   103212 
  103264   103323   103391   103468   103527   103563   103597   103621 
  103628   103631   103628   103621   103647   103736   103842   103912 
  103954   103990   104021   104053   104086   104082   104031   103959 
  103897   103856   103848   103863   103885   103908   103933   103975 
  104037   104105   104172   104241   104295   104323   104338   104325 
  104282   104226   104163   104076   103979   103914   103912   103935 
  103935   103874   103752   103607   103455   103283   103111   102978 
  102860   102732   102606   102492   102385   102294   102231   102209 
  102223   102227   102196   102150   102126   102141   102188   102257 
  102316   102358   102398   102425   102424   102412   102397   102386 
  102390   102419   102471   102516   102524   102516   102517   102532 
  102548   102554   102554   102571   102610   102651   102685   102710 
  102743   102798   102857   102909   102960   103000   102998   102964 
  102959   103000   103045   103048   103013   102980   102987   103023 
  103041   103015   102971   102934   102897   102848   102810   102791 
  102791   102806   102820   102816   102793   102793   102847   102913 
  102953   102983   103010   103025   103041   103069   103119   103177 
  103203   103199   103198   103218   103276   103356   103419   103470 
  103512   103539   103569   103586   103555   103507   103478   103469 
  103455   103420   103362   103307   103273   103242   103216   103223 
  103222   103180   103146   103146   103149   103121   103068   103019 
  102983   102932   102860   102789   102730   102676   102612   102540 
  102469   102379   102282   102199   102122   102047   101980   101925 
  101896   101902   101939   101995   102064   102149   102232   102309 
  102379   102425   102451   102467   102502   102591   102699   102786 
  102868   102942   102999   103042   103064   103083   103110   103137 
  103171   103199   103199   103183   103162   103115   103054   103010 
  102964   102898   102840   102784   102714   102641   102568   102504 
  102450   102394   102331   102276   102239   102231   102250   102274 
  102294   102309   102316   102319   102331   102365   102415   102452 
  102470   102493   102528   102570   102612   102627   102612   102608 
  102620   102613   102574   102516   102447   102354   102246   102132 
  102028   101976   101965   101949   101920   101899   101893   101893 
  101880   101849   101814   101787   101784   101808   101846   101904 
  101992   102095   102199   102286   102362   102451   102546   102620 
  102701   102826   102956   103038   103099   103180   103283   103399 
  103526   103666   103809   103924   104032   104175   104332   104456 
  104544   104620   104697   104743   104746   104750   104762   104738 
  104677   104627   104619   104625   104591   104508   104394   104282 
  104207   104148   104070   103966   103851   103765   103724   103698 
  103674   103659   103642   103599   103528   103438   103339   103239 
  103146   103073   103019   102949   102852   102774   102736   102706 
  102687   102705   102760   102820   102849   102832   102774   102685 
  102590   102512   102440   102367   102301   102242   102195   102165 
  102147   102135   102112   102072   102033   102001   101960   101898 
  101833   101777   101719   101645   101563   101479   101410   101371 
  101335   101285   101241   101210   101156   101088   101031   100977 
  100924   100888   100857   100834   100836   100836   100816   100826 
  100911   101058   101213   101333   101417   101476   101532   101607 
  101707   101817   101930   102051   102180   102298   102397   102501 
  102604   102678   102726   102743   102729   102718   102718   102728 
  102764   102810   102829   102845   102892   102942   102956   102940 
  102917   102894   102861   102824   102807   102824   102837   102844 
  102882   102956   103027   103096   103177   103270   103377   103476 
  103534   103576   103653   103743   103790   103804   103840   103912 
  103987   104043   104101   104180   104245   104263   104265   104286 
  104305   104291   104257   104242   104236   104209   104178   104148 
  104083   103981   103873   103756   103623   103480   103329   103176 
  103049   102941   102825   102698   102581   102467   102336   102208 
  102084   101947   101829   101752   101696   101655   101632   101621 
  101645   101727   101852   101984   102096   102172   102220   102259 
  102312   102393   102486   102574   102664   102757   102829   102886 
  102946   103005   103042   103064   103069   103067   103072   103095 
  103129   103140   103125   103137   103179   103234   103296   103342 
  103378   103415   103428   103420   103416   103434   103481   103536 
  103581   103628   103693   103752   103786   103815   103870   103937 
  103991   104035   104105   104197   104261   104272   104256   104233 
  104209   104179   104133   104068   103994   103904   103793   103678 
  103567   103438   103300   103173   103045   102914   102793   102668 
  102541   102424   102321   102224   102138   102091   102097   102143 
  102193   102232   102262   102263   102254   102274   102304   102307 
  102285   102271   102284   102285   102259   102254   102269   102271 
  102277   102285   102282   102280   102286   102308   102346   102404 
  102475   102527   102550   102575   102629   102687   102720   102739 
  102766   102813   102879   102956   103022   103056   103049   103021 
  103009   103029   103068   103117   103172   103211   103226   103260 
  103343   103434   103482   103501   103515   103520   103515   103504 
  103474   103427   103408   103437   103480   103501   103503   103500 
  103486   103441   103387   103346   103293   103223   103175   103171 
  103191   103200   103207   103237   103284   103331   103368   103378 
  103351   103315   103299   103310   103337   103362   103377   103372 
  103333   103265   103162   103007   102810   102581   102336   102112 
  101923   101746   101567   101391   101241   101125   101035   100967 
  100920   100884   100827   100742   100665   100620   100579   100542 
  100542   100557   100570   100600   100635   100658   100676   100701 
  100749   100811   100857   100873   100873   100882   100930   101007 
  101073   101132   101208   101279   101341   101421   101507   101582 
  101660   101760   101862   101938   101980   102004   102031   102072 
  102124   102172   102188   102174   102169   102188   102216   102235 
  102253   102285   102338   102390   102443   102537   102667   102801 
  102941   103094   103261   103441   103627   103801   103958   104114 
  104294   104468   104595   104680   104745   104814   104903   105003 
  105100   105198   105285   105347   105398   105436   105445   105433 
  105422   105421   105425   105412   105375   105332   105282   105212 
  105115   104993   104861   104727   104587   104446   104310   104157 
  103985   103828   103708   103600   103485   103369   103265   103194 
  103169   103172   103200   103265   103351   103454   103549   103599 
  103609   103599   103569   103528   103485   103424   103345   103265 
  103198   103119   103006   102870   102717   102537   102363   102226 
  102103   101973   101848   101737   101644   101582   101557   101547 
  101529   101498   101451   101409   101398   101414   101452   101487 
  101514   101565   101644   101713   101763   101819   101877   101912 
  101933   101946   101939   101912   101876   101838   101806   101776 
  101745   101714   101677   101642   101626   101622   101619   101625 
  101641   101655   101664   101686   101742   101842   101960   102080 
  102205   102343   102492   102662   102879   103121   103331   103503 
  103662   103813   103947   104062   104155   104209   104225   104221 
  104203   104182   104168   104163   104174   104199   104210   104193 
  104159   104125   104094   104072   104047   104005   103947   103873 
  103792   103716   103651   103599   103557   103539   103555   103593 
  103628   103644   103642   103627   103603   103590   103601   103615 
  103632   103673   103735   103796   103836   103864   103913   103971 
  104016   104029   104022   104022   104018   104002   103989   103955 
  103887   103810   103727   103627   103509   103401   103326   103248 
  103141   103044   102955   102855   102780   102740   102717   102721 
  102755   102805   102851   102878   102895   102936   103000   103059 
  103094   103125   103156   103185   103222   103253   103284   103319 
  103327   103302   103265   103225   103189   103171   103154   103121 
  103071   103017   102965   102919   102882   102852   102833   102826 
  102828   102832   102833   102843   102863   102870   102860   102847 
  102826   102793   102757   102737   102726   102710   102676   102612 
  102531   102465   102421   102384   102343   102307   102289   102284 
  102276   102251   102207   102145   102078   102007   101937   101879 
  101814   101719   101626   101555   101480   101414   101394   101395 
  101399   101420   101452   101495   101551   101609   101679   101776 
  101885   101996   102122   102251   102371   102485   102604   102729 
  102849   102951   103049   103149   103208   103215   103200   103176 
  103144   103123   103122   103122   103113   103117   103138   103152 
  103160   103183   103207   103206   103194   103195   103222   103261 
  103285   103300   103318   103311   103270   103227   103202   103185 
  103192   103231   103270   103289   103312   103331   103324   103293 
  103243   103175   103098   103040   103002   102969   102937   102907 
  102860   102786   102708   102649   102613   102573   102521   102467 
  102405   102342   102316   102335   102365   102378   102374   102357 
  102312   102253   102201   102162   102128   102089   102046   102018 
  102006   101997   101995   101997   102008   102043   102095   102149 
  102211   102261   102266   102249   102240   102236   102232   102227 
  102240   102298   102394   102483   102541   102589   102632   102656 
  102666   102655   102610   102564   102533   102502   102470   102438 
  102408   102396   102393   102381   102374   102388   102408   102423 
  102431   102435   102443   102473   102517   102552   102579   102614 
  102674   102745   102807   102880   102988   103110   103210   103295 
  103391   103499   103605   103708   103813   103912   103997   104064 
  104112   104147   104174   104193   104211   104233   104265   104301 
  104332   104365   104403   104433   104441   104422   104392   104364 
  104328   104269   104201   104140   104083   104020   103955   103900 
  103840   103754   103663   103585   103500   103404   103314   103215 
  103115   103014   102899   102767   102631   102496   102369   102239 
  102101   101965   101845   101736   101629   101532   101464   101421 
  101390   101374   101385   101420   101475   101536   101596   101660 
  101733   101810   101887   101983   102101   102234   102392   102573 
  102748   102911   103086   103254   103392   103509   103609   103678 
  103732   103771   103778   103766   103746   103715   103665   103589 
  103486   103364   103230   103100   102976   102841   102710   102587 
  102456   102320   102186   102050   101914   101802   101718   101641 
  101578   101537   101503   101470   101457   101479   101520   101571 
  101641   101736   101839   101935   102024   102109   102197   102303 
  102424   102537   102627   102699   102770   102838   102879   102876 
  102853   102824   102791   102759   102728   102697   102667   102622 
  102562   102498   102431   102367   102317   102276   102231   102195 
  102176   102170   102176   102192   102232   102293   102358   102416 
  102485   102593   102737   102887   103029   103164   103288   103393 
  103476   103542   103599   103643   103669   103684   103698   103700 
  103682   103662   103636   103570   103482   103414   103356   103292 
  103237   103177   103110   103046   102979   102905   102848   102807 
  102782   102783   102803   102837   102891   102959   103014   103046 
  103060   103067   103076   103108   103162   103206   103215   103200 
  103173   103145   103126   103104   103073   103042   102992   102907 
  102810   102709   102589   102465   102350   102253   102172   102096 
  102026   101969   101920   101865   101810   101790   101799   101800 
  101795   101799   101788   101764   101750   101752   101768   101792 
  101814   101826   101826   101825   101839   101871   101900   101915 
  101922   101926   101910   101876   101854   101860   101884   101915 
