Origin Time       2025/01/13 21:19:00
Lat.              31.8
Long.             131.6
Depth. (km)       30
Mag.              6.9
Station Code      YMGH11
Station Lat.      34.2091
Station Long.     131.6859
Station Height(m) -80
Record Time       2025/01/13 21:20:18
Sampling Freq(Hz) 100Hz
Duration Time(s)  138
Dir.              3
Scale Factor      2942(gal)/8224139
Max. Acc. (gal)   0.969
Last Correction   2025/01/13 21:20:19
Memo.             
[...]
 -179300  -179265  -179217  -179154  -179084  -179019  -178957  -178895 
 -178830  -178758  -178671  -178575  -178483  -178401  -178332  -178271 
 -178221  -178187  -178159  -178132  -178106  -178083  -178063  -178050 
 -178047  -178050  -178055  -178071  -178108  -178152  -178198  -178237 
 -178278  -178328  -178383  -178443  -178509  -178575  -178634  -178681 
 -178717  -178745  -178773  -178798  -178811  -178811  -178803  -178795 
 -178788  -178783  -178780  -178785  -178798  -178806  -178796  -178767 
 -178706  -178625  -178548  -178480  -178420  -178380  -178371  -178382 
 -178414  -178472  -178553  -178649  -178746  -178841  -178946  -179059 
 -179170  -179275  -179375  -179473  -179564  -179649  -179726  -179799 
 -179874  -179956  -180036  -180102  -180149  -180183  -180211  -180227 
 -180222  -180203  -180181  -180162  -180150  -180142  -180123  -180087 
 -180042  -180007  -179986  -179979  -179982  -179980  -179964  -179919 
 -179844  -179748  -179645  -179533  -179408  -179294  -179219  -179184 
 -179166  -179159  -179174  -179200  -179217  -179227  -179234  -179232 
 -179216  -179189  -179163  -179154  -179169  -179200  -179244  -179300 
 -179347  -179374  -179393  -179425  -179469  -179509  -179540  -179572 
 -179612  -179644  -179667  -179697  -179726  -179744  -179744  -179726 
 -179689  -179629  -179551  -179460  -179358  -179235  -179093  -178941 
 -178785  -178633  -178494  -178382  -178297  -178237  -178205  -178198 
 -178208  -178220  -178225  -178213  -178189  -178159  -178117  -178067 
 -178025  -178002  -177992  -177985  -177985  -178000  -178027  -178063 
 -178117  -178187  -178266  -178352  -178449  -178559  -178672  -178779 
 -178877  -178969  -179032  -179077  -179127  -179172  -179209  -179259 
 -179321  -179374  -179417  -179450  -179464  -179456  -179429  -179389 
 -179325  -179243  -179153  -179061  -178976  -178904  -178849  -178811 
 -178780  -178744  -178691  -178627  -178569  -178519  -178478  -178443 
 -178416  -178401  -178391  -178380  -178375  -178376  -178382  -178406 
 -178457  -178519  -178582  -178648  -178700  -178744  -178789  -178835 
 -178889  -178958  -179031  -179113  -179216  -179336  -179462  -179581 
 -179679  -179763  -179842  -179915  -179991  -180083  -180173  -180258 
 -180346  -180427  -180492  -180544  -180586  -180617  -180640  -180659 
 -180684  -180715  -180748  -180770  -180775  -180770  -180754  -180716 
 -180659  -180590  -180516  -180443  -180376  -180328  -180295  -180260 
 -180227  -180206  -180184  -180146  -180076  -179976  -179859  -179734 
 -179612  -179498  -179405  -179332  -179266  -179200  -179134  -179066 
 -178983  -178885  -178783  -178669  -178546  -178418  -178297  -178193 
 -178097  -177998  -177904  -177816  -177735  -177661  -177593  -177542 
 -177508  -177479  -177452  -177427  -177407  -177408  -177438  -177488 
 -177556  -177633  -177707  -177777  -177851  -177943  -178055  -178173 
 -178282  -178384  -178495  -178606  -178711  -178814  -178911  -178995 
 -179070  -179142  -179211  -179278  -179346  -179409  -179471  -179544 
 -179617  -179680  -179730  -179760  -179766  -179767  -179771  -179783 
 -179807  -179849  -179901  -179965  -180036  -180096  -180150  -180203 
 -180250  -180295  -180330  -180358  -180374  -180377  -180377  -180381 
 -180389  -180403  -180416  -180426  -180432  -180431  -180407  -180365 
 -180312  -180243  -180154  -180053  -179946  -179848  -179759  -179666 
 -179570  -179487  -179417  -179354  -179296  -179235  -179169  -179103 
 -179042  -178991  -178946  -178904  -178870  -178842  -178808  -178779 
 -178750  -178715  -178675  -178641  -178621  -178615  -178621  -178627 
 -178632  -178632  -178629  -178623  -178619  -178618  -178621  -178622 
 -178617  -178600  -178569  -178519  -178456  -178379  -178299  -178218 
 -178133  -178042  -177958  -177896  -177851  -177815  -177772  -177719 
 -177668  -177604  -177529  -177462  -177414  -177376  -177352  -177342 
 -177363  -177414  -177475  -177535  -177599  -177661  -177724  -177790 
 -177859  -177934  -178015  -178117  -178247  -178398  -178564  -178745 
 -178919  -179070  -179204  -179328  -179447  -179554  -179636  -179698 
 -179745  -179784  -179813  -179829  -179833  -179820  -179790  -179752 
 -179705  -179628  -179517  -179385  -179236  -179082  -178930  -178780 
 -178636  -178495  -178359  -178233  -178124  -178021  -177930  -177855 
 -177800  -177778  -177800  -177859  -177943  -178040  -178132  -178222 
 -178318  -178398  -178463  -178528  -178594  -178668  -178749  -178841 
 -178949  -179062  -179162  -179258  -179356  -179454  -179551  -179643 
 -179716  -179770  -179814  -179852  -179886  -179910  -179928  -179942 
 -179950  -179955  -179968  -179991  -180019  -180046  -180058  -180050 
 -180027  -179995  -179942  -179871  -179797  -179726  -179664  -179612 
 -179566  -179521  -179470  -179401  -179320  -179232  -179145  -179061 
 -178977  -178892  -178802  -178707  -178614  -178529  -178457  -178411 
 -178398  -178413  -178448  -178495  -178546  -178606  -178681  -178750 
 -178796  -178827  -178839  -178825  -178794  -178764  -178729  -178692 
 -178664  -178636  -178599  -178567  -178536  -178492  -178436  -178367 
 -178285  -178191  -178090  -177989  -177896  -177817  -177755  -177700 
 -177647  -177606  -177581  -177569  -177569  -177576  -177577  -177574 
 -177572  -177574  -177587  -177596  -177606  -177622  -177639  -177651 
 -177665  -177684  -177696  -177699  -177699  -177687  -177669  -177660 
 -177645  -177622  -177589  -177526  -177441  -177350  -177260  -177180 
 -177126  -177109  -177125  -177178  -177260  -177361  -177477  -177601 
 -177727  -177854  -177985  -178120  -178254  -178383  -178514  -178649 
 -178792  -178931  -179059  -179188  -179312  -179433  -179551  -179667 
 -179784  -179896  -179988  -180052  -180094  -180121  -180135  -180141 
 -180148  -180157  -180176  -180206  -180237  -180257  -180264  -180256 
 -180234  -180208  -180176  -180126  -180067  -180004  -179944  -179901 
 -179879  -179874  -179883  -179906  -179940  -179991  -180053  -180111 
 -180158  -180193  -180218  -180239  -180274  -180312  -180337  -180339 
 -180334  -180320  -180295  -180274  -180269  -180269  -180269  -180265 
 -180253  -180234  -180207  -180172  -180134  -180099  -180063  -180031 
 -180015  -180004  -179992  -179976  -179953  -179926  -179903  -179888 
 -179892  -179910  -179937  -179980  -180023  -180057  -180079  -180085 
 -180079  -180061  -180027  -179988  -179940  -179876  -179805  -179728 
 -179640  -179555  -179479  -179406  -179342  -179288  -179232  -179169 
 -179099  -179014  -178912  -178806  -178706  -178613  -178530  -178465 
 -178425  -178416  -178433  -178471  -178533  -178619  -178715  -178827 
 -178960  -179095  -179223  -179342  -179448  -179552  -179648  -179739 
 -179833  -179922  -180009  -180096  -180168  -180220  -180264  -180291 
 -180292  -180276  -180243  -180191  -180118  -180027  -179919  -179798 
 -179663  -179521  -179373  -179211  -179043  -178888  -178753  -178618 
 -178479  -178345  -178214  -178085  -177961  -177842  -177730  -177628 
 -177549  -177485  -177430  -177387  -177358  -177345  -177354  -177385 
 -177434  -177508  -177610  -177723  -177840  -177963  -178092  -178213 
 -178335  -178463  -178587  -178718  -178865  -179005  -179132  -179248 
 -179351  -179436  -179487  -179502  -179486  -179433  -179351  -179254 
 -179153  -179054  -178964  -178879  -178799  -178721  -178645  -178586 
 -178548  -178525  -178513  -178513  -178532  -178572  -178619  -178677 
 -178754  -178837  -178922  -179011  -179092  -179167  -179258  -179369 
 -179501  -179652  -179818  -179992  -180153  -180281  -180368  -180420 
 -180446  -180447  -180422  -180374  -180311  -180235  -180156  -180075 
 -179992  -179914  -179829  -179729  -179624  -179521  -179428  -179350 
 -179282  -179228  -179196  -179181  -179166  -179157  -179155  -179159 
 -179170  -179193  -179219  -179254  -179302  -179366  -179436  -179506 
 -179577  -179647  -179718  -179784  -179840  -179891  -179940  -179980 
 -180000  -179992  -179973  -179949  -179911  -179863  -179811  -179741 
 -179643  -179521  -179389  -179254  -179122  -178983  -178839  -178706 
 -178579  -178448  -178324  -178206  -178094  -177992  -177898  -177817 
 -177753  -177703  -177665  -177646  -177653  -177665  -177670  -177680 
 -177708  -177757  -177822  -177909  -178017  -178139  -178270  -178409 
 -178552  -178695  -178830  -178968  -179113  -179250  -179374  -179496 
 -179606  -179703  -179805  -179902  -179992  -180079  -180162  -180247 
 -180337  -180418  -180486  -180554  -180621  -180681  -180725  -180750 
 -180750  -180738  -180719  -180689  -180647  -180586  -180511  -180426 
 -180324  -180207  -180075  -179930  -179771  -179591  -179400  -179208 
 -179026  -178860  -178707  -178564  -178432  -178308  -178181  -178058 
 -177939  -177813  -177691  -177576  -177458  -177349  -177260  -177196 
 -177175  -177188  -177225  -177282  -177349  -177422  -177502  -177577 
 -177642  -177703  -177768  -177834  -177893  -177943  -177992  -178040 
 -178090  -178136  -178168  -178179  -178183  -178186  -178178  -178166 
 -178156  -178147  -178139  -178132  -178128  -178119  -178101  -178079 
 -178055  -178027  -177998  -177966  -177923  -177858  -177773  -177682 
 -177593  -177506  -177422  -177346  -177283  -177233  -177198  -177187 
 -177201  -177230  -177280  -177358  -177449  -177553  -177680  -177808 
 -177940  -178096  -178244  -178389  -178541  -178680  -178814  -178939 
 -179042  -179142  -179236  -179317  -179386  -179447  -179505  -179558 
 -179606  -179645  -179668  -179679  -179674  -179649  -179621  -179590 
 -179545  -179483  -179410  -179338  -179262  -179173  -179088  -179020 
 -178956  -178895  -178852  -178822  -178788  -178748  -178703  -178652 
 -178599  -178542  -178479  -178424  -178380  -178356  -178353  -178364 
 -178387  -178418  -178443  -178472  -178507  -178534  -178563  -178603 
 -178652  -178708  -178771  -178834  -178902  -178974  -179046  -179113 
 -179188  -179265  -179331  -179390  -179444  -179494  -179543  -179585 
 -179622  -179666  -179722  -179787  -179851  -179911  -179969  -180018 
 -180054  -180076  -180081  -180067  -180033  -179994  -179959  -179926 
 -179895  -179860  -179817  -179768  -179713  -179664  -179625  -179581 
 -179525  -179463  -179401  -179339  -179280  -179235  -179201  -179174 
 -179158  -179149  -179139  -179128  -179120  -179123  -179140  -179167 
 -179204  -179251  -179298  -179342  -179389  -179443  -179502  -179559 
 -179624  -179716  -179811  -179902  -180011  -180117  -180195  -180264 
 -180310  -180338  -180360  -180360  -180349  -180333  -180301  -180252 
 -180200  -180160  -180129  -180103  -180083  -180060  -180026  -179988 
 -179946  -179890  -179821  -179748  -179676  -179604  -179524  -179444 
 -179367  -179294  -179231  -179182  -179138  -179103  -179081  -179061 
 -179050  -179066  -179095  -179130  -179169  -179211  -179258  -179298 
 -179325  -179361  -179405  -179448  -179497  -179543  -179581  -179604 
 -179610  -179610  -179606  -179591  -179568  -179545  -179513  -179467 
 -179415  -179355  -179286  -179208  -179127  -179050  -178965  -178868 
 -178771  -178675  -178569  -178460  -178355  -178249  -178155  -178074 
 -178000  -177928  -177854  -177772  -177684  -177600  -177525  -177453 
 -177392  -177358  -177356  -177376  -177419  -177488  -177585  -177700 
 -177817  -177932  -178050  -178159  -178252  -178336  -178410  -178470 
 -178505  -178515  -178506  -178475  -178441  -178417  -178391  -178360 
 -178320  -178267  -178200  -178116  -178023  -177930  -177832  -177739 
 -177655  -177576  -177511  -177472  -177442  -177426  -177434  -177439 
 -177460  -177512  -177577  -177651  -177735  -177840  -177978  -178125 
 -178278  -178443  -178606  -178767  -178929  -179091  -179259  -179427 
 -179585  -179741  -179902  -180052  -180180  -180287  -180374  -180453 
 -180523  -180578  -180621  -180658  -180678  -180678  -180665  -180646 
 -180623  -180597  -180580  -180573  -180578  -180597  -180604  -180593 
 -180577  -180546  -180497  -180443  -180377  -180292  -180184  -180061 
 -179922  -179768  -179606  -179446  -179285  -179138  -179012  -178903 
 -178806  -178717  -178629  -178546  -178465  -178372  -178276  -178178 
 -178075  -177985  -177912  -177849  -177796  -177751  -177724  -177718 
 -177731  -177763  -177812  -177877  -177959  -178048  -178135  -178222 
 -178308  -178387  -178471  -178567  -178671  -178784  -178904  -179022 
 -179140  -179263  -179386  -179513  -179649  -179794  -179936  -180068 
 -180192  -180311  -180420  -180519  -180612  -180702  -180796  -180886 
 -180968  -181047  -181118  -181180  -181221  -181232  -181207  -181153 
 -181078  -180983  -180874  -180762  -180646  -180519  -180391  -180272 
 -180146  -180009  -179876  -179728  -179562  -179415  -179259  -179096 
 -178954  -178807  -178664  -178536  -178407  -178294  -178195  -178105 
 -178017  -177921  -177824  -177724  -177618  -177516  -177433  -177367 
 -177323  -177304  -177304  -177325  -177360  -177402  -177446  -177496 
 -177549  -177599  -177653  -177714  -177769  -177822  -177881  -177946 
 -178016  -178105  -178213  -178333  -178474  -178627  -178798  -178984 
 -179165  -179339  -179508  -179658  -179787  -179902  -180011  -180114 
 -180198  -180274  -180349  -180409  -180449  -180476  -180488  -180474 
 -180442  -180393  -180319  -180218  -180084  -179922  -179740  -179539 
 -179324  -179115  -178904  -178683  -178468  -178251  -178023  -177805 
 -177588  -177369  -177171  -176985  -176810  -176661  -176535  -176438 
 -176370  -176332  -176327  -176358  -176427  -176530  -176662  -176818 
 -176998  -177203  -177431  -177674  -177921  -178160  -178401  -178646 
 -178889  -179126  -179362  -179597  -179822  -180042  -180254  -180442 
 -180604  -180743  -180841  -180902  -180929  -180922  -180886  -180817 
 -180713  -180585  -180427  -180243  -180046  -179837  -179617  -179401 
 -179192  -178995  -178814  -178646  -178492  -178363  -178252  -178158 
 -178089  -178048  -178025  -178019  -178039  -178079  -178124  -178187 
 -178274  -178378  -178499  -178630  -178769  -178910  -179035  -179145 
 -179238  -179315  -179381  -179431  -179460  -179481  -179487  -179474 
 -179448  -179416  -179370  -179315  -179251  -179176  -179100  -179031 
 -178958  -178897  -178850  -178799  -178744  -178700  -178671  -178649 
 -178638  -178642  -178657  -178684  -178727  -178781  -178839  -178902 
 -178965  -179030  -179091  -179132  -179166  -179186  -179180  -179158 
 -179140  -179118  -179092  -179080  -179073  -179055  -179031  -179001 
 -178960  -178903  -178835  -178748  -178649  -178546  -178444  -178349 
 -178256  -178173  -178105  -178039  -177979  -177936  -177889  -177847 
 -177827  -177815  -177804  -177800  -177800  -177812  -177832  -177857 
 -177898  -177958  -178027  -178108  -178195  -178282  -178364  -178447 
 -178528  -178603  -178677  -178749  -178811  -178858  -178899  -178935 
 -178974  -179027  -179085  -179146  -179215  -179292  -179371  -179447 
 -179513  -179571  -179624  -179671  -179712  -179748  -179782  -179809 
 -179833  -179861  -179888  -179914  -179938  -179956  -179967  -179967 
 -179961  -179960  -179963  -179963  -179969  -179984  -180002  -180025 
 -180049  -180071  -180090  -180106  -180118  -180125  -180133  -180135 
 -180126  -180115  -180103  -180081  -180044  -179996  -179938  -179872 
 -179795  -179706  -179617  -179541  -179473  -179408  -179354  -179311 
 -179284  -179273  -179277  -179290  -179315  -179344  -179378  -179417 
 -179458  -179496  -179531  -179566  -179597  -179625  -179652  -179678 
 -179705  -179732  -179763  -179799  -179830  -179856  -179876  -179890 
 -179899  -179910  -179914  -179918  -179923  -179921  -179911  -179899 
 -179871  -179832  -179787  -179733  -179680  -179631  -179577  -179537 
 -179514  -179489  -179460  -179427  -179383  -179336  -179293  -179271 
 -179280  -179304  -179352  -179428  -179523  -179632  -179755  -179883 
 -180018  -180157  -180292  -180431  -180571  -180716  -180866  -181005 
 -181130  -181246  -181341  -181418  -181481  -181521  -181535  -181530 
 -181496  -181434  -181346  -181234  -181106  -180963  -180809  -180644 
 -180465  -180276  -180083  -179882  -179675  -179469  -179261  -179062 
 -178876  -178703  -178546  -178406  -178270  -178135  -178012  -177909 
 -177823  -177765  -177734  -177727  -177746  -177777  -177815  -177869 
 -177925  -177984  -178051  -178125  -178201  -178282  -178367  -178453 
 -178538  -178625  -178708  -178794  -178873  -178954  -179030  -179081 
 -179112  -179128  -179130  -179116  -179091  -179057  -179018  -178969 
 -178919  -178864  -178803  -178744  -178680  -178611  -178542  -178474 
 -178407  -178345  -178283  -178220  -178154  -178093  -178050  -178029 
 -178031  -178059  -178114  -178187  -178267  -178356  -178456  -178567 
 -178679  -178779  -178895  -179028  -179150  -179285  -179427  -179535 
 -179635  -179718  -179771  -179807  -179822  -179817  -179793  -179744 
 -179678  -179593  -179485  -179361  -179221  -179064  -178889  -178695 
 -178486  -178274  -178071  -177870  -177676  -177495  -177326  -177169 
 -177022  -176885  -176755  -176640  -176547  -176474  -176423  -176401 
 -176401  -176415  -176453  -176509  -176581  -176671  -176771  -176874 
 -176989  -177106  -177219  -177329  -177437  -177539  -177638  -177738 
 -177844  -177954  -178063  -178174  -178270  -178345  -178411  -178463 
 -178499  -178532  -178557  -178571  -178580  -178587  -178588  -178596 
 -178609  -178619  -178637  -178657  -178680  -178706  -178734  -178769 
 -178808  -178857  -178919  -178988  -179061  -179140  -179223  -179305 
 -179394  -179491  -179597  -179710  -179825  -179936  -180042  -180146 
 -180245  -180339  -180434  -180520  -180588  -180642  -180686  -180715 
 -180719  -180694  -180647  -180580  -180495  -180396  -180289  -180181 
 -180063  -179934  -179806  -179675  -179532  -179379  -179232  -179092 
 -178950  -178810  -178684  -178573  -178480  -178398  -178318  -178248 
 -178189  -178136  -178081  -178025  -177975  -177943  -177931  -177935 
 -177954  -177979  -178006  -178035  -178065  -178096  -178131  -178170 
 -178212  -178259  -178314  -178384  -178461  -178541  -178614  -178683 
 -178750  -178815  -178880  -178946  -179007  -179058  -179101  -179135 
 -179158  -179174  -179189  -179199  -179205  -179208  -179211  -179219 
 -179230  -179236  -179250  -179267  -179284  -179307  -179329  -179347 
 -179366  -179383  -179390  -179398  -179413  -179427  -179443  -179464 
 -179486  -179504  -179518  -179539  -179563  -179590  -179624  -179653 
 -179678  -179699  -179714  -179725  -179730  -179729  -179732  -179729 
 -179721  -179713  -179699  -179691  -179693  -179691  -179682  -179670 
 -179656  -179644  -179628  -179606  -179587  -179572  -179562  -179551 
 -179537  -179529  -179529  -179529  -179532  -179540  -179544  -179543 
 -179541  -179531  -179520  -179513  -179505  -179500  -179500  -179498 
 -179498  -179498  -179498  -179500  -179497  -179487  -179471  -179446 
 -179416  -179379  -179332  -179274  -179208  -179138  -179066  -178993 
 -178920  -178858  -178796  -178735  -178688  -178636  -178576  -178529 
 -178490  -178456  -178433  -178417  -178409  -178410  -178424  -178444 
 -178476  -178521  -178564  -178606  -178654  -178707  -178761  -178816 
 -178873  -178929  -178985  -179049  -179115  -179184  -179253  -179328 
 -179406  -179483  -179562  -179648  -179740  -179830  -179915  -179995 
