Origin Time       2025/01/13 21:19:00
Lat.              31.8
Long.             131.6
Depth. (km)       30
Mag.              6.9
Station Code      YMGH08
Station Lat.      34.1349
Station Long.     130.9323
Station Height(m) 45
Record Time       2025/01/13 21:20:20
Sampling Freq(Hz) 100Hz
Duration Time(s)  148
Dir.              4
Scale Factor      7845(gal)/8223790
Max. Acc. (gal)   1.551
Last Correction   2025/01/13 21:20:20
Memo.             
[...]
   -1609    -1629    -1665    -1723    -1796    -1865    -1925    -1960 
   -1962    -1941    -1899    -1848    -1796    -1755    -1726    -1709 
   -1678    -1630    -1579    -1520    -1471    -1467    -1503    -1572 
   -1675    -1806    -1938    -2041    -2108    -2143    -2135    -2084 
   -2018    -1948    -1881    -1842    -1829    -1826    -1833    -1844 
   -1838    -1825    -1817    -1804    -1804    -1831    -1871    -1938 
   -2033    -2133    -2234    -2331    -2408    -2462    -2481    -2459 
   -2407    -2320    -2215    -2104    -1981    -1864    -1773    -1688 
   -1611    -1570    -1557    -1564    -1606    -1683    -1783    -1911 
   -2049    -2164    -2262    -2350    -2393    -2401    -2396    -2362 
   -2301    -2228    -2146    -2064    -1985    -1903    -1821    -1744 
   -1671    -1605    -1560    -1536    -1524    -1533    -1567    -1615 
   -1671    -1730    -1787    -1829    -1848    -1834    -1787    -1710 
   -1609    -1489    -1364    -1251    -1173    -1139    -1144    -1189 
   -1279    -1393    -1506    -1613    -1705    -1771    -1817    -1848 
   -1863    -1863    -1861    -1867    -1885    -1922    -1979    -2054 
   -2135    -2230    -2331    -2421    -2506    -2582    -2628    -2647 
   -2639    -2594    -2516    -2412    -2289    -2164    -2053    -1958 
   -1895    -1872    -1869    -1891    -1942    -1999    -2062    -2146 
   -2241    -2335    -2436    -2528    -2596    -2644    -2667    -2647 
   -2592    -2508    -2404    -2278    -2153    -2052    -1973    -1910 
   -1868    -1842    -1826    -1826    -1829    -1821    -1819    -1829 
   -1833    -1846    -1885    -1922    -1954    -1988    -2006    -2011 
   -2022    -2025    -2025    -2026    -2022    -2003    -1962    -1908 
   -1844    -1768    -1702    -1660    -1644    -1665    -1713    -1750 
   -1790    -1856    -1915    -1958    -2011    -2066    -2116    -2169 
   -2218    -2261    -2289    -2293    -2269    -2223    -2164    -2091 
   -2007    -1926    -1848    -1765    -1692    -1641    -1601    -1566 
   -1544    -1532    -1536    -1564    -1614    -1676    -1745    -1809 
   -1857    -1888    -1890    -1867    -1822    -1752    -1679    -1626 
   -1587    -1571    -1591    -1637    -1682    -1703    -1722    -1742 
   -1755    -1780    -1837    -1919    -2023    -2139    -2261    -2374 
   -2462    -2520    -2547    -2550    -2529    -2493    -2463    -2452 
   -2455    -2469    -2488    -2493    -2475    -2438    -2374    -2286 
   -2192    -2099    -2025    -1973    -1934    -1895    -1842    -1795 
   -1757    -1691    -1618    -1567    -1512    -1462    -1448    -1462 
   -1494    -1547    -1622    -1701    -1760    -1803    -1833    -1840 
   -1827    -1806    -1779    -1760    -1752    -1753    -1772    -1802 
   -1841    -1879    -1911    -1926    -1904    -1864    -1822    -1763 
   -1692    -1628    -1564    -1506    -1470    -1462    -1486    -1547 
   -1638    -1748    -1872    -1999    -2101    -2177    -2236    -2282 
   -2322    -2350    -2382    -2435    -2489    -2535    -2583    -2616 
   -2623    -2612    -2573    -2519    -2446    -2342    -2223    -2101 
   -1979    -1883    -1822    -1776    -1755    -1773    -1807    -1838 
   -1865    -1875    -1864    -1840    -1806    -1765    -1725    -1696 
   -1690    -1699    -1730    -1779    -1838    -1898    -1941    -1975 
   -1995    -1988    -1964    -1926    -1877    -1829    -1795    -1787 
   -1807    -1846    -1903    -1972    -2033    -2083    -2127    -2150 
   -2158    -2162    -2139    -2101    -2065    -2008    -1929    -1837 
   -1748    -1664    -1588    -1549    -1549    -1575    -1642    -1734 
   -1822    -1900    -1953    -1965    -1953    -1918    -1860    -1798 
   -1729    -1656    -1584    -1506    -1429    -1364    -1312    -1279 
   -1282    -1318    -1371    -1451    -1560    -1683    -1810    -1930 
   -2034    -2134    -2220    -2277    -2328    -2380    -2412    -2436 
   -2458    -2471    -2471    -2454    -2432    -2412    -2378    -2334 
   -2284    -2231    -2185    -2147    -2112    -2101    -2114    -2134 
   -2166    -2208    -2254    -2299    -2339    -2378    -2411    -2423 
   -2417    -2407    -2390    -2357    -2312    -2273    -2231    -2180 
   -2119    -2052    -1977    -1911    -1857    -1809    -1772    -1750 
   -1746    -1768    -1809    -1861    -1939    -2038    -2134    -2216 
   -2274    -2301    -2292    -2246    -2172    -2089    -2016    -1950 
   -1888    -1841    -1815    -1806    -1810    -1817    -1825    -1841 
   -1852    -1834    -1798    -1755    -1709    -1668    -1634    -1606 
   -1586    -1587    -1602    -1598    -1594    -1614    -1625    -1624 
   -1636    -1640    -1630    -1632    -1632    -1622    -1617    -1609 
   -1599    -1599    -1602    -1613    -1624    -1622    -1626    -1647 
   -1672    -1701    -1733    -1775    -1827    -1879    -1930    -1983 
   -2033    -2072    -2097    -2119    -2124    -2093    -2039    -1960 
   -1867    -1787    -1707    -1642    -1610    -1582    -1561    -1561 
   -1563    -1575    -1613    -1667    -1734    -1829    -1944    -2072 
   -2205    -2331    -2452    -2556    -2625    -2667    -2683    -2660 
   -2621    -2589    -2558    -2525    -2504    -2493    -2486    -2482 
   -2490    -2511    -2527    -2543    -2566    -2590    -2620    -2675 
   -2754    -2845    -2949    -3069    -3177    -3249    -3298    -3322 
   -3311    -3275    -3222    -3160    -3099    -3030    -2951    -2874 
   -2787    -2678    -2558    -2436    -2311    -2185    -2084    -2010 
   -1954    -1915    -1881    -1838    -1782    -1710    -1633    -1561 
   -1493    -1432    -1394    -1371    -1358    -1367    -1391    -1421 
   -1452    -1463    -1459    -1459    -1449    -1416    -1386    -1377 
   -1358    -1327    -1300    -1266    -1224    -1190    -1166    -1148 
   -1156    -1189    -1233    -1301    -1386    -1480    -1587    -1684 
   -1764    -1826    -1858    -1865    -1856    -1836    -1822    -1818 
   -1823    -1849    -1881    -1910    -1944    -1969    -1957    -1929 
   -1896    -1838    -1756    -1679    -1605    -1534    -1489    -1462 
   -1440    -1428    -1425    -1431    -1431    -1433    -1452    -1464 
   -1478    -1514    -1551    -1590    -1633    -1641    -1637    -1645 
   -1634    -1615    -1617    -1611    -1598    -1603    -1620    -1645 
   -1684    -1718    -1763    -1825    -1891    -1960    -2029    -2100 
   -2168    -2222    -2253    -2265    -2286    -2312    -2315    -2322 
   -2335    -2343    -2357    -2378    -2412    -2458    -2496    -2528 
   -2558    -2569    -2566    -2560    -2544    -2509    -2474    -2444 
   -2407    -2380    -2358    -2317    -2273    -2222    -2151    -2080 
   -2015    -1944    -1872    -1821    -1784    -1745    -1726    -1728 
   -1730    -1741    -1755    -1755    -1765    -1787    -1807    -1852 
   -1935    -2034    -2138    -2242    -2346    -2444    -2527    -2573 
   -2577    -2563    -2532    -2459    -2358    -2251    -2118    -1968 
   -1826    -1713    -1628    -1567    -1549    -1587    -1656    -1741 
   -1841    -1945    -2039    -2120    -2174    -2209    -2247    -2281 
   -2300    -2323    -2349    -2355    -2342    -2311    -2257    -2180 
   -2083    -1961    -1831    -1714    -1611    -1512    -1404    -1321 
   -1282    -1267    -1290    -1355    -1429    -1518    -1648    -1791 
   -1915    -2042    -2168    -2270    -2339    -2367    -2380    -2373 
   -2331    -2280    -2209    -2119    -2041    -1968    -1896    -1841 
   -1795    -1749    -1706    -1656    -1601    -1564    -1551    -1525 
   -1507    -1520    -1540    -1575    -1628    -1678    -1714    -1737 
   -1738    -1707    -1659    -1620    -1572    -1502    -1451    -1413 
   -1343    -1273    -1227    -1170    -1105    -1061    -1038    -1032 
   -1048    -1089    -1154    -1246    -1360    -1486    -1617    -1748 
   -1865    -1961    -2039    -2088    -2107    -2119    -2124    -2119 
   -2107    -2089    -2070    -2058    -2049    -2054    -2084    -2133 
   -2201    -2300    -2419    -2546    -2671    -2789    -2891    -2965 
   -3001    -3010    -2998    -2953    -2893    -2828    -2751    -2666 
   -2579    -2489    -2394    -2317    -2261    -2216    -2195    -2205 
   -2232    -2273    -2332    -2389    -2430    -2439    -2407    -2334 
   -2235    -2122    -2010    -1918    -1858    -1845    -1873    -1922 
   -1977    -2043    -2104    -2147    -2162    -2147    -2108    -2050 
   -1989    -1929    -1861    -1787    -1722    -1684    -1657    -1621 
   -1595    -1578    -1560    -1564    -1598    -1661    -1763    -1894 
   -2025    -2147    -2274    -2382    -2465    -2536    -2593    -2635 
   -2674    -2705    -2714    -2717    -2716    -2704    -2685    -2666 
   -2643    -2606    -2551    -2484    -2400    -2299    -2191    -2080 
   -1979    -1899    -1842    -1811    -1799    -1809    -1841    -1865 
   -1867    -1860    -1838    -1800    -1760    -1730    -1726    -1750 
   -1800    -1865    -1941    -2029    -2115    -2185    -2238    -2253 
   -2235    -2200    -2141    -2068    -1991    -1904    -1818    -1748 
   -1699    -1669    -1656    -1645    -1645    -1668    -1695    -1719 
   -1749    -1792    -1838    -1879    -1930    -1993    -2050    -2108 
   -2172    -2227    -2281    -2330    -2349    -2334    -2292    -2214 
   -2097    -1964    -1825    -1678    -1545    -1448    -1378    -1340 
   -1336    -1347    -1364    -1395    -1424    -1435    -1448    -1464 
   -1472    -1483    -1495    -1510    -1529    -1551    -1575    -1603 
   -1624    -1633    -1642    -1638    -1614    -1584    -1552    -1528 
   -1514    -1510    -1532    -1578    -1629    -1678    -1730    -1794 
   -1845    -1868    -1883    -1895    -1881    -1845    -1796    -1730 
   -1661    -1610    -1564    -1534    -1530    -1532    -1543    -1580 
   -1625    -1663    -1698    -1730    -1746    -1752    -1763    -1783 
   -1811    -1865    -1944    -2041    -2169    -2317    -2466    -2605 
   -2716    -2790    -2822    -2809    -2766    -2705    -2609    -2488 
   -2373    -2258    -2145    -2056    -1985    -1935    -1907    -1879 
   -1852    -1845    -1852    -1856    -1865    -1890    -1927    -1984 
   -2054    -2131    -2220    -2316    -2409    -2494    -2560    -2617 
   -2652    -2658    -2658    -2652    -2631    -2610    -2601    -2598 
   -2602    -2617    -2632    -2637    -2635    -2619    -2579    -2517 
   -2443    -2371    -2307    -2255    -2219    -2197    -2188    -2191 
   -2203    -2211    -2214    -2216    -2216    -2197    -2154    -2100 
   -2042    -1969    -1883    -1794    -1710    -1630    -1566    -1526 
   -1505    -1506    -1534    -1564    -1576    -1570    -1539    -1482 
   -1418    -1356    -1293    -1237    -1212    -1216    -1240    -1289 
   -1345    -1404    -1458    -1499    -1524    -1529    -1533    -1541 
   -1518    -1489    -1487    -1485    -1472    -1487    -1522    -1570 
   -1630    -1706    -1790    -1869    -1956    -2031    -2080    -2128 
   -2169    -2178    -2181    -2180    -2161    -2134    -2112    -2100 
   -2084    -2050    -2011    -1969    -1921    -1890    -1888    -1918 
   -1991    -2104    -2227    -2324    -2405    -2515    -2596    -2597 
   -2592    -2578    -2511    -2423    -2328    -2219    -2119    -2034 
   -1953    -1884    -1826    -1771    -1722    -1680    -1640    -1610 
   -1597    -1597    -1617    -1665    -1742    -1838    -1950    -2066 
   -2172    -2255    -2304    -2324    -2315    -2273    -2214    -2141 
   -2062    -1991    -1918    -1849    -1788    -1718    -1641    -1564 
   -1494    -1435    -1378    -1345    -1348    -1371    -1412    -1464 
   -1521    -1593    -1678    -1773    -1887    -2004    -2122    -2241 
   -2347    -2438    -2513    -2577    -2631    -2673    -2704    -2728 
   -2741    -2741    -2722    -2685    -2632    -2555    -2458    -2354 
   -2239    -2116    -1993    -1877    -1771    -1675    -1605    -1563 
   -1534    -1529    -1553    -1593    -1651    -1728    -1807    -1894 
   -1998    -2085    -2146    -2191    -2199    -2155    -2089    -2000 
   -1887    -1764    -1653    -1580    -1536    -1514    -1532    -1566 
   -1595    -1628    -1652    -1648    -1626    -1591    -1543    -1497 
   -1460    -1439    -1448    -1482    -1528    -1597    -1676    -1750 
   -1819    -1867    -1892    -1912    -1919    -1910    -1902    -1910 
   -1942    -1996    -2069    -2153    -2241    -2320    -2382    -2431 
   -2463    -2469    -2448    -2403    -2343    -2278    -2204    -2128 
   -2069    -2030    -2016    -2026    -2060    -2107    -2168    -2238 
   -2288    -2300    -2293    -2258    -2188    -2088    -1966    -1837 
   -1714    -1605    -1512    -1441    -1395    -1366    -1345    -1335 
   -1340    -1363    -1401    -1453    -1526    -1601    -1671    -1749 
   -1823    -1873    -1915    -1961    -1992    -2008    -2026    -2039 
   -2043    -2053    -2065    -2076    -2092    -2112    -2127    -2149 
   -2170    -2177    -2170    -2149    -2122    -2092    -2064    -2043 
   -2029    -2022    -2025    -2019    -2002    -1969    -1923    -1860 
   -1790    -1725    -1668    -1626    -1607    -1607    -1638    -1687 
   -1741    -1826    -1931    -2029    -2127    -2238    -2338    -2420 
   -2498    -2567    -2621    -2662    -2686    -2691    -2664    -2612 
   -2550    -2469    -2377    -2296    -2219    -2139    -2074    -2016 
   -1954    -1896    -1841    -1795    -1767    -1748    -1753    -1798 
   -1876    -1984    -2137    -2317    -2506    -2698    -2886    -3059 
   -3198    -3303    -3387    -3447    -3501    -3549    -3577    -3593 
   -3591    -3564    -3518    -3445    -3345    -3235    -3122    -3006 
   -2893    -2797    -2721    -2658    -2610    -2574    -2542    -2504 
   -2438    -2346    -2234    -2099    -1942    -1783    -1636    -1509 
   -1401    -1310    -1247    -1213    -1193    -1192    -1209    -1233 
   -1251    -1255    -1235    -1179    -1094    -1003     -913     -828 
    -751     -689     -658     -661     -683     -741     -849     -980 
   -1134    -1308    -1487    -1671    -1856    -2034    -2193    -2340 
   -2475    -2594    -2690    -2759    -2802    -2832    -2853    -2863 
   -2862    -2852    -2821    -2772    -2720    -2659    -2589    -2519 
   -2446    -2361    -2273    -2199    -2139    -2085    -2034    -1993 
   -1956    -1896    -1818    -1733    -1642    -1541    -1435    -1340 
   -1264    -1204    -1167    -1171    -1212    -1275    -1355    -1449 
   -1544    -1613    -1645    -1660    -1657    -1632    -1597    -1551 
   -1494    -1437    -1382    -1331    -1291    -1262    -1236    -1227 
   -1235    -1242    -1259    -1289    -1314    -1345    -1385    -1425 
   -1468    -1516    -1583    -1660    -1744    -1845    -1960    -2081 
   -2203    -2313    -2413    -2494    -2547    -2575    -2575    -2556 
   -2535    -2502    -2463    -2438    -2421    -2412    -2413    -2419 
   -2419    -2411    -2392    -2358    -2312    -2254    -2188    -2135 
   -2103    -2076    -2058    -2054    -2056    -2052    -2041    -2012 
   -1972    -1922    -1852    -1771    -1701    -1637    -1582    -1549 
   -1534    -1526    -1533    -1545    -1548    -1553    -1553    -1533 
   -1517    -1497    -1468    -1440    -1409    -1382    -1366    -1340 
   -1314    -1301    -1289    -1281    -1289    -1304    -1321    -1343 
   -1362    -1386    -1414    -1452    -1524    -1628    -1760    -1918 
   -2097    -2296    -2496    -2681    -2848    -2998    -3113    -3180 
   -3207    -3195    -3137    -3053    -2959    -2853    -2755    -2678 
   -2614    -2573    -2550    -2539    -2543    -2563    -2581    -2604 
   -2632    -2654    -2681    -2717    -2749    -2783    -2810    -2812 
   -2781    -2720    -2631    -2511    -2373    -2236    -2112    -2012 
   -1950    -1921    -1918    -1939    -1971    -2002    -2037    -2070 
   -2083    -2084    -2085    -2076    -2058    -2049    -2039    -2023 
   -2004    -1989    -1980    -1965    -1948    -1939    -1935    -1938 
   -1938    -1927    -1915    -1906    -1888    -1873    -1865    -1849 
   -1840    -1858    -1894    -1934    -1988    -2049    -2111    -2166 
   -2205    -2234    -2245    -2231    -2204    -2168    -2119    -2057 
   -1981    -1903    -1833    -1768    -1713    -1671    -1640    -1611 
   -1587    -1571    -1559    -1549    -1539    -1518    -1487    -1441 
   -1378    -1300    -1217    -1134    -1058     -993     -953     -931 
    -920     -926     -945     -958     -973     -990    -1001    -1003 
   -1008    -1036    -1094    -1170    -1267    -1389    -1512    -1630 
   -1740    -1826    -1890    -1927    -1938    -1926    -1906    -1884 
   -1867    -1868    -1895    -1939    -1998    -2079    -2170    -2265 
   -2362    -2463    -2562    -2651    -2735    -2820    -2894    -2951 
   -2992    -3024    -3038    -3026    -2991    -2945    -2878    -2791 
   -2704    -2614    -2531    -2459    -2401    -2369    -2353    -2343 
   -2347    -2358    -2358    -2350    -2343    -2334    -2309    -2274 
   -2242    -2208    -2161    -2107    -2054    -1995    -1922    -1850 
   -1782    -1705    -1630    -1559    -1487    -1433    -1399    -1382 
   -1382    -1401    -1437    -1490    -1567    -1661    -1775    -1907 
   -2038    -2166    -2300    -2421    -2527    -2620    -2697    -2760 
   -2805    -2822    -2822    -2802    -2758    -2704    -2651    -2601 
   -2559    -2528    -2504    -2482    -2459    -2432    -2400    -2361 
   -2319    -2278    -2239    -2199    -2158    -2120    -2084    -2046 
   -2003    -1958    -1906    -1845    -1783    -1718    -1655    -1588 
   -1516    -1443    -1359    -1267    -1190    -1120    -1054    -1008 
    -977     -961     -978    -1021    -1054    -1082    -1139    -1209 
   -1275    -1359    -1468    -1597    -1744    -1883    -2012    -2145 
   -2258    -2351    -2430    -2484    -2515    -2542    -2581    -2613 
   -2650    -2705    -2752    -2795    -2845    -2868    -2866    -2849 
   -2813    -2749    -2663    -2570    -2479    -2396    -2316    -2247 
   -2203    -2178    -2157    -2150    -2150    -2151    -2168    -2181 
   -2176    -2168    -2142    -2088    -2016    -1926    -1818    -1706 
   -1587    -1471    -1387    -1327    -1274    -1250    -1252    -1256 
   -1267    -1291    -1317    -1339    -1368    -1408    -1453    -1503 
   -1559    -1614    -1663    -1684    -1691    -1692    -1676    -1649 
   -1614    -1559    -1503    -1452    -1395    -1352    -1320    -1297 
   -1301    -1328    -1379    -1447    -1529    -1630    -1733    -1834 
   -1935    -2010    -2058    -2106    -2146    -2170    -2200    -2243 
   -2269    -2266    -2268    -2272    -2258    -2215    -2147    -2072 
   -1977    -1865    -1771    -1696    -1641    -1615    -1617    -1640 
   -1679    -1718    -1760    -1796    -1819    -1827    -1827    -1821 
   -1809    -1787    -1761    -1730    -1695    -1656    -1615    -1572 
   -1526    -1480    -1449    -1429    -1410    -1404    -1412    -1413 
   -1414    -1439    -1464    -1483    -1522    -1572    -1624    -1687 
   -1756    -1823    -1892    -1962    -2026    -2089    -2164    -2257 
   -2370    -2492    -2612    -2732    -2847    -2941    -3011    -3059 
   -3080    -3082    -3073    -3049    -3007    -2960    -2911    -2857 
   -2802    -2752    -2698    -2650    -2627    -2612    -2598    -2600 
   -2614    -2627    -2636    -2639    -2632    -2614    -2579    -2528 
