Origin Time       2025/01/13 21:19:00
Lat.              31.8
Long.             131.6
Depth. (km)       30
Mag.              6.9
Station Code      YMGH16
Station Lat.      33.8260
Station Long.     132.1040
Station Height(m) 65
Record Time       2025/01/13 21:20:12
Sampling Freq(Hz) 100Hz
Duration Time(s)  145
Dir.              6
Scale Factor      3920(gal)/6170801
Max. Acc. (gal)   2.570
Last Correction   2025/01/13 21:19:57
Memo.             
[...]
    3470     3435     3429     3383     3305     3249     3216     3202 
    3206     3195     3161     3161     3234     3324     3321     3191 
    3024     2967     3043     3129     3149     3141     3165     3230 
    3291     3368     3514     3713     3943     4202     4450     4632 
    4693     4616     4470     4334     4230     4172     4192     4294 
    4466     4630     4672     4603     4488     4324     4095     3830 
    3599     3456     3364     3270     3223     3266     3338     3375 
    3369     3278     3057     2816     2760     2925     3140     3274 
    3369     3496     3596     3564     3463     3464     3583     3694 
    3743     3774     3817     3856     3832     3684     3448     3268 
    3222     3201     3081     2926     2885     3000     3223     3487 
    3722     3879     3958     4002     4014     3961     3876     3825 
    3803     3778     3780     3852     3937     3905     3739     3582 
    3527     3525     3519     3489     3419     3330     3230     3113 
    3029     3025     3054     3087     3134     3150     3107     3067 
    3050     3038     3081     3205     3376     3577     3801     4044 
    4277     4401     4378     4307     4261     4206     4139     4093 
    4038     3957     3847     3676     3522     3519     3638     3793 
    4001     4275     4538     4747     4872     4813     4589     4368 
    4218     4095     3990     3944     3982     4061     4096     4066 
    4004     3866     3632     3458     3435     3456     3483     3584 
    3751     3913     4002     3974     3844     3695     3599     3576 
    3621     3708     3840     3999     4103     4126     4105     4009 
    3807     3550     3309     3134     3035     2971     2910     2876 
    2870     2837     2764     2728     2797     2943     3072     3130 
    3186     3361     3616     3804     3951     4149     4340     4460 
    4505     4441     4298     4170     4071     4011     4068     4216 
    4345     4411     4401     4334     4264     4119     3832     3571 
    3463     3390     3277     3189     3148     3163     3264     3413 
    3561     3708     3838     3911     3957     4039     4123     4105 
    3986     3867     3783     3684     3517     3290     3065     2891 
    2775     2697     2671     2752     2912     3037     3087     3126 
    3191     3277     3355     3436     3591     3777     3874     3904 
    3925     3900     3845     3850     3914     3964     3981     3981 
    3916     3771     3621     3486     3308     3130     3056     3096 
    3197     3317     3453     3631     3819     3951     4001     3950 
    3816     3706     3666     3628     3615     3701     3829     3908 
    3952     4014     4130     4294     4439     4521     4570     4599 
    4566     4434     4246     4091     4025     4048     4122     4190 
    4208     4198     4205     4216     4171     4005     3711     3403 
    3197     3064     2930     2793     2686     2626     2602     2599 
    2640     2750     2858     2892     2932     3058     3169     3153 
    3061     3008     3049     3172     3309     3401     3442     3462 
    3465     3454     3481     3580     3700     3788     3855     3935 
    3977     3887     3706     3586     3567     3578     3616     3739 
    3928     4099     4170     4084     3892     3728     3634     3538 
    3413     3319     3301     3362     3463     3530     3502     3379 
    3253     3238     3319     3384     3393     3398     3444     3496 
    3515     3501     3438     3349     3331     3432     3594     3750 
    3884     4011     4096     4103     4084     4113     4152     4140 
    4161     4301     4462     4528     4491     4387     4311     4342 
    4437     4522     4578     4635     4737     4846     4846     4701 
    4453     4166     3882     3612     3392     3265     3206     3175 
    3198     3311     3421     3409     3380     3515     3760     3951 
    4064     4147     4206     4274     4376     4425     4359     4262 
    4173     4052     3939     3872     3809     3743     3694     3648 
    3630     3645     3622     3528     3412     3338     3326     3316 
    3279     3298     3404     3507     3530     3458     3342     3260 
    3225     3189     3112     3021     3032     3181     3302     3272 
    3159     3039     2938     2886     2846     2781     2757     2864 
    3099     3379     3598     3719     3812     3905     3959     3982 
    4022     4096     4188     4287     4401     4481     4439     4309 
    4202     4125     4089     4190     4391     4541     4605     4647 
    4717     4824     4926     4979     4927     4737     4466     4167 
    3834     3512     3308     3295     3410     3468     3351     3141 
    2991     2931     2876     2824     2915     3176     3480     3777 
    4054     4200     4164     4081     4069     4093     4103     4106 
    4091     4044     3984     3904     3774     3589     3383     3244 
    3240     3324     3351     3264     3141     3057     3044     3112 
    3196     3274     3435     3687     3889     3932     3846     3697 
    3525     3382     3332     3383     3462     3505     3543     3622 
    3704     3708     3615     3494     3402     3318     3276     3399 
    3744     4189     4531     4675     4712     4727     4685     4601 
    4541     4513     4511     4531     4546     4545     4557     4593 
    4613     4601     4562     4492     4438     4390     4229     3956 
    3712     3529     3306     3050     2912     2941     3041     3189 
    3359     3396     3215     2935     2696     2538     2489     2552 
    2648     2732     2815     2911     3043     3195     3329     3491 
    3752     4059     4285     4333     4218     4056     3916     3801 
    3752     3776     3804     3842     3907     3917     3861     3838 
    3877     3912     3910     3900     3892     3813     3579     3253 
    3018     2947     2951     2970     3032     3143     3264     3356 
    3358     3280     3252     3316     3384     3420     3425     3422 
    3503     3690     3913     4126     4274     4290     4198     4049 
    3886     3801     3833     3914     3990     4067     4146     4198 
    4160     3979     3748     3654     3739     3892     4055     4220 
    4313     4290     4231     4172     4080     3994     3964     3960 
    3960     3954     3867     3708     3595     3519     3417     3371 
    3445     3552     3544     3353     3095     2886     2697     2540 
    2474     2474     2536     2702     2925     3121     3267     3340 
    3324     3295     3338     3415     3470     3489     3494     3562 
    3692     3802     3854     3837     3749     3672     3688     3772 
    3858     3930     3940     3835     3687     3573     3470     3352 
    3243     3163     3094     3012     2950     2970     3076     3215 
    3345     3435     3515     3646     3796     3886     3940     4031 
    4147     4241     4292     4296     4280     4274     4240     4132 
    3989     3859     3736     3622     3507     3367     3244     3193 
    3183     3218     3330     3483     3650     3831     3939     3915 
    3863     3837     3737     3536     3356     3260     3214     3216 
    3286     3373     3399     3377     3347     3279     3170     3112 
    3154     3279     3506     3841     4207     4540     4832     5029 
    5082     5063     5066     5059     4961     4827     4778     4794 
    4794     4797     4822     4806     4716     4595     4466     4298 
    4112     3994     3994     4115     4313     4475     4519     4512 
    4524     4518     4477     4450     4471     4541     4637     4686 
    4627     4478     4291     4123     4001     3905     3807     3725 
    3706     3749     3808     3857     3894     3938     3994     4025 
    4016     3974     3872     3684     3436     3210     3054     2953 
    2925     2978     3040     3068     3110     3185     3244     3228 
    3133     3028     2942     2797     2590     2440     2382     2347 
    2329     2359     2428     2544     2681     2748     2745     2762 
    2772     2697     2576     2455     2292     2076     1902     1819 
    1798     1866     2023     2137     2161     2189     2244     2298 
    2400     2589     2817     3040     3236     3348     3378     3406 
    3438     3405     3302     3210     3180     3145     3056     3008 
    3086     3255     3482     3764     4047     4264     4439     4625 
    4838     5103     5401     5621     5734     5804     5806     5667 
    5404     5106     4874     4766     4825     5081     5437     5737 
    5926     6017     6041     6007     5859     5605     5342     5109 
    4909     4756     4636     4553     4544     4566     4507     4357 
    4246     4256     4303     4293     4304     4428     4619     4773 
    4816     4735     4569     4350     4094     3829     3598     3465 
    3501     3676     3836     3886     3872     3819     3701     3524 
    3311     3109     3012     3028     3049     3069     3179     3337 
    3442     3518     3604     3681     3749     3833     3914     3936 
    3873     3790     3763     3799     3892     4044     4218     4385 
    4566     4733     4772     4679     4603     4613     4657     4706 
    4753     4787     4816     4827     4791     4731     4724     4795 
    4875     4911     4960     5082     5219     5257     5177     4984 
    4637     4184     3809     3595     3460     3346     3288     3347 
    3525     3701     3762     3734     3674     3599     3508     3335 
    3033     2715     2509     2398     2323     2299     2371     2499 
    2571     2540     2446     2337     2272     2283     2313     2319 
    2345     2414     2440     2343     2180     2048     1945     1863 
    1838     1868     1953     2109     2288     2426     2519     2579 
    2616     2652     2674     2654     2642     2684     2717     2715 
    2762     2870     2990     3147     3361     3561     3677     3682 
    3550     3298     3029     2821     2680     2626     2689     2825 
    2972     3135     3338     3561     3735     3849     3977     4128 
    4241     4342     4467     4551     4571     4570     4568     4586 
    4629     4648     4650     4713     4887     5104     5239     5273 
    5277     5278     5233     5072     4772     4420     4106     3806 
    3503     3253     3084     2976     2930     2879     2727     2569 
    2549     2592     2586     2565     2586     2661     2783     2899 
    2970     3019     3042     3030     3075     3209     3329     3398 
    3474     3561     3569     3467     3349     3261     3163     3086 
    3096     3197     3371     3551     3632     3599     3566     3603 
    3638     3596     3489     3374     3277     3130     2891     2653 
    2463     2298     2227     2330     2544     2762     2934     3028 
    3050     3121     3298     3420     3392     3325     3288     3222 
    3065     2815     2550     2390     2364     2406     2415     2334 
    2229     2179     2145     2065     1977     1953     1983     2013 
    2039     2092     2203     2392     2615     2792     2915     3013 
    3106     3261     3498     3670     3699     3692     3702     3697 
    3708     3773     3885     4042     4237     4394     4463     4499 
    4550     4573     4605     4749     4948     5108     5276     5413 
    5410     5356     5367     5363     5248     5099     5000     4900 
    4790     4746     4775     4844     4948     5043     5053     4946 
    4770     4592     4452     4390     4475     4697     4928     5037 
    5033     5025     5078     5181     5312     5433     5480     5422 
    5262     5032     4847     4808     4881     4998     5120     5135 
    4938     4629     4394     4278     4222     4181     4181     4254 
    4327     4350     4400     4487     4542     4570     4580     4532 
    4452     4406     4376     4287     4104     3889     3765     3749 
    3706     3570     3413     3270     3150     3111     3129     3125 
    3135     3206     3280     3326     3381     3452     3500     3540 
    3603     3622     3559     3485     3416     3287     3131     3016 
    2896     2720     2563     2505     2497     2450     2377     2350 
    2356     2344     2354     2457     2634     2819     2971     3103 
    3254     3455     3675     3848     3958     4015     3994     3902 
    3795     3712     3648     3613     3617     3643     3699     3830 
    4030     4238     4406     4510     4532     4485     4428     4409 
    4429     4463     4464     4396     4312     4278     4302     4333 
    4329     4341     4414     4500     4580     4658     4664     4575 
    4502     4501     4483     4384     4226     4027     3809     3624 
    3500     3419     3341     3281     3325     3440     3460     3402 
    3427     3538     3611     3559     3408     3273     3206     3156 
    3097     3032     2948     2828     2659     2431     2210     2082 
    2053     2079     2172     2394     2733     3061     3301     3489 
    3672     3876     4132     4421     4680     4887     5045     5138 
    5174     5186     5166     5063     4863     4670     4635     4790 
    5015     5177     5258     5316     5361     5369     5377     5456 
    5591     5704     5742     5659     5440     5183     5008     4953 
    4938     4828     4602     4344     4075     3748     3382     3068 
    2872     2738     2525     2170     1752     1358     1026      790 
     658      632      745      965     1161     1195      991      586 
     130     -215     -349     -262      -17      331      717     1022 
    1168     1215     1290     1447     1677     1963     2271     2576 
    2864     3104     3274     3385     3424     3389     3294     3158 
    3061     3129     3372     3634     3784     3856     3944     4042 
    4090     4089     4108     4183     4275     4334     4335     4297 
    4285     4337     4430     4512     4540     4522     4526     4585 
    4628     4579     4479     4395     4321     4212     4063     3921 
    3820     3786     3854     4005     4141     4184     4138     4073 
    4010     3943     3948     4044     4093     3987     3765     3551 
    3490     3629     3861     4106     4398     4692     4829     4777 
    4637     4492     4403     4387     4411     4465     4571     4775 
    5087     5430     5763     6107     6395     6556     6681     6840 
    6939     6883     6704     6457     6215     6083     6118     6280 
    6453     6533     6525     6485     6447     6402     6316     6205 
    6085     5888     5614     5330     5022     4700     4440     4238 
    4043     3832     3600     3398     3251     3079     2872     2719 
    2617     2517     2428     2338     2193     2010     1873     1808 
    1791     1817     1874     1953     2074     2232     2374     2443 
    2403     2262     2093     1990     1991     2064     2166     2313 
    2520     2716     2844     2953     3105     3292     3470     3615 
    3744     3878     3976     3946     3746     3451     3199     3069 
    3020     2975     2940     2937     2924     2900     2943     3051 
    3102     3061     3054     3154     3292     3409     3514     3608 
    3646     3600     3492     3322     3037     2654     2303     2042 
    1835     1712     1716     1796     1924     2142     2428     2676 
    2840     2959     3094     3294     3507     3619     3631     3611 
    3575     3541     3558     3625     3714     3827     3958     4073 
    4180     4299     4382     4365     4289     4274     4349     4403 
    4357     4253     4160     4115     4111     4063     3913     3752 
    3655     3543     3364     3218     3169     3180     3215     3241 
    3251     3317     3457     3579     3640     3713     3882     4138 
    4366     4444     4396     4329     4293     4296     4351     4501 
    4717     4861     4878     4875     4900     4866     4732     4589 
    4525     4554     4651     4760     4872     5047     5300     5557 
    5733     5822     5930     6103     6210     6126     5901     5661 
    5473     5341     5252     5163     5027     4834     4609     4393 
    4214     4072     3977     3954     4019     4142     4237     4257 
    4229     4172     4102     4059     4034     3960     3791     3551 
    3302     3080     2902     2764     2639     2562     2610     2759 
    2853     2782     2618     2497     2392     2225     2077     2054 
    2092     2080     1989     1817     1577     1325     1100      911 
     778      724      766      879     1009     1142     1295     1462 
    1617     1750     1853     1903     1944     2004     2011     1946 
    1898     1925     1999     2097     2237     2377     2475     2615 
    2893     3222     3467     3681     3984     4332     4644     4932 
    5191     5363     5476     5602     5723     5796     5855     5951 
    6071     6127     6046     5884     5757     5697     5682     5686 
    5679     5705     5815     5908     5877     5800     5778     5794 
    5784     5747     5732     5768     5824     5838     5796     5734 
    5685     5689     5761     5828     5788     5651     5473     5253 
    5020     4828     4688     4608     4547     4409     4209     4050 
    3929     3772     3601     3471     3346     3162     2905     2625 
    2379     2152     1917     1687     1492     1362     1268     1126 
     934      784      711      665      630      628      659      700 
     719      727      769      841      918     1009     1108     1211 
    1314     1371     1379     1418     1531     1680     1836     2029 
    2307     2630     2876     3014     3152     3370     3630     3853 
    4009     4121     4226     4321     4369     4348     4277     4215 
    4206     4215     4223     4286     4435     4626     4824     5072 
    5396     5693     5851     5859     5740     5526     5260     4974 
    4719     4516     4319     4169     4190     4356     4492     4528 
    4544     4589     4635     4656     4642     4577     4470     4391 
    4390     4399     4346     4264     4203     4161     4152     4218 
    4332     4413     4436     4406     4317     4199     4113     4075 
    4034     3981     3964     3972     3938     3820     3659     3539 
    3473     3437     3467     3558     3627     3663     3723     3807 
    3879     3926     3975     4044     4093     4121     4189     4294 
    4349     4336     4314     4291     4207     4061     3933     3872 
    3870     3880     3866     3847     3890     4017     4167     4273 
    4309     4302     4319     4320     4206     4042     3949     3923 
    3916     3893     3819     3691     3532     3375     3250     3173 
    3143     3146     3168     3210     3273     3369     3478     3502 
    3388     3228     3142     3146     3127     2986     2783     2612 
    2455     2294     2172     2107     2073     2055     2016     1928 
    1873     1882     1886     1927     2107     2386     2659     2898 
    3111     3289     3420     3482     3430     3265     3058     2878 
    2761     2706     2672     2666     2763     2950     3143     3344 
    3558     3743     3923     4146     4373     4542     4675     4789 
    4803     4708     4608     4572     4600     4644     4634     4563 
    4482     4422     4401     4429     4475     4518     4612     4789 
    4988     5148     5224     5195     5124     5083     5030     4916 
