Origin Time       2025/01/13 21:19:00
Lat.              31.8
Long.             131.6
Depth. (km)       30
Mag.              6.9
Station Code      YMGH15
Station Lat.      33.9725
Station Long.     131.8149
Station Height(m) 100
Record Time       2025/01/13 21:20:12
Sampling Freq(Hz) 100Hz
Duration Time(s)  136
Dir.              4
Scale Factor      3920(gal)/6170801
Max. Acc. (gal)   1.984
Last Correction   2025/01/13 21:19:57
Memo.             
[...]
  -28028   -27768   -27594   -27563   -27687   -27905   -28082   -28160 
  -28203   -28296   -28479   -28706   -28866   -28876   -28750   -28582 
  -28488   -28529   -28648   -28722   -28690   -28549   -28346   -28166 
  -28051   -27987   -27972   -28046   -28258   -28557   -28773   -28824 
  -28800   -28768   -28694   -28534   -28320   -28134   -27991   -27832 
  -27630   -27407   -27243   -27261   -27477   -27802   -28191   -28575 
  -28816   -28834   -28694   -28547   -28491   -28498   -28452   -28253 
  -27904   -27519   -27254   -27207   -27360   -27596   -27798   -27979 
  -28230   -28500   -28646   -28608   -28416   -28201   -28113   -28149 
  -28180   -28109   -27921   -27682   -27492   -27467   -27659   -27981 
  -28332   -28673   -28956   -29154   -29267   -29266   -29173   -29064 
  -28988   -28974   -28988   -28914   -28681   -28339   -27993   -27787 
  -27840   -28135   -28542   -28943   -29270   -29523   -29738   -29911 
  -29983   -29869   -29558   -29181   -28890   -28710   -28555   -28342 
  -28072   -27831   -27764   -27971   -28353   -28722   -28975   -29066 
  -28982   -28752   -28388   -27953   -27592   -27382   -27285   -27257 
  -27248   -27227   -27257   -27395   -27633   -27966   -28350   -28679 
  -28855   -28803   -28551   -28256   -28051   -27951   -27913   -27873 
  -27833   -27862   -27984   -28203   -28535   -28932   -29263   -29440 
  -29472   -29407   -29256   -29024   -28760   -28526   -28379   -28350 
  -28403   -28484   -28582   -28675   -28717   -28681   -28575   -28419 
  -28204   -27908   -27600   -27380   -27259   -27167   -27016   -26846 
  -26805   -26950   -27246   -27629   -27980   -28226   -28374   -28417 
  -28358   -28229   -28033   -27789   -27592   -27522   -27573   -27717 
  -27933   -28168   -28319   -28293   -28108   -27877   -27700   -27607 
  -27590   -27651   -27781   -27945   -28087   -28092   -27902   -27653 
  -27521   -27525   -27574   -27624   -27714   -27856   -28035   -28275 
  -28528   -28663   -28648   -28536   -28358   -28163   -28002   -27873 
  -27768   -27710   -27732   -27815   -27902   -28003   -28183   -28426 
  -28664   -28880   -29064   -29137   -29018   -28715   -28345   -28066 
  -27989   -28119   -28427   -28904   -29512   -30103   -30458   -30440 
  -30137   -29791   -29556   -29384   -29149   -28810   -28427   -28090 
  -27920   -27991   -28219   -28514   -28874   -29224   -29446   -29522 
  -29445   -29183   -28764   -28253   -27711   -27236   -26941   -26872 
  -26984   -27234   -27602   -28013   -28345   -28497   -28456   -28334 
  -28296   -28381   -28511   -28611   -28646   -28588   -28419   -28170 
  -27920   -27736   -27660   -27671   -27697   -27741   -27857   -27998 
  -28035   -27908   -27711   -27617   -27734   -28044   -28416   -28706 
  -28881   -28974   -28952   -28779   -28475   -28113   -27839   -27777 
  -27914   -28128   -28279   -28302   -28201   -28014   -27803   -27649 
  -27609   -27689   -27837   -28002   -28169   -28356   -28576   -28823 
  -29096   -29367   -29546   -29545   -29356   -29058   -28774   -28654 
  -28807   -29155   -29462   -29561   -29463   -29259   -29022   -28780 
  -28506   -28128   -27676   -27310   -27138   -27135   -27241   -27400 
  -27605   -27910   -28332   -28819   -29260   -29503   -29452   -29096 
  -28536   -27984   -27638   -27552   -27656   -27847   -28045   -28218 
  -28367   -28472   -28500   -28449   -28344   -28245   -28218   -28228 
  -28172   -28054   -28005   -28143   -28465   -28822   -29022   -28974 
  -28724   -28431   -28255   -28239   -28332   -28431   -28431   -28327 
  -28237   -28235   -28252   -28170   -27959   -27711   -27580   -27649 
  -27799   -27858   -27823   -27793   -27849   -28068   -28448   -28838 
  -29090   -29171   -29091   -28876   -28584   -28248   -27912   -27659 
  -27575   -27681   -27895   -28088   -28170   -28115   -27963   -27810 
  -27731   -27688   -27610   -27516   -27458   -27462   -27573   -27804 
  -28106   -28470   -28852   -29100   -29144   -29045   -28846   -28583 
  -28339   -28201   -28224   -28414   -28680   -28859   -28852   -28696 
  -28528   -28496   -28659   -28983   -29319   -29446   -29269   -28875 
  -28371   -27845   -27343   -26884   -26562   -26566   -27014   -27820 
  -28772   -29651   -30236   -30374   -30099   -29547   -28874   -28262 
  -27844   -27674   -27759   -28034   -28374   -28657   -28815   -28869 
  -28897   -28922   -28918   -28934   -29019   -29080   -28995   -28767 
  -28500   -28288   -28140   -27993   -27799   -27618   -27537   -27550 
  -27629   -27822   -28092   -28265   -28246   -28141   -28109   -28170 
  -28235   -28189   -27939   -27550   -27223   -27077   -27082   -27150 
  -27209   -27279   -27460   -27763   -28073   -28322   -28584   -28930 
  -29297   -29578   -29718   -29692   -29508   -29215   -28828   -28362 
  -27883   -27428   -27032   -26775   -26727   -26951   -27474   -28191 
  -28906   -29464   -29780   -29814   -29586   -29157   -28607   -28061 
  -27677   -27551   -27667   -27940   -28267   -28562   -28761   -28827 
  -28776   -28683   -28608   -28568   -28564   -28591   -28647   -28694 
  -28621   -28369   -28048   -27839   -27851   -28097   -28457   -28732 
  -28834   -28791   -28652   -28458   -28247   -28069   -27983   -28055 
  -28286   -28565   -28750   -28758   -28613   -28440   -28344   -28305 
  -28259   -28139   -27913   -27674   -27558   -27615   -27842   -28183 
  -28513   -28753   -28914   -29010   -29012   -28864   -28568   -28233 
  -27982   -27876   -27922   -28111   -28441   -28854   -29219   -29420 
  -29425   -29264   -28958   -28528   -28040   -27585   -27245   -27041 
  -26944   -26968   -27121   -27303   -27422   -27465   -27440   -27389 
  -27366   -27388   -27454   -27560   -27707   -27928   -28249   -28617 
  -28929   -29131   -29232   -29196   -28945   -28514   -28069   -27799 
  -27809   -28033   -28322   -28569   -28765   -28996   -29279   -29521 
  -29672   -29720   -29654   -29484   -29165   -28624   -27939   -27313 
  -26892   -26722   -26818   -27158   -27625   -28113   -28564   -28908 
  -29109   -29182   -29074   -28696   -28095   -27462   -27010   -26849 
  -26949   -27207   -27554   -27977   -28424   -28760   -28865   -28732 
  -28469   -28210   -28024   -27919   -27901   -27965   -28075   -28147 
  -28106   -28027   -28077   -28309   -28637   -28898   -28933   -28764 
  -28548   -28354   -28176   -28030   -27974   -28035   -28143   -28197 
  -28193   -28203   -28261   -28306   -28267   -28149   -28028   -28023 
  -28205   -28497   -28731   -28819   -28801   -28772   -28773   -28766 
  -28683   -28489   -28273   -28191   -28263   -28410   -28625   -28895 
  -29149   -29352   -29538   -29729   -29871   -29900   -29859   -29843 
  -29894   -29951   -29852   -29481   -28919   -28370   -27989   -27830 
  -27894   -28151   -28499   -28761   -28818   -28696   -28510   -28358 
  -28258   -28190   -28147   -28114   -28071   -27996   -27899   -27874 
  -28019   -28325   -28701   -28995   -29068   -28910   -28617   -28293 
  -27959   -27566   -27140   -26820   -26718   -26814   -27014   -27258 
  -27524   -27832   -28191   -28543   -28778   -28827   -28725   -28567 
  -28434   -28355   -28262   -28065   -27811   -27644   -27649   -27886 
  -28359   -28901   -29288   -29424   -29336   -29107   -28833   -28536 
  -28162   -27698   -27244   -26937   -26873   -27115   -27661   -28375 
  -29060   -29593   -29900   -29913   -29634   -29195   -28767   -28426 
  -28147   -27892   -27679   -27554   -27543   -27647   -27873   -28260 
  -28808   -29381   -29771   -29852   -29618   -29161   -28647   -28218 
  -27903   -27681   -27545   -27484   -27472   -27457   -27396   -27344 
  -27428   -27666   -27918   -28040   -28028   -28010   -28113   -28337 
  -28598   -28838   -29034   -29122   -29071   -28961   -28851   -28723 
  -28620   -28612   -28678   -28789   -28969   -29167   -29244   -29111 
  -28823   -28549   -28474   -28644   -28946   -29235   -29435   -29568 
  -29646   -29625   -29486   -29241   -28905   -28523   -28114   -27687 
  -27314   -27041   -26849   -26748   -26759   -26875   -27076   -27305 
  -27481   -27554   -27564   -27650   -27870   -28135   -28343   -28405 
  -28276   -28008   -27671   -27337   -27117   -27052   -27124   -27355 
  -27723   -28147   -28579   -28985   -29292   -29439   -29432   -29343 
  -29269   -29281   -29416   -29659   -29915   -30035   -29923   -29575 
  -29052   -28489   -28043   -27782   -27660   -27605   -27621   -27766 
  -28015   -28229   -28279   -28138   -27859   -27535   -27270   -27074 
  -26856   -26562   -26220   -25946   -25869   -25981   -26198   -26441 
  -26591   -26599   -26538   -26497   -26530   -26631   -26758   -26910 
  -27130   -27456   -27889   -28355   -28756   -29065   -29283   -29377 
  -29317   -29089   -28726   -28347   -28087   -28009   -28112   -28331 
  -28561   -28713   -28762   -28768   -28800   -28824   -28742   -28513 
  -28182   -27871   -27714   -27721   -27802   -27882   -27925   -27943 
  -27987   -28062   -28100   -27970   -27626   -27217   -26893   -26689 
  -26596   -26647   -26877   -27259   -27738   -28271   -28795   -29220 
  -29480   -29556   -29477   -29299   -29097   -28925   -28812   -28778 
  -28811   -28858   -28897   -28948   -29014   -29059   -29045   -28950 
  -28746   -28432   -28075   -27811   -27749   -27861   -28020   -28091 
  -28023   -27897   -27807   -27738   -27678   -27675   -27756   -27906 
  -28100   -28275   -28372   -28402   -28422   -28476   -28569   -28633 
  -28563   -28328   -27996   -27669   -27400   -27186   -27053   -27030 
  -27102   -27279   -27564   -27930   -28380   -28868   -29307   -29691 
  -30024   -30260   -30386   -30385   -30226   -29930   -29544   -29121 
  -28711   -28342   -28065   -27992   -28209   -28683   -29259   -29742 
  -30021   -30116   -30099   -30021   -29917   -29806   -29696   -29590 
  -29466   -29290   -29056   -28771   -28488   -28327   -28389   -28648 
  -28946   -29096   -28997   -28715   -28416   -28160   -27901   -27627 
  -27343   -27021   -26700   -26491   -26452   -26561   -26770   -26980 
  -27099   -27129   -27081   -26934   -26722   -26517   -26396   -26453 
  -26701   -27038   -27352   -27671   -28165   -28917   -29763   -30449 
  -30796   -30730   -30331   -29760   -29120   -28466   -27902   -27569 
  -27583   -27974   -28651   -29418   -30066   -30494   -30680   -30594 
  -30269   -29820   -29312   -28719   -28042   -27425   -27062   -27040 
  -27329   -27838   -28426   -28949   -29321   -29502   -29438   -29126 
  -28650   -28114   -27670   -27467   -27486   -27588   -27639   -27561 
  -27355   -27093   -26892   -26854   -26964   -27097   -27144   -27084 
  -26991   -26989   -27156   -27449   -27750   -27924   -27901   -27753 
  -27683   -27864   -28314   -28921   -29519   -29981   -30241   -30243 
  -29977   -29542   -29108   -28835   -28793   -28881   -28937   -28898 
  -28858   -28915   -29070   -29256   -29377   -29365   -29269   -29181 
  -29127   -29091   -29053   -28975   -28838   -28694   -28598   -28518 
  -28390   -28231   -28137   -28181   -28328   -28471   -28534   -28504 
  -28419   -28347   -28343   -28401   -28480   -28569   -28693   -28869 
  -29085   -29285   -29379   -29302   -29069   -28759   -28461   -28242 
  -28135   -28141   -28223   -28306   -28328   -28287   -28254   -28314 
  -28423   -28494   -28553   -28692   -28952   -29230   -29316   -29097 
  -28646   -28126   -27708   -27436   -27223   -27014   -26828   -26679 
  -26595   -26614   -26740   -26987   -27341   -27704   -27993   -28162 
  -28171   -28002   -27656   -27147   -26569   -26097   -25881   -25915 
  -26045   -26180   -26383   -26755   -27276   -27793   -28196   -28531 
  -28842   -29032   -28959   -28614   -28171   -27807   -27580   -27500 
  -27527   -27587   -27692   -27866   -28029   -28135   -28254   -28465 
  -28769   -29077   -29272   -29263   -29074   -28849   -28650   -28420 
  -28194   -28068   -28045   -28115   -28266   -28407   -28487   -28570 
  -28697   -28816   -28887   -28891   -28793   -28612   -28453   -28379 
  -28355   -28320   -28269   -28227   -28206   -28252   -28436   -28753 
  -29093   -29347   -29477   -29486   -29366   -29142   -28876   -28621 
  -28388   -28163   -27939   -27740   -27648   -27725   -27965   -28334 
  -28738   -29029   -29182   -29262   -29246   -29101   -28921   -28816 
  -28799   -28826   -28842   -28807   -28770   -28812   -28912   -29002 
  -29097   -29190   -29185   -29025   -28742   -28403   -28039   -27662 
  -27355   -27225   -27289   -27469   -27604   -27513   -27156   -26672 
  -26277   -26134   -26233   -26409   -26536   -26647   -26830   -27120 
  -27489   -27879   -28241   -28530   -28708   -28779   -28761   -28654 
  -28470   -28257   -28117   -28152   -28341   -28529   -28546   -28362 
  -28127   -28008   -28030   -28149   -28315   -28472   -28589   -28706 
  -28859   -28975   -28908   -28609   -28221   -27926   -27788   -27776 
  -27834   -27931   -28101   -28333   -28526   -28605   -28561   -28411 
  -28260   -28212   -28213   -28135   -27966   -27773   -27610   -27490 
  -27418   -27423   -27492   -27585   -27738   -27981   -28257   -28483 
  -28574   -28521   -28470   -28551   -28738   -28956   -29188   -29450 
  -29727   -29974   -30171   -30309   -30386   -30400   -30329   -30188 
  -30027   -29858   -29658   -29437   -29242   -29106   -29014   -28963 
  -28979   -29061   -29182   -29338   -29564   -29894   -30253   -30476 
  -30475   -30317   -30114   -29931   -29782   -29633   -29442   -29210 
  -28959   -28731   -28585   -28540   -28559   -28562   -28455   -28225 
  -27889   -27436   -26892   -26314   -25765   -25363   -25189   -25208 
  -25398   -25760   -26213   -26651   -27006   -27231   -27345   -27421 
  -27500   -27536   -27438   -27173   -26818   -26499   -26344   -26446 
  -26822   -27435   -28224   -29037   -29670   -30016   -30084   -29935 
  -29663   -29353   -29051   -28825   -28748   -28770   -28751   -28604 
  -28314   -27927   -27560   -27340   -27325   -27499   -27780   -28034 
  -28154   -28106   -27919   -27665   -27429   -27250   -27079   -26844 
  -26605   -26519   -26638   -26890   -27179   -27430   -27626   -27837 
  -28116   -28417   -28630   -28663   -28576   -28546   -28635   -28744 
  -28748   -28587   -28364   -28264   -28339   -28521   -28744   -28973 
  -29208   -29426   -29573   -29640   -29651   -29614   -29537   -29431 
  -29284   -29101   -28939   -28855   -28844   -28815   -28668   -28443 
  -28278   -28246   -28311   -28387   -28427   -28432   -28360   -28145 
  -27799   -27428   -27171   -27128   -27276   -27494   -27683   -27851 
  -28075   -28403   -28788   -29120   -29339   -29466   -29544   -29569 
  -29511   -29362   -29179   -29071   -29071   -29102   -29106   -29081 
  -29056   -29103   -29241   -29399   -29554   -29712   -29817   -29854 
  -29866   -29850   -29755   -29510   -29065   -28478   -27871   -27365 
  -27053   -26912   -26872   -26936   -27104   -27298   -27467   -27613 
  -27706   -27666   -27455   -27142   -26838   -26632   -26577   -26665 
  -26822   -27015   -27285   -27644   -28031   -28346   -28493   -28465 
  -28360   -28280   -28223   -28110   -27928   -27804   -27872   -28095 
  -28323   -28490   -28632   -28767   -28882   -28939   -28875   -28688 
  -28431   -28135   -27822   -27557   -27432   -27477   -27616   -27767 
  -27934   -28172   -28541   -29033   -29495   -29754   -29779   -29618 
  -29290   -28818   -28263   -27734   -27347   -27191   -27260   -27442 
  -27632   -27811   -27953   -28024   -28030   -27975   -27870   -27758 
  -27669   -27614   -27610   -27658   -27759   -27940   -28221   -28594 
  -29027   -29457   -29807   -30029   -30105   -30057   -29926   -29715 
  -29421   -29095   -28810   -28611   -28512   -28479   -28465   -28476 
  -28531   -28591   -28606   -28562   -28482   -28396   -28316   -28236 
  -28131   -27957   -27686   -27326   -26923   -26524   -26125   -25744 
  -25492   -25478   -25704   -26089   -26539   -26971   -27310   -27517 
  -27605   -27609   -27561   -27524   -27522   -27500   -27421   -27332 
  -27273   -27213   -27135   -27099   -27181   -27398   -27706   -28050 
  -28395   -28740   -29066   -29299   -29367   -29288   -29161   -29070 
  -28983   -28834   -28647   -28491   -28428   -28553   -28921   -29462 
  -30016   -30465   -30801   -31032   -31084   -30866   -30358   -29648 
  -28903   -28277   -27887   -27836   -28114   -28582   -29097   -29556 
  -29894   -30082   -30078   -29886   -29601   -29296   -29005   -28751 
  -28521   -28315   -28167   -28056   -27955   -27913   -28008   -28261 
  -28620   -29014   -29385   -29674   -29845   -29911   -29863   -29666 
  -29344   -28978   -28614   -28255   -27867   -27414   -26968   -26693 
  -26660   -26799   -27052   -27398   -27781   -28103   -28282   -28291 
  -28148   -27892   -27564   -27158   -26681   -26222   -25912   -25828 
  -25984   -26338   -26788   -27233   -27621   -27907   -28011   -27916 
  -27702   -27477   -27322   -27243   -27171   -27081   -27052   -27194 
  -27540   -28013   -28508   -28959   -29330   -29589   -29709   -29687 
  -29573   -29405   -29200   -28980   -28792   -28712   -28784   -28978 
  -29234   -29466   -29589   -29584   -29477   -29306   -29120   -28978 
  -28942   -29053   -29281   -29526   -29685   -29735   -29711   -29620 
  -29398   -29001   -28509   -28071   -27775   -27621   -27588   -27680 
  -27896   -28189   -28483   -28733   -28893   -28911   -28794   -28592 
  -28313   -27934   -27466   -26996   -26631   -26443   -26473   -26720 
  -27187   -27849   -28564   -29129   -29440   -29488   -29295   -28929 
  -28501   -28131   -27926   -27951   -28183   -28531   -28916   -29301 
  -29670   -29980   -30168   -30190   -30032   -29722   -29343   -28987 
  -28720   -28591   -28591   -28639   -28635   -28527   -28344   -28146 
  -27971   -27846   -27802   -27837   -27903   -27941   -27925   -27840 
  -27655   -27394   -27173   -27104   -27236   -27547   -27973   -28484 
  -29047   -29556   -29896   -30056   -30121   -30142   -30072   -29876 
  -29619   -29389   -29222   -29110   -29053   -29061   -29113   -29181 
  -29242   -29260   -29224   -29161   -29072   -28893   -28552   -28047 
  -27465   -26955   -26636   -26547   -26679   -26995   -27430   -27872 
  -28187   -28275   -28142   -27886   -27610   -27396   -27272   -27202 
  -27160   -27165   -27225   -27314   -27404   -27495   -27616   -27777 
  -27956   -28104   -28162   -28101   -27933   -27727   -27609   -27641 
  -27771   -27907   -27968   -27957   -27949   -27983   -28037   -28064 
  -28052   -28070   -28171   -28310   -28432   -28538   -28664   -28841 
  -29064   -29274   -29390   -29371   -29243   -29070   -28898   -28737 
  -28621   -28565   -28504   -28409   -28303   -28173   -28035   -27934 
  -27852   -27764   -27694   -27646   -27613   -27607   -27648   -27754 
  -27917   -28118   -28366   -28654   -28942   -29199   -29439   -29664 
  -29796   -29746   -29513   -29182   -28874   -28679   -28603   -28581 
  -28560   -28536   -28521   -28511   -28492   -28462   -28452   -28511 
  -28619   -28700   -28701   -28609   -28399   -28058   -27656   -27311 
  -27115   -27097   -27211   -27382   -27580   -27792   -27980   -28082 
  -28047   -27903   -27744   -27628   -27547   -27463   -27394   -27440 
  -27645   -27931   -28204   -28392   -28455   -28462   -28522   -28688 
  -29001   -29452   -29943   -30382   -30697   -30826   -30766   -30563 
  -30271   -29951   -29664   -29444   -29313   -29294   -29381   -29483 
