Origin Time       2025/01/13 21:19:00
Lat.              31.8
Long.             131.6
Depth. (km)       30
Mag.              6.9
Station Code      YMGH03
Station Lat.      34.1891
Station Long.     132.1260
Station Height(m) 85
Record Time       2025/01/13 21:20:20
Sampling Freq(Hz) 100Hz
Duration Time(s)  120
Dir.              6
Scale Factor      7845(gal)/8223790
Max. Acc. (gal)   1.109
Last Correction   2025/01/13 21:20:20
Memo.             
[...]
   20297    20304    20302    20297    20294    20286    20282    20301 
   20325    20328    20310    20302    20318    20344    20366    20376 
   20359    20318    20278    20247    20220    20205    20220    20263 
   20306    20331    20362    20420    20482    20551    20633    20717 
   20785    20823    20825    20821    20825    20812    20775    20737 
   20718    20703    20659    20588    20537    20505    20480    20474 
   20487    20498    20484    20452    20436    20445    20437    20382 
   20305    20240    20191    20142    20082    20032    20007    19997 
   19981    19962    19947    19936    19930    19942    19977    20011 
   20035    20042    20038    20050    20077    20102    20144    20197 
   20229    20241    20259    20294    20331    20347    20345    20336 
   20335    20337    20325    20305    20306    20335    20358    20366 
   20372    20380    20383    20382    20387    20393    20378    20348 
   20326    20313    20312    20321    20312    20287    20277    20274 
   20252    20221    20200    20178    20144    20128    20143    20152 
   20154    20182    20221    20239    20245    20254    20270    20299 
   20326    20337    20343    20355    20370    20376    20379    20376 
   20371    20366    20352    20335    20308    20274    20247    20223 
   20194    20182    20193    20190    20166    20150    20135    20102 
   20052    20004    19978    19962    19930    19901    19888    19873 
   19876    19896    19907    19909    19927    19967    20002    20012 
   20024    20063    20119    20147    20131    20109    20120    20143 
   20156    20162    20162    20163    20177    20190    20185    20194 
   20252    20322    20383    20448    20521    20605    20677    20714 
   20729    20736    20727    20699    20649    20591    20552    20530 
   20509    20501    20522    20575    20649    20715    20767    20807 
   20829    20835    20833    20819    20800    20780    20745    20707 
   20687    20683    20680    20663    20648    20652    20663    20668 
   20665    20665    20673    20672    20625    20540    20445    20353 
   20287    20248    20216    20189    20177    20171    20162    20163 
   20190    20202    20169    20123    20097    20089    20085    20092 
   20106    20124    20163    20213    20252    20287    20298    20267 
   20231    20208    20187    20174    20158    20127    20110    20121 
   20147    20187    20221    20229    20229    20235    20248    20270 
   20297    20316    20329    20333    20314    20299    20325    20364 
   20383    20385    20372    20363    20366    20372    20391    20425 
   20443    20429    20407    20389    20385    20405    20434    20457 
   20478    20490    20484    20474    20460    20451    20444    20429 
   20416    20413    20406    20379    20335    20299    20290    20299 
   20317    20336    20349    20363    20391    20426    20457    20495 
   20536    20568    20601    20632    20665    20702    20717    20700 
   20688    20706    20729    20729    20713    20696    20699    20715 
   20717    20704    20713    20734    20741    20745    20756    20740 
   20691    20650    20636    20637    20626    20575    20505    20453 
   20422    20394    20355    20304    20244    20178    20131    20115 
   20120    20128    20142    20175    20208    20213    20206    20205 
   20216    20241    20263    20271    20279    20285    20271    20264 
   20278    20283    20290    20335    20397    20426    20413    20390 
   20395    20434    20474    20499    20515    20507    20482    20455 
   20418    20374    20335    20306    20290    20286    20297    20317 
   20336    20351    20349    20345    20363    20395    20413    20409 
   20403    20395    20380    20371    20364    20355    20348    20340 
   20328    20324    20347    20383    20389    20368    20351    20321 
   20275    20229    20193    20173    20160    20131    20088    20066 
   20052    20020    19981    19959    19970    19996    20020    20051 
   20078    20088    20096    20088    20051    20013    20009    20050 
   20108    20152    20198    20263    20314    20314    20281    20255 
   20236    20212    20186    20151    20102    20061    20035    20019 
   19998    19986    20007    20051    20104    20151    20171    20175 
   20183    20201    20232    20289    20358    20420    20476    20517 
   20544    20595    20682    20773    20842    20862    20848    20826 
   20807    20804    20796    20757    20707    20655    20583    20529 
   20499    20447    20370    20299    20254    20232    20218    20186 
   20131    20078    20040    20025    20044    20073    20104    20152 
   20217    20270    20299    20326    20363    20395    20417    20429 
   20425    20399    20352    20287    20225    20175    20123    20061 
   19993    19938    19901    19870    19851    19867    19878    19846 
   19784    19732    19718    19734    19769    19815    19857    19915 
   20007    20097    20170    20252    20333    20389    20412    20413 
   20406    20372    20299    20221    20164    20135    20146    20182 
   20213    20229    20227    20196    20163    20159    20158    20127 
   20078    20048    20059    20082    20079    20048    20008    19992 
   20025    20082    20121    20139    20158    20201    20248    20267 
   20271    20277    20279    20283    20289    20293    20298    20290 
   20271    20268    20258    20208    20139    20069    20012    19989 
   19993    20009    20052    20113    20174    20221    20233    20214 
   20185    20140    20077    19997    19924    19884    19858    19834 
   19842    19893    19943    19954    19948    19961    19988    20008 
   20002    19980    19975    20001    20011    19980    19966    20004 
   20069    20144    20214    20256    20279    20314    20353    20386 
   20413    20440    20453    20430    20391    20375    20386    20390 
   20364    20329    20289    20231    20182    20166    20152    20123 
   20104    20117    20151    20190    20214    20209    20209    20245 
   20293    20328    20359    20386    20422    20486    20560    20625 
   20672    20706    20742    20764    20733    20676    20640    20614 
   20576    20541    20520    20509    20511    20520    20507    20461 
   20420    20424    20449    20483    20521    20540    20555    20572 
   20575    20568    20564    20571    20575    20548    20507    20479 
   20449    20413    20391    20382    20378    20379    20385    20398 
   20412    20403    20378    20344    20313    20283    20231    20167 
   20137    20155    20182    20193    20205    20247    20309    20353 
   20366    20368    20393    20425    20425    20393    20358    20318 
   20274    20250    20270    20316    20367    20430    20494    20538 
   20564    20567    20568    20580    20567    20532    20517    20532 
   20552    20551    20552    20598    20656    20690    20700    20709 
   20734    20764    20768    20746    20718    20717    20746    20772 
   20763    20734    20717    20721    20725    20717    20703    20709 
   20730    20760    20794    20823    20853    20888    20914    20915 
   20904    20915    20941    20938    20903    20866    20838    20810 
   20783    20765    20756    20731    20684    20617    20534    20453 
   20391    20336    20268    20204    20160    20115    20055    20001 
   19953    19919    19908    19907    19924    19971    20019    20043 
   20047    20025    19982    19963    19970    19992    20032    20065 
   20079    20105    20143    20174    20174    20148    20150    20175 
   20175    20144    20124    20137    20175    20213    20241    20267 
   20301    20339    20363    20364    20360    20372    20387    20403 
   20429    20459    20486    20498    20494    20499    20510    20518 
   20526    20533    20536    20518    20467    20412    20378    20364 
   20360    20347    20339    20332    20294    20241    20214    20220 
   20236    20248    20281    20329    20359    20386    20433    20475 
   20498    20529    20572    20611    20641    20656    20669    20690 
   20702    20706    20700    20690    20672    20636    20592    20555 
   20501    20441    20410    20414    20426    20429    20421    20414 
   20407    20393    20389    20407    20425    20432    20448    20468 
   20467    20449    20418    20379    20353    20335    20302    20255 
   20212    20185    20163    20152    20155    20151    20131    20102 
   20069    20044    20034    20021    20016    20012    19996    19992 
   20017    20067    20116    20135    20152    20194    20244    20290 
   20332    20367    20386    20375    20364    20375    20398    20425 
   20449    20463    20464    20439    20403    20395    20412    20417 
   20407    20397    20367    20318    20271    20216    20158    20119 
   20089    20075    20085    20093    20089    20078    20050    20004 
   19975    19993    20039    20083    20129    20170    20194    20224 
   20262    20298    20329    20344    20353    20366    20351    20304 
   20245    20187    20137    20123    20121    20092    20055    20042 
   20032    20017    20000    19954    19897    19878    19894    19903 
   19886    19873    19866    19858    19858    19870    19877    19876 
   19894    19942    19994    20054    20117    20174    20218    20241 
   20254    20266    20279    20310    20364    20428    20476    20498 
   20537    20609    20669    20722    20792    20861    20906    20933 
   20943    20952    20964    20974    21007    21072    21145    21199 
   21213    21222    21239    21226    21178    21132    21088    21022 
   20935    20869    20826    20765    20699    20655    20630    20613 
   20594    20582    20579    20569    20552    20541    20561    20603 
   20621    20609    20601    20579    20532    20497    20475    20440 
   20383    20331    20309    20299    20279    20260    20262    20281 
   20285    20260    20237    20225    20224    20232    20221    20181 
   20147    20127    20104    20078    20058    20031    19978    19916 
   19861    19831    19816    19786    19743    19704    19670    19641 
   19597    19538    19479    19426    19381    19348    19336    19348 
   19367    19379    19407    19452    19485    19510    19546    19568 
   19568    19568    19570    19575    19593    19638    19691    19727 
   19773    19849    19912    19953    20007    20094    20190    20274 
   20355    20434    20490    20517    20515    20479    20434    20412 
   20405    20403    20390    20363    20352    20353    20339    20316 
   20299    20299    20309    20322    20345    20366    20380    20393 
   20397    20405    20437    20483    20518    20542    20578    20621 
   20649    20663    20683    20711    20740    20777    20830    20884 
   20899    20879    20887    20920    20934    20937    20937    20938 
   20949    20950    20949    20966    20981    20969    20935    20900 
   20872    20829    20772    20723    20675    20615    20569    20532 
   20488    20456    20436    20402    20351    20287    20208    20120 
   20048    19992    19915    19832    19788    19786    19811    19836 
   19851    19869    19888    19901    19916    19942    19978    20029 
   20093    20147    20164    20158    20167    20201    20235    20255 
   20270    20286    20299    20302    20298    20289    20282    20287 
   20291    20295    20309    20317    20329    20355    20378    20402 
   20434    20471    20505    20529    20555    20590    20615    20622 
   20621    20618    20629    20652    20663    20669    20706    20754 
   20783    20802    20823    20841    20853    20875    20914    20952 
   20965    20947    20922    20920    20926    20899    20844    20775 
   20698    20622    20542    20451    20366    20291    20214    20144 
   20097    20081    20085    20086    20074    20047    20002    19955 
   19917    19890    19880    19884    19889    19884    19877    19878 
   19899    19947    19996    20025    20051    20086    20137    20186 
   20206    20218    20231    20233    20237    20236    20223    20227 
   20245    20252    20260    20272    20285    20312    20333    20331 
   20340    20363    20386    20409    20432    20452    20471    20498 
   20537    20560    20571    20592    20619    20642    20659    20659 
   20649    20625    20579    20551    20552    20549    20537    20529 
   20540    20576    20622    20659    20684    20683    20656    20623 
   20586    20540    20491    20463    20460    20449    20436    20455 
   20468    20447    20428    20440    20466    20480    20479    20484 
   20517    20568    20602    20601    20595    20594    20574    20530 
   20472    20414    20376    20344    20313    20283    20225    20133 
   20036    19947    19859    19780    19722    19670    19592    19500 
   19440    19407    19377    19352    19345    19360    19372    19383 
   19414    19454    19480    19485    19480    19476    19483    19491 
   19498    19507    19522    19543    19566    19575    19572    19599 
   19660    19704    19720    19739    19762    19789    19828    19870 
   19899    19916    19934    19954    19981    20017    20044    20036 
   20009    19989    19980    19971    19957    19938    19928    19928 
   19947    20002    20059    20096    20146    20218    20286    20343 
   20391    20440    20486    20526    20574    20637    20702    20765 
   20826    20883    20935    20987    21028    21060    21091    21127 
   21166    21207    21247    21274    21296    21334    21379    21420 
   21452    21466    21470    21478    21486    21477    21448    21398 
   21338    21301    21285    21246    21177    21103    21023    20935 
   20862    20788    20694    20599    20520    20455    20416    20390 
   20367    20363    20380    20398    20422    20460    20507    20569 
   20633    20665    20675    20677    20671    20645    20607    20571 
   20534    20484    20424    20368    20324    20279    20239    20208 
   20166    20106    20036    19951    19861    19785    19719    19657 
   19603    19569    19561    19562    19576    19614    19656    19691 
   19735    19773    19781    19777    19778    19792    19816    19845 
   19872    19899    19924    19940    19954    19971    19984    19990 
   19994    19985    19955    19907    19847    19805    19800    19809 
   19808    19813    19846    19885    19920    19963    20011    20058 
   20116    20185    20241    20286    20337    20401    20472    20533 
   20582    20634    20692    20750    20811    20861    20881    20881 
   20883    20881    20869    20845    20811    20788    20784    20790 
   20795    20799    20800    20803    20817    20833    20822    20788 
   20760    20754    20763    20761    20738    20713    20694    20679 
   20657    20623    20603    20619    20650    20669    20684    20702 
   20713    20721    20723    20719    20718    20734    20756    20771 
   20773    20769    20767    20764    20769    20777    20780    20779 
   20779    20777    20772    20746    20702    20665    20630    20571 
   20497    20430    20380    20340    20310    20298    20285    20259 
   20240    20240    20248    20267    20305    20349    20387    20421 
   20452    20483    20520    20542    20533    20507    20502    20511 
   20514    20497    20476    20467    20447    20412    20382    20359 
   20341    20329    20332    20343    20349    20352    20352    20345 
   20348    20366    20375    20370    20368    20375    20366    20340 
   20328    20324    20298    20260    20231    20200    20171    20156 
   20142    20132    20132    20125    20124    20135    20144    20139 
   20119    20093    20065    20025    19970    19915    19882    19859 
   19827    19799    19780    19755    19730    19707    19680    19656 
   19639    19633    19643    19669    19701    19745    19797    19851 
   19904    19953    19994    20040    20098    20169    20255    20348 
   20422    20476    20525    20561    20579    20586    20599    20614 
   20615    20611    20601    20582    20565    20563    20572    20574 
   20559    20548    20529    20490    20457    20443    20444    20443 
   20424    20412    20437    20466    20480    20493    20501    20509 
   20521    20514    20487    20459    20456    20480    20497    20486 
   20470    20461    20459    20471    20475    20448    20405    20362 
   20325    20295    20271    20262    20259    20240    20228    20240 
   20256    20263    20258    20235    20209    20186    20166    20152 
   20142    20124    20106    20102    20092    20051    20012    19985 
   19954    19920    19893    19882    19896    19920    19934    19939 
   19951    19978    20009    20039    20073    20109    20135    20154 
   20167    20163    20147    20136    20132    20128    20131    20124 
   20110    20110    20124    20139    20158    20183    20208    20212 
   20212    20233    20255    20258    20252    20243    20231    20218 
   20205    20185    20159    20137    20131    20133    20139    20154 
   20178    20200    20218    20239    20268    20312    20353    20389 
   20434    20495    20549    20580    20611    20667    20725    20764 
   20785    20808    20845    20889    20930    20965    20988    20993 
   20985    20974    20973    20974    20964    20947    20930    20908 
   20891    20877    20853    20819    20791    20775    20761    20748 
   20740    20730    20713    20688    20657    20618    20584    20557 
   20520    20479    20453    20428    20385    20329    20258    20171 
   20078    20001    19947    19894    19838    19792    19770    19765 
   19746    19724    19720    19726    19727    19730    19743    19765 
   19785    19805    19828    19865    19928    20007    20090    20174 
   20243    20293    20340    20401    20467    20526    20578    20623 
   20655    20677    20707    20727    20727    20715    20710    20698 
   20664    20622    20580    20540    20501    20457    20402    20344 
   20290    20236    20178    20117    20051    19980    19912    19853 
   19812    19800    19809    19823    19849    19892    19932    19958 
   19984    20008    20031    20059    20083    20102    20124    20148 
   20173    20191    20209    20235    20260    20283    20297    20298 
   20299    20305    20299    20285    20274    20271    20262    20237 
   20212    20194    20187    20183    20171    20159    20139    20101 
   20066    20046    20034    20025    20031    20042    20054    20074 
   20100    20139    20191    20237    20272    20313    20360    20398 
   20437    20482    20524    20556    20578    20598    20622    20632 
   20632    20636    20637    20634    20637    20638    20625    20601 
   20572    20537    20502    20466    20430    20405    20383    20367 
   20359    20349    20331    20312    20302    20309    20326    20349 
   20368    20378    20387    20399    20414    20437    20459    20483 
   20513    20530    20525    20511    20497    20467    20428    20389 
   20351    20318    20285    20235    20189    20158    20117    20067 
   20031    20008    19984    19955    19936    19934    19930    19923 
   19917    19924    19934    19935    19948    19978    19996    19997 
   19994    19989    19975    19957    19939    19923    19912    19909 
   19911    19903    19884    19865    19857    19858    19857    19846 
   19840    19847    19853    19855    19859    19874    19899    19924 
