Origin Time       2025/01/13 21:19:00
Lat.              31.8
Long.             131.6
Depth. (km)       30
Mag.              6.9
Station Code      YMGH03
Station Lat.      34.1891
Station Long.     132.1260
Station Height(m) -115
Record Time       2025/01/13 21:20:20
Sampling Freq(Hz) 100Hz
Duration Time(s)  120
Dir.              1
Scale Factor      2942(gal)/8224139
Max. Acc. (gal)   0.788
Last Correction   2025/01/13 21:20:20
Memo.             
[...]
  -92053   -92074   -92091   -92103   -92117   -92145   -92165   -92149 
  -92099   -92041   -91998   -91987   -91991   -91983   -91970   -91968 
  -91955   -91937   -91917   -91864   -91804   -91767   -91732   -91712 
  -91731   -91763   -91802   -91856   -91920   -91953   -91935   -91886 
  -91829   -91759   -91679   -91608   -91528   -91447   -91395   -91377 
  -91397   -91466   -91558   -91650   -91727   -91785   -91859   -91944 
  -91997   -92037   -92084   -92118   -92113   -92072   -92047   -92047 
  -92040   -92033   -92029   -92013   -92006   -91998   -91955   -91920 
  -91924   -91940   -91948   -91945   -91930   -91908   -91870   -91844 
  -91856   -91868   -91843   -91821   -91835   -91863   -91908   -91984 
  -92082   -92172   -92223   -92211   -92175   -92156   -92152   -92156 
  -92167   -92159   -92148   -92164   -92171   -92138   -92110   -92114 
  -92132   -92146   -92151   -92125   -92071   -92028   -92009   -91983 
  -91937   -91905   -91879   -91860   -91881   -91918   -91925   -91918 
  -91929   -91957   -91989   -92028   -92090   -92151   -92175   -92153 
  -92101   -92021   -91928   -91843   -91773   -91729   -91728   -91783 
  -91906   -92044   -92156   -92279   -92414   -92512   -92566   -92608 
  -92649   -92681   -92701   -92704   -92681   -92642   -92601   -92578 
  -92566   -92547   -92520   -92502   -92500   -92519   -92545   -92560 
  -92547   -92506   -92421   -92295   -92190   -92155   -92138   -92088 
  -92052   -92063   -92082   -92074   -92056   -92033   -91997   -91966 
  -91955   -91920   -91848   -91800   -91786   -91777   -91771   -91787 
  -91824   -91893   -91991   -92083   -92137   -92164   -92182   -92148 
  -92071   -92022   -92014   -92007   -91980   -91943   -91894   -91809 
  -91690   -91602   -91601   -91650   -91659   -91658   -91704   -91750 
  -91755   -91756   -91798   -91870   -91885   -91836   -91802   -91795 
  -91813   -91862   -91893   -91887   -91886   -91887   -91879   -91898 
  -91967   -92051   -92114   -92159   -92219   -92302   -92369   -92410 
  -92452   -92515   -92592   -92657   -92684   -92661   -92608   -92557 
  -92484   -92357   -92217   -92107   -92032   -91974   -91922   -91895 
  -91916   -91957   -91987   -92018   -92047   -92068   -92091   -92083 
  -92040   -92033   -92059   -92064   -92065   -92074   -92078   -92105 
  -92134   -92134   -92133   -92164   -92226   -92313   -92421   -92519 
  -92578   -92634   -92700   -92724   -92685   -92611   -92515   -92429 
  -92392   -92399   -92394   -92350   -92303   -92272   -92248   -92233 
  -92205   -92132   -92032   -91935   -91883   -91890   -91917   -91922 
  -91883   -91802   -91731   -91697   -91667   -91635   -91623   -91619 
  -91629   -91704   -91820   -91891   -91894   -91868   -91868   -91925 
  -92025   -92122   -92191   -92230   -92242   -92230   -92230   -92267 
  -92302   -92327   -92379   -92415   -92399   -92389   -92385   -92318 
  -92213   -92152   -92156   -92195   -92229   -92211   -92176   -92202 
  -92271   -92327   -92371   -92389   -92380   -92376   -92387   -92380 
  -92358   -92341   -92321   -92269   -92199   -92159   -92151   -92141 
  -92129   -92119   -92117   -92134   -92182   -92234   -92271   -92288 
  -92290   -92281   -92277   -92287   -92288   -92263   -92226   -92200 
  -92168   -92121   -92086   -92076   -92084   -92114   -92157   -92207 
  -92275   -92327   -92326   -92302   -92272   -92207   -92106   -92006 
  -91933   -91895   -91864   -91849   -91894   -91948   -91943   -91922 
  -91921   -91916   -91917   -91916   -91885   -91845   -91831   -91839 
  -91871   -91894   -91889   -91872   -91870   -91912   -92005   -92115 
  -92195   -92222   -92218   -92232   -92284   -92350   -92399   -92441 
  -92479   -92539   -92641   -92727   -92782   -92826   -92812   -92747 
  -92691   -92664   -92669   -92696   -92716   -92718   -92693   -92653 
  -92620   -92597   -92568   -92539   -92519   -92524   -92570   -92616 
  -92628   -92619   -92620   -92649   -92688   -92718   -92755   -92832 
  -92948   -93046   -93073   -93039   -92997   -92942   -92851   -92785 
  -92761   -92719   -92664   -92612   -92539   -92468   -92421   -92362 
  -92296   -92234   -92160   -92080   -92009   -91922   -91810   -91708 
  -91628   -91548   -91471   -91427   -91415   -91416   -91428   -91455 
  -91485   -91517   -91563   -91604   -91605   -91563   -91501   -91447 
  -91399   -91350   -91349   -91405   -91461   -91485   -91497   -91516 
  -91554   -91590   -91600   -91609   -91633   -91656   -91660   -91640 
  -91601   -91586   -91611   -91656   -91754   -91922   -92109   -92265 
  -92368   -92408   -92419   -92395   -92315   -92234   -92188   -92138 
  -92055   -91979   -91967   -91999   -92060   -92149   -92217   -92244 
  -92256   -92240   -92195   -92157   -92117   -92057   -91999   -91955 
  -91930   -91949   -92006   -92053   -92018   -91899   -91798   -91771 
  -91778   -91783   -91779   -91777   -91770   -91775   -91824   -91897 
  -91948   -91987   -92020   -92045   -92095   -92155   -92186   -92187 
  -92149   -92094   -92072   -92080   -92097   -92119   -92153   -92199 
  -92254   -92299   -92319   -92310   -92273   -92233   -92213   -92214 
  -92218   -92202   -92182   -92176   -92167   -92160   -92164   -92146 
  -92106   -92059   -92003   -91960   -91936   -91897   -91862   -91862 
  -91898   -91972   -92083   -92213   -92330   -92408   -92464   -92506 
  -92500   -92443   -92381   -92334   -92290   -92237   -92192   -92151 
  -92074   -92007   -92022   -92101   -92194   -92280   -92327   -92327 
  -92283   -92206   -92130   -92063   -91989   -91899   -91801   -91708 
  -91648   -91635   -91655   -91690   -91743   -91808   -91862   -91879 
  -91863   -91835   -91820   -91808   -91813   -91870   -91960   -92051 
  -92138   -92192   -92199   -92209   -92236   -92219   -92151   -92098 
  -92076   -92076   -92099   -92128   -92140   -92125   -92068   -91980 
  -91909   -91875   -91866   -91860   -91858   -91858   -91854   -91824 
  -91756   -91683   -91635   -91592   -91535   -91488   -91447   -91390 
  -91345   -91316   -91282   -91260   -91280   -91343   -91409   -91446 
  -91482   -91543   -91590   -91585   -91573   -91600   -91646   -91705 
  -91763   -91773   -91783   -91847   -91914   -91932   -91893   -91821 
  -91773   -91763   -91759   -91781   -91852   -91930   -92011   -92110 
  -92184   -92213   -92200   -92126   -92028   -92006   -92072   -92176 
  -92292   -92403   -92487   -92539   -92558   -92543   -92531   -92553 
  -92597   -92645   -92693   -92753   -92805   -92803   -92751   -92692 
  -92627   -92554   -92462   -92364   -92311   -92302   -92284   -92279 
  -92326   -92381   -92411   -92468   -92581   -92727   -92874   -92978 
  -93013   -93024   -93059   -93118   -93159   -93150   -93091   -92988 
  -92840   -92703   -92635   -92628   -92662   -92732   -92774   -92734 
  -92661   -92589   -92506   -92411   -92303   -92173   -92060   -91980 
  -91917   -91862   -91805   -91748   -91702   -91704   -91779   -91871 
  -91922   -91921   -91849   -91741   -91682   -91670   -91666   -91675 
  -91706   -91767   -91868   -91998   -92136   -92263   -92367   -92414 
  -92394   -92372   -92396   -92429   -92462   -92497   -92480   -92429 
  -92411   -92399   -92362   -92333   -92337   -92369   -92398   -92394 
  -92356   -92290   -92214   -92183   -92238   -92348   -92437   -92441 
  -92372   -92304   -92276   -92265   -92263   -92250   -92219   -92190 
  -92152   -92091   -92026   -91975   -91947   -91956   -91976   -91979 
  -91978   -91986   -91986   -91989   -92016   -92048   -92086   -92133 
  -92151   -92138   -92142   -92165   -92167   -92128   -92048   -91935 
  -91827   -91754   -91697   -91650   -91627   -91631   -91648   -91666 
  -91685   -91709   -91736   -91754   -91744   -91727   -91728   -91720 
  -91692   -91682   -91723   -91818   -91937   -92016   -92047   -92087 
  -92163   -92254   -92358   -92456   -92537   -92605   -92630   -92599 
  -92565   -92560   -92572   -92558   -92506   -92454   -92435   -92425 
  -92408   -92427   -92506   -92593   -92632   -92637   -92632   -92627 
  -92634   -92645   -92639   -92630   -92624   -92634   -92658   -92670 
  -92670   -92682   -92682   -92651   -92615   -92584   -92543   -92511 
  -92520   -92591   -92713   -92834   -92871   -92823   -92754   -92696 
  -92655   -92637   -92627   -92591   -92515   -92430   -92368   -92330 
  -92322   -92335   -92333   -92325   -92338   -92379   -92433   -92476 
  -92510   -92554   -92605   -92668   -92723   -92712   -92653   -92610 
  -92583   -92562   -92549   -92542   -92556   -92581   -92608   -92620 
  -92588   -92519   -92453   -92418   -92433   -92464   -92452   -92399 
  -92342   -92296   -92272   -92275   -92304   -92360   -92421   -92461 
  -92465   -92431   -92358   -92245   -92109   -91955   -91767   -91575 
  -91454   -91428   -91413   -91328   -91200   -91076   -90957   -90868 
  -90825   -90778   -90682   -90556   -90445   -90374   -90344   -90339 
  -90339   -90342   -90387   -90481   -90547   -90571   -90616   -90691 
  -90764   -90841   -90938   -91041   -91116   -91146   -91129   -91062 
  -90965   -90923   -90988   -91077   -91127   -91184   -91227   -91208 
  -91184   -91208   -91296   -91443   -91567   -91611   -91636   -91713 
  -91822   -91917   -91997   -92111   -92284   -92453   -92583   -92661 
  -92653   -92577   -92506   -92476   -92468   -92438   -92394   -92354 
  -92306   -92232   -92163   -92140   -92188   -92317   -92456   -92512 
  -92508   -92496   -92443   -92350   -92283   -92253   -92241   -92227 
  -92195   -92182   -92248   -92383   -92519   -92604   -92618   -92605 
  -92603   -92573   -92503   -92406   -92259   -92095   -91990   -91955 
  -91967   -92005   -92014   -91963   -91864   -91748   -91675   -91679 
  -91701   -91665   -91594   -91536   -91481   -91399   -91319   -91303 
  -91335   -91336   -91245   -91103   -91012   -90998   -91011   -91029 
  -91053   -91096   -91160   -91193   -91181   -91180   -91215   -91304 
  -91492   -91736   -91948   -92129   -92319   -92491   -92619   -92740 
  -92862   -92928   -92913   -92867   -92846   -92832   -92832   -92902 
  -93009   -93086   -93158   -93237   -93275   -93279   -93322   -93397 
  -93426   -93394   -93326   -93245   -93147   -93006   -92858   -92731 
  -92614   -92549   -92545   -92535   -92500   -92454   -92394   -92344 
  -92365   -92443   -92511   -92547   -92562   -92574   -92603   -92635 
  -92659   -92668   -92643   -92599   -92583   -92616   -92699   -92792 
  -92815   -92734   -92589   -92430   -92283   -92133   -91983   -91879 
  -91828   -91768   -91673   -91598   -91590   -91627   -91714   -91855 
  -91999   -92091   -92117   -92114   -92113   -92109   -92103   -92076 
  -91983   -91856   -91770   -91714   -91675   -91686   -91748   -91814 
  -91871   -91952   -92084   -92215   -92276   -92279   -92281   -92281 
  -92256   -92225   -92198   -92159   -92129   -92101   -92001   -91844 
  -91709   -91608   -91547   -91523   -91505   -91509   -91513   -91490 
  -91474   -91461   -91422   -91384   -91345   -91272   -91203   -91193 
  -91222   -91237   -91239   -91218   -91126   -91021   -91007   -91061 
  -91122   -91201   -91300   -91392   -91489   -91594   -91654   -91642 
  -91600   -91579   -91575   -91579   -91606   -91643   -91659   -91663 
  -91670   -91678   -91708   -91762   -91795   -91773   -91724   -91686 
  -91643   -91594   -91579   -91581   -91566   -91561   -91619   -91733 
  -91802   -91756   -91671   -91620   -91594   -91621   -91687   -91732 
  -91785   -91870   -91944   -92016   -92106   -92191   -92272   -92340 
  -92360   -92354   -92349   -92330   -92330   -92371   -92422   -92481 
  -92541   -92572   -92592   -92620   -92642   -92653   -92649   -92649 
  -92672   -92708   -92769   -92880   -93005   -93106   -93194   -93267 
  -93336   -93405   -93445   -93486   -93569   -93629   -93625   -93600 
  -93550   -93483   -93437   -93388   -93337   -93312   -93291   -93274 
  -93283   -93285   -93236   -93136   -93017   -92927   -92855   -92780 
  -92711   -92626   -92506   -92369   -92230   -92098   -91999   -91935 
  -91890   -91874   -91860   -91832   -91828   -91829   -91805   -91790 
  -91793   -91806   -91866   -91966   -92059   -92126   -92168   -92184 
  -92172   -92140   -92132   -92157   -92119   -91991   -91867   -91791 
  -91733   -91665   -91600   -91566   -91562   -91573   -91588   -91567 
  -91489   -91381   -91291   -91231   -91180   -91118   -91069   -91048 
  -91021   -90987   -90981   -90995   -90972   -90875   -90775   -90765 
  -90829   -90914   -91003   -91080   -91119   -91142   -91188   -91260 
  -91339   -91423   -91531   -91671   -91800   -91905   -92037   -92175 
  -92273   -92362   -92460   -92539   -92601   -92662   -92715   -92751 
  -92797   -92889   -93035   -93220   -93388   -93510   -93617   -93731 
  -93845   -93919   -93943   -93977   -94047   -94096   -94095   -94077 
  -94076   -94082   -94077   -94062   -94050   -94051   -94051   -94005 
  -93931   -93884   -93841   -93766   -93695   -93668   -93680   -93684 
  -93667   -93646   -93611   -93534   -93434   -93321   -93206   -93127 
  -93079   -93019   -92952   -92911   -92866   -92805   -92765   -92731 
  -92673   -92595   -92518   -92443   -92375   -92326   -92310   -92307 
  -92291   -92237   -92137   -92043   -91987   -91936   -91883   -91843 
  -91791   -91721   -91636   -91538   -91423   -91273   -91111   -90992 
  -90910   -90845   -90780   -90682   -90558   -90443   -90332   -90228 
  -90163   -90134   -90107   -90073   -90051   -90051   -90063   -90055 
  -90013   -89962   -89927   -89910   -89908   -89922   -89950   -89992 
  -90051   -90138   -90236   -90308   -90355   -90412   -90452   -90456 
  -90459   -90467   -90487   -90535   -90593   -90653   -90724   -90821 
  -90976   -91152   -91307   -91453   -91579   -91681   -91775   -91859 
  -91953   -92064   -92146   -92202   -92284   -92387   -92493   -92645 
  -92846   -93028   -93160   -93268   -93359   -93434   -93503   -93538 
  -93515   -93476   -93461   -93455   -93426   -93344   -93213   -93102 
  -93037   -92973   -92889   -92835   -92828   -92821   -92784   -92732 
  -92677   -92616   -92554   -92487   -92395   -92280   -92160   -92045 
  -91948   -91883   -91840   -91814   -91810   -91797   -91764   -91746 
  -91724   -91667   -91606   -91593   -91624   -91673   -91733   -91783 
  -91805   -91821   -91858   -91930   -92028   -92111   -92194   -92292 
  -92385   -92477   -92576   -92654   -92712   -92763   -92800   -92830 
  -92850   -92866   -92893   -92919   -92929   -92942   -92965   -93004 
  -93052   -93105   -93181   -93264   -93339   -93414   -93449   -93422 
  -93402   -93411   -93403   -93378   -93366   -93360   -93328   -93256 
  -93171   -93073   -92942   -92788   -92643   -92524   -92406   -92263 
  -92115   -91987   -91899   -91863   -91849   -91814   -91766   -91714 
  -91627   -91500   -91384   -91318   -91296   -91273   -91261   -91324 
  -91417   -91426   -91342   -91268   -91281   -91346   -91411   -91493 
  -91606   -91714   -91777   -91794   -91816   -91870   -91929   -91964 
  -91970   -91933   -91874   -91855   -91870   -91862   -91847   -91858 
  -91833   -91736   -91600   -91461   -91347   -91292   -91278   -91265 
  -91223   -91147   -91062   -90988   -90934   -90911   -90906   -90906 
  -90934   -90984   -91003   -90988   -90971   -90953   -90960   -91021 
  -91118   -91195   -91249   -91334   -91451   -91532   -91539   -91531 
  -91578   -91647   -91700   -91746   -91775   -91758   -91692   -91624 
  -91586   -91552   -91512   -91474   -91436   -91376   -91308   -91288 
  -91315   -91343   -91377   -91434   -91503   -91600   -91725   -91822 
  -91922   -92079   -92225   -92303   -92367   -92433   -92470   -92481 
  -92465   -92422   -92421   -92484   -92546   -92576   -92608   -92662 
  -92735   -92796   -92804   -92763   -92726   -92722   -92745   -92805 
  -92908   -93027   -93135   -93204   -93226   -93244   -93268   -93320 
  -93434   -93592   -93733   -93826   -93876   -93901   -93892   -93829 
  -93734   -93641   -93567   -93488   -93375   -93231   -93091   -92961 
  -92821   -92670   -92522   -92385   -92256   -92126   -92011   -91898 
  -91756   -91605   -91480   -91385   -91316   -91239   -91135   -91045 
  -91006   -90988   -90945   -90898   -90873   -90877   -90911   -90953 
  -90987   -91018   -91021   -90976   -90917   -90871   -90830   -90775 
  -90702   -90652   -90649   -90652   -90628   -90591   -90549   -90508 
  -90479   -90466   -90462   -90468   -90487   -90528   -90599   -90680 
  -90744   -90805   -90892   -90998   -91112   -91258   -91443   -91631 
  -91800   -91952   -92074   -92179   -92300   -92416   -92514   -92622 
  -92736   -92828   -92875   -92877   -92857   -92848   -92843   -92828 
  -92811   -92772   -92712   -92655   -92593   -92512   -92438   -92384 
  -92337   -92290   -92264   -92269   -92288   -92298   -92306   -92321 
  -92340   -92364   -92388   -92433   -92507   -92576   -92620   -92654 
  -92701   -92762   -92819   -92880   -92959   -93070   -93210   -93344 
  -93438   -93496   -93530   -93567   -93622   -93684   -93733   -93739 
  -93707   -93673   -93644   -93606   -93550   -93460   -93370   -93332 
  -93328   -93297   -93228   -93171   -93183   -93243   -93294   -93313 
  -93290   -93241   -93183   -93098   -93002   -92929   -92865   -92807 
  -92786   -92808   -92831   -92821   -92799   -92772   -92711   -92620 
  -92545   -92472   -92373   -92281   -92218   -92156   -92098   -92055 
  -91986   -91852   -91702   -91597   -91520   -91450   -91392   -91326 
  -91246   -91185   -91142   -91092   -91034   -90979   -90942   -90938 
  -90956   -90972   -90992   -91022   -91053   -91073   -91116   -91206 
  -91296   -91359   -91424   -91492   -91558   -91632   -91693   -91727 
  -91777   -91855   -91922   -91970   -92006   -92018   -92005   -91986 
  -91971   -91980   -92032   -92113   -92198   -92287   -92376   -92446 
  -92500   -92550   -92608   -92678   -92732   -92757   -92784   -92817 
  -92869   -92946   -93021   -93075   -93116   -93129   -93120   -93109 
  -93077   -93016   -92934   -92834   -92742   -92666   -92589   -92516 
  -92442   -92333   -92184   -92060   -91983   -91886   -91760   -91655 
  -91557   -91462   -91412   -91388   -91353   -91326   -91338   -91397 
  -91484   -91579   -91689   -91809   -91905   -91968   -92025   -92105 
  -92213   -92325   -92402   -92446   -92502   -92568   -92649   -92784 
  -92947   -93085   -93204   -93326   -93452   -93555   -93592   -93563 
  -93495   -93424   -93364   -93303   -93240   -93177   -93116   -93091 
  -93100   -93087   -93066   -93059   -93047   -93063   -93106   -93120 
  -93091   -93036   -92961   -92871   -92763   -92651   -92560   -92479 
  -92406   -92345   -92284   -92233   -92206   -92218   -92249   -92249 
  -92221   -92160   -92040   -91912   -91833   -91786   -91736   -91666 
  -91586   -91519   -91447   -91358   -91270   -91201   -91146   -91102 
  -91072   -91015   -90925   -90845   -90767   -90671   -90586   -90537 
  -90525   -90517   -90485   -90433   -90374   -90319   -90288   -90277 
  -90270   -90273   -90302   -90371   -90482   -90624   -90798   -90980 
  -91106   -91179   -91258   -91374   -91498   -91569   -91597   -91655 
  -91736   -91789   -91821   -91854   -91901   -91986   -92065   -92091 
  -92105   -92110   -92065   -92016   -91979   -91901   -91820   -91783 
  -91733   -91636   -91531   -91446   -91380   -91327   -91292   -91278 
