Origin Time       2025/01/13 21:19:00
Lat.              31.8
Long.             131.6
Depth. (km)       30
Mag.              6.9
Station Code      YMGH14
Station Lat.      34.3979
Station Long.     131.3774
Station Height(m) 5
Record Time       2025/01/13 21:20:25
Sampling Freq(Hz) 100Hz
Duration Time(s)  128
Dir.              6
Scale Factor      3920(gal)/6170801
Max. Acc. (gal)   1.000
Last Correction   2025/01/13 21:20:10
Memo.             
[...]
  -45363   -45274   -45161   -45050   -44964   -44899   -44835   -44780 
  -44770   -44806   -44857   -44915   -44977   -45027   -45051   -45039 
  -44998   -44958   -44937   -44922   -44899   -44864   -44826   -44807 
  -44828   -44883   -44951   -45022   -45097   -45172   -45244   -45315 
  -45369   -45401   -45405   -45366   -45292   -45198   -45091   -44991 
  -44932   -44924   -44943   -44972   -45001   -45004   -44972   -44924 
  -44879   -44858   -44865   -44885   -44916   -44975   -45065   -45183 
  -45329   -45478   -45598   -45680   -45721   -45710   -45655   -45569 
  -45448   -45303   -45157   -45019   -44892   -44781   -44693   -44640 
  -44621   -44631   -44679   -44774   -44899   -45019   -45111   -45170 
  -45205   -45247   -45305   -45343   -45342   -45321   -45299   -45287 
  -45281   -45265   -45224   -45165   -45101   -45039   -44987   -44952 
  -44923   -44880   -44822   -44754   -44685   -44638   -44628   -44642 
  -44661   -44687   -44727   -44782   -44846   -44907   -44949   -44967 
  -44975   -44985   -44999   -45011   -45016   -45014   -45011   -45004 
  -44987   -44966   -44943   -44909   -44870   -44843   -44840   -44854 
  -44875   -44898   -44924   -44950   -44971   -44981   -44983   -44979 
  -44972   -44971   -44969   -44963   -44964   -44976   -44985   -44987 
  -44983   -44979   -44978   -44979   -44982   -44993   -45014   -45044 
  -45073   -45097   -45120   -45136   -45146   -45151   -45144   -45133 
  -45148   -45198   -45248   -45268   -45262   -45249   -45243   -45234 
  -45207   -45178   -45160   -45148   -45149   -45163   -45177   -45194 
  -45214   -45235   -45254   -45272   -45286   -45299   -45302   -45273 
  -45203   -45110   -45018   -44940   -44892   -44889   -44918   -44958 
  -44997   -45032   -45048   -45032   -44991   -44939   -44875   -44807 
  -44752   -44729   -44740   -44767   -44797   -44829   -44862   -44896 
  -44936   -44981   -45019   -45043   -45062   -45067   -45053   -45027 
  -45000   -44974   -44948   -44913   -44867   -44817   -44783   -44792 
  -44851   -44930   -44995   -45036   -45054   -45052   -45050   -45054 
  -45038   -44986   -44918   -44851   -44800   -44777   -44778   -44780 
  -44782   -44790   -44795   -44797   -44804   -44794   -44746   -44681 
  -44632   -44604   -44588   -44588   -44610   -44661   -44741   -44836 
  -44939   -45042   -45136   -45207   -45250   -45272   -45285   -45300 
  -45314   -45305   -45277   -45268   -45286   -45303   -45318   -45351 
  -45412   -45495   -45582   -45648   -45688   -45709   -45701   -45658 
  -45581   -45462   -45313   -45177   -45089   -45046   -45036   -45045 
  -45056   -45055   -45040   -45020   -45003   -44989   -44981   -44988 
  -45006   -45021   -45024   -45030   -45052   -45088   -45113   -45107 
  -45080   -45056   -45035   -45017   -45011   -45010   -45002   -44986 
  -44950   -44903   -44865   -44833   -44802   -44773   -44732   -44680 
  -44628   -44582   -44549   -44540   -44555   -44590   -44645   -44716 
  -44805   -44919   -45043   -45154   -45231   -45261   -45250   -45216 
  -45170   -45118   -45058   -44988   -44907   -44828   -44766   -44730 
  -44738   -44796   -44887   -44980   -45058   -45115   -45147   -45136 
  -45080   -44991   -44883   -44768   -44672   -44618   -44613   -44638 
  -44672   -44710   -44756   -44794   -44808   -44800   -44782   -44775 
  -44789   -44812   -44845   -44894   -44955   -45034   -45135   -45240 
  -45334   -45407   -45445   -45438   -45394   -45341   -45292   -45235 
  -45167   -45097   -45036   -44996   -44992   -45019   -45058   -45086 
  -45101   -45110   -45106   -45078   -45035   -45000   -44981   -44984 
  -45009   -45039   -45069   -45112   -45172   -45236   -45305   -45377 
  -45430   -45450   -45439   -45409   -45364   -45307   -45244   -45175 
  -45101   -45042   -45015   -45019   -45045   -45082   -45118   -45145 
  -45154   -45135   -45091   -45052   -45023   -44991   -44965   -44965 
  -45000   -45064   -45141   -45218   -45287   -45347   -45384   -45368 
  -45291   -45167   -45005   -44819   -44644   -44507   -44416   -44379 
  -44397   -44460   -44556   -44673   -44812   -44968   -45100   -45180 
  -45225   -45252   -45257   -45245   -45245   -45272   -45320   -45378 
  -45435   -45486   -45522   -45529   -45506   -45456   -45369   -45238 
  -45091   -44959   -44850   -44766   -44709   -44684   -44710   -44794 
  -44926   -45082   -45229   -45341   -45416   -45468   -45491   -45473 
  -45423   -45363   -45299   -45241   -45212   -45213   -45235   -45271 
  -45301   -45301   -45261   -45185   -45085   -44970   -44844   -44716 
  -44589   -44467   -44368   -44307   -44280   -44273   -44281   -44310 
  -44370   -44455   -44559   -44684   -44814   -44919   -44998   -45068 
  -45127   -45162   -45170   -45151   -45100   -45020   -44927   -44829 
  -44722   -44615   -44524   -44465   -44450   -44474   -44517   -44571 
  -44635   -44708   -44791   -44880   -44956   -45005   -45028   -45039 
  -45052   -45075   -45108   -45153   -45214   -45280   -45337   -45376 
  -45402   -45422   -45426   -45399   -45346   -45283   -45224   -45187 
  -45178   -45185   -45183   -45155   -45126   -45129   -45176   -45265 
  -45372   -45452   -45481   -45454   -45385   -45300   -45217   -45140 
  -45062   -44980   -44904   -44856   -44848   -44871   -44910   -44949 
  -44973   -44962   -44895   -44775   -44642   -44542   -44482   -44452 
  -44450   -44474   -44512   -44560   -44611   -44649   -44659   -44635 
  -44585   -44515   -44433   -44363   -44332   -44342   -44364   -44377 
  -44376   -44356   -44329   -44317   -44325   -44344   -44368   -44396 
  -44417   -44405   -44364   -44316   -44262   -44187   -44097   -44010 
  -43938   -43889   -43867   -43884   -43942   -44036   -44148   -44259 
  -44375   -44505   -44634   -44747   -44848   -44936   -45016   -45094 
  -45165   -45236   -45307   -45353   -45375   -45376   -45336   -45259 
  -45174   -45088   -45005   -44937   -44895   -44888   -44923   -44988 
  -45064   -45149   -45246   -45344   -45415   -45453   -45469   -45468 
  -45456   -45440   -45420   -45392   -45343   -45269   -45211   -45196 
  -45215   -45264   -45337   -45408   -45460   -45494   -45526   -45571 
  -45621   -45661   -45690   -45715   -45740   -45761   -45775   -45786 
  -45790   -45784   -45771   -45753   -45737   -45727   -45729   -45745 
  -45758   -45762   -45759   -45732   -45680   -45619   -45559   -45509 
  -45468   -45414   -45349   -45294   -45243   -45173   -45080   -44983 
  -44902   -44847   -44814   -44799   -44810   -44858   -44933   -45014 
  -45074   -45082   -45025   -44907   -44746   -44568   -44399   -44251 
  -44122   -44034   -44004   -44017   -44056   -44120   -44192   -44245 
  -44273   -44282   -44275   -44264   -44264   -44280   -44307   -44341 
  -44379   -44418   -44456   -44492   -44514   -44508   -44482   -44460 
  -44451   -44457   -44481   -44525   -44576   -44623   -44659   -44693 
  -44745   -44815   -44883   -44945   -45002   -45052   -45080   -45075 
  -45044   -44989   -44899   -44767   -44609   -44442   -44275   -44119 
  -43992   -43921   -43923   -43991   -44115   -44284   -44474   -44656 
  -44830   -45007   -45165   -45278   -45346   -45375   -45368   -45342 
  -45314   -45285   -45257   -45244   -45261   -45312   -45379   -45429 
  -45439   -45416   -45374   -45322   -45264   -45222   -45213   -45231 
  -45269   -45332   -45409   -45489   -45567   -45640   -45710   -45780 
  -45852   -45916   -45958   -45975   -45966   -45928   -45861   -45775 
  -45690   -45622   -45578   -45552   -45536   -45524   -45504   -45464 
  -45409   -45357   -45324   -45302   -45283   -45279   -45302   -45355 
  -45429   -45505   -45565   -45593   -45583   -45537   -45461   -45371 
  -45272   -45175   -45102   -45053   -45010   -44969   -44941   -44934 
  -44933   -44923   -44903   -44890   -44900   -44918   -44932   -44951 
  -44980   -45005   -45015   -45013   -44996   -44982   -45008   -45075 
  -45163   -45258   -45344   -45401   -45436   -45459   -45457   -45420 
  -45366   -45313   -45271   -45245   -45234   -45246   -45282   -45316 
  -45338   -45355   -45354   -45332   -45303   -45255   -45177   -45069 
  -44942   -44818   -44712   -44627   -44558   -44506   -44485   -44502 
  -44554   -44631   -44706   -44754   -44778   -44787   -44782   -44756 
  -44703   -44627   -44542   -44481   -44463   -44477   -44512   -44566 
  -44642   -44739   -44842   -44928   -44981   -44984   -44931   -44831 
  -44708   -44598   -44522   -44481   -44476   -44499   -44549   -44628 
  -44721   -44824   -44933   -45033   -45120   -45196   -45259   -45306 
  -45337   -45355   -45368   -45375   -45370   -45366   -45386   -45435 
  -45499   -45572   -45646   -45709   -45748   -45752   -45728   -45690 
  -45645   -45607   -45583   -45567   -45565   -45584   -45621   -45678 
  -45744   -45786   -45780   -45736   -45678   -45601   -45501   -45395 
  -45290   -45183   -45088   -45027   -45000   -45001   -45017   -45030 
  -45038   -45046   -45048   -45043   -45036   -45023   -44994   -44961 
  -44947   -44957   -44978   -44999   -45008   -44994   -44980   -44978 
  -44982   -44987   -44990   -44972   -44924   -44858   -44791   -44735 
  -44695   -44667   -44651   -44660   -44700   -44769   -44852   -44936 
  -45011   -45069   -45103   -45114   -45113   -45104   -45093   -45065 
  -45002   -44917   -44824   -44719   -44606   -44517   -44474   -44480 
  -44523   -44594   -44685   -44788   -44896   -45000   -45087   -45146 
  -45172   -45162   -45113   -45030   -44930   -44820   -44701   -44582 
  -44474   -44387   -44323   -44295   -44317   -44388   -44486   -44586 
  -44665   -44705   -44700   -44662   -44618   -44589   -44582   -44589 
  -44610   -44656   -44713   -44760   -44802   -44840   -44862   -44872 
  -44878   -44881   -44875   -44860   -44844   -44826   -44791   -44730 
  -44655   -44590   -44549   -44533   -44544   -44585   -44644   -44708 
  -44776   -44835   -44876   -44898   -44906   -44918   -44943   -44972 
  -45003   -45041   -45092   -45162   -45230   -45277   -45310   -45344 
  -45389   -45444   -45488   -45508   -45513   -45516   -45526   -45543 
  -45552   -45538   -45506   -45473   -45459   -45460   -45467   -45486 
  -45507   -45512   -45500   -45483   -45461   -45425   -45377   -45331 
  -45289   -45248   -45213   -45195   -45192   -45188   -45185   -45192 
  -45202   -45202   -45189   -45165   -45135   -45095   -45040   -44982 
  -44936   -44896   -44861   -44842   -44835   -44827   -44817   -44801 
  -44780   -44762   -44743   -44717   -44694   -44683   -44683   -44700 
  -44753   -44837   -44934   -45034   -45123   -45178   -45200   -45219 
  -45237   -45243   -45238   -45220   -45189   -45152   -45111   -45064 
  -45026   -45005   -44998   -44994   -44987   -44984   -44993   -45014 
  -45037   -45069   -45114   -45159   -45195   -45235   -45288   -45347 
  -45400   -45435   -45452   -45462   -45472   -45475   -45467   -45453 
  -45426   -45385   -45345   -45310   -45266   -45212   -45153   -45094 
  -45049   -45016   -44982   -44947   -44910   -44865   -44819   -44785 
  -44781   -44816   -44877   -44950   -45031   -45109   -45178   -45237 
  -45280   -45306   -45302   -45256   -45182   -45091   -44977   -44858 
  -44756   -44670   -44596   -44534   -44488   -44462   -44455   -44461 
  -44470   -44474   -44462   -44430   -44377   -44316   -44268   -44233 
  -44194   -44140   -44069   -43995   -43926   -43866   -43830   -43829 
  -43854   -43906   -43979   -44043   -44085   -44119   -44151   -44183 
  -44210   -44228   -44247   -44280   -44324   -44369   -44417   -44478 
  -44551   -44620   -44678   -44716   -44720   -44697   -44678   -44677 
  -44680   -44667   -44642   -44623   -44622   -44632   -44644   -44646 
  -44637   -44625   -44616   -44618   -44630   -44654   -44692   -44741 
  -44789   -44829   -44858   -44882   -44904   -44925   -44943   -44948 
  -44937   -44918   -44898   -44883   -44863   -44833   -44804   -44790 
  -44792   -44809   -44840   -44874   -44904   -44934   -44964   -44992 
  -45011   -45007   -44975   -44927   -44884   -44848   -44816   -44787 
  -44764   -44768   -44811   -44886   -44984   -45103   -45230   -45331 
  -45385   -45405   -45395   -45349   -45281   -45195   -45096   -45004 
  -44927   -44867   -44834   -44827   -44839   -44858   -44877   -44891 
  -44895   -44887   -44867   -44847   -44829   -44804   -44765   -44728 
  -44712   -44731   -44791   -44876   -44978   -45101   -45231   -45352 
  -45454   -45520   -45551   -45558   -45548   -45532   -45520   -45517 
  -45525   -45553   -45598   -45652   -45710   -45768   -45806   -45816 
  -45801   -45764   -45716   -45668   -45637   -45633   -45655   -45700 
  -45755   -45802   -45838   -45864   -45872   -45858   -45822   -45769 
  -45706   -45633   -45550   -45469   -45399   -45345   -45304   -45264 
  -45220   -45181   -45157   -45154   -45157   -45149   -45130   -45112 
  -45081   -45032   -44984   -44950   -44917   -44881   -44846   -44814 
  -44797   -44806   -44833   -44877   -44947   -45044   -45157   -45280 
  -45395   -45484   -45542   -45565   -45556   -45537   -45510   -45478 
  -45448   -45418   -45386   -45370   -45381   -45417   -45482   -45572 
  -45658   -45726   -45778   -45799   -45781   -45734   -45661   -45565 
  -45456   -45340   -45225   -45123   -45037   -44966   -44908   -44861 
  -44827   -44810   -44805   -44806   -44804   -44797   -44797   -44804 
  -44812   -44817   -44810   -44792   -44780   -44775   -44756   -44705 
  -44613   -44483   -44335   -44188   -44038   -43886   -43745   -43625 
  -43533   -43467   -43432   -43435   -43477   -43560   -43680   -43826 
  -43984   -44136   -44276   -44409   -44544   -44681   -44806   -44918 
  -45021   -45101   -45154   -45198   -45249   -45312   -45383   -45453 
  -45507   -45538   -45554   -45557   -45542   -45522   -45505   -45484 
  -45453   -45407   -45345   -45281   -45219   -45163   -45121   -45094 
  -45088   -45109   -45151   -45198   -45252   -45313   -45354   -45364 
  -45346   -45297   -45233   -45176   -45121   -45068   -45019   -44979 
  -44946   -44927   -44928   -44944   -44965   -44988   -44998   -44979 
  -44925   -44839   -44746   -44665   -44592   -44523   -44465   -44428 
  -44412   -44411   -44423   -44439   -44459   -44482   -44511   -44552 
  -44609   -44683   -44773   -44865   -44952   -45040   -45128   -45213 
  -45304   -45400   -45485   -45548   -45591   -45623   -45643   -45642 
  -45610   -45544   -45459   -45377   -45298   -45216   -45130   -45045 
  -44978   -44937   -44920   -44919   -44922   -44920   -44897   -44858 
  -44821   -44795   -44772   -44751   -44742   -44749   -44767   -44788 
  -44809   -44828   -44830   -44810   -44777   -44741   -44703   -44658 
  -44602   -44545   -44495   -44459   -44438   -44432   -44443   -44463 
  -44481   -44493   -44504   -44519   -44549   -44593   -44639   -44682 
  -44716   -44736   -44748   -44757   -44765   -44773   -44783   -44793 
  -44798   -44800   -44798   -44792   -44790   -44805   -44836   -44877 
  -44926   -44990   -45071   -45160   -45239   -45302   -45347   -45378 
  -45399   -45412   -45428   -45451   -45474   -45487   -45477   -45448 
  -45427   -45424   -45434   -45458   -45498   -45560   -45641   -45727 
  -45808   -45885   -45960   -46027   -46084   -46142   -46204   -46257 
  -46295   -46313   -46308   -46271   -46197   -46095   -45977   -45843 
  -45695   -45536   -45375   -45219   -45075   -44953   -44865   -44817 
  -44803   -44817   -44860   -44927   -45005   -45084   -45150   -45188 
  -45193   -45171   -45125   -45054   -44968   -44878   -44792   -44717 
  -44649   -44593   -44550   -44522   -44511   -44517   -44531   -44544 
  -44553   -44563   -44588   -44621   -44650   -44669   -44674   -44670 
  -44664   -44643   -44595   -44535   -44483   -44455   -44450   -44465 
  -44493   -44533   -44581   -44635   -44700   -44763   -44804   -44830 
  -44848   -44859   -44864   -44869   -44868   -44857   -44840   -44821 
  -44801   -44786   -44772   -44751   -44730   -44720   -44733   -44762 
  -44791   -44818   -44850   -44889   -44926   -44952   -44967   -44985 
  -45003   -45004   -44988   -44965   -44927   -44874   -44823   -44780 
  -44735   -44692   -44651   -44606   -44570   -44566   -44591   -44636 
  -44690   -44745   -44797   -44849   -44888   -44897   -44882   -44853 
  -44807   -44742   -44673   -44619   -44581   -44559   -44555   -44573 
  -44611   -44658   -44699   -44736   -44781   -44837   -44892   -44933 
  -44955   -44961   -44960   -44952   -44939   -44941   -44965   -44997 
  -45036   -45097   -45177   -45266   -45354   -45429   -45490   -45545 
  -45596   -45639   -45673   -45702   -45726   -45737   -45730   -45716 
  -45705   -45697   -45687   -45677   -45675   -45682   -45692   -45699 
  -45702   -45695   -45676   -45654   -45640   -45630   -45631   -45646 
  -45657   -45655   -45646   -45629   -45606   -45575   -45534   -45497 
  -45468   -45436   -45394   -45346   -45292   -45239   -45191   -45141 
  -45089   -45038   -44974   -44904   -44845   -44804   -44784   -44778 
  -44778   -44783   -44795   -44813   -44842   -44872   -44892   -44908 
  -44927   -44945   -44965   -44992   -45023   -45055   -45075   -45079 
  -45077   -45074   -45067   -45068   -45063   -45035   -44993   -44959 
  -44932   -44903   -44868   -44830   -44790   -44749   -44723   -44722 
  -44739   -44763   -44792   -44821   -44842   -44853   -44860   -44867 
  -44871   -44862   -44841   -44815   -44784   -44752   -44726   -44704 
  -44683   -44668   -44661   -44660   -44670   -44691   -44723   -44765 
  -44825   -44896   -44970   -45044   -45110   -45166   -45213   -45252 
  -45288   -45325   -45357   -45371   -45360   -45322   -45265   -45205 
  -45143   -45080   -45020   -44959   -44901   -44856   -44826   -44804 
  -44790   -44778   -44765   -44759   -44765   -44774   -44787   -44807 
  -44825   -44833   -44843   -44850   -44846   -44833   -44811   -44786 
  -44759   -44732   -44714   -44722   -44757   -44810   -44871   -44924 
  -44955   -44968   -44968   -44956   -44927   -44891   -44858   -44833 
  -44823   -44829   -44842   -44861   -44889   -44913   -44926   -44932 
  -44930   -44926   -44918   -44902   -44886   -44874   -44861   -44854 
  -44863   -44889   -44932   -44983   -45033   -45079   -45125   -45175 
  -45223   -45262   -45296   -45326   -45345   -45347   -45327   -45279 
  -45213   -45139   -45059   -44971   -44881   -44796   -44707   -44619 
  -44548   -44491   -44448   -44430   -44437   -44464   -44508   -44560 
  -44609   -44657   -44706   -44745   -44768   -44790   -44819   -44851 
  -44891   -44924   -44940   -44950   -44958   -44956   -44938   -44911 
  -44885   -44863   -44842   -44824   -44818   -44827   -44854   -44890 
  -44923   -44952   -44976   -44987   -44990   -44990   -44985   -44983 
  -44988   -45002   -45032   -45082   -45144   -45212   -45284   -45363 
  -45453   -45541   -45609   -45660   -45689   -45687   -45669   -45652 
  -45642   -45639   -45645   -45652   -45659   -45670   -45685   -45694 
  -45687   -45655   -45609   -45558   -45504   -45460   -45432   -45411 
  -45394   -45382   -45370   -45361   -45357   -45357   -45362   -45364 
  -45351   -45328   -45308   -45295   -45278   -45253   -45222   -45187 
  -45155   -45127   -45094   -45051   -45008   -44960   -44908   -44869 
  -44847   -44834   -44841   -44870   -44906   -44945   -44990   -45041 
  -45096   -45156   -45215   -45259   -45288   -45312   -45333   -45357 
