Origin Time       2025/01/13 21:19:00
Lat.              31.8
Long.             131.6
Depth. (km)       30
Mag.              6.9
Station Code      YMGH16
Station Lat.      33.8260
Station Long.     132.1040
Station Height(m) 65
Record Time       2025/01/13 21:20:12
Sampling Freq(Hz) 100Hz
Duration Time(s)  145
Dir.              4
Scale Factor      3920(gal)/6170801
Max. Acc. (gal)   2.878
Last Correction   2025/01/13 21:19:57
Memo.             
[...]
    8904     9048     9165     9282     9404     9481     9429     9247 
    9002     8737     8490     8287     8136     8062     8112     8290 
    8582     8947     9283     9525     9686     9805     9913     9971 
    9898     9688     9426     9200     9028     8856     8647     8417 
    8237     8177     8247     8429     8692     8983     9285     9611 
    9939    10204    10322    10274    10126     9903     9584     9191 
    8807     8539     8446     8484     8596     8758     8929     9074 
    9227     9394     9503     9545     9595     9700     9820     9880 
    9897     9949    10053    10132    10107    10030    10008    10035 
   10014     9890     9712     9518     9283     9004     8721     8468 
    8236     7977     7714     7556     7554     7635     7677     7658 
    7663     7730     7858     8032     8214     8396     8579     8781 
    9008     9190     9266     9253     9201     9156     9123     9076 
    8989     8867     8756     8739     8894     9196     9499     9669 
    9696     9668     9641     9600     9519     9395     9266     9162 
    9094     9071     9091     9124     9112     9050     8988     8918 
    8800     8604     8355     8157     8071     8088     8201     8365 
    8537     8680     8747     8746     8737     8797     8915     8991 
    8999     8995     9018     9094     9233     9437     9704    10001 
   10243    10362    10368    10292    10177    10058     9916     9752 
    9578     9365     9132     8960     8891     8877     8867     8890 
    9002     9223     9480     9652     9716     9718     9660     9521 
    9288     9001     8737     8533     8395     8329     8333     8384 
    8444     8536     8713     8963     9213     9425     9621     9837 
   10030    10081     9943     9675     9360     9045     8723     8420 
    8251     8322     8595     8909     9120     9213     9249     9247 
    9183     9051     8929     8910     8965     9016     9019     8937 
    8786     8658     8621     8683     8803     8879     8866     8871 
    8967     9073     9104     9079     9097     9237     9442     9563 
    9537     9450     9384     9316     9187     8976     8711     8489 
    8412     8524     8783     9039     9173     9224     9290     9399 
    9460     9385     9228     9114     9104     9127     9075     8950 
    8838     8820     8904     9052     9212     9303     9256     9086 
    8874     8677     8502     8352     8249     8221     8257     8336 
    8483     8745     9109     9481     9744     9875     9951    10006 
    9990     9845     9572     9235     8917     8677     8541     8489 
    8502     8576     8688     8807     8926     9060     9212     9378 
    9542     9651     9651     9528     9302     9051     8854     8744 
    8722     8794     8966     9211     9466     9641     9688     9634 
    9532     9441     9385     9326     9225     9073     8901     8822 
    8903     9071     9217     9297     9339     9384     9368     9216 
    8963     8700     8490     8358     8319     8409     8611     8835 
    9043     9263     9488     9628     9574     9338     9071     8902 
    8819     8746     8677     8676     8749     8853     8955     9036 
    9040     8904     8670     8474     8375     8291     8149     8029 
    8079     8312     8612     8860     9037     9203     9333     9335 
    9210     9046     8925     8867     8825     8781     8774     8845 
    8998     9198     9364     9404     9336     9292     9381     9574 
    9728     9754     9710     9707     9776     9845     9796     9599 
    9351     9191     9176     9209     9164     9024     8841     8687 
    8605     8587     8628     8733     8909     9140     9395     9630 
    9751     9694     9530     9380     9310     9299     9270     9197 
    9144     9173     9238     9249     9187     9143     9218     9378 
    9532     9613     9568     9404     9200     9044     8963     8891 
    8788     8705     8729     8904     9160     9350     9427     9471 
    9546     9626     9682     9702     9653     9528     9351     9143 
    8946     8811     8788     8907     9147     9452     9761    10027 
   10215    10326    10377    10337    10158     9829     9394     8962 
    8623     8353     8103     7919     7897     8052     8265     8419 
    8539     8713     8963     9208     9344     9358     9326     9277 
    9182     9024     8785     8480     8208     8055     8045     8146 
    8297     8475     8695     8949     9211     9428     9556     9645 
    9757     9905    10064    10191    10262    10266    10214    10120 
    9953     9691     9376     9064     8811     8668     8652     8773 
    9023     9359     9739    10073    10231    10170     9921     9591 
    9321     9128     8926     8683     8461     8340     8313     8318 
    8331     8358     8406     8474     8568     8713     8889     9069 
    9274     9488     9663     9733     9626     9402     9183     9002 
    8850     8710     8574     8509     8564     8751     9045     9322 
    9475     9518     9518     9511     9425     9171     8814     8551 
    8515     8651     8809     8902     8972     9112     9349     9651 
    9947    10131    10160    10098     9997     9809     9462     8995 
    8566     8291     8161     8134     8207     8382     8633     8892 
    9134     9386     9617     9749     9740     9642     9533     9374 
    9098     8761     8487     8361     8395     8573     8886     9301 
    9769    10205    10475    10524    10432    10286    10121     9925 
    9658     9329     8992     8705     8478     8277     8081     7902 
    7768     7736     7847     8063     8303     8488     8604     8688 
    8742     8739     8680     8598     8583     8720     8957     9174 
    9290     9294     9237     9153     9045     8908     8759     8669 
    8657     8627     8468     8145     7745     7400     7208     7217 
    7416     7758     8177     8612     9057     9537    10038    10459 
   10679    10692    10625    10571    10471    10237     9871     9439 
    9045     8748     8538     8441     8501     8711     9044     9435 
    9767     9977    10042     9898     9546     9051     8491     7998 
    7608     7250     6954     6803     6819     6975     7202     7463 
    7784     8147     8500     8847     9203     9595    10051    10539 
   11019    11407    11544    11385    11043    10615    10114     9517 
    8889     8361     7989     7780     7781     7995     8340     8712 
    9046     9323     9538     9632     9532     9284     9033     8835 
    8620     8329     8000     7743     7635     7703     7956     8368 
    8873     9389     9858    10238    10461    10450    10177     9704 
    9188     8757     8459     8304     8264     8302     8408     8575 
    8819     9162     9541     9878    10122    10212    10126     9895 
    9590     9341     9271     9402     9635     9873    10121    10391 
   10596    10621    10434    10109     9750     9411     9087     8770 
    8483     8259     8131     8136     8267     8459     8655     8836 
    9008     9183     9363     9519     9651     9807     9981    10103 
   10102     9931     9600     9201     8858     8647     8553     8519 
    8523     8595     8753     8948     9145     9376     9670     9989 
   10231    10287    10123     9799     9380     8951     8632     8472 
    8425     8436     8490     8591     8736     8925     9126     9290 
    9392     9412     9352     9246     9103     8938     8777     8646 
    8548     8457     8369     8321     8335     8387     8429     8456 
    8502     8543     8525     8461     8392     8345     8323     8296 
    8269     8308     8446     8645     8851     9020     9124     9174 
    9213     9253     9283     9294     9326     9461     9691     9917 
   10078    10206    10359    10528    10635    10608    10450    10234 
    9991     9735     9501     9287     9088     8915     8774     8675 
    8593     8515     8472     8482     8560     8739     8996     9231 
    9372     9420     9446     9511     9533     9363     9022     8719 
    8639     8779     9005     9210     9362     9503     9665     9828 
    9985    10107    10153    10131    10070     9998     9889     9703 
    9489     9311     9180     9059     8895     8663     8402     8188 
    8071     8016     7971     7918     7846     7750     7664     7673 
    7856     8182     8556     8906     9185     9370     9458     9425 
    9280     9075     8826     8567     8404     8433     8645     8920 
    9156     9370     9623     9901    10107    10165    10107    10021 
    9934     9805     9595     9312     8988     8684     8500     8483 
    8603     8803     9041     9309     9611     9918    10201    10479 
   10756    10976    11065    11002    10830    10609    10324     9919 
    9419     8962     8690     8624     8674     8761     8854     8943 
    9007     9000     8936     8872     8856     8901     8992     9093 
    9163     9211     9277     9357     9426     9497     9604     9755 
    9884     9889     9737     9483     9190     8881     8576     8313 
    8135     8090     8188     8353     8461     8463     8395     8297 
    8199     8096     7971     7869     7836     7873     7962     8101 
    8331     8659     9036     9413     9725     9929    10018     9988 
    9874     9720     9539     9358     9196     9043     8927     8897 
    8987     9233     9623    10069    10483    10807    11030    11195 
   11289    11226    10945    10513    10077     9712     9380     9016 
    8677     8580     8835     9293     9689     9855     9812     9671 
    9460     9158     8774     8360     8012     7812     7764     7800 
    7847     7905     8031     8271     8611     8973     9256     9411 
    9451     9407     9313     9211     9103     8977     8889     8873 
    8912     9003     9126     9228     9277     9272     9165     8894 
    8479     7991     7500     7062     6702     6415     6208     6100 
    6096     6161     6250     6352     6505     6744     7034     7276 
    7407     7467     7563     7752     7973     8130     8193     8164 
    8046     7845     7583     7337     7182     7137     7197     7331 
    7517     7752     8008     8282     8577     8818     8955     9066 
    9268     9607     9991    10246    10313    10293    10271    10198 
    9982     9614     9206     8906     8778     8756     8731     8683 
    8682     8765     8892     8998     9035     9000     8903     8733 
    8516     8314     8142     7999     7898     7895     8032     8261 
    8517     8759     8978     9208     9461     9729    10003    10214 
   10281    10182     9926     9552     9132     8781     8623     8650 
    8709     8697     8668     8755     8999     9290     9517     9685 
    9864    10044    10120    10028     9815     9605     9507     9557 
    9736     9995    10267    10501    10720    10981    11263    11465 
   11482    11288    10981    10705    10511    10363    10240    10161 
   10177    10317    10520    10731    10953    11170    11315    11312 
   11132    10819    10455    10106     9826     9623     9488     9415 
    9370     9353     9411     9531     9642     9694     9667     9571 
    9435     9261     9076     8962     8975     9111     9318     9527 
    9708     9865     9999    10052     9945     9642     9228     8878 
    8710     8753     8956     9166     9264     9243     9134     8977 
    8775     8493     8151     7815     7559     7424     7398     7511 
    7820     8315     8906     9449     9860    10151    10324    10377 
   10373    10355    10306    10143     9778     9245     8709     8291 
    8002     7799     7700     7774     8017     8348     8697     9011 
    9284     9565     9915    10331    10711    10946    11040    11065 
   11049    10921    10653    10304     9896     9418     8867     8292 
    7836     7572     7421     7309     7237     7266     7481     7883 
    8388     8908     9362     9678     9815     9804     9714     9633 
    9642     9732     9816     9819     9747     9650     9576     9572 
    9636     9704     9725     9701     9660     9631     9640     9695 
    9798     9957    10186    10498    10854    11161    11365    11503 
   11595    11565    11328    10890    10357     9865     9431     8973 
    8514     8177     8024     8030     8142     8338     8621     8954 
    9287     9606     9881    10056    10114    10073     9951     9751 
    9452     9052     8600     8170     7800     7491     7246     7075 
    7014     7116     7404     7845     8337     8756     9036     9167 
    9177     9078     8817     8360     7767     7169     6678     6345 
    6184     6158     6229     6440     6867     7538     8371     9180 
    9793    10151    10287    10283    10221    10145    10062     9988 
    9959     9966     9950     9886     9807     9785     9848     9918 
    9894     9779     9644     9539     9496     9532     9679     9967 
   10336    10673    10895    10971    10913    10717    10402    10031 
    9622     9128     8516     7818     7115     6469     5888     5380 
    4967     4701     4630     4755     5031     5390     5736     5993 
    6174     6405     6806     7361     7911     8241     8276     8124 
    7921     7737     7565     7385     7229     7159     7200     7324 
    7441     7459     7366     7251     7207     7224     7222     7166 
    7118     7156     7269     7446     7755     8229     8801     9328 
    9694     9919    10084    10212    10296    10368    10515    10809 
   11226    11712    12243    12773    13232    13540    13621    13420 
   12920    12183    11373    10647    10085     9713     9547     9611 
    9881    10229    10500    10618    10559    10296     9834     9235 
    8588     7983     7492     7156     7032     7163     7519     8007 
    8514     9007     9514    10003    10383    10575    10593    10532 
   10471    10400    10251     9996     9667     9316     9008     8802 
    8738     8836     9074     9398     9703     9871     9846     9641 
    9316     8961     8633     8351     8113     7905     7721     7567 
    7481     7496     7621     7892     8310     8802     9285     9718 
   10105    10474    10796    11033    11196    11267    11192    10973 
   10682    10403    10186    10013     9834     9665     9555     9496 
    9449     9372     9255     9119     8930     8645     8337     8087 
    7907     7800     7805     7996     8383     8825     9137     9207 
    9011     8593     8025     7433     6968     6708     6642     6761 
    7099     7680     8435     9215     9920    10532    11055    11465 
   11689    11690    11514    11254    10979    10697    10398    10116 
    9914     9844     9958    10224    10518    10750    10901    11002 
   11088    11135    11123    11066    10964    10792    10492    10040 
    9532     9102     8815     8661     8603     8611     8648     8662 
    8601     8464     8287     8115     7997     7911     7758     7461 
    7038     6609     6309     6183     6191     6283     6448     6683 
    6972     7321     7753     8264     8810     9315     9715     9968 
   10057    10005     9873     9725     9555     9329     9119     9052 
    9196     9519     9947    10450    11014    11584    12106    12553 
   12892    13084    13111    12971    12688    12285    11749    11103 
   10454     9928     9567     9289     8996     8704     8516     8478 
    8488     8385     8119     7785     7515     7382     7367     7384 
    7375     7372     7410     7476     7550     7575     7493     7313 
    7121     7031     7069     7192     7369     7565     7766     7982 
    8185     8310     8328     8268     8177     8071     7947     7841 
    7834     7993     8324     8799     9361     9940    10511    11055 
   11467    11654    11642    11540    11432    11306    11111    10841 
   10531    10180     9760     9310     8904     8556     8245     7973 
    7780     7695     7680     7664     7592     7467     7316     7123 
    6872     6619     6473     6513     6722     7057     7521     8099 
    8715     9263     9660     9884     9984    10032    10064    10070 
   10052    10058    10128    10246    10363    10394    10299    10156 
   10044     9967     9894     9817     9772     9783     9833     9896 
    9952    10024    10138    10262    10381    10502    10602    10617 
   10435    10026     9513     9019     8570     8172     7881     7784 
    7901     8120     8304     8432     8564     8711     8818     8807 
    8680     8519     8356     8182     7971     7727     7528     7439 
    7451     7507     7524     7475     7433     7481     7608     7766 
    7975     8270     8622     8954     9198     9312     9287     9151 
    8963     8793     8680     8640     8713     8916     9208     9545 
    9852    10059    10151    10149    10109    10053     9954     9764 
    9449     9055     8664     8376     8267     8309     8436     8561 
    8593     8543     8473     8414     8396     8469     8638     8814 
    8883     8780     8548     8335     8208     8113     8043     8053 
    8166     8345     8547     8780     9082     9440     9776    10007 
   10098    10053     9894     9640     9290     8849     8373     7949 
    7605     7305     7030     6811     6713     6779     6985     7297 
    7714     8226     8792     9347     9852    10313    10728    11061 
   11329    11613    11909    12098    12100    11948    11745    11569 
   11420    11284    11201    11216    11280    11291    11237    11170 
   11137    11154    11227    11351    11493    11588    11591    11496 
   11312    11036    10611    10002     9327     8702     8115     7540 
    7070     6894     7131     7688     8366     9020     9592    10074 
   10450    10683    10776    10760    10641    10396    10015     9537 
    9017     8530     8146     7916     7880     8019     8224     8420 
    8638     8913     9205     9435     9541     9499     9310     9004 
    8666     8371     8123     7900     7699     7580     7610     7773 
    8005     8271     8572     8918     9257     9462     9461     9288 
    9031     8766     8528     8325     8162     8054     8018     8046 
    8115     8221     8368     8555     8756     8956     9174     9412 
    9633     9801     9914     9992    10057    10092    10069    10002 
    9876     9652     9356     9014     8636     8231     7826     7471 
    7188     6997     6934     7011     7208     7459     7702     7941 
    8195     8457     8686     8840     8946     9044     9118     9137 
    9093     9053     9099     9215     9345     9492     9667     9836 
    9960    10009     9975     9912     9863     9815     9759     9693 
    9614     9506     9359     9184     8999     8834     8708     8597 
    8472     8349     8287     8302     8330     8311     8258     8246 
    8295     8354     8404     8458     8566     8731     8852     8906 
    8976     9104     9215     9185     8983     8600     8015     7288 
    6528     5842     5312     4962     4800     4868     5190     5723 
    6400     7160     7952     8767     9592    10367    11013    11476 
   11745    11817    11717    11493    11132    10642    10121     9675 
    9378     9222     9158     9173     9249     9362     9515     9676 
    9797     9814     9658     9335     8946     8598     8367     8266 
    8239     8257     8341     8496     8728     9038     9382     9708 
