Origin Time       2025/01/13 21:19:00
Lat.              31.8
Long.             131.6
Depth. (km)       30
Mag.              6.9
Station Code      YMGH04
Station Lat.      34.0270
Station Long.     132.0626
Station Height(m) 175
Record Time       2025/01/13 21:20:17
Sampling Freq(Hz) 100Hz
Duration Time(s)  137
Dir.              4
Scale Factor      7845(gal)/8223790
Max. Acc. (gal)   1.870
Last Correction   2025/01/13 21:20:00
Memo.             
[...]
     959      904      868      865      862      843      827      831 
     849      847      784      685      630      602      545      513 
     526      526      549      615      639      635      664      695 
     718      764      810      827      835      861      891      897 
     905      951     1009     1047     1066     1057     1020     1012 
    1038     1057     1069     1088     1092     1094     1131     1178 
    1212     1239     1247     1213     1177     1169     1159     1134 
    1116     1100     1077     1065     1039     1000      986      963 
     901      839      783      712      650      626      603      556 
     526      507      475      479      530      561      546      523 
     533      581      650      716      777      841      912      967 
     993     1003     1009     1026     1057     1081     1081     1046 
     985      936      897      864      839      792      733      700 
     687      693      707      675      629      649      700      720 
     760      823      838      838      868      854      780      737 
     758      795      812      787      710      641      631      650 
     680      720      724      726      780      793      733      691 
     689      693      706      710      687      680      700      722 
     768      834      865      908      985     1003     1001     1065 
    1132     1173     1224     1228     1163     1090     1011      908 
     834      783      699      626      592      522      438      448 
     518      562      608      687      776      868      965     1062 
    1132     1169     1210     1240     1201     1139     1107     1048 
     969      905      824      758      787      853      904      993 
    1084     1129     1188     1242     1239     1229     1231     1196 
    1156     1140     1100     1058     1042      988      897      845 
     808      743      673      606      556      546      556      588 
     669      749      797      824      826      805      787      778 
     774      764      751      733      704      715      776      812 
     793      737      675      623      598      602      603      611 
     683      781      855      932     1011     1036     1032     1054 
    1067     1027      967      918      877      865      881      878 
     841      789      758      758      769      774      789      816 
     847      882      926      977     1007      976      912      868 
     820      750      722      733      716      723      795      827 
     828      893      962      970      982     1030     1082     1146 
    1205     1239     1274     1323     1332     1285     1221     1166 
    1128     1139     1166     1132     1073     1047      997      919 
     903      939      954      935      915      901      874      862 
     903      943      947      962      973      943      922      934 
     938      932      940      940      918      865      770      661 
     571      511      487      481      479      491      542      631 
     742      841      911      950      972     1005     1035     1040 
    1057     1094     1125     1167     1221     1240     1219     1170 
    1097     1021      932      814      703      602      499      427 
     373      317      301      318      324      338      386      454 
     525      588      638      673      703      716      707      693 
     680      656      629      602      561      506      438      372 
     340      344      332      313      371      495      600      703 
     853     1001     1127     1237     1278     1247     1237     1271 
    1289     1244     1165     1119     1112     1115     1140     1174 
    1189     1210     1243     1263     1271     1252     1213     1181 
    1119     1005      882      777      687      642      637      615 
     608      645      664      660      657      594      483      409 
     368      346      364      382      384      434      537      642 
     753      874      989     1088     1171     1221     1240     1262 
    1290     1313     1350     1401     1421     1394     1335     1254 
    1166     1088     1005      919      842      769      703      676 
     664      611      557      571      618      643      654      633 
     568      540      587      633      654      707      788      858 
     958     1097     1190     1219     1263     1325     1348     1348 
    1333     1274     1209     1170     1120     1044      976      913 
     831      780      791      769      685      631      603      542 
     508      542      584      622      692      773      819      853 
     888      893      866      834      823      826      816      820 
     854      873      895      943      977      999     1050     1115 
    1178     1235     1259     1254     1242     1236     1231     1212 
    1192     1174     1124     1055      992      899      783      719 
     695      670      673      699      708      710      716      719 
     718      720      727      727      716      706      699      688 
     650      598      560      521      444      369      336      313 
     284      272      256      213      187      213      252      301 
     387      483      557      637      719      785      873      980 
    1055     1125     1190     1179     1112     1032      903      741 
     623      540      456      417      464      575      675      729 
     783      849      889      897      877      841      808      796 
     811      815      788      777      789      795      828      897 
     940      994     1090     1170     1246     1354     1432     1470 
    1529     1580     1583     1555     1470     1335     1210     1109 
    1021      966      924      861      811      795      765      743 
     777      796      753      724      715      670      630      638 
     661      704      785      849      849      814      791      808 
     864      912      958     1044     1111     1112     1127     1127 
    1038      974      976      918      868      915      939      939 
    1013     1093     1108     1119     1124     1080     1030     1000 
     946      892      864      819      768      760      766      778 
     824      874      913      966     1007      997      965      957 
     970      997     1030     1055     1074     1104     1150     1198 
    1232     1250     1262     1296     1358     1417     1476     1559 
    1614     1611     1606     1607     1584     1578     1586     1530 
    1463     1479     1518     1507     1493     1451     1329     1205 
    1088      915      753      652      545      426      357      344 
     386      483      594      702      818      932     1043     1128 
    1154     1155     1178     1201     1183     1134     1093     1066 
    1039     1042     1055     1003      916      864      797      722 
     684      637      568      531      479      367      283      265 
     268      291      342      413      514      641      754      845 
     935     1000     1031     1092     1173     1213     1239     1227 
    1115      958      812      646      480      375      326      284 
     237      194      157      153      182      229      303      383 
     446      518      569      569      575      595      596      614 
     661      700      742      769      745      731      774      799 
     799      805      781      756      768      749      693      656 
     612      560      526      473      392      363      395      432 
     514      673      869     1102     1344     1509     1637     1765 
    1807     1765     1714     1614     1441     1267     1105      961 
     893      881      886      954     1071     1162     1247     1329 
    1363     1378     1372     1324     1309     1344     1367     1402 
    1436     1383     1283     1171      984      784      656      522 
     376      295      252      209      186      163      137      156 
     187      195      228      271      294      334      369      378 
     419      496      567      652      738      773      769      753 
     702      621      549      503      460      427      456      519 
     527      507      508      495      483      535      589      600 
     623      635      608      615      662      679      677      687 
     692      714      776      855      936     1031     1127     1212 
    1300     1383     1456     1528     1580     1583     1556     1557 
    1594     1625     1655     1695     1722     1749     1777     1736 
    1633     1548     1453     1308     1178     1055      881      707 
     568      437      334      264      201      166      191      253 
     307      329      315      309      313      279      221      194 
     199      218      225      191      136      114      148      194 
     211      243      318      375      398      418      425      446 
     521      606      668      726      828      980     1108     1198 
    1308     1414     1482     1568     1667     1699     1687     1687 
    1657     1591     1547     1498     1426     1378     1341     1274 
    1171     1054      932      814      723      673      626      553 
     464      352      247      193      180      186      220      261 
     284      313      356      390      441      546      654      738 
     837      916      943      978     1021     1032     1058     1124 
    1194     1254     1296     1312     1328     1368     1404     1405 
    1405     1431     1445     1437     1426     1421     1422     1435 
    1458     1483     1539     1648     1738     1760     1777     1804 
    1769     1684     1610     1530     1417     1310     1247     1204 
    1163     1144     1154     1175     1213     1277     1363     1448 
    1501     1530     1534     1505     1494     1514     1502     1482 
    1498     1494     1474     1452     1352     1217     1150     1105 
    1043     1012     1004      969      903      795      639      479 
     310      103     -101     -256     -384     -502     -596     -657 
    -672     -638     -545     -396     -255     -143      -28       71 
     145      225      315      405      502      589      622      588 
     545      507      441      378      341      314      313      321 
     292      275      325      395      448      522      583      600 
     645      695      684      693      756      785      799      827 
     837      865      958     1063     1152     1260     1390     1524 
    1653     1756     1823     1854     1831     1755     1657     1567 
    1494     1431     1355     1275     1228     1220     1219     1202 
    1208     1290     1412     1514     1607     1680     1699     1684 
    1655     1617     1607     1615     1572     1490     1421     1377 
    1362     1372     1370     1364     1413     1513     1582     1571 
    1516     1466     1421     1385     1359     1305     1215     1111 
     976      832      719      596      456      351      244      124 
      63       24      -35      -56      -49      -58      -41      -17 
     -28      -41      -58      -62       21      172      314      454 
     592      688      741      741      703      692      692      660 
     603      511      394      319      286      209      109       62 
      35      -35     -110     -167     -221     -211      -91       90 
     264      427      610      785      927     1073     1223     1335 
    1435     1553     1651     1721     1798     1854     1895     1945 
    1977     1972     1953     1935     1937     1942     1911     1872 
    1852     1813     1788     1818     1807     1729     1660     1599 
    1509     1408     1309     1209     1134     1086     1035      981 
     947      915      853      778      703      634      614      596 
     531      494      508      533      594      677      703      692 
     714      757      778      773      762      764      795      857 
     899      886      882      913      943      947      919      866 
     816      778      718      603      490      437      410      398 
     418      429      434      491      579      643      664      656 
     645      626      595      541      444      340      264      184 
      67      -86     -270     -440     -544     -584     -596     -592 
    -561     -476     -346     -216      -74      106      309      503 
     677      795      838      862      886      880      872      885 
     900      945     1026     1111     1188     1240     1264     1278 
    1274     1277     1313     1336     1336     1344     1345     1360 
    1412     1455     1480     1499     1497     1493     1516     1543 
    1551     1563     1602     1630     1614     1582     1541     1462 
    1352     1228     1100     1000      926      823      675      535 
     453      409      380      368      352      353      398      417 
     392      392      411      422      460      498      483      456 
     446      425      380      314      251      209      171      136 
     117       82       48       66       87       68       56       66 
      81       93       89       67       39       10        5        6 
      -6      -16       -6       18       95      210      313      429 
     558      660      746      819      861      940     1082     1204 
    1308     1431     1521     1560     1590     1590     1560     1586 
    1665     1723     1799     1919     2042     2180     2350     2496 
    2581     2651     2724     2767     2794     2825     2809     2740 
    2671     2585     2459     2340     2251     2170     2068     1941 
    1804     1664     1495     1308     1156     1046      957      882 
     808      739      691      654      622      584      537      529 
     562      557      511      495      518      548      575      591 
     587      575      573      572      554      556      588      594 
     577      612      656      660      666      653      610      595 
     580      529      517      548      540      488      434      372 
     309      267      243      237      249      255      230      186 
     145      128      117       83       32       29       93      151 
     210      334      473      591      743      895     1012     1124 
    1202     1229     1248     1256     1223     1159     1097     1065 
    1038      961      850      764      689      616      573      538 
     518      561      656      778      943     1116     1277     1439 
    1591     1699     1786     1890     1971     2012     2085     2173 
    2201     2199     2168     2064     1939     1799     1580     1341 
    1136      936      764      641      535      467      457      448 
     432      445      463      467      472      472      460      454 
     460      460      460      483      527      585      683      764 
     766      757      781      781      751      716      666      618 
     615      649      691      772      885     1007     1173     1348 
    1463     1555     1648     1721     1799     1872     1879     1834 
    1792     1745     1695     1665     1613     1528     1475     1408 
    1274     1158     1084     1003      955      972      997     1021 
    1067     1089     1085     1088     1053      976      897      776 
     604      450      318      189      105       62        5      -32 
     -22      -25      -25       22       78      130      230      341 
     419      481      515      514      519      537      565      589 
     579      575      619      641      600      558      523      490 
     477      452      384      329      295      237      164       98 
      39        1       -9       -6        0       18       59      122 
     218      349      486      599      700      803      893      963 
    1028     1071     1075     1088     1115     1115     1113     1115 
    1039      936      889      823      727      683      665      648 
     675      726      785      892     1019     1125     1244     1394 
    1552     1710     1822     1880     1945     1984     1945     1856 
    1740     1610     1489     1345     1171     1005      865      746 
     648      556      483      450      471      527      594      673 
     764      843      916      977     1015     1048     1088     1093 
    1067     1050     1023      939      814      664      499      364 
     253      125       44       31       13       17       79      135 
     187      292      378      407      479      584      661      749 
     849      918      992     1090     1159     1185     1185     1167 
    1148     1152     1161     1162     1173     1189     1212     1252 
    1285     1285     1270     1236     1163     1075      985      876 
     774      719      691      665      625      554      465      373 
     276      162       54      -28     -101     -153     -160     -135 
     -86       -1      121      255      379      502      623      745 
     873      990     1084     1159     1200     1209     1202     1177 
    1125     1027      885      747      625      523      444      382 
     353      364      417      530      675      810      935     1046 
    1136     1220     1277     1294     1262     1190     1128     1077 
    1011      965      912      816      746      715      681      676 
     697      723      780      855      923      999     1081     1158 
    1240     1313     1341     1341     1341     1325     1264     1201 
    1162     1121     1092     1080     1048     1026     1031      992 
     918      873      826      760      719      703      676      673 
     703      724      753      784      791      796      814      831 
     869      928      986     1043     1102     1148     1185     1215 
    1208     1190     1193     1183     1132     1063      982      885 
     773      634      464      292      170       90       -1      -95 
    -157     -198     -218     -189     -120       -9      182      434 
     692      936     1161     1360     1555     1728     1829     1881 
    1912     1903     1871     1849     1814     1777     1765     1738 
    1698     1660     1617     1572     1528     1466     1410     1385 
    1352     1282     1192     1097      985      854      722      583 
     426      284      184       97       18      -27      -55      -74 
     -82      -94     -112     -129     -145     -140     -118     -113 
    -105      -62      -24        6       63      128      189      259 
     326      386      450      526      610      684      731      768 
     820      874      893      888      888      885      880      885 
     880      861      869      913      965     1019     1071     1117 
    1155     1194     1254     1318     1344     1350     1386     1451 
    1498     1505     1509     1518     1514     1529     1560     1561 
    1571     1611     1640     1652     1657     1653     1665     1684 
    1684     1680     1664     1618     1576     1555     1521     1494 
    1506     1510     1503     1533     1582     1615     1621     1572 
    1493     1398     1281     1169     1054      927      837      764 
     687      656      654      642      643      661      668      681 
     708      742      811      905      981     1047     1136     1232 
    1316     1413     1503     1551     1579     1606     1620     1637 
