Origin Time       2025/01/13 21:19:00
Lat.              31.8
Long.             131.6
Depth. (km)       30
Mag.              6.9
Station Code      YMGH11
Station Lat.      34.2091
Station Long.     131.6859
Station Height(m) -80
Record Time       2025/01/13 21:20:18
Sampling Freq(Hz) 100Hz
Duration Time(s)  138
Dir.              1
Scale Factor      2942(gal)/8224139
Max. Acc. (gal)   1.254
Last Correction   2025/01/13 21:20:19
Memo.             
[...]
  288774   288814   288852   288890   288918   288944   288983   289037 
  289098   289159   289215   289253   289257   289232   289183   289113 
  289036   288964   288894   288819   288740   288661   288577   288501 
  288458   288446   288453   288465   288468   288459   288432   288370 
  288274   288161   288044   287929   287829   287751   287687   287637 
  287606   287601   287616   287639   287664   287691   287725   287760 
  287786   287801   287801   287791   287782   287772   287768   287772 
  287788   287821   287871   287942   288030   288122   288215   288300 
  288362   288397   288408   288400   288387   288381   288381   288380 
  288382   288395   288422   288459   288496   288527   288554   288563 
  288553   288535   288519   288496   288465   288436   288412   288384 
  288351   288318   288300   288301   288323   288360   288392   288414 
  288435   288458   288473   288482   288489   288496   288511   288534 
  288558   288580   288597   288613   288623   288628   288624   288615 
  288613   288615   288594   288559   288516   288468   288411   288350 
  288289   288237   288187   288129   288058   287986   287917   287864 
  287833   287815   287795   287770   287741   287706   287660   287604 
  287540   287479   287421   287359   287298   287257   287232   287224 
  287232   287266   287328   287402   287475   287543   287597   287644 
  287691   287730   287760   287788   287813   287838   287882   287946 
  288018   288087   288150   288195   288218   288231   288247   288272 
  288303   288339   288382   288422   288451   288477   288500   288515 
  288523   288535   288547   288554   288565   288574   288578   288578 
  288570   288550   288526   288497   288455   288397   288333   288266 
  288198   288146   288123   288118   288126   288144   288171   288204 
  288233   288256   288280   288304   288330   288355   288377   288397 
  288424   288465   288517   288588   288673   288750   288821   288891 
  288954   289008   289048   289076   289103   289136   289180   289240 
  289310   289383   289449   289499   289515   289496   289449   289376 
  289286   289184   289068   288937   288801   288665   288530   288408 
  288319   288261   288238   288239   288239   288246   288265   288279 
  288265   288225   288150   288056   287963   287876   287786   287698 
  287625   287562   287509   287473   287440   287412   287409   287425 
  287440   287458   287482   287506   287532   287555   287571   287578 
  287579   287575   287556   287517   287466   287408   287361   287328 
  287297   287274   287267   287274   287290   287315   287359   287433 
  287532   287640   287749   287848   287917   287963   287991   287998 
  287979   287948   287915   287891   287875   287871   287887   287919 
  287960   288015   288084   288157   288227   288281   288318   288338 
  288341   288331   288318   288312   288314   288307   288288   288266 
  288249   288250   288276   288315   288354   288392   288426   288458 
  288503   288562   288625   288690   288760   288840   288933   289035 
  289136   289225   289291   289332   289356   289369   289375   289372 
  289363   289345   289332   289327   289329   289332   289338   289348 
  289373   289414   289454   289483   289487   289458   289399   289313 
  289206   289086   288960   288831   288690   288542   288388   288227 
  288069   287919   287774   287637   287508   287388   287280   287182 
  287101   287037   286977   286915   286848   286789   286744   286708 
  286694   286702   286730   286788   286876   286981   287101   287232 
  287346   287433   287496   287537   287566   287602   287653   287712 
  287778   287851   287915   287964   288002   288026   288040   288053 
  288075   288095   288114   288127   288123   288104   288076   288045 
  288014   287986   287957   287922   287880   287825   287753   287674 
  287591   287523   287475   287436   287404   287390   287388   287398 
  287433   287481   287528   287574   287613   287651   287686   287720 
  287760   287803   287848   287892   287930   287969   288017   288063 
  288100   288127   288144   288154   288161   288160   288134   288087 
  288030   287961   287879   287797   287720   287663   287637   287647 
  287682   287729   287782   287829   287855   287859   287848   287826 
  287811   287811   287822   287851   287890   287932   287979   288038 
  288117   288214   288324   288438   288540   288630   288713   288786 
  288848   288895   288924   288933   288939   288963   289006   289053 
  289101   289141   289171   289191   289198   289183   289147   289109 
  289094   289099   289121   289152   289182   289203   289213   289201 
  289165   289120   289072   289030   288994   288958   288924   288904 
  288898   288894   288897   288913   288939   288978   289030   289089 
  289148   289206   289253   289290   289315   289323   289315   289298 
  289276   289251   289229   289217   289205   289191   289178   289147 
  289089   289010   288909   288792   288682   288592   288513   288442 
  288384   288345   288319   288304   288295   288289   288293   288299 
  288299   288297   288288   288280   288291   288316   288349   288382 
  288409   288420   288409   288365   288284   288193   288112   288058 
  288033   288029   288036   288049   288063   288080   288112   288171 
  288258   288381   288534   288704   288886   289068   289242   289414 
  289576   289722   289858   289965   290032   290077   290102   290110 
  290115   290124   290131   290135   290139   290140   290131   290112 
  290078   290020   289930   289811   289665   289516   289376   289245 
  289134   289056   288991   288921   288844   288765   288685   288616 
  288563   288522   288481   288438   288395   288361   288350   288354 
  288349   288331   288311   288285   288257   288230   288204   288171 
  288127   288085   288044   288006   287971   287946   287934   287930 
  287930   287915   287868   287801   287732   287660   287589   287517 
  287439   287361   287296   287248   287203   287150   287100   287049 
  286992   286930   286856   286777   286713   286673   286664   286677 
  286702   286722   286729   286723   286713   286692   286676   286669 
  286667   286668   286676   286687   286702   286726   286754   286783 
  286821   286880   286956   287042   287140   287251   287370   287486 
  287599   287705   287788   287847   287882   287895   287892   287884 
  287879   287886   287907   287938   287971   288002   288026   288037 
  288026   287998   287965   287942   287936   287950   287983   288029 
  288080   288127   288172   288222   288285   288370   288472   288570 
  288658   288725   288766   288797   288820   288821   288808   288786 
  288752   288708   288655   288604   288561   288524   288507   288513 
  288538   288565   288581   288584   288573   288549   288512   288480 
  288470   288482   288516   288581   288671   288760   288839   288890 
  288901   288891   288874   288848   288825   288812   288802   288802 
  288812   288827   288844   288870   288900   288931   288966   289008 
  289053   289099   289136   289157   289161   289140   289089   289017 
  288936   288858   288794   288738   288679   288617   288553   288489 
  288436   288396   288365   288334   288291   288231   288153   288056 
  287950   287841   287730   287625   287532   287452   287397   287370 
  287350   287328   287323   287338   287375   287443   287524   287590 
  287635   287655   287655   287639   287602   287550   287483   287410 
  287344   287280   287211   287146   287093   287051   287014   286976 
  286937   286892   286848   286816   286799   286796   286811   286829 
  286845   286876   286922   286976   287043   287116   287185   287254 
  287335   287437   287562   287697   287832   287948   288044   288119 
  288185   288247   288311   288376   288442   288505   288566   288616 
  288651   288673   288684   288694   288708   288731   288759   288783 
  288797   288797   288789   288775   288766   288766   288771   288781 
  288789   288805   288829   288859   288904   288960   289021   289083 
  289147   289214   289283   289337   289371   289383   289363   289311 
  289252   289207   289184   289176   289171   289163   289152   289134 
  289097   289055   289020   288979   288925   288875   288829   288782 
  288740   288702   288659   288620   288585   288559   288542   288526 
  288509   288500   288499   288520   288562   288612   288666   288716 
  288755   288782   288782   288744   288675   288588   288490   288405 
  288338   288284   288253   288242   288233   288229   288225   288215 
  288206   288193   288176   288144   288081   287983   287851   287698 
  287545   287400   287269   287180   287130   287109   287126   287162 
  287207   287255   287312   287373   287436   287516   287620   287726 
  287821   287914   288013   288107   288202   288297   288391   288476 
  288558   288642   288729   288808   288874   288922   288945   288939 
  288895   288817   288723   288619   288517   288419   288319   288223 
  288141   288069   288002   287945   287903   287861   287820   287784 
  287753   287722   287695   287666   287641   287624   287606   287594 
  287587   287593   287608   287620   287625   287629   287635   287640 
  287649   287663   287676   287694   287714   287737   287764   287799 
  287856   287933   288026   288126   288225   288312   288391   288466 
  288540   288607   288674   288747   288829   288918   289020   289118 
  289203   289290   289380   289473   289580   289695   289809   289932 
  290059   290185   290304   290409   290488   290534   290553   290552 
  290538   290533   290532   290525   290520   290515   290502   290480 
  290453   290410   290371   290352   290337   290314   290282   290231 
  290148   290025   289866   289678   289469   289263   289057   288850 
  288642   288426   288208   288010   287820   287632   287451   287269 
  287089   286915   286741   286563   286383   286210   286038   285866 
  285711   285580   285466   285357   285259   285174   285102   285055 
  285037   285053   285088   285130   285184   285252   285336   285439 
  285562   285707   285877   286060   286262   286470   286677   286900 
  287123   287335   287544   287740   287923   288111   288300   288468 
  288621   288770   288904   289032   289170   289309   289442   289566 
  289669   289746   289801   289838   289863   289878   289882   289884 
  289885   289878   289859   289830   289776   289701   289631   289573 
  289514   289454   289410   289369   289307   289219   289117   288995 
  288870   288750   288632   288520   288419   288324   288238   288157 
  288073   287987   287903   287817   287739   287678   287618   287570 
  287540   287501   287463   287431   287388   287355   287321   287281 
  287248   287208   287169   287135   287103   287082   287069   287074 
  287105   287163   287247   287346   287447   287545   287631   287699 
  287748   287780   287802   287805   287786   287761   287739   287714 
  287703   287710   287721   287722   287721   287714   287698   287695 
  287705   287722   287768   287841   287933   288025   288102   288154 
  288168   288148   288110   288061   288019   288004   288021   288065 
  288135   288220   288315   288424   288539   288662   288805   288970 
  289132   289268   289384   289468   289518   289553   289577   289615 
  289669   289732   289811   289889   289954   289996   290009   289988 
  289921   289816   289681   289531   289379   289225   289071   288925 
  288790   288662   288528   288389   288254   288139   288046   287973 
  287925   287894   287875   287867   287865   287863   287868   287884 
  287902   287918   287929   287937   287960   288007   288083   288187 
  288312   288446   288577   288706   288836   288963   289078   289171 
  289251   289321   289387   289462   289518   289554   289602   289623 
  289627   289629   289599   289554   289499   289422   289323   289205 
  289067   288916   288758   288605   288454   288311   288181   288061 
  287950   287861   287783   287713   287663   287632   287617   287609 
  287602   287591   287570   287540   287502   287451   287394   287344 
  287296   287251   287227   287220   287215   287207   287192   287186 
  287196   287208   287234   287282   287344   287408   287459   287496 
  287505   287490   287464   287424   287366   287297   287231   287172 
  287119   287080   287062   287051   287038   287028   287020   287004 
  286991   286992   287004   287023   287055   287103   287159   287217 
  287266   287305   287334   287352   287366   287369   287361   287344 
  287317   287296   287284   287285   287307   287344   287401   287482 
  287572   287667   287778   287895   288007   288117   288223   288330 
  288434   288532   288628   288723   288806   288875   288944   289013 
  289078   289149   289238   289341   289453   289570   289678   289780 
  289869   289942   290000   290024   290031   290019   289967   289909 
  289840   289746   289656   289564   289468   289379   289287   289210 
  289143   289072   289013   288972   288956   288970   288998   289036 
  289086   289140   289201   289267   289330   289384   289440   289498 
  289554   289597   289620   289622   289600   289552   289477   289380 
  289267   289147   289026   288905   288786   288662   288535   288400 
  288257   288114   287971   287826   287686   287547   287406   287258 
  287097   286920   286730   286529   286330   286150   285977   285820 
  285677   285533   285395   285261   285129   285021   284929   284847 
  284794   284760   284751   284771   284809   284867   284955   285074 
  285230   285408   285604   285831   286085   286368   286695   287050 
  287416   287797   288187   288577   288962   289333   289689   290034 
  290349   290628   290868   291069   291236   291378   291487   291566 
  291613   291624   291610   291583   291548   291517   291494   291485 
  291493   291505   291516   291535   291543   291527   291494   291439 
  291358   291257   291136   290996   290834   290652   290453   290235 
  290000   289755   289484   289197   288920   288616   288296   287991 
  287671   287366   287089   286829   286602   286394   286206   286043 
  285885   285731   285581   285433   285287   285159   285052   284964 
  284904   284878   284883   284924   284999   285115   285271   285452 
  285653   285874   286112   286363   286625   286888   287143   287382 
  287613   287841   288050   288262   288480   288686   288893   289095 
  289295   289489   289673   289851   290017   290155   290268   290348 
  290397   290422   290425   290405   290371   290325   290264   290197 
  290115   290015   289900   289770   289616   289435   289238   289028 
  288810   288585   288353   288141   287942   287749   287579   287423 
  287277   287158   287055   286976   286915   286862   286819   286779 
  286737   286702   286691   286707   286756   286831   286930   287042 
  287158   287270   287369   287447   287508   287560   287605   287639 
  287660   287660   287639   287609   287583   287564   287559   287570 
  287598   287629   287670   287729   287798   287872   287940   287998 
  288045   288072   288080   288071   288042   288013   287990   287961 
  287928   287894   287856   287820   287794   287780   287776   287779 
  287780   287788   287801   287824   287856   287888   287926   287964 
  287988   288010   288021   288021   288015   288009   288004   287995 
  287977   287955   287923   287892   287865   287842   287822   287805 
  287788   287774   287757   287749   287761   287793   287836   287896 
  287971   288044   288112   288185   288264   288347   288435   288539 
  288651   288765   288883   289010   289147   289291   289442   289589 
  289735   289884   290028   290164   290293   290414   290521   290615 
  290699   290765   290810   290830   290833   290827   290808   290764 
  290691   290587   290440   290264   290069   289846   289626   289403 
  289171   288952   288740   288532   288334   288137   287944   287761 
  287587   287417   287255   287096   286933   286771   286607   286445 
  286299   286171   286060   285977   285925   285907   285916   285952 
  286011   286087   286183   286286   286393   286509   286621   286715 
  286806   286891   286965   287041   287118   287186   287255   287323 
  287385   287442   287491   287525   287563   287616   287675   287741 
  287813   287884   287950   288006   288056   288091   288098   288095 
  288088   288068   288044   288019   287995   287973   287950   287936 
  287938   287959   287998   288053   288125   288219   288322   288424 
  288536   288655   288779   288902   289003   289075   289113   289118 
  289095   289044   288963   288855   288729   288589   288439   288289 
  288138   287998   287874   287767   287687   287635   287604   287602 
  287617   287628   287635   287640   287640   287637   287644   287664 
  287699   287748   287813   287876   287929   287976   288017   288042 
  288061   288075   288081   288095   288117   288142   288168   288193 
  288219   288252   288297   288361   288439   288536   288655   288785 
  288909   289025   289124   289198   289257   289300   289323   289327 
  289322   289314   289306   289299   289284   289259   289232   289201 
  289167   289138   289116   289094   289064   289022   288974   288917 
  288843   288755   288655   288538   288411   288281   288144   287995 
  287844   287697   287548   287405   287278   287173   287085   287010 
  286946   286889   286843   286821   286815   286823   286852   286895 
  286938   286981   287023   287070   287135   287213   287294   287382 
  287493   287614   287744   287901   288061   288226   288399   288555 
  288701   288837   288966   289089   289198   289302   289410   289515 
  289616   289715   289801   289881   289966   290043   290113   290185 
  290248   290305   290363   290421   290467   290503   290538   290569 
  290601   290632   290664   290698   290740   290784   290829   290877 
  290925   290953   290970   290980   290972   290952   290927   290900 
  290869   290835   290798   290754   290709   290660   290607   290545 
  290474   290405   290329   290237   290156   290067   289950   289845 
  289719   289569   289426   289256   289075   288887   288681   288476 
  288268   288054   287841   287633   287439   287261   287097   286951 
  286811   286672   286549   286444   286362   286302   286263   286245 
  286248   286259   286286   286324   286362   286409   286457   286494 
  286536   286587   286627   286673   286730   286776   286823   286872 
  286916   286964   287011   287062   287119   287176   287234   287288 
  287336   287371   287385   287378   287359   287329   287284   287231 
  287167   287089   287012   286939   286860   286784   286714   286648 
  286587   286534   286491   286465   286449   286436   286441   286468 
  286507   286551   286598   286644   286688   286735   286794   286858 
  286935   287020   287105   287188   287269   287348   287423   287494 
  287567   287640   287707   287771   287833   287886   287928   287961 
  287986   288007   288036   288068   288110   288165   288234   288318 
  288414   288511   288605   288686   288743   288786   288829   288878 
  288936   289008   289083   289161   289245   289334   289433   289533 
  289638   289746   289843   289928   290013   290100   290183   290260 
  290312   290339   290347   290322   290271   290213   290146   290061 
