Origin Time       2025/01/13 21:19:00
Lat.              31.8
Long.             131.6
Depth. (km)       30
Mag.              6.9
Station Code      YMGH09
Station Lat.      34.6257
Station Long.     131.6681
Station Height(m) -90
Record Time       2025/01/13 21:20:26
Sampling Freq(Hz) 100Hz
Duration Time(s)  140
Dir.              2
Scale Factor      2942(gal)/8224139
Max. Acc. (gal)   1.196
Last Correction   2025/01/13 21:20:28
Memo.             
[...]
  128625   128617   128603   128594   128594   128602   128618   128640 
  128653   128657   128657   128652   128642   128629   128618   128606 
  128578   128536   128497   128457   128409   128363   128332   128304 
  128264   128227   128200   128183   128181   128191   128208   128231 
  128270   128314   128353   128394   128432   128461   128484   128498 
  128506   128507   128498   128482   128464   128437   128402   128362 
  128310   128252   128200   128148   128093   128029   127953   127876 
  127809   127750   127696   127653   127626   127606   127581   127549 
  127508   127475   127454   127440   127433   127437   127454   127483 
  127516   127560   127618   127680   127737   127778   127809   127835 
  127845   127834   127801   127755   127708   127660   127611   127570 
  127539   127523   127516   127511   127508   127515   127531   127552 
  127569   127581   127588   127595   127595   127579   127556   127534 
  127511   127485   127467   127457   127452   127449   127450   127449 
  127450   127452   127454   127467   127475   127473   127464   127450 
  127431   127414   127398   127381   127365   127346   127326   127303 
  127288   127287   127290   127295   127314   127342   127373   127410 
  127460   127519   127579   127650   127734   127818   127894   127970 
  128043   128096   128132   128175   128220   128258   128298   128347 
  128401   128457   128517   128579   128645   128711   128779   128842 
  128900   128952   128993   129024   129051   129084   129123   129155 
  129166   129158   129143   129130   129114   129092   129077   129064 
  129051   129038   129015   128977   128939   128904   128864   128815 
  128765   128717   128667   128628   128603   128580   128551   128517 
  128475   128433   128403   128393   128386   128383   128393   128402 
  128403   128403   128402   128401   128402   128405   128413   128432 
  128455   128467   128460   128440   128414   128394   128382   128370 
  128371   128391   128412   128422   128433   128433   128422   128409 
  128383   128345   128310   128283   128252   128209   128160   128115 
  128065   128017   127975   127934   127904   127888   127881   127882 
  127885   127878   127858   127834   127808   127789   127785   127786 
  127785   127785   127791   127799   127796   127785   127774   127753 
  127715   127674   127633   127592   127560   127533   127514   127507 
  127507   127506   127495   127476   127454   127430   127403   127377 
  127356   127345   127338   127341   127357   127376   127400   127434 
  127471   127507   127534   127552   127562   127566   127568   127580 
  127610   127651   127701   127757   127809   127857   127904   127947 
  127990   128040   128090   128144   128205   128279   128356   128424 
  128486   128538   128582   128622   128652   128664   128664   128650 
  128618   128578   128540   128509   128486   128472   128471   128475 
  128474   128479   128505   128532   128565   128607   128644   128672 
  128695   128709   128713   128713   128703   128682   128652   128611 
  128556   128490   128410   128322   128231   128132   128042   127966 
  127901   127847   127811   127786   127764   127743   127719   127683 
  127643   127608   127573   127541   127510   127472   127431   127388 
  127340   127278   127202   127118   127033   126952   126883   126833 
  126797   126770   126758   126751   126744   126736   126723   126708 
  126693   126673   126652   126634   126624   126631   126655   126689 
  126727   126778   126850   126943   127055   127183   127322   127461 
  127597   127737   127874   127996   128101   128208   128312   128402 
  128478   128547   128614   128673   128723   128771   128808   128833 
  128839   128829   128815   128798   128768   128740   128715   128686 
  128652   128621   128586   128541   128498   128463   128433   128416 
  128410   128406   128402   128403   128405   128398   128393   128397 
  128412   128440   128476   128522   128568   128603   128632   128660 
  128686   128703   128715   128729   128745   128767   128790   128803 
  128808   128810   128807   128800   128794   128796   128799   128795 
  128785   128773   128761   128744   128725   128706   128676   128633 
  128590   128534   128449   128352   128252   128143   128023   127897 
  127784   127676   127575   127492   127429   127380   127345   127325 
  127327   127342   127363   127390   127430   127481   127545   127619 
  127700   127788   127880   127974   128067   128159   128255   128348 
  128428   128507   128596   128677   128748   128815   128883   128945 
  129001   129068   129128   129178   129231   129289   129346   129394 
  129431   129465   129489   129483   129469   129458   129436   129400 
  129357   129321   129296   129266   129230   129197   129173   129158 
  129149   129138   129116   129088   129064   129042   129014   128989 
  128976   128969   128969   128973   128985   128999   129006   129006 
  128996   128965   128931   128906   128884   128868   128854   128835 
  128804   128769   128736   128692   128633   128565   128490   128406 
  128314   128214   128115   128028   127959   127903   127855   127816 
  127773   127718   127651   127579   127494   127403   127317   127226 
  127126   127018   126917   126829   126751   126684   126636   126601 
  126582   126581   126589   126605   126630   126659   126694   126735 
  126775   126816   126862   126904   126944   126981   127003   127012 
  127010   127001   126987   126982   126983   126986   126985   126990 
  127012   127040   127075   127132   127214   127307   127406   127508 
  127612   127705   127781   127845   127890   127919   127938   127948 
  127940   127907   127859   127808   127753   127685   127611   127546 
  127496   127450   127407   127369   127340   127319   127303   127284 
  127267   127257   127240   127218   127205   127190   127171   127153 
  127133   127110   127083   127055   127030   127012   127001   126999 
  127008   127024   127045   127074   127110   127140   127163   127186 
  127209   127233   127272   127325   127383   127441   127506   127585 
  127670   127743   127808   127867   127919   127974   128025   128069 
  128116   128169   128216   128258   128295   128335   128368   128390 
  128405   128421   128439   128457   128479   128494   128506   128520 
  128537   128552   128564   128575   128579   128569   128552   128533 
  128506   128472   128444   128421   128389   128347   128297   128241 
  128190   128143   128097   128059   128028   128004   127984   127966 
  127947   127921   127896   127877   127859   127853   127874   127920 
  127969   128024   128079   128123   128154   128182   128210   128237 
  128267   128306   128356   128403   128436   128457   128470   128471 
  128468   128466   128456   128440   128428   128418   128397   128370 
  128351   128339   128332   128333   128339   128347   128362   128379 
  128394   128414   128430   128428   128416   128406   128383   128358 
  128351   128351   128349   128355   128366   128371   128368   128359 
  128353   128358   128363   128371   128397   128425   128443   128455 
  128456   128447   128443   128440   128425   128406   128394   128389 
  128380   128371   128364   128355   128344   128335   128333   128335 
  128339   128356   128374   128372   128359   128336   128304   128263 
  128221   128185   128148   128098   128046   127993   127934   127872 
  127818   127768   127730   127707   127692   127685   127685   127687 
  127692   127705   127730   127764   127801   127846   127893   127938 
  127977   128007   128023   128023   128008   127984   127957   127920 
  127886   127854   127812   127761   127710   127666   127633   127612 
  127602   127602   127615   127629   127631   127629   127619   127596 
  127564   127534   127504   127472   127444   127422   127407   127398 
  127377   127345   127317   127300   127299   127306   127309   127307 
  127299   127279   127268   127273   127279   127292   127317   127344 
  127371   127394   127407   127427   127456   127492   127543   127606 
  127677   127758   127843   127936   128031   128123   128229   128347 
  128449   128530   128598   128641   128653   128649   128637   128615 
  128588   128557   128521   128484   128456   128436   128416   128403 
  128406   128424   128451   128490   128541   128602   128663   128718 
  128773   128833   128885   128929   128973   129020   129057   129091 
  129124   129151   129166   129172   129172   129166   129154   129139 
  129134   129127   129112   129101   129095   129085   129068   129049 
  129027   128989   128938   128879   128822   128765   128710   128664 
  128633   128611   128602   128603   128601   128598   128602   128594 
  128578   128561   128533   128505   128493   128486   128486   128491 
  128490   128478   128466   128463   128474   128494   128515   128541 
  128572   128586   128587   128586   128584   128584   128588   128594 
  128606   128621   128625   128619   128609   128595   128578   128561 
  128552   128542   128530   128517   128495   128459   128413   128367 
  128313   128259   128213   128164   128110   128058   128007   127951 
  127894   127839   127774   127707   127639   127573   127503   127433 
  127369   127299   127219   127141   127063   126985   126916   126840 
  126760   126693   126630   126555   126474   126395   126318   126237 
  126162   126104   126057   126022   126006   126002   126003   126010 
  126022   126037   126060   126096   126157   126246   126347   126457 
  126576   126697   126813   126916   127003   127087   127170   127245 
  127313   127377   127438   127494   127539   127580   127626   127688 
  127761   127838   127913   127992   128085   128183   128275   128374 
  128475   128557   128619   128656   128656   128626   128582   128528 
  128470   128401   128318   128228   128131   128025   127904   127770 
  127633   127502   127380   127267   127152   127036   126914   126792 
  126681   126582   126489   126409   126350   126299   126250   126210 
  126173   126142   126125   126119   126129   126162   126225   126304 
  126401   126522   126651   126774   126889   127005   127125   127241 
  127352   127461   127554   127627   127689   127739   127785   127834 
  127878   127917   127955   127985   128009   128035   128065   128102 
  128142   128178   128208   128236   128266   128301   128347   128406 
  128464   128521   128576   128626   128665   128692   128706   128710 
  128715   128726   128737   128750   128760   128761   128754   128740 
  128722   128707   128696   128698   128718   128754   128806   128862 
  128923   128996   129074   129149   129220   129290   129361   129435 
  129508   129579   129654   129725   129791   129845   129887   129922 
  129952   129971   129984   129996   129996   129984   129965   129948 
  129933   129924   129915   129905   129886   129859   129830   129805 
  129776   129741   129702   129658   129597   129523   129443   129358 
  129271   129192   129114   129030   128949   128868   128785   128699 
  128615   128542   128480   128434   128407   128386   128370   128371 
  128386   128403   128421   128441   128476   128524   128574   128621 
  128667   128713   128750   128777   128800   128823   128845   128860 
  128864   128856   128838   128814   128787   128756   128718   128676 
  128633   128590   128548   128501   128444   128376   128298   128208 
  128112   128017   127930   127851   127784   127726   127664   127604 
  127556   127511   127467   127425   127387   127357   127336   127314 
  127290   127276   127271   127265   127255   127236   127219   127203 
  127184   127174   127170   127165   127167   127168   127172   127188 
  127206   127222   127251   127280   127310   127341   127371   127396 
  127419   127435   127444   127449   127465   127477   127472   127460 
  127446   127427   127414   127402   127390   127387   127390   127394 
  127398   127404   127418   127429   127441   127457   127476   127498 
  127515   127525   127533   127542   127545   127539   127535   127543 
  127561   127585   127611   127643   127684   127720   127753   127795 
  127845   127904   127969   128032   128105   128181   128240   128283 
  128320   128343   128353   128362   128362   128355   128352   128358 
  128360   128352   128333   128313   128286   128254   128229   128208 
  128198   128193   128177   128155   128143   128132   128115   128100 
  128093   128089   128086   128097   128115   128127   128144   128170 
  128189   128201   128210   128220   128227   128223   128220   128223 
  128216   128212   128223   128233   128243   128256   128290   128336 
  128371   128407   128460   128525   128601   128682   128765   128848 
  128926   129003   129062   129103   129141   129169   129182   129186 
  129176   129154   129124   129074   129020   128977   128927   128868 
  128810   128756   128704   128649   128586   128529   128484   128447 
  128413   128387   128371   128362   128360   128363   128367   128368 
  128370   128366   128360   128366   128378   128399   128434   128478 
  128530   128594   128665   128746   128830   128920   129018   129109 
  129201   129294   129378   129450   129519   129581   129631   129664 
  129682   129683   129667   129637   129600   129550   129482   129401 
  129321   129242   129149   129046   128938   128814   128668   128505 
  128324   128123   127908   127684   127449   127211   126972   126735 
  126505   126287   126081   125891   125716   125555   125412   125282 
  125165   125065   124978   124900   124829   124769   124734   124730 
  124758   124819   124906   125018   125158   125319   125497   125686 
  125876   126072   126274   126478   126681   126885   127091   127295 
  127489   127680   127869   128044   128206   128356   128486   128591 
  128673   128733   128771   128791   128803   128807   128800   128790 
  128784   128781   128775   128758   128738   128719   128702   128677 
  128648   128621   128596   128568   128536   128499   128456   128410 
  128370   128336   128309   128293   128279   128266   128260   128264 
  128267   128264   128256   128248   128244   128237   128235   128244 
  128254   128266   128287   128305   128308   128302   128287   128254 
  128214   128170   128120   128059   127989   127920   127855   127792 
  127724   127661   127596   127519   127444   127372   127298   127224 
  127152   127080   127005   126932   126864   126797   126733   126678 
  126620   126561   126508   126468   126438   126415   126397   126382 
  126374   126376   126385   126401   126419   126445   126485   126532 
  126581   126647   126731   126823   126924   127030   127136   127244 
  127357   127477   127596   127708   127818   127923   128011   128092 
  128178   128259   128331   128398   128456   128503   128540   128567 
  128598   128625   128640   128652   128667   128679   128690   128691 
  128682   128669   128660   128645   128632   128625   128615   128607 
  128602   128587   128578   128582   128595   128622   128655   128688 
  128730   128771   128810   128861   128922   128981   129038   129093 
  129153   129216   129271   129316   129351   129369   129377   129384 
  129394   129421   129467   129519   129571   129629   129686   129732 
  129770   129802   129825   129845   129863   129871   129865   129855 
  129845   129830   129803   129764   129717   129667   129617   129567 
  129517   129463   129401   129327   129240   129147   129047   128937 
  128823   128709   128588   128466   128343   128218   128092   127969 
  127845   127719   127610   127521   127440   127377   127329   127286 
  127248   127221   127207   127210   127222   127249   127288   127329 
  127367   127407   127444   127475   127507   127535   127543   127535 
  127525   127504   127481   127461   127434   127398   127363   127322 
  127276   127229   127187   127148   127102   127059   127022   126991 
  126967   126945   126929   126927   126918   126900   126885   126868 
  126844   126824   126798   126769   126755   126748   126736   126735 
  126740   126751   126785   126836   126898   126982   127075   127168 
  127272   127388   127515   127657   127812   127973   128132   128294 
  128453   128607   128753   128892   129033   129176   129316   129455 
  129590   129714   129832   129938   130037   130126   130196   130252 
  130295   130326   130341   130338   130320   130283   130233   130175 
  130102   130018   129925   129814   129691   129562   129423   129286 
  129157   129030   128914   128810   128703   128595   128487   128367 
  128240   128121   128013   127921   127842   127772   127716   127673 
  127646   127637   127631   127629   127629   127623   127619   127612 
  127591   127570   127553   127526   127499   127464   127414   127368 
  127327   127276   127230   127195   127159   127124   127102   127089 
  127082   127087   127105   127126   127147   127172   127201   127225 
  127240   127253   127265   127271   127265   127259   127244   127213 
  127170   127116   127053   126995   126939   126883   126839   126805 
  126778   126763   126762   126775   126783   126790   126806   126819 
  126827   126837   126848   126860   126882   126910   126943   126989 
  127047   127109   127176   127256   127342   127429   127512   127602 
  127692   127784   127878   127974   128075   128173   128266   128356 
  128440   128521   128595   128659   128714   128769   128822   128871 
  128920   128968   129008   129045   129076   129097   129112   129119 
  129112   129096   129072   129039   128997   128960   128925   128887 
  128845   128803   128763   128718   128672   128625   128575   128521 
  128460   128394   128325   128254   128181   128112   128044   127981 
  127927   127880   127839   127804   127770   127742   127719   127701 
  127700   127711   127720   127728   127737   127741   127738   127737 
  127749   127758   127761   127778   127801   127824   127862   127913 
  127973   128028   128086   128159   128243   128324   128407   128499 
  128587   128665   128745   128817   128879   128935   128985   129033 
  129078   129112   129135   129151   129159   129163   129172   129173 
  129159   129142   129122   129096   129062   129020   128981   128939 
  128896   128853   128803   128746   128686   128619   128560   128505 
  128453   128412   128370   128324   128283   128248   128220   128197 
  128175   128160   128159   128163   128173   128182   128186   128190 
  128198   128214   128239   128259   128282   128322   128364   128405 
  128449   128494   128533   128571   128601   128618   128640   128661 
  128673   128679   128684   128690   128690   128686   128683   128675 
  128668   128665   128657   128640   128617   128592   128563   128529 
  128493   128460   128428   128390   128351   128312   128270   128224 
  128166   128102   128043   127981   127912   127847   127786   127723 
  127658   127595   127531   127472   127414   127352   127299   127252 
  127199   127147   127099   127055   127014   126978   126949   126924 
  126909   126904   126901   126906   126940   126994   127059   127141 
  127238   127350   127475   127608   127739   127861   127982   128110 
  128239   128362   128483   128609   128719   128811   128895   128976 
  129039   129093   129146   129188   129224   129261   129292   129315 
  129332   129343   129338   129315   129277   129230   129178   129123 
