Origin Time       2025/01/13 21:19:00
Lat.              31.8
Long.             131.6
Depth. (km)       30
Mag.              6.9
Station Code      YMGH06
Station Lat.      33.9893
Station Long.     131.3012
Station Height(m) -120
Record Time       2025/01/13 21:20:14
Sampling Freq(Hz) 100Hz
Duration Time(s)  175
Dir.              3
Scale Factor      2942(gal)/8224139
Max. Acc. (gal)   1.297
Last Correction   2025/01/13 21:20:14
Memo.             
[...]
  108880   108824   108760   108693   108623   108554   108502   108469 
  108452   108448   108453   108472   108503   108542   108594   108652 
  108704   108751   108800   108857   108922   108986   109054   109127 
  109201   109274   109343   109399   109440   109455   109451   109428 
  109389   109345   109309   109281   109251   109210   109167   109121 
  109055   108976   108897   108826   108762   108707   108658   108621 
  108589   108553   108511   108468   108419   108367   108317   108274 
  108234   108206   108190   108175   108164   108152   108132   108110 
  108093   108085   108091   108101   108108   108122   108151   108191 
  108245   108303   108348   108387   108429   108476   108518   108549 
  108572   108591   108598   108603   108625   108654   108692   108738 
  108780   108811   108835   108862   108881   108888   108900   108924 
  108950   108976   109000   109012   109023   109035   109032   109015 
  108986   108953   108912   108865   108820   108793   108773   108749 
  108735   108741   108754   108777   108807   108830   108849   108858 
  108861   108868   108878   108882   108892   108904   108904   108889 
  108855   108793   108716   108639   108571   108503   108422   108336 
  108251   108160   108063   107975   107901   107854   107844   107848 
  107854   107873   107896   107905   107917   107943   107973   108008 
  108059   108125   108194   108256   108315   108369   108410   108438 
  108460   108468   108468   108465   108454   108442   108432   108417 
  108394   108372   108365   108361   108348   108334   108318   108298 
  108283   108272   108257   108247   108241   108234   108229   108236 
  108248   108255   108268   108294   108324   108344   108359   108373 
  108383   108384   108383   108378   108371   108364   108361   108363 
  108368   108386   108413   108437   108456   108477   108491   108480 
  108469   108469   108472   108479   108491   108500   108508   108517 
  108519   108515   108508   108492   108463   108434   108394   108333 
  108274   108220   108168   108126   108090   108052   108012   107966 
  107916   107862   107800   107739   107688   107654   107638   107634 
  107638   107659   107704   107761   107831   107905   107967   108020 
  108060   108076   108083   108086   108081   108071   108060   108062 
  108074   108079   108081   108074   108064   108056   108040   108032 
  108044   108070   108106   108152   108209   108282   108365   108450 
  108535   108623   108712   108801   108886   108969   109059   109144 
  109212   109264   109305   109331   109341   109348   109348   109340 
  109325   109320   109331   109347   109351   109348   109340   109316 
  109287   109269   109243   109201   109158   109123   109090   109062 
  109048   109046   109048   109058   109062   109050   109026   108992 
  108959   108938   108918   108901   108895   108889   108888   108888 
  108886   108874   108857   108839   108816   108787   108760   108738 
  108714   108693   108675   108656   108642   108625   108596   108564 
  108534   108503   108464   108422   108384   108345   108306   108271 
  108233   108193   108147   108105   108074   108060   108063   108074 
  108089   108103   108120   108149   108195   108259   108325   108378 
  108426   108469   108510   108557   108602   108637   108672   108691 
  108693   108695   108706   108718   108723   108723   108716   108697 
  108668   108639   108622   108625   108635   108648   108657   108662 
  108675   108688   108697   108708   108729   108749   108764   108776 
  108787   108788   108781   108764   108734   108697   108648   108589 
  108541   108502   108464   108427   108390   108349   108310   108272 
  108236   108218   108221   108225   108236   108259   108278   108303 
  108338   108375   108410   108449   108488   108517   108537   108556 
  108568   108571   108577   108592   108607   108619   108625   108637 
  108665   108703   108746   108796   108846   108893   108926   108950 
  108976   108997   109019   109038   109048   109058   109066   109071 
  109075   109075   109061   109038   109019   108996   108970   108959 
  108958   108957   108954   108942   108927   108920   108908   108895 
  108892   108884   108880   108878   108865   108850   108843   108837 
  108831   108824   108814   108801   108797   108801   108810   108818 
  108830   108849   108873   108897   108923   108951   108978   108999 
  109008   109021   109042   109061   109071   109074   109062   109035 
  108999   108957   108913   108870   108818   108751   108675   108592 
  108518   108461   108415   108384   108376   108371   108353   108333 
  108310   108290   108267   108241   108218   108203   108189   108190 
  108209   108229   108251   108267   108256   108230   108202   108179 
  108174   108184   108210   108247   108278   108292   108288   108267 
  108233   108194   108151   108110   108078   108052   108024   107991 
  107958   107920   107873   107820   107773   107732   107708   107701 
  107704   107715   107731   107748   107775   107812   107863   107925 
  107991   108071   108163   108257   108361   108468   108573   108679 
  108766   108834   108903   108961   109001   109027   109030   109021 
  109017   109009   108994   108977   108957   108926   108884   108824 
  108751   108687   108629   108560   108494   108438   108388   108349 
  108311   108276   108260   108238   108209   108193   108178   108156 
  108149   108147   108140   108139   108140   108145   108166   108199 
  108238   108267   108279   108287   108297   108313   108345   108392 
  108440   108488   108544   108594   108635   108666   108684   108691 
  108685   108669   108649   108630   108619   108616   108614   108614 
  108615   108606   108606   108631   108670   108723   108791   108859 
  108922   108977   109034   109107   109200   109279   109340   109389 
  109421   109440   109445   109440   109428   109412   109386   109354 
  109318   109289   109271   109258   109244   109213   109161   109090 
  109015   108945   108896   108858   108826   108810   108796   108773 
  108762   108768   108774   108791   108818   108850   108880   108911 
  108945   108973   108990   108992   108976   108946   108907   108866 
  108838   108823   108810   108796   108784   108776   108770   108766 
  108764   108762   108764   108772   108796   108838   108899   108972 
  109038   109098   109161   109228   109291   109336   109358   109364 
  109355   109341   109335   109325   109308   109285   109259   109235 
  109210   109188   109165   109134   109104   109077   109054   109046 
  109053   109063   109069   109063   109051   109036   109020   109008 
  108996   108978   108958   108924   108876   108831   108801   108788 
  108778   108760   108737   108716   108693   108669   108652   108643 
  108630   108619   108621   108621   108621   108625   108622   108616 
  108622   108631   108629   108619   108592   108535   108471   108414 
  108352   108284   108230   108178   108125   108085   108051   108018 
  107994   107977   107970   107979   107998   108016   108041   108074 
  108098   108125   108162   108184   108206   108225   108224   108213 
  108205   108201   108216   108243   108272   108306   108338   108367 
  108387   108392   108391   108386   108364   108337   108322   108321 
  108315   108309   108302   108286   108259   108218   108160   108106 
  108063   108018   107974   107933   107902   107875   107840   107806 
  107788   107779   107773   107757   107744   107750   107746   107731 
  107732   107748   107767   107786   107804   107829   107866   107906 
  107943   107970   107997   108022   108035   108043   108063   108089 
  108112   108130   108144   108152   108159   108167   108179   108190 
  108198   108198   108191   108184   108178   108178   108182   108180 
  108186   108209   108234   108251   108261   108272   108283   108291 
  108299   108317   108341   108360   108379   108403   108425   108437 
  108446   108454   108463   108479   108492   108494   108488   108475 
  108457   108442   108436   108436   108445   108472   108511   108562 
  108623   108680   108741   108805   108865   108926   108985   109032 
  109074   109107   109128   109146   109161   109167   109169   109166 
  109159   109144   109125   109102   109063   109015   108965   108913 
  108877   108861   108853   108845   108832   108818   108791   108749 
  108714   108691   108669   108645   108614   108581   108552   108526 
  108513   108510   108510   108519   108535   108558   108595   108635 
  108672   108703   108724   108743   108757   108762   108764   108764 
  108758   108754   108747   108730   108711   108692   108677   108673 
  108675   108677   108677   108676   108684   108707   108729   108753 
  108791   108824   108842   108855   108864   108855   108841   108815 
  108776   108724   108675   108626   108576   108521   108460   108406 
  108357   108315   108284   108260   108228   108179   108117   108055 
  107995   107933   107874   107823   107775   107730   107688   107658 
  107640   107622   107604   107600   107608   107617   107634   107659 
  107692   107735   107794   107871   107964   108066   108166   108257 
  108345   108423   108491   108558   108630   108699   108758   108811 
  108866   108927   108980   109024   109065   109105   109140   109167 
  109198   109231   109260   109287   109308   109327   109352   109372 
  109386   109390   109379   109356   109328   109291   109251   109209 
  109159   109094   109020   108934   108841   108754   108675   108598 
  108531   108476   108425   108382   108351   108330   108305   108275 
  108238   108201   108163   108126   108086   108047   108010   107970 
  107927   107889   107858   107842   107839   107844   107866   107906 
  107941   107970   108009   108063   108132   108216   108310   108405 
  108488   108558   108618   108662   108695   108720   108745   108769 
  108784   108783   108776   108773   108769   108743   108700   108654 
  108602   108544   108491   108453   108430   108421   108410   108398 
  108392   108394   108390   108379   108368   108348   108322   108297 
  108270   108241   108207   108162   108109   108056   108001   107954 
  107914   107881   107858   107850   107851   107860   107886   107921 
  107951   107989   108032   108059   108085   108120   108143   108159 
  108187   108229   108272   108307   108340   108376   108415   108463 
  108525   108588   108649   108719   108787   108828   108859   108888 
  108903   108908   108908   108899   108881   108857   108822   108772 
  108714   108649   108577   108498   108409   108317   108229   108133 
  108040   107958   107871   107781   107704   107631   107557   107499 
  107449   107401   107368   107343   107318   107300   107292   107273 
  107256   107254   107262   107273   107285   107299   107330   107381 
  107437   107504   107586   107667   107747   107838   107936   108047 
  108179   108324   108473   108631   108789   108943   109092   109232 
  109363   109482   109586   109679   109769   109853   109925   109983 
  110029   110061   110077   110088   110106   110123   110133   110143 
  110149   110135   110118   110103   110085   110069   110060   110047 
  110026   109993   109958   109921   109873   109818   109763   109702 
  109633   109566   109507   109452   109389   109314   109223   109119 
  109009   108905   108812   108727   108646   108569   108502   108446 
  108402   108359   108318   108283   108260   108243   108229   108228 
  108236   108243   108248   108257   108274   108295   108309   108318 
  108328   108325   108310   108302   108299   108288   108276   108270 
  108261   108249   108237   108228   108218   108203   108186   108171 
  108160   108157   108156   108159   108172   108180   108189   108213 
  108238   108264   108294   108321   108340   108356   108376   108398 
  108414   108430   108446   108459   108465   108472   108476   108476 
  108463   108432   108383   108330   108280   108224   108162   108105 
  108044   107983   107925   107870   107813   107757   107697   107643 
  107599   107561   107531   107505   107480   107466   107462   107462 
  107477   107500   107519   107532   107555   107586   107616   107653 
  107697   107747   107808   107877   107954   108035   108117   108195 
  108271   108352   108438   108527   108623   108726   108834   108940 
  109053   109166   109271   109362   109445   109528   109606   109683 
  109760   109838   109911   109976   110035   110087   110131   110169 
  110203   110235   110268   110299   110324   110353   110393   110444 
  110501   110556   110606   110660   110710   110755   110814   110878 
  110934   110990   111030   111049   111057   111057   111048   111036 
  111019   111005   110995   110990   110991   111007   111032   111053 
  111071   111091   111113   111130   111142   111150   111159   111168 
  111176   111173   111163   111142   111115   111076   111026   110971 
  110918   110863   110802   110735   110664   110592   110513   110431 
  110339   110236   110139   110057   109973   109895   109822   109738 
  109645   109548   109441   109329   109219   109108   108996   108878 
  108756   108630   108498   108361   108224   108086   107951   107813 
  107673   107538   107395   107249   107115   106983   106847   106717 
  106587   106452   106320   106193   106065   105942   105834   105736 
  105637   105544   105456   105374   105301   105231   105165   105109 
  105061   105012   104974   104947   104934   104943   104970   105011 
  105066   105135   105219   105316   105421   105532   105661   105808 
  105957   106118   106285   106436   106582   106735   106890   107049 
  107202   107349   107497   107638   107761   107873   107974   108066 
  108160   108264   108364   108453   108530   108596   108660   108733 
  108801   108862   108918   108969   109019   109065   109104   109139 
  109179   109219   109252   109293   109335   109379   109433   109483 
  109521   109560   109603   109645   109691   109745   109799   109841 
  109879   109908   109927   109948   109979   110012   110042   110064 
  110076   110080   110079   110076   110066   110053   110039   110023 
  110006   109983   109944   109894   109837   109771   109705   109634 
  109563   109495   109425   109347   109270   109205   109138   109065 
  108985   108895   108801   108714   108629   108550   108487   108430 
  108372   108319   108275   108230   108187   108144   108097   108048 
  108000   107955   107906   107851   107792   107738   107685   107628 
  107565   107501   107447   107407   107372   107342   107314   107283 
  107256   107231   107208   107198   107195   107184   107172   107153 
  107127   107107   107083   107052   107029   107011   106996   106987 
  106990   107006   107032   107072   107126   107185   107260   107347 
  107442   107546   107647   107743   107836   107925   108010   108091 
  108167   108236   108299   108357   108410   108450   108476   108492 
  108504   108513   108519   108522   108519   108513   108502   108495 
  108504   108518   108521   108531   108560   108588   108622   108669 
  108719   108762   108808   108855   108895   108928   108969   109008 
  109043   109085   109135   109192   109247   109294   109341   109386 
  109429   109474   109509   109534   109555   109563   109556   109541 
  109521   109489   109444   109399   109355   109305   109252   109194 
  109139   109097   109065   109038   109011   108985   108967   108955 
  108946   108935   108930   108930   108928   108924   108924   108926 
  108927   108932   108938   108947   108961   108965   108965   108965 
  108951   108930   108909   108895   108888   108881   108864   108835 
  108800   108756   108707   108662   108625   108588   108556   108523 
  108479   108427   108372   108310   108248   108190   108133   108072 
  108012   107955   107890   107816   107754   107705   107669   107649 
  107647   107658   107682   107727   107785   107852   107927   108002 
  108071   108124   108167   108201   108218   108225   108225   108206 
  108172   108132   108085   108031   107975   107920   107873   107843 
  107817   107792   107769   107752   107738   107725   107727   107736 
  107746   107757   107766   107774   107781   107782   107788   107801 
  107815   107820   107817   107819   107821   107829   107846   107866 
  107892   107919   107944   107974   108010   108062   108116   108160 
  108202   108243   108286   108340   108403   108475   108554   108634 
  108708   108772   108826   108872   108920   108973   109031   109098 
  109174   109255   109348   109451   109557   109678   109810   109950 
  110092   110227   110355   110474   110579   110677   110760   110828 
  110882   110910   110913   110902   110887   110862   110818   110754 
  110670   110573   110461   110335   110208   110085   109960   109829 
  109701   109574   109441   109304   109166   109034   108900   108765 
  108634   108511   108392   108275   108168   108067   107962   107873 
  107793   107715   107658   107623   107595   107582   107584   107592 
  107617   107657   107697   107747   107808   107869   107931   107998 
  108068   108145   108229   108309   108379   108449   108521   108592 
  108669   108751   108837   108928   109021   109113   109208   109302 
  109402   109512   109615   109713   109807   109890   109956   110018 
  110070   110108   110139   110162   110176   110182   110181   110169 
  110142   110095   110030   109958   109881   109798   109703   109597 
  109482   109366   109240   109101   108955   108799   108633   108465 
  108302   108144   107995   107863   107740   107624   107516   107418 
  107322   107223   107136   107061   106998   106955   106930   106914 
  106910   106918   106938   106974   107014   107061   107130   107210 
  107298   107401   107515   107628   107747   107870   107987   108109 
  108230   108349   108465   108577   108691   108803   108908   109012 
  109116   109216   109316   109410   109497   109580   109664   109741 
  109806   109863   109915   109948   109954   109934   109890   109830 
  109755   109668   109574   109475   109374   109264   109150   109036 
  108923   108808   108696   108594   108495   108402   108321   108241 
  108163   108099   108049   108009   107985   107968   107958   107955 
  107958   107960   107966   107977   107989   108000   108010   108022 
  108035   108051   108070   108090   108121   108159   108209   108265 
  108321   108382   108456   108531   108606   108687   108768   108838 
  108900   108954   108996   109024   109047   109054   109044   109024 
  108999   108976   108946   108896   108841   108781   108710   108637 
  108561   108481   108405   108332   108255   108172   108089   108009 
  107923   107839   107766   107689   107616   107551   107491   107441 
  107397   107357   107323   107295   107269   107248   107231   107227 
  107237   107257   107280   107306   107343   107395   107455   107522 
  107596   107673   107744   107809   107865   107913   107962   108002 
  108032   108067   108106   108148   108205   108270   108332   108392 
  108457   108527   108592   108657   108727   108799   108873   108946 
  109020   109092   109156   109213   109275   109337   109393   109445 
  109499   109555   109610   109660   109705   109752   109802   109842 
