Origin Time       2025/01/13 21:19:00
Lat.              31.8
Long.             131.6
Depth. (km)       30
Mag.              6.9
Station Code      YMGH10
Station Lat.      34.4837
Station Long.     131.6329
Station Height(m) 165
Record Time       2025/01/13 21:20:30
Sampling Freq(Hz) 100Hz
Duration Time(s)  141
Dir.              3
Scale Factor      3923(gal)/8224838
Max. Acc. (gal)   0.713
Last Correction   2025/01/13 21:20:13
Memo.             
[...]
  -29166   -29141   -29116   -29092   -29069   -29053   -29034   -29011 
  -28983   -28948   -28915   -28894   -28880   -28875   -28873   -28877 
  -28876   -28867   -28858   -28854   -28852   -28853   -28860   -28867 
  -28879   -28898   -28921   -28942   -28960   -28973   -28985   -28995 
  -29008   -29026   -29043   -29061   -29077   -29088   -29095   -29099 
  -29096   -29091   -29087   -29077   -29066   -29056   -29041   -29025 
  -29011   -29003   -28989   -28972   -28954   -28949   -28953   -28961 
  -28971   -28985   -28999   -29007   -29011   -29020   -29037   -29061 
  -29089   -29110   -29124   -29134   -29139   -29142   -29146   -29147 
  -29150   -29160   -29174   -29189   -29207   -29224   -29236   -29243 
  -29246   -29254   -29268   -29278   -29282   -29278   -29269   -29258 
  -29246   -29235   -29226   -29226   -29234   -29242   -29250   -29262 
  -29272   -29288   -29315   -29343   -29369   -29392   -29411   -29430 
  -29450   -29463   -29470   -29478   -29484   -29484   -29477   -29459 
  -29434   -29404   -29373   -29343   -29319   -29290   -29262   -29228 
  -29193   -29161   -29135   -29118   -29106   -29088   -29070   -29052 
  -29025   -28998   -28973   -28950   -28934   -28921   -28902   -28883 
  -28867   -28852   -28841   -28840   -28846   -28854   -28854   -28849 
  -28842   -28837   -28827   -28821   -28815   -28811   -28813   -28819 
  -28831   -28845   -28860   -28881   -28904   -28925   -28941   -28958 
  -28977   -28996   -29014   -29026   -29035   -29043   -29049   -29052 
  -29047   -29039   -29030   -29020   -29012   -29003   -28998   -28996 
  -28998   -29003   -29014   -29029   -29043   -29068   -29104   -29146 
  -29184   -29215   -29235   -29236   -29230   -29218   -29199   -29178 
  -29155   -29135   -29120   -29110   -29096   -29084   -29076   -29069 
  -29061   -29056   -29054   -29057   -29065   -29073   -29074   -29072 
  -29065   -29053   -29037   -29022   -29007   -28989   -28971   -28946 
  -28915   -28887   -28860   -28837   -28825   -28822   -28819   -28817 
  -28821   -28825   -28829   -28841   -28861   -28881   -28907   -28938 
  -28972   -29002   -29026   -29046   -29064   -29079   -29093   -29115 
  -29134   -29145   -29149   -29151   -29154   -29154   -29153   -29150 
  -29149   -29147   -29142   -29128   -29118   -29114   -29111   -29110 
  -29112   -29116   -29115   -29112   -29112   -29118   -29123   -29133 
  -29141   -29143   -29143   -29137   -29124   -29118   -29114   -29108 
  -29099   -29084   -29070   -29060   -29047   -29042   -29041   -29045 
  -29057   -29073   -29088   -29106   -29119   -29131   -29149   -29174 
  -29205   -29236   -29261   -29277   -29292   -29307   -29320   -29335 
  -29354   -29371   -29384   -29392   -29397   -29398   -29394   -29381 
  -29361   -29332   -29307   -29290   -29281   -29273   -29262   -29251 
  -29245   -29245   -29249   -29257   -29272   -29289   -29303   -29308 
  -29315   -29322   -29322   -29320   -29322   -29317   -29307   -29288 
  -29262   -29230   -29195   -29162   -29135   -29107   -29079   -29052 
  -29020   -28988   -28962   -28941   -28931   -28931   -28935   -28939 
  -28942   -28950   -28966   -28988   -29012   -29037   -29058   -29080 
  -29097   -29108   -29116   -29124   -29130   -29130   -29128   -29130 
  -29133   -29133   -29135   -29137   -29135   -29142   -29150   -29154 
  -29160   -29165   -29162   -29160   -29165   -29169   -29168   -29162 
  -29147   -29128   -29108   -29080   -29049   -29022   -29002   -28987 
  -28979   -28980   -28985   -28989   -28995   -29004   -29010   -29018 
  -29038   -29062   -29084   -29107   -29134   -29158   -29177   -29195 
  -29212   -29223   -29224   -29214   -29197   -29180   -29160   -29137 
  -29116   -29093   -29061   -29025   -28988   -28954   -28925   -28904 
  -28887   -28871   -28864   -28856   -28848   -28848   -28857   -28876 
  -28904   -28939   -28980   -29025   -29064   -29095   -29116   -29130 
  -29141   -29155   -29170   -29185   -29196   -29200   -29200   -29196 
  -29184   -29166   -29150   -29134   -29123   -29114   -29104   -29099 
  -29095   -29089   -29085   -29083   -29079   -29076   -29070   -29058 
  -29041   -29025   -29011   -29002   -28992   -28987   -28985   -28984 
  -28977   -28966   -28960   -28964   -28975   -28992   -29012   -29034 
  -29056   -29074   -29093   -29114   -29130   -29139   -29143   -29146 
  -29149   -29158   -29169   -29174   -29174   -29165   -29149   -29133 
  -29118   -29104   -29087   -29073   -29064   -29056   -29054   -29056 
  -29052   -29047   -29046   -29043   -29041   -29043   -29053   -29072 
  -29103   -29128   -29146   -29161   -29169   -29170   -29168   -29162 
  -29154   -29143   -29135   -29134   -29130   -29124   -29120   -29116 
  -29110   -29100   -29099   -29107   -29115   -29127   -29142   -29151 
  -29160   -29170   -29177   -29184   -29193   -29203   -29207   -29205 
  -29196   -29185   -29176   -29165   -29151   -29139   -29131   -29131 
  -29139   -29154   -29165   -29174   -29195   -29215   -29236   -29270 
  -29307   -29339   -29374   -29407   -29430   -29448   -29463   -29471 
  -29479   -29484   -29478   -29467   -29459   -29448   -29438   -29421 
  -29400   -29374   -29350   -29324   -29297   -29268   -29231   -29193 
  -29157   -29118   -29076   -29038   -29007   -28979   -28956   -28934 
  -28907   -28877   -28856   -28842   -28833   -28836   -28846   -28864 
  -28881   -28895   -28908   -28922   -28933   -28948   -28962   -28975 
  -28995   -29020   -29047   -29083   -29123   -29154   -29181   -29207 
  -29224   -29232   -29235   -29231   -29219   -29205   -29191   -29174 
  -29160   -29147   -29133   -29114   -29088   -29057   -29022   -28983 
  -28945   -28914   -28892   -28872   -28852   -28834   -28825   -28823 
  -28823   -28827   -28836   -28844   -28852   -28867   -28887   -28914 
  -28946   -28979   -29008   -29037   -29062   -29080   -29096   -29111 
  -29126   -29142   -29157   -29176   -29201   -29227   -29253   -29281 
  -29307   -29323   -29328   -29334   -29342   -29354   -29376   -29403 
  -29427   -29451   -29473   -29490   -29504   -29516   -29529   -29543 
  -29551   -29554   -29554   -29551   -29547   -29540   -29536   -29532 
  -29524   -29512   -29496   -29473   -29448   -29425   -29405   -29384 
  -29363   -29353   -29343   -29327   -29319   -29315   -29299   -29284 
  -29277   -29266   -29251   -29238   -29228   -29219   -29205   -29187 
  -29166   -29147   -29122   -29093   -29069   -29053   -29039   -29026 
  -29016   -29008   -28995   -28980   -28961   -28942   -28926   -28914 
  -28902   -28900   -28912   -28925   -28935   -28948   -28953   -28956 
  -28964   -28975   -28985   -28999   -29011   -29018   -29019   -29018 
  -29015   -29008   -29006   -29002   -28992   -28985   -28975   -28957 
  -28942   -28925   -28906   -28888   -28872   -28854   -28841   -28829 
  -28823   -28827   -28829   -28825   -28829   -28831   -28836   -28849 
  -28863   -28879   -28894   -28902   -28917   -28938   -28964   -29002 
  -29045   -29077   -29104   -29131   -29150   -29165   -29174   -29180 
  -29187   -29193   -29195   -29199   -29205   -29209   -29215   -29223 
  -29224   -29227   -29228   -29226   -29228   -29238   -29253   -29270 
  -29281   -29288   -29297   -29303   -29305   -29308   -29305   -29301 
  -29303   -29304   -29311   -29324   -29335   -29351   -29377   -29390 
  -29389   -29394   -29396   -29388   -29390   -29401   -29424   -29454 
  -29473   -29488   -29498   -29492   -29481   -29469   -29446   -29425 
  -29405   -29382   -29361   -29338   -29313   -29292   -29262   -29224 
  -29185   -29142   -29097   -29062   -29033   -29004   -28996   -28991 
  -28973   -28958   -28946   -28929   -28918   -28908   -28902   -28903 
  -28907   -28921   -28942   -28962   -28977   -28983   -28983   -28983 
  -28980   -28980   -28985   -28991   -28993   -28991   -28988   -28983 
  -28966   -28938   -28904   -28875   -28845   -28810   -28783   -28764 
  -28742   -28726   -28721   -28715   -28710   -28706   -28707   -28714 
  -28722   -28738   -28760   -28777   -28794   -28806   -28814   -28821 
  -28826   -28822   -28817   -28810   -28794   -28769   -28745   -28719 
  -28692   -28667   -28640   -28621   -28614   -28605   -28595   -28588 
  -28578   -28570   -28576   -28591   -28609   -28632   -28660   -28683 
  -28707   -28736   -28757   -28776   -28796   -28815   -28833   -28853 
  -28873   -28890   -28908   -28925   -28944   -28975   -29008   -29039 
  -29077   -29116   -29150   -29188   -29228   -29270   -29315   -29361 
  -29408   -29461   -29508   -29544   -29581   -29612   -29635   -29654 
  -29663   -29662   -29655   -29643   -29635   -29637   -29643   -29651 
  -29667   -29675   -29682   -29697   -29709   -29721   -29741   -29766 
  -29794   -29822   -29845   -29868   -29894   -29913   -29933   -29963 
  -29992   -30022   -30053   -30083   -30110   -30136   -30159   -30173 
  -30177   -30179   -30173   -30163   -30153   -30144   -30133   -30121 
  -30106   -30092   -30080   -30063   -30042   -30021   -29994   -29959 
  -29920   -29880   -29844   -29808   -29766   -29717   -29664   -29608 
  -29543   -29477   -29411   -29350   -29297   -29249   -29203   -29158 
  -29112   -29066   -29030   -29002   -28981   -28969   -28962   -28960 
  -28952   -28939   -28933   -28926   -28917   -28918   -28923   -28922 
  -28917   -28912   -28904   -28894   -28883   -28867   -28844   -28813 
  -28783   -28757   -28737   -28726   -28723   -28723   -28717   -28702 
  -28683   -28661   -28637   -28617   -28603   -28593   -28579   -28568 
  -28563   -28561   -28563   -28567   -28576   -28591   -28609   -28618 
  -28630   -28648   -28665   -28690   -28723   -28752   -28776   -28804 
  -28838   -28875   -28910   -28944   -28972   -28991   -29006   -29019 
  -29029   -29034   -29041   -29049   -29054   -29060   -29070   -29080 
  -29092   -29107   -29119   -29135   -29158   -29185   -29220   -29255 
  -29292   -29330   -29365   -29401   -29438   -29467   -29488   -29496 
  -29506   -29519   -29524   -29535   -29548   -29555   -29552   -29539 
  -29520   -29505   -29490   -29475   -29462   -29444   -29419   -29389 
  -29353   -29312   -29277   -29247   -29218   -29189   -29160   -29124 
  -29095   -29073   -29052   -29026   -28998   -28966   -28933   -28896 
  -28861   -28829   -28795   -28764   -28734   -28699   -28663   -28624 
  -28580   -28541   -28506   -28471   -28435   -28402   -28374   -28347 
  -28324   -28306   -28289   -28270   -28251   -28237   -28227   -28213 
  -28202   -28189   -28174   -28163   -28151   -28139   -28129   -28120 
  -28111   -28101   -28098   -28101   -28102   -28109   -28123   -28134 
  -28143   -28152   -28165   -28177   -28193   -28213   -28235   -28251 
  -28267   -28289   -28313   -28339   -28367   -28397   -28425   -28448 
  -28468   -28485   -28505   -28528   -28547   -28570   -28594   -28615 
  -28641   -28671   -28695   -28718   -28745   -28773   -28807   -28848 
  -28892   -28939   -28987   -29035   -29084   -29126   -29165   -29201 
  -29235   -29265   -29292   -29317   -29338   -29346   -29344   -29340 
  -29330   -29316   -29308   -29300   -29295   -29295   -29297   -29297 
  -29299   -29303   -29316   -29336   -29359   -29389   -29425   -29465 
  -29506   -29552   -29596   -29647   -29700   -29744   -29782   -29816 
  -29843   -29855   -29853   -29841   -29828   -29813   -29793   -29774 
  -29758   -29741   -29727   -29712   -29693   -29674   -29654   -29635 
  -29619   -29606   -29597   -29589   -29583   -29577   -29569   -29563 
  -29558   -29550   -29540   -29529   -29516   -29505   -29496   -29488 
  -29482   -29478   -29471   -29461   -29454   -29447   -29439   -29434 
  -29425   -29413   -29404   -29396   -29385   -29373   -29362   -29358 
  -29354   -29342   -29327   -29319   -29309   -29299   -29289   -29284 
  -29280   -29278   -29277   -29273   -29274   -29277   -29274   -29265 
  -29249   -29224   -29188   -29142   -29095   -29046   -28988   -28927 
  -28865   -28796   -28719   -28645   -28574   -28505   -28447   -28389 
  -28331   -28281   -28242   -28206   -28181   -28163   -28150   -28138 
  -28128   -28123   -28116   -28112   -28108   -28105   -28105   -28102 
  -28101   -28105   -28119   -28143   -28178   -28212   -28251   -28296 
  -28340   -28386   -28440   -28497   -28549   -28605   -28664   -28728 
  -28796   -28864   -28931   -28996   -29057   -29120   -29185   -29241 
  -29285   -29326   -29359   -29385   -29405   -29421   -29439   -29462 
  -29486   -29512   -29542   -29578   -29620   -29668   -29722   -29775 
  -29828   -29879   -29928   -29976   -30030   -30083   -30138   -30195 
  -30244   -30283   -30312   -30334   -30349   -30360   -30365   -30365 
  -30362   -30360   -30356   -30345   -30327   -30307   -30284   -30257 
  -30223   -30187   -30149   -30110   -30069   -30033   -30003   -29978 
  -29959   -29949   -29944   -29943   -29938   -29933   -29932   -29928 
  -29921   -29920   -29918   -29914   -29911   -29903   -29887   -29874 
  -29860   -29843   -29826   -29820   -29812   -29802   -29797   -29790 
  -29778   -29767   -29751   -29727   -29706   -29690   -29673   -29656 
  -29639   -29619   -29600   -29582   -29565   -29546   -29525   -29504 
  -29477   -29447   -29421   -29400   -29382   -29369   -29349   -29319 
  -29288   -29255   -29223   -29188   -29149   -29111   -29065   -29012 
  -28958   -28906   -28853   -28798   -28734   -28668   -28597   -28521 
  -28443   -28366   -28291   -28217   -28143   -28070   -28000   -27936 
  -27878   -27826   -27783   -27742   -27703   -27670   -27646   -27630 
  -27626   -27631   -27646   -27665   -27685   -27710   -27743   -27787 
  -27834   -27884   -27934   -27985   -28035   -28082   -28131   -28179 
  -28224   -28263   -28302   -28337   -28374   -28413   -28448   -28479 
  -28509   -28534   -28557   -28583   -28607   -28628   -28644   -28651 
  -28651   -28644   -28630   -28614   -28595   -28571   -28543   -28514 
  -28491   -28475   -28462   -28455   -28448   -28447   -28458   -28470 
  -28493   -28532   -28572   -28622   -28675   -28725   -28776   -28830 
  -28888   -28957   -29033   -29107   -29180   -29255   -29331   -29398 
  -29463   -29521   -29574   -29628   -29686   -29740   -29783   -29821 
  -29860   -29895   -29924   -29947   -29959   -29959   -29965   -29972 
  -29972   -29975   -29975   -29972   -29968   -29959   -29949   -29938 
  -29928   -29918   -29907   -29895   -29884   -29874   -29857   -29840 
  -29824   -29812   -29803   -29794   -29782   -29774   -29772   -29768 
  -29762   -29762   -29768   -29776   -29787   -29793   -29797   -29802 
  -29803   -29801   -29798   -29795   -29789   -29775   -29762   -29748 
  -29728   -29702   -29678   -29652   -29625   -29601   -29583   -29567 
  -29548   -29531   -29515   -29496   -29465   -29432   -29408   -29382 
  -29347   -29312   -29277   -29243   -29205   -29158   -29114   -29070 
  -29020   -28972   -28929   -28888   -28853   -28814   -28776   -28746 
  -28719   -28694   -28679   -28669   -28665   -28671   -28678   -28687 
  -28705   -28726   -28748   -28772   -28798   -28818   -28837   -28863 
  -28891   -28925   -28958   -28995   -29035   -29070   -29097   -29127 
  -29154   -29174   -29200   -29227   -29245   -29259   -29276   -29282 
  -29285   -29284   -29270   -29255   -29242   -29230   -29218   -29207 
  -29193   -29176   -29153   -29133   -29115   -29101   -29084   -29069 
  -29065   -29065   -29070   -29083   -29096   -29110   -29123   -29134 
  -29147   -29162   -29173   -29181   -29184   -29181   -29169   -29149 
  -29130   -29110   -29081   -29046   -29010   -28973   -28933   -28890 
  -28850   -28819   -28794   -28769   -28755   -28750   -28749   -28759 
  -28779   -28796   -28814   -28842   -28880   -28926   -28975   -29025 
  -29079   -29137   -29188   -29231   -29273   -29308   -29338   -29370 
  -29396   -29408   -29415   -29423   -29431   -29435   -29435   -29435 
  -29434   -29428   -29419   -29408   -29400   -29392   -29381   -29367 
  -29354   -29334   -29311   -29284   -29254   -29215   -29170   -29123 
  -29069   -29007   -28944   -28880   -28809   -28734   -28656   -28579 
  -28506   -28435   -28371   -28312   -28252   -28198   -28148   -28096 
  -28044   -28000   -27959   -27922   -27893   -27874   -27857   -27849 
  -27846   -27849   -27855   -27865   -27880   -27901   -27926   -27954 
  -27984   -28013   -28044   -28081   -28120   -28171   -28229   -28286 
  -28339   -28390   -28440   -28497   -28559   -28625   -28694   -28761 
  -28829   -28898   -28962   -29018   -29076   -29128   -29164   -29193 
  -29222   -29242   -29253   -29258   -29258   -29255   -29247   -29234 
  -29220   -29208   -29204   -29199   -29195   -29193   -29189   -29178 
  -29169   -29165   -29162   -29168   -29177   -29189   -29201   -29212 
  -29224   -29239   -29247   -29254   -29268   -29277   -29281   -29292 
  -29305   -29317   -29330   -29338   -29342   -29354   -29366   -29370 
  -29373   -29370   -29361   -29347   -29330   -29311   -29292   -29273 
  -29259   -29243   -29224   -29208   -29197   -29189   -29185   -29187 
  -29195   -29208   -29227   -29250   -29272   -29290   -29319   -29358 
  -29386   -29415   -29458   -29492   -29521   -29565   -29610   -29664 
  -29724   -29778   -29829   -29879   -29929   -29974   -30013   -30046 
  -30079   -30109   -30132   -30148   -30160   -30171   -30176   -30173 
  -30167   -30157   -30146   -30133   -30114   -30087   -30056   -30030 
  -30001   -29968   -29940   -29911   -29880   -29849   -29817   -29786 
  -29752   -29717   -29683   -29644   -29604   -29565   -29520   -29471 
  -29421   -29366   -29305   -29246   -29185   -29123   -29066   -29011 
  -28948   -28885   -28831   -28780   -28732   -28688   -28649   -28611 
  -28576   -28545   -28520   -28503   -28490   -28475   -28467   -28468 
  -28468   -28475   -28493   -28521   -28553   -28591   -28630   -28667 
  -28702   -28736   -28769   -28803   -28840   -28879   -28921   -28965 
  -29007   -29046   -29084   -29115   -29143   -29173   -29200   -29224 
  -29245   -29261   -29272   -29278   -29276   -29265   -29251   -29236 
  -29214   -29191   -29166   -29138   -29107   -29066   -29014   -28964 
  -28919   -28872   -28825   -28780   -28738   -28695   -28649   -28611 
  -28586   -28549   -28517   -28506   -28485   -28460   -28449   -28435 
  -28420   -28410   -28398   -28393   -28394   -28390   -28385   -28378 
  -28367   -28356   -28348   -28344   -28340   -28341   -28351   -28364 
  -28378   -28397   -28416   -28433   -28453   -28474   -28487   -28506 
  -28536   -28557   -28575   -28599   -28617   -28632   -28645   -28655 
  -28669   -28687   -28701   -28714   -28726   -28737   -28745   -28756 
  -28771   -28794   -28818   -28840   -28864   -28892   -28921   -28946 
  -28977   -29010   -29041   -29080   -29123   -29157   -29193   -29228 
  -29250   -29276   -29296   -29313   -29338   -29357   -29374   -29396 
  -29408   -29417   -29435   -29451   -29466   -29493   -29533   -29578 
  -29627   -29681   -29736   -29786   -29829   -29868   -29909   -29943 
  -29964   -29979   -29987   -29988   -29983   -29971   -29955   -29930 
  -29901   -29874   -29841   -29805   -29772   -29736   -29698   -29656 
  -29608   -29563   -29517   -29458   -29389   -29322   -29265   -29204 
  -29130   -29068   -29012   -28956   -28911   -28854   -28792   -28757 
  -28714   -28655   -28606   -28557   -28506   -28479   -28440   -28386 
  -28367   -28337   -28285   -28266   -28247   -28217   -28206   -28202 
