Origin Time       2025/01/13 21:19:00
Lat.              31.8
Long.             131.6
Depth. (km)       30
Mag.              6.9
Station Code      YMGH07
Station Lat.      34.1149
Station Long.     131.0506
Station Height(m) 30
Record Time       2025/01/13 21:20:19
Sampling Freq(Hz) 100Hz
Duration Time(s)  138
Dir.              6
Scale Factor      7845(gal)/8223790
Max. Acc. (gal)   0.600
Last Correction   2025/01/13 21:20:20
Memo.             
[...]
   -7476    -7479    -7491    -7503    -7507    -7501    -7496    -7481 
   -7464    -7450    -7430    -7388    -7325    -7263    -7229    -7227 
   -7233    -7226    -7204    -7172    -7136    -7103    -7079    -7065 
   -7051    -7024    -6990    -6974    -7001    -7056    -7109    -7145 
   -7159    -7161    -7179    -7211    -7242    -7268    -7294    -7325 
   -7368    -7416    -7457    -7476    -7473    -7460    -7453    -7466 
   -7481    -7466    -7427    -7392    -7380    -7391    -7398    -7375 
   -7323    -7267    -7236    -7242    -7276    -7310    -7335    -7356 
   -7377    -7400    -7416    -7429    -7439    -7447    -7454    -7466 
   -7484    -7508    -7543    -7568    -7577    -7588    -7600    -7616 
   -7636    -7650    -7653    -7650    -7646    -7641    -7626    -7604 
   -7582    -7565    -7553    -7546    -7535    -7516    -7488    -7460 
   -7442    -7435    -7427    -7403    -7366    -7339    -7334    -7358 
   -7398    -7430    -7450    -7468    -7485    -7504    -7522    -7533 
   -7535    -7537    -7546    -7558    -7558    -7545    -7516    -7479 
   -7434    -7383    -7339    -7308    -7291    -7280    -7271    -7263 
   -7257    -7254    -7263    -7296    -7342    -7375    -7389    -7392 
   -7389    -7392    -7408    -7431    -7458    -7496    -7542    -7587 
   -7619    -7627    -7603    -7564    -7535    -7533    -7545    -7547 
   -7527    -7492    -7469    -7458    -7449    -7437    -7430    -7426 
   -7423    -7416    -7389    -7353    -7325    -7307    -7300    -7304 
   -7304    -7300    -7298    -7299    -7308    -7321    -7325    -7315 
   -7298    -7288    -7291    -7298    -7307    -7308    -7303    -7300 
   -7304    -7308    -7311    -7310    -7310    -7318    -7325    -7323 
   -7318    -7304    -7290    -7288    -7300    -7321    -7341    -7353 
   -7352    -7342    -7334    -7327    -7312    -7284    -7254    -7242 
   -7261    -7306    -7354    -7385    -7404    -7426    -7458    -7500 
   -7543    -7576    -7595    -7608    -7628    -7659    -7692    -7726 
   -7761    -7797    -7819    -7811    -7784    -7744    -7699    -7658 
   -7632    -7618    -7608    -7605    -7597    -7585    -7576    -7566 
   -7553    -7531    -7503    -7473    -7457    -7454    -7452    -7442 
   -7427    -7407    -7385    -7376    -7380    -7398    -7425    -7447 
   -7462    -7468    -7458    -7434    -7398    -7365    -7337    -7312 
   -7296    -7283    -7272    -7279    -7310    -7353    -7383    -7385 
   -7375    -7361    -7360    -7365    -7371    -7376    -7377    -7381 
   -7396    -7412    -7416    -7406    -7383    -7350    -7321    -7306 
   -7307    -7306    -7300    -7295    -7295    -7307    -7327    -7338 
   -7335    -7326    -7317    -7319    -7342    -7381    -7423    -7466 
   -7512    -7547    -7562    -7562    -7553    -7539    -7527    -7518 
   -7499    -7469    -7435    -7406    -7387    -7379    -7369    -7345 
   -7315    -7299    -7310    -7334    -7357    -7371    -7379    -7385 
   -7391    -7388    -7376    -7356    -7346    -7354    -7369    -7384 
   -7395    -7396    -7389    -7379    -7369    -7369    -7373    -7375 
   -7369    -7362    -7357    -7358    -7375    -7403    -7431    -7449 
   -7454    -7458    -7473    -7497    -7524    -7549    -7558    -7560 
   -7573    -7592    -7600    -7592    -7569    -7554    -7562    -7592 
   -7626    -7639    -7623    -7588    -7560    -7551    -7555    -7561 
   -7553    -7527    -7493    -7476    -7483    -7493    -7483    -7447 
   -7407    -7376    -7362    -7358    -7346    -7330    -7322    -7330 
   -7348    -7365    -7376    -7369    -7338    -7304    -7285    -7281 
   -7290    -7311    -7345    -7384    -7418    -7452    -7489    -7523 
   -7545    -7553    -7550    -7539    -7519    -7495    -7468    -7443 
   -7431    -7430    -7437    -7446    -7446    -7431    -7416    -7412 
   -7419    -7445    -7491    -7538    -7569    -7585    -7592    -7592 
   -7596    -7611    -7628    -7641    -7647    -7661    -7686    -7711 
   -7726    -7727    -7723    -7720    -7719    -7709    -7686    -7649 
   -7614    -7595    -7593    -7597    -7597    -7593    -7585    -7565 
   -7524    -7465    -7395    -7322    -7257    -7211    -7180    -7156 
   -7133    -7114    -7098    -7088    -7090    -7099    -7106    -7106 
   -7098    -7094    -7111    -7157    -7215    -7264    -7291    -7299 
   -7308    -7330    -7361    -7387    -7400    -7398    -7385    -7377 
   -7368    -7356    -7350    -7345    -7341    -7342    -7354    -7369 
   -7387    -7407    -7425    -7435    -7452    -7473    -7484    -7476 
   -7450    -7411    -7384    -7379    -7384    -7391    -7399    -7408 
   -7439    -7485    -7527    -7551    -7558    -7555    -7560    -7573 
   -7603    -7639    -7666    -7673    -7663    -7654    -7654    -7657 
   -7661    -7659    -7650    -7638    -7624    -7607    -7589    -7573 
   -7550    -7508    -7449    -7393    -7360    -7348    -7349    -7349 
   -7344    -7337    -7312    -7271    -7222    -7180    -7155    -7150 
   -7164    -7195    -7236    -7272    -7300    -7317    -7329    -7354 
   -7396    -7430    -7453    -7472    -7489    -7511    -7530    -7534 
   -7526    -7512    -7499    -7488    -7483    -7474    -7458    -7443 
   -7431    -7420    -7418    -7423    -7434    -7449    -7457    -7450 
   -7427    -7391    -7356    -7341    -7338    -7339    -7349    -7361 
   -7365    -7358    -7346    -7323    -7290    -7256    -7231    -7214 
   -7214    -7240    -7281    -7326    -7365    -7395    -7415    -7429 
   -7445    -7477    -7524    -7576    -7623    -7659    -7684    -7697 
   -7693    -7677    -7658    -7642    -7631    -7619    -7597    -7576 
   -7561    -7554    -7551    -7541    -7522    -7497    -7473    -7458 
   -7452    -7450    -7457    -7473    -7497    -7527    -7554    -7566 
   -7561    -7554    -7555    -7572    -7593    -7609    -7627    -7651 
   -7677    -7700    -7715    -7717    -7713    -7711    -7705    -7699 
   -7688    -7673    -7659    -7653    -7638    -7608    -7574    -7541 
   -7516    -7512    -7523    -7541    -7562    -7582    -7592    -7589 
   -7578    -7560    -7533    -7503    -7472    -7439    -7414    -7404 
   -7408    -7416    -7415    -7400    -7389    -7391    -7403    -7415 
   -7410    -7389    -7375    -7372    -7369    -7356    -7331    -7312 
   -7311    -7327    -7349    -7358    -7346    -7318    -7298    -7300 
   -7312    -7317    -7315    -7306    -7288    -7267    -7240    -7203 
   -7160    -7118    -7087    -7068    -7067    -7075    -7074    -7056 
   -7041    -7040    -7053    -7086    -7128    -7161    -7187    -7213 
   -7237    -7263    -7284    -7303    -7325    -7356    -7396    -7429 
   -7450    -7465    -7472    -7481    -7503    -7537    -7576    -7604 
   -7611    -7605    -7601    -7597    -7604    -7624    -7639    -7639 
   -7632    -7620    -7611    -7612    -7615    -7601    -7573    -7535 
   -7491    -7452    -7422    -7393    -7371    -7365    -7365    -7362 
   -7365    -7376    -7398    -7435    -7477    -7515    -7542    -7560 
   -7577    -7600    -7630    -7670    -7719    -7769    -7805    -7824 
   -7828    -7816    -7784    -7735    -7677    -7622    -7588    -7568 
   -7554    -7537    -7501    -7458    -7429    -7416    -7414    -7411 
   -7404    -7393    -7381    -7373    -7368    -7358    -7349    -7345 
   -7342    -7333    -7315    -7292    -7268    -7248    -7236    -7225 
   -7213    -7200    -7186    -7172    -7169    -7164    -7152    -7145 
   -7149    -7159    -7164    -7161    -7146    -7126    -7113    -7105 
   -7094    -7079    -7068    -7068    -7065    -7053    -7029    -6990 
   -6952    -6930    -6929    -6944    -6957    -6964    -6970    -6982 
   -7007    -7047    -7083    -7107    -7123    -7138    -7156    -7182 
   -7222    -7263    -7296    -7325    -7345    -7361    -7381    -7402 
   -7411    -7414    -7408    -7399    -7388    -7383    -7383    -7380 
   -7379    -7379    -7383    -7392    -7395    -7383    -7368    -7356 
   -7349    -7350    -7354    -7358    -7361    -7357    -7356    -7364 
   -7379    -7399    -7431    -7473    -7512    -7545    -7572    -7589 
   -7592    -7582    -7566    -7553    -7550    -7558    -7574    -7599 
   -7624    -7647    -7669    -7686    -7701    -7715    -7735    -7761 
   -7780    -7786    -7788    -7797    -7815    -7840    -7861    -7861 
   -7843    -7819    -7790    -7762    -7740    -7722    -7708    -7708 
   -7713    -7719    -7722    -7719    -7716    -7726    -7738    -7740 
   -7736    -7730    -7711    -7677    -7635    -7597    -7569    -7546 
   -7515    -7462    -7398    -7341    -7298    -7265    -7231    -7191 
   -7146    -7101    -7056    -7020    -6995    -6978    -6961    -6945 
   -6933    -6926    -6922    -6922    -6921    -6917    -6918    -6928 
   -6951    -6986    -7026    -7071    -7111    -7152    -7195    -7231 
   -7257    -7267    -7253    -7236    -7225    -7227    -7250    -7275 
   -7280    -7277    -7273    -7275    -7287    -7302    -7315    -7325 
   -7334    -7345    -7360    -7380    -7407    -7438    -7470    -7500 
   -7520    -7535    -7558    -7587    -7607    -7615    -7618    -7624 
   -7649    -7685    -7712    -7715    -7693    -7657    -7622    -7587 
   -7546    -7514    -7495    -7491    -7497    -7512    -7528    -7543 
   -7564    -7585    -7603    -7616    -7634    -7654    -7669    -7681 
   -7695    -7717    -7740    -7758    -7765    -7766    -7765    -7759 
   -7755    -7749    -7738    -7720    -7699    -7672    -7639    -7612 
   -7595    -7581    -7560    -7533    -7503    -7477    -7458    -7449 
   -7439    -7420    -7391    -7364    -7339    -7323    -7312    -7292 
   -7264    -7238    -7217    -7198    -7177    -7155    -7122    -7091 
   -7074    -7072    -7078    -7086    -7092    -7087    -7069    -7042 
   -7006    -6967    -6944    -6941    -6943    -6940    -6930    -6917 
   -6910    -6913    -6928    -6951    -6979    -7014    -7051    -7087 
   -7121    -7144    -7159    -7173    -7202    -7252    -7311    -7362 
   -7402    -7426    -7446    -7466    -7487    -7497    -7499    -7504 
   -7523    -7553    -7582    -7604    -7619    -7635    -7659    -7686 
   -7712    -7728    -7731    -7719    -7700    -7684    -7681    -7696 
   -7722    -7761    -7804    -7838    -7857    -7861    -7851    -7838 
   -7832    -7840    -7851    -7859    -7857    -7846    -7844    -7854 
   -7866    -7879    -7879    -7862    -7839    -7823    -7821    -7830 
   -7835    -7835    -7834    -7823    -7812    -7808    -7805    -7800 
   -7780    -7740    -7690    -7636    -7592    -7555    -7527    -7504 
   -7479    -7452    -7426    -7399    -7369    -7337    -7298    -7257 
   -7214    -7167    -7119    -7090    -7072    -7056    -7040    -7025 
   -7011    -7010    -7024    -7036    -7047    -7068    -7113    -7171 
   -7237    -7303    -7357    -7402    -7442    -7484    -7534    -7585 
   -7622    -7635    -7631    -7615    -7595    -7578    -7572    -7558 
   -7535    -7519    -7500    -7473    -7443    -7419    -7398    -7380 
   -7368    -7357    -7341    -7319    -7298    -7280    -7269    -7253 
   -7241    -7241    -7245    -7238    -7223    -7206    -7200    -7213 
   -7234    -7256    -7273    -7277    -7276    -7280    -7295    -7321 
   -7354    -7385    -7410    -7438    -7476    -7508    -7537    -7561 
   -7578    -7589    -7589    -7581    -7578    -7582    -7581    -7568 
   -7537    -7492    -7452    -7425    -7407    -7395    -7372    -7327 
   -7269    -7218    -7191    -7192    -7200    -7202    -7196    -7183 
   -7168    -7160    -7155    -7140    -7115    -7094    -7078    -7068 
   -7061    -7056    -7056    -7061    -7069    -7091    -7130    -7184 
   -7245    -7308    -7356    -7379    -7398    -7426    -7458    -7487 
   -7506    -7515    -7512    -7503    -7491    -7473    -7449    -7420 
   -7387    -7348    -7308    -7279    -7263    -7257    -7249    -7237 
   -7219    -7195    -7169    -7149    -7128    -7114    -7101    -7078 
   -7059    -7044    -7028    -7015    -6999    -6979    -6963    -6960 
   -6967    -6983    -7010    -7048    -7084    -7118    -7149    -7179 
   -7214    -7267    -7325    -7387    -7454    -7524    -7596    -7661 
   -7719    -7766    -7804    -7842    -7879    -7913    -7943    -7967 
   -7985    -7997    -8004    -8012    -8025    -8037    -8044    -8041 
   -8027    -8004    -7973    -7940    -7913    -7892    -7879    -7882 
   -7892    -7906    -7919    -7917    -7898    -7874    -7859    -7851 
   -7846    -7838    -7812    -7773    -7730    -7690    -7666    -7655 
   -7655    -7651    -7632    -7601    -7560    -7514    -7472    -7442 
   -7430    -7427    -7418    -7407    -7393    -7379    -7365    -7352 
   -7331    -7307    -7287    -7275    -7272    -7280    -7292    -7307 
   -7329    -7360    -7395    -7426    -7447    -7458    -7472    -7495 
   -7528    -7569    -7611    -7646    -7668    -7674    -7677    -7682 
   -7681    -7661    -7626    -7587    -7553    -7533    -7527    -7527 
   -7524    -7516    -7503    -7491    -7485    -7480    -7474    -7465 
   -7457    -7464    -7480    -7495    -7504    -7506    -7506    -7510 
   -7518    -7528    -7538    -7542    -7533    -7508    -7474    -7433 
   -7380    -7321    -7264    -7202    -7140    -7091    -7053    -7026 
   -7009    -6999    -6998    -6998    -6998    -6999    -7005    -7005 
   -6994    -6987    -6991    -7003    -7020    -7029    -7024    -7013 
   -6991    -6955    -6920    -6897    -6883    -6868    -6843    -6813 
   -6799    -6805    -6833    -6872    -6903    -6930    -6964    -7007 
   -7059    -7115    -7168    -7214    -7252    -7283    -7311    -7339 
   -7364    -7381    -7388    -7393    -7408    -7425    -7442    -7457 
   -7468    -7477    -7497    -7523    -7549    -7570    -7589    -7605 
   -7630    -7662    -7690    -7707    -7708    -7695    -7669    -7639 
   -7611    -7584    -7554    -7523    -7487    -7453    -7426    -7406 
   -7399    -7406    -7422    -7439    -7454    -7466    -7473    -7473 
   -7472    -7473    -7476    -7483    -7503    -7530    -7562    -7595 
   -7614    -7620    -7626    -7631    -7643    -7663    -7684    -7692 
   -7688    -7682    -7680    -7689    -7709    -7728    -7738    -7731 
   -7704    -7665    -7626    -7587    -7539    -7489    -7430    -7362 
   -7294    -7223    -7157    -7105    -7065    -7036    -7017    -6998 
   -6975    -6952    -6936    -6930    -6945    -6976    -7014    -7055 
   -7096    -7141    -7186    -7229    -7269    -7306    -7333    -7356 
   -7372    -7387    -7406    -7420    -7437    -7461    -7491    -7516 
   -7534    -7546    -7557    -7574    -7609    -7657    -7703    -7746 
   -7786    -7819    -7842    -7854    -7854    -7843    -7831    -7816 
   -7796    -7766    -7722    -7670    -7622    -7576    -7537    -7503 
   -7472    -7447    -7430    -7411    -7387    -7357    -7339    -7335 
   -7339    -7348    -7348    -7333    -7321    -7314    -7306    -7294 
   -7269    -7234    -7209    -7199    -7198    -7203    -7213    -7217 
   -7218    -7229    -7254    -7295    -7339    -7377    -7402    -7416 
   -7433    -7458    -7488    -7519    -7543    -7550    -7551    -7555 
   -7564    -7582    -7600    -7604    -7599    -7591    -7582    -7580 
   -7580    -7580    -7573    -7554    -7539    -7534    -7533    -7537 
   -7539    -7538    -7539    -7550    -7565    -7581    -7589    -7591 
   -7595    -7604    -7609    -7611    -7604    -7584    -7558    -7533 
   -7510    -7496    -7489    -7477    -7461    -7450    -7445    -7449 
   -7466    -7487    -7496    -7484    -7457    -7433    -7412    -7395 
   -7371    -7330    -7279    -7229    -7180    -7137    -7095    -7047 
   -6993    -6943    -6901    -6872    -6867    -6876    -6899    -6930 
   -6966    -7003    -7047    -7092    -7133    -7163    -7187    -7211 
   -7237    -7260    -7271    -7271    -7271    -7272    -7276    -7271 
   -7249    -7209    -7164    -7128    -7098    -7078    -7059    -7040 
   -7032    -7040    -7065    -7107    -7157    -7210    -7260    -7310 
   -7365    -7415    -7454    -7497    -7549    -7597    -7642    -7678 
   -7699    -7709    -7719    -7720    -7711    -7686    -7646    -7600 
   -7557    -7527    -7514    -7507    -7497    -7487    -7480    -7476 
   -7480    -7489    -7495    -7493    -7484    -7470    -7464    -7466 
   -7470    -7470    -7468    -7458    -7442    -7430    -7425    -7429 
   -7437    -7449    -7462    -7477    -7489    -7496    -7491    -7470 
   -7445    -7423    -7404    -7391    -7375    -7352    -7330    -7310 
   -7290    -7273    -7261    -7252    -7253    -7267    -7298    -7339 
   -7379    -7407    -7429    -7449    -7480    -7526    -7581    -7635 
   -7672    -7688    -7699    -7712    -7736    -7763    -7780    -7785 
   -7781    -7774    -7771    -7767    -7758    -7742    -7727    -7716 
   -7709    -7707    -7696    -7672    -7646    -7624    -7612    -7614 
   -7622    -7620    -7611    -7593    -7565    -7535    -7514    -7503 
   -7497    -7489    -7480    -7473    -7468    -7472    -7485    -7489 
   -7472    -7439    -7404    -7380    -7368    -7353    -7322    -7279 
   -7231    -7198    -7183    -7175    -7173    -7173    -7171    -7168 
   -7161    -7152    -7138    -7121    -7102    -7094    -7096    -7111 
   -7134    -7164    -7202    -7245    -7284    -7317    -7344    -7362 
   -7371    -7383    -7407    -7433    -7458    -7484    -7504    -7516 
   -7527    -7541    -7551    -7557    -7557    -7551    -7546    -7537 
   -7527    -7520    -7510    -7501    -7499    -7501    -7503    -7503 
   -7508    -7524    -7547    -7576    -7600    -7618    -7631    -7631 
   -7627    -7631    -7639    -7647    -7650    -7645    -7632    -7627 
   -7628    -7630    -7630    -7624    -7618    -7614    -7612    -7608 
   -7595    -7578    -7565    -7549    -7541    -7541    -7535    -7528 
   -7516    -7493    -7470    -7458    -7454    -7445    -7426    -7399 
   -7362    -7334    -7317    -7296    -7264    -7218    -7168    -7121 
   -7075    -7032    -6995    -6957    -6920    -6891    -6880    -6883 
   -6894    -6913    -6940    -6971    -7007    -7051    -7098    -7140 
   -7182    -7226    -7275    -7330    -7392    -7454    -7511    -7553 
   -7578    -7601    -7622    -7630    -7626    -7620    -7608    -7592 
   -7580    -7565    -7542    -7526    -7515    -7501    -7499    -7503 
   -7504    -7512    -7519    -7526    -7542    -7564    -7580    -7591 
   -7596    -7593    -7588    -7588    -7591    -7593    -7601    -7609 
   -7611    -7609    -7608    -7601    -7593    -7591    -7592    -7596 
   -7600    -7607    -7605    -7604    -7614    -7622    -7628    -7643 
   -7657    -7662    -7669    -7676    -7678    -7677    -7663    -7643 
   -7622    -7601    -7589    -7584    -7576    -7561    -7537    -7503 
   -7479    -7461    -7447    -7441    -7437    -7430    -7426    -7423 
   -7420    -7418    -7412    -7406    -7406    -7410    -7416    -7433 
   -7465    -7508    -7557    -7614    -7663    -7697    -7726    -7747 
   -7767    -7798    -7835    -7866    -7888    -7894    -7886    -7874 
   -7867    -7870    -7871    -7858    -7827    -7786    -7744    -7704 
   -7669    -7638    -7605    -7565    -7520    -7481    -7439    -7396 
   -7356    -7311    -7265    -7231    -7199    -7160    -7115    -7065 
   -7013    -6974    -6949    -6934    -6926    -6926    -6930    -6934 
