Origin Time       2025/01/13 21:19:00
Lat.              31.8
Long.             131.6
Depth. (km)       30
Mag.              6.9
Station Code      YMGH11
Station Lat.      34.2091
Station Long.     131.6859
Station Height(m) -80
Record Time       2025/01/13 21:20:18
Sampling Freq(Hz) 100Hz
Duration Time(s)  138
Dir.              2
Scale Factor      2942(gal)/8224139
Max. Acc. (gal)   1.098
Last Correction   2025/01/13 21:20:19
Memo.             
[...]
  -58090   -58093   -58098   -58104   -58108   -58120   -58133   -58139 
  -58144   -58152   -58164   -58186   -58217   -58253   -58280   -58303 
  -58340   -58391   -58448   -58519   -58598   -58657   -58698   -58719 
  -58719   -58707   -58691   -58675   -58666   -58673   -58699   -58733 
  -58757   -58762   -58749   -58708   -58645   -58581   -58540   -58521 
  -58522   -58540   -58561   -58575   -58564   -58526   -58476   -58428 
  -58383   -58342   -58303   -58279   -58290   -58313   -58328   -58338 
  -58334   -58318   -58307   -58293   -58271   -58259   -58243   -58225 
  -58220   -58225   -58239   -58263   -58301   -58342   -58379   -58407 
  -58436   -58469   -58500   -58513   -58514   -58521   -58538   -58565 
  -58602   -58633   -58646   -58654   -58660   -58656   -58644   -58634 
  -58633   -58644   -58660   -58675   -58680   -58669   -58645   -58614 
  -58575   -58540   -58521   -58509   -58499   -58490   -58475   -58459 
  -58446   -58442   -58445   -58457   -58475   -58492   -58506   -58513 
  -58513   -58511   -58513   -58517   -58531   -58561   -58602   -58653 
  -58704   -58745   -58769   -58769   -58735   -58680   -58623   -58580 
  -58554   -58554   -58567   -58583   -58607   -58631   -58657   -58699 
  -58754   -58812   -58864   -58918   -58974   -59009   -59011   -58984 
  -58936   -58876   -58816   -58762   -58725   -58711   -58720   -58743 
  -58772   -58795   -58820   -58862   -58922   -58990   -59050   -59074 
  -59061   -59020   -58973   -58932   -58901   -58881   -58872   -58864 
  -58850   -58828   -58783   -58725   -58676   -58648   -58653   -58696 
  -58754   -58804   -58833   -58835   -58819   -58792   -58761   -58743 
  -58735   -58729   -58729   -58725   -58712   -58692   -58660   -58629 
  -58614   -58600   -58581   -58557   -58525   -58487   -58433   -58382 
  -58360   -58361   -58372   -58386   -58394   -58384   -58352   -58306 
  -58253   -58202   -58171   -58155   -58135   -58104   -58066   -58024 
  -57981   -57946   -57912   -57874   -57840   -57809   -57788   -57763 
  -57726   -57690   -57661   -57632   -57609   -57591   -57574   -57569 
  -57573   -57568   -57562   -57572   -57596   -57623   -57657   -57707 
  -57765   -57825   -57886   -57937   -57987   -58040   -58089   -58122 
  -58147   -58175   -58212   -58253   -58299   -58347   -58383   -58405 
  -58415   -58433   -58464   -58492   -58519   -58561   -58608   -58656 
  -58718   -58803   -58899   -58992   -59069   -59115   -59134   -59124 
  -59084   -59020   -58950   -58899   -58868   -58842   -58820   -58806 
  -58779   -58735   -58688   -58642   -58600   -58565   -58540   -58522 
  -58518   -58527   -58546   -58572   -58603   -58654   -58723   -58795 
  -58864   -58934   -59001   -59061   -59115   -59157   -59188   -59204 
  -59212   -59221   -59232   -59229   -59206   -59184   -59167   -59151 
  -59134   -59125   -59128   -59138   -59146   -59150   -59148   -59143 
  -59140   -59146   -59165   -59202   -59248   -59287   -59313   -59320 
  -59312   -59292   -59259   -59227   -59200   -59171   -59132   -59085 
  -59040   -59007   -58984   -58966   -58946   -58914   -58870   -58824 
  -58766   -58689   -58602   -58519   -58441   -58356   -58270   -58198 
  -58147   -58122   -58126   -58148   -58170   -58178   -58175   -58166 
  -58143   -58109   -58082   -58070   -58068   -58082   -58118   -58168 
  -58232   -58298   -58348   -58379   -58395   -58392   -58372   -58340 
  -58297   -58263   -58257   -58280   -58321   -58356   -58363   -58349 
  -58328   -58307   -58294   -58291   -58302   -58325   -58359   -58407 
  -58468   -58527   -58584   -58649   -58715   -58765   -58788   -58792 
  -58797   -58811   -58824   -58843   -58877   -58931   -59009   -59103 
  -59201   -59294   -59377   -59456   -59539   -59622   -59699   -59760 
  -59809   -59852   -59891   -59919   -59934   -59948   -59977   -60030 
  -60087   -60135   -60170   -60178   -60158   -60118   -60061   -59985 
  -59896   -59803   -59717   -59652   -59605   -59570   -59533   -59483 
  -59431   -59394   -59377   -59362   -59332   -59281   -59225   -59181 
  -59158   -59151   -59148   -59150   -59161   -59184   -59211   -59221 
  -59206   -59170   -59109   -59032   -58949   -58862   -58779   -58702 
  -58625   -58558   -58517   -58492   -58473   -58445   -58398   -58332 
  -58252   -58167   -58099   -58058   -58025   -57998   -57978   -57946 
  -57897   -57839   -57771   -57711   -57684   -57689   -57708   -57734 
  -57743   -57728   -57688   -57623   -57538   -57442   -57368   -57334 
  -57334   -57356   -57397   -57458   -57538   -57632   -57728   -57813 
  -57888   -57943   -57967   -57955   -57906   -57839   -57763   -57685 
  -57615   -57565   -57526   -57495   -57477   -57465   -57446   -57419 
  -57387   -57369   -57368   -57376   -57403   -57451   -57493   -57516 
  -57523   -57510   -57480   -57442   -57393   -57327   -57245   -57156 
  -57075   -57015   -56968   -56920   -56870   -56824   -56786   -56758 
  -56728   -56693   -56654   -56606   -56558   -56521   -56492   -56471 
  -56474   -56497   -56535   -56590   -56664   -56758   -56862   -56970 
  -57082   -57190   -57280   -57360   -57443   -57527   -57601   -57663 
  -57705   -57723   -57734   -57746   -57766   -57804   -57855   -57910 
  -57967   -58012   -58032   -58040   -58051   -58079   -58133   -58220 
  -58342   -58480   -58608   -58719   -58812   -58891   -58955   -59011 
  -59071   -59134   -59185   -59227   -59262   -59294   -59329   -59368 
  -59417   -59472   -59520   -59567   -59618   -59661   -59692   -59725 
  -59765   -59818   -59884   -59953   -60014   -60069   -60110   -60123 
  -60096   -60022   -59911   -59782   -59645   -59522   -59435   -59395 
  -59394   -59422   -59472   -59545   -59640   -59741   -59822   -59871 
  -59891   -59884   -59865   -59852   -59853   -59879   -59919   -59975 
  -60048   -60120   -60181   -60231   -60273   -60316   -60369   -60436 
  -60528   -60640   -60759   -60867   -60955   -61020   -61060   -61078 
  -61086   -61092   -61102   -61121   -61149   -61177   -61199   -61219 
  -61221   -61195   -61152   -61102   -61053   -60997   -60922   -60848 
  -60797   -60768   -60751   -60751   -60783   -60844   -60920   -60997 
  -61072   -61144   -61196   -61227   -61245   -61252   -61244   -61217 
  -61182   -61164   -61173   -61203   -61249   -61299   -61345   -61377 
  -61398   -61427   -61464   -61492   -61504   -61495   -61468   -61425 
  -61348   -61240   -61113   -60974   -60822   -60654   -60480   -60307 
  -60138   -59971   -59803   -59652   -59518   -59397   -59281   -59166 
  -59043   -58908   -58760   -58590   -58410   -58220   -58012   -57785 
  -57551   -57315   -57068   -56813   -56569   -56346   -56151   -55998 
  -55896   -55848   -55842   -55857   -55876   -55885   -55879   -55860 
  -55827   -55782   -55732   -55688   -55656   -55636   -55625   -55615 
  -55613   -55624   -55656   -55714   -55798   -55888   -55965   -56020 
  -56049   -56049   -56023   -55976   -55917   -55857   -55783   -55696 
  -55625   -55576   -55559   -55579   -55633   -55711   -55798   -55865 
  -55904   -55917   -55915   -55912   -55915   -55921   -55930   -55949 
  -55977   -56007   -56037   -56065   -56096   -56127   -56153   -56169 
  -56178   -56188   -56193   -56188   -56178   -56177   -56182   -56199 
  -56227   -56261   -56297   -56331   -56353   -56377   -56419   -56479 
  -56551   -56623   -56686   -56739   -56768   -56783   -56790   -56795 
  -56825   -56901   -57014   -57159   -57311   -57457   -57597   -57730 
  -57847   -57951   -58039   -58108   -58149   -58168   -58178   -58180 
  -58171   -58153   -58132   -58093   -58037   -57987   -57963   -57967 
  -57991   -58021   -58047   -58068   -58085   -58105   -58139   -58182 
  -58212   -58220   -58207   -58191   -58178   -58183   -58213   -58260 
  -58325   -58419   -58540   -58673   -58816   -58954   -59077   -59179 
  -59250   -59281   -59287   -59294   -59316   -59359   -59421   -59485 
  -59536   -59586   -59643   -59694   -59740   -59772   -59788   -59796 
  -59803   -59813   -59823   -59823   -59815   -59815   -59827   -59829 
  -59823   -59827   -59846   -59883   -59929   -59964   -59984   -59996 
  -59999   -59991   -59968   -59915   -59836   -59741   -59638   -59547 
  -59479   -59425   -59379   -59325   -59265   -59202   -59130   -59044 
  -58945   -58833   -58711   -58580   -58441   -58301   -58158   -58020 
  -57910   -57838   -57797   -57786   -57809   -57861   -57943   -58070 
  -58241   -58437   -58645   -58850   -59039   -59213   -59385   -59564 
  -59753   -59944   -60116   -60265   -60386   -60482   -60548   -60585 
  -60590   -60566   -60515   -60453   -60397   -60354   -60326   -60309 
  -60292   -60261   -60211   -60142   -60054   -59971   -59900   -59846 
  -59806   -59779   -59760   -59746   -59742   -59738   -59732   -59732 
  -59742   -59761   -59775   -59769   -59752   -59721   -59672   -59614 
  -59555   -59512   -59491   -59498   -59537   -59599   -59668   -59711 
  -59711   -59686   -59640   -59580   -59524   -59479   -59437   -59390 
  -59337   -59281   -59217   -59136   -59034   -58918   -58804   -58711 
  -58633   -58553   -58467   -58380   -58306   -58252   -58210   -58179 
  -58171   -58179   -58190   -58207   -58233   -58255   -58274   -58283 
  -58287   -58310   -58351   -58388   -58428   -58463   -58483   -58498 
  -58499   -58482   -58468   -58473   -58487   -58514   -58544   -58573 
  -58612   -58656   -58710   -58769   -58820   -58873   -58936   -59007 
  -59080   -59157   -59235   -59310   -59375   -59427   -59464   -59483 
  -59489   -59476   -59445   -59405   -59360   -59320   -59286   -59247 
  -59196   -59130   -59050   -58978   -58935   -58919   -58920   -58938 
  -58957   -58965   -58966   -58961   -58949   -58927   -58895   -58864 
  -58841   -58815   -58789   -58758   -58718   -58672   -58619   -58568 
  -58531   -58510   -58507   -58518   -58533   -58549   -58564   -58585 
  -58612   -58635   -58646   -58649   -58652   -58657   -58665   -58671 
  -58665   -58637   -58585   -58521   -58434   -58328   -58220   -58114 
  -58014   -57940   -57888   -57848   -57823   -57812   -57812   -57820 
  -57850   -57912   -57996   -58109   -58260   -58429   -58596   -58766 
  -58927   -59076   -59217   -59354   -59478   -59587   -59682   -59765 
  -59836   -59884   -59923   -59964   -59998   -60033   -60087   -60160 
  -60228   -60270   -60274   -60231   -60146   -60038   -59921   -59806 
  -59688   -59557   -59408   -59227   -59026   -58819   -58602   -58382 
  -58175   -57974   -57777   -57592   -57419   -57264   -57125   -57009 
  -56925   -56874   -56845   -56826   -56793   -56743   -56697   -56673 
  -56675   -56706   -56772   -56880   -57026   -57199   -57397   -57612 
  -57823   -58024   -58198   -58333   -58438   -58521   -58573   -58599 
  -58610   -58611   -58606   -58603   -58611   -58633   -58675   -58727 
  -58777   -58827   -58876   -58938   -59007   -59071   -59125   -59157 
  -59152   -59139   -59121   -59084   -59054   -59027   -58978   -58928 
  -58853   -58741   -58615   -58468   -58309   -58159   -58024   -57912 
  -57834   -57788   -57769   -57785   -57824   -57871   -57913   -57942 
  -57956   -57962   -57971   -57996   -58032   -58077   -58132   -58205 
  -58293   -58382   -58464   -58550   -58645   -58742   -58843   -58934 
  -59009   -59078   -59150   -59238   -59336   -59414   -59467   -59483 
  -59464   -59433   -59397   -59351   -59302   -59274   -59262   -59256 
  -59266   -59297   -59327   -59344   -59355   -59350   -59306   -59246 
  -59194   -59124   -59051   -58988   -58891   -58784   -58666   -58536 
  -58418   -58290   -58175   -58091   -58016   -57940   -57852   -57755 
  -57639   -57500   -57352   -57196   -57046   -56920   -56824   -56764 
  -56739   -56744   -56781   -56825   -56860   -56898   -56937   -56968 
  -57006   -57052   -57106   -57173   -57253   -57326   -57365   -57380 
  -57366   -57326   -57284   -57244   -57217   -57215   -57235   -57280 
  -57346   -57423   -57512   -57609   -57717   -57827   -57920   -57996 
  -58066   -58126   -58187   -58259   -58334   -58413   -58494   -58581 
  -58671   -58750   -58846   -58926   -58972   -59000   -58988   -58946 
  -58889   -58814   -58747   -58708   -58702   -58704   -58710   -58725 
  -58738   -58752   -58766   -58766   -58752   -58735   -58715   -58692 
  -58679   -58689   -58730   -58784   -58841   -58903   -58961   -59009 
  -59057   -59103   -59146   -59204   -59290   -59393   -59498   -59586 
  -59644   -59698   -59749   -59796   -59854   -59915   -59979   -60042 
  -60092   -60126   -60139   -60146   -60146   -60131   -60111   -60089 
  -60077   -60064   -60034   -60007   -59969   -59914   -59881   -59830 
  -59765   -59710   -59637   -59571   -59506   -59447   -59414   -59391 
  -59375   -59351   -59312   -59256   -59174   -59074   -58966   -58860 
  -58764   -58687   -58625   -58569   -58517   -58469   -58434   -58407 
  -58379   -58344   -58295   -58232   -58162   -58091   -58017   -57935 
  -57838   -57709   -57568   -57423   -57264   -57106   -56955   -56795 
  -56640   -56489   -56339   -56200   -56085   -55995   -55922   -55876 
  -55852   -55841   -55846   -55865   -55890   -55912   -55935   -55969 
  -56004   -56043   -56103   -56176   -56262   -56359   -56462   -56573 
  -56693   -56818   -56938   -57057   -57183   -57314   -57446   -57570 
  -57684   -57798   -57923   -58056   -58197   -58340   -58484   -58635 
  -58783   -58926   -59071   -59231   -59408   -59599   -59796   -59989 
  -60183   -60372   -60551   -60736   -60925   -61105   -61275   -61418 
  -61522   -61596   -61643   -61663   -61654   -61628   -61597   -61561 
  -61518   -61476   -61442   -61410   -61371   -61325   -61275   -61223 
  -61164   -61109   -61056   -60979   -60914   -60863   -60768   -60666 
  -60548   -60373   -60192   -59999   -59786   -59586   -59387   -59201 
  -59024   -58854   -58692   -58537   -58391   -58257   -58145   -58067 
  -58018   -57991   -57979   -57975   -57979   -57996   -58033   -58083 
  -58140   -58214   -58306   -58394   -58473   -58544   -58600   -58641 
  -58662   -58673   -58679   -58691   -58708   -58718   -58726   -58718 
  -58681   -58634   -58569   -58486   -58405   -58326   -58241   -58147 
  -58044   -57937   -57836   -57744   -57654   -57577   -57518   -57474 
  -57449   -57431   -57419   -57420   -57422   -57430   -57449   -57469 
  -57496   -57519   -57547   -57581   -57597   -57601   -57593   -57561 
  -57516   -57468   -57412   -57349   -57275   -57190   -57103   -57018 
  -56953   -56918   -56918   -56945   -56994   -57064   -57142   -57225 
  -57329   -57445   -57553   -57665   -57786   -57906   -58033   -58176 
  -58333   -58502   -58691   -58885   -59076   -59265   -59445   -59620 
  -59779   -59915   -60026   -60102   -60141   -60160   -60161   -60151 
  -60145   -60142   -60141   -60142   -60145   -60145   -60146   -60147 
  -60141   -60141   -60141   -60142   -60185   -60208   -60201   -60222 
  -60199   -60166   -60150   -60115   -60100   -60084   -60065   -60042 
  -59989   -59929   -59863   -59799   -59749   -59694   -59636   -59582 
  -59528   -59466   -59393   -59308   -59211   -59109   -59017   -58935 
  -58851   -58772   -58699   -58630   -58563   -58498   -58438   -58379 
  -58334   -58306   -58271   -58243   -58210   -58149   -58075   -57986 
  -57889   -57800   -57723   -57665   -57618   -57577   -57542   -57515 
  -57501   -57489   -57466   -57447   -57439   -57441   -57461   -57495 
  -57527   -57547   -57551   -57551   -57550   -57547   -57539   -57518 
  -57489   -57451   -57403   -57369   -57342   -57308   -57310   -57321 
  -57333   -57362   -57379   -57399   -57424   -57437   -57453   -57462 
  -57456   -57441   -57420   -57397   -57384   -57385   -57396   -57416 
  -57442   -57468   -57496   -57537   -57584   -57619   -57639   -57657 
  -57688   -57744   -57823   -57912   -57996   -58074   -58148   -58225 
  -58302   -58378   -58456   -58531   -58596   -58666   -58739   -58803 
  -58868   -58935   -59008   -59085   -59170   -59271   -59383   -59499 
  -59606   -59694   -59756   -59790   -59792   -59765   -59722   -59676 
  -59618   -59549   -59483   -59408   -59306   -59196   -59101   -59001 
  -58896   -58807   -58714   -58622   -58542   -58452   -58369   -58294 
  -58214   -58156   -58117   -58091   -58090   -58117   -58171   -58244 
  -58326   -58426   -58542   -58666   -58797   -58927   -59049   -59159 
  -59250   -59319   -59370   -59394   -59398   -59386   -59358   -59325 
  -59293   -59250   -59194   -59130   -59053   -58972   -58888   -58800 
  -58719   -58635   -58544   -58453   -58364   -58284   -58232   -58198 
  -58182   -58191   -58228   -58290   -58359   -58429   -58500   -58565 
  -58627   -58689   -58742   -58788   -58816   -58814   -58810   -58789 
  -58749   -58715   -58660   -58607   -58567   -58503   -58432   -58361 
  -58294   -58245   -58230   -58251   -58299   -58376   -58473   -58588 
  -58719   -58864   -59024   -59196   -59366   -59536   -59710   -59871 
  -60019   -60158   -60280   -60386   -60496   -60605   -60701   -60790 
  -60889   -60979   -61045   -61096   -61118   -61122   -61118   -61088 
  -61038   -60963   -60852   -60718   -60567   -60405   -60238   -60073 
  -59921   -59771   -59624   -59481   -59329   -59166   -58997   -58831 
  -58664   -58486   -58311   -58149   -57990   -57847   -57726   -57616 
  -57528   -57465   -57424   -57402   -57387   -57379   -57379   -57383 
  -57391   -57396   -57395   -57396   -57411   -57438   -57470   -57507 
  -57537   -57565   -57597   -57634   -57678   -57736   -57802   -57866 
  -57937   -58021   -58113   -58216   -58321   -58415   -58504   -58584 
  -58646   -58704   -58769   -58842   -58922   -59007   -59093   -59175 
  -59250   -59323   -59386   -59440   -59490   -59530   -59567   -59606 
  -59637   -59665   -59703   -59753   -59814   -59868   -59911   -59952 
  -59977   -59979   -59964   -59923   -59850   -59753   -59643   -59514 
  -59363   -59221   -59094   -58974   -58881   -58807   -58743   -58691 
  -58633   -58573   -58522   -58468   -58411   -58361   -58315   -58271 
  -58232   -58195   -58163   -58135   -58102   -58072   -58048   -58014 
  -57974   -57928   -57873   -57804   -57720   -57624   -57514   -57399 
  -57294   -57198   -57103   -57015   -56933   -56867   -56818   -56768 
  -56728   -56700   -56673   -56643   -56619   -56613   -56629   -56662 
  -56709   -56756   -56806   -56866   -56934   -57019   -57118   -57214 
  -57325   -57438   -57553   -57692   -57820   -57935   -58052   -58148 
  -58243   -58332   -58421   -58525   -58627   -58733   -58843   -58946 
  -59043   -59140   -59244   -59346   -59440   -59541   -59644   -59734 
  -59826   -59917   -59991   -60056   -60112   -60151   -60174   -60173 
  -60137   -60080   -60023   -59954   -59868   -59771   -59655   -59518 
  -59370   -59205   -59036   -58877   -58726   -58585   -58449   -58311 
  -58175   -58045   -57927   -57815   -57704   -57585   -57462   -57334 
  -57196   -57083   -56991   -56886   -56821   -56790   -56736   -56728 
  -56729   -56704   -56731   -56748   -56771   -56837   -56893   -56964 
  -57045   -57126   -57213   -57298   -57377   -57441   -57496   -57558 
  -57626   -57701   -57785   -57873   -57950   -58018   -58079   -58122 
  -58145   -58160   -58172   -58170   -58163   -58163   -58159   -58153 
  -58160   -58183   -58206   -58243   -58307   -58380   -58464   -58552 
  -58625   -58703   -58773   -58827   -58876   -58916   -58949   -58972 
