Origin Time       2025/01/13 21:19:00
Lat.              31.8
Long.             131.6
Depth. (km)       30
Mag.              6.9
Station Code      YMGH09
Station Lat.      34.6257
Station Long.     131.6681
Station Height(m) 10
Record Time       2025/01/13 21:20:26
Sampling Freq(Hz) 100Hz
Duration Time(s)  140
Dir.              5
Scale Factor      7845(gal)/8223790
Max. Acc. (gal)   1.542
Last Correction   2025/01/13 21:20:28
Memo.             
[...]
   15106    15078    15086    15140    15238    15365    15484    15572 
   15622    15622    15576    15495    15395    15298    15226    15199 
   15225    15290    15383    15488    15583    15637    15634    15576 
   15466    15321    15151    14979    14831    14723    14665    14670 
   14735    14844    14979    15117    15238    15340    15414    15454 
   15468    15480    15502    15534    15565    15583    15574    15529 
   15444    15341    15245    15174    15129    15101    15082    15080 
   15090    15095    15082    15040    14983    14917    14839    14756 
   14678    14605    14551    14534    14555    14611    14694    14783 
   14870    14951    15013    15048    15053    15032    14998    14958 
   14914    14887    14891    14937    15032    15159    15290    15407 
   15487    15503    15442    15298    15091    14864    14662    14517 
   14446    14447    14509    14617    14750    14883    15001    15087 
   15141    15163    15159    15142    15126    15113    15093    15055 
   14995    14906    14785    14650    14543    14493    14511    14601 
   14743    14910    15066    15167    15194    15152    15067    14960 
   14848    14737    14643    14578    14553    14563    14602    14665 
   14736    14805    14870    14928    14978    15012    15034    15064 
   15107    15155    15206    15261    15311    15356    15395    15435 
   15480    15523    15547    15549    15529    15487    15430    15379 
   15344    15337    15361    15415    15503    15604    15693    15757 
   15782    15763    15711    15635    15550    15477    15438    15444 
   15489    15557    15615    15639    15619    15556    15457    15340 
   15225    15137    15097    15110    15159    15218    15276    15329 
   15379    15414    15404    15340    15245    15165    15130    15142 
   15190    15260    15340    15414    15468    15489    15471    15418 
   15350    15294    15264    15260    15261    15260    15259    15260 
   15271    15299    15341    15371    15365    15319    15233    15113 
   14979    14863    14808    14839    14953    15133    15342    15534 
   15662    15703    15642    15492    15282    15053    14850    14697 
   14616    14607    14650    14724    14816    14914    15002    15066 
   15106    15121    15111    15075    15010    14935    14877    14848 
   14848    14885    14952    15030    15106    15169    15211    15223 
   15199    15147    15063    14959    14850    14747    14659    14593 
   14561    14575    14627    14704    14794    14877    14940    14979 
   14985    14968    14951    14926    14901    14895    14917    14956 
   15016    15087    15149    15184    15186    15149    15082    14997 
   14917    14874    14899    14995    15141    15306    15461    15568 
   15597    15554    15458    15338    15226    15147    15110    15126 
   15191    15288    15385    15466    15530    15570    15580    15564 
   15522    15453    15363    15259    15152    15055    14982    14947 
   14968    15057    15201    15384    15591    15782    15913    15965 
   15927    15808    15631    15430    15237    15064    14921    14814 
   14756    14762    14820    14901    14989    15061    15093    15074 
   15016    14937    14868    14840    14852    14885    14921    14952 
   14967    14956    14912    14847    14783    14740    14721    14715 
   14704    14685    14642    14565    14466    14369    14289    14233 
   14210    14237    14308    14411    14530    14646    14746    14825 
   14867    14860    14827    14786    14735    14673    14612    14565 
   14550    14586    14667    14770    14885    15002    15120    15241 
   15369    15488    15588    15670    15728    15753    15738    15695 
   15643    15595    15562    15553    15556    15568    15579    15583 
   15577    15560    15525    15465    15383    15284    15182    15078 
   14982    14916    14891    14916    14975    15051    15133    15218 
   15296    15358    15404    15439    15464    15469    15456    15422 
   15372    15322    15287    15283    15307    15348    15385    15415 
   15439    15460    15477    15496    15510    15515    15520    15527 
   15533    15533    15516    15488    15465    15449    15441    15446 
   15465    15487    15500    15489    15450    15396    15329    15245 
   15153    15061    14985    14922    14859    14783    14698    14607 
   14511    14418    14351    14327    14350    14419    14526    14661 
   14806    14949    15071    15168    15240    15275    15272    15252 
   15242    15253    15290    15352    15438    15537    15641    15738 
   15799    15811    15778    15718    15649    15591    15547    15533 
   15560    15626    15715    15800    15854    15870    15855    15815 
   15755    15697    15655    15642    15651    15668    15684    15689 
   15673    15633    15576    15519    15480    15450    15425    15410 
   15400    15392    15395    15400    15394    15369    15325    15264 
   15203    15163    15156    15196    15284    15408    15553    15695 
   15796    15834    15800    15699    15552    15396    15272    15191 
   15157    15172    15221    15280    15337    15367    15357    15313 
   15232    15113    14974    14823    14675    14554    14470    14447 
   14501    14613    14755    14893    14987    15016    14967    14841 
   14655    14439    14231    14068    13968    13929    13937    13983 
   14060    14169    14308    14455    14598    14732    14851    14955 
   15033    15079    15093    15076    15032    14964    14898    14848 
   14808    14775    14760    14760    14762    14763    14769    14783 
   14806    14837    14885    14952    15037    15138    15246    15342 
   15423    15484    15515    15512    15477    15408    15313    15209 
   15106    15012    14928    14852    14779    14717    14666    14628 
   14604    14601    14632    14679    14729    14775    14801    14789 
   14737    14662    14571    14488    14436    14426    14459    14530 
   14616    14692    14744    14770    14769    14735    14679    14628 
   14597    14590    14620    14683    14779    14908    15060    15207 
   15326    15395    15402    15353    15275    15190    15118    15072 
   15056    15086    15159    15250    15334    15394    15426    15433 
   15411    15365    15307    15242    15175    15122    15102    15125 
   15178    15233    15277    15311    15337    15350    15353    15349 
   15338    15326    15317    15310    15300    15294    15290    15280 
   15269    15257    15237    15206    15165    15128    15101    15079 
   15053    15024    14995    14967    14940    14917    14910    14928 
   14976    15049    15125    15174    15182    15152    15105    15063 
   15044    15061    15115    15195    15276    15348    15400    15418 
   15392    15333    15267    15221    15206    15214    15241    15282 
   15323    15353    15364    15357    15338    15307    15271    15238 
   15218    15214    15223    15245    15283    15327    15371    15400 
   15406    15395    15380    15371    15369    15365    15344    15299 
   15234    15156    15079    15030    15020    15061    15157    15280 
   15390    15454    15469    15453    15423    15391    15363    15337 
   15307    15269    15217    15152    15094    15057    15049    15060 
   15086    15121    15152    15176    15195    15206    15217    15233 
   15255    15280    15306    15318    15317    15302    15260    15186 
   15093    14994    14909    14859    14858    14902    14985    15072 
   15133    15159    15152    15121    15082    15052    15040    15039 
   15039    15034    15026    15014    15012    15032    15078    15148 
   15232    15314    15373    15391    15365    15292    15165    14993 
   14805    14643    14530    14482    14508    14582    14675    14770 
   14847    14898    14929    14949    14972    15003    15043    15057 
   15026    14952    14862    14782    14725    14698    14712    14763 
   14839    14918    14966    14959    14908    14833    14764    14731 
   14750    14804    14871    14939    14990    15010    15007    14990 
   14968    14962    14970    14980    14990    14990    14976    14964 
   14966    14990    15049    15144    15267    15398    15518    15610 
   15664    15687    15691    15682    15661    15614    15527    15414 
   15294    15184    15095    15030    14989    14971    14989    15043 
   15113    15186    15256    15326    15394    15460    15520    15579 
   15645    15712    15770    15826    15878    15916    15928    15913 
   15885    15853    15820    15792    15773    15751    15718    15666 
   15601    15534    15473    15426    15392    15360    15322    15275 
   15222    15171    15136    15124    15121    15125    15138    15151 
   15159    15165    15167    15169    15180    15205    15244    15299 
   15361    15403    15406    15372    15319    15277    15268    15280 
   15311    15356    15392    15398    15365    15303    15233    15178 
   15153    15175    15238    15325    15400    15444    15458    15453 
   15425    15396    15387    15395    15410    15414    15398    15365 
   15321    15263    15203    15159    15134    15120    15101    15078 
   15056    15040    15024    14999    14971    14939    14908    14891 
   14885    14871    14851    14821    14782    14750    14725    14702 
   14682    14675    14673    14651    14600    14524    14434    14347 
   14285    14253    14250    14273    14307    14338    14349    14322 
   14256    14165    14073    14004    13983    14022    14119    14261 
   14427    14585    14717    14821    14886    14920    14945    14968 
   14994    15034    15093    15156    15218    15264    15272    15241 
   15176    15087    14994    14913    14859    14844    14882    14956 
   15045    15141    15236    15321    15402    15484    15566    15641 
   15700    15742    15763    15765    15743    15685    15583    15439 
   15267    15080    14905    14759    14655    14605    14598    14611 
   14616    14588    14509    14395    14273    14165    14080    14025 
   13998    13992    14007    14040    14084    14135    14193    14261 
   14341    14416    14469    14486    14473    14449    14434    14439 
   14478    14567    14716    14914    15140    15358    15533    15633 
   15658    15622    15542    15441    15340    15241    15160    15110 
   15080    15057    15049    15056    15076    15103    15132    15153 
   15164    15169    15174    15178    15183    15187    15201    15237 
   15296    15380    15476    15570    15661    15750    15815    15831 
   15785    15677    15535    15381    15242    15147    15106    15115 
   15163    15236    15318    15388    15438    15466    15479    15493 
   15527    15579    15657    15763    15885    16009    16114    16181 
   16210    16208    16190    16175    16167    16170    16177    16182 
   16183    16170    16129    16056    15955    15840    15731    15631 
   15543    15472    15421    15400    15419    15472    15530    15587 
   15639    15674    15677    15660    15623    15569    15504    15425 
   15322    15207    15098    15009    14955    14948    14979    15032 
   15093    15136    15134    15091    15037    14999    14991    15028 
   15109    15213    15326    15449    15564    15653    15715    15757 
   15784    15790    15774    15750    15730    15708    15682    15654 
   15619    15583    15549    15519    15484    15429    15358    15283 
   15206    15137    15082    15044    15020    14997    14963    14908 
   14827    14732    14640    14571    14536    14540    14581    14654 
   14751    14856    14947    15018    15068    15090    15070    15006 
   14908    14801    14708    14638    14597    14578    14580    14597 
   14612    14617    14631    14665    14710    14759    14808    14852 
   14886    14909    14931    14955    14980    15006    15028    15051 
   15080    15109    15129    15132    15118    15095    15070    15041 
   15002    14951    14899    14856    14817    14773    14725    14689 
   14665    14665    14690    14736    14800    14878    14955    15014 
   15051    15063    15055    15029    14993    14960    14937    14924 
   14926    14956    15013    15091    15179    15265    15333    15368 
   15367    15336    15291    15245    15213    15205    15222    15264 
   15315    15349    15350    15329    15290    15234    15175    15128 
   15102    15103    15134    15182    15226    15248    15233    15195 
   15151    15101    15063    15045    15043    15051    15057    15047 
   15018    14983    14959    14958    14986    15040    15110    15182 
   15236    15257    15246    15214    15174    15141    15125    15126 
   15140    15160    15187    15223    15275    15342    15419    15498 
   15577    15650    15708    15754    15790    15831    15876    15924 
   15974    16019    16048    16040    15981    15873    15734    15584 
   15448    15337    15246    15180    15142    15117    15091    15055 
   15009    14960    14921    14899    14902    14928    14972    15041 
   15129    15221    15295    15341    15357    15352    15338    15326 
   15322    15323    15323    15319    15314    15314    15318    15334 
   15373    15439    15533    15653    15786    15912    16019    16101 
   16162    16202    16221    16209    16164    16098    16011    15908 
   15797    15685    15585    15500    15418    15349    15300    15259 
   15210    15161    15115    15075    15037    14991    14926    14843 
   14742    14612    14454    14284    14123    13981    13853    13736 
   13640    13576    13540    13524    13531    13558    13599    13648 
   13690    13711    13716    13707    13697    13686    13672    13664 
   13672    13707    13799    13959    14172    14434    14732    15036 
   15306    15519    15658    15709    15684    15615    15534    15469 
   15437    15438    15475    15545    15631    15712    15782    15832 
   15855    15842    15789    15701    15585    15452    15319    15210 
   15134    15101    15102    15128    15175    15233    15290    15344 
   15388    15417    15431    15439    15438    15419    15384    15329 
   15260    15194    15141    15099    15067    15048    15053    15084 
   15138    15211    15287    15344    15365    15350    15296    15211 
   15110    15017    14949    14920    14935    14986    15043    15090 
   15130    15157    15161    15138    15095    15037    14976    14916 
   14858    14813    14783    14769    14763    14755    14736    14701 
   14646    14573    14494    14416    14349    14304    14283    14280 
   14295    14318    14346    14366    14351    14293    14222    14160 
   14119    14112    14143    14216    14323    14453    14586    14713 
   14821    14905    14967    15021    15083    15160    15261    15376 
   15487    15583    15653    15691    15697    15676    15628    15565 
   15499    15449    15421    15410    15412    15426    15450    15468 
   15462    15429    15377    15319    15256    15195    15157    15140 
   15138    15160    15194    15223    15237    15226    15205    15192 
   15199    15228    15275    15329    15380    15429    15473    15511 
   15552    15606    15662    15705    15735    15757    15763    15761 
   15769    15789    15823    15867    15909    15938    15950    15936 
   15896    15838    15780    15735    15718    15738    15799    15892 
   15992    16077    16131    16139    16094    16008    15905    15805 
   15723    15661    15611    15565    15522    15469    15410    15357 
   15318    15288    15275    15279    15287    15283    15256    15202 
   15124    15026    14908    14783    14681    14608    14555    14534 
   14547    14570    14585    14588    14578    14565    14566    14590 
   14632    14679    14731    14787    14848    14914    14985    15059 
   15138    15217    15284    15340    15377    15387    15372    15336 
   15268    15174    15066    14955    14848    14756    14675    14609 
   14567    14554    14562    14575    14585    14586    14574    14551 
   14527    14515    14515    14520    14534    14566    14611    14643 
   14646    14620    14574    14513    14447    14392    14362    14369 
   14407    14463    14536    14624    14720    14820    14935    15068 
   15210    15348    15469    15566    15649    15716    15780    15855 
   15944    16039    16125    16197    16249    16278    16279    16262 
   16240    16227    16221    16214    16216    16228    16237    16243 
   16237    16210    16159    16079    15981    15873    15761    15650 
   15547    15461    15396    15345    15292    15241    15191    15140 
   15071    14990    14910    14840    14789    14762    14759    14774 
   14797    14813    14808    14782    14746    14717    14693    14682 
   14713    14789    14895    15018    15134    15228    15276    15269 
   15213    15129    15034    14943    14863    14809    14779    14756 
   14724    14685    14654    14639    14639    14650    14673    14708 
   14754    14805    14854    14898    14939    14975    15003    15010 
   14985    14925    14844    14759    14686    14627    14584    14559 
   14548    14546    14544    14532    14513    14493    14469    14439 
   14412    14392    14380    14382    14411    14467    14547    14640 
   14728    14798    14839    14839    14813    14778    14746    14729 
   14744    14787    14862    14962    15076    15194    15309    15407 
   15487    15547    15591    15624    15647    15661    15669    15681 
   15700    15720    15734    15745    15757    15761    15749    15720 
   15684    15642    15599    15564    15547    15550    15564    15572 
   15568    15549    15511    15453    15388    15321    15269    15242 
   15232    15230    15234    15225    15199    15169    15137    15091 
   15034    14968    14901    14840    14786    14733    14689    14659 
   14650    14658    14683    14731    14802    14889    14979    15061 
   15125    15168    15190    15194    15187    15176    15153    15118 
   15072    15022    14976    14947    14951    14993    15070    15176 
   15299    15421    15523    15599    15643    15662    15664    15658 
   15650    15639    15635    15637    15638    15639    15647    15655 
   15661    15661    15649    15623    15587    15545    15510    15489 
   15485    15493    15508    15534    15562    15577    15568    15531 
   15475    15402    15322    15253    15207    15182    15171    15167 
   15165    15156    15129    15086    15018    14936    14864    14818 
   14800    14816    14868    14951    15049    15156    15265    15364 
   15434    15472    15476    15450    15406    15348    15287    15244 
   15226    15232    15261    15300    15337    15365    15380    15379 
   15369    15357    15349    15350    15363    15383    15408    15438 
   15466    15498    15530    15556    15566    15564    15542    15493 
   15415    15314    15210    15125    15060    15014    14990    14980 
   14975    14964    14944    14913    14868    14813    14755    14700 
   14651    14615    14586    14562    14538    14511    14493    14490 
   14503    14526    14551    14573    14592    14604    14611    14613 
   14620    14636    14665    14710    14770    14844    14932    15030 
   15145    15282    15426    15561    15681    15777    15838    15855 
   15834    15786    15743    15716    15707    15711    15728    15750 
   15766    15777    15780    15768    15741    15712    15682    15645 
