Origin Time       2025/01/13 21:19:00
Lat.              31.8
Long.             131.6
Depth. (km)       30
Mag.              6.9
Station Code      YMGH10
Station Lat.      34.4837
Station Long.     131.6329
Station Height(m) 165
Record Time       2025/01/13 21:20:30
Sampling Freq(Hz) 100Hz
Duration Time(s)  141
Dir.              1
Scale Factor      3923(gal)/8224838
Max. Acc. (gal)   0.860
Last Correction   2025/01/13 21:20:13
Memo.             
[...]
   46381    46427    46468    46504    46538    46565    46584    46591 
   46587    46573    46554    46530    46500    46475    46453    46435 
   46429    46425    46421    46422    46426    46430    46438    46444 
   46445    46435    46421    46404    46381    46357    46336    46323 
   46323    46332    46345    46369    46398    46423    46453    46481 
   46507    46533    46558    46580    46607    46635    46656    46669 
   46683    46689    46692    46695    46700    46707    46710    46714 
   46724    46738    46749    46757    46764    46765    46757    46745 
   46735    46730    46726    46727    46734    46746    46757    46768 
   46778    46785    46791    46795    46799    46807    46818    46835 
   46855    46873    46888    46892    46880    46859    46834    46801 
   46770    46739    46711    46685    46661    46635    46611    46592 
   46575    46558    46542    46523    46507    46496    46488    46483 
   46480    46477    46473    46465    46454    46446    46437    46426 
   46417    46410    46406    46403    46406    46414    46426    46446 
   46471    46495    46525    46560    46589    46614    46631    46645 
   46656    46664    46674    46685    46696    46704    46711    46718 
   46727    46735    46751    46772    46791    46809    46831    46851 
   46866    46878    46888    46890    46892    46894    46903    46912 
   46919    46923    46921    46916    46909    46909    46908    46907 
   46905    46901    46892    46885    46881    46881    46881    46882 
   46886    46890    46889    46888    46892    46901    46908    46912 
   46915    46911    46901    46889    46873    46858    46845    46828 
   46809    46789    46764    46734    46701    46669    46638    46614 
   46592    46573    46568    46568    46566    46568    46564    46553 
   46549    46545    46542    46548    46560    46569    46579    46595 
   46612    46629    46641    46643    46642    46635    46620    46602 
   46584    46565    46548    46530    46510    46492    46477    46461 
   46445    46429    46413    46403    46402    46406    46419    46444 
   46473    46504    46535    46557    46570    46580    46579    46575 
   46576    46580    46585    46595    46602    46608    46619    46626 
   46627    46626    46623    46623    46624    46626    46629    46630 
   46623    46618    46608    46595    46581    46565    46543    46521 
   46495    46472    46452    46440    46437    46446    46462    46481 
   46503    46527    46553    46576    46596    46615    46626    46630 
   46629    46622    46614    46608    46610    46618    46630    46645 
   46665    46687    46711    46739    46769    46799    46822    46831 
   46831    46824    46809    46789    46769    46747    46728    46714 
   46701    46693    46688    46680    46666    46653    46637    46624 
   46616    46612    46611    46610    46607    46607    46606    46608 
   46616    46622    46619    46606    46588    46565    46543    46526 
   46510    46494    46480    46476    46483    46496    46511    46530 
   46548    46554    46558    46565    46568    46568    46564    46564 
   46566    46573    46584    46600    46626    46658    46689    46723 
   46764    46804    46843    46884    46928    46973    47011    47042 
   47069    47093    47112    47128    47144    47158    47170    47185 
   47198    47204    47202    47201    47200    47197    47196    47193 
   47183    47174    47164    47150    47131    47108    47082    47051 
   47012    46961    46900    46831    46754    46677    46606    46534 
   46467    46404    46349    46299    46256    46215    46183    46157 
   46130    46109    46094    46083    46075    46068    46062    46056 
   46051    46051    46053    46059    46068    46076    46082    46086 
   46091    46103    46121    46137    46159    46183    46207    46232 
   46256    46283    46313    46348    46384    46423    46468    46512 
   46550    46580    46599    46608    46618    46634    46647    46658 
   46680    46707    46739    46780    46824    46861    46894    46928 
   46958    46985    47009    47028    47043    47052    47061    47075 
   47090    47106    47125    47136    47140    47143    47142    47136 
   47127    47115    47096    47075    47056    47039    47019    46994 
   46969    46943    46916    46897    46885    46880    46876    46876 
   46872    46861    46849    46832    46811    46791    46772    46751 
   46732    46720    46711    46699    46689    46689    46691    46691 
   46692    46692    46689    46691    46693    46691    46678    46665 
   46650    46633    46610    46584    46560    46539    46527    46525 
   46521    46519    46522    46526    46535    46549    46564    46575 
   46583    46588    46587    46576    46564    46548    46522    46488 
   46458    46426    46392    46364    46338    46310    46284    46259 
   46233    46211    46187    46160    46133    46103    46072    46040 
   46005    45974    45951    45936    45922    45906    45891    45879 
   45856    45829    45809    45796    45787    45786    45786    45792 
   45802    45809    45813    45823    45829    45839    45855    45878 
   45910    45948    45990    46043    46099    46153    46210    46267 
   46322    46379    46435    46495    46554    46611    46670    46734 
   46797    46861    46920    46980    47039    47097    47159    47223 
   47286    47349    47414    47475    47534    47592    47641    47682 
   47715    47746    47776    47798    47811    47822    47823    47815 
   47796    47773    47750    47722    47698    47683    47664    47642 
   47623    47596    47560    47526    47495    47453    47403    47349 
   47293    47233    47177    47117    47059    47005    46953    46907 
   46863    46822    46781    46746    46719    46693    46665    46633 
   46597    46556    46510    46460    46410    46361    46317    46275 
   46244    46215    46188    46170    46152    46136    46129    46128 
   46125    46124    46124    46130    46148    46179    46217    46249 
   46284    46315    46337    46353    46360    46359    46361    46365 
   46361    46363    46364    46356    46345    46329    46305    46276 
   46245    46211    46188    46179    46176    46179    46184    46191 
   46194    46194    46192    46187    46176    46165    46149    46129 
   46113    46103    46097    46087    46079    46071    46063    46057 
   46055    46048    46040    46035    46021    46006    46001    45998 
   45991    45989    45991    45994    45995    46003    46018    46037 
   46062    46094    46133    46170    46205    46242    46278    46307 
   46333    46353    46373    46395    46415    46435    46458    46479 
   46492    46500    46503    46502    46503    46511    46522    46537 
   46558    46585    46612    46642    46674    46710    46743    46781 
   46812    46838    46858    46872    46878    46884    46892    46904 
   46919    46935    46955    46977    47001    47019    47034    47050 
   47062    47070    47075    47083    47093    47100    47109    47117 
   47127    47135    47137    47137    47139    47142    47148    47164 
   47186    47209    47235    47266    47293    47316    47340    47359 
   47364    47363    47355    47344    47335    47318    47301    47293 
   47285    47277    47271    47262    47248    47232    47212    47189 
   47166    47139    47105    47067    47031    46993    46953    46911 
   46859    46801    46738    46670    46606    46543    46483    46427 
   46377    46327    46278    46232    46191    46152    46111    46082 
   46064    46047    46032    46020    46002    45981    45963    45941 
   45916    45887    45855    45816    45777    45743    45709    45671 
   45635    45603    45573    45550    45534    45524    45526    45540 
   45569    45605    45648    45696    45748    45804    45854    45902 
   45952    45994    46029    46062    46084    46102    46120    46141 
   46164    46190    46224    46267    46314    46368    46429    46495 
   46562    46624    46684    46746    46811    46873    46935    46996 
   47051    47101    47144    47182    47218    47258    47297    47335 
   47372    47412    47448    47480    47514    47549    47584    47625 
   47668    47707    47745    47776    47796    47812    47829    47842 
   47846    47850    47853    47850    47839    47818    47791    47760 
   47723    47684    47641    47595    47547    47497    47445    47399 
   47353    47305    47260    47217    47167    47117    47065    47012 
   46963    46915    46867    46820    46772    46720    46666    46607 
   46542    46471    46396    46319    46236    46152    46071    45994 
   45924    45862    45808    45765    45728    45702    45682    45665 
   45655    45651    45640    45627    45616    45605    45597    45590 
   45581    45571    45566    45565    45567    45570    45573    45573 
   45580    45588    45597    45611    45624    45635    45651    45673 
   45696    45725    45763    45808    45859    45918    45986    46055 
   46116    46174    46230    46275    46314    46357    46390    46415 
   46446    46471    46480    46489    46500    46504    46511    46522 
   46537    46558    46589    46624    46662    46701    46742    46781 
   46822    46866    46913    46961    47011    47061    47108    47154 
   47204    47250    47293    47333    47375    47412    47444    47478 
   47509    47532    47547    47553    47553    47549    47545    47538 
   47532    47525    47520    47513    47503    47497    47488    47476 
   47461    47445    47426    47409    47393    47378    47360    47348 
   47337    47322    47305    47287    47270    47255    47243    47228 
   47212    47191    47163    47132    47098    47058    47012    46967 
   46924    46885    46850    46816    46785    46755    46722    46691 
   46664    46639    46620    46611    46606    46600    46595    46581 
   46565    46549    46529    46511    46499    46498    46503    46511 
   46523    46548    46572    46589    46612    46639    46662    46687 
   46715    46741    46758    46772    46782    46784    46773    46754 
   46727    46699    46674    46654    46637    46627    46620    46612 
   46610    46604    46596    46593    46587    46573    46565    46558 
   46549    46541    46537    46530    46515    46498    46473    46442 
   46410    46377    46341    46302    46265    46230    46197    46170 
   46148    46138    46137    46140    46147    46153    46161    46176 
   46192    46210    46230    46253    46273    46291    46309    46325 
   46336    46345    46354    46354    46349    46341    46326    46309 
   46287    46264    46233    46199    46164    46126    46089    46055 
   46024    45995    45972    45955    45944    45939    45936    45939 
   45949    45963    45975    45994    46017    46032    46043    46057 
   46072    46090    46111    46133    46161    46199    46233    46260 
   46287    46311    46332    46357    46390    46422    46458    46503 
   46552    46603    46658    46715    46769    46832    46899    46955 
   47009    47065    47119    47169    47212    47252    47289    47314 
   47333    47352    47366    47372    47379    47382    47380    47375 
   47370    47358    47339    47316    47285    47248    47213    47174 
   47129    47088    47051    47016    46982    46954    46924    46894 
   46870    46849    46826    46809    46799    46791    46786    46781 
   46780    46782    46785    46792    46799    46807    46816    46823 
   46828    46834    46839    46838    46836    46839    46840    46838 
   46835    46831    46822    46803    46784    46770    46753    46731 
   46714    46691    46666    46639    46607    46568    46523    46481 
   46445    46406    46369    46337    46305    46278    46259    46240 
   46224    46210    46198    46186    46171    46157    46149    46144 
   46140    46143    46148    46149    46151    46156    46165    46176 
   46191    46213    46238    46261    46290    46329    46369    46410 
   46450    46485    46518    46548    46575    46600    46627    46651 
   46677    46704    46731    46762    46797    46835    46878    46928 
   46981    47028    47073    47119    47156    47187    47214    47236 
   47254    47264    47270    47275    47272    47266    47250    47229 
   47206    47179    47150    47120    47089    47058    47029    46998 
   46966    46940    46921    46907    46900    46901    46904    46909 
   46921    46934    46936    46939    46940    46932    46917    46904 
   46890    46869    46840    46813    46786    46759    46739    46722 
   46703    46684    46666    46649    46631    46614    46593    46573 
   46550    46523    46496    46467    46429    46388    46352    46317 
   46278    46237    46199    46155    46102    46044    45979    45905 
   45825    45743    45662    45582    45505    45439    45380    45328 
   45292    45265    45243    45233    45227    45226    45225    45226 
   45231    45238    45246    45257    45268    45276    45281    45285 
   45289    45295    45299    45304    45308    45310    45312    45320 
   45323    45326    45333    45342    45354    45376    45405    45442 
   45492    45551    45619    45696    45777    45868    45972    46080 
   46191    46305    46415    46521    46622    46722    46819    46909 
   47000    47092    47179    47266    47356    47441    47524    47607 
   47688    47767    47839    47908    47977    48043    48104    48158 
   48205    48251    48289    48316    48340    48362    48379    48396 
   48409    48417    48421    48421    48415    48402    48388    48366 
   48340    48309    48270    48223    48169    48114    48054    47991 
   47926    47864    47798    47730    47667    47605    47544    47480 
   47412    47340    47260    47170    47079    46984    46877    46773 
   46670    46565    46462    46367    46273    46186    46107    46033 
   45967    45912    45863    45821    45789    45760    45732    45711 
   45692    45678    45673    45667    45667    45675    45689    45711 
   45742    45773    45801    45831    45859    45889    45920    45947 
   45970    45995    46022    46049    46082    46114    46145    46179 
   46213    46246    46280    46313    46344    46375    46403    46430 
   46453    46472    46492    46516    46534    46552    46579    46606 
   46629    46658    46692    46719    46743    46768    46791    46811 
   46830    46846    46862    46874    46885    46893    46897    46907 
   46913    46916    46919    46920    46915    46903    46885    46870 
   46853    46830    46811    46791    46762    46728    46693    46653 
   46612    46576    46545    46518    46492    46476    46469    46468 
   46473    46484    46496    46510    46531    46557    46585    46619 
   46658    46700    46737    46769    46799    46824    46845    46861 
   46866    46857    46838    46816    46784    46743    46704    46664 
   46620    46583    46549    46519    46499    46483    46471    46460 
   46450    46437    46417    46398    46377    46357    46340    46322 
   46299    46276    46259    46244    46236    46230    46221    46211 
   46205    46195    46184    46176    46168    46159    46149    46144 
   46140    46137    46138    46141    46145    46153    46163    46180 
   46201    46219    46241    46268    46302    46338    46379    46422 
   46473    46529    46588    46649    46718    46792    46865    46935 
   47001    47062    47121    47177    47221    47259    47291    47320 
   47344    47364    47385    47405    47424    47444    47475    47506 
   47533    47561    47592    47621    47645    47669    47691    47703 
   47704    47696    47676    47640    47601    47549    47480    47407 
   47333    47245    47150    47051    46947    46843    46745    46642 
   46542    46449    46359    46267    46180    46099    46017    45937 
   45870    45810    45755    45708    45675    45650    45630    45616 
   45616    45625    45640    45661    45688    45717    45750    45786 
   45828    45871    45914    45958    46002    46047    46087    46124 
   46159    46188    46214    46240    46264    46288    46311    46334 
   46356    46375    46392    46410    46425    46437    46446    46456 
   46460    46456    46450    46445    46437    46427    46414    46399 
   46381    46364    46350    46336    46321    46311    46307    46309 
   46314    46321    46326    46332    46329    46322    46310    46290 
   46263    46229    46194    46156    46117    46079    46047    46018 
   45997    45985    45979    45979    45985    46002    46024    46049 
   46084    46125    46165    46210    46255    46302    46350    46395 
   46437    46475    46510    46545    46573    46600    46629    46656 
   46684    46712    46745    46778    46811    46842    46876    46908 
   46943    46978    47012    47044    47077    47104    47127    47146 
   47155    47162    47173    47177    47178    47182    47183    47181 
   47178    47173    47158    47137    47119    47097    47073    47048 
   47024    46994    46962    46932    46905    46880    46859    46842 
   46823    46807    46795    46785    46778    46774    46770    46764 
   46757    46755    46751    46738    46723    46700    46670    46642 
   46612    46580    46550    46523    46500    46481    46472    46467 
   46464    46467    46469    46465    46458    46446    46429    46410 
   46387    46357    46332    46313    46298    46290    46287    46284 
   46286    46291    46298    46307    46323    46337    46349    46367 
   46383    46398    46414    46435    46457    46476    46489    46499 
   46510    46516    46521    46525    46527    46527    46530    46526 
   46516    46504    46491    46473    46450    46426    46396    46364 
   46330    46292    46253    46214    46178    46145    46117    46097 
   46089    46084    46087    46098    46110    46122    46137    46156 
   46178    46202    46228    46252    46278    46298    46314    46329 
   46342    46354    46363    46373    46394    46415    46438    46469 
   46502    46535    46577    46622    46660    46700    46745    46786 
   46826    46861    46896    46932    46970    47011    47051    47088 
   47127    47163    47194    47225    47256    47289    47324    47363 
   47405    47444    47480    47513    47534    47551    47563    47568 
   47564    47557    47542    47521    47494    47463    47430    47394 
   47352    47308    47255    47197    47146    47092    47029    46969 
   46912    46855    46797    46738    46676    46610    46546    46487 
   46430    46373    46317    46265    46214    46167    46125    46089 
   46055    46022    45995    45968    45941    45914    45890    45860 
   45831    45806    45789    45777    45771    45770    45775    45787 
   45810    45839    45868    45898    45933    45971    46006    46041 
   46075    46110    46144    46178    46213    46248    46276    46305 
   46338    46373    46407    46444    46481    46516    46550    46584 
   46614    46645    46670    46691    46711    46732    46755    46776 
   46797    46820    46839    46853    46865    46876    46881    46885 
   46890    46896    46897    46897    46899    46896    46888    46877 
   46863    46849    46831    46811    46795    46784    46776    46769 
   46765    46765    46770    46777    46786    46799    46812    46826 
   46842    46853    46862    46873    46882    46889    46893    46894 
