Origin Time       2025/01/13 21:19:00
Lat.              31.8
Long.             131.6
Depth. (km)       30
Mag.              6.9
Station Code      YMGH10
Station Lat.      34.4837
Station Long.     131.6329
Station Height(m) 365
Record Time       2025/01/13 21:20:30
Sampling Freq(Hz) 100Hz
Duration Time(s)  141
Dir.              4
Scale Factor      7845(gal)/8223790
Max. Acc. (gal)   0.962
Last Correction   2025/01/13 21:20:13
Memo.             
[...]
   18867    18889    18917    18949    18974    18991    18999    18994 
   18971    18933    18886    18833    18790    18767    18770    18794 
   18829    18858    18863    18847    18812    18758    18692    18625 
   18578    18565    18584    18642    18727    18809    18875    18916 
   18910    18859    18774    18665    18543    18434    18357    18320 
   18334    18396    18492    18593    18688    18746    18740    18670 
   18562    18436    18316    18233    18206    18235    18320    18436 
   18553    18648    18715    18735    18708    18651    18585    18536 
   18515    18526    18566    18621    18677    18727    18773    18801 
   18806    18801    18797    18802    18817    18843    18862    18870 
   18871    18871    18868    18859    18850    18848    18851    18855 
   18862    18871    18875    18875    18870    18856    18832    18800 
   18766    18739    18721    18711    18704    18709    18727    18746 
   18759    18769    18775    18777    18771    18755    18731    18702 
   18677    18658    18652    18655    18665    18677    18693    18712 
   18720    18713    18698    18671    18640    18616    18597    18598 
   18636    18692    18747    18798    18839    18854    18841    18798 
   18728    18642    18557    18489    18454    18454    18490    18563 
   18657    18748    18817    18848    18833    18783    18711    18627 
   18555    18512    18503    18532    18598    18682    18755    18809 
   18839    18837    18812    18777    18743    18717    18705    18708 
   18728    18763    18798    18813    18809    18796    18771    18736 
   18706    18688    18682    18686    18690    18697    18701    18689 
   18657    18615    18569    18526    18495    18477    18481    18507 
   18557    18627    18702    18765    18802    18809    18785    18731 
   18659    18582    18507    18453    18434    18447    18496    18562 
   18627    18682    18721    18740    18739    18725    18709    18698 
   18692    18688    18694    18702    18706    18712    18719    18723 
   18733    18746    18748    18744    18736    18724    18708    18692 
   18686    18704    18747    18804    18855    18900    18928    18924 
   18891    18835    18771    18724    18698    18704    18743    18801 
   18856    18885    18877    18829    18751    18662    18577    18504 
   18458    18450    18480    18539    18621    18706    18778    18827 
   18848    18848    18832    18801    18767    18751    18763    18798 
   18850    18906    18955    18985    18987    18958    18909    18858 
   18821    18812    18835    18885    18954    19014    19045    19030 
   18964    18858    18727    18601    18507    18458    18461    18517 
   18613    18727    18825    18881    18878    18821    18728    18617 
   18511    18424    18368    18341    18349    18384    18418    18432 
   18439    18434    18416    18405    18407    18418    18441    18473 
   18503    18532    18563    18585    18585    18574    18558    18540 
   18528    18519    18511    18505    18501    18497    18505    18531 
   18565    18600    18638    18673    18693    18696    18682    18654 
   18623    18596    18585    18596    18628    18682    18746    18806 
   18851    18871    18855    18806    18742    18671    18615    18589 
   18601    18648    18724    18812    18891    18947    18966    18940 
   18877    18797    18720    18662    18642    18659    18711    18782 
   18852    18905    18931    18925    18897    18851    18798    18760 
   18758    18792    18846    18902    18944    18952    18920    18852 
   18758    18651    18557    18490    18463    18485    18544    18625 
   18712    18787    18832    18843    18827    18793    18755    18727 
   18719    18739    18782    18836    18879    18898    18887    18836 
   18756    18665    18573    18503    18470    18480    18523    18580 
   18634    18678    18704    18704    18679    18632    18574    18524 
   18500    18511    18544    18596    18655    18700    18719    18716 
   18692    18642    18586    18536    18507    18511    18544    18598 
   18669    18743    18801    18832    18832    18802    18765    18732 
   18706    18689    18685    18688    18693    18700    18712    18724 
   18728    18729    18728    18725    18731    18755    18796    18841 
   18878    18891    18891    18886    18868    18839    18806    18779 
   18763    18765    18779    18798    18819    18836    18841    18828 
   18796    18754    18708    18665    18630    18605    18593    18593 
   18597    18605    18624    18639    18643    18636    18617    18578 
   18522    18462    18400    18339    18289    18257    18254    18279 
   18320    18376    18428    18470    18496    18501    18488    18457 
   18420    18393    18382    18381    18389    18401    18414    18430 
   18442    18447    18451    18459    18477    18504    18542    18596 
   18663    18735    18804    18866    18910    18933    18931    18898 
   18841    18771    18700    18638    18592    18554    18523    18497 
   18478    18469    18473    18495    18534    18582    18631    18678 
   18721    18743    18736    18713    18682    18640    18592    18551 
   18524    18508    18507    18519    18538    18558    18580    18607 
   18638    18677    18715    18750    18778    18796    18797    18793 
   18787    18774    18759    18750    18746    18746    18748    18751 
   18755    18760    18766    18773    18786    18801    18808    18814 
   18814    18798    18766    18719    18665    18617    18584    18570 
   18580    18611    18665    18733    18798    18852    18887    18893 
   18882    18859    18827    18796    18775    18763    18759    18759 
   18763    18770    18773    18763    18744    18716    18685    18658 
   18638    18628    18625    18627    18623    18617    18619    18617 
   18612    18608    18604    18603    18604    18604    18604    18605 
   18603    18596    18586    18570    18550    18534    18524    18520 
   18527    18550    18593    18658    18738    18827    18909    18971 
   19009    19014    18982    18917    18831    18744    18679    18651 
   18667    18717    18786    18855    18912    18943    18939    18900 
   18843    18782    18732    18706    18704    18721    18760    18814 
   18870    18920    18955    18954    18920    18868    18802    18733 
   18679    18650    18650    18684    18735    18794    18854    18895 
   18917    18921    18893    18847    18801    18766    18754    18767 
   18800    18841    18883    18909    18908    18879    18831    18767 
   18698    18632    18574    18532    18520    18539    18576    18616 
   18655    18682    18678    18647    18608    18574    18553    18554 
   18574    18603    18630    18650    18659    18650    18632    18621 
   18615    18613    18625    18651    18692    18738    18771    18786 
   18792    18785    18770    18748    18715    18674    18634    18596 
   18566    18553    18551    18554    18569    18597    18632    18667 
   18697    18719    18740    18762    18779    18800    18820    18827 
   18817    18793    18754    18708    18658    18609    18574    18566 
   18586    18632    18698    18763    18808    18837    18846    18823 
   18781    18733    18694    18674    18671    18681    18694    18704 
   18712    18717    18704    18671    18630    18584    18543    18515 
   18504    18516    18547    18589    18634    18674    18706    18732 
   18751    18760    18752    18731    18702    18670    18643    18627 
   18621    18638    18678    18731    18796    18859    18905    18933 
   18951    18948    18920    18867    18794    18711    18636    18582 
   18555    18558    18584    18635    18712    18793    18855    18887 
   18874    18808    18706    18593    18486    18407    18373    18387 
   18436    18515    18604    18682    18729    18733    18694    18619 
   18522    18419    18328    18260    18227    18242    18308    18420 
   18558    18702    18839    18952    19025    19048    19018    18940 
   18836    18728    18638    18584    18577    18621    18712    18829 
   18951    19048    19097    19089    19033    18947    18852    18779 
   18746    18756    18805    18878    18958    19020    19055    19055 
   19016    18954    18885    18820    18785    18786    18810    18851 
   18904    18954    18989    18994    18963    18910    18851    18790 
   18742    18715    18700    18694    18692    18670    18625    18561 
   18470    18365    18270    18211    18195    18223    18291    18385 
   18489    18581    18644    18674    18669    18635    18585    18534 
   18490    18469    18470    18490    18524    18559    18588    18609 
   18615    18607    18597    18585    18573    18565    18565    18571 
   18596    18635    18675    18712    18740    18756    18758    18752 
   18747    18747    18758    18781    18814    18850    18873    18870 
   18841    18800    18762    18742    18743    18767    18817    18890 
   18964    19025    19067    19084    19079    19057    19022    18979 
   18941    18928    18945    18993    19066    19147    19211    19240 
   19221    19151    19036    18894    18744    18607    18503    18446 
   18439    18474    18536    18598    18643    18661    18648    18609 
   18565    18532    18520    18534    18569    18616    18663    18697 
   18704    18684    18642    18585    18528    18490    18485    18513 
   18573    18654    18742    18824    18894    18943    18960    18949 
   18913    18866    18814    18762    18717    18682    18657    18640 
   18638    18648    18670    18697    18728    18752    18758    18743 
   18719    18682    18646    18620    18600    18596    18613    18627 
   18632    18634    18621    18596    18561    18523    18490    18466 
   18451    18450    18457    18459    18451    18427    18395    18358 
   18324    18297    18280    18274    18292    18323    18347    18365 
   18382    18385    18373    18353    18328    18307    18287    18276 
   18284    18307    18347    18400    18443    18468    18469    18446 
   18401    18354    18324    18320    18354    18438    18554    18685 
   18806    18893    18936    18943    18913    18862    18817    18794 
   18797    18835    18904    18989    19080    19170    19242    19280 
   19294    19299    19294    19283    19288    19307    19329    19359 
   19387    19404    19414    19410    19381    19327    19253    19178 
   19118    19074    19059    19074    19102    19126    19133    19110 
   19057    18979    18890    18802    18732    18693    18684    18702 
   18747    18797    18829    18831    18792    18716    18615    18503 
   18401    18327    18289    18297    18354    18439    18530    18607 
   18661    18674    18640    18576    18493    18404    18326    18272 
   18254    18273    18314    18368    18427    18477    18503    18500 
   18468    18411    18341    18269    18218    18207    18238    18312 
   18427    18565    18698    18810    18878    18894    18864    18802 
   18720    18642    18581    18557    18580    18644    18735    18829 
   18900    18921    18882    18775    18617    18443    18296    18206 
   18185    18239    18349    18482    18608    18692    18716    18673 
   18567    18423    18268    18134    18057    18058    18138    18269 
   18420    18549    18627    18650    18609    18515    18401    18297 
   18229    18218    18260    18337    18435    18532    18609    18661 
   18677    18666    18650    18646    18658    18696    18760    18852 
   18955    19045    19110    19144    19132    19079    18998    18893 
   18779    18681    18605    18557    18535    18524    18511    18497 
   18480    18458    18441    18428    18432    18468    18523    18589 
   18667    18738    18781    18801    18796    18759    18705    18651 
   18601    18571    18573    18603    18657    18729    18804    18878 
   18944    18991    19013    19014    18993    18964    18941    18935 
   18955    18997    19041    19082    19117    19133    19120    19072 
   19003    18925    18852    18805    18802    18844    18927    19033 
   19144    19230    19261    19229    19144    19021    18885    18765 
   18681    18651    18684    18765    18873    18987    19086    19148 
   19157    19110    19029    18929    18829    18751    18705    18693 
   18715    18751    18781    18793    18774    18719    18631    18526 
   18424    18350    18311    18312    18342    18384    18427    18445 
   18415    18350    18262    18166    18094    18061    18069    18126 
   18214    18299    18360    18374    18330    18239    18125    18003 
   17917    17890    17923    18011    18134    18265    18377    18450 
   18476    18461    18416    18369    18347    18365    18427    18531 
   18662    18797    18921    19014    19063    19053    18986    18882 
   18774    18681    18617    18598    18620    18677    18754    18839 
   18917    18964    18983    18985    18967    18944    18929    18933 
   18966    19036    19129    19224    19299    19344    19346    19313 
   19257    19203    19160    19143    19157    19198    19251    19315 
   19386    19445    19483    19495    19483    19450    19410    19368 
   19322    19272    19226    19186    19147    19121    19109    19098 
   19093    19087    19070    19029    18964    18883    18794    18713 
   18657    18632    18635    18663    18705    18743    18758    18744 
   18692    18601    18489    18382    18297    18246    18239    18269 
   18319    18376    18420    18426    18381    18288    18156    18014 
   17883    17771    17702    17683    17714    17788    17888    17998 
   18100    18181    18231    18243    18218    18175    18131    18092 
   18065    18061    18079    18115    18161    18203    18234    18247 
   18243    18229    18206    18180    18161    18158    18171    18200 
   18245    18293    18345    18392    18436    18484    18530    18581 
   18643    18713    18787    18860    18916    18951    18960    18937 
   18883    18817    18752    18705    18688    18698    18732    18787 
   18850    18900    18929    18931    18908    18877    18851    18844 
   18862    18906    18964    19024    19076    19114    19132    19133 
   19126    19121    19133    19174    19241    19319    19396    19458 
   19491    19489    19458    19408    19359    19314    19279    19261 
   19264    19272    19271    19260    19241    19210    19165    19117 
   19072    19039    19018    19003    18993    18986    18972    18945 
   18910    18878    18850    18825    18812    18804    18794    18786 
   18779    18778    18777    18775    18769    18756    18735    18700 
   18654    18608    18565    18530    18508    18497    18500    18519 
   18550    18588    18621    18647    18669    18681    18686    18696 
   18706    18719    18731    18732    18716    18689    18648    18600 
   18565    18550    18561    18597    18657    18723    18787    18846 
   18893    18927    18948    18954    18947    18939    18929    18912 
   18889    18859    18825    18783    18738    18694    18658    18634 
   18625    18627    18628    18627    18619    18597    18566    18528 
   18486    18450    18424    18412    18419    18442    18482    18538 
   18589    18625    18643    18631    18596    18546    18488    18436 
   18399    18378    18381    18404    18436    18469    18503    18527 
   18542    18550    18551    18549    18554    18567    18588    18619 
   18657    18692    18717    18728    18717    18690    18655    18607 
   18546    18484    18427    18378    18345    18322    18304    18295 
   18280    18258    18234    18206    18176    18149    18130    18118 
   18117    18134    18173    18226    18281    18338    18393    18438 
   18470    18495    18509    18519    18532    18555    18593    18651 
   18721    18787    18846    18887    18900    18887    18860    18828 
   18805    18798    18809    18843    18906    18990    19080    19165 
   19233    19272    19282    19267    19238    19210    19187    19176 
   19179    19197    19219    19226    19207    19167    19099    19010 
   18917    18828    18755    18713    18694    18689    18697    18708 
   18705    18689    18665    18640    18623    18611    18605    18613 
   18643    18696    18762    18828    18886    18931    18954    18949 
   18920    18868    18805    18742    18694    18670    18670    18689 
   18720    18758    18793    18809    18810    18794    18763    18729 
   18700    18675    18663    18662    18669    18682    18688    18681 
   18666    18642    18607    18569    18531    18496    18468    18439 
   18405    18364    18312    18257    18211    18183    18175    18189 
   18231    18295    18366    18434    18486    18522    18535    18522 
   18493    18472    18457    18450    18458    18470    18482    18488 
   18488    18490    18493    18496    18509    18540    18590    18661 
   18752    18855    18956    19044    19113    19155    19170    19161 
   19147    19133    19126    19133    19159    19190    19222    19249 
   19257    19248    19225    19197    19165    19132    19107    19090 
   19078    19071    19057    19036    19022    19010    18979    18941 
   18909    18874    18840    18813    18786    18756    18728    18700 
   18674    18659    18654    18655    18659    18670    18690    18715 
   18747    18789    18835    18873    18894    18894    18877    18846 
   18804    18756    18715    18688    18675    18670    18669    18666 
   18647    18616    18584    18553    18527    18508    18500    18504 
   18515    18524    18526    18511    18478    18434    18381    18327 
   18287    18260    18237    18222    18220    18223    18222    18218 
   18200    18166    18118    18061    17999    17941    17891    17856 
   17836    17834    17853    17887    17932    17991    18053    18112 
   18153    18162    18149    18123    18085    18044    18013    17994 
   17983    17991    18025    18069    18102    18129    18156    18166 
   18162    18162    18158    18152    18157    18169    18179    18200 
   18235    18272    18308    18347    18393    18449    18509    18577 
   18651    18732    18821    18914    18999    19068    19122    19163 
   19192    19213    19229    19241    19259    19286    19329    19394 
   19471    19546    19612    19665    19695    19699    19681    19651 
   19615    19579    19552    19538    19541    19557    19579    19596 
   19603    19603    19597    19591    19585    19583    19583    19588 
   19588    19572    19541    19495    19431    19359    19283    19209 
   19141    19089    19059    19043    19026    19003    18974    18932 
   18883    18837    18796    18755    18721    18689    18658    18627 
   18588    18535    18477    18416    18360    18319    18295    18289 
   18296    18306    18311    18308    18296    18280    18254    18218 
   18175    18133    18098    18067    18046    18045    18056    18081 
   18119    18160    18198    18234    18265    18288    18306    18318 
   18324    18328    18331    18330    18328    18331    18338    18351 
   18378    18418    18459    18504    18550    18586    18616    18639 
   18647    18651    18657    18665    18674    18685    18702    18715 
   18721    18729    18738    18748    18770    18801    18833    18866 
   18889    18894    18882    18858    18821    18781    18746    18725 
   18725    18751    18794    18839    18871    18886    18873    18833 
