Origin Time       2025/01/13 21:19:00
Lat.              31.8
Long.             131.6
Depth. (km)       30
Mag.              6.9
Station Code      YMGH09
Station Lat.      34.6257
Station Long.     131.6681
Station Height(m) -90
Record Time       2025/01/13 21:20:26
Sampling Freq(Hz) 100Hz
Duration Time(s)  140
Dir.              1
Scale Factor      2942(gal)/8224139
Max. Acc. (gal)   0.619
Last Correction   2025/01/13 21:20:28
Memo.             
[...]
  156420   156423   156427   156450   156483   156516   156552   156586 
  156614   156647   156685   156728   156782   156849   156932   157027 
  157135   157258   157395   157520   157623   157712   157778   157821 
  157851   157851   157842   157829   157797   157751   157702   157643 
  157567   157470   157366   157260   157149   157044   156942   156837 
  156740   156654   156573   156492   156415   156350   156298   156261 
  156223   156176   156128   156088   156049   156016   155985   155956 
  155943   155950   155961   155969   155984   156010   156039   156070 
  156096   156116   156149   156189   156227   156269   156317   156367 
  156429   156505   156587   156670   156740   156793   156833   156864 
  156884   156898   156915   156932   156933   156929   156926   156925 
  156921   156914   156902   156865   156807   156744   156675   156610 
  156556   156514   156483   156462   156459   156469   156473   156473 
  156465   156447   156427   156400   156373   156346   156327   156331 
  156350   156373   156405   156448   156502   156558   156602   156637 
  156678   156716   156744   156760   156775   156794   156813   156825 
  156828   156818   156807   156801   156794   156789   156782   156762 
  156740   156722   156706   156699   156698   156698   156702   156708 
  156713   156726   156753   156786   156832   156890   156951   157017 
  157091   157164   157238   157308   157364   157419   157469   157496 
  157515   157534   157546   157576   157627   157677   157729   157786 
  157821   157833   157839   157829   157802   157775   157750   157720 
  157688   157653   157603   157549   157512   157488   157470   157461 
  157447   157435   157426   157410   157385   157362   157339   157302 
  157254   157199   157138   157079   157025   156967   156909   156874 
  156853   156826   156795   156776   156771   156771   156778   156772 
  156757   156756   156753   156741   156741   156755   156768   156784 
  156809   156830   156843   156836   156803   156760   156717   156658 
  156591   156539   156486   156435   156384   156323   156265   156211 
  156149   156076   156004   155937   155873   155823   155788   155754 
  155726   155709   155694   155684   155684   155684   155688   155700 
  155717   155731   155742   155752   155776   155818   155854   155893 
  155952   156007   156051   156097   156141   156184   156235   156292 
  156351   156402   156466   156544   156620   156695   156770   156845 
  156932   157026   157117   157203   157297   157397   157489   157574 
  157650   157715   157770   157823   157862   157886   157893   157897 
  157901   157896   157890   157886   157878   157875   157875   157854 
  157819   157774   157717   157662   157609   157545   157474   157412 
  157345   157270   157194   157108   157007   156901   156797   156694 
  156605   156531   156465   156416   156384   156361   156350   156352 
  156363   156382   156404   156424   156446   156473   156493   156508 
  156537   156582   156637   156708   156782   156859   156952   157049 
  157141   157233   157311   157376   157438   157486   157519   157551 
  157578   157603   157632   157671   157704   157721   157725   157727 
  157729   157729   157727   157723   157721   157721   157721   157716 
  157700   157673   157647   157623   157586   157536   157476   157405 
  157334   157258   157168   157067   156967   156860   156744   156633 
  156531   156436   156346   156258   156184   156126   156082   156058 
  156045   156050   156070   156088   156112   156149   156195   156250 
  156313   156377   156446   156519   156583   156644   156690   156735 
  156790   156841   156887   156937   156984   157032   157076   157113 
  157145   157171   157185   157202   157214   157221   157226   157226 
  157223   157216   157199   157172   157133   157087   157042   157003 
  156972   156953   156940   156929   156930   156941   156959   156990 
  157015   157036   157048   157038   157022   157010   156988   156963 
  156942   156921   156890   156843   156786   156721   156637   156543 
  156456   156386   156330   156288   156257   156226   156204   156192 
  156169   156147   156123   156088   156053   156022   155989   155965 
  155939   155911   155889   155873   155869   155881   155902   155938 
  155984   156039   156099   156161   156228   156297   156357   156411 
  156458   156496   156533   156574   156616   156656   156701   156744 
  156783   156818   156855   156892   156932   156972   157007   157045 
  157091   157133   157171   157212   157241   157254   157261   157260 
  157258   157257   157243   157222   157204   157198   157198   157196 
  157189   157180   157162   157133   157100   157071   157041   157019 
  157005   156986   156978   156972   156956   156944   156937   156915 
  156883   156853   156816   156757   156702   156649   156591   156548 
  156523   156500   156486   156489   156510   156540   156564   156586 
  156616   156636   156635   156621   156602   156583   156575   156570 
  156564   156566   156562   156548   156544   156550   156564   156587 
  156617   156651   156682   156709   156729   156744   156753   156759 
  156766   156778   156797   156821   156843   156860   156861   156843 
  156824   156805   156779   156757   156739   156726   156726   156726 
  156733   156741   156741   156748   156768   156798   156840   156887 
  156926   156959   156979   156982   156968   156945   156914   156878 
  156843   156816   156801   156797   156791   156793   156809   156826 
  156832   156822   156811   156799   156774   156741   156712   156683 
  156658   156639   156616   156587   156560   156539   156529   156524 
  156520   156527   156548   156581   156618   156663   156717   156776 
  156844   156918   156992   157076   157173   157276   157368   157442 
  157507   157572   157623   157663   157692   157697   157689   157681 
  157673   157670   157674   157693   157725   157761   157801   157840 
  157874   157902   157908   157900   157886   157859   157816   157778 
  157750   157721   157696   157677   157661   157636   157604   157569 
  157524   157466   157403   157335   157260   157185   157123   157060 
  156994   156929   156861   156790   156720   156656   156597   156540 
  156492   156442   156394   156350   156293   156230   156172   156114 
  156066   156041   156018   156006   156010   156016   156035   156072 
  156111   156151   156193   156228   156267   156307   156331   156344 
  156355   156370   156396   156427   156459   156494   156527   156559 
  156600   156637   156668   156701   156732   156766   156810   156853 
  156886   156914   156946   156969   156983   156992   156994   156980 
  156960   156938   156918   156895   156874   156853   156832   156813 
  156799   156780   156757   156730   156697   156658   156613   156566 
  156517   156466   156415   156358   156298   156243   156188   156135 
  156087   156043   156015   155997   155981   155964   155949   155938 
  155915   155876   155833   155788   155736   155680   155633   155592 
  155563   155545   155537   155542   155551   155559   155586   155628 
  155671   155725   155796   155875   155957   156041   156123   156212 
  156301   156382   156460   156528   156587   156648   156699   156743 
  156787   156825   156857   156892   156929   156963   157002   157042 
  157067   157083   157096   157090   157059   157023   156991   156952 
  156910   156874   156837   156806   156786   156768   156749   156736 
  156730   156725   156712   156691   156681   156668   156654   156645 
  156647   156649   156644   156635   156622   156606   156598   156601 
  156610   156635   156676   156733   156793   156849   156913   156992 
  157079   157165   157253   157339   157424   157516   157608   157693 
  157786   157881   157948   157997   158040   158070   158080   158078 
  158058   158024   157986   157940   157881   157829   157789   157739 
  157682   157634   157585   157528   157466   157391   157304   157222 
  157140   157049   156953   156863   156780   156698   156617   156547 
  156485   156432   156394   156367   156355   156362   156381   156411 
  156462   156527   156591   156660   156728   156789   156848   156913 
  156978   157040   157100   157157   157194   157214   157235   157250 
  157252   157243   157223   157206   157195   157172   157142   157117 
  157092   157068   157045   157021   157002   156980   156960   156946 
  156929   156911   156898   156870   156834   156798   156747   156687 
  156637   156597   156566   156539   156504   156463   156419   156375 
  156342   156311   156282   156255   156226   156189   156143   156092 
  156034   155974   155911   155838   155758   155686   155623   155574 
  155534   155502   155479   155457   155430   155405   155385   155364 
  155341   155331   155332   155335   155353   155391   155433   155488 
  155557   155629   155711   155800   155883   155962   156047   156138 
  156224   156311   156398   156470   156541   156620   156695   156766 
  156836   156911   156986   157054   157126   157198   157266   157337 
  157397   157449   157511   157577   157632   157681   157734   157793 
  157854   157910   157962   158006   158055   158103   158141   158183 
  158229   158263   158284   158313   158340   158356   158365   158368 
  158368   158363   158344   158311   158271   158220   158159   158091 
  158024   157963   157900   157827   157744   157659   157574   157493 
  157418   157337   157245   157148   157057   156971   156879   156789 
  156713   156647   156582   156528   156487   156442   156393   156365 
  156354   156340   156332   156338   156355   156385   156421   156458 
  156497   156544   156595   156641   156683   156726   156780   156836 
  156872   156901   156932   156956   156975   156996   157025   157061 
  157100   157138   157183   157231   157276   157318   157365   157420 
  157477   157531   157582   157627   157662   157680   157680   157661 
  157621   157573   157528   157474   157400   157324   157245   157150 
  157049   156952   156853   156755   156651   156539   156427   156324 
  156231   156135   156038   155952   155875   155795   155717   155649 
  155599   155568   155555   155565   155599   155641   155687   155744 
  155807   155869   155931   155987   156039   156100   156173   156243 
  156307   156381   156469   156544   156608   156674   156736   156795 
  156849   156892   156932   156964   156987   156996   156990   156984 
  156992   157000   157006   157017   157030   157052   157083   157118 
  157149   157177   157211   157235   157252   157276   157295   157304 
  157314   157303   157277   157250   157195   157114   157026   156940 
  156851   156748   156647   156563   156473   156373   156276   156184 
  156091   156000   155914   155831   155754   155702   155665   155633 
  155621   155628   155638   155661   155707   155771   155841   155919 
  156001   156087   156176   156269   156357   156433   156502   156566 
  156624   156678   156733   156795   156863   156921   156975   157033 
  157084   157121   157150   157175   157191   157194   157185   157165 
  157141   157114   157083   157045   156999   156948   156892   156826 
  156743   156649   156566   156478   156388   156315   156250   156188 
  156135   156092   156055   156026   156007   156000   155992   155992 
  156004   156020   156055   156109   156163   156216   156271   156325 
  156367   156402   156444   156490   156529   156566   156612   156663 
  156714   156774   156837   156895   156953   157011   157067   157114 
  157153   157191   157223   157235   157230   157218   157199   157172 
  157152   157130   157094   157050   157011   156972   156922   156870 
  156822   156771   156716   156667   156629   156597   156573   156562 
  156554   156555   156560   156551   156541   156544   156548   156562 
  156583   156608   156651   156697   156730   156764   156803   156832 
  156859   156897   156944   156991   157037   157091   157142   157184 
  157227   157279   157341   157408   157477   157554   157634   157704 
  157769   157827   157878   157920   157952   157975   157989   157991 
  157986   157981   157974   157966   157962   157952   157933   157912 
  157887   157852   157812   157770   157721   157667   157611   157550 
  157491   157430   157365   157302   157239   157169   157092   157007 
  156914   156816   156720   156629   156547   156481   156420   156361 
  156316   156280   156240   156201   156161   156116   156077   156038 
  155987   155930   155879   155830   155788   155752   155717   155695 
  155690   155684   155694   155725   155763   155810   155866   155934 
  156016   156108   156208   156304   156393   156482   156567   156643 
  156713   156780   156838   156886   156919   156946   156959   156956 
  156960   156961   156951   156941   156930   156915   156909   156903 
  156895   156883   156852   156809   156764   156712   156658   156612 
  156558   156493   156424   156355   156280   156204   156127   156047 
  155965   155888   155817   155745   155687   155650   155626   155606 
  155605   155619   155637   155659   155683   155696   155703   155707 
  155707   155702   155694   155687   155691   155704   155721   155754 
  155808   155860   155916   155987   156062   156141   156230   156320 
  156413   156510   156613   156721   156834   156956   157075   157192 
  157320   157446   157562   157675   157781   157879   157971   158058 
  158143   158221   158291   158356   158410   158453   158490   158517 
  158534   158541   158538   158531   158523   158511   158483   158441 
  158391   158340   158282   158214   158145   158085   158020   157950 
  157882   157819   157748   157662   157565   157465   157368   157275 
  157177   157090   157022   156964   156913   156865   156825   156797 
  156762   156726   156706   156689   156671   156660   156644   156621 
  156598   156574   156555   156537   156520   156517   156517   156504 
  156485   156477   156473   156465   156459   156456   156458   156466 
  156470   156471   156477   156477   156473   156474   156473   156475 
  156479   156475   156469   156460   156433   156396   156362   156330 
  156294   156270   156251   156219   156192   156195   156205   156213 
  156236   156271   156308   156348   156392   156435   156481   156535 
  156601   156668   156739   156816   156895   156975   157053   157123 
  157194   157257   157312   157362   157403   157431   157459   157489 
  157513   157538   157558   157580   157592   157596   157608   157624 
  157631   157635   157643   157657   157669   157685   157705   157731 
  157762   157785   157802   157832   157866   157898   157918   157935 
  157959   157974   157983   157991   157986   157978   157967   157933 
  157896   157860   157813   157766   157723   157670   157613   157563 
  157513   157464   157422   157383   157353   157335   157322   157314 
  157297   157264   157238   157222   157202   157192   157194   157196 
  157206   157219   157223   157227   157237   157242   157233   157218 
  157199   157167   157129   157088   157033   156967   156897   156811 
  156722   156637   156543   156440   156343   156242   156126   156010 
  155903   155799   155700   155615   155541   155479   155428   155387 
  155353   155324   155302   155289   155287   155295   155314   155343 
  155385   155437   155494   155552   155625   155718   155808   155900 
  156001   156101   156189   156274   156363   156439   156510   156585 
  156648   156702   156759   156807   156851   156902   156949   156988 
  157032   157067   157079   157081   157079   157067   157044   157019 
  156995   156965   156930   156887   156836   156782   156729   156672 
  156610   156543   156479   156413   156342   156271   156207   156153 
  156111   156065   156024   155995   155968   155939   155915   155902 
  155893   155888   155893   155907   155912   155923   155942   155958 
  155972   155991   156015   156038   156062   156097   156136   156174 
  156207   156242   156282   156319   156355   156396   156436   156483 
  156543   156601   156671   156741   156802   156868   156933   156982 
  157030   157084   157131   157172   157212   157253   157292   157335 
  157377   157412   157449   157486   157518   157536   157549   157561 
  157565   157565   157566   157561   157547   157532   157504   157455 
  157400   157346   157289   157233   157185   157140   157091   157041 
  156983   156918   156855   156794   156735   156681   156639   156606 
  156578   156563   156564   156568   156571   156571   156571   156579 
  156583   156601   156636   156666   156697   156743   156784   156813 
  156845   156883   156910   156921   156932   156948   156967   156979 
  156976   156976   156979   156964   156941   156926   156905   156871 
  156836   156798   156756   156713   156654   156589   156533   156471 
  156406   156355   156307   156266   156235   156201   156174   156158 
  156138   156118   156100   156078   156057   156046   156033   156019 
  156016   156016   156024   156043   156057   156073   156105   156136 
  156161   156193   156236   156285   156336   156394   156462   156536 
  156617   156702   156783   156859   156937   157022   157096   157162 
  157234   157296   157350   157408   157455   157491   157520   157536 
  157539   157540   157540   157535   157526   157518   157511   157499 
  157485   157472   157459   157446   157430   157416   157405   157395 
  157376   157358   157351   157351   157349   157345   157342   157338 
  157331   157326   157324   157323   157322   157320   157306   157284 
  157256   157221   157180   157142   157108   157072   157032   156994 
  156964   156941   156922   156906   156894   156886   156872   156855 
  156844   156832   156817   156814   156821   156822   156825   156841 
  156863   156890   156913   156929   156953   156982   157002   157030 
  157065   157100   157141   157171   157191   157218   157242   157264 
  157293   157316   157331   157343   157342   157338   157335   157319 
  157302   157281   157257   157235   157212   157191   157175   157161 
  157153   157145   157131   157125   157117   157107   157103   157096 
  157094   157096   157095   157091   157090   157087   157090   157094 
  157102   157106   157103   157104   157106   157099   157086   157065 
  157041   157019   156998   156971   156944   156924   156902   156883 
  156871   156860   156856   156857   156848   156833   156828   156820 
  156810   156809   156802   156789   156784   156783   156774   156752 
  156729   156712   156689   156656   156622   156591   156558   156521 
  156483   156431   156371   156324   156273   156213   156166   156130 
  156089   156061   156039   156019   156008   155993   155970   155958 
  155957   155961   155969   155981   156003   156031   156061   156097 
  156139   156181   156228   156277   156317   156361   156411   156463 
  156514   156562   156606   156641   156674   156705   156728   156747 
  156763   156772   156776   156782   156786   156793   156806   156817 
  156826   156837   156844   156851   156863   156880   156901   156922 
  156955   156999   157044   157090   157140   157187   157234   157285 
  157334   157388   157442   157489   157540   157586   157631   157677 
  157713   157746   157779   157812   157843   157860   157860   157858 
  157844   157812   157774   157734   157681   157619   157550   157484 
