Origin Time       2025/01/13 21:19:00
Lat.              31.8
Long.             131.6
Depth. (km)       30
Mag.              6.9
Station Code      YMGH07
Station Lat.      34.1149
Station Long.     131.0506
Station Height(m) 30
Record Time       2025/01/13 21:20:19
Sampling Freq(Hz) 100Hz
Duration Time(s)  138
Dir.              5
Scale Factor      7845(gal)/8223790
Max. Acc. (gal)   1.308
Last Correction   2025/01/13 21:20:20
Memo.             
[...]
    6417     6403     6367     6316     6272     6232     6204     6196 
    6181     6139     6092     6058     6042     6052     6081     6111 
    6139     6166     6192     6222     6259     6285     6292     6295 
    6303     6309     6319     6320     6295     6254     6214     6174 
    6151     6160     6178     6187     6187     6178     6162     6157 
    6161     6165     6188     6242     6311     6382     6451     6500 
    6519     6520     6508     6477     6451     6444     6446     6455 
    6473     6481     6477     6467     6444     6415     6400     6390 
    6380     6380     6385     6381     6372     6355     6322     6282 
    6261     6249     6231     6215     6196     6178     6174     6168 
    6146     6139     6165     6200     6227     6239     6224     6196 
    6176     6147     6118     6119     6154     6201     6243     6254 
    6228     6200     6183     6172     6176     6203     6228     6238 
    6230     6203     6165     6141     6138     6134     6130     6135 
    6151     6184     6232     6281     6331     6392     6448     6489 
    6516     6527     6511     6485     6463     6444     6438     6451 
    6471     6485     6494     6490     6462     6413     6349     6277 
    6223     6203     6208     6239     6282     6300     6284     6253 
    6214     6169     6141     6143     6178     6243     6320     6363 
    6362     6340     6307     6278     6274     6276     6296     6363 
    6458     6543     6619     6660     6647     6604     6566     6539 
    6534     6551     6566     6565     6569     6578     6586     6605 
    6604     6548     6467     6386     6313     6265     6246     6238 
    6239     6255     6276     6297     6332     6366     6388     6411 
    6428     6416     6389     6361     6323     6289     6265     6223 
    6164     6104     6038     5975     5937     5921     5919     5952 
    6003     6041     6077     6122     6161     6200     6249     6291 
    6328     6382     6434     6471     6504     6523     6515     6477 
    6413     6334     6270     6231     6208     6203     6215     6231 
    6238     6242     6241     6223     6199     6183     6166     6164 
    6177     6189     6201     6223     6230     6211     6196     6189 
    6178     6176     6188     6204     6224     6250     6262     6258 
    6261     6266     6276     6303     6332     6345     6343     6335 
    6322     6308     6307     6322     6351     6388     6411     6409 
    6403     6405     6413     6431     6451     6458     6462     6469 
    6467     6465     6470     6471     6463     6469     6481     6490 
    6498     6500     6496     6515     6551     6577     6590     6594 
    6570     6517     6466     6421     6370     6316     6259     6203 
    6166     6158     6164     6196     6250     6277     6268     6246 
    6208     6145     6088     6053     6033     6025     6023     6016 
    6008     6004     5996     5991     5989     5976     5956     5960 
    5992     6037     6091     6145     6187     6241     6305     6345 
    6357     6367     6367     6345     6320     6304     6297     6300 
    6285     6241     6193     6166     6164     6183     6223     6273 
    6331     6409     6486     6543     6581     6586     6559     6532 
    6501     6458     6428     6416     6394     6350     6304     6265 
    6228     6210     6205     6192     6187     6192     6184     6173 
    6176     6184     6205     6246     6285     6315     6350     6380 
    6405     6447     6492     6512     6516     6525     6531     6534 
    6542     6548     6561     6592     6615     6602     6566     6516 
    6463     6428     6403     6363     6330     6322     6320     6311 
    6297     6276     6258     6273     6313     6362     6417     6474 
    6496     6480     6442     6388     6334     6299     6276     6255 
    6250     6261     6282     6313     6332     6322     6303     6288 
    6258     6234     6237     6243     6251     6278     6300     6307 
    6320     6327     6304     6272     6258     6259     6276     6301 
    6316     6327     6350     6370     6377     6382     6378     6363 
    6370     6400     6421     6430     6421     6389     6357     6355 
    6372     6390     6415     6426     6419     6413     6401     6362 
    6311     6259     6205     6162     6138     6119     6116     6139 
    6168     6188     6214     6251     6293     6323     6334     6323 
    6295     6262     6218     6165     6129     6107     6092     6091 
    6095     6083     6053     6018     5985     5969     5973     5989 
    6012     6042     6062     6069     6095     6141     6180     6226 
    6289     6351     6403     6427     6409     6378     6354     6335 
    6327     6338     6354     6367     6388     6409     6421     6434 
    6438     6417     6382     6339     6286     6238     6211     6196 
    6180     6168     6160     6156     6165     6183     6192     6192 
    6181     6156     6143     6170     6216     6266     6331     6393 
    6421     6434     6440     6438     6451     6486     6519     6552 
    6593     6601     6566     6517     6474     6442     6420     6401 
    6370     6336     6305     6259     6204     6160     6122     6108 
    6130     6158     6180     6208     6242     6268     6285     6293 
    6278     6261     6257     6243     6234     6247     6262     6257 
    6234     6193     6151     6133     6123     6107     6087     6070 
    6053     6043     6046     6060     6084     6119     6151     6170 
    6185     6200     6200     6189     6183     6178     6181     6193 
    6211     6249     6316     6388     6447     6500     6536     6556 
    6575     6597     6592     6558     6523     6494     6486     6516 
    6566     6620     6674     6708     6705     6690     6669     6640 
    6632     6652     6671     6679     6683     6674     6642     6594 
    6540     6490     6465     6447     6415     6373     6340     6309 
    6272     6232     6189     6154     6145     6156     6177     6214 
    6251     6269     6268     6245     6199     6164     6165     6184 
    6215     6266     6327     6377     6415     6444     6461     6474 
    6480     6454     6417     6388     6361     6345     6350     6359 
    6370     6401     6436     6459     6473     6478     6473     6469 
    6463     6459     6477     6519     6561     6590     6612     6610 
    6577     6532     6484     6426     6384     6372     6365     6351 
    6336     6305     6266     6246     6235     6230     6249     6282 
    6311     6338     6354     6342     6312     6291     6269     6253 
    6251     6249     6237     6232     6230     6210     6168     6102 
    6015     5933     5875     5836     5817     5832     5867     5898 
    5922     5935     5934     5942     5967     5981     5991     6002 
    6007     6015     6023     6023     6026     6043     6064     6073 
    6079     6080     6068     6053     6056     6072     6096     6119 
    6120     6108     6107     6114     6126     6161     6203     6239 
    6289     6347     6381     6390     6376     6334     6289     6265 
    6264     6289     6339     6380     6389     6385     6382     6369 
    6355     6338     6304     6281     6296     6320     6351     6411 
    6486     6550     6597     6629     6635     6624     6605     6575 
    6555     6558     6570     6586     6609     6616     6602     6589 
    6567     6520     6469     6428     6392     6377     6385     6397 
    6419     6458     6480     6473     6459     6443     6426     6434 
    6462     6489     6532     6596     6650     6686     6710     6712 
    6693     6675     6664     6655     6656     6660     6654     6652 
    6651     6624     6577     6525     6455     6384     6340     6316 
    6296     6288     6282     6272     6261     6243     6216     6188 
    6170     6149     6123     6110     6110     6123     6166     6220 
    6255     6285     6309     6304     6289     6278     6259     6243 
    6253     6269     6269     6264     6257     6245     6234     6219 
    6188     6164     6161     6177     6208     6246     6261     6241 
    6203     6157     6111     6085     6083     6095     6126     6174 
    6220     6273     6349     6421     6458     6459     6428     6385 
    6354     6319     6269     6224     6191     6166     6169     6193 
    6222     6253     6293     6326     6345     6370     6403     6434 
    6474     6515     6534     6544     6551     6535     6511     6498 
    6488     6492     6512     6519     6502     6477     6428     6342 
    6243     6151     6066     5999     5949     5911     5898     5917 
    5938     5953     5965     5972     5971     5965     5961     5960 
    5971     6004     6042     6066     6080     6084     6075     6068 
    6065     6060     6076     6119     6160     6193     6226     6254 
    6286     6322     6336     6327     6316     6304     6276     6246 
    6226     6203     6192     6203     6204     6195     6191     6177 
    6173     6196     6215     6228     6268     6332     6407     6482 
    6550     6602     6651     6696     6720     6732     6768     6831 
    6898     6964     7010     7026     7026     7005     6948     6879 
    6816     6755     6714     6700     6687     6679     6686     6686 
    6670     6648     6624     6590     6561     6540     6520     6512 
    6524     6532     6532     6540     6543     6529     6512     6500 
    6502     6529     6571     6604     6627     6654     6671     6677 
    6690     6698     6689     6681     6677     6662     6652     6650 
    6631     6608     6582     6532     6461     6393     6336     6293 
    6276     6266     6238     6200     6158     6106     6053     6007 
    5960     5923     5906     5898     5891     5887     5875     5848 
    5823     5802     5776     5768     5788     5809     5818     5821 
    5814     5807     5818     5833     5838     5840     5842     5840 
    5854     5880     5888     5883     5881     5868     5841     5813 
    5769     5715     5676     5648     5616     5593     5583     5576 
    5583     5609     5632     5643     5645     5632     5613     5606 
    5609     5617     5645     5683     5713     5738     5763     5782 
    5813     5863     5926     6010     6116     6222     6304     6358 
    6384     6396     6419     6451     6478     6494     6507     6501 
    6485     6478     6474     6459     6448     6439     6426     6417 
    6416     6421     6444     6477     6504     6542     6605     6674 
    6740     6812     6871     6899     6910     6907     6883     6860 
    6848     6828     6806     6785     6737     6664     6589     6519 
    6457     6411     6367     6323     6288     6257     6212     6169 
    6131     6089     6060     6060     6080     6119     6178     6228 
    6245     6234     6203     6146     6089     6048     6006     5973 
    5967     5976     5994     6012     6014     6000     6003     6023 
    6048     6081     6123     6160     6187     6208     6223     6232 
    6255     6296     6342     6397     6458     6507     6554     6602 
    6640     6671     6709     6731     6736     6755     6774     6785 
    6802     6809     6789     6759     6724     6682     6655     6651 
    6666     6697     6735     6751     6736     6710     6679     6636 
    6593     6552     6516     6493     6477     6446     6408     6370 
    6320     6262     6215     6172     6124     6081     6039     5988 
    5940     5900     5852     5802     5768     5737     5694     5657 
    5628     5605     5591     5574     5552     5544     5553     5570 
    5602     5648     5683     5707     5738     5772     5802     5845 
    5899     5942     5984     6021     6026     6010     5983     5931 
    5872     5834     5817     5814     5838     5880     5911     5929 
    5929     5898     5865     5853     5845     5842     5853     5853 
    5836     5810     5771     5728     5699     5683     5671     5671 
    5683     5706     5748     5810     5869     5931     6012     6089 
    6150     6210     6266     6313     6366     6426     6485     6547 
    6621     6690     6744     6790     6810     6808     6812     6828 
    6848     6876     6899     6901     6905     6918     6922     6925 
    6948     6976     6990     6986     6964     6934     6934     6957 
    6972     6988     6994     6970     6943     6939     6940     6951 
    6984     7015     7026     7021     6999     6963     6928     6894 
    6848     6801     6766     6735     6709     6693     6669     6631 
    6583     6524     6462     6412     6374     6338     6320     6320 
    6318     6313     6308     6286     6247     6210     6177     6157 
    6166     6203     6243     6284     6328     6359     6385     6415 
    6430     6428     6421     6396     6358     6340     6342     6359 
    6396     6442     6485     6520     6546     6548     6540     6552 
    6581     6610     6648     6682     6705     6745     6798     6841 
    6880     6921     6955     6986     7011     7022     7026     7038 
    7048     7038     7026     7017     6998     6982     6972     6953 
    6928     6905     6868     6813     6752     6691     6624     6556 
    6486     6413     6357     6319     6278     6241     6212     6176 
    6146     6134     6114     6073     6042     6010     5958     5914 
    5872     5805     5714     5616     5505     5402     5321     5255 
    5206     5185     5175     5162     5155     5148     5125     5103 
    5085     5051     5009     4976     4949     4932     4938     4946 
    4949     4958     4977     5005     5058     5132     5205     5275 
    5348     5408     5468     5545     5624     5714     5836     5962 
    6066     6146     6196     6211     6210     6218     6235     6273 
    6336     6403     6457     6512     6565     6596     6633     6685 
    6725     6764     6797     6801     6794     6789     6781     6786 
    6817     6855     6886     6921     6951     6956     6945     6917 
    6868     6810     6760     6718     6702     6720     6747     6763 
    6774     6782     6783     6785     6786     6789     6801     6828 
    6859     6894     6936     6982     7034     7099     7163     7211 
    7248     7258     7238     7196     7146     7091     7044     7011 
    6980     6939     6901     6863     6818     6782     6747     6702 
    6656     6605     6539     6475     6421     6367     6327     6296 
    6255     6203     6164     6149     6154     6183     6227     6261 
    6288     6318     6330     6331     6340     6343     6324     6285 
    6226     6145     6056     5954     5837     5722     5622     5533 
    5464     5433     5418     5405     5404     5410     5409     5409 
    5425     5437     5443     5440     5405     5351     5313     5282 
    5247     5219     5202     5196     5200     5209     5224     5258 
    5308     5348     5375     5398     5405     5404     5416     5436 
    5460     5505     5559     5607     5657     5709     5753     5809 
    5881     5952     6023     6097     6154     6187     6220     6257 
    6296     6349     6401     6434     6462     6508     6561     6620 
    6693     6760     6808     6852     6906     6964     7034     7113 
    7167     7195     7211     7218     7229     7256     7285     7318 
    7353     7373     7376     7379     7383     7379     7376     7368 
    7338     7299     7268     7236     7200     7172     7141     7109 
    7087     7065     7032     6998     6961     6913     6863     6818 
    6770     6733     6723     6704     6662     6616     6566     6497 
    6427     6351     6262     6180     6119     6069     6042     6045 
    6052     6054     6057     6049     6029     6022     6022     6015 
    6003     5984     5941     5880     5811     5729     5648     5586 
    5535     5490     5470     5468     5479     5509     5555     5602 
    5657     5715     5755     5784     5822     5860     5896     5950 
    6022     6097     6184     6277     6361     6428     6485     6525 
    6558     6588     6598     6593     6589     6583     6577     6578 
    6586     6592     6597     6600     6590     6574     6556     6531 
    6505     6488     6458     6401     6338     6274     6211     6160 
    6120     6083     6053     6021     5973     5923     5886     5853 
    5834     5841     5856     5867     5886     5908     5918     5922 
    5930     5927     5922     5925     5929     5940     5973     6018 
    6054     6076     6085     6088     6092     6100     6118     6160 
    6235     6323     6413     6515     6615     6702     6781     6839 
    6872     6903     6929     6941     6944     6940     6924     6907 
    6903     6893     6867     6837     6794     6729     6663     6592 
    6501     6411     6323     6228     6146     6091     6043     6010 
    6019     6054     6096     6151     6203     6227     6227     6212 
    6180     6143     6123     6110     6108     6137     6173     6210 
    6258     6308     6346     6381     6403     6392     6362     6332 
    6291     6257     6255     6276     6304     6358     6430     6478 
    6511     6535     6529     6508     6486     6451     6420     6413 
    6408     6390     6382     6390     6407     6438     6467     6482 
    6500     6525     6546     6567     6597     6625     6656     6706 
    6759     6808     6871     6937     6987     7034     7078     7102 
    7118     7133     7128     7099     7061     7011     6944     6868 
    6781     6685     6598     6525     6458     6403     6358     6308 
    6262     6226     6185     6143     6119     6103     6085     6087 
    6096     6095     6092     6102     6114     6120     6122     6108 
    6081     6053     6014     5969     5937     5910     5876     5850 
    5838     5827     5823     5840     5856     5864     5880     5895 
    5896     5902     5910     5917     5938     5973     6007     6035 
    6053     6046     6018     5977     5926     5869     5825     5790 
    5756     5733     5728     5736     5761     5806     5844     5873 
    5908     5929     5940     5964     6000     6046     6114     6185 
    6238     6286     6334     6362     6388     6423     6453     6475 
    6508     6543     6573     6604     6628     6635     6633     6620 
    6592     6562     6539     6515     6497     6498     6512     6529 
    6559     6590     6606     6619     6635     6643     6652     6664 
    6677     6690     6706     6708     6698     6700     6702     6694 
    6687     6675     6642     6610     6596     6575     6550     6534 
    6515     6500     6489     6469     6435     6405     6377     6340 
    6311     6293     6269     6232     6192     6145     6091     6042 
    5999     5956     5925     5898     5867     5856     5857     5849 
    5837     5821     5784     5746     5728     5715     5706     5711 
    5726     5744     5783     5845     5910     5977     6041     6085 
    6116     6145     6164     6172     6180     6173     6143     6114 
    6088     6062     6050     6060     6083     6124     6180     6237 
    6295     6359     6427     6492     6552     6602     6628     6633 
    6629     6604     6571     6556     6550     6543     6550     6555 
    6539     6523     6512     6486     6465     6447     6411     6373 
    6353     6339     6334     6336     6328     6316     6305     6280 
