Origin Time       2025/01/13 21:19:00
Lat.              31.8
Long.             131.6
Depth. (km)       30
Mag.              6.9
Station Code      YMGH09
Station Lat.      34.6257
Station Long.     131.6681
Station Height(m) 10
Record Time       2025/01/13 21:20:26
Sampling Freq(Hz) 100Hz
Duration Time(s)  140
Dir.              6
Scale Factor      7845(gal)/8223790
Max. Acc. (gal)   0.925
Last Correction   2025/01/13 21:20:28
Memo.             
[...]
   14998    14978    14968    14971    14986    15006    15013    14994 
   14960    14935    14941    14985    15032    15052    15039    15007 
   14978    14964    14966    14972    14976    14982    15002    15036 
   15079    15114    15124    15101    15059    15024    15010    15006 
   14991    14955    14904    14845    14794    14769    14769    14777 
   14783    14789    14790    14797    14820    14837    14832    14797 
   14750    14716    14708    14724    14755    14797    14844    14882 
   14897    14883    14860    14848    14855    14879    14909    14920 
   14906    14890    14893    14913    14947    14972    14975    14966 
   14958    14959    14968    14978    14975    14953    14921    14885 
   14850    14818    14797    14786    14789    14794    14783    14762 
   14739    14716    14694    14682    14686    14706    14756    14820 
   14867    14882    14870    14847    14832    14837    14859    14885 
   14901    14904    14889    14862    14843    14858    14913    14983 
   15040    15061    15048    15028    15025    15041    15075    15121 
   15169    15207    15223    15214    15195    15195    15232    15288 
   15336    15349    15331    15309    15303    15315    15334    15352 
   15368    15387    15394    15380    15357    15350    15361    15380 
   15392    15391    15375    15360    15356    15358    15358    15348 
   15323    15284    15232    15178    15147    15149    15190    15244 
   15275    15265    15210    15133    15066    15026    15009    15002 
   15001    14995    14971    14935    14905    14885    14874    14872 
   14866    14843    14804    14756    14709    14675    14661    14659 
   14658    14646    14620    14589    14563    14550    14551    14557 
   14554    14547    14543    14539    14539    14539    14532    14530 
   14543    14569    14607    14635    14634    14602    14555    14516 
   14504    14520    14547    14574    14590    14580    14554    14546 
   14571    14623    14674    14701    14694    14682    14697    14737 
   14787    14835    14875    14901    14914    14908    14879    14847 
   14825    14825    14850    14886    14914    14935    14955    14975 
   14985    14982    14968    14947    14929    14914    14894    14870 
   14855    14854    14863    14882    14901    14918    14932    14945 
   14958    14966    14978    14994    15017    15044    15067    15075 
   15080    15102    15147    15199    15233    15232    15207    15190 
   15195    15223    15264    15302    15319    15311    15292    15272 
   15264    15282    15321    15358    15375    15369    15352    15327 
   15302    15290    15295    15314    15334    15338    15317    15280 
   15238    15206    15194    15191    15186    15174    15160    15155 
   15161    15184    15214    15232    15230    15203    15151    15093 
   15047    15021    15014    15020    15030    15039    15041    15039 
   15032    15017    14999    14987    14987    14995    14999    14980 
   14939    14901    14889    14905    14922    14912    14867    14805 
   14751    14728    14731    14744    14756    14760    14744    14708 
   14658    14612    14589    14585    14594    14608    14607    14586 
   14567    14563    14574    14598    14621    14632    14623    14589 
   14550    14528    14531    14550    14567    14566    14550    14539 
   14548    14582    14627    14658    14662    14643    14617    14597 
   14585    14577    14574    14584    14600    14623    14656    14686 
   14706    14724    14746    14778    14825    14877    14922    14959 
   14980    14989    14993    15003    15016    15017    15007    14994 
   14991    15007    15029    15037    15024    14999    14976    14966 
   14971    14983    15001    15026    15052    15075    15101    15126 
   15147    15161    15171    15172    15169    15161    15142    15120 
   15105    15114    15145    15175    15187    15186    15187    15192 
   15206    15221    15230    15237    15242    15246    15259    15283 
   15306    15319    15313    15288    15268    15260    15261    15261 
   15246    15222    15213    15223    15242    15255    15246    15222 
   15182    15132    15084    15060    15063    15076    15082    15064 
   15033    14999    14975    14968    14974    14978    14979    14975 
   14970    14964    14956    14949    14947    14941    14926    14905 
   14886    14879    14883    14897    14909    14901    14868    14820 
   14777    14763    14779    14804    14827    14841    14835    14812 
   14790    14778    14782    14798    14805    14797    14785    14775 
   14764    14751    14742    14736    14736    14747    14770    14790 
   14800    14798    14790    14785    14785    14789    14806    14827 
   14836    14833    14816    14787    14762    14744    14744    14763 
   14777    14777    14773    14773    14783    14805    14835    14863 
   14886    14902    14916    14926    14947    14982    15025    15071 
   15113    15140    15163    15190    15223    15256    15276    15283 
   15287    15300    15333    15373    15404    15423    15445    15484 
   15537    15581    15599    15588    15572    15573    15597    15631 
   15662    15684    15685    15673    15654    15634    15634    15660 
   15700    15738    15753    15736    15709    15692    15678    15658 
   15624    15585    15553    15531    15514    15498    15479    15449 
   15410    15358    15300    15245    15201    15160    15121    15083 
   15041    14998    14963    14945    14948    14964    14987    15009 
   15016    15005    14982    14952    14926    14921    14943    14974 
   14997    15009    15012    14998    14976    14967    14970    14968 
   14958    14936    14906    14872    14837    14794    14743    14688 
   14625    14563    14516    14492    14477    14459    14436    14419 
   14418    14431    14443    14440    14432    14431    14438    14454 
   14473    14481    14488    14508    14536    14559    14577    14598 
   14628    14663    14694    14716    14737    14773    14816    14850 
   14868    14877    14882    14889    14887    14889    14902    14926 
   14956    14972    14960    14943    14941    14959    14983    15001 
   15005    15006    15018    15043    15071    15087    15084    15070 
   15047    15034    15041    15061    15083    15090    15068    15018 
   14951    14878    14816    14777    14760    14762    14763    14750 
   14721    14685    14650    14629    14634    14658    14688    14704 
   14689    14652    14612    14585    14588    14623    14669    14719 
   14764    14783    14777    14769    14775    14804    14845    14894 
   14933    14959    14976    14994    15020    15057    15103    15152 
   15205    15252    15279    15284    15277    15264    15250    15237 
   15218    15203    15196    15194    15194    15201    15214    15217 
   15202    15171    15128    15079    15039    15014    15013    15026 
   15040    15043    15033    15026    15029    15033    15032    15028 
   15024    15022    15024    15017    14997    14974    14963    14974 
   15003    15039    15071    15094    15101    15086    15057    15029 
   15006    14995    14983    14959    14921    14875    14829    14789 
   14759    14744    14747    14771    14802    14824    14828    14823 
   14812    14804    14808    14817    14825    14828    14825    14821 
   14821    14818    14806    14782    14752    14731    14724    14723 
   14716    14698    14678    14661    14655    14667    14692    14716 
   14736    14739    14724    14705    14683    14669    14671    14682 
   14698    14724    14754    14782    14800    14794    14774    14758 
   14756    14766    14785    14810    14831    14847    14855    14850 
   14839    14836    14836    14832    14820    14790    14754    14733 
   14733    14750    14783    14820    14848    14864    14867    14863 
   14870    14894    14939    14993    15043    15084    15120    15140 
   15152    15160    15156    15148    15145    15147    15159    15187 
   15222    15255    15271    15267    15261    15275    15300    15333 
   15365    15398    15426    15450    15464    15465    15453    15427 
   15394    15358    15333    15321    15310    15295    15280    15263 
   15238    15203    15152    15082    15007    14955    14931    14926 
   14926    14917    14893    14860    14825    14787    14756    14740 
   14743    14759    14777    14778    14762    14750    14744    14744 
   14752    14763    14773    14783    14790    14790    14798    14813 
   14823    14821    14809    14793    14790    14809    14839    14875 
   14905    14914    14920    14933    14941    14935    14913    14889 
   14875    14875    14883    14893    14894    14890    14881    14862 
   14845    14845    14867    14905    14935    14949    14944    14917 
   14875    14835    14806    14796    14804    14824    14847    14859 
   14852    14832    14810    14794    14791    14810    14850    14895 
   14932    14947    14937    14922    14928    14964    15030    15114 
   15191    15252    15294    15327    15364    15398    15427    15460 
   15487    15491    15473    15446    15427    15423    15419    15400 
   15358    15307    15263    15238    15229    15222    15196    15153 
   15093    15020    14959    14921    14899    14887    14874    14847 
   14805    14755    14706    14667    14642    14624    14608    14594 
   14594    14602    14616    14635    14654    14667    14685    14720 
   14770    14817    14855    14887    14922    14967    15017    15060 
   15091    15113    15138    15178    15217    15246    15261    15260 
   15249    15248    15264    15292    15326    15361    15388    15384 
   15338    15271    15211    15168    15137    15114    15078    15022 
   14960    14899    14847    14816    14816    14844    14881    14904 
   14908    14905    14898    14890    14874    14848    14812    14770 
   14732    14704    14677    14636    14582    14527    14474    14431 
   14397    14365    14331    14295    14261    14241    14239    14253 
   14268    14295    14334    14370    14396    14415    14430    14438 
   14443    14453    14465    14488    14532    14589    14643    14682 
   14698    14700    14712    14739    14783    14844    14908    14958 
   14980    14979    14972    14979    14999    15032    15075    15125 
   15180    15236    15290    15345    15394    15433    15469    15493 
   15510    15537    15574    15622    15669    15704    15724    15730 
   15723    15714    15707    15695    15673    15639    15606    15574 
   15542    15504    15465    15421    15368    15309    15249    15199 
   15165    15155    15152    15145    15133    15113    15097    15095 
   15120    15160    15191    15196    15192    15187    15183    15183 
   15187    15196    15214    15234    15255    15276    15298    15318 
   15336    15346    15344    15341    15356    15396    15454    15518 
   15568    15597    15611    15620    15630    15638    15645    15651 
   15661    15669    15665    15631    15576    15522    15488    15464 
   15433    15385    15323    15246    15169    15102    15051    15018 
   14991    14956    14904    14835    14763    14710    14683    14683 
   14700    14713    14713    14700    14675    14651    14636    14631 
   14624    14615    14596    14580    14580    14596    14616    14632 
   14640    14635    14616    14598    14590    14589    14589    14578 
   14562    14544    14517    14482    14453    14430    14416    14419 
   14439    14467    14497    14516    14521    14512    14494    14490 
   14511    14542    14575    14611    14647    14683    14724    14767 
   14808    14836    14858    14887    14928    14970    15005    15028 
   15032    15020    14997    14968    14944    14921    14901    14885 
   14872    14850    14806    14744    14671    14602    14544    14501 
   14469    14434    14392    14347    14304    14269    14247    14241 
   14241    14238    14231    14227    14242    14278    14324    14377 
   14430    14467    14486    14486    14474    14462    14458    14474 
   14513    14561    14598    14615    14604    14574    14554    14562 
   14600    14656    14713    14751    14764    14769    14787    14835 
   14904    14974    15028    15067    15103    15144    15198    15268 
   15349    15426    15483    15507    15508    15507    15525    15558 
   15588    15606    15604    15588    15564    15533    15499    15472 
   15449    15426    15398    15360    15322    15299    15296    15309 
   15322    15327    15321    15303    15279    15252    15230    15211 
   15187    15156    15111    15059    15007    14966    14926    14882 
   14832    14797    14787    14794    14813    14841    14870    14895 
   14922    14943    14953    14962    14979    15006    15039    15066 
   15087    15114    15163    15226    15296    15358    15403    15429 
   15442    15446    15444    15446    15466    15499    15530    15553 
   15577    15604    15628    15653    15666    15662    15658    15657 
   15654    15653    15642    15619    15599    15587    15585    15585 
   15584    15580    15569    15552    15530    15504    15468    15433 
   15400    15369    15337    15307    15284    15272    15273    15283 
   15284    15276    15259    15238    15221    15201    15179    15161 
   15145    15122    15087    15033    14963    14893    14832    14779 
   14740    14706    14665    14600    14531    14480    14445    14419 
   14396    14366    14322    14264    14210    14168    14135    14112 
   14091    14065    14037    14013    13995    13994    14013    14045 
   14079    14108    14134    14170    14231    14315    14422    14538 
   14643    14729    14802    14871    14940    15003    15067    15133 
   15206    15279    15337    15375    15408    15445    15479    15508 
   15538    15568    15596    15624    15647    15660    15661    15647 
   15612    15568    15522    15475    15442    15421    15392    15350 
   15299    15249    15201    15149    15087    15021    14963    14918 
   14882    14852    14829    14820    14823    14824    14821    14816 
   14809    14802    14797    14793    14782    14770    14771    14791 
   14820    14852    14881    14899    14924    14956    14989    15018 
   15043    15067    15097    15126    15156    15184    15198    15187 
   15159    15126    15103    15098    15102    15105    15095    15067 
   15017    14953    14879    14808    14748    14694    14638    14577 
   14511    14449    14393    14342    14300    14268    14246    14238 
   14238    14238    14242    14253    14265    14292    14326    14359 
   14404    14459    14521    14586    14651    14721    14800    14885 
   14971    15048    15110    15168    15222    15269    15303    15317 
   15309    15287    15260    15237    15218    15199    15169    15124 
   15064    15006    14949    14890    14832    14771    14702    14629 
   14555    14486    14426    14377    14346    14330    14320    14320 
   14337    14372    14419    14472    14512    14544    14577    14611 
   14646    14681    14713    14742    14779    14839    14920    15012 
   15095    15160    15210    15256    15307    15367    15427    15480 
   15523    15562    15589    15606    15623    15643    15654    15653 
   15646    15633    15615    15599    15579    15547    15514    15483 
   15453    15433    15419    15408    15404    15399    15385    15368 
   15348    15336    15333    15323    15300    15268    15222    15168 
   15121    15082    15049    15025    15003    14975    14948    14925 
   14913    14913    14921    14926    14924    14912    14886    14858 
   14847    14854    14864    14877    14885    14882    14875    14872 
   14877    14890    14912    14931    14931    14912    14895    14889 
   14889    14893    14897    14902    14914    14926    14929    14912 
   14878    14841    14808    14774    14740    14704    14663    14627 
   14598    14570    14542    14516    14493    14461    14422    14392 
   14370    14354    14350    14351    14359    14377    14403    14435 
   14478    14521    14573    14643    14721    14796    14852    14893 
   14933    14987    15063    15149    15226    15282    15314    15329 
   15337    15360    15402    15452    15496    15520    15518    15503 
   15485    15473    15466    15458    15452    15446    15435    15422 
   15400    15371    15337    15299    15252    15198    15148    15110 
   15076    15049    15025    14990    14939    14875    14806    14747 
   14704    14674    14647    14607    14543    14466    14392    14332 
   14296    14288    14296    14301    14299    14287    14262    14238 
   14227    14234    14258    14295    14331    14368    14416    14478 
   14546    14616    14689    14762    14833    14909    14982    15048 
   15106    15152    15186    15214    15233    15249    15264    15273 
   15279    15283    15277    15277    15284    15279    15259    15228 
   15192    15165    15159    15169    15191    15213    15222    15222 
   15215    15209    15209    15218    15237    15261    15282    15292 
   15294    15295    15302    15309    15310    15307    15299    15282 
   15255    15222    15198    15192    15192    15184    15160    15111 
   15052    15009    14993    14991    14997    15001    14995    14994 
   15005    15024    15045    15063    15067    15064    15063    15064 
   15066    15070    15080    15088    15086    15072    15055    15040 
   15034    15030    15026    15018    15006    14993    14976    14958 
   14947    14948    14953    14959    14964    14968    14964    14953 
   14939    14918    14898    14881    14866    14848    14832    14825 
   14828    14843    14864    14882    14890    14893    14889    14882 
   14881    14889    14908    14929    14959    14993    15025    15053 
   15078    15102    15124    15141    15153    15165    15172    15178 
   15184    15190    15188    15184    15179    15171    15155    15125 
   15079    15034    15001    14983    14985    14990    14982    14967 
   14947    14914    14879    14850    14823    14794    14760    14727 
   14697    14673    14655    14640    14623    14607    14593    14582 
   14574    14571    14574    14589    14609    14627    14646    14667 
   14690    14715    14736    14751    14770    14794    14817    14828 
   14828    14827    14836    14860    14898    14932    14953    14962 
   14959    14951    14952    14967    14986    15003    15012    15006 
   14997    14993    14998    15013    15033    15048    15055    15045 
   15033    15036    15049    15072    15102    15125    15134    15134 
   15128    15126    15137    15153    15157    15148    15126    15094 
   15064    15049    15048    15059    15070    15068    15060    15047 
   15029    15013    15002    14994    14989    14983    14983    14985 
   14985    14978    14960    14929    14899    14878    14859    14840 
   14813    14779    14750    14728    14710    14697    14692    14685 
   14674    14655    14631    14607    14586    14575    14578    14586 
   14588    14592    14609    14632    14643    14644    14646    14650 
   14663    14685    14713    14742    14767    14797    14835    14871 
   14910    14953    14994    15024    15040    15040    15034    15034 
   15049    15071    15091    15099    15088    15068    15057    15059 
   15068    15080    15079    15057    15020    14980    14958    14952 
