Origin Time       2025/01/13 21:19:00
Lat.              31.8
Long.             131.6
Depth. (km)       30
Mag.              6.9
Station Code      YMGH14
Station Lat.      34.3979
Station Long.     131.3774
Station Height(m) 5
Record Time       2025/01/13 21:20:25
Sampling Freq(Hz) 100Hz
Duration Time(s)  128
Dir.              5
Scale Factor      3920(gal)/6170801
Max. Acc. (gal)   2.223
Last Correction   2025/01/13 21:20:10
Memo.             
[...]
  -16337   -16002   -15698   -15439   -15191   -14926   -14645   -14365 
  -14116   -13935   -13844   -13836   -13900   -14032   -14225   -14465 
  -14736   -15013   -15265   -15476   -15643   -15769   -15863   -15930 
  -15954   -15920   -15827   -15697   -15554   -15409   -15256   -15082 
  -14870   -14618   -14360   -14138   -13986   -13935   -13998   -14160 
  -14375   -14584   -14741   -14840   -14904   -14978   -15096   -15248 
  -15388   -15457   -15417   -15280   -15110   -14977   -14904   -14866 
  -14831   -14788   -14740   -14712   -14731   -14807   -14948   -15145 
  -15357   -15546   -15693   -15782   -15822   -15818   -15756   -15645 
  -15510   -15370   -15239   -15134   -15061   -15004   -14935   -14832 
  -14687   -14515   -14350   -14223   -14163   -14200   -14333   -14543 
  -14809   -15089   -15343   -15543   -15664   -15712   -15729   -15753 
  -15801   -15876   -15947   -15960   -15882   -15727   -15533   -15336 
  -15174   -15080   -15056   -15076   -15109   -15126   -15119   -15098 
  -15076   -15056   -15037   -15009   -14965   -14901   -14826   -14746 
  -14670   -14607   -14558   -14505   -14429   -14336   -14261   -14243 
  -14301   -14419   -14552   -14649   -14691   -14682   -14647   -14614 
  -14604   -14640   -14731   -14858   -14992   -15108   -15190   -15238 
  -15259   -15249   -15215   -15162   -15098   -15044   -15022   -15036 
  -15070   -15104   -15110   -15094   -15086   -15106   -15156   -15230 
  -15303   -15349   -15365   -15374   -15403   -15470   -15573   -15672 
  -15716   -15693   -15616   -15503   -15375   -15257   -15170   -15133 
  -15144   -15183   -15232   -15274   -15300   -15326   -15363   -15407 
  -15459   -15511   -15553   -15596   -15667   -15776   -15896   -15989 
  -16036   -16032   -15988   -15928   -15873   -15841   -15840   -15865 
  -15892   -15886   -15825   -15713   -15582   -15471   -15416   -15423 
  -15469   -15517   -15549   -15580   -15652   -15797   -16012   -16255 
  -16449   -16526   -16486   -16362   -16190   -16004   -15820   -15638 
  -15460   -15277   -15081   -14875   -14650   -14390   -14092   -13776 
  -13476   -13239   -13099   -13070   -13149   -13319   -13538   -13758 
  -13963   -14157   -14343   -14533   -14744   -14984   -15241   -15487 
  -15689   -15826   -15889   -15873   -15785   -15638   -15444   -15240 
  -15077   -14982   -14944   -14932   -14904   -14819   -14666   -14471 
  -14261   -14052   -13857   -13688   -13554   -13463   -13429   -13474 
  -13603   -13804   -14063   -14355   -14647   -14912   -15135   -15317 
  -15476   -15629   -15787   -15958   -16134   -16295   -16418   -16464 
  -16401   -16225   -15945   -15591   -15219   -14889   -14635   -14457 
  -14336   -14259   -14214   -14186   -14181   -14203   -14257   -14352 
  -14483   -14641   -14835   -15072   -15345   -15641   -15943   -16219 
  -16426   -16546   -16599   -16602   -16568   -16512   -16424   -16262 
  -16003   -15669   -15304   -14964   -14701   -14524   -14408   -14332 
  -14299   -14311   -14371   -14507   -14738   -15036   -15346   -15610 
  -15777   -15816   -15748   -15620   -15468   -15310   -15142   -14958 
  -14768   -14605   -14500   -14457   -14445   -14422   -14359   -14252 
  -14119   -14004   -13952   -13980   -14083   -14258   -14503   -14818 
  -15206   -15642   -16075   -16451   -16745   -16953   -17085   -17155 
  -17177   -17140   -17025   -16806   -16472   -16035   -15533   -15023 
  -14558   -14174   -13890   -13694   -13555   -13462   -13418   -13430 
  -13509   -13653   -13850   -14087   -14374   -14716   -15085   -15441 
  -15758   -16038   -16290   -16525   -16748   -16946   -17084   -17123 
  -17047   -16882   -16664   -16423   -16179   -15927   -15649   -15327 
  -14964   -14587   -14240   -13968   -13803   -13753   -13801   -13909 
  -14044   -14195   -14369   -14587   -14858   -15146   -15398   -15588 
  -15712   -15796   -15886   -16010   -16163   -16313   -16413   -16424 
  -16333   -16157   -15929   -15688   -15466   -15263   -15057   -14841 
  -14626   -14437   -14298   -14225   -14215   -14248   -14322   -14443 
  -14597   -14775   -14975   -15175   -15347   -15477   -15543   -15527 
  -15444   -15342   -15271   -15255   -15290   -15342   -15370   -15356 
  -15303   -15242   -15219   -15258   -15347   -15464   -15586   -15700 
  -15823   -15981   -16174   -16364   -16486   -16498   -16419   -16293 
  -16177   -16117   -16112   -16113   -16062   -15932   -15743   -15538 
  -15354   -15210   -15088   -14957   -14795   -14610   -14438   -14325 
  -14299   -14357   -14455   -14548   -14628   -14703   -14780   -14874 
  -14997   -15144   -15306   -15478   -15659   -15838   -16014   -16177 
  -16304   -16368   -16357   -16278   -16151   -16008   -15881   -15771 
  -15653   -15498   -15279   -14995   -14694   -14441   -14272   -14162 
  -14057   -13918   -13753   -13617   -13551   -13557   -13604   -13663 
  -13728   -13817   -13966   -14200   -14508   -14848   -15164   -15415 
  -15603   -15741   -15845   -15932   -16018   -16102   -16173   -16217 
  -16218   -16179   -16124   -16067   -16006   -15907   -15726   -15439 
  -15053   -14615   -14191   -13831   -13569   -13425   -13400   -13470 
  -13603   -13771   -13953   -14135   -14325   -14543   -14803   -15094 
  -15398   -15690   -15945   -16158   -16327   -16443   -16496   -16486 
  -16429   -16345   -16260   -16186   -16121   -16059   -15969   -15832 
  -15661   -15478   -15302   -15148   -15022   -14919   -14838   -14786 
  -14758   -14728   -14680   -14608   -14503   -14386   -14295   -14254 
  -14261   -14320   -14441   -14617   -14828   -15059   -15308   -15555 
  -15767   -15932   -16037   -16068   -16039   -15980   -15915   -15858 
  -15811   -15753   -15666   -15550   -15410   -15257   -15097   -14927 
  -14757   -14597   -14454   -14332   -14222   -14109   -13996   -13897 
  -13822   -13771   -13727   -13688   -13678   -13730   -13871   -14100 
  -14377   -14645   -14857   -14988   -15048   -15064   -15051   -15018 
  -14967   -14897   -14819   -14754   -14723   -14742   -14822   -14952 
  -15105   -15256   -15388   -15485   -15535   -15532   -15490   -15431 
  -15374   -15320   -15256   -15155   -14998   -14780   -14516   -14234 
  -13976   -13769   -13617   -13518   -13452   -13400   -13366   -13367 
  -13423   -13558   -13777   -14072   -14417   -14776   -15097   -15336 
  -15476   -15515   -15465   -15342   -15159   -14935   -14686   -14421 
  -14157   -13915   -13703   -13511   -13355   -13252   -13207   -13241 
  -13376   -13625   -13980   -14410   -14888   -15384   -15860   -16285 
  -16645   -16931   -17125   -17225   -17249   -17196   -17060   -16831 
  -16497   -16069   -15586   -15104   -14651   -14219   -13793   -13377 
  -13007   -12719   -12547   -12514   -12602   -12781   -13017   -13278 
  -13556   -13861   -14187   -14515   -14832   -15144   -15456   -15752 
  -16012   -16217   -16361   -16449   -16482   -16456   -16371   -16244 
  -16087   -15913   -15737   -15561   -15388   -15237   -15135   -15105 
  -15139   -15217   -15324   -15441   -15558   -15677   -15798   -15923 
  -16049   -16174   -16297   -16415   -16516   -16576   -16577   -16526 
  -16443   -16351   -16264   -16191   -16125   -16054   -15988   -15929 
  -15868   -15796   -15695   -15569   -15453   -15387   -15392   -15464 
  -15565   -15628   -15594   -15439   -15172   -14830   -14470   -14151 
  -13908   -13754   -13696   -13732   -13855   -14052   -14312   -14639 
  -15021   -15435   -15870   -16300   -16704   -17064   -17357   -17574 
  -17709   -17752   -17690   -17517   -17254   -16945   -16635   -16353 
  -16104   -15870   -15642   -15435   -15268   -15150   -15078   -15016 
  -14921   -14785   -14633   -14511   -14459   -14501   -14627   -14817 
  -15053   -15309   -15566   -15802   -15988   -16100   -16138   -16123 
  -16071   -16001   -15934   -15870   -15806   -15740   -15661   -15558 
  -15441   -15333   -15249   -15204   -15195   -15189   -15167   -15109 
  -14989   -14808   -14593   -14387   -14236   -14163   -14158   -14199 
  -14268   -14353   -14451   -14565   -14704   -14872   -15077   -15329 
  -15635   -15979   -16337   -16671   -16947   -17149   -17256   -17263 
  -17184   -17027   -16802   -16536   -16263   -16018   -15822   -15677 
  -15557   -15435   -15306   -15180   -15079   -15016   -14977   -14944 
  -14907   -14869   -14846   -14865   -14933   -15031   -15144   -15270 
  -15410   -15557   -15689   -15781   -15826   -15844   -15854   -15865 
  -15880   -15885   -15846   -15749   -15599   -15426   -15267   -15146 
  -15070   -15039   -15045   -15065   -15083   -15107   -15152   -15228 
  -15332   -15452   -15568   -15648   -15671   -15637   -15569   -15495 
  -15424   -15334   -15200   -15014   -14793   -14572   -14376   -14198 
  -14029   -13857   -13673   -13487   -13327   -13226   -13211   -13282 
  -13421   -13589   -13733   -13832   -13890   -13929   -13991   -14118 
  -14326   -14593   -14869   -15099   -15252   -15330   -15348   -15318 
  -15252   -15161   -15049   -14926   -14814   -14725   -14663   -14621 
  -14579   -14514   -14412   -14265   -14096   -13954   -13891   -13938 
  -14094   -14331   -14607   -14876   -15107   -15295   -15452   -15598 
  -15757   -15938   -16135   -16336   -16518   -16670   -16796   -16893 
  -16955   -16978   -16949   -16861   -16714   -16516   -16283   -16035 
  -15794   -15583   -15405   -15236   -15043   -14816   -14583   -14377 
  -14232   -14172   -14201   -14305   -14467   -14666   -14880   -15086 
  -15256   -15371   -15432   -15458   -15475   -15501   -15536   -15576 
  -15625   -15678   -15729   -15783   -15837   -15879   -15903   -15918 
  -15939   -15970   -16000   -16022   -16030   -16024   -15999   -15950 
  -15867   -15757   -15642   -15523   -15406   -15308   -15237   -15192 
  -15168   -15147   -15104   -15029   -14913   -14733   -14485   -14197 
  -13911   -13667   -13499   -13408   -13367   -13348   -13328   -13298 
  -13282   -13316   -13408   -13557   -13767   -14036   -14362   -14740 
  -15148   -15536   -15853   -16064   -16150   -16114   -15983   -15788 
  -15560   -15317   -15071   -14830   -14592   -14350   -14107   -13865 
  -13636   -13459   -13363   -13351   -13411   -13528   -13680   -13860 
  -14073   -14327   -14634   -14998   -15399   -15785   -16098   -16311 
  -16446   -16541   -16637   -16757   -16895   -17020   -17098   -17113 
  -17072   -16983   -16843   -16636   -16353   -15986   -15560   -15120 
  -14712   -14369   -14119   -13965   -13883   -13834   -13793   -13763 
  -13758   -13799   -13909   -14087   -14318   -14579   -14833   -15055 
  -15245   -15404   -15538   -15651   -15750   -15847   -15938   -16011 
  -16058   -16062   -16014   -15930   -15832   -15734   -15644   -15553 
  -15442   -15305   -15162   -15034   -14938   -14889   -14902   -14966 
  -15052   -15145   -15236   -15316   -15390   -15463   -15530   -15588 
  -15640   -15684   -15704   -15699   -15669   -15619   -15569   -15527 
  -15488   -15437   -15360   -15259   -15152   -15052   -14979   -14954 
  -14985   -15064   -15169   -15267   -15335   -15374   -15385   -15369 
  -15341   -15303   -15236   -15133   -14999   -14832   -14631   -14402 
  -14146   -13860   -13556   -13259   -13008   -12842   -12784   -12827 
  -12931   -13058   -13198   -13369   -13601   -13908   -14290   -14719 
  -15149   -15524   -15805   -15997   -16127   -16218   -16274   -16275 
  -16191   -16007   -15739   -15430   -15133   -14889   -14704   -14555 
  -14411   -14259   -14117   -14013   -13971   -14005   -14110   -14250 
  -14389   -14507   -14595   -14651   -14693   -14731   -14766   -14801 
  -14830   -14852   -14874   -14902   -14944   -14993   -15042   -15078 
  -15102   -15132   -15182   -15252   -15340   -15429   -15492   -15511 
  -15480   -15399   -15278   -15135   -14988   -14859   -14766   -14712 
  -14691   -14694   -14705   -14718   -14744   -14818   -14966   -15183 
  -15435   -15694   -15929   -16122   -16269   -16370   -16422   -16421 
  -16361   -16238   -16058   -15839   -15604   -15376   -15174   -15008 
  -14875   -14769   -14695   -14664   -14701   -14823   -15028   -15282 
  -15532   -15743   -15894   -15984   -16046   -16107   -16165   -16208 
  -16206   -16130   -15969   -15734   -15456   -15171   -14910   -14691 
  -14519   -14396   -14328   -14320   -14356   -14418   -14512   -14643 
  -14801   -14965   -15124   -15275   -15409   -15534   -15664   -15795 
  -15914   -16004   -16051   -16050   -16011   -15963   -15929   -15913 
  -15908   -15894   -15856   -15794   -15716   -15625   -15538   -15475 
  -15435   -15405   -15368   -15296   -15165   -14980   -14767   -14563 
  -14392   -14263   -14177   -14115   -14051   -13980   -13920   -13894 
  -13910   -13965   -14053   -14155   -14261   -14378   -14517   -14683 
  -14872   -15075   -15268   -15434   -15572   -15679   -15763   -15836 
  -15894   -15932   -15935   -15883   -15781   -15657   -15544   -15472 
  -15460   -15490   -15518   -15511   -15455   -15360   -15257   -15180 
  -15151   -15165   -15198   -15224   -15227   -15208   -15181   -15151 
  -15115   -15059   -14982   -14906   -14854   -14837   -14851   -14884 
  -14921   -14952   -14984   -15034   -15109   -15201   -15297   -15385 
  -15457   -15514   -15566   -15625   -15682   -15735   -15787   -15818 
  -15800   -15732   -15638   -15542   -15454   -15375   -15292   -15169 
  -14992   -14779   -14550   -14327   -14132   -13968   -13829   -13716 
  -13637   -13595   -13589   -13632   -13741   -13919   -14168   -14487 
  -14866   -15293   -15764   -16273   -16794   -17292   -17735   -18090 
  -18346   -18513   -18610   -18642   -18608   -18510   -18352   -18126 
  -17820   -17438   -16989   -16477   -15920   -15359   -14840   -14391 
  -14034   -13788   -13645   -13591   -13615   -13692   -13789   -13887 
  -13970   -14033   -14087   -14150   -14233   -14317   -14380   -14412 
  -14414   -14397   -14386   -14394   -14430   -14508   -14629   -14785 
  -14975   -15189   -15404   -15599   -15761   -15888   -15975   -16016 
  -16006   -15928   -15765   -15532   -15253   -14953   -14652   -14361 
  -14073   -13791   -13533   -13323   -13196   -13177   -13259   -13426 
  -13657   -13928   -14215   -14491   -14743   -14970   -15172   -15343 
  -15480   -15583   -15650   -15679   -15685   -15681   -15659   -15595 
  -15469   -15281   -15054   -14838   -14680   -14605   -14616   -14692 
  -14800   -14915   -15034   -15166   -15307   -15449   -15583   -15694 
  -15778   -15839   -15878   -15892   -15883   -15846   -15773   -15660 
  -15512   -15335   -15138   -14933   -14745   -14599   -14508   -14476 
  -14506   -14590   -14716   -14868   -15022   -15166   -15306   -15445 
  -15577   -15697   -15809   -15916   -16010   -16084   -16127   -16111 
  -16008   -15806   -15504   -15131   -14734   -14357   -14033   -13778 
  -13586   -13441   -13344   -13305   -13334   -13432   -13586   -13779 
  -14001   -14247   -14522   -14832   -15163   -15484   -15761   -15959 
  -16072   -16117   -16120   -16104   -16073   -16011   -15906   -15768 
  -15624   -15506   -15437   -15421   -15445   -15494   -15554   -15625 
  -15705   -15792   -15893   -16033   -16223   -16457   -16714   -16956 
  -17154   -17305   -17422   -17511   -17563   -17552   -17460   -17289 
  -17054   -16773   -16452   -16086   -15683   -15254   -14813   -14388 
  -14005   -13684   -13431   -13242   -13125   -13077   -13082   -13124 
  -13208   -13359   -13597   -13911   -14263   -14628   -14988   -15320 
  -15613   -15865   -16078   -16258   -16404   -16516   -16587   -16608 
  -16573   -16480   -16321   -16096   -15822   -15514   -15176   -14810 
  -14421   -14018   -13617   -13236   -12893   -12601   -12371   -12209 
  -12114   -12075   -12076   -12105   -12157   -12245   -12397   -12650 
  -13012   -13465   -13979   -14521   -15059   -15558   -15990   -16346 
  -16629   -16855   -17036   -17183   -17299   -17366   -17354   -17228 
  -16963   -16562   -16051   -15464   -14849   -14254   -13718   -13269 
  -12929   -12708   -12595   -12575   -12626   -12734   -12903   -13143 
  -13466   -13872   -14339   -14837   -15335   -15800   -16201   -16524 
  -16773   -16951   -17064   -17129   -17151   -17132   -17080   -17004 
  -16909   -16796   -16664   -16512   -16328   -16105   -15861   -15623 
  -15410   -15226   -15068   -14937   -14834   -14765   -14727   -14712 
  -14709   -14720   -14753   -14818   -14920   -15044   -15172   -15293 
  -15401   -15493   -15569   -15641   -15719   -15805   -15892   -15975 
  -16047   -16094   -16113   -16105   -16071   -16006   -15903   -15761 
  -15599   -15440   -15291   -15148   -15015   -14889   -14778   -14700 
  -14663   -14656   -14663   -14663   -14647   -14624   -14615   -14648 
  -14735   -14864   -15015   -15183   -15358   -15538   -15728   -15930 
  -16136   -16346   -16566   -16790   -17002   -17174   -17275   -17279 
  -17172   -16966   -16702   -16411   -16103   -15782   -15445   -15104 
  -14777   -14475   -14201   -13952   -13727   -13526   -13374   -13297 
  -13307   -13412   -13610   -13879   -14195   -14529   -14857   -15155 
  -15409   -15621   -15790   -15926   -16039   -16126   -16184   -16214 
  -16213   -16180   -16117   -16017   -15875   -15697   -15489   -15256 
  -15018   -14787   -14556   -14325   -14103   -13898   -13718   -13566 
  -13440   -13327   -13223   -13136   -13071   -13041   -13064   -13149 
  -13294   -13493   -13741   -14035   -14365   -14718   -15087   -15467 
  -15834   -16165   -16453   -16696   -16893   -17031   -17101   -17097 
  -17017   -16860   -16635   -16344   -15986   -15569   -15117   -14659 
  -14212   -13787   -13396   -13046   -12743   -12508   -12367   -12328 
  -12383   -12533   -12772   -13094   -13488   -13934   -14414   -14911 
  -15407   -15888   -16341   -16748   -17089   -17348   -17524   -17626 
  -17658   -17612   -17478   -17257   -16961   -16624   -16283   -15958 
  -15654   -15375   -15108   -14837   -14560   -14282   -14026   -13820 
  -13686   -13631   -13653   -13734   -13848   -13982   -14134   -14310 
  -14506   -14703   -14893   -15068   -15234   -15411   -15595   -15774 
  -15930   -16045   -16108   -16127   -16115   -16088   -16052   -16008 
  -15949   -15855   -15717   -15538   -15331   -15113   -14899   -14700 
  -14522   -14352   -14176   -13995   -13826   -13686   -13597   -13566 
  -13585   -13642   -13730   -13852   -14014   -14223   -14485   -14780 
  -15072   -15328   -15525   -15666   -15762   -15825   -15860   -15862 
  -15818   -15715   -15560   -15382   -15198   -15021   -14849   -14685 
  -14541   -14421   -14335   -14283   -14261   -14271   -14309   -14375 
  -14458   -14541   -14608   -14644   -14650   -14642   -14635   -14639 
  -14659   -14703   -14765   -14837   -14924   -15033   -15170   -15332 
  -15522   -15731   -15941   -16138   -16315   -16460   -16569   -16651 
  -16705   -16728   -16720   -16679   -16607   -16504   -16369   -16214 
  -16038   -15841   -15624   -15392   -15154   -14914   -14680   -14457 
  -14254   -14080   -13946   -13868   -13852   -13894   -13989   -14129 
  -14303   -14516   -14769   -15047   -15338   -15631   -15908   -16153 
  -16354   -16510   -16624   -16690   -16704   -16673   -16597   -16470 
  -16296   -16088   -15858   -15620   -15391   -15181   -15004   -14861 
  -14750   -14668   -14610   -14565   -14524   -14473   -14405   -14317 
  -14223   -14136   -14065   -14024   -14023   -14065   -14151   -14271 
  -14420   -14602   -14820   -15070   -15343   -15628   -15916   -16192 
