Origin Time       2025/01/13 21:19:00
Lat.              31.8
Long.             131.6
Depth. (km)       30
Mag.              6.9
Station Code      YMGH14
Station Lat.      34.3979
Station Long.     131.3774
Station Height(m) -95
Record Time       2025/01/13 21:20:25
Sampling Freq(Hz) 100Hz
Duration Time(s)  128
Dir.              3
Scale Factor      2940(gal)/6170270
Max. Acc. (gal)   0.706
Last Correction   2025/01/13 21:20:10
Memo.             
[...]
  233642   233624   233601   233568   233526   233483   233442   233398 
  233356   233321   233296   233284   233286   233298   233316   233342 
  233380   233431   233485   233531   233563   233586   233605   233619 
  233621   233612   233596   233574   233549   233526   233509   233501 
  233501   233497   233489   233481   233478   233475   233472   233471 
  233469   233469   233473   233476   233480   233490   233501   233518 
  233545   233581   233622   233660   233696   233737   233784   233832 
  233873   233908   233940   233970   234003   234033   234049   234051 
  234041   234022   234000   233975   233950   233925   233903   233888 
  233879   233874   233878   233889   233892   233886   233874   233854 
  233830   233809   233787   233762   233739   233720   233707   233701 
  233703   233710   233714   233717   233723   233732   233740   233745 
  233743   233730   233708   233677   233640   233597   233551   233507 
  233463   233418   233378   233350   233340   233345   233351   233354 
  233361   233370   233383   233398   233413   233424   233431   233434 
  233440   233444   233442   233436   233428   233415   233397   233378 
  233362   233347   233339   233336   233340   233353   233373   233400 
  233434   233473   233518   233570   233626   233680   233729   233782 
  233837   233887   233930   233967   233990   233997   233998   234003 
  234008   234003   233982   233956   233937   233929   233930   233929 
  233920   233906   233895   233884   233871   233858   233846   233833 
  233822   233817   233819   233832   233855   233881   233904   233927 
  233953   233979   234005   234030   234047   234051   234043   234023 
  234001   233975   233941   233904   233868   233825   233777   233731 
  233687   233647   233617   233594   233571   233550   233533   233522 
  233514   233507   233503   233505   233513   233524   233538   233556 
  233577   233601   233625   233646   233663   233673   233672   233662 
  233646   233624   233597   233567   233537   233511   233488   233471 
  233462   233455   233450   233450   233452   233455   233463   233476 
  233488   233502   233520   233542   233563   233578   233583   233588 
  233597   233612   233629   233646   233672   233698   233717   233730 
  233735   233738   233741   233738   233727   233707   233678   233644 
  233606   233570   233539   233509   233483   233457   233426   233399 
  233382   233367   233351   233341   233341   233346   233352   233363 
  233381   233404   233430   233462   233495   233528   233560   233592 
  233625   233658   233685   233701   233705   233693   233668   233635 
  233593   233545   233498   233451   233408   233372   233343   233326 
  233318   233314   233316   233321   233327   233342   233364   233386 
  233406   233424   233441   233451   233459   233469   233475   233477 
  233479   233488   233508   233535   233565   233599   233637   233678 
  233717   233752   233776   233786   233787   233780   233767   233753 
  233740   233729   233719   233710   233708   233714   233722   233731 
  233740   233752   233769   233793   233817   233837   233855   233866 
  233875   233881   233883   233882   233878   233870   233862   233857 
  233851   233843   233832   233818   233798   233773   233739   233701 
  233662   233630   233609   233596   233589   233583   233585   233598 
  233617   233639   233661   233678   233689   233693   233687   233674 
  233658   233639   233614   233588   233565   233544   233522   233502 
  233481   233456   233428   233403   233383   233364   233348   233343 
  233348   233361   233376   233385   233392   233399   233399   233392 
  233378   233359   233341   233325   233309   233295   233283   233276 
  233278   233284   233292   233303   233321   233347   233383   233428 
  233478   233528   233577   233625   233671   233714   233756   233792 
  233820   233844   233862   233874   233886   233902   233915   233920 
  233919   233918   233911   233898   233880   233857   233830   233805 
  233782   233763   233748   233739   233737   233738   233738   233738 
  233738   233736   233736   233737   233731   233715   233696   233679 
  233668   233659   233651   233644   233643   233653   233669   233689 
  233708   233726   233742   233762   233788   233813   233834   233851 
  233859   233863   233867   233876   233887   233894   233892   233885 
  233878   233869   233853   233827   233796   233759   233716   233670 
  233622   233576   233536   233498   233460   233424   233386   233348 
  233308   233261   233212   233169   233128   233090   233055   233024 
  233004   232990   232980   232975   232972   232975   232988   233011 
  233041   233078   233125   233179   233235   233295   233358   233418 
  233477   233536   233593   233647   233692   233723   233748   233768 
  233780   233786   233784   233777   233777   233781   233788   233805 
  233826   233849   233874   233899   233922   233946   233968   233980 
  233983   233984   233989   233997   234008   234020   234031   234031 
  234017   233997   233971   233937   233900   233857   233811   233767 
  233725   233683   233648   233624   233609   233600   233594   233593 
  233598   233605   233616   233634   233663   233697   233730   233764 
  233794   233816   233836   233851   233859   233863   233865   233858 
  233846   233833   233818   233800   233784   233774   233764   233746 
  233723   233696   233670   233652   233637   233624   233611   233597 
  233580   233562   233541   233516   233494   233473   233451   233431 
  233409   233389   233372   233360   233354   233354   233358   233360 
  233356   233353   233354   233356   233363   233367   233365   233361 
  233356   233350   233348   233347   233342   233335   233332   233335 
  233339   233343   233348   233356   233367   233380   233399   233425 
  233454   233480   233499   233517   233541   233569   233594   233610 
  233618   233621   233617   233610   233601   233587   233576   233572 
  233569   233567   233572   233585   233605   233629   233653   233674 
  233695   233712   233721   233726   233729   233732   233738   233751 
  233767   233790   233820   233855   233889   233918   233940   233951 
  233949   233934   233909   233874   233830   233777   233719   233656 
  233595   233539   233488   233442   233401   233361   233317   233275 
  233239   233206   233179   233162   233152   233143   233133   233124 
  233119   233119   233126   233138   233151   233162   233173   233187 
  233207   233229   233246   233263   233282   233304   233331   233362 
  233398   233441   233482   233519   233553   233582   233604   233625 
  233647   233666   233680   233696   233711   233727   233756   233797 
  233842   233887   233929   233972   234017   234059   234094   234122 
  234142   234154   234159   234159   234154   234148   234140   234132 
  234123   234109   234094   234079   234065   234053   234044   234037 
  234034   234035   234038   234040   234037   234023   234002   233971 
  233924   233867   233808   233749   233691   233634   233574   233516 
  233461   233408   233359   233315   233270   233225   233185   233154 
  233130   233115   233106   233100   233098   233102   233113   233133 
  233157   233185   233215   233247   233284   233329   233383   233440 
  233491   233534   233568   233594   233618   233638   233648   233652 
  233650   233644   233639   233640   233647   233659   233679   233706 
  233741   233781   233826   233877   233930   233984   234046   234111 
  234168   234220   234269   234312   234357   234404   234450   234492 
  234527   234558   234587   234617   234647   234673   234697   234717 
  234729   234739   234749   234752   234750   234746   234735   234712 
  234682   234648   234613   234586   234566   234548   234532   234520 
  234509   234499   234488   234472   234446   234409   234361   234304 
  234242   234168   234086   234004   233928   233859   233797   233745 
  233703   233667   233638   233616   233602   233590   233575   233559 
  233537   233506   233466   233419   233372   233330   233289   233248 
  233207   233169   233135   233108   233088   233078   233073   233075 
  233084   233100   233119   233141   233162   233182   233196   233200 
  233194   233184   233169   233143   233112   233076   233033   232990 
  232949   232905   232856   232804   232750   232696   232644   232598 
  232557   232527   232505   232489   232483   232482   232489   232512 
  232546   232590   232644   232704   232767   232836   232915   232997 
  233077   233161   233251   233346   233442   233536   233629   233722 
  233814   233903   233986   234063   234132   234192   234243   234285 
  234318   234353   234394   234432   234468   234505   234537   234562 
  234587   234605   234613   234621   234626   234623   234618   234616 
  234615   234614   234611   234603   234587   234565   234536   234500 
  234461   234424   234390   234358   234326   234296   234269   234243 
  234215   234191   234170   234147   234123   234100   234076   234051 
  234030   234016   234004   233996   233993   233990   233986   233983 
  233985   233992   234003   234019   234038   234051   234061   234067 
  234067   234059   234038   234007   233963   233908   233847   233781 
  233717   233662   233613   233563   233517   233475   233434   233393 
  233355   233317   233274   233230   233193   233164   233141   233120 
  233103   233097   233100   233103   233102   233096   233088   233080 
  233069   233057   233047   233037   233026   233021   233023   233031 
  233041   233046   233041   233034   233028   233018   233005   232990 
  232974   232957   232942   232930   232924   232920   232917   232921 
  232930   232943   232960   232980   232999   233017   233038   233063 
  233090   233120   233149   233179   233214   233253   233293   233330 
  233363   233397   233431   233462   233486   233498   233503   233504 
  233497   233478   233447   233415   233382   233347   233308   233269 
  233238   233216   233196   233181   233175   233174   233174   233179 
  233184   233189   233198   233212   233230   233250   233274   233300 
  233327   233356   233384   233408   233428   233450   233476   233504 
  233534   233564   233593   233628   233669   233715   233759   233799 
  233838   233877   233921   233967   234012   234049   234075   234094 
  234106   234114   234121   234124   234123   234128   234138   234151 
  234167   234182   234194   234210   234227   234237   234241   234244 
  234245   234244   234238   234229   234216   234200   234184   234164 
  234137   234105   234069   234027   233984   233944   233903   233855 
  233803   233752   233694   233632   233565   233494   233422   233352 
  233281   233210   233148   233090   233034   232985   232940   232895 
  232847   232800   232756   232717   232682   232651   232628   232616 
  232609   232609   232616   232628   232645   232668   232695   232730 
  232769   232812   232866   232922   232980   233040   233096   233144 
  233187   233225   233259   233292   233328   233369   233411   233452 
  233495   233540   233583   233623   233657   233684   233704   233719 
  233730   233742   233756   233763   233765   233767   233763   233756 
  233744   233725   233702   233676   233649   233623   233602   233591 
  233587   233587   233589   233592   233595   233599   233604   233614 
  233630   233655   233683   233712   233751   233801   233857   233912 
  233965   234015   234060   234095   234120   234135   234141   234140 
  234133   234117   234094   234073   234055   234041   234035   234038 
  234047   234061   234079   234106   234141   234176   234213   234251 
  234284   234310   234329   234341   234345   234344   234336   234318 
  234294   234269   234245   234220   234201   234186   234170   234154 
  234140   234125   234110   234091   234069   234044   234017   233989 
  233962   233935   233907   233880   233858   233836   233814   233796 
  233785   233776   233765   233757   233747   233731   233713   233691 
  233663   233632   233598   233561   233520   233477   233435   233387 
  233332   233280   233237   233196   233159   233128   233102   233084 
  233075   233074   233083   233094   233101   233106   233117   233131 
  233140   233142   233140   233136   233129   233121   233115   233111 
  233110   233107   233103   233106   233112   233120   233130   233140 
  233146   233152   233160   233167   233172   233180   233193   233211 
  233239   233274   233315   233366   233426   233490   233560   233630 
  233695   233757   233819   233876   233925   233965   234001   234029 
  234048   234061   234072   234078   234075   234062   234041   234012 
  233977   233938   233902   233869   233836   233808   233785   233765 
  233747   233734   233723   233716   233712   233705   233698   233689 
  233675   233659   233640   233613   233584   233553   233510   233457 
  233405   233351   233298   233248   233197   233149   233113   233089 
  233074   233068   233068   233076   233097   233122   233148   233177 
  233212   233246   233279   233318   233358   233395   233430   233460 
  233479   233489   233492   233489   233481   233470   233457   233446 
  233438   233433   233430   233431   233435   233441   233452   233473 
  233508   233552   233602   233657   233718   233782   233847   233915 
  233981   234040   234091   234135   234176   234215   234253   234293 
  234341   234395   234451   234507   234562   234618   234675   234735 
  234796   234853   234905   234952   234995   235033   235064   235091 
  235112   235119   235111   235091   235056   235006   234944   234875 
  234798   234716   234635   234556   234480   234407   234339   234274 
  234213   234163   234122   234086   234057   234037   234023   234015 
  234018   234022   234028   234041   234059   234081   234107   234128 
  234143   234153   234158   234156   234149   234137   234117   234095 
  234074   234058   234044   234027   234012   234002   233996   233989 
  233984   233985   233992   233996   233998   233997   233992   233985 
  233980   233974   233960   233940   233922   233901   233870   233838 
  233805   233767   233729   233695   233664   233639   233613   233585 
  233562   233544   233526   233510   233497   233484   233471   233462 
  233457   233456   233468   233485   233502   233522   233545   233568 
  233588   233605   233618   233630   233644   233658   233673   233687 
  233698   233704   233705   233703   233694   233676   233645   233602 
  233552   233500   233448   233396   233347   233299   233252   233212 
  233176   233137   233094   233049   233001   232951   232901   232853 
  232806   232764   232732   232708   232693   232685   232682   232685 
  232696   232713   232733   232756   232782   232807   232832   232859 
  232886   232910   232938   232971   233001   233030   233059   233086 
  233114   233138   233157   233174   233189   233204   233222   233237 
  233245   233250   233257   233264   233270   233279   233294   233314 
  233338   233362   233389   233421   233451   233477   233498   233512 
  233523   233526   233521   233514   233502   233483   233461   233431 
  233391   233348   233298   233241   233183   233123   233061   232998 
  232934   232873   232816   232763   232715   232676   232650   232636 
  232637   232651   232681   232730   232798   232877   232965   233060 
  233164   233271   233379   233487   233591   233689   233781   233861 
  233927   233985   234032   234072   234108   234139   234169   234200 
  234232   234265   234302   234347   234398   234452   234510   234571 
  234633   234695   234756   234817   234878   234933   234982   235022 
  235048   235061   235063   235047   235014   234967   234907   234837 
  234754   234660   234556   234448   234342   234234   234127   234024 
  233915   233802   233692   233582   233478   233382   233288   233202 
  233131   233071   233022   232990   232968   232954   232947   232951 
  232960   232973   232991   233015   233043   233074   233106   233142 
  233177   233208   233242   233278   233311   233343   233379   233413 
  233445   233478   233511   233537   233559   233575   233589   233601 
  233612   233627   233647   233669   233700   233740   233780   233820 
  233861   233902   233943   233985   234024   234056   234081   234100 
  234109   234108   234099   234083   234056   234019   233980   233936 
  233886   233834   233779   233719   233657   233594   233529   233462 
  233401   233347   233298   233255   233220   233194   233179   233174 
  233175   233188   233214   233249   233295   233350   233409   233470 
  233532   233595   233659   233726   233792   233854   233908   233957 
  233999   234035   234066   234092   234116   234134   234146   234154 
  234161   234167   234171   234177   234186   234198   234215   234235 
  234258   234283   234309   234334   234358   234379   234398   234417 
  234437   234454   234471   234485   234491   234488   234475   234450 
  234411   234358   234293   234216   234128   234033   233935   233839 
  233747   233662   233581   233506   233439   233381   233333   233291 
  233251   233217   233188   233162   233139   233115   233094   233071 
  233047   233024   232999   232971   232941   232906   232865   232820 
  232774   232727   232677   232625   232572   232517   232463   232413 
  232368   232328   232291   232257   232230   232208   232192   232191 
  232206   232233   232273   232328   232397   232473   232561   232658 
  232760   232866   232971   233074   233175   233271   233361   233444 
  233517   233583   233644   233699   233750   233801   233853   233909 
  233965   234019   234070   234115   234157   234194   234219   234239 
  234255   234260   234258   234250   234239   234226   234213   234197 
  234176   234150   234127   234106   234086   234069   234058   234053 
  234052   234057   234068   234080   234092   234106   234116   234117 
  234111   234100   234082   234061   234040   234016   233992   233971 
  233954   233945   233942   233943   233947   233952   233956   233966 
  233976   233981   233981   233976   233962   233946   233928   233902 
  233872   233844   233819   233792   233766   233747   233733   233723 
  233720   233725   233730   233740   233755   233770   233787   233807 
  233827   233848   233874   233905   233936   233968   234002   234037 
  234071   234108   234147   234186   234222   234250   234273   234290 
  234298   234300   234300   234293   234276   234257   234235   234211 
  234183   234155   234122   234084   234044   234004   233960   233916 
  233873   233826   233775   233725   233670   233610   233551   233490 
  233429   233374   233320   233262   233206   233150   233094   233042 
  232988   232931   232874   232818   232762   232708   232656   232610 
  232570   232533   232501   232478   232461   232449   232442   232439 
  232440   232444   232451   232460   232474   232493   232516   232544 
  232576   232611   232653   232703   232757   232812   232869   232932 
  232999   233064   233127   233189   233249   233309   233367   233419 
  233468   233515   233560   233600   233635   233665   233692   233713 
  233730   233744   233755   233763   233770   233777   233785   233792 
  233798   233803   233810   233819   233831   233847   233864   233881 
  233898   233915   233931   233949   233965   233979   233993   234008 
  234022   234034   234045   234053   234057   234054   234046   234036 
