Origin Time       2025/01/13 21:19:00
Lat.              31.8
Long.             131.6
Depth. (km)       30
Mag.              6.9
Station Code      YMGH14
Station Lat.      34.3979
Station Long.     131.3774
Station Height(m) -95
Record Time       2025/01/13 21:20:25
Sampling Freq(Hz) 100Hz
Duration Time(s)  128
Dir.              1
Scale Factor      2940(gal)/6170270
Max. Acc. (gal)   0.467
Last Correction   2025/01/13 21:20:10
Memo.             
[...]
   42191    42205    42217    42226    42231    42237    42243    42247 
   42251    42252    42247    42235    42219    42205    42190    42172 
   42153    42136    42118    42101    42089    42078    42068    42053 
   42033    42011    41978    41938    41901    41862    41822    41790 
   41764    41744    41734    41725    41718    41719    41727    41740 
   41755    41771    41793    41816    41835    41851    41865    41875 
   41882    41888    41893    41899    41904    41912    41923    41935 
   41943    41946    41944    41939    41937    41935    41929    41915 
   41894    41874    41858    41842    41827    41808    41786    41759 
   41727    41698    41670    41635    41604    41582    41566    41560 
   41561    41564    41575    41590    41605    41636    41679    41722 
   41769    41819    41866    41906    41945    41983    42009    42020 
   42025    42024    42019    42018    42023    42031    42042    42054 
   42066    42081    42100    42114    42119    42126    42134    42136 
   42140    42149    42160    42169    42176    42182    42190    42202 
   42213    42227    42237    42236    42233    42230    42215    42194 
   42182    42178    42173    42171    42173    42172    42164    42148 
   42133    42128    42117    42094    42075    42061    42039    42015 
   41984    41940    41894    41847    41801    41764    41736    41714 
   41696    41676    41650    41621    41594    41567    41540    41519 
   41501    41487    41480    41475    41471    41471    41481    41496 
   41515    41542    41578    41623    41676    41730    41779    41833 
   41885    41929    41977    42027    42073    42121    42170    42210 
   42240    42264    42286    42308    42326    42338    42342    42330 
   42311    42294    42282    42273    42261    42249    42241    42228 
   42211    42196    42184    42177    42173    42167    42164    42161 
   42157    42155    42147    42136    42125    42115    42108    42113 
   42123    42129    42129    42127    42121    42108    42092    42080 
   42074    42072    42075    42078    42080    42083    42088    42094 
   42096    42094    42091    42087    42081    42070    42054    42038 
   42020    41996    41973    41948    41916    41880    41839    41795 
   41751    41713    41686    41670    41663    41655    41636    41615 
   41599    41585    41565    41555    41560    41572    41590    41611 
   41628    41646    41664    41679    41697    41718    41734    41742 
   41748    41754    41758    41769    41787    41807    41831    41856 
   41877    41898    41919    41943    41973    42002    42021    42036 
   42052    42063    42070    42075    42078    42081    42085    42084 
   42081    42087    42095    42099    42107    42122    42138    42152 
   42168    42183    42190    42193    42200    42206    42210    42213 
   42216    42216    42210    42204    42199    42195    42189    42174 
   42156    42146    42134    42120    42104    42083    42059    42031 
   42002    41972    41946    41920    41898    41884    41872    41867 
   41877    41892    41908    41926    41943    41955    41967    41982 
   42001    42025    42050    42074    42102    42128    42152    42178 
   42204    42223    42239    42253    42264    42270    42270    42268 
   42266    42261    42255    42252    42250    42243    42231    42209 
   42177    42151    42131    42114    42101    42094    42091    42088 
   42087    42092    42092    42084    42076    42062    42043    42030 
   42026    42025    42027    42030    42030    42029    42027    42028 
   42034    42029    42014    42000    41988    41976    41968    41962 
   41961    41963    41963    41970    41978    41981    41988    41993 
   41995    42003    42008    42007    42009    42015    42020    42025 
   42028    42027    42021    42013    42008    41997    41981    41968 
   41954    41926    41890    41861    41834    41805    41777    41753 
   41735    41726    41721    41712    41709    41709    41702    41696 
   41696    41695    41694    41701    41710    41712    41715    41720 
   41726    41739    41756    41770    41781    41788    41793    41802 
   41815    41830    41841    41846    41853    41868    41888    41918 
   41958    42007    42062    42121    42178    42231    42282    42331 
   42375    42414    42445    42466    42476    42482    42484    42474 
   42455    42432    42413    42397    42386    42384    42378    42369 
   42372    42382    42393    42404    42411    42412    42399    42380 
   42363    42346    42335    42328    42315    42295    42268    42234 
   42200    42172    42146    42123    42106    42092    42084    42080 
   42070    42060    42051    42035    42015    41997    41981    41967 
   41958    41954    41950    41953    41960    41966    41970    41972 
   41970    41966    41956    41936    41915    41894    41872    41853 
   41841    41833    41825    41812    41801    41799    41809    41829 
   41859    41892    41925    41957    41984    42006    42026    42046 
   42069    42096    42124    42156    42192    42224    42255    42279 
   42294    42301    42297    42284    42257    42211    42163    42117 
   42072    42038    42011    41981    41957    41937    41918    41899 
   41880    41855    41823    41786    41753    41715    41668    41630 
   41599    41565    41539    41526    41510    41492    41483    41483 
   41492    41512    41528    41543    41562    41579    41594    41616 
   41646    41683    41725    41769    41810    41843    41868    41893 
   41921    41951    41983    42016    42049    42081    42112    42145 
   42178    42209    42241    42269    42293    42319    42339    42343 
   42342    42347    42351    42343    42334    42330    42319    42302 
   42288    42276    42273    42280    42288    42297    42309    42318 
   42325    42333    42334    42327    42321    42314    42298    42279 
   42255    42230    42208    42187    42166    42148    42132    42119 
   42108    42102    42100    42099    42102    42101    42096    42092 
   42086    42074    42063    42053    42042    42031    42023    42014 
   42006    42004    42016    42033    42039    42041    42043    42041 
   42050    42066    42077    42084    42092    42103    42121    42146 
   42178    42214    42245    42274    42306    42333    42354    42374 
   42387    42385    42369    42344    42318    42297    42284    42275 
   42264    42250    42234    42213    42195    42180    42159    42133 
   42108    42087    42072    42059    42045    42028    42008    41980 
   41947    41916    41887    41855    41824    41794    41758    41725 
   41699    41675    41652    41640    41642    41648    41656    41665 
   41671    41676    41682    41684    41686    41684    41678    41677 
   41683    41688    41702    41727    41748    41766    41786    41803 
   41827    41851    41855    41844    41831    41811    41784    41758 
   41741    41731    41725    41732    41751    41777    41801    41820 
   41838    41863    41892    41922    41953    41988    42021    42050 
   42077    42104    42126    42145    42170    42193    42205    42217 
   42228    42227    42225    42228    42225    42214    42211    42212 
   42210    42208    42208    42210    42213    42217    42227    42233 
   42228    42221    42215    42209    42200    42184    42161    42132 
   42103    42080    42058    42035    42011    41986    41964    41947 
   41938    41943    41951    41952    41959    41969    41972    41976 
   41986    41991    41994    41996    41995    41989    41977    41962 
   41941    41915    41893    41881    41880    41889    41905    41927 
   41955    41988    42018    42045    42072    42097    42113    42118 
   42109    42091    42074    42053    42019    41982    41940    41891 
   41841    41792    41742    41697    41653    41610    41577    41550 
   41516    41491    41475    41454    41442    41444    41447    41458 
   41477    41495    41519    41551    41591    41637    41692    41751 
   41804    41850    41894    41935    41974    42014    42053    42093 
   42129    42158    42176    42180    42168    42147    42120    42085 
   42043    41997    41947    41887    41821    41757    41702    41653 
   41606    41563    41528    41494    41461    41434    41404    41369 
   41341    41326    41319    41320    41332    41354    41379    41401 
   41420    41442    41470    41503    41536    41569    41612    41667 
   41723    41784    41848    41916    41989    42060    42128    42203 
   42275    42330    42377    42423    42465    42498    42525    42545 
   42558    42563    42565    42564    42558    42556    42561    42568 
   42572    42571    42564    42556    42540    42508    42468    42427 
   42380    42329    42285    42243    42194    42148    42101    42050 
   42004    41966    41933    41907    41885    41867    41851    41832 
   41810    41784    41751    41714    41670    41621    41570    41516 
   41458    41400    41348    41293    41236    41187    41144    41101 
   41072    41062    41066    41086    41117    41153    41198    41249 
   41295    41340    41390    41439    41486    41540    41602    41668 
   41736    41812    41893    41975    42062    42151    42233    42307 
   42373    42428    42473    42515    42553    42581    42606    42628 
   42643    42651    42654    42652    42646    42635    42616    42591 
   42557    42507    42447    42389    42335    42280    42223    42167 
   42125    42100    42085    42084    42097    42115    42134    42152 
   42162    42166    42170    42175    42178    42173    42165    42160 
   42151    42140    42136    42128    42118    42124    42135    42139 
   42143    42144    42137    42133    42128    42111    42090    42066 
   42036    42006    41983    41964    41951    41943    41942    41953 
   41973    41991    42010    42035    42069    42108    42147    42193 
   42245    42297    42348    42398    42453    42509    42558    42600 
   42637    42667    42688    42699    42704    42702    42696    42687 
   42671    42651    42631    42609    42591    42577    42561    42542 
   42520    42490    42453    42413    42367    42310    42248    42184 
   42114    42036    41952    41863    41774    41683    41597    41522 
   41451    41387    41332    41278    41230    41195    41169    41154 
   41148    41150    41167    41198    41236    41285    41345    41403 
   41456    41505    41552    41592    41625    41660    41701    41742 
   41781    41821    41862    41900    41935    41966    41993    42024 
   42047    42054    42062    42077    42086    42091    42093    42090 
   42083    42074    42063    42056    42050    42044    42045    42055 
   42077    42108    42139    42166    42191    42217    42243    42267 
   42292    42321    42350    42372    42381    42382    42386    42389 
   42386    42382    42375    42369    42368    42362    42349    42337 
   42325    42317    42308    42298    42290    42286    42284    42281 
   42275    42270    42258    42238    42223    42215    42207    42199 
   42187    42173    42155    42128    42093    42047    41993    41940 
   41897    41859    41823    41795    41777    41760    41755    41761 
   41765    41774    41788    41795    41800    41811    41826    41837 
   41846    41860    41876    41890    41906    41924    41943    41969 
   42000    42032    42065    42094    42115    42129    42135    42129 
   42119    42104    42083    42055    42014    41962    41910    41862 
   41816    41773    41735    41705    41683    41662    41648    41649 
   41657    41666    41677    41693    41715    41744    41780    41826 
   41875    41926    41980    42032    42088    42150    42210    42265 
   42320    42370    42406    42436    42462    42480    42491    42492 
   42486    42479    42468    42447    42420    42385    42343    42305 
   42269    42235    42208    42182    42150    42120    42094    42071 
   42053    42037    42017    41997    41986    41977    41970    41974 
   41988    42008    42037    42069    42099    42131    42164    42197 
   42235    42279    42322    42360    42395    42430    42456    42471 
   42484    42489    42485    42483    42480    42474    42470    42467 
   42459    42445    42430    42418    42403    42381    42351    42314 
   42274    42231    42180    42130    42082    42034    41987    41940 
   41900    41862    41823    41789    41760    41730    41702    41676 
   41654    41638    41624    41607    41588    41569    41551    41538 
   41532    41528    41525    41525    41522    41516    41507    41493 
   41477    41460    41447    41446    41447    41441    41435    41439 
   41441    41446    41457    41467    41482    41505    41527    41548 
   41567    41590    41617    41645    41676    41710    41746    41787 
   41836    41890    41948    42015    42082    42146    42213    42279 
   42340    42397    42440    42468    42501    42533    42548    42562 
   42578    42573    42560    42557    42549    42532    42517    42500 
   42486    42478    42465    42446    42432    42421    42413    42413 
   42417    42418    42419    42422    42420    42413    42400    42377 
   42353    42325    42296    42271    42247    42225    42211    42202 
   42196    42192    42184    42173    42166    42156    42138    42114 
   42087    42054    42019    41982    41931    41869    41808    41743 
   41676    41610    41540    41472    41411    41352    41299    41257 
   41218    41180    41144    41109    41079    41058    41040    41022 
   41016    41015    41013    41018    41032    41046    41055    41062 
   41071    41080    41087    41096    41116    41144    41174    41206 
   41245    41286    41325    41368    41412    41452    41493    41535 
   41573    41604    41633    41657    41676    41698    41720    41745 
   41772    41796    41820    41849    41881    41915    41949    41979 
   42002    42021    42034    42041    42047    42046    42037    42021 
   42000    41971    41932    41888    41840    41788    41732    41675 
   41617    41567    41526    41486    41447    41417    41400    41392 
   41396    41414    41439    41469    41509    41556    41605    41654 
   41708    41760    41814    41874    41933    41987    42037    42084 
   42126    42162    42193    42221    42250    42276    42293    42304 
   42311    42310    42301    42292    42282    42273    42266    42266 
   42270    42277    42290    42309    42333    42361    42397    42441 
   42492    42547    42600    42651    42706    42764    42820    42867 
   42905    42936    42957    42962    42951    42925    42892    42849 
   42797    42745    42688    42621    42550    42480    42418    42363 
   42312    42267    42221    42175    42136    42099    42070    42051 
   42027    42003    41993    41990    41983    41981    41985    41993 
   42015    42041    42060    42083    42106    42123    42136    42148 
   42151    42146    42144    42139    42125    42117    42112    42101 
   42085    42071    42062    42049    42030    42016    42012    42007 
   42006    42014    42027    42034    42033    42029    42026    42022 
   42006    41980    41966    41955    41932    41912    41896    41872 
   41844    41819    41797    41773    41749    41731    41719    41715 
   41718    41722    41730    41745    41770    41800    41834    41877 
   41925    41970    42016    42067    42120    42168    42207    42236 
   42252    42257    42257    42254    42248    42236    42221    42206 
   42194    42180    42160    42138    42112    42085    42058    42031 
   42005    41983    41969    41962    41962    41967    41975    41988 
   42009    42034    42060    42092    42123    42151    42183    42219 
   42252    42282    42306    42320    42330    42332    42322    42307 
   42283    42252    42219    42181    42136    42089    42045    42002 
   41958    41920    41883    41848    41817    41788    41762    41738 
   41713    41692    41675    41661    41652    41648    41646    41648 
   41652    41653    41652    41653    41659    41669    41681    41700 
   41721    41738    41755    41772    41783    41788    41786    41782 
   41773    41757    41740    41724    41707    41686    41666    41654 
   41645    41640    41643    41651    41663    41678    41694    41717 
   41747    41775    41798    41825    41853    41883    41918    41952 
   41975    41987    41995    42002    42000    41990    41979    41973 
   41964    41948    41936    41921    41892    41865    41854    41846 
   41834    41824    41822    41825    41829    41837    41847    41859 
   41872    41884    41895    41909    41923    41934    41944    41951 
   41953    41955    41952    41946    41943    41940    41938    41940 
   41939    41939    41945    41959    41974    41988    42008    42028 
   42043    42059    42074    42086    42100    42107    42109    42115 
   42125    42134    42143    42160    42183    42211    42244    42273 
   42299    42328    42351    42363    42371    42368    42356    42340 
   42320    42289    42245    42194    42140    42079    42017    41955 
   41894    41832    41771    41709    41649    41597    41552    41514 
   41488    41474    41471    41476    41487    41509    41547    41586 
   41628    41673    41708    41735    41761    41784    41803    41819 
   41835    41858    41878    41895    41912    41925    41936    41948 
   41959    41976    41994    42005    42019    42036    42047    42057 
   42065    42065    42065    42070    42076    42079    42087    42101 
   42109    42119    42137    42155    42177    42208    42239    42275 
   42318    42356    42383    42397    42407    42420    42426    42422 
   42412    42395    42375    42350    42317    42277    42236    42192 
   42147    42100    42049    41990    41936    41892    41853    41818 
   41792    41775    41763    41756    41762    41783    41807    41834 
   41868    41905    41942    41979    42016    42042    42060    42072 
   42078    42081    42082    42073    42063    42051    42028    42000 
   41973    41943    41905    41864    41823    41780    41739    41706 
   41676    41650    41632    41617    41604    41596    41591    41587 
   41583    41584    41586    41593    41605    41617    41634    41654 
   41673    41698    41732    41772    41813    41856    41904    41957 
   42010    42062    42118    42176    42230    42271    42308    42347 
   42376    42400    42420    42429    42439    42450    42450    42449 
   42450    42444    42434    42425    42413    42395    42374    42358 
   42344    42320    42293    42265    42230    42193    42157    42117 
   42072    42033    42005    41986    41975    41971    41970    41968 
   41967    41978    41996    42017    42045    42076    42106    42139 
   42170    42199    42228    42256    42280    42295    42309    42322 
   42328    42331    42335    42339    42338    42337    42339    42335 
   42326    42316    42299    42273    42242    42206    42166    42127 
   42088    42043    41997    41952    41906    41863    41825    41788 
   41757    41731    41707    41691    41685    41683    41686    41700 
   41716    41730    41750    41771    41788    41804    41819    41830 
   41839    41850    41862    41873    41886    41903    41921    41938 
   41956    41971    41984    41999    42010    42016    42022    42030 
   42036    42042    42054    42066    42078    42094    42104    42108 
