Origin Time       2025/01/13 21:19:00
Lat.              31.8
Long.             131.6
Depth. (km)       30
Mag.              6.9
Station Code      YMGH08
Station Lat.      34.1349
Station Long.     130.9323
Station Height(m) 45
Record Time       2025/01/13 21:20:20
Sampling Freq(Hz) 100Hz
Duration Time(s)  148
Dir.              6
Scale Factor      7845(gal)/8223790
Max. Acc. (gal)   0.877
Last Correction   2025/01/13 21:20:20
Memo.             
[...]
   11183    11175    11183    11198    11200    11188    11176    11171 
   11180    11213    11249    11267    11261    11233    11190    11148 
   11124    11126    11145    11163    11175    11180    11175    11165 
   11167    11182    11219    11271    11307    11334    11361    11380 
   11377    11352    11319    11302    11299    11302    11313    11322 
   11325    11329    11337    11346    11361    11384    11400    11396 
   11369    11344    11329    11317    11304    11291    11268    11237 
   11214    11203    11190    11175    11169    11161    11157    11165 
   11178    11196    11223    11234    11217    11183    11138    11076 
   11007    10956    10932    10939    10970    11003    11030    11060 
   11082    11105    11140    11175    11222    11281    11322    11346 
   11368    11371    11357    11337    11313    11294    11283    11281 
   11296    11318    11340    11371    11396    11404    11402    11403 
   11418    11443    11464    11476    11477    11449    11399    11350 
   11307    11276    11268    11268    11260    11242    11210    11164 
   11114    11063    11002    10951    10933    10937    10948    10967 
   10987    11009    11040    11079    11134    11200    11271    11335 
   11365    11365    11340    11303    11272    11222    11157    11113 
   11086    11086    11115    11145    11175    11217    11253    11292 
   11350    11398    11425    11435    11433    11431    11431    11422 
   11406    11389    11377    11350    11303    11260    11246    11261 
   11283    11311    11352    11380    11392    11394    11379    11353 
   11326    11302    11286    11280    11281    11287    11295    11299 
   11292    11263    11217    11178    11159    11155    11156    11138 
   11110    11103    11117    11141    11171    11191    11213    11240 
   11265    11291    11304    11303    11290    11260    11217    11168 
   11121    11092    11091    11115    11152    11171    11171    11168 
   11155    11130    11106    11084    11075    11080    11087    11107 
   11133    11133    11122    11117    11109    11122    11167    11215 
   11267    11298    11288    11256    11226    11205    11188    11169 
   11157    11165    11184    11198    11205    11202    11191    11184 
   11180    11167    11155    11142    11122    11091    11056    11026 
   11007    10999    10995    10991    11006    11033    11048    11061 
   11074    11067    11065    11094    11149    11214    11265    11292 
   11306    11304    11288    11268    11256    11267    11295    11319 
   11326    11315    11291    11250    11205    11172    11153    11141 
   11142    11156    11172    11180    11169    11149    11137    11144 
   11164    11190    11229    11286    11338    11368    11369    11340 
   11299    11259    11217    11187    11168    11153    11145    11126 
   11097    11076    11090    11140    11199    11241    11273    11294 
   11290    11272    11264    11271    11298    11344    11394    11425 
   11430    11429    11439    11458    11464    11462    11468    11468 
   11460    11435    11385    11327    11265    11200    11153    11140 
   11161    11211    11286    11373    11449    11500    11538    11573 
   11608    11646    11686    11711    11705    11678    11647    11611 
   11562    11503    11439    11381    11333    11294    11272    11267 
   11250    11207    11151    11095    11053    11043    11057    11083 
   11115    11155    11183    11187    11183    11172    11144    11119 
   11098    11070    11032    10989    10955    10926    10893    10866 
   10858    10863    10878    10905    10943    10984    11025    11049 
   11063    11083    11111    11136    11141    11134    11151    11182 
   11203    11215    11209    11187    11168    11146    11129    11130 
   11141    11142    11144    11153    11160    11157    11156    11163 
   11176    11190    11202    11213    11230    11259    11284    11295 
   11294    11281    11246    11199    11160    11126    11110    11117 
   11134    11160    11199    11226    11236    11257    11298    11341 
   11372    11394    11400    11391    11388    11404    11429    11466 
   11506    11533    11546    11545    11539    11538    11524    11510 
   11492    11457    11419    11380    11341    11325    11337    11371 
   11410    11430    11446    11468    11489    11512    11527    11515 
   11469    11400    11326    11256    11202    11161    11129    11117 
   11129    11152    11187    11234    11276    11304    11326    11344 
   11350    11348    11341    11333    11325    11313    11286    11245 
   11198    11159    11141    11141    11126    11084    11036    11001 
   10991    10994    10991    10989    10998    11022    11056    11086 
   11109    11125    11133    11137    11146    11161    11169    11164 
   11155    11148    11142    11149    11160    11164    11182    11223 
   11269    11311    11345    11360    11361    11361    11361    11348 
   11325    11313    11314    11334    11365    11383    11388    11392 
   11402    11425    11449    11460    11461    11441    11404    11379 
   11377    11385    11398    11422    11445    11452    11453    11461 
   11477    11497    11523    11553    11573    11583    11578    11564 
   11542    11523    11500    11460    11412    11379    11368    11373 
   11376    11368    11354    11337    11307    11265    11217    11160 
   11099    11048    11021    11013    11016    11028    11037    11030 
   11026    11029    11041    11068    11091    11105    11118    11124 
   11124    11128    11142    11157    11153    11137    11126    11114 
   11111    11119    11109    11076    11043    11007    10975    10949 
   10932    10930    10941    10952    10955    10953    10949    10944 
   10956    10998    11044    11075    11109    11156    11215    11269 
   11307    11331    11352    11364    11373    11380    11388    11394 
   11392    11389    11380    11360    11338    11317    11295    11276 
   11261    11252    11256    11281    11319    11350    11375    11400 
   11422    11437    11454    11476    11491    11495    11489    11472 
   11453    11430    11398    11362    11331    11304    11277    11260 
   11244    11222    11225    11234    11209    11191    11215    11236 
   11252    11290    11326    11356    11388    11411    11429    11441 
   11452    11458    11468    11485    11503    11511    11516    11508 
   11479    11433    11383    11337    11304    11284    11265    11234 
   11188    11136    11090    11063    11056    11055    11061    11091 
   11128    11163    11195    11221    11238    11250    11250    11240 
   11226    11217    11203    11188    11173    11157    11148    11164 
   11196    11234    11277    11308    11308    11288    11265    11246 
   11241    11240    11233    11219    11200    11183    11172    11160 
   11144    11133    11128    11133    11156    11191    11225    11254 
   11279    11286    11275    11264    11256    11249    11253    11252 
   11225    11183    11157    11148    11152    11173    11188    11184 
   11180    11179    11184    11200    11211    11222    11244    11264 
   11280    11294    11299    11284    11252    11222    11207    11202 
   11207    11213    11210    11205    11205    11213    11217    11213 
   11203    11180    11149    11121    11097    11078    11070    11083 
   11121    11168    11214    11244    11250    11256    11263    11265 
   11271    11261    11244    11248    11253    11254    11254    11244 
   11244    11249    11234    11213    11203    11202    11196    11183 
   11161    11134    11113    11090    11078    11092    11121    11151 
   11178    11199    11234    11281    11319    11358    11396    11412 
   11408    11384    11357    11338    11307    11280    11279    11294 
   11325    11362    11389    11415    11446    11477    11506    11524 
   11537    11557    11581    11603    11612    11603    11578    11553 
   11531    11515    11511    11519    11516    11497    11479    11456 
   11427    11399    11372    11346    11319    11292    11275    11264 
   11250    11232    11210    11191    11180    11161    11133    11114 
   11102    11083    11061    11036    11016    11009    11003    11003 
   11013    11007    10994    10986    10972    10963    10970    10989 
   11018    11043    11041    11021    10986    10945    10914    10898 
   10901    10906    10908    10909    10901    10886    10878    10886 
   10903    10932    10976    11022    11053    11059    11044    11017 
   10978    10933    10899    10882    10876    10887    10905    10916 
   10924    10939    10966    11007    11048    11072    11095    11132 
   11168    11190    11195    11195    11194    11198    11211    11221 
   11225    11233    11241    11248    11263    11283    11302    11329 
   11368    11392    11403    11416    11425    11439    11479    11515 
   11534    11543    11533    11500    11470    11449    11434    11425 
   11431    11453    11473    11499    11539    11574    11600    11637 
   11678    11707    11728    11747    11749    11742    11739    11726 
   11696    11658    11603    11533    11469    11402    11335    11286 
   11248    11213    11186    11172    11169    11180    11210    11249 
   11295    11338    11360    11353    11327    11280    11218    11153 
   11086    11016    10949    10889    10841    10817    10800    10781 
   10777    10800    10848    10918    10994    11052    11099    11136 
   11144    11132    11113    11090    11070    11063    11068    11076 
   11088    11109    11136    11172    11222    11272    11308    11329 
   11341    11338    11322    11313    11315    11333    11373    11426 
   11464    11481    11480    11469    11462    11458    11458    11479 
   11504    11514    11511    11499    11476    11458    11439    11406 
   11373    11348    11326    11308    11296    11275    11242    11207 
   11171    11140    11124    11122    11119    11101    11075    11045 
   11014    10998    10999    11017    11061    11129    11192    11252 
   11314    11357    11377    11396    11406    11406    11416    11430 
   11437    11448    11469    11496    11527    11565    11608    11639 
   11655    11673    11688    11689    11688    11678    11662    11641 
   11591    11499    11412    11350    11299    11271    11263    11253 
   11240    11221    11203    11198    11196    11195    11183    11156 
   11125    11092    11059    11030    11002    10966    10928    10889 
   10843    10794    10763    10744    10727    10712    10705    10702 
   10701    10702    10712    10721    10731    10740    10735    10723 
   10717    10712    10709    10717    10735    10760    10770    10768 
   10781    10800    10820    10855    10895    10925    10941    10953 
   10971    10997    11029    11067    11111    11160    11203    11244 
   11284    11329    11373    11415    11446    11457    11452    11435 
   11404    11371    11346    11327    11310    11303    11304    11296 
   11292    11322    11354    11367    11396    11427    11430    11431 
   11435    11438    11448    11469    11489    11489    11477    11475 
   11484    11500    11520    11538    11546    11553    11554    11542 
   11522    11508    11508    11523    11554    11577    11585    11595 
   11599    11591    11576    11561    11558    11565    11570    11570 
   11565    11553    11523    11483    11445    11403    11368    11356 
   11358    11368    11372    11352    11322    11295    11271    11260 
   11256    11249    11249    11245    11230    11219    11215    11218 
   11219    11213    11203    11200    11196    11182    11157    11117 
   11060    11001    10944    10897    10864    10836    10806    10773 
   10743    10727    10719    10710    10702    10710    10737    10767 
   10800    10833    10862    10895    10937    10980    11028    11078 
   11128    11173    11211    11238    11268    11300    11327    11358 
   11388    11412    11448    11473    11466    11458    11466    11475 
   11472    11465    11449    11411    11373    11335    11283    11238 
   11207    11175    11156    11152    11142    11121    11092    11061 
   11044    11047    11053    11068    11094    11126    11163    11199 
   11229    11248    11267    11279    11276    11288    11318    11348 
   11368    11371    11368    11364    11344    11311    11287    11279 
   11275    11261    11250    11252    11245    11234    11236    11237 
   11232    11232    11227    11221    11226    11237    11250    11265 
   11272    11272    11257    11230    11206    11182    11167    11169 
   11171    11152    11109    11064    11024    10990    10990    11024 
   11079    11153    11230    11302    11369    11430    11481    11524 
   11556    11574    11595    11614    11615    11607    11591    11569 
   11542    11514    11504    11523    11562    11603    11631    11649 
   11655    11646    11616    11576    11542    11530    11519    11511 
   11518    11527    11533    11542    11547    11549    11560    11580 
   11599    11604    11607    11626    11628    11592    11557    11526 
   11483    11460    11460    11452    11456    11480    11502    11522 
   11538    11549    11551    11541    11529    11520    11499    11452 
   11380    11303    11240    11187    11149    11130    11114    11097 
   11082    11068    11055    11025    10989    10960    10917    10864 
   10805    10740    10693    10659    10620    10582    10528    10459 
   10411    10377    10347    10339    10349    10351    10347    10338 
   10326    10323    10336    10365    10403    10438    10466    10497 
   10515    10519    10527    10547    10578    10625    10690    10759 
   10821    10875    10933    10999    11068    11144    11229    11307 
   11369    11426    11476    11508    11543    11595    11634    11668 
   11712    11753    11788    11827    11859    11893    11927    11947 
   11975    12010    12037    12058    12071    12077    12067    12044 
   12017    11985    11947    11917    11894    11871    11848    11831 
   11826    11827    11812    11784    11750    11711    11674    11641 
   11611    11599    11595    11577    11551    11531    11499    11457 
   11427    11395    11352    11313    11286    11264    11250    11241 
   11223    11205    11191    11184    11191    11202    11210    11230 
   11265    11307    11344    11373    11399    11418    11430    11438 
   11442    11434    11433    11445    11450    11461    11488    11502 
   11500    11511    11520    11507    11483    11442    11385    11333 
   11288    11241    11194    11155    11130    11113    11103    11111 
   11114    11107    11110    11110    11101    11106    11101    11070 
   11037    10997    10939    10901    10883    10870    10863    10854 
   10847    10858    10866    10867    10866    10848    10822    10800 
   10783    10782    10795    10813    10812    10810    10828    10835 
   10828    10828    10839    10860    10885    10905    10925    10928 
   10917    10914    10910    10912    10930    10966    10999    11037 
   11095    11153    11207    11276    11350    11421    11485    11527 
   11543    11553    11562    11561    11566    11593    11616    11630 
   11642    11641    11638    11639    11638    11647    11668    11673 
   11651    11607    11546    11470    11385    11307    11250    11217 
   11203    11182    11161    11168    11179    11186    11210    11233 
   11238    11225    11203    11187    11161    11119    11084    11051 
   11017    10993    10976    10960    10951    10940    10916    10891 
   10889    10898    10908    10922    10945    10964    10979    10983 
   10974    10970    10970    10962    10951    10953    10970    10974 
   10978    10999    11024    11056    11117    11179    11218    11271 
   11341    11395    11441    11488    11533    11574    11588    11584 
   11580    11557    11538    11537    11531    11523    11519    11511 
   11493    11472    11456    11443    11429    11396    11357    11335 
   11313    11283    11269    11260    11246    11237    11223    11206 
   11191    11186    11178    11152    11129    11106    11056    11001 
   10971    10943    10909    10899    10902    10895    10879    10863 
   10852    10845    10848    10862    10885    10914    10945    10964 
   10967    10964    10956    10955    10962    10962    10967    10983 
   11006    11029    11045    11051    11055    11059    11072    11103 
   11144    11183    11221    11254    11284    11306    11314    11327 
   11353    11373    11388    11407    11412    11394    11371    11357 
   11352    11350    11362    11384    11415    11461    11507    11551 
   11600    11642    11666    11677    11681    11682    11685    11686 
   11689    11686    11672    11657    11639    11620    11614    11623 
   11635    11637    11627    11616    11604    11581    11553    11519 
   11476    11430    11387    11345    11294    11230    11179    11149 
   11128    11114    11107    11094    11078    11063    11038    11007 
   10986    10974    10966    10979    11010    11045    11095    11157 
   11200    11234    11273    11304    11331    11371    11411    11456 
   11510    11565    11622    11680    11736    11782    11809    11820 
   11816    11808    11799    11786    11780    11769    11749    11743 
   11745    11735    11728    11720    11705    11686    11654    11610 
   11562    11516    11475    11426    11376    11325    11271    11226 
   11187    11152    11125    11099    11076    11059    11024    10976 
   10928    10878    10841    10828    10818    10802    10795    10801 
   10808    10817    10829    10843    10854    10862    10876    10889 
   10893    10893    10879    10858    10844    10828    10812    10810 
   10816    10825    10852    10897    10944    10983    11020    11047 
   11063    11080    11099    11111    11126    11153    11178    11199 
   11223    11242    11260    11280    11294    11303    11317    11330 
   11344    11349    11334    11318    11313    11310    11325    11357 
   11391    11421    11437    11437    11431    11430    11418    11381 
   11357    11353    11337    11317    11306    11284    11245    11207 
   11168    11130    11110    11097    11091    11099    11110    11109 
   11106    11106    11099    11094    11103    11114    11109    11091 
   11072    11044    11009    10978    10951    10933    10939    10959 
   10980    11003    11034    11072    11109    11145    11191    11230 
   11249    11263    11273    11279    11284    11284    11283    11286 
   11294    11299    11304    11318    11322    11306    11283    11252 
   11215    11187    11167    11149    11144    11142    11136    11121 
   11113    11117    11125    11136    11157    11180    11200    11223 
   11246    11257    11260    11271    11290    11315    11360    11423 
   11487    11547    11601    11646    11688    11727    11754    11773 
   11778    11773    11772    11772    11782    11820    11865    11889 
   11900    11896    11875    11838    11788    11731    11669    11603 
   11541    11479    11415    11365    11325    11287    11252    11217 
   11178    11145    11119    11091    11053    11010    10964    10918 
   10879    10847    10824    10818    10829    10856    10883    10918 
   10970    10997    10989    10989    10986    10966    10952    10953 
   10968    10987    11016    11056    11091    11141    11211    11265 
