Origin Time       2025/01/13 21:19:00
Lat.              31.8
Long.             131.6
Depth. (km)       30
Mag.              6.9
Station Code      YMGH15
Station Lat.      33.9725
Station Long.     131.8149
Station Height(m) 100
Record Time       2025/01/13 21:20:12
Sampling Freq(Hz) 100Hz
Duration Time(s)  136
Dir.              6
Scale Factor      3920(gal)/6170801
Max. Acc. (gal)   1.606
Last Correction   2025/01/13 21:19:57
Memo.             
[...]
  -17184   -17193   -17132   -17001   -16838   -16671   -16468   -16237 
  -16085   -16052   -16049   -15990   -15902   -15872   -15947   -16100 
  -16254   -16362   -16442   -16504   -16538   -16552   -16531   -16468 
  -16421   -16450   -16557   -16719   -16891   -17009   -17012   -16898 
  -16732   -16592   -16494   -16426   -16402   -16452   -16599   -16796 
  -16920   -16919   -16830   -16705   -16623   -16644   -16769   -16942 
  -17039   -17012   -16957   -16903   -16811   -16725   -16682   -16648 
  -16625   -16637   -16645   -16572   -16402   -16235   -16175   -16246 
  -16441   -16713   -16978   -17145   -17162   -17064   -16913   -16766 
  -16690   -16683   -16685   -16671   -16652   -16641   -16657   -16668 
  -16634   -16570   -16510   -16502   -16588   -16734   -16854   -16913 
  -16966   -17078   -17206   -17271   -17277   -17267   -17248   -17212 
  -17176   -17153   -17143   -17145   -17106   -16976   -16805   -16682 
  -16637   -16659   -16704   -16726   -16727   -16704   -16624   -16526 
  -16506   -16566   -16619   -16633   -16648   -16671   -16689   -16709 
  -16689   -16590   -16512   -16543   -16598   -16608   -16618   -16650 
  -16694   -16737   -16748   -16719   -16673   -16679   -16793   -16909 
  -16879   -16714   -16516   -16354   -16269   -16297   -16434   -16596 
  -16663   -16557   -16323   -16127   -16078   -16147   -16273   -16427 
  -16589   -16740   -16858   -16929   -16963   -16970   -16916   -16796 
  -16726   -16814   -17021   -17197   -17187   -17005   -16799   -16647 
  -16544   -16468   -16413   -16393   -16395   -16424   -16546   -16772 
  -16994   -17069   -16960   -16767   -16609   -16520   -16446   -16337 
  -16255   -16243   -16231   -16191   -16189   -16280   -16443   -16604 
  -16716   -16777   -16787   -16761   -16765   -16894   -17142   -17364 
  -17432   -17339   -17175   -17022   -16896   -16822   -16811   -16846 
  -16904   -16881   -16689   -16436   -16273   -16226   -16246   -16268 
  -16254   -16235   -16264   -16361   -16477   -16529   -16514   -16517 
  -16625   -16858   -17111   -17243   -17249   -17175   -17026   -16863 
  -16763   -16740   -16749   -16764   -16808   -16851   -16811   -16701 
  -16582   -16464   -16379   -16376   -16463   -16610   -16784   -16957 
  -17097   -17164   -17138   -17035   -16870   -16698   -16588   -16550 
  -16565   -16599   -16606   -16577   -16518   -16438   -16382   -16399 
  -16461   -16497   -16481   -16456   -16463   -16476   -16426   -16284 
  -16133   -16101   -16184   -16301   -16424   -16480   -16417   -16333 
  -16279   -16253   -16288   -16334   -16350   -16377   -16371   -16305 
  -16229   -16167   -16154   -16222   -16337   -16448   -16496   -16456 
  -16397   -16393   -16446   -16496   -16513   -16562   -16662   -16764 
  -16897   -17076   -17222   -17289   -17298   -17295   -17289   -17216 
  -17088   -17016   -17039   -17100   -17100   -17017   -16957   -16936 
  -16854   -16690   -16491   -16316   -16215   -16209   -16294   -16408 
  -16486   -16538   -16609   -16735   -16910   -17065   -17169   -17209 
  -17213   -17274   -17377   -17443   -17508   -17584   -17619   -17618 
  -17588   -17520   -17420   -17309   -17262   -17298   -17335   -17324 
  -17234   -17046   -16851   -16739   -16729   -16770   -16765   -16682 
  -16556   -16412   -16309   -16276   -16264   -16279   -16332   -16378 
  -16426   -16516   -16614   -16650   -16623   -16599   -16624   -16683 
  -16713   -16622   -16398   -16180   -16102   -16152   -16218   -16218 
  -16195   -16225   -16275   -16306   -16342   -16383   -16416   -16460 
  -16518   -16547   -16490   -16385   -16313   -16266   -16232   -16230 
  -16237   -16246   -16273   -16300   -16325   -16353   -16398   -16439 
  -16429   -16424   -16501   -16588   -16569   -16467   -16408   -16477 
  -16639   -16788   -16839   -16794   -16692   -16539   -16374   -16267 
  -16191   -16118   -16131   -16259   -16394   -16449   -16419   -16352 
  -16282   -16251   -16334   -16528   -16747   -16923   -16992   -16951 
  -16883   -16851   -16834   -16783   -16722   -16723   -16777   -16798 
  -16737   -16611   -16476   -16395   -16375   -16375   -16415   -16526 
  -16640   -16656   -16562   -16462   -16456   -16552   -16723   -16930 
  -17090   -17121   -17003   -16827   -16743   -16806   -16956   -17093 
  -17142   -17118   -17068   -17035   -17056   -17118   -17167   -17155 
  -17079   -16978   -16861   -16770   -16794   -16924   -17066   -17135 
  -17108   -17040   -16972   -16897   -16855   -16894   -16979   -17048 
  -17038   -16931   -16816   -16774   -16818   -16930   -17085   -17270 
  -17452   -17577   -17628   -17619   -17617   -17670   -17739   -17764 
  -17722   -17630   -17523   -17438   -17400   -17361   -17278   -17198 
  -17152   -17094   -17000   -16910   -16891   -16912   -16839   -16641 
  -16429   -16302   -16258   -16232   -16208   -16263   -16417   -16590 
  -16703   -16719   -16659   -16601   -16608   -16669   -16717   -16690 
  -16636   -16653   -16714   -16739   -16731   -16727   -16776   -16872 
  -16925   -16912   -16880   -16870   -16962   -17176   -17383   -17469 
  -17452   -17358   -17216   -17139   -17213   -17384   -17568   -17713 
  -17761   -17698   -17591   -17498   -17409   -17313   -17234   -17168 
  -17079   -16978   -16895   -16815   -16746   -16741   -16818   -16931 
  -17011   -17017   -16971   -16919   -16873   -16850   -16901   -17024 
  -17105   -17096   -17074   -17049   -16967   -16847   -16751   -16710 
  -16721   -16745   -16719   -16600   -16406   -16244   -16227   -16292 
  -16268   -16133   -16023   -15996   -15986   -15937   -15865   -15789 
  -15743   -15799   -15989   -16258   -16509   -16674   -16771   -16861 
  -16972   -17078   -17148   -17189   -17229   -17257   -17275   -17317 
  -17365   -17372   -17345   -17292   -17201   -17101   -17015   -16963 
  -16960   -16942   -16866   -16772   -16654   -16525   -16421   -16308 
  -16188   -16121   -16126   -16198   -16303   -16409   -16513   -16572 
  -16559   -16548   -16611   -16716   -16798   -16818   -16757   -16647 
  -16564   -16531   -16508   -16464   -16415   -16378   -16344   -16292 
  -16215   -16138   -16091   -16065   -16040   -16047   -16060   -16001 
  -15902   -15861   -15879   -15913   -15937   -15925   -15881   -15838 
  -15822   -15863   -15946   -16028   -16079   -16088   -16107   -16211 
  -16396   -16589   -16717   -16758   -16716   -16576   -16409   -16352 
  -16442   -16618   -16785   -16874   -16876   -16814   -16732   -16674 
  -16660   -16711   -16813   -16899   -16943   -16994   -17071   -17125 
  -17146   -17175   -17212   -17243   -17267   -17271   -17241   -17158 
  -17041   -16964   -16948   -16962   -16975   -16958   -16919   -16919 
  -16946   -16938   -16933   -16973   -16986   -16915   -16810   -16762 
  -16802   -16857   -16846   -16753   -16580   -16376   -16217   -16115 
  -16070   -16068   -16025   -15926   -15826   -15736   -15675   -15675 
  -15742   -15872   -16022   -16151   -16241   -16272   -16276   -16324 
  -16483   -16763   -17091   -17379   -17573   -17664   -17685   -17652 
  -17565   -17498   -17568   -17794   -18059   -18211   -18220   -18142 
  -18008   -17811   -17586   -17440   -17411   -17387   -17316   -17255 
  -17206   -17104   -16918   -16683   -16478   -16346   -16272   -16271 
  -16366   -16515   -16675   -16776   -16723   -16548   -16365   -16215 
  -16122   -16109   -16116   -16060   -15943   -15820   -15727   -15660 
  -15630   -15636   -15637   -15607   -15553   -15500   -15485   -15474 
  -15397   -15328   -15406   -15620   -15869   -16106   -16313   -16465 
  -16514   -16452   -16349   -16264   -16220   -16241   -16306   -16370 
  -16442   -16546   -16674   -16829   -17002   -17113   -17108   -17017 
  -16893   -16798   -16724   -16620   -16505   -16391   -16287   -16242 
  -16246   -16254   -16281   -16304   -16297   -16310   -16363   -16440 
  -16515   -16564   -16610   -16660   -16676   -16684   -16719   -16738 
  -16688   -16572   -16435   -16297   -16178   -16153   -16238   -16357 
  -16443   -16472   -16457   -16409   -16319   -16252   -16266   -16346 
  -16462   -16553   -16596   -16632   -16647   -16629   -16604   -16585 
  -16563   -16527   -16494   -16464   -16407   -16361   -16395   -16499 
  -16607   -16699   -16816   -16962   -17073   -17119   -17123   -17136 
  -17192   -17256   -17281   -17272   -17249   -17216   -17153   -17054 
  -16974   -16974   -17053   -17158   -17236   -17272   -17282   -17278 
  -17263   -17223   -17150   -17053   -16946   -16870   -16860   -16886 
  -16904   -16870   -16756   -16622   -16530   -16458   -16416   -16412 
  -16398   -16363   -16300   -16227   -16262   -16453   -16702   -16906 
  -17048   -17205   -17429   -17642   -17743   -17707   -17589   -17492 
  -17482   -17536   -17592   -17614   -17594   -17536   -17476   -17449 
  -17448   -17479   -17584   -17709   -17729   -17644   -17554   -17536 
  -17597   -17650   -17629   -17588   -17568   -17522   -17409   -17257 
  -17143   -17087   -17034   -16970   -16904   -16853   -16856   -16852 
  -16746   -16585   -16429   -16278   -16145   -16046   -15998   -15990 
  -15959   -15901   -15832   -15713   -15581   -15519   -15502   -15492 
  -15515   -15566   -15607   -15646   -15700   -15739   -15780   -15873 
  -15967   -16005   -16036   -16102   -16153   -16179   -16236   -16359 
  -16538   -16724   -16861   -16932   -16953   -16954   -16930   -16855 
  -16778   -16774   -16809   -16823   -16831   -16845   -16850   -16840 
  -16806   -16760   -16719   -16681   -16651   -16618   -16569   -16519 
  -16448   -16322   -16197   -16139   -16143   -16188   -16265   -16330 
  -16361   -16393   -16407   -16355   -16315   -16389   -16505   -16559 
  -16553   -16504   -16452   -16465   -16548   -16653   -16747   -16804 
  -16800   -16752   -16706   -16689   -16678   -16622   -16531   -16479 
  -16530   -16707   -16934   -17115   -17239   -17309   -17359   -17441 
  -17498   -17485   -17456   -17445   -17461   -17508   -17542   -17559 
  -17583   -17604   -17598   -17545   -17459   -17382   -17304   -17201 
  -17100   -17015   -16914   -16779   -16641   -16548   -16532   -16546 
  -16523   -16454   -16314   -16104   -15890   -15698   -15548   -15507 
  -15549   -15590   -15605   -15581   -15502   -15395   -15298   -15286 
  -15424   -15641   -15828   -15972   -16081   -16144   -16185   -16231 
  -16283   -16313   -16328   -16385   -16483   -16550   -16564   -16536 
  -16484   -16433   -16400   -16423   -16500   -16532   -16452   -16308 
  -16211   -16228   -16269   -16278   -16332   -16468   -16647   -16835 
  -17030   -17265   -17477   -17569   -17584   -17589   -17584   -17566 
  -17508   -17416   -17354   -17320   -17271   -17223   -17217   -17264 
  -17330   -17359   -17372   -17439   -17538   -17605   -17663   -17770 
  -17924   -18061   -18115   -18103   -18078   -18034   -17957   -17880 
  -17838   -17855   -17913   -17966   -18001   -18008   -17968   -17912 
  -17875   -17843   -17796   -17741   -17680   -17599   -17485   -17366 
  -17269   -17181   -17094   -17021   -16957   -16917   -16939   -17008 
  -17036   -16958   -16814   -16664   -16521   -16405   -16352   -16353 
  -16378   -16390   -16331   -16191   -16030   -15855   -15630   -15390 
  -15198   -15088   -15060   -15066   -15065   -15043   -14977   -14876 
  -14771   -14699   -14698   -14745   -14820   -14945   -15083   -15214 
  -15396   -15652   -15973   -16335   -16649   -16839   -16930   -16995 
  -17105   -17303   -17565   -17807   -17937   -17953   -17984   -18123 
  -18292   -18407   -18497   -18597   -18692   -18745   -18713   -18597 
  -18438   -18264   -18069   -17855   -17634   -17408   -17179   -16947 
  -16711   -16448   -16156   -15887   -15696   -15572   -15477   -15391 
  -15299   -15203   -15128   -15083   -15047   -14991   -14914   -14853 
  -14817   -14787   -14796   -14891   -15030   -15120   -15157   -15197 
  -15263   -15376   -15564   -15772   -15893   -15929   -15970   -16065 
  -16227   -16431   -16640   -16813   -16874   -16803   -16697   -16643 
  -16651   -16717   -16823   -16917   -16966   -16965   -16927   -16900 
  -16933   -17027   -17134   -17192   -17171   -17077   -16958   -16907 
  -16952   -16997   -16965   -16876   -16782   -16720   -16684   -16638 
  -16569   -16481   -16385   -16296   -16235   -16223   -16259   -16290 
  -16278   -16246   -16207   -16162   -16152   -16209   -16289   -16351 
  -16441   -16588   -16764   -16928   -17022   -17064   -17153   -17280 
  -17365   -17389   -17336   -17250   -17256   -17378   -17519   -17641 
  -17788   -17976   -18164   -18317   -18407   -18417   -18402   -18412 
  -18431   -18462   -18530   -18570   -18496   -18333   -18148   -17973 
  -17825   -17704   -17582   -17454   -17355   -17315   -17276   -17157 
  -16981   -16820   -16681   -16529   -16374   -16256   -16197   -16179 
  -16138   -16018   -15840   -15673   -15567   -15519   -15480   -15390 
  -15261   -15175   -15165   -15176   -15152   -15095   -15044   -15034 
  -15071   -15130   -15177   -15191   -15192   -15221   -15291   -15364 
  -15420   -15485   -15596   -15791   -16053   -16310   -16511   -16641 
  -16709   -16769   -16839   -16893   -16932   -16986   -17089   -17259 
  -17435   -17552   -17621   -17683   -17768   -17873   -17979   -18082 
  -18163   -18192   -18207   -18276   -18407   -18524   -18545   -18489 
  -18426   -18401   -18422   -18443   -18405   -18329   -18281   -18269 
  -18233   -18139   -18039   -17962   -17862   -17739   -17653   -17605 
  -17515   -17318   -17017   -16656   -16294   -16015   -15877   -15812 
  -15686   -15456   -15143   -14782   -14457   -14254   -14178   -14173 
  -14191   -14225   -14297   -14418   -14553   -14631   -14634   -14626 
  -14683   -14818   -15003   -15213   -15417   -15586   -15712   -15794 
  -15840   -15866   -15896   -15970   -16097   -16244   -16369   -16448 
  -16509   -16581   -16619   -16602   -16582   -16602   -16658   -16723 
  -16773   -16780   -16721   -16620   -16523   -16455   -16426   -16414 
  -16393   -16354   -16304   -16282   -16355   -16521   -16688   -16774 
  -16789   -16809   -16860   -16902   -16921   -16947   -16964   -16939 
  -16894   -16840   -16738   -16589   -16460   -16398   -16418   -16496 
  -16565   -16596   -16634   -16699   -16783   -16893   -17042   -17205 
  -17349   -17488   -17623   -17711   -17750   -17775   -17801   -17846 
  -17902   -17940   -17956   -17946   -17905   -17838   -17739   -17592 
  -17390   -17173   -17021   -16961   -16967   -16999   -17020   -17029 
  -17047   -17076   -17125   -17198   -17229   -17173   -17065   -16967 
  -16901   -16821   -16697   -16581   -16514   -16487   -16470   -16440 
  -16391   -16324   -16262   -16239   -16244   -16253   -16280   -16335 
  -16427   -16586   -16793   -16971   -17076   -17131   -17161   -17163 
  -17144   -17121   -17089   -17061   -17077   -17139   -17212   -17275 
  -17302   -17276   -17254   -17296   -17374   -17422   -17411   -17344 
  -17249   -17157   -17074   -17004   -16974   -17001   -17062   -17109 
  -17113   -17068   -16973   -16832   -16670   -16521   -16401   -16307 
  -16230   -16157   -16082   -16026   -15990   -15942   -15873   -15801 
  -15763   -15776   -15802   -15801   -15771   -15734   -15678   -15575 
  -15465   -15387   -15309   -15216   -15141   -15101   -15099   -15103 
  -15083   -15093   -15201   -15407   -15640   -15838   -16006   -16175 
  -16345   -16531   -16741   -16965   -17198   -17452   -17720   -17954 
  -18122   -18272   -18452   -18609   -18682   -18686   -18634   -18534 
  -18418   -18312   -18215   -18114   -17987   -17834   -17688   -17582 
  -17520   -17507   -17561   -17657   -17724   -17693   -17550   -17363 
  -17196   -17064   -16996   -16981   -16968   -16939   -16886   -16826 
  -16795   -16754   -16664   -16557   -16452   -16356   -16280   -16201 
  -16114   -16055   -16047   -16082   -16116   -16093   -15996   -15873 
  -15808   -15825   -15892   -15979   -16058   -16143   -16255   -16379 
  -16502   -16599   -16658   -16712   -16761   -16789   -16811   -16803 
  -16741   -16658   -16571   -16471   -16344   -16186   -16025   -15895 
  -15797   -15709   -15591   -15441   -15312   -15248   -15258   -15317 
  -15397   -15505   -15633   -15737   -15827   -15957   -16102   -16198 
  -16268   -16374   -16532   -16733   -16939   -17110   -17245   -17362 
  -17458   -17520   -17555   -17586   -17627   -17703   -17825   -17931 
  -17995   -18057   -18115   -18131   -18116   -18122   -18183   -18262 
  -18281   -18244   -18191   -18144   -18132   -18159   -18207   -18259 
  -18259   -18181   -18043   -17858   -17685   -17595   -17550   -17472 
  -17344   -17188   -17009   -16783   -16519   -16287   -16143   -16085 
  -16068   -16040   -16005   -16001   -16039   -16104   -16193   -16309 
  -16424   -16478   -16465   -16459   -16498   -16557   -16581   -16540 
  -16491   -16485   -16486   -16450   -16354   -16206   -16062   -15971 
  -15940   -15957   -15977   -15983   -16002   -16042   -16101   -16179 
  -16263   -16357   -16458   -16524   -16545   -16542   -16525   -16511 
  -16521   -16567   -16639   -16680   -16662   -16606   -16525   -16437 
  -16352   -16264   -16188   -16135   -16098   -16071   -16037   -15968 
  -15841   -15649   -15439   -15275   -15186   -15173   -15208   -15238 
  -15226   -15182   -15145   -15160   -15226   -15309   -15411   -15531 
  -15667   -15824   -15966   -16053   -16101   -16149   -16232   -16354 
  -16490   -16628   -16741   -16803   -16839   -16852   -16842   -16870 
  -16977   -17111   -17206   -17251   -17294   -17370   -17472   -17572 
  -17647   -17715   -17819   -17934   -18027   -18109   -18180   -18201 
  -18162   -18088   -18003   -17923   -17864   -17815   -17741   -17640 
  -17538   -17445   -17358   -17275   -17191   -17094   -16998   -16914 
  -16801   -16641   -16469   -16296   -16131   -15981   -15854   -15779 
  -15737   -15679   -15615   -15551   -15465   -15348   -15203   -15080 
  -15053   -15111   -15188   -15249   -15313   -15421   -15580   -15761 
  -15949   -16129   -16292   -16449   -16590   -16696   -16802   -16941 
  -17098   -17261   -17445   -17628   -17767   -17851   -17908   -17983 
  -18063   -18084   -18036   -17973   -17956   -17991   -18028   -18037 
  -18040   -18061   -18095   -18122   -18136   -18153   -18168   -18172 
  -18175   -18167   -18144   -18124   -18112   -18088   -18025   -17920 
  -17827   -17779   -17749   -17716   -17666   -17589   -17502   -17416 
  -17310   -17163   -16990   -16830   -16726   -16691   -16667   -16597 
  -16486   -16363   -16266   -16207   -16153   -16104   -16089   -16106 
  -16135   -16158   -16188   -16257   -16342   -16410   -16482   -16563 
  -16640   -16698   -16714   -16698   -16686   -16677   -16647   -16582 
  -16504   -16465   -16495   -16571   -16667   -16775   -16883   -16975 
  -17023   -17023   -16998   -16959   -16940   -16977   -17064   -17175 
  -17283   -17343   -17339   -17283   -17216   -17190   -17216   -17248 
  -17231   -17140   -17008   -16893   -16795   -16697   -16601   -16496 
  -16391   -16308   -16228   -16148   -16096   -16071   -16070   -16079 
  -16065   -16031   -16015   -16037   -16064   -16068   -16047   -15992 
  -15896   -15784   -15702   -15673   -15677   -15690   -15701   -15701 
  -15682   -15637   -15592   -15574   -15562   -15516   -15462   -15445 
  -15458   -15480   -15525   -15612   -15739   -15890   -16049   -16180 
  -16254   -16270   -16250   -16240   -16277   -16338   -16374   -16380 
