Origin Time       2025/01/13 21:19:00
Lat.              31.8
Long.             131.6
Depth. (km)       30
Mag.              6.9
Station Code      YMGH04
Station Lat.      34.0270
Station Long.     132.0626
Station Height(m) 75
Record Time       2025/01/13 21:20:17
Sampling Freq(Hz) 100Hz
Duration Time(s)  137
Dir.              1
Scale Factor      3923(gal)/8224838
Max. Acc. (gal)   1.628
Last Correction   2025/01/13 21:20:00
Memo.             
[...]
  -20163   -20140   -20137   -20164   -20218   -20283   -20352   -20425 
  -20503   -20574   -20636   -20690   -20723   -20734   -20736   -20726 
  -20710   -20702   -20703   -20713   -20738   -20767   -20780   -20773 
  -20748   -20707   -20638   -20542   -20447   -20363   -20294   -20256 
  -20233   -20194   -20136   -20079   -20034   -19989   -19940   -19888 
  -19842   -19811   -19803   -19803   -19808   -19812   -19803   -19773 
  -19732   -19692   -19661   -19638   -19630   -19643   -19670   -19705 
  -19759   -19824   -19896   -19970   -20050   -20132   -20216   -20291 
  -20363   -20448   -20542   -20636   -20725   -20803   -20852   -20879 
  -20885   -20865   -20833   -20799   -20772   -20757   -20741   -20706 
  -20657   -20610   -20571   -20532   -20486   -20433   -20383   -20343 
  -20312   -20295   -20285   -20272   -20278   -20316   -20379   -20445 
  -20482   -20484   -20472   -20456   -20460   -20497   -20555   -20618 
  -20672   -20696   -20688   -20656   -20595   -20517   -20452   -20403 
  -20362   -20332   -20325   -20343   -20387   -20455   -20526   -20583 
  -20619   -20636   -20642   -20649   -20655   -20652   -20648   -20652 
  -20673   -20715   -20750   -20761   -20749   -20723   -20692   -20665 
  -20641   -20613   -20580   -20547   -20506   -20449   -20395   -20339 
  -20262   -20181   -20108   -20048   -20017   -20023   -20044   -20079 
  -20128   -20171   -20191   -20208   -20239   -20279   -20335   -20410 
  -20472   -20509   -20542   -20571   -20582   -20568   -20529   -20484 
  -20443   -20389   -20325   -20262   -20189   -20129   -20100   -20066 
  -20016   -19975   -19959   -19958   -19981   -20019   -20055   -20101 
  -20159   -20200   -20210   -20182   -20116   -20046   -20002   -19985 
  -19997   -20031   -20067   -20082   -20070   -20047   -20021   -19994 
  -19975   -19973   -19996   -20052   -20147   -20259   -20359   -20434 
  -20475   -20482   -20475   -20472   -20480   -20490   -20488   -20475 
  -20466   -20472   -20486   -20497   -20501   -20487   -20456   -20416 
  -20383   -20378   -20405   -20447   -20498   -20565   -20642   -20722 
  -20798   -20841   -20823   -20753   -20665   -20580   -20505   -20445 
  -20391   -20331   -20263   -20214   -20196   -20202   -20221   -20244 
  -20274   -20306   -20329   -20333   -20329   -20326   -20335   -20367 
  -20416   -20453   -20470   -20472   -20461   -20443   -20432   -20426 
  -20424   -20414   -20399   -20390   -20391   -20403   -20429   -20452 
  -20460   -20467   -20467   -20447   -20417   -20385   -20345   -20298 
  -20254   -20216   -20185   -20156   -20123   -20067   -19985   -19893 
  -19805   -19738   -19705   -19697   -19705   -19734   -19786   -19861 
  -19940   -20011   -20081   -20160   -20228   -20255   -20258   -20256 
  -20244   -20208   -20160   -20121   -20073   -20007   -19950   -19911 
  -19881   -19886   -19931   -19989   -20036   -20066   -20094   -20140 
  -20212   -20302   -20385   -20445   -20482   -20501   -20522   -20548 
  -20571   -20596   -20614   -20609   -20584   -20541   -20479   -20407 
  -20340   -20279   -20224   -20170   -20105   -20021   -19938   -19866 
  -19820   -19811   -19835   -19886   -19966   -20066   -20169   -20279 
  -20399   -20510   -20598   -20660   -20696   -20726   -20756   -20790 
  -20821   -20852   -20898   -20957   -21008   -21051   -21078   -21077 
  -21042   -20979   -20895   -20814   -20761   -20740   -20745   -20781 
  -20842   -20908   -20989   -21103   -21235   -21347   -21405   -21408 
  -21370   -21296   -21189   -21072   -20947   -20804   -20667   -20549 
  -20433   -20318   -20227   -20162   -20102   -20036   -19973   -19924 
  -19880   -19815   -19730   -19638   -19542   -19465   -19429   -19425 
  -19449   -19519   -19630   -19753   -19880   -20002   -20108   -20193 
  -20266   -20333   -20380   -20410   -20444   -20495   -20567   -20663 
  -20779   -20900   -21001   -21085   -21166   -21232   -21269   -21262 
  -21200   -21099   -20981   -20861   -20738   -20613   -20487   -20374 
  -20282   -20221   -20175   -20128   -20082   -20034   -19971   -19903 
  -19834   -19782   -19750   -19726   -19712   -19724   -19754   -19786 
  -19822   -19872   -19954   -20070   -20197   -20324   -20443   -20553 
  -20657   -20756   -20849   -20929   -20993   -21051   -21100   -21111 
  -21069   -20989   -20879   -20748   -20625   -20513   -20405   -20310 
  -20229   -20154   -20092   -20054   -20020   -19984   -19951   -19930 
  -19923   -19944   -19993   -20040   -20083   -20137   -20190   -20240 
  -20283   -20304   -20298   -20271   -20235   -20200   -20164   -20139 
  -20137   -20156   -20190   -20244   -20310   -20367   -20421   -20471 
  -20506   -20529   -20541   -20526   -20487   -20440   -20375   -20281 
  -20164   -20052   -19958   -19886   -19846   -19832   -19824   -19830 
  -19863   -19903   -19928   -19932   -19911   -19869   -19822   -19799 
  -19815   -19851   -19893   -19944   -20004   -20078   -20170   -20270 
  -20372   -20474   -20561   -20613   -20645   -20679   -20703   -20713 
  -20709   -20709   -20729   -20758   -20806   -20877   -20957   -21035 
  -21109   -21174   -21231   -21284   -21325   -21335   -21312   -21284 
  -21259   -21232   -21207   -21177   -21131   -21065   -20974   -20875 
  -20785   -20707   -20626   -20544   -20487   -20464   -20464   -20484 
  -20530   -20583   -20622   -20655   -20691   -20719   -20722   -20706 
  -20692   -20679   -20663   -20656   -20644   -20625   -20615   -20609 
  -20576   -20518   -20456   -20409   -20394   -20412   -20440   -20463 
  -20467   -20437   -20393   -20340   -20285   -20220   -20131   -20021 
  -19907   -19792   -19687   -19600   -19541   -19508   -19498   -19496 
  -19511   -19550   -19608   -19672   -19734   -19792   -19835   -19870 
  -19919   -19973   -20009   -20031   -20056   -20079   -20108   -20162 
  -20224   -20264   -20279   -20294   -20324   -20356   -20383   -20417 
  -20457   -20480   -20468   -20424   -20356   -20279   -20210   -20160 
  -20128   -20116   -20120   -20125   -20124   -20119   -20117   -20121 
  -20128   -20129   -20128   -20129   -20129   -20121   -20102   -20075 
  -20040   -20009   -20001   -20025   -20066   -20119   -20177   -20227 
  -20256   -20250   -20205   -20131   -20040   -19944   -19854   -19799 
  -19807   -19867   -19963   -20070   -20158   -20217   -20248   -20241 
  -20201   -20136   -20067   -20011   -19969   -19935   -19890   -19824 
  -19734   -19641   -19573   -19535   -19508   -19485   -19460   -19426 
  -19390   -19346   -19283   -19192   -19095   -19039   -19036   -19082 
  -19165   -19276   -19407   -19557   -19723   -19896   -20061   -20212 
  -20336   -20414   -20449   -20464   -20461   -20437   -20395   -20341 
  -20287   -20240   -20202   -20164   -20120   -20090   -20086   -20092 
  -20092   -20066   -20001   -19917   -19851   -19828   -19839   -19878 
  -19955   -20062   -20186   -20332   -20483   -20607   -20703   -20790 
  -20852   -20887   -20910   -20907   -20880   -20848   -20795   -20717 
  -20634   -20569   -20524   -20494   -20470   -20451   -20443   -20437 
  -20430   -20425   -20424   -20425   -20437   -20467   -20509   -20560 
  -20630   -20723   -20834   -20956   -21080   -21207   -21350   -21508 
  -21654   -21747   -21776   -21768   -21749   -21732   -21724   -21705 
  -21643   -21531   -21393   -21250   -21120   -21024   -20954   -20888 
  -20818   -20745   -20683   -20638   -20606   -20564   -20511   -20456 
  -20405   -20368   -20352   -20341   -20339   -20364   -20418   -20493 
  -20574   -20633   -20655   -20634   -20571   -20466   -20316   -20119 
  -19897   -19688   -19502   -19360   -19280   -19255   -19268   -19307 
  -19367   -19440   -19515   -19585   -19647   -19691   -19712   -19719 
  -19712   -19685   -19634   -19576   -19535   -19511   -19492   -19462 
  -19414   -19354   -19299   -19260   -19246   -19276   -19354   -19469 
  -19624   -19819   -20016   -20193   -20355   -20502   -20629   -20741 
  -20857   -20972   -21074   -21177   -21278   -21363   -21427   -21466 
  -21475   -21452   -21401   -21331   -21240   -21127   -20997   -20877 
  -20794   -20750   -20761   -20818   -20898   -20992   -21092   -21170 
  -21224   -21258   -21269   -21273   -21280   -21285   -21281   -21258 
  -21207   -21143   -21082   -21035   -21010   -21003   -21010   -21020 
  -21031   -21041   -21053   -21062   -21055   -21027   -20969   -20884 
  -20775   -20652   -20520   -20382   -20240   -20092   -19935   -19785 
  -19641   -19479   -19299   -19124   -18962   -18833   -18744   -18690 
  -18666   -18665   -18674   -18694   -18738   -18809   -18920   -19080 
  -19273   -19476   -19693   -19927   -20164   -20398   -20622   -20821 
  -20974   -21074   -21141   -21196   -21236   -21255   -21276   -21323 
  -21381   -21448   -21536   -21627   -21695   -21741   -21782   -21824 
  -21861   -21899   -21925   -21918   -21892   -21861   -21822   -21775 
  -21706   -21601   -21470   -21338   -21204   -21049   -20862   -20660 
  -20459   -20271   -20097   -19936   -19791   -19657   -19533   -19419 
  -19318   -19238   -19180   -19132   -19089   -19052   -19020   -18983 
  -18955   -18947   -18956   -19001   -19079   -19172   -19271   -19379 
  -19495   -19612   -19746   -19907   -20074   -20229   -20380   -20532 
  -20679   -20815   -20926   -21008   -21074   -21149   -21213   -21240 
  -21227   -21161   -21039   -20899   -20763   -20638   -20530   -20430 
  -20332   -20237   -20151   -20082   -20036   -20012   -20000   -19994 
  -19990   -19985   -19958   -19915   -19880   -19838   -19785   -19732 
  -19672   -19610   -19562   -19515   -19458   -19410   -19386   -19386 
  -19418   -19476   -19562   -19677   -19803   -19930   -20056   -20162 
  -20241   -20299   -20322   -20306   -20264   -20205   -20128   -20034 
  -19928   -19830   -19758   -19711   -19674   -19646   -19622   -19596 
  -19565   -19521   -19454   -19369   -19272   -19174   -19093   -19033 
  -18995   -18982   -18979   -18989   -19024   -19091   -19203   -19376 
  -19606   -19881   -20197   -20548   -20902   -21230   -21541   -21837 
  -22110   -22358   -22562   -22704   -22785   -22804   -22769   -22702 
  -22601   -22468   -22341   -22242   -22172   -22114   -22038   -21936 
  -21825   -21716   -21609   -21508   -21420   -21334   -21246   -21168 
  -21107   -21058   -21018   -20985   -20950   -20906   -20862   -20827 
  -20803   -20768   -20717   -20667   -20613   -20547   -20487   -20448 
  -20434   -20434   -20425   -20402   -20367   -20324   -20275   -20209 
  -20115   -20002   -19884   -19770   -19669   -19585   -19518   -19446 
  -19379   -19329   -19300   -19311   -19349   -19391   -19429   -19452 
  -19472   -19507   -19541   -19549   -19518   -19437   -19314   -19179 
  -19051   -18937   -18843   -18750   -18655   -18580   -18538   -18527 
  -18536   -18561   -18590   -18624   -18669   -18723   -18779   -18836 
  -18900   -18981   -19059   -19121   -19164   -19188   -19209   -19234 
  -19264   -19318   -19415   -19534   -19654   -19782   -19928   -20075 
  -20216   -20347   -20464   -20574   -20694   -20830   -20966   -21088 
  -21195   -21285   -21363   -21447   -21529   -21600   -21651   -21659 
  -21614   -21533   -21443   -21365   -21313   -21304   -21325   -21354 
  -21381   -21404   -21412   -21412   -21417   -21432   -21466   -21524 
  -21601   -21686   -21770   -21844   -21909   -21973   -22032   -22052 
  -22021   -21952   -21855   -21730   -21595   -21459   -21315   -21153 
  -20985   -20804   -20591   -20343   -20079   -19820   -19570   -19337 
  -19113   -18887   -18669   -18474   -18300   -18139   -18002   -17903 
  -17847   -17837   -17876   -17949   -18033   -18134   -18262   -18407 
  -18561   -18721   -18886   -19059   -19234   -19410   -19577   -19739 
  -19900   -20054   -20186   -20313   -20452   -20588   -20702   -20788 
  -20845   -20883   -20908   -20902   -20865   -20806   -20731   -20664 
  -20617   -20580   -20555   -20534   -20513   -20491   -20468   -20449 
  -20430   -20403   -20380   -20371   -20367   -20362   -20362   -20375 
  -20403   -20432   -20445   -20463   -20494   -20529   -20564   -20592 
  -20611   -20634   -20664   -20696   -20721   -20745   -20781   -20826 
  -20875   -20919   -20953   -20970   -20979   -20970   -20966   -20988 
  -21030   -21097   -21204   -21347   -21525   -21732   -21936   -22123 
  -22296   -22437   -22534   -22588   -22589   -22555   -22500   -22412 
  -22297   -22168   -22019   -21860   -21712   -21562   -21401   -21238 
  -21077   -20922   -20769   -20599   -20403   -20197   -19989   -19786 
  -19612   -19480   -19371   -19280   -19225   -19206   -19211   -19233 
  -19268   -19302   -19334   -19381   -19437   -19487   -19529   -19543 
  -19525   -19483   -19418   -19337   -19252   -19170   -19105   -19059 
  -19025   -19026   -19072   -19148   -19244   -19350   -19453   -19566 
  -19708   -19865   -20028   -20197   -20347   -20459   -20533   -20561 
  -20553   -20540   -20528   -20526   -20561   -20623   -20688   -20753 
  -20821   -20889   -20969   -21055   -21145   -21242   -21338   -21431 
  -21525   -21612   -21689   -21753   -21809   -21856   -21884   -21892 
  -21892   -21891   -21887   -21898   -21934   -21986   -22045   -22107 
  -22153   -22185   -22229   -22283   -22327   -22347   -22337   -22297 
  -22231   -22140   -22022   -21872   -21702   -21523   -21327   -21123 
  -20927   -20740   -20548   -20349   -20158   -19989   -19851   -19746 
  -19656   -19560   -19460   -19352   -19221   -19071   -18900   -18709 
  -18528   -18369   -18229   -18100   -17965   -17811   -17652   -17501 
  -17366   -17248   -17142   -17053   -16989   -16947   -16926   -16938 
  -16985   -17068   -17184   -17342   -17547   -17791   -18053   -18323 
  -18600   -18881   -19149   -19400   -19649   -19886   -20106   -20316 
  -20507   -20671   -20799   -20907   -21006   -21104   -21197   -21276 
  -21342   -21396   -21433   -21458   -21466   -21447   -21419   -21385 
  -21331   -21262   -21185   -21103   -21031   -20968   -20902   -20839 
  -20780   -20733   -20704   -20694   -20688   -20680   -20671   -20679 
  -20710   -20756   -20811   -20877   -20935   -20965   -20977   -20991 
  -21024   -21092   -21180   -21265   -21348   -21429   -21500   -21548 
  -21578   -21598   -21597   -21558   -21489   -21389   -21263   -21134 
  -21007   -20871   -20736   -20596   -20453   -20313   -20174   -20042 
  -19927   -19835   -19776   -19759   -19778   -19823   -19888   -19961 
  -20040   -20131   -20220   -20286   -20324   -20331   -20316   -20285 
  -20240   -20181   -20096   -19986   -19861   -19726   -19577   -19407 
  -19217   -19024   -18847   -18697   -18589   -18528   -18499   -18501 
  -18549   -18646   -18778   -18935   -19105   -19282   -19465   -19641 
  -19786   -19905   -20015   -20113   -20205   -20310   -20416   -20502 
  -20576   -20656   -20745   -20830   -20912   -20988   -21042   -21068 
  -21069   -21050   -21026   -20996   -20961   -20935   -20929   -20933 
  -20942   -20950   -20953   -20952   -20941   -20914   -20865   -20792 
  -20698   -20587   -20472   -20363   -20255   -20129   -19994   -19855 
  -19715   -19587   -19476   -19371   -19264   -19159   -19064   -18985 
  -18922   -18893   -18897   -18925   -18978   -19047   -19107   -19151 
  -19188   -19228   -19268   -19314   -19348   -19359   -19368   -19390 
  -19429   -19506   -19622   -19765   -19930   -20113   -20308   -20509 
  -20706   -20891   -21062   -21222   -21367   -21504   -21627   -21732 
  -21807   -21845   -21864   -21861   -21829   -21776   -21708   -21627 
  -21548   -21477   -21398   -21321   -21261   -21216   -21190   -21189 
  -21217   -21267   -21344   -21448   -21563   -21668   -21764   -21863 
  -21965   -22056   -22126   -22175   -22199   -22196   -22168   -22123 
  -22075   -22005   -21909   -21797   -21674   -21555   -21443   -21330 
  -21228   -21136   -21041   -20941   -20841   -20723   -20583   -20444 
  -20322   -20231   -20179   -20159   -20167   -20213   -20272   -20325 
  -20383   -20439   -20466   -20472   -20468   -20433   -20366   -20271 
  -20151   -20001   -19822   -19629   -19426   -19213   -19008   -18831 
  -18685   -18580   -18522   -18500   -18513   -18576   -18686   -18833 
  -18985   -19130   -19282   -19431   -19572   -19712   -19843   -19944 
  -20013   -20055   -20070   -20070   -20065   -20051   -20031   -20005 
  -19965   -19915   -19863   -19811   -19773   -19773   -19819   -19916 
  -20054   -20223   -20420   -20632   -20841   -21049   -21246   -21423 
  -21577   -21694   -21771   -21813   -21829   -21818   -21790   -21747 
  -21679   -21571   -21433   -21286   -21135   -20976   -20818   -20680 
  -20572   -20484   -20416   -20364   -20320   -20278   -20228   -20174 
  -20116   -20047   -19969   -19893   -19835   -19805   -19796   -19808 
  -19840   -19885   -19939   -19989   -20031   -20078   -20154   -20256 
  -20385   -20542   -20725   -20925   -21132   -21334   -21521   -21679 
  -21802   -21895   -21965   -22014   -22025   -21984   -21897   -21770 
  -21620   -21458   -21281   -21101   -20926   -20753   -20590   -20434 
  -20291   -20167   -20070   -20002   -19965   -19950   -19962   -19997 
  -20046   -20094   -20142   -20183   -20205   -20200   -20173   -20132 
  -20086   -20059   -20058   -20062   -20079   -20123   -20186   -20270 
  -20375   -20487   -20588   -20676   -20757   -20827   -20880   -20919 
  -20937   -20934   -20911   -20866   -20808   -20742   -20664   -20571 
  -20468   -20360   -20251   -20147   -20048   -19958   -19884   -19826 
  -19766   -19711   -19670   -19651   -19647   -19646   -19654   -19668 
  -19685   -19719   -19774   -19839   -19909   -19981   -20063   -20155 
  -20244   -20322   -20395   -20463   -20524   -20582   -20636   -20682 
  -20719   -20742   -20738   -20710   -20656   -20567   -20447   -20313 
  -20183   -20069   -19969   -19882   -19815   -19765   -19724   -19700 
  -19699   -19724   -19786   -19892   -20034   -20206   -20399   -20602 
  -20808   -21020   -21227   -21415   -21563   -21672   -21743   -21766 
  -21747   -21689   -21587   -21467   -21325   -21141   -20927   -20706 
  -20474   -20236   -20017   -19816   -19624   -19450   -19300   -19164 
  -19041   -18940   -18867   -18821   -18794   -18785   -18793   -18809 
  -18821   -18833   -18846   -18852   -18874   -18916   -18974   -19057 
  -19172   -19310   -19471   -19657   -19854   -20063   -20277   -20486 
  -20695   -20915   -21135   -21347   -21550   -21743   -21918   -22057 
  -22156   -22227   -22273   -22281   -22266   -22238   -22196   -22149 
  -22107   -22060   -22006   -21951   -21891   -21816   -21713   -21598 
  -21489   -21384   -21281   -21181   -21077   -20976   -20881   -20791 
  -20711   -20649   -20599   -20548   -20484   -20417   -20359   -20301 
  -20229   -20150   -20074   -20012   -19955   -19892   -19813   -19732 
  -19664   -19600   -19534   -19471   -19418   -19377   -19338   -19287 
  -19238   -19190   -19140   -19102   -19076   -19044   -19014   -18997 
  -18989   -18987   -18990   -18998   -19017   -19033   -19041   -19041 
  -19030   -19005   -18975   -18935   -18877   -18823   -18773   -18729 
  -18720   -18747   -18800   -18881   -18974   -19076   -19202   -19336 
  -19458   -19573   -19681   -19782   -19885   -19992   -20097   -20204 
  -20312   -20407   -20480   -20525   -20542   -20547   -20544   -20517 
  -20455   -20363   -20254   -20132   -20019   -19923   -19832   -19751 
  -19685   -19619   -19545   -19480   -19422   -19361   -19309   -19276 
