Origin Time       2025/01/13 21:19:00
Lat.              31.8
Long.             131.6
Depth. (km)       30
Mag.              6.9
Station Code      YMGH15
Station Lat.      33.9725
Station Long.     131.8149
Station Height(m) -10
Record Time       2025/01/13 21:20:12
Sampling Freq(Hz) 100Hz
Duration Time(s)  136
Dir.              2
Scale Factor      2940(gal)/6170270
Max. Acc. (gal)   2.231
Last Correction   2025/01/13 21:19:57
Memo.             
[...]
  246154   246133   246094   246049   246001   245941   245862   245781 
  245722   245689   245668   245653   245652   245665   245690   245728 
  245768   245797   245824   245851   245864   245863   245867   245888 
  245916   245938   245949   245944   245924   245896   245870   245851 
  245831   245804   245768   245724   245679   245644   245619   245604 
  245596   245601   245625   245652   245663   245672   245693   245720 
  245745   245766   245797   245845   245910   245981   246050   246109 
  246154   246182   246200   246224   246250   246258   246247   246230 
  246218   246203   246174   246141   246113   246078   246026   245971 
  245928   245897   245876   245858   245845   245850   245872   245908 
  245955   245996   246014   246006   245973   245928   245880   245829 
  245774   245712   245650   245603   245570   245542   245522   245515 
  245513   245510   245515   245532   245560   245599   245642   245668 
  245669   245672   245699   245749   245810   245869   245916   245950 
  245982   246022   246060   246087   246097   246081   246044   245997 
  245947   245895   245841   245785   245721   245647   245566   245485 
  245423   245399   245404   245420   245437   245449   245456   245468 
  245487   245507   245519   245523   245535   245564   245607   245664 
  245743   245838   245931   246016   246090   246149   246194   246215 
  246212   246198   246186   246179   246171   246155   246144   246161 
  246211   246273   246328   246382   246434   246464   246467   246460 
  246452   246430   246393   246352   246313   246273   246223   246168 
  246120   246073   246025   245985   245955   245925   245881   245824 
  245774   245747   245737   245733   245734   245734   245722   245704 
  245694   245697   245710   245729   245748   245766   245795   245839 
  245880   245900   245901   245899   245908   245928   245948   245961 
  245976   246001   246029   246056   246090   246131   246174   246205 
  246210   246193   246158   246111   246070   246036   245992   245927 
  245859   245812   245784   245762   245744   245721   245689   245653 
  245612   245564   245509   245456   245422   245404   245392   245383 
  245384   245399   245431   245482   245552   245632   245710   245785 
  245861   245940   246022   246093   246137   246159   246160   246142 
  246130   246139   246159   246191   246238   246295   246354   246407 
  246435   246442   246453   246472   246479   246466   246440   246410 
  246391   246395   246423   246461   246483   246474   246439   246391 
  246334   246257   246161   246051   245943   245849   245750   245623 
  245480   245364   245305   245299   245335   245396   245448   245470 
  245478   245494   245526   245569   245610   245647   245689   245731 
  245767   245801   245827   245850   245883   245927   245976   246022 
  246058   246074   246066   246045   246031   246034   246043   246045 
  246042   246045   246063   246096   246132   246164   246206   246267 
  246333   246385   246418   246431   246425   246415   246419   246427 
  246419   246389   246338   246271   246205   246157   246129   246110 
  246085   246058   246044   246056   246100   246159   246217   246266 
  246296   246296   246270   246226   246171   246114   246061   246019 
  245997   246005   246030   246039   246017   245976   245939   245906 
  245865   245815   245766   245724   245692   245665   245632   245583 
  245525   245470   245423   245394   245391   245412   245436   245437 
  245416   245393   245376   245362   245363   245377   245391   245410 
  245439   245466   245486   245508   245546   245600   245659   245718 
  245778   245838   245897   245949   245990   246012   246009   245992 
  245967   245930   245893   245860   245816   245752   245672   245595 
  245545   245545   245599   245678   245755   245827   245892   245942 
  245978   246017   246067   246120   246172   246202   246188   246143 
  246101   246078   246062   246039   246021   246023   246040   246062 
  246090   246124   246156   246167   246151   246124   246111   246122 
  246148   246186   246237   246286   246324   246357   246393   246422 
  246427   246393   246324   246235   246150   246090   246061   246053 
  246049   246048   246056   246078   246125   246212   246327   246451 
  246570   246679   246788   246904   247015   247109   247169   247171 
  247119   247020   246876   246705   246539   246385   246237   246102 
  245988   245881   245771   245670   245595   245558   245557   245577 
  245616   245685   245779   245875   245969   246059   246134   246186 
  246214   246224   246228   246226   246216   246208   246207   246208 
  246208   246213   246214   246212   246222   246248   246277   246306 
  246332   246341   246338   246340   246358   246389   246411   246411 
  246404   246408   246429   246458   246479   246497   246521   246531 
  246509   246458   246384   246297   246211   246127   246044   245962 
  245878   245793   245703   245613   245540   245495   245479   245480 
  245482   245474   245452   245417   245373   245335   245312   245306 
  245320   245357   245417   245489   245561   245627   245676   245701 
  245717   245737   245757   245781   245809   245830   245838   245817 
  245757   245673   245588   245509   245435   245361   245280   245190 
  245086   244971   244873   244799   244734   244667   244585   244486 
  244395   244335   244317   244353   244432   244533   244653   244784 
  244908   245030   245162   245296   245414   245510   245596   245693 
  245816   245964   246119   246249   246328   246363   246390   246447 
  246546   246668   246776   246859   246929   246982   247009   247018 
  247020   247030   247054   247071   247064   247035   246993   246943 
  246891   246830   246754   246671   246606   246568   246524   246458 
  246388   246324   246253   246180   246111   246047   245986   245932 
  245895   245886   245899   245924   245958   245998   246045   246093 
  246141   246194   246250   246304   246362   246417   246459   246491 
  246521   246561   246618   246690   246770   246836   246883   246917 
  246935   246945   246969   247009   247058   247109   247148   247172 
  247186   247198   247216   247236   247240   247217   247165   247079 
  246967   246859   246772   246694   246614   246538   246468   246403 
  246347   246296   246250   246228   246243   246285   246320   246335 
  246337   246326   246288   246217   246113   245991   245873   245775 
  245702   245649   245609   245585   245575   245568   245551   245515 
  245458   245393   245323   245248   245173   245111   245068   245035 
  244996   244959   244950   244959   244967   244973   244979   244978 
  244985   245008   245041   245079   245118   245140   245133   245115 
  245113   245143   245202   245263   245312   245356   245403   245440 
  245443   245407   245351   245282   245211   245159   245124   245092 
  245071   245055   245031   245002   244983   244974   244957   244920 
  244861   244784   244678   244539   244390   244256   244150   244083 
  244055   244042   244032   244039   244082   244178   244329   244513 
  244708   244904   245099   245291   245486   245681   245859   246022 
  246195   246375   246518   246598   246644   246698   246761   246810 
  246831   246810   246746   246665   246588   246510   246428   246353 
  246280   246203   246123   246037   245953   245894   245859   245833 
  245825   245845   245884   245931   245977   246025   246075   246117 
  246164   246234   246321   246402   246456   246483   246487   246465 
  246417   246365   246340   246354   246395   246442   246489   246533 
  246572   246604   246631   246652   246651   246616   246544   246449 
  246362   246302   246263   246247   246261   246284   246285   246252 
  246193   246131   246083   246038   245963   245841   245694   245547 
  245401   245255   245128   245036   244965   244897   244829   244770 
  244718   244678   244660   244658   244665   244683   244717   244779 
  244859   244936   245009   245103   245226   245360   245492   245624 
  245745   245847   245939   246032   246123   246207   246280   246339 
  246385   246425   246462   246502   246549   246603   246657   246706 
  246753   246807   246859   246892   246896   246881   246860   246839 
  246826   246819   246802   246774   246741   246690   246624   246564 
  246519   246479   246435   246393   246351   246302   246265   246245 
  246229   246208   246195   246203   246231   246266   246305   246350 
  246396   246434   246455   246456   246432   246382   246303   246180 
  246016   245850   245710   245595   245492   245391   245285   245186 
  245103   245044   245020   245026   245047   245079   245134   245210 
  245297   245391   245501   245633   245774   245923   246078   246226 
  246359   246491   246619   246737   246855   246987   247141   247303 
  247452   247579   247687   247767   247815   247839   247864   247913 
  247986   248073   248157   248210   248219   248190   248132   248055 
  247968   247874   247769   247639   247462   247240   247011   246805 
  246622   246448   246276   246109   245947   245803   245693   245614 
  245555   245509   245463   245407   245344   245276   245205   245153 
  245138   245158   245205   245274   245356   245431   245490   245543 
  245587   245613   245618   245614   245624   245651   245678   245696 
  245712   245727   245749   245779   245798   245791   245757   245709 
  245668   245643   245616   245568   245486   245367   245227   245078 
  244937   244811   244690   244568   244454   244352   244258   244161 
  244056   243945   243834   243748   243709   243716   243755   243807 
  243858   243905   243954   243996   244026   244048   244078   244131 
  244207   244281   244338   244390   244437   244467   244475   244452 
  244387   244282   244150   244016   243916   243871   243869   243899 
  243970   244089   244250   244447   244656   244856   245044   245218 
  245370   245499   245611   245705   245789   245879   245995   246145 
  246312   246484   246668   246869   247078   247281   247474   247642 
  247760   247827   247862   247866   247835   247774   247683   247561 
  247422   247273   247109   246934   246757   246560   246321   246045 
  245746   245435   245127   244846   244615   244450   244344   244275 
  244241   244265   244338   244432   244528   244620   244731   244882 
  245072   245289   245512   245716   245889   246047   246197   246332 
  246471   246633   246799   246960   247141   247342   247542   247727 
  247895   248043   248158   248231   248263   248261   248233   248194 
  248155   248130   248127   248129   248116   248075   248005   247921 
  247848   247795   247753   247711   247664   247598   247510   247422 
  247349   247279   247198   247118   247045   246962   246864   246758 
  246647   246522   246373   246202   246034   245903   245825   245795 
  245806   245855   245930   246021   246122   246220   246302   246359 
  246400   246433   246450   246446   246421   246367   246269   246127 
  245962   245797   245638   245475   245304   245134   244978   244836 
  244703   244579   244479   244408   244362   244340   244341   244370 
  244429   244503   244585   244691   244832   245010   245220   245452 
  245690   245912   246106   246276   246426   246541   246605   246623 
  246609   246553   246441   246292   246127   245947   245754   245556 
  245351   245158   245002   244885   244810   244788   244819   244886 
  244966   245019   245027   245011   245010   245058   245165   245317 
  245480   245632   245777   245931   246100   246290   246499   246700 
  246863   246995   247110   247206   247295   247394   247508   247632 
  247759   247893   248044   248203   248354   248500   248649   248784 
  248879   248918   248901   248853   248790   248705   248593   248448 
  248272   248081   247889   247703   247533   247370   247196   247013 
  246827   246626   246411   246199   245991   245786   245595   245422 
  245252   245086   244954   244880   244847   244825   244806   244792 
  244784   244789   244814   244847   244877   244913   244963   245009 
  245032   245036   245035   245045   245075   245119   245177   245248 
  245322   245390   245450   245491   245505   245509   245530   245572 
  245614   245627   245581   245480   245356   245230   245105   244997 
  244913   244831   244725   244588   244433   244279   244138   244007 
  243876   243742   243620   243518   243427   243345   243289   243276 
  243308   243381   243482   243599   243722   243853   243983   244098 
  244191   244265   244344   244448   244580   244735   244895   245042 
  245172   245280   245353   245391   245406   245393   245354   245298 
  245225   245142   245060   244973   244878   244779   244697   244664 
  244674   244701   244736   244774   244808   244860   244948   245048 
  245139   245229   245331   245467   245660   245908   246185   246475 
  246782   247125   247510   247917   248311   248668   248962   249190 
  249378   249540   249665   249754   249802   249803   249754   249654 
  249520   249376   249225   249063   248899   248727   248542   248358 
  248195   248061   247960   247900   247885   247894   247904   247916 
  247928   247925   247902   247872   247842   247794   247728   247678 
  247658   247648   247627   247585   247517   247408   247232   246986 
  246695   246381   246045   245693   245333   244976   244623   244271 
  243916   243565   243223   242893   242584   242301   242037   241798 
  241596   241438   241324   241257   241246   241293   241394   241544 
  241712   241859   242001   242175   242389   242650   242963   243311 
  243657   243974   244271   244567   244851   245113   245350   245560 
  245734   245875   245986   246062   246089   246066   246002   245904 
  245782   245644   245473   245261   245024   244766   244484   244202 
  243945   243718   243534   243406   243330   243303   243327   243398 
  243514   243671   243860   244062   244266   244472   244675   244868 
  245060   245252   245438   245618   245800   245986   246172   246349 
  246512   246659   246797   246943   247102   247256   247389   247513 
  247643   247765   247859   247928   247994   248079   248176   248270 
  248368   248491   248632   248761   248857   248923   248969   248991 
  248973   248908   248810   248696   248571   248435   248299   248169 
  248045   247926   247801   247653   247469   247246   246990   246723 
  246457   246196   245930   245664   245410   245168   244932   244708 
  244499   244301   244109   243916   243722   243538   243376   243235 
  243106   242987   242884   242809   242765   242748   242748   242770 
  242828   242927   243063   243229   243418   243629   243864   244117 
  244389   244686   245000   245295   245556   245801   246044   246287 
  246535   246787   247025   247227   247392   247526   247631   247710 
  247756   247757   247710   247630   247542   247459   247373   247268 
  247144   247016   246884   246757   246656   246579   246507   246422 
  246326   246255   246245   246303   246412   246545   246683   246818 
  246947   247084   247242   247417   247609   247820   248032   248223 
  248388   248531   248671   248827   248993   249153   249292   249407 
  249511   249616   249717   249806   249873   249910   249925   249929 
  249901   249807   249651   249458   249228   248955   248649   248328 
  247989   247621   247232   246836   246449   246086   245746   245421 
  245108   244794   244477   244178   243916   243698   243532   243411 
  243318   243244   243182   243113   243025   242936   242869   242825 
  242791   242762   242746   242755   242793   242848   242903   242942 
  242951   242951   242968   243011   243073   243148   243235   243335 
  243453   243593   243747   243904   244068   244241   244416   244588 
  244761   244930   245091   245257   245440   245644   245875   246139 
  246430   246734   247021   247272   247492   247679   247828   247944 
  248028   248076   248089   248073   248033   247970   247892   247794 
  247676   247546   247403   247237   247044   246838   246635   246441 
  246242   246031   245826   245641   245479   245338   245220   245135 
  245097   245095   245101   245110   245126   245153   245186   245209 
  245225   245245   245276   245331   245424   245555   245708   245869 
  246036   246208   246381   246544   246672   246768   246854   246941 
  247029   247116   247202   247287   247369   247455   247536   247594 
  247631   247645   247625   247561   247459   247329   247172   246989 
  246794   246613   246437   246246   246048   245868   245720   245608 
  245516   245427   245346   245283   245237   245207   245182   245151 
  245126   245117   245119   245132   245161   245223   245330   245470 
  245620   245763   245890   246002   246099   246186   246271   246348 
  246402   246431   246440   246439   246437   246434   246418   246372 
  246296   246208   246124   246057   246004   245964   245945   245951 
  245971   245999   246034   246085   246159   246251   246338   246405 
  246461   246516   246562   246597   246619   246622   246625   246635 
  246623   246569   246481   246358   246200   246033   245884   245741 
  245580   245419   245283   245174   245078   244980   244887   244818 
  244769   244733   244720   244731   244752   244772   244797   244825 
  244855   244894   244947   245012   245097   245211   245347   245494 
  245648   245807   245955   246082   246188   246265   246316   246353 
  246370   246354   246300   246215   246114   246006   245899   245793 
  245678   245544   245405   245282   245185   245107   245040   244972 
  244897   244812   244711   244604   244519   244473   244470   244511 
  244601   244734   244879   245014   245139   245256   245349   245415 
  245466   245505   245530   245544   245551   245551   245531   245479 
  245406   245345   245312   245302   245298   245293   245302   245352 
  245446   245568   245701   245831   245952   246063   246164   246256 
  246342   246424   246507   246587   246655   246718   246782   246830 
  246862   246889   246920   246967   247033   247109   247178   247235 
  247285   247324   247342   247344   247340   247331   247307   247261 
  247185   247080   246952   246805   246641   246453   246235   246002 
  245768   245536   245318   245126   244960   244804   244642   244476 
  244315   244164   244025   243908   243824   243767   243715   243667 
  243634   243631   243662   243732   243840   243985   244156   244336 
  244519   244716   244928   245150   245386   245635   245884   246125 
  246368   246607   246827   247025   247201   247354   247485   247589 
  247664   247722   247762   247764   247729   247667   247576   247475 
  247384   247289   247177   247053   246909   246730   246520   246292 
  246055   245821   245591   245366   245164   244996   244852   244727 
  244629   244564   244534   244543   244587   244653   244741   244858 
  245007   245183   245365   245532   245682   245825   245968   246106 
  246226   246322   246403   246476   246532   246567   246584   246579 
  246549   246501   246438   246358   246264   246161   246055   245950 
  245854   245774   245710   245654   245590   245519   245456   245406 
  245368   245342   245344   245386   245458   245545   245650   245777 
  245924   246084   246241   246378   246486   246570   246634   246680 
