Origin Time       2025/01/13 21:19:00
Lat.              31.8
Long.             131.6
Depth. (km)       30
Mag.              6.9
Station Code      YMGH03
Station Lat.      34.1891
Station Long.     132.1260
Station Height(m) 85
Record Time       2025/01/13 21:20:20
Sampling Freq(Hz) 100Hz
Duration Time(s)  120
Dir.              4
Scale Factor      7845(gal)/8223790
Max. Acc. (gal)   0.927
Last Correction   2025/01/13 21:20:20
Memo.             
[...]
    1046     1026     1026     1043     1057     1051     1044     1034 
    1008     1003     1031     1058     1054     1031     1020     1038 
    1077     1128     1196     1259     1291     1286     1275     1279 
    1291     1302     1318     1336     1331     1304     1271     1244 
    1223     1201     1185     1179     1156     1105     1057     1019 
     970      911      858      831      832      853      892      966 
    1065     1148     1206     1254     1293     1321     1331     1340 
    1362     1397     1431     1432     1398     1371     1370     1378 
    1389     1401     1406     1408     1409     1406     1416     1455 
    1509     1540     1526     1480     1448     1432     1393     1352 
    1362     1395     1389     1344     1306     1275     1223     1154 
    1078     1013     1003     1035     1040     1011     1021     1080 
    1111     1116     1138     1156     1159     1162     1144     1077 
     976      884      837      850      927     1020     1059     1017 
     918      807      734      715      718      719      727      760 
     812      873      928      977     1016     1032     1047     1075 
    1111     1146     1174     1186     1192     1178     1131     1081 
    1051     1004      947      923      913      889      846      795 
     762      751      739      735      746      747      754      789 
     851      931     1007     1040     1026      996      989     1017 
    1081     1166     1235     1269     1279     1282     1289     1312 
    1337     1354     1374     1379     1347     1325     1335     1328 
    1287     1225     1175     1185     1239     1278     1277     1233 
    1162     1082     1011      954      899      838      772      702 
     638      611      626      660      685      706      747      827 
     928     1019     1084     1108     1092     1074     1073     1077 
    1093     1125     1150     1155     1155     1131     1062     1003 
    1011     1057     1093     1121     1148     1175     1206     1240 
    1277     1320     1339     1327     1305     1274     1246     1236 
    1225     1213     1208     1196     1181     1162     1116     1038 
     958      918      935      988     1030     1036     1050     1107 
    1177     1244     1335     1428     1467     1453     1435     1428 
    1414     1379     1324     1254     1181     1132     1117     1111 
    1088     1062     1065     1093     1105     1067     1009      980 
     982      997     1024     1053     1034      949      858      824 
     850      885      896      897      908      918      930      963 
    1030     1094     1100     1038      957      892      853      831 
     822      818      787      737      706      700      714      750 
     800      843      877      911      965     1039     1092     1084 
    1044     1019      988      893      760      702      757      853 
     946     1034     1088     1089     1067     1075     1116     1142 
    1123     1075     1027      993      980      985      993      989 
     965      932      943     1005     1059     1086     1119     1155 
    1163     1131     1065      985      915      876      893      943 
     978     1012     1078     1151     1189     1178     1132     1082 
    1058     1070     1119     1175     1190     1166     1161     1185 
    1196     1188     1193     1236     1306     1374     1421     1478 
    1560     1610     1602     1593     1629     1688     1738     1783 
    1817     1810     1768     1742     1753     1780     1809     1829 
    1837     1837     1810     1734     1634     1570     1566     1602 
    1649     1674     1655     1595     1526     1494     1509     1541 
    1560     1548     1514     1455     1366     1287     1256     1243 
    1212     1167     1124     1082     1047     1042     1081     1131 
    1136     1088     1031     1023     1042     1036     1007      996 
    1036     1119     1215     1290     1329     1345     1352     1333 
    1289     1251     1232     1212     1161     1063      928      800 
     724      706      703      706      741      789      808      805 
     818      858      918      950      934      911      928      984 
    1054     1115     1151     1167     1208     1294     1382     1436 
    1460     1436     1355     1273     1262     1340     1429     1441 
    1358     1239     1169     1173     1201     1223     1239     1229 
    1200     1179     1192     1251     1344     1425     1453     1432 
    1394     1356     1332     1328     1329     1336     1367     1377 
    1320     1223     1124     1032      949      873      823      819 
     827      789      726      695      700      697      676      675 
     683      652      602      588      602      642      714      765 
     756      741      776      847      911      955      997     1042 
    1071     1084     1104     1139     1150     1132     1138     1179 
    1205     1182     1124     1062     1005      943      901      885 
     843      769      729      766      853      899      870      815 
     778      791      877     1028     1182     1285     1344     1409 
    1474     1509     1524     1545     1584     1607     1575     1497 
    1398     1286     1177     1102     1082     1081     1043      982 
     939      926      943      988     1050     1097     1101     1074 
    1055     1030      969      905      881      878      877      897 
     953     1026     1098     1162     1220     1263     1286     1324 
    1406     1516     1605     1630     1615     1609     1617     1625 
    1649     1675     1668     1642     1633     1641     1656     1665 
    1628     1528     1402     1301     1263     1309     1401     1447 
    1405     1332     1269     1213     1174     1148     1121     1111 
    1139     1193     1242     1282     1328     1344     1298     1232 
    1196     1188     1194     1204     1201     1189     1175     1170 
    1196     1243     1270     1263     1248     1244     1232     1198 
    1171     1173     1200     1255     1331     1391     1416     1413 
    1410     1399     1340     1229     1108     1015      976      992 
    1026     1051     1070     1063     1032     1015     1001      945 
     858      781      729      706      699      697      715      745 
     757      742      727      747      780      781      765      754 
     727      685      653      621      595      598      608      606 
     616      654      702      753      815      878      923      945 
     962      989      997      972      973     1038     1112     1148 
    1173     1210     1266     1318     1327     1309     1309     1310 
    1309     1314     1325     1321     1270     1182     1121     1101 
    1067      997      915      835      742      650      612      643 
     726      828      943     1061     1142     1201     1305     1439 
    1530     1559     1560     1561     1549     1525     1522     1559 
    1598     1610     1625     1653     1656     1618     1570     1517 
    1479     1468     1451     1413     1370     1329     1308     1323 
    1341     1327     1269     1204     1171     1165     1171     1186 
    1175     1121     1035      951      891      842      812      797 
     780      765      768      783      804      832      846      843 
     842      822      753      641      521      430      383      349 
     291      226      198      190      171      162      184      234 
     288      332      367      395      414      442      492      545 
     585      626      660      684      722      777      820      820 
     797      777      777      812      874      954     1050     1140 
    1178     1169     1161     1163     1148     1119     1105     1123 
    1129     1109     1100     1107     1101     1098     1113     1152 
    1206     1244     1274     1343     1420     1439     1421     1437 
    1490     1561     1644     1719     1760     1761     1756     1775 
    1796     1796     1779     1769     1773     1779     1784     1802 
    1819     1819     1802     1783     1784     1795     1786     1775 
    1792     1844     1921     1996     2035     2056     2074     2088 
    2092     2073     2004     1910     1838     1782     1733     1711 
    1687     1634     1566     1497     1431     1366     1297     1210 
    1113     1034      977      919      851      789      733      677 
     643      646      662      684      712      733      735      730 
     718      680      627      583      554      558      589      622 
     658      712      762      792      818      850      888      927 
     954      955      938      934      954      972      980     1005 
    1062     1128     1181     1213     1239     1277     1327     1374 
    1413     1436     1439     1435     1431     1413     1394     1397 
    1394     1358     1329     1328     1321     1297     1251     1190 
    1132     1080     1038     1020      989      924      849      772 
     708      672      643      618      604      596      614      658 
     696      714      720      710      706      753      826      857 
     823      750      696      670      643      630      645      648 
     637      649      684      724      761      781      784      799 
     839      899      969     1038     1115     1197     1266     1323 
    1389     1472     1559     1620     1638     1620     1579     1541 
    1525     1528     1533     1540     1526     1463     1371     1304 
    1252     1171     1094     1088     1120     1116     1094     1108 
    1135     1135     1112     1102     1136     1177     1173     1146 
    1156     1201     1246     1283     1305     1290     1251     1219 
    1204     1210     1237     1274     1308     1348     1372     1359 
    1362     1433     1528     1588     1625     1657     1661     1607 
    1537     1491     1441     1368     1302     1262     1247     1244 
    1237     1227     1227     1246     1270     1275     1279     1310 
    1343     1345     1328     1309     1302     1314     1340     1382 
    1441     1499     1534     1545     1539     1540     1580     1636 
    1656     1632     1576     1505     1432     1358     1256     1131 
    1024      954      895      857      881      934      958      976 
    1019     1077     1132     1162     1151     1125     1117     1115 
    1096     1067     1047     1024     1004      999      986      953 
     911      851      769      696      658      656      668      653 
     608      540      450      375      336      324      326      353 
     419      517      619      719      796      842      888      959 
    1038     1124     1227     1325     1397     1443     1475     1503 
    1524     1545     1557     1534     1495     1487     1525     1582 
    1620     1624     1611     1609     1624     1630     1610     1576 
    1541     1514     1509     1514     1517     1516     1507     1493 
    1490     1502     1503     1479     1445     1429     1447     1485 
    1532     1578     1579     1539     1506     1506     1513     1494 
    1449     1391     1317     1236     1171     1128     1066      954 
     824      726      673      656      670      703      737      766 
     791      799      803      820      864      942     1026     1073 
    1089     1098     1121     1173     1223     1233     1217     1206 
    1205     1216     1250     1287     1287     1258     1228     1202 
    1171     1143     1125     1116     1098     1054      985      908 
     835      765      693      631      592      565      526      477 
     454      471      519      579      615      616      595      575 
     580      606      619      595      554      535      557      616 
     684      739      804      885      940      940      896      828 
     774      756      747      739      756      787      807      827 
     869      911      926      916      907      911      939     1000 
    1074     1134     1182     1228     1259     1277     1306     1337 
    1341     1341     1389     1480     1571     1634     1664     1656 
    1622     1611     1637     1667     1676     1684     1695     1684 
    1656     1629     1610     1602     1586     1536     1472     1428 
    1378     1301     1235     1206     1186     1156     1132     1108 
    1073     1020      955      904      893      897      900      920 
     945      954      954      935      886      824      757      696 
     654      626      592      549      506      465      448      475 
     513      527      513      494      515      572      631      689 
     746      807      886      981     1077     1179     1296     1405 
    1474     1517     1568     1641     1710     1737     1723     1705 
    1707     1718     1725     1736     1726     1671     1593     1509 
    1402     1266     1120      988      878      803      773      780 
     787      772      749      730      718      710      683      635 
     580      506      437      396      356      299      253      257 
     310      380      453      514      569      649      745      823 
     878      928      986     1038     1055     1054     1051     1051 
    1062     1080     1107     1147     1189     1232     1281     1316 
    1314     1290     1263     1247     1228     1178     1102     1028 
     977      957      967     1016     1084     1129     1151     1181 
    1239     1324     1420     1502     1568     1629     1694     1764 
    1846     1925     1988     2047     2087     2095     2091     2080 
    2049     1998     1944     1918     1937     1965     1961     1911 
    1838     1772     1705     1614     1499     1371     1231     1085 
     969      918      928      959      982     1007     1048     1108 
    1177     1228     1254     1279     1312     1331     1327     1296 
    1251     1221     1223     1247     1283     1313     1331     1339 
    1343     1348     1379     1429     1462     1464     1455     1437 
    1410     1378     1317     1232     1163     1125     1098     1069 
    1038     1007      972      945      938      940      918      869 
     823      783      739      707      692      669      633      618 
     648      708      791      881      958     1020     1081     1134 
    1174     1200     1202     1194     1193     1186     1155     1117 
    1082     1030      970      934      915      903      888      865 
     849      859      881      895      904      905      891      876 
     885      922      970     1005     1031     1077     1140     1198 
    1231     1229     1210     1217     1236     1227     1202     1186 
    1163     1128     1081     1035      985      916      834      754 
     689      645      621      611      615      630      625      585 
     549      552      588      637      693      751      799      827 
     845      866      901      931      932      916      905      913 
     935      954      940      895      845      815      801      803 
     808      789      750      715      688      677      692      704 
     697      683      665      643      631      631      631      637 
     668      724      776      807      839      903      992     1075 
    1134     1167     1183     1186     1192     1223     1279     1336 
    1381     1433     1497     1553     1615     1692     1768     1815 
    1830     1829     1844     1881     1915     1926     1926     1935 
    1950     1958     1958     1957     1946     1908     1853     1804 
    1764     1713     1641     1553     1452     1354     1269     1183 
    1090      993      893      797      719      668      637      614 
     585      565      575      614      672      738      803      858 
     899      924      959     1020     1081     1120     1148     1169 
    1161     1139     1132     1138     1143     1150     1161     1169 
    1179     1190     1198     1215     1227     1212     1173     1143 
    1134     1146     1174     1194     1201     1202     1188     1156 
    1135     1127     1115     1094     1073     1059     1066     1096 
    1146     1196     1216     1210     1204     1202     1208     1204 
    1173     1139     1125     1129     1154     1193     1231     1258 
    1274     1290     1305     1324     1350     1372     1360     1308 
    1252     1216     1179     1127     1063     1013      993      988 
     966      924      876      830      797      772      750      729 
     700      670      664      693      747      803      855      900 
     935      973     1023     1077     1142     1219     1301     1389 
    1466     1514     1536     1543     1536     1513     1485     1460 
    1444     1432     1410     1377     1344     1314     1267     1215 
    1179     1161     1146     1136     1138     1131     1111     1081 
    1058     1047     1044     1030     1016     1021     1032     1036 
    1042     1051     1059     1070     1082     1090     1086     1074 
    1075     1098     1119     1120     1134     1167     1201     1225 
    1244     1266     1296     1325     1347     1363     1364     1354 
    1345     1337     1332     1335     1344     1362     1393     1428 
    1451     1466     1478     1483     1480     1479     1476     1475 
    1468     1444     1404     1351     1289     1239     1210     1192 
    1171     1148     1119     1085     1063     1074     1107     1139 
    1155     1148     1123     1100     1088     1077     1067     1069 
    1078     1082     1084     1086     1082     1078     1101     1138 
    1166     1190     1209     1220     1235     1254     1270     1278 
    1270     1244     1212     1183     1151     1112     1055      977 
     896      832      774      710      648      603      581      577 
     591      616      637      645      648      665      712      772 
     818      851      889      930      963      985      994     1007 
    1038     1075     1100     1121     1144     1152     1139     1119 
    1098     1077     1050     1015      988      981      996     1021 
    1044     1061     1066     1057     1036     1016     1004      993 
     980      969      954      930      899      880      881      892 
     909      931      947      977     1034     1104     1177     1247 
    1305     1367     1433     1490     1543     1593     1621     1629 
    1621     1593     1559     1530     1493     1432     1352     1267 
    1193     1138     1096     1058     1024      994      962      927 
     889      853      823      805      795      781      774      774 
     770      773      791      805      801      791      789      801 
     826      862      905      935      936      920      915      927 
     934      918      899      900      912      912      915      931 
     942      943      947      959      973      988     1000     1013 
    1028     1038     1043     1039     1021     1001      996      994 
     980      951      922      905      907      904      889      876 
     870      865      864      876      891      900      912      935 
     962      992     1027     1067     1096     1113     1132     1148 
    1151     1147     1151     1166     1177     1182     1198     1225 
    1255     1293     1327     1347     1362     1381     1412     1458 
    1498     1510     1491     1453     1420     1412     1417     1401 
