Origin Time       2025/01/13 21:19:00
Lat.              31.8
Long.             131.6
Depth. (km)       30
Mag.              6.9
Station Code      YMGH07
Station Lat.      34.1149
Station Long.     131.0506
Station Height(m) -170
Record Time       2025/01/13 21:20:19
Sampling Freq(Hz) 100Hz
Duration Time(s)  138
Dir.              3
Scale Factor      3923(gal)/8224838
Max. Acc. (gal)   0.606
Last Correction   2025/01/13 21:20:20
Memo.             
[...]
  -37500   -37524   -37547   -37569   -37582   -37592   -37597   -37596 
  -37586   -37571   -37552   -37535   -37520   -37509   -37496   -37481 
  -37474   -37474   -37477   -37488   -37507   -37527   -37548   -37573 
  -37593   -37606   -37621   -37639   -37655   -37677   -37704   -37728 
  -37748   -37767   -37783   -37798   -37809   -37818   -37829   -37841 
  -37852   -37862   -37871   -37879   -37883   -37890   -37899   -37912 
  -37925   -37941   -37960   -37972   -37978   -37989   -37994   -37991 
  -37989   -37983   -37974   -37962   -37948   -37930   -37913   -37897 
  -37875   -37849   -37831   -37813   -37791   -37770   -37744   -37712 
  -37681   -37646   -37601   -37554   -37504   -37451   -37396   -37345 
  -37293   -37239   -37184   -37126   -37065   -37008   -36957   -36910 
  -36861   -36815   -36776   -36744   -36720   -36703   -36695   -36687 
  -36678   -36668   -36657   -36644   -36630   -36618   -36614   -36618 
  -36633   -36660   -36699   -36749   -36809   -36872   -36940   -37004 
  -37066   -37133   -37195   -37246   -37295   -37341   -37377   -37411 
  -37446   -37480   -37511   -37539   -37567   -37594   -37621   -37655 
  -37696   -37732   -37770   -37809   -37841   -37864   -37882   -37895 
  -37903   -37913   -37920   -37922   -37921   -37917   -37908   -37899 
  -37891   -37874   -37851   -37829   -37808   -37786   -37764   -37746 
  -37737   -37735   -37725   -37714   -37709   -37700   -37689   -37678 
  -37669   -37667   -37669   -37671   -37675   -37686   -37700   -37716 
  -37729   -37743   -37755   -37763   -37764   -37760   -37755   -37746 
  -37728   -37702   -37675   -37647   -37617   -37594   -37575   -37554 
  -37534   -37513   -37490   -37467   -37439   -37415   -37396   -37376 
  -37354   -37330   -37301   -37277   -37254   -37228   -37203   -37183 
  -37162   -37141   -37123   -37110   -37096   -37088   -37087   -37084 
  -37076   -37060   -37039   -37022   -37000   -36976   -36964   -36950 
  -36929   -36917   -36906   -36890   -36880   -36877   -36877   -36891 
  -36909   -36926   -36949   -36975   -36996   -37025   -37056   -37079 
  -37102   -37126   -37143   -37162   -37183   -37200   -37214   -37228 
  -37242   -37260   -37277   -37292   -37309   -37328   -37351   -37373 
  -37392   -37412   -37431   -37451   -37476   -37501   -37536   -37584 
  -37632   -37678   -37731   -37787   -37841   -37891   -37936   -37976 
  -38016   -38048   -38076   -38113   -38155   -38192   -38227   -38259 
  -38283   -38300   -38319   -38337   -38348   -38353   -38357   -38348 
  -38327   -38306   -38283   -38256   -38229   -38199   -38169   -38142 
  -38119   -38099   -38079   -38059   -38038   -38010   -37983   -37959 
  -37930   -37894   -37852   -37805   -37756   -37705   -37650   -37592 
  -37535   -37474   -37413   -37357   -37301   -37254   -37215   -37176 
  -37145   -37119   -37088   -37056   -37025   -37000   -36984   -36977 
  -36976   -36983   -36995   -37014   -37034   -37058   -37085   -37110 
  -37134   -37161   -37192   -37220   -37246   -37274   -37308   -37339 
  -37373   -37408   -37436   -37463   -37493   -37519   -37538   -37554 
  -37565   -37566   -37559   -37540   -37515   -37488   -37455   -37419 
  -37390   -37369   -37349   -37331   -37316   -37304   -37301   -37308 
  -37320   -37335   -37358   -37389   -37426   -37459   -37486   -37509 
  -37525   -37536   -37547   -37562   -37582   -37606   -37633   -37662 
  -37685   -37704   -37716   -37719   -37712   -37705   -37700   -37696 
  -37694   -37689   -37670   -37640   -37602   -37562   -37519   -37477 
  -37435   -37388   -37332   -37277   -37222   -37162   -37106   -37048 
  -36988   -36930   -36871   -36814   -36763   -36720   -36688   -36667 
  -36655   -36649   -36648   -36652   -36659   -36670   -36683   -36697 
  -36715   -36737   -36759   -36779   -36795   -36803   -36810   -36822 
  -36836   -36859   -36898   -36941   -36987   -37035   -37080   -37119 
  -37156   -37188   -37212   -37237   -37264   -37291   -37316   -37334 
  -37342   -37342   -37331   -37311   -37282   -37254   -37224   -37195 
  -37173   -37162   -37153   -37143   -37131   -37118   -37108   -37106 
  -37103   -37093   -37079   -37066   -37057   -37048   -37045   -37048 
  -37057   -37081   -37111   -37143   -37187   -37239   -37300   -37368 
  -37440   -37516   -37593   -37666   -37739   -37814   -37887   -37959 
  -38028   -38090   -38148   -38202   -38246   -38283   -38314   -38335 
  -38352   -38372   -38391   -38402   -38406   -38400   -38387   -38367 
  -38346   -38329   -38311   -38298   -38288   -38281   -38273   -38260 
  -38246   -38229   -38210   -38187   -38164   -38141   -38117   -38092 
  -38074   -38057   -38037   -38013   -37986   -37955   -37922   -37893 
  -37864   -37837   -37814   -37787   -37752   -37719   -37683   -37647 
  -37611   -37574   -37538   -37504   -37476   -37450   -37427   -37405 
  -37390   -37382   -37380   -37385   -37397   -37415   -37435   -37458 
  -37484   -37511   -37532   -37548   -37561   -37570   -37575   -37584 
  -37593   -37598   -37602   -37608   -37611   -37609   -37602   -37594 
  -37590   -37585   -37578   -37570   -37562   -37551   -37540   -37535 
  -37532   -37531   -37538   -37547   -37555   -37569   -37584   -37598 
  -37616   -37632   -37646   -37663   -37679   -37694   -37702   -37700 
  -37693   -37687   -37671   -37652   -37633   -37605   -37575   -37544 
  -37505   -37465   -37420   -37372   -37320   -37264   -37207   -37145 
  -37075   -37008   -36944   -36877   -36822   -36774   -36726   -36684 
  -36645   -36601   -36559   -36521   -36487   -36463   -36440   -36414 
  -36393   -36373   -36350   -36325   -36302   -36288   -36277   -36269 
  -36269   -36282   -36306   -36340   -36387   -36444   -36502   -36562 
  -36633   -36711   -36788   -36863   -36936   -37004   -37069   -37129 
  -37176   -37224   -37274   -37320   -37362   -37400   -37434   -37461 
  -37485   -37511   -37531   -37546   -37563   -37582   -37605   -37631 
  -37651   -37671   -37694   -37713   -37728   -37744   -37755   -37767 
  -37779   -37783   -37786   -37791   -37793   -37789   -37786   -37782 
  -37775   -37767   -37759   -37754   -37750   -37747   -37748   -37755 
  -37759   -37764   -37770   -37775   -37789   -37808   -37828   -37856 
  -37885   -37910   -37937   -37957   -37968   -37974   -37974   -37966 
  -37945   -37916   -37879   -37836   -37790   -37747   -37713   -37679 
  -37643   -37606   -37563   -37515   -37462   -37404   -37345   -37284 
  -37219   -37152   -37085   -37017   -36946   -36883   -36822   -36760 
  -36706   -36667   -36633   -36607   -36602   -36613   -36636   -36671 
  -36718   -36774   -36834   -36895   -36960   -37027   -37093   -37164 
  -37243   -37323   -37401   -37481   -37558   -37632   -37702   -37768 
  -37828   -37881   -37928   -37966   -37991   -38010   -38021   -38026 
  -38030   -38032   -38028   -38014   -37995   -37972   -37944   -37912 
  -37878   -37843   -37806   -37770   -37727   -37685   -37644   -37602 
  -37559   -37520   -37482   -37451   -37428   -37409   -37393   -37382 
  -37376   -37366   -37353   -37343   -37335   -37328   -37327   -37326 
  -37323   -37318   -37312   -37312   -37315   -37319   -37334   -37350 
  -37368   -37393   -37427   -37461   -37497   -37535   -37573   -37609 
  -37639   -37658   -37674   -37690   -37701   -37705   -37704   -37700 
  -37692   -37678   -37665   -37655   -37646   -37636   -37631   -37625 
  -37620   -37616   -37617   -37617   -37621   -37629   -37638   -37646 
  -37655   -37671   -37689   -37708   -37728   -37744   -37755   -37763 
  -37764   -37755   -37741   -37725   -37697   -37659   -37631   -37597 
  -37558   -37524   -37489   -37451   -37415   -37373   -37332   -37293 
  -37253   -37215   -37176   -37137   -37106   -37081   -37056   -37031 
  -37012   -36998   -36979   -36957   -36940   -36931   -36927   -36922 
  -36917   -36913   -36907   -36903   -36906   -36909   -36918   -36934 
  -36949   -36971   -36998   -37021   -37039   -37058   -37073   -37083 
  -37089   -37087   -37072   -37056   -37038   -37017   -36999   -36984 
  -36967   -36948   -36937   -36933   -36934   -36941   -36952   -36964 
  -36980   -36998   -37012   -37033   -37062   -37093   -37131   -37184 
  -37242   -37307   -37378   -37447   -37509   -37567   -37624   -37674 
  -37713   -37747   -37771   -37786   -37790   -37786   -37773   -37750 
  -37719   -37681   -37642   -37604   -37566   -37528   -37493   -37457 
  -37420   -37386   -37354   -37322   -37297   -37281   -37269   -37262 
  -37257   -37253   -37251   -37251   -37255   -37262   -37272   -37282 
  -37295   -37300   -37303   -37301   -37299   -37301   -37307   -37314 
  -37326   -37339   -37351   -37368   -37381   -37388   -37399   -37415 
  -37432   -37453   -37474   -37500   -37535   -37570   -37606   -37648 
  -37694   -37743   -37793   -37836   -37875   -37914   -37953   -37994 
  -38037   -38083   -38130   -38180   -38227   -38264   -38295   -38313 
  -38321   -38321   -38310   -38291   -38267   -38238   -38207   -38173 
  -38134   -38090   -38048   -38006   -37963   -37924   -37887   -37854 
  -37825   -37800   -37771   -37744   -37712   -37677   -37642   -37608 
  -37579   -37555   -37534   -37515   -37498   -37485   -37477   -37469 
  -37454   -37438   -37419   -37393   -37366   -37338   -37299   -37258 
  -37218   -37169   -37120   -37073   -37018   -36964   -36915   -36871 
  -36836   -36809   -36788   -36776   -36771   -36771   -36779   -36791 
  -36806   -36830   -36863   -36902   -36950   -37007   -37069   -37133 
  -37188   -37239   -37285   -37324   -37359   -37397   -37435   -37473 
  -37515   -37557   -37596   -37631   -37659   -37682   -37706   -37729 
  -37750   -37766   -37779   -37793   -37805   -37810   -37813   -37814 
  -37816   -37818   -37825   -37837   -37849   -37863   -37875   -37886 
  -37899   -37909   -37921   -37936   -37943   -37953   -37967   -37967 
  -37967   -37976   -37978   -37975   -37972   -37968   -37960   -37951 
  -37940   -37930   -37918   -37901   -37878   -37848   -37812   -37768 
  -37720   -37663   -37600   -37536   -37470   -37407   -37346   -37280 
  -37215   -37150   -37083   -37021   -36961   -36896   -36834   -36776 
  -36718   -36664   -36620   -36580   -36551   -36528   -36510   -36502 
  -36502   -36510   -36531   -36562   -36594   -36639   -36697   -36755 
  -36810   -36867   -36927   -36988   -37045   -37100   -37156   -37211 
  -37269   -37322   -37370   -37420   -37466   -37504   -37540   -37574 
  -37598   -37624   -37646   -37658   -37669   -37677   -37681   -37683 
  -37683   -37683   -37686   -37694   -37701   -37710   -37728   -37751 
  -37778   -37809   -37839   -37868   -37897   -37924   -37949   -37972 
  -37998   -38018   -38034   -38055   -38074   -38086   -38099   -38110 
  -38115   -38121   -38122   -38114   -38103   -38087   -38064   -38032 
  -37998   -37959   -37914   -37871   -37831   -37790   -37744   -37697 
  -37650   -37602   -37557   -37511   -37470   -37438   -37413   -37395 
  -37380   -37373   -37377   -37390   -37408   -37431   -37459   -37490 
  -37528   -37573   -37617   -37663   -37714   -37767   -37818   -37875 
  -37933   -37989   -38047   -38106   -38164   -38221   -38272   -38318 
  -38358   -38391   -38416   -38435   -38448   -38448   -38435   -38412 
  -38376   -38327   -38264   -38191   -38117   -38037   -37951   -37867 
  -37786   -37700   -37616   -37536   -37458   -37380   -37300   -37219 
  -37139   -37060   -36987   -36915   -36852   -36799   -36753   -36715 
  -36688   -36671   -36657   -36653   -36653   -36656   -36661   -36671 
  -36679   -36686   -36694   -36702   -36710   -36718   -36734   -36757 
  -36780   -36809   -36844   -36876   -36909   -36944   -36979   -37015 
  -37060   -37110   -37160   -37208   -37257   -37303   -37346   -37385 
  -37420   -37450   -37481   -37508   -37534   -37558   -37581   -37602 
  -37621   -37636   -37646   -37648   -37648   -37640   -37631   -37624 
  -37611   -37593   -37578   -37559   -37534   -37512   -37490   -37466 
  -37440   -37416   -37393   -37370   -37349   -37324   -37303   -37282 
  -37264   -37243   -37231   -37226   -37223   -37230   -37249   -37269 
  -37296   -37328   -37361   -37397   -37439   -37482   -37524   -37563 
  -37606   -37652   -37692   -37725   -37758   -37783   -37804   -37824 
  -37841   -37851   -37852   -37855   -37855   -37844   -37829   -37814 
  -37804   -37789   -37770   -37759   -37750   -37736   -37717   -37697 
  -37679   -37658   -37631   -37605   -37577   -37546   -37517   -37489 
  -37457   -37423   -37392   -37361   -37327   -37296   -37265   -37231 
  -37196   -37166   -37141   -37111   -37089   -37081   -37068   -37060 
  -37068   -37083   -37104   -37137   -37170   -37208   -37253   -37296 
  -37338   -37385   -37432   -37474   -37515   -37561   -37609   -37652 
  -37698   -37741   -37771   -37794   -37814   -37827   -37829   -37827 
  -37818   -37808   -37793   -37771   -37741   -37705   -37666   -37620 
  -37574   -37525   -37476   -37430   -37382   -37339   -37300   -37260 
  -37218   -37181   -37149   -37118   -37092   -37073   -37058   -37049 
  -37045   -37045   -37049   -37062   -37079   -37095   -37118   -37146 
  -37170   -37197   -37233   -37270   -37301   -37335   -37372   -37411 
  -37457   -37503   -37547   -37600   -37654   -37704   -37750   -37795 
  -37839   -37883   -37930   -37974   -38013   -38056   -38103   -38144 
  -38183   -38226   -38269   -38307   -38346   -38385   -38427   -38473 
  -38518   -38556   -38591   -38623   -38650   -38668   -38686   -38703 
  -38715   -38726   -38731   -38728   -38716   -38696   -38666   -38630 
  -38587   -38537   -38483   -38423   -38358   -38288   -38214   -38137 
  -38060   -37983   -37909   -37841   -37779   -37714   -37650   -37594 
  -37538   -37477   -37420   -37362   -37299   -37241   -37183   -37119 
  -37057   -36995   -36931   -36872   -36815   -36764   -36717   -36672 
  -36634   -36602   -36572   -36545   -36521   -36501   -36490   -36485 
  -36486   -36493   -36504   -36521   -36547   -36572   -36595   -36624 
  -36661   -36697   -36730   -36768   -36806   -36842   -36876   -36911 
  -36944   -36968   -36992   -37015   -37027   -37033   -37035   -37033 
  -37021   -37003   -36985   -36960   -36927   -36898   -36869   -36841 
  -36809   -36780   -36759   -36738   -36722   -36714   -36707   -36706 
  -36724   -36748   -36767   -36798   -36838   -36875   -36911   -36953 
  -36996   -37044   -37096   -37153   -37212   -37269   -37328   -37384 
  -37427   -37467   -37501   -37523   -37539   -37552   -37552   -37546 
  -37540   -37527   -37505   -37480   -37450   -37416   -37381   -37345 
  -37307   -37272   -37231   -37192   -37164   -37138   -37110   -37091 
  -37080   -37076   -37083   -37095   -37111   -37131   -37164   -37200 
  -37237   -37278   -37327   -37374   -37422   -37470   -37513   -37558 
  -37602   -37643   -37683   -37725   -37762   -37798   -37839   -37875 
  -37899   -37928   -37959   -37979   -37997   -38016   -38033   -38051 
  -38065   -38079   -38091   -38101   -38111   -38124   -38136   -38148 
  -38161   -38176   -38194   -38209   -38219   -38232   -38242   -38256 
  -38275   -38294   -38317   -38344   -38372   -38394   -38412   -38438 
  -38460   -38475   -38488   -38496   -38495   -38487   -38477   -38465 
  -38453   -38445   -38435   -38426   -38416   -38404   -38385   -38368 
  -38344   -38313   -38284   -38256   -38218   -38182   -38142   -38091 
  -38026   -37960   -37897   -37828   -37755   -37685   -37619   -37559 
  -37504   -37450   -37401   -37354   -37305   -37261   -37218   -37172 
  -37131   -37098   -37064   -37034   -37015   -36998   -36977   -36964 
  -36960   -36954   -36946   -36944   -36940   -36931   -36921   -36910 
  -36899   -36888   -36884   -36884   -36883   -36883   -36891   -36907 
  -36925   -36945   -36969   -36996   -37027   -37065   -37107   -37154 
  -37208   -37268   -37330   -37393   -37458   -37527   -37592   -37655 
  -37721   -37781   -37833   -37887   -37937   -37979   -38017   -38053 
  -38092   -38124   -38148   -38175   -38195   -38205   -38211   -38214 
  -38209   -38199   -38186   -38164   -38134   -38103   -38072   -38036 
  -37998   -37957   -37917   -37876   -37836   -37798   -37760   -37723 
  -37683   -37646   -37608   -37569   -37531   -37498   -37467   -37438 
  -37404   -37376   -37349   -37314   -37274   -37235   -37196   -37160 
  -37127   -37099   -37075   -37056   -37035   -37014   -36992   -36973 
  -36961   -36946   -36936   -36930   -36927   -36927   -36930   -36931 
  -36933   -36936   -36940   -36944   -36942   -36941   -36945   -36945 
  -36945   -36954   -36964   -36972   -36984   -36998   -37011   -37029 
  -37045   -37056   -37062   -37072   -37081   -37091   -37104   -37116 
  -37130   -37149   -37168   -37189   -37216   -37247   -37282   -37323 
  -37363   -37405   -37453   -37500   -37542   -37581   -37620   -37656 
  -37689   -37721   -37755   -37794   -37831   -37864   -37895   -37926 
  -37949   -37970   -37987   -38001   -38011   -38017   -38021   -38025 
  -38024   -38020   -38018   -38017   -38016   -38013   -38009   -38011 
  -38016   -38018   -38021   -38024   -38028   -38033   -38037   -38045 
  -38057   -38065   -38074   -38082   -38086   -38087   -38086   -38079 
  -38064   -38045   -38026   -38006   -37982   -37952   -37916   -37876 
  -37836   -37794   -37751   -37701   -37652   -37608   -37565   -37524 
  -37486   -37449   -37411   -37368   -37324   -37284   -37241   -37195 
  -37157   -37126   -37095   -37064   -37034   -37004   -36975   -36944 
  -36917   -36895   -36875   -36859   -36849   -36845   -36844   -36848 
  -36855   -36867   -36882   -36896   -36914   -36937   -36961   -36983 
  -37004   -37025   -37045   -37065   -37087   -37110   -37130   -37149 
  -37173   -37195   -37211   -37231   -37255   -37280   -37304   -37328 
  -37349   -37363   -37376   -37388   -37396   -37401   -37404   -37403 
  -37395   -37385   -37374   -37363   -37350   -37336   -37323   -37308 
  -37293   -37278   -37268   -37255   -37239   -37220   -37206   -37191 
  -37174   -37158   -37149   -37139   -37127   -37115   -37104   -37088 
  -37071   -37056   -37037   -37015   -36991   -36964   -36940   -36917 
  -36900   -36888   -36877   -36871   -36871   -36876   -36884   -36894 
  -36902   -36911   -36925   -36941   -36960   -36979   -36998   -37014 
  -37033   -37057   -37080   -37104   -37130   -37156   -37181   -37208 
  -37227   -37242   -37260   -37269   -37273   -37278   -37280   -37278 
  -37276   -37273   -37270   -37266   -37258   -37245   -37231   -37220 
  -37210   -37192   -37170   -37149   -37127   -37103   -37079   -37056 
  -37035   -37025   -37021   -37018   -37025   -37042   -37061   -37087 
  -37119   -37157   -37200   -37246   -37291   -37341   -37390   -37438 
  -37485   -37531   -37575   -37619   -37660   -37700   -37739   -37782 
  -37822   -37858   -37891   -37926   -37956   -37979   -37994   -38002 
  -38006   -38007   -37997   -37980   -37960   -37933   -37899   -37867 
  -37835   -37805   -37777   -37750   -37724   -37700   -37681   -37667 
  -37655   -37644   -37638   -37629   -37621   -37619   -37615   -37615 
  -37623   -37632   -37642   -37655   -37671   -37690   -37708   -37727 
  -37746   -37764   -37785   -37806   -37824   -37841   -37859   -37874 
  -37886   -37899   -37912   -37926   -37939   -37945   -37948   -37951 
  -37952   -37951   -37949   -37948   -37943   -37936   -37928   -37912 
