Origin Time       2025/01/13 21:19:00
Lat.              31.8
Long.             131.6
Depth. (km)       30
Mag.              6.9
Station Code      YMGH03
Station Lat.      34.1891
Station Long.     132.1260
Station Height(m) 85
Record Time       2025/01/13 21:20:20
Sampling Freq(Hz) 100Hz
Duration Time(s)  120
Dir.              5
Scale Factor      7845(gal)/8223790
Max. Acc. (gal)   1.399
Last Correction   2025/01/13 21:20:20
Memo.             
[...]
    1983     1979     1966     1961     1962     1972     1972     1962 
    1962     1971     1991     2039     2089     2110     2130     2165 
    2182     2172     2160     2153     2149     2169     2207     2223 
    2228     2232     2235     2266     2303     2301     2277     2259 
    2273     2334     2394     2425     2463     2513     2544     2543 
    2525     2506     2488     2458     2424     2400     2365     2319 
    2286     2255     2207     2173     2178     2191     2155     2091 
    2056     2046     2030     2019     2020     2029     2033     2029 
    2026     2012     1992     2002     2031     2039     2022     2003 
    2011     2050     2083     2095     2106     2110     2106     2119 
    2128     2116     2106     2111     2116     2108     2103     2123 
    2137     2126     2120     2130     2130     2130     2143     2161 
    2168     2162     2153     2139     2119     2112     2130     2165 
    2205     2223     2222     2231     2259     2293     2297     2259 
    2208     2154     2119     2127     2169     2203     2208     2188 
    2180     2191     2192     2174     2154     2139     2120     2114 
    2143     2191     2204     2177     2141     2108     2089     2080 
    2066     2058     2068     2070     2056     2047     2056     2060 
    2061     2081     2101     2110     2116     2103     2064     2030 
    2022     2045     2100     2161     2180     2169     2180     2227 
    2281     2312     2312     2303     2293     2284     2278     2274 
    2263     2245     2208     2161     2111     2074     2077     2112 
    2154     2178     2166     2154     2180     2192     2155     2111 
    2076     2057     2064     2080     2079     2049     2019     2011 
    2020     2031     2031     2010     1980     1958     1941     1926 
    1942     2006     2077     2108     2104     2093     2091     2099 
    2110     2122     2142     2172     2203     2239     2272     2284 
    2270     2239     2209     2177     2138     2093     2035     1976 
    1944     1960     2038     2137     2184     2176     2149     2110 
    2065     2031     2016     2038     2070     2076     2062     2050 
    2056     2077     2089     2080     2072     2077     2092     2116 
    2134     2137     2154     2191     2205     2182     2153     2137 
    2120     2103     2088     2081     2093     2116     2099     2038 
    1993     1988     2002     1989     1931     1879     1888     1949 
    2010     2039     2069     2130     2191     2223     2234     2224 
    2223     2258     2304     2332     2335     2297     2254     2262 
    2297     2313     2300     2266     2223     2191     2188     2188 
    2157     2099     2047     2015     1979     1914     1844     1825 
    1864     1904     1935     1984     2041     2108     2177     2204 
    2192     2187     2211     2269     2320     2323     2299     2273 
    2262     2274     2284     2272     2242     2201     2158     2141 
    2149     2139     2107     2083     2068     2057     2069     2093 
    2084     2046     2031     2061     2119     2173     2203     2185 
    2118     2056     2033     2035     2047     2049     2026     2002 
    1984     1979     2014     2089     2153     2155     2097     2030 
    2004     2029     2049     2037     2007     1969     1934     1942 
    1998     2053     2074     2079     2083     2079     2081     2124 
    2207     2290     2350     2388     2389     2338     2268     2211 
    2180     2170     2153     2123     2092     2042     1972     1930 
    1944     1984     1998     1989     1984     1973     1966     1993 
    2037     2080     2126     2151     2138     2112     2106     2124 
    2164     2214     2238     2223     2215     2227     2242     2249 
    2219     2169     2165     2191     2180     2139     2108     2091 
    2085     2096     2133     2173     2184     2173     2139     2081 
    2052     2072     2108     2133     2142     2127     2111     2135 
    2182     2220     2285     2373     2404     2350     2304     2328 
    2363     2351     2326     2315     2296     2285     2300     2305 
    2282     2268     2290     2335     2370     2388     2397     2390 
    2361     2323     2280     2230     2188     2164     2166     2191 
    2218     2239     2261     2292     2342     2366     2335     2293 
    2280     2273     2285     2317     2308     2239     2176     2147 
    2124     2115     2134     2150     2146     2133     2118     2120 
    2131     2112     2074     2050     2068     2111     2122     2095 
    2084     2119     2177     2228     2270     2297     2303     2273 
    2207     2133     2074     2038     2025     1999     1953     1927 
    1939     1965     1983     1992     2007     2012     1984     1930 
    1863     1800     1791     1806     1775     1734     1763     1848 
    1950     2058     2116     2101     2068     2047     2018     1981 
    1956     1937     1904     1881     1917     2004     2087     2137 
    2193     2259     2280     2265     2259     2241     2200     2176 
    2170     2146     2127     2145     2154     2118     2077     2077 
    2096     2112     2135     2147     2119     2085     2089     2128 
    2169     2193     2211     2222     2208     2193     2222     2262 
    2262     2249     2251     2246     2212     2166     2122     2100 
    2120     2149     2149     2120     2079     2041     1996     1926 
    1852     1809     1804     1815     1834     1877     1946     2023 
    2106     2197     2277     2301     2282     2269     2262     2253 
    2289     2380     2470     2535     2577     2602     2609     2567 
    2462     2324     2223     2182     2151     2114     2103     2104 
    2111     2151     2188     2192     2205     2245     2276     2276 
    2265     2273     2304     2332     2332     2284     2235     2266 
    2340     2367     2334     2258     2180     2149     2158     2176 
    2185     2173     2135     2101     2088     2097     2123     2126 
    2093     2070     2064     2042     2020     2022     2049     2097 
    2134     2126     2085     2050     2042     2060     2088     2097 
    2069     2034     2014     1999     2008     2061     2115     2110 
    2069     2064     2080     2093     2115     2131     2123     2116 
    2116     2095     2042     1972     1900     1842     1818     1829 
    1837     1819     1806     1826     1877     1949     2008     1999 
    1903     1784     1707     1688     1698     1702     1722     1783 
    1849     1875     1860     1818     1771     1755     1794     1841 
    1836     1800     1799     1849     1927     1993     2015     2006 
    1987     1966     1984     2041     2093     2128     2165     2207 
    2266     2354     2417     2393     2315     2255     2232     2261 
    2332     2388     2385     2363     2380     2420     2417     2392 
    2389     2393     2392     2398     2405     2407     2430     2490 
    2563     2598     2563     2481     2412     2400     2413     2382 
    2296     2209     2182     2220     2270     2316     2373     2397 
    2369     2330     2257     2134     2039     2003     1981     1968 
    1972     2004     2069     2116     2134     2139     2118     2056 
    1973     1911     1898     1898     1860     1791     1725     1684 
    1680     1674     1633     1609     1641     1701     1756     1829 
    1910     1957     1969     1966     1953     1937     1941     1946 
    1911     1834     1777     1777     1818     1861     1875     1858 
    1842     1830     1802     1745     1668     1601     1556     1516 
    1501     1524     1567     1625     1687     1741     1802     1876 
    1969     2062     2106     2116     2138     2155     2170     2197 
    2219     2212     2172     2135     2143     2196     2284     2359 
    2358     2309     2289     2312     2361     2386     2347     2266 
    2192     2155     2151     2135     2091     2065     2087     2126 
    2166     2192     2177     2154     2142     2123     2118     2147 
    2181     2197     2208     2241     2305     2361     2396     2442 
    2481     2485     2482     2471     2436     2409     2435     2478 
    2438     2300     2193     2162     2110     2004     1885     1767 
    1653     1607     1656     1713     1707     1691     1729     1777 
    1756     1692     1692     1783     1896     1971     1998     1983 
    1937     1923     1980     2019     1993     2003     2085     2170 
    2235     2272     2263     2231     2205     2207     2224     2238 
    2263     2296     2332     2423     2551     2628     2612     2516 
    2362     2207     2118     2074     2012     1918     1863     1894 
    1954     1985     2004     2016     1993     1968     1966     1969 
    1999     2060     2080     2060     2043     2020     1980     1952 
    1987     2095     2200     2251     2280     2295     2312     2362 
    2419     2430     2401     2393     2440     2525     2601     2624 
    2602     2600     2632     2637     2590     2516     2448     2420 
    2467     2579     2671     2667     2609     2592     2620     2609 
    2521     2415     2322     2255     2253     2312     2388     2457 
    2521     2558     2531     2450     2370     2316     2258     2153 
    2010     1911     1899     1922     1939     1944     1896     1826 
    1804     1825     1853     1881     1890     1914     1989     2034 
    1980     1902     1877     1887     1896     1914     1930     1923 
    1896     1872     1853     1825     1807     1844     1907     1921 
    1875     1819     1790     1800     1848     1892     1918     1941 
    1962     1971     1958     1914     1850     1799     1784     1813 
    1887     1998     2083     2089     2058     2060     2087     2112 
    2133     2134     2114     2093     2092     2135     2247     2394 
    2489     2461     2343     2238     2203     2243     2324     2371 
    2355     2344     2408     2496     2532     2532     2531     2521 
    2497     2461     2436     2474     2571     2655     2674     2655 
    2640     2614     2574     2560     2555     2533     2516     2508 
    2524     2598     2695     2729     2683     2617     2578     2578 
    2577     2509     2394     2319     2312     2359     2452     2559 
    2648     2689     2659     2601     2581     2593     2583     2528 
    2447     2385     2377     2390     2366     2312     2268     2261 
    2288     2315     2324     2346     2419     2516     2555     2512 
    2458     2465     2488     2454     2370     2290     2254     2282 
    2351     2390     2365     2301     2228     2158     2077     1975 
    1894     1881     1906     1907     1891     1907     1981     2081 
    2133     2135     2160     2214     2259     2284     2301     2336 
    2373     2366     2308     2223     2138     2093     2106     2110 
    2026     1904     1868     1935     2030     2097     2135     2137 
    2104     2134     2266     2366     2380     2397     2430     2452 
    2490     2523     2524     2494     2427     2355     2349     2389 
    2378     2278     2173     2130     2114     2096     2096     2128 
    2138     2073     2012     2047     2112     2118     2073     2016 
    1979     1960     1944     1961     2007     1981     1865     1773 
    1752     1767     1795     1815     1814     1802     1796     1827 
    1915     1983     1946     1876     1883     1941     1961     1945 
    1926     1876     1776     1683     1614     1544     1478     1445 
    1437     1402     1340     1358     1460     1503     1441     1395 
    1425     1489     1551     1603     1651     1722     1827     1939 
    2039     2124     2197     2257     2281     2243     2169     2115 
    2114     2135     2087     1948     1838     1829     1856     1854 
    1821     1767     1730     1730     1718     1663     1598     1543 
    1479     1404     1340     1325     1356     1391     1389     1339 
    1259     1154     1013      897      868      888      892      861 
     791      723      739      862     1024     1121     1148     1189 
    1255     1296     1300     1325     1426     1566     1675     1745 
    1795     1841     1873     1890     1910     1946     1966     1968 
    1983     2000     1991     1979     2003     2050     2080     2091 
    2137     2230     2322     2376     2397     2444     2569     2702 
    2748     2727     2702     2690     2694     2721     2754     2764 
    2762     2781     2812     2813     2793     2797     2847     2907 
    2916     2874     2840     2812     2766     2740     2764     2813 
    2878     2925     2866     2735     2668     2675     2660     2587 
    2498     2430     2378     2339     2309     2261     2188     2135 
    2115     2080     2008     1912     1765     1579     1429     1324 
    1236     1162     1084     1000      895      784      737      754 
     784      823      872      908      909      893      893      893 
     872      877      919      947      950      935      922      942 
     992     1044     1104     1165     1192     1174     1158     1182 
    1228     1266     1305     1368     1455     1555     1680     1822 
    1969     2126     2278     2412     2506     2535     2516     2524 
    2579     2635     2659     2683     2744     2795     2809     2856 
    2949     3010     3003     2984     3005     3030     3034     3068 
    3127     3133     3125     3180     3261     3325     3370     3389 
    3415     3489     3572     3582     3514     3414     3330     3284 
    3275     3279     3264     3210     3121     3053     3042     3029 
    2987     2970     2976     2945     2866     2813     2816     2790 
    2695     2589     2496     2417     2374     2371     2385     2377 
    2316     2234     2176     2137     2104     2096     2110     2108 
    2066     2020     2002     1983     1929     1857     1804     1804 
    1838     1844     1800     1746     1699     1645     1607     1594 
    1563     1516     1458     1379     1309     1275     1255     1258 
    1289     1314     1333     1390     1468     1544     1630     1709 
    1750     1784     1840     1933     2027     2052     2038     2072 
    2162     2289     2412     2452     2416     2398     2469     2586 
    2663     2693     2720     2744     2770     2801     2833     2883 
    2936     2941     2891     2830     2820     2849     2841     2791 
    2743     2675     2562     2442     2344     2278     2254     2242 
    2208     2177     2153     2103     2022     1917     1767     1611 
    1522     1493     1447     1362     1285     1255     1254     1242 
    1209     1185     1200     1237     1256     1255     1254     1271 
    1339     1437     1520     1603     1705     1794     1846     1857 
    1840     1815     1795     1792     1794     1768     1738     1765 
    1844     1934     2033     2139     2216     2243     2265     2322 
    2392     2446     2485     2505     2500     2504     2552     2619 
    2624     2565     2531     2551     2573     2583     2593     2578 
    2509     2431     2417     2457     2470     2420     2330     2251 
    2220     2232     2261     2247     2170     2103     2104     2157 
    2203     2195     2128     2052     2018     2050     2141     2241 
    2295     2304     2324     2384     2469     2554     2620     2675 
    2745     2833     2916     2959     2976     3014     3048     3034 
    2999     2968     2920     2872     2847     2794     2708     2627 
    2571     2539     2508     2473     2435     2363     2282     2238 
    2227     2241     2261     2251     2215     2151     2079     2064 
    2089     2074     2031     2026     2056     2069     2068     2111 
    2191     2216     2207     2222     2214     2176     2180     2211 
    2205     2141     2026     1908     1810     1750     1732     1699 
    1624     1548     1499     1460     1413     1367     1308     1219 
    1152     1166     1233     1302     1371     1435     1449     1432 
    1456     1532     1601     1618     1587     1560     1579     1629 
    1695     1765     1807     1830     1865     1929     1999     2043 
    2057     2054     2049     2050     2084     2141     2173     2195 
    2262     2349     2415     2481     2532     2533     2516     2524 
    2560     2596     2621     2662     2725     2775     2783     2782 
    2801     2816     2799     2764     2747     2756     2803     2872 
    2911     2910     2903     2897     2894     2909     2926     2911 
    2882     2859     2818     2768     2749     2749     2713     2621 
    2517     2430     2361     2292     2174     1993     1833     1738 
    1672     1615     1567     1503     1432     1379     1343     1294 
    1224     1170     1162     1167     1152     1124     1094     1082 
    1104     1163     1246     1321     1356     1379     1437     1512 
    1552     1551     1520     1486     1489     1522     1533     1505 
    1466     1463     1505     1566     1642     1736     1809     1844 
    1871     1914     1952     1991     2054     2104     2111     2101 
    2128     2193     2234     2236     2245     2255     2255     2277 
    2330     2380     2382     2322     2254     2239     2269     2323 
    2389     2425     2404     2381     2413     2474     2524     2563 
    2613     2677     2720     2739     2751     2756     2729     2655 
    2556     2477     2435     2431     2428     2359     2253     2196 
    2178     2150     2101     2026     1939     1873     1819     1779 
    1760     1763     1787     1814     1800     1768     1782     1849 
    1907     1925     1929     1957     2023     2089     2088     2008 
    1929     1919     1952     1949     1876     1787     1732     1680 
    1613     1571     1563     1553     1533     1529     1532     1498 
    1445     1429     1449     1474     1493     1509     1530     1576 
    1667     1773     1856     1931     2016     2088     2153     2216 
    2241     2216     2168     2115     2095     2128     2178     2195 
    2177     2157     2143     2122     2103     2115     2143     2166 
    2174     2142     2065     1985     1950     1966     1998     2003 
    1977     1946     1945     1971     1966     1930     1956     2033 
    2064     2057     2068     2096     2137     2185     2218     2222 
    2227     2268     2316     2323     2295     2269     2239     2195 
    2130     2020     1890     1807     1779     1737     1665     1613 
    1615     1651     1691     1740     1799     1857     1912     1985 
    2062     2093     2088     2115     2176     2223     2265     2328 
    2370     2386     2425     2492     2566     2627     2627     2571 
    2516     2479     2448     2403     2328     2262     2253     2273 
    2253     2180     2118     2100     2088     2041     1983     1946 
    1933     1942     1964     1960     1925     1906     1922     1939 
    1926     1899     1908     1979     2065     2119     2164     2238 
    2315     2365     2427     2494     2517     2519     2519     2508 
    2506     2511     2496     2488     2471     2416     2374     2378 
    2409     2447     2455     2419     2357     2293     2261     2276 
    2308     2342     2382     2405     2413     2431     2436     2419 
    2431     2484     2494     2455     2443     2447     2417     2374 
