Origin Time       2025/01/13 21:19:00
Lat.              31.8
Long.             131.6
Depth. (km)       30
Mag.              6.9
Station Code      YMGH06
Station Lat.      33.9893
Station Long.     131.3012
Station Height(m) -120
Record Time       2025/01/13 21:20:14
Sampling Freq(Hz) 100Hz
Duration Time(s)  175
Dir.              1
Scale Factor      2942(gal)/8224139
Max. Acc. (gal)   1.252
Last Correction   2025/01/13 21:20:14
Memo.             
[...]
  -72283   -72319   -72351   -72387   -72426   -72455   -72470   -72473 
  -72462   -72434   -72407   -72370   -72318   -72269   -72219   -72166 
  -72122   -72085   -72056   -72037   -72018   -71992   -71969   -71949 
  -71918   -71890   -71865   -71837   -71810   -71783   -71767   -71766 
  -71768   -71778   -71793   -71818   -71851   -71878   -71911   -71964 
  -72009   -72041   -72081   -72122   -72144   -72162   -72184   -72196 
  -72200   -72216   -72234   -72243   -72256   -72256   -72237   -72223 
  -72216   -72203   -72193   -72192   -72189   -72187   -72189   -72195 
  -72195   -72198   -72211   -72237   -72266   -72306   -72345   -72373 
  -72380   -72364   -72335   -72300   -72265   -72237   -72214   -72204 
  -72204   -72211   -72230   -72256   -72289   -72320   -72339   -72364 
  -72393   -72419   -72451   -72477   -72496   -72522   -72544   -72559 
  -72574   -72584   -72589   -72594   -72605   -72620   -72631   -72646 
  -72661   -72671   -72688   -72686   -72673   -72663   -72635   -72584 
  -72522   -72430   -72322   -72220   -72114   -72007   -71922   -71857 
  -71797   -71730   -71689   -71668   -71651   -71645   -71655   -71671 
  -71694   -71729   -71761   -71787   -71820   -71849   -71855   -71852 
  -71852   -71851   -71847   -71837   -71828   -71825   -71822   -71805 
  -71784   -71774   -71755   -71730   -71707   -71682   -71664   -71666 
  -71664   -71671   -71697   -71726   -71764   -71805   -71853   -71913 
  -71949   -71972   -71999   -72011   -72029   -72056   -72065   -72071 
  -72080   -72084   -72088   -72092   -72092   -72095   -72103   -72115 
  -72135   -72161   -72181   -72212   -72250   -72268   -72279   -72291 
  -72289   -72284   -72287   -72287   -72279   -72268   -72250   -72229 
  -72210   -72192   -72168   -72137   -72103   -72073   -72052   -72040 
  -72037   -72049   -72065   -72085   -72114   -72137   -72153   -72165 
  -72171   -72169   -72162   -72157   -72157   -72168   -72199   -72223 
  -72231   -72253   -72272   -72277   -72283   -72284   -72284   -72293 
  -72295   -72288   -72292   -72297   -72301   -72315   -72333   -72358 
  -72389   -72418   -72447   -72465   -72474   -72484   -72476   -72462 
  -72447   -72408   -72365   -72331   -72283   -72235   -72210   -72187 
  -72177   -72187   -72195   -72211   -72239   -72260   -72281   -72304 
  -72310   -72295   -72287   -72280   -72266   -72252   -72243   -72230 
  -72220   -72227   -72241   -72249   -72264   -72285   -72300   -72307 
  -72310   -72293   -72258   -72226   -72192   -72153   -72123   -72108 
  -72102   -72106   -72108   -72114   -72138   -72168   -72199   -72231 
  -72257   -72270   -72276   -72279   -72265   -72238   -72199   -72145 
  -72085   -72023   -71969   -71936   -71911   -71898   -71911   -71933 
  -71956   -71984   -72006   -72023   -72034   -72036   -72034   -72029 
  -72018   -72006   -71991   -71980   -71980   -71975   -71963   -71945 
  -71915   -71875   -71825   -71760   -71694   -71633   -71577   -71533 
  -71513   -71506   -71520   -71562   -71614   -71674   -71739   -71794 
  -71847   -71894   -71930   -71965   -71998   -72022   -72031   -72029 
  -72022   -72002   -71972   -71948   -71921   -71891   -71869   -71856 
  -71853   -71861   -71876   -71894   -71910   -71923   -71940   -71948 
  -71961   -71972   -71965   -71955   -71933   -71890   -71848   -71809 
  -71775   -71748   -71720   -71706   -71703   -71709   -71729   -71753 
  -71776   -71807   -71840   -71868   -71901   -71941   -71977   -72007 
  -72025   -72034   -72045   -72064   -72087   -72118   -72152   -72184 
  -72215   -72242   -72273   -72306   -72318   -72316   -72316   -72307 
  -72281   -72249   -72222   -72202   -72189   -72181   -72176   -72171 
  -72158   -72150   -72142   -72110   -72068   -72029   -71992   -71967 
  -71952   -71944   -71940   -71929   -71911   -71895   -71875   -71848 
  -71815   -71782   -71749   -71725   -71714   -71717   -71724   -71728 
  -71736   -71747   -71745   -71740   -71737   -71718   -71691   -71668 
  -71643   -71612   -71579   -71562   -71560   -71568   -71595   -71652 
  -71721   -71793   -71872   -71952   -72014   -72058   -72098   -72125 
  -72139   -72148   -72153   -72162   -72171   -72176   -72184   -72191 
  -72191   -72199   -72220   -72253   -72301   -72357   -72407   -72454 
  -72503   -72553   -72601   -72636   -72673   -72712   -72740   -72760 
  -72771   -72771   -72771   -72758   -72732   -72702   -72661   -72620 
  -72590   -72558   -72535   -72523   -72508   -72505   -72503   -72489 
  -72477   -72463   -72438   -72397   -72354   -72308   -72252   -72198 
  -72162   -72145   -72138   -72146   -72177   -72225   -72276   -72337 
  -72393   -72436   -72477   -72508   -72507   -72489   -72478   -72451 
  -72409   -72373   -72335   -72303   -72283   -72270   -72281   -72308 
  -72342   -72382   -72419   -72459   -72503   -72535   -72555   -72570 
  -72566   -72532   -72497   -72470   -72443   -72424   -72415   -72401 
  -72385   -72362   -72333   -72296   -72256   -72225   -72212   -72208 
  -72210   -72230   -72272   -72318   -72362   -72408   -72459   -72503 
  -72531   -72559   -72592   -72607   -72616   -72628   -72643   -72663 
  -72686   -72723   -72774   -72819   -72858   -72914   -72979   -73029 
  -73078   -73114   -73124   -73137   -73156   -73156   -73163   -73168 
  -73151   -73129   -73098   -73036   -72954   -72859   -72755   -72651 
  -72550   -72458   -72380   -72303   -72225   -72152   -72077   -71999 
  -71925   -71851   -71775   -71695   -71618   -71547   -71466   -71381 
  -71304   -71240   -71172   -71108   -71074   -71064   -71070   -71101 
  -71157   -71242   -71340   -71437   -71541   -71645   -71739   -71832 
  -71926   -72011   -72073   -72123   -72171   -72206   -72227   -72237 
  -72234   -72230   -72233   -72234   -72227   -72214   -72204   -72202 
  -72204   -72203   -72202   -72200   -72199   -72206   -72215   -72216 
  -72223   -72229   -72220   -72210   -72191   -72154   -72121   -72091 
  -72056   -72030   -72022   -72031   -72041   -72054   -72077   -72081 
  -72076   -72085   -72092   -72091   -72091   -72095   -72102   -72111 
  -72127   -72142   -72149   -72154   -72164   -72169   -72168   -72156 
  -72139   -72129   -72123   -72114   -72103   -72098   -72102   -72114 
  -72118   -72122   -72142   -72161   -72188   -72234   -72284   -72339 
  -72411   -72482   -72549   -72619   -72688   -72743   -72781   -72805 
  -72816   -72813   -72802   -72792   -72771   -72731   -72684   -72638 
  -72589   -72544   -72504   -72454   -72400   -72354   -72320   -72297 
  -72277   -72257   -72237   -72215   -72187   -72152   -72102   -72040 
  -71959   -71871   -71791   -71712   -71633   -71575   -71536   -71510 
  -71505   -71505   -71508   -71525   -71555   -71587   -71628   -71685 
  -71736   -71774   -71815   -71855   -71883   -71907   -71925   -71949 
  -71984   -72021   -72076   -72150   -72225   -72292   -72368   -72445 
  -72501   -72547   -72581   -72597   -72613   -72621   -72620   -72630 
  -72635   -72628   -72630   -72630   -72611   -72580   -72539   -72477 
  -72401   -72308   -72198   -72090   -71980   -71859   -71739   -71626 
  -71516   -71410   -71321   -71246   -71170   -71099   -71041   -71001 
  -70972   -70951   -70942   -70946   -70972   -71001   -71034   -71084 
  -71146   -71203   -71270   -71343   -71409   -71477   -71536   -71578 
  -71616   -71645   -71670   -71690   -71695   -71703   -71714   -71716 
  -71721   -71740   -71763   -71798   -71851   -71921   -72006   -72091 
  -72169   -72247   -72334   -72415   -72482   -72542   -72594   -72647 
  -72704   -72755   -72797   -72833   -72864   -72883   -72897   -72909 
  -72909   -72895   -72882   -72855   -72809   -72754   -72686   -72620 
  -72546   -72454   -72357   -72260   -72166   -72080   -71994   -71921 
  -71860   -71793   -71722   -71655   -71589   -71517   -71436   -71356 
  -71281   -71207   -71138   -71074   -71026   -70988   -70949   -70916 
  -70895   -70879   -70873   -70877   -70889   -70924   -70991   -71066 
  -71151   -71265   -71400   -71541   -71679   -71805   -71928   -72036 
  -72117   -72179   -72222   -72245   -72256   -72258   -72265   -72276 
  -72288   -72316   -72369   -72434   -72505   -72598   -72701   -72810 
  -72925   -73030   -73129   -73226   -73311   -73384   -73454   -73523 
  -73591   -73661   -73737   -73818   -73900   -73985   -74079   -74175 
  -74255   -74322   -74383   -74424   -74441   -74445   -74432   -74403 
  -74371   -74335   -74290   -74233   -74162   -74088   -74011   -73928 
  -73849   -73764   -73680   -73604   -73530   -73462   -73417   -73372 
  -73333   -73310   -73280   -73241   -73202   -73147   -73080   -73016 
  -72948   -72873   -72789   -72698   -72603   -72495   -72376   -72268 
  -72166   -72057   -71959   -71868   -71782   -71703   -71617   -71525 
  -71439   -71347   -71258   -71178   -71104   -71047   -71010   -70978 
  -70962   -70953   -70937   -70929   -70918   -70891   -70877   -70876 
  -70872   -70883   -70907   -70923   -70953   -71001   -71038   -71070 
  -71116   -71159   -71196   -71221   -71230   -71230   -71217   -71188 
  -71157   -71120   -71064   -71004   -70942   -70872   -70803   -70733 
  -70663   -70596   -70529   -70464   -70406   -70348   -70291   -70247 
  -70205   -70170   -70143   -70125   -70128   -70151   -70185   -70236 
  -70301   -70367   -70440   -70522   -70605   -70694   -70792   -70896 
  -71004   -71120   -71234   -71329   -71423   -71524   -71608   -71683 
  -71761   -71826   -71874   -71910   -71941   -71969   -71991   -72009 
  -72025   -72046   -72063   -72071   -72087   -72104   -72122   -72156 
  -72195   -72230   -72273   -72319   -72355   -72384   -72401   -72412 
  -72412   -72393   -72362   -72330   -72291   -72238   -72195   -72161 
  -72130   -72118   -72111   -72087   -72065   -72048   -72027   -72007 
  -71984   -71971   -71955   -71938   -71936   -71928   -71910   -71891 
  -71871   -71853   -71833   -71803   -71784   -71768   -71740   -71714 
  -71687   -71641   -71587   -71533   -71464   -71392   -71336   -71288 
  -71257   -71271   -71316   -71374   -71452   -71543   -71641   -71740 
  -71837   -71930   -72007   -72075   -72139   -72199   -72274   -72360 
  -72426   -72485   -72546   -72600   -72654   -72705   -72752   -72783 
  -72796   -72800   -72787   -72752   -72704   -72646   -72578   -72515 
  -72459   -72409   -72370   -72345   -72330   -72335   -72366   -72412 
  -72474   -72539   -72603   -72666   -72716   -72751   -72786   -72812 
  -72824   -72832   -72836   -72832   -72819   -72802   -72789   -72778 
  -72777   -72785   -72794   -72813   -72836   -72850   -72859   -72858 
  -72836   -72813   -72779   -72715   -72646   -72569   -72477   -72391 
  -72306   -72223   -72149   -72069   -71995   -71942   -71892   -71840 
  -71802   -71760   -71716   -71689   -71668   -71648   -71652   -71676 
  -71699   -71732   -71787   -71845   -71896   -71948   -72004   -72054 
  -72098   -72141   -72185   -72237   -72285   -72335   -72382   -72427 
  -72477   -72535   -72588   -72636   -72684   -72740   -72808   -72881 
  -72960   -73048   -73122   -73176   -73229   -73279   -73313   -73333 
  -73359   -73386   -73399   -73419   -73445   -73453   -73454   -73461 
  -73458   -73437   -73410   -73381   -73346   -73309   -73259   -73187 
  -73103   -73017   -72925   -72832   -72738   -72634   -72526   -72430 
  -72335   -72238   -72142   -72042   -71946   -71847   -71745   -71655 
  -71567   -71477   -71393   -71315   -71240   -71182   -71136   -71092 
  -71043   -71008   -70985   -70962   -70946   -70945   -70949   -70950 
  -70953   -70962   -70972   -70984   -71005   -71031   -71058   -71099 
  -71158   -71228   -71307   -71397   -71494   -71610   -71732   -71856 
  -72009   -72162   -72293   -72428   -72557   -72657   -72754   -72844 
  -72908   -72960   -73014   -73062   -73101   -73143   -73179   -73203 
  -73226   -73261   -73300   -73336   -73364   -73383   -73395   -73406 
  -73399   -73376   -73350   -73310   -73260   -73219   -73176   -73130 
  -73090   -73036   -72972   -72912   -72850   -72790   -72729   -72657 
  -72584   -72511   -72422   -72333   -72252   -72168   -72090   -72033 
  -71991   -71961   -71946   -71934   -71913   -71895   -71874   -71848 
  -71829   -71805   -71776   -71748   -71713   -71682   -71644   -71599 
  -71570   -71537   -71501   -71473   -71443   -71419   -71400   -71373 
  -71348   -71334   -71309   -71280   -71255   -71240   -71238   -71243 
  -71265   -71305   -71350   -71408   -71485   -71571   -71671   -71776 
  -71891   -72006   -72104   -72200   -72292   -72357   -72418   -72484 
  -72538   -72597   -72665   -72733   -72817   -72910   -72999   -73090 
  -73179   -73259   -73338   -73404   -73444   -73464   -73469   -73456 
  -73426   -73388   -73341   -73283   -73221   -73152   -73060   -72963 
  -72874   -72782   -72692   -72611   -72534   -72466   -72411   -72361 
  -72310   -72266   -72229   -72184   -72130   -72081   -72036   -71991 
  -71945   -71894   -71857   -71838   -71821   -71805   -71807   -71828 
  -71856   -71903   -71972   -72041   -72104   -72168   -72234   -72303 
  -72365   -72424   -72486   -72534   -72562   -72574   -72578   -72578 
  -72549   -72504   -72474   -72439   -72399   -72370   -72343   -72319 
  -72306   -72284   -72250   -72218   -72175   -72115   -72046   -71969 
  -71884   -71791   -71695   -71598   -71494   -71400   -71315   -71226 
  -71130   -71024   -70919   -70818   -70706   -70586   -70464   -70341 
  -70220   -70087   -69947   -69813   -69678   -69533   -69385   -69253 
  -69132   -69012   -68908   -68823   -68750   -68693   -68656   -68642 
  -68644   -68670   -68728   -68821   -68940   -69082   -69249   -69442 
  -69645   -69854   -70063   -70268   -70460   -70634   -70803   -70957 
  -71084   -71203   -71324   -71443   -71570   -71707   -71861   -72033 
  -72225   -72434   -72646   -72862   -73084   -73299   -73511   -73712 
  -73890   -74059   -74209   -74325   -74426   -74505   -74555   -74598 
  -74629   -74644   -74657   -74669   -74677   -74683   -74679   -74667 
  -74655   -74641   -74614   -74580   -74547   -74505   -74451   -74383 
  -74308   -74216   -74109   -73998   -73881   -73754   -73633   -73508 
  -73379   -73257   -73141   -73025   -72927   -72847   -72778   -72721 
  -72675   -72647   -72631   -72627   -72643   -72673   -72719   -72783 
  -72855   -72932   -73022   -73120   -73215   -73311   -73408   -73503 
  -73593   -73684   -73778   -73876   -73967   -74043   -74109   -74169 
  -74218   -74263   -74287   -74289   -74281   -74267   -74239   -74196 
  -74144   -74077   -73990   -73900   -73803   -73691   -73565   -73429 
  -73295   -73160   -73024   -72895   -72773   -72651   -72523   -72392 
  -72258   -72125   -71992   -71847   -71695   -71560   -71433   -71311 
  -71194   -71082   -70984   -70892   -70808   -70727   -70645   -70579 
  -70528   -70464   -70397   -70348   -70301   -70249   -70208   -70171 
  -70136   -70108   -70075   -70052   -70056   -70073   -70108   -70173 
  -70256   -70363   -70482   -70592   -70706   -70823   -70929   -71028 
  -71119   -71192   -71262   -71339   -71401   -71456   -71521   -71575 
  -71618   -71671   -71713   -71744   -71775   -71799   -71834   -71868 
  -71892   -71926   -71961   -71996   -72038   -72091   -72165   -72260 
  -72350   -72443   -72543   -72628   -72701   -72770   -72828   -72878 
  -72922   -72949   -72968   -72991   -73016   -73028   -73032   -73044 
  -73049   -73047   -73051   -73052   -73049   -73049   -73041   -73022 
  -72994   -72956   -72902   -72828   -72743   -72651   -72539   -72415 
  -72289   -72156   -72021   -71891   -71770   -71668   -71585   -71508 
  -71439   -71377   -71321   -71275   -71242   -71220   -71216   -71213 
  -71201   -71197   -71205   -71207   -71196   -71184   -71178   -71174 
  -71166   -71162   -71170   -71181   -71199   -71221   -71247   -71274 
  -71304   -71347   -71401   -71455   -71520   -71591   -71662   -71744 
  -71836   -71926   -72018   -72110   -72200   -72280   -72347   -72401 
  -72431   -72455   -72484   -72490   -72481   -72477   -72466   -72442 
  -72419   -72399   -72373   -72339   -72291   -72231   -72162   -72077 
  -71990   -71895   -71780   -71659   -71536   -71409   -71288   -71170 
  -71038   -70900   -70767   -70636   -70515   -70413   -70324   -70259 
  -70225   -70216   -70225   -70256   -70305   -70367   -70440   -70518 
  -70595   -70675   -70761   -70850   -70938   -71030   -71123   -71209 
  -71304   -71408   -71498   -71594   -71707   -71820   -71936   -72072 
  -72227   -72397   -72580   -72769   -72959   -73147   -73333   -73512 
  -73666   -73797   -73911   -73994   -74052   -74092   -74108   -74104 
  -74083   -74044   -73990   -73934   -73872   -73805   -73746   -73695 
  -73650   -73606   -73564   -73543   -73526   -73500   -73487   -73485 
  -73475   -73458   -73434   -73395   -73345   -73295   -73233   -73151 
  -73070   -72995   -72917   -72854   -72796   -72732   -72688   -72658 
  -72624   -72603   -72584   -72554   -72522   -72484   -72442   -72387 
  -72326   -72273   -72226   -72175   -72131   -72100   -72079   -72065 
  -72060   -72056   -72053   -72057   -72060   -72060   -72064   -72065 
  -72065   -72061   -72060   -72061   -72049   -72036   -72029   -72011 
  -71987   -71972   -71959   -71953   -71964   -71990   -72025   -72075 
  -72139   -72214   -72297   -72395   -72496   -72588   -72679   -72771 
  -72851   -72917   -72968   -73009   -73037   -73049   -73053   -73060 
  -73067   -73072   -73079   -73090   -73099   -73106   -73117   -73140 
  -73155   -73165   -73191   -73225   -73251   -73278   -73303   -73313 
  -73317   -73310   -73296   -73278   -73229   -73161   -73091   -73009 
  -72924   -72837   -72740   -72643   -72549   -72442   -72326   -72210 
  -72090   -71960   -71825   -71694   -71559   -71419   -71288   -71162 
  -71032   -70910   -70802   -70703   -70618   -70551   -70497   -70457 
  -70437   -70437   -70445   -70461   -70494   -70530   -70569   -70629 
  -70699   -70775   -70866   -70960   -71055   -71162   -71271   -71390 
  -71524   -71659   -71798   -71941   -72083   -72220   -72355   -72489 
  -72615   -72732   -72854   -72976   -73084   -73188   -73300   -73407 
  -73502   -73579   -73642   -73707   -73759   -73796   -73828   -73843 
  -73854   -73865   -73862   -73843   -73815   -73769   -73697   -73607 
  -73512   -73399   -73267   -73138   -73008   -72862   -72717   -72582 
  -72441   -72295   -72152   -72009   -71865   -71728   -71594   -71459 
  -71320   -71189   -71065   -70937   -70808   -70688   -70580   -70494 
  -70425   -70371   -70339   -70326   -70318   -70318   -70348   -70393 
  -70441   -70505   -70580   -70663   -70762   -70879   -71011   -71154 
  -71300   -71448   -71599   -71745   -71880   -71998   -72099   -72188 
  -72257   -72314   -72369   -72416   -72450   -72478   -72505   -72519 
  -72519   -72516   -72512   -72488   -72465   -72451   -72420   -72381 
  -72339   -72281   -72206   -72125   -72036   -71934   -71836   -71743 
  -71643   -71540   -71436   -71327   -71223   -71113   -70993   -70883 
  -70784   -70692   -70615   -70557   -70513   -70492   -70499   -70519 
  -70561   -70632   -70711   -70800   -70911   -71026   -71143   -71265 
  -71385   -71506   -71628   -71759   -71906   -72060   -72214   -72377 
  -72538   -72692   -72847   -72993   -73126   -73261   -73392   -73511 
  -73629   -73742   -73843   -73946   -74051   -74142   -74229   -74324 
