Origin Time       2025/01/13 21:19:00
Lat.              31.8
Long.             131.6
Depth. (km)       30
Mag.              6.9
Station Code      YMGH11
Station Lat.      34.2091
Station Long.     131.6859
Station Height(m) 120
Record Time       2025/01/13 21:20:18
Sampling Freq(Hz) 100Hz
Duration Time(s)  138
Dir.              6
Scale Factor      7845(gal)/8223790
Max. Acc. (gal)   1.063
Last Correction   2025/01/13 21:20:19
Memo.             
[...]
   23557    23569    23641    23737    23803    23814    23788    23776 
   23796    23849    23924    24011    24069    24048    23958    23869 
   23831    23827    23830    23845    23859    23832    23753    23666 
   23616    23610    23625    23643    23661    23672    23668    23639 
   23607    23618    23692    23795    23881    23939    23959    23946 
   23931    23961    24044    24124    24133    24058    23944    23858 
   23830    23849    23877    23880    23842    23780    23716    23689 
   23711    23761    23804    23808    23776    23762    23803    23861 
   23897    23908    23897    23859    23805    23753    23719    23716 
   23743    23778    23777    23731    23692    23703    23747    23812 
   23899    23973    23980    23927    23880    23874    23885    23892 
   23909    23942    23949    23900    23818    23760    23760    23808 
   23859    23888    23907    23917    23907    23896    23905    23943 
   24007    24067    24078    24025    23959    23938    23955    23973 
   23969    23936    23874    23787    23708    23696    23754    23816 
   23820    23764    23695    23676    23742    23869    23986    24031 
   24005    23949    23895    23866    23869    23895    23919    23909 
   23861    23803    23776    23789    23808    23780    23706    23658 
   23683    23743    23791    23809    23787    23730    23681    23685 
   23750    23851    23944    23988    23954    23850    23742    23711 
   23772    23876    23963    23997    23963    23877    23778    23716 
   23715    23755    23809    23868    23912    23922    23890    23826 
   23751    23716    23757    23855    23949    23984    23953    23859 
   23726    23618    23588    23633    23696    23734    23724    23673 
   23603    23572    23620    23718    23808    23876    23930    23961 
   23971    23980    24004    24034    24051    24066    24098    24139 
   24148    24100    24019    23954    23944    23996    24073    24117 
   24090    24004    23909    23836    23803    23816    23859    23878 
   23834    23751    23685    23654    23639    23623    23618    23637 
   23670    23695    23703    23701    23683    23639    23588    23557 
   23571    23620    23660    23642    23581    23526    23526    23581 
   23658    23712    23715    23669    23625    23626    23668    23711 
   23728    23719    23693    23668    23673    23715    23750    23743 
   23700    23650    23626    23658    23751    23866    23930    23912 
   23843    23772    23747    23796    23885    23950    23943    23861 
   23754    23703    23728    23787    23811    23777    23718    23674 
   23653    23631    23595    23542    23477    23414    23375    23377 
   23422    23494    23542    23526    23473    23448    23481    23565 
   23661    23715    23712    23687    23685    23726    23799    23880 
   23926    23913    23882    23878    23909    23962    24017    24057 
   24051    23973    23851    23773    23800    23900    24009    24081 
   24074    24001    23930    23917    23963    24036    24111    24178 
   24210    24186    24129    24075    24035    24028    24066    24124 
   24140    24088    23997    23919    23889    23895    23899    23865 
   23780    23669    23573    23512    23495    23523    23577    23610 
   23584    23511    23442    23444    23544    23691    23799    23808 
   23741    23669    23639    23658    23723    23808    23862    23841 
   23764    23711    23739    23831    23909    23903    23804    23674 
   23602    23627    23704    23777    23827    23842    23799    23710 
   23647    23684    23811    23957    24063    24117    24124    24097 
   24065    24062    24116    24225    24344    24398    24356    24256 
   24165    24128    24151    24219    24306    24371    24367    24293 
   24186    24119    24142    24228    24308    24324    24256    24125 
   23980    23876    23853    23908    23992    24028    23977    23842 
   23680    23577    23580    23652    23742    23822    23861    23831 
   23747    23670    23653    23704    23799    23882    23897    23812 
   23656    23508    23456    23512    23626    23718    23747    23734 
   23696    23654    23643    23680    23749    23815    23841    23808 
   23750    23728    23766    23824    23851    23826    23768    23710 
   23681    23706    23769    23841    23884    23870    23807    23735 
   23693    23696    23751    23839    23916    23963    23980    23959 
   23915    23877    23874    23909    23959    23982    23963    23911 
   23847    23788    23741    23711    23706    23741    23807    23865 
   23884    23868    23838    23807    23766    23727    23720    23749 
   23784    23804    23797    23755    23674    23587    23550    23602 
   23720    23846    23899    23838    23693    23541    23453    23465 
   23562    23695    23780    23754    23631    23481    23384    23394 
   23495    23616    23681    23677    23635    23571    23491    23440 
   23460    23560    23685    23757    23726    23615    23496    23437 
   23458    23546    23676    23808    23885    23884    23836    23793 
   23800    23869    23981    24105    24187    24193    24129    24050 
   24016    24063    24165    24271    24349    24367    24317    24229 
   24154    24129    24171    24248    24295    24271    24196    24106 
   24017    23936    23896    23912    23955    23965    23912    23827 
   23770    23770    23800    23808    23801    23816    23850    23862 
   23835    23791    23766    23787    23849    23939    24032    24088 
   24086    24048    24023    24044    24112    24189    24247    24260 
   24225    24179    24144    24094    24019    23961    23946    23950 
   23924    23854    23765    23677    23602    23556    23544    23549 
   23548    23515    23438    23336    23260    23260    23328    23409 
   23446    23421    23329    23213    23151    23191    23295    23380 
   23398    23342    23265    23238    23291    23400    23519    23610 
   23646    23618    23549    23508    23549    23652    23742    23762 
   23714    23641    23580    23566    23629    23749    23868    23913 
   23849    23720    23627    23623    23689    23773    23827    23820 
   23743    23646    23598    23615    23672    23722    23727    23672 
   23558    23441    23391    23423    23491    23549    23572    23566 
   23552    23539    23560    23622    23710    23801    23881    23931 
   23947    23947    23971    24032    24090    24111    24111    24112 
   24111    24102    24111    24142    24181    24193    24163    24125 
   24119    24152    24206    24250    24263    24247    24205    24166 
   24151    24152    24165    24185    24196    24173    24105    24016 
   23944    23895    23858    23836    23805    23739    23656    23600 
   23607    23653    23703    23751    23797    23819    23819    23820 
   23841    23869    23865    23818    23758    23728    23758    23841 
   23939    24009    24032    24015    23986    23974    23985    24011 
   24021    23986    23912    23846    23827    23845    23858    23836 
   23788    23730    23673    23649    23684    23758    23819    23818 
   23749    23649    23576    23579    23653    23739    23770    23727 
   23643    23560    23521    23545    23612    23664    23645    23554 
   23437    23348    23314    23352    23444    23526    23537    23464 
   23341    23209    23113    23101    23175    23288    23375    23382 
   23302    23157    23016    22975    23086    23295    23485    23560 
   23508    23391    23282    23225    23245    23344    23467    23526 
   23485    23395    23309    23260    23282    23387    23554    23735 
   23876    23935    23926    23886    23868    23909    24023    24166 
   24286    24341    24321    24254    24220    24291    24448    24584 
   24610    24520    24381    24279    24260    24324    24432    24507 
   24483    24358    24197    24102    24128    24221    24287    24260 
   24151    24013    23893    23823    23832    23903    23958    23927 
   23805    23654    23565    23572    23634    23687    23706    23696 
   23674    23649    23630    23641    23685    23734    23758    23766 
   23766    23739    23674    23606    23565    23549    23546    23537 
   23510    23463    23392    23298    23201    23151    23190    23272 
   23329    23326    23261    23167    23101    23095    23144    23226 
   23318    23391    23421    23400    23353    23319    23325    23368 
   23440    23523    23589    23626    23639    23638    23633    23646 
   23689    23777    23890    23978    23990    23917    23795    23703 
   23707    23805    23932    24031    24082    24081    24034    23980 
   23977    24036    24108    24143    24127    24075    24009    23957 
   23955    24025    24143    24232    24241    24183    24117    24109 
   24163    24236    24286    24313    24328    24328    24317    24322 
   24355    24408    24456    24482    24471    24430    24393    24383 
   24393    24401    24408    24418    24424    24413    24381    24339 
   24308    24285    24256    24217    24187    24190    24208    24198 
   24139    24046    23961    23900    23838    23761    23687    23627 
   23564    23477    23395    23365    23407    23488    23550    23558 
   23530    23504    23512    23560    23646    23765    23881    23947 
   23916    23807    23715    23738    23888    24088    24231    24244 
   24129    23959    23841    23847    23982    24159    24263    24223 
   24063    23890    23809    23858    23982    24092    24138    24100 
   23974    23811    23708    23720    23807    23880    23874    23800 
   23715    23650    23611    23603    23610    23599    23556    23484 
   23402    23344    23330    23350    23372    23369    23361    23382 
   23426    23467    23492    23519    23553    23575    23557    23506 
   23458    23452    23487    23545    23610    23680    23741    23770 
   23773    23774    23792    23845    23936    24024    24062    24047 
   24005    23939    23863    23819    23838    23899    23946    23947 
   23908    23835    23734    23656    23666    23776    23928    24042 
   24057    23969    23827    23719    23737    23899    24133    24327 
   24387    24297    24132    24023    24070    24251    24460    24606 
   24637    24553    24420    24313    24297    24378    24480    24537 
   24548    24525    24466    24370    24262    24182    24160    24200 
   24268    24317    24309    24244    24142    24030    23966    24009 
   24152    24309    24395    24399    24372    24370    24402    24453 
   24509    24567    24615    24652    24678    24675    24621    24513 
   24394    24321    24318    24345    24335    24247    24088    23892 
   23718    23634    23685    23820    23907    23857    23696    23523 
   23436    23457    23548    23634    23653    23572    23414    23261 
   23203    23256    23357    23427    23427    23364    23284    23233 
   23228    23261    23310    23344    23341    23286    23218    23201 
   23242    23305    23332    23310    23284    23294    23334    23383 
   23415    23411    23369    23314    23280    23298    23357    23409 
   23413    23367    23306    23286    23337    23427    23507    23550 
   23552    23503    23431    23391    23410    23464    23521    23557 
   23577    23581    23571    23557    23544    23534    23538    23552 
   23560    23552    23523    23500    23490    23468    23430    23402 
   23398    23419    23448    23460    23434    23367    23290    23253 
   23294    23413    23561    23662    23679    23633    23579    23579 
   23664    23815    23981    24109    24156    24119    24047    24012 
   24052    24129    24174    24152    24079    23981    23899    23872 
   23896    23927    23919    23855    23757    23660    23598    23580 
   23599    23626    23630    23595    23530    23454    23390    23357 
   23373    23422    23453    23437    23382    23321    23287    23314 
   23417    23542    23612    23619    23622    23666    23750    23847 
   23932    24003    24052    24077    24098    24150    24228    24306 
   24366    24390    24389    24389    24413    24455    24482    24482 
   24475    24455    24397    24312    24250    24227    24204    24144 
   24078    24044    24043    24038    23994    23913    23830    23766 
   23723    23695    23689    23710    23730    23715    23666    23615 
   23588    23585    23600    23645    23723    23820    23897    23913 
   23876    23850    23881    23958    24044    24116    24154    24125 
   24031    23919    23854    23853    23882    23890    23834    23718 
   23599    23521    23480    23458    23453    23465    23471    23448 
   23398    23341    23302    23279    23257    23248    23280    23357 
   23437    23473    23453    23414    23413    23485    23606    23726 
   23820    23863    23839    23774    23730    23746    23812    23881 
   23903    23873    23824    23787    23778    23787    23784    23772 
   23762    23734    23674    23618    23592    23583    23552    23494 
   23440    23426    23440    23442    23426    23411    23417    23437 
   23481    23561    23658    23728    23735    23700    23688    23747 
   23855    23970    24066    24150    24232    24318    24394    24443 
   24460    24448    24429    24441    24497    24561    24588    24547 
   24445    24329    24239    24187    24166    24146    24102    24030 
   23942    23866    23826    23800    23751    23669    23568    23480 
   23440    23460    23504    23500    23399    23225    23062    22983 
   22990    23040    23089    23095    23028    22896    22758    22693 
   22735    22859    23005    23093    23094    23053    23014    22989 
   23002    23107    23313    23541    23684    23706    23672    23661 
   23704    23807    23971    24173    24344    24420    24393    24322 
   24287    24341    24462    24580    24651    24663    24641    24611 
   24588    24592    24621    24653    24667    24661    24645    24618 
   24575    24499    24399    24308    24246    24221    24231    24255 
   24268    24244    24171    24073    23998    23997    24078    24186 
   24250    24236    24158    24070    24025    24030    24061    24101 
   24135    24147    24128    24086    24048    24050    24104    24198 
   24312    24387    24383    24318    24256    24256    24339    24470 
   24568    24570    24482    24368    24290    24268    24295    24333 
   24336    24268    24142    24009    23928    23908    23917    23927 
   23913    23858    23770    23696    23670    23684    23701    23707 
   23685    23649    23633    23658    23707    23742    23749    23735 
   23716    23706    23722    23768    23822    23842    23815    23747 
   23669    23619    23625    23670    23741    23816    23870    23888 
   23882    23878    23896    23936    23981    24017    24036    24020 
   23982    23947    23936    23959    24001    24032    24027    23978 
   23892    23797    23747    23757    23801    23851    23900    23943 
   23961    23949    23917    23886    23874    23885    23907    23919 
   23895    23815    23684    23549    23473    23490    23561    23619 
   23612    23542    23450    23376    23342    23360    23400    23411 
   23380    23333    23307    23332    23413    23537    23657    23734 
   23770    23780    23774    23782    23834    23923    23998    24012 
   23967    23908    23869    23866    23904    23954    23974    23946 
   23872    23782    23719    23712    23769    23843    23870    23816 
   23708    23593    23503    23449    23431    23433    23434    23415 
   23360    23272    23171    23083    23032    23025    23041    23049 
   23028    22970    22894    22837    22836    22900    22998    23086 
   23136    23167    23206    23264    23338    23413    23483    23554 
   23615    23653    23676    23689    23688    23668    23645    23641 
   23673    23727    23777    23795    23774    23739    23714    23707 
   23719    23755    23804    23826    23797    23735    23681    23661 
   23669    23691    23712    23712    23677    23620    23576    23569 
   23607    23670    23738    23793    23831    23849    23862    23900 
   23976    24071    24154    24201    24220    24235    24260    24302 
   24364    24441    24521    24591    24634    24645    24634    24621 
   24607    24586    24541    24480    24430    24402    24372    24325 
   24274    24248    24232    24198    24159    24136    24138    24142 
   24119    24063    23997    23939    23907    23901    23919    23951 
   23994    24020    24001    23953    23927    23971    24079    24200 
   24277    24283    24231    24160    24127    24156    24232    24312 
   24358    24339    24250    24131    24052    24043    24075    24105 
   24105    24055    23950    23824    23745    23737    23774    23816 
   23830    23799    23726    23643    23579    23546    23548    23568 
   23580    23554    23481    23386    23295    23230    23207    23224 
   23251    23265    23259    23225    23176    23136    23128    23161 
   23226    23290    23337    23361    23367    23372    23376    23377 
   23384    23409    23450    23483    23492    23485    23491    23526 
   23576    23629    23681    23739    23801    23866    23928    23980 
   24017    24042    24067    24097    24128    24166    24210    24262 
   24310    24345    24372    24401    24432    24467    24502    24522 
   24518    24491    24456    24421    24382    24333    24273    24212 
   24151    24082    24007    23922    23831    23746    23672    23606 
   23544    23487    23437    23392    23350    23315    23278    23220 
   23139    23059    23001    22960    22933    22916    22896    22851 
   22789    22734    22712    22736    22782    22813    22827    22835 
   22854    22893    22958    23036    23121    23206    23290    23369 
   23450    23538    23633    23733    23835    23940    24036    24112 
   24165    24201    24236    24286    24356    24435    24501    24529 
   24510    24467    24441    24463    24526    24617    24706    24768 
   24783    24752    24698    24649    24636    24653    24671    24656 
   24590    24491    24379    24262    24162    24111    24109    24116 
   24086    24015    23912    23801    23714    23666    23642    23602 
   23530    23445    23364    23295    23249    23232    23220    23184 
   23140    23124    23159    23228    23302    23365    23419    23461 
   23487    23518    23581    23689    23812    23903    23939    23947 
   23965    24015    24094    24190    24290    24379    24437    24452 
   24451    24471    24528    24598    24638    24632    24603    24576 
   24552    24524    24479    24429    24386    24343    24287    24224 
   24139    24035    23924    23809    23699    23603    23531    23472 
   23406    23328    23249    23197    23174    23161    23151    23148 
   23178    23233    23278    23311    23361    23431    23511    23585 
   23650    23716    23780    23831    23878    23935    24001    24081 
   24162    24216    24232    24225    24219    24224    24241    24262 
   24268    24239    24152    24031    23915    23823    23760    23728 
   23714    23701    23683    23639    23573    23512    23494    23534 
   23619    23703    23754    23762    23739    23711    23711    23762 
   23853    23936    23974    23963    23938    23928    23944    23988 
   24046    24098    24115    24090    24055    24044    24059    24079 
