Origin Time       2025/01/13 21:19:00
Lat.              31.8
Long.             131.6
Depth. (km)       30
Mag.              6.9
Station Code      YMGH06
Station Lat.      33.9893
Station Long.     131.3012
Station Height(m) 80
Record Time       2025/01/13 21:20:14
Sampling Freq(Hz) 100Hz
Duration Time(s)  175
Dir.              5
Scale Factor      7845(gal)/8223790
Max. Acc. (gal)   2.261
Last Correction   2025/01/13 21:20:14
Memo.             
[...]
    -171     -156     -140     -125     -106      -81      -55      -32 
      -8       12       28       40       48       55       59       54 
      45       39       27       12        1       -1       -5       -4 
       6       21       35       48       64       75       85       97 
      97       93       91       85       74       59       44       27 
       6      -13      -37      -62      -85     -105     -124     -143 
    -162     -182     -195     -210     -226     -236     -240     -249 
    -260     -278     -302     -326     -355     -387     -419     -448 
    -468     -483     -491     -490     -481     -473     -468     -463 
    -454     -452     -452     -449     -449     -453     -461     -467 
    -471     -475     -475     -473     -471     -463     -456     -448 
    -432     -415     -400     -379     -357     -340     -326     -317 
    -314     -318     -322     -329     -341     -357     -368     -379 
    -396     -415     -429     -440     -449     -453     -453     -450 
    -441     -426     -406     -386     -369     -359     -348     -338 
    -329     -317     -303     -288     -272     -259     -245     -226 
    -210     -199     -189     -178     -171     -167     -166     -170 
    -174     -178     -180     -182     -176     -166     -148     -126 
    -105      -86      -70      -60      -60      -64      -70      -79 
     -89      -97     -102     -101      -89      -67      -41       -8 
      29       63       90      105      112      113      106       93 
      75       58       36       16        1      -12      -20      -22 
     -27      -36      -48      -64      -83     -105     -129     -156 
    -187     -221     -259     -298     -334     -373     -410     -444 
    -476     -500     -515     -522     -527     -525     -517     -503 
    -488     -473     -463     -452     -440     -427     -418     -405 
    -387     -367     -345     -317     -287     -259     -226     -195 
    -164     -132     -101      -68      -39      -13        5       18 
      22       21       13        0      -18      -41      -71     -105 
    -140     -176     -206     -234     -261     -287     -311     -333 
    -353     -372     -392     -405     -410     -417     -425     -433 
    -440     -445     -449     -454     -454     -449     -437     -417 
    -394     -368     -333     -295     -260     -226     -191     -162 
    -141     -124     -113     -113     -125     -144     -166     -187 
    -205     -220     -229     -229     -220     -202     -176     -140 
     -98      -56      -14       29       67       98      129      157 
     183      210      237      264      292      319      338      352 
     359      360      357      353      352      352      351      352 
     355      355      355      351      344      338      334      330 
     329      332      334      342      356      369      379      387 
     388      376      352      318      278      230      178      121 
      60        2      -54     -108     -159     -211     -256     -297 
    -337     -371     -402     -430     -454     -483     -511     -535 
    -565     -594     -619     -643     -670     -692     -710     -723 
    -733     -737     -733     -724     -715     -702     -689     -683 
    -680     -681     -693     -712     -737     -768     -799     -827 
    -851     -869     -877     -877     -868     -849     -822     -789 
    -754     -720     -689     -661     -633     -615     -608     -608 
    -614     -630     -650     -669     -689     -710     -724     -733 
    -731     -720     -703     -681     -656     -627     -600     -579 
    -558     -537     -517     -498     -479     -459     -442     -427 
    -417     -411     -414     -427     -448     -475     -513     -556 
    -602     -652     -695     -729     -754     -772     -777     -772 
    -756     -731     -702     -669     -638     -608     -580     -558 
    -542     -530     -526     -526     -525     -527     -526     -515 
    -496     -465     -426     -382     -329     -274     -217     -159 
    -102      -51       -1       51       99      145      190      236 
     283      322      357      388      414      437      456      473 
     494      517      542      569      595      618      634      639 
     634      619      595      564      531      498      461      425 
     390      355      319      290      263      243      228      221 
     222      222      225      232      236      237      241      243 
     241      240      234      214      186      155      117       76 
      37       -1      -35      -66      -93     -109     -118     -125 
    -128     -128     -122     -113     -102      -87      -68      -44 
     -18        8       32       56       83      109      133      160 
     186      213      244      272      294      310      317      311 
     299      284      267      251      234      225      218      217 
     224      238      260      292      330      372      415      453 
     484      513      534      545      545      533      506      469 
     423      369      310      247      183      122       60       -2 
     -66     -126     -186     -241     -290     -334     -376     -413 
    -436     -448     -453     -444     -419     -384     -342     -292 
    -240     -190     -141      -94      -62      -40      -21       -9 
      -2        1        8       16       21       31       43       54 
      60       63       59       47       25       -1      -37      -81 
    -126     -168     -209     -247     -282     -309     -329     -351 
    -373     -398     -423     -453     -486     -519     -553     -584 
    -615     -645     -668     -689     -712     -735     -757     -780 
    -807     -834     -858     -882     -907     -928     -942     -951 
    -959     -966     -976     -989    -1004    -1019    -1038    -1055 
   -1071    -1093    -1117    -1140    -1170    -1202    -1231    -1260 
   -1294    -1331    -1367    -1405    -1440    -1470    -1497    -1516 
   -1528    -1537    -1543    -1539    -1532    -1528    -1528    -1532 
   -1539    -1545    -1553    -1553    -1543    -1516    -1475    -1424 
   -1363    -1291    -1216    -1140    -1066     -996     -931     -865 
    -800     -741     -683     -627     -575     -527     -481     -438 
    -402     -372     -344     -314     -287     -261     -234     -207 
    -186     -168     -156     -152     -156     -166     -180     -201 
    -221     -236     -247     -261     -274     -279     -279     -276 
    -271     -264     -255     -243     -232     -224     -213     -199 
    -187     -175     -155     -135     -118     -103      -87      -75 
     -63      -52      -47      -45      -43      -39      -29      -21 
     -12        0       12       21       29       36       36       28 
      13       -2      -21      -44      -66      -87     -112     -136 
    -155     -174     -190     -198     -202     -209     -216     -216 
    -214     -213     -207     -198     -187     -172     -153     -132 
    -112      -91      -68      -41      -16        9       32       51 
      59       54       44       28        1      -35      -79     -136 
    -202     -278     -360     -442     -529     -608     -679     -745 
    -800     -839     -868     -882     -880     -866     -845     -816 
    -783     -745     -702     -650     -596     -538     -472     -400 
    -330     -260     -189     -120      -51       13       71      125 
     174      213      243      270      294      313      332      344 
     349      356      361      361      361      365      371      379 
     394      414      438      464      494      526      561      594 
     625      653      676      691      696      692      681      664 
     641      619      602      584      568      560      558      562 
     573      585      604      627      648      669      688      703 
     720      735      749      761      773      788      803      822 
     842      861      876      886      893      892      884      872 
     857      838      814      788      761      730      695      657 
     622      591      567      546      529      514      498      479 
     452      410      360      303      232      152       70      -20 
    -113     -205     -299     -392     -481     -568     -653     -734 
    -811     -884     -945     -997    -1047    -1084    -1111    -1132 
   -1146    -1148    -1146    -1138    -1128    -1115    -1096    -1074 
   -1044    -1004     -955     -901     -842     -778     -719     -661 
    -603     -546     -490     -436     -382     -322     -260     -197 
    -130      -62        4       66      124      175      214      245 
     268      284      294      294      290      286      280      279 
     280      282      284      284      280      271      249      221 
     187      145       95       44       -5      -56     -103     -144 
    -183     -222     -261     -299     -332     -364     -398     -429 
    -457     -484     -511     -535     -557     -572     -587     -599 
    -602     -595     -581     -558     -525     -483     -432     -375 
    -317     -263     -214     -170     -130     -103      -86      -76 
     -82      -98     -121     -155     -197     -245     -298     -357 
    -425     -498     -579     -665     -753     -843     -931    -1017 
   -1100    -1174    -1243    -1304    -1360    -1412    -1453    -1489 
   -1513    -1529    -1543    -1545    -1541    -1534    -1516    -1485 
   -1453    -1418    -1374    -1335    -1304    -1281    -1267    -1267 
   -1278    -1293    -1312    -1333    -1354    -1370    -1386    -1404 
   -1416    -1428    -1441    -1453    -1466    -1482    -1494    -1503 
   -1516    -1522    -1524    -1524    -1521    -1510    -1497    -1479 
   -1453    -1422    -1386    -1344    -1301    -1252    -1196    -1143 
   -1092    -1040     -996     -954     -924     -903     -882     -864 
    -843     -822     -801     -776     -743     -710     -668     -618 
    -567     -507     -445     -384     -322     -260     -199     -136 
     -75      -18       39      103      172      243      318      399 
     480      560      645      731      819      909      996     1085 
    1175     1266     1354     1444     1528     1609     1684     1753 
    1822     1888     1944     1989     2031     2061     2073     2076 
    2069     2053     2031     1999     1961     1922     1877     1827 
    1769     1709     1649     1591     1530     1467     1404     1341 
    1274     1204     1132     1059      978      897      815      730 
     645      561      480      402      326      251      179      102 
      21      -58     -143     -229     -310     -390     -465     -533 
    -596     -656     -704     -743     -778     -805     -824     -837 
    -850     -865     -880     -899     -919     -943     -972    -1004 
   -1035    -1065    -1090    -1108    -1123    -1131    -1128    -1120 
   -1104    -1080    -1050    -1017     -986     -958     -934     -913 
    -899     -889     -888     -895     -905     -926     -950     -974 
   -1000    -1028    -1051    -1067    -1077    -1080    -1074    -1063 
   -1051    -1038    -1026    -1017    -1013    -1011    -1004    -1000 
    -992     -976     -954     -931     -903     -869     -834     -796 
    -756     -716     -679     -641     -602     -568     -534     -499 
    -465     -432     -394     -353     -307     -256     -201     -145 
     -91      -39        9       47       75       97      109      108 
     101       89       76       68       60       55       58       67 
      81       98      120      148      180      217      256      302 
     355      406      454      500      544      583      619      653 
     685      719      747      774      800      819      828      830 
     819      793      760      718      672      622      575      530 
     487      449      414      378      345      315      282      247 
     216      184      152      124       97       74       58       41 
      27       18       13        5       -8      -21      -36      -58 
     -81     -103     -132     -160     -191     -226     -260     -292 
    -322     -344     -361     -378     -388     -398     -410     -421 
    -432     -438     -445     -450     -457     -465     -476     -487 
    -496     -506     -510     -510     -510     -506     -499     -492 
    -486     -479     -472     -464     -452     -441     -433     -418 
    -403     -392     -375     -353     -334     -315     -305     -301 
    -301     -317     -346     -382     -425     -476     -530     -585 
    -639     -689     -741     -791     -838     -882     -926     -967 
   -1007    -1043    -1080    -1112    -1139    -1169    -1202    -1236 
   -1275    -1320    -1366    -1413    -1460    -1509    -1560    -1609 
   -1653    -1698    -1740    -1773    -1802    -1829    -1848    -1860 
   -1868    -1868    -1858    -1841    -1817    -1786    -1746    -1703 
   -1656    -1605    -1553    -1499    -1447    -1397    -1350    -1306 
   -1267    -1231    -1192    -1148    -1104    -1054    -1000     -942 
    -877     -812     -749     -676     -595     -513     -422     -329 
    -233     -136      -40       52      137      216      286      351 
     410      469      531      596      664      738      822      912 
    1013     1125     1244     1367     1490     1609     1722     1825 
    1908     1979     2035     2077     2107     2126     2138     2149 
    2154     2154     2150     2138     2120     2097     2069     2031 
    1985     1935     1884     1826     1763     1701     1638     1575 
    1517     1466     1421     1381     1345     1318     1293     1269 
    1248     1231     1212     1197     1183     1171     1159     1146 
    1132     1115     1089     1061     1026      986      946      899 
     842      788      729      661      592      515      430      344 
     255      163       71      -21     -114     -209     -303     -391 
    -473     -553     -623     -684     -735     -778     -814     -846 
    -877     -907     -940     -977    -1013    -1053    -1100    -1150 
   -1201    -1254    -1306    -1352    -1394    -1435    -1468    -1501 
   -1532    -1557    -1582    -1606    -1622    -1632    -1638    -1640 
   -1633    -1624    -1611    -1597    -1578    -1553    -1526    -1491 
   -1448    -1399    -1345    -1286    -1223    -1151    -1077    -1005 
    -936     -868     -801     -737     -677     -618     -562     -513 
    -468     -426     -392     -367     -348     -336     -325     -321 
    -321     -318     -318     -324     -326     -325     -324     -322 
    -324     -328     -333     -337     -344     -349     -353     -357 
    -361     -359     -355     -348     -342     -334     -322     -311 
    -301     -283     -267     -251     -228     -202     -178     -149 
    -120      -93      -66      -43      -29      -24      -28      -40 
     -62      -97     -141     -195     -261     -332     -403     -477 
    -548     -610     -668     -720     -761     -795     -819     -832 
    -837     -835     -827     -810     -780     -747     -712     -677 
    -646     -619     -599     -588     -584     -588     -600     -621 
    -646     -669     -691     -714     -733     -747     -761     -773 
    -778     -785     -796     -804     -808     -818     -828     -834 
    -838     -845     -847     -846     -846     -845     -842     -839 
    -835     -832     -832     -834     -837     -845     -854     -865 
    -880     -897     -919     -940     -961     -981     -999    -1009 
   -1016    -1019    -1015    -1003     -982     -954     -911     -855 
    -795     -727     -656     -581     -500     -421     -345     -267 
    -195     -133      -74      -22       16       45       68       82 
      95      109      124      141      164      194      228      265 
     306      348      387      427      463      495      529      561 
     592      623      652      677      703      727      747      769 
     792      808      819      824      820      811      793      768 
     737      703      668      637      610      587      567      556 
     552      548      544      540      530      517      496      469 
     442      415      384      357      334      311      294      279 
     264      256      253      248      244      243      247      252 
     255      257      261      263      261      257      249      237 
     220      198      174      147      117       87       60       33 
      10      -10      -32      -56      -76      -97     -118     -136 
    -149     -157     -164     -170     -174     -174     -172     -168 
    -164     -164     -166     -166     -168     -171     -178     -183 
    -184     -182     -176     -168     -159     -148     -140     -136 
    -136     -143     -156     -175     -198     -224     -251     -274 
    -291     -301     -303     -302     -294     -287     -286     -284 
    -292     -307     -328     -363     -407     -454     -508     -565 
    -623     -680     -730     -774     -812     -837     -853     -859 
    -858     -850     -837     -822     -807     -788     -765     -737 
    -706     -672     -633     -587     -537     -486     -437     -387 
    -336     -282     -232     -187     -143      -95      -52      -10 
      28       62       89      105      106       94       74       40 
      -9      -66     -124     -182     -240     -294     -336     -371 
    -396     -407     -407     -400     -383     -356     -325     -288 
    -249     -210     -175     -143     -117      -94      -76      -67 
     -64      -66      -75      -91     -108     -122     -141     -163 
    -179     -197     -213     -228     -238     -244     -244     -234 
    -220     -198     -171     -140     -103      -63      -21       25 
      76      128      179      230      279      322      361      394 
     417      432      436      433      423      407      382      351 
     315      275      236      195      159      124       86       51 
      22       -5      -39      -72     -112     -155     -197     -243 
    -294     -346     -403     -461     -518     -571     -622     -669 
    -710     -749     -787     -816     -839     -862     -873     -874 
    -870     -858     -841     -818     -789     -762     -734     -700 
    -669     -646     -625     -606     -594     -583     -571     -565 
    -562     -558     -558     -564     -575     -589     -608     -631 
    -652     -670     -688     -699     -704     -706     -703     -693 
    -679     -661     -637     -606     -569     -523     -471     -410 
    -340     -267     -194     -114      -33       44      120      191 
     256      317      371      415      454      486      503      518 
     527      526      517      503      479      446      409      365 
     314      259      203      145       86       25      -41     -112 
    -176     -244     -314     -380     -442     -502     -560     -607 
    -645     -677     -697     -702     -696     -680     -650     -612 
    -571     -525     -473     -422     -371     -318     -267     -221 
    -183     -148     -118      -98      -86      -78      -75      -78 
     -85      -98     -117     -137     -160     -189     -218     -247 
    -275     -301     -322     -340     -353     -367     -382     -398 
