Origin Time       2025/01/13 21:19:00
Lat.              31.8
Long.             131.6
Depth. (km)       30
Mag.              6.9
Station Code      YMGH07
Station Lat.      34.1149
Station Long.     131.0506
Station Height(m) -170
Record Time       2025/01/13 21:20:19
Sampling Freq(Hz) 100Hz
Duration Time(s)  138
Dir.              2
Scale Factor      3923(gal)/8224838
Max. Acc. (gal)   0.993
Last Correction   2025/01/13 21:20:20
Memo.             
[...]
   23128    23117    23118    23126    23133    23137    23139    23139 
   23147    23163    23175    23175    23167    23151    23129    23106 
   23082    23066    23058    23049    23040    23033    23032    23040 
   23052    23066    23080    23098    23116    23137    23157    23178 
   23198    23220    23240    23256    23265    23271    23275    23275 
   23272    23268    23260    23248    23234    23222    23215    23217 
   23222    23233    23256    23284    23310    23338    23363    23380 
   23394    23406    23407    23404    23403    23392    23372    23348 
   23317    23283    23255    23224    23197    23183    23174    23166 
   23156    23151    23145    23134    23120    23099    23079    23059 
   23040    23026    23022    23028    23039    23052    23066    23074 
   23078    23070    23053    23036    23012    22981    22954    22935 
   22927    22929    22937    22958    22991    23031    23070    23110 
   23155    23202    23242    23274    23299    23317    23329    23341 
   23349    23346    23337    23322    23301    23274    23248    23233 
   23225    23224    23234    23257    23283    23306    23325    23338 
   23344    23338    23325    23311    23299    23291    23288    23288 
   23291    23292    23279    23265    23261    23261    23267    23279 
   23294    23321    23355    23387    23414    23429    23438    23446 
   23453    23463    23471    23476    23479    23476    23472    23469 
   23458    23440    23421    23404    23391    23384    23388    23404 
   23422    23436    23448    23464    23485    23510    23531    23545 
   23553    23557    23556    23556    23560    23557    23544    23518 
   23473    23411    23342    23279    23218    23167    23132    23107 
   23091    23086    23090    23103    23126    23145    23157    23161 
   23157    23145    23129    23117    23102    23079    23059    23044 
   23033    23025    23020    23018    23022    23026    23025    23029 
   23036    23044    23055    23072    23093    23113    23132    23151 
   23174    23193    23205    23211    23210    23198    23184    23172 
   23160    23152    23149    23149    23151    23148    23140    23126 
   23113    23102    23094    23093    23101    23113    23132    23161 
   23194    23224    23245    23256    23259    23255    23245    23234 
   23222    23203    23188    23178    23170    23178    23198    23215 
   23244    23282    23317    23349    23377    23396    23411    23421 
   23431    23445    23457    23476    23502    23527    23549    23564 
   23572    23576    23572    23562    23545    23519    23490    23463 
   23433    23409    23396    23388    23383    23382    23376    23364 
   23348    23328    23307    23283    23257    23238    23222    23210 
   23201    23186    23163    23141    23113    23074    23033    23001 
   22971    22945    22935    22940    22952    22974    22997    23016 
   23031    23040    23040    23032    23024    23020    23017    23008 
   22997    22983    22970    22958    22950    22951    22960    22978 
   22997    23021    23055    23094    23130    23164    23198    23228 
   23255    23280    23303    23311    23311    23309    23301    23290 
   23274    23249    23218    23188    23159    23133    23117    23113 
   23125    23149    23179    23210    23245    23282    23314    23349 
   23376    23384    23380    23367    23341    23314    23296    23279 
   23265    23261    23265    23272    23280    23291    23299    23302 
   23301    23298    23295    23296    23301    23315    23338    23369 
   23409    23450    23481    23511    23544    23571    23596    23620 
   23639    23657    23665    23665    23657    23642    23620    23589 
   23558    23529    23496    23461    23429    23390    23352    23317 
   23284    23257    23244    23244    23259    23282    23305    23323 
   23333    23334    23326    23311    23291    23272    23259    23255 
   23255    23252    23247    23244    23242    23240    23238    23242 
   23248    23253    23257    23260    23261    23259    23257    23260 
   23256    23257    23265    23271    23278    23286    23291    23291 
   23283    23265    23241    23218    23202    23197    23199    23203 
   23211    23228    23249    23268    23283    23296    23302    23305 
   23307    23306    23295    23275    23244    23206    23164    23114 
   23063    23014    22967    22925    22896    22875    22860    22858 
   22859    22862    22874    22887    22898    22917    22941    22970 
   22998    23022    23039    23048    23047    23035    23020    23006 
   22999    22998    23004    23017    23035    23052    23071    23090 
   23107    23121    23130    23145    23164    23178    23194    23210 
   23224    23237    23252    23263    23276    23290    23298    23301 
   23296    23287    23279    23267    23251    23236    23225    23220 
   23213    23201    23194    23188    23183    23182    23191    23206 
   23224    23248    23267    23276    23284    23296    23303    23309 
   23318    23326    23334    23346    23360    23371    23382    23387 
   23388    23388    23386    23380    23371    23356    23333    23307 
   23278    23249    23222    23195    23172    23148    23121    23095 
   23071    23044    23022    23009    22993    22975    22963    22951 
   22943    22939    22945    22964    22989    23021    23056    23083 
   23102    23113    23114    23110    23097    23070    23041    23014 
   22989    22971    22963    22958    22956    22960    22970    22987 
   23013    23045    23080    23116    23147    23178    23214    23260 
   23315    23375    23430    23479    23523    23561    23588    23607 
   23622    23633    23638    23642    23647    23650    23654    23661 
   23670    23679    23691    23703    23711    23718    23720    23707 
   23687    23662    23630    23591    23561    23545    23534    23525 
   23522    23525    23519    23508    23492    23472    23457    23445 
   23434    23422    23411    23402    23392    23380    23371    23357 
   23330    23302    23282    23268    23259    23255    23259    23263 
   23269    23286    23305    23315    23329    23345    23360    23372 
   23388    23407    23426    23452    23485    23523    23554    23575 
   23581    23576    23560    23541    23525    23508    23490    23476 
   23464    23448    23436    23425    23415    23413    23421    23441 
   23463    23479    23496    23510    23511    23499    23483    23463 
   23440    23419    23395    23369    23346    23319    23280    23234 
   23184    23132    23082    23036    22998    22968    22941    22917 
   22897    22885    22873    22858    22848    22847    22848    22850 
   22847    22836    22817    22797    22773    22746    22723    22698 
   22671    22647    22627    22608    22592    22581    22574    22573 
   22581    22600    22631    22669    22712    22754    22786    22809 
   22827    22839    22847    22847    22843    22847    22854    22873 
   22906    22945    22986    23029    23070    23099    23120    23132 
   23140    23141    23143    23148    23156    23168    23188    23213 
   23242    23274    23303    23332    23352    23364    23371    23377 
   23392    23415    23440    23467    23495    23515    23534    23548 
   23549    23542    23530    23515    23504    23498    23492    23488 
   23492    23504    23517    23525    23527    23526    23530    23548 
   23571    23602    23647    23700    23749    23795    23835    23865 
   23884    23895    23901    23901    23897    23888    23876    23858 
   23831    23799    23762    23723    23689    23661    23637    23620 
   23610    23603    23598    23598    23600    23603    23607    23611 
   23607    23598    23581    23556    23525    23488    23448    23410 
   23373    23340    23311    23290    23269    23249    23229    23211 
   23193    23175    23161    23155    23148    23139    23130    23121 
   23112    23109    23113    23117    23122    23126    23129    23128 
   23120    23103    23080    23055    23028    23004    22986    22981 
   22989    23013    23047    23090    23136    23174    23205    23224 
   23229    23232    23228    23211    23186    23153    23118    23086 
   23058    23037    23022    23017    23022    23041    23071    23110 
   23157    23205    23244    23272    23296    23319    23345    23368 
   23388    23403    23413    23418    23423    23429    23429    23421 
   23407    23391    23372    23350    23329    23310    23296    23283 
   23267    23252    23237    23225    23217    23203    23184    23159 
   23129    23095    23062    23026    22994    22967    22941    22916 
   22890    22864    22837    22815    22800    22794    22794    22796 
   22801    22812    22827    22840    22851    22858    22866    22875 
   22879    22883    22893    22908    22933    22963    22990    23013 
   23039    23070    23098    23124    23148    23170    23193    23213 
   23229    23248    23267    23284    23309    23336    23367    23400 
   23434    23473    23515    23552    23587    23623    23654    23680 
   23708    23737    23764    23787    23811    23835    23853    23870 
   23888    23897    23897    23896    23895    23893    23890    23885 
   23884    23888    23899    23908    23912    23911    23904    23885 
   23862    23841    23818    23800    23792    23792    23792    23793 
   23799    23805    23809    23808    23808    23814    23822    23827 
   23831    23836    23846    23855    23863    23866    23862    23849 
   23828    23803    23768    23726    23680    23630    23579    23533 
   23492    23456    23426    23400    23382    23363    23338    23309 
   23274    23232    23190    23143    23090    23037    22982    22927 
   22870    22812    22756    22700    22644    22599    22559    22528 
   22507    22489    22477    22466    22453    22439    22427    22411 
   22387    22361    22335    22307    22276    22250    22226    22203 
   22188    22183    22180    22177    22171    22165    22165    22167 
   22162    22149    22133    22117    22099    22088    22083    22073 
   22064    22060    22063    22079    22107    22144    22187    22234 
   22276    22318    22362    22407    22455    22503    22542    22576 
   22608    22639    22671    22704    22734    22765    22796    22829 
   22866    22900    22939    22987    23040    23095    23156    23220 
   23284    23353    23419    23479    23533    23577    23615    23645 
   23668    23685    23699    23710    23715    23715    23712    23704 
   23695    23685    23676    23664    23654    23652    23653    23658 
   23662    23665    23672    23680    23684    23685    23688    23683 
   23672    23657    23631    23591    23542    23485    23423    23361 
   23295    23233    23179    23132    23091    23058    23025    22997 
   22975    22959    22945    22939    22936    22931    22927    22924 
   22927    22941    22967    23005    23048    23086    23122    23156 
   23184    23210    23238    23265    23292    23326    23364    23399 
   23431    23464    23488    23503    23510    23515    23526    23548 
   23581    23626    23676    23720    23765    23808    23843    23862 
   23866    23862    23857    23849    23838    23827    23811    23788 
   23760    23723    23680    23635    23593    23550    23507    23465 
   23421    23373    23326    23282    23237    23188    23139    23090 
   23039    22983    22924    22863    22809    22762    22716    22673 
   22635    22600    22573    22554    22538    22523    22511    22500 
   22488    22472    22454    22431    22405    22381    22354    22322 
   22292    22265    22241    22223    22215    22211    22212    22225 
   22239    22253    22275    22297    22320    22346    22369    22384 
   22392    22393    22388    22373    22349    22324    22299    22268 
   22238    22212    22191    22177    22177    22191    22216    22250 
   22288    22324    22358    22393    22432    22470    22505    22538 
   22572    22612    22658    22709    22767    22829    22890    22950 
   23014    23086    23155    23222    23295    23372    23453    23534 
   23618    23697    23768    23828    23888    23950    24008    24058 
   24105    24147    24182    24217    24252    24282    24310    24339 
   24364    24393    24421    24445    24471    24493    24505    24518 
   24526    24525    24524    24517    24502    24483    24456    24417 
   24374    24331    24286    24241    24200    24169    24139    24111 
   24085    24062    24039    24016    23989    23962    23932    23895 
   23861    23828    23792    23757    23719    23681    23645    23607 
   23566    23529    23498    23475    23457    23444    23438    23441 
   23449    23461    23477    23496    23512    23519    23523    23533 
   23539    23542    23553    23572    23589    23612    23635    23653 
   23673    23695    23716    23745    23781    23820    23862    23904 
   23950    23996    24040    24081    24119    24150    24178    24198 
   24210    24224    24232    24233    24232    24228    24217    24204 
   24193    24181    24166    24154    24144    24131    24109    24079 
   24042    23998    23951    23896    23836    23778    23712    23637 
   23560    23480    23392    23298    23199    23095    22990    22891 
   22789    22688    22592    22495    22400    22308    22215    22129 
   22050    21975    21906    21841    21782    21729    21674    21617 
   21558    21493    21427    21361    21296    21242    21203    21173 
   21155    21154    21162    21184    21217    21258    21303    21344 
   21382    21420    21458    21493    21532    21571    21612    21660 
   21713    21767    21832    21906    21983    22061    22148    22238 
   22333    22434    22542    22657    22771    22877    22977    23076 
   23168    23247    23311    23369    23425    23472    23517    23565 
   23615    23661    23706    23746    23788    23827    23861    23897 
   23935    23967    23993    24013    24031    24050    24073    24102 
   24140    24181    24223    24266    24312    24362    24412    24463 
   24517    24570    24610    24641    24665    24683    24695    24702 
   24702    24698    24690    24673    24657    24641    24624    24602 
   24576    24545    24514    24486    24459    24433    24406    24376 
   24340    24297    24250    24202    24155    24102    24047    23994 
   23944    23892    23838    23782    23727    23672    23614    23552 
   23483    23409    23332    23253    23174    23087    22998    22909 
   22821    22739    22663    22599    22545    22495    22453    22420 
   22396    22376    22356    22333    22302    22258    22210    22152 
   22086    22014    21934    21848    21766    21686    21613    21554 
   21500    21452    21416    21393    21384    21381    21388    21406 
   21427    21446    21469    21490    21510    21528    21546    21566 
   21595    21635    21682    21736    21797    21859    21919    21980 
   22042    22104    22165    22223    22281    22346    22411    22478 
   22551    22628    22709    22789    22875    22971    23070    23168 
   23271    23372    23469    23560    23645    23723    23795    23865 
   23928    23989    24050    24104    24156    24216    24273    24332 
   24391    24447    24505    24567    24624    24679    24733    24788 
   24844    24900    24957    25004    25034    25054    25062    25057 
   25038    25011    24981    24948    24908    24865    24814    24754 
   24698    24636    24564    24493    24425    24360    24301    24239 
   24178    24124    24071    24013    23953    23895    23839    23780 
   23723    23670    23611    23550    23487    23410    23321    23225 
   23129    23031    22933    22844    22763    22685    22615    22554 
   22503    22459    22419    22384    22357    22335    22320    22311 
   22308    22308    22316    22331    22349    22377    22407    22431 
   22457    22489    22520    22551    22586    22621    22662    22708 
   22761    22812    22863    22916    22968    23016    23064    23106 
   23136    23161    23186    23199    23207    23213    23213    23206 
   23197    23184    23172    23156    23134    23109    23082    23058 
   23033    23009    22987    22971    22955    22940    22929    22921 
   22913    22908    22901    22891    22883    22883    22887    22891 
   22897    22902    22901    22896    22889    22883    22877    22877 
   22886    22905    22935    22967    23004    23048    23098    23143 
   23183    23218    23248    23276    23303    23333    23363    23395 
   23430    23469    23510    23550    23588    23620    23642    23652 
   23653    23650    23639    23626    23610    23589    23569    23552 
   23537    23521    23507    23498    23487    23475    23460    23437 
   23411    23382    23350    23317    23288    23267    23245    23228 
   23215    23201    23187    23178    23167    23156    23151    23151 
   23153    23167    23191    23221    23257    23295    23328    23353 
   23373    23394    23410    23419    23430    23444    23458    23473 
   23485    23496    23498    23494    23496    23498    23498    23502 
   23512    23522    23537    23561    23585    23604    23627    23653 
   23681    23716    23750    23778    23807    23832    23854    23877 
   23901    23930    23962    23997    24031    24067    24101    24124 
   24136    24147    24148    24140    24132    24124    24112    24101 
   24092    24075    24057    24036    24009    23977    23942    23908 
   23872    23832    23796    23753    23697    23634    23566    23495 
   23423    23353    23283    23217    23152    23087    23022    22956 
   22889    22825    22766    22708    22659    22626    22596    22572 
   22561    22553    22546    22543    22540    22542    22545    22549 
   22554    22554    22546    22536    22522    22507    22491    22473 
   22459    22453    22447    22449    22451    22451    22455    22462 
   22465    22465    22470    22478    22488    22507    22534    22565 
   22600    22635    22669    22701    22724    22736    22747    22755 
   22766    22788    22815    22847    22889    22935    22985    23035 
   23085    23136    23183    23222    23257    23286    23310    23334 
   23356    23380    23403    23423    23452    23485    23518    23549 
   23580    23614    23647    23679    23710    23738    23760    23772 
   23778    23782    23782    23778    23778    23781    23785    23793 
   23805    23816    23831    23851    23870    23881    23888    23889 
   23880    23865    23843    23814    23778    23741    23691    23638 
   23584    23530    23471    23411    23352    23292    23234    23187 
   23145    23101    23060    23020    22975    22935    22896    22852 
   22815    22777    22735    22696    22659    22623    22590    22565 
   22542    22522    22507    22496    22486    22478    22477    22481 
   22491    22501    22519    22545    22569    22590    22616    22642 
   22663    22688    22719    22754    22793    22837    22890    22943 
   22993    23040    23083    23125    23156    23178    23194    23206 
   23210    23213    23220    23232    23251    23278    23302    23328 
   23350    23373    23392    23409    23417    23421    23419    23418 
   23419    23417    23411    23406    23398    23384    23363    23337 
   23306    23268    23228    23188    23149    23109    23074    23047 
