Origin Time       2025/01/13 21:19:00
Lat.              31.8
Long.             131.6
Depth. (km)       30
Mag.              6.9
Station Code      YMGH07
Station Lat.      34.1149
Station Long.     131.0506
Station Height(m) 30
Record Time       2025/01/13 21:20:19
Sampling Freq(Hz) 100Hz
Duration Time(s)  138
Dir.              4
Scale Factor      7845(gal)/8223790
Max. Acc. (gal)   1.103
Last Correction   2025/01/13 21:20:20
Memo.             
[...]
   -9136    -9112    -9100    -9096    -9103    -9113    -9113    -9101 
   -9078    -9043    -8999    -8977    -8996    -9034    -9061    -9082 
   -9099    -9107    -9112    -9117    -9120    -9138    -9162    -9166 
   -9153    -9139    -9126    -9096    -9054    -9019    -9001    -9009 
   -9036    -9066    -9097    -9116    -9105    -9077    -9063    -9058 
   -9039    -9007    -8972    -8943    -8938    -8946    -8938    -8922 
   -8926    -8949    -8978    -9005    -9016    -9024    -9046    -9078 
   -9117    -9163    -9196    -9219    -9242    -9261    -9273    -9282 
   -9279    -9273    -9282    -9298    -9292    -9269    -9252    -9231 
   -9185    -9136    -9100    -9059    -9016    -8974    -8938    -8922 
   -8942    -8970    -8989    -8999    -9005    -9019    -9030    -9026 
   -9004    -8978    -8954    -8928    -8891    -8839    -8789    -8757 
   -8752    -8761    -8783    -8815    -8839    -8850    -8849    -8831 
   -8808    -8806    -8830    -8868    -8916    -8976    -9023    -9043 
   -9053    -9061    -9076    -9096    -9112    -9124    -9140    -9167 
   -9197    -9223    -9243    -9267    -9292    -9316    -9352    -9406 
   -9474    -9545    -9602    -9633    -9629    -9587    -9529    -9479 
   -9436    -9405    -9400    -9418    -9440    -9458    -9462    -9451 
   -9436    -9423    -9410    -9401    -9393    -9374    -9337    -9286 
   -9223    -9153    -9092    -9058    -9062    -9111    -9197    -9289 
   -9362    -9398    -9385    -9331    -9256    -9162    -9066    -9004 
   -8973    -8958    -8957    -8973    -8986    -8991    -9012    -9058 
   -9100    -9121    -9131    -9138    -9144    -9154    -9158    -9163 
   -9166    -9161    -9163    -9178    -9173    -9143    -9107    -9077 
   -9070    -9093    -9119    -9135    -9154    -9166    -9142    -9076 
   -8988    -8903    -8839    -8810    -8816    -8860    -8926    -8984 
   -9012    -9020    -9020    -9005    -8982    -8961    -8957    -8977 
   -9022    -9069    -9094    -9101    -9099    -9096    -9107    -9128 
   -9153    -9181    -9211    -9252    -9310    -9367    -9409    -9435 
   -9439    -9424    -9406    -9390    -9360    -9325    -9302    -9300 
   -9308    -9317    -9321    -9315    -9305    -9289    -9269    -9254 
   -9244    -9232    -9227    -9243    -9283    -9325    -9356    -9371 
   -9371    -9360    -9342    -9300    -9238    -9177    -9124    -9086 
   -9067    -9049    -9015    -8984    -8973    -8981    -9004    -9030 
   -9050    -9069    -9078    -9059    -9003    -8928    -8861    -8819 
   -8812    -8842    -8893    -8954    -9012    -9059    -9093    -9103 
   -9067    -9003    -8943    -8895    -8866    -8868    -8893    -8931 
   -8974    -9007    -9030    -9065    -9112    -9151    -9189    -9236 
   -9278    -9293    -9285    -9261    -9220    -9175    -9146    -9136 
   -9151    -9177    -9194    -9205    -9217    -9224    -9219    -9212 
   -9225    -9255    -9294    -9328    -9346    -9344    -9321    -9289 
   -9274    -9286    -9309    -9336    -9373    -9400    -9404    -9385 
   -9346    -9292    -9251    -9236    -9228    -9221    -9217    -9188 
   -9119    -9036    -8954    -8884    -8841    -8814    -8808    -8830 
   -8856    -8862    -8857    -8858    -8872    -8900    -8947    -9001 
   -9054    -9097    -9117    -9127    -9147    -9171    -9189    -9212 
   -9235    -9247    -9256    -9263    -9258    -9232    -9197    -9165 
   -9136    -9108    -9066    -9000    -8924    -8861    -8806    -8753 
   -8711    -8691    -8698    -8730    -8776    -8829    -8892    -8957 
   -9012    -9058    -9103    -9153    -9207    -9259    -9294    -9320 
   -9350    -9375    -9394    -9412    -9429    -9440    -9448    -9445 
   -9420    -9379    -9339    -9304    -9279    -9273    -9274    -9283 
   -9305    -9333    -9354    -9359    -9360    -9370    -9394    -9418 
   -9420    -9401    -9382    -9374    -9371    -9367    -9351    -9317 
   -9283    -9248    -9205    -9159    -9119    -9077    -9042    -9019 
   -8988    -8939    -8884    -8824    -8768    -8725    -8695    -8676 
   -8680    -8698    -8710    -8715    -8718    -8719    -8727    -8742 
   -8753    -8752    -8749    -8734    -8698    -8662    -8640    -8626 
   -8638    -8683    -8741    -8796    -8845    -8877    -8885    -8883 
   -8873    -8860    -8860    -8885    -8927    -8972    -9012    -9035 
   -9049    -9062    -9074    -9090    -9120    -9136    -9127    -9115 
   -9111    -9108    -9108    -9120    -9147    -9193    -9248    -9296 
   -9328    -9348    -9346    -9325    -9301    -9273    -9236    -9205 
   -9193    -9205    -9238    -9274    -9304    -9331    -9354    -9371 
   -9391    -9420    -9451    -9471    -9483    -9485    -9462    -9418 
   -9370    -9324    -9297    -9294    -9310    -9346    -9398    -9441 
   -9464    -9477    -9470    -9440    -9405    -9383    -9382    -9402 
   -9435    -9471    -9504    -9518    -9506    -9468    -9418    -9359 
   -9290    -9225    -9162    -9090    -9022    -8962    -8910    -8865 
   -8837    -8819    -8819    -8851    -8905    -8958    -9004    -9040 
   -9059    -9076    -9101    -9127    -9143    -9151    -9155    -9166 
   -9184    -9198    -9196    -9182    -9163    -9139    -9105    -9065 
   -9023    -8978    -8937    -8903    -8880    -8862    -8839    -8814 
   -8806    -8816    -8834    -8851    -8869    -8889    -8919    -8957 
   -8977    -8980    -8982    -8988    -8992    -8992    -8980    -8950 
   -8922    -8896    -8862    -8826    -8788    -8749    -8715    -8707 
   -8723    -8753    -8791    -8824    -8849    -8865    -8866    -8853 
   -8850    -8866    -8900    -8951    -9011    -9061    -9101    -9140 
   -9175    -9209    -9244    -9270    -9288    -9315    -9343    -9364 
   -9382    -9397    -9402    -9402    -9396    -9379    -9356    -9340 
   -9331    -9321    -9304    -9288    -9278    -9289    -9317    -9344 
   -9366    -9383    -9401    -9420    -9443    -9474    -9508    -9553 
   -9603    -9643    -9661    -9657    -9629    -9602    -9593    -9580 
   -9564    -9562    -9572    -9578    -9572    -9555    -9514    -9447 
   -9360    -9266    -9177    -9107    -9062    -9045    -9045    -9043 
   -9035    -9022    -8997    -8968    -8946    -8937    -8928    -8926 
   -8935    -8949    -8965    -8992    -9012    -9013    -9004    -8991 
   -8969    -8962    -8976    -8996    -9018    -9042    -9059    -9069 
   -9080    -9085    -9086    -9086    -9073    -9054    -9046    -9053 
   -9058    -9062    -9076    -9090    -9105    -9124    -9140    -9159 
   -9188    -9220    -9252    -9278    -9281    -9251    -9205    -9144 
   -9082    -9050    -9058    -9099    -9162    -9239    -9313    -9374 
   -9405    -9402    -9389    -9385    -9390    -9401    -9418    -9431 
   -9424    -9402    -9381    -9350    -9306    -9266    -9227    -9189 
   -9167    -9162    -9155    -9150    -9148    -9155    -9165    -9163 
   -9142    -9111    -9085    -9057    -9031    -9020    -9011    -8995 
   -8985    -8984    -8972    -8950    -8922    -8893    -8880    -8880 
   -8873    -8860    -8857    -8868    -8880    -8893    -8904    -8904 
   -8908    -8922    -8942    -8964    -8974    -8969    -8974    -9007 
   -9045    -9067    -9076    -9076    -9076    -9081    -9073    -9047 
   -9016    -9001    -9013    -9046    -9085    -9120    -9146    -9161 
   -9166    -9157    -9131    -9107    -9105    -9132    -9181    -9235 
   -9275    -9296    -9288    -9251    -9208    -9170    -9140    -9126 
   -9139    -9181    -9242    -9304    -9344    -9371    -9400    -9423 
   -9441    -9456    -9450    -9418    -9381    -9331    -9270    -9223 
   -9189    -9163    -9151    -9153    -9154    -9154    -9169    -9192 
   -9207    -9215    -9223    -9227    -9220    -9201    -9171    -9144 
   -9131    -9131    -9144    -9165    -9174    -9178    -9180    -9169 
   -9155    -9157    -9162    -9170    -9202    -9247    -9271    -9271 
   -9262    -9239    -9201    -9171    -9157    -9154    -9175    -9219 
   -9269    -9315    -9350    -9351    -9323    -9288    -9246    -9192 
   -9134    -9090    -9065    -9050    -9034    -9005    -8961    -8912 
   -8864    -8829    -8814    -8806    -8797    -8799    -8810    -8826 
   -8851    -8889    -8934    -8989    -9036    -9051    -9038    -9022 
   -9012    -9013    -9035    -9072    -9116    -9165    -9209    -9238 
   -9256    -9269    -9273    -9281    -9301    -9335    -9381    -9436 
   -9491    -9531    -9545    -9531    -9493    -9444    -9391    -9342 
   -9294    -9248    -9209    -9181    -9159    -9136    -9121    -9127 
   -9139    -9154    -9184    -9220    -9250    -9278    -9312    -9337 
   -9359    -9385    -9412    -9437    -9460    -9474    -9479    -9486 
   -9491    -9482    -9458    -9427    -9391    -9360    -9337    -9317 
   -9292    -9254    -9208    -9165    -9134    -9108    -9082    -9070 
   -9066    -9061    -9051    -9038    -9023    -9024    -9046    -9086 
   -9144    -9217    -9292    -9362    -9427    -9479    -9498    -9483 
   -9451    -9402    -9352    -9312    -9278    -9244    -9209    -9159 
   -9085    -9001    -8915    -8833    -8768    -8733    -8725    -8735 
   -8765    -8796    -8823    -8854    -8878    -8888    -8900    -8908 
   -8901    -8897    -8905    -8920    -8937    -8943    -8932    -8914 
   -8895    -8870    -8845    -8833    -8835    -8839    -8841    -8841 
   -8839    -8838    -8835    -8827    -8820    -8823    -8835    -8849 
   -8865    -8884    -8891    -8889    -8880    -8864    -8850    -8846 
   -8851    -8874    -8918    -8970    -9023    -9070    -9104    -9119 
   -9127    -9128    -9112    -9082    -9055    -9042    -9054    -9086 
   -9116    -9138    -9158    -9169    -9169    -9165    -9163    -9171 
   -9207    -9269    -9329    -9389    -9452    -9509    -9555    -9590 
   -9602    -9586    -9553    -9522    -9494    -9466    -9443    -9421 
   -9409    -9406    -9405    -9401    -9387    -9354    -9312    -9282 
   -9261    -9251    -9265    -9286    -9300    -9313    -9310    -9266 
   -9197    -9134    -9088    -9066    -9072    -9093    -9126    -9167 
   -9205    -9224    -9232    -9234    -9234    -9247    -9273    -9288 
   -9285    -9273    -9247    -9215    -9184    -9139    -9089    -9066 
   -9061    -9043    -9024    -9007    -8977    -8950    -8949    -8959 
   -8974    -9000    -9031    -9055    -9080    -9096    -9093    -9082 
   -9084    -9100    -9120    -9139    -9158    -9178    -9192    -9182 
   -9148    -9105    -9062    -9022    -8991    -8976    -8968    -8951 
   -8918    -8854    -8775    -8699    -8625    -8560    -8534    -8544 
   -8568    -8606    -8656    -8707    -8762    -8826    -8887    -8942 
   -9000    -9051    -9093    -9139    -9178    -9200    -9216    -9234 
   -9247    -9263    -9285    -9297    -9292    -9273    -9231    -9165 
   -9090    -9012    -8937    -8878    -8830    -8781    -8734    -8683 
   -8630    -8590    -8571    -8573    -8596    -8642    -8698    -8750 
   -8806    -8857    -8896    -8934    -8965    -8981    -8993    -9008 
   -9020    -9039    -9073    -9115    -9158    -9200    -9235    -9267 
   -9298    -9325    -9354    -9396    -9444    -9486    -9517    -9537 
   -9543    -9532    -9512    -9478    -9427    -9383    -9355    -9333 
   -9323    -9328    -9348    -9377    -9400    -9406    -9394    -9367 
   -9336    -9316    -9313    -9317    -9325    -9331    -9319    -9292 
   -9265    -9239    -9216    -9208    -9224    -9252    -9285    -9313 
   -9325    -9319    -9306    -9288    -9258    -9236    -9238    -9256 
   -9297    -9359    -9413    -9447    -9470    -9483    -9489    -9494 
   -9494    -9483    -9463    -9436    -9405    -9373    -9336    -9301 
   -9278    -9273    -9278    -9290    -9308    -9325    -9344    -9369 
   -9381    -9383    -9387    -9393    -9390    -9386    -9379    -9344 
   -9282    -9215    -9139    -9061    -9001    -8955    -8907    -8865 
   -8824    -8764    -8687    -8610    -8536    -8469    -8421    -8388 
   -8367    -8368    -8378    -8383    -8391    -8399    -8399    -8405 
   -8409    -8399    -8386    -8380    -8386    -8403    -8433    -8468 
   -8500    -8534    -8575    -8608    -8635    -8665    -8692    -8712 
   -8738    -8764    -8788    -8818    -8847    -8874    -8897    -8916 
   -8930    -8939    -8949    -8968    -8997    -9047    -9108    -9162 
   -9213    -9259    -9301    -9355    -9416    -9481    -9558    -9637 
   -9709    -9776    -9837    -9879    -9904    -9925    -9942    -9942 
   -9933    -9918    -9895    -9880    -9879    -9879    -9880    -9880 
   -9876    -9883    -9898    -9910    -9914    -9907    -9887    -9846 
   -9795    -9738    -9674    -9609    -9559    -9508    -9455    -9413 
   -9381    -9364    -9369    -9374    -9371    -9364    -9347    -9317 
   -9288    -9258    -9228    -9205    -9189    -9163    -9126    -9080 
   -9016    -8939    -8866    -8799    -8731    -8673    -8627    -8583 
   -8534    -8478    -8418    -8372    -8341    -8313    -8290    -8280 
   -8287    -8305    -8337    -8375    -8403    -8424    -8441    -8449 
   -8444    -8433    -8418    -8403    -8407    -8426    -8453    -8491 
   -8532    -8575    -8621    -8665    -8702    -8725    -8745    -8772 
   -8815    -8881    -8957    -9031    -9109    -9184    -9238    -9270 
   -9289    -9300    -9309    -9324    -9336    -9347    -9371    -9408 
   -9455    -9514    -9574    -9622    -9663    -9693    -9715    -9736 
   -9761    -9794    -9834    -9886    -9938    -9996   -10062   -10122 
  -10168   -10207   -10237   -10258   -10281   -10295   -10288   -10273 
  -10264   -10251   -10230   -10201   -10162   -10115   -10073   -10039 
   -9999    -9957    -9923    -9891    -9857    -9813    -9748    -9674 
   -9597    -9520    -9448    -9379    -9302    -9219    -9146    -9081 
   -9023    -8973    -8924    -8868    -8810    -8757    -8702    -8638 
   -8579    -8523    -8473    -8438    -8414    -8380    -8336    -8295 
   -8263    -8241    -8239    -8244    -8267    -8317    -8375    -8430 
   -8487    -8529    -8546    -8550    -8545    -8534    -8525    -8518 
   -8506    -8492    -8488    -8478    -8449    -8405    -8347    -8290 
   -8249    -8225    -8212    -8206    -8214    -8235    -8260    -8299 
   -8345    -8387    -8434    -8490    -8542    -8603    -8676    -8753 
   -8830    -8900    -8951    -8995    -9034    -9069    -9105    -9150 
   -9193    -9235    -9274    -9301    -9313    -9313    -9309    -9306 
   -9306    -9308    -9310    -9309    -9308    -9298    -9282    -9270 
   -9256    -9250    -9262    -9283    -9308    -9332    -9347    -9350 
   -9342    -9325    -9301    -9269    -9243    -9224    -9211    -9216 
   -9246    -9279    -9312    -9339    -9352    -9367    -9394    -9425 
   -9464    -9517    -9574    -9629    -9680    -9718    -9744    -9767 
   -9795    -9826    -9865    -9910    -9942    -9965   -10002   -10034 
  -10050   -10062   -10064   -10050   -10038   -10022    -9988    -9946 
   -9903    -9855    -9805    -9759    -9707    -9653    -9605    -9562 
   -9525    -9497    -9467    -9427    -9393    -9366    -9319    -9258 
   -9197    -9126    -9050    -8992    -8950    -8915    -8884    -8850 
   -8799    -8737    -8657    -8554    -8444    -8352    -8289    -8251 
   -8236    -8229    -8221    -8218    -8217    -8208    -8208    -8225 
   -8252    -8287    -8334    -8380    -8422    -8464    -8496    -8519 
   -8541    -8561    -8579    -8614    -8675    -8756    -8850    -8954 
   -9050    -9136    -9208    -9255    -9274    -9277    -9271    -9259 
   -9250    -9252    -9258    -9262    -9262    -9248    -9228    -9221 
   -9220    -9223    -9242    -9269    -9300    -9343    -9394    -9447 
   -9510    -9586    -9661    -9726    -9778    -9814    -9840    -9865 
   -9886    -9894    -9895    -9888    -9872    -9856    -9834    -9805 
   -9784    -9772    -9757    -9752    -9752    -9738    -9710    -9676 
   -9645    -9618    -9601    -9587    -9566    -9533    -9491    -9432 
   -9370    -9321    -9279    -9243    -9212    -9177    -9128    -9078 
   -9032    -8996    -8972    -8958    -8943    -8923    -8896    -8857 
   -8815    -8793    -8785    -8785    -8810    -8851    -8880    -8889 
   -8892    -8887    -8878    -8864    -8837    -8814    -8807    -8802 
   -8797    -8804    -8808    -8812    -8826    -8847    -8878    -8916 
   -8949    -8970    -8977    -8969    -8943    -8911    -8891    -8880 
   -8872    -8876    -8891    -8910    -8931    -8966    -9007    -9043 
   -9089    -9144    -9194    -9243    -9290    -9325    -9350    -9362 
   -9358    -9347    -9343    -9339    -9337    -9340    -9332    -9316 
   -9297    -9266    -9223    -9181    -9135    -9076    -9012    -8950 
   -8896    -8853    -8822    -8795    -8787    -8796    -8812    -8831 
   -8854    -8868    -8872    -8884    -8903    -8920    -8943    -8978 
   -9015    -9051    -9085    -9100    -9104    -9105    -9089    -9057 
   -9023    -8984    -8938    -8899    -8869    -8858    -8872    -8901 
   -8935    -8980    -9031    -9066    -9081    -9086    -9076    -9054 
   -9043    -9050    -9074    -9120    -9177    -9225    -9258    -9279 
   -9292    -9289    -9274    -9258    -9240    -9219    -9194    -9166 
   -9135    -9109    -9096    -9101    -9135    -9192    -9256    -9325 
   -9393    -9455    -9512    -9558    -9586    -9607    -9618    -9625 
   -9637    -9652    -9652    -9636    -9613    -9586    -9551    -9510 
   -9468    -9425    -9382    -9339    -9297    -9267    -9254    -9248 
   -9250    -9262    -9271    -9271    -9265    -9248    -9227    -9205 
   -9188    -9170    -9158    -9151    -9151    -9166    -9196    -9228 
   -9259    -9292    -9313    -9331    -9358    -9383    -9398    -9416 
   -9439    -9462    -9478    -9481    -9466    -9432    -9377    -9310 
   -9247    -9197    -9158    -9119    -9088    -9059    -9005    -8935 
   -8861    -8792    -8729    -8675    -8627    -8588    -8557    -8537 
   -8513    -8492    -8488    -8488    -8498    -8522    -8548    -8583 
   -8629    -8667    -8700    -8735    -8764    -8780    -8784    -8781 
   -8768    -8748    -8734    -8729    -8735    -8761    -8806    -8857 
   -8920    -8986    -9043    -9094    -9138    -9166    -9188    -9202 
   -9207    -9211    -9225    -9244    -9256    -9270    -9281    -9282 
   -9279    -9288    -9301    -9323    -9354    -9375    -9381    -9387 
   -9391    -9389    -9386    -9381    -9371    -9366    -9369    -9373 
   -9377    -9369    -9344    -9316    -9281    -9228    -9163    -9093 
   -9024    -8976    -8951    -8939    -8934    -8941    -8950    -8962 
   -8974    -8989    -9004    -9019    -9046    -9089    -9140    -9200 
   -9256    -9300    -9339    -9371    -9382    -9378    -9367    -9350 
   -9336    -9339    -9344    -9346    -9351    -9360    -9369    -9383 
   -9396    -9391    -9386    -9381    -9363    -9342    -9310    -9252 
   -9181    -9111    -9039    -8980    -8938    -8903    -8870    -8851 
   -8841    -8833    -8830    -8837    -8839    -8841    -8856    -8876 
   -8893    -8923    -8959    -8986    -9013    -9038    -9049    -9058 
   -9077    -9093    -9107    -9117    -9115    -9104    -9093    -9081 
   -9074    -9074    -9070    -9061    -9057    -9058    -9063    -9073 
   -9097    -9134    -9167    -9204    -9240    -9271    -9298    -9317 
   -9317    -9308    -9289    -9263    -9247    -9242    -9236    -9235 
