Origin Time       2025/01/13 21:19:00
Lat.              31.8
Long.             131.6
Depth. (km)       30
Mag.              6.9
Station Code      YMGH10
Station Lat.      34.4837
Station Long.     131.6329
Station Height(m) 365
Record Time       2025/01/13 21:20:30
Sampling Freq(Hz) 100Hz
Duration Time(s)  141
Dir.              5
Scale Factor      7845(gal)/8223790
Max. Acc. (gal)   1.047
Last Correction   2025/01/13 21:20:13
Memo.             
[...]
  -10763   -10800   -10866   -10944   -11006   -11044   -11055   -11045 
  -11033   -11024   -11011   -10999   -10990   -10982   -10976   -10971 
  -10964   -10964   -10975   -10995   -11016   -11029   -11040   -11053 
  -11067   -11079   -11092   -11102   -11107   -11103   -11092   -11090 
  -11101   -11118   -11140   -11161   -11182   -11200   -11213   -11209 
  -11191   -11160   -11126   -11098   -11078   -11067   -11068   -11078 
  -11094   -11124   -11168   -11221   -11265   -11299   -11327   -11335 
  -11315   -11264   -11188   -11105   -11029   -10979   -10964   -10993 
  -11057   -11141   -11225   -11286   -11310   -11296   -11248   -11169 
  -11068   -10971   -10908   -10883   -10905   -10972   -11065   -11160 
  -11237   -11268   -11249   -11192   -11119   -11051   -11001   -10975 
  -10982   -11021   -11075   -11128   -11163   -11169   -11149   -11105 
  -11032   -10932   -10836   -10768   -10739   -10755   -10817   -10908 
  -11005   -11082   -11118   -11107   -11064   -11003   -10940   -10886 
  -10856   -10855   -10878   -10910   -10949   -10990   -11028   -11056 
  -11070   -11072   -11063   -11041   -11011   -10984   -10978   -10990 
  -11022   -11068   -11122   -11176   -11225   -11253   -11260   -11249 
  -11226   -11196   -11168   -11142   -11126   -11124   -11125   -11129 
  -11140   -11164   -11191   -11215   -11238   -11253   -11256   -11246 
  -11227   -11200   -11178   -11165   -11163   -11167   -11176   -11192 
  -11209   -11222   -11225   -11222   -11221   -11219   -11213   -11199 
  -11169   -11129   -11090   -11068   -11072   -11095   -11133   -11183 
  -11232   -11259   -11253   -11213   -11144   -11068   -11003   -10956 
  -10930   -10933   -10970   -11032   -11097   -11148   -11180   -11187 
  -11175   -11155   -11132   -11114   -11109   -11110   -11107   -11097 
  -11082   -11064   -11045   -11030   -11021   -11014   -11011   -11009 
  -10994   -10962   -10920   -10885   -10854   -10825   -10812   -10821 
  -10856   -10910   -10970   -11024   -11067   -11092   -11107   -11105 
  -11090   -11072   -11059   -11052   -11060   -11068   -11076   -11091 
  -11101   -11099   -11088   -11075   -11065   -11067   -11075   -11082 
  -11084   -11076   -11056   -11022   -10979   -10935   -10897   -10878 
  -10878   -10887   -10901   -10910   -10916   -10922   -10926   -10939 
  -10962   -10987   -11010   -11034   -11049   -11056   -11060   -11063 
  -11055   -11036   -11010   -10979   -10949   -10926   -10917   -10932 
  -10966   -11013   -11067   -11117   -11153   -11169   -11173   -11175 
  -11182   -11196   -11222   -11246   -11261   -11272   -11275   -11265 
  -11248   -11222   -11191   -11161   -11148   -11155   -11186   -11230 
  -11273   -11304   -11308   -11271   -11198   -11101   -10995   -10918 
  -10890   -10906   -10966   -11063   -11172   -11268   -11338   -11364 
  -11335   -11269   -11196   -11136   -11099   -11098   -11129   -11179 
  -11236   -11283   -11304   -11298   -11264   -11210   -11156   -11113 
  -11088   -11086   -11106   -11153   -11225   -11302   -11364   -11400 
  -11402   -11371   -11315   -11263   -11229   -11222   -11252   -11319 
  -11400   -11466   -11503   -11502   -11465   -11395   -11303   -11209 
  -11133   -11079   -11057   -11074   -11115   -11171   -11230   -11277 
  -11296   -11275   -11217   -11145   -11080   -11040   -11037   -11071 
  -11133   -11203   -11256   -11276   -11249   -11167   -11044   -10895 
  -10751   -10644   -10598   -10615   -10689   -10802   -10917   -10998 
  -11017   -10963   -10843   -10686   -10528   -10408   -10351   -10372 
  -10463   -10597   -10739   -10852   -10901   -10879   -10793   -10659 
  -10524   -10420   -10380   -10431   -10570   -10760   -10959   -11114 
  -11188   -11168   -11049   -10858   -10646   -10465   -10359   -10358 
  -10458   -10640   -10867   -11083   -11244   -11323   -11300   -11188 
  -11026   -10858   -10724   -10654   -10662   -10752   -10901   -11070 
  -11217   -11311   -11345   -11319   -11244   -11132   -11009   -10913 
  -10863   -10860   -10905   -10993   -11106   -11226   -11326   -11388 
  -11408   -11399   -11365   -11319   -11276   -11250   -11245   -11257 
  -11279   -11296   -11300   -11283   -11248   -11199   -11142   -11101 
  -11086   -11103   -11151   -11217   -11279   -11331   -11376   -11406 
  -11421   -11427   -11430   -11433   -11438   -11437   -11427   -11416 
  -11419   -11445   -11488   -11541   -11593   -11639   -11658   -11637 
  -11570   -11475   -11371   -11281   -11229   -11222   -11260   -11341 
  -11443   -11531   -11584   -11592   -11550   -11464   -11356   -11248 
  -11163   -11137   -11184   -11295   -11452   -11627   -11786   -11896 
  -11927   -11866   -11724   -11529   -11317   -11137   -11026   -11001 
  -11060   -11191   -11349   -11487   -11565   -11557   -11461   -11291 
  -11076   -10864   -10693   -10594   -10594   -10693   -10866   -11068 
  -11245   -11350   -11358   -11259   -11078   -10854   -10625   -10434 
  -10309   -10262   -10284   -10354   -10431   -10494   -10536   -10534 
  -10485   -10419   -10355   -10323   -10347   -10428   -10551   -10673 
  -10767   -10809   -10773   -10678   -10566   -10466   -10411   -10416 
  -10478   -10590   -10716   -10814   -10875   -10893   -10868   -10821 
  -10773   -10740   -10736   -10766   -10820   -10879   -10924   -10943 
  -10928   -10878   -10808   -10732   -10670   -10638   -10642   -10677 
  -10739   -10818   -10891   -10940   -10960   -10949   -10916   -10868 
  -10824   -10797   -10801   -10845   -10928   -11029   -11134   -11234 
  -11313   -11348   -11341   -11311   -11279   -11259   -11263   -11290 
  -11329   -11372   -11410   -11433   -11437   -11418   -11377   -11331 
  -11295   -11268   -11250   -11244   -11253   -11280   -11323   -11380 
  -11446   -11503   -11534   -11535   -11507   -11452   -11384   -11322 
  -11288   -11302   -11368   -11480   -11600   -11699   -11759   -11759 
  -11685   -11556   -11395   -11237   -11121   -11074   -11103   -11203 
  -11342   -11487   -11601   -11670   -11680   -11632   -11531   -11385 
  -11223   -11068   -10939   -10854   -10825   -10854   -10930   -11037 
  -11152   -11246   -11303   -11310   -11275   -11210   -11132   -11064 
  -11022   -11002   -10993   -10989   -10975   -10945   -10902   -10858 
  -10835   -10845   -10886   -10945   -11010   -11061   -11083   -11063 
  -10997   -10902   -10804   -10727   -10690   -10697   -10739   -10812 
  -10889   -10947   -10980   -10997   -10991   -10979   -10980   -11001 
  -11036   -11076   -11121   -11153   -11161   -11153   -11134   -11097 
  -11052   -11010   -10974   -10945   -10929   -10933   -10968   -11029 
  -11107   -11182   -11227   -11226   -11168   -11055   -10913   -10782 
  -10693   -10671   -10720   -10814   -10929   -11043   -11133   -11186 
  -11196   -11173   -11134   -11102   -11084   -11090   -11126   -11194 
  -11279   -11364   -11430   -11465   -11460   -11422   -11365   -11308 
  -11271   -11269   -11311   -11400   -11524   -11657   -11772   -11855 
  -11892   -11874   -11809   -11712   -11607   -11523   -11480   -11480 
  -11515   -11572   -11627   -11659   -11653   -11607   -11535   -11460 
  -11395   -11353   -11329   -11310   -11295   -11281   -11260   -11229 
  -11203   -11192   -11198   -11223   -11272   -11340   -11418   -11489 
  -11535   -11543   -11507   -11431   -11331   -11226   -11132   -11070 
  -11052   -11065   -11092   -11119   -11128   -11098   -11029   -10926 
  -10802   -10681   -10589   -10544   -10554   -10611   -10698   -10804 
  -10901   -10963   -10987   -10975   -10935   -10881   -10822   -10773 
  -10736   -10710   -10696   -10682   -10660   -10642   -10632   -10635 
  -10643   -10651   -10654   -10642   -10611   -10555   -10486   -10424 
  -10382   -10372   -10397   -10461   -10551   -10644   -10731   -10798 
  -10832   -10840   -10827   -10797   -10774   -10770   -10793   -10852 
  -10933   -11022   -11103   -11155   -11164   -11129   -11063   -10990 
  -10928   -10897   -10912   -10970   -11055   -11142   -11206   -11225 
  -11190   -11106   -10997   -10891   -10812   -10782   -10806   -10872 
  -10959   -11041   -11090   -11094   -11053   -10976   -10886   -10810 
  -10778   -10793   -10848   -10933   -11017   -11076   -11088   -11053 
  -10982   -10897   -10820   -10778   -10783   -10836   -10914   -10999 
  -11080   -11138   -11157   -11128   -11055   -10957   -10856   -10768 
  -10712   -10708   -10764   -10872   -11006   -11122   -11188   -11190 
  -11118   -10986   -10817   -10648   -10509   -10415   -10363   -10351 
  -10370   -10405   -10453   -10511   -10566   -10613   -10660   -10690 
  -10694   -10698   -10708   -10723   -10752   -10789   -10825   -10852 
  -10871   -10891   -10917   -10953   -11001   -11051   -11094   -11125 
  -11141   -11140   -11125   -11110   -11109   -11121   -11129   -11126 
  -11115   -11101   -11092   -11107   -11144   -11198   -11273   -11368 
  -11472   -11572   -11657   -11723   -11765   -11780   -11765   -11727 
  -11676   -11620   -11572   -11535   -11508   -11488   -11475   -11464 
  -11448   -11421   -11385   -11346   -11311   -11288   -11277   -11283 
  -11308   -11352   -11402   -11445   -11476   -11489   -11491   -11479 
  -11453   -11430   -11422   -11426   -11442   -11466   -11485   -11503 
  -11520   -11531   -11529   -11516   -11491   -11458   -11418   -11361 
  -11298   -11242   -11209   -11206   -11229   -11264   -11307   -11350 
  -11372   -11360   -11317   -11260   -11199   -11134   -11079   -11051 
  -11041   -11048   -11072   -11111   -11163   -11218   -11261   -11284 
  -11288   -11279   -11259   -11244   -11244   -11265   -11307   -11372 
  -11448   -11518   -11574   -11605   -11600   -11554   -11483   -11402 
  -11319   -11252   -11207   -11184   -11178   -11169   -11153   -11129 
  -11095   -11051   -11009   -10984   -10987   -11022   -11074   -11129 
  -11175   -11202   -11207   -11187   -11156   -11142   -11145   -11168 
  -11218   -11287   -11358   -11423   -11480   -11512   -11504   -11457 
  -11384   -11290   -11187   -11099   -11051   -11055   -11110   -11213 
  -11346   -11477   -11566   -11592   -11557   -11465   -11329   -11176 
  -11043   -10959   -10940   -10994   -11111   -11263   -11416   -11553 
  -11646   -11672   -11634   -11554   -11460   -11380   -11335   -11337 
  -11384   -11465   -11558   -11642   -11699   -11727   -11727   -11700 
  -11653   -11596   -11530   -11464   -11408   -11372   -11354   -11341 
  -11318   -11280   -11219   -11133   -11026   -10916   -10809   -10720 
  -10659   -10623   -10608   -10606   -10609   -10612   -10605   -10582 
  -10551   -10515   -10476   -10453   -10463   -10517   -10611   -10727 
  -10837   -10925   -10972   -10979   -10962   -10925   -10887   -10863 
  -10854   -10858   -10868   -10883   -10894   -10902   -10917   -10943 
  -10964   -10980   -10991   -10990   -10971   -10932   -10883   -10836 
  -10793   -10755   -10727   -10705   -10682   -10650   -10604   -10538 
  -10453   -10359   -10270   -10206   -10180   -10191   -10231   -10301 
  -10381   -10436   -10446   -10409   -10346   -10260   -10165   -10108 
  -10096   -10120   -10195   -10296   -10399   -10505   -10596   -10648 
  -10658   -10638   -10594   -10536   -10485   -10450   -10439   -10461 
  -10504   -10559   -10612   -10656   -10687   -10696   -10693   -10694 
  -10701   -10716   -10744   -10790   -10859   -10936   -11006   -11065 
  -11119   -11165   -11206   -11242   -11273   -11302   -11334   -11367 
  -11391   -11400   -11396   -11376   -11338   -11288   -11236   -11187 
  -11144   -11118   -11117   -11138   -11172   -11215   -11261   -11300 
  -11330   -11346   -11342   -11317   -11281   -11242   -11210   -11199 
  -11213   -11244   -11290   -11335   -11376   -11414   -11443   -11465 
  -11485   -11502   -11518   -11537   -11549   -11547   -11538   -11523 
  -11500   -11465   -11423   -11385   -11350   -11318   -11296   -11299 
  -11321   -11354   -11394   -11426   -11443   -11450   -11445   -11435 
  -11434   -11443   -11469   -11510   -11556   -11603   -11650   -11686 
  -11715   -11730   -11730   -11718   -11705   -11700   -11701   -11709 
  -11716   -11713   -11697   -11662   -11608   -11546   -11475   -11400 
  -11333   -11271   -11214   -11178   -11163   -11171   -11198   -11233 
  -11269   -11298   -11303   -11280   -11244   -11202   -11161   -11134 
  -11122   -11121   -11133   -11152   -11175   -11202   -11219   -11223 
  -11218   -11198   -11165   -11125   -11083   -11047   -11025   -11024 
  -11037   -11059   -11094   -11142   -11203   -11279   -11361   -11439 
  -11514   -11583   -11638   -11678   -11711   -11745   -11782   -11816 
  -11842   -11854   -11850   -11836   -11826   -11821   -11830   -11853 
  -11890   -11934   -11974   -12001   -12004   -11975   -11919   -11827 
  -11707   -11577   -11456   -11352   -11277   -11238   -11237   -11263 
  -11292   -11317   -11325   -11298   -11229   -11117   -10970   -10814 
  -10682   -10597   -10578   -10627   -10724   -10841   -10940   -10987 
  -10967   -10881   -10746   -10596   -10451   -10336   -10281   -10301 
  -10384   -10511   -10677   -10856   -11001   -11092   -11121   -11076 
  -10983   -10878   -10794   -10760   -10790   -10881   -11013   -11155 
  -11276   -11342   -11340   -11277   -11173   -11057   -10952   -10889 
  -10883   -10933   -11020   -11118   -11203   -11253   -11259   -11209 
  -11119   -11018   -10920   -10843   -10805   -10808   -10841   -10894 
  -10949   -10983   -10982   -10948   -10887   -10814   -10743   -10682 
  -10648   -10652   -10681   -10712   -10729   -10720   -10667   -10570 
  -10436   -10285   -10142   -10038    -9992    -9995   -10039   -10127 
  -10233   -10327   -10405   -10451   -10469   -10482   -10489   -10497 
  -10535   -10611   -10716   -10837   -10957   -11059   -11125   -11148 
  -11140   -11111   -11071   -11041   -11036   -11060   -11118   -11192 
  -11269   -11341   -11394   -11422   -11431   -11423   -11410   -11403 
  -11410   -11433   -11469   -11514   -11547   -11560   -11543   -11504 
  -11448   -11380   -11314   -11263   -11234   -11233   -11253   -11287 
  -11329   -11367   -11392   -11404   -11403   -11388   -11369   -11353 
  -11344   -11334   -11327   -11322   -11300   -11254   -11191   -11117 
  -11047   -10984   -10940   -10925   -10944   -10986   -11043   -11101 
  -11140   -11155   -11138   -11086   -11001   -10903   -10818   -10759 
  -10739   -10759   -10804   -10847   -10875   -10885   -10858   -10793 
  -10712   -10629   -10557   -10509   -10501   -10531   -10592   -10665 
  -10731   -10774   -10785   -10768   -10739   -10712   -10700   -10714 
  -10758   -10820   -10882   -10933   -10960   -10951   -10914   -10856 
  -10782   -10713   -10663   -10642   -10651   -10693   -10762   -10836 
  -10893   -10926   -10937   -10920   -10889   -10860   -10855   -10893 
  -10968   -11074   -11188   -11300   -11398   -11468   -11499   -11492 
  -11449   -11380   -11294   -11202   -11115   -11043   -10993   -10970 
  -10971   -10987   -11013   -11040   -11059   -11064   -11059   -11038 
  -10998   -10944   -10891   -10844   -10810   -10802   -10814   -10844 
  -10890   -10939   -10979   -11002   -10998   -10968   -10922   -10874 
  -10833   -10812   -10812   -10833   -10871   -10922   -10978   -11025 
  -11060   -11084   -11099   -11110   -11124   -11140   -11165   -11207 
  -11257   -11296   -11323   -11334   -11323   -11299   -11268   -11238 
  -11219   -11215   -11225   -11245   -11263   -11267   -11253   -11218 
  -11164   -11107   -11061   -11029   -11025   -11044   -11082   -11137 
  -11200   -11256   -11299   -11322   -11325   -11308   -11279   -11245 
  -11210   -11176   -11142   -11107   -11083   -11067   -11060   -11060 
  -11061   -11056   -11048   -11043   -11043   -11047   -11061   -11091 
  -11130   -11175   -11223   -11275   -11329   -11385   -11448   -11514 
  -11577   -11632   -11666   -11672   -11649   -11605   -11560   -11518 
  -11480   -11449   -11426   -11406   -11380   -11356   -11334   -11317 
  -11310   -11326   -11354   -11380   -11395   -11395   -11381   -11350 
  -11298   -11234   -11175   -11134   -11109   -11097   -11107   -11136 
  -11169   -11203   -11230   -11234   -11214   -11178   -11121   -11056 
  -10986   -10917   -10859   -10814   -10779   -10758   -10743   -10720 
  -10689   -10651   -10601   -10542   -10484   -10439   -10409   -10396 
  -10411   -10449   -10500   -10559   -10615   -10667   -10716   -10751 
  -10787   -10827   -10874   -10936   -11001   -11060   -11113   -11155 
  -11184   -11200   -11213   -11230   -11250   -11276   -11306   -11334 
  -11353   -11362   -11372   -11381   -11395   -11412   -11439   -11477 
  -11518   -11551   -11573   -11583   -11580   -11566   -11542   -11508 
  -11462   -11408   -11361   -11325   -11300   -11298   -11321   -11357 
  -11399   -11430   -11431   -11402   -11349   -11284   -11214   -11144 
  -11091   -11070   -11080   -11122   -11182   -11252   -11321   -11372 
  -11398   -11394   -11357   -11296   -11229   -11175   -11142   -11132 
  -11136   -11148   -11159   -11161   -11159   -11149   -11134   -11125 
  -11126   -11137   -11161   -11198   -11238   -11279   -11319   -11352 
  -11365   -11358   -11334   -11302   -11265   -11240   -11237   -11252 
  -11275   -11299   -11314   -11306   -11269   -11214   -11148   -11080 
  -11010   -10948   -10902   -10874   -10866   -10879   -10905   -10936 
  -10962   -10970   -10947   -10890   -10810   -10724   -10639   -10567 
  -10519   -10492   -10490   -10509   -10543   -10574   -10594   -10598 
  -10577   -10535   -10489   -10449   -10423   -10428   -10465   -10519 
  -10579   -10642   -10697   -10740   -10775   -10812   -10848   -10889 
  -10932   -10974   -11013   -11040   -11055   -11057   -11053   -11045 
  -11043   -11047   -11056   -11072   -11091   -11113   -11134   -11149 
  -11159   -11160   -11149   -11137   -11126   -11118   -11115   -11122 
  -11138   -11167   -11203   -11241   -11280   -11317   -11345   -11362 
  -11368   -11362   -11358   -11364   -11377   -11403   -11441   -11480 
  -11516   -11553   -11584   -11610   -11632   -11655   -11685   -11726 
  -11763   -11784   -11784   -11762   -11713   -11649   -11584   -11526 
  -11487   -11466   -11458   -11464   -11475   -11479   -11466   -11442 
  -11412   -11380   -11350   -11322   -11295   -11272   -11259   -11253 
  -11254   -11259   -11261   -11256   -11245   -11223   -11184   -11130 
  -11063   -10987   -10914   -10843   -10778   -10724   -10681   -10646 
  -10615   -10589   -10569   -10558   -10557   -10567   -10597   -10646 
  -10708   -10778   -10847   -10906   -10951   -10976   -10983   -10978 
  -10966   -10956   -10953   -10962   -10986   -11022   -11070   -11115 
  -11146   -11163   -11161   -11132   -11082   -11024   -10967   -10928 
  -10913   -10917   -10939   -10974   -11007   -11034   -11051   -11051 
  -11032   -10998   -10960   -10920   -10879   -10841   -10810   -10785 
  -10762   -10740   -10724   -10716   -10712   -10710   -10714   -10727 
  -10744   -10767   -10791   -10812   -10835   -10864   -10895   -10928 
  -10968   -11017   -11067   -11117   -11163   -11196   -11221   -11242 
  -11260   -11276   -11291   -11304   -11323   -11346   -11369   -11385 
  -11398   -11406   -11399   -11381   -11357   -11329   -11303   -11292 
  -11295   -11317   -11356   -11406   -11456   -11491   -11500   -11483 
  -11445   -11389   -11327   -11276   -11240   -11227   -11234   -11249 
  -11259   -11259   -11241   -11198   -11133   -11056   -10983   -10924 
