Origin Time       2025/01/13 21:19:00
Lat.              31.8
Long.             131.6
Depth. (km)       30
Mag.              6.9
Station Code      YMGH04
Station Lat.      34.0270
Station Long.     132.0626
Station Height(m) 75
Record Time       2025/01/13 21:20:17
Sampling Freq(Hz) 100Hz
Duration Time(s)  137
Dir.              3
Scale Factor      3923(gal)/8224838
Max. Acc. (gal)   1.427
Last Correction   2025/01/13 21:20:00
Memo.             
[...]
    7137     7105     7068     7022     6979     6966     6955     6921 
    6887     6876     6872     6863     6844     6798     6732     6693 
    6698     6716     6706     6666     6629     6617     6623     6625 
    6615     6606     6635     6696     6748     6786     6826     6885 
    6952     6999     7024     7057     7106     7149     7177     7203 
    7244     7298     7349     7398     7430     7438     7456     7501 
    7547     7561     7554     7545     7530     7504     7464     7411 
    7375     7362     7349     7326     7321     7339     7368     7383 
    7387     7399     7419     7443     7465     7476     7487     7512 
    7537     7562     7589     7591     7561     7508     7446     7387 
    7337     7284     7213     7134     7078     7042     7005     6951 
    6901     6883     6883     6859     6824     6793     6758     6718 
    6682     6647     6605     6574     6570     6578     6601     6647 
    6686     6700     6714     6750     6789     6808     6804     6798 
    6824     6867     6897     6906     6914     6939     6961     6960 
    6947     6937     6924     6918     6930     6922     6886     6871 
    6898     6941     6994     7065     7145     7222     7291     7356 
    7410     7453     7493     7531     7557     7568     7578     7587 
    7584     7577     7572     7570     7591     7626     7643     7641 
    7646     7669     7685     7677     7642     7578     7488     7375 
    7252     7141     7028     6907     6789     6686     6628     6609 
    6592     6575     6573     6578     6588     6592     6585     6583 
    6597     6615     6639     6675     6731     6805     6872     6921 
    6970     7041     7114     7150     7157     7171     7207     7252 
    7284     7302     7321     7360     7407     7441     7481     7537 
    7584     7620     7646     7647     7630     7604     7578     7541 
    7472     7389     7331     7291     7245     7186     7119     7059 
    7009     6982     6964     6930     6894     6878     6868     6843 
    6812     6808     6825     6831     6835     6853     6885     6917 
    6953     6991     7025     7064     7106     7136     7163     7202 
    7253     7288     7295     7312     7337     7334     7312     7310 
    7318     7325     7319     7306     7287     7245     7184     7141 
    7119     7109     7103     7099     7133     7225     7322     7366 
    7384     7416     7453     7474     7495     7507     7491     7461 
    7441     7438     7450     7472     7489     7499     7515     7541 
    7570     7597     7608     7611     7616     7615     7597     7577 
    7566     7553     7526     7489     7454     7435     7445     7462 
    7452     7416     7387     7352     7295     7244     7227     7229 
    7225     7214     7192     7177     7186     7194     7172     7109 
    7021     6939     6882     6841     6797     6759     6752     6777 
    6813     6855     6907     6978     7045     7092     7145     7227 
    7296     7341     7403     7473     7524     7570     7623     7658 
    7658     7643     7632     7616     7576     7511     7454     7430 
    7430     7430     7427     7433     7438     7426     7387     7323 
    7263     7225     7192     7144     7083     7024     6987     6986 
    6990     6972     6951     6952     6964     6971     6988     7034 
    7099     7177     7250     7308     7353     7391     7412     7412 
    7395     7346     7263     7173     7102     7045     7001     6963 
    6918     6841     6740     6646     6578     6535     6500     6470 
    6454     6447     6440     6439     6453     6474     6498     6535 
    6575     6621     6686     6764     6851     6947     7051     7134 
    7188     7242     7292     7307     7288     7281     7318     7371 
    7416     7468     7520     7541     7520     7500     7500     7484 
    7427     7361     7339     7365     7399     7435     7473     7504 
    7550     7626     7701     7746     7753     7761     7798     7842 
    7870     7881     7865     7820     7770     7726     7673     7612 
    7547     7479     7418     7388     7381     7376     7368     7350 
    7325     7291     7256     7229     7209     7192     7179     7153 
    7126     7110     7074     7010     6937     6848     6744     6643 
    6563     6517     6494     6477     6466     6471     6511     6592 
    6686     6752     6787     6812     6840     6863     6832     6744 
    6673     6654     6662     6663     6656     6674     6725     6781 
    6821     6849     6874     6899     6928     6944     6937     6933 
    6963     7017     7061     7083     7088     7102     7126     7130 
    7118     7114     7118     7119     7118     7114     7095     7052 
    7005     6978     6952     6921     6907     6924     6961     7014 
    7075     7153     7245     7319     7364     7392     7418     7410 
    7354     7283     7203     7118     7038     6956     6872     6798 
    6739     6690     6647     6615     6606     6615     6628     6650 
    6681     6710     6755     6806     6831     6835     6847     6876 
    6917     6966     7018     7065     7109     7149     7187     7231 
    7288     7334     7358     7361     7353     7329     7290     7261 
    7233     7184     7138     7115     7095     7088     7129     7210 
    7295     7368     7442     7518     7568     7589     7608     7630 
    7643     7645     7631     7607     7578     7545     7516     7476 
    7389     7288     7217     7159     7110     7094     7113     7144 
    7175     7203     7237     7271     7296     7315     7315     7280 
    7231     7194     7173     7160     7148     7133     7101     7051 
    7013     6997     6980     6970     6991     7025     7056     7096 
    7128     7138     7148     7167     7176     7167     7146     7115 
    7080     7065     7065     7064     7059     7065     7109     7180 
    7237     7273     7321     7379     7438     7499     7550     7585 
    7611     7623     7619     7616     7627     7638     7627     7599 
    7547     7461     7358     7254     7145     7041     6957     6878 
    6804     6751     6705     6652     6610     6601     6604     6605 
    6632     6687     6747     6795     6833     6887     6949     6998 
    7040     7088     7136     7183     7246     7335     7445     7557 
    7646     7715     7785     7851     7894     7913     7915     7904 
    7866     7805     7757     7707     7636     7568     7511     7460 
    7398     7317     7222     7136     7059     6983     6917     6870 
    6844     6849     6868     6870     6864     6871     6885     6899 
    6897     6862     6818     6791     6786     6808     6848     6885 
    6920     6961     7018     7086     7133     7163     7210     7283 
    7358     7415     7458     7497     7535     7582     7643     7696 
    7724     7739     7759     7771     7770     7769     7771     7776 
    7788     7798     7788     7781     7805     7828     7805     7767 
    7770     7812     7859     7896     7932     7973     8021     8067 
    8093     8095     8087     8067     8039     8035     8056     8066 
    8059     8062     8071     8085     8100     8097     8078     8063 
    8039     7990     7951     7923     7866     7793     7747     7730 
    7699     7641     7574     7496     7395     7290     7187     7072 
    6944     6824     6729     6648     6570     6497     6435     6365 
    6282     6216     6176     6137     6091     6045     6016     6016 
    6037     6064     6088     6111     6150     6204     6269     6338 
    6389     6415     6447     6502     6575     6655     6710     6728 
    6744     6778     6805     6812     6810     6806     6783     6767 
    6786     6822     6860     6902     6948     7006     7065     7101 
    7126     7164     7211     7263     7298     7312     7331     7350 
    7350     7352     7357     7350     7327     7312     7327     7353 
    7358     7342     7327     7318     7290     7231     7164     7096 
    7036     6997     6964     6902     6817     6740     6689     6666 
    6647     6625     6627     6663     6717     6767     6809     6833 
    6836     6845     6874     6885     6862     6860     6902     6940 
    6956     6970     6988     7005     7006     6988     6964     6925 
    6855     6770     6685     6592     6486     6388     6324     6281 
    6235     6201     6192     6207     6235     6254     6276     6311 
    6340     6373     6438     6529     6608     6658     6694     6732 
    6767     6806     6848     6883     6920     6955     6983     7001 
    7002     6979     6933     6870     6789     6686     6578     6486 
    6405     6334     6292     6285     6295     6318     6359     6428 
    6524     6620     6694     6756     6804     6817     6798     6768 
    6737     6728     6771     6852     6933     7011     7095     7190 
    7279     7352     7403     7412     7375     7311     7233     7144 
    7045     6925     6804     6714     6656     6637     6659     6690 
    6708     6718     6735     6756     6772     6777     6768     6764 
    6772     6787     6814     6863     6925     6978     7002     7011 
    7038     7078     7121     7190     7281     7361     7422     7470 
    7514     7538     7541     7538     7515     7465     7415     7396 
    7422     7453     7446     7411     7387     7379     7364     7330 
    7304     7296     7291     7300     7329     7352     7375     7402 
    7416     7402     7365     7326     7279     7202     7090     6960 
    6837     6735     6659     6602     6547     6507     6509     6555 
    6624     6698     6756     6783     6778     6756     6733     6701 
    6664     6632     6600     6566     6536     6513     6488     6463 
    6459     6480     6502     6515     6528     6548     6567     6597 
    6639     6669     6691     6729     6789     6866     6952     7042 
    7150     7277     7416     7564     7707     7825     7927     8044 
    8186     8334     8471     8576     8658     8745     8831     8897 
    8949     9008     9076     9130     9150     9158     9190     9246 
    9300     9332     9325     9290     9259     9220     9162     9108 
    9078     9069     9061     9051     9062     9067     9045     9015 
    8968     8873     8746     8613     8456     8272     8108     7997 
    7920     7840     7759     7690     7647     7639     7643     7646 
    7658     7669     7661     7631     7580     7515     7433     7334 
    7242     7149     7026     6897     6795     6700     6600     6521 
    6463     6411     6370     6358     6373     6392     6396     6408 
    6435     6442     6423     6404     6382     6349     6327     6338 
    6369     6396     6412     6438     6473     6488     6482     6481 
    6492     6515     6559     6612     6656     6712     6791     6876 
    6941     6975     6988     6997     6994     6984     6975     6961 
    6953     6955     6956     6963     6974     6971     6976     7001 
    7038     7082     7130     7199     7288     7375     7462     7550 
    7615     7647     7645     7605     7542     7469     7395     7325 
    7250     7164     7091     7037     6978     6902     6799     6654 
    6482     6303     6108     5907     5711     5533     5368     5221 
    5107     5027     4989     4985     5000     5023     5074     5151 
    5227     5301     5390     5475     5522     5553     5613     5697 
    5807     5952     6089     6199     6326     6494     6677     6849 
    6997     7123     7245     7371     7488     7584     7659     7715 
    7742     7761     7800     7858     7920     7985     8067     8179 
    8320     8463     8599     8739     8884     9004     9086     9154 
    9220     9278     9331     9389     9441     9478     9493     9487 
    9498     9536     9564     9570     9552     9526     9517     9508 
    9486     9460     9412     9336     9247     9151     9046     8911 
    8742     8577     8436     8307     8171     8029     7889     7750 
    7624     7522     7434     7362     7315     7287     7268     7252 
    7234     7195     7121     7041     6979     6916     6841     6774 
    6721     6664     6583     6473     6349     6231     6116     5983 
    5834     5688     5549     5417     5292     5170     5066     4996 
    4954     4949     4977     5034     5125     5248     5395     5568 
    5764     5971     6183     6399     6628     6849     7026     7175 
    7329     7468     7574     7674     7789     7896     7985     8077 
    8172     8252     8306     8348     8394     8436     8459     8455 
    8437     8425     8414     8390     8351     8294     8206     8110 
    8021     7915     7782     7665     7580     7499     7412     7335 
    7276     7222     7164     7115     7094     7103     7132     7163 
    7206     7290     7398     7489     7582     7690     7797     7896 
    7979     8025     8039     8041     8029     8000     7975     7960 
    7927     7878     7844     7821     7789     7736     7662     7591 
    7533     7483     7420     7326     7203     7071     6947     6812 
    6667     6547     6446     6340     6250     6193     6142     6081 
    6045     6039     6037     6035     6043     6052     6046     6037 
    6045     6062     6070     6079     6102     6137     6176     6223 
    6278     6335     6386     6428     6458     6489     6525     6528 
    6477     6394     6286     6150     6007     5865     5714     5566 
    5444     5339     5229     5121     5028     4931     4808     4677 
    4560     4468     4392     4313     4234     4187     4166     4162 
    4172     4197     4245     4313     4384     4472     4577     4688 
    4785     4876     4995     5139     5256     5321     5366     5428 
    5509     5590     5680     5784     5891     6003     6123     6243 
    6363     6466     6543     6619     6698     6770     6843     6917 
    6983     7068     7191     7331     7466     7604     7757     7900 
    8033     8183     8325     8437     8556     8677     8768     8834 
    8907     8993     9062     9103     9165     9269     9374     9471 
    9578     9675     9751     9819     9879     9929     9977    10022 
   10064    10095    10114    10122    10106    10064    10014     9960 
    9886     9799     9710     9607     9493     9371     9256     9158 
    9062     8953     8838     8723     8607     8492     8386     8302 
    8244     8183     8127     8105     8101     8086     8066     8063 
    8077     8083     8073     8062     8063     8040     7974     7900 
    7842     7784     7716     7639     7557     7503     7483     7464 
    7427     7375     7326     7291     7253     7209     7159     7105 
    7048     6984     6916     6840     6737     6609     6481     6374 
    6285     6214     6154     6111     6087     6079     6099     6130 
    6153     6196     6277     6365     6443     6520     6596     6671 
    6747     6821     6899     6984     7069     7168     7288     7420 
    7561     7720     7878     8004     8106     8199     8262     8278 
    8256     8217     8174     8128     8068     8005     7954     7921 
    7894     7865     7828     7778     7730     7682     7620     7547 
    7472     7389     7288     7165     7030     6890     6741     6592 
    6440     6284     6143     6038     5965     5917     5884     5860 
    5849     5871     5927     6000     6064     6110     6151     6216 
    6304     6392     6474     6563     6654     6737     6836     6945 
    7029     7072     7094     7107     7125     7132     7115     7079 
    7020     6939     6858     6767     6648     6509     6374     6253 
    6127     5991     5861     5738     5614     5497     5377     5244 
    5121     5012     4901     4799     4714     4653     4610     4596 
    4618     4658     4711     4777     4866     4986     5117     5243 
    5377     5521     5668     5810     5946     6068     6185     6323 
    6478     6617     6729     6828     6924     7030     7140     7229 
    7306     7392     7485     7564     7628     7688     7757     7843 
    7955     8087     8230     8383     8540     8691     8842     8996 
    9134     9244     9336     9400     9418     9412     9393     9346 
    9270     9173     9058     8942     8819     8677     8533     8394 
    8248     8089     7919     7766     7646     7539     7441     7352 
    7275     7218     7172     7117     7060     7025     7033     7072 
    7107     7134     7184     7265     7364     7456     7526     7588 
    7654     7719     7765     7798     7839     7879     7901     7905 
    7901     7886     7851     7798     7746     7704     7684     7689 
    7686     7662     7650     7649     7649     7658     7662     7662 
    7672     7688     7693     7688     7680     7673     7672     7682 
    7704     7700     7653     7584     7508     7431     7356     7268 
    7180     7118     7067     7009     6953     6914     6880     6839 
    6785     6737     6720     6724     6725     6721     6710     6689 
    6658     6635     6629     6625     6604     6586     6600     6637 
    6687     6752     6845     6960     7075     7188     7306     7449 
    7618     7781     7927     8066     8206     8341     8465     8596 
    8730     8835     8918     9003     9090     9161     9201     9231 
    9258     9263     9227     9154     9054     8934     8795     8652 
    8514     8376     8229     8070     7904     7727     7546     7383 
    7242     7106     6978     6870     6782     6709     6648     6588 
    6532     6488     6426     6326     6215     6110     5985     5844 
    5698     5533     5360     5216     5092     4961     4843     4772 
    4734     4719     4743     4796     4854     4932     5047     5192 
    5343     5494     5647     5805     5975     6151     6318     6480 
    6654     6836     7015     7183     7323     7438     7531     7604 
    7654     7674     7657     7604     7538     7454     7333     7173 
    6984     6777     6573     6382     6197     6012     5837     5687 
    5567     5482     5431     5395     5378     5401     5471     5560 
    5653     5772     5921     6072     6227     6403     6581     6747 
    6916     7101     7296     7488     7673     7854     8031     8205 
    8365     8509     8646     8776     8869     8932     9007     9094 
    9163     9204     9236     9270     9282     9255     9209     9161 
    9104     9034     8969     8914     8854     8787     8703     8606 
    8517     8432     8336     8245     8186     8144     8098     8051 
    8012     7982     7958     7936     7923     7915     7892     7861 
    7839     7817     7790     7762     7735     7695     7650     7622 
    7601     7568     7519     7461     7403     7329     7234     7146 
    7071     6991     6907     6839     6782     6740     6725     6727 
    6725     6729     6758     6786     6797     6809     6837     6860 
    6853     6817     6783     6766     6744     6712     6652     6563 
    6475     6384     6262     6129     5992     5845     5709     5589 
    5464     5336     5208     5080     4963     4869     4795     4743 
    4708     4691     4707     4768     4857     4961     5089     5254 
    5451     5671     5915     6187     6474     6750     7015     7290 
    7561     7809     8033     8251     8472     8675     8850     9011 
    9153     9274     9374     9441     9466     9447     9391     9316 
