Origin Time       2025/01/13 21:19:00
Lat.              31.8
Long.             131.6
Depth. (km)       30
Mag.              6.9
Station Code      YMGH04
Station Lat.      34.0270
Station Long.     132.0626
Station Height(m) 75
Record Time       2025/01/13 21:20:17
Sampling Freq(Hz) 100Hz
Duration Time(s)  137
Dir.              2
Scale Factor      3923(gal)/8224838
Max. Acc. (gal)   2.481
Last Correction   2025/01/13 21:20:00
Memo.             
[...]
   14532    14593    14635    14666    14716    14797    14882    14931 
   14921    14855    14773    14725    14728    14744    14737    14702 
   14650    14597    14571    14585    14609    14601    14550    14473 
   14388    14308    14251    14220    14202    14185    14181    14191 
   14227    14293    14343    14357    14347    14319    14292    14300 
   14337    14376    14396    14391    14373    14353    14335    14319 
   14297    14277    14277    14296    14315    14323    14322    14320 
   14342    14405    14511    14631    14736    14814    14870    14899 
   14921    14958    15002    15036    15048    15037    15014    15001 
   14990    14959    14921    14909    14908    14890    14858    14810 
   14754    14706    14667    14632    14601    14566    14526    14485 
   14454    14442    14440    14434    14428    14432    14450    14481 
   14515    14538    14547    14565    14586    14596    14589    14574 
   14562    14563    14578    14598    14600    14586    14584    14590 
   14592    14584    14561    14530    14508    14503    14520    14555 
   14585    14607    14644    14693    14729    14737    14728    14709 
   14669    14607    14543    14478    14412    14362    14331    14310 
   14289    14270    14253    14239    14216    14175    14133    14107 
   14107    14141    14185    14220    14235    14218    14185    14154 
   14129    14118    14116    14112    14108    14106    14102    14108 
   14122    14127    14121    14116    14138    14203    14291    14377 
   14454    14500    14530    14573    14629    14678    14702    14697 
   14682    14683    14720    14782    14839    14885    14940    14990 
   15013    15010    14982    14929    14863    14787    14724    14694 
   14670    14635    14602    14580    14586    14632    14690    14731 
   14754    14773    14790    14805    14823    14831    14832    14837 
   14850    14858    14855    14856    14890    14958    15045    15134 
   15202    15230    15233    15225    15218    15215    15207    15179 
   15132    15075    15020    14951    14867    14786    14717    14655 
   14597    14542    14481    14430    14399    14384    14376    14355 
   14324    14293    14260    14231    14223    14241    14277    14320 
   14373    14439    14504    14546    14565    14558    14528    14482 
   14442    14422    14418    14412    14424    14462    14490    14503 
   14513    14511    14482    14445    14408    14369    14324    14276 
   14219    14150    14095    14071    14064    14075    14110    14160 
   14215    14274    14328    14361    14373    14368    14341    14305 
   14292    14318    14377    14451    14508    14546    14581    14615 
   14646    14681    14709    14706    14670    14608    14530    14463 
   14440    14459    14494    14526    14553    14593    14644    14693 
   14739    14783    14816    14833    14839    14836    14825    14800 
   14754    14696    14643    14612    14590    14580    14594    14632 
   14705    14820    14940    15021    15061    15059    15002    14922 
   14864    14836    14820    14801    14781    14778    14806    14845 
   14854    14809    14736    14674    14629    14605    14593    14570 
   14519    14455    14401    14354    14322    14315    14331    14353 
   14376    14408    14434    14439    14435    14431    14442    14484 
   14543    14615    14700    14778    14845    14906    14948    14966 
   14972    14985    14997    15014    15028    15029    15025    15024 
   15014    14990    14953    14908    14856    14789    14693    14589 
   14501    14439    14412    14427    14474    14524    14559    14586 
   14602    14600    14584    14570    14570    14593    14638    14698 
   14747    14770    14779    14779    14762    14736    14721    14716 
   14704    14693    14704    14742    14804    14885    14958    14995 
   15014    15021    15021    15005    14964    14904    14823    14723 
   14634    14582    14570    14571    14569    14563    14547    14523 
   14526    14561    14590    14600    14600    14589    14562    14521 
   14474    14422    14372    14350    14374    14446    14554    14671 
   14783    14887    14972    15036    15078    15094    15091    15087 
   15093    15103    15129    15156    15155    15118    15072    15032 
   14998    14960    14906    14827    14729    14640    14585    14569 
   14581    14604    14612    14588    14530    14446    14339    14212 
   14100    14034    14008    14025    14080    14143    14206    14265 
   14307    14322    14335    14382    14446    14508    14584    14661 
   14719    14750    14762    14759    14754    14759    14779    14806 
   14818    14800    14756    14705    14666    14655    14652    14627 
   14584    14534    14458    14377    14328    14307    14303    14327 
   14373    14403    14385    14339    14299    14291    14310    14341 
   14377    14409    14434    14467    14523    14573    14593    14604 
   14632    14686    14751    14802    14832    14854    14867    14875 
   14883    14885    14872    14856    14836    14823    14827    14860 
   14910    14953    14974    14960    14913    14847    14773    14698 
   14632    14588    14567    14569    14584    14597    14604    14602 
   14589    14551    14501    14458    14423    14377    14324    14280 
   14253    14262    14314    14369    14403    14434    14451    14430 
   14385    14364    14378    14418    14481    14551    14596    14621 
   14646    14652    14643    14628    14605    14596    14638    14725 
   14828    14917    14970    14967    14929    14891    14856    14818 
   14789    14756    14704    14662    14659    14683    14719    14750 
   14773    14782    14777    14779    14806    14836    14864    14891 
   14899    14886    14872    14877    14899    14937    14986    15040 
   15083    15115    15144    15168    15192    15215    15237    15244 
   15242    15245    15233    15187    15137    15090    15030    14974 
   14921    14852    14769    14683    14605    14530    14442    14342 
   14256    14223    14253    14308    14346    14345    14305    14226 
   14122    14019    13925    13836    13775    13756    13778    13834 
   13905    13968    14022    14067    14096    14115    14126    14111 
   14073    14044    14034    14038    14053    14071    14087    14104 
   14131    14168    14199    14214    14231    14254    14270    14280 
   14292    14311    14334    14343    14322    14280    14249    14239 
   14243    14264    14304    14369    14465    14588    14720    14832 
   14906    14949    14949    14924    14905    14899    14912    14951 
   15002    15055    15106    15140    15151    15141    15114    15094 
   15109    15172    15287    15442    15601    15732    15823    15878 
   15913    15939    15958    15971    15978    15985    15990    16000 
   16024    16047    16051    16048    16021    15943    15831    15718 
   15616    15535    15462    15385    15310    15257    15222    15191 
   15151    15080    14968    14837    14708    14593    14512    14450 
   14388    14335    14295    14273    14261    14231    14176    14103 
   14017    13934    13896    13915    13984    14094    14206    14288 
   14342    14374    14378    14366    14370    14380    14382    14395 
   14413    14405    14357    14299    14241    14162    14068    13968 
   13857    13738    13636    13563    13491    13397    13306    13236 
   13188    13181    13217    13266    13312    13352    13387    13432 
   13506    13612    13753    13923    14102    14291    14478    14640 
   14762    14850    14913    14948    14955    14931    14894    14879 
   14905    14972    15063    15153    15223    15259    15250    15202 
   15120    15028    14940    14840    14727    14627    14555    14509 
   14488    14485    14476    14435    14366    14288    14226    14199 
   14203    14230    14272    14291    14285    14277    14265    14230 
   14165    14075    13972    13899    13865    13842    13832    13832 
   13830    13845    13872    13875    13836    13778    13720    13678 
   13660    13662    13659    13639    13624    13618    13612    13618 
   13629    13610    13570    13527    13474    13423    13402    13428 
   13490    13570    13647    13711    13764    13799    13802    13776 
   13740    13690    13628    13575    13560    13591    13655    13737 
   13818    13876    13919    13972    14040    14102    14153    14204 
   14245    14278    14331    14423    14561    14742    14949    15155 
   15334    15495    15637    15735    15797    15844    15885    15925 
   15984    16055    16117    16170    16233    16295    16332    16353 
   16378    16383    16359    16329    16305    16285    16279    16281 
   16240    16135    15986    15826    15673    15541    15425    15315 
   15213    15113    15007    14898    14783    14667    14555    14434 
   14295    14164    14072    14033    14048    14096    14135    14149 
   14139    14103    14056    14018    13984    13946    13891    13833 
   13798    13806    13853    13917    13975    14019    14046    14061 
   14069    14046    13983    13918    13879    13841    13782    13718 
   13660    13609    13583    13599    13633    13662    13697    13751 
   13813    13852    13853    13832    13798    13772    13774    13798 
   13836    13879    13927    13991    14054    14111    14166    14223 
   14277    14314    14328    14350    14418    14540    14700    14864 
   14987    15044    15053    15047    15043    15064    15103    15141 
   15198    15279    15361    15448    15545    15655    15793    15959 
   16133    16298    16436    16524    16544    16487    16363    16212 
   16074    15969    15909    15898    15916    15939    15966    15992 
   15985    15932    15832    15685    15510    15342    15202    15102 
   15043    14998    14937    14862    14805    14767    14740    14743 
   14767    14790    14812    14843    14875    14901    14913    14913 
   14905    14878    14840    14806    14764    14698    14613    14540 
   14512    14523    14558    14608    14634    14601    14505    14366 
   14215    14053    13886    13749    13675    13662    13671    13666 
   13628    13551    13464    13408    13382    13373    13377    13377 
   13382    13428    13494    13547    13613    13710    13805    13884 
   13946    13973    13961    13932    13899    13899    13967    14102 
   14266    14435    14605    14764    14905    15043    15176    15283 
   15367    15450    15522    15566    15569    15530    15476    15429 
   15399    15375    15319    15232    15159    15136    15147    15156 
   15138    15063    14936    14808    14705    14621    14551    14511 
   14505    14527    14575    14651    14732    14789    14821    14836 
   14860    14914    14994    15097    15209    15310    15392    15450 
   15481    15502    15530    15566    15583    15573    15547    15489 
   15404    15313    15203    15072    14939    14810    14690    14573 
   14449    14314    14170    14027    13910    13845    13821    13815 
   13833    13860    13887    13932    13990    14071    14192    14323 
   14416    14462    14462    14450    14484    14562    14679    14859 
   15072    15290    15504    15696    15858    15998    16120    16208 
   16228    16181    16081    15940    15790    15660    15553    15458 
   15383    15315    15236    15151    15061    14959    14845    14716 
   14569    14423    14301    14222    14188    14191    14206    14218 
   14253    14319    14397    14481    14580    14686    14789    14887 
   14971    15044    15118    15186    15248    15326    15429    15545 
   15670    15804    15932    16032    16114    16209    16309    16386 
   16417    16403    16366    16313    16240    16146    16031    15894 
   15749    15610    15473    15337    15199    15047    14856    14644 
   14447    14265    14091    13948    13851    13786    13740    13670 
   13537    13356    13142    12916    12729    12587    12464    12353 
   12271    12214    12150    12066    11962    11826    11678    11553 
   11461    11398    11364    11364    11395    11449    11511    11576 
   11647    11738    11865    12023    12195    12378    12579    12818 
   13105    13385    13606    13760    13857    13930    14003    14096 
   14229    14388    14561    14725    14866    14991    15079    15126 
   15153    15172    15188    15201    15246    15342    15450    15526 
   15547    15516    15469    15449    15466    15510    15576    15666 
   15769    15867    15947    16012    16071    16125    16189    16258 
   16325    16402    16476    16541    16613    16686    16750    16816 
   16888    16949    16991    17053    17138    17205    17234    17232 
   17212    17193    17194    17204    17207    17201    17190    17173 
   17147    17104    17051    17018    16993    16977    16987    16987 
   16951    16893    16806    16708    16626    16542    16428    16259 
   16042    15769    15442    15094    14739    14365    13984    13626 
   13327    13090    12879    12681    12506    12363    12253    12150 
   12060    11993    11919    11832    11757    11711    11708    11753 
   11824    11911    12050    12247    12471    12717    12982    13252 
   13522    13772    13971    14102    14181    14211    14179    14103 
   13998    13845    13644    13431    13231    13046    12880    12719 
   12530    12310    12064    11792    11507    11226    10948    10679 
   10427    10206    10021     9879     9767     9666     9566     9477 
    9410     9385     9400     9455     9552     9688     9856    10056 
   10287    10544    10824    11109    11387    11662    11939    12218 
   12507    12818    13146    13468    13761    14023    14257    14459 
   14623    14766    14898    15018    15134    15250    15363    15445 
   15488    15499    15476    15418    15329    15215    15084    14926 
   14752    14585    14427    14291    14202    14160    14135    14103 
   14080    14095    14139    14216    14342    14493    14621    14713 
   14794    14883    14991    15120    15229    15291    15325    15345 
   15364    15379    15381    15387    15398    15394    15367    15333 
   15290    15223    15148    15074    14993    14928    14886    14840 
   14781    14713    14631    14544    14457    14355    14245    14126 
   14003    13900    13826    13776    13743    13705    13652    13598 
   13559    13551    13570    13609    13672    13756    13849    13949 
   14056    14172    14308    14447    14565    14677    14823    14991 
   15147    15282    15381    15437    15453    15446    15444    15452 
   15480    15552    15677    15842    16025    16208    16374    16510 
   16592    16619    16609    16571    16528    16511    16555    16668 
   16831    17023    17240    17474    17710    17949    18180    18384 
   18565    18728    18879    19029    19171    19272    19313    19284 
   19202    19089    18955    18808    18665    18543    18439    18341 
   18227    18085    17928    17753    17547    17297    17007    16695 
   16386    16086    15804    15542    15295    15091    14952    14840 
   14713    14575    14449    14315    14176    14068    14011    14010 
   14075    14176    14264    14337    14408    14473    14536    14601 
   14640    14647    14635    14601    14550    14490    14430    14384 
   14373    14392    14420    14451    14461    14439    14386    14295 
   14157    13995    13834    13682    13537    13398    13262    13132 
   13022    12926    12835    12757    12688    12629    12582    12538 
   12491    12448    12410    12379    12348    12321    12309    12321 
   12367    12452    12557    12665    12780    12892    12987    13063 
   13132    13203    13285    13386    13495    13609    13721    13832 
   13945    14062    14153    14184    14191    14220    14264    14288 
   14281    14233    14162    14088    14000    13882    13751    13636 
   13539    13466    13429    13429    13475    13591    13768    13957 
   14133    14288    14409    14508    14619    14732    14814    14868 
   14925    14991    15048    15080    15078    15033    14970    14916 
   14870    14831    14812    14833    14897    15002    15148    15310 
   15457    15589    15711    15832    15952    16058    16152    16252 
   16372    16513    16665    16823    16984    17150    17338    17539 
   17732    17896    18009    18052    18021    17917    17753    17544 
   17302    17037    16745    16424    16087    15773    15492    15210 
   14924    14678    14481    14307    14152    14014    13871    13734 
   13626    13532    13441    13356    13277    13208    13157    13119 
   13089    13085    13132    13224    13338    13450    13543    13606 
   13662    13729    13794    13869    13980    14114    14268    14438 
   14592    14712    14816    14913    15012    15133    15269    15402 
   15525    15627    15699    15750    15789    15826    15862    15888 
   15886    15851    15778    15672    15550    15414    15261    15098 
   14916    14705    14492    14287    14099    13942    13821    13724 
   13629    13516    13396    13284    13169    13050    12949    12865 
   12787    12738    12733    12744    12764    12803    12846    12879 
   12901    12935    12997    13093    13230    13409    13609    13806 
   13995    14175    14337    14492    14628    14721    14767    14771 
   14735    14663    14561    14436    14311    14207    14104    13979 
   13852    13748    13667    13616    13579    13509    13402    13297 
   13208    13136    13103    13104    13112    13113    13128    13182 
   13262    13339    13408    13467    13524    13586    13663    13756 
   13857    13961    14073    14197    14331    14474    14616    14736 
   14836    14929    15018    15103    15160    15175    15164    15138 
   15095    15049    15032    15059    15121    15196    15272    15329 
   15346    15325    15273    15195    15101    14999    14895    14794 
   14708    14643    14590    14542    14501    14458    14407    14369 
   14349    14339    14354    14405    14474    14559    14670    14787 
   14899    15018    15142    15260    15384    15531    15687    15839 
   15994    16151    16291    16399    16480    16541    16582    16617 
   16669    16742    16818    16887    16938    16964    16953    16906 
   16814    16680    16525    16359    16195    16043    15908    15803 
   15723    15635    15500    15317    15097    14843    14571    14304 
   14041    13764    13477    13200    12947    12722    12502    12270 
   12028    11793    11588    11431    11319    11250    11218    11211 
   11234    11296    11377    11456    11554    11691    11854    12016 
   12166    12310    12460    12623    12798    12954    13080    13173 
   13220    13227    13225    13242    13263    13277    13290    13313 
   13359    13455    13602    13774    13938    14077    14203    14319 
   14416    14503    14586    14682    14800    14939    15086    15232 
   15380    15542    15712    15882    16043    16179    16299    16432 
   16583    16733    16869    16980    17066    17127    17155    17159 
   17147    17118    17091    17085    17093    17081    17037    16960 
   16845    16698    16552    16424    16314    16212    16101    15992 
   15908    15840    15742    15611    15484    15363    15228    15082 
   14920    14731    14536    14358    14191    14022    13846    13666 
