Origin Time       2025/01/13 21:19:00
Lat.              31.8
Long.             131.6
Depth. (km)       30
Mag.              6.9
Station Code      YMGH11
Station Lat.      34.2091
Station Long.     131.6859
Station Height(m) 120
Record Time       2025/01/13 21:20:18
Sampling Freq(Hz) 100Hz
Duration Time(s)  138
Dir.              4
Scale Factor      7845(gal)/8223790
Max. Acc. (gal)   1.546
Last Correction   2025/01/13 21:20:19
Memo.             
[...]
    4931     4804     4788     4868     4973     5022     4973     4853 
    4733     4693     4783     4958     5127     5215     5198     5119 
    5036     5015     5081     5208     5350     5467     5521     5514 
    5481     5455     5459     5502     5575     5656     5715     5732 
    5692     5620     5555     5526     5547     5602     5645     5634 
    5566     5459     5354     5304     5336     5421     5490     5468 
    5343     5182     5077     5089     5228     5431     5598     5661 
    5614     5508     5413     5395     5460     5552     5590     5541 
    5439     5335     5290     5344     5470     5591     5652     5645 
    5606     5568     5560     5595     5663     5719     5728     5683 
    5624     5580     5564     5570     5583     5583     5560     5505 
    5406     5283     5177     5112     5109     5173     5254     5269 
    5177     5017     4866     4816     4915     5125     5347     5478 
    5464     5347     5228     5200     5290     5452     5593     5645 
    5599     5483     5355     5281     5283     5332     5391     5437 
    5448     5429     5400     5374     5355     5332     5308     5298 
    5319     5362     5402     5406     5352     5258     5163     5113 
    5130     5206     5321     5432     5494     5489     5439     5382 
    5337     5317     5355     5452     5564     5634     5626     5540 
    5422     5327     5271     5256     5277     5312     5331     5309 
    5259     5217     5212     5242     5278     5301     5317     5320 
    5292     5235     5169     5121     5127     5182     5256     5319 
    5348     5331     5263     5192     5181     5269     5422     5556 
    5579     5479     5306     5135     5061     5136     5327     5517 
    5603     5563     5460     5377     5362     5418     5494     5522 
    5472     5348     5194     5078     5040     5082     5181     5293 
    5377     5416     5404     5340     5255     5198     5208     5287 
    5413     5539     5601     5547     5386     5198     5108     5192 
    5405     5620     5695     5584     5350     5123     5011     5043 
    5165     5270     5262     5140     4992     4911     4957     5120 
    5321     5471     5514     5452     5359     5323     5368     5472 
    5582     5628     5590     5521     5479     5489     5541     5613 
    5684     5718     5671     5541     5383     5265     5262     5408 
    5652     5886     5988     5899     5660     5381     5192     5177 
    5328     5555     5724     5728     5557     5308     5115     5074 
    5192     5389     5537     5547     5413     5220     5081     5054 
    5109     5174     5194     5147     5080     5066     5147     5297 
    5448     5518     5474     5352     5238     5200     5273     5437 
    5609     5702     5690     5587     5444     5347     5360     5475 
    5606     5663     5598     5429     5244     5144     5178     5321 
    5498     5620     5651     5613     5545     5495     5482     5494 
    5517     5541     5551     5547     5541     5543     5525     5466 
    5379     5297     5243     5247     5301     5348     5316     5194 
    5043     4954     4986     5123     5286     5371     5309     5127 
    4946     4891     5008     5235     5444     5518     5420     5219 
    5043     5001     5108     5274     5385     5375     5265     5140 
    5100     5173     5310     5440     5505     5502     5462     5436 
    5476     5583     5706     5788     5787     5719     5657     5663 
    5741     5852     5931     5935     5860     5745     5644     5593 
    5599     5659     5744     5809     5814     5749     5637     5524 
    5464     5490     5583     5688     5760     5764     5694     5564 
    5406     5266     5182     5167     5217     5302     5356     5320 
    5188     5007     4864     4845     4973     5185     5371     5432 
    5328     5128     4938     4822     4811     4911     5071     5216 
    5292     5296     5246     5179     5147     5179     5267     5368 
    5432     5424     5358     5270     5202     5171     5177     5215 
    5267     5308     5327     5329     5341     5382     5444     5506 
    5537     5526     5487     5444     5427     5441     5463     5485 
    5506     5518     5529     5547     5568     5582     5584     5564 
    5510     5436     5379     5373     5425     5514     5582     5578 
    5503     5401     5306     5247     5240     5289     5391     5529 
    5655     5713     5670     5535     5364     5251     5269     5412 
    5609     5746     5745     5598     5371     5186     5144     5254 
    5432     5560     5555     5413     5217     5074     5044     5107 
    5188     5227     5208     5152     5103     5085     5105     5140 
    5150     5111     5053     5020     5034     5081     5124     5124 
    5062     4966     4897     4900     4954     5005     5011     4961 
    4885     4854     4923     5080     5252     5360     5379     5341 
    5301     5301     5377     5520     5663     5713     5629     5467 
    5328     5296     5400     5579     5742     5813     5748     5575 
    5381     5255     5247     5348     5498     5610     5624     5539 
    5393     5239     5148     5167     5281     5431     5548     5570 
    5489     5366     5275     5254     5306     5401     5486     5505 
    5436     5309     5190     5140     5192     5328     5487     5595 
    5622     5570     5468     5373     5350     5417     5522     5605 
    5630     5599     5548     5520     5544     5632     5755     5860 
    5891     5826     5692     5555     5476     5493     5591     5713 
    5790     5782     5698     5609     5590     5645     5721     5748 
    5684     5539     5387     5313     5344     5448     5548     5560 
    5444     5232     5038     4984     5107     5339     5566     5683 
    5630     5425     5169     4997     4984     5085     5184     5185 
    5063     4881     4743     4727     4834     5000     5123     5117 
    4990     4833     4733     4733     4839     4996     5119     5159 
    5107     4986     4866     4801     4810     4892     5009     5089 
    5096     5053     5012     5024     5107     5252     5421     5536 
    5540     5455     5366     5351     5445     5614     5768     5821 
    5729     5526     5308     5170     5157     5260     5408     5495 
    5456     5320     5188     5148     5227     5375     5506     5547 
    5475     5332     5205     5175     5251     5381     5491     5530 
    5489     5402     5331     5313     5344     5394     5448     5501 
    5560     5632     5710     5768     5782     5755     5736     5780 
    5895     6027     6114     6130     6087     6022     5976     5980 
    6021     6056     6058     6029     5969     5892     5827     5773 
    5718     5661     5609     5580     5599     5661     5719     5715 
    5617     5451     5278     5158     5105     5086     5059     4988 
    4858     4689     4533     4448     4450     4503     4548     4556 
    4537     4498     4460     4449     4471     4503     4526     4522 
    4494     4468     4479     4550     4676     4826     4980     5121 
    5220     5262     5263     5255     5281     5374     5516     5636 
    5663     5574     5417     5302     5317     5474     5695     5848 
    5815     5597     5302     5086     5055     5198     5406     5549 
    5541     5382     5157     4989     4957     5058     5223     5347 
    5362     5266     5104     4953     4903     4986     5146     5294 
    5366     5339     5247     5177     5202     5335     5512     5636 
    5634     5502     5297     5124     5080     5177     5333     5436 
    5425     5314     5165     5035     4968     4981     5046     5096 
    5082     5015     4934     4884     4885     4915     4922     4892 
    4846     4811     4831     4928     5076     5220     5309     5323 
    5281     5227     5204     5238     5313     5398     5475     5522 
    5526     5498     5458     5437     5466     5553     5670     5764 
    5799     5757     5665     5584     5575     5647     5760     5859 
    5883     5813     5698     5614     5607     5683     5788     5849 
    5837     5767     5694     5687     5776     5946     6143     6280 
    6291     6191     6041     5918     5879     5910     5956     5985 
    5995     5989     5987     5991     5992     5972     5908     5805 
    5710     5671     5698     5772     5850     5887     5854     5753 
    5620     5502     5441     5454     5503     5535     5518     5466 
    5404     5366     5366     5389     5409     5391     5325     5240 
    5184     5186     5240     5308     5340     5327     5294     5281 
    5302     5356     5425     5482     5501     5472     5410     5351 
    5341     5408     5536     5663     5709     5628     5440     5223 
    5062     5023     5117     5289     5445     5517     5487     5398 
    5324     5331     5432     5595     5755     5856     5884     5861 
    5836     5863     5976     6154     6334     6463     6513     6473 
    6359     6223     6115     6065     6081     6161     6266     6327 
    6296     6160     5965     5796     5715     5734     5794     5805 
    5707     5528     5347     5254     5292     5428     5576     5630 
    5537     5323     5082     4927     4922     5051     5236     5370 
    5377     5248     5051     4892     4853     4935     5067     5154 
    5146     5061     4954     4893     4907     4973     5057     5127 
    5150     5136     5108     5080     5053     5020     4959     4861 
    4738     4633     4575     4567     4590     4626     4662     4691 
    4703     4706     4702     4695     4689     4699     4729     4774 
    4831     4896     4963     5023     5051     5043     5020     4989 
    4953     4935     4959     5036     5150     5254     5305     5292 
    5220     5108     4982     4895     4908     5030     5197     5333 
    5371     5293     5159     5073     5100     5227     5378     5463 
    5414     5246     5049     4942     4997     5188     5406     5544 
    5548     5448     5333     5279     5301     5359     5404     5404 
    5371     5350     5364     5398     5422     5410     5377     5377 
    5451     5594     5745     5833     5825     5733     5610     5525 
    5526     5616     5744     5849     5872     5803     5665     5518 
    5429     5443     5559     5725     5842     5826     5667     5425 
    5217     5142     5219     5377     5503     5506     5374     5188 
    5074     5112     5266     5429     5495     5428     5296     5215 
    5266     5452     5698     5868     5871     5719     5529     5424 
    5479     5682     5919     6041     5958     5710     5431     5262 
    5263     5389     5541     5609     5528     5350     5204     5189 
    5305     5463     5536     5475     5332     5204     5163     5212 
    5292     5325     5260     5097     4893     4737     4692     4757 
    4869     4951     4965     4924     4868     4823     4810     4834 
    4887     4950     5008     5032     4982     4845     4664     4515 
    4469     4552     4726     4900     4980     4927     4791     4662 
    4630     4725     4904     5076     5131     5031     4842     4693 
    4691     4864     5142     5381     5451     5329     5112     4974 
    5050     5335     5674     5892     5898     5726     5516     5425 
    5514     5718     5903     5940     5779     5516     5316     5302 
    5472     5711     5872     5854     5675     5445     5287     5293 
    5464     5697     5856     5869     5749     5586     5485     5497 
    5610     5771     5896     5926     5867     5764     5686     5690 
    5788     5934     6060     6111     6075     5977     5875     5815 
    5815     5860     5906     5907     5848     5756     5679     5664 
    5717     5780     5788     5717     5602     5503     5475     5548 
    5684     5791     5798     5692     5513     5347     5274     5319 
    5448     5591     5675     5660     5545     5379     5238     5188 
    5248     5371     5471     5485     5400     5240     5055     4895 
    4796     4756     4749     4752     4760     4780     4826     4878 
    4911     4912     4893     4882     4912     4989     5082     5134 
    5104     5024     4946     4912     4954     5080     5233     5336 
    5347     5298     5273     5314     5420     5541     5617     5618 
    5559     5487     5466     5518     5618     5715     5771     5779 
    5759     5737     5724     5718     5719     5729     5744     5757 
    5748     5698     5602     5464     5306     5166     5073     5046 
    5073     5117     5130     5082     4985     4877     4812     4811 
    4857     4909     4932     4918     4877     4824     4783     4777 
    4818     4888     4954     4986     4966     4912     4876     4899 
    4985     5115     5248     5340     5367     5352     5340     5377 
    5486     5641     5784     5875     5906     5904     5918     5964 
    6031     6091     6119     6103     6066     6054     6073     6096 
    6102     6080     6057     6066     6118     6193     6258     6284 
    6266     6238     6242     6296     6367     6417     6427     6394 
    6330     6258     6191     6126     6060     6002     5965     5953 
    5979     6029     6049     5988     5854     5706     5628     5659 
    5767     5879     5908     5792     5555     5273     5034     4900 
    4885     4949     5012     4993     4853     4633     4406     4232 
    4143     4140     4193     4251     4270     4218     4095     3937 
    3802     3747     3778     3859     3951     4018     4041     4020 
    3985     3987     4062     4203     4375     4541     4676     4768 
    4822     4861     4912     4997     5138     5331     5533     5691 
    5769     5763     5713     5695     5767     5934     6158     6359 
    6462     6450     6361     6255     6196     6215     6292     6376 
    6419     6394     6318     6234     6180     6168     6177     6173 
    6131     6054     5964     5894     5861     5853     5837     5788 
    5702     5576     5431     5308     5247     5251     5286     5298 
    5231     5084     4907     4766     4703     4737     4842     4955 
    5008     4968     4845     4685     4575     4568     4650     4758 
    4824     4807     4722     4623     4565     4572     4631     4692 
    4715     4695     4652     4630     4656     4714     4768     4797 
    4814     4849     4930     5061     5217     5370     5506     5610 
    5674     5706     5710     5688     5655     5625     5609     5589 
    5545     5474     5395     5337     5323     5351     5393     5400 
    5348     5252     5162     5131     5181     5292     5418     5510 
    5552     5553     5518     5448     5366     5305     5304     5377 
    5502     5633     5722     5756     5756     5757     5778     5823 
    5875     5892     5872     5846     5845     5868     5880     5848 
    5769     5676     5632     5686     5818     5956     6026     5979 
    5822     5628     5462     5360     5316     5296     5269     5216 
    5131     5040     4978     4958     4977     5009     5012     4974 
    4941     4950     5005     5107     5236     5341     5386     5382 
    5356     5340     5354     5390     5443     5508     5564     5595 
    5611     5622     5626     5648     5718     5818     5911     5972 
    5983     5941     5880     5845     5860     5922     5995     6038 
    6011     5908     5776     5687     5686     5760     5849     5879 
    5798     5622     5431     5300     5256     5292     5364     5424 
    5441     5410     5352     5294     5247     5220     5217     5238 
    5275     5309     5309     5262     5179     5098     5055     5058 
    5090     5120     5107     5043     4949     4857     4807     4826 
    4905     4986     5005     4945     4835     4731     4692     4738 
    4834     4912     4903     4779     4592     4450     4433     4544 
    4718     4858     4891     4815     4714     4698     4822     5042 
    5246     5313     5204     4986     4792     4735     4833     5013 
    5170     5212     5115     4936     4772     4706     4757     4874 
    4973     4980     4869     4696     4550     4513     4611     4815 
    5038     5193     5244     5229     5220     5286     5454     5695 
    5944     6118     6174     6126     6057     6068     6197     6407 
    6616     6737     6725     6606     6455     6355     6358     6455 
    6573     6623     6561     6409     6224     6072     5999     5995 
    6011     5981     5869     5692     5518     5424     5435     5512 
    5590     5607     5536     5404     5267     5185     5198     5312 
    5482     5633     5711     5715     5672     5613     5582     5611 
    5702     5817     5899     5908     5849     5751     5643     5545 
    5479     5444     5416     5370     5285     5162     5030     4922 
    4845     4803     4793     4777     4720     4629     4526     4434 
    4380     4359     4334     4280     4182     4054     3937     3869 
    3869     3935     4036     4133     4198     4203     4159     4102 
    4075     4104     4189     4307     4428     4526     4594     4635 
    4685     4774     4907     5073     5247     5400     5520     5621 
    5728     5861     6019     6177     6307     6380     6381     6335 
    6291     6295     6363     6481     6605     6700     6741     6729 
    6696     6694     6750     6844     6932     6963     6918     6820 
    6724     6686     6720     6794     6856     6848     6744     6575 
    6403     6278     6222     6195     6143     6033     5852     5626 
    5412     5256     5171     5125     5076     4985     4841     4658 
    4473     4328     4253     4252     4295     4345     4367     4345 
    4299     4255     4230     4233     4255     4282     4299     4298 
    4278     4263     4276     4328     4418     4531     4642     4723 
    4764     4779     4807     4887     5036     5240     5433     5562 
    5609     5610     5628     5713     5875     6072     6241     6330 
    6336     6305     6295     6326     6385     6431     6413     6308 
    6143     5975     5846     5776     5733     5659     5522     5343 
    5182     5103     5111     5169     5217     5206     5123     4992 
    4874     4824     4855     4931     4999     5022     4996     4959 
    4950     4984     5051     5116     5147     5140     5113     5098 
    5107     5128     5138     5107     5038     4976     4962     5005 
    5081     5148     5171     5138     5063     4988     4941     4924 
    4928     4941     4950     4949     4941     4923     4897     4869 
    4860     4891     4969     5081     5200     5294     5347     5368 
    5383     5410     5455     5502     5530     5525     5478     5406 
    5335     5273     5225     5193     5169     5140     5103     5065 
    5044     5058     5101     5154     5186     5182     5158     5152 
    5184     5238     5285     5301     5279     5240     5216     5233 
    5297     5381     5448     5472     5447     5400     5371     5383 
    5432     5491     5540     5562     5555     5525     5494     5491 
    5529     5593     5675     5755     5810     5829     5815     5795 
    5806     5873     5994     6131     6245     6304     6303     6264 
    6227     6234     6286     6354     6400     6394     6328     6235 
    6161     6141     6181     6241     6264     6218     6107     5962 
