Origin Time       2025/01/13 21:19:00
Lat.              31.8
Long.             131.6
Depth. (km)       30
Mag.              6.9
Station Code      EHM002
Station Lat.      33.9211
Station Long.     133.3079
Station Height(m) 63
Record Time       2025/01/13 21:21:02
Sampling Freq(Hz) 100Hz
Duration Time(s)  60
Dir.              E-W
Scale Factor      7845(gal)/8223790
Max. Acc. (gal)   1.037
Last Correction   2025/01/13 21:21:03
Memo.             
[...]
   -2000    -2083    -2208    -2290    -2424    -2547    -2430    -2149 
   -2012    -2134    -2443    -2702    -2617    -2288    -2110    -2191 
   -2327    -2347    -2270    -2245    -2343    -2444    -2459    -2419 
   -2405    -2473    -2583    -2697    -2786    -2721    -2470    -2303 
   -2398    -2582    -2658    -2548    -2257    -2025    -2118    -2412 
   -2624    -2670    -2631    -2628    -2698    -2754    -2586    -2157 
   -1895    -2016    -2208    -2331    -2436    -2497    -2446    -2247 
   -2138    -2297    -2458    -2471    -2446    -2361    -2261    -2257 
   -2286    -2331    -2473    -2616    -2633    -2604    -2471    -2107 
   -1945    -2423    -2978    -2930    -2617    -2589    -2685    -2604 
   -2490    -2571    -2725    -2674    -2408    -2215    -2224    -2219 
   -2087    -1962    -1941    -2034    -2195    -2309    -2305    -2224 
   -2155    -2170    -2313    -2473    -2528    -2600    -2755    -2862 
   -2789    -2594    -2478    -2438    -2455    -2677    -2917    -2870 
   -2623    -2455    -2516    -2621    -2505    -2284    -2178    -2165 
   -2169    -2188    -2222    -2354    -2671    -2901    -2724    -2338 
   -2146    -2263    -2501    -2601    -2532    -2477    -2435    -2295 
   -2192    -2300    -2550    -2713    -2639    -2475    -2455    -2585 
   -2714    -2718    -2736    -2876    -2882    -2701    -2573    -2509 
   -2536    -2691    -2737    -2539    -2230    -2088    -2259    -2466 
   -2543    -2631    -2652    -2524    -2393    -2367    -2481    -2671 
   -2839    -2964    -2999    -2963    -2943    -2926    -2945    -3051 
   -3022    -2660    -2176    -1907    -1991    -2300    -2575    -2671 
   -2590    -2466    -2447    -2473    -2424    -2288    -2226    -2486 
   -2766    -2571    -2259    -2301    -2479    -2597    -2691    -2600 
   -2216    -1852    -1860    -2110    -2216    -2133    -2056    -2069 
   -2176    -2308    -2293    -2195    -2251    -2384    -2415    -2484 
   -2666    -2755    -2695    -2608    -2496    -2327    -2149    -2106 
   -2241    -2331    -2320    -2403    -2485    -2471    -2563    -2666 
   -2485    -2205    -2201    -2323    -2241    -2088    -2150    -2385 
   -2567    -2531    -2282    -2126    -2380    -2740    -2651    -2299 
   -2193    -2354    -2511    -2461    -2300    -2313    -2511    -2833 
   -3168    -3060    -2415    -1840    -1791    -2108    -2428    -2544 
   -2428    -2320    -2473    -2623    -2447    -2172    -2185    -2435 
   -2539    -2502    -2608    -2691    -2565    -2458    -2484    -2513 
   -2447    -2373    -2485    -2662    -2636    -2416    -2092    -1875 
   -2070    -2451    -2436    -2000    -1690    -1827    -2076    -2061 
   -2025    -2200    -2371    -2566    -2917    -2948    -2419    -2003 
   -2088    -2377    -2686    -2841    -2658    -2385    -2371    -2512 
   -2440    -2201    -2263    -2606    -2637    -2270    -2000    -1987 
   -2147    -2502    -2759    -2598    -2273    -2142    -2238    -2471 
   -2774    -2957    -2751    -2254    -1934    -2045    -2478    -2824 
   -2689    -2340    -2290    -2516    -2690    -2596    -2312    -2226 
   -2515    -2895    -2968    -2617    -2227    -2209    -2415    -2577 
   -2670    -2633    -2501    -2484    -2679    -2934    -3032    -3022 
   -2936    -2554    -2093    -2107    -2459    -2536    -2286    -2016 
   -1856    -2026    -2540    -2849    -2735    -2543    -2362    -2189 
   -2272    -2450    -2336    -2112    -2087    -2165    -2272    -2471 
   -2515    -2268    -2122    -2228    -2371    -2421    -2297    -2153 
   -2169    -2258    -2404    -2569    -2538    -2371    -2331    -2342 
   -2226    -2124    -2157    -2243    -2393    -2559    -2508    -2293 
   -2342    -2764    -3156    -3210    -2976    -2590    -2222    -2164 
   -2498    -2862    -2874    -2552    -2168    -1939    -2015    -2307 
   -2438    -2412    -2515    -2596    -2497    -2257    -1931    -1827 
   -2127    -2666    -3086    -2980    -2538    -2270    -2242    -2381 
   -2585    -2623    -2532    -2424    -2297    -2231    -2300    -2523 
   -2697    -2516    -2251    -2343    -2508    -2388    -2182    -2124 
   -2205    -2343    -2498    -2627    -2609    -2465    -2369    -2404 
   -2609    -2899    -2978    -2690    -2254    -2092    -2327    -2529 
   -2469    -2436    -2463    -2322    -2253    -2509    -2725    -2689 
   -2612    -2587    -2674    -2744    -2505    -2155    -2085    -2301 
   -2612    -2808    -2776    -2550    -2327    -2461    -2883    -3076 
   -2833    -2427    -2195    -2288    -2625    -2905    -2929    -2926 
   -3028    -2955    -2624    -2241    -2010    -2128    -2485    -2741 
   -2814    -2691    -2440    -2411    -2654    -2866    -2987    -2972 
   -2664    -2373    -2478    -2631    -2516    -2477    -2574    -2367 
   -2047    -2238    -2706    -2891    -2822    -2614    -2425    -2547 
   -2763    -2640    -2247    -2002    -2157    -2431    -2496    -2566 
   -2793    -2879    -2617    -2232    -2111    -2209    -2274    -2328 
   -2361    -2313    -2313    -2324    -2208    -2115    -2273    -2496 
   -2377    -2091    -2228    -2628    -2528    -1995    -1900    -2424 
   -2914    -2991    -2724    -2336    -2177    -2288    -2398    -2446 
   -2512    -2590    -2569    -2381    -2263    -2519    -2857    -2724 
   -2413    -2569    -2926    -2941    -2745    -2617    -2602    -2793 
   -3053    -2960    -2544    -2282    -2273    -2292    -2357    -2501 
   -2540    -2470    -2374    -2222    -2146    -2331    -2573    -2467 
   -2134    -2068    -2220    -2272    -2344    -2531    -2587    -2407 
   -2201    -2118    -2056    -2064    -2293    -2528    -2488    -2300 
   -2211    -2178    -2089    -2061    -2149    -2241    -2274    -2231 
   -2231    -2384    -2424    -2208    -2050    -2130    -2273    -2286 
   -2192    -2195    -2290    -2245    -2142    -2215    -2340    -2305 
   -2161    -2147    -2328    -2320    -2031    -2016    -2308    -2428 
   -2451    -2513    -2479    -2505    -2614    -2521    -2250    -2070 
   -2150    -2362    -2394    -2355    -2477    -2409    -2065    -1971 
   -2127    -2146    -2100    -2139    -2191    -2200    -2147    -2070 
   -2058    -2176    -2354    -2290    -1977    -1794    -1806    -1926 
   -2174    -2253    -1968    -1709    -1757    -1952    -2031    -1891 
   -1788    -1975    -2207    -2263    -2227    -2153    -2114    -2097 
   -2065    -2130    -2165    -2018    -1903    -1987    -2269    -2559 
   -2546    -2370    -2367    -2478    -2489    -2357    -2313    -2559 
   -2836    -2799    -2623    -2698    -2924    -2968    -2945    -2987 
   -2930    -2797    -2668    -2485    -2431    -2652    -2789    -2590 
   -2347    -2196    -1984    -1884    -2104    -2425    -2625    -2674 
   -2571    -2367    -2193    -2143    -2204    -2322    -2432    -2438 
   -2320    -2211    -2200    -2330    -2540    -2608    -2555    -2600 
   -2551    -2251    -2083    -2242    -2408    -2384    -2305    -2304 
   -2447    -2633    -2505    -2134    -2092    -2454    -2737    -2674 
   -2459    -2432    -2597    -2679    -2629    -2598    -2538    -2357 
   -2251    -2377    -2521    -2535    -2604    -2798    -2895    -2820 
   -2783    -2848    -2824    -2728    -2736    -2830    -2917    -2875 
   -2656    -2475    -2458    -2485    -2552    -2632    -2623    -2620 
   -2637    -2578    -2528    -2502    -2452    -2463    -2419    -2187 
   -1988    -2000    -2138    -2257    -2242    -2178    -2266    -2423 
   -2446    -2425    -2492    -2465    -2299    -2312    -2457    -2392 
   -2257    -2205    -2077    -1911    -1836    -1883    -1962    -1888 
   -1836    -2057    -2320    -2423    -2451    -2416    -2324    -2243 
   -2207    -2261    -2378    -2430    -2362    -2265    -2263    -2415 
   -2627    -2681    -2486    -2236    -2199    -2371    -2484    -2385 
   -2216    -2170    -2301    -2471    -2517    -2469    -2463    -2617 
   -2764    -2558    -2211    -2172    -2307    -2400    -2535    -2691 
   -2747    -2640    -2417    -2343    -2556    -2906    -3186    -3144 
   -2840    -2660    -2617    -2533    -2461    -2466    -2640    -2910 
   -2980    -2830    -2585    -2324    -2350    -2646    -2762    -2682 
   -2578    -2405    -2385    -2619    -2741    -2613    -2425    -2347 
   -2452    -2602    -2632    -2594    -2583    -2628    -2666    -2662 
   -2674    -2635    -2511    -2523    -2709    -2825    -2806    -2759 
   -2677    -2533    -2481    -2559    -2528    -2404    -2432    -2569 
   -2621    -2574    -2547    -2547    -2496    -2498    -2593    -2641 
   -2651    -2658    -2610    -2556    -2565    -2620    -2617    -2544 
   -2550    -2567    -2519    -2633    -2829    -2775    -2655    -2783 
   -3003    -3002    -2853    -2870    -2997    -2924    -2706    -2587 
   -2570    -2590    -2633    -2617    -2560    -2555    -2506    -2331 
   -2178    -2161    -2231    -2303    -2351    -2467    -2567    -2471 
   -2343    -2363    -2493    -2727    -2921    -2870    -2727    -2701 
   -2652    -2508    -2424    -2409    -2425    -2547    -2716    -2755 
   -2598    -2396    -2362    -2494    -2627    -2639    -2560    -2555 
   -2639    -2662    -2619    -2520    -2415    -2463    -2524    -2420 
   -2376    -2397    -2286    -2232    -2363    -2469    -2479    -2515 
   -2601    -2663    -2735    -2849    -2860    -2744    -2637    -2598 
   -2683    -2799    -2791    -2749    -2748    -2837    -3087    -3192 
   -2872    -2448    -2344    -2500    -2620    -2637    -2587    -2497 
   -2450    -2393    -2274    -2214    -2246    -2380    -2531    -2501 
   -2371    -2377    -2565    -2821    -2955    -2960    -2994    -3071 
   -3102    -3011    -2813    -2659    -2646    -2659    -2610    -2547 
   -2479    -2400    -2427    -2614    -2735    -2640    -2562    -2590 
   -2488    -2276    -2187    -2164    -2095    -2093    -2251    -2390 
   -2269    -2039    -2015    -2134    -2250    -2324    -2266    -2181 
   -2204    -2205    -2164    -2189    -2242    -2258    -2253    -2293 
   -2417    -2494    -2411    -2282    -2245    -2272    -2274    -2238 
   -2184    -2126    -2128    -2137    -2014    -1906    -1918    -1885 
   -1819    -1765    -1682    -1757    -2000    -2050    -1894    -1867 
   -1995    -2120    -2189    -2160    -2131    -2227    -2282    -2166 
   -1985    -1908    -2062    -2304    -2403    -2353    -2184    -2050 
   -2151    -2263    -2170    -2072    -2020    -1949    -1995    -2134 
   -2204    -2235    -2303    -2413    -2536    -2594    -2554    -2400 
   -2204    -2122    -2141    -2181    -2228    -2143    -1885    -1760 
   -1972    -2204    -2173    -2151    -2301    -2419    -2496    -2650 
   -2771    -2687    -2532    -2554    -2694    -2833    -2961    -2971 
   -2833    -2768    -2909    -3045    -2945    -2725    -2632    -2724 
   -2828    -2718    -2485    -2430    -2556    -2605    -2442    -2205 
   -2065    -1952    -1884    -2077    -2335    -2344    -2332    -2443 
   -2455    -2354    -2288    -2265    -2242    -2253    -2394    -2570 
   -2606    -2548    -2484    -2486    -2544    -2488    -2363    -2316 
   -2300    -2403    -2544    -2407    -2177    -2211    -2326    -2282 
   -2230    -2289    -2311    -2251    -2285    -2435    -2492    -2396 
   -2363    -2442    -2455    -2415    -2378    -2290    -2222    -2270 
   -2427    -2641    -2768    -2740    -2697    -2685    -2756    -2972 
   -3064    -2914    -2859    -2990    -3006    -2789    -2558    -2566 
   -2741    -2844    -2882    -2914    -2840    -2679    -2589    -2600 
   -2619    -2621    -2641    -2604    -2474    -2459    -2641    -2767 
   -2713    -2667    -2732    -2783    -2787    -2813    -2810    -2740 
   -2667    -2678    -2731    -2660    -2475    -2359    -2371    -2457 
   -2546    -2646    -2736    -2705    -2633    -2590    -2516    -2560 
   -2687    -2636    -2542    -2610    -2776    -2921    -2918    -2795 
   -2754    -2909    -3121    -3119    -2936    -2832    -2867    -2952 
   -2891    -2560    -2251    -2196    -2180    -2068    -1911    -1761 
   -1721    -1777    -1848    -1890    -1849    -1861    -1961    -1946 
   -1971    -2211    -2404    -2455    -2461    -2374    -2297    -2376 
   -2532    -2632    -2639    -2668    -2748    -2709    -2592    -2569 
   -2609    -2644    -2643    -2624    -2693    -2829    -2907    -2944 
   -2964    -2960    -2991    -3010    -2932    -2874    -2860    -2805 
   -2812    -2901    -2944    -2918    -2879    -2894    -2903    -2789 
   -2651    -2610    -2602    -2625    -2671    -2659    -2644    -2637 
   -2581    -2515    -2494    -2538    -2535    -2397    -2339    -2408 
   -2363    -2312    -2473    -2677    -2739    -2678    -2540    -2409 
   -2430    -2619    -2789    -2763    -2631    -2562    -2544    -2551 
   -2606    -2664    -2717    -2797    -2895    -2957    -2887    -2716 
   -2590    -2552    -2527    -2423    -2247    -2145    -2177    -2227 
   -2220    -2236    -2342    -2423    -2350    -2235    -2182    -2134 
   -2127    -2220    -2282    -2207    -2122    -2153    -2193    -2146 
   -2106    -2120    -2135    -2157    -2123    -1918    -1683    -1607 
   -1628    -1651    -1679    -1755    -1852    -1865    -1784    -1699 
   -1684    -1737    -1813    -1877    -1849    -1730    -1705    -1792 
   -1823    -1823    -1891    -1945    -1988    -2107    -2219    -2212 
   -2145    -2170    -2288    -2350    -2309    -2315    -2475    -2659 
   -2737    -2795    -2835    -2822    -2922    -3126    -3186    -3103 
   -3096    -3199    -3326    -3468    -3531    -3431    -3323    -3295 
   -3206    -3024    -2822    -2668    -2624    -2629    -2586    -2527 
   -2512    -2547    -2616    -2663    -2598    -2451    -2351    -2277 
   -2149    -2061    -2029    -1948    -1854    -1809    -1761    -1707 
   -1680    -1696    -1764    -1810    -1730    -1584    -1483    -1417 
   -1371    -1399    -1489    -1549    -1560    -1548    -1537    -1580 
   -1655    -1721    -1860    -2080    -2255    -2332    -2404    -2536 
   -2682    -2818    -2998    -3186    -3244    -3164    -3113    -3159 
   -3237    -3333    -3393    -3319    -3187    -3092    -3006    -2899 
   -2737    -2559    -2459    -2373    -2315    -2452    -2681    -2767 
   -2729    -2701    -2759    -2870    -2929    -2910    -2849    -2787 
   -2802    -2886    -2995    -3060    -2901    -2571    -2378    -2369 
   -2347    -2326    -2409    -2465    -2419    -2407    -2400    -2309 
   -2212    -2191    -2232    -2289    -2358    -2462    -2455    -2239 
   -2046    -2056    -2133    -2139    -2096    -2054    -2026    -1992 
   -1954    -1968    -2025    -2062    -2087    -2106    -2115    -2157 
   -2224    -2278    -2307    -2313    -2381    -2542    -2683    -2752 
   -2803    -2849    -2849    -2851    -2891    -2880    -2847    -2878 
   -2857    -2752    -2706    -2708    -2675    -2671    -2683    -2608 
   -2490    -2344    -2172    -2110    -2151    -2216    -2293    -2296 
   -2255    -2300    -2340    -2330    -2384    -2465    -2463    -2409 
   -2421    -2508    -2532    -2455    -2381    -2376    -2469    -2592 
   -2602    -2559    -2624    -2772    -2852    -2855    -2890    -2876 
   -2727    -2627    -2673    -2759    -2813    -2775    -2658    -2586 
   -2597    -2627    -2627    -2602    -2574    -2550    -2546    -2589 
   -2654    -2674    -2641    -2613    -2578    -2517    -2481    -2478 
   -2494    -2513    -2447    -2295    -2195    -2164    -2120    -2085 
   -2081    -2042    -1979    -1999    -2079    -2097    -2106    -2220 
   -2369    -2416    -2365    -2324    -2355    -2419    -2494    -2540 
   -2520    -2546    -2660    -2679    -2558    -2486    -2520    -2592 
   -2691    -2771    -2760    -2674    -2589    -2597    -2674    -2681 
   -2664    -2735    -2768    -2700    -2670    -2670    -2589    -2508 
   -2546    -2614    -2593    -2558    -2582    -2593    -2587    -2583 
   -2497    -2404    -2454    -2556    -2548    -2454    -2392    -2384 
   -2380    -2353    -2292    -2201    -2135    -2116    -2151    -2215 
   -2222    -2160    -2084    -2035    -2065    -2164    -2227    -2200 
   -2149    -2149    -2134    -2015    -1917    -1956    -1995    -1942 
   -1875    -1773    -1682    -1748    -1900    -1949    -1890    -1857 
   -1923    -2064    -2249    -2365    -2339    -2334    -2470    -2674 
   -2837    -2860    -2728    -2621    -2666    -2785    -2863    -2870 
   -2840    -2816    -2764    -2682    -2631    -2592    -2502    -2405 
   -2359    -2359    -2389    -2438    -2486    -2529    -2610    -2705 
   -2705    -2643    -2640    -2655    -2628    -2604    -2574    -2519 
   -2519    -2571    -2569    -2517    -2494    -2467    -2408    -2373 
   -2351    -2277    -2191    -2188    -2224    -2195    -2141    -2199 
   -2319    -2308    -2265    -2370    -2497    -2535    -2539    -2529 
   -2496    -2454    -2469    -2562    -2614    -2612    -2594    -2501 
   -2423    -2459    -2466    -2442    -2523    -2633    -2659    -2616 
   -2579    -2577    -2544    -2511    -2546    -2548    -2471    -2474 
   -2581    -2631    -2608    -2610    -2605    -2528    -2432    -2396 
   -2371    -2305    -2288    -2343    -2369    -2390    -2462    -2516 
   -2551    -2600    -2598    -2551    -2559    -2601    -2592    -2571 
   -2623    -2744    -2839    -2801    -2751    -2832    -2911    -2882 
   -2790    -2679    -2640    -2721    -2840    -2929    -2978    -2965 
   -2902    -2883    -2916    -2918    -2887    -2814    -2744    -2782 
   -2833    -2763    -2635    -2616    -2762    -2876    -2816    -2712 
   -2643    -2569    -2493    -2425    -2401    -2431    -2439    -2408 
   -2390    -2392    -2412    -2448    -2478    -2505    -2542    -2583 
   -2589    -2536    -2484    -2458    -2461    -2498    -2477    -2388 
   -2400    -2506    -2544    -2523    -2521    -2489    -2392    -2363 
   -2430    -2403    -2281    -2249    -2289    -2274    -2259    -2326 
   -2401    -2401    -2344    -2304    -2276    -2246    -2282    -2354 
   -2284    -2112    -2081    -2169    -2161    -2070    -2052    -2088 
   -2089    -2065    -2043    -2042    -2074    -2104    -2126    -2158 
   -2178    -2215    -2280    -2340    -2408    -2457    -2450    -2461 
   -2540    -2629    -2677    -2712    -2778    -2848    -2841    -2756 
   -2685    -2682    -2701    -2694    -2694    -2685    -2623    -2590 
   -2629    -2613    -2492    -2392    -2412    -2484    -2493    -2486 
   -2497    -2435    -2365    -2393    -2400    -2313    -2293    -2347 
   -2315    -2247    -2299    -2444    -2586    -2668    -2685    -2652 
   -2570    -2505    -2556    -2678    -2748    -2716    -2651    -2664 
   -2739    -2779    -2770    -2713    -2662    -2691    -2728    -2658 
   -2539    -2516    -2610    -2720    -2760    -2717    -2629    -2573 
   -2590    -2631    -2631    -2641    -2685    -2667    -2571    -2440 
   -2330    -2343    -2455    -2511    -2488    -2425    -2349    -2324 
   -2342    -2339    -2297    -2208    -2108    -2045    -2037    -2074 
   -2077    -2003    -1935    -1933    -1981    -2012    -1983    -1996 
   -2095    -2178    -2251    -2361    -2463    -2528    -2558    -2559 
   -2542    -2527    -2550    -2585    -2579    -2529    -2454    -2439 
   -2506    -2509    -2411    -2397    -2465    -2427    -2354    -2403 
   -2454    -2380    -2288    -2276    -2276    -2254    -2282    -2357 
