Origin Time       2025/01/13 21:19:00
Lat.              31.8
Long.             131.6
Depth. (km)       30
Mag.              6.9
Station Code      EHM010
Station Lat.      33.4511
Station Long.     132.6881
Station Height(m) 191
Record Time       2025/01/13 21:20:15
Sampling Freq(Hz) 100Hz
Duration Time(s)  92
Dir.              E-W
Scale Factor      7845(gal)/8223790
Max. Acc. (gal)   4.928
Last Correction   2025/01/13 21:20:15
Memo.             
[...]
   -7877    -8043    -8270    -8502    -8608    -8534    -8325    -8066 
   -7821    -7604    -7437    -7383    -7442    -7492    -7469    -7399 
   -7280    -7156    -7096    -7111    -7187    -7299    -7426    -7568 
   -7704    -7780    -7734    -7588    -7488    -7527    -7651    -7809 
   -7954    -8021    -7997    -7916    -7807    -7666    -7535    -7465 
   -7415    -7353    -7292    -7249    -7231    -7176    -7052    -6947 
   -6930    -7047    -7321    -7659    -7965    -8235    -8471    -8648 
   -8722    -8621    -8348    -7992    -7662    -7470    -7434    -7453 
   -7449    -7431    -7404    -7375    -7384    -7406    -7391    -7433 
   -7572    -7686    -7716    -7654    -7472    -7252    -7125    -7105 
   -7173    -7308    -7468    -7599    -7669    -7740    -7855    -7908 
   -7854    -7789    -7759    -7732    -7657    -7524    -7412    -7371 
   -7338    -7283    -7250    -7268    -7303    -7334    -7419    -7599 
   -7847    -8100    -8256    -8318    -8340    -8297    -8159    -7923 
   -7603    -7319    -7167    -7103    -7075    -7094    -7173    -7264 
   -7292    -7272    -7249    -7261    -7380    -7636    -7946    -8176 
   -8272    -8316    -8413    -8542    -8584    -8446    -8186    -7959 
   -7832    -7724    -7604    -7572    -7688    -7836    -7897    -7902 
   -7923    -7967    -7977    -7884    -7720    -7522    -7290    -7098 
   -6974    -6851    -6709    -6577    -6501    -6485    -6490    -6536 
   -6635    -6767    -6970    -7261    -7611    -8001    -8364    -8606 
   -8703    -8683    -8572    -8370    -8077    -7774    -7550    -7377 
   -7225    -7159    -7161    -7136    -7099    -7079    -7051    -7042 
   -7063    -7080    -7150    -7369    -7735    -8101    -8310    -8378 
   -8388    -8406    -8519    -8698    -8789    -8770    -8698    -8559 
   -8295    -7919    -7531    -7209    -6970    -6848    -6802    -6774 
   -6808    -6901    -7020    -7206    -7461    -7739    -8012    -8220 
   -8289    -8257    -8229    -8186    -8105    -8037    -7948    -7801 
   -7636    -7483    -7385    -7361    -7339    -7299    -7250    -7149 
   -7014    -6910    -6870    -6978    -7300    -7759    -8222    -8560 
   -8719    -8779    -8761    -8625    -8397    -8131    -7847    -7566 
   -7287    -7003    -6733    -6524    -6444    -6490    -6548    -6571 
   -6652    -6841    -7055    -7268    -7524    -7797    -7998    -8055 
   -7981    -7859    -7771    -7727    -7712    -7781    -7898    -7959 
   -7975    -8014    -8037    -7938    -7678    -7350    -7090    -6983 
   -7079    -7377    -7769    -8094    -8239    -8133    -7825    -7476 
   -7196    -7037    -7045    -7206    -7470    -7820    -8167    -8356 
   -8355    -8252    -8086    -7840    -7566    -7402    -7456    -7643 
   -7770    -7754    -7599    -7338    -7071    -6898    -6855    -6929 
   -7086    -7275    -7452    -7592    -7686    -7778    -7851    -7788 
   -7639    -7546    -7514    -7519    -7576    -7662    -7777    -7943 
   -8114    -8191    -8124    -7955    -7788    -7727    -7801    -7943 
   -8105    -8272    -8371    -8302    -8041    -7685    -7377    -7163 
   -6978    -6801    -6713    -6777    -6952    -7184    -7454    -7742 
   -8014    -8245    -8378    -8415    -8428    -8421    -8368    -8297 
   -8201    -8054    -7902    -7804    -7723    -7573    -7371    -7204 
   -7132    -7148    -7261    -7485    -7784    -8052    -8220    -8316 
   -8372    -8360    -8260    -8064    -7820    -7651    -7612    -7631 
   -7619    -7533    -7403    -7296    -7211    -7115    -7028    -7006 
   -7078    -7180    -7190    -7069    -6870    -6639    -6466    -6417 
   -6438    -6521    -6767    -7175    -7593    -7898    -8060    -8047 
   -7859    -7599    -7388    -7299    -7327    -7430    -7600    -7851 
   -8176    -8500    -8692    -8687    -8534    -8301    -8062    -7842 
   -7612    -7422    -7308    -7231    -7210    -7272    -7360    -7430 
   -7474    -7524    -7638    -7827    -8082    -8407    -8726    -8950 
   -9082    -9136    -9111    -8980    -8698    -8302    -7896    -7542 
   -7260    -7010    -6760    -6555    -6446    -6502    -6736    -7018 
   -7236    -7325    -7242    -7069    -6948    -6902    -6878    -6837 
   -6768    -6725    -6795    -7007    -7342    -7719    -8037    -8306 
   -8538    -8675    -8695    -8630    -8490    -8349    -8283    -8255 
   -8236    -8195    -8036    -7738    -7418    -7142    -6914    -6772 
   -6723    -6740    -6837    -7047    -7392    -7811    -8102    -8167 
   -8081    -7888    -7672    -7591    -7649    -7769    -7936    -8083 
   -8093    -7933    -7651    -7318    -6984    -6664    -6378    -6183 
   -6107    -6138    -6300    -6624    -7068    -7519    -7886    -8168 
   -8403    -8610    -8788    -8893    -8870    -8772    -8672    -8513 
   -8236    -7886    -7533    -7215    -6955    -6789    -6745    -6836 
   -7029    -7188    -7186    -7086    -6998    -6895    -6772    -6689 
   -6663    -6756    -6991    -7257    -7512    -7770    -7939    -7924 
   -7727    -7472    -7291    -7206    -7222    -7392    -7727    -8133 
   -8440    -8518    -8406    -8232    -8064    -7928    -7851    -7780 
   -7674    -7589    -7550    -7523    -7526    -7622    -7838    -8135 
   -8418    -8590    -8602    -8475    -8222    -7894    -7601    -7437 
   -7452    -7630    -7863    -8033    -8059    -7975    -7925    -7932 
   -7905    -7793    -7622    -7425    -7210    -7011    -6903    -6909 
   -7002    -7177    -7426    -7645    -7769    -7859    -7975    -8170 
   -8460    -8725    -8822    -8712    -8375    -7824    -7184    -6593 
   -6089    -5734    -5597    -5644    -5819    -6107    -6473    -6816 
   -7069    -7276    -7481    -7672    -7851    -8019    -8117    -8124 
   -8083    -8031    -7954    -7850    -7747    -7690    -7708    -7751 
   -7708    -7588    -7520    -7565    -7688    -7819    -7921    -8013 
   -8089    -8147    -8224    -8276    -8239    -8162    -8097    -8058 
   -8125    -8361    -8673    -8874    -8816    -8488    -8033    -7614 
   -7268    -6997    -6799    -6604    -6397    -6308    -6363    -6444 
   -6504    -6617    -6829    -7090    -7361    -7708    -8143    -8483 
   -8550    -8411    -8213    -7992    -7769    -7496    -7130    -6795 
   -6588    -6463    -6378    -6300    -6258    -6313    -6466    -6678 
   -6897    -7107    -7377    -7730    -8068    -8257    -8216    -7990 
   -7705    -7433    -7184    -7052    -7140    -7404    -7742    -8067 
   -8280    -8367    -8390    -8367    -8302    -8222    -8154    -8147 
   -8251    -8434    -8623    -8714    -8629    -8448    -8252    -7987 
   -7608    -7117    -6635    -6372    -6362    -6523    -6810    -7125 
   -7391    -7612    -7730    -7690    -7603    -7631    -7828    -8082 
   -8226    -8174    -7915    -7507    -7069    -6679    -6363    -6180 
   -6187    -6343    -6609    -6975    -7408    -7855    -8226    -8467 
   -8646    -8766    -8785    -8791    -8864    -8919    -8865    -8746 
   -8600    -8383    -8046    -7581    -7105    -6789    -6664    -6689 
   -6816    -6990    -7176    -7326    -7399    -7420    -7458    -7568 
   -7754    -7997    -8256    -8488    -8669    -8756    -8706    -8553 
   -8361    -8105    -7762    -7410    -7136    -6947    -6778    -6566 
   -6390    -6420    -6718    -7231    -7834    -8382    -8777    -9005 
   -9067    -8924    -8529    -7896    -7213    -6727    -6485    -6474 
   -6686    -6964    -7164    -7276    -7317    -7315    -7317    -7310 
   -7268    -7223    -7238    -7371    -7631    -7940    -8175    -8282 
   -8293    -8270    -8191    -7981    -7704    -7535    -7549    -7684 
   -7819    -7884    -7886    -7777    -7515    -7196    -6909    -6693 
   -6633    -6766    -7032    -7392    -7798    -8116    -8209    -8102 
   -7956    -7938    -8112    -8379    -8572    -8637    -8595    -8424 
   -8160    -7916    -7771    -7719    -7662    -7568    -7477    -7377 
   -7268    -7149    -6975    -6783    -6658    -6631    -6741    -6990 
   -7245    -7438    -7665    -7939    -8202    -8486    -8752    -8903 
   -8930    -8876    -8797    -8696    -8537    -8290    -7906    -7402 
   -6899    -6471    -6130    -5940    -5922    -6041    -6345    -6889 
   -7566    -8145    -8445    -8476    -8352    -8105    -7800    -7604 
   -7564    -7562    -7512    -7398    -7260    -7165    -7122    -7137 
   -7215    -7323    -7435    -7516    -7549    -7634    -7873    -8217 
   -8559    -8793    -8843    -8734    -8530    -8255    -7906    -7481 
   -7083    -6866    -6809    -6779    -6762    -6808    -6905    -6993 
   -7015    -7003    -7026    -7163    -7470    -7861    -8216    -8498 
   -8631    -8537    -8239    -7848    -7523    -7317    -7183    -7088 
   -6982    -6822    -6625    -6378    -6118    -5964    -5927    -5962 
   -6079    -6291    -6648    -7182    -7774    -8217    -8353    -8193 
   -7898    -7580    -7225    -6905    -6793    -6914    -7152    -7393 
   -7580    -7657    -7663    -7807    -8235    -8834    -9412    -9886 
  -10193   -10241   -10006    -9553    -8942    -8247    -7565    -6943 
   -6396    -5969    -5702    -5578    -5594    -5779    -6089    -6451 
   -6879    -7348    -7696    -7869    -7966    -8058    -8155    -8251 
   -8295    -8210    -7921    -7426    -6835    -6349    -6103    -6099 
   -6288    -6629    -7001    -7249    -7410    -7646    -7992    -8367 
   -8723    -9013    -9154    -9126    -8969    -8737    -8503    -8303 
   -8125    -7958    -7730    -7333    -6809    -6345    -6089    -6068 
   -6239    -6543    -6937    -7353    -7668    -7803    -7726    -7446 
   -7110    -6825    -6540    -6291    -6195    -6250    -6412    -6639 
   -6862    -7047    -7211    -7379    -7582    -7754    -7816    -7863 
   -8009    -8272    -8631    -9020    -9331    -9452    -9333    -9000 
   -8502    -7923    -7452    -7234    -7204    -7164    -7055    -6999 
   -7051    -7133    -7138    -6963    -6637    -6357    -6270    -6367 
   -6548    -6724    -6912    -7148    -7461    -7861    -8241    -8455 
   -8451    -8235    -7873    -7511    -7258    -7140    -7059    -6897 
   -6681    -6473    -6320    -6284    -6332    -6373    -6397    -6451 
   -6600    -6945    -7477    -8055    -8577    -8996    -9184    -9015 
   -8564    -8079    -7711    -7427    -7175    -6998    -7021    -7288 
   -7654    -7921    -7982    -7808    -7469    -7122    -6944    -7060 
   -7454    -7970    -8460    -8793    -8834    -8577    -8206    -7896 
   -7704    -7553    -7317    -7053    -6910    -6893    -6932    -6999 
   -7152    -7425    -7693    -7816    -7794    -7716    -7746    -7963 
   -8212    -8382    -8553    -8752    -8914    -8974    -8824    -8460 
   -8070    -7750    -7456    -7226    -7119    -7096    -7033    -6790 
   -6446    -6245    -6322    -6669    -7215    -7844    -8433    -8865 
   -9023    -8907    -8631    -8301    -7997    -7759    -7550    -7349 
   -7149    -6929    -6643    -6251    -5884    -5759    -5899    -6170 
   -6453    -6716    -6906    -6922    -6828    -6793    -6925    -7317 
   -7982    -8797    -9524    -9953   -10116   -10146   -10053    -9815 
   -9447    -9051    -8788    -8614    -8436    -8337    -8361    -8424 
   -8414    -8230    -7874    -7476    -7200    -7106    -7125    -7211 
   -7395    -7673    -8002    -8325    -8634    -8868    -8869    -8623 
   -8303    -8041    -7906    -7923    -8058    -8268    -8499    -8641 
   -8554    -8167    -7537    -6844    -6331    -6122    -6184    -6435 
   -6756    -7065    -7318    -7441    -7441    -7400    -7302    -7115 
   -6926    -6794    -6750    -6824    -6993    -7218    -7464    -7690 
   -7900    -8058    -8122    -8116    -8054    -7973    -7993    -8191 
   -8548    -8930    -9180    -9259    -9169    -8881    -8402    -7839 
   -7416    -7283    -7400    -7608    -7693    -7555    -7280    -6983 
   -6750    -6671    -6831    -7211    -7643    -7959    -8122    -8172 
   -8058    -7695    -7148    -6627    -6385    -6546    -6997    -7524 
   -7915    -7969    -7672    -7203    -6805    -6682    -6859    -7223 
   -7661    -7992    -8074    -7990    -7878    -7730    -7470    -7163 
   -6987    -7011    -7103    -7182    -7341    -7634    -8006    -8440 
   -8919    -9367    -9693    -9791    -9563    -8997    -8217    -7496 
   -7082    -6914    -6783    -6644    -6578    -6575    -6570    -6573 
   -6702    -7029    -7466    -7897    -8260    -8519    -8673    -8707 
   -8548    -8243    -7956    -7758    -7562    -7258    -6876    -6574 
   -6455    -6489    -6535    -6467    -6291    -6129    -6077    -6097 
   -6118    -6158    -6286    -6494    -6689    -6875    -7141    -7392 
   -7445    -7285    -6990    -6644    -6377    -6269    -6320    -6520 
   -6862    -7369    -8051    -8741    -9180    -9310    -9313    -9356 
   -9436    -9579    -9846   -10188   -10570   -10941   -11148   -11107 
  -10789   -10185    -9386    -8442    -7423    -6529    -5907    -5559 
   -5436    -5536    -5852    -6308    -6829    -7360    -7815    -8112 
   -8271    -8405    -8511    -8479    -8337    -8244    -8194    -8024 
   -7627    -7022    -6343    -5687    -5090    -4665    -4486    -4538 
   -4796    -5227    -5807    -6486    -7126    -7630    -8014    -8259 
   -8310    -8237    -8182    -8151    -8036    -7811    -7585    -7422 
   -7299    -7186    -7059    -6961    -7026    -7383    -8029    -8807 
   -9566   -10238   -10752   -11009   -10951   -10648   -10258    -9846 
   -9375    -8792    -8114    -7416    -6732    -6088    -5513    -4927 
   -4253    -3542    -2906    -2488    -2443    -2862    -3721    -4880 
   -6138    -7354    -8388    -9028    -9138    -8743    -8035    -7295 
   -6741    -6451    -6335    -6254    -6242    -6362    -6561    -6797 
   -7040    -7256    -7454    -7635    -7776    -7835    -7836    -7958 
   -8305    -8781    -9266    -9660    -9857    -9841    -9713    -9612 
   -9610    -9648    -9617    -9412    -8899    -8051    -7040    -6137 
   -5552    -5360    -5524    -5965    -6578    -7323    -8174    -8958 
   -9479    -9706    -9778    -9873   -10068   -10319   -10588   -10851 
  -11020   -10924   -10504    -9873    -9169    -8496    -7901    -7352 
   -6862    -6498    -6261    -6052    -5746    -5445    -5459    -5896 
   -6605    -7414    -8108    -8465    -8434    -8012    -7250    -6347 
   -5533    -4966    -4689    -4653    -4795    -5047    -5348    -5668 
   -5991    -6322    -6655    -6948    -7233    -7603    -8028    -8353 
   -8468    -8352    -8043    -7628    -7148    -6629    -6227    -6107 
   -6318    -6822    -7508    -8274    -9072    -9756   -10096   -10029 
   -9648    -9084    -8506    -8060    -7851    -7954    -8213    -8309 
   -8136    -7830    -7493    -7175    -6955    -6880    -6967    -7272 
   -7809    -8515    -9313   -10068   -10638   -10955   -10944   -10532 
   -9757    -8843    -8021    -7339    -6822    -6574    -6556    -6621 
   -6694    -6694    -6602    -6602    -6845    -7269    -7696    -7974 
   -8093    -8082    -7919    -7705    -7657    -7874    -8306    -8804 
   -9162    -9235    -9001    -8532    -7967    -7412    -6831    -6255 
   -5879    -5764    -5807    -5961    -6211    -6461    -6644    -6782 
   -6926    -7057    -7130    -7183    -7236    -7273    -7360    -7489 
   -7554    -7480    -7211    -6764    -6282    -5910    -5684    -5499 
   -5271    -5073    -4938    -4803    -4677    -4645    -4891    -5567 
   -6536    -7569    -8554    -9400   -10022   -10366   -10395   -10122 
   -9630    -9035    -8398    -7771    -7321    -7268    -7673    -8361 
   -9057    -9545    -9736    -9607    -9128    -8283    -7195    -6102 
   -5265    -4850    -4823    -5062    -5373    -5512    -5406    -5130 
   -4796    -4646    -4896    -5578    -6563    -7604    -8506    -9228 
   -9717    -9877    -9710    -9320    -8818    -8307    -7890    -7591 
   -7402    -7384    -7565    -7886    -8298    -8716    -9072    -9382 
   -9748   -10243   -10775   -11186   -11433   -11454   -11199   -10779 
  -10260    -9614    -8950    -8352    -7736    -7030    -6285    -5621 
   -5147    -4922    -4926    -5124    -5552    -6237    -7048    -7753 
   -8218    -8473    -8611    -8694    -8738    -8773    -8816    -8764 
   -8509    -8083    -7684    -7564    -7771    -8101    -8324    -8314 
   -8109    -7852    -7593    -7311    -7051    -6840    -6694    -6696 
   -6851    -7072    -7308    -7573    -7911    -8264    -8505    -8614 
   -8588    -8425    -8248    -8160    -8171    -8268    -8338    -8241 
   -7939    -7452    -6845    -6223    -5713    -5471    -5575    -6007 
   -6733    -7677    -8703    -9640   -10326   -10685   -10744   -10552 
  -10126    -9551    -9003    -8618    -8453    -8440    -8345    -7981 
   -7366    -6606    -5811    -5103    -4584    -4309    -4336    -4733 
   -5435    -6270    -7132    -7955    -8662    -9212    -9644   -10050 
  -10467   -10802   -10936   -10791   -10336    -9713    -9082    -8440 
   -7777    -7156    -6628    -6259    -6096    -6139    -6332    -6566 
   -6789    -7002    -7140    -7146    -7094    -7052    -7013    -6912 
   -6667    -6305    -5964    -5742    -5670    -5756    -6018    -6409 
   -6832    -7223    -7534    -7735    -7825    -7793    -7693    -7646 
   -7676    -7755    -7882    -8004    -8054    -8021    -7921    -7777 
   -7578    -7327    -7069    -6853    -6732    -6660    -6539    -6389 
   -6245    -6124    -6120    -6315    -6733    -7317    -7946    -8580 
   -9130    -9441    -9516    -9439    -9288    -9216    -9332    -9644 
  -10066   -10413   -10600   -10662   -10535   -10102    -9373    -8468 
   -7560    -6797    -6253    -5919    -5746    -5718    -5815    -5967 
   -6166    -6475    -6905    -7342    -7560    -7391    -6916    -6311 
   -5663    -5093    -4830    -5023    -5652    -6585    -7628    -8564 
   -9209    -9489    -9409    -9009    -8405    -7780    -7276    -6956 
   -6826    -6852    -6991    -7237    -7481    -7538    -7383    -7145 
   -6944    -6816    -6677    -6534    -6511    -6629    -6878    -7234 
   -7565    -7761    -7805    -7712    -7535    -7323    -7125    -6987 
   -6920    -6889    -6814    -6647    -6443    -6358    -6548    -7033 
   -7744    -8621    -9532   -10281   -10758   -10979   -10984   -10808 
  -10542   -10288   -10045    -9761    -9409    -8996    -8560    -8133 
   -7732    -7415    -7271    -7314    -7491    -7784    -8156    -8413 
   -8384    -8158    -7867    -7527    -7119    -6671    -6303    -6147 
   -6189    -6361    -6619    -6856    -6959    -6863    -6520    -5985 
   -5414    -4966    -4693    -4556    -4549    -4726    -5070    -5471 
   -5788    -5917    -5807    -5441    -4834    -4068    -3299    -2733 
   -2529    -2722    -3264    -4041    -4889    -5694    -6359    -6754 
   -6860    -6805    -6737    -6789    -6994    -7310    -7728    -8244 
   -8772    -9197    -9520    -9783    -9975   -10126   -10334   -10631 
  -10974   -11327   -11686   -12001   -12167   -12120   -11888   -11500 
  -10999   -10505   -10062    -9605    -9093    -8529    -7929    -7333 
   -6795    -6408    -6204    -6162    -6277    -6532    -6918    -7369 
   -7761    -8036    -8212    -8337    -8471    -8630    -8819    -9020 
   -9165    -9158    -8957    -8635    -8291    -7929    -7568    -7288 
   -7128    -7036    -6939    -6816    -6664    -6486    -6332    -6309 
   -6496    -6866    -7325    -7750    -8050    -8199    -8210    -8140 
