Origin Time       2025/01/13 21:19:00
Lat.              31.8
Long.             131.6
Depth. (km)       30
Mag.              6.9
Station Code      EHM001
Station Lat.      33.9788
Station Long.     133.5494
Station Height(m) 25
Record Time       2025/01/13 21:21:01
Sampling Freq(Hz) 100Hz
Duration Time(s)  81
Dir.              E-W
Scale Factor      7845(gal)/8223790
Max. Acc. (gal)   3.312
Last Correction   2025/01/13 21:21:02
Memo.             
[...]
    1966     1941     1921     1908     1879     1827     1771     1725 
    1698     1663     1591     1505     1443     1414     1410     1391 
    1348     1339     1367     1366     1339     1324     1287     1223 
    1167     1120     1102     1182     1325     1436     1514     1595 
    1679     1777     1904     2022     2101     2134     2111     2034 
    1950     1946     2019     2069     2073     2083     2096     2101 
    2114     2118     2123     2149     2172     2174     2187     2226 
    2251     2253     2289     2369     2409     2389     2362     2324 
    2272     2250     2246     2211     2203     2268     2327     2339 
    2332     2301     2242     2200     2154     2058     1966     1930 
    1903     1849     1790     1761     1776     1826     1902     1969 
    1977     1921     1818     1715     1692     1737     1738     1672 
    1591     1514     1456     1436     1451     1470     1460     1453 
    1491     1563     1648     1730     1787     1811     1811     1776 
    1703     1629     1593     1615     1691     1788     1867     1948 
    2046     2087     2043     1985     1935     1908     1912     1899 
    1861     1841     1829     1791     1759     1759     1760     1742 
    1728     1723     1741     1800     1894     1960     1960     1926 
    1921     1944     1960     1976     1998     1984     1935     1876 
    1794     1709     1661     1641     1632     1624     1615     1652 
    1737     1803     1819     1829     1869     1926     1937     1888 
    1858     1898     1954     1976     1988     2002     2010     2058 
    2146     2201     2227     2239     2188     2077     1979     1911 
    1868     1868     1904     1958     2016     2034     1972     1869 
    1790     1771     1830     1922     1934     1848     1742     1663 
    1615     1599     1601     1617     1626     1603     1530     1426 
    1371     1372     1371     1368     1391     1428     1470     1530 
    1597     1657     1706     1726     1714     1696     1706     1757 
    1827     1883     1907     1894     1875     1888     1912     1904 
    1881     1865     1834     1788     1765     1764     1761     1776 
    1796     1783     1773     1804     1849     1908     1991     2074 
    2128     2138     2137     2157     2165     2145     2124     2095 
    2052     2039     2058     2064     2049     2033     2008     1995 
    2014     2047     2092     2143     2154     2114     2065     2038 
    2029     2014     1987     1962     1953     1944     1900     1810 
    1707     1645     1648     1680     1682     1640     1570     1486 
    1431     1431     1502     1655     1810     1875     1881     1904 
    1927     1911     1850     1776     1745     1761     1759     1706 
    1630     1543     1455     1378     1301     1228     1163     1104 
    1063     1044     1032     1021     1019     1026     1042     1089 
    1170     1248     1301     1344     1391     1453     1520     1571 
    1628     1683     1709     1726     1788     1884     1976     2066 
    2137     2118     2030     1949     1890     1877     1942     2007 
    1996     1977     1998     1980     1923     1906     1898     1865 
    1861     1895     1953     2060     2180     2242     2259     2278 
    2308     2346     2389     2415     2405     2380     2388     2439 
    2494     2529     2566     2604     2625     2617     2575     2508 
    2442     2401     2380     2363     2330     2257     2158     2056 
    1937     1826     1756     1701     1651     1615     1587     1578 
    1576     1556     1530     1506     1497     1529     1572     1601 
    1625     1638     1653     1659     1620     1563     1572     1653 
    1723     1738     1732     1698     1648     1636     1648     1630 
    1576     1532     1541     1574     1597     1602     1595     1606 
    1624     1588     1512     1455     1410     1332     1246     1212 
    1258     1360     1468     1537     1570     1610     1696     1798 
    1873     1930     1965     1971     1979     2023     2088     2154 
    2219     2282     2343     2398     2439     2435     2382     2326 
    2281     2238     2192     2155     2151     2147     2103     2034 
    1977     1972     2014     2046     2034     1991     1934     1903 
    1918     1953     1998     2061     2114     2128     2103     2052 
    2011     1987     1966     1980     2042     2114     2146     2149 
    2158     2182     2196     2185     2170     2181     2215     2232 
    2211     2162     2097     2047     2023     2002     1981     1980 
    1989     2016     2079     2131     2128     2112     2106     2052 
    1962     1914     1907     1896     1873     1838     1803     1807 
    1833     1845     1844     1827     1800     1775     1745     1707 
    1674     1667     1694     1737     1756     1737     1688     1599 
    1502     1471     1513     1561     1575     1536     1435     1339 
    1290     1236     1178     1161     1156     1143     1138     1162 
    1221     1296     1395     1532     1659     1752     1823     1849 
    1844     1884     1961     2010     2054     2126     2165     2158 
    2158     2164     2143     2123     2123     2124     2124     2119 
    2064     1971     1902     1881     1910     1965     2000     1981 
    1917     1856     1834     1845     1873     1914     1946     1961 
    1958     1919     1853     1802     1765     1723     1687     1649 
    1610     1584     1563     1525     1468     1391     1323     1293 
    1300     1320     1329     1333     1378     1462     1510     1520 
    1547     1572     1564     1543     1483     1374     1289     1275 
    1290     1289     1269     1235     1235     1294     1370     1436 
    1532     1652     1768     1875     1980     2108     2243     2334 
    2366     2359     2336     2358     2434     2497     2543     2606 
    2655     2678     2710     2747     2741     2679     2563     2424 
    2343     2332     2285     2153     1988     1833     1718     1640 
    1555     1470     1410     1371     1366     1393     1416     1431 
    1466     1541     1636     1705     1742     1746     1709     1696 
    1756     1834     1900     1972     2062     2182     2315     2448 
    2573     2664     2724     2774     2830     2884     2895     2860 
    2833     2820     2806     2808     2844     2916     2997     3041 
    3045     3041     3040     3018     2938     2802     2659     2547 
    2454     2357     2269     2209     2181     2200     2258     2305 
    2339     2380     2401     2386     2358     2313     2251     2219 
    2222     2220     2226     2245     2230     2180     2135     2106 
    2083     2041     1957     1834     1695     1556     1444     1368 
    1310     1256     1210     1178     1158     1162     1194     1242 
    1287     1325     1352     1359     1352     1360     1375     1352 
    1293     1220     1139     1082     1069     1063     1054     1053 
    1039     1021     1036     1097     1189     1271     1333     1383 
    1416     1443     1475     1497     1489     1447     1410     1398 
    1381     1356     1344     1348     1367     1395     1424     1463 
    1509     1541     1534     1491     1470     1483     1491     1482 
    1471     1474     1499     1540     1588     1649     1726     1804 
    1873     1937     1998     2042     2053     2039     2007     1949 
    1860     1744     1610     1474     1381     1333     1281     1220 
    1205     1244     1302     1344     1354     1355     1381     1399 
    1405     1466     1584     1690     1752     1777     1769     1755 
    1746     1738     1736     1756     1794     1844     1891     1929 
    1977     2037     2097     2153     2151     2069     1956     1844 
    1740     1663     1588     1513     1474     1455     1418     1389 
    1386     1401     1413     1425     1433     1410     1355     1308 
    1278     1264     1274     1305     1339     1382     1449     1521 
    1578     1629     1699     1776     1826     1837     1819     1803 
    1819     1869     1937     2006     2076     2158     2234     2274 
    2277     2223     2118     2020     1964     1934     1915     1881 
    1825     1765     1709     1656     1610     1561     1516     1483 
    1475     1506     1564     1621     1663     1686     1679     1655 
    1647     1655     1642     1609     1588     1579     1583     1605 
    1603     1568     1517     1448     1372     1327     1317     1304 
    1279     1278     1324     1416     1539     1663     1768     1845 
    1896     1949     2030     2143     2263     2353     2420     2494 
    2589     2712     2845     2948     3005     3030     3021     2975 
    2926     2890     2859     2837     2814     2781     2758     2759 
    2781     2822     2889     2974     3059     3137     3198     3194 
    3126     3048     2948     2802     2632     2451     2261     2080 
    1918     1768     1620     1480     1366     1274     1179     1073 
     982      911      839      765      681      604      548      504 
     495      515      518      511      534      575      595      612 
     646      668      672      676      664      631      607      587 
     569      588      645      699      739      796      912     1085 
    1264     1418     1547     1661     1791     1958     2149     2353 
    2563     2768     2960     3157     3365     3550     3708     3867 
    4020     4160     4307     4442     4544     4625     4666     4642 
    4584     4527     4455     4344     4187     3985     3746     3505 
    3299     3118     2944     2760     2546     2317     2108     1902 
    1680     1445     1194      949      734      554      399      261 
     126      -14     -152     -255     -313     -359     -391     -383 
    -344     -309     -271     -234     -225     -218     -205     -198 
    -180     -163     -171     -176     -147      -66       55      198 
     359      538      724      911     1088     1247     1387     1501 
    1597     1691     1814     1973     2130     2280     2459     2667 
    2864     3063     3268     3461     3640     3816     3983     4129 
    4241     4329     4399     4432     4419     4391     4347     4260 
    4125     3951     3762     3582     3380     3117     2818     2504 
    2174     1860     1580     1308     1034      784      562      361 
     186       39      -83     -186     -284     -379     -430     -421 
    -391     -353     -279     -171      -47       98      282      502 
     733      946     1129     1298     1487     1698     1892     2072 
    2261     2454     2639     2821     2987     3122     3233     3342 
    3430     3478     3500     3478     3377     3218     3041     2867 
    2702     2540     2373     2214     2076     1954     1854     1763 
    1665     1571     1489     1414     1354     1306     1273     1252 
    1259     1320     1414     1493     1559     1613     1645     1672 
    1721     1784     1856     1912     1931     1927     1944     1992 
    2053     2119     2209     2322     2442     2551     2633     2695 
    2758     2824     2871     2883     2882     2874     2859     2852 
    2851     2851     2867     2870     2814     2728     2644     2552 
    2430     2265     2066     1860     1660     1472     1304     1150 
    1019      926      884      874      872      899      958      993 
     984      947      881      785      653      486      298      109 
     -55     -155     -179     -140      -37      102      267      468 
     687      923     1183     1444     1686     1917     2139     2346 
    2528     2694     2848     3005     3177     3350     3499     3623 
    3717     3782     3839     3886     3904     3893     3851     3761 
    3619     3453     3257     3015     2768     2555     2342     2120 
    1915     1718     1518     1347     1212     1085      955      837 
     730      641      572      517      463      423      405      384 
     359      351      364      379      386      384      357      303 
     257      216      135       28      -74     -183     -292     -376 
    -441     -487     -504     -488     -437     -361     -283     -211 
    -141      -44       87      214      318      418      513      602 
     704      822      926     1019     1125     1242     1362     1507 
    1686     1865     2038     2219     2398     2581     2783     2994 
    3199     3381     3526     3623     3689     3736     3761     3762 
    3736     3676     3591     3476     3346     3233     3152     3109 
    3113     3140     3156     3172     3202     3238     3280     3322 
    3342     3345     3345     3339     3331     3343     3364     3393 
    3451     3511     3551     3601     3655     3673     3649     3596 
    3523     3431     3322     3204     3090     2999     2934     2876 
    2813     2741     2666     2585     2490     2386     2296     2222 
    2161     2119     2093     2077     2056     2014     1952     1887 
    1819     1734     1632     1540     1474     1425     1390     1378 
    1405     1472     1574     1701     1845     2004     2195     2398 
    2594     2781     2948     3098     3235     3345     3414     3442 
    3427     3385     3326     3241     3123     2967     2783     2586 
    2388     2195     2019     1867     1734     1605     1456     1282 
    1088      886      683      479      263       45     -144     -315 
    -476     -615     -741     -845     -918     -978    -1039    -1102 
   -1189    -1294    -1395    -1482    -1547    -1598    -1636    -1641 
   -1609    -1557    -1498    -1429    -1356    -1278    -1183    -1069 
    -923     -738     -540     -342     -141       59      253      445 
     629      804      974     1139     1298     1440     1564     1695 
    1829     1939     2027     2093     2128     2160     2195     2209 
    2211     2222     2241     2270     2313     2362     2412     2469 
    2528     2583     2640     2709     2793     2874     2940     2991 
    3013     2999     2984     2980     2968     2952     2944     2943 
    2953     2983     3034     3092     3136     3159     3173     3175 
    3159     3129     3083     3026     2968     2898     2813     2731 
    2656     2573     2484     2400     2317     2238     2172     2134 
    2131     2157     2196     2243     2313     2404     2489     2562 
    2625     2689     2756     2820     2864     2878     2871     2863 
    2857     2837     2786     2713     2631     2550     2492     2448 
    2393     2320     2228     2112     1987     1852     1687     1497 
    1300     1117      973      868      795      754      756      801 
     881      984     1105     1224     1325     1428     1551     1683 
    1826     1989     2161     2317     2461     2597     2695     2725 
    2717     2682     2605     2509     2419     2336     2257     2177 
    2089     2002     1944     1903     1854     1809     1783     1773 
    1775     1773     1761     1764     1809     1894     2007     2134 
    2289     2479     2674     2855     3017     3160     3280     3370 
    3424     3461     3484     3466     3412     3352     3295     3248 
    3199     3141     3082     3007     2901     2770     2623     2466 
    2296     2108     1902     1675     1433     1186      935      689 
     444      193      -44     -237     -382     -480     -531     -549 
    -529     -450     -321     -171      -17      141      290      414 
     530      633      706      753      774      781      795      823 
     862      909      962     1034     1125     1210     1281     1317 
    1324     1332     1340     1343     1370     1416     1468     1539 
    1637     1760     1890     2018     2143     2254     2347     2420 
    2486     2546     2593     2633     2674     2713     2744     2767 
    2786     2798     2799     2789     2760     2710     2628     2523 
    2423     2346     2290     2251     2219     2178     2124     2069 
    2022     1985     1964     1954     1944     1919     1898     1885 
    1883     1906     1948     2012     2118     2245     2366     2494 
    2651     2829     3015     3213     3414     3599     3769     3955 
    4137     4271     4353     4396     4392     4348     4284     4197 
    4066     3889     3682     3453     3210     2964     2724     2486 
    2254     2022     1773     1522     1285     1048      814      592 
     379      172       -8     -174     -340     -473     -572     -673 
    -781     -866     -938    -1007    -1047    -1057    -1058    -1046 
   -1015     -972     -927     -865     -785     -720     -662     -592 
    -550     -538     -510     -491     -500     -506     -498     -491 
    -481     -445     -398     -376     -360     -310     -259     -217 
    -145      -56       32      136      265      414      572      737 
     905     1080     1267     1453     1628     1807     2006     2215 
    2446     2698     2948     3168     3353     3514     3651     3767 
    3873     3967     4045     4121     4193     4256     4340     4422 
    4482     4536     4577     4607     4638     4637     4604     4546 
    4455     4356     4260     4151     4037     3906     3738     3541 
    3322     3079     2844     2627     2409     2199     2003     1821 
    1667     1547     1426     1283     1129      994      874      741 
     589      445      318      206      118       70       58       68 
      94      135      179      209      217      205      197      222 
     279      348      410      469      538      611      680      739 
     791      855      938     1021     1093     1161     1228     1283 
    1333     1381     1416     1443     1471     1506     1547     1593 
    1648     1717     1806     1914     2029     2150     2274     2377 
    2450     2505     2559     2631     2712     2778     2821     2847 
    2852     2840     2826     2822     2816     2795     2762     2717 
    2678     2650     2623     2585     2536     2490     2457     2420 
    2388     2361     2330     2296     2261     2231     2232     2246 
    2254     2288     2350     2411     2478     2555     2636     2722 
    2814     2903     2994     3084     3167     3235     3303     3365 
    3412     3447     3464     3442     3392     3335     3273     3186 
    3079     2970     2860     2745     2639     2543     2463     2401 
    2340     2268     2184     2092     2003     1912     1815     1734 
    1668     1603     1561     1555     1571     1615     1676     1728 
    1761     1773     1750     1703     1648     1576     1489     1401 
    1312     1215     1113     1013      918      827      723      610 
     508      409      301      199      103        6      -81     -149 
    -218     -290     -346     -369     -352     -306     -248     -174 
     -85       -1       78      143      191      238      280      311 
     340      368      391      414      457      529      626      743 
     873     1012     1159     1320     1489     1649     1794     1926 
    2066     2218     2376     2547     2722     2884     3029     3167 
    3314     3461     3596     3723     3840     3954     4067     4156 
    4205     4224     4212     4156     4068     3962     3838     3707 
    3581     3460     3337     3213     3092     2968     2832     2679 
    2505     2320     2137     1956     1775     1594     1414     1248 
