Origin Time       2025/01/13 21:19:00
Lat.              31.8
Long.             131.6
Depth. (km)       30
Mag.              6.9
Station Code      EHM016
Station Lat.      33.7654
Station Long.     132.7089
Station Height(m) 3
Record Time       2025/01/13 21:20:29
Sampling Freq(Hz) 100Hz
Duration Time(s)  114
Dir.              E-W
Scale Factor      7845(gal)/8223790
Max. Acc. (gal)   7.105
Last Correction   2025/01/13 21:20:29
Memo.             
[...]
   -6864    -6964    -6933    -6826    -6697    -6523    -6307    -6120 
   -5987    -5864    -5753    -5670    -5555    -5379    -5223    -5159 
   -5175    -5242    -5344    -5420    -5400    -5290    -5166    -5073 
   -5023    -5050    -5144    -5250    -5363    -5509    -5670    -5838 
   -5999    -6108    -6169    -6218    -6264    -6319    -6381    -6413 
   -6376    -6237    -5996    -5706    -5424    -5188    -5034    -5004 
   -5084    -5189    -5271    -5296    -5244    -5148    -5042    -4927 
   -4791    -4649    -4558    -4583    -4726    -4903    -5015    -5039 
   -5035    -5077    -5208    -5401    -5560    -5634    -5643    -5607 
   -5579    -5584    -5595    -5610    -5630    -5645    -5634    -5559 
   -5437    -5350    -5346    -5429    -5584    -5748    -5856    -5907 
   -5930    -5942    -5952    -5958    -5972    -5992    -5979    -5923 
   -5869    -5815    -5765    -5775    -5860    -5995    -6166    -6361 
   -6536    -6637    -6681    -6697    -6650    -6524    -6355    -6165 
   -5989    -5914    -5998    -6189    -6373    -6485    -6501    -6448 
   -6384    -6349    -6336    -6291    -6222    -6173    -6127    -6093 
   -6112    -6149    -6146    -6111    -6076    -6031    -5968    -5919 
   -5888    -5823    -5744    -5683    -5595    -5482    -5391    -5325 
   -5286    -5275    -5263    -5188    -4992    -4719    -4461    -4256 
   -4121    -4083    -4121    -4167    -4195    -4216    -4220    -4194 
   -4186    -4264    -4433    -4629    -4810    -4950    -5035    -5101 
   -5202    -5306    -5328    -5274    -5216    -5154    -5108    -5152 
   -5258    -5339    -5420    -5578    -5786    -5968    -6161    -6381 
   -6547    -6678    -6791    -6797    -6693    -6566    -6457    -6389 
   -6407    -6493    -6567    -6567    -6480    -6353    -6246    -6195 
   -6238    -6339    -6358    -6237    -6056    -5881    -5719    -5620 
   -5621    -5680    -5769    -5900    -6039    -6083    -5973    -5798 
   -5593    -5364    -5197    -5080    -4986    -4936    -4924    -4938 
   -4919    -4842    -4796    -4788    -4811    -4920    -5074    -5194 
   -5309    -5441    -5547    -5590    -5591    -5567    -5517    -5425 
   -5305    -5178    -5036    -4912    -4869    -4889    -4927    -4976 
   -5020    -5027    -5011    -4996    -4973    -4930    -4882    -4823 
   -4718    -4572    -4418    -4266    -4180    -4220    -4386    -4683 
   -5055    -5401    -5668    -5830    -5902    -5960    -6031    -6068 
   -6046    -5971    -5841    -5692    -5597    -5559    -5525    -5448 
   -5331    -5200    -5112    -5119    -5232    -5393    -5501    -5514 
   -5425    -5246    -5039    -4868    -4752    -4689    -4635    -4556 
   -4479    -4444    -4482    -4590    -4766    -4986    -5167    -5300 
   -5377    -5375    -5378    -5455    -5575    -5701    -5823    -5962 
   -6153    -6442    -6829    -7246    -7597    -7836    -7978    -8078 
   -8195    -8334    -8456    -8510    -8428    -8214    -7971    -7763 
   -7601    -7472    -7302    -7109    -6986    -6952    -6972    -6972 
   -6886    -6682    -6358    -6029    -5806    -5687    -5645    -5644 
   -5617    -5576    -5638    -5848    -6141    -6451    -6720    -6891 
   -6926    -6824    -6640    -6415    -6151    -5902    -5655    -5323 
   -4936    -4572    -4270    -4095    -4055    -4067    -4037    -3929 
   -3816    -3762    -3751    -3794    -3892    -3971    -3982    -3937 
   -3883    -3843    -3835    -3927    -4131    -4338    -4453    -4460 
   -4345    -4180    -4156    -4340    -4672    -5113    -5591    -6038 
   -6438    -6837    -7231    -7534    -7713    -7794    -7830    -7888 
   -7977    -8075    -8133    -8105    -8035    -7987    -7938    -7836 
   -7688    -7508    -7306    -7113    -6937    -6751    -6525    -6301 
   -6139    -6054    -6065    -6172    -6270    -6269    -6180    -6012 
   -5769    -5489    -5215    -5011    -4880    -4780    -4716    -4660 
   -4579    -4542    -4611    -4761    -4947    -5117    -5259    -5410 
   -5598    -5830    -6037    -6129    -6153    -6151    -6112    -6079 
   -6061    -6016    -5940    -5865    -5814    -5744    -5632    -5562 
   -5620    -5817    -6134    -6485    -6771    -6959    -7083    -7226 
   -7383    -7445    -7391    -7268    -7098    -6916    -6755    -6628 
   -6513    -6403    -6338    -6278    -6150    -5984    -5833    -5697 
   -5578    -5475    -5348    -5162    -4988    -4915    -4936    -5009 
   -5073    -5069    -4985    -4847    -4774    -4862    -5055    -5255 
   -5360    -5300    -5119    -4909    -4726    -4553    -4309    -3983 
   -3626    -3311    -3142    -3156    -3334    -3635    -3977    -4305 
   -4540    -4614    -4604    -4633    -4757    -4985    -5265    -5464 
   -5508    -5490    -5553    -5779    -6151    -6544    -6818    -6901 
   -6847    -6775    -6736    -6768    -6872    -6963    -6998    -6968 
   -6858    -6686    -6538    -6502    -6567    -6640    -6687    -6677 
   -6577    -6454    -6357    -6235    -6025    -5751    -5512    -5340 
   -5213    -5103    -4954    -4756    -4572    -4486    -4513    -4563 
   -4565    -4537    -4479    -4430    -4464    -4519    -4500    -4387 
   -4218    -4072    -3993    -3983    -4005    -3974    -3906    -3897 
   -3981    -4145    -4356    -4557    -4708    -4824    -4953    -5092 
   -5231    -5362    -5494    -5652    -5796    -5844    -5783    -5661 
   -5549    -5525    -5651    -5894    -6147    -6354    -6471    -6480 
   -6420    -6339    -6250    -6154    -6076    -5991    -5853    -5688 
   -5494    -5275    -5088    -4932    -4777    -4617    -4479    -4415 
   -4461    -4590    -4725    -4845    -4970    -5119    -5341    -5651 
   -5962    -6214    -6417    -6613    -6817    -7010    -7173    -7281 
   -7304    -7260    -7160    -6966    -6670    -6311    -5914    -5521 
   -5236    -5136    -5213    -5400    -5579    -5660    -5647    -5590 
   -5557    -5578    -5626    -5660    -5636    -5578    -5544    -5512 
   -5452    -5371    -5246    -5069    -4889    -4749    -4661    -4673 
   -4811    -5008    -5205    -5352    -5390    -5339    -5229    -5092 
   -4961    -4881    -4872    -4897    -4963    -5123    -5367    -5665 
   -5989    -6312    -6647    -7005    -7372    -7722    -7994    -8170 
   -8283    -8326    -8307    -8235    -8064    -7805    -7507    -7249 
   -7133    -7123    -7136    -7140    -7071    -6929    -6847    -6924 
   -7102    -7265    -7361    -7349    -7222    -7078    -6991    -6966 
   -6968    -6970    -6953    -6945    -6986    -7076    -7179    -7207 
   -7082    -6858    -6648    -6540    -6571    -6714    -6852    -6870 
   -6805    -6723    -6621    -6543    -6451    -6235    -5892    -5472 
   -5089    -4845    -4747    -4772    -4800    -4731    -4590    -4402 
   -4183    -3928    -3603    -3218    -2793    -2366    -2014    -1714 
   -1409    -1119     -859     -633     -494     -480     -529     -552 
    -533     -500     -468     -472     -577     -831    -1204    -1628 
   -2047    -2416    -2718    -2965    -3207    -3472    -3694    -3846 
   -3928    -3927    -3915    -3975    -4159    -4438    -4734    -5027 
   -5321    -5647    -6070    -6605    -7196    -7769    -8271    -8649 
   -8880    -9019    -9094    -9119    -9117    -9067    -8986    -8914 
   -8877    -8880    -8839    -8726    -8610    -8527    -8530    -8611 
   -8683    -8696    -8625    -8534    -8526    -8534    -8488    -8399 
   -8240    -8029    -7831    -7663    -7489    -7223    -6856    -6498 
   -6200    -5972    -5859    -5809    -5717    -5568    -5367    -5116 
   -4861    -4649    -4511    -4436    -4345    -4252    -4183    -4105 
   -4068    -4128    -4283    -4503    -4714    -4881    -4984    -5047 
   -5143    -5283    -5467    -5690    -5934    -6185    -6376    -6480 
   -6524    -6551    -6647    -6845    -7105    -7346    -7512    -7574 
   -7524    -7427    -7360    -7333    -7329    -7325    -7295    -7219 
   -7106    -7017    -6995    -7013    -7032    -7048    -7030    -6940 
   -6828    -6740    -6663    -6646    -6723    -6837    -6916    -6897 
   -6793    -6669    -6585    -6589    -6643    -6617    -6423    -6092 
   -5769    -5548    -5421    -5371    -5319    -5185    -5039    -4941 
   -4835    -4695    -4549    -4418    -4284    -4159    -4037    -3861 
   -3624    -3404    -3230    -3106    -3025    -2957    -2909    -2913 
   -3014    -3240    -3523    -3807    -4077    -4297    -4438    -4488 
   -4479    -4446    -4361    -4241    -4109    -3940    -3790    -3708 
   -3682    -3673    -3640    -3605    -3561    -3508    -3531    -3670 
   -3867    -4051    -4216    -4372    -4507    -4634    -4810    -5015 
   -5204    -5405    -5665    -6015    -6462    -6987    -7561    -8091 
   -8545    -8999    -9468    -9946   -10442   -10906   -11265   -11472 
  -11569   -11576   -11454   -11253   -10994   -10650   -10242    -9799 
   -9358    -8953    -8569    -8203    -7842    -7465    -7088    -6736 
   -6426    -6192    -6043    -5921    -5742    -5493    -5212    -4938 
   -4688    -4476    -4294    -4094    -3890    -3769    -3759    -3808 
   -3897    -4009    -4087    -4167    -4326    -4571    -4881    -5278 
   -5771    -6320    -6860    -7381    -7873    -8253    -8460    -8517 
   -8465    -8340    -8168    -7971    -7734    -7388    -6879    -6246 
   -5549    -4838    -4178    -3589    -3017    -2451    -1937    -1464 
   -1019     -627     -291       -1      222      334      324      245 
      98     -141     -411     -662     -930    -1243    -1610    -2054 
   -2567    -3094    -3620    -4155    -4714    -5323    -5929    -6489 
   -6991    -7395    -7712    -7966    -8152    -8271    -8310    -8268 
   -8156    -8041    -8063    -8268    -8607    -9040    -9470    -9759 
   -9873    -9903    -9923    -9911    -9857    -9782    -9667    -9483 
   -9232    -8949    -8642    -8284    -7940    -7699    -7534    -7427 
   -7398    -7385    -7304    -7177    -7063    -6925    -6728    -6508 
   -6241    -5864    -5431    -5012    -4633    -4302    -4009    -3762 
   -3566    -3411    -3334    -3326    -3323    -3316    -3365    -3522 
   -3773    -4078    -4364    -4522    -4523    -4442    -4328    -4210 
   -4122    -4043    -3929    -3767    -3591    -3468    -3387    -3329 
   -3327    -3333    -3281    -3196    -3091    -2951    -2806    -2681 
   -2547    -2376    -2176    -2026    -1958    -1973    -2123    -2417 
   -2775    -3154    -3549    -3944    -4298    -4617    -4974    -5364 
   -5730    -6077    -6385    -6621    -6810    -6980    -7136    -7218 
   -7223    -7230    -7250    -7279    -7356    -7484    -7618    -7712 
   -7773    -7804    -7790    -7763    -7728    -7670    -7612    -7564 
   -7516    -7453    -7371    -7319    -7306    -7296    -7326    -7420 
   -7541    -7693    -7893    -8094    -8249    -8332    -8328    -8216 
   -7983    -7699    -7439    -7210    -7017    -6906    -6886    -6885 
   -6880    -6909    -6932    -6920    -6925    -6963    -6980    -6972 
   -6972    -6968    -6939    -6886    -6795    -6594    -6269    -5908 
   -5575    -5267    -5004    -4803    -4654    -4518    -4417    -4441 
   -4571    -4712    -4845    -4941    -4943    -4850    -4731    -4629 
   -4503    -4383    -4321    -4249    -4124    -4020    -3973    -3955 
   -3973    -4008    -4025    -4002    -3958    -3947    -3970    -3994 
   -4032    -4036    -3946    -3786    -3595    -3383    -3202    -3110 
   -3099    -3103    -3145    -3300    -3549    -3848    -4180    -4503 
   -4800    -5108    -5498    -5971    -6443    -6902    -7362    -7754 
   -8009    -8090    -7974    -7646    -7163    -6685    -6259    -5802 
   -5327    -4880    -4461    -4097    -3846    -3750    -3758    -3821 
   -3970    -4151    -4249    -4297    -4383    -4526    -4750    -5066 
   -5400    -5637    -5771    -5888    -5994    -6039    -6022    -5918 
   -5726    -5491    -5286    -5158    -5028    -4843    -4662    -4511 
   -4394    -4351    -4356    -4322    -4222    -4131    -4137    -4251 
   -4476    -4828    -5235    -5610    -5941    -6231    -6444    -6571 
   -6669    -6740    -6767    -6816    -6933    -7087    -7273    -7484 
   -7685    -7830    -7909    -7996    -8093    -8139    -8182    -8249 
   -8255    -8181    -8079    -7948    -7730    -7396    -7024    -6639 
   -6234    -5842    -5440    -4988    -4514    -4087    -3784    -3564 
   -3346    -3146    -2948    -2732    -2589    -2581    -2694    -2930 
   -3294    -3762    -4266    -4762    -5263    -5737    -6150    -6520 
   -6826    -7028    -7128    -7203    -7292    -7349    -7376    -7396 
   -7352    -7263    -7200    -7119    -6988    -6875    -6817    -6766 
   -6685    -6624    -6601    -6575    -6601    -6740    -6941    -7134 
   -7335    -7592    -7874    -8152    -8464    -8753    -8897    -8904 
   -8849    -8753    -8608    -8444    -8311    -8195    -8067    -7987 
   -7970    -7969    -7962    -7950    -7927    -7835    -7677    -7528 
   -7369    -7186    -7017    -6814    -6528    -6195    -5837    -5441 
   -4982    -4456    -3871    -3233    -2600    -2062    -1629    -1277 
    -992     -774     -626     -506     -438     -448     -452     -449 
    -472     -468     -440     -430     -434     -418     -348     -268 
    -221     -157      -87      -86     -148     -238     -386     -626 
    -927    -1255    -1676    -2253    -2924    -3685    -4608    -5552 
   -6181    -6534    -7032    -7670    -8156    -8584    -9051    -9467 
   -9845   -10226   -10623   -11017   -11342   -11654   -11950   -12174 
  -12449   -12758   -12968   -13090   -13122   -13047   -12899   -12696 
  -12469   -12187   -11834   -11485   -11152   -10816   -10543   -10324 
  -10098    -9853    -9612    -9401    -9213    -9066    -9053    -9077 
   -8968    -8808    -8714    -8573    -8348    -8156    -7985    -7747 
   -7504    -7326    -7186    -7065    -6976    -6912    -6813    -6646 
   -6450    -6246    -6023    -5813    -5591    -5265    -4824    -4378 
   -3990    -3651    -3384    -3229    -3152    -3125    -3157    -3207 
   -3194    -3086    -2933    -2795    -2674    -2594    -2602    -2660 
   -2717    -2806    -2944    -3102    -3252    -3381    -3491    -3539 
   -3523    -3510    -3512    -3508    -3528    -3569    -3607    -3709 
   -3913    -4129    -4313    -4503    -4685    -4818    -4930    -5059 
   -5200    -5314    -5404    -5481    -5503    -5460    -5410    -5374 
   -5321    -5262    -5239    -5258    -5289    -5337    -5421    -5486 
   -5493    -5495    -5508    -5471    -5398    -5333    -5248    -5112 
   -4947    -4796    -4652    -4490    -4364    -4290    -4218    -4167 
   -4180    -4233    -4280    -4332    -4426    -4534    -4629    -4774 
   -4973    -5155    -5304    -5416    -5433    -5321    -5121    -4892 
   -4639    -4394    -4209    -4044    -3836    -3597    -3334    -3048 
   -2797    -2633    -2546    -2501    -2511    -2587    -2705    -2857 
   -3078    -3370    -3690    -3983    -4244    -4476    -4669    -4845 
   -5027    -5166    -5228    -5267    -5351    -5481    -5652    -5896 
   -6160    -6370    -6582    -6829    -7049    -7241    -7469    -7739 
   -8012    -8266    -8503    -8695    -8788    -8799    -8784    -8734 
   -8626    -8511    -8418    -8305    -8152    -7998    -7821    -7569 
   -7284    -7015    -6725    -6426    -6165    -5945    -5734    -5522 
   -5304    -5047    -4741    -4453    -4221    -4029    -3862    -3693 
   -3505    -3318    -3184    -3144    -3153    -3164    -3186    -3221 
   -3268    -3343    -3488    -3666    -3804    -3928    -4059    -4149 
   -4214    -4293    -4378    -4452    -4529    -4652    -4830    -5011 
   -5211    -5485    -5795    -6114    -6488    -6910    -7333    -7757 
   -8199    -8622    -8965    -9246    -9510    -9753    -9991   -10276 
  -10600   -10870   -11044   -11172   -11246   -11202   -11055   -10814 
  -10458   -10015    -9517    -8976    -8379    -7734    -7113    -6554 
   -6046    -5594    -5175    -4726    -4247    -3809    -3430    -3076 
   -2756    -2486    -2241    -2038    -1931    -1926    -2023    -2203 
   -2403    -2616    -2891    -3246    -3650    -4058    -4486    -4972 
   -5482    -6000    -6592    -7267    -7955    -8623    -9261    -9838 
  -10336   -10767   -11148   -11479   -11728   -11902   -12058   -12171 
  -12198   -12191   -12159   -12031   -11797   -11492   -11087   -10512 
   -9801    -9038    -8199    -7295    -6431    -5633    -4860    -4131 
   -3518    -3053    -2674    -2358    -2118    -1904    -1734    -1648 
   -1578    -1458    -1278    -1042     -768     -502     -334     -290 
    -274     -245     -230     -199     -129      -79     -133     -295 
    -498     -707     -930    -1177    -1509    -1956    -2465    -3005 
   -3578    -4185    -4770    -5316    -5876    -6427    -6890    -7280 
   -7642    -7973    -8257    -8533    -8835    -9121    -9358    -9595 
   -9825   -10007   -10185   -10361   -10461   -10470   -10436   -10390 
  -10330   -10270   -10269   -10299   -10278   -10210   -10087    -9880 
   -9590    -9263    -8954    -8631    -8263    -7888    -7470    -6976 
   -6470    -5961    -5397    -4756    -4102    -3504    -2920    -2353 
   -1858    -1406     -976     -604     -318      -97      112      315 
     521      765      980     1093     1151     1144     1034      812 
     515      206     -120     -442     -715    -1048    -1475    -1848 
   -2184    -2608    -3037    -3352    -3595    -3847    -4094    -4280 
   -4442    -4619    -4783    -4942    -5177    -5508    -5883    -6295 
   -6748    -7175    -7527    -7875    -8270    -8673    -9069    -9451 
   -9790   -10052   -10257   -10466   -10663   -10791   -10851   -10835 
  -10723   -10563   -10428   -10318   -10196   -10072    -9963    -9834 
   -9672    -9512    -9327    -9058    -8725    -8375    -7990    -7561 
   -7142    -6781    -6458    -6157    -5894    -5670    -5421    -5147 
   -4920    -4699    -4425    -4164    -3929    -3661    -3384    -3161 
   -2952    -2704    -2471    -2317    -2205    -2104    -2046    -2031 
   -2003    -1957    -1949    -1984    -2034    -2146    -2385    -2691 
   -2999    -3339    -3709    -4056    -4394    -4762    -5127    -5435 
   -5729    -6061    -6403    -6714    -6984    -7190    -7299    -7338 
   -7372    -7407    -7402    -7387    -7380    -7349    -7311    -7308 
   -7331    -7353    -7387    -7477    -7600    -7724    -7881    -8063 
   -8224    -8367    -8515    -8633    -8676    -8683    -8696    -8671 
   -8573    -8449    -8278    -8014    -7739    -7527    -7338    -7132 
   -6913    -6693    -6446    -6212    -6084    -6046    -6023    -6008 
   -6037    -6102    -6180    -6307    -6516    -6723    -6867    -6988 
   -7053    -7010    -6909    -6791    -6631    -6428    -6241    -6075 
   -5873    -5648    -5428    -5170    -4858    -4521    -4172    -3805 
   -3430    -3106    -2832    -2548    -2262    -1980    -1679    -1398 
   -1167    -1005     -922     -881     -888     -955    -1043    -1147 
   -1281    -1431    -1599    -1800    -2056    -2350    -2641    -2957 
   -3326    -3711    -4131    -4629    -5154    -5645    -6122    -6596 
   -7009    -7352    -7681    -7971    -8193    -8413    -8652    -8850 
   -8993    -9120    -9221    -9231    -9163    -9094    -9009    -8883 
   -8760    -8660    -8557    -8401    -8205    -8008    -7773    -7506 
   -7265    -7045    -6837    -6650    -6470    -6305    -6149    -6022 
