Origin Time       2025/01/13 21:19:00
Lat.              31.8
Long.             131.6
Depth. (km)       30
Mag.              6.9
Station Code      EHM015
Station Lat.      33.6094
Station Long.     132.4768
Station Height(m) 3
Record Time       2025/01/13 21:20:22
Sampling Freq(Hz) 100Hz
Duration Time(s)  83
Dir.              E-W
Scale Factor      7845(gal)/8223790
Max. Acc. (gal)   6.144
Last Correction   2025/01/13 21:20:22
Memo.             
[...]
    2270     2020     1880     1684     1448     1433     1466     1364 
    1293     1293     1314     1416     1663     1849     1760     1634 
    1642     1750     2026     2338     2573     2697     2525     2099 
    1559      985      719      923     1314     1745     2193     2459 
    2463     2355     2238     2184     2241     2377     2532     2550 
    2357     2033     1640     1329     1105      861      738      677 
     560      603      899     1437     2084     2583     3021     3443 
    3672     3628     3365     3046     2772     2478     2103     1709 
    1409     1166      913      731      603      537      658      884 
    1108     1356     1574     1784     2050     2380     2706     2884 
    3061     3285     3346     3407     3438     3173     2856     2616 
    2307     1972     1606     1313     1209     1127     1027     1024 
    1102     1219     1314     1356     1393     1455     1522     1559 
    1588     1667     1817     2006     2169     2261     2359     2531 
    2600     2585     2740     2934     2963     2855     2641     2381 
    2093     1842     1707     1651     1790     2114     2303     2351 
    2378     2276     2043     1796     1606     1471     1399     1467 
    1544     1458     1300     1102      909      953     1219     1471 
    1656     1830     1931     1872     1782     1814     1983     2342 
    2772     2976     2994     3064     3061     2744     2259     1888 
    1520     1011      598      432      440      643     1004     1348 
    1641     1942     2181     2355     2570     2812     2987     3029 
    2963     2754     2273     1718     1368     1202     1196     1385 
    1695     1957     2149     2339     2427     2506     2690     2709 
    2536     2331     1992     1495      990      621      472      614 
     915     1080     1183     1294     1212     1135     1323     1655 
    2072     2536     2855     2928     2840     2749     2691     2612 
    2613     2728     2718     2623     2637     2556     2299     2103 
    1902     1613     1486     1532     1539     1506     1393     1065 
     666      367      179      276      687     1125     1533     1888 
    2054     2181     2376     2550     2813     3257     3762     4132 
    4221     4059     3744     3352     2998     2712     2442     2133 
    1765     1391      947      456      129       62      309      737 
    1067     1418     1842     2153     2393     2610     2795     2895 
    2725     2322     1861     1426     1069      854      955     1251 
    1339     1332     1510     1706     1833     2205     2840     3198 
    3181     3173     3113     2893     2704     2650     2708     2664 
    2405     2118     1842     1564     1447     1591     1879     1965 
    1691     1305      955      693      708     1004     1382     1710 
    1930     1977     1885     1829     1883     2047     2222     2203 
    2110     2089     2011     1964     2138     2432     2616     2650 
    2708     2749     2671     2614     2511     2250     1923     1509 
    1124      850      641      680      847      916      978      990 
     973     1167     1603     2142     2577     2737     2648     2403 
    2079     1860     1846     1981     2218     2335     2126     1783 
    1551     1506     1660     1907     2141     2205     1983     1682 
    1439     1227     1258     1495     1625     1696     1740     1687 
    1615     1609     1833     2220     2546     2878     3024     2876 
    2860     2922     2803     2627     2411     2208     2128     2080 
    2003     1912     1875     1765     1467     1352     1466     1431 
    1399     1505     1603     1771     1934     1971     2026     2058 
    1948     1799     1667     1584     1578     1482     1296     1237 
    1323     1520     1919     2393     2689     2810     2797     2570 
    2253     2008     1799     1555     1255     1003      895      888 
     966     1097     1321     1707     2089     2374     2555     2583 
    2589     2604     2543     2519     2677     2868     2766     2492 
    2296     1958     1444     1053      851      783      807      928 
    1107     1167     1124     1034      850      769      916     1142 
    1424     1660     1726     1780     1827     1853     2073     2431 
    2741     2983     3083     3092     3187     3300     3407     3578 
    3593     3368     3075     2606     1921     1327      959      704 
     530      434      360      201       20      151      476      680 
     984     1429     1792     2062     2180     2205     2195     2060 
    1988     2003     2031     2284     2712     3141     3461     3510 
    3375     3191     2992     2844     2732     2677     2614     2371 
    2034     1638     1215     1071     1200     1320     1393     1436 
    1420     1336     1232     1244     1368     1534     1810     2107 
    2269     2389     2423     2207     2033     2170     2439     2721 
    2949     3038     3073     2967     2783     2867     2988     2816 
    2552     2199     1679     1185      696      248       28      -27 
      -1       48      109      338      712     1089     1464     1869 
    2312     2674     2956     3319     3665     3925     4145     4175 
    3886     3231     2362     1537      803      279       58       24 
     128      314      619     1088     1533     2033     2712     3362 
    3948     4410     4517     4394     4143     3723     3395     3172 
    2843     2555     2357     2096     1868     1768     1692     1547 
    1286      916      572      437      504      691     1031     1536 
    2020     2300     2440     2617     2895     3180     3316     3300 
    3235     3181     3163     3146     3099     2926     2535     2054 
    1595     1246     1223     1497     1854     2111     2012     1610 
    1196      924      993     1420     1949     2443     2678     2442 
    1912     1285      785      716     1055     1674     2424     2956 
    3111     2964     2620     2322     2114     1854     1696     1688 
    1718     1892     2079     2080     2080     2064     1911     1791 
    1687     1448     1266     1248     1216     1282     1524     1591 
    1390     1154      955      864     1015     1332     1653     2027 
    2289     2168     1980     1991     2052     2211     2536     3065 
    3724     4144     4286     4282     4106     3825     3451     3095 
    2840     2490     2038     1517      843      240     -144     -394 
    -400     -110      372      949     1487     1979     2346     2504 
    2654     2845     2879     2818     2767     2640     2462     2200 
    1683     1046      448      -25      -66      233      529      864 
    1223     1495     1736     1961     2219     2527     2790     3010 
    3225     3362     3380     3285     2934     2235     1399      666 
     175       33      167      418      630      684      735      990 
    1447     2112     2951     3711     4149     4210     3986     3568 
    3046     2586     2119     1460      816      415      176      155 
     365      495      368      106     -137     -241     -183        2 
     364      911     1533     2080     2497     2864     3153     3233 
    3179     3149     3132     3134     3186     3099     2848     2604 
    2340     2168     2313     2762     3343     3704     3727     3539 
    3010     2222     1425      607      -40     -272     -187       62 
     356      707     1136     1440     1603     1804     2041     2216 
    2320     2535     2816     2763     2434     2135     1777     1393 
    1286     1476     1773     2170     2708     3181     3323     3078 
    2570     1873     1223      895      672      444      552      912 
    1138     1121      908      697      598      588      850     1323 
    1692     1938     2031     1896     1790     1965     2366     2899 
    3520     4029     4203     4068     3754     3285     2691     2074 
    1466      855      364      108       91      291      696     1144 
    1381     1472     1561     1599     1663     1757     1830     1983 
    2035     1795     1386      882      491      421      506      661 
     888      915      596      176      -97     -130      221      897 
    1561     2123     2578     2860     3126     3416     3711     4139 
    4540     4762     4868     4718     4329     3929     3477     2905 
    2295     1799     1443      934      298     -139     -514     -818 
    -814     -729     -604     -380     -211       60      467      936 
    1692     2490     2948     3172     3280     3241     3113     3150 
    3395     3520     3518     3466     3160     2650     2135     1703 
    1401     1142      923      822      722      564      480      612 
    1042     1667     2219     2627     3011     3280     3349     3427 
    3634     3894     4128     4260     4295     4247     4106     3974 
    4036     4330     4639     4679     4364     3739     2906     2135 
    1590     1192      961      919      973     1125     1371     1645 
    1980     2419     2878     3257     3630     3955     4099     4133 
    4040     3731     3323     2932     2563     2101     1570     1185 
     899      680      712      891     1121     1522     1961     2138 
    1952     1544     1055      521      135       20      -27      -70 
      93      375      491      589      873     1116     1250     1475 
    1827     2253     2687     3036     3164     2982     2671     2407 
    2142     1871     1587     1399     1448     1534     1503     1506 
    1560     1598     1656     1737     1887     2164     2532     2913 
    3233     3418     3385     3191     2987     2771     2550     2458 
    2520     2677     2910     3115     3154     3019     2695     2274 
    2004     1933     1984     2096     2191     2220     2091     1799 
    1505     1329     1339     1494     1659     1772     1926     2265 
    2884     3697     4422     4928     5152     4957     4476     3936 
    3439     3056     2687     2246     1756     1151      387     -346 
    -714     -700     -561     -261      151      363      337      197 
       8     -108      -71       48       74        4      -54     -205 
    -344     -121      388      870     1175     1267     1202     1158 
    1331     1620     1883     2223     2421     2174     1659     1080 
     504      126       97      263      271       58     -179     -434 
    -706     -812     -589     -101      378      850     1495     2096 
    2465     2710     2866     2964     3084     3157     3161     3245 
    3399     3397     3260     3137     2953     2783     2733     2624 
    2461     2319     2154     1989     1729     1363      939      365 
    -143     -440     -599     -434      -62      202      550     1027 
    1416     1729     1958     2146     2340     2326     2189     2319 
    2586     2643     2594     2677     2845     2952     3011     3056 
    2955     2720     2401     1873     1237      669      103     -421 
    -814    -1015     -895     -549     -132      441     1070     1487 
    1744     2030     2415     2835     3168     3385     3456     3325 
    3152     3142     3299     3597     4017     4423     4666     4698 
    4576     4374     4124     3898     3812     3821     3730     3557 
    3411     3180     2972     2999     3046     2998     2982     2836 
    2344     1587      761       85     -375     -669     -795     -811 
    -770     -778     -940    -1013     -789     -314      318      868 
    1219     1424     1458     1466     1522     1536     1663     1952 
    2185     2239     2212     2273     2281     2177     2246     2484 
    2791     3103     3175     3084     2934     2641     2316     1993 
    1753     1748     1811     1838     1931     2143     2459     2778 
    3042     3233     3326     3403     3345     2959     2376     1771 
    1125      465      -82     -430     -542     -472     -267      305 
    1247     2069     2635     3175     3812     4522     5265     6081 
    6702     6852     6651     6050     5188     4419     3677     3006 
    2547     2134     1719     1412     1212     1017      797      702 
     801     1040     1426     1942     2496     2959     3160     3064 
    2706     2201     1884     1800     1788     2011     2389     2478 
    2236     1964     1858     1972     2215     2443     2582     2575 
    2447     2389     2444     2606     2968     3252     3254     3181 
    3082     3100     3350     3612     3874     4051     3889     3411 
    2700     1880     1178      727      471      202     -140     -502 
    -958    -1459    -1729    -1588    -1144     -699     -396     -101 
     203      399      523      668      807      630      -18     -649 
    -970    -1039     -689      -74      371      527      444      233 
     149      407     1044     1875     2646     3307     3742     3758 
    3649     3689     3757     3952     4291     4484     4421     4075 
    3524     2948     2492     2307     2373     2674     3165     3523 
    3716     3904     3870     3466     2791     1934     1009       99 
    -737    -1378    -1810    -2177    -2517    -2691    -2667    -2596 
   -2450    -2116    -1779    -1483     -970     -309      275      886 
    1645     2547     3545     4473     5236     5814     6075     5984 
    5672     5162     4390     3383     2215     1062       95     -703 
   -1259    -1495    -1668    -1794    -1582    -1173     -756     -159 
     587     1374     2191     2970     3867     5007     6120     7022 
    7767     8290     8349     8043     7641     7010     6139     5275 
    4390     3453     2600     1945     1459      907      294     -171 
    -484     -661     -758     -832     -693     -456     -415     -288 
     171      745     1354     1912     2281     2517     2532     2322 
    2130     1999     1981     2154     2371     2535     2594     2551 
    2501     2293     1833     1366      932      413     -117     -656 
   -1231    -1756    -2253    -2778    -3133    -3045    -2523    -1772 
    -981     -166      731     1541     2216     2983     3844     4692 
    5456     5998     6320     6485     6471     6224     5697     4973 
    4091     3088     2155     1489     1343     1599     1771     1840 
    1837     1626     1452     1482     1701     2151     2697     3230 
    3692     3889     3839     3769     3817     3963     4064     4059 
    4024     3870     3514     3165     2864     2524     2316     2169 
    1890     1613     1374     1169     1158     1260     1333     1351 
    1221     1043     1050     1213     1426     1645     1817     1850 
    1663     1394     1183      974      849      918     1016      969 
     858      974     1360     1687     1880     2061     2068     1784 
    1370      981      696      460      110     -372     -897    -1316 
   -1432    -1111     -429      372     1244     2150     2783     3137 
    3457     3711     3879     3986     3850     3424     2887     2299 
    1742     1449     1436     1549     1695     1849     2165     2610 
    2951     3348     3851     4220     4495     4552     4264     3890 
    3484     2986     2446     1915     1572     1285      793      351 
      16     -515    -1015    -1139    -1120    -1109     -837     -207 
     550     1398     2421     3445     4240     4828     5279     5462 
    5339     5100     4819     4445     3983     3361     2520     1633 
     895      267     -210     -355     -334     -450     -573     -400 
      18      441      891     1394     1718     1807     1860     2002 
    2188     2373     2604     2806     2875     2787     2550     2338 
    2301     2417     2575     2654     2716     2739     2497     2061 
    1610     1128      730      594      666      834     1174     1641 
    1938     2029     2010     1849     1660     1576     1659     1952 
    2243     2462     2760     2948     2876     2766     2782     2978 
    3254     3422     3515     3543     3341     2983     2685     2415 
    2103     1792     1568     1426     1224      993      846      703 
     583      584      654      719      772      765      747      908 
    1232     1621     2111     2585     2878     3051     3272     3643 
    4036     4383     4839     5275     5505     5649     5703     5633 
    5529     5387     5169     4734     4041     3329     2635     1813 
     881      -51     -850    -1486    -2038    -2371    -2405    -2266 
   -1939    -1441     -882     -340      103      507      913     1281 
    1605     1811     1875     1844     1729     1586     1378     1162 
    1152     1213     1080      838      565      249      -29     -282 
    -425     -360     -317     -299      -70      218      531     1075 
    1665     2199     2767     3230     3600     3900     4001     3970 
    3800     3547     3362     3126     2944     3014     3107     3133 
    3180     3177     3090     2911     2751     2647     2516     2486 
    2393     2054     1802     1560     1178      885      571      255 
      74     -186     -449     -604     -781     -927     -984     -839 
    -360      222      812     1514     2118     2571     3055     3427 
    3681     3916     3875     3526     3113     2596     2052     1740 
    1539     1300     1059      766      438       66     -313     -432 
    -305      -67      332      722      861      827      909     1051 
     940      926     1312     1649     1953     2502     3029     3501 
    4008     4253     4125     3824     3545     3277     2934     2617 
    2297     1857     1383      891      392       71      -21       68 
     359      780     1228     1637     1983     2350     2748     3146 
    3604     4023     4278     4441     4503     4414     4199     3875 
    3522     3200     2906     2667     2428     2073     1733     1595 
    1528     1405     1352     1379     1413     1485     1545     1593 
    1725     1950     2255     2556     2795     2988     3082     3121 
    3105     3056     3172     3283     3168     2975     2717     2335 
    1863     1399     1147     1066      909      608      261      -56 
    -321     -387     -156      244      760     1331     1784     2146 
    2490     2751     2956     3091     3092     3060     2952     2729 
    2521     2241     1906     1713     1510     1209      955      745 
     610      518      297       20     -236     -476     -471     -137 
     348      989     1710     2257     2612     2971     3380     3631 
    3690     3716     3534     2940     2177     1505      895      313 
    -224     -724    -1115    -1395    -1605    -1613    -1394     -900 
      -4     1036     1956     2783     3546     4194     4638     5001 
    5417     5710     5846     5853     5648     5350     5027     4631 
    4299     4099     3866     3472     2964     2408     1777     1179 
     685      187     -263     -616     -882     -889     -664     -369 
      93      627     1038     1459     1858     2076     2334     2760 
    3141     3373     3406     3191     2897     2682     2583     2646 
    2818     2932     2928     2918     2862     2633     2498     2628 
    2716     2627     2486     2322     2047     1717     1517     1372 
    1220     1237     1281     1227     1269     1413     1537     1605 
    1711     1938     2039     1911     1772     1548     1178      857 
     580      379      351      328      229      207      325      542 
