Origin Time       2025/01/13 21:19:00
Lat.              31.8
Long.             131.6
Depth. (km)       30
Mag.              6.9
Station Code      EHM008
Station Lat.      33.8199
Station Long.     132.7282
Station Height(m) 7
Record Time       2025/01/13 21:20:30
Sampling Freq(Hz) 100Hz
Duration Time(s)  105
Dir.              E-W
Scale Factor      7845(gal)/8223790
Max. Acc. (gal)   5.341
Last Correction   2025/01/13 21:20:30
Memo.             
[...]
    2219     2378     2484     2562     2741     2957     3088     3175 
    3256     3276     3241     3211     3173     3127     3148     3249 
    3333     3352     3361     3407     3462     3497     3543     3618 
    3696     3751     3769     3736     3673     3636     3618     3572 
    3586     3746     3950     4086     4171     4230     4263     4234 
    4156     4140     4224     4345     4498     4645     4696     4681 
    4704     4729     4644     4500     4394     4268     4091     3931 
    3794     3665     3597     3619     3678     3777     3954     4120 
    4191     4241     4325     4448     4662     4923     5130     5265 
    5348     5417     5471     5420     5275     5171     5100     4978 
    4857     4799     4710     4503     4244     3993     3727     3473 
    3289     3156     3021     2913     2849     2747     2579     2439 
    2366     2297     2209     2153     2130     2096     2033     1944 
    1856     1825     1876     1941     1976     2061     2196     2299 
    2373     2442     2525     2686     2933     3163     3296     3335 
    3304     3264     3245     3221     3219     3288     3416     3568 
    3688     3773     3871     3971     4099     4266     4340     4302 
    4247     4126     3832     3489     3308     3242     3167     3115 
    3053     2898     2744     2658     2566     2448     2359     2349 
    2432     2570     2756     3010     3269     3474     3661     3871 
    4031     4097     4186     4321     4417     4490     4577     4635 
    4623     4550     4494     4463     4405     4357     4351     4325 
    4284     4287     4309     4260     4140     4032     3951     3828 
    3697     3663     3704     3727     3753     3840     3970     4124 
    4298     4456     4537     4540     4500     4413     4236     4004 
    3808     3661     3511     3353     3215     3121     3068     3030 
    2968     2918     2987     3127     3198     3271     3434     3545 
    3538     3508     3484     3474     3524     3616     3689     3727 
    3767     3805     3757     3596     3384     3176     3013     2905 
    2833     2755     2631     2515     2455     2425     2416     2459 
    2577     2759     2957     3145     3277     3296     3264     3295 
    3339     3302     3288     3414     3532     3528     3515     3545 
    3526     3426     3338     3275     3150     3001     2895     2760 
    2612     2586     2641     2664     2744     2975     3231     3433 
    3689     4005     4272     4561     4959     5337     5560     5644 
    5638     5547     5364     5159     4999     4857     4723     4654 
    4603     4429     4140     3916     3786     3601     3389     3281 
    3258     3281     3356     3424     3443     3439     3424     3373 
    3310     3289     3311     3372     3478     3573     3595     3555 
    3484     3362     3176     2945     2702     2516     2450     2493 
    2632     2898     3248     3551     3736     3844     3920     4005 
    4172     4422     4671     4907     5144     5306     5327     5227 
    5024     4726     4402     4136     3867     3561     3334     3223 
    3123     2997     2905     2898     2926     2911     2839     2704 
    2550     2466     2470     2520     2547     2496     2411     2396 
    2443     2467     2513     2659     2843     3029     3249     3462 
    3654     3838     3932     3855     3659     3437     3186     2906 
    2717     2706     2786     2875     2983     3073     3090     3060 
    3019     2941     2864     2895     3060     3319     3647     3994 
    4248     4344     4351     4369     4406     4459     4587     4730 
    4780     4814     4899     4915     4818     4743     4764     4769 
    4652     4473     4297     4045     3721     3451     3233     3021 
    2895     2870     2847     2803     2782     2782     2798     2871 
    3036     3246     3449     3699     4037     4310     4368     4239 
    4024     3815     3680     3624     3613     3622     3657     3703 
    3657     3419     3090     2853     2671     2459     2393     2573 
    2818     3013     3164     3217     3142     3052     3028     3029 
    3080     3300     3661     4009     4307     4552     4660     4629 
    4583     4598     4631     4669     4734     4757     4677     4530 
    4338     4097     3828     3572     3358     3210     3114     3038 
    2949     2816     2685     2646     2685     2791     3032     3366 
    3707     3993     4104     3990     3786     3592     3435     3358 
    3333     3308     3321     3352     3334     3329     3372     3384 
    3368     3361     3311     3223     3171     3173     3192     3160 
    3060     2957     2944     3038     3200     3395     3570     3730 
    3947     4185     4345     4403     4386     4348     4320     4337 
    4438     4525     4526     4519     4494     4364     4190     4052 
    3904     3738     3619     3511     3356     3213     3126     3061 
    2995     2938     2875     2787     2754     2830     2936     3002 
    3086     3242     3460     3723     4036     4324     4510     4606 
    4627     4583     4541     4585     4743     4932     5036     5008 
    4849     4572     4233     3913     3684     3561     3504     3499 
    3526     3488     3354     3219     3059     2785     2516     2420 
    2439     2542     2813     3145     3350     3483     3620     3707 
    3734     3777     3839     3825     3740     3712     3736     3697 
    3609     3558     3510     3387     3226     3153     3214     3316 
    3331     3225     3053     2889     2772     2693     2650     2724 
    2932     3154     3315     3446     3595     3751     3897     4050 
    4205     4359     4523     4645     4644     4510     4313     4145 
    3977     3759     3609     3578     3561     3539     3541     3547 
    3620     3767     3878     3936     4024     4164     4315     4455 
    4621     4837     4972     4907     4756     4641     4504     4334 
    4261     4291     4272     4187     4132     4036     3815     3572 
    3360     3110     2852     2658     2478     2288     2199     2282 
    2473     2744     3111     3496     3815     4047     4168     4174 
    4156     4207     4326     4468     4572     4622     4631     4523 
    4283     4048     3852     3636     3493     3547     3693     3780 
    3835     3916     3960     3924     3888     3925     3996     4027 
    4017     3944     3766     3582     3497     3424     3264     3105 
    3053     3063     3037     2949     2841     2794     2829     2922 
    3030     3115     3168     3194     3218     3208     3096     3011 
    3113     3296     3412     3476     3499     3508     3573     3639 
    3624     3613     3712     3797     3708     3547     3468     3383 
    3245     3123     3025     2992     3060     3122     3122     3071 
    2951     2824     2824     2965     3141     3249     3261     3257 
    3306     3312     3195     3073     3088     3173     3190     3102 
    2975     2876     2833     2856     2895     2890     2899     3007 
    3190     3411     3680     3959     4178     4282     4241     4126 
    4079     4164     4306     4394     4418     4388     4222     3905 
    3627     3524     3462     3319     3186     3094     2979     2872 
    2803     2652     2374     2189     2212     2235     2122     2022 
    2060     2173     2268     2374     2558     2763     2932     3123 
    3323     3461     3622     3867     4109     4352     4656     4950 
    5097     5086     5012     4907     4789     4760     4800     4760 
    4618     4446     4244     4012     3808     3704     3696     3701 
    3712     3796     3916     3994     4048     4099     4126     4131 
    4171     4251     4284     4263     4233     4162     4029     3897 
    3784     3662     3507     3308     3096     2918     2783     2667 
    2577     2556     2614     2694     2700     2592     2465     2412 
    2448     2569     2706     2763     2783     2855     2916     2937 
    3006     3134     3295     3495     3707     3901     4029     3991 
    3751     3379     3010     2774     2690     2685     2706     2766 
    2893     3019     3095     3184     3287     3327     3360     3488 
    3699     3915     4082     4172     4176     4152     4125     4009 
    3782     3562     3461     3485     3553     3611     3694     3793 
    3869     3928     3982     4050     4158     4337     4560     4792 
    5051     5251     5254     5112     4993     4958     4932     4853 
    4764     4739     4737     4619     4334     3954     3566     3245 
    3014     2803     2587     2455     2417     2366     2268     2181 
    2107     2015     1987     2050     2103     2168     2361     2650 
    2941     3206     3420     3577     3715     3825     3847     3775 
    3658     3559     3545     3593     3624     3647     3761     3946 
    4106     4228     4282     4224     4137     4104     4059     3993 
    3987     4013     3996     3956     3908     3858     3836     3809 
    3742     3638     3514     3442     3466     3504     3572     3757 
    3975     4139     4313     4477     4545     4561     4600     4661 
    4747     4891     5090     5248     5255     5138     4959     4688 
    4305     3969     3838     3805     3728     3676     3677     3597 
    3393     3165     2922     2624     2378     2268     2215     2236 
    2419     2659     2809     2938     3184     3524     3873     4225 
    4575     4851     5031     5173     5285     5265     5062     4753 
    4432     4147     3877     3566     3253     3022     2889     2835 
    2810     2781     2816     2926     3026     3119     3273     3481 
    3708     3963     4236     4498     4766     5009     5108     5063 
    4989     4901     4774     4611     4378     4062     3674     3235 
    2799     2370     1918     1524     1298     1213     1212     1313 
    1443     1516     1618     1815     2061     2340     2662     2952 
    3141     3271     3384     3431     3397     3373     3396     3356 
    3190     3030     3021     3067     2990     2843     2733     2587 
    2370     2218     2192     2243     2367     2594     2887     3142 
    3353     3591     3807     3919     3951     3935     3850     3692 
    3546     3504     3512     3456     3370     3306     3206     3044 
    2845     2605     2377     2335     2555     2936     3402     3885 
    4228     4334     4286     4216     4193     4228     4363     4642 
    4923     5055     5125     5169     5088     4958     4846     4704 
    4591     4572     4581     4525     4396     4259     4145     4113 
    4240     4455     4626     4823     5125     5391     5462     5352 
    5162     4945     4688     4383     4124     3944     3727     3427 
    3171     2992     2797     2640     2673     2855     3095     3381 
    3643     3846     4058     4251     4342     4365     4378     4461 
    4656     4878     5090     5327     5514     5587     5590     5510 
    5320     5134     5038     4970     4872     4800     4803     4837 
    4822     4734     4602     4410     4170     4001     3936     3921 
    3977     4083     4160     4152     4024     3778     3450     3090 
    2779     2535     2316     2107     1892     1661     1429     1231 
    1067      940      930     1067     1278     1530     1802     1996 
    2106     2232     2413     2655     2990     3376     3762     4140 
    4441     4591     4629     4666     4788     5005     5259     5487 
    5705     5879     5867     5632     5282     4878     4457     4139 
    3998     3927     3805     3689     3578     3341     2986     2640 
    2350     2138     2035     2012     1989     1896     1745     1544 
    1260      950      670      433      309      371      599      862 
     997      957      788      534      275      174      272      391 
     467      611      781      874      932      989     1040     1096 
    1181     1320     1443     1505     1572     1648     1674     1686 
    1757     1834     1857     1883     1929     1960     2046     2272 
    2604     2957     3291     3599     3924     4267     4569     4854 
    5162     5445     5697     5948     6142     6189     6139     6097 
    6053     6057     6200     6393     6540     6647     6700     6674 
    6582     6432     6235     6075     6075     6250     6494     6739 
    6978     7173     7269     7283     7258     7241     7264     7256 
    7157     7020     6835     6554     6199     5803     5398     5040 
    4743     4422     4023     3582     3160     2778     2458     2211 
    2061     2010     2039     2142     2254     2343     2463     2555 
    2498     2380     2376     2457     2513     2581     2682     2760 
    2843     2945     2945     2835     2736     2621     2385     2076 
    1795     1559     1332     1102      903      708      472      265 
     168      108       -1     -125     -245     -371     -457     -471 
    -421     -329     -182       74      390      657      853      970 
    1030     1107     1242     1382     1480     1582     1714     1799 
    1800     1776     1772     1817     1930     2161     2583     3130 
    3677     4210     4719     5173     5613     6089     6548     6932 
    7272     7562     7695     7674     7585     7380     6976     6428 
    5854     5310     4793     4355     4021     3690     3308     2978 
    2759     2586     2471     2529     2764     3123     3654     4328 
    5004     5625     6204     6696     7060     7376     7692     7974 
    8229     8482     8719     8926     9076     9153     9171     9109 
    8919     8619     8268     7897     7515     7107     6633     6119 
    5643     5174     4638     4035     3435     2905     2465     2162 
    2020     1935     1834     1817     1918     1993     1991     1985 
    1987     2007     2097     2204     2180     2015     1818     1574 
    1198      799      530      376      230       90        9      -37 
     -44       36      116      118      105      130      178      211 
     253      396      648      970     1378     1844     2293     2682 
    3009     3279     3493     3746     4162     4680     5192     5698 
    6142     6430     6574     6667     6775     6909     7065     7227 
    7357     7433     7434     7372     7298     7191     7040     6906 
    6782     6592     6339     6030     5583     5000     4401     3870 
    3368     2905     2563     2270     1968     1765     1674     1568 
    1441     1393     1404     1362     1277     1263     1318     1389 
    1514     1692     1836     1939     2052     2134     2134     2153 
    2286     2434     2547     2718     2910     3011     3041     3048 
    2991     2870     2776     2733     2718     2744     2802     2856 
    2866     2799     2731     2736     2776     2798     2849     2937 
    2978     2986     2992     2909     2771     2725     2737     2697 
    2601     2459     2254     2030     1867     1788     1798     1950 
    2263     2646     3015     3406     3839     4203     4442     4649 
    4885     5088     5189     5231     5231     5159     5081     5046 
    4968     4784     4585     4429     4255     4060     3900     3738 
    3522     3315     3175     3059     2957     2926     2920     2867 
    2828     2862     2952     3078     3277     3609     3991     4315 
    4625     4966     5309     5652     6015     6392     6778     7136 
    7406     7592     7722     7747     7646     7465     7196     6822 
    6399     5964     5487     4972     4486     4023     3558     3172 
    2866     2559     2326     2228     2160     2103     2193     2415 
    2652     2947     3326     3659     3904     4141     4375     4544 
    4652     4746     4830     4888     4936     4958     4905     4785 
    4657     4588     4540     4432     4286     4133     3974     3781 
    3526     3234     2924     2624     2396     2270     2230     2257 
    2351     2440     2442     2409     2377     2292     2165     2046 
    1938     1806     1661     1518     1302     1047      938      988 
    1075     1220     1471     1730     1952     2218     2512     2793 
    3073     3361     3715     4139     4542     4947     5375     5746 
    6046     6312     6547     6729     6856     6983     7102     7105 
    6953     6648     6130     5468     4834     4236     3659     3188 
    2801     2413     2041     1757     1553     1366     1213     1136 
    1111     1159     1345     1630     1915     2176     2390     2488 
    2500     2565     2673     2758     2891     3109     3316     3456 
    3530     3528     3422     3213     3018     2964     3021     3133 
    3338     3634     3917     4116     4275     4421     4492     4475 
    4471     4507     4498     4441     4417     4391     4315     4255 
    4236     4178     4125     4221     4394     4488     4513     4471 
    4297     4048     3828     3659     3549     3464     3316     3083 
    2785     2485     2268     2087     1914     1900     2088     2319 
    2559     2845     3069     3133     3088     3032     2986     2926 
    2937     3055     3138     3126     3072     2970     2835     2729 
    2698     2775     2961     3244     3546     3730     3785     3792 
    3713     3476     3141     2832     2571     2326     2108     1925 
    1733     1548     1408     1305     1262     1313     1462     1701 
    1998     2350     2770     3175     3487     3763     4051     4268 
    4378     4448     4477     4401     4291     4253     4247     4220 
    4222     4252     4248     4252     4311     4369     4409     4476 
    4560     4660     4799     4955     5113     5278     5420     5536 
    5709     5917     6064     6188     6349     6473     6542     6613 
    6635     6531     6339     6085     5688     5128     4541     3996 
    3438     2893     2446     2077     1686     1283      959      719 
     556      526      648      857     1128     1462     1768     1965 
    2097     2223     2277     2222     2155     2087     1933     1763 
    1628     1435     1169      900      654      421      220      143 
     253      415      507      585      638      585      502      496 
     530      537      612      808     1000     1169     1391     1578 
    1640     1682     1803     1979     2218     2578     2984     3326 
    3626     3908     4129     4294     4437     4583     4742     4893 
    5013     5138     5277     5410     5580     5807     6015     6200 
    6393     6513     6551     6588     6600     6504     6334     6222 
    6160     6070     6037     6142     6307     6467     6651     6891 
    7155     7402     7645     7832     7892     7885     7859     7722 
    7441     7129     6825     6490     6168     5890     5594     5263 
    4949     4635     4259     3802     3364     3018     2751     2535 
    2362     2230     2128     2052     1998     1950     1881     1815 
    1825     1899     1991     2185     2517     2840     3091     3315 
    3462     3499     3491     3456     3397     3358     3339     3315 
    3238     3084     2894     2683     2432     2153     1896     1718 
    1644     1649     1678     1723     1804     1902     2047     2280 
    2550     2844     3177     3481     3697     3905     4116     4224 
    4266     4341     4384     4341     4259     4108     3886     3678 
    3481     3321     3244     3211     3213     3253     3337     3501 
