Origin Time       2025/01/13 21:19:00
Lat.              31.8
Long.             131.6
Depth. (km)       30
Mag.              6.9
Station Code      EHM015
Station Lat.      33.6094
Station Long.     132.4768
Station Height(m) 3
Record Time       2025/01/13 21:20:22
Sampling Freq(Hz) 100Hz
Duration Time(s)  83
Dir.              U-D
Scale Factor      7845(gal)/8223790
Max. Acc. (gal)   2.130
Last Correction   2025/01/13 21:20:22
Memo.             
[...]
   23148    23237    23310    23176    22932    22854    23039    23261 
   23226    23071    23056    23063    23017    22977    22854    22744 
   22813    22912    22894    22858    22968    23099    23018    22939 
   23051    23130    23114    23052    22947    22967    23089    23068 
   22983    22948    22848    22734    22728    22781    22873    22939 
   22867    22752    22661    22547    22453    22450    22682    23013 
   22967    22713    22802    23031    23009    22904    22921    22989 
   23103    23342    23529    23479    23350    23197    22989    22925 
   22964    22889    22751    22626    22578    22678    22766    22789 
   22893    22975    22975    23093    23224    23085    22924    23040 
   23121    22962    22921    23068    23107    23209    23599    23846 
   23688    23488    23390    23179    22856    22650    22642    22689 
   22746    22918    23113    23167    23168    23174    23117    23013 
   22866    22705    22674    22685    22599    22725    23151    23372 
   23260    23144    23067    22951    22900    22941    22968    22917 
   22908    23035    23125    23183    23392    23579    23542    23467 
   23400    23141    22829    22789    22912    22918    22877    22959 
   23132    23257    23309    23284    23133    23002    23037    23006 
   22842    22860    23041    23228    23465    23576    23508    23525 
   23526    23329    23116    22885    22485    22113    22072    22387 
   22792    23053    23253    23440    23469    23383    23225    22889 
   22499    22324    22450    22713    22882    22975    23170    23431 
   23589    23615    23579    23438    23224    23176    23274    23299 
   23398    23653    23716    23518    23430    23440    23170    22860 
   22944    23093    23008    22959    22997    23012    23112    23234 
   23163    22981    22854    22713    22576    22631    22789    22866 
   22959    23161    23348    23387    23259    23087    23010    22913 
   22727    22704    22852    22850    22756    22835    22974    22937 
   22678    22453    22489    22573    22609    22783    23008    23152 
   23230    23151    22999    22947    22972    23090    23206    23160 
   23083    23118    23193    23253    23292    23311    23276    23124 
   22905    22756    22725    22661    22415    22127    22018    22165 
   22501    22785    22920    23037    23145    23211    23274    23275 
   23210    23197    23213    23228    23377    23638    23780    23764 
   23758    23800    23743    23568    23400    23315    23291    23271 
   23286    23342    23221    22873    22657    22713    22798    22794 
   22762    22701    22686    22794    22847    22725    22608    22584 
   22534    22565    22800    22881    22671    22711    23067    23188 
   23153    23350    23615    23711    23672    23584    23517    23425 
   23271    23137    23075    23070    23031    22832    22599    22566 
   22636    22663    22805    23105    23341    23431    23411    23326 
   23256    23203    23072    22783    22493    22458    22559    22644 
   22833    22972    22879    22842    23001    23126    23082    22936 
   22871    22896    22797    22670    22820    23121    23256    23284 
   23441    23607    23427    22998    22773    22731    22545    22315 
   22289    22395    22497    22702    23016    23194    23228    23240 
   23132    22898    22635    22318    22098    22158    22368    22553 
   22696    22766    22746    22657    22430    22146    22096    22307 
   22542    22781    23067    23292    23457    23658    23811    23757 
   23595    23515    23387    23147    23076    23141    23080    23060 
   23205    23284    23244    23244    23278    23139    22844    22770 
   22981    23102    23068    23113    23230    23286    23329    23471 
   23646    23691    23643    23608    23534    23440    23373    23237 
   23005    22783    22623    22538    22532    22582    22669    22786 
   22966    23194    23352    23384    23373    23406    23409    23268 
   23098    23093    23224    23313    23371    23533    23599    23402 
   23143    22828    22450    22323    22458    22569    22655    22817 
   23058    23314    23384    23199    23044    23040    22943    22688 
   22522    22539    22626    22790    23090    23384    23515    23479 
   23340    23167    22978    22869    22878    22779    22592    22586 
   22698    22779    22877    22959    22990    22978    22909    22802 
   22667    22559    22612    22789    22889    22931    23109    23299 
   23260    23099    22923    22732    22658    22693    22723    22798 
   22929    23056    23175    23255    23310    23338    23203    22916 
   22756    22877    23101    23210    23147    23009    22905    22810 
   22690    22597    22553    22563    22677    22916    23130    23191 
   23221    23241    23134    22951    22731    22551    22545    22600 
   22640    22785    22985    23145    23330    23436    23255    22944 
   22742    22601    22539    22697    23021    23244    23209    23137 
   23218    23220    22998    22763    22678    22750    22893    23072 
   23269    23310    23207    23163    23103    22927    22779    22835 
   23093    23365    23545    23631    23607    23589    23653    23619 
   23417    23253    23307    23457    23548    23665    23841    23951 
   23943    23800    23496    23083    22647    22272    22063    22119 
   22376    22550    22546    22617    22732    22681    22709    22913 
   22935    22828    22906    23039    23044    23090    23263    23333 
   23255    23299    23410    23241    22851    22549    22377    22208 
   22060    22107    22366    22601    22666    22655    22700    22789 
   22832    22871    22960    23028    23071    23187    23291    23240 
   23183    23336    23518    23450    23202    22998    22925    22881 
   22792    22816    23010    23203    23380    23558    23584    23442 
   23238    22954    22592    22288    22161    22269    22536    22735 
   22827    22999    23249    23388    23368    23238    23017    22761 
   22486    22242    22279    22612    22947    23257    23575    23679 
   23510    23263    23059    22871    22704    22620    22648    22794 
   23035    23307    23485    23523    23596    23677    23552    23403 
   23392    23288    23141    23230    23506    23793    23916    23706 
   23318    23010    22751    22501    22362    22354    22511    22852 
   23172    23326    23427    23548    23611    23545    23348    23098 
   22874    22720    22720    22867    23045    23255    23468    23593 
   23772    23974    23836    23441    23238    23187    23047    22955 
   23058    23221    23307    23283    23160    22982    22769    22574 
   22546    22680    22816    22916    23004    23118    23314    23504 
   23572    23464    23140    22746    22411    22113    21941    21964 
   22156    22518    22867    23017    23086    23148    23060    22874 
   22847    22913    22816    22685    22836    23201    23436    23512 
   23699    23951    24000    23805    23500    23241    23153    23220 
   23342    23449    23507    23477    23353    23226    23163    23116 
   23016    22842    22667    22603    22600    22578    22594    22692 
   22779    22783    22820    22975    23129    23172    23133    23128 
   23168    23112    23005    23035    23191    23388    23549    23580 
   23517    23504    23577    23620    23620    23653    23603    23429 
   23236    23006    22885    22933    22952    23048    23302    23376 
   23140    22904    22918    23005    22912    22819    22910    22971 
   22918    22958    23132    23274    23286    23268    23276    23136 
   22871    22743    22686    22563    22520    22624    22746    22736 
   22635    22704    22952    23105    23129    23157    23190    23116 
   22917    22800    22758    22569    22454    22671    22909    23012 
   23276    23747    24051    23944    23620    23313    23009    22693 
   22458    22453    22562    22446    22292    22414    22516    22497 
   22624    22798    22883    22940    22863    22662    22553    22486 
   22392    22451    22685    22859    22891    22836    22736    22675 
   22724    22896    23188    23519    23755    23831    23773    23625 
   23363    23043    22859    22819    22729    22601    22616    22835 
   23086    23179    23197    23274    23253    22998    22705    22546 
   22424    22391    22619    22944    23171    23400    23649    23701 
   23581    23614    23745    23622    23367    23233    23107    22964 
   22931    22941    22920    22890    22828    22657    22450    22397 
   22387    22246    22223    22376    22397    22427    22770    23236 
   23568    23764    23832    23814    23758    23631    23450    23302 
   23279    23418    23627    23801    23863    23724    23454    23224 
   23028    22775    22453    22171    22141    22373    22534    22457 
   22360    22397    22472    22462    22405    22446    22634    22829 
   22896    22955    23175    23380    23399    23364    23365    23353 
   23224    22951    22677    22486    22432    22572    22759    22918 
   23145    23368    23444    23407    23422    23539    23565    23418 
   23276    23229    23168    23051    22975    22995    22990    22897 
   22883    22985    22962    22816    22712    22609    22562    22615 
   22644    22735    22927    23014    23056    23199    23344    23384 
   23263    23058    23002    23080    23055    22906    22829    22910 
   22989    22952    22932    22983    23009    23043    23126    23139 
   23071    23086    23171    23178    23161    23182    23137    23094 
   23193    23291    23201    23062    23129    23268    23206    23105 
   23202    23369    23346    23064    22788    22708    22612    22432 
   22356    22392    22567    22863    23024    23072    23221    23355 
   23349    23296    23255    23186    23016    22796    22632    22523 
   22497    22516    22468    22488    22673    22779    22774    22939 
   23194    23191    23010    22990    23080    23018    22864    22746 
   22573    22351    22277    22445    22750    23113    23554    23932 
   24127    24278    24366    24237    23984    23697    23394    23137 
   22900    22690    22628    22735    23028    23423    23652    23637 
   23522    23379    23159    22886    22781    22846    22805    22762 
   22925    23024    22960    22964    22979    22900    22794    22662 
   22615    22704    22743    22754    22819    22840    22920    23159 
   23271    23079    22918    22963    22923    22800    22873    23045 
   23175    23328    23469    23553    23558    23423    23267    23171 
   22985    22775    22705    22729    22987    23548    24012    24097 
   23950    23768    23584    23425    23371    23369    23338    23302 
   23276    23357    23558    23645    23610    23553    23314    22925 
   22594    22376    22347    22511    22731    22986    23253    23465 
   23569    23544    23476    23429    23365    23372    23495    23592 
   23541    23301    22937    22677    22646    22804    23117    23394 
   23407    23328    23413    23517    23433    23275    23157    22947 
   22661    22612    22869    23145    23278    23326    23309    23199 
   23094    23048    23020    23067    23242    23382    23291    23051 
   22881    22797    22680    22513    22407    22464    22520    22393 
   22333    22562    22928    23268    23514    23600    23603    23573 
   23460    23334    23263    23124    22901    22750    22761    22936 
   23130    23183    23228    23402    23461    23256    23028    22932 
   22898    22937    23066    23203    23337    23448    23413    23234 
   23133    23066    22817    22608    22613    22596    22480    22393 
   22395    22472    22473    22357    22320    22419    22449    22388 
   22468    22584    22470    22430    22734    22951    22921    22987 
   23134    23166    23117    23055    23010    23072    23307    23656 
   24011    24321    24467    24340    24061    23834    23787    23862 
   23836    23711    23677    23612    23355    23144    23130    23129 
   23025    22840    22612    22385    22179    22125    22350    22720 
   22997    22978    22611    22158    21883    21759    21749    21913 
   22185    22377    22396    22334    22296    22295    22387    22623 
   22833    22794    22600    22516    22580    22631    22620    22657 
   22775    22837    22720    22576    22624    22775    22896    23043 
   23203    23299    23301    23211    23105    23048    23121    23398 
   23720    23826    23722    23576    23438    23355    23349    23275 
   23129    23044    22929    22770    22746    22885    23126    23291 
   23174    22910    22709    22550    22399    22266    22122    21871 
   21558    21429    21459    21417    21373    21411    21498    21729 
   22050    22304    22495    22582    22540    22408    22142    21849 
   21768    21938    22164    22249    22188    22090    22110    22422 
   22819    22990    23044    23074    22977    22835    22825    22921 
   22905    22793    22905    23194    23275    23156    23058    22972 
   22931    22972    22983    22958    22929    22831    22831    23093 
   23437    23734    23963    24057    24047    24005    23893    23680 
   23460    23367    23377    23407    23514    23665    23704    23722 
   23831    23892    23889    23892    23811    23745    23934    24243 
   24408    24493    24565    24529    24376    24213    24105    24003 
   23889    23865    23919    24013    24239    24560    24803    24954 
   25118    25258    25161    24773    24358    24052    23782    23557 
   23426    23422    23544    23629    23541    23380    23234    23060 
   22870    22735    22713    22847    23037    23101    23063    23051 
   22986    22802    22655    22601    22508    22347    22180    22077 
   22150    22285    22287    22219    22126    21922    21733    21721 
   21875    22169    22495    22634    22650    22798    22950    22808 
   22543    22388    22258    22176    22234    22329    22346    22307 
   22343    22454    22459    22389    22396    22381    22304    22327 
   22391    22407    22437    22358    22073    21763    21575    21492 
   21517    21756    22202    22611    22812    22859    22833    22712 
   22478    22261    22176    22148    22146    22302    22555    22759 
   23013    23352    23573    23554    23363    23159    23045    23090 
   23325    23598    23762    23809    23701    23494    23400    23467 
   23527    23580    23731    23870    23888    23897    23888    23731 
   23630    23839    24185    24390    24489    24557    24480    24250 
   24015    23843    23645    23284    22900    22816    22952    22994 
   23033    23290    23608    23715    23569    23325    23113    22948 
   22836    22765    22709    22651    22585    22608    22746    22864 
   22928    22983    22983    22897    22750    22599    22553    22555 
   22501    22619    22971    23095    22950    23044    23379    23523 
   23464    23468    23491    23269    22948    22824    22731    22539 
   22484    22567    22646    22724    22740    22700    22666    22569 
   22453    22447    22504    22584    22754    23009    23195    23202 
   23107    23006    22890    22779    22719    22674    22565    22385 
   22343    22472    22415    22181    22180    22372    22505    22654 
   22902    23213    23464    23487    23376    23275    23075    22855 
   22798    22746    22589    22555    22692    22723    22607    22593 
   22621    22439    22211    22233    22337    22345    22458    22711 
   22891    23021    23160    23159    23008    22883    22889    23006 
   23103    23118    23224    23552    23949    24216    24391    24526 
   24513    24366    24217    24039    23828    23753    23808    23863 
   23926    24032    24169    24304    24436    24624    24725    24501 
   24085    23774    23561    23341    23194    23186    23240    23361 
   23544    23606    23591    23692    23788    23724    23510    23218 
   22981    22728    22415    22235    22188    22173    22245    22302 
   22254    22275    22461    22646    22712    22754    22866    22985 
   22960    22734    22516    22458    22316    22009    21807    21763 
   21762    21899    22214    22534    22844    23225    23499    23603 
   23727    23815    23670    23399    23102    22717    22481    22623 
   22894    23121    23342    23533    23679    23699    23565    23446 
   23391    23302    23122    22931    22912    23053    23190    23349 
   23620    23904    23986    23808    23622    23552    23413    23201 
   23106    23114    23109    23136    23310    23588    23842    24000 
   23965    23728    23490    23295    23041    22877    22963    23112 
   23130    23117    23147    23118    22997    22898    22860    22724 
   22559    22621    22748    22696    22609    22655    22802    22987 
   23199    23454    23704    23858    23904    23895    23828    23712 
   23556    23318    23124    23183    23403    23579    23645    23603 
   23608    23755    23814    23774    23872    23908    23711    23548 
   23527    23449    23209    22997    23002    23002    22785    22565 
   22503    22491    22468    22437    22391    22265    21963    21578 
   21304    21120    20962    20889    20964    21184    21496    21879 
   22264    22486    22577    22588    22439    22241    22108    22053 
   22145    22275    22283    22302    22349    22253    22103    22071 
   22064    22067    22230    22418    22388    22322    22426    22515 
   22523    22617    22738    22782    22813    22825    22810    22813 
   22790    22746    22778    22939    23164    23298    23319    23402 
   23499    23395    23141    22890    22701    22666    22789    22991 
   23228    23376    23436    23556    23649    23569    23553    23742 
   23874    23909    24093    24385    24568    24655    24745    24787 
   24702    24551    24412    24267    24085    24008    24197    24506 
   24688    24653    24420    24079    23666    23206    22828    22574 
   22434    22430    22499    22630    22782    22836    22863    22835 
   22509    22068    21836    21720    21685    21771    21845    21913 
   22046    22192    22275    22269    22279    22297    22149    21956 
   21928    21930    21879    21897    22000    22145    22221    22122 
   21980    21964    22033    22203    22551    22982    23310    23491 
   23581    23612    23579    23530    23593    23757    23847    23835 
   23733    23449    23080    22856    22821    22862    22913    22964 
   22983    22958    22939    23041    23271    23442    23541    23674 
   23703    23521    23307    23232    23236    23206    23186    23193 
   23126    23078    23170    23361    23699    24057    24136    24003 
   23826    23542    23209    22935    22704    22627    22754    22967 
   23291    23660    23791    23693    23583    23427    23122    22813 
   22712    22709    22563    22415    22512    22667    22604    22450 
   22423    22419    22300    22275    22488    22731    22920    23149 
   23349    23477    23643    23908    24206    24401    24464    24525 
   24629    24691    24738    24845    24906    24775    24552    24375 
   24213    24097    24116    24246    24409    24499    24463    24321 
   23989    23491    23086    22813    22551    22366    22307    22334 
   22441    22585    22762    23005    23213    23284    23242    23098 
