Origin Time       2025/01/13 21:19:00
Lat.              31.8
Long.             131.6
Depth. (km)       30
Mag.              6.9
Station Code      EHM015
Station Lat.      33.6094
Station Long.     132.4768
Station Height(m) 3
Record Time       2025/01/13 21:20:22
Sampling Freq(Hz) 100Hz
Duration Time(s)  83
Dir.              N-S
Scale Factor      7845(gal)/8223790
Max. Acc. (gal)   3.236
Last Correction   2025/01/13 21:20:22
Memo.             
[...]
   -2243    -2261    -2280    -2319    -2394    -2497    -2513    -2389 
   -2211    -1941    -1579    -1297    -1085     -799     -495     -328 
    -298     -260     -206     -221     -252     -247     -190      -17 
     187      251      180       59     -103     -315     -546     -758 
    -959    -1193    -1522    -1922    -2208    -2282    -2226    -2072 
   -1761    -1372    -1112    -1019     -969     -955    -1093    -1318 
   -1394    -1304    -1173     -950     -604     -292     -179     -237 
    -333     -456     -588     -710     -837     -907     -962    -1059 
   -1093    -1059    -1088    -1236    -1451    -1714    -2037    -2227 
   -2220    -2146    -1930    -1571    -1216     -869     -510     -234 
    -179     -345     -614     -888    -1055    -1117    -1154    -1032 
    -654     -244       21      228      365      276        4     -322 
    -660     -909     -938     -795     -685     -703     -803    -1003 
   -1305    -1644    -1929    -2010    -1887    -1675    -1331     -912 
    -679     -662     -648     -623     -733     -901    -1050    -1243 
   -1405    -1413    -1298    -1097     -827     -544     -274      -40 
     117      118     -105     -504    -1012    -1512    -1811    -1856 
   -1667    -1325    -1024     -838     -715     -630     -603     -611 
    -554     -483     -460     -379     -311     -303     -140       67 
      36     -128     -275     -541     -950    -1225    -1297    -1359 
   -1350    -1158     -996    -1038    -1163    -1223    -1294    -1428 
   -1505    -1518    -1559    -1610    -1541    -1229     -737     -236 
     210      503      519      387      284      187       43      -95 
    -182     -298     -460     -592     -764    -1069    -1443    -1756 
   -1965    -2097    -2161    -2165    -2099    -1993    -2011    -2123 
   -2150    -2189    -2280    -2266    -2147    -1981    -1775    -1485 
   -1078     -684     -359      -35      340      768     1112     1351 
    1529     1583     1584     1533     1263      845      396     -130 
    -695    -1151    -1551    -2033    -2506    -2721    -2602    -2388 
   -2241    -2026    -1745    -1548    -1413    -1277    -1155    -1057 
    -961     -862     -822     -853     -824     -718     -668     -683 
    -634     -402      -87       79      172      244       58     -328 
    -627     -765     -850     -996    -1132    -1266    -1491    -1609 
   -1525    -1449    -1497    -1656    -1717    -1470    -1085     -693 
    -237      145      228       17     -302     -679    -1138    -1452 
   -1428    -1337    -1399    -1397    -1227    -1102    -1128    -1146 
   -1030     -861     -661     -440     -417     -661    -1036    -1485 
   -1935    -2278    -2471    -2558    -2609    -2610    -2527    -2378 
   -2232    -2093    -1841    -1493    -1146     -796     -544     -465 
    -441     -394     -388     -500     -625     -676     -660     -487 
    -205      -36      -52     -252     -679    -1255    -1771    -2145 
   -2420    -2497    -2334    -2095    -1794    -1350     -876     -490 
    -205      -67      -49      -20       85      224      337      480 
     703      946     1156     1235     1058      696      301     -130 
    -612    -1044    -1397    -1752    -2151    -2539    -2839    -3040 
   -3084    -2918    -2675    -2501    -2312    -1952    -1475     -981 
    -440      160      715     1048     1158     1123      814      260 
    -324     -869    -1318    -1641    -1777    -1709    -1584    -1449 
   -1341    -1370    -1426    -1390    -1236     -972     -727     -548 
    -384     -329     -410     -465     -414     -369     -457     -633 
    -799     -989    -1193    -1310    -1366    -1389    -1302    -1128 
    -973     -886     -886     -953    -1030    -1085    -1134    -1173 
   -1124     -962     -812     -768     -801     -899    -1034    -1152 
   -1279    -1459    -1699    -1969    -2143    -2196    -2172    -1933 
   -1501    -1100     -784     -537     -332     -126      -21      -21 
     -71     -207     -310     -324     -356     -383     -398     -481 
    -637     -857    -1144    -1517    -1914    -2201    -2388    -2490 
   -2477    -2349    -2108    -1822    -1493    -1085     -700     -384 
    -118       14       51       75       33     -112     -322     -556 
    -812    -1159    -1532    -1810    -2052    -2239    -2284    -2238 
   -2116    -1919    -1709    -1474    -1190     -909     -720     -676 
    -711     -741     -800     -899     -932     -828     -581     -199 
     225      588      876     1115     1219     1038      648      213 
    -279     -745    -1003    -1080    -1127    -1201    -1258    -1339 
   -1534    -1718    -1732    -1563    -1196     -706     -268       22 
      63     -144     -356     -427     -476     -633     -812     -816 
    -675     -587     -514     -256      152      438      476      422 
     395      317      152      -63     -361     -669     -823     -788 
    -688     -700     -792     -859    -1027    -1296    -1480    -1632 
   -1833    -1989    -2120    -2309    -2444    -2427    -2312    -2164 
   -2107    -2165    -2196    -2161    -1992    -1588    -1032     -526 
    -201       29      218      211      -20     -441     -962    -1367 
   -1614    -1773    -1831    -1769    -1570    -1345    -1283    -1375 
   -1464    -1324     -957     -685     -490     -132      178      247 
     178      -66     -492     -830     -959    -1077    -1328    -1620 
   -1817    -1981    -2254    -2523    -2632    -2682    -2752    -2736 
   -2504    -2147    -1848    -1517    -1138     -876     -666     -376 
     -27      314      599      812      855      722      558      311 
    -126     -633    -1066    -1421    -1683    -1825    -1988    -2262 
   -2415    -2263    -1830    -1200     -576     -160       12       22 
     -37     -135     -225     -230     -167     -170     -295     -411 
    -411     -411     -604    -1008    -1506    -1995    -2304    -2282 
   -1968    -1487     -967     -552     -307     -220     -263     -392 
    -575     -824    -1136    -1401    -1552    -1624    -1598    -1524 
   -1525    -1601    -1683    -1722    -1761    -1817    -1833    -1896 
   -2011    -2008    -1895    -1701    -1413    -1073     -711     -457 
    -352     -222      -37      166      449      778     1046     1148 
    1062      864      519       22     -406     -606     -595     -511 
    -490     -544     -598     -579     -545     -614     -724     -828 
   -1113    -1661    -2200    -2504    -2601    -2531    -2285    -1919 
   -1579    -1364    -1217    -1163    -1269    -1300    -1070     -768 
    -534     -274       74      414      635      776      839      781 
     668      471       91     -324     -579     -770    -1065    -1480 
   -2003    -2578    -3029    -3106    -2691    -1979    -1216     -588 
    -259     -199     -268     -326     -240      -13      288      595 
     784      801      662      471      338      236      143       44 
     -83     -272     -631    -1094    -1487    -1800    -1981    -1975 
   -1900    -1822    -1791    -1926    -2230    -2550    -2722    -2731 
   -2685    -2648    -2612    -2578    -2519    -2226    -1584     -924 
    -589     -456     -321     -216     -102      109      356      558 
     675      702      607      318        5     -148     -241     -301 
    -274     -170      -33       81      206      211      -12     -108 
      22       54       -6       -8       -6     -129     -448     -869 
   -1273    -1644    -1985    -2296    -2500    -2474    -2191    -1753 
   -1308     -946     -700     -600     -618     -672     -780    -1004 
   -1219    -1266    -1235    -1263    -1301    -1254    -1225    -1372 
   -1605    -1775    -1904    -2018    -2115    -2236    -2362    -2405 
   -2347    -2235    -2076    -1853    -1553    -1221     -927     -697 
    -571     -522     -477     -360      -79      329      783     1210 
    1472     1462     1140      561     -180     -970    -1561    -1827 
   -1944    -2096    -2336    -2623    -2856    -2994    -3026    -2940 
   -2729    -2431    -2131    -1834    -1459    -1005     -595     -363 
    -321     -398     -545     -650     -622     -525     -402     -248 
    -151     -197     -341     -538     -866    -1305    -1706    -1918 
   -1780    -1333     -811     -383     -186     -251     -410     -515 
    -614     -803     -945     -826     -611     -614     -799     -999 
   -1246    -1678    -2290    -2864    -3175    -3186    -2979    -2640 
   -2222    -1813    -1575    -1568    -1629    -1617    -1590    -1520 
   -1316    -1070     -866     -622     -315     -132     -149     -217 
    -295     -423     -553     -649     -729     -839    -1003    -1197 
   -1368    -1462    -1502    -1536    -1583    -1647    -1733    -1761 
   -1587    -1306    -1188    -1279    -1399    -1360    -1232    -1097 
    -807     -405     -124       10       35       -8        2      122 
     268      364      529      807      961      909      831      753 
     507       -2     -596    -1015    -1205    -1167     -949     -683 
    -417     -224     -163     -174     -220     -342     -556     -774 
    -965    -1134    -1210    -1174    -1119    -1121    -1201    -1275 
   -1244    -1131     -969     -768     -553     -334     -136       75 
     398      792     1085     1194     1236     1313     1317     1228 
    1144      997      653      113     -472     -909    -1232    -1601 
   -1983    -2255    -2519    -2932    -3298    -3357    -3284    -3268 
   -3192    -2961    -2600    -2176    -1682    -1057     -452       16 
     433      730      781      704      585      325     -112     -569 
    -951    -1367    -1732    -1790    -1632    -1420    -1008     -429 
      33      332      550      675      657      476      206      -39 
    -182     -186     -159     -199     -225     -270     -494     -877 
   -1286    -1656    -1999    -2290    -2442    -2481    -2511    -2490 
   -2342    -2138    -1953    -1703    -1339    -1011     -841     -723 
    -616     -668     -832     -888     -839     -785     -638     -379 
    -237     -328     -487     -621     -765     -861     -815     -680 
    -575     -581     -715     -938    -1182    -1354    -1441    -1490 
   -1521    -1578    -1636    -1647    -1636    -1557    -1424    -1286 
   -1048     -684     -272       67      195      184      190      214 
     233      234      234      162     -148     -618    -1086    -1490 
   -1769    -1995    -2212    -2326    -2343    -2340    -2378    -2465 
   -2583    -2837    -3181    -3406    -3500    -3537    -3496    -3323 
   -3013    -2625    -2188    -1671    -1054     -395      197      688 
    1089     1414     1674     1800     1736     1536     1314     1150 
    1004      905      862      793      766      831      916      928 
     783      569      306      -78     -452     -768    -1005    -1132 
   -1327    -1626    -1954    -2330    -2735    -3092    -3252    -3154 
   -2925    -2579    -2043    -1424     -880     -467     -149      110 
     237      144      -47     -157     -108       98      378      634 
     799      764      409     -197     -812    -1363    -1935    -2459 
   -2791    -2984    -3164    -3233    -3096    -2857    -2539    -2073 
   -1414     -621       62      540      868     1044     1061      841 
     452       56     -356     -693     -901    -1125    -1363    -1555 
   -1763    -2015    -2273    -2432    -2388    -2139    -1765    -1390 
   -1131    -1019    -1024    -1080    -1142    -1310    -1602    -1871 
   -2056    -2193    -2304    -2353    -2362    -2432    -2548    -2687 
   -2868    -2955    -2828    -2547    -2211    -1844    -1482    -1146 
    -778     -399      -13      375      681      949     1216     1387 
    1410     1250      986      673      255     -187     -575     -800 
    -716     -525     -522     -743    -1080    -1404    -1648    -1771 
   -1803    -1831    -1792    -1617    -1437    -1372    -1393    -1463 
   -1512    -1470    -1409    -1379    -1278    -1035     -753     -588 
    -545     -552     -642     -751     -684     -423     -153      -21 
      13      -36     -288     -672     -951    -1092    -1173    -1186 
   -1132    -1144    -1320    -1510    -1624    -1858    -2273    -2644 
   -2882    -3048    -3119    -3006    -2658    -2050    -1178     -183 
     750     1479     1879     1968     1844     1545     1167      820 
     575      457      402      365      351      334      205     -193 
    -741    -1161    -1429    -1584    -1567    -1443    -1321    -1225 
   -1225    -1354    -1487    -1505    -1440    -1439    -1521    -1617 
   -1732    -1818    -1856    -1923    -1926    -1822    -1772    -1767 
   -1672    -1476    -1198     -869     -552     -324     -190      -27 
     156      229      286      449      646      743      625      288 
    -174     -680    -1135    -1483    -1784    -2080    -2313    -2425 
   -2398    -2166    -1768    -1332     -847     -317      171      554 
     777      869      823      657      561      529      467      448 
     436      418      456      522      587      556      376      101 
    -249     -607     -876    -1058    -1185    -1312    -1443    -1544 
   -1676    -1846    -1910    -1836    -1827    -2004    -2254    -2427 
   -2486    -2486    -2431    -2367    -2454    -2731    -3142    -3601 
   -3981    -4187    -4137    -3812    -3314    -2685    -1892    -1062 
    -379      153      591      962     1286     1566     1852     2126 
    2290     2392     2474     2444     2226     1779     1165      486 
    -243     -946    -1516    -1979    -2373    -2697    -2968    -3229 
   -3527    -3777    -3861    -3778    -3485    -3010    -2501    -1972 
   -1453    -1058     -784     -585     -527     -648     -827    -1007 
   -1208    -1335    -1285    -1104     -895     -652     -336      -75 
      90      307      529      625      615      573      548      549 
     648      812      858      865     1027     1252     1340     1200 
     901      553      194     -149     -535    -1012    -1444    -1782 
   -2161    -2543    -2733    -2748    -2749    -2762    -2691    -2577 
   -2513    -2413    -2209    -2015    -1848    -1595    -1339    -1242 
   -1252    -1237    -1169    -1129    -1243    -1506    -1813    -2114 
   -2434    -2760    -3014    -3130    -3115    -3049    -3017    -3017 
   -3072    -3156    -3099    -2825    -2412    -1946    -1485    -1100 
    -822     -527     -184       52      137      201      351      484 
     448      251      -47     -371     -614     -765     -886     -988 
    -972     -791     -607     -514     -467     -468     -507     -591 
    -762     -988    -1190    -1308    -1401    -1541    -1548    -1264 
    -814     -364       28      351      550      592      540      383 
      63     -324     -660     -974    -1260    -1479    -1678    -1840 
   -2014    -2326    -2662    -2835    -2779    -2500    -2083    -1636 
   -1260    -1028     -881     -702     -498     -387     -391     -461 
    -571     -638     -603     -575     -669     -835     -919     -899 
    -893     -878     -796     -788     -932    -1142    -1368    -1591 
   -1733    -1767    -1796    -1927    -2068    -2069    -1937    -1686 
   -1352    -1067     -859     -691     -576     -558     -634     -703 
    -783     -982    -1267    -1556    -1734    -1721    -1602    -1468 
   -1358    -1306    -1244    -1082     -862     -650     -441     -197 
      89      303      311      171       13     -137     -280     -359 
    -319     -226     -132       40      241      353      469      622 
     693      643      476      264       75     -124     -274     -391 
    -591     -791     -938    -1078    -1156    -1161    -1097     -994 
    -974     -942     -795     -688     -639     -567     -491     -454 
    -479     -515     -561     -633     -611     -481     -256      155 
     646     1047     1332     1455     1378     1163      889      623 
     372       49     -348     -769    -1206    -1630    -1988    -2232 
   -2392    -2531    -2578    -2420    -2192    -2049    -1885    -1702 
   -1652    -1698    -1723    -1676    -1574    -1453    -1250    -1000 
    -819     -600     -332     -162      -94     -113     -224     -357 
    -440     -511     -718    -1030    -1298    -1509    -1642    -1688 
   -1780    -1972    -2209    -2455    -2648    -2759    -2822    -2836 
   -2747    -2551    -2346    -2263    -2282    -2255    -2178    -2111 
   -2002    -1804    -1506    -1128     -750     -453     -292     -237 
    -244     -280     -198       59      306      432      542      720 
     866      888      812      653      400      121     -114     -334 
    -585     -837    -1027    -1129    -1108     -947     -643     -217 
     206      569      820      834      676      494      346      230 
     112       25      -37     -141     -275     -471     -722     -955 
   -1169    -1323    -1386    -1467    -1621    -1752    -1799    -1876 
   -2077    -2365    -2701    -3080    -3437    -3680    -3784    -3728 
   -3501    -3154    -2764    -2415    -2106    -1798    -1557    -1426 
   -1356    -1289    -1129     -893     -665     -369       75      616 
    1155     1575     1810     1806     1503     1019      459     -203 
    -842    -1339    -1802    -2292    -2743    -3064    -3203    -3171 
   -3014    -2779    -2455    -2043    -1606    -1215     -900     -585 
    -207      148      382      511      660      841      939      942 
     858      738      681      689      747      831      916     1046 
    1154     1117      899      544      175     -194     -591     -985 
   -1437    -1937    -2350    -2670    -2913    -3095    -3264    -3379 
   -3358    -3221    -3015    -2729    -2355    -1993    -1629    -1098 
    -440      124      596     1088     1501     1768     1969     2115 
    2157     2038     1732     1294      716       25     -619    -1193 
   -1752    -2241    -2563    -2717    -2798    -2808    -2701    -2602 
   -2556    -2489    -2390    -2255    -2068    -1853    -1713    -1679 
   -1602    -1466    -1378    -1262    -1059     -816     -518     -199 
      25      149      226      245      128     -112     -364     -621 
    -895    -1088    -1232    -1436    -1703    -2025    -2377    -2697 
   -2965    -3127    -3107    -2901    -2586    -2259    -1983    -1734 
   -1472    -1237    -1066     -957     -873     -766     -600     -373 
    -202     -109       10       93      126      133       75       44 
     -70     -334     -549     -710     -878    -1013    -1098    -1144 
   -1161    -1048     -837     -654     -483     -407     -460     -480 
    -446     -355     -190      -43       18       -9      -90     -217 
    -423     -643     -820    -1035    -1356    -1717    -2035    -2299 
   -2484    -2555    -2562    -2585    -2540    -2357    -2216    -2142 
   -1887    -1468    -1081     -712     -341      -25      238      496 
     803     1090     1221     1243     1220     1111      891      552 
     163     -224     -639    -1043    -1393    -1675    -1888    -2062 
   -2153    -2146    -2064    -1857    -1586    -1386    -1270    -1189 
   -1089     -926     -654     -302       27      291      479      594 
     675      703      646      513      270     -129     -583     -945 
   -1296    -1719    -2089    -2327    -2454    -2529    -2614    -2698 
