Origin Time       2025/01/13 21:19:00
Lat.              31.8
Long.             131.6
Depth. (km)       30
Mag.              6.9
Station Code      EHM006
Station Lat.      33.6412
Station Long.     133.0080
Station Height(m) 466
Record Time       2025/01/13 21:20:45
Sampling Freq(Hz) 100Hz
Duration Time(s)  66
Dir.              E-W
Scale Factor      7845(gal)/8223790
Max. Acc. (gal)   1.695
Last Correction   2025/01/13 21:20:45
Memo.             
[...]
    1001     1071     1163     1271     1358     1364     1263     1113 
    1031     1035     1001      895      874     1026     1206     1239 
    1134     1085     1236     1439     1397     1098      847      816 
     882      919      936      940      886      849      989     1232 
    1313     1192     1081     1062      989      827      765      878 
     966      873      753      846     1101     1240     1154      977 
     854      792      712      594      549      699      981     1208 
    1279     1210     1078      969      922      885      810      783 
     920     1112     1155     1092     1144     1336     1455     1337 
    1067      878      901     1048     1115      978      768      712 
     791      784      675      688      916     1206     1355     1242 
     981      831      878      939      881      816      885     1039 
    1143     1162     1144     1100     1031      957      849      760 
     828     1059     1285     1327     1194     1129     1296     1543 
    1605     1435     1235     1186     1242     1278     1329     1464 
    1575     1541     1421     1337     1297     1251     1210     1188 
    1192     1269     1344     1310     1235     1202     1147     1042 
     965      935      934      982     1054     1070      988      795 
     573      469      521      575      502      390      413      575 
     704      697      675      787      915      855      737      846 
    1148     1323     1224     1057     1036     1123     1124      989 
     899     1015     1213     1258     1152     1070     1042      997 
     990     1069     1113     1050     1021     1115     1198     1202 
    1212     1266     1287     1247     1219     1217     1134      940 
     751      637      584      633      788      939     1013     1047 
    1080     1096     1059      961      826      738      799      996 
    1174     1213     1169     1197     1321     1352     1169      973 
     974     1043     1004      966     1059     1183     1233     1246 
    1279     1305     1277     1235     1256     1344     1433     1441 
    1304     1081      967     1035     1030      731      392      441 
     823     1088     1015      830      807      916      988      980 
     951      946      977     1007      976      851      703      695 
     820      838      633      415      415      531      552      527 
     638      824      855      723      687      866     1035      989 
     874      900      990      969      896      947     1078     1129 
    1109     1116     1120     1080     1050     1047     1039     1057 
    1124     1208     1336     1532     1603     1366     1016      884 
     959     1053     1090     1058      951      928     1105     1225 
     942      414      201      488      827      880      877     1074 
    1354     1516     1537     1487     1408     1305     1144      959 
     888      939      982      947      861      787      741      687 
     646      629      587      514      492      579      683      727 
     796      947     1105     1194     1143      958      830      884 
     994     1035     1050     1054      982      877      847      872 
     913     1075     1352     1489     1283      923      777      943 
    1177     1229     1092      966     1012     1159     1250     1243 
    1144      915      633      552      708      780      594      423 
     585      977     1194     1057      831      847     1046     1134 
    1063     1027     1046      934      673      552      737      972 
     954      742      630      805     1081     1085      818      639 
     758     1024     1233     1398     1545     1563     1452     1399 
    1467     1483     1362     1306     1468     1630     1560     1409 
    1425     1470     1273      924      774      961     1223     1237 
    1065     1088     1394     1570     1356     1042      969     1088 
    1162     1090      919      791      847     1039     1144     1017 
     810      849     1151     1279      957      537      506      826 
    1074     1035      911      974     1163     1213     1063      888 
     804      787      791      747      612      488      546      751 
     853      773      735      888     1092     1108      943      869 
    1069     1363     1359      977      673      858     1275     1363 
    1078      854      939     1163     1170      796      388      464 
     986     1399     1422     1297     1291     1416     1556     1582 
    1428     1221     1146     1175     1124      982      912      911 
     815      630      561      688      839      866      837      843 
     857      822      783      826      951     1078     1185     1313 
    1401     1331     1156     1046     1058     1107     1054      895 
     827     1023     1328     1435     1277     1057      965      935 
     776      553      506      631      774      866      892      897 
     994     1159     1221     1135      992      864      788      753 
     679      576      523      484      454      529      681      754 
     711      693      792      924      997      943      700      353 
     229      585     1144     1352     1152      963     1024     1171 
    1165      965      749      712      876     1081     1165     1188 
    1269     1321     1255     1171     1120     1048      996     1038 
    1074      962      801      818      976     1019      895      801 
     854      972      978      773      546      595      843      988 
    1028     1148     1304     1294     1105      967     1020     1088 
     981      795      764      939     1140     1201     1154     1146 
    1248     1370     1354     1178     1043     1129     1337     1394 
    1210     1058     1229     1575     1690     1505     1277     1156 
    1128     1171     1224     1194     1066      918      818      776 
     764      730      630      515      523      615      549      313 
     229      481      827      959      920      949     1048     1043 
     903      791      804      882      962     1027     1057     1066 
    1081     1011      773      567      708     1069     1170      957 
     915     1258     1567     1460     1128      947      920      811 
     627      619      822      982      993     1003     1102     1193 
    1193     1143     1098     1127     1240     1298     1182      992 
     855      742      608      556      639      702      639      646 
     891     1210     1339     1255     1136     1047      957      939 
    1031     1098     1035      919      913     1044     1142     1098 
    1096     1310     1555     1563     1416     1374     1485     1529 
    1340     1050      920      982     1012      884      812      997 
    1274     1433     1555     1759     1895     1723     1366     1197 
    1242     1190      980      913     1121     1279     1109      826 
     784      989     1185     1209     1121     1097     1215     1318 
    1252     1151     1206     1301     1227     1088     1215     1579 
    1782     1745     1776     1948     2057     2053     2043     2060 
    2120     2227     2247     2103     1964     1964     1981     1950 
    2004     2180     2280     2150     1908     1756     1721     1734 
    1741     1682     1522     1382     1405     1499     1467     1305 
    1151     1098     1171     1313     1416     1425     1367     1271 
    1178     1135     1102     1012      931      969     1039      951 
     783      820     1075     1259     1231     1212     1366     1529 
    1574     1583     1563     1490     1502     1649     1721     1555 
    1404     1568     1823     1710     1269      984     1063     1239 
    1224     1039      880      801      666      448      310      238 
      62     -126      -49      256      432      286       20      -87 
     -12      103      149      108       56      106      230      286 
     226      120       72      151      298      386      383      402 
     444      372      284      376      484      301      -51     -176 
     -48        1     -120     -148       20      149      130      184 
     409      595      592      460      332      282      278      278 
     369      610      796      757      672      758      912      905 
     777      760      920     1089     1054      832      683      785 
    1019     1120     1031      931      950     1039     1092     1067 
    1023     1073     1225     1352     1367     1259     1036      780 
     596      552      669      869      939      834      822      978 
     980      780      760     1015     1163      982      774      849 
    1016      950      708      584      629      654      607      621 
     756      926      994      940      899      949     1001      962 
     905      973     1109     1073      804      583      661      911 
    1042      980      900      962     1121     1162     1009      841 
     814      874      891      842      851      984     1115     1158 
    1197     1279     1281     1143     1015     1020     1128     1212 
    1185     1129     1183     1290     1289     1156     1007     1009 
    1183     1314     1306     1320     1379     1333     1201     1102 
    1039      977      932      872      803      826      899      842 
     681      661      804      830      633      445      492      665 
     656      442      337      487      672      610      306       64 
     108      303      367      292      369      715     1035     1080 
     997     1003     1024      872      618      558      784     1051 
    1138     1089     1100     1215     1309     1328     1305     1259 
    1175     1027      838      685      585      476      351      294 
     423      723      966      980      916      996     1116     1055 
     834      665      704      874      931      753      553      581 
     724      731      652      646      684      691      706      761 
     828      915     1028     1089     1046     1035     1210     1443 
    1509     1487     1557     1671     1742     1799     1779     1588 
    1358     1247     1210     1135     1024      972     1053     1247 
    1399     1399     1309     1236     1196     1162     1098      993 
     909      911      942      874      670      468      427      507 
     506      387      338      429      550      634      673      707 
     822      980     1059     1140     1378     1632     1676     1599 
    1625     1769     1840     1722     1516     1372     1331     1329 
    1312     1321     1441     1634     1748     1705     1613     1680 
    1921     2076     2000     1853     1865     2047     2147     1953 
    1586     1352     1354     1344     1115      824      769      962 
    1117      993      657      376      336      432      382       99 
    -152     -120      125      301      315      396      661      864 
     811      670      664      788      885      854      750      675 
     615      472      279      166      148      151      175      319 
     599      843      907      951     1250     1733     2019     1949 
    1776     1757     1858     1885     1723     1441     1181     1004 
     886      785      670      606      635      638      495      317 
     259      257      171       27        2      126      172       39 
     -18      175      386      334      140       74      164      226 
     114      -83     -112      113      390      527      599      791 
    1074     1254     1328     1466     1664     1817     1941     2091 
    2214     2278     2381     2543     2609     2529     2452     2451 
    2435     2361     2273     2196     2118     2031     1939     1879 
    1871     1833     1728     1611     1503     1368     1244     1185 
    1084      805      480      310      249      147      -12     -132 
    -163     -121      -79      -75      -24       82      102       27 
      47      280      602      800      851      938     1155     1374 
    1493     1609     1777     1895     1948     2060     2242     2376 
    2427     2490     2613     2704     2667     2583     2574     2554 
    2389     2188     2114     2111     2029     1860     1717     1667 
    1659     1595     1472     1372     1341     1356     1404     1453 
    1389     1161      946      897      926      859      687      519 
     432      394      292      102      -21        5       56       27 
     -24      -14      -17     -153     -365     -454     -349     -213 
    -257     -436     -506     -382     -166       16      143      352 
     727     1062     1132     1063     1109     1248     1247     1070 
     978     1117     1278     1254     1121     1058     1123     1220 
    1204     1071      953      907      904      903      843      733 
     666      642      533      355      286      345      321      139 
      27      117      205      156      144      263      353      352 
     413      626      874     1007     1028     1100     1347     1649 
    1763     1679     1653     1804     1919     1771     1478     1356 
    1467     1549     1406     1167     1089     1223     1331     1182 
     909      869     1128     1356     1320     1215     1336     1614 
    1737     1630     1548     1671     1867     1919     1837     1806 
    1941     2134     2170     1985     1733     1634     1711     1711 
    1455     1135     1030     1097     1086      882      610      479 
     533      517      205     -209     -365     -282     -334     -629 
    -783     -550     -243     -171     -135      129      453      576 
     575      616      689      719      729      749      743      676 
     571      464      403      411      395      301      218      197 
     186      209      303      357      298      301      464      629 
     735      918     1148     1240     1171     1144     1247     1264 
    1063      874      888      922      812      700      735      838 
     881      869      866      900      958     1020     1065     1101 
    1123     1101     1035     1005     1078     1185     1204     1196 
    1327     1518     1520     1358     1321     1478     1593     1522 
    1382     1348     1462     1649     1802     1868     1930     2047 
    2115     2026     1852     1726     1655     1572     1486     1467 
    1545     1647     1671     1636     1602     1605     1648     1653 
    1509     1271     1175     1310     1431     1329     1186     1267 
    1482     1571     1503     1417     1398     1441     1517     1549 
    1460     1305     1243     1269     1229     1090      992     1003 
    1020      967      915      904      853      722      569      448 
     348      202        6      -86      -51     -102     -274     -344 
    -268     -236     -288     -256     -102       27       95      167 
     205      159       93      109      240      405      507      607 
     784      980     1123     1224     1304     1393     1521     1647 
    1676     1586     1467     1418     1437     1463     1482     1517 
    1555     1557     1522     1517     1582     1609     1502     1336 
    1219     1166     1194     1310     1391     1329     1259     1324 
    1398     1327     1188     1143     1188     1179     1089     1044 
    1119     1204     1179     1094     1050     1038     1024     1031 
    1071     1136     1201     1255     1290     1282     1198     1062 
     955      881      766      656      625      606      556      510 
     427      274      155      171      218      133      -36     -110 
     -55      -54     -222     -375     -290      -66       32      -44 
     -82       56      257      376      433      502      602      695 
     735      749      793      854      873      838      772      764 
     862      970      977      958     1058     1247     1352     1329 
    1316     1409     1517     1517     1444     1398     1393     1381 
    1386     1453     1479     1374     1259     1309     1458     1470 
    1287     1139     1209     1374     1385     1209     1090     1240 
    1539     1695     1634     1544     1566     1647     1657     1576 
    1486     1440     1418     1410     1435     1513     1617     1659 
    1609     1572     1629     1671     1556     1333     1173     1143 
    1142     1034      811      596      513      556      589      523 
     445      445      467      444      446      554      696      766 
     783      808      822      797      772      778      774      726 
     703      760      810      780      770      855      896      737 
     499      445      587      681      634      572      596      643 
     626      562      506      465      444      472      549      629 
     684      710      730      799      915      996     1017     1054 
    1165     1305     1421     1517     1602     1655     1698     1759 
    1765     1648     1499     1441     1476     1532     1545     1487 
    1390     1324     1291     1251     1198     1098      935      816 
     815      826      742      619      584      662      747      762 
     739      730      749      776      754      706      706      739 
     749      750      804      927     1028     1020      934      869 
     886      990     1111     1144     1096     1085     1185     1298 
    1296     1197     1155     1243     1312     1219     1031      919 
     973     1102     1132     1011      868      855      961     1017 
     946      869      922     1071     1165     1115     1012     1020 
    1136     1194     1121     1032     1035     1081     1077     1085 
    1185     1259     1186     1077     1100     1216     1233     1098 
     985     1000     1040     1021      993     1001     1032     1058 
    1075     1089     1108     1140     1188     1259     1379     1507 
    1557     1521     1489     1520     1557     1518     1432     1386 
    1379     1347     1302     1294     1255     1108      972      989 
    1077     1057      936      869      877      841      737      669 
     677      689      615      459      348      356      380      319 
     265      336      453      492      471      460      442      361 
     252      164       64      -41      -56       10        8      -91 
    -137      -75      -44     -112     -136      -21      129      202 
     237      307      423      576      711      742      696      695 
     742      734      697      749      873      942      927      909 
     936      977      969      936      965     1057     1119     1120 
    1132     1190     1244     1266     1250     1200     1166     1181 
    1221     1236     1212     1189     1202     1231     1246     1232 
    1201     1165     1097     1004      959      999     1054     1046 
     994      990     1066     1131     1102     1061     1116     1235 
    1321     1337     1309     1296     1318     1317     1258     1212 
    1242     1290     1258     1175     1142     1163     1167     1105 
    1012     1004     1104     1151     1054      943      931      973 
     982      915      810      768      843      951      954      864 
     824      866      892      885      920      996     1043     1054 
    1097     1163     1185     1178     1181     1162     1121     1143 
    1259     1381     1385     1298     1281     1394     1522     1532 
    1452     1440     1548     1664     1683     1660     1692     1713 
