Origin Time       2025/01/13 21:19:00
Lat.              31.8
Long.             131.6
Depth. (km)       30
Mag.              6.9
Station Code      EHM006
Station Lat.      33.6412
Station Long.     133.0080
Station Height(m) 466
Record Time       2025/01/13 21:20:45
Sampling Freq(Hz) 100Hz
Duration Time(s)  66
Dir.              N-S
Scale Factor      7845(gal)/8223790
Max. Acc. (gal)   1.819
Last Correction   2025/01/13 21:20:45
Memo.             
[...]
  -13436   -13277   -13138   -13092   -13117   -13150   -13150   -13142 
  -13174   -13240   -13258   -13201   -13162   -13184   -13217   -13243 
  -13257   -13262   -13356   -13551   -13706   -13736   -13663   -13551 
  -13498   -13509   -13516   -13525   -13554   -13548   -13537   -13581 
  -13662   -13755   -13824   -13818   -13771   -13740   -13729   -13733 
  -13728   -13718   -13738   -13728   -13622   -13485   -13348   -13198 
  -13085   -13047   -13038   -12974   -12843   -12746   -12746   -12769 
  -12738   -12695   -12692   -12699   -12685   -12696   -12758   -12826 
  -12866   -12910   -12970   -13022   -13024   -12976   -12928   -12928 
  -12989   -13101   -13261   -13462   -13672   -13829   -13864   -13778 
  -13691   -13705   -13757   -13740   -13644   -13532   -13471   -13419 
  -13286   -13128   -13032   -12991   -13009   -13062   -13043   -12966 
  -12939   -12965   -12957   -12897   -12861   -12879   -12897   -12915 
  -12997   -13128   -13213   -13273   -13344   -13343   -13232   -13135 
  -13112   -13089   -13038   -13034   -13104   -13220   -13347   -13448 
  -13497   -13458   -13305   -13138   -13074   -13069   -13046   -13066 
  -13130   -13136   -13105   -13181   -13366   -13486   -13431   -13293 
  -13217   -13238   -13300   -13344   -13325   -13286   -13301   -13328 
  -13254   -13085   -12969   -12977   -12999   -12939   -12893   -12934 
  -12991   -13014   -13014   -13027   -13063   -13088   -13077   -13062 
  -13082   -13166   -13332   -13545   -13709   -13794   -13826   -13799 
  -13701   -13563   -13432   -13344   -13301   -13230   -13084   -12953 
  -12969   -13146   -13335   -13394   -13319   -13159   -12974   -12819 
  -12725   -12712   -12754   -12764   -12708   -12661   -12729   -12889 
  -12970   -12926   -12885   -12919   -13009   -13140   -13292   -13417 
  -13504   -13545   -13510   -13440   -13420   -13440   -13428   -13370 
  -13309   -13302   -13358   -13416   -13458   -13501   -13500   -13410 
  -13311   -13284   -13325   -13401   -13450   -13437   -13413   -13451 
  -13528   -13578   -13564   -13505   -13452   -13439   -13470   -13490 
  -13450   -13383   -13309   -13166   -13007   -12989   -13109   -13231 
  -13313   -13398   -13487   -13574   -13641   -13626   -13535   -13479 
  -13525   -13589   -13536   -13375   -13275   -13348   -13479   -13485 
  -13374   -13273   -13238   -13269   -13266   -13107   -12857   -12714 
  -12756   -12860   -12888   -12850   -12815   -12818   -12874   -12974 
  -13074   -13147   -13192   -13203   -13139   -13024   -13023   -13211 
  -13408   -13454   -13393   -13309   -13261   -13296   -13371   -13405 
  -13404   -13448   -13545   -13595   -13579   -13602   -13680   -13718 
  -13678   -13594   -13506   -13455   -13454   -13427   -13347   -13332 
  -13441   -13572   -13651   -13699   -13741   -13805   -13895   -13926 
  -13799   -13551   -13363   -13346   -13367   -13284   -13171   -13128 
  -13105   -13059   -13015   -12953   -12868   -12768   -12658   -12552 
  -12459   -12428   -12532   -12704   -12853   -12964   -13035   -13090 
  -13143   -13132   -13036   -12924   -12869   -12931   -13068   -13154 
  -13167   -13192   -13235   -13205   -13123   -13120   -13188   -13169 
  -13036   -12933   -12951   -13022   -13026   -12984   -12981   -13034 
  -13123   -13235   -13354   -13462   -13522   -13502   -13424   -13342 
  -13242   -13097   -12980   -13004   -13144   -13208   -13097   -12985 
  -13034   -13130   -13108   -13068   -13204   -13431   -13498   -13387 
  -13309   -13346   -13382   -13346   -13239   -13055   -12858   -12769 
  -12795   -12841   -12881   -12947   -12993   -12972   -12955   -13038 
  -13196   -13367   -13517   -13613   -13670   -13760   -13905   -14008 
  -14054   -14115   -14104   -13898   -13666   -13574   -13504   -13356 
  -13169   -12984   -12903   -12988   -13132   -13234   -13273   -13311 
  -13435   -13574   -13554   -13413   -13338   -13346   -13347   -13319 
  -13263   -13217   -13294   -13478   -13547   -13385   -13149   -13051 
  -13127   -13250   -13278   -13166   -13036   -13042   -13120   -13093 
  -12962   -12906   -12982   -13047   -12974   -12841   -12784   -12829 
  -12899   -12922   -12943   -13046   -13190   -13255   -13254   -13306 
  -13414   -13447   -13405   -13408   -13479   -13564   -13647   -13666 
  -13564   -13456   -13455   -13482   -13446   -13405   -13429   -13441 
  -13377   -13354   -13459   -13591   -13633   -13583   -13501   -13408 
  -13306   -13263   -13312   -13378   -13402   -13382   -13281   -13078 
  -12889   -12873   -12981   -12980   -12810   -12694   -12792   -12973 
  -13046   -13051   -13111   -13211   -13293   -13362   -13436   -13506 
  -13571   -13632   -13667   -13674   -13728   -13849   -13886   -13734 
  -13537   -13463   -13497   -13539   -13508   -13460   -13495   -13518 
  -13377   -13143   -13062   -13225   -13413   -13396   -13278   -13304 
  -13477   -13635   -13736   -13826   -13890   -13871   -13771   -13656 
  -13601   -13608   -13649   -13740   -13878   -13971   -13944   -13861 
  -13815   -13803   -13775   -13667   -13477   -13317   -13239   -13181 
  -13112   -12982   -12792   -12704   -12775   -12845   -12866   -12954 
  -13088   -13127   -13089   -13116   -13211   -13247   -13207   -13130 
  -13027   -12978   -13066   -13235   -13355   -13363   -13278   -13162 
  -13103   -13150   -13240   -13271   -13192   -13030   -12856   -12775 
  -12845   -12945   -12915   -12775   -12641   -12540   -12456   -12445 
  -12586   -12826   -13012   -13068   -13036   -13058   -13236   -13439 
  -13443   -13300   -13257   -13338   -13392   -13409   -13473   -13560 
  -13581   -13524   -13486   -13497   -13475   -13404   -13304   -13139 
  -13004   -13055   -13198   -13262   -13346   -13597   -13905   -14040 
  -13946   -13802   -13763   -13784   -13756   -13641   -13460   -13263 
  -13162   -13265   -13506   -13663   -13637   -13539   -13467   -13419 
  -13400   -13446   -13512   -13529   -13510   -13485   -13458   -13429 
  -13392   -13363   -13378   -13393   -13331   -13240   -13213   -13208 
  -13150   -13092   -13090   -13074   -12978   -12896   -12966   -13150 
  -13290   -13312   -13217   -13086   -13073   -13216   -13350   -13311 
  -13112   -12903   -12833   -12928   -13109   -13265   -13335   -13355 
  -13381   -13423   -13483   -13549   -13579   -13582   -13560   -13458 
  -13313   -13257   -13286   -13266   -13134   -12926   -12749   -12710 
  -12781   -12853   -12915   -13026   -13174   -13236   -13142   -13005 
  -12945   -12891   -12768   -12667   -12698   -12800   -12845   -12811 
  -12731   -12615   -12528   -12540   -12572   -12514   -12430   -12474 
  -12663   -12870   -13015   -13116   -13193   -13258   -13304   -13311 
  -13351   -13509   -13721   -13838   -13792   -13680   -13620   -13598 
  -13566   -13525   -13464   -13378   -13313   -13288   -13288   -13312 
  -13360   -13436   -13477   -13383   -13174   -13011   -13054   -13247 
  -13377   -13339   -13234   -13188   -13217   -13285   -13400   -13527 
  -13544   -13487   -13522   -13653   -13730   -13679   -13579   -13539 
  -13487   -13290   -13036   -12926   -13000   -13116   -13096   -12927 
  -12793   -12850   -13035   -13200   -13286   -13296   -13278   -13325 
  -13406   -13431   -13456   -13531   -13572   -13552   -13521   -13477 
  -13374   -13236   -13132   -13082   -13080   -13099   -13081   -13024 
  -13038   -13162   -13274   -13302   -13319   -13352   -13365   -13385 
  -13423   -13371   -13203   -13070   -13104   -13225   -13267   -13230 
  -13262   -13360   -13327   -13109   -12950   -13028   -13155   -13082 
  -12881   -12791   -12868   -12970   -12966   -12861   -12764   -12737 
  -12721   -12658   -12594   -12565   -12553   -12529   -12471   -12447 
  -12556   -12722   -12793   -12798   -12901   -13154   -13420   -13547 
  -13491   -13328   -13231   -13312   -13458   -13521   -13532   -13572 
  -13609   -13597   -13575   -13554   -13495   -13396   -13296   -13259 
  -13302   -13343   -13311   -13243   -13192   -13158   -13136   -13101 
  -13001   -12889   -12866   -12920   -13024   -13248   -13513   -13578 
  -13405   -13213   -13169   -13238   -13311   -13378   -13454   -13468 
  -13448   -13483   -13520   -13477   -13383   -13301   -13259   -13228 
  -13216   -13316   -13501   -13633   -13679   -13702   -13774   -13872 
  -13836   -13621   -13424   -13392   -13437   -13470   -13509   -13568 
  -13616   -13613   -13537   -13421   -13335   -13298   -13278   -13244 
  -13186   -13123   -13101   -13093   -13038   -12961   -12889   -12776 
  -12648   -12629   -12741   -12862   -12897   -12868   -12810   -12757 
  -12768   -12841   -12900   -12919   -12968   -13103   -13270   -13352 
  -13313   -13251   -13232   -13213   -13189   -13216   -13281   -13309 
  -13261   -13178   -13116   -13089   -13099   -13174   -13313   -13423 
  -13458   -13509   -13655   -13852   -13968   -13909   -13734   -13606 
  -13603   -13653   -13676   -13709   -13809   -13967   -14089   -14103 
  -14081   -14094   -14088   -14056   -14064   -14102   -14094   -14031 
  -13973   -13946   -13973   -14099   -14274   -14319   -14137   -13913 
  -13890   -14054   -14218   -14238   -14081   -13909   -13923   -14064 
  -14104   -13995   -13887   -13853   -13824   -13748   -13703   -13722 
  -13740   -13768   -13859   -13946   -13936   -13822   -13636   -13389 
  -13139   -12978   -12916   -12915   -12968   -13050   -13193   -13467 
  -13814   -14092   -14254   -14288   -14122   -13836   -13725   -13879 
  -14015   -13930   -13734   -13575   -13463   -13387   -13327   -13201 
  -12961   -12696   -12613   -12718   -12791   -12796   -12826   -12808 
  -12690   -12588   -12557   -12514   -12457   -12452   -12491   -12530 
  -12503   -12425   -12486   -12726   -12924   -12999   -13073   -13209 
  -13389   -13539   -13582   -13543   -13431   -13174   -12860   -12741 
  -12835   -12884   -12798   -12719   -12734   -12870   -13078   -13173 
  -13069   -12889   -12749   -12649   -12563   -12467   -12376   -12301 
  -12235   -12208   -12253   -12386   -12630   -12947   -13174   -13247 
  -13270   -13273   -13163   -12999   -12951   -12972   -12841   -12534 
  -12259   -12166   -12202   -12297   -12447   -12559   -12538   -12484 
  -12537   -12680   -12826   -12914   -12927   -12930   -12984   -13062 
  -13135   -13265   -13474   -13684   -13842   -13959   -14048   -14108 
  -14152   -14180   -14156   -14076   -13990   -13913   -13846   -13845 
  -13957   -14116   -14138   -13957   -13738   -13599   -13491   -13381 
  -13267   -13124   -13011   -12995   -13032   -13066   -13059   -13005 
  -12943   -12903   -12912   -13012   -13161   -13277   -13347   -13421 
  -13521   -13559   -13508   -13504   -13572   -13574   -13510   -13509 
  -13597   -13737   -13911   -14096   -14250   -14320   -14301   -14231 
  -14129   -14030   -13981   -13946   -13882   -13815   -13782   -13748 
  -13686   -13637   -13626   -13616   -13560   -13487   -13486   -13583 
  -13682   -13687   -13601   -13486   -13408   -13352   -13296   -13319 
  -13404   -13386   -13281   -13239   -13247   -13213   -13139   -13065 
  -13039   -13086   -13142   -13128   -13073   -13085   -13139   -13054 
  -12827   -12648   -12575   -12523   -12430   -12278   -12097   -11959 
  -11955   -12129   -12321   -12255   -11990   -11854   -11913   -11975 
  -11958   -11940   -11978   -11996   -11940   -11924   -12006   -12051 
  -11928   -11701   -11564   -11619   -11757   -11817   -11823   -11912 
  -12117   -12343   -12511   -12611   -12664   -12753   -12966   -13244 
  -13447   -13540   -13608   -13717   -13852   -13957   -13979   -13867 
  -13684   -13574   -13559   -13524   -13423   -13373   -13444   -13541 
  -13587   -13656   -13782   -13902   -13973   -13933   -13711   -13420 
  -13261   -13240   -13223   -13166   -13151   -13234   -13335   -13298 
  -13142   -13046   -13089   -13170   -13159   -12997   -12800   -12761 
  -12899   -13057   -13132   -13166   -13197   -13196   -13189   -13258 
  -13356   -13370   -13355   -13464   -13667   -13794   -13830   -13907 
  -14034   -14130   -14220   -14338   -14401   -14353   -14250   -14165 
  -14122   -14121   -14161   -14216   -14187   -14064   -14008   -14087 
  -14143   -14077   -13934   -13753   -13593   -13527   -13481   -13292 
  -12976   -12739   -12660   -12604   -12518   -12483   -12538   -12623 
  -12660   -12644   -12656   -12723   -12779   -12787   -12783   -12768 
  -12699   -12614   -12592   -12579   -12486   -12349   -12202   -12012 
  -11817   -11713   -11689   -11674   -11673   -11738   -11853   -11977 
  -12132   -12359   -12599   -12695   -12592   -12478   -12526   -12684 
  -12822   -12928   -13061   -13225   -13365   -13386   -13290   -13227 
  -13335   -13545   -13670   -13656   -13648   -13778   -14008   -14210 
  -14295   -14291   -14291   -14332   -14392   -14415   -14377   -14365 
  -14423   -14480   -14501   -14486   -14455   -14453   -14413   -14262 
  -14095   -14027   -14035   -14017   -13913   -13737   -13536   -13351 
  -13167   -12950   -12749   -12618   -12545   -12510   -12492   -12469 
  -12467   -12510   -12582   -12630   -12627   -12625   -12663   -12722 
  -12799   -12883   -12907   -12808   -12640   -12568   -12636   -12645 
  -12513   -12422   -12472   -12533   -12474   -12306   -12185   -12164 
  -12132   -12062   -12024   -11994   -11921   -11826   -11735   -11674 
  -11655   -11655   -11684   -11773   -11915   -12093   -12283   -12449 
  -12599   -12742   -12879   -13072   -13328   -13527   -13620   -13699 
  -13856   -14106   -14397   -14643   -14785   -14831   -14800   -14748 
  -14810   -14991   -15132   -15161   -15149   -15149   -15163   -15157 
  -15090   -14986   -14928   -14920   -14867   -14737   -14642   -14669 
  -14743   -14758   -14702   -14575   -14386   -14261   -14265   -14280 
  -14185   -14010   -13825   -13676   -13636   -13725   -13807   -13801 
  -13803   -13849   -13834   -13798   -13844   -13888   -13815   -13644 
  -13456   -13332   -13278   -13215   -13089   -12989   -13032   -13159 
  -13192   -13124   -13139   -13306   -13489   -13587   -13649   -13713 
  -13787   -13925   -14085   -14185   -14250   -14310   -14332   -14311 
  -14297   -14316   -14304   -14215   -14119   -14095   -14067   -13919 
  -13707   -13575   -13581   -13647   -13632   -13512   -13420   -13428 
  -13473   -13477   -13420   -13342   -13278   -13220   -13180   -13201 
  -13254   -13243   -13153   -13005   -12781   -12533   -12384   -12333 
  -12291   -12210   -12077   -11963   -11962   -12032   -12051   -11982 
  -11882   -11804   -11769   -11808   -11885   -11938   -11985   -12091 
  -12274   -12491   -12726   -12976   -13232   -13475   -13675   -13814 
  -13892   -13911   -13878   -13817   -13724   -13608   -13483   -13305 
  -13072   -12897   -12811   -12708   -12573   -12486   -12478   -12502 
  -12514   -12546   -12617   -12636   -12536   -12409   -12387   -12461 
  -12550   -12660   -12815   -12954   -13005   -13028   -13112   -13196 
  -13171   -13078   -13039   -13100   -13181   -13205   -13189   -13177 
  -13173   -13167   -13188   -13243   -13246   -13134   -12984   -12879 
  -12803   -12712   -12599   -12492   -12465   -12550   -12675   -12757 
  -12811   -12928   -13153   -13412   -13622   -13797   -13990   -14195 
  -14331   -14364   -14370   -14430   -14478   -14450   -14396   -14343 
  -14269   -14179   -14081   -13973   -13863   -13741   -13582   -13358 
  -13104   -12928   -12860   -12802   -12710   -12630   -12596   -12621 
  -12669   -12668   -12621   -12583   -12559   -12530   -12501   -12486 
  -12471   -12459   -12476   -12494   -12468   -12425   -12415   -12445 
  -12480   -12506   -12579   -12714   -12838   -12912   -12938   -12918 
  -12935   -13057   -13192   -13263   -13302   -13324   -13355   -13466 
  -13620   -13690   -13643   -13572   -13539   -13481   -13343   -13196 
  -13123   -13100   -13084   -13068   -13005   -12887   -12806   -12808 
  -12825   -12835   -12916   -13041   -13095   -13112   -13216   -13385 
  -13495   -13502   -13473   -13494   -13562   -13602   -13645   -13770 
  -13898   -13940   -13972   -14041   -14044   -13942   -13818   -13736 
  -13664   -13571   -13512   -13494   -13460   -13436   -13464   -13518 
  -13583   -13680   -13791   -13863   -13914   -14042   -14246   -14377 
  -14359   -14301   -14320   -14376   -14351   -14239   -14148   -14115 
  -14072   -13960   -13805   -13668   -13585   -13529   -13481   -13475 
  -13540   -13635   -13699   -13711   -13674   -13616   -13556   -13463 
  -13285   -13030   -12792   -12667   -12609   -12494   -12334   -12233 
  -12186   -12174   -12241   -12393   -12519   -12552   -12544   -12576 
  -12636   -12672   -12688   -12714   -12738   -12735   -12733   -12796 
  -12943   -13158   -13366   -13431   -13369   -13366   -13490   -13639 
  -13738   -13798   -13832   -13869   -13971   -14133   -14262   -14324 
  -14366   -14366   -14268   -14102   -13954   -13844   -13699   -13490 
  -13269   -13051   -12829   -12641   -12503   -12370   -12247   -12172 
  -12150   -12155   -12140   -12056   -11935   -11854   -11888   -12033 
  -12191   -12226   -12120   -12035   -12096   -12185   -12164   -12110 
  -12131   -12168   -12125   -12033   -12010   -12083   -12167   -12206 
  -12229   -12244   -12267   -12366   -12540   -12691   -12765   -12820 
  -12922   -13057   -13189   -13311   -13450   -13635   -13864   -14104 
  -14307   -14436   -14526   -14621   -14686   -14669   -14604   -14542 
  -14486   -14440   -14423   -14435   -14455   -14465   -14454   -14451 
  -14451   -14403   -14311   -14224   -14165   -14134   -14122   -14119 
  -14100   -14054   -14037   -14077   -14079   -13975   -13859   -13860 
  -13968   -14057   -14044   -13942   -13814   -13709   -13636   -13575 
  -13520   -13508   -13583   -13682   -13683   -13609   -13579   -13594 
  -13567   -13462   -13286   -13085   -12933   -12854   -12783   -12638 
  -12422   -12209   -12025   -11828   -11623   -11476   -11418   -11412 
  -11408   -11385   -11372   -11407   -11475   -11569   -11689   -11767 
  -11757   -11732   -11801   -11975   -12131   -12155   -12105   -12120 
  -12232   -12359   -12442   -12534   -12692   -12849   -12908   -12896 
  -12934   -13058   -13167   -13173   -13143   -13165   -13225   -13300 
  -13373   -13383   -13321   -13293   -13335   -13335   -13271   -13259 
  -13324   -13381   -13417   -13486   -13587   -13682   -13751   -13819 
  -13942   -14110   -14269   -14430   -14586   -14644   -14620   -14636 
  -14696   -14723   -14694   -14608   -14517   -14503   -14547   -14602 
  -14690   -14764   -14715   -14571   -14469   -14432   -14376   -14234 
  -14053   -13918   -13830   -13755   -13675   -13559   -13427   -13309 
  -13165   -13012   -12926   -12891   -12850   -12788   -12750   -12789 
  -12861   -12912   -12957   -12981   -12958   -12927   -12907   -12879 
  -12876   -12881   -12789   -12595   -12428   -12375   -12430   -12515 
  -12515   -12424   -12359   -12368   -12401   -12413   -12406   -12411 
  -12424   -12388   -12318   -12318   -12430   -12619   -12818   -12951 
  -13020   -13130   -13323   -13510   -13617   -13687   -13806   -13944 
  -13987   -13923   -13873   -13890   -13898   -13857   -13768   -13601 
  -13432   -13386   -13441   -13512   -13552   -13572   -13640   -13741 
  -13791   -13811   -13860   -13914   -13975   -14068   -14141   -14139 
  -14112   -14099   -14071   -14018   -13992   -14014   -14042   -14041 
  -14038   -14073   -14118   -14123   -14092   -14026   -13914   -13797 
