Origin Time       2025/01/13 21:19:00
Lat.              31.8
Long.             131.6
Depth. (km)       30
Mag.              6.9
Station Code      EHM014
Station Lat.      32.9451
Station Long.     132.5042
Station Height(m) 3
Record Time       2025/01/13 21:20:03
Sampling Freq(Hz) 100Hz
Duration Time(s)  92
Dir.              N-S
Scale Factor      7845(gal)/8223790
Max. Acc. (gal)   13.409
Last Correction   2025/01/13 21:20:03
Memo.             
[...]
    1560     2050     2755     3177     3238     3056     2975     2776 
    2203     1763     1401      940     1363     2567     3154     3337 
    3678     3447     2758     2565     2747     2586     1972     1626 
    2263     3176     3032     2097     1468     1378     1884     2844 
    3604     3991     3977     3407     2814     2493     2025     1588 
    1669     2096     2551     2889     2960     2690     2091     1445 
    1205     1343     1547     1768     2010     2367     2974     3412 
    3400     3245     2872     2276     2149     2560     2789     2600 
    2107     1435     1161     1606     2197     2451     2596     2911 
    3132     2832     2184     1867     2187     2629     2702     2632 
    2620     2400     2080     2270     2903     3164     2943     2706 
    2388     2010     2006     2363     2764     2984     2933     2978 
    3411     3657     3312     2913     2667     2528     2628     2462 
    2053     2317     2976     3333     3682     3605     2398     1296 
    1526     2081     1865     1151      313     -579    -1179     -862 
     584     2542     4263     5535     6269     6034     4660     2974 
    1952     1692     1898     2344     2650     2546     2255     2127 
    2280     2484     2209     1736     2184     3334     3801     3352 
    2484     1520     1086     1202     1308     1645     2151     2099 
    1991     2397     2539     2601     3488     4295     4125     3716 
    3240     2316     1445      847      322      291      868     1640 
    2654     3673     4044     3960     3847     3689     3670     3739 
    3585     3283     2793     2226     1926     1539      891      639 
    1128     2323     3699     4085     3712     3678     3607     3508 
    3933     3650     2361     1906     2317     2137     1597     1518 
    1544     1520     1891     2041     1410     1134     1679     1991 
    1981     2336     2852     3206     3638     4031     3966     3581 
    3021     2004      765      240      892     2266     3762     4909 
    5325     5103     4382     3154     1968     1274      880      785 
    1216     1965     2489     2570     2444     2299     2420     2932 
    3365     3528     3474     3122     2795     2565     2069     1796 
    2234     2519     2137     1842     1946     2112     2236     2303 
    2411     2604     2538     2184     2209     2714     2733     2091 
    1791     2106     2571     3021     3322     3443     3562     3762 
    4209     4711     4440     3531     3073     3002     2567     1742 
     830      260      310      677     1139     1664     2137     2731 
    3535     4113     4137     3742     3388     3160     2434     1262 
     486      260      484     1030     1381     1830     2758     3098 
    2633     2791     3705     4280     4232     3640     2786     2481 
    2646     2197     1026      179      329     1151     2006     2779 
    3495     3709     3275     2691     2396     2517     2936     3321 
    3310     2844     2231     1688     1472     1626     1332      583 
     938     2508     3443     3277     3021     2864     2593     2359 
    2209     2101     1980     1872     2100     2655     2874     2505 
    2317     3040     4117     4418     4133     4158     4101     3234 
    2193     1638     1094      429      280      707     1178     1464 
    1800     2492     3245     3565     3726     4079     4305     4117 
    3643     3082     2546     2054     1637     1401     1340     1217 
    1055     1428     2502     3507     3827     3628     3226     2619 
    1825     1167      885      801      776     1093     1765     2146 
    2234     2728     3500     4174     4741     4657     4117     4125 
    3952     2744     1610      990      382      394     1185     1815 
    2193     2550     2818     3424     4349     4788     4692     4703 
    4835     4384     3056     1463      145     -723     -750        6 
     773     1221     1620     2201     2893     3399     3694     3780 
    3465     3192     3524     4004     3890     3140     2357     2095 
    1977     1324      456      319     1228     2760     4187     4703 
    4255     3512     2887     2357     1755     1190     1065     1286 
    1412     1622     2327     3072     3118     2687     2582     3090 
    3789     4141     3989     3491     2790     1819      700       12 
     179      981     1645     1771     1842     2143     2749     4036 
    5494     6029     5672     4978     3763     2100     1032     1016 
    1455     1652     1239      888     1340     1876     1971     2182 
    2602     2817     2693     2336     1960     1579     1200     1345 
    2250     3292     4037     4432     4271     3685     3103     2725 
    2724     3022     3195     3003     2390     1561      831       25 
    -645     -341      635     1359     1885     2139     1829     1856 
    2722     3512     3902     4302     4677     4735     4083     2870 
    2131     2308     2748     2905     2687     2127     1417      795 
     259      -24      438     1341     1588     1225     1399     2165 
    2492     2280     2748     4488     6282     6967     6889     6390 
    5290     4070     2964     1386     -238     -872     -594     -232 
    -523     -990     -153     1796     3385     4472     5374     5599 
    4908     3584     2134     1429     1813     2698     3526     3759 
    3176     2648     2709     2708     2504     2562     2747     2848 
    2944     2826     2255     1464      673     -151     -603     -253 
     496     1181     1687     2093     2814     3774     4244     4216 
    4175     4118     4050     3915     3225     2169     1564     1336 
     934      538      449      548      865     1318     1678     2187 
    2824     3142     3194     3080     2833     2899     3406     3967 
    4279     3839     2502     1447     1540     2208     2826     3001 
    2512     1988     1764     1435     1248     1402     1424     1769 
    2879     3442     2670     1728     1378     1354     1567     1850 
    2143     2789     3389     3295     2803     2342     2147     2444 
    2786     2763     2706     2701     2462     2060     1692     1397 
    1389     1863     2585     3127     3102     2488     1827     1715 
    2398     3396     3877     4095     4772     5314     4958     4183 
    3547     2992     2389     1648      882      523      685     1016 
    1529     2398     3325     4005     4417     4577     4465     4062 
    3611     3326     3010     2511     1844     1105      777     1344 
    2304     2771     2987     3650     4348     4387     4051     3885 
    3732     3044     1831      994     1024     1320     1609     2138 
    2682     2875     2706     2594     3024     3688     3796     3132 
    2149     1306      787      766     1412     2496     3550     4383 
    4749     4016     2219      607      130      417      915     1559 
    2060     2154     2112     2282     2893     3742     3991     3356 
    2698     2563     2581     2524     2454     2328     2385     2712 
    2737     2346     2095     2004     2030     2646     3342     2999 
    2268     2334     2552     2204     1841     1736     1782     1966 
    1987     1817     1497      645      -52      638     2080     3211 
    4367     5247     4692     3172     2189     2214     2790     3149 
    2934     2631     2359     1525      372      -49      534     1678 
    2943     3913     4590     5078     5026     4550     4051     3087 
    1746     1290     2006     2879     3240     3040     2471     1919 
    1655     1435      992      814     1453     2501     2929     1992 
     108    -1318    -1479     -841     -365     -504     -683     -315 
     186      314       66     -232       24      832     1737     2941 
    4436     5520     5776     5200     4314     3658     2820     1702 
    1155     1472     2342     3427     4220     4542     4307     3075 
    1476     1273     2910     4997     6347     6681     5749     3569 
    1086     -400     -256     1173     3114     4907     6011     6193 
    5494     4048     2232      398    -1028    -1291     -191     1471 
    2749     2972     1782       12     -537      661     2581     4237 
    4841     4137     2965     2120     2030     3123     4741     5449 
    5007     4249     3686     2959     1474     -384    -1690    -2228 
   -1950     -664     1266     3495     5741     6835     5877     3669 
    1858     1602     2840     4612     6135     7021     6891     5665 
    3950     2351      843     -446     -888     -261     1020     2448 
    3496     4090     4687     4626     2956     1298     1684     3157 
    3971     3878     3291     2948     2879     2000      718      595 
    1336     1772     1958     2358     3025     3832     4056     2855 
    1028      225      556     1128     1632     1942     1853     1610 
    1497     1478     1848     3091     4672     5350     4780     3600 
    2524     1972     1737     1582     1925     2698     3331     4120 
    5366     6484     6975     6723     5611     3835     2065      959 
     693      900      977      675      409      702     1143      637 
    -592     -881      238     1745     2871     3229     3082     3140 
    3075     2469     2002     2234     3075     3885     3689     2470 
    1146      333      348     1256     2428     3042     2731     1807 
    1024      675      257     -562    -1048     -147     1853     3445 
    3788     3179     1904      211    -1061     -946      934     4101 
    7140     8545     8210     6956     4907     2353      641      334 
     689     1298     2000     2060     1204      386      517     1738 
    3701     5213     5436     5343     5637     5406     4421     3827 
    4093     4669     4892     4005     2035       17    -1570    -2681 
   -2776    -1525      781     3391     5061     5308     5027     4506 
    3106     1482     1243     2570     4410     5904     6269     5505 
    4599     3580     2170     1102      419     -336     -720     -800 
   -1194    -1219     -118     1124     1651     1957     2323     2578 
    2644     2068     1088     1217     2776     4139     4137     3184 
    2477     2654     2666     1308     -608    -1657    -1645     -826 
     884     3381     5757     6735     5822     3804     2196     1931 
    2689     3680     4214     3765     2145     -352    -2722    -3850 
   -3342    -1517     1030     3723     5719     6442     6184     5174 
    3690     2467     1827     1879     2614     3349     3353     2633 
    1629      402     -997    -1759    -1310       18     1671     3053 
    3769     3584     2276      368    -1166    -1923    -1729     -372 
    1890     4276     6253     7923     9101     9047     7221     3483 
   -1062    -3651    -2770      -47     2528     4266     4441     3056 
    1379       86     -654     -373      859     2562     4506     6223 
    6948     6717     6397     6199     5464     3931     2235     1228 
     931      758      580      630      970     1347     1647     2228 
    3140     3788     3608     2679     1408      -85    -1524    -2162 
   -1620     -280     1429     3491     5520     6473     5838     4441 
    3524     3483     4074     5162     6315     6880     6696     5578 
    3141       39    -2245    -3026    -2328     -256     2342     4314 
    5432     5628     4617     3130     2205     1753     1240      463 
    -268     -114     1270     2951     3662     3422     3333     3568 
    2975     1042    -1085    -1881     -973     1039     3480     5489 
    6238     6039     6019     6346     6142     5331     4862     4922 
    4788     4284     3744     2974     1664      163     -878     -832 
     406     1680     1834     1568     2301     3952     5227     5132 
    3678     1509     -658    -1961    -1949    -1422    -1215     -982 
    -214     1144     2594     3099     2810     2828     2918     2559 
    2748     4588     7203     8409     7570     6139     5089     3801 
    1960      687      666      965      483     -689    -1615    -1984 
   -2297    -2590    -2573    -2085     -626     1948     4594     6482 
    7955     8950     8773     7846     7183     7057     7566     8561 
    8841     7496     5310     3087      286    -3179    -5663    -5694 
   -3780    -1435      502     2196     3885     4699     3831     2551 
    2673     4317     6488     7948     7769     6150     4054     2007 
     361      171     1647     3098     3354     2925     2296     1668 
    1871     3098     4051     4203     3753     1790    -1499    -4074 
   -4972    -4409    -2579     -265     1421     2133     2053     1351 
     872     1999     4847     7947    10183    11475    11758    10872 
    8625     4954     1197     -600     -280      490      380     -506 
   -1166    -1350    -2160    -3790    -4958    -5451    -5373    -3773 
    -777     2539     5454     7469     8768     9482     9123     7489 
    5171     3685     4008     4896     4903     4322     3021     -448 
   -5606    -9301    -9779    -8349    -6199    -3149      421     3707 
    6340     7892     8337     8441     8460     8101     7870     8321 
    8758     7932     5267     1935      179      525     1702     3068 
    4321     4540     3314      795    -2700    -5622    -6196    -4395 
    -876     3605     7099     7585     5094     1339    -2196    -4384 
   -3996    -1097     2787     6156     8468    10282    11892    12607 
   11769     9713     8063     7981     8245     6686     2790    -1938 
   -5826    -8359    -9957   -11157   -11595   -10083    -6154    -1171 
    2593     4585     6328     8523    10222    10465     9008     6516 
    4006     1752     -413    -2489    -4128    -4394    -2754        4 
    2745     5120     7585    10266    11927    11252     8757     6251 
    5223     5792     6331     4885     1549    -1584    -3237    -3935 
   -3797    -2045     1300     4865     6759     6358     4735     2562 
     -89    -2238    -2714     -668     4068     8959    10594     8403 
    3667    -1803    -5494    -5779    -3045      938     4337     6050 
    5266     2150    -1077    -2088     -780     1510     3611     4882 
    5679     6575     6739     5502     4143     3906     4307     3982 
    2627     1777     2481     3619     3770     3368     4017     5680 
    6459     5476     3622     2146     1637     1459      604     -777 
   -1761    -1733     -479     1324     2285     2066     1821     2385 
    3026     2771     2095     1987     2658     3847     4978     5494 
    5543     5208     3927     1979     1367     3392     5937     5717 
    2748      -85     -918     -317      172      -48      132     1935 
    4571     6054     5760     4941     4758     5084     5601     6447 
    7561     8660     9220     8082     4575       62    -3107    -4190 
   -4355    -4456    -3856    -1509     2451     6130     7555     7042 
    6150     5073     3230     1225      199      209      469      499 
     521     1067     2112     2835     2562     1630      700        4 
    -287     -120      344      984     1182       72    -2092    -3844 
   -3732    -1279     2706     6424     8422     8712     7854     5940 
    3334      780    -1344    -2833    -3519    -3325    -2104       40 
    2381     4017     4992     5864     6207     5733     5287     5112 
    4733     4199     3875     4162     5119     5952     5686     3786 
     538    -2234    -2560     -861      880     1906     2731     3711 
    5055     6054     5059     2482      302    -1201    -2398    -2883 
   -2111      553     4737     8676    10956    11317    10133     7873 
    5080     2187     -554    -2485    -3222    -3198    -2671    -2147 
   -2238    -2052     -433     2052     4128     4754     3181      467 
    -761      368     2494     4557     6326     7357     7022     5119 
    1679    -2342    -4383    -3056      318     4128     7323     9045 
    9255     8052     5314     2382     1672     3694     6868     9958 
   11867    11496     9508     6729     3252      429     -904    -1622 
   -1834    -1610    -2380    -4317    -5815    -6147    -5259    -3003 
    -221     1972     3295     3935     4098     3825     3538     4210 
    6089     8098     8630     6760     3366      506     -658     -237 
    1213     2725     3672     4213     4001     2736     1587     1647 
    2520     3169     2781     1660     1058     1444     2359     3407 
    4164     4066     2967     1452      268       63     1348     3416 
    4529     4086     2755      804    -1424    -2714    -2562    -1699 
    -121     3073     7491    10820    10783     7267     2482    -1243 
   -3497    -4783    -4646    -2767     -402     1248     2326     3338 
    4440     5313     5599     5552     5333     4522     3060     1283 
    -729    -2556    -3076    -1842      256     2002     2766     2735 
    2355     2057     2421     3279     3754     3935     4465     5532 
    7118     8604     9119     8667     7662     6354     5053     4140 
    3900     3797     2605      279    -1795    -2810    -2878    -2127 
   -1075     -256      583     1147      899     1173     3105     5413 
    6851     7267     6505     5167     4054     2624      716     -318 
     225     1478     2265     2112     1425     1065     1521     2170 
    2073     1721     1991     2282     1734      562     -633    -1478 
   -1648     -676     1270     2907     3585     4185     5123     5695 
    5865     6448     7511     8170     7722     6188     4178     2416 
    1143      268     -187     -201      379     1614     2974     3977 
    4449     3917     2207       24    -2019    -3829    -5051    -4972 
   -3256     -526     1757     2475     2043     1513      899     -129 
    -974     -815      -13      121     -631    -1030     -394      820 
    1949     2766     3832     5501     6864     6879     5949     5506 
    5799     5532     4158     2355      642     -660    -1306    -1524 
   -1340     -352     1347     3154     4665     5830     6932     8110 
    8986     9030     7886     5934     4301     3592     3458     3288 
    2683     2066     2334     3227     3693     3411     2727     2407 
    2943     3604     3632     2956     1755      899     1227     2292 
    3052     3010     2516     2330     2837     3646     3996     3591 
    2852     2432     2569     2824     2663     2219     1975     1993 
    1861     1051     -132     -229     1209     2809     3757     4247 
    4271     4062     4044     4099     4206     4633     4862     4050 
    2301      565     -151      205      600      394      236     1086 
    2481     2926     2205     1248      422     -220     -319      336 
    1694     3379     4495     4438     3680     2894     2419     2774 
    3870     4558     4456     4330     4336     3777     2405      787 
    -251     -229      256      145     -202      457     2155     3701 
    4182     4086     4639     5903     6569     5709     3734     1777 
     909     1517     3010     4395     4895     4205     2682      927 
    -668    -1721    -1888    -1123      419     2331     3813     4217 
    3777     3337     3422     4017     4932     5867     6270     5553 
    3411      365    -2088    -2914    -2504    -1209     1165     3913 
    5753     6296     5950     5341     4878     4333     3512     2866 
    2338     1026    -1067    -2673    -2886    -1865     -243     1436 
