Origin Time       2025/01/13 21:19:00
Lat.              31.8
Long.             131.6
Depth. (km)       30
Mag.              6.9
Station Code      EHM003
Station Lat.      33.9253
Station Long.     133.0844
Station Height(m) 4
Record Time       2025/01/13 21:20:59
Sampling Freq(Hz) 100Hz
Duration Time(s)  60
Dir.              N-S
Scale Factor      7845(gal)/8223790
Max. Acc. (gal)   5.821
Last Correction   2025/01/13 21:20:58
Memo.             
[...]
  -10662   -10735   -10732   -10860   -11133   -11302   -11385   -11512 
  -11585   -11549   -11583   -11701   -11693   -11600   -11587   -11554 
  -11464   -11450   -11448   -11331   -11213   -11209   -11269   -11342 
  -11468   -11591   -11589   -11649   -11938   -12160   -12155   -12133 
  -12063   -11840   -11678   -11635   -11534   -11418   -11371   -11349 
  -11385   -11550   -11704   -11664   -11539   -11484   -11379   -11207 
  -11146   -11118   -11022   -11061   -11225   -11287   -11311   -11426 
  -11479   -11379   -11303   -11335   -11335   -11327   -11457   -11597 
  -11661   -11770   -11832   -11711   -11565   -11491   -11403   -11360 
  -11454   -11583   -11601   -11534   -11439   -11298   -11186   -11151 
  -11029   -10820   -10736   -10754   -10666   -10565   -10667   -10871 
  -11049   -11307   -11610   -11777   -11805   -11847   -11962   -12108 
  -12240   -12252   -12133   -12035   -12025   -12015   -11924   -11790 
  -11708   -11630   -11522   -11487   -11410   -11206   -11114   -11168 
  -11198   -11287   -11529   -11736   -11778   -11803   -11831   -11736 
  -11624   -11543   -11350   -11179   -11213   -11283   -11272   -11326 
  -11479   -11581   -11705   -12020   -12322   -12491   -12699   -12829 
  -12699   -12491   -12301   -12019   -11759   -11673   -11580   -11419 
  -11416   -11481   -11371   -11283   -11385   -11431   -11380   -11437 
  -11523   -11470   -11394   -11414   -11421   -11379   -11389   -11317 
  -11075   -10952   -10964   -10870   -10775   -10786   -10766   -10755 
  -10879   -11038   -11047   -11021   -11068   -10912   -10612   -10476 
  -10253    -9811    -9578    -9661    -9802   -10011   -10374   -10696 
  -10864   -10949   -10955   -10921   -10976   -11176   -11349   -11430 
  -11568   -11650   -11538   -11416   -11319   -11065   -10773   -10698 
  -10665   -10477   -10412   -10548   -10612   -10677   -10890   -11017 
  -11003   -11033   -11005   -10833   -10793   -10999   -11153   -11110 
  -11200   -11475   -11529   -11466   -11612   -11696   -11630   -11668 
  -11707   -11689   -11871   -12221   -12278   -11917   -11658   -11726 
  -11759   -11695   -11715   -11614   -11272   -11005   -10820   -10488 
  -10253   -10411   -10650   -10647   -10670   -10898   -11114   -11308 
  -11530   -11603   -11643   -11900   -12047   -11738   -11342   -11284 
  -11348   -11246   -11137   -11132   -11105   -11102   -11232   -11399 
  -11601   -11928   -12244   -12387   -12413   -12409   -12437   -12513 
  -12447   -12091   -11720   -11610   -11510   -11267   -11205   -11364 
  -11491   -11595   -11763   -11928   -12074   -12193   -12187   -12096 
  -12012   -11884   -11696   -11534   -11398   -11232   -11049   -10901 
  -10728   -10436   -10191   -10160   -10162   -10099   -10192   -10439 
  -10648   -10867   -11097   -11218   -11368   -11655   -11916   -11992 
  -11932   -11855   -11754   -11618   -11543   -11543   -11574   -11730 
  -12013   -12236   -12461   -12829   -13096   -13088   -13005   -12896 
  -12627   -12364   -12229   -12019   -11750   -11658   -11672   -11592 
  -11512   -11562   -11570   -11512   -11605   -11758   -11788   -11871 
  -12070   -12105   -11943   -11904   -11977   -11932   -11912   -12035 
  -12094   -12141   -12329   -12447   -12440   -12563   -12742   -12772 
  -12789   -12911   -13018   -13077   -13158   -13181   -12969   -12563 
  -12201   -11897   -11535   -11279   -11252   -11326   -11515   -11803 
  -11961   -12046   -12204   -12271   -12231   -12170   -11981   -11720 
  -11569   -11518   -11476   -11385   -11287   -11194   -11072   -11033 
  -11086   -11052   -11014   -11183   -11406   -11445   -11465   -11518 
  -11346   -11172   -11304   -11464   -11519   -11672   -11842   -11859 
  -11866   -12001   -12086   -12102   -12266   -12417   -12351   -12268 
  -12271   -12179   -11969   -11859   -11875   -11838   -11762   -11770 
  -11867   -12016   -12136   -12097   -11925   -11820   -11743   -11512 
  -11238   -11075   -10935   -10770   -10689   -10741   -10789   -10793 
  -10924   -11075   -11029   -10952   -11018   -11110   -11175   -11229 
  -11098   -10818   -10725   -10740   -10609   -10496   -10497   -10419 
  -10273   -10176    -9968    -9626    -9454    -9468    -9410    -9293 
   -9274    -9309    -9331    -9408    -9482    -9437    -9443    -9630 
   -9811    -9933   -10164   -10435   -10621   -10866   -11203   -11411 
  -11503   -11747   -12101   -12318   -12468   -12598   -12567   -12496 
  -12494   -12401   -12247   -12204   -12244   -12286   -12361   -12460 
  -12428   -12235   -12073   -11936   -11678   -11419   -11303   -11157 
  -10945   -10848   -10732   -10481   -10354   -10318   -10116    -9919 
   -9891    -9803    -9641    -9598    -9570    -9481    -9551    -9764 
   -9844    -9796    -9834    -9915    -9886    -9819    -9803    -9775 
   -9848   -10130   -10353   -10457   -10682   -10947   -11094   -11219 
  -11400   -11565   -11639   -11704   -11809   -11774   -11682   -11817 
  -11985   -11990   -12102   -12270   -12194   -12096   -12098   -11936 
  -11734   -11673   -11616   -11558   -11576   -11599   -11550   -11543 
  -11645   -11637   -11495   -11466   -11469   -11331   -11238   -11303 
  -11365   -11338   -11365   -11523   -11657   -11761   -11912   -11921 
  -11815   -11875   -12121   -12441   -12756   -12892   -12857   -12908 
  -13076   -13181   -13225   -13204   -13066   -12823   -12556   -12461 
  -12479   -12376   -12221   -12085   -11915   -11738   -11599   -11489 
  -11429   -11403   -11225   -10920   -10840   -10986   -11010   -10821 
  -10597   -10482   -10409   -10332   -10304   -10162    -9888    -9763 
   -9659    -9470    -9491    -9563    -9436    -9373    -9400    -9346 
   -9302    -9364    -9487    -9589    -9626    -9663    -9748    -9880 
  -10010   -10044   -10035   -10192   -10431   -10509   -10643   -10966 
  -11146   -11157   -11184   -11175   -11152   -11198   -11254   -11314 
  -11489   -11658   -11628   -11597   -11743   -11877   -11885   -11886 
  -11927   -11866   -11680   -11535   -11421   -11254   -11122   -11029 
  -10932   -10901   -10932   -10929   -10902   -10968   -11155   -11275 
  -11315   -11510   -11709   -11654   -11546   -11523   -11437   -11352 
  -11392   -11408   -11372   -11457   -11592   -11668   -11842   -12129 
  -12297   -12336   -12451   -12618   -12669   -12707   -12849   -12939 
  -12996   -13165   -13338   -13524   -13927   -14404   -14744   -15074 
  -15452   -15719   -15871   -15992   -15966   -15743   -15472   -15209 
  -14867   -14420   -13992   -13591   -13119   -12719   -12437   -12118 
  -11863   -11751   -11605   -11418   -11373   -11431   -11372   -11272 
  -11326   -11394   -11340   -11238   -11068   -10789   -10442   -10122 
   -9886    -9698    -9674    -9796    -9864   -10066   -10484   -10729 
  -10752   -10700   -10466   -10077    -9690    -9305    -8895    -8473 
   -8141    -7989    -7940    -8001    -8206    -8391    -8615    -9009 
   -9363    -9655    -9999   -10181   -10129   -10143   -10361   -10488 
  -10439   -10548   -10805   -10913   -10887   -10928   -11067   -11238 
  -11541   -11843   -11794   -11738   -12116   -12480   -12502   -12568 
  -12731   -12762   -12872   -13093   -13261   -13562   -13936   -14050 
  -14007   -14061   -14234   -14428   -14590   -14706   -14720   -14686 
  -14737   -14843   -14941   -15086   -15290   -15290   -14958   -14716 
  -14778   -14781   -14507   -14156   -13888   -13640   -13320   -12873 
  -12448   -12224   -11855   -11128   -10531   -10326   -10197    -9963 
   -9734    -9694    -9872   -10087   -10247   -10416   -10713   -11176 
  -11472   -11377   -11418   -11931   -12168   -11875   -11797   -11786 
  -11502   -11473   -11538   -11199   -10926   -11032   -10966   -10534 
  -10350   -10463   -10361   -10131    -9860    -9404    -9035    -8880 
   -8689    -8440    -8302    -8229    -8055    -7715    -7284    -7107 
   -7252    -7223    -7037    -7095    -7200    -7260    -7457    -7619 
   -7727    -7879    -7990    -8090    -8179    -8145    -8168    -8368 
   -8500    -8588    -8746    -8765    -8691    -8715    -8748    -8650 
   -8495    -8472    -8488    -8368    -8270    -8290    -8298    -8318 
   -8472    -8746    -9035    -9333    -9722   -10134   -10538   -11053 
  -11600   -12037   -12488   -12953   -13262   -13512   -13838   -14126 
  -14249   -14315   -14451   -14539   -14523   -14489   -14353   -14107 
  -13973   -13948   -13830   -13622   -13419   -13171   -12958   -12856 
  -12644   -12349   -12228   -12144   -12006   -11988   -12051   -12087 
  -12114   -12125   -12027   -11820   -11684   -11600   -11380   -11206 
  -11275   -11383   -11462   -11688   -11978   -12151   -12361   -12698 
  -12919   -13035   -13258   -13471   -13540   -13622   -13782   -13849 
  -13826   -13817   -13743   -13586   -13478   -13458   -13433   -13446 
  -13622   -13751   -13612   -13536   -13698   -13794   -13776   -13786 
  -13771   -13734   -13744   -13699   -13486   -13248   -13146   -13019 
  -12758   -12546   -12403   -12197   -11994   -11892   -11770   -11497 
  -11211   -11045   -10863   -10700   -10682   -10538   -10224   -10046 
   -9865    -9595    -9432    -9197    -8792    -8533    -8560    -8654 
   -8671    -8783    -9067    -9254    -9296    -9445    -9647    -9806 
  -10054   -10261   -10330   -10565   -10971   -11225   -11341   -11558 
  -11851   -12104   -12433   -12776   -12846   -12781   -12823   -12820 
  -12706   -12575   -12451   -12428   -12582   -12738   -12690   -12552 
  -12586   -12625   -12421   -12167   -11924   -11649   -11522   -11396 
  -11040   -10740   -10755   -10849   -10820   -10832   -10925   -10956 
  -11063   -11281   -11358   -11340   -11484   -11700   -11735   -11634 
  -11539   -11476   -11500   -11584   -11529   -11302   -11122   -11082 
  -11024   -10893   -10771   -10696   -10648   -10574   -10465   -10377 
  -10258    -9963    -9462    -9028    -8820    -8532    -8082    -7840 
   -7875    -8013    -8263    -8581    -8895    -9188    -9333    -9325 
   -9432    -9695    -9842    -9913   -10060   -10137   -10258   -10511 
  -10563   -10562   -10813   -11017   -10953   -10866   -10970   -11223 
  -11421   -11406   -11286   -11325   -11562   -11763   -11817   -11853 
  -12009   -12195   -12214   -12216   -12351   -12442   -12518   -12684 
  -12760   -12673   -12600   -12571   -12537   -12530   -12449   -12248 
  -12113   -12148   -12222   -12325   -12587   -12837   -12933   -13038 
  -13153   -13162   -13161   -13231   -13254   -13177   -13149   -13149 
  -13023   -12876   -12842   -12783   -12614   -12542   -12573   -12533 
  -12573   -12783   -13005   -13292   -13698   -14056   -14324   -14609 
  -14824   -14843   -14736   -14497   -14058   -13517   -12984   -12436 
  -11854   -11344   -10939   -10550   -10299   -10328   -10378   -10324 
  -10443   -10701   -10791   -10758   -10717   -10635   -10550   -10551 
  -10624   -10602   -10503   -10531   -10521   -10357   -10334   -10373 
  -10193   -10030   -10092   -10131   -10025    -9992    -9954    -9734 
   -9644    -9694    -9547    -9363    -9320    -9186    -8957    -8856 
   -8865    -8860    -8880    -8980    -9124    -9294    -9537    -9836 
  -10072   -10296   -10561   -10714   -10817   -11059   -11314   -11434 
  -11526   -11611   -11569   -11448   -11338   -11172   -10926   -10712 
  -10558   -10319   -10106   -10200   -10311   -10161   -10133   -10327 
  -10465   -10609   -10805   -10940   -11110   -11446   -11803   -11975 
  -12167   -12576   -12860   -12870   -12896   -12918   -12850   -12819 
  -12738   -12519   -12275   -12154   -12125   -11982   -11821   -11774 
  -11691   -11713   -11925   -12074   -12193   -12328   -12325   -12221 
  -12140   -12147   -12074   -11812   -11736   -11925   -12091   -12333 
  -12611   -12761   -13078   -13547   -13751   -13724   -13776   -14019 
  -14270   -14284   -14134   -13999   -13953   -14023   -14003   -13792 
  -13653   -13591   -13446   -13288   -13189   -13131   -13065   -13005 
  -12987   -12860   -12746   -12846   -12816   -12588   -12522   -12445 
  -12195   -12078   -12081   -12017   -11997   -12097   -12251   -12357 
  -12341   -12341   -12437   -12536   -12614   -12532   -12218   -11921 
  -11743   -11666   -11592   -11319   -11018   -10782   -10484   -10334 
  -10293   -10176   -10226   -10347   -10366   -10559   -10844   -10952 
  -11014   -11061   -10944   -10787   -10704   -10493   -10031    -9536 
   -9202    -8795    -8282    -8166    -8262    -8008    -7874    -8171 
   -8283    -8252    -8479    -8672    -8665    -8706    -8854    -8943 
   -9022    -9310    -9595    -9690    -9849    -9953    -9828    -9799 
   -9776    -9450    -9204    -9306    -9310    -8966    -8631    -8565 
   -8532    -8444    -8532    -8545    -8272    -8198    -8299    -8176 
   -8140    -8359    -8486    -8491    -8568    -8752    -8942    -9169 
   -9549    -9907   -10200   -10692   -11291   -11813   -12382   -12981 
  -13560   -14141   -14651   -15080   -15337   -15456   -15618   -15631 
  -15492   -15489   -15427   -15184   -15025   -14943   -14875   -14864 
  -14875   -14937   -14986   -14999   -15103   -15186   -15192   -15268 
  -15350   -15377   -15431   -15446   -15358   -15245   -15140   -14952 
  -14646   -14396   -14243   -14011   -13797   -13687   -13478   -13236 
  -13109   -12949   -12746   -12579   -12345   -11978   -11576   -11237 
  -10843   -10297    -9814    -9421    -8910    -8442    -8167    -7905 
   -7670    -7566    -7450    -7267    -7122    -7014    -6855    -6666 
   -6563    -6459    -6207    -6006    -5913    -5740    -5609    -5560 
   -5424    -5305    -5333    -5390    -5391    -5436    -5598    -5772 
   -5904    -6131    -6446    -6664    -6886    -7263    -7642    -8002 
   -8446    -8880    -9285    -9701   -10084   -10405   -10660   -10943 
  -11264   -11456   -11620   -11916   -12114   -12159   -12262   -12401 
  -12494   -12596   -12704   -12769   -12825   -12985   -13205   -13300 
  -13352   -13552   -13743   -13886   -14123   -14262   -14269   -14369 
  -14451   -14391   -14370   -14469   -14486   -14338   -14237   -14281 
  -14301   -14253   -14210   -14111   -14017   -14110   -14277   -14327 
  -14359   -14480   -14654   -14878   -15090   -15210   -15291   -15442 
  -15631   -15685   -15623   -15611   -15564   -15418   -15311   -15179 
  -14994   -14955   -14931   -14685   -14465   -14517   -14638   -14607 
  -14543   -14565   -14557   -14520   -14582   -14620   -14519   -14453 
  -14401   -14247   -14127   -14022   -13819   -13657   -13587   -13500 
  -13362   -13232   -13157   -13030   -12800   -12591   -12375   -12094 
  -11894   -11722   -11450   -11246   -11122   -10897   -10620   -10411 
  -10242    -9987    -9652    -9371    -9026    -8565    -8218    -7932 
   -7572    -7303    -7160    -7029    -6948    -6961    -7011    -7036 
   -7086    -7257    -7423    -7496    -7653    -7867    -8017    -8228 
   -8500    -8672    -8795    -9009    -9265    -9436    -9613    -9900 
  -10139   -10323   -10652   -10984   -11180   -11456   -11808   -12005 
  -12151   -12360   -12463   -12460   -12511   -12533   -12414   -12278 
  -12181   -11966   -11655   -11469   -11354   -11148   -10993   -10967 
  -10882   -10778   -10791   -10808   -10766   -10756   -10762   -10709 
  -10698   -10777   -10760   -10640   -10615   -10619   -10486   -10363 
  -10382   -10368   -10273   -10269   -10307   -10272   -10277   -10381 
  -10431   -10404   -10417   -10386   -10223   -10095   -10027    -9884 
   -9753    -9734    -9764    -9828    -9971   -10181   -10385   -10588 
  -10860   -11109   -11253   -11439   -11618   -11664   -11765   -11952 
  -12031   -12078   -12201   -12286   -12318   -12387   -12471   -12492 
  -12478   -12510   -12505   -12413   -12380   -12368   -12252   -12190 
  -12213   -12127   -11988   -11940   -11885   -11794   -11804   -11853 
  -11824   -11801   -11861   -11923   -11932   -12013   -12182   -12271 
  -12345   -12499   -12607   -12672   -12785   -12860   -12872   -12955 
  -13069   -13097   -13111   -13143   -13082   -12920   -12799   -12691 
  -12433   -12139   -11916   -11601   -11261   -11052   -10822   -10548 
  -10374   -10238   -10017    -9790    -9671    -9572    -9412    -9320 
   -9275    -9111    -8957    -8957    -8920    -8820    -8884    -8976 
   -8938    -8973    -9085    -9108    -9134    -9269    -9405    -9478 
   -9601    -9772    -9836    -9883   -10026   -10104   -10130   -10305 
  -10534   -10662   -10848   -11156   -11396   -11597   -11884   -12123 
  -12253   -12388   -12511   -12532   -12510   -12546   -12561   -12492 
  -12465   -12488   -12438   -12399   -12465   -12494   -12442   -12449 
  -12468   -12438   -12475   -12580   -12630   -12660   -12816   -13027 
  -13147   -13304   -13566   -13737   -13814   -13945   -14056   -14072 
  -14122   -14216   -14246   -14261   -14355   -14446   -14436   -14408 
  -14409   -14310   -14134   -14053   -13987   -13828   -13699   -13605 
  -13419   -13190   -13026   -12847   -12618   -12471   -12386   -12197 
  -11996   -11900   -11731   -11458   -11269   -11102   -10856   -10640 
  -10476   -10255   -10000    -9838    -9720    -9545    -9445    -9437 
   -9333    -9194    -9207    -9231    -9153    -9161    -9219    -9136 
   -9078    -9128    -9107    -9080    -9188    -9301    -9336    -9472 
   -9733    -9936   -10160   -10512   -10808   -11029   -11341   -11645 
  -11819   -12010   -12259   -12384   -12467   -12685   -12879   -12946 
  -13068   -13227   -13261   -13269   -13327   -13265   -13131   -13108 
  -13085   -12962   -12911   -12926   -12800   -12615   -12514   -12349 
  -12060   -11815   -11631   -11381   -11113   -10933   -10740   -10484 
  -10324   -10196    -9931    -9660    -9464    -9196    -8851    -8577 
   -8330    -8009    -7712    -7514    -7295    -7055    -6912    -6801 
   -6629    -6498    -6426    -6292    -6160    -6134    -6107    -6026 
   -6011    -6095    -6195    -6336    -6590    -6897    -7195    -7551 
   -7993    -8448    -8922    -9481   -10052   -10561   -11111   -11745 
  -12314   -12815   -13381   -13950   -14396   -14831   -15340   -15769 
  -16089   -16420   -16696   -16864   -17055   -17261   -17319   -17302 
  -17362   -17373   -17267   -17220   -17217   -17107   -16985   -16929 
  -16781   -16559   -16420   -16274   -15978   -15655   -15381   -15010 
  -14578   -14254   -13936   -13504   -13132   -12873   -12576   -12306 
  -12123   -11892   -11608   -11404   -11240   -10995   -10797   -10719 
  -10558   -10347   -10281   -10227   -10095   -10058   -10069    -9973 
   -9890    -9907    -9875    -9787    -9836    -9949    -9956    -9992 
  -10119   -10177   -10216   -10338   -10409   -10409   -10490   -10611 
  -10658   -10723   -10824   -10845   -10814   -10856   -10949   -10970 
  -10990   -11097   -11145   -11121   -11180   -11281   -11340   -11439 
  -11588   -11672   -11695   -11753   -11757   -11620   -11484   -11379 
  -11194   -11002   -10899   -10786   -10612   -10493   -10424   -10274 
  -10112   -10050    -9979    -9871    -9864    -9925    -9945   -10003 
  -10160   -10304   -10374   -10459   -10554   -10558   -10538   -10585 
  -10617   -10606   -10678   -10804   -10847   -10881   -10995   -11061 
  -11036   -11067   -11105   -11009   -10909   -10871   -10755   -10594 
  -10501   -10378   -10187   -10084   -10058    -9961    -9873    -9890 
   -9872    -9798    -9836    -9927    -9938   -10008   -10149   -10196 
  -10237   -10351   -10396   -10345   -10351   -10409   -10386   -10363 
