Origin Time       2025/01/13 21:19:00
Lat.              31.8
Long.             131.6
Depth. (km)       30
Mag.              6.9
Station Code      EHM013
Station Lat.      33.3917
Station Long.     132.1140
Station Height(m) 15
Record Time       2025/01/13 21:20:22
Sampling Freq(Hz) 100Hz
Duration Time(s)  71
Dir.              N-S
Scale Factor      7845(gal)/8223790
Max. Acc. (gal)   2.548
Last Correction   2025/01/13 21:20:22
Memo.             
[...]
    3915     3990     3994     3892     3753     3591     3411     3241 
    3150     3187     3244     3279     3310     3287     3322     3495 
    3628     3684     3758     3823     3815     3707     3558     3441 
    3339     3268     3276     3379     3551     3719     3771     3667 
    3492     3343     3267     3275     3316     3358     3465     3659 
    3827     3862     3807     3784     3800     3794     3781     3775 
    3777     3835     3909     3897     3819     3770     3747     3719 
    3708     3667     3510     3304     3200     3214     3245     3215 
    3146     3129     3195     3283     3330     3356     3393     3473 
    3586     3654     3640     3611     3601     3609     3619     3591 
    3522     3481     3512     3543     3454     3284     3176     3167 
    3238     3353     3384     3329     3312     3357     3426     3503 
    3547     3539     3484     3453     3505     3565     3588     3680 
    3878     4121     4376     4604     4731     4711     4573     4378 
    4190     4037     3861     3635     3445     3346     3294     3237 
    3238     3360     3553     3758     3919     3989     3944     3780 
    3527     3260     3125     3194     3356     3580     3840     4006 
    4081     4068     3910     3734     3661     3623     3543     3461 
    3380     3234     3107     3113     3149     3190     3318     3478 
    3595     3677     3734     3761     3727     3623     3469     3308 
    3279     3458     3734     3939     3994     3967     3963     3948 
    3838     3634     3416     3287     3300     3399     3441     3397 
    3373     3399     3460     3527     3514     3422     3361     3387 
    3476     3564     3578     3531     3497     3493     3516     3585 
    3666     3732     3817     3897     3894     3789     3654     3585 
    3573     3584     3654     3726     3717     3666     3601     3530 
    3472     3441     3458     3487     3514     3561     3555     3473 
    3384     3315     3276     3308     3419     3524     3526     3435 
    3342     3289     3300     3411     3554     3592     3561     3591 
    3659     3719     3819     3906     3888     3835     3834     3855 
    3800     3655     3545     3503     3470     3460     3469     3507 
    3611     3688     3609     3414     3203     3073     3099     3206 
    3260     3300     3437     3636     3831     3991     4079     4083 
    4062     4063     4062     3954     3686     3406     3261     3207 
    3171     3159     3163     3156     3159     3245     3426     3638 
    3866     4067     4136     4075     3991     3958     3966     3975 
    3971     3944     3855     3751     3743     3796     3773     3692 
    3631     3542     3399     3250     3087     2920     2848     2951 
    3160     3346     3464     3508     3514     3557     3628     3666 
    3704     3739     3734     3739     3819     3931     3990     3987 
    3935     3839     3778     3763     3689     3558     3443     3330 
    3258     3298     3369     3379     3338     3273     3217     3206 
    3218     3217     3196     3187     3196     3206     3246     3327 
    3387     3437     3537     3645     3690     3684     3672     3657 
    3642     3630     3630     3634     3611     3573     3557     3561 
    3558     3557     3585     3639     3685     3678     3620     3576 
    3626     3781     3937     4000     3979     3910     3827     3775 
    3738     3669     3612     3619     3628     3630     3681     3728 
    3753     3838     3933     3959     3958     3928     3834     3703 
    3569     3442     3330     3276     3295     3310     3333     3429 
    3511     3480     3368     3262     3234     3254     3264     3242 
    3222     3254     3302     3330     3389     3456     3504     3570 
    3619     3624     3609     3564     3507     3477     3456     3465 
    3580     3757     3871     3859     3758     3711     3800     3933 
    4040     4113     4098     4027     4001     3977     3846     3605 
    3352     3173     3069     3032     3080     3160     3204     3238 
    3326     3474     3607     3709     3807     3889     3973     4060 
    4112     4114     4068     4001     3943     3846     3693     3570 
    3519     3492     3496     3588     3704     3735     3670     3564 
    3461     3373     3306     3298     3326     3321     3295     3296 
    3361     3507     3662     3759     3852     3971     4054     4102 
    4176     4232     4209     4167     4139     4091     4014     3937 
    3871     3785     3699     3653     3619     3593     3561     3470 
    3345     3226     3168     3271     3518     3796     3979     4008 
    4018     4151     4332     4453     4494     4425     4233     4021 
    3928     3929     3885     3708     3433     3229     3171     3163 
    3144     3130     3150     3245     3373     3429     3366     3231 
    3096     3011     3001     3030     3059     3117     3235     3365 
    3481     3564     3550     3456     3356     3279     3217     3130 
    2984     2830     2772     2837     2918     2929     2901     2928 
    3084     3319     3503     3611     3677     3697     3694     3739 
    3817     3804     3716     3709     3811     3948     4117     4284 
    4345     4268     4170     4132     4148     4206     4255     4263 
    4303     4371     4282     3993     3715     3561     3493     3520 
    3623     3728     3797     3758     3547     3235     2984     2934 
    3076     3252     3343     3318     3168     2979     2851     2770 
    2718     2706     2701     2643     2525     2467     2573     2818 
    3136     3460     3692     3794     3820     3784     3700     3636 
    3638     3688     3723     3730     3754     3835     4013     4275 
    4444     4423     4324     4207     4037     3874     3816     3873 
    3985     4109     4195     4149     3956     3730     3546     3399 
    3295     3269     3326     3399     3431     3422     3315     3091 
    2845     2678     2641     2752     2979     3241     3420     3478 
    3483     3520     3651     3820     3912     3915     3882     3819 
    3680     3487     3307     3179     3172     3296     3464     3669 
    3912     4118     4295     4472     4603     4629     4560     4522 
    4577     4665     4756     4816     4796     4672     4380     3982 
    3700     3634     3688     3759     3807     3793     3690     3516 
    3279     2972     2655     2404     2272     2289     2405     2520 
    2620     2759     2944     3130     3260     3314     3360     3434 
    3480     3450     3338     3175     3076     3107     3214     3345 
    3492     3672     3890     4059     4101     4051     3956     3842 
    3754     3778     3960     4167     4268     4328     4357     4326 
    4297     4283     4287     4361     4504     4703     4905     4974 
    4854     4617     4320     4016     3775     3604     3474     3437 
    3492     3531     3534     3593     3667     3670     3647     3667 
    3705     3666     3480     3175     2856     2577     2322     2103 
    1981     2045     2309     2648     2948     3230     3531     3824 
    4037     4116     4045     3796     3399     3063     2961     3040 
    3195     3400     3592     3690     3747     3778     3719     3639 
    3597     3460     3172     2848     2558     2334     2234     2273 
    2390     2562     2830     3233     3699     4059     4201     4118 
    3896     3686     3519     3285     2990     2727     2569     2558 
    2677     2868     3113     3435     3828     4213     4553     4847 
    5015     4982     4769     4448     4167     4078     4153     4228 
    4260     4334     4449     4553     4625     4619     4561     4533 
    4499     4399     4247     4024     3708     3360     3107     3025 
    3061     3132     3191     3211     3213     3206     3163     3134 
    3169     3177     3072     2882     2679     2527     2442     2380 
    2355     2434     2604     2795     2944     3034     3156     3441 
    3855     4168     4203     4023     3805     3670     3669     3755 
    3812     3820     3832     3848     3834     3753     3642     3624 
    3720     3782     3793     3870     3990     4056     4097     4124 
    4074     3987     3966     3952     3820     3597     3399     3244 
    3073     2903     2808     2793     2845     2999     3237     3488 
    3708     3855     3873     3770     3658     3627     3649     3685 
    3712     3647     3499     3392     3342     3322     3399     3550 
    3712     3936     4163     4249     4220     4109     3885     3622 
    3422     3326     3325     3368     3372     3303     3275     3368 
    3470     3477     3457     3530     3692     3871     4071     4295 
    4482     4590     4630     4599     4491     4328     4128     3921 
    3788     3780     3847     3919     3994     4085     4141     4133 
    4095     3998     3809     3591     3373     3206     3214     3403 
    3639     3820     3943     4054     4128     4055     3786     3430 
    3156     3015     2917     2803     2679     2546     2490     2571 
    2679     2791     3001     3253     3407     3464     3481     3435 
    3338     3296     3333     3346     3346     3403     3418     3242 
    2920     2567     2231     1966     1840     1868     1946     1973 
    2016     2137     2278     2430     2597     2763     2933     3045 
    3049     3042     3098     3187     3281     3372     3430     3445 
    3456     3522     3667     3842     3998     4168     4342     4398 
    4232     3866     3465     3231     3199     3280     3396     3484 
    3576     3773     4074     4407     4727     5040     5352     5566 
    5597     5494     5317     5059     4685     4214     3748     3338 
    2941     2550     2239     2079     2053     2126     2277     2461 
    2670     2926     3181     3375     3518     3638     3686     3622 
    3535     3501     3503     3568     3753     4020     4271     4436 
    4488     4494     4536     4577     4542     4429     4237     4025 
    3950     4031     4116     4091     3964     3844     3858     3990 
    4126     4206     4240     4220     4182     4197     4190     4085 
    3896     3643     3404     3272     3225     3213     3227     3285 
    3365     3403     3435     3504     3559     3577     3543     3474 
    3466     3527     3569     3550     3504     3507     3562     3628 
    3719     3804     3832     3859     3913     3879     3677     3342 
    2944     2606     2493     2613     2764     2774     2648     2466 
    2218     1912     1668     1557     1595     1848     2258     2602 
    2802     2917     3002     3157     3414     3670     3847     3952 
    4002     3986     3935     3865     3719     3518     3357     3244 
    3183     3256     3474     3743     3982     4126     4144     4081 
    3983     3846     3686     3585     3601     3716     3856     3978 
    4078     4148     4183     4163     4064     3935     3871     3894 
    3874     3720     3511     3333     3267     3393     3611     3726 
    3711     3658     3574     3384     3121     2897     2755     2729 
    2887     3198     3553     3902     4243     4554     4830     5073 
    5211     5173     5058     4982     4946     4947     4995     5026 
    4935     4722     4494     4298     4124     4008     3985     4033 
    4105     4129     4082     4006     3936     3874     3804     3700 
    3603     3566     3616     3813     4125     4356     4409     4340 
    4253     4220     4229     4266     4374     4558     4762     4919 
    4957     4877     4826     4951     5178     5274     5139     4907 
    4727     4611     4503     4372     4224     4112     4063     3985 
    3846     3734     3682     3696     3786     3852     3770     3542 
    3327     3253     3244     3213     3192     3168     3046     2832 
    2624     2493     2479     2581     2712     2790     2762     2559 
    2205     1912     1871     2042     2293     2547     2783     2988 
    3115     3113     3019     2948     2979     3102     3227     3271 
    3271     3314     3419     3569     3742     3915     4116     4363 
    4590     4703     4649     4460     4218     3966     3762     3723 
    3828     3936     3951     3842     3688     3591     3488     3288 
    3033     2810     2697     2710     2771     2798     2837     2970 
    3183     3406     3570     3647     3700     3816     3989     4189 
    4380     4452     4340     4114     3809     3508     3384     3458 
    3605     3746     3854     3919     3920     3850     3782     3748 
    3659     3477     3226     2952     2779     2783     2866     2856 
    2714     2585     2613     2766     2930     3086     3271     3510 
    3786     3979     3902     3545     3080     2674     2469     2535 
    2783     3119     3516     3877     4104     4226     4364     4560 
    4765     4986     5236     5435     5525     5478     5262     4928 
    4590     4345     4240     4260     4349     4450     4572     4731 
    4882     4981     4963     4729     4340     4021     3856     3712 
    3523     3365     3254     3190     3217     3285     3338     3407 
    3446     3331     3069     2787     2593     2523     2547     2586 
    2621     2728     2925     3102     3213     3338     3550     3817 
    4044     4135     4094     4031     4058     4195     4341     4368 
    4276     4129     3977     3882     3883     3931     3917     3788 
    3582     3400     3281     3196     3063     2787     2390     1946 
    1447     1009      920     1205     1586     1877     2083     2220 
    2317     2388     2388     2308     2207     2120     2065     2014 
    1912     1783     1687     1649     1710     1915     2220     2559 
    2955     3446     3989     4504     4896     5085     5061     4860 
    4612     4519     4629     4838     4982     4912     4700     4521 
    4374     4199     4002     3800     3647     3626     3736     3908 
    4116     4306     4317     4087     3813     3708     3723     3665 
    3461     3196     3002     2941     3014     3217     3496     3780 
    4068     4306     4324     4043     3635     3381     3360     3466 
    3643     3811     3935     4128     4351     4437     4384     4290 
    4182     4055     3917     3789     3697     3647     3613     3549 
    3396     3154     2941     2893     2964     3003     2911     2701 
    2484     2384     2428     2562     2689     2774     2878     3017 
    3144     3234     3295     3431     3775     4286     4822     5294 
    5626     5813     5918     5931     5859     5752     5621     5466 
    5304     5150     5030     4953     4868     4712     4496     4291 
    4120     3931     3653     3335     3095     2994     2998     2980 
    2894     2862     2998     3310     3798     4374     4780     4850 
    4635     4245     3785     3400     3260     3399     3620     3707 
    3653     3550     3447     3346     3192     2967     2754     2677 
    2808     3069     3316     3518     3727     3970     4203     4365 
    4475     4599     4799     5055     5223     5175     4887     4388 
    3817     3393     3271     3426     3732     4052     4256     4287 
    4129     3812     3468     3269     3272     3402     3527     3537 
    3396     3184     3026     2947     2920     2918     2845     2700 
    2663     2891     3298     3642     3843     3962     4027     4083 
    4166     4214     4189     4087     3912     3674     3462     3441 
    3612     3770     3808     3744     3541     3190     2830     2619 
    2602     2728     2872     2941     2965     2998     3033     3087 
    3167     3227     3242     3218     3215     3304     3427     3491 
    3505     3545     3669     3832     3873     3651     3200     2748 
    2525     2585     2817     3100     3397     3711     3920     3923 
    3758     3514     3377     3508     3819     4118     4268     4195 
    3951     3647     3381     3242     3254     3307     3323     3399 
    3569     3678     3662     3593     3508     3431     3362     3283 
    3207     3083     2814     2412     1948     1528     1345     1486 
    1819     2149     2303     2230     2037     1806     1583     1517 
    1723     2112     2521     2864     3125     3310     3447     3568 
    3678     3811     3987     4195     4498     4882     5150     5170 
    4990     4708     4468     4380     4403     4410     4351     4233 
    4085     3998     4033     4155     4297     4332     4149     3825 
    3492     3225     3034     2891     2828     2905     3132     3474 
    3793     3912     3827     3639     3447     3308     3218     3177 
    3176     3172     3172     3208     3221     3154     3088     3091 
    3123     3187     3327     3549     3844     4191     4486     4688 
    4887     5108     5286     5347     5239     4986     4685     4482 
    4473     4596     4737     4870     4996     5051     4969     4774 
    4545     4318     4102     3909     3701     3420     3141     3002 
    2999     3014     2937     2740     2527     2408     2369     2343 
    2300     2234     2170     2119     2047     1958     1945     2070 
    2292     2538     2754     2922     3032     3034     2924     2760 
    2620     2556     2566     2639     2793     2987     3102     3079 
    3001     2998     3117     3322     3543     3739     3883     3910 
    3866     3960     4303     4806     5300     5664     5877     5944 
    5908     5838     5709     5490     5217     4949     4695     4425 
    4191     4079     3998     3870     3759     3653     3493     3308 
    3133     2994     2922     2928     2967     2940     2790     2585 
    2455     2444     2444     2374     2257     2168     2208     2419 
    2747     3163     3630     4077     4446     4645     4649     4622 
    4715     4899     5082     5165     5059     4847     4711     4712 
    4791     4838     4785     4707     4652     4563     4395     4139 
    3809     3460     3130     2884     2790     2802     2812     2797 
    2818     2849     2824     2787     2791     2813     2828     2822 
    2763     2647     2550     2601     2886     3327     3688     3802 
    3673     3369     3067     2976     3090     3298     3581     3892 
    4136     4251     4233     4139     4010     3886     3829     3811 
    3789     3820     3928     4050     4102     4039     3820     3477 
    3171     3010     2945     2929     2938     2940     2913     2890 
    2920     3002     3100     3181     3206     3191     3190     3175 
    3094     2979     2982     3168     3395     3553     3639     3580 
    3388     3256     3310     3457     3555     3559     3491     3354 
    3119     2818     2590     2511     2542     2705     2947     3073 
    3072     3084     3156     3254     3365     3537     3856     4280 
    4619     4773     4796     4662     4298     3850     3545     3422 
    3458     3674     4002     4310     4560     4754     4815     4673 
    4396     4070     3793     3680     3727     3882     4090     4244 
    4270     4155     3985     3946     4070     4225     4298     4193 
    3917     3674     3623     3711     3808     3832     3751     3627 
    3557     3534     3461     3316     3167     3060     3030     3100 
    3132     2982     2749     2548     2346     2187     2189     2405 
    2808     3245     3565     3713     3672     3523     3369     3164 
