Origin Time       2025/01/13 21:19:00
Lat.              31.8
Long.             131.6
Depth. (km)       30
Mag.              6.9
Station Code      EHM010
Station Lat.      33.4511
Station Long.     132.6881
Station Height(m) 191
Record Time       2025/01/13 21:20:15
Sampling Freq(Hz) 100Hz
Duration Time(s)  92
Dir.              U-D
Scale Factor      7845(gal)/8223790
Max. Acc. (gal)   1.978
Last Correction   2025/01/13 21:20:15
Memo.             
[...]
   16343    16360    16301    16248    16322    16463    16524    16487 
   16368    16185    16048    16024    16067    16133    16225    16390 
   16633    16883    17112    17293    17275    17011    16684    16505 
   16517    16668    16892    17053    17050    16922    16726    16456 
   16139    15847    15622    15523    15630    15873    16109    16264 
   16305    16227    16079    15936    15863    15897    16004    16116 
   16205    16309    16502    16768    16995    17078    16980    16740 
   16475    16303    16258    16340    16492    16588    16548    16379 
   16151    15973    15877    15830    15859    16043    16374    16745 
   17082    17377    17531    17432    17250    17204    17254    17273 
   17194    17018    16783    16544    16397    16410    16565    16807 
   17038    17180    17311    17463    17487    17288    16923    16530 
   16259    16125    16050    16054    16174    16372    16582    16741 
   16842    16906    16919    16906    16887    16833    16788    16839 
   16993    17216    17412    17446    17328    17135    16819    16362 
   15940    15736    15739    15827    15952    16094    16146    16023 
   15815    15658    15597    15628    15759    16029    16406    16731 
   16888    16888    16815    16704    16555    16467    16522    16652 
   16783    16889    16934    16858    16621    16337    16137    15978 
   15844    15776    15773    15890    16114    16322    16470    16576 
   16619    16530    16283    15973    15726    15607    15626    15730 
   15867    15990    16048    16071    16105    16152    16237    16335 
   16389    16399    16389    16378    16367    16316    16193    16042 
   15944    15938    16017    16148    16264    16324    16316    16244 
   16144    16024    15904    15893    16074    16333    16507    16594 
   16623    16542    16394    16359    16495    16659    16726    16661 
   16501    16349    16268    16256    16360    16502    16506    16411 
   16348    16301    16228    16148    16059    15940    15840    15836 
   15908    15947    15930    15940    16016    16108    16204    16371 
   16618    16788    16773    16690    16634    16522    16281    16021 
   15878    15903    16116    16441    16660    16646    16468    16209 
   15962    15830    15838    15974    16220    16521    16804    17019 
   17138    17138    17050    16964    16912    16854    16795    16754 
   16669    16510    16344    16193    16054    15967    15969    16102 
   16379    16661    16784    16727    16598    16474    16386    16397 
   16503    16640    16785    16930    17022    17034    16987    16933 
   16885    16839    16858    16972    17078    17096    17062    17032 
   17031    17023    16934    16744    16532    16394    16366    16413 
   16488    16571    16629    16610    16499    16290    16054    15896 
   15799    15765    15878    16065    16187    16262    16328    16376 
   16433    16542    16665    16703    16671    16667    16675    16600 
   16451    16263    16005    15708    15466    15318    15240    15195 
   15184    15236    15356    15485    15526    15458    15329    15141 
   14943    14867    14998    15291    15628    15948    16222    16430 
   16573    16642    16659    16673    16695    16725    16799    16895 
   16954    16984    17014    17024    17022    17004    16902    16703 
   16495    16312    16155    16092    16144    16270    16430    16537 
   16528    16472    16465    16498    16522    16537    16532    16441 
   16217    15947    15811    15877    16062    16274    16476    16594 
   16553    16440    16402    16434    16451    16452    16479    16511 
   16492    16382    16245    16170    16158    16221    16384    16560 
   16640    16652    16636    16568    16453    16329    16255    16279 
   16375    16487    16559    16532    16422    16285    16144    16016 
   15885    15685    15458    15384    15510    15714    15919    16112 
   16254    16339    16441    16573    16675    16713    16686    16649 
   16683    16745    16754    16699    16622    16596    16653    16748 
   16864    17016    17147    17184    17120    17000    16873    16752 
   16641    16591    16648    16779    16935    17131    17396    17674 
   17852    17869    17733    17454    17085    16762    16619    16681 
   16862    17055    17217    17312    17351    17421    17539    17577 
   17420    17151    16958    16875    16819    16794    16803    16722 
   16484    16221    16070    16059    16173    16332    16426    16441 
   16425    16395    16318    16158    15970    15888    15963    16132 
   16305    16406    16398    16289    16147    16069    16092    16155 
   16166    16113    16065    16046    16013    15971    15969    16027 
   16137    16266    16329    16298    16244    16183    16101    16046 
   16032    16028    16024    16008    15954    15890    15881    15940 
   16035    16136    16229    16308    16362    16366    16309    16260 
   16309    16448    16618    16826    17070    17289    17419    17410 
   17294    17149    17039    17031    17128    17292    17512    17752 
   17964    18149    18276    18283    18150    17913    17658    17429 
   17235    17065    16864    16621    16411    16255    16124    16017 
   15904    15795    15789    15907    16081    16240    16345    16403 
   16401    16320    16251    16251    16266    16308    16437    16649 
   16919    17166    17262    17170    16929    16587    16231    15970 
   15846    15809    15807    15826    15862    15886    15876    15878 
   15943    16040    16155    16287    16387    16433    16463    16528 
   16637    16757    16880    17032    17190    17300    17316    17217 
   17037    16811    16537    16227    15946    15785    15747    15796 
   15911    16033    16141    16310    16578    16862    17059    17158 
   17196    17154    17014    16848    16740    16696    16690    16684 
   16625    16497    16333    16167    16073    16079    16096    16065 
   16032    16035    16074    16168    16314    16432    16460    16410 
   16305    16162    15996    15785    15543    15326    15133    14970 
   14929    15037    15213    15387    15560    15701    15750    15693 
   15562    15384    15169    14921    14661    14462    14404    14466 
   14582    14716    14839    14890    14860    14852    14944    15134 
   15412    15745    16086    16414    16669    16767    16704    16569 
   16441    16349    16305    16333    16432    16563    16702    16810 
   16883    16962    17007    16996    17034    17126    17159    17107 
   16993    16865    16827    16931    17103    17255    17320    17280 
   17239    17305    17464    17659    17809    17825    17686    17466 
   17282    17203    17213    17265    17316    17370    17416    17392 
   17300    17216    17169    17174    17211    17213    17196    17207 
   17219    17215    17227    17235    17172    17000    16746    16501 
   16340    16254    16251    16353    16494    16587    16652    16730 
   16749    16632    16432    16254    16148    16093    16048    16048 
   16113    16187    16244    16291    16337    16357    16317    16259 
   16247    16247    16204    16109    15950    15728    15522    15403 
   15367    15422    15592    15807    15981    16150    16341    16474 
   16517    16492    16414    16341    16285    16204    16154    16182 
   16239    16262    16270    16343    16502    16668    16789    16889 
   16950    16924    16857    16853    16908    16957    16969    16933 
   16827    16629    16376    16163    16011    15880    15792    15804 
   15889    15950    15970    16027    16156    16316    16491    16703 
   16926    17091    17193    17253    17254    17185    17011    16715 
   16398    16160    16083    16214    16461    16688    16803    16718 
   16438    16098    15796    15588    15527    15596    15746    15940 
   16110    16217    16289    16335    16356    16389    16474    16592 
   16676    16648    16467    16173    15862    15589    15333    15095 
   14974    15043    15226    15373    15441    15522    15647    15759 
   15853    15975    16113    16225    16343    16503    16672    16812 
   16915    16938    16822    16623    16497    16472    16438    16355 
   16247    16144    16117    16205    16389    16613    16803    16947 
   17074    17108    16978    16735    16457    16163    15935    15901 
   16025    16194    16384    16582    16771    16962    17120    17211 
   17255    17231    17080    16835    16607    16461    16402    16443 
   16613    16897    17219    17467    17599    17680    17763    17824 
   17849    17849    17837    17849    17903    17986    18090    18212 
   18287    18231    18052    17874    17825    17894    17991    18056 
   18009    17798    17455    17035    16586    16170    15816    15538 
   15340    15232    15221    15257    15272    15264    15225    15174 
   15159    15128    15040    14975    15009    15149    15354    15557 
   15777    16071    16410    16730    16993    17132    17100    16900 
   16595    16279    15974    15714    15592    15614    15714    15853 
   15965    15990    15927    15790    15615    15465    15412    15471 
   15579    15691    15790    15859    15911    15981    16044    16054 
   15992    15863    15707    15560    15461    15465    15537    15612 
   15738    15919    16093    16240    16375    16491    16551    16580 
   16687    16906    17151    17344    17475    17567    17618    17618 
   17591    17579    17579    17570    17593    17678    17783    17852 
   17848    17767    17632    17504    17469    17551    17714    17876 
   17942    17903    17807    17679    17528    17351    17111    16818 
   16551    16348    16190    16051    15890    15741    15643    15558 
   15466    15407    15367    15317    15280    15276    15309    15385 
   15465    15502    15508    15507    15508    15507    15484    15453 
   15444    15480    15557    15618    15607    15535    15452    15377 
   15310    15288    15337    15400    15445    15502    15585    15657 
   15691    15714    15751    15792    15861    15996    16135    16209 
   16260    16374    16575    16784    16953    17115    17240    17271 
   17220    17163    17176    17211    17192    17139    17062    16950 
   16866    16864    16934    17031    17096    17103    17077    17069 
   17089    17119    17151    17161    17134    17093    17069    17049 
   16984    16835    16638    16482    16402    16370    16349    16330 
   16355    16475    16669    16883    17032    17042    16964    16902 
   16872    16888    16992    17146    17281    17386    17447    17444 
   17389    17292    17147    16996    16893    16830    16757    16654 
   16551    16476    16425    16389    16390    16414    16413    16382 
   16349    16314    16247    16136    16033    16000    16019    16078 
   16191    16330    16441    16488    16447    16340    16228    16129 
   16063    16066    16124    16182    16190    16128    15974    15749 
   15525    15338    15199    15130    15103    15075    15066    15095 
   15144    15183    15199    15195    15201    15255    15350    15457 
   15593    15782    15947    16000    15959    15886    15796    15696 
   15607    15554    15566    15626    15682    15726    15781    15865 
   15946    16001    16055    16101    16108    16117    16201    16370 
   16591    16839    17046    17089    16973    16802    16645    16555 
   16551    16603    16680    16744    16765    16749    16722    16725 
   16765    16849    17016    17240    17437    17547    17513    17312 
   17028    16803    16695    16673    16702    16752    16780    16748 
   16642    16484    16314    16141    15970    15850    15807    15809 
   15828    15858    15897    15911    15885    15853    15828    15822 
   15834    15844    15907    16066    16262    16444    16602    16707 
   16744    16745    16752    16779    16806    16804    16789    16785 
   16768    16688    16548    16375    16197    16050    15975    15981 
   16046    16146    16256    16349    16426    16490    16510    16491 
   16501    16590    16733    16869    16996    17118    17185    17209 
   17236    17235    17173    17081    17020    17005    17003    17027 
   17089    17127    17105    17068    17053    17042    17016    17008 
   17019    16985    16910    16838    16780    16744    16727    16692 
   16640    16615    16633    16691    16779    16866    16934    16980 
   16980    16914    16788    16673    16645    16696    16815    16989 
   17169    17294    17331    17290    17211    17100    16976    16849 
   16708    16572    16449    16309    16140    15932    15693    15471 
   15276    15110    14990    14922    14893    14875    14843    14800 
   14771    14756    14763    14814    14918    15072    15256    15408 
   15512    15596    15650    15678    15738    15853    15981    16083 
   16167    16249    16309    16333    16330    16308    16290    16312 
   16353    16384    16437    16567    16733    16895    17092    17319 
   17501    17610    17680    17733    17779    17829    17860    17836 
   17751    17591    17385    17209    17073    16919    16758    16649 
   16618    16641    16679    16754    16881    16993    17078    17174 
   17278    17369    17413    17415    17412    17379    17304    17246 
   17212    17162    17100    17038    16968    16868    16753    16667 
   16588    16459    16260    16036    15838    15680    15568    15500 
   15453    15392    15319    15263    15237    15211    15145    15030 
   14905    14794    14685    14558    14427    14354    14364    14401 
   14434    14466    14515    14601    14717    14859    15053    15259 
   15417    15535    15668    15843    16029    16209    16375    16479 
   16506    16502    16479    16463    16465    16449    16421    16418 
   16452    16515    16592    16683    16808    16972    17157    17354 
   17544    17705    17826    17919    17988    18023    18026    18015 
   18038    18117    18218    18304    18354    18350    18289    18176 
   18038    17895    17712    17501    17336    17240    17188    17157 
   17127    17074    17015    17008    17039    17053    17062    17095 
   17139    17167    17178    17192    17176    17100    17004    16896 
   16777    16677    16551    16355    16156    16013    15904    15823 
   15766    15697    15603    15516    15453    15421    15398    15350 
   15282    15223    15169    15083    14964    14851    14767    14705 
   14658    14617    14563    14516    14507    14512    14531    14624 
   14782    14944    15110    15294    15493    15705    15889    16032 
   16159    16270    16356    16437    16532    16637    16721    16787 
   16864    16960    17057    17139    17216    17298    17392    17502 
   17626    17736    17794    17807    17806    17795    17779    17776 
   17782    17794    17830    17884    17948    18019    18053    18021 
   17953    17872    17779    17686    17593    17513    17455    17378 
   17254    17100    16946    16784    16598    16414    16264    16158 
   16139    16206    16283    16335    16366    16356    16295    16235 
   16224    16240    16236    16216    16195    16151    16055    15893 
   15692    15511    15375    15286    15261    15292    15334    15314 
   15211    15098    15041    15071    15182    15311    15423    15527 
   15631    15727    15813    15878    15880    15846    15828    15816 
   15831    15890    15925    15900    15840    15766    15668    15549 
   15429    15309    15180    15072    15029    15078    15201    15356 
   15499    15596    15635    15647    15665    15714    15812    15932 
   16040    16148    16249    16341    16452    16573    16683    16777 
   16870    16965    17038    17097    17163    17226    17289    17355 
   17446    17590    17748    17872    17986    18085    18127    18103 
   18040    17969    17894    17809    17716    17605    17500    17429 
   17381    17343    17311    17270    17212    17145    17080    17015 
   16949    16889    16829    16741    16637    16502    16316    16124 
   15973    15873    15807    15741    15662    15599    15556    15504 
   15468    15483    15530    15588    15655    15719    15757    15770 
   15763    15727    15677    15645    15665    15747    15836    15886 
   15938    16000    16044    16070    16062    16005    15921    15854 
   15815    15769    15716    15682    15657    15647    15689    15770 
   15851    15904    15930    15946    15966    15997    16040    16090 
   16144    16187    16232    16299    16391    16478    16524    16518 
   16482    16436    16401    16383    16390    16406    16409    16414 
   16455    16538    16644    16760    16875    16983    17072    17136 
   17196    17271    17343    17370    17347    17294    17223    17155 
   17123    17096    17038    16970    16934    16935    16957    16974 
   16983    16976    16957    16923    16866    16789    16704    16611 
   16510    16409    16329    16293    16281    16294    16330    16363 
   16379    16382    16363    16330    16286    16208    16120    16063 
   16025    15997    15997    16028    16071    16117    16156    16197 
   16245    16270    16249    16231    16232    16224    16224    16235 
   16224    16195    16179    16171    16162    16151    16127    16094 
   16065    16046    16083    16197    16330    16426    16463    16459 
   16424    16359    16283    16205    16140    16093    16046    16035 
   16077    16132    16170    16178    16175    16177    16187    16217 
   16260    16329    16418    16478    16511    16560    16607    16607 
   16569    16552    16559    16549    16544    16559    16556    16534 
   16488    16406    16336    16306    16308    16337    16383    16440 
   16487    16480    16422    16355    16295    16267    16305    16414 
   16559    16675    16723    16695    16600    16472    16340    16240 
   16179    16146    16139    16151    16152    16131    16092    16029 
   15936    15859    15834    15832    15843    15865    15859    15840 
   15827    15813    15805    15808    15828    15865    15920    15997 
   16082    16159    16232    16295    16314    16282    16241    16218 
   16206    16210    16254    16349    16470    16588    16698    16779 
   16834    16877    16896    16908    16954    17039    17126    17196 
   17248    17263    17248    17242    17239    17250    17269    17230 
   17115    16965    16818    16710    16649    16600    16546    16503 
   16482    16476    16479    16484    16478    16449    16425    16403 
   16344    16245    16151    16074    15979    15867    15762    15676 
   15633    15622    15597    15569    15584    15661    15803    16001 
   16212    16383    16488    16509    16461    16436    16472    16525 
   16565    16606    16634    16637    16598    16505    16391    16294 
   16220    16177    16178    16209    16237    16243    16237    16228 
   16214    16197    16191    16216    16247    16266    16285    16303 
   16330    16362    16386    16386    16348    16272    16179    16085 
   16008    15974    16025    16151    16293    16414    16518    16615 
   16694    16748    16804    16861    16903    16949    17005    17055 
   17080    17072    17054    17035    17012    17004    17008    17008 
   17000    16973    16950    16945    16915    16854    16799    16757 
   16737    16744    16757    16742    16688    16609    16514    16426 
