Origin Time       2025/01/13 21:19:00
Lat.              31.8
Long.             131.6
Depth. (km)       30
Mag.              6.9
Station Code      EHM013
Station Lat.      33.3917
Station Long.     132.1140
Station Height(m) 15
Record Time       2025/01/13 21:20:22
Sampling Freq(Hz) 100Hz
Duration Time(s)  71
Dir.              E-W
Scale Factor      7845(gal)/8223790
Max. Acc. (gal)   3.281
Last Correction   2025/01/13 21:20:22
Memo.             
[...]
   -3951    -3808    -3662    -3577    -3503    -3408    -3308    -3213 
   -3271    -3539    -3801    -3921    -3956    -3958    -3927    -3839 
   -3696    -3551    -3460    -3458    -3504    -3499    -3457    -3522 
   -3767    -4070    -4240    -4216    -4045    -3865    -3807    -3812 
   -3716    -3499    -3335    -3362    -3450    -3456    -3416    -3349 
   -3214    -2998    -2787    -2771    -2980    -3291    -3573    -3670 
   -3585    -3473    -3383    -3330    -3395    -3573    -3747    -3829 
   -3888    -4000    -4125    -4187    -4179    -4198    -4334    -4537 
   -4630    -4525    -4333    -4166    -4009    -3854    -3735    -3705 
   -3793    -3917    -4001    -4071    -4128    -4062    -3842    -3588 
   -3462    -3520    -3685    -3835    -3913    -3987    -4135    -4249 
   -4179    -3952    -3672    -3422    -3303    -3383    -3609    -3851 
   -4006    -4059    -4056    -4054    -4072    -4078    -4018    -3866 
   -3662    -3539    -3562    -3690    -3898    -4097    -4198    -4239 
   -4210    -4104    -4020    -3973    -3909    -3844    -3815    -3807 
   -3771    -3720    -3738    -3832    -3923    -3940    -3865    -3755 
   -3692    -3657    -3613    -3578    -3605    -3697    -3759    -3720 
   -3573    -3306    -3024    -2898    -2887    -2883    -2967    -3159 
   -3352    -3574    -3839    -4036    -4174    -4244    -4141    -3932 
   -3763    -3642    -3542    -3503    -3555    -3654    -3743    -3840 
   -3970    -4106    -4180    -4149    -4070    -4032    -4032    -3979 
   -3840    -3719    -3665    -3574    -3429    -3262    -3106    -3060 
   -3132    -3248    -3468    -3777    -4000    -4056    -3947    -3712 
   -3497    -3397    -3391    -3464    -3604    -3838    -4203    -4522 
   -4585    -4480    -4329    -4071    -3667    -3246    -3001    -2959 
   -3060    -3339    -3759    -4171    -4468    -4596    -4612    -4591 
   -4534    -4446    -4330    -4194    -4041    -3924    -3932    -3966 
   -3883    -3800    -3862    -3979    -3996    -3912    -3786    -3688 
   -3719    -3831    -3875    -3873    -3879    -3817    -3678    -3582 
   -3588    -3632    -3666    -3732    -3855    -3982    -4060    -4047 
   -3958    -3873    -3805    -3690    -3530    -3439    -3443    -3460 
   -3504    -3589    -3653    -3747    -3916    -4029    -4032    -4024 
   -4058    -4087    -4075    -4025    -3969    -3963    -3978    -3932 
   -3924    -4024    -4137    -4205    -4183    -4085    -4005    -3969 
   -3971    -4031    -4085    -4075    -4031    -3974    -3878    -3765 
   -3719    -3782    -3912    -4052    -4167    -4301    -4488    -4596 
   -4527    -4374    -4217    -4097    -4029    -3946    -3831    -3773 
   -3820    -3931    -4031    -4081    -4056    -3962    -3885    -3843 
   -3759    -3651    -3545    -3433    -3393    -3480    -3646    -3784 
   -3815    -3788    -3754    -3724    -3719    -3740    -3780    -3777 
   -3661    -3519    -3449    -3392    -3346    -3361    -3381    -3414 
   -3541    -3701    -3838    -3970    -4045    -4044    -4016    -3948 
   -3808    -3619    -3402    -3167    -3011    -3045    -3227    -3414 
   -3543    -3680    -3847    -3973    -4033    -4087    -4128    -4054 
   -3824    -3607    -3609    -3766    -3881    -3882    -3743    -3505 
   -3276    -3083    -3030    -3281    -3747    -4197    -4483    -4523 
   -4345    -4094    -3931    -3912    -3962    -4018    -4095    -4163 
   -4171    -4133    -4054    -3944    -3892    -3935    -4002    -4016 
   -3959    -3843    -3650    -3418    -3275    -3310    -3493    -3685 
   -3727    -3654    -3607    -3580    -3519    -3468    -3460    -3496 
   -3530    -3460    -3334    -3311    -3372    -3395    -3383    -3437 
   -3526    -3508    -3376    -3200    -3025    -2964    -3072    -3299 
   -3622    -3958    -4160    -4167    -3997    -3734    -3535    -3531 
   -3709    -3904    -3969    -3971    -4013    -4047    -4031    -3974 
   -3852    -3739    -3744    -3835    -3942    -4018    -3979    -3821 
   -3635    -3470    -3356    -3284    -3190    -3034    -2844    -2756 
   -2862    -3045    -3227    -3404    -3528    -3646    -3789    -3927 
   -4125    -4314    -4271    -4029    -3809    -3724    -3788    -3927 
   -4035    -4078    -4052    -3998    -3982    -3985    -3886    -3611 
   -3281    -3130    -3208    -3362    -3433    -3353    -3198    -3146 
   -3272    -3499    -3759    -4009    -4201    -4244    -4040    -3674 
   -3352    -3122    -2971    -2947    -3018    -3110    -3215    -3322 
   -3370    -3400    -3572    -3929    -4375    -4828    -5185    -5294 
   -5154    -4865    -4517    -4170    -3878    -3762    -3902    -4158 
   -4324    -4407    -4502    -4511    -4314    -3967    -3601    -3370 
   -3377    -3535    -3709    -3871    -3989    -4001    -3902    -3719 
   -3491    -3281    -3098    -2879    -2637    -2438    -2278    -2155 
   -2143    -2335    -2775    -3325    -3720    -3859    -3855    -3878 
   -3943    -3946    -3963    -4176    -4552    -4923    -5197    -5321 
   -5238    -4985    -4681    -4340    -4012    -3827    -3759    -3727 
   -3738    -3738    -3654    -3564    -3504    -3342    -3032    -2708 
   -2520    -2598    -2870    -3057    -3113    -3198    -3369    -3589 
   -3727    -3720    -3701    -3703    -3677    -3669    -3694    -3775 
   -3944    -4099    -4113    -4010    -3920    -3840    -3690    -3519 
   -3399    -3376    -3558    -3944    -4392    -4811    -5062    -4951 
   -4536    -4121    -3875    -3757    -3720    -3735    -3765    -3812 
   -3792    -3680    -3607    -3591    -3542    -3433    -3226    -2971 
   -2759    -2569    -2380    -2261    -2315    -2578    -2926    -3203 
   -3377    -3446    -3431    -3469    -3690    -4058    -4386    -4506 
   -4437    -4320    -4236    -4132    -3890    -3573    -3353    -3226 
   -3136    -3145    -3276    -3519    -3842    -4032    -3921    -3577 
   -3133    -2810    -2808    -2998    -3183    -3358    -3532    -3690 
   -3862    -3997    -4036    -4070    -4179    -4261    -4189    -4009 
   -3897    -3906    -3896    -3801    -3736    -3755    -3835    -3997 
   -4216    -4441    -4688    -4872    -4828    -4567    -4226    -3896 
   -3607    -3411    -3357    -3437    -3535    -3491    -3280    -2997 
   -2654    -2286    -2053    -2069    -2208    -2254    -2232    -2276 
   -2407    -2650    -2934    -3148    -3399    -3734    -3994    -4168 
   -4275    -4222    -4045    -3879    -3812    -3888    -4085    -4341 
   -4626    -4862    -4970    -4986    -4934    -4734    -4376    -4021 
   -3852    -3898    -4008    -4037    -3987    -3931    -3883    -3846 
   -3874    -4033    -4229    -4259    -4064    -3735    -3348    -2968 
   -2722    -2695    -2821    -3033    -3319    -3643    -3989    -4297 
   -4449    -4453    -4398    -4359    -4382    -4365    -4171    -3933 
   -3987    -4403    -4864    -5131    -5192    -4992    -4536    -4005 
   -3528    -3140    -2924    -2936    -3078    -3208    -3361    -3572 
   -3712    -3723    -3694    -3645    -3543    -3402    -3244    -3145 
   -3126    -3107    -3096    -3142    -3159    -3068    -2894    -2697 
   -2596    -2614    -2629    -2632    -2636    -2571    -2494    -2508 
   -2623    -2783    -2941    -3114    -3350    -3636    -3933    -4256 
   -4653    -5112    -5549    -5790    -5679    -5294    -4839    -4483 
   -4337    -4320    -4315    -4384    -4511    -4553    -4500    -4487 
   -4621    -4804    -4876    -4877    -4828    -4669    -4444    -4171 
   -3858    -3593    -3414    -3362    -3451    -3539    -3514    -3433 
   -3438    -3564    -3730    -3924    -4122    -4190    -4078    -3883 
   -3727    -3649    -3557    -3429    -3357    -3368    -3380    -3312 
   -3242    -3310    -3433    -3402    -3192    -2949    -2828    -2899 
   -3146    -3528    -3967    -4280    -4340    -4274    -4218    -4086 
   -3807    -3462    -3190    -3113    -3214    -3392    -3647    -3950 
   -4116    -4098    -4060    -4009    -3838    -3603    -3423    -3400 
   -3566    -3813    -4040    -4163    -4048    -3659    -3146    -2779 
   -2675    -2674    -2690    -2767    -2853    -2929    -3030    -3169 
   -3373    -3545    -3547    -3392    -3144    -2875    -2650    -2471 
   -2416    -2504    -2461    -2134    -1769    -1584    -1586    -1733 
   -1998    -2415    -2997    -3612    -4036    -4152    -4044    -3893 
   -3816    -3773    -3665    -3508    -3362    -3277    -3195    -2960 
   -2650    -2523    -2695    -3121    -3635    -4008    -4166    -4286 
   -4473    -4580    -4592    -4691    -4930    -5297    -5779    -6210 
   -6440    -6502    -6419    -6143    -5742    -5374    -5113    -4943 
   -4850    -4850    -4889    -4843    -4688    -4515    -4406    -4410 
   -4498    -4540    -4434    -4233    -4074    -3994    -3912    -3854 
   -3900    -4002    -4085    -4060    -3908    -3755    -3643    -3500 
   -3410    -3554    -3956    -4394    -4689    -4891    -5022    -5043 
   -5016    -5043    -5142    -5213    -5125    -4847    -4433    -4008 
   -3740    -3713    -3919    -4245    -4518    -4666    -4742    -4811 
   -4919    -5119    -5428    -5738    -5903    -5902    -5765    -5543 
   -5336    -5196    -5080    -4941    -4715    -4402    -4094    -3820 
   -3561    -3404    -3478    -3823    -4329    -4799    -5150    -5452 
   -5725    -5869    -5746    -5314    -4731    -4222    -3896    -3780 
   -3862    -3997    -4002    -3865    -3699    -3566    -3499    -3577 
   -3792    -4001    -4090    -3996    -3661    -3145    -2646    -2328 
   -2239    -2289    -2301    -2165    -1950    -1842    -1919    -2042 
   -2056    -1989    -1991    -2165    -2484    -2898    -3348    -3643 
   -3697    -3616    -3484    -3357    -3292    -3233    -3130    -3038 
   -2895    -2594    -2274    -2114    -2083    -2127    -2265    -2481 
   -2691    -2786    -2722    -2570    -2398    -2266    -2170    -2038 
   -1912    -1914    -1975    -1968    -1957    -2077    -2405    -2880 
   -3326    -3650    -3894    -4099    -4257    -4307    -4263    -4287 
   -4445    -4646    -4791    -4770    -4610    -4465    -4324    -4089 
   -3771    -3431    -3145    -2944    -2781    -2644    -2631    -2843 
   -3229    -3646    -4017    -4321    -4630    -5078    -5552    -5844 
   -5950    -5910    -5753    -5621    -5571    -5526    -5462    -5341 
   -5115    -4860    -4669    -4575    -4619    -4761    -4931    -5181 
   -5470    -5632    -5598    -5404    -5103    -4833    -4757    -4892 
   -5061    -5024    -4704    -4230    -3770    -3431    -3226    -3115 
   -3150    -3395    -3704    -3893    -3977    -4002    -3948    -3831 
   -3638    -3385    -3206    -3134    -3076    -2914    -2597    -2236 
   -1998    -1938    -2035    -2228    -2452    -2673    -2889    -3082 
   -3161    -3038    -2781    -2677    -2968    -3551    -4108    -4460 
   -4618    -4591    -4337    -3890    -3429    -3171    -3186    -3337 
   -3451    -3499    -3508    -3446    -3240    -2874    -2474    -2182 
   -1987    -1857    -1826    -1934    -2193    -2579    -3083    -3612 
   -3950    -3970    -3744    -3474    -3335    -3284    -3171    -2999 
   -2795    -2562    -2462    -2628    -2986    -3350    -3524    -3512 
   -3518    -3634    -3801    -3947    -4051    -4197    -4446    -4715 
   -4954    -5251    -5541    -5606    -5390    -4995    -4610    -4455 
   -4459    -4361    -4220    -4213    -4226    -4099    -3896    -3719 
   -3618    -3632    -3750    -3950    -4168    -4245    -4081    -3751 
   -3462    -3441    -3761    -4306    -4846    -5239    -5509    -5634 
   -5560    -5337    -4997    -4569    -4124    -3653    -3221    -2984 
   -2920    -2895    -2847    -2813    -2876    -3021    -3214    -3531 
   -3963    -4342    -4538    -4530    -4345    -4072    -3832    -3657 
   -3526    -3481    -3511    -3516    -3399    -3117    -2718    -2340 
   -2141    -2199    -2474    -2791    -2871    -2650    -2388    -2326 
   -2444    -2613    -2785    -2983    -3234    -3547    -3744    -3523 
   -2930    -2361    -2111    -2222    -2505    -2736    -2928    -3169 
   -3419    -3605    -3640    -3507    -3353    -3306    -3329    -3345 
   -3334    -3314    -3285    -3214    -3080    -2903    -2725    -2594 
   -2540    -2550    -2639    -2906    -3341    -3798    -4236    -4675 
   -5069    -5405    -5656    -5749    -5665    -5358    -4793    -4125 
   -3573    -3287    -3283    -3403    -3441    -3318    -3157    -3141 
   -3294    -3487    -3636    -3790    -3977    -4164    -4364    -4629 
   -4985    -5317    -5429    -5310    -5155    -5147    -5317    -5555 
   -5751    -5875    -5945    -5930    -5703    -5256    -4810    -4536 
   -4455    -4556    -4788    -5003    -5051    -4977    -4928    -4885 
   -4722    -4440    -4160    -3959    -3816    -3732    -3744    -3871 
   -4018    -3989    -3743    -3380    -2929    -2465    -2097    -1813 
   -1568    -1355    -1189    -1188    -1425    -1817    -2280    -2739 
   -3048    -3145    -3148    -3115    -2997    -2833    -2741    -2805 
   -3033    -3348    -3688    -4067    -4428    -4592    -4529    -4465 
   -4558    -4692    -4754    -4739    -4716    -4865    -5248    -5768 
   -6349    -6867    -7102    -6893    -6319    -5679    -5200    -4949 
   -4893    -4909    -4962    -5105    -5281    -5382    -5381    -5356 
   -5366    -5331    -5152    -4915    -4779    -4774    -4820    -4787 
   -4569    -4245    -3977    -3759    -3524    -3281    -3068    -2898 
   -2713    -2439    -2131    -1864    -1582    -1227     -815     -471 
    -387     -535     -641     -554     -382     -326     -475     -797 
   -1200    -1495    -1579    -1598    -1763    -2158    -2704    -3284 
   -3924    -4661    -5418    -6054    -6412    -6466    -6361    -6203 
   -6034    -5911    -5832    -5733    -5652    -5656    -5709    -5755 
   -5730    -5578    -5422    -5420    -5512    -5552    -5460    -5194 
   -4777    -4268    -3711    -3240    -3026    -3032    -2998    -2625 
   -1877    -1093     -581     -375     -414     -595     -810    -1038 
   -1278    -1539    -1876    -2292    -2736    -3176    -3570    -3867 
   -4024    -4124    -4229    -4183    -3997    -4004    -4357    -4892 
   -5429    -5903    -6301    -6562    -6582    -6408    -6258    -6258 
   -6336    -6374    -6245    -5832    -5197    -4536    -3993    -3588 
   -3288    -3153    -3225    -3321    -3186    -2751    -2174    -1622 
   -1092     -684     -630     -928    -1432    -2002    -2421    -2597 
   -2674    -2806    -3040    -3387    -3711    -3771    -3613    -3526 
   -3578    -3650    -3684    -3669    -3613    -3547    -3465    -3387 
   -3388    -3492    -3630    -3751    -3904    -4178    -4608    -5131 
   -5560    -5790    -5842    -5692    -5390    -5127    -5008    -4963 
   -4837    -4546    -4141    -3689    -3321    -3211    -3407    -3770 
   -4064    -4132    -3975    -3688    -3407    -3195    -3051    -3053 
   -3235    -3519    -3777    -3869    -3761    -3581    -3458    -3337 
   -3042    -2539    -1954    -1545    -1560    -1941    -2447    -2956 
   -3392    -3696    -3973    -4341    -4698    -4851    -4761    -4558 
   -4387    -4280    -4191    -4089    -3975    -3893    -3942    -4179 
   -4560    -5008    -5445    -5829    -6100    -6143    -6002    -5833 
   -5711    -5660    -5625    -5518    -5328    -5076    -4827    -4590 
   -4311    -3981    -3528    -2998    -2608    -2351    -2070    -1702 
   -1235     -837     -703     -756     -881    -1125    -1526    -2083 
   -2733    -3330    -3743    -3946    -3987    -3890    -3653    -3330 
   -3041    -2960    -3161    -3527    -3896    -4162    -4245    -4148 
   -3970    -3823    -3739    -3703    -3711    -3816    -4056    -4356 
   -4649    -4955    -5212    -5301    -5174    -4810    -4298    -3840 
   -3592    -3682    -4108    -4565    -4749    -4642    -4348    -3960 
   -3665    -3580    -3603    -3632    -3689    -3782    -3936    -4236 
   -4729    -5362    -5971    -6318    -6273    -5888    -5246    -4518 
   -3983    -3721    -3569    -3426    -3321    -3262    -3237    -3180 
   -2976    -2632    -2322    -2180    -2205    -2363    -2617    -2844 
   -2883    -2737    -2606    -2578    -2547    -2533    -2678    -2932 
   -3084    -2972    -2601    -2170    -1954    -2080    -2447    -2835 
   -3061    -3103    -3095    -3138    -3163    -3091    -2916    -2667 
   -2438    -2265    -2126    -2100    -2155    -2168    -2266    -2610 
   -3079    -3481    -3807    -4135    -4490    -4788    -4953    -5043 
   -5142    -5216    -5325    -5568    -5810    -5962    -6156    -6403 
   -6631    -6752    -6620    -6242    -5713    -5022    -4309    -3835 
   -3612    -3446    -3284    -3208    -3152    -3002    -2830    -2766 
   -2872    -3133    -3391    -3503    -3461    -3292    -3026    -2779 
   -2632    -2570    -2604    -2664    -2571    -2353    -2142    -2018 
   -2176    -2679    -3284    -3817    -4159    -4166    -3967    -3820 
   -3842    -4032    -4302    -4530    -4617    -4540    -4356    -4050 
   -3618    -3229    -3009    -2998    -3285    -3775    -4228    -4568 
   -4761    -4714    -4549    -4531    -4757    -5154    -5486    -5574 
   -5518    -5381    -5135    -4939    -4873    -4837    -4765    -4587 
   -4295    -4035    -3881    -3866    -4074    -4437    -4716    -4745 
   -4534    -4159    -3685    -3226    -2859    -2606    -2571    -2817 
   -3250    -3690    -3956    -4047    -4097    -4187    -4278    -4272 
   -4216    -4248    -4409    -4662    -4970    -5260    -5366    -5155 
   -4698    -4187    -3850    -3813    -3967    -4125    -4143    -3910 
   -3461    -2959    -2560    -2338    -2251    -2272    -2454    -2835 
   -3329    -3747    -3967    -4013    -3948    -3848    -3823    -3902 
   -4006    -4050    -4037    -3981    -3817    -3528    -3200    -2932 
   -2736    -2544    -2398    -2339    -2253    -2145    -2145    -2230 
   -2277    -2232    -2172    -2251    -2574    -3069    -3528    -3767 
   -3757    -3580    -3391    -3314    -3277    -3218    -3279    -3541 
   -3848    -4017    -4050    -4078    -4126    -4162    -4213    -4274 
   -4282    -4245    -4209    -4156    -4148    -4274    -4473    -4729 
   -5030    -5170    -5028    -4687    -4290    -4027    -3974    -4018 
   -4071    -4158    -4241    -4206    -4044    -3898    -3869    -3963 
   -4151    -4375    -4564    -4658    -4671    -4600    -4419    -4201 
   -4032    -3910    -3802    -3696    -3626    -3634    -3707    -3808 
   -3863    -3828    -3686    -3415    -3118    -2990    -3029    -3103 
   -3179    -3246    -3314    -3426    -3477    -3296    -2933    -2587 
   -2367    -2330    -2482    -2682    -2843    -3001    -3148    -3262 
   -3399    -3634    -3963    -4322    -4702    -5077    -5327    -5377 
   -5275    -5185    -5281    -5514    -5724    -5807    -5674    -5319 
   -4847    -4353    -4020    -4013    -4272    -4614    -4918    -5078 
   -4999    -4712    -4326    -3913    -3589    -3439    -3441    -3559 
   -3693    -3743    -3766    -3798    -3836    -3896    -3989    -4162 
   -4437    -4715    -4912    -5028    -5076    -5038    -4905    -4711 
   -4467    -4252    -4152    -4098    -4023    -3920    -3781    -3616 
   -3442    -3310    -3261    -3253    -3262    -3241    -3130    -3042 
   -3113    -3345    -3604    -3724    -3670    -3480    -3208    -2975 
   -2857    -2840    -2832    -2754    -2662    -2656    -2767    -2990 
