Origin Time       2025/01/13 21:19:00
Lat.              31.8
Long.             131.6
Depth. (km)       30
Mag.              6.9
Station Code      EHM004
Station Lat.      34.0627
Station Long.     132.9986
Station Height(m) 4
Record Time       2025/01/13 21:20:53
Sampling Freq(Hz) 100Hz
Duration Time(s)  76
Dir.              E-W
Scale Factor      7845(gal)/8223790
Max. Acc. (gal)   5.903
Last Correction   2025/01/13 21:20:52
Memo.             
[...]
   -8760    -8607    -8432    -8241    -8052    -7886    -7762    -7681 
   -7631    -7609    -7634    -7716    -7843    -7969    -8060    -8129 
   -8191    -8240    -8282    -8322    -8370    -8453    -8567    -8658 
   -8730    -8814    -8876    -8862    -8779    -8681    -8627    -8613 
   -8599    -8568    -8540    -8540    -8581    -8662    -8743    -8785 
   -8780    -8764    -8768    -8797    -8856    -8965    -9107    -9232 
   -9328    -9401    -9437    -9421    -9343    -9201    -9046    -8950 
   -8922    -8930    -8966    -9013    -9034    -9013    -8954    -8860 
   -8753    -8650    -8525    -8360    -8182    -8025    -7925    -7889 
   -7893    -7916    -7939    -7956    -7996    -8062    -8112    -8118 
   -8113    -8108    -8064    -7970    -7851    -7734    -7627    -7526 
   -7452    -7443    -7489    -7557    -7653    -7797    -7970    -8133 
   -8275    -8401    -8525    -8631    -8712    -8773    -8804    -8806 
   -8826    -8880    -8914    -8903    -8866    -8829    -8808    -8824 
   -8889    -8986    -9100    -9240    -9402    -9547    -9629    -9637 
   -9601    -9537    -9451    -9359    -9293    -9255    -9223    -9178 
   -9099    -8974    -8823    -8665    -8519    -8415    -8349    -8295 
   -8249    -8212    -8174    -8136    -8108    -8071    -8009    -7944 
   -7917    -7946    -8017    -8108    -8195    -8272    -8328    -8353 
   -8368    -8387    -8398    -8376    -8314    -8235    -8163    -8114 
   -8102    -8117    -8132    -8116    -8060    -7993    -7947    -7939 
   -7969    -8032    -8121    -8256    -8459    -8689    -8885    -9013 
   -9078    -9092    -9082    -9085    -9136    -9232    -9339    -9423 
   -9472    -9491    -9494    -9468    -9409    -9321    -9217    -9126 
   -9077    -9059    -9049    -9011    -8915    -8770    -8626    -8529 
   -8500    -8545    -8650    -8768    -8853    -8904    -8942    -8982 
   -9042    -9108    -9150    -9166    -9175    -9153    -9074    -8984 
   -8911    -8835    -8729    -8591    -8452    -8359    -8316    -8266 
   -8162    -8019    -7857    -7693    -7560    -7480    -7434    -7419 
   -7470    -7603    -7773    -7948    -8121    -8293    -8445    -8554 
   -8622    -8672    -8704    -8700    -8658    -8596    -8532    -8469 
   -8411    -8356    -8305    -8279    -8306    -8387    -8507    -8649 
   -8814    -8988    -9111    -9132    -9078    -9000    -8905    -8776 
   -8613    -8456    -8379    -8426    -8564    -8712    -8814    -8846 
   -8816    -8739    -8645    -8561    -8499    -8467    -8494    -8591 
   -8737    -8877    -8951    -8947    -8869    -8714    -8503    -8298 
   -8143    -8075    -8100    -8164    -8218    -8282    -8371    -8440 
   -8455    -8430    -8399    -8387    -8403    -8476    -8621    -8787 
   -8897    -8892    -8753    -8552    -8384    -8286    -8257    -8303 
   -8391    -8464    -8502    -8517    -8532    -8565    -8595    -8590 
   -8550    -8495    -8460    -8498    -8606    -8729    -8860    -9005 
   -9130    -9209    -9266    -9327    -9421    -9547    -9652    -9720 
   -9759    -9738    -9625    -9427    -9178    -8911    -8638    -8321 
   -7963    -7662    -7493    -7439    -7469    -7554    -7649    -7713 
   -7744    -7755    -7774    -7813    -7846    -7848    -7843    -7861 
   -7894    -7921    -7948    -8005    -8082    -8121    -8110    -8090 
   -8094    -8143    -8216    -8272    -8303    -8329    -8353    -8405 
   -8518    -8676    -8808    -8858    -8829    -8762    -8683    -8602 
   -8563    -8590    -8658    -8737    -8804    -8865    -8961    -9128 
   -9310    -9417    -9432    -9396    -9346    -9290    -9223    -9124 
   -9013    -8908    -8807    -8706    -8603    -8507    -8429    -8357 
   -8271    -8198    -8186    -8248    -8371    -8518    -8650    -8727 
   -8739    -8719    -8714    -8756    -8826    -8853    -8797    -8684 
   -8552    -8425    -8317    -8228    -8168    -8139    -8105    -8032 
   -7938    -7888    -7901    -7924    -7927    -7946    -7994    -8058 
   -8154    -8289    -8440    -8580    -8658    -8657    -8634    -8631 
   -8644    -8691    -8770    -8839    -8904    -8995    -9099    -9188 
   -9239    -9246    -9228    -9207    -9205    -9248    -9315    -9350 
   -9316    -9215    -9063    -8862    -8615    -8363    -8158    -8027 
   -7956    -7920    -7911    -7932    -7986    -8070    -8162    -8241 
   -8311    -8374    -8409    -8421    -8432    -8444    -8436    -8406 
   -8397    -8442    -8537    -8652    -8746    -8793    -8785    -8719 
   -8618    -8542    -8513    -8499    -8471    -8413    -8321    -8210 
   -8116    -8070    -8059    -8055    -8058    -8082    -8143    -8271 
   -8490    -8754    -8984    -9132    -9173    -9099    -8932    -8733 
   -8594    -8569    -8617    -8640    -8598    -8532    -8482    -8446 
   -8421    -8418    -8463    -8554    -8656    -8745    -8822    -8883 
   -8918    -8923    -8896    -8827    -8738    -8680    -8684    -8735 
   -8791    -8810    -8772    -8698    -8611    -8488    -8330    -8186 
   -8068    -7959    -7858    -7770    -7720    -7731    -7794    -7879 
   -7967    -8031    -8062    -8094    -8175    -8332    -8554    -8781 
   -8954    -9049    -9073    -9057    -9036    -9049    -9092    -9124 
   -9097    -8989    -8796    -8549    -8329    -8201    -8159    -8151 
   -8128    -8094    -8070    -8074    -8135    -8256    -8398    -8548 
   -8714    -8880    -9023    -9140    -9240    -9321    -9383    -9432 
   -9452    -9417    -9324    -9185    -9038    -8924    -8878    -8895 
   -8930    -8912    -8804    -8629    -8417    -8183    -7962    -7794 
   -7703    -7689    -7746    -7840    -7951    -8066    -8164    -8235 
   -8274    -8301    -8359    -8463    -8573    -8669    -8738    -8750 
   -8722    -8731    -8792    -8854    -8892    -8916    -8932    -8942 
   -8949    -8951    -8934    -8884    -8795    -8684    -8592    -8500 
   -8353    -8194    -8114    -8113    -8148    -8236    -8383    -8537 
   -8627    -8621    -8550    -8472    -8402    -8348    -8330    -8361 
   -8432    -8515    -8575    -8595    -8606    -8638    -8676    -8672 
   -8611    -8546    -8521    -8522    -8518    -8487    -8414    -8297 
   -8167    -8089    -8095    -8170    -8307    -8503    -8721    -8918 
   -9057    -9121    -9121    -9072    -8992    -8934    -8961    -9058 
   -9140    -9143    -9053    -8904    -8741    -8552    -8307    -8052 
   -7871    -7827    -7924    -8128    -8365    -8563    -8672    -8707 
   -8711    -8719    -8750    -8812    -8872    -8904    -8918    -8895 
   -8816    -8712    -8596    -8444    -8240    -7979    -7695    -7493 
   -7433    -7473    -7549    -7622    -7685    -7738    -7792    -7912 
   -8139    -8405    -8614    -8760    -8911    -9080    -9194    -9231 
   -9231    -9225    -9205    -9147    -9054    -8968    -8915    -8868 
   -8781    -8654    -8533    -8440    -8379    -8355    -8360    -8398 
   -8478    -8581    -8698    -8849    -9024    -9198    -9364    -9525 
   -9668    -9780    -9853    -9867    -9802    -9671    -9491    -9282 
   -9074    -8872    -8656    -8397    -8056    -7653    -7261    -6944 
   -6720    -6593    -6551    -6586    -6709    -6912    -7144    -7368 
   -7577    -7758    -7902    -8056    -8262    -8521    -8835    -9169 
   -9452    -9649    -9748    -9745    -9644    -9448    -9202    -8968 
   -8749    -8538    -8349    -8181    -7996    -7803    -7654    -7582 
   -7577    -7631    -7751    -7923    -8102    -8282    -8506    -8769 
   -9012    -9182    -9270    -9325    -9389    -9432    -9459    -9512 
   -9551    -9501    -9356    -9146    -8895    -8617    -8326    -8078 
   -7906    -7785    -7727    -7767    -7871    -7973    -8035    -8070 
   -8110    -8156    -8186    -8241    -8359    -8496    -8603    -8645 
   -8640    -8657    -8726    -8793    -8834    -8901    -9042    -9235 
   -9406    -9508    -9553    -9568    -9545    -9487    -9421    -9348 
   -9286    -9274    -9310    -9362    -9414    -9463    -9464    -9386 
   -9261    -9126    -9009    -8947    -8941    -8926    -8854    -8745 
   -8646    -8573    -8506    -8418    -8305    -8190    -8091    -8029 
   -8032    -8086    -8162    -8257    -8374    -8494    -8608    -8716 
   -8804    -8847    -8837    -8769    -8656    -8557    -8518    -8521 
   -8532    -8525    -8478    -8355    -8120    -7782    -7434    -7157 
   -6982    -6914    -6937    -7006    -7113    -7275    -7484    -7713 
   -7936    -8164    -8434    -8756    -9121    -9520    -9882   -10130 
  -10249   -10246   -10143    -9998    -9864    -9786    -9769    -9767 
   -9749    -9732    -9725    -9726    -9707    -9639    -9548    -9499 
   -9518    -9636    -9838   -10035   -10173   -10258   -10280   -10239 
  -10169   -10099   -10053   -10011    -9915    -9767    -9605    -9443 
   -9265    -9061    -8834    -8606    -8379    -8141    -7913    -7740 
   -7614    -7462    -7240    -6995    -6832    -6805    -6889    -7033 
   -7200    -7379    -7561    -7699    -7739    -7712    -7692    -7690 
   -7685    -7685    -7719    -7773    -7813    -7851    -7915    -7993 
   -8054    -8095    -8145    -8210    -8266    -8295    -8301    -8287 
   -8275    -8294    -8336    -8365    -8365    -8317    -8226    -8154 
   -8163    -8264    -8415    -8537    -8579    -8546    -8471    -8359 
   -8206    -8032    -7871    -7749    -7670    -7628    -7632    -7693 
   -7797    -7901    -7951    -7947    -7935    -7965    -8094    -8359 
   -8710    -9062    -9363    -9598    -9788    -9925    -9980    -9988 
  -10011   -10023    -9976    -9861    -9667    -9401    -9101    -8768 
   -8410    -8085    -7809    -7542    -7273    -7005    -6731    -6473 
   -6254    -6061    -5913    -5876    -5977    -6156    -6349    -6554 
   -6783    -7015    -7227    -7410    -7553    -7669    -7767    -7847 
   -7947    -8117    -8347    -8575    -8726    -8749    -8661    -8537 
   -8421    -8299    -8159    -8016    -7896    -7834    -7855    -7939 
   -8047    -8149    -8202    -8193    -8158    -8143    -8189    -8301 
   -8419    -8478    -8472    -8442    -8437    -8483    -8568    -8665 
   -8749    -8800    -8823    -8872    -8993    -9175    -9351    -9455 
   -9475    -9450    -9404    -9333    -9248    -9188    -9154    -9121 
   -9084    -9045    -9003    -8945    -8866    -8784    -8741    -8770 
   -8846    -8912    -8946    -8939    -8883    -8750    -8563    -8392 
   -8268    -8156    -8009    -7813    -7611    -7461    -7360    -7263 
   -7149    -7029    -6918    -6835    -6775    -6718    -6656    -6596 
   -6525    -6473    -6520    -6705    -6974    -7252    -7495    -7703 
   -7901    -8064    -8147    -8160    -8175    -8256    -8413    -8608 
   -8831    -9073    -9301    -9491    -9632    -9740    -9840    -9923 
   -9983   -10060   -10176   -10281   -10328   -10323   -10288   -10233 
  -10150   -10044    -9925    -9826    -9782    -9778    -9778    -9752 
   -9688    -9583    -9467    -9374    -9285    -9169    -9036    -8911 
   -8812    -8757    -8718    -8664    -8590    -8492    -8383    -8314 
   -8303    -8325    -8386    -8484    -8595    -8704    -8806    -8912 
   -9057    -9231    -9409    -9607    -9833   -10049   -10253   -10458 
  -10639   -10771   -10866   -10922   -10936   -10906   -10843   -10748 
  -10589   -10318    -9964    -9609    -9298    -9011    -8710    -8413 
   -8154    -7942    -7758    -7596    -7468    -7384    -7358    -7399 
   -7485    -7591    -7704    -7831    -7975    -8109    -8195    -8230 
   -8237    -8210    -8131    -8009    -7859    -7674    -7456    -7214 
   -6968    -6752    -6590    -6496    -6471    -6492    -6540    -6617 
   -6713    -6825    -6994    -7227    -7497    -7773    -8043    -8291 
   -8487    -8611    -8689    -8788    -8932    -9088    -9227    -9339 
   -9412    -9451    -9482    -9520    -9576    -9664    -9782    -9917 
  -10061   -10210   -10372   -10540   -10660   -10708   -10712   -10712 
  -10735   -10793   -10901   -11055   -11205   -11300   -11348   -11385 
  -11416   -11422   -11415   -11407   -11369   -11288   -11183   -11068 
  -10957   -10839   -10670   -10471   -10301   -10168   -10039    -9895 
   -9742    -9605    -9495    -9394    -9292    -9193    -9104    -9023 
   -8946    -8849    -8703    -8490    -8209    -7905    -7636    -7408 
   -7223    -7094    -7013    -6968    -6959    -6967    -6949    -6893 
   -6801    -6687    -6593    -6551    -6543    -6556    -6590    -6620 
   -6601    -6521    -6401    -6276    -6164    -6043    -5892    -5738 
   -5644    -5643    -5713    -5827    -5973    -6135    -6295    -6427 
   -6546    -6702    -6926    -7195    -7468    -7731    -8002    -8290 
   -8579    -8841    -9059    -9231    -9340    -9366    -9327    -9278 
   -9235    -9175    -9073    -8922    -8742    -8561    -8384    -8208 
   -8035    -7863    -7697    -7546    -7404    -7265    -7119    -6968 
   -6797    -6589    -6350    -6116    -5940    -5841    -5798    -5798 
   -5840    -5948    -6145    -6411    -6728    -7125    -7596    -8091 
   -8580    -9039    -9444    -9798   -10116   -10400   -10651   -10874 
  -11086   -11295   -11470   -11596   -11709   -11819   -11875   -11858 
  -11803   -11745   -11715   -11718   -11740   -11785   -11831   -11847 
  -11821   -11765   -11689   -11587   -11439   -11277   -11125   -10993 
  -10898   -10829   -10775   -10721   -10627   -10442   -10166    -9832 
   -9462    -9074    -8684    -8298    -7893    -7439    -6924    -6365 
   -5791    -5209    -4637    -4098    -3612    -3196    -2847    -2574 
   -2411    -2376    -2467    -2658    -2895    -3169    -3526    -3969 
   -4446    -4926    -5402    -5887    -6380    -6875    -7345    -7773 
   -8186    -8577    -8920    -9236    -9536    -9836   -10170   -10544 
  -10933   -11302   -11630   -11934   -12232   -12510   -12742   -12904 
  -12997   -13047   -13053   -12989   -12876   -12741   -12577   -12370 
  -12131   -11904   -11697   -11462   -11152   -10777   -10389   -10039 
   -9752    -9509    -9290    -9115    -8991    -8903    -8866    -8885 
   -8923    -8954    -8966    -8951    -8912    -8847    -8788    -8779 
   -8804    -8838    -8872    -8877    -8866    -8877    -8893    -8885 
   -8872    -8864    -8837    -8769    -8669    -8560    -8468    -8370 
   -8224    -8043    -7858    -7680    -7503    -7317    -7134    -6991 
   -6898    -6849    -6835    -6840    -6890    -6993    -7106    -7187 
   -7214    -7192    -7141    -7064    -6964    -6859    -6781    -6775 
   -6843    -6945    -7074    -7242    -7457    -7693    -7915    -8089 
   -8220    -8341    -8472    -8621    -8795    -8958    -9076    -9153 
   -9200    -9196    -9153    -9107    -9086    -9123    -9227    -9383 
   -9578    -9782    -9984   -10195   -10397   -10558   -10706   -10906 
  -11169   -11457   -11715   -11907   -12023   -12066   -12012   -11824 
  -11502   -11071   -10547    -9936    -9277    -8611    -7981    -7435 
   -6961    -6512    -6091    -5738    -5471    -5263    -5078    -4915 
   -4796    -4710    -4626    -4554    -4518    -4527    -4571    -4644 
   -4758    -4905    -5071    -5265    -5502    -5779    -6077    -6370 
   -6631    -6862    -7056    -7192    -7248    -7221    -7165    -7152 
   -7218    -7368    -7573    -7808    -8078    -8391    -8722    -9038 
   -9319    -9551    -9748    -9937   -10141   -10366   -10592   -10779 
  -10901   -10943   -10894   -10760   -10573   -10365   -10173   -10038 
   -9967    -9913    -9848    -9784    -9737    -9701    -9652    -9579 
   -9499    -9444    -9436    -9489    -9594    -9728    -9857    -9954 
   -9998    -9999   -10004   -10034   -10073   -10115   -10161   -10230 
  -10328   -10419   -10457   -10428   -10342   -10212   -10061    -9915 
   -9782    -9632    -9455    -9247    -8996    -8715    -8428    -8151 
   -7897    -7685    -7527    -7408    -7327    -7310    -7356    -7431 
   -7508    -7578    -7643    -7720    -7819    -7931    -8032    -8081 
   -8058    -7982    -7875    -7750    -7618    -7507    -7437    -7400 
   -7388    -7384    -7358    -7303    -7223    -7122    -6984    -6802 
   -6613    -6459    -6377    -6397    -6485    -6602    -6754    -6933 
   -7138    -7396    -7713    -8075    -8473    -8889    -9282    -9632 
   -9940   -10200   -10407   -10542   -10574   -10511   -10380   -10181 
   -9933    -9693    -9485    -9281    -9089    -8939    -8843    -8797 
   -8792    -8807    -8845    -8918    -9004    -9103    -9248    -9450 
   -9691    -9954   -10168   -10284   -10311   -10253   -10099    -9868 
   -9589    -9285    -8980    -8692    -8441    -8255    -8151    -8094 
   -8046    -7996    -7971    -8010    -8098    -8199    -8325    -8487 
   -8685    -8938    -9244    -9597    -9983   -10372   -10732   -11043 
  -11303   -11512   -11657   -11728   -11734   -11664   -11519   -11323 
  -11092   -10835   -10561   -10277    -9980    -9678    -9366    -9045 
   -8718    -8395    -8079    -7794    -7564    -7391    -7268    -7199 
   -7175    -7184    -7198    -7175    -7123    -7069    -6998    -6878 
   -6709    -6498    -6245    -5956    -5660    -5375    -5105    -4866 
   -4680    -4537    -4405    -4294    -4222    -4183    -4162    -4155 
   -4183    -4282    -4452    -4664    -4904    -5170    -5451    -5725 
   -5958    -6147    -6334    -6547    -6791    -7060    -7352    -7677 
   -8035    -8390    -8700    -8958    -9173    -9356    -9513    -9644 
   -9744    -9826    -9907    -9983   -10038   -10061   -10053   -10041 
  -10038   -10010    -9950    -9906    -9888    -9879    -9856    -9830 
   -9844    -9925   -10062   -10216   -10351   -10480   -10628   -10773 
  -10872   -10935   -10975   -10971   -10886   -10702   -10457   -10201 
   -9945    -9670    -9397    -9151    -8923    -8712    -8527    -8374 
   -8278    -8249    -8249    -8252    -8266    -8313    -8429    -8604 
   -8793    -8982    -9192    -9408    -9587    -9697    -9724    -9670 
   -9525    -9292    -8996    -8665    -8317    -7981    -7681    -7412 
   -7164    -6939    -6727    -6505    -6270    -6045    -5879    -5809 
   -5834    -5934    -6079    -6247    -6435    -6642    -6878    -7179 
   -7546    -7944    -8356    -8777    -9196    -9606   -10004   -10343 
  -10563   -10650   -10619   -10496   -10335   -10183   -10049    -9917 
   -9788    -9674    -9552    -9406    -9261    -9146    -9077    -9086 
   -9181    -9333    -9531    -9757    -9984   -10187   -10336   -10390 
  -10336   -10222   -10093    -9963    -9853    -9787    -9732    -9663 
   -9583    -9470    -9304    -9103    -8893    -8688    -8473    -8233 
   -7989    -7758    -7526    -7291    -7087    -6929    -6821    -6768 
   -6758    -6786    -6872    -7028    -7227    -7441    -7658    -7878 
   -8100    -8326    -8552    -8754    -8930    -9082    -9220    -9360 
   -9504    -9621    -9695    -9763    -9836    -9891    -9925    -9949 
   -9953    -9931    -9910    -9907    -9926    -9956    -9980    -9977 
   -9949    -9902    -9828    -9733    -9621    -9483    -9352    -9247 
   -9117    -8951    -8815    -8725    -8633    -8525    -8407    -8294 
   -8201    -8127    -8054    -7989    -7959    -7978    -8008    -8027 
   -8064    -8122    -8183    -8245    -8305    -8374    -8472    -8579 
   -8671    -8753    -8819    -8872    -8931    -8984    -9022    -9051 
   -9069    -9067    -9046    -9007    -8947    -8874    -8802    -8721 
   -8615    -8478    -8289    -8032    -7717    -7379    -7042    -6713 
