Origin Time       2025/01/13 21:19:00
Lat.              31.8
Long.             131.6
Depth. (km)       30
Mag.              6.9
Station Code      EHM008
Station Lat.      33.8199
Station Long.     132.7282
Station Height(m) 7
Record Time       2025/01/13 21:20:30
Sampling Freq(Hz) 100Hz
Duration Time(s)  105
Dir.              U-D
Scale Factor      7845(gal)/8223790
Max. Acc. (gal)   2.636
Last Correction   2025/01/13 21:20:30
Memo.             
[...]
   17907    17849    17841    17841    17767    17739    17829    17917 
   17942    17995    18149    18328    18441    18534    18621    18613 
   18530    18484    18434    18265    18098    18122    18177    18072 
   18004    18154    18303    18237    18085    18046    18038    17891 
   17670    17554    17558    17559    17471    17336    17242    17246 
   17359    17497    17570    17633    17734    17764    17666    17614 
   17733    17876    17895    17882    17936    17996    18019    18011 
   17984    18009    18126    18235    18234    18162    18108    18171 
   18404    18612    18570    18415    18376    18373    18241    18061 
   18013    18031    17948    17788    17671    17659    17753    17871 
   17967    18060    18079    17950    17803    17791    17833    17776 
   17674    17637    17655    17675    17663    17604    17510    17405 
   17350    17431    17574    17653    17722    17829    17861    17848 
   17982    18219    18296    18199    18202    18368    18418    18241 
   18068    18037    17996    17844    17656    17544    17564    17686 
   17775    17717    17577    17523    17566    17616    17699    17826 
   17861    17814    17880    18036    18027    17898    17953    18214 
   18431    18544    18644    18709    18705    18701    18716    18693 
   18657    18666    18638    18466    18283    18253    18272    18141 
   17887    17741    17849    18084    18177    18058    17923    17902 
   17867    17717    17558    17470    17398    17370    17490    17668 
   17695    17609    17622    17709    17679    17550    17448    17405 
   17442    17567    17694    17774    17861    17963    18000    17973 
   17984    18018    17972    17886    17814    17740    17694    17706 
   17717    17699    17690    17732    17834    17938    17942    17826 
   17716    17732    17851    17941    17928    17917    18058    18253 
   18274    18131    17986    17844    17686    17622    17621    17520 
   17404    17447    17518    17455    17381    17427    17514    17582 
   17674    17780    17837    17883    17971    18041    18077    18148 
   18250    18306    18355    18482    18570    18468    18276    18187 
   18206    18238    18216    18141    18114    18176    18185    18072 
   17967    17938    17869    17721    17574    17436    17297    17258 
   17348    17393    17325    17346    17547    17705    17693    17710 
   17891    18034    17977    17894    17979    18123    18173    18212 
   18323    18446    18549    18636    18669    18647    18566    18374 
   18176    18177    18311    18266    17987    17739    17690    17748 
   17764    17699    17621    17594    17595    17533    17398    17289 
   17258    17275    17300    17329    17375    17410    17374    17262 
   17189    17235    17335    17383    17343    17257    17208    17235 
   17297    17321    17327    17405    17570    17761    17926    17994 
   17969    17957    17969    17952    17959    18056    18211    18382 
   18520    18546    18480    18497    18686    18848    18813    18724 
   18724    18708    18597    18497    18481    18496    18508    18493 
   18403    18270    18171    18112    18044    17915    17761    17653 
   17613    17663    17806    17937    17979    17961    17902    17794 
   17694    17637    17622    17658    17726    17763    17737    17721 
   17810    17956    18013    17987    18029    18100    18042    17933 
   17910    17853    17729    17728    17859    17972    18004    17936 
   17807    17701    17618    17513    17385    17293    17251    17205 
   17174    17211    17254    17219    17181    17231    17311    17309 
   17242    17201    17215    17242    17227    17180    17221    17377 
   17502    17554    17629    17744    17857    17952    18013    18079 
   18211    18362    18408    18323    18202    18125    18083    18014 
   17898    17829    17860    17887    17879    17933    18027    18045 
   18044    18129    18235    18311    18411    18517    18553    18565 
   18662    18778    18774    18694    18651    18574    18385    18227 
   18207    18189    18100    18042    18023    17973    17933    17998 
   18114    18126    18071    18129    18246    18218    18061    17987 
   18103    18277    18293    18126    17995    18031    18067    17918 
   17694    17586    17594    17586    17466    17265    17131    17132 
   17172    17173    17184    17250    17354    17402    17348    17292 
   17347    17452    17497    17443    17342    17313    17378    17431 
   17433    17471    17635    17859    17969    17980    18056    18172 
   18169    18139    18300    18549    18616    18546    18566    18667 
   18654    18501    18391    18377    18331    18222    18187    18283 
   18378    18322    18099    17871    17805    17865    17922    17955 
   17971    17961    17940    17874    17744    17653    17703    17844 
   17952    18029    18158    18296    18326    18295    18306    18288 
   18153    18014    18036    18154    18164    18021    17895    17918 
   17956    17828    17732    17945    18252    18279    18095    17992 
   17999    17982    17880    17718    17567    17551    17706    17876 
   17876    17706    17539    17508    17595    17691    17747    17803 
   17903    18017    18073    18033    17979    18083    18349    18527 
   18430    18227    18222    18373    18376    18199    18102    18218 
   18431    18538    18480    18426    18478    18499    18374    18238 
   18231    18222    18096    18048    18175    18234    18088    17938 
   17932    17934    17763    17462    17284    17332    17412    17344 
   17242    17324    17545    17674    17653    17640    17757    17919 
   17946    17879    17937    18154    18349    18387    18330    18327 
   18415    18458    18366    18253    18214    18175    18095    18003 
   17884    17764    17755    17844    17821    17648    17591    17744 
   17814    17636    17428    17448    17643    17760    17697    17626 
   17706    17859    17944    17883    17702    17602    17722    17838 
   17714    17556    17682    17952    17984    17771    17667    17845 
   18102    18185    18108    18009    17944    17940    18004    18064 
   18049    18029    18099    18189    18192    18131    18083    18080 
   18115    18115    18079    18139    18301    18370    18268    18139 
   18108    18098    18025    17963    17945    17864    17705    17613 
   17618    17574    17442    17400    17514    17591    17500    17381 
   17373    17420    17456    17508    17527    17424    17332    17466 
   17694    17725    17579    17497    17570    17675    17705    17689 
   17712    17815    17965    18095    18187    18252    18270    18233 
   18157    18067    17992    17969    17945    17864    17764    17687 
   17614    17545    17521    17555    17613    17671    17691    17643 
   17610    17668    17698    17597    17452    17396    17444    17497 
   17454    17347    17320    17401    17433    17339    17251    17271 
   17329    17317    17234    17177    17204    17239    17235    17300 
   17501    17726    17848    17896    17948    18064    18230    18284 
   18165    18083    18215    18431    18480    18385    18353    18419 
   18480    18431    18265    18111    18060    18038    17950    17818 
   17697    17609    17605    17678    17714    17685    17667    17664 
   17651    17641    17639    17674    17849    18127    18293    18277 
   18257    18347    18458    18499    18431    18273    18150    18149 
   18157    18027    17837    17779    17847    17903    17937    17975 
   17977    17950    17910    17811    17702    17726    17880    17982 
   17936    17892    17982    18108    18172    18184    18145    18065 
   18025    18006    17922    17807    17747    17743    17760    17775 
   17790    17847    17925    17934    17921    17961    17944    17868 
   17902    18000    18037    18104    18260    18346    18341    18395 
   18478    18442    18300    18188    18220    18297    18196    17983 
   17910    17936    17849    17686    17605    17625    17663    17689 
   17724    17806    17960    18154    18288    18315    18314    18334 
   18347    18407    18558    18681    18700    18728    18844    18952 
   18941    18829    18774    18863    18909    18690    18374    18257 
   18223    18030    17810    17774    17824    17828    17807    17753 
   17686    17707    17747    17662    17536    17516    17577    17655 
   17770    17932    18046    18053    18026    18033    18026    17952 
   17852    17786    17768    17790    17847    17928    18003    18022 
   17972    17923    17928    17932    17915    17910    17875    17795 
   17791    17882    17926    17921    17976    17998    17864    17757 
   17851    17934    17826    17716    17790    17918    17915    17876 
   17987    18130    18084    17984    18065    18211    18202    18102 
   18087    18108    18029    17919    17880    17825    17718    17655 
   17645    17602    17527    17521    17585    17594    17552    17544 
   17540    17494    17443    17452    17572    17745    17842    17861 
   17899    17946    17938    17937    18011    18058    17971    17841 
   17778    17766    17811    17883    17871    17766    17676    17694 
   17778    17760    17609    17485    17470    17481    17435    17374 
   17381    17428    17460    17473    17417    17315    17300    17347 
   17339    17388    17574    17729    17784    17863    18040    18280 
   18470    18515    18507    18627    18781    18725    18577    18577 
   18607    18493    18339    18269    18311    18497    18713    18716 
   18517    18401    18463    18466    18272    18061    17995    17992 
   17940    17826    17702    17598    17532    17474    17361    17251 
   17221    17201    17151    17134    17158    17174    17149    17147 
   17243    17315    17253    17178    17205    17257    17271    17354 
   17525    17641    17697    17829    17998    18068    18096    18126 
   18067    17952    17929    17946    17822    17593    17478    17535 
   17631    17629    17497    17367    17363    17420    17452    17454 
   17456    17512    17640    17774    17863    17987    18165    18242 
   18168    18127    18256    18407    18396    18324    18342    18308 
   18111    17965    18034    18118    18048    17987    18031    17999 
   17825    17674    17618    17586    17564    17560    17585    17674 
   17788    17820    17764    17755    17844    17922    17934    17923 
   17884    17824    17802    17844    17883    17878    17894    17973 
   18092    18206    18281    18338    18434    18580    18705    18735 
   18709    18727    18766    18743    18689    18708    18804    18851 
   18782    18698    18640    18526    18391    18334    18304    18188 
   18022    17932    17903    17805    17625    17473    17392    17340 
   17267    17182    17134    17128    17151    17153    17095    17024 
   17014    17097    17205    17204    17124    17143    17290    17413 
   17446    17527    17733    17894    17878    17841    17949    18076 
   18041    17926    17918    18018    18081    18067    18069    18153 
   18304    18446    18509    18558    18667    18744    18686    18607 
   18617    18651    18642    18636    18670    18742    18855    18949 
   18913    18756    18605    18544    18524    18457    18346    18269 
   18254    18245    18175    18090    18068    18075    18018    17925 
   17864    17838    17848    17871    17821    17718    17701    17749 
   17734    17683    17663    17578    17382    17211    17145    17120 
   17068    16957    16818    16711    16660    16676    16756    16864 
   16988    17118    17204    17257    17350    17523    17748    17975 
   18148    18285    18499    18802    19016    19029    18968    18982 
   19043    19022    18890    18777    18738    18655    18486    18338 
   18258    18203    18125    18022    17886    17716    17539    17356 
   17162    17031    17020    17039    16991    16943    16978    16973 
   16826    16683    16664    16675    16688    16802    17004    17185 
   17332    17513    17740    17964    18133    18239    18345    18486 
   18600    18632    18642    18712    18785    18762    18702    18698 
   18720    18716    18709    18721    18709    18627    18485    18327 
   18206    18166    18153    18064    17934    17906    17995    18042 
   17949    17813    17743    17678    17540    17390    17275    17186 
   17169    17266    17404    17467    17440    17442    17551    17680 
   17709    17622    17512    17518    17664    17775    17757    17825 
   18106    18347    18349    18315    18445    18592    18565    18424 
   18347    18427    18567    18640    18674    18721    18754    18759 
   18771    18798    18804    18762    18689    18586    18457    18338 
   18254    18165    18022    17890    17851    17799    17626    17433 
   17336    17263    17123    16989    16938    16899    16823    16758 
   16711    16652    16576    16491    16391    16337    16433    16613 
   16673    16630    16661    16768    16842    16880    16908    16927 
   16951    16977    16977    16961    16976    17010    17014    17027 
   17091    17151    17173    17216    17286    17300    17254    17255 
   17338    17451    17567    17647    17644    17626    17663    17695 
   17671    17636    17647    17675    17697    17791    17984    18162 
   18235    18245    18291    18419    18585    18719    18790    18873 
   19041    19215    19296    19333    19399    19515    19688    19878 
   20012    20113    20247    20380    20459    20524    20611    20669 
   20634    20529    20439    20385    20325    20248    20137    19940 
   19711    19611    19624    19502    19213    19021    18983    18862 
   18563    18257    18069    17932    17788    17643    17452    17192 
   16918    16663    16422    16218    16055    15913    15803    15757 
   15784    15831    15853    15871    15871    15834    15850    15939 
   15966    15954    16058    16233    16391    16588    16812    16957 
   17015    17073    17181    17320    17452    17550    17612    17721 
   17907    18083    18210    18328    18443    18535    18593    18624 
   18658    18675    18673    18731    18874    19024    19134    19222 
   19288    19363    19457    19492    19396    19240    19141    19130 
   19122    19026    18893    18843    18879    18890    18790    18621 
   18488    18439    18424    18346    18237    18241    18327    18349 
   18326    18346    18384    18451    18588    18678    18661    18685 
   18809    18889    18825    18681    18601    18616    18619    18554 
   18461    18341    18153    17909    17666    17437    17223    17068 
   16972    16856    16687    16529    16434    16383    16326    16272 
   16268    16258    16173    16109    16113    16074    15966    15935 
   16038    16139    16170    16236    16425    16654    16806    16918 
   17086    17243    17290    17270    17253    17263    17296    17347 
   17431    17548    17699    17879    18045    18176    18300    18414 
   18485    18540    18580    18547    18473    18432    18435    18453 
   18449    18401    18343    18357    18446    18482    18392    18252 
   18158    18108    18045    17977    17967    17977    17950    17915 
   17894    17855    17774    17687    17632    17618    17649    17698 
   17709    17703    17748    17813    17838    17848    17899    17996 
   18064    18083    18130    18208    18266    18300    18300    18318 
   18409    18445    18343    18254    18258    18264    18183    18063 
   18027    18083    18129    18149    18173    18199    18261    18365 
   18400    18349    18389    18570    18700    18662    18550    18459 
   18387    18312    18239    18179    18145    18133    18118    18053 
   17930    17803    17724    17720    17775    17834    17840    17821 
   17887    17983    17938    17826    17830    17928    17964    17864 
   17729    17685    17656    17529    17369    17263    17193    17115 
   17026    16972    16981    17005    16991    16939    16869    16784 
   16686    16606    16578    16576    16579    16592    16605    16609 
   16629    16650    16636    16638    16750    16915    17026    17134 
   17327    17524    17664    17847    18123    18378    18540    18674 
   18813    18931    19014    19068    19093    19109    19164    19263 
   19327    19373    19503    19618    19573    19468    19422    19369 
   19269    19176    19099    19028    18993    18940    18775    18562 
   18434    18331    18133    17937    17917    17971    17923    17834 
   17818    17826    17803    17753    17691    17659    17695    17729 
   17678    17593    17572    17598    17593    17564    17577    17628 
   17670    17698    17736    17722    17620    17536    17527    17520 
   17516    17575    17645    17660    17653    17659    17652    17617 
   17589    17570    17564    17579    17575    17547    17545    17589 
   17663    17722    17736    17757    17818    17869    17910    17996 
   18090    18080    18044    18106    18164    18144    18156    18212 
   18272    18370    18473    18512    18520    18544    18543    18515 
   18532    18574    18571    18573    18675    18824    18862    18786 
   18739    18739    18686    18532    18341    18214    18173    18125 
   17992    17817    17716    17706    17663    17535    17439    17419 
   17338    17176    17055    17007    16962    16920    16938    16972 
   16916    16821    16819    16914    16989    16968    16927    16989 
   17092    17084    16960    16849    16842    16870    16811    16687 
   16619    16602    16568    16502    16420    16418    16567    16744 
   16864    17034    17278    17490    17653    17820    17986    18139 
   18296    18438    18536    18640    18829    19062    19257    19410 
   19541    19692    19874    20004    20040    20088    20173    20190 
   20135    20115    20105    19998    19804    19626    19494    19363 
   19246    19160    19022    18832    18669    18509    18337    18179 
   18017    17847    17667    17517    17475    17462    17338    17170 
   17082    17043    16974    16877    16779    16698    16633    16588 
   16591    16615    16632    16681    16799    16918    16968    17003 
   17105    17232    17307    17374    17500    17639    17724    17779 
   17859    17975    18084    18162    18250    18361    18415    18407 
   18415    18469    18524    18515    18461    18446    18470    18457 
   18418    18418    18418    18361    18327    18337    18270    18157 
   18141    18192    18184    18121    18092    18114    18127    18091 
   18014    17934    17886    17898    17975    18060    18095    18114 
   18168    18195    18156    18129    18133    18119    18085    18053 
   18040    18044    18036    18023    18031    18064    18131    18222 
   18292    18338    18399    18445    18447    18442    18436    18393 
   18338    18284    18180    18076    18054    18029    17892    17728 
   17641    17582    17463    17301    17145    17011    16904    16827 
   16730    16595    16499    16478    16455    16383    16306    16278 
   16301    16324    16275    16194    16197    16283    16364    16384 
   16375    16436    16591    16722    16767    16807    16895    16995 
   17080    17146    17194    17247    17317    17402    17500    17582 
   17637    17672    17718    17801    17880    17932    17992    18065 
