Origin Time       2025/01/13 21:19:00
Lat.              31.8
Long.             131.6
Depth. (km)       30
Mag.              6.9
Station Code      EHM009
Station Lat.      33.6333
Station Long.     132.7965
Station Height(m) 252
Record Time       2025/01/13 21:20:33
Sampling Freq(Hz) 100Hz
Duration Time(s)  70
Dir.              U-D
Scale Factor      7845(gal)/8223790
Max. Acc. (gal)   2.174
Last Correction   2025/01/13 21:20:32
Memo.             
[...]
   21064    21065    20980    20953    21064    21197    21219    21131 
   21012    20915    20880    20942    21095    21259    21374    21423 
   21401    21358    21350    21378    21431    21489    21505    21427 
   21288    21228    21271    21312    21316    21316    21331    21340 
   21308    21236    21130    20977    20827    20729    20656    20584 
   20525    20476    20472    20569    20725    20834    20906    21038 
   21227    21351    21359    21367    21512    21728    21834    21797 
   21697    21579    21442    21282    21096    20916    20812    20753 
   20677    20626    20633    20692    20779    20858    20935    20999 
   21030    21047    21069    21134    21292    21506    21679    21751 
   21726    21675    21652    21610    21512    21393    21296    21234 
   21208    21261    21381    21438    21359    21219    21095    21064 
   21168    21308    21320    21147    20846    20521    20250    20019 
   19818    19683    19622    19643    19776    20044    20375    20625 
   20745    20829    20953    21065    21070    20980    20879    20806 
   20731    20663    20668    20773    20946    21099    21192    21247 
   21284    21316    21336    21323    21324    21404    21519    21544 
   21451    21362    21365    21393    21358    21257    21151    21082 
   21008    20915    20907    21026    21155    21169    21066    20966 
   20996    21162    21346    21460    21516    21581    21703    21826 
   21834    21667    21332    20942    20599    20299    20039    19885 
   19913    20102    20320    20464    20502    20464    20424    20437 
   20538    20677    20740    20721    20696    20676    20655    20688 
   20804    20970    21141    21257    21323    21450    21654    21813 
   21871    21871    21851    21799    21690    21535    21419    21404 
   21435    21431    21359    21227    21114    21078    21080    21076 
   21027    20907    20779    20717    20704    20691    20628    20551 
   20572    20702    20829    20916    20958    20953    20953    21000 
   21073    21181    21370    21581    21682    21666    21609    21544 
   21494    21456    21431    21444    21454    21405    21334    21285 
   21200    21023    20826    20667    20524    20439    20463    20551 
   20637    20683    20702    20730    20775    20839    20914    20957 
   20926    20796    20655    20621    20673    20694    20598    20414 
   20271    20228    20210    20196    20271    20434    20564    20622 
   20657    20687    20711    20723    20717    20713    20758    20861 
   20977    21061    21097    21093    21068    20999    20835    20614 
   20439    20368    20393    20452    20507    20592    20668    20664 
   20661    20726    20818    20918    21030    21132    21201    21220 
   21200    21142    21053    20985    20964    20953    20934    20892 
   20872    20979    21189    21365    21444    21439    21363    21267 
   21226    21281    21385    21392    21234    21049    20960    20946 
   21006    21163    21354    21471    21460    21331    21169    21057 
   20973    20884    20839    20860    20853    20771    20721    20794 
   20876    20875    20885    20950    20973    20898    20776    20690 
   20679    20740    20834    20945    21111    21325    21470    21475 
   21431    21408    21332    21165    21007    20962    20976    20939 
   20889    20904    20957    21000    21033    21078    21127    21118 
   21049    20983    20965    21006    21042    20999    20871    20737 
   20726    20880    21065    21136    21130    21154    21180    21151 
   21109    21101    21127    21122    20976    20730    20572    20595 
   20713    20841    20981    21122    21185    21166    21195    21308 
   21379    21325    21199    21053    20899    20779    20754    20817 
   20862    20769    20564    20382    20289    20285    20320    20325 
   20331    20383    20470    20584    20687    20706    20645    20582 
   20588    20675    20764    20777    20765    20830    20950    21022 
   20991    20873    20775    20814    20938    21012    21034    21089 
   21174    21262    21385    21512    21550    21487    21398    21374 
   21486    21664    21730    21667    21581    21486    21361    21286 
   21336    21438    21447    21347    21232    21176    21185    21213 
   21203    21147    21046    20914    20811    20744    20648    20540 
   20494    20517    20575    20684    20853    20985    21041    21138 
   21294    21369    21312    21186    21068    20985    20938    20895 
   20826    20781    20795    20776    20714    20692    20682    20590 
   20434    20363    20490    20696    20785    20731    20634    20575 
   20594    20690    20815    20942    21064    21111    21066    21016 
   20989    20987    21043    21154    21232    21189    21076    21030 
   21089    21157    21139    21076    21054    21066    21112    21269 
   21501    21668    21718    21689    21635    21583    21540    21510 
   21475    21401    21267    21114    21006    20931    20865    20804 
   20719    20594    20490    20470    20494    20471    20371    20275 
   20271    20372    20515    20567    20526    20557    20709    20889 
   21007    21050    21134    21274    21293    21147    20983    20904 
   20895    20887    20898    20950    20981    20947    20887    20835 
   20791    20752    20775    20883    20995    21024    21018    21084 
   21219    21348    21471    21608    21701    21687    21612    21602 
   21666    21678    21570    21375    21169    21033    20946    20792 
   20602    20553    20652    20741    20792    20846    20900    20947 
   20949    20881    20780    20692    20668    20741    20873    20969 
   20984    20943    20827    20672    20583    20549    20513    20526 
   20659    20854    20995    21062    21161    21335    21471    21458 
   21338    21228    21220    21277    21269    21211    21185    21161 
   21145    21185    21181    21064    20960    20968    21074    21276 
   21498    21605    21591    21494    21320    21118    20958    20891 
   20933    21047    21128    21096    21028    21026    21089    21169 
   21196    21159    21097    21019    20907    20783    20741    20818 
   20946    21035    20973    20760    20549    20461    20514    20595 
   20578    20486    20401    20406    20520    20617    20660    20721 
   20795    20866    20949    21082    21286    21494    21654    21749 
   21776    21760    21735    21705    21659    21625    21604    21554 
   21492    21406    21211    20988    20908    20947    20965    20869 
   20684    20524    20467    20490    20483    20398    20347    20459 
   20686    20837    20854    20872    20962    21060    21072    20983 
   20899    20911    20966    20966    20906    20853    20844    20871 
   20896    20846    20723    20583    20426    20299    20264    20248 
   20198    20217    20362    20538    20613    20507    20351    20345 
   20483    20683    20910    21097    21193    21235    21319    21438 
   21452    21350    21254    21216    21193    21163    21141    21143 
   21143    21103    20977    20785    20667    20682    20734    20760 
   20737    20661    20613    20626    20641    20646    20664    20660 
   20601    20502    20443    20471    20486    20412    20341    20358 
   20406    20402    20363    20403    20592    20821    20968    21057 
   21108    21073    20972    20898    20884    20903    20989    21176 
   21377    21513    21547    21393    21097    20879    20868    21030 
   21203    21226    21136    21077    21072    21023    20908    20822 
   20806    20841    20960    21134    21254    21294    21311    21335 
   21323    21271    21276    21379    21483    21479    21402    21335 
   21315    21365    21492    21635    21710    21709    21672    21625 
   21595    21622    21710    21826    21940    22021    22041    22019 
   22009    21971    21849    21740    21689    21591    21429    21282 
   21147    20972    20790    20706    20723    20734    20671    20551 
   20451    20393    20370    20409    20448    20405    20308    20251 
   20314    20467    20576    20607    20621    20664    20760    20869 
   20957    21042    21142    21223    21168    20941    20698    20560 
   20526    20540    20556    20664    20893    21122    21289    21397 
   21402    21293    21127    20996    20925    20850    20753    20698 
   20726    20808    20880    20926    21011    21145    21257    21339 
   21424    21506    21541    21510    21473    21460    21438    21365 
   21231    21126    21099    21045    20931    20838    20760    20680 
   20673    20764    20873    20941    20965    20973    20981    21023 
   21127    21234    21253    21153    20985    20842    20784    20785 
   20780    20791    20856    20935    21022    21122    21196    21254 
   21319    21382    21401    21309    21158    21057    20995    20953 
   20968    21014    21007    20966    20972    20999    21006    21000 
   20981    20961    20976    21008    20973    20879    20877    21037 
   21242    21350    21336    21253    21139    21064    21092    21205 
   21363    21523    21618    21613    21568    21575    21602    21562 
   21432    21253    21096    21000    20946    20916    20873    20810 
   20768    20730    20629    20494    20414    20410    20452    20510 
   20524    20493    20447    20348    20232    20223    20304    20359 
   20331    20252    20248    20425    20696    20885    20999    21147 
   21321    21459    21541    21608    21682    21730    21748    21757 
   21756    21753    21740    21702    21658    21579    21477    21398 
   21361    21431    21644    21851    21865    21721    21589    21547 
   21558    21590    21647    21690    21643    21492    21289    21096 
   20956    20826    20650    20505    20487    20515    20444    20259 
   20062    19934    19869    19827    19791    19791    19888    20079 
   20256    20352    20382    20351    20290    20254    20217    20112 
   19978    19936    20028    20185    20332    20452    20578    20694 
   20737    20725    20726    20769    20848    20899    20837    20733 
   20779    20995    21203    21276    21254    21230    21192    21047 
   20808    20582    20443    20387    20395    20436    20475    20518 
   20545    20532    20551    20638    20750    20916    21146    21323 
   21343    21246    21182    21227    21361    21492    21463    21323 
   21251    21259    21289    21324    21330    21278    21158    21006 
   20888    20834    20842    20912    21073    21284    21406    21415 
   21436    21562    21752    21905    21952    21933    21963    22083 
   22198    22208    22141    22073    22032    22014    22013    21994 
   21941    21905    21894    21822    21694    21585    21477    21359 
   21298    21292    21227    21037    20810    20642    20503    20341 
   20142    19967    19901    19877    19795    19673    19529    19364 
   19199    19016    18846    18778    18810    18912    19051    19145 
   19186    19279    19425    19496    19461    19427    19529    19753 
   19958    20094    20223    20366    20501    20607    20682    20731 
   20776    20810    20808    20790    20837    20979    21130    21213 
   21273    21365    21447    21493    21537    21563    21528    21493 
   21547    21648    21714    21760    21807    21798    21698    21546 
   21397    21273    21165    21084    21062    21057    20995    20889 
   20830    20876    20931    20861    20714    20625    20653    20754 
   20871    20992    21078    21093    21054    21010    21057    21219 
   21413    21604    21775    21945    22122    22215    22169    22077 
   22054    22088    22071    21964    21857    21799    21767    21748 
   21698    21591    21520    21502    21435    21313    21205    21087 
   20947    20852    20833    20873    20968    21091    21212    21319 
   21347    21271    21178    21142    21139    21092    21010    20947 
   20871    20784    20754    20752    20731    20715    20706    20717 
   20771    20829    20877    20987    21163    21328    21433    21485 
   21514    21523    21463    21352    21274    21280    21327    21358 
   21386    21427    21450    21469    21487    21479    21401    21213 
   20988    20830    20715    20603    20521    20515    20602    20702 
   20744    20746    20760    20784    20787    20787    20818    20864 
   20871    20839    20839    20866    20829    20707    20568    20459 
   20430    20518    20692    20853    20939    20977    20969    20903 
   20853    20881    20964    21087    21224    21339    21409    21435 
   21436    21424    21377    21289    21227    21242    21271    21246 
   21178    21091    20985    20856    20711    20636    20660    20715 
   20754    20781    20839    20999    21234    21436    21579    21705 
   21832    21932    22006    22069    22118    22175    22227    22242 
   22235    22210    22176    22196    22243    22223    22142    22069 
   22033    21996    21914    21799    21664    21519    21408    21357 
   21340    21320    21284    21217    21108    20991    20914    20866 
   20875    20958    21027    21047    21028    20934    20802    20694 
   20622    20590    20565    20576    20706    20922    21101    21212 
   21297    21348    21323    21234    21128    21062    21077    21092 
   21064    21078    21136    21120    20987    20781    20567    20363 
   20166    20011    19943    19974    20040    20025    19892    19669 
   19395    19134    18955    18882    18875    18868    18878    18933 
   18964    18924    18837    18744    18704    18762    18881    19006 
   19171    19376    19541    19673    19824    19931    19930    19863 
   19804    19836    19986    20155    20254    20306    20375    20448 
   20488    20537    20667    20875    21085    21220    21262    21288 
   21359    21448    21540    21632    21714    21779    21830    21901 
   21946    21903    21847    21860    21915    21948    21942    21952 
   22033    22179    22337    22449    22504    22542    22524    22381 
   22164    22002    21956    21975    22006    22081    22184    22226 
   22231    22276    22351    22408    22391    22314    22261    22264 
   22314    22380    22403    22378    22308    22144    21902    21682 
   21477    21232    21019    20902    20811    20702    20571    20367 
   20061    19737    19495    19352    19278    19260    19302    19373 
   19418    19417    19431    19502    19579    19608    19607    19656 
   19827    20039    20156    20194    20200    20190    20220    20306 
   20367    20366    20385    20483    20588    20640    20671    20704 
   20702    20645    20596    20611    20669    20717    20730    20763 
   20848    20938    20966    20950    20956    20945    20916    20954 
   21042    21142    21290    21466    21602    21694    21753    21801 
   21883    22010    22152    22307    22480    22609    22620    22532 
   22404    22234    22033    21864    21733    21608    21490    21369 
   21212    21065    20976    20934    20896    20796    20633    20491 
   20383    20254    20109    20029    20019    19981    19900    19832 
   19773    19743    19796    19913    20005    20017    20029    20119 
   20262    20397    20484    20560    20679    20845    21026    21172 
   21266    21365    21492    21618    21730    21851    21983    22098 
   22181    22254    22307    22322    22330    22346    22347    22335 
   22275    22144    22017    21906    21730    21497    21311    21209 
   21180    21217    21278    21274    21205    21162    21207    21288 
   21334    21340    21359    21402    21412    21334    21216    21136 
   21089    21014    20888    20765    20687    20645    20632    20621 
   20548    20424    20289    20147    20021    19939    19894    19878 
   19857    19819    19830    19901    19936    19907    19899    19948 
   20001    20039    20112    20251    20413    20525    20590    20669 
   20769    20845    20900    20961    21008    21020    21004    20957 
   20919    20923    20923    20923    20950    21003    21088    21213 
   21397    21640    21925    22215    22434    22526    22519    22476 
   22422    22347    22299    22320    22360    22354    22310    22238 
   22158    22095    22029    21949    21878    21833    21805    21783 
   21774    21767    21736    21663    21560    21483    21432    21344 
   21199    21049    20941    20862    20777    20646    20460    20278 
   20160    20077    19988    19893    19801    19715    19658    19635 
   19619    19618    19657    19724    19826    19975    20152    20336 
   20526    20710    20862    21001    21130    21216    21243    21220 
   21189    21155    21089    21016    20952    20850    20710    20584 
   20513    20494    20488    20467    20447    20455    20476    20502 
   20555    20630    20729    20868    21028    21199    21370    21482 
   21521    21550    21612    21712    21816    21872    21892    21929 
   22003    22073    22076    22026    21961    21883    21824    21762 
   21656    21579    21582    21617    21618    21587    21571    21573 
   21537    21436    21282    21109    20947    20825    20718    20588 
   20455    20348    20278    20232    20169    20047    19870    19681 
   19499    19334    19221    19197    19259    19353    19440    19496 
   19546    19658    19816    19940    20005    20013    20015    20081 
   20220    20399    20575    20675    20684    20668    20668    20659 
   20632    20649    20734    20831    20887    20889    20868    20849 
   20831    20823    20826    20814    20796    20814    20858    20862 
   20825    20821    20857    20877    20880    20891    20915    20960 
   21022    21085    21128    21120    21082    21070    21089    21112 
   21104    21022    20903    20819    20769    20746    20745    20737 
   20726    20750    20812    20904    21030    21182    21327    21428 
   21485    21520    21550    21598    21662    21721    21772    21803 
   21809    21814    21852    21932    22045    22137    22180    22207 
   22235    22272    22331    22397    22458    22520    22558    22553 
   22540    22551    22563    22540    22493    22476    22477    22450 
   22396    22312    22195    22053    21894    21733    21587    21455 
   21334    21219    21101    20988    20893    20833    20794    20746 
   20688    20640    20606    20557    20484    20437    20420    20352 
   20201    20025    19888    19801    19753    19727    19719    19755 
   19818    19855    19885    19962    20085    20196    20275    20337 
   20366    20355    20316    20245    20201    20206    20196    20147 
   20082    20032    20028    20034    20009    19996    20019    20054 
   20089    20151    20254    20374    20486    20603    20727    20844 
   20943    21018    21085    21173    21266    21351    21428    21489 
   21544    21585    21583    21577    21602    21620    21604    21568 
   21544    21564    21620    21681    21716    21716    21736    21786 
   21791    21739    21664    21585    21537    21533    21519    21471 
   21432    21440    21456    21432    21396    21404    21450    21501 
   21547    21597    21658    21710    21739    21749    21755    21778 
   21828    21859    21830    21766    21710    21678    21633    21564 
   21492    21440    21416    21392    21332    21220    21065    20893 
   20741    20602    20472    20372    20297    20227    20150    20046 
