Origin Time       2025/01/13 21:19:00
Lat.              31.8
Long.             131.6
Depth. (km)       30
Mag.              6.9
Station Code      EHM011
Station Lat.      33.4498
Station Long.     132.4341
Station Height(m) 8
Record Time       2025/01/13 21:20:11
Sampling Freq(Hz) 100Hz
Duration Time(s)  103
Dir.              E-W
Scale Factor      7845(gal)/8223790
Max. Acc. (gal)   8.147
Last Correction   2025/01/13 21:20:10
Memo.             
[...]
   11025    11844    12573    13066    13293    13270    13181    13163 
   13111    12939    12722    12549    12410    12229    12010    11757 
   11434    11078    10789    10652    10584    10368    10049     9840 
    9775     9796     9957    10293    10720    11230    11751    12090 
   12177    12001    11632    11234    10929    10760    10635    10447 
   10219     9988     9720     9398     9151     9135     9323     9585 
    9855    10112    10358    10597    10833    11148    11577    12105 
   12742    13356    13771    13980    14013    13809    13414    12980 
   12463    11839    11272    10793    10292     9798     9425     9130 
    8854     8704     8696     8776     8957     9151     9248     9344 
    9556     9909    10486    11268    12056    12702    13120    13344 
   13554    13810    14031    14199    14292    14262    14087    13747 
   13263    12696    12078    11469    10986    10720    10677    10667 
   10459    10087     9718     9427     9197     9032     8995     9105 
    9347     9779    10349    10820    11113    11361    11695    12114 
   12498    12671    12529    12104    11535    11003    10648    10473 
   10392    10359    10382    10473    10636    10845    10976    10978 
   11006    11196    11500    11797    11944    11915    11863    11817 
   11693    11612    11666    11738    11735    11670    11566    11435 
   11276    11072    10751    10359    10125    10116    10224    10349 
   10439    10531    10660    10785    10886    10953    10968    10956 
   10957    11060    11331    11713    12150    12657    13239    13783 
   14058    13971    13706    13397    12981    12376    11539    10577 
    9763     9308     9153     9066     8939     8916     9107     9398 
    9649     9861    10165    10628    11186    11811    12514    13243 
   13919    14403    14593    14547    14301    13795    13035    12117 
   11183    10404     9868     9537     9378     9410     9589     9749 
    9803     9822     9834     9798     9786     9882    10044    10203 
   10331    10471    10698    10998    11346    11743    12113    12418 
   12702    12924    13024    13024    12920    12654    12276    11973 
   11831    11722    11580    11461    11269    10941    10639    10403 
   10112     9799     9590     9531     9580     9687     9857    10079 
   10299    10481    10598    10670    10741    10893    11211    11622 
   11900    11996    12104    12403    12847    13157    13095    12704 
   12135    11524    10999    10604    10363    10266    10215    10238 
   10473    10820    11017    10967    10755    10559    10548    10754 
   11038    11223    11286    11353    11475    11607    11738    11784 
   11615    11314    11065    10890    10704    10492    10314    10218 
   10249    10466    10886    11410    11909    12349    12656    12708 
   12636    12665    12739    12680    12522    12410    12407    12491 
   12523    12298    11796    11178    10559    10017     9676     9579 
    9575     9562     9630     9805    10021    10332    10714    10999 
   11169    11283    11259    11020    10565     9988     9514     9340 
    9499     9930    10539    11179    11734    12231    12625    12779 
   12753    12714    12610    12394    12245    12247    12278    12313 
   12432    12636    12860    12996    12897    12452    11701    10854 
   10065     9390     8873     8502     8206     7998     7952     8120 
    8536     9202    10014    10804    11472    11997    12424    12846 
   13262    13494    13374    12960    12451    12002    11670    11400 
   11122    10855    10696    10762    11052    11302    11254    10975 
   10670    10508    10602    10879    11121    11176    11040    10829 
   10665    10535    10438    10477    10673    10968    11333    11699 
   11955    11994    11801    11523    11323    11234    11210    11182 
   11090    10952    10889    11092    11583    12089    12370    12398 
   12224    11871    11358    10716    10023     9406     8978     8847 
    9047     9417     9747     9967    10123    10346    10755    11277 
   11680    11830    11757    11523    11237    11079    11134    11362 
   11761    12274    12731    13008    13051    12903    12746    12649 
   12479    12233    11983    11661    11287    10971    10716    10555 
   10573    10731    10874    10912    10910    10947    10997    11001 
   10955    10951    11067    11260    11477    11680    11821    11894 
   11920    11942    12012    12113    12231    12364    12375    12150 
   11759    11280    10755    10268     9844     9445     9111     8888 
    8783     8862     9175     9630    10120    10651    11288    12012 
   12762    13491    14069    14380    14442    14320    14164    14080 
   13957    13694    13338    12934    12460    11898    11203    10280 
    9202     8278     7673     7273     7005     6907     6978     7219 
    7711     8521     9612    10859    12185    13482    14532    15172 
   15345    15045    14431    13846    13520    13336    13086    12738 
   12320    11848    11350    10763    10033     9228     8457     7824 
    7399     7138     7038     7283     7986     9020    10231    11479 
   12579    13348    13656    13552    13232    12843    12498    12258 
   12069    11928    11935    12082    12190    12082    11772    11406 
   11040    10673    10399    10270    10157     9963     9784     9786 
   10044    10482    10937    11313    11642    11983    12272    12398 
   12391    12379    12409    12441    12424    12336    12217    12137 
   12125    12113    12037    11924    11792    11615    11369    10993 
   10484     9996     9637     9337     9111     9090     9332     9840 
   10557    11358    12179    12980    13707    14311    14683    14797 
   14760    14652    14508    14305    13911    13284    12621    12109 
   11703    11257    10735    10174     9672     9371     9375     9703 
   10219    10660    10935    11161    11418    11751    12191    12549 
   12586    12390    12197    12070    11985    11896    11734    11583 
   11591    11722    11813    11680    11211    10478     9575     8672 
    8036     7715     7573     7554     7636     7863     8287     8900 
    9686    10498    11140    11622    12033    12360    12584    12739 
   12837    12818    12622    12364    12231    12181    12000    11518 
   10728     9848     9130     8619     8267     8068     8028     8114 
    8311     8637     9136     9759    10324    10839    11556    12538 
   13504    14184    14578    14810    14941    14989    14906    14532 
   13826    13042    12447    12035    11639    11230    10870    10536 
   10219     9956     9765     9568     9270     8958     8814     8878 
    9057     9198     9220     9193     9212     9346     9651    10068 
   10534    11080    11645    12019    12054    11831    11601    11461 
   11284    11020    10758    10593    10571    10697    10966    11321 
   11614    11790    11909    11971    12000    12002    11851    11587 
   11434    11454    11583    11774    11981    12110    12005    11597 
   11033    10424     9742     9027     8421     7942     7533     7303 
    7365     7601     7854     8101     8434     8930     9559    10228 
   10820    11273    11726    12333    13082    13826    14424    14948 
   15552    16162    16555    16561    16177    15531    14797    14141 
   13591    13019    12380    11731    11126    10590    10096     9597 
    9067     8544     8116     7889     7877     7915     7913     8056 
    8511     9239    10173    11245    12345    13421    14399    15066 
   15287    15132    14756    14346    14068    13965    13995    14042 
   13968    13747    13342    12580    11466    10266     9165     8166 
    7268     6585     6254     6262     6509     7005     7778     8679 
    9452     9942    10172    10260    10307    10420    10656    10832 
   10781    10669    10706    10906    11230    11649    12085    12413 
   12641    12900    13134    13250    13359    13514    13606    13505 
   13188    12775    12398    12123    11935    11635    11005    10119 
    9259     8568     7958     7291     6596     6091     5989     6386 
    7234     8290     9259    10065    10793    11458    12017    12384 
   12506    12523    12615    12781    12935    13026    13068    13124 
   13221    13248    12985    12339    11524    10895    10633    10673 
   10736    10538    10199    10071    10187    10376    10559    10686 
   10771    10909    11188    11620    12032    12202    12183    12271 
   12622    13136    13608    13807    13559    12964    12302    11650 
   10979    10384     9883     9455     9192     9140     9240     9397 
    9576     9904    10535    11387    12187    12796    13171    13198 
   12955    12714    12582    12514    12501    12552    12687    12919 
   13228    13551    13725    13626    13315    12899    12407    11859 
   11307    10844    10539    10488    10790    11245    11487    11554 
   11692    11873    11924    11686    11111    10377     9714     9297 
    9366     9957    10677    11130    11241    11141    10991    10766 
   10318     9684     9105     8824     8958     9448    10088    10646 
   11044    11381    11728    12060    12388    12730    12934    12802 
   12313    11628    10978    10516    10295    10351    10636    10980 
   11253    11319    11070    10589    10052     9562     9171     8941 
    8974     9301     9726    10125    10670    11414    12098    12545 
   12769    12737    12378    11786    11176    10671    10284    10054 
    9991    10044    10143    10216    10311    10519    10716    10786 
   10829    10897    10925    10882    10782    10640    10467    10386 
   10600    11175    11938    12584    12937    13003    12889    12753 
   12615    12382    12074    11755    11485    11365    11407    11556 
   11848    12307    12891    13568    14250    14698    14750    14477 
   13963    13225    12405    11716    11254    10979    10797    10567 
   10150     9541     8872     8282     7815     7408     7096     6976 
    7005     7090     7195     7237     7207     7275     7608     8220 
    9016     9921    10839    11626    12213    12549    12563    12437 
   12565    13030    13572    13976    14149    14048    13748    13481 
   13324    13032    12471    11826    11202    10532     9769     8924 
    8167     7758     7803     8205     8793     9414    10022    10633 
   11313    12160    13115    13977    14659    15182    15595    15965 
   16268    16349    16044    15427    14787    14245    13655    12933 
   12174    11426    10638     9861     9292     9066     9112     9296 
    9576     9927    10278    10597    10968    11520    12239    12914 
   13294    13248    12826    12245    11705    11173    10509     9737 
    9008     8473     8280     8436     8715     8972     9321     9844 
   10301    10442    10349    10158     9852     9559     9579     9949 
   10423    10874    11294    11597    11766    11931    12145    12283 
   12222    12035    11919    11935    11979    11997    11963    11873 
   11831    11793    11491    10836     9973     9051     8199     7527 
    7090     6847     6689     6624     6747     7109     7796     8856 
   10130    11384    12475    13382    14145    14758    15211    15557 
   15826    16008    16015    15746    15283    14781    14183    13338 
   12307    11416    10918    10698    10461    10004     9342     8696 
    8310     8251     8382     8576     8856     9202     9466     9595 
    9640     9634     9672     9882    10268    10643    10810    10828 
   10890    11122    11634    12476    13393    13948    13938    13477 
   12766    11988    11260    10624    10044     9451     8907     8581 
    8540     8702     8991     9404     9936    10523    11057    11514 
   11919    12167    12213    12395    13041    14015    15030    15969 
   16675    16876    16448    15549    14413    13150    11793    10470 
    9390     8687     8374     8341     8361     8295     8272     8548 
    9189     9894    10228    10139     9999    10197    10901    12031 
   13285    14397    15411    16492    17586    18455    18902    18825 
   18199    17193    16194    15414    14656    13657    12417    11029 
    9594     8279     7113     5950     4761     3659     2862     2647 
    3073     3927     5030     6265     7473     8591     9655    10685 
   11647    12526    13286    13832    14172    14453    14702    14746 
   14399    13680    12708    11562    10354     9190     8085     7121 
    6520     6505     7159     8286     9489    10451    11055    11403 
   11766    12293    12885    13446    14022    14688    15429    16206 
   16934    17398    17416    17016    16386    15746    15176    14530 
   13707    12775    11762    10750     9977     9499     9128     8823 
    8695     8772     8953     9093     9136     9073     8905     8864 
    9244     9957    10651    11119    11342    11418    11438    11356 
   11126    10764    10228     9536     8858     8332     7892     7323 
    6493     5513     4650     4110     3902     3931     4118     4410 
    4792     5244     5680     6054     6471     7148     8225     9660 
   11304    12973    14489    15761    16700    17186    17189    16779 
   15996    14874    13495    12028    10737     9788     9213     9090 
    9424    10046    10739    11314    11692    11901    11951    11858 
   11720    11614    11615    11827    12249    12742    13117    13240 
   13038    12476    11658    10855    10265     9923     9857    10116 
   10790    12027    13787    15699    17351    18596    19415    19723 
   19437    18632    17564    16459    15250    13736    11924    10093 
    8548     7387     6519     5873     5487     5397     5547     5837 
    6216     6718     7396     8241     9290    10701    12459    14250 
   15701    16510    16611    16258    15720    15091    14399    13613 
   12706    11728    10825    10230    10004     9829     9463     9103 
    9109     9609    10327    10805    10843    10696    10789    11298 
   12109    12960    13531    13682    13528    13192    12722    12193 
   11684    11206    10752    10373    10073     9732     9267     8756 
    8378     8251     8257     8237     8220     8324     8584     8969 
    9414     9923    10575    11433    12456    13525    14554    15472 
   16194    16699    16938    16767    16160    15241    14134    13041 
   12124    11299    10384     9327     8256     7334     6527     5724 
    4942     4216     3593     3303     3572     4334     5348     6458 
    7711     9192    10863    12607    14307    15815    16985    17685 
   17851    17574    17012    16293    15541    14782    13892    12893 
   11916    10825     9470     8060     6845     5821     4959     4351 
    4125     4318     4874     5779     6983     8329     9763    11277 
   12650    13666    14370    14864    15140    15198    15167    15207 
   15288    15225    14885    14293    13560    12772    11931    11005 
   10021     9096     8383     7996     7963     8225     8710     9333 
    9987    10619    11248    11789    12043    11986    11885    11993 
   12343    12810    13285    13822    14499    15201    15757    16046 
   16031    15807    15452    14922    14227    13424    12540    11593 
   10632     9833     9450     9504     9764    10002    10095    10041 
    9953     9872     9726     9567     9564     9790    10145    10524 
   10889    11268    11708    12154    12482    12677    12749    12679 
   12525    12405    12426    12523    12499    12368    12303    12317 
   12312    12190    11854    11273    10528     9715     8924     8190 
    7506     6898     6477     6372     6601     7051     7596     8217 
    8964     9795    10632    11497    12383    13203    13884    14324 
   14447    14311    14026    13670    13255    12772    12267    11785 
   11261    10593     9850     9250     8854     8490     7996     7358 
    6729     6309     6187     6301     6610     7130     7861     8784 
    9837    10925    12021    13082    14023    14775    15280    15591 
   15863    16106    16158    15857    15225    14500    13873    13339 
   12783    12060    11105    10027     9008     8156     7500     7078 
    6987     7281     7882     8714     9757    10895    11935    12800 
   13533    14169    14667    14906    14775    14296    13635    12958 
   12326    11742    11246    10908    10735    10627    10434    10142 
    9832     9556     9377     9342     9460     9733    10116    10535 
   10929    11275    11668    12163    12533    12540    12340    12248 
   12312    12384    12361    12220    12046    11988    12074    12195 
   12240    12152    11993    11913    11934    11943    11916    11905 
   11885    11799    11718    11734    11772    11715    11573    11373 
   11175    11091    11107    11013    10654    10116     9551     8991 
    8510     8230     8122     8070     8013     7966     7896     7719 
    7515     7481     7689     8172     8935     9803    10596    11317 
   12016    12645    13149    13589    14060    14490    14690    14571 
   14170    13536    12788    12058    11322    10559     9896     9420 
    9080     8760     8318     7800     7466     7519     7979     8804 
    9942    11203    12317    13190    13909    14504    14893    14951 
   14608    13973    13265    12545    11672    10581     9455     8509 
    7792     7295     7021     6903     6824     6741     6723     6855 
    7285     8162     9356    10581    11724    12830    13906    14850 
   15543    15978    16175    16119    15865    15533    15163    14677 
   14049    13373    12676    11938    11291    10845    10480    10123 
    9823     9536     9262     9078     8959     8851     8776     8814 
    8982     9143     9242     9367     9551     9776    10058    10432 
   10831    11074    11157    11273    11427    11466    11423    11426 
   11485    11591    11753    11908    11966    11929    11862    11824 
   11866    11989    12094    12132    12148    12183    12286    12459 
   12565    12561    12621    12838    13089    13178    13018    12648 
   12197    11840    11599    11371    11180    11114    11187    11372 
   11537    11574    11504    11333    11056    10754    10490    10245 
    9977     9652     9275     8989     8900     8907     8884     8830 
    8775     8761     8827     8927     9012     9170     9501     9922 
   10272    10508    10689    10833    10960    11115    11249    11280 
   11267    11280    11306    11344    11410    11515    11676    11832 
   11929    12039    12221    12444    12679    12892    12958    12777 
   12371    11800    11156    10582    10185     9967     9792     9524 
    9180     8915     8865     9082     9540    10141    10804    11524 
   12333    13177    13909    14431    14760    14947    15099    15319 
   15519    15584    15531    15279    14693    13894    13130    12515 
   12006    11448    10708     9849     9001     8264     7742     7472 
    7406     7545     7892     8363     8835     9209     9447     9625 
    9867    10257    10814    11469    12077    12540    12901    13234 
   13516    13680    13675    13505    13246    12934    12503    11861 
   10990    10045     9258     8683     8260     8013     7927     7869 
    7807     7808     7882     8068     8424     8918     9539    10304 
   11146    11967    12711    13344    13813    14102    14276    14376 
