Origin Time       2025/01/13 21:19:00
Lat.              31.8
Long.             131.6
Depth. (km)       30
Mag.              6.9
Station Code      EHM004
Station Lat.      34.0627
Station Long.     132.9986
Station Height(m) 4
Record Time       2025/01/13 21:20:53
Sampling Freq(Hz) 100Hz
Duration Time(s)  76
Dir.              U-D
Scale Factor      7845(gal)/8223790
Max. Acc. (gal)   2.213
Last Correction   2025/01/13 21:20:52
Memo.             
[...]
    3210     3133     3056     2975     2907     2886     2914     2991 
    3086     3160     3218     3279     3337     3400     3466     3476 
    3399     3283     3165     3068     3007     2949     2857     2756 
    2691     2664     2635     2596     2583     2604     2621     2617 
    2623     2678     2782     2891     2988     3090     3180     3244 
    3294     3337     3373     3389     3381     3362     3333     3281 
    3225     3176     3122     3042     2943     2845     2768     2721 
    2713     2722     2724     2725     2762     2843     2949     3065 
    3176     3252     3277     3284     3299     3303     3258     3168 
    3068     3003     3001     3028     3030     3018     3003     2982 
    3001     3080     3159     3204     3218     3204     3183     3145 
    3106     3103     3113     3109     3125     3176     3221     3215 
    3163     3107     3073     3045     3030     3057     3119     3164 
    3167     3157     3167     3194     3215     3203     3153     3087 
    3018     2952     2893     2835     2779     2755     2763     2787 
    2839     2909     2957     2979     3006     3033     3061     3122 
    3184     3229     3289     3343     3357     3383     3439     3460 
    3434     3418     3419     3402     3364     3333     3329     3335 
    3325     3304     3312     3356     3397     3397     3369     3338 
    3281     3207     3177     3183     3177     3188     3208     3187 
    3141     3121     3092     3021     2955     2930     2926     2941 
    2990     3061     3145     3218     3244     3240     3240     3242 
    3230     3204     3172     3123     3051     2959     2867     2813 
    2799     2778     2756     2793     2886     2983     3049     3072 
    3083     3110     3122     3106     3109     3118     3106     3129 
    3200     3273     3364     3464     3501     3453     3357     3240 
    3105     2986     2914     2859     2797     2762     2760     2766 
    2803     2895     2978     2999     3006     3033     3072     3140 
    3219     3246     3235     3250     3268     3248     3226     3219 
    3204     3177     3137     3103     3111     3117     3063     3011 
    3002     2976     2947     2956     2967     2970     3005     3087 
    3214     3345     3450     3566     3672     3701     3692     3696 
    3680     3615     3537     3474     3431     3381     3281     3157 
    3073     3017     2952     2902     2894     2889     2839     2790 
    2818     2895     2949     2984     3010     3003     2979     2951 
    2910     2893     2895     2872     2860     2909     2992     3056 
    3079     3091     3137     3213     3271     3303     3341     3354 
    3349     3373     3406     3430     3485     3528     3519     3496 
    3454     3388     3327     3269     3219     3202     3207     3213 
    3227     3253     3281     3291     3244     3150     3055     2987 
    2964     2947     2903     2891     2918     2943     2992     3090 
    3176     3248     3323     3360     3349     3354     3402     3453 
    3472     3477     3491     3487     3449     3375     3285     3219 
    3154     3063     2987     2959     2952     2955     2945     2928 
    2911     2867     2790     2722     2690     2678     2668     2654 
    2663     2714     2775     2840     2914     2948     2932     2926 
    2930     2933     2957     2992     3024     3068     3140     3219 
    3268     3291     3319     3339     3345     3388     3458     3477 
    3446     3426     3402     3322     3217     3164     3165     3192 
    3238     3294     3354     3427     3491     3519     3530     3532 
    3497     3424     3350     3285     3219     3140     3063     3015 
    2986     2944     2897     2860     2837     2808     2768     2747 
    2748     2736     2724     2744     2790     2848     2893     2910 
    2925     2947     2971     2979     2949     2901     2883     2886 
    2866     2843     2868     2910     2937     2983     3028     3029 
    3033     3075     3117     3159     3208     3222     3229     3300 
    3392     3429     3426     3407     3362     3337     3352     3354 
    3312     3258     3187     3086     3002     2970     2961     2947 
    2930     2948     3022     3110     3167     3202     3241     3275 
    3287     3280     3284     3321     3354     3349     3323     3310 
    3308     3280     3194     3078     2984     2928     2895     2884 
    2907     2953     3009     3067     3090     3061     3040     3048 
    3044     3055     3129     3208     3249     3302     3375     3411 
    3412     3404     3365     3314     3306     3306     3265     3215 
    3169     3118     3068     3056     3095     3132     3115     3092 
    3107     3126     3123     3144     3218     3303     3356     3356 
    3330     3348     3373     3323     3250     3210     3145     3060 
    3022     3007     2978     2967     2978     2986     3041     3138 
    3199     3233     3262     3246     3194     3150     3115     3096 
    3115     3152     3191     3245     3295     3296     3287     3342 
    3430     3458     3443     3449     3456     3453     3464     3470 
    3468     3462     3416     3310     3168     3014     2863     2733 
    2621     2533     2515     2569     2628     2695     2809     2916 
    2963     2983     2991     2983     2986     3006     3029     3072 
    3134     3173     3190     3248     3377     3508     3578     3623 
    3662     3658     3607     3535     3441     3348     3295     3271 
    3262     3300     3341     3292     3198     3145     3098     3015 
    2936     2895     2901     2930     2945     2964     3026     3098 
    3149     3200     3257     3298     3298     3269     3269     3285 
    3249     3183     3132     3095     3091     3100     3060     3009 
    3037     3123     3175     3163     3127     3107     3106     3071 
    2984     2921     2930     2949     2951     2990     3053     3092 
    3137     3191     3199     3175     3168     3164     3146     3118 
    3040     2913     2818     2781     2771     2797     2852     2920 
    3007     3096     3179     3261     3308     3308     3291     3248 
    3179     3118     3091     3110     3163     3208     3238     3291 
    3364     3397     3396     3397     3385     3349     3306     3284 
    3294     3318     3350     3370     3338     3268     3200     3136 
    3096     3090     3067     3048     3075     3136     3188     3207 
    3235     3295     3288     3173     3067     3034     3015     2986 
    2947     2884     2836     2816     2768     2706     2671     2609 
    2500     2435     2465     2511     2501     2479     2506     2544 
    2559     2589     2628     2646     2664     2682     2671     2694 
    2791     2890     2955     3042     3167     3260     3310     3375 
    3443     3445     3376     3302     3241     3199     3181     3168 
    3196     3321     3462     3562     3653     3701     3690     3670 
    3601     3474     3368     3250     3076     2918     2828     2802 
    2817     2830     2856     2899     2893     2856     2862     2889 
    2903     2902     2911     2945     2983     3011     3026     3022 
    3032     3079     3148     3252     3388     3477     3483     3483 
    3535     3623     3712     3788     3852     3916     3944     3902 
    3824     3751     3654     3528     3466     3500     3559     3609 
    3676     3748     3805     3846     3856     3792     3673     3557 
    3433     3256     3053     2901     2809     2745     2728     2763 
    2802     2824     2809     2732     2670     2670     2668     2664 
    2687     2713     2744     2795     2844     2883     2907     2884 
    2799     2685     2620     2643     2681     2679     2652     2620 
    2605     2587     2527     2494     2548     2581     2547     2555 
    2643     2743     2813     2862     2936     3041     3134     3225 
    3312     3346     3331     3303     3260     3231     3231     3219 
    3204     3237     3318     3411     3491     3558     3596     3572 
    3518     3496     3519     3568     3627     3655     3646     3650 
    3657     3613     3542     3484     3450     3439     3433     3412 
    3370     3310     3250     3225     3241     3269     3273     3261 
    3275     3287     3264     3252     3249     3204     3154     3127 
    3086     3052     3049     3040     3021     3017     3010     2995 
    2980     2986     3018     3045     3060     3076     3065     3030 
    3014     3005     2972     2960     2971     2974     2986     3026 
    3075     3125     3172     3227     3341     3474     3532     3503 
    3437     3372     3310     3210     3103     3065     3069     3041 
    2980     2916     2848     2781     2725     2702     2748     2837 
    2897     2933     3010     3130     3229     3280     3304     3311 
    3287     3257     3229     3173     3113     3080     3053     3026 
    3017     3002     2972     2929     2871     2826     2814     2790 
    2748     2736     2744     2744     2752     2775     2783     2795 
    2851     2910     2961     3048     3149     3203     3207     3194 
    3188     3168     3092     3007     2949     2884     2845     2886 
    2948     2983     3005     3013     3028     3060     3091     3129 
    3156     3144     3159     3218     3253     3280     3338     3387 
    3420     3473     3542     3608     3663     3708     3730     3717 
    3696     3686     3678     3657     3647     3661     3672     3669 
    3665     3681     3734     3796     3824     3829     3843     3852 
    3831     3796     3761     3693     3568     3407     3273     3211 
    3192     3150     3088     3064     3086     3102     3105     3150 
    3238     3294     3322     3380     3451     3500     3508     3473 
    3410     3330     3254     3184     3117     3080     3063     3021 
    2972     2916     2833     2767     2754     2755     2741     2737 
    2747     2758     2797     2864     2936     3030     3122     3159 
    3191     3272     3354     3406     3437     3450     3441     3410 
    3393     3420     3430     3387     3350     3342     3321     3292 
    3269     3241     3226     3229     3222     3221     3267     3323 
    3334     3330     3345     3334     3311     3341     3406     3426 
    3426     3483     3558     3601     3646     3680     3643     3561 
    3481     3415     3370     3362     3369     3364     3346     3314 
    3256     3181     3092     2995     2916     2862     2817     2791 
    2786     2775     2739     2694     2687     2727     2758     2759 
    2781     2844     2911     2978     3055     3144     3244     3334 
    3399     3456     3487     3472     3446     3427     3400     3358 
    3308     3253     3179     3090     3019     2952     2847     2740 
    2686     2652     2582     2490     2400     2296     2172     2039 
    1930     1880     1873     1872     1879     1892     1894     1871 
    1841     1837     1846     1841     1815     1772     1734     1719 
    1710     1717     1790     1908     2019     2120     2245     2409 
    2575     2681     2718     2737     2760     2770     2770     2822 
    2952     3102     3240     3370     3461     3510     3572     3636 
    3670     3694     3734     3792     3871     3960     4054     4153 
    4245     4275     4234     4189     4163     4129     4089     4055 
    3998     3905     3838     3813     3781     3762     3796     3823 
    3823     3843     3869     3855     3808     3734     3655     3624 
    3643     3661     3639     3618     3638     3669     3678     3693 
    3732     3782     3811     3796     3763     3769     3813     3843 
    3863     3886     3859     3796     3726     3618     3474     3330 
    3181     3034     2926     2875     2870     2867     2837     2808 
    2809     2806     2755     2664     2555     2415     2241     2068 
    1934     1836     1760     1736     1788     1854     1885     1929 
    2002     2053     2088     2119     2119     2106     2110     2118 
    2122     2135     2147     2138     2127     2108     2066     2070 
    2095     2057     2027     2074     2142     2188     2222     2254 
    2282     2278     2254     2269     2335     2403     2481     2590 
    2685     2775     2918     3083     3204     3264     3283     3306 
    3350     3412     3505     3627     3748     3854     3948     4017 
    4039     4027     4025     4029     3996     3970     3981     3971 
    3946     3932     3931     3943     3963     3993     4020     4021 
    4025     4048     4066     4082     4110     4171     4263     4356 
    4445     4545     4656     4770     4872     4918     4916     4926 
    4932     4858     4722     4557     4336     4081     3859     3699 
    3568     3419     3280     3165     3038     2925     2856     2785 
    2716     2674     2628     2608     2648     2690     2704     2752 
    2848     2925     2984     3067     3142     3206     3289     3365 
    3430     3530     3643     3734     3809     3873     3921     3966 
    3998     4025     4059     4078     4075     4072     4089     4116 
    4145     4180     4218     4245     4253     4252     4249     4237 
    4225     4205     4137     4052     4000     3971     3944     3909 
    3839     3734     3639     3555     3434     3287     3148     2995 
    2806     2583     2344     2119     1930     1771     1634     1526 
    1435     1343     1250     1163     1081     1000      945      908 
     855      816      834      886      970     1111     1278     1439 
    1610     1782     1915     2006     2081     2141     2180     2201 
    2224     2263     2320     2365     2393     2442     2524     2608 
    2675     2731     2741     2700     2656     2644     2636     2620 
    2610     2610     2625     2660     2698     2745     2809     2852 
    2870     2886     2878     2822     2772     2767     2778     2775 
    2772     2802     2880     2971     3046     3126     3213     3294 
    3372     3433     3465     3488     3507     3510     3505     3515 
    3532     3543     3532     3491     3439     3388     3321     3233 
    3132     3030     2961     2936     2934     2953     2976     2995 
    3033     3060     3041     3021     3010     2974     2932     2917 
    2905     2898     2903     2894     2851     2801     2741     2663 
    2586     2524     2457     2380     2332     2322     2328     2357 
    2412     2482     2574     2683     2781     2868     2961     3064 
    3181     3277     3333     3379     3429     3478     3523     3546 
    3572     3649     3747     3811     3851     3898     3924     3896 
    3851     3829     3809     3789     3786     3771     3755     3788 
    3815     3780     3740     3728     3717     3717     3732     3744 
    3766     3792     3815     3858     3921     3966     3996     4044 
    4120     4221     4342     4465     4575     4673     4768     4854 
    4915     4947     4970     4985     4972     4920     4849     4757 
    4625     4472     4341     4222     4112     4017     3931     3843 
    3773     3715     3643     3558     3474     3375     3271     3186 
    3098     2991     2901     2828     2739     2631     2512     2380 
    2253     2134     1995     1833     1672     1517     1360     1206 
    1074      962      865      815      838      900      996     1143 
    1310     1453     1601     1753     1877     1981     2100     2216 
    2305     2413     2579     2776     2963     3134     3284     3403 
    3524     3662     3792     3909     4045     4202     4357     4490 
    4596     4672     4710     4733     4731     4672     4577     4475 
    4337     4160     3971     3785     3609     3458     3321     3190 
    3091     3028     2976     2932     2899     2899     2959     3040 
    3111     3203     3314     3397     3450     3488     3510     3519 
    3510     3483     3445     3395     3350     3302     3214     3103 
    2997     2883     2774     2689     2627     2602     2623     2631 
    2621     2644     2679     2687     2670     2610     2531     2461 
    2351     2193     2079     2030     1987     1944     1927     1935 
    1960     1998     2022     2012     2003     2027     2064     2085 
    2124     2196     2278     2367     2461     2532     2600     2677 
    2749     2822     2893     2951     3013     3069     3086     3053 
    2995     2925     2863     2805     2748     2739     2797     2866 
    2922     2986     3064     3183     3327     3457     3592     3753 
    3905     4029     4147     4253     4330     4386     4414     4394 
    4351     4313     4263     4191     4125     4083     4059     4044 
    4025     4012     4040     4116     4178     4197     4225     4279 
    4306     4287     4263     4264     4283     4287     4263     4212 
    4141     4067     4004     3962     3928     3886     3865     3858 
    3821     3780     3759     3746     3750     3765     3758     3753 
    3782     3801     3774     3735     3697     3653     3618     3578 
    3505     3429     3362     3281     3190     3109     3028     2936 
    2844     2758     2663     2570     2496     2432     2374     2320 
    2273     2254     2257     2258     2258     2268     2284     2300 
    2312     2305     2301     2339     2396     2413     2412     2434 
    2465     2488     2517     2565     2620     2673     2732     2802 
    2860     2887     2906     2934     2952     2957     2956     2924 
    2847     2760     2694     2632     2560     2504     2490     2515 
    2550     2573     2575     2579     2597     2610     2598     2565 
    2519     2463     2413     2390     2404     2446     2506     2570 
    2628     2704     2806     2890     2932     2967     2992     2982 
    2964     2961     2944     2914     2905     2917     2925     2921 
    2905     2884     2886     2907     2943     3001     3060     3109 
    3168     3250     3325     3380     3460     3592     3747     3892 
    4037     4206     4372     4490     4560     4607     4627     4629 
    4612     4556     4469     4388     4330     4264     4176     4106 
    4055     3989     3929     3894     3852     3804     3766     3734 
    3716     3719     3723     3720     3730     3754     3774     3790 
    3815     3825     3802     3759     3699     3603     3488     3362 
    3226     3109     3024     2948     2876     2818     2782     2754 
    2728     2739     2803     2884     2955     3044     3154     3245 
    3306     3360     3403     3433     3445     3438     3412     3377 
    3343     3321     3294     3260     3234     3217     3192     3161 
    3114     3053     2986     2899     2810     2752     2720     2691 
    2673     2671     2664     2640     2623     2608     2570     2535 
    2533     2544     2558     2583     2604     2600     2600     2629 
    2646     2635     2643     2654     2636     2621     2616     2581 
    2517     2452     2405     2365     2312     2263     2236     2209 
    2180     2168     2164     2155     2135     2106     2076     2068 
    2072     2069     2076     2106     2151     2242     2382     2527 
    2674     2844     2999     3119     3233     3348     3437     3500 
    3547     3558     3547     3545     3545     3545     3555     3572 
    3591     3622     3650     3643     3630     3627     3596     3551 
