Origin Time       2025/01/13 21:19:00
Lat.              31.8
Long.             131.6
Depth. (km)       30
Mag.              6.9
Station Code      EHM003
Station Lat.      33.9253
Station Long.     133.0844
Station Height(m) 4
Record Time       2025/01/13 21:20:59
Sampling Freq(Hz) 100Hz
Duration Time(s)  60
Dir.              U-D
Scale Factor      7845(gal)/8223790
Max. Acc. (gal)   2.344
Last Correction   2025/01/13 21:20:58
Memo.             
[...]
   15111    15020    14956    14959    15012    15021    14936    14793 
   14710    14767    14814    14720    14647    14747    14940    15114 
   15165    15057    14943    14913    14935    15102    15348    15337 
   15083    14944    14945    14910    14960    15149    15186    15014 
   14924    14967    15002    15063    15169    15241    15300    15375 
   15388    15373    15457    15534    15452    15395    15511    15584 
   15550    15611    15715    15687    15677    15828    15935    15890 
   15885    15942    15892    15777    15701    15592    15460    15410 
   15367    15265    15225    15236    15142    14993    14939    14928 
   14859    14825    14878    14864    14746    14673    14651    14617 
   14662    14760    14743    14640    14582    14544    14519    14569 
   14638    14616    14625    14800    14956    14993    15087    15242 
   15313    15361    15457    15493    15458    15475    15476    15373 
   15318    15341    15311    15327    15491    15612    15564    15498 
   15484    15450    15448    15531    15561    15479    15423    15435 
   15423    15427    15488    15473    15404    15437    15476    15408 
   15371    15402    15349    15257    15298    15402    15437    15483 
   15557    15485    15325    15256    15145    14955    14920    15014 
   15064    15109    15201    15315    15475    15666    15758    15689 
   15593    15556    15545    15584    15661    15703    15714    15750 
   15781    15699    15543    15460    15427    15426    15533    15624 
   15553    15433    15372    15295    15187    15147    15191    15207 
   15169    15168    15180    15174    15191    15130    14933    14810 
   14844    14854    14844    14955    15080    15138    15241    15365 
   15391    15377    15375    15331    15290    15298    15245    15152 
   15201    15309    15246    15095    15053    15041    14914    14808 
   14879    14985    14963    14885    14839    14801    14808    14856 
   14782    14602    14538    14559    14511    14469    14478    14426 
   14401    14530    14638    14613    14573    14542    14473    14440 
   14469    14440    14369    14385    14399    14297    14233    14289 
   14376    14462    14547    14540    14453    14457    14570    14625 
   14590    14578    14577    14557    14629    14739    14701    14627 
   14670    14721    14739    14796    14820    14802    14862    14935 
   14886    14831    14874    14906    14921    14978    14982    14925 
   14948    15071    15171    15182    15151    15124    15103    15094 
   15079    15034    15032    15117    15183    15176    15226    15379 
   15480    15452    15392    15326    15257    15261    15287    15234 
   15201    15279    15334    15288    15264    15304    15352    15446 
   15539    15480    15364    15365    15385    15376    15471    15597 
   15576    15499    15508    15541    15535    15554    15615    15619 
   15541    15465    15406    15336    15314    15310    15214    15174 
   15307    15372    15322    15371    15387    15210    15041    14999 
   14998    15048    15078    14847    14478    14384    14558    14693 
   14755    14783    14627    14349    14291    14512    14759    14860 
   14800    14640    14594    14767    14932    14962    14967    14909 
   14710    14557    14613    14740    14758    14650    14434    14277 
   14407    14666    14775    14756    14698    14631    14692    14948 
   15217    15295    15245    15209    15156    15159    15353    15552 
   15581    15577    15584    15515    15460    15519    15585    15568 
   15525    15535    15616    15684    15672    15587    15473    15430 
   15466    15488    15500    15488    15373    15260    15268    15323 
   15372    15427    15417    15329    15306    15358    15309    15111 
   14935    14867    14816    14740    14705    14662    14601    14654 
   14743    14679    14567    14567    14629    14708    14794    14797 
   14716    14670    14647    14513    14311    14229    14265    14307 
   14354    14400    14373    14318    14324    14300    14180    14119 
   14153    14173    14202    14247    14215    14149    14192    14292 
   14314    14285    14278    14237    14133    14089    14083    13975 
   13887    13910    13875    13748    13682    13675    13656    13717 
   13873    13984    14087    14293    14436    14354    14273    14362 
   14424    14399    14432    14524    14586    14632    14729    14882 
   15074    15276    15377    15380    15439    15610    15816    15997 
   16102    16077    15971    15942    16023    16144    16251    16278 
   16190    16092    16069    16054    16048    16114    16170    16140 
   16144    16220    16221    16164    16232    16391    16440    16395 
   16372    16291    16131    16071    16109    16105    16105    16144 
   16214    16339    16389    16303    16293    16459    16656    16777 
   16738    16552    16534    16765    16841    16610    16330    16190 
   16231    16434    16652    16681    16518    16325    16201    16174 
   16174    16110    16052    15981    15790    15657    15654    15607 
   15589    15681    15674    15561    15441    15267    15256    15591 
   15838    15610    15249    15201    15353    15502    15724    15963 
   15944    15627    15345    15385    15588    15645    15556    15388 
   15142    14962    14913    14860    14825    14883    14828    14553 
   14366    14540    14833    14844    14632    14493    14407    14370 
   14535    14693    14655    14582    14494    14382    14364    14409 
   14446    14416    14256    14096    14127    14226    14234    14297 
   14440    14422    14332    14427    14480    14459    14750    15003 
   14693    14335    14436    14639    14744    14920    15003    14800 
   14520    14440    14535    14642    14755    14836    14744    14624 
   14675    14716    14638    14652    14777    14817    14796    14813 
   14818    14746    14612    14476    14450    14582    14720    14733 
   14679    14616    14504    14374    14314    14305    14319    14345 
   14326    14224    14125    14106    14138    14173    14226    14278 
   14319    14388    14453    14455    14481    14605    14704    14678 
   14647    14659    14578    14466    14558    14760    14797    14701 
   14642    14593    14539    14548    14567    14528    14515    14538 
   14503    14432    14435    14442    14380    14354    14393    14385 
   14332    14305    14296    14319    14403    14461    14436    14413 
   14393    14296    14238    14357    14544    14674    14769    14824 
   14806    14791    14860    14940    15013    15153    15264    15250 
   15228    15296    15387    15449    15565    15687    15705    15749 
   15882    15940    15924    15982    16109    16225    16312    16368 
   16351    16297    16382    16526    16502    16411    16380    16320 
   16279    16347    16421    16426    16443    16497    16444    16321 
   16318    16298    16124    15989    15946    15898    15885    15882 
   15765    15570    15473    15461    15411    15365    15344    15236 
   15087    15055    15063    14944    14785    14674    14554    14497 
   14555    14566    14474    14395    14347    14278    14241    14272 
   14285    14283    14327    14355    14292    14177    14110    14102 
   14121    14153    14088    13918    13856    13887    13802    13705 
   13775    13882    13914    13967    14011    13945    13882    13919 
   13972    13990    14006    14033    14031    14011    14040    14099 
   14200    14450    14740    14870    14908    14991    15120    15329 
   15601    15741    15758    15853    15957    15984    16065    16154 
   16105    16121    16403    16656    16600    16518    16632    16725 
   16800    17028    17142    16974    16808    16723    16576    16472 
   16507    16452    16241    16128    16100    16024    16040    16155 
   16150    16004    15824    15612    15427    15426    15502    15322 
   14929    14770    14906    14953    14887    14867    14688    14400 
   14382    14511    14515    14524    14550    14467    14416    14489 
   14550    14577    14679    14782    14690    14517    14542    14686 
   14739    14767    14829    14825    14812    14917    15072    15182 
   15306    15445    15487    15500    15572    15565    15452    15427 
   15525    15601    15685    15808    15813    15711    15731    15874 
   15959    16004    16047    15975    15865    15889    15943    15907 
   15886    15930    15924    15876    15877    15936    16050    16198 
   16279    16266    16267    16345    16420    16391    16287    16175 
   16069    15996    15915    15746    15622    15627    15595    15487 
   15457    15485    15477    15481    15492    15398    15298    15321 
   15315    15198    15076    14964    14835    14756    14742    14682 
   14575    14559    14563    14427    14283    14257    14223    14173 
   14196    14188    14091    14052    14096    14091    14057    14080 
   14080    14021    14025    14103    14158    14183    14214    14218 
   14185    14233    14369    14420    14389    14403    14388    14288 
   14222    14202    14115    13967    13853    13782    13725    13722 
   13711    13601    13532    13571    13545    13477    13524    13640 
   13729    13817    13894    13872    13768    13724    13753    13760 
   13786    13856    13861    13810    13814    13809    13736    13764 
   13882    13838    13748    13851    13936    13865    13868    13980 
   14071    14184    14320    14419    14540    14724    14893    14990 
   15079    15206    15263    15230    15241    15311    15385    15450 
   15456    15395    15391    15507    15604    15606    15622    15658 
   15610    15537    15523    15520    15520    15577    15587    15466 
   15364    15388    15417    15375    15337    15314    15299    15385 
   15577    15708    15720    15682    15633    15643    15734    15757 
   15689    15681    15709    15664    15642    15677    15665    15809 
   16170    16231    15930    15812    15886    15932    16117    16352 
   16335    16239    16290    16326    16291    16339    16428    16407 
   16372    16476    16630    16660    16586    16542    16580    16665 
   16741    16838    16961    16923    16677    16491    16497    16567 
   16625    16642    16544    16353    16181    16086    16110    16241 
   16313    16251    16227    16245    16217    16271    16355    16183 
   15884    15842    15971    15867    15549    15381    15395    15418 
   15475    15448    15164    14895    14843    14840    14889    14999 
   14966    14787    14685    14698    14748    14827    14928    14932 
   14778    14623    14562    14558    14648    14774    14789    14756 
   14758    14728    14671    14666    14728    14777    14804    14878 
   14947    14956    14975    14986    14966    15022    15106    15072 
   14989    14963    14943    14866    14782    14733    14661    14590 
   14567    14494    14405    14409    14358    14189    14108    14115 
   14029    13886    13807    13751    13670    13636    13655    13621 
   13583    13644    13694    13689    13748    13826    13841    13882 
   13984    14083    14181    14338    14513    14635    14750    14860 
   14905    14967    15083    15114    15084    15129    15174    15151 
   15174    15273    15338    15373    15481    15614    15647    15626 
   15624    15587    15519    15495    15452    15342    15267    15252 
   15206    15132    15133    15172    15125    15040    14989    14905 
   14794    14736    14670    14530    14385    14293    14212    14107 
   14035    14011    13942    13861    13868    13864    13819    13859 
   13898    13844    13825    13859    13842    13821    13849    13853 
   13790    13783    13914    14022    14060    14191    14359    14419 
   14481    14596    14667    14732    14833    14912    15017    15211 
   15387    15464    15550    15719    15857    15911    15985    16089 
   16198    16347    16461    16468    16471    16546    16615    16638 
   16681    16725    16699    16695    16761    16741    16638    16611 
   16591    16484    16417    16414    16375    16348    16352    16279 
   16150    16075    16043    15977    15893    15859    15839    15789 
   15754    15707    15606    15545    15512    15385    15253    15221 
   15145    14989    14886    14800    14643    14517    14490    14432 
   14304    14234    14220    14180    14168    14200    14161    14064 
   14031    14045    14010    13972    14000    14021    14015    14104 
   14246    14310    14377    14490    14526    14521    14588    14659 
   14673    14686    14710    14686    14674    14774    14901    14941 
   14966    15025    15060    15088    15141    15153    15126    15148 
   15191    15159    15117    15133    15097    15007    15006    15037 
   14982    14937    14972    14962    14882    14841    14824    14764 
   14733    14740    14671    14578    14602    14663    14669    14688 
   14728    14728    14720    14751    14783    14805    14894    15039 
   15111    15168    15325    15464    15512    15593    15704    15769 
   15863    16020    16132    16187    16258    16298    16275    16306 
   16422    16499    16536    16618    16681    16663    16671    16733 
   16745    16731    16757    16741    16663    16606    16541    16402 
   16249    16116    15936    15743    15619    15498    15326    15201 
   15117    14971    14825    14736    14571    14322    14126    13945 
   13709    13527    13435    13323    13182    13103    13038    12916 
   12810    12748    12671    12623    12650    12669    12671    12719 
   12761    12735    12741    12839    12961    13089    13265    13431 
   13533    13655    13815    13936    14079    14304    14472    14577 
   14783    15033    15192    15344    15537    15674    15761    15878 
   15969    15973    15982    16040    16065    16086    16179    16247 
   16233    16239    16255    16208    16151    16128    16081    16001 
   15946    15892    15793    15712    15666    15549    15391    15315 
   15238    15097    15028    15016    14933    14832    14756    14636 
   14492    14412    14373    14297    14247    14277    14266    14203 
   14237    14299    14288    14324    14435    14486    14517    14607 
   14677    14733    14883    15066    15167    15271    15462    15611 
   15669    15797    15985    16089    16178    16309    16371    16401 
   16506    16583    16568    16586    16619    16568    16513    16561 
   16629    16609    16575    16551    16426    16251    16162    16093 
   15971    15884    15811    15655    15507    15445    15361    15196 
   15047    14943    14802    14652    14580    14521    14415    14354 
   14331    14246    14162    14150    14107    14019    14013    14067 
   14069    14077    14142    14146    14075    14054    14075    14076 
   14122    14210    14245    14273    14377    14482    14531    14607 
   14694    14709    14724    14814    14901    14976    15102    15211 
   15261    15331    15396    15391    15418    15523    15562    15534 
   15588    15691    15718    15734    15784    15774    15738    15784 
   15826    15801    15811    15836    15774    15723    15777    15799 
   15730    15684    15666    15599    15543    15547    15519    15462 
   15475    15485    15435    15441    15527    15557    15547    15603 
   15641    15612    15653    15765    15815    15846    15927    15958 
   15934    15979    16028    15970    15909    15888    15797    15687 
   15662    15620    15480    15354    15277    15157    15036    14982 
   14889    14716    14598    14528    14388    14242    14173    14084 
   13948    13880    13888    13860    13792    13767    13748    13683 
   13643    13639    13591    13537    13531    13495    13400    13362 
   13412    13429    13410    13427    13425    13369    13352    13397 
   13402    13393    13437    13462    13439    13471    13532    13521 
   13509    13576    13626    13624    13686    13798    13856    13917 
   14018    14062    14084    14196    14320    14369    14440    14575 
   14663    14721    14848    14959    14991    15060    15180    15279 
   15406    15560    15620    15639    15746    15867    15921    16008 
   16140    16201    16237    16335    16413    16460    16564    16652 
   16654    16675    16735    16733    16719    16792    16837    16771 
   16715    16707    16660    16588    16540    16460    16339    16262 
   16213    16116    16021    15981    15904    15782    15714    15682 
   15610    15535    15487    15377    15228    15160    15151    15115 
   15105    15107    15032    14948    14953    14955    14914    14952 
   15034    15036    15017    15080    15133    15129    15175    15246 
   15228    15192    15218    15205    15147    15164    15209    15183 
   15168    15213    15219    15178    15175    15201    15206    15238 
   15296    15302    15268    15272    15276    15229    15219    15261 
   15249    15205    15199    15186    15138    15137    15167    15152 
   15137    15174    15175    15144    15171    15191    15136    15113 
   15155    15140    15086    15074    15026    14904    14817    14773 
   14690    14623    14620    14581    14497    14480    14499    14465 
   14439    14449    14415    14364    14388    14432    14442    14481 
   14526    14501    14512    14609    14655    14639    14698    14785 
   14813    14890    15048    15156    15211    15303    15380    15414 
   15500    15607    15606    15552    15568    15583    15531    15526 
   15593    15583    15502    15492    15511    15471    15445    15448 
   15399    15342    15356    15364    15315    15306    15340    15307 
   15253    15280    15299    15257    15256    15263    15179    15107 
   15103    15063    14999    14989    14967    14899    14894    14947 
   14952    14956    15018    15034    14987    14962    14928    14860 
   14848    14877    14824    14742    14743    14763    14751    14790 
   14848    14845    14855    14917    14933    14912    14935    14952 
   14932    14982    15101    15160    15178    15234    15264    15234 
   15272    15390    15444    15462    15539    15612    15668    15782 
   15889    15903    15928    16035    16104    16101    16158    16268 
   16297    16244    16217    16200    16139    16082    16029    15924 
   15823    15784    15716    15614    15591    15587    15475    15342 
   15259    15147    15032    14983    14901    14737    14615    14554 
   14446    14315    14245    14169    14033    13923    13849    13736 
   13636    13616    13583    13482    13401    13333    13212    13140 
   13154    13107    13028    13038    13031    12965    12955    12970 
   12927    12926    13032    13089    13039    13035    13092    13128 
   13213    13382    13524    13605    13691    13774    13815    13905 
   14071    14210    14310    14416    14505    14570    14674    14820 
   14951    15086    15228    15259    15203    15306    15589    15734 
   15709    15832    16032    16085    16100    16081    15998    16006 
   16047    16069    16171    16290    16289    16152    16056    16155 
   16279    16276    16210    16096    16023    16170    16322    16194 
   16071    16170    16214    16178    16177    16094    16011    16056 
   16139    16224    16290    16302    16286    16209    16186    16287 
   16276    16213    16316    16355    16258    16232    16178    15982 
