Origin Time       2025/01/13 21:19:00
Lat.              31.8
Long.             131.6
Depth. (km)       30
Mag.              6.9
Station Code      EHM011
Station Lat.      33.4498
Station Long.     132.4341
Station Height(m) 8
Record Time       2025/01/13 21:20:11
Sampling Freq(Hz) 100Hz
Duration Time(s)  103
Dir.              N-S
Scale Factor      7845(gal)/8223790
Max. Acc. (gal)   11.265
Last Correction   2025/01/13 21:20:10
Memo.             
[...]
   -9545    -9899   -10116   -10112    -9864    -9444    -9046    -8783 
   -8611    -8534    -8619    -8899    -9379   -10015   -10732   -11511 
  -12256   -12771   -13009   -13057   -12930   -12644   -12314   -12019 
  -11723   -11387   -11032   -10678   -10270    -9737    -9108    -8536 
   -8145    -7924    -7836    -7839    -7844    -7835    -7906    -8140 
   -8523    -8993    -9528   -10115   -10727   -11342   -11874   -12185 
  -12253   -12131   -11824   -11415   -11017   -10604   -10098    -9522 
   -8977    -8534    -8233    -8136    -8306    -8696    -9165    -9629 
  -10091   -10515   -10868   -11180   -11481   -11742   -11931   -12032 
  -12006   -11843   -11635   -11469   -11287   -10986   -10598   -10242 
   -9976    -9767    -9576    -9370    -9131    -8945    -8900    -8962 
   -9070    -9274    -9618   -10023   -10380   -10642   -10774   -10743 
  -10635   -10608   -10694   -10806   -10854   -10804   -10716   -10638 
  -10538   -10439   -10328   -10141    -9977    -9948    -9984    -9990 
   -9925    -9815    -9683    -9514    -9358    -9329    -9447    -9617 
   -9774    -9891    -9915    -9846    -9768    -9630    -9374    -9134 
   -9019    -9036    -9224    -9549    -9832   -10004   -10147   -10227 
  -10212   -10284   -10494   -10768   -11148   -11576   -11889   -12108 
  -12340   -12474   -12322   -12031   -11834   -11610   -11215   -10739 
  -10243    -9767    -9350    -8943    -8559    -8286    -8186    -8321 
   -8694    -9163    -9595    -9968   -10326   -10673   -10901   -11067 
  -11410   -11858   -12020   -11886   -11778   -11611   -11273   -11018 
  -10814   -10563   -10373   -10166   -10012    -9979    -9961   -10077 
  -10247   -10243   -10170   -10081    -9950    -9848    -9717    -9502 
   -9279    -9140    -9113    -9119    -9126    -9213    -9428    -9740 
  -10096   -10439   -10719   -10939   -11130   -11226   -11186   -11237 
  -11560   -11901   -12155   -12448   -12588   -12514   -12384   -12097 
  -11647   -11141   -10540    -9964    -9517    -9138    -8826    -8560 
   -8320    -8176    -8166    -8325    -8694    -9182    -9640    -9950 
  -10058   -10025    -9972    -9938    -9917    -9918    -9911    -9882 
   -9886    -9975   -10165   -10430   -10743   -11117   -11484   -11696 
  -11695   -11524   -11196   -10701   -10143    -9690    -9348    -9070 
   -8896    -8783    -8631    -8527    -8610    -8866    -9182    -9489 
   -9832   -10254   -10704   -11095   -11349   -11425   -11394   -11435 
  -11632   -11870   -12042   -12131   -12083   -11874   -11593   -11307 
  -11040   -10832   -10679   -10490   -10251   -10091   -10069   -10079 
   -9995    -9848    -9757    -9774    -9860    -9967   -10061   -10134 
  -10150   -10026    -9748    -9437    -9267    -9298    -9424    -9591 
   -9861   -10184   -10463   -10658   -10701   -10577   -10365   -10162 
  -10035    -9979    -9963   -10023   -10174   -10359   -10516   -10596 
  -10593   -10496   -10277   -10002    -9796    -9725    -9764    -9903 
  -10162   -10455   -10643   -10739   -10820   -10882   -10893   -10895 
  -10955   -11025   -11006   -10909   -10800   -10697   -10592   -10485 
  -10411   -10377   -10314   -10183    -9980    -9697    -9401    -9143 
   -8865    -8623    -8561    -8662    -8808    -8937    -9047    -9143 
   -9277    -9587   -10145   -10786   -11325   -11738   -11996   -12000 
  -11803   -11596   -11450   -11284   -11095   -10924   -10678   -10269 
   -9833    -9563    -9491    -9549    -9715    -9990   -10296   -10559 
  -10728   -10710   -10481   -10133    -9830    -9709    -9740    -9829 
  -10004   -10301   -10584   -10692   -10652   -10544   -10336   -10045 
   -9814    -9753    -9876   -10139   -10500   -10891   -11211   -11497 
  -11900   -12340   -12590   -12555   -12258   -11767   -11169   -10497 
   -9792    -9150    -8642    -8356    -8382    -8684    -9116    -9578 
  -10033   -10392   -10561   -10579   -10567   -10558   -10484   -10349 
  -10270   -10316   -10412   -10481   -10488   -10436   -10434   -10558 
  -10698   -10727   -10616   -10420   -10245   -10160   -10135   -10107 
  -10065   -10057   -10157   -10420   -10804   -11164   -11345   -11323 
  -11217   -11080   -10895   -10689   -10434   -10049    -9537    -9065 
   -8799    -8722    -8735    -8785    -8815    -8833    -8943    -9227 
   -9634   -10084   -10552   -11032   -11462   -11763   -11902   -11927 
  -11886   -11770   -11578   -11346   -11091   -10798   -10496   -10255 
  -10095    -9975    -9855    -9693    -9493    -9285    -9070    -8811 
   -8451    -8054    -7839    -7969    -8455    -9185    -9919   -10474 
  -10813   -10951   -10970   -11009   -11109   -11226   -11357   -11510 
  -11631   -11654   -11623   -11713   -11983   -12275   -12465   -12610 
  -12739   -12802   -12752   -12565   -12204   -11651   -10963   -10222 
   -9483    -8784    -8145    -7560    -7017    -6571    -6303    -6238 
   -6361    -6666    -7125    -7646    -8154    -8684    -9279    -9904 
  -10480   -10890   -11102   -11218   -11280   -11234   -11126   -11029 
  -10945   -10891   -10889   -10894   -10832   -10660   -10427   -10228 
  -10081    -9965    -9910    -9929    -9999   -10083   -10147   -10216 
  -10366   -10586   -10793   -10962   -11098   -11136   -11010   -10778 
  -10579   -10461   -10341   -10172    -9948    -9652    -9342    -9128 
   -9066    -9134    -9292    -9544    -9899   -10327   -10781   -11227 
  -11604   -11817   -11836   -11674   -11338   -10847   -10242    -9602 
   -9046    -8622    -8262    -7965    -7848    -7952    -8241    -8723 
   -9352    -9999   -10628   -11256   -11781   -12042   -12033   -11943 
  -11892   -11840   -11772   -11761   -11817   -11788   -11499   -10970 
  -10341    -9725    -9215    -8876    -8716    -8788    -9120    -9598 
  -10069   -10449   -10705   -10871   -11038   -11268   -11529   -11705 
  -11688   -11435   -11007   -10613   -10477   -10567   -10702   -10809 
  -10885   -10974   -11126   -11210   -11090   -10827   -10476   -10010 
   -9509    -9054    -8622    -8235    -7981    -7888    -7948    -8131 
   -8352    -8506    -8487    -8262    -8036    -8122    -8613    -9391 
  -10309   -11205   -11944   -12486   -12899   -13215   -13358   -13325 
  -13248   -13188   -13090   -12903   -12629   -12291   -11884   -11419 
  -10960   -10481    -9921    -9333    -8792    -8309    -7852    -7403 
   -6961    -6511    -6145    -6116    -6520    -7172    -7905    -8695 
   -9555   -10427   -11169   -11685   -11994   -12170   -12307   -12490 
  -12765   -13116   -13416   -13547   -13497   -13293   -12961   -12511 
  -11919   -11209   -10461    -9676    -8868    -8152    -7659    -7456 
   -7507    -7730    -8039    -8333    -8522    -8618    -8698    -8784 
   -8868    -8962    -9100    -9313    -9607    -9949   -10254   -10476 
  -10673   -10913   -11213   -11562   -11929   -12247   -12469   -12610 
  -12657   -12552   -12297   -11979   -11693   -11408   -11049   -10638 
  -10187    -9679    -9186    -8785    -8491    -8351    -8364    -8437 
   -8513    -8633    -8916    -9427   -10029   -10527   -10895   -11188 
  -11453   -11794   -12245   -12641   -12799   -12688   -12444   -12208 
  -12000   -11816   -11722   -11740   -11839   -11997   -12144   -12150 
  -11950   -11554   -10959   -10215    -9479    -8876    -8430    -8178 
   -8171    -8384    -8729    -9166    -9680   -10161   -10507   -10733 
  -10886   -10989   -11094   -11272   -11570   -11966   -12391   -12787 
  -13116   -13304   -13243   -12920   -12444   -11889   -11265   -10616 
  -10039    -9593    -9201    -8742    -8252    -7821    -7412    -6975 
   -6528    -6145    -5861    -5649    -5537    -5624    -5964    -6528 
   -7249    -8095    -9030    -9952   -10782   -11496   -12035   -12294 
  -12264   -12064   -11797   -11495   -11186   -10936   -10858   -11026 
  -11349   -11680   -11920   -11978   -11855   -11615   -11202   -10602 
   -9973    -9412    -8915    -8546    -8437    -8700    -9281    -9988 
  -10727   -11466   -12136   -12680   -13022   -13046   -12719   -12113 
  -11400   -10779   -10273    -9761    -9251    -8861    -8660    -8626 
   -8634    -8559    -8353    -7971    -7496    -7152    -6971    -6889 
   -7026    -7501    -8287    -9292   -10412   -11519   -12426   -13020 
  -13333   -13367   -13078   -12522   -11809   -11003   -10176    -9409 
   -8787    -8415    -8320    -8449    -8721    -8942    -8931    -8737 
   -8514    -8347    -8298    -8471    -8945    -9697   -10608   -11592 
  -12615   -13495   -13995   -14112   -13963   -13613   -13203   -12796 
  -12285   -11669   -11090   -10574   -10056    -9560    -9163    -8908 
   -8827    -8911    -9015    -9008    -8946    -8876    -8745    -8526 
   -8249    -8000    -7911    -8067    -8498    -9243   -10241   -11254 
  -12044   -12540   -12749   -12683   -12448   -12249   -12168   -12104 
  -11974   -11786   -11599   -11457   -11313   -11097   -10871   -10779 
  -10878   -11032   -11005   -10706   -10242    -9756    -9377    -9177 
   -9150    -9273    -9537    -9922   -10296   -10455   -10373   -10197 
   -9995    -9772    -9634    -9715   -10027   -10416   -10732   -10951 
  -11155   -11419   -11707   -11873   -11844   -11726   -11661   -11630 
  -11502   -11206   -10713   -10042    -9347    -8779    -8328    -7931 
   -7569    -7214    -6856    -6632    -6724    -7204    -8028    -9078 
  -10215   -11340   -12410   -13377   -14173   -14775   -15176   -15387 
  -15422   -15155   -14457   -13400   -12131   -10786    -9467    -8276 
   -7385    -6879    -6644    -6520    -6334    -5977    -5537    -5139 
   -4891    -4932    -5292    -5861    -6494    -7025    -7365    -7589 
   -7827    -8183    -8708    -9313    -9844   -10260   -10628   -11037 
  -11565   -12197   -12852   -13481   -14056   -14551   -14870   -14835 
  -14376   -13598   -12594   -11399   -10191    -9132    -8195    -7383 
   -6821    -6608    -6741    -7211    -8025    -9092   -10212   -11254 
  -12132   -12739   -13076   -13239   -13323   -13374   -13447   -13617 
  -13822   -13856   -13653   -13262   -12691   -11958   -11107   -10154 
   -9081    -7982    -7057    -6390    -6004    -5908    -6019    -6280 
   -6678    -7106    -7434    -7692    -8002    -8382    -8741    -9059 
   -9432    -9976   -10724   -11623   -12611   -13606   -14534   -15371 
  -16031   -16410   -16528   -16476   -16318   -16044   -15596   -15005 
  -14346   -13560   -12553   -11352   -10048    -8779    -7688    -6774 
   -5937    -5182    -4676    -4509    -4544    -4637    -4850    -5354 
   -6192    -7183    -8039    -8581    -8860    -9066    -9293    -9479 
   -9609    -9726    -9842    -9944   -10044   -10180   -10355   -10551 
  -10760   -10920   -10929   -10848   -10898   -11128   -11372   -11589 
  -11816   -11961   -11875   -11488   -10885   -10156    -9288    -8363 
   -7605    -7214    -7291    -7781    -8513    -9316   -10099   -10872 
  -11684   -12510   -13282   -13922   -14423   -14841   -15118   -15133 
  -14964   -14767   -14530   -14160   -13617   -12880   -11951   -10864 
   -9714    -8675    -7896    -7431    -7244    -7242    -7381    -7592 
   -7788    -7994    -8221    -8355    -8314    -8181    -8098    -8120 
   -8239    -8484    -8838    -9208    -9521    -9790   -10099   -10501 
  -10978   -11500   -12044   -12617   -13235   -13849   -14397   -14860 
  -15249   -15545   -15641   -15454   -15071   -14658   -14328   -14134 
  -14065   -14017   -13841   -13448   -12816   -11943   -10836    -9586 
   -8395    -7392    -6524    -5737    -5071    -4576    -4275    -4178 
   -4257    -4429    -4583    -4687    -4801    -4973    -5162    -5395 
   -5838    -6598    -7647    -8912   -10289   -11643   -12922   -14077 
  -14939   -15398   -15534   -15465   -15287   -15059   -14786   -14435 
  -13950   -13315   -12579   -11781   -10925   -10049    -9173    -8274 
   -7325    -6376    -5553    -4928    -4500    -4287    -4257    -4415 
   -4878    -5678    -6728    -7913    -9136   -10345   -11414   -12159 
  -12533   -12653   -12731   -12946   -13261   -13547   -13824   -14218 
  -14778   -15392   -15862   -16098   -16101   -15844   -15279   -14337 
  -12972   -11238    -9292    -7400    -5822    -4629    -3832    -3466 
   -3473    -3732    -4158    -4687    -5277    -5896    -6536    -7246 
   -8058    -8919    -9718   -10362   -10878   -11337   -11755   -12162 
  -12575   -12892   -13016   -12976   -12783   -12430   -12089   -11988 
  -12167   -12542   -13080   -13755   -14397   -14735   -14598   -13918 
  -12650   -10933    -9047    -7188    -5458    -3921    -2650    -1746 
   -1285    -1260    -1626    -2338    -3323    -4469    -5682    -6999 
   -8546   -10303   -12019   -13475   -14692   -15736   -16519   -16966 
  -17140   -17084   -16752   -16177   -15538   -14975   -14447   -13855 
  -13201   -12519   -11746   -10858    -9968    -9103    -8120    -6959 
   -5680    -4403    -3311    -2597    -2412    -2830    -3715    -4743 
   -5629    -6340    -7038    -7893    -8992   -10346   -11863   -13323 
  -14534   -15498   -16290   -16841   -17057   -17012   -16869   -16737 
  -16588   -16283   -15689   -14712   -13327   -11722   -10188    -8869 
   -7785    -6944    -6320    -5869    -5659    -5838    -6408    -7199 
   -8106    -9094   -10021   -10690   -11091   -11346   -11496   -11546 
  -11592   -11727   -11981   -12351   -12758   -13020   -13009   -12746 
  -12340   -11934   -11611   -11302   -10870   -10297    -9675    -9028 
   -8326    -7580    -6764    -5863    -4995    -4311    -3909    -3840 
   -4059    -4486    -5125    -6081    -7499    -9374   -11497   -13637 
  -15643   -17442   -19014   -20324   -21297   -21894   -22079   -21759 
  -20856   -19369   -17381   -15064   -12680   -10467    -8518    -6797 
   -5231    -3786    -2484    -1351     -425      225      575      581 
      94     -986    -2536    -4337    -6304    -8399   -10478   -12420 
  -14185   -15645   -16548   -16750   -16383   -15734   -14991   -14215 
  -13490   -12914   -12513   -12322   -12340   -12380   -12243   -11920 
  -11493   -10999   -10444    -9879    -9386    -8985    -8685    -8608 
   -8847    -9320    -9960   -10808   -11812   -12815   -13690   -14389 
  -14850   -14974   -14748   -14284   -13748   -13312   -13123   -13240 
  -13547   -13838   -13998   -14071   -14141   -14195   -14125   -13788 
  -13049   -11861   -10307    -8553    -6781    -5138    -3704    -2482 
   -1470     -741     -400     -460     -859    -1501    -2255    -3033 
   -3816    -4614    -5447    -6349    -7321    -8337    -9379   -10469 
  -11628   -12754   -13581   -13891   -13647   -12942   -11970   -11022 
  -10390   -10141   -10058    -9913    -9603    -9130    -8577    -8086 
   -7757    -7592    -7551    -7634    -7809    -7951    -7947    -7816 
   -7677    -7639    -7777    -8198    -8970   -10054   -11345   -12668 
  -13845   -14801   -15557   -16200   -16737   -17082   -17190   -17096 
  -16799   -16258   -15475   -14505   -13414   -12274   -11145   -10057 
   -8991    -7915    -6794    -5587    -4363    -3333    -2671    -2463 
   -2754    -3542    -4700    -5999    -7283    -8548    -9823   -11017 
  -11929   -12474   -12776   -13001   -13227   -13522   -13848   -14004 
  -13841   -13414   -12868   -12259   -11584   -10893   -10188    -9421 
   -8688    -8152    -7859    -7778    -7877    -8127    -8494    -8938 
   -9467   -10091   -10721   -11244   -11650   -12020   -12379   -12718 
  -13105   -13610   -14152   -14555   -14688   -14575   -14370   -14184 
  -13994   -13724   -13383   -13063   -12830   -12698   -12648   -12584 
  -12382   -11996   -11465   -10929   -10557   -10359   -10137    -9651 
   -8920    -8225    -7848    -7893    -8253    -8715    -9119    -9367 
   -9433    -9358    -9182    -8986    -8962    -9327   -10119   -11168 
  -12268   -13267   -14058   -14578   -14747   -14513   -13969   -13247 
  -12447   -11604   -10631    -9441    -8098    -6786    -5765    -5232 
   -5124    -5251    -5536    -5956    -6416    -6849    -7310    -7839 
   -8316    -8591    -8691    -8730    -8808    -9036    -9427    -9857 
  -10226   -10504   -10708   -10909   -11141   -11314   -11291   -11006 
  -10498    -9925    -9451    -9097    -8808    -8617    -8552    -8526 
   -8411    -8245    -8194    -8235    -8140    -7857    -7528    -7267 
   -7113    -7142    -7431    -7874    -8322    -8796    -9317    -9792 
  -10154   -10412   -10594   -10723   -10855   -11078   -11340   -11484 
  -11531   -11614   -11769   -12010   -12337   -12644   -12838   -12922 
  -12881   -12735   -12610   -12596   -12660   -12826   -13159   -13597 
  -14046   -14451   -14709   -14750   -14530   -13980   -13126   -12094 
  -10995    -9952    -9140    -8625    -8302    -8094    -7986    -7993 
   -8156    -8442    -8797    -9263    -9829   -10428   -11101   -11884 
  -12668   -13279   -13659   -13918   -14229   -14627   -14987   -15187 
  -15134   -14725   -13949   -12924   -11780   -10571    -9354    -8222 
   -7261    -6471    -5841    -5379    -5054    -4784    -4561    -4521 
   -4731    -5136    -5718    -6482    -7353    -8248    -9127   -10015 
  -10933   -11866   -12883   -14029   -15129   -15969   -16514   -16784 
  -16698   -16178   -15287   -14153   -12873   -11593   -10484    -9599 
   -8822    -8066    -7402    -6860    -6345    -5763    -5132    -4561 
   -4118    -3815    -3694    -3823    -4272    -5047    -5979    -6864 
   -7688    -8533    -9389   -10181   -10909   -11592   -12187   -12610 
  -12780   -12739   -12681   -12746   -12864   -12862   -12702   -12490 
  -12330   -12245   -12202   -12139   -11973   -11680   -11344   -11034 
  -10755   -10504   -10207    -9787    -9270    -8745    -8340    -8109 
   -7973    -7913    -8001    -8275    -8752    -9435   -10291   -11230 
  -12155   -13045   -13930   -14774   -15452   -15808   -15773   -15423 
  -14835   -14007   -13003   -11897   -10677    -9373    -8109    -6976 
   -5985    -5155    -4537    -4128    -3928    -4027    -4482    -5238 
   -6178    -7210    -8325    -9498   -10612   -11623   -12609   -13579 
  -14440   -15142   -15666   -15958   -15974   -15759   -15381   -14860 
  -14253   -13691   -13281   -13003   -12711   -12264   -11657   -10932 
  -10118    -9317    -8696    -8359    -8334    -8572    -8904    -9170 
   -9319    -9377    -9402    -9433    -9479    -9537    -9610    -9682 
   -9687    -9562    -9346    -9157    -9051    -8943    -8708    -8360 
   -7983    -7555    -7028    -6471    -6006    -5719    -5682    -5945 
   -6482    -7141    -7801    -8502    -9281   -10073   -10825   -11553 
  -12222   -12752   -13119   -13329   -13421   -13495   -13678   -14015 
  -14418   -14754   -14953   -14948   -14669   -14152   -13513   -12816 
  -12016   -11064    -9961    -8761    -7573    -6484    -5510    -4700 
   -4122    -3815    -3793    -4035    -4459    -4972    -5563    -6331 
   -7361    -8634   -10061   -11492   -12750   -13780   -14619   -15211 
  -15492   -15529   -15484   -15468   -15453   -15331   -15010   -14449 
  -13683   -12800   -11882   -10948    -9965    -8972    -8051    -7223 
   -6496    -5888    -5381    -5000    -4846    -4970    -5377    -6133 
   -7254    -8581    -9898   -11057   -12001   -12722   -13238   -13598 
  -13864   -14073   -14215   -14303   -14373   -14372   -14220   -13937 
  -13500   -12847   -11994   -10978    -9833    -8621    -7407    -6241 
   -5174    -4286    -3700    -3523    -3742    -4276    -5063    -6073 
   -7261    -8515    -9742   -10939   -12112   -13244   -14357   -15457 
