Origin Time       2025/01/13 21:19:00
Lat.              31.8
Long.             131.6
Depth. (km)       30
Mag.              6.9
Station Code      EHM016
Station Lat.      33.7654
Station Long.     132.7089
Station Height(m) 3
Record Time       2025/01/13 21:20:29
Sampling Freq(Hz) 100Hz
Duration Time(s)  114
Dir.              N-S
Scale Factor      7845(gal)/8223790
Max. Acc. (gal)   7.024
Last Correction   2025/01/13 21:20:29
Memo.             
[...]
   -9926    -9834    -9693    -9624    -9621    -9616    -9643    -9722 
   -9764    -9780    -9842    -9941   -10022   -10066   -10103   -10110 
  -10069   -10033    -9971    -9811    -9595    -9436    -9332    -9170 
   -8980    -8873    -8824    -8803    -8839    -8911    -8931    -8865 
   -8810    -8800    -8769    -8760    -8814    -8860    -8877    -8901 
   -8926    -8877    -8743    -8618    -8517    -8405    -8336    -8347 
   -8397    -8488    -8662    -8884    -9092    -9288    -9521    -9772 
   -9981   -10168   -10350   -10431   -10365   -10268   -10237   -10235 
  -10223   -10228   -10203   -10099   -10021   -10025   -10007    -9892 
   -9732    -9559    -9344    -9153    -9088    -9080    -9047    -9047 
   -9097    -9146    -9189    -9256    -9329    -9358    -9377    -9436 
   -9466    -9440    -9450    -9493    -9482    -9398    -9321    -9246 
   -9082    -8920    -8881    -8888    -8893    -8945    -9015    -9019 
   -8974    -9007    -9135    -9286    -9510    -9825   -10065   -10174 
  -10265   -10346   -10343   -10289   -10261   -10223   -10150   -10185 
  -10363   -10498   -10512   -10524   -10577   -10628   -10700   -10777 
  -10762   -10666   -10613   -10616   -10554   -10420   -10327   -10278 
  -10210   -10153   -10129   -10045    -9853    -9693    -9652    -9614 
   -9537    -9512    -9486    -9369    -9240    -9162    -9055    -8923 
   -8868    -8857    -8779    -8662    -8590    -8529    -8433    -8365 
   -8379    -8405    -8401    -8403    -8398    -8343    -8289    -8291 
   -8264    -8159    -8106    -8170    -8274    -8402    -8595    -8772 
   -8823    -8831    -8900    -8930    -8866    -8810    -8783    -8727 
   -8688    -8734    -8777    -8752    -8761    -8815    -8804    -8768 
   -8795    -8869    -8969    -9113    -9310    -9462    -9502    -9528 
   -9560    -9536    -9498    -9509    -9508    -9440    -9387    -9408 
   -9425    -9428    -9482    -9560    -9602    -9652    -9788    -9926 
   -9975   -10010   -10060   -10054   -10053   -10125   -10210   -10247 
  -10238   -10187   -10083    -9923    -9772    -9679    -9595    -9513 
   -9512    -9570    -9580    -9574    -9663    -9826   -10008   -10212 
  -10392   -10473   -10481   -10486   -10490   -10455   -10390   -10309 
  -10145    -9859    -9571    -9418    -9331    -9234    -9190    -9194 
   -9182    -9186    -9198    -9146    -9084    -9117    -9202    -9254 
   -9285    -9369    -9505    -9643    -9809    -9977   -10003    -9859 
   -9656    -9429    -9123    -8743    -8399    -8163    -8024    -7975 
   -8012    -8071    -8116    -8185    -8287    -8405    -8579    -8810 
   -9004    -9105    -9155    -9224    -9325    -9423    -9499    -9516 
   -9444    -9391    -9464    -9614    -9783    -9980   -10138   -10165 
  -10089   -10035   -10022    -9965    -9899    -9882    -9825    -9659 
   -9482    -9385    -9359    -9401    -9518    -9664    -9774    -9871 
   -9983   -10042   -10062   -10142   -10251   -10319   -10366   -10449 
  -10547   -10624   -10704   -10785   -10775   -10681   -10611   -10554 
  -10412   -10215   -10050    -9914    -9769    -9630    -9482    -9256 
   -8980    -8764    -8611    -8444    -8303    -8264    -8279    -8291 
   -8353    -8475    -8577    -8675    -8839    -9019    -9136    -9220 
   -9288    -9292    -9251    -9275    -9383    -9436    -9398    -9371 
   -9336    -9246    -9238    -9370    -9502    -9598    -9736    -9873 
   -9953   -10007   -10081   -10130   -10134   -10204   -10350   -10422 
  -10382   -10297   -10180   -10050    -9973    -9961    -9899    -9741 
   -9595    -9481    -9352    -9242    -9170    -9089    -8969    -8888 
   -8908    -8969    -9059    -9204    -9302    -9285    -9292    -9467 
   -9722    -9933   -10135   -10315   -10358   -10308   -10300   -10309 
  -10260   -10146    -9973    -9744    -9508    -9342    -9275    -9251 
   -9263    -9374    -9522    -9643    -9806   -10022   -10187   -10249 
  -10237   -10150    -9948    -9647    -9342    -9061    -8775    -8525 
   -8334    -8167    -8043    -7998    -8017    -8077    -8183    -8320 
   -8392    -8368    -8357    -8413    -8514    -8689    -8923    -9120 
   -9234    -9335    -9501    -9686    -9856   -10006   -10034    -9909 
   -9752    -9674    -9668    -9714    -9815    -9942   -10035   -10077 
  -10134   -10255   -10349   -10380   -10415   -10420   -10334   -10185 
   -9988    -9721    -9432    -9207    -9047    -8920    -8827    -8784 
   -8738    -8610    -8506    -8527    -8590    -8680    -8834    -9007 
   -9174    -9323    -9472    -9629    -9737    -9832    -9915    -9863 
   -9724    -9672    -9698    -9734    -9810    -9886    -9852    -9686 
   -9489    -9356    -9292    -9285    -9383    -9552    -9675    -9742 
   -9818    -9895    -9971   -10075   -10189   -10266   -10295   -10322 
  -10366   -10392   -10419   -10474   -10519   -10544   -10594   -10675 
  -10728   -10681   -10566   -10458   -10381   -10382   -10462   -10481 
  -10392   -10312   -10276   -10231   -10235   -10339   -10444   -10496 
  -10559   -10681   -10809   -10848   -10773   -10629   -10377   -10026 
   -9706    -9421    -9113    -8872    -8703    -8492    -8216    -7944 
   -7724    -7551    -7430    -7375    -7314    -7209    -7148    -7173 
   -7233    -7300    -7376    -7418    -7423    -7522    -7785    -8128 
   -8496    -8872    -9135    -9202    -9162    -9155    -9219    -9275 
   -9286    -9252    -9128    -9000    -9020    -9088    -9032    -8885 
   -8722    -8545    -8365    -8252    -8268    -8324    -8305    -8257 
   -8179    -8047    -7986    -8063    -8181    -8255    -8333    -8453 
   -8559    -8623    -8698    -8762    -8803    -8923    -9131    -9289 
   -9409    -9617    -9857    -9996   -10053   -10096   -10145   -10203 
  -10282   -10338   -10293   -10251   -10354   -10536   -10692   -10809 
  -10916   -11056   -11237   -11433   -11568   -11516   -11323   -11148 
  -11025   -10936   -10870   -10751   -10490   -10095    -9678    -9305 
   -9009    -8841    -8779    -8712    -8613    -8604    -8741    -8915 
   -9073    -9228    -9350    -9439    -9551    -9683    -9745    -9768 
   -9886   -10083   -10238   -10369   -10548   -10716   -10789   -10822 
  -10876   -10886   -10800   -10692   -10621   -10534   -10381   -10203 
  -10027    -9807    -9563    -9362    -9185    -9008    -8892    -8838 
   -8781    -8712    -8617    -8480    -8368    -8307    -8262    -8167 
   -7997    -7858    -7815    -7809    -7869    -8025    -8159    -8216 
   -8274    -8371    -8473    -8614    -8873    -9196    -9462    -9717 
  -10038   -10355   -10632   -10891   -11063   -11067   -10959   -10858 
  -10768   -10644   -10538   -10474   -10369   -10204   -10064    -9965 
   -9836    -9661    -9537    -9497    -9497    -9575    -9751    -9879 
   -9890    -9853    -9826    -9857    -9992   -10196   -10369   -10451 
  -10516   -10644   -10786   -10890   -10968   -10975   -10852   -10677 
  -10538   -10408   -10309   -10338   -10457   -10515   -10438   -10257 
   -9976    -9603    -9271    -9080    -8901    -8598    -8221    -7877 
   -7599    -7415    -7362    -7358    -7267    -7165    -7148    -7130 
   -7109    -7187    -7337    -7427    -7453    -7518    -7622    -7695 
   -7754    -7815    -7809    -7719    -7618    -7534    -7441    -7379 
   -7402    -7492    -7631    -7865    -8160    -8371    -8451    -8487 
   -8538    -8634    -8804    -8985    -9084    -9132    -9246    -9439 
   -9617    -9753    -9880    -9946    -9895    -9780    -9688    -9620 
   -9537    -9479    -9451    -9373    -9236    -9077    -8868    -8677 
   -8650    -8762    -8860    -8864    -8799    -8677    -8541    -8527 
   -8675    -8862    -9007    -9131    -9283    -9437    -9571    -9763 
   -9996   -10197   -10453   -10827   -11173   -11430   -11713   -12040 
  -12309   -12515   -12690   -12779   -12750   -12694   -12664   -12563 
  -12378   -12258   -12237   -12224   -12167   -12091   -11998   -11823 
  -11551   -11225   -10856   -10480   -10185   -10018    -9888    -9761 
   -9711    -9720    -9730    -9796    -9910    -9963    -9937    -9892 
   -9807    -9616    -9332    -9015    -8691    -8387    -8172    -8087 
   -8085    -8113    -8186    -8305    -8430    -8586    -8766    -8870 
   -8908    -9038    -9270    -9460    -9572    -9670    -9761    -9872 
  -10099   -10443   -10800   -11179   -11647   -12132   -12541   -12900 
  -13250   -13535   -13703   -13819   -13918   -13907   -13807   -13753 
  -13738   -13641   -13409   -13085   -12714   -12294   -11871   -11499 
  -11097   -10601   -10083    -9576    -9094    -8711    -8441    -8205 
   -7966    -7765    -7611    -7449    -7294    -7188    -7072    -6858 
   -6581    -6305    -6019    -5737    -5516    -5348    -5211    -5150 
   -5211    -5292    -5274    -5227    -5258    -5337    -5466    -5687 
   -5925    -6096    -6226    -6331    -6374    -6382    -6462    -6609 
   -6705    -6739    -6802    -6914    -7036    -7152    -7238    -7257 
   -7245    -7294    -7431    -7599    -7798    -8085    -8414    -8752 
   -9190    -9740   -10250   -10644   -11029   -11446   -11803   -12058 
  -12285   -12476   -12534   -12468   -12344   -12118   -11815   -11591 
  -11479   -11372   -11222   -11082   -10955   -10785   -10566   -10308 
   -9958    -9524    -9082    -8656    -8235    -7857    -7573    -7380 
   -7213    -7084    -7059    -7118    -7267    -7515    -7750    -7862 
   -7925    -8078    -8313    -8527    -8703    -8850    -8947    -9059 
   -9261    -9482    -9634    -9715    -9713    -9617    -9487    -9405 
   -9387    -9340    -9247    -9193    -9148    -9049    -8926    -8802 
   -8687    -8644    -8733    -8916    -9115    -9331    -9614    -9946 
  -10272   -10609   -10963   -11261   -11530   -11826   -12085   -12272 
  -12474   -12717   -12943   -13143   -13381   -13659   -13888   -14049 
  -14204   -14369   -14523   -14677   -14801   -14789   -14605   -14350 
  -14054   -13668   -13259   -12908   -12538   -12066   -11535   -11020 
  -10493    -9944    -9494    -9184    -8892    -8556    -8190    -7759 
   -7321    -7011    -6805    -6578    -6331    -6143    -6035    -5944 
   -5876    -5919    -6050    -6207    -6411    -6647    -6832    -6952 
   -7109    -7321    -7507    -7705    -7990    -8291    -8525    -8743 
   -8981    -9181    -9389    -9632    -9774    -9771    -9730    -9671 
   -9558    -9467    -9489    -9560    -9575    -9558    -9541    -9417 
   -9135    -8824    -8579    -8359    -8132    -7897    -7622    -7312 
   -7099    -7071    -7168    -7331    -7578    -7836    -8020    -8191 
   -8391    -8519    -8514    -8449    -8371    -8249    -8118    -8050 
   -8017    -7990    -7989    -8023    -8086    -8187    -8357    -8537 
   -8622    -8683    -8835    -9022    -9170    -9327    -9481    -9524 
   -9491    -9520    -9582    -9598    -9672    -9886   -10098   -10180 
  -10199   -10250   -10291   -10288   -10303   -10327   -10262   -10152 
  -10133   -10222   -10345   -10497   -10693   -10859   -10991   -11195 
  -11435   -11607   -11732   -11882   -12023   -12110   -12221   -12393 
  -12522   -12571   -12591   -12590   -12530   -12411   -12255   -12069 
  -11881   -11778   -11800   -11848   -11855   -11850   -11821   -11724 
  -11604   -11516   -11377   -11119   -10824   -10509   -10092    -9591 
   -9090    -8569    -7951    -7333    -6831    -6381    -5969    -5661 
   -5398    -5085    -4729    -4409    -4147    -3908    -3735    -3690 
   -3730    -3798    -3925    -4124    -4348    -4612    -4946    -5298 
   -5599    -5868    -6165    -6477    -6791    -7186    -7688    -8230 
   -8773    -9302    -9764   -10181   -10643   -11092   -11435   -11754 
  -12113   -12398   -12541   -12648   -12785   -12884   -12942   -13058 
  -13212   -13274   -13238   -13173   -13081   -12957   -12846   -12745 
  -12586   -12405   -12333   -12340   -12253   -12066   -11896   -11718 
  -11469   -11219   -10957   -10594   -10189    -9849    -9528    -9150 
   -8750    -8421    -8175    -7997    -7925    -7952    -7954    -7874 
   -7827    -7830    -7809    -7798    -7812    -7757    -7631    -7523 
   -7443    -7360    -7330    -7425    -7565    -7690    -7923    -8320 
   -8762    -9188    -9612    -9996   -10339   -10710   -11126   -11489 
  -11740   -11939   -12118   -12228   -12268   -12285   -12229   -12039 
  -11765   -11460   -11074   -10605   -10189    -9864    -9529    -9184 
   -8899    -8658    -8399    -8124    -7878    -7628    -7337    -7090 
   -6906    -6678    -6392    -6130    -5872    -5583    -5346    -5171 
   -4973    -4768    -4641    -4607    -4654    -4804    -5066    -5333 
   -5526    -5746    -6077    -6435    -6786    -7200    -7654    -8074 
   -8479    -8878    -9235    -9578    -9987   -10457   -10887   -11226 
  -11481   -11603   -11551   -11439   -11391   -11364   -11308   -11319 
  -11425   -11512   -11600   -11815   -12135   -12452   -12749   -13054 
  -13312   -13473   -13587   -13676   -13686   -13644   -13624   -13595 
  -13506   -13433   -13417   -13379   -13340   -13383   -13439   -13412 
  -13385   -13471   -13606   -13709   -13819   -13973   -14091   -14118 
  -14102   -14054   -13922   -13756   -13621   -13419   -13090   -12735 
  -12383   -11950   -11462   -11082   -10862   -10720   -10631   -10604 
  -10562   -10474   -10435   -10474   -10507   -10508   -10532   -10542 
  -10462   -10316   -10141    -9883    -9494    -9038    -8556    -7986 
   -7353    -6794    -6288    -5725    -5165    -4665    -4148    -3628 
   -3233    -2952    -2685    -2458    -2355    -2297    -2197    -2116 
   -2100    -2131    -2253    -2497    -2793    -3060    -3346    -3685 
   -3993    -4221    -4423    -4618    -4769    -4915    -5096    -5235 
   -5327    -5525    -5869    -6239    -6594    -6970    -7329    -7634 
   -7942    -8287    -8617    -8864    -9054    -9219    -9320    -9383 
   -9508    -9687    -9871   -10089   -10326   -10484   -10562   -10644 
  -10701   -10624   -10440   -10260   -10068    -9834    -9667    -9643 
   -9690    -9776    -9954   -10188   -10358   -10458   -10563   -10640 
  -10640   -10632   -10665   -10693   -10724   -10814   -10908   -10939 
  -10983   -11075   -11136   -11199   -11396   -11709   -12009   -12295 
  -12627   -12927   -13153   -13402   -13699   -13926   -14034   -14115 
  -14235   -14320   -14355   -14453   -14574   -14589   -14570   -14620 
  -14669   -14674   -14688   -14706   -14689   -14669   -14673   -14628 
  -14527   -14462   -14432   -14342   -14197   -14112   -14081   -14010 
  -13922   -13867   -13725   -13420   -13073   -12765   -12418   -11982 
  -11546   -11173   -10794   -10373   -10010    -9749    -9558    -9466 
   -9464    -9421    -9256    -9019    -8719    -8325    -7890    -7454 
   -6966    -6431    -5968    -5601    -5263    -4993    -4887    -4895 
   -4912    -4986    -5143    -5259    -5317    -5433    -5563    -5563 
   -5482    -5463    -5479    -5435    -5412    -5474    -5493    -5428 
   -5405    -5418    -5390    -5400    -5495    -5589    -5655    -5784 
   -5988    -6165    -6303    -6469    -6612    -6674    -6727    -6794 
   -6843    -6917    -7047    -7161    -7199    -7183    -7161    -7123 
   -7065    -7042    -7030    -6932    -6763    -6624    -6521    -6423 
   -6404    -6509    -6643    -6750    -6905    -7121    -7315    -7500 
   -7734    -7950    -8090    -8229    -8378    -8434    -8410    -8411 
   -8428    -8379    -8311    -8302    -8299    -8266    -8252    -8283 
   -8333    -8415    -8571    -8741    -8804    -8796    -8837    -8919 
   -9031    -9238    -9512    -9740    -9929   -10183   -10507   -10847 
  -11242   -11711   -12163   -12538   -12869   -13149   -13325   -13466 
  -13651   -13794   -13845   -13909   -14019   -14133   -14260   -14443 
  -14659   -14791   -14785   -14723   -14627   -14473   -14355   -14304 
  -14220   -14079   -13933   -13776   -13568   -13320   -13097   -12950 
  -12811   -12534   -12201   -11988   -11707   -11254   -10885   -10638 
  -10409   -10227   -10052    -9795    -9513    -9327    -9215    -9139 
   -9174    -9279    -9289    -9205    -9126    -9018    -8845    -8702 
   -8583    -8379    -8137    -7970    -7843    -7682    -7503    -7354 
   -7202    -6987    -6781    -6650    -6515    -6354    -6299    -6362 
   -6370    -6322    -6372    -6447    -6428    -6446    -6547    -6617 
   -6714    -6953    -7250    -7508    -7792    -8145    -8537    -8995 
   -9545   -10098   -10557   -10975   -11431   -11881   -12285   -12696 
  -13097   -13412   -13689   -13967   -14165   -14254   -14281   -14233 
  -14045   -13752   -13491   -13286   -13036   -12756   -12522   -12280 
  -11952   -11583   -11213   -10793   -10314    -9869    -9475    -9038 
   -8580    -8197    -7846    -7499    -7273    -7169    -7051    -6957 
   -7003    -7080    -7068    -7092    -7214    -7290    -7290    -7299 
   -7260    -7136    -7041    -7053    -7076    -6982    -6836    -6716 
   -6536    -6304    -6102    -5871    -5556    -5238    -4980    -4733 
   -4465    -4272    -4205    -4197    -4245    -4409    -4622    -4806 
   -5011    -5304    -5617    -5888    -6184    -6527    -6852    -7179 
   -7565    -7936    -8226    -8507    -8823    -9097    -9344    -9661 
  -10004   -10284   -10575   -10947   -11315   -11646   -11997   -12363 
  -12675   -12928   -13203   -13504   -13745   -13952   -14172   -14301 
  -14304   -14310   -14351   -14322   -14187   -14000   -13779   -13512 
  -13246   -13031   -12835   -12642   -12480   -12297   -12013   -11676 
  -11346   -10968   -10501   -10002    -9479    -8868    -8228    -7697 
   -7244    -6750    -6293    -5972    -5698    -5439    -5297    -5278 
   -5298    -5379    -5589    -5872    -6145    -6457    -6840    -7194 
   -7466    -7731    -7965    -8117    -8274    -8502    -8718    -8837 
   -8905    -9031    -9198    -9378    -9655   -10003   -10318   -10652 
  -11071   -11511   -11955   -12444   -12938   -13319   -13576   -13809 
  -14003   -14088   -14130   -14192   -14210   -14172   -14184   -14285 
  -14358   -14373   -14404   -14412   -14314   -14161   -13994   -13736 
  -13359   -12938   -12505   -12036   -11562   -11159   -10824   -10467 
  -10080    -9733    -9374    -8955    -8622    -8414    -8212    -8028 
   -7935    -7871    -7785    -7746    -7835    -7982    -8106    -8291 
   -8564    -8789    -8949    -9128    -9292    -9386    -9455    -9499 
   -9414    -9198    -8970    -8758    -8514    -8274    -8085    -7882 
   -7619    -7371    -7177    -6961    -6727    -6567    -6470    -6384 
   -6347    -6373    -6396    -6415    -6494    -6606    -6681    -6759 
   -6902    -7056    -7225    -7501    -7846    -8129    -8367    -8646 
   -8943    -9219    -9516    -9840   -10116   -10330   -10498   -10617 
  -10663   -10656   -10632   -10561   -10417   -10269   -10170   -10064 
   -9921    -9830    -9821    -9806    -9782    -9830    -9933   -10015 
  -10107   -10269   -10455   -10594   -10729   -10893   -11010   -11088 
  -11209   -11308   -11298   -11230   -11140   -10970   -10758   -10600 
  -10449   -10231   -10015    -9837    -9614    -9352    -9173    -9089 
   -8980    -8827    -8750    -8756    -8715    -8631    -8588    -8542 
   -8486    -8475    -8440    -8338    -8302    -8364    -8395    -8353 
   -8309    -8247    -8078    -7821    -7572    -7317    -7002    -6691 
   -6473    -6313    -6157    -6046    -6022    -6057    -6151    -6345 
   -6601    -6853    -7157    -7591    -8077    -8567    -9135    -9755 
