Origin Time       2025/01/13 21:19:00
Lat.              31.8
Long.             131.6
Depth. (km)       30
Mag.              6.9
Station Code      EHM001
Station Lat.      33.9788
Station Long.     133.5494
Station Height(m) 25
Record Time       2025/01/13 21:21:01
Sampling Freq(Hz) 100Hz
Duration Time(s)  81
Dir.              N-S
Scale Factor      7845(gal)/8223790
Max. Acc. (gal)   3.268
Last Correction   2025/01/13 21:21:02
Memo.             
[...]
    -531     -525     -510     -515     -515     -477     -414     -348 
    -288     -247     -232     -228     -183      -78       54      163 
     228      268      307      349      390      422      444      460 
     480      504      518      529      557      581      556      473 
     371      298      263      237      225      243      275      325 
     392      452      504      554      583      579      564      560 
     577      631      687      708      719      737      757      778 
     796      780      703      594      506      472      506      587 
     688      811      938     1030     1078     1071      978      815 
     648      499      341      174       48      -33     -114     -182 
    -199     -179     -152     -133     -118     -105      -87      -63 
     -47      -40      -12       41       93      136      156      132 
      94       99      136      172      195      179      148      167 
     207      228      265      297      255      182      139      101 
      54       17      -10      -35      -48      -49      -29       24 
     105      189      260      310      336      333      315      306 
     310      322      352      380      394      402      403      407 
     411      405      413      441      448      429      391      344 
     325      325      315      310      311      302      298      315 
     328      337      405      533      642      684      656      568 
     490      454      407      328      257      224      225      237 
     220      160       93       41        4       -8       33      125 
     202      230      263      351      464      561      652      738 
     772      739      669      587      490      365      249      194 
     198      225      241      230      216      232      256      236 
     178      113       37      -41      -89      -85      -40       17 
      71      113      136      126       98       95      122      143 
     141      116       29     -106     -217     -270     -271     -229 
    -157      -41      124      288      409      502      589      665 
     719      724      676      626      589      534      449      365 
     291      207      108       21      -40      -91     -141     -163 
    -144     -118     -108      -99     -106     -141     -179     -183 
    -157      -99        4      141      278      396      476      503 
     517      535      546      552      553      533      504      506 
     519      521      530      560      612      689      777      891 
    1031     1147     1219     1263     1289     1282     1246     1204 
    1171     1124     1038      928      801      664      542      454 
     398      360      338      325      290      243      187      116 
      37      -49     -156     -248     -280     -249     -156      -18 
     105      179      222      226      175      112       67       24 
     -39     -114     -175     -198     -189     -174     -149     -118 
    -106     -120     -156     -213     -264     -288     -279     -253 
    -237     -233     -214     -175     -117      -36       48      125 
     202      260      265      249      263      284      280      286 
     333      390      430      459      491      533      548      517 
     471      430      392      376      392      414      432      469 
     500      499      517      564      591      594      589      561 
     544      592      673      730      768      792      793      796 
     795      766      731      708      676      643      623      595 
     553      534      554      595      638      685      719      723 
     719      706      645      534      421      330      260      206 
     137       58        2      -14        0       51      129      190 
     207      189      144       86       49       43       47       66 
      95      102       64       -4      -74     -140     -218     -310 
    -382     -419     -422     -388     -326     -237     -145      -62 
       5       41       41      -16     -137     -280     -410     -504 
    -538     -506     -423     -329     -255     -183     -108      -58 
     -43      -48      -60      -68      -66      -49      -18       39 
     132      257      392      502      567      587      544      441 
     346      310      319      341      346      334      314      290 
     245      167       79       20       -2        4       36       94 
     168      216      237      279      324      315      257      195 
     159      164      206      270      336      388      432      477 
     510      506      473      442      411      378      349      332 
     301      245      199      197      213      199      159      140 
     167      222      278      302      278      222      175      156 
     141       97       51       44       39        0      -18        0 
       2      -37     -117     -229     -324     -361     -357     -334 
    -291     -245     -207     -183     -167     -143      -87      -12 
      68      148      202      222      240      275      310      361 
     444      503      500      468      436      414      398      382 
     382      409      436      448      437      411      407      427 
     450      480      518      554      565      553      556      577 
     584      573      564      562      568      604      654      684 
     689      666      626      604      611      608      583      558 
     561      598      669      737      761      751      726      664 
     562      468      390      302      213      140       82       58 
      70       93       99       76       33       -8      -18       -5 
      -4      -28      -56      -75      -83      -74      -43       -2 
      39       67       78      112      182      259      342      414 
     444      427      361      290      268      267      232      178 
     130      118      172      263      310      305      298      303 
     307      303      275      237      221      217      194      170 
     157      136       94       47        2      -47     -105     -159 
    -190     -207     -243     -302     -367     -402     -373     -328 
    -324     -326     -301     -252     -178      -95      -36        1 
      31       51       51       36       18       22       62      130 
     197      251      303      348      394      464      538      571 
     553      534      552      583      589      548      457      357 
     284      243      238      253      270      321      422      552 
     668      731      758      793      823      820      801      770 
     718      660      616      581      550      513      449      371 
     305      249      218      234      268      271      253      248 
     251      253      241      206      180      184      194      207 
     234      261      268      265      256      237      211      189 
     172      160      162      171      155      101       20      -58 
    -126     -210     -302     -367     -403     -432     -448     -444 
    -448     -464     -465     -441     -402     -360     -301     -205 
     -78       47      126      149      153      153      145      133 
     129      135      147      175      217      264      317      375 
     440      517      594      641      654      642      621      622 
     634      641      627      589      554      542      540      506 
     419      319      259      233      233      260      305      359 
     419      490      569      669      787      888      940      961 
     966      966      974      988      997      993      959      908 
     869      838      799      770      770      784      801      845 
     934     1036     1127     1220     1308     1358     1370     1354 
    1305     1221     1124     1032      943      853      754      634 
     507      406      317      233      176      133       90       41 
     -20      -86     -130     -149     -156     -155     -157     -172 
    -191     -199     -187     -162     -145     -130     -102      -68 
     -28        9       16        4       17       51       83      106 
     113      120      140      186      247      305      360      423 
     472      494      503      506      488      454      446      486 
     552      626      715      820      919     1000     1080     1150 
    1200     1246     1289     1304     1277     1209     1112     1016 
     923      814      691      556      426      341      294      240 
     175      113       55       16       -4      -33      -71      -95 
    -102      -89      -54      -10       29       59       71       81 
      90       93       85       76       89      113      130      153 
     195      267      342      371      344      294      255      243 
     259      287      309      317      338      382      421      454 
     502      550      589      630      653      643      623      603 
     587      591      604      611      614      598      541      452 
     341      213       91      -12     -117     -237     -360     -480 
    -602     -730     -864     -996    -1128    -1247    -1324    -1344 
   -1309    -1225    -1112     -978     -822     -650     -483     -332 
    -214     -132      -55       37      144      248      336      411 
     480      525      546      584      658      754      838      889 
     927      963      970      939      882      807      727      638 
     533      421      329      280      271      275      267      217 
     130       31      -58     -126     -191     -265     -326     -363 
    -380     -371     -333     -299     -286     -278     -265     -234 
    -186     -155     -149     -137     -101      -54        2       59 
     103      136      152      155      164      203      275      355 
     409      430      445      491      568      654      746      850 
     959     1066     1154     1196     1190     1162     1115     1048 
     984      926      861      789      723      657      588      521 
     461      413      369      342      340      340      326      309 
     307      322      340      341      322      291      232      156 
     102       54        2      -24      -45      -60      -40       18 
     106      206      291      352      398      427      433      429 
     414      392      378      373      373      368      355      336 
     319      313      315      326      338      330      290      238 
     202      175      140       98       75       89      122      157 
     213      291      367      436      491      500      446      341 
     218       94      -35     -162     -263     -353     -463     -584 
    -702     -815     -903     -946     -973     -993     -976     -920 
    -837     -712     -556     -388     -211      -36      113      241 
     379      511      607      681      758      842      918      970 
    1011     1042     1066     1101     1144     1177     1194     1193 
    1159     1105     1062     1038     1017      997      985      990 
    1009     1023     1023     1017     1013     1015     1030     1044 
    1039     1027     1012      980      939      900      857      793 
     707      599      469      333      217      132       67       10 
     -35      -78     -126     -166     -190     -209     -243     -283 
    -313     -337     -355     -355     -348     -367     -405     -430 
    -446     -468     -496     -526     -557     -585     -612     -653 
    -706     -764     -812     -853     -892     -913     -922     -928 
    -939     -958     -977     -976     -966     -962     -931     -851 
    -739     -618     -496     -382     -265     -122       31      175 
     319      452      558      648      734      815      873      889 
     893      903      893      877      888      931      988     1054 
    1134     1242     1391     1548     1688     1818     1921     1981 
    2019     2039     2023     1977     1925     1892     1908     1977 
    2062     2150     2241     2322     2377     2397     2371     2307 
    2219     2118     1995     1850     1686     1501     1296     1088 
     888      700      541      413      288      153       22      -87 
    -170     -211     -198     -141      -75      -12       63      136 
     187      238      302      365      430      502      561      596 
     612      607      579      540      472      352      197       33 
    -125     -288     -453     -608     -754     -905    -1073    -1255 
   -1437    -1617    -1796    -1969    -2118    -2220    -2276    -2299 
   -2290    -2249    -2173    -2066    -1934    -1787    -1628    -1441 
   -1247    -1065     -896     -738     -587     -433     -283     -157 
     -58       21      101      183      255      326      413      506 
     606      727      864      996     1125     1255     1382     1514 
    1648     1753     1830     1890     1931     1964     2000     2016 
    1998     1952     1877     1771     1645     1507     1362     1225 
    1098      962      827      712      600      483      361      224 
      86      -43     -180     -329     -491     -669     -864    -1061 
   -1256    -1459    -1661    -1854    -2035    -2189    -2303    -2382 
   -2425    -2427    -2389    -2309    -2185    -2031    -1865    -1682 
   -1479    -1251    -1000     -742     -481     -220       48      338 
     652      977     1296     1572     1798     1996     2185     2357 
    2515     2674     2832     2982     3130     3275     3406     3519 
    3609     3672     3697     3686     3643     3572     3476     3357 
    3206     3018     2814     2597     2367     2135     1904     1657 
    1397     1136      869      592      325       78     -157     -396 
    -635     -861    -1073    -1285    -1502    -1725    -1942    -2137 
   -2308    -2457    -2571    -2654    -2716    -2759    -2774    -2770 
   -2751    -2716    -2666    -2600    -2515    -2405    -2273    -2111 
   -1938    -1773    -1613    -1458    -1290    -1084     -842     -585 
    -341     -133       55      251      457      662      861     1050 
    1221     1375     1513     1645     1768     1876     1972     2047 
    2116     2188     2268     2350     2424     2502     2596     2701 
    2813     2906     2959     2980     2964     2902     2805     2666 
    2479     2262     2039     1822     1606     1390     1177      972 
     773      585      426      290      170       71        5      -48 
    -114     -189     -275     -386     -504     -634     -788     -961 
   -1138    -1293    -1416    -1517    -1614    -1701    -1765    -1802 
   -1798    -1753    -1676    -1572    -1443    -1294    -1131     -970 
    -838     -739     -652     -564     -483     -415     -361     -321 
    -291     -257     -205     -125      -21       89      206      352 
     525      699      857      994     1113     1201     1252     1277 
    1281     1269     1242     1223     1220     1233     1269     1314 
    1355     1386     1422     1463     1494     1502     1486     1451 
    1404     1344     1286     1224     1150     1067      978      886 
     810      741      670      629      621      615      606      599 
     580      544      504      467      423      363      270      144 
      13     -101     -191     -263     -329     -400     -475     -546 
    -612     -675     -727     -781     -843     -913     -990    -1070 
   -1158    -1269    -1398    -1529    -1651    -1765    -1881    -2004 
   -2133    -2241    -2316    -2361    -2370    -2359    -2330    -2278 
   -2196    -2080    -1946    -1802    -1649    -1497    -1336    -1165 
    -996     -838     -692     -565     -465     -373     -291     -237 
    -197     -152      -99      -44       -1       48      110      183 
     275      384      506      635      773      916     1062     1213 
    1352     1471     1579     1669     1744     1806     1856     1898 
    1927     1935     1921     1906     1888     1852     1817     1792 
    1760     1715     1665     1611     1539     1447     1359     1283 
    1213     1134     1046      951      828      699      596      518 
     452      405      378      368      394      448      514      599 
     692      780      861      942     1017     1081     1124     1139 
    1123     1092     1061     1016      962      923      892      853 
     801      738      669      600      537      487      448      415 
     395      398      418      454      496      517      517      515 
     513      507      498      469      418      357      294      224 
     129       28      -54     -140     -244     -340     -417     -481 
    -527     -571     -630     -691     -735     -764     -774     -770 
    -756     -716     -654     -595     -549     -500     -444     -394 
    -342     -291     -249     -209     -156      -87       -2       91 
     186      267      342      415      476      515      534      533 
     515      504      517      538      567      612      664      715 
     772      826      872      899      905      909      922      943 
     969      994     1020     1070     1146     1219     1267     1290 
    1300     1290     1255     1206     1144     1073      997      908 
     815      719      611      502      411      338      268      220 
     207      213      234      275      310      345      398      453 
     506      569      649      745      858      977     1101     1232 
    1374     1520     1648     1756     1852     1929     1977     2000 
    1999     1969     1907     1817     1709     1598     1475     1336 
    1183     1021      865      722      580      436      294      151 
      12     -122     -260     -391     -506     -619     -731     -830 
    -913     -976    -1019    -1042    -1044    -1038    -1028    -1026 
   -1039    -1065    -1098    -1128    -1155    -1188    -1208    -1201 
   -1167    -1112    -1039     -958     -865     -753     -627     -491 
    -336     -157       16      162      287      406      499      557 
     598      621      622      598      548      495      440      361 
     268      164       48      -64     -163     -253     -332     -391 
    -444     -499     -542     -558     -560     -560     -552     -526 
    -481     -421     -360     -294     -221     -155      -87      -12 
      56      103      133      155      172      178      170      155 
     130       93       43      -17      -94     -175     -244     -295 
    -332     -361     -382     -384     -367     -334     -306     -283 
    -260     -252     -267     -298     -336     -360     -355     -326 
    -272     -198     -113      -24       70      166      257      333 
     384      430      476      510      533      544      527      499 
     476      461      454      448      440      437      444      468 
     504      534      554      583      606      616      623      621 
     602      580      565      557      554      538      502      464 
     426      386      346      311      264      205      148      105 
      66       28      -10      -51      -85     -108     -121     -110 
     -70      -18       37      108      183      264      353      426 
     477      525      573      611      645      693      750      812 
     882      953     1012     1058     1092     1096     1070     1032 
     981      909      818      719      622      530      446      382 
