Origin Time       2025/01/13 21:19:00
Lat.              31.8
Long.             131.6
Depth. (km)       30
Mag.              6.9
Station Code      EHM013
Station Lat.      33.3917
Station Long.     132.1140
Station Height(m) 15
Record Time       2025/01/13 21:20:22
Sampling Freq(Hz) 100Hz
Duration Time(s)  71
Dir.              U-D
Scale Factor      7845(gal)/8223790
Max. Acc. (gal)   2.050
Last Correction   2025/01/13 21:20:22
Memo.             
[...]
   -5589    -5570    -5501    -5324    -5171    -5151    -5167    -5147 
   -5185    -5285    -5348    -5354    -5347    -5390    -5513    -5656 
   -5751    -5761    -5676    -5530    -5377    -5273    -5292    -5417 
   -5560    -5686    -5794    -5865    -5892    -5914    -5987    -6091 
   -6149    -6119    -6014    -5865    -5703    -5545    -5395    -5269 
   -5179    -5117    -5020    -4897    -4861    -4927    -5001    -5058 
   -5090    -5055    -4982    -4915    -4864    -4866    -4919    -4961 
   -4969    -4978    -5005    -5007    -4942    -4873    -4888    -4973 
   -5036    -5026    -4968    -4901    -4837    -4820    -4905    -5040 
   -5127    -5155    -5170    -5193    -5223    -5277    -5339    -5363 
   -5317    -5178    -4966    -4780    -4662    -4572    -4529    -4600 
   -4733    -4853    -5001    -5175    -5321    -5476    -5656    -5803 
   -5902    -5930    -5863    -5753    -5641    -5509    -5362    -5224 
   -5100    -4977    -4903    -4897    -4866    -4791    -4760    -4762 
   -4746    -4741    -4741    -4737    -4770    -4823    -4835    -4837 
   -4862    -4877    -4893    -4973    -5108    -5212    -5252    -5275 
   -5336    -5489    -5707    -5863    -5906    -5880    -5810    -5740 
   -5665    -5528    -5358    -5229    -5185    -5227    -5275    -5273 
   -5271    -5310    -5409    -5586    -5722    -5705    -5607    -5547 
   -5528    -5506    -5479    -5422    -5263    -5059    -4961    -4950 
   -4954    -4993    -5038    -5043    -5065    -5119    -5147    -5107 
   -4988    -4869    -4823    -4789    -4734    -4743    -4808    -4835 
   -4850    -4905    -4957    -4996    -5062    -5101    -5057    -4947 
   -4780    -4598    -4527    -4614    -4796    -5000    -5171    -5344 
   -5602    -5894    -6079    -6099    -6008    -5915    -5917    -6011 
   -6130    -6226    -6299    -6349    -6350    -6332    -6367    -6369 
   -6220    -6058    -6037    -6054    -5979    -5815    -5572    -5263 
   -5023    -4922    -4843    -4737    -4641    -4469    -4209    -4047 
   -4043    -4082    -4113    -4151    -4226    -4330    -4372    -4321 
   -4222    -4141    -4170    -4298    -4488    -4784    -5113    -5351 
   -5543    -5729    -5814    -5802    -5795    -5817    -5834    -5881 
   -5972    -6026    -6025    -6018    -5968    -5818    -5637    -5503 
   -5443    -5503    -5667    -5823    -5929    -5971    -5906    -5807 
   -5809    -5884    -5945    -5948    -5854    -5717    -5672    -5744 
   -5864    -5981    -6050    -6030    -5930    -5826    -5780    -5791 
   -5821    -5809    -5733    -5687    -5734    -5792    -5818    -5883 
   -6037    -6242    -6370    -6369    -6313    -6249    -6181    -6120 
   -6073    -6066    -6081    -6085    -6112    -6127    -6054    -5945 
   -5837    -5701    -5590    -5543    -5518    -5526    -5576    -5641 
   -5715    -5726    -5586    -5354    -5143    -4973    -4881    -4930 
   -5007    -4984    -4916    -4903    -4941    -4954    -4885    -4781 
   -4711    -4657    -4602    -4575    -4577    -4615    -4679    -4695 
   -4606    -4444    -4278    -4178    -4205    -4364    -4581    -4757 
   -4858    -4957    -5109    -5293    -5414    -5408    -5370    -5447 
   -5590    -5734    -5913    -5987    -5826    -5599    -5420    -5239 
   -5104    -5012    -4901    -4824    -4839    -4935    -5076    -5198 
   -5239    -5138    -4927    -4752    -4638    -4495    -4334    -4255 
   -4263    -4272    -4274    -4357    -4542    -4764    -4977    -5167 
   -5313    -5351    -5238    -5070    -4985    -4989    -5005    -5008 
   -5031    -5084    -5130    -5175    -5252    -5309    -5316    -5292 
   -5219    -5132    -5136    -5213    -5263    -5269    -5281    -5371 
   -5571    -5796    -5904    -5875    -5802    -5697    -5535    -5408 
   -5363    -5306    -5246    -5263    -5254    -5112    -4988    -4996 
   -5044    -5135    -5370    -5643    -5776    -5821    -5859    -5821 
   -5717    -5648    -5630    -5609    -5555    -5516    -5540    -5597 
   -5633    -5641    -5580    -5433    -5262    -5108    -5007    -5013 
   -5063    -5062    -5062    -5101    -5124    -5116    -5080    -4999 
   -4901    -4828    -4752    -4662    -4568    -4472    -4426    -4456 
   -4534    -4644    -4762    -4895    -5020    -5096    -5161    -5235 
   -5259    -5229    -5200    -5219    -5246    -5178    -5027    -4865 
   -4652    -4409    -4271    -4274    -4333    -4372    -4406    -4511 
   -4692    -4895    -5103    -5273    -5350    -5370    -5459    -5692 
   -5975    -6169    -6299    -6435    -6579    -6708    -6772    -6744 
   -6658    -6566    -6494    -6467    -6532    -6648    -6696    -6673 
   -6642    -6551    -6367    -6126    -5872    -5702    -5655    -5664 
   -5729    -5892    -6052    -6100    -6096    -6100    -6096    -6083 
   -6031    -5884    -5672    -5428    -5143    -4912    -4791    -4656 
   -4463    -4305    -4253    -4259    -4203    -4085    -4020    -4064 
   -4175    -4287    -4372    -4448    -4487    -4534    -4681    -4857 
   -4939    -4959    -4989    -5094    -5286    -5503    -5692    -5791 
   -5769    -5684    -5587    -5562    -5717    -5953    -6061    -6049 
   -6060    -6077    -6026    -5934    -5827    -5687    -5560    -5522 
   -5521    -5470    -5389    -5319    -5259    -5238    -5285    -5335 
   -5313    -5304    -5394    -5529    -5636    -5676    -5613    -5520 
   -5505    -5513    -5486    -5494    -5502    -5425    -5340    -5278 
   -5139    -4955    -4878    -4942    -5098    -5301    -5478    -5583 
   -5647    -5705    -5714    -5629    -5533    -5530    -5584    -5628 
   -5682    -5759    -5832    -5896    -5926    -5863    -5691    -5518 
   -5431    -5387    -5374    -5443    -5548    -5607    -5607    -5570 
   -5539    -5574    -5676    -5809    -5962    -6130    -6201    -6088 
   -5899    -5767    -5614    -5421    -5337    -5395    -5475    -5516 
   -5506    -5428    -5287    -5152    -5088    -5081    -5080    -5047 
   -4988    -4938    -4909    -4860    -4750    -4600    -4449    -4297 
   -4158    -4097    -4117    -4189    -4302    -4417    -4488    -4488 
   -4425    -4419    -4592    -4877    -5132    -5270    -5287    -5283 
   -5306    -5314    -5290    -5236    -5196    -5255    -5441    -5701 
   -5948    -6100    -6129    -6091    -6054    -5976    -5821    -5661 
   -5518    -5325    -5101    -4941    -4846    -4757    -4715    -4781 
   -4868    -4901    -4935    -4984    -4996    -4955    -4849    -4707 
   -4633    -4698    -4812    -4804    -4623    -4356    -4113    -3975 
   -4002    -4191    -4428    -4602    -4761    -4966    -5179    -5360 
   -5493    -5626    -5799    -5922    -5922    -5890    -5926    -6007 
   -6062    -6042    -5950    -5853    -5760    -5645    -5521    -5386 
   -5265    -5220    -5246    -5309    -5429    -5578    -5655    -5661 
   -5706    -5834    -5949    -5957    -5904    -5832    -5713    -5601 
   -5572    -5574    -5530    -5463    -5405    -5383    -5413    -5476 
   -5583    -5724    -5823    -5888    -5952    -5969    -5919    -5832 
   -5699    -5499    -5262    -5038    -4851    -4757    -4756    -4733 
   -4711    -4774    -4869    -5022    -5301    -5611    -5887    -6166 
   -6404    -6538    -6569    -6492    -6332    -6172    -6045    -5925 
   -5767    -5525    -5236    -4969    -4716    -4518    -4445    -4452 
   -4460    -4450    -4471    -4595    -4745    -4806    -4791    -4707 
   -4603    -4623    -4738    -4760    -4648    -4498    -4341    -4207 
   -4149    -4112    -4063    -4089    -4199    -4337    -4476    -4603 
   -4749    -4938    -5127    -5238    -5236    -5216    -5269    -5354 
   -5414    -5460    -5503    -5576    -5678    -5719    -5674    -5616 
   -5568    -5470    -5316    -5192    -5155    -5174    -5165    -5092 
   -5004    -4988    -5067    -5155    -5186    -5170    -5097    -4997 
   -4955    -4978    -5043    -5159    -5279    -5348    -5421    -5559 
   -5674    -5715    -5715    -5618    -5409    -5215    -5120    -5100 
   -5115    -5134    -5155    -5197    -5225    -5219    -5206    -5165 
   -5071    -4986    -4977    -5089    -5266    -5363    -5331    -5223 
   -5113    -5032    -4931    -4772    -4618    -4557    -4572    -4598 
   -4631    -4684    -4784    -4969    -5150    -5265    -5381    -5435 
   -5316    -5157    -5163    -5319    -5483    -5583    -5643    -5709 
   -5791    -5883    -6016    -6215    -6459    -6727    -6980    -7146 
   -7171    -7088    -6940    -6725    -6512    -6408    -6369    -6281 
   -6129    -5971    -5896    -5904    -5926    -5950    -5968    -5957 
   -5906    -5805    -5719    -5706    -5690    -5591    -5437    -5321 
   -5331    -5468    -5637    -5724    -5730    -5751    -5773    -5709 
   -5583    -5497    -5456    -5394    -5287    -5200    -5231    -5358 
   -5427    -5366    -5275    -5242    -5271    -5374    -5503    -5532 
   -5505    -5597    -5742    -5802    -5829    -5890    -5984    -6102 
   -6156    -6091    -5968    -5810    -5616    -5458    -5386    -5398 
   -5487    -5594    -5641    -5638    -5640    -5671    -5706    -5746 
   -5860    -6052    -6241    -6384    -6488    -6558    -6606    -6606 
   -6493    -6282    -6085    -5941    -5827    -5753    -5667    -5541 
   -5436    -5364    -5358    -5433    -5475    -5409    -5286    -5124 
   -4931    -4760    -4635    -4569    -4569    -4611    -4679    -4806 
   -4970    -5127    -5300    -5481    -5602    -5621    -5551    -5459 
   -5412    -5418    -5436    -5383    -5225    -5036    -4895    -4801 
   -4758    -4772    -4800    -4797    -4769    -4731    -4669    -4537 
   -4375    -4314    -4360    -4349    -4198    -3997    -3863    -3813 
   -3802    -3842    -3917    -3921    -3819    -3724    -3740    -3844 
   -3967    -4109    -4272    -4429    -4584    -4711    -4777    -4828 
   -4901    -4981    -5071    -5119    -5078    -5070    -5188    -5328 
   -5401    -5456    -5566    -5722    -5873    -5954    -5922    -5821 
   -5688    -5513    -5354    -5274    -5209    -5131    -5082    -5028 
   -4935    -4846    -4783    -4733    -4710    -4702    -4646    -4538 
   -4500    -4600    -4791    -5047    -5320    -5491    -5499    -5400 
   -5269    -5125    -5027    -5044    -5104    -5073    -4999    -4999 
   -5026    -4997    -4943    -4860    -4730    -4618    -4550    -4499 
   -4456    -4409    -4348    -4272    -4185    -4140    -4152    -4125 
   -4037    -3991    -4025    -4047    -3979    -3873    -3817    -3828 
   -3893    -3982    -4035    -4055    -4093    -4121    -4094    -4066 
   -4175    -4422    -4627    -4743    -4822    -4814    -4750    -4735 
   -4796    -4943    -5143    -5314    -5448    -5562    -5660    -5796 
   -5998    -6173    -6228    -6203    -6146    -6075    -6060    -6115 
   -6156    -6176    -6218    -6291    -6377    -6405    -6374    -6376 
   -6431    -6539    -6704    -6860    -6963    -7040    -7107    -7159 
   -7199    -7199    -7099    -6957    -6876    -6826    -6712    -6500 
   -6220    -5953    -5756    -5610    -5518    -5530    -5552    -5454 
   -5351    -5395    -5452    -5363    -5190    -5024    -4862    -4695 
   -4584    -4587    -4668    -4733    -4729    -4672    -4563    -4390 
   -4263    -4299    -4429    -4510    -4549    -4580    -4552    -4455 
   -4365    -4334    -4403    -4590    -4823    -5047    -5260    -5410 
   -5452    -5449    -5467    -5520    -5632    -5779    -5922    -6106 
   -6311    -6448    -6538    -6663    -6808    -6907    -6974    -6971 
   -6851    -6687    -6520    -6305    -6019    -5656    -5267    -4969 
   -4788    -4672    -4575    -4471    -4390    -4375    -4401    -4429 
   -4495    -4614    -4743    -4830    -4885    -4963    -5063    -5170 
   -5317    -5508    -5684    -5792    -5827    -5856    -5929    -6027 
   -6127    -6187    -6173    -6120    -6085    -6073    -6065    -6091 
   -6147    -6197    -6296    -6416    -6412    -6274    -6099    -5961 
   -5923    -5953    -5946    -5863    -5701    -5476    -5281    -5192 
   -5146    -5050    -4963    -4970    -5032    -5125    -5278    -5454 
   -5547    -5545    -5517    -5441    -5285    -5127    -5044    -5044 
   -5089    -5150    -5225    -5277    -5281    -5279    -5302    -5323 
   -5278    -5178    -5057    -4889    -4731    -4650    -4568    -4473 
   -4457    -4482    -4463    -4411    -4388    -4448    -4590    -4795 
   -5013    -5140    -5124    -5039    -5013    -5105    -5277    -5470 
   -5644    -5755    -5817    -5876    -5935    -5988    -6002    -5948 
   -5900    -5906    -5891    -5836    -5776    -5732    -5702    -5682 
   -5680    -5698    -5684    -5622    -5557    -5479    -5333    -5165 
   -5053    -4992    -4955    -4955    -5013    -5134    -5246    -5256 
   -5173    -5049    -4908    -4804    -4814    -4877    -4853    -4743 
   -4648    -4584    -4531    -4475    -4391    -4311    -4297    -4356 
   -4476    -4591    -4600    -4534    -4513    -4556    -4638    -4787 
   -4961    -5043    -5019    -5005    -5062    -5139    -5236    -5382 
   -5530    -5622    -5670    -5676    -5634    -5628    -5764    -5999 
   -6226    -6440    -6639    -6762    -6856    -7020    -7167    -7163 
   -7010    -6809    -6640    -6502    -6351    -6212    -6147    -6095 
   -5994    -5891    -5802    -5711    -5626    -5543    -5508    -5535 
   -5526    -5506    -5551    -5599    -5593    -5540    -5452    -5355 
   -5267    -5196    -5174    -5201    -5159    -5000    -4843    -4719 
   -4572    -4464    -4415    -4283    -4005    -3670    -3383    -3214 
   -3171    -3211    -3325    -3469    -3523    -3483    -3511    -3651 
   -3778    -3875    -4021    -4193    -4333    -4473    -4650    -4834 
   -4996    -5135    -5238    -5304    -5358    -5404    -5431    -5435 
   -5433    -5429    -5390    -5312    -5242    -5175    -5119    -5163 
   -5304    -5476    -5678    -5849    -5930    -5949    -5894    -5736 
   -5518    -5346    -5274    -5258    -5287    -5363    -5385    -5314 
   -5204    -5023    -4819    -4773    -4899    -5046    -5174    -5328 
   -5535    -5769    -5958    -6080    -6135    -6114    -6097    -6158 
   -6214    -6200    -6147    -6093    -6084    -6120    -6139    -6151 
   -6195    -6220    -6174    -6069    -5949    -5822    -5706    -5649 
   -5590    -5458    -5319    -5223    -5113    -4951    -4766    -4608 
   -4504    -4479    -4527    -4576    -4577    -4564    -4568    -4580 
   -4599    -4623    -4645    -4666    -4714    -4818    -4974    -5109 
   -5179    -5228    -5296    -5386    -5485    -5571    -5640    -5695 
   -5728    -5749    -5729    -5624    -5491    -5425    -5437    -5479 
   -5479    -5428    -5389    -5381    -5367    -5364    -5379    -5371 
   -5356    -5401    -5513    -5632    -5652    -5557    -5455    -5367 
   -5274    -5228    -5189    -5076    -4950    -4876    -4822    -4787 
   -4768    -4730    -4704    -4723    -4742    -4762    -4870    -5020 
   -5076    -5077    -5140    -5243    -5304    -5304    -5308    -5368 
   -5481    -5664    -5887    -6016    -6025    -6003    -5981    -5937 
   -5856    -5728    -5574    -5468    -5418    -5362    -5292    -5215 
   -5092    -4965    -4889    -4833    -4818    -4907    -5024    -5093 
   -5166    -5239    -5235    -5177    -5132    -5067    -4965    -4919 
   -4984    -5128    -5298    -5427    -5494    -5516    -5487    -5490 
   -5589    -5698    -5776    -5853    -5888    -5865    -5815    -5765 
   -5787    -5898    -6007    -6080    -6127    -6123    -6104    -6156 
   -6273    -6430    -6648    -6879    -7033    -7118    -7176    -7234 
   -7300    -7348    -7361    -7368    -7361    -7318    -7217    -7038 
   -6820    -6594    -6362    -6130    -5923    -5775    -5663    -5537 
   -5402    -5296    -5221    -5177    -5179    -5224    -5260    -5279 
   -5310    -5354    -5358    -5281    -5152    -5065    -5057    -5094 
   -5136    -5140    -5094    -5023    -4924    -4818    -4752    -4742 
   -4752    -4714    -4621    -4526    -4430    -4314    -4217    -4168 
   -4175    -4282    -4500    -4730    -4847    -4846    -4796    -4766 
   -4803    -4911    -5019    -5059    -5089    -5158    -5196    -5193 
   -5215    -5213    -5170    -5198    -5340    -5478    -5553    -5633 
   -5729    -5806    -5910    -6053    -6154    -6205    -6215    -6166 
   -6120    -6120    -6118    -6068    -5946    -5745    -5532    -5363 
   -5239    -5131    -5012    -4874    -4746    -4644    -4556    -4504 
   -4490    -4426    -4264    -4066    -3902    -3777    -3690    -3658 
   -3686    -3769    -3866    -3978    -4162    -4403    -4665    -4953 
   -5238    -5456    -5567    -5564    -5499    -5464    -5489    -5544 
   -5641    -5771    -5891    -5996    -6069    -6093    -6093    -6048 
   -5954    -5921    -5945    -5887    -5753    -5626    -5478    -5350 
   -5309    -5277    -5194    -5100    -5016    -4953    -4911    -4897 
   -4908    -4889    -4820    -4777    -4783    -4770    -4727    -4692 
   -4668    -4648    -4639    -4657    -4698    -4746    -4789    -4841 
   -4912    -4990    -5082    -5182    -5236    -5259    -5294    -5294 
   -5235    -5159    -5094    -5071    -5117    -5177    -5185    -5143 
   -5085    -5046    -5020    -4958    -4850    -4746    -4699    -4718 
   -4743    -4745    -4766    -4826    -4909    -5053    -5238    -5371 
   -5431    -5475    -5530    -5570    -5584    -5575    -5537    -5478 
   -5422    -5391    -5374    -5333    -5283    -5324    -5498    -5692 
   -5806    -5852    -5880    -5927    -5996    -6069    -6137    -6200 
   -6255    -6296    -6296    -6258    -6215    -6185    -6150    -6089 
   -6007    -5927    -5863    -5821    -5830    -5876    -5902    -5890 
   -5833    -5741    -5694    -5703    -5722    -5726    -5686    -5625 
   -5629    -5660    -5655    -5649    -5640    -5578    -5494    -5408 
   -5293    -5154    -5035    -4999    -5044    -5098    -5107    -5031 
   -4897    -4807    -4792    -4803    -4807    -4792    -4788    -4815 
   -4843    -4862    -4874    -4877    -4904    -4965    -5046    -5155 
   -5236    -5246    -5247    -5290    -5351    -5383    -5398    -5455 
   -5529    -5575    -5638    -5701    -5680    -5597    -5543    -5556 
   -5587    -5568    -5503    -5421    -5321    -5219    -5119    -4995 
   -4830    -4646    -4509    -4444    -4406    -4352    -4299    -4252 
   -4214    -4240    -4329    -4386    -4369    -4342    -4340    -4376 
   -4467    -4594    -4735    -4860    -4955    -5074    -5239    -5404 
   -5564    -5737    -5907    -6076    -6261    -6420    -6511    -6556 
   -6582    -6592    -6616    -6667    -6714    -6736    -6744    -6744 
   -6727    -6710    -6735    -6804    -6885    -6929    -6893    -6775 
   -6621    -6470    -6315    -6162    -6046    -5926    -5757    -5591 
   -5475    -5378    -5262    -5144    -5077    -5074    -5101    -5119 
   -5127    -5143    -5167    -5170    -5135    -5097    -5115    -5204 
   -5304    -5377    -5433    -5474    -5514    -5564    -5589    -5557 
   -5483    -5386    -5286    -5206    -5136    -5058    -4985    -4945 
   -4953    -4999    -5053    -5090    -5123    -5192    -5286    -5331 
   -5332    -5375    -5464    -5524    -5560    -5625    -5715    -5792 
   -5850    -5914    -5980    -6012    -6045    -6118    -6187    -6178 
   -6093    -5976    -5842    -5703    -5607    -5566    -5522    -5460 
   -5417    -5389    -5358    -5335    -5317    -5300    -5289    -5265 
