Origin Time       2025/01/13 21:19:00
Lat.              31.8
Long.             131.6
Depth. (km)       30
Mag.              6.9
Station Code      EHM005
Station Lat.      33.7973
Station Long.     132.9144
Station Height(m) 136
Record Time       2025/01/13 21:20:35
Sampling Freq(Hz) 100Hz
Duration Time(s)  83
Dir.              N-S
Scale Factor      7845(gal)/8223790
Max. Acc. (gal)   3.055
Last Correction   2025/01/13 21:20:35
Memo.             
[...]
   -7534    -7561    -7600    -7663    -7711    -7682    -7580    -7435 
   -7257    -7055    -6851    -6669    -6532    -6481    -6500    -6551 
   -6629    -6736    -6860    -6994    -7113    -7202    -7264    -7296 
   -7302    -7275    -7204    -7118    -7061    -7044    -7029    -6993 
   -6968    -6975    -6984    -6997    -7028    -7049    -7059    -7102 
   -7175    -7236    -7263    -7248    -7207    -7168    -7113    -7033 
   -6944    -6853    -6795    -6782    -6782    -6794    -6855    -6957 
   -7069    -7184    -7308    -7446    -7574    -7673    -7751    -7811 
   -7844    -7847    -7821    -7780    -7723    -7662    -7616    -7601 
   -7605    -7607    -7603    -7619    -7657    -7688    -7697    -7703 
   -7715    -7730    -7726    -7703    -7701    -7735    -7785    -7820 
   -7820    -7797    -7767    -7740    -7727    -7720    -7715    -7716 
   -7703    -7654    -7596    -7542    -7473    -7402    -7326    -7214 
   -7074    -6936    -6818    -6706    -6575    -6462    -6432    -6484 
   -6578    -6717    -6932    -7213    -7504    -7765    -7962    -8067 
   -8083    -8043    -7975    -7886    -7773    -7632    -7480    -7349 
   -7267    -7229    -7229    -7246    -7252    -7236    -7176    -7075 
   -6975    -6885    -6789    -6704    -6642    -6608    -6606    -6635 
   -6694    -6786    -6907    -7045    -7168    -7269    -7339    -7372 
   -7392    -7427    -7470    -7510    -7551    -7595    -7608    -7592 
   -7565    -7531    -7492    -7456    -7425    -7391    -7346    -7304 
   -7277    -7261    -7253    -7273    -7330    -7414    -7511    -7580 
   -7589    -7554    -7488    -7406    -7345    -7291    -7218    -7183 
   -7204    -7211    -7180    -7167    -7179    -7169    -7134    -7105 
   -7096    -7118    -7157    -7184    -7192    -7180    -7152    -7118 
   -7075    -7037    -7055    -7128    -7218    -7327    -7437    -7497 
   -7518    -7524    -7507    -7456    -7385    -7311    -7253    -7222 
   -7207    -7213    -7248    -7299    -7357    -7441    -7546    -7638 
   -7708    -7769    -7819    -7881    -7958    -8013    -8023    -8004 
   -7990    -7982    -7942    -7855    -7732    -7576    -7398    -7245 
   -7159    -7107    -7074    -7087    -7136    -7211    -7326    -7441 
   -7512    -7549    -7545    -7492    -7410    -7307    -7186    -7068 
   -6974    -6887    -6798    -6724    -6693    -6728    -6809    -6916 
   -7040    -7165    -7254    -7294    -7296    -7263    -7194    -7107 
   -7017    -6903    -6787    -6724    -6710    -6706    -6701    -6694 
   -6697    -6736    -6806    -6889    -6975    -7059    -7164    -7303 
   -7418    -7445    -7403    -7348    -7315    -7288    -7241    -7210 
   -7245    -7338    -7461    -7599    -7736    -7861    -7951    -7990 
   -7977    -7917    -7840    -7761    -7662    -7568    -7512    -7473 
   -7431    -7414    -7420    -7446    -7492    -7524    -7527    -7499 
   -7433    -7358    -7302    -7237    -7157    -7080    -6991    -6890 
   -6833    -6852    -6932    -7057    -7180    -7256    -7288    -7294 
   -7258    -7163    -7021    -6870    -6740    -6644    -6578    -6536 
   -6542    -6602    -6708    -6839    -6988    -7150    -7279    -7349 
   -7399    -7446    -7473    -7488    -7511    -7547    -7589    -7624 
   -7662    -7695    -7713    -7728    -7747    -7759    -7762    -7751 
   -7723    -7680    -7636    -7591    -7545    -7511    -7495    -7485 
   -7479    -7476    -7460    -7403    -7304    -7188    -7088    -7032 
   -7007    -6982    -6957    -6964    -6982    -6997    -7044    -7126 
   -7207    -7264    -7287    -7250    -7153    -7025    -6912    -6845 
   -6840    -6878    -6929    -6978    -7022    -7082    -7160    -7253 
   -7376    -7539    -7696    -7812    -7893    -7936    -7933    -7919 
   -7901    -7881    -7885    -7913    -7897    -7788    -7599    -7384 
   -7165    -6952    -6778    -6656    -6582    -6581    -6650    -6762 
   -6903    -7057    -7209    -7349    -7433    -7460    -7491    -7518 
   -7487    -7410    -7333    -7264    -7229    -7242    -7276    -7300 
   -7323    -7357    -7400    -7468    -7574    -7708    -7834    -7896 
   -7854    -7711    -7507    -7283    -7063    -6860    -6689    -6573 
   -6505    -6459    -6440    -6481    -6583    -6721    -6852    -6948 
   -7013    -7092    -7210    -7317    -7377    -7437    -7546    -7712 
   -7892    -8039    -8139    -8225    -8313    -8375    -8402    -8399 
   -8382    -8363    -8318    -8217    -8074    -7919    -7758    -7609 
   -7501    -7425    -7361    -7337    -7375    -7438    -7491    -7530 
   -7543    -7524    -7503    -7457    -7371    -7303    -7264    -7191 
   -7090    -6999    -6918    -6878    -6910    -6968    -7010    -7049 
   -7109    -7168    -7219    -7284    -7327    -7306    -7256    -7222 
   -7176    -7117    -7067    -7029    -7007    -7002    -7009    -7057 
   -7138    -7213    -7284    -7352    -7384    -7389    -7398    -7389 
   -7322    -7223    -7179    -7223    -7319    -7420    -7506    -7588 
   -7699    -7809    -7870    -7879    -7846    -7776    -7704    -7655 
   -7636    -7635    -7655    -7715    -7796    -7831    -7803    -7757 
   -7708    -7614    -7449    -7257    -7109    -7018    -6976    -6974 
   -6990    -7009    -7033    -7074    -7171    -7346    -7546    -7726 
   -7877    -7990    -8051    -8058    -8016    -7956    -7885    -7774 
   -7624    -7507    -7483    -7545    -7624    -7693    -7793    -7919 
   -8021    -8063    -8014    -7885    -7716    -7506    -7263    -7040 
   -6845    -6677    -6556    -6471    -6399    -6334    -6289    -6282 
   -6332    -6407    -6459    -6498    -6550    -6623    -6709    -6793 
   -6902    -7071    -7280    -7480    -7615    -7661    -7661    -7628 
   -7542    -7414    -7284    -7200    -7196    -7223    -7223    -7222 
   -7263    -7327    -7395    -7458    -7496    -7503    -7485    -7449 
   -7406    -7357    -7298    -7226    -7138    -7048    -6975    -6955 
   -7032    -7180    -7341    -7514    -7680    -7792    -7869    -7939 
   -7977    -7985    -8001    -8028    -8031    -7993    -7908    -7782 
   -7657    -7549    -7441    -7339    -7277    -7244    -7225    -7227 
   -7260    -7321    -7379    -7399    -7380    -7366    -7388    -7392 
   -7346    -7292    -7246    -7184    -7101    -6998    -6903    -6867 
   -6910    -7038    -7215    -7388    -7565    -7747    -7893    -7981 
   -8009    -7942    -7812    -7700    -7593    -7460    -7356    -7326 
   -7319    -7295    -7264    -7214    -7123    -7036    -7015    -7068 
   -7133    -7161    -7169    -7157    -7125    -7144    -7225    -7272 
   -7284    -7300    -7276    -7195    -7111    -7032    -6930    -6822 
   -6747    -6713    -6706    -6723    -6764    -6828    -6926    -7065 
   -7206    -7290    -7310    -7279    -7209    -7119    -7045    -7003 
   -7009    -7078    -7182    -7277    -7365    -7470    -7604    -7726 
   -7801    -7848    -7905    -7983    -8078    -8175    -8263    -8337 
   -8406    -8451    -8414    -8295    -8147    -8000    -7888    -7847 
   -7852    -7855    -7824    -7750    -7649    -7528    -7393    -7258 
   -7142    -7030    -6910    -6791    -6677    -6559    -6455    -6388 
   -6351    -6350    -6385    -6432    -6478    -6548    -6647    -6735 
   -6790    -6809    -6799    -6779    -6754    -6748    -6795    -6875 
   -6974    -7114    -7288    -7449    -7557    -7609    -7635    -7646 
   -7618    -7543    -7458    -7375    -7284    -7199    -7141    -7119 
   -7142    -7194    -7249    -7299    -7308    -7261    -7182    -7079 
   -6964    -6852    -6747    -6673    -6669    -6747    -6887    -7076 
   -7294    -7477    -7596    -7703    -7834    -7974    -8118    -8245 
   -8340    -8405    -8457    -8517    -8588    -8638    -8630    -8563 
   -8436    -8253    -8028    -7757    -7465    -7223    -7065    -6955 
   -6855    -6775    -6733    -6705    -6658    -6583    -6480    -6365 
   -6258    -6142    -6031    -5983    -6015    -6107    -6235    -6362 
   -6489    -6643    -6794    -6882    -6903    -6902    -6897    -6886 
   -6871    -6855    -6868    -6970    -7150    -7358    -7595    -7866 
   -8118    -8321    -8456    -8509    -8526    -8534    -8492    -8397 
   -8309    -8264    -8239    -8197    -8128    -8032    -7900    -7730 
   -7537    -7344    -7176    -7049    -6948    -6855    -6775    -6718 
   -6667    -6617    -6594    -6602    -6624    -6685    -6801    -6918 
   -7006    -7114    -7267    -7422    -7557    -7681    -7776    -7809 
   -7771    -7658    -7515    -7419    -7420    -7530    -7717    -7940 
   -8159    -8306    -8330    -8270    -8175    -8046    -7844    -7595 
   -7348    -7114    -6936    -6872    -6914    -7042    -7222    -7392 
   -7519    -7603    -7639    -7620    -7534    -7384    -7187    -6953 
   -6704    -6481    -6308    -6166    -6070    -6039    -6068    -6169 
   -6336    -6528    -6728    -6929    -7102    -7250    -7385    -7507 
   -7631    -7747    -7800    -7751    -7607    -7404    -7225    -7107 
   -7020    -6949    -6907    -6879    -6848    -6816    -6786    -6772 
   -6785    -6818    -6874    -6932    -6960    -6980    -7034    -7095 
   -7129    -7149    -7156    -7132    -7092    -7045    -6959    -6855 
   -6814    -6858    -6945    -7048    -7167    -7285    -7375    -7457 
   -7554    -7657    -7755    -7820    -7821    -7793    -7769    -7730 
   -7657    -7561    -7483    -7437    -7400    -7349    -7296    -7288 
   -7341    -7419    -7491    -7551    -7604    -7634    -7623    -7578 
   -7511    -7433    -7354    -7276    -7198    -7134    -7092    -7064 
   -7034    -7002    -6987    -7009    -7055    -7099    -7145    -7203 
   -7260    -7310    -7375    -7456    -7534    -7596    -7627    -7618 
   -7580    -7538    -7511    -7527    -7599    -7705    -7836    -7979 
   -8100    -8151    -8133    -8090    -8062    -8044    -8035    -8033 
   -8027    -8009    -7983    -7955    -7933    -7909    -7874    -7834 
   -7763    -7669    -7592    -7527    -7437    -7334    -7264    -7222 
   -7187    -7172    -7188    -7218    -7236    -7242    -7256    -7277 
   -7284    -7292    -7341    -7443    -7585    -7731    -7834    -7897 
   -7973    -8070    -8158    -8214    -8243    -8251    -8243    -8230 
   -8197    -8131    -8066    -8021    -7983    -7960    -7979    -8035 
   -8109    -8178    -8225    -8283    -8371    -8469    -8561    -8637 
   -8683    -8680    -8608    -8449    -8210    -7927    -7663    -7487 
   -7377    -7290    -7236    -7248    -7333    -7453    -7565    -7658 
   -7749    -7832    -7875    -7847    -7782    -7720    -7654    -7574 
   -7501    -7456    -7450    -7492    -7580    -7700    -7820    -7902 
   -7944    -7978    -8017    -8035    -8027    -8017    -8001    -7975 
   -7929    -7835    -7690    -7535    -7388    -7258    -7155    -7060 
   -6961    -6905    -6907    -6932    -6929    -6878    -6817    -6795 
   -6770    -6671    -6505    -6308    -6112    -5952    -5833    -5745 
   -5684    -5637    -5614    -5630    -5661    -5701    -5783    -5925 
   -6116    -6320    -6493    -6642    -6777    -6863    -6897    -6913 
   -6929    -6929    -6920    -6902    -6885    -6906    -6983    -7079 
   -7180    -7294    -7379    -7411    -7430    -7439    -7415    -7352 
   -7250    -7138    -7055    -6984    -6917    -6872    -6848    -6839 
   -6847    -6843    -6814    -6771    -6712    -6646    -6612    -6608 
   -6612    -6640    -6724    -6863    -7037    -7225    -7415    -7561 
   -7630    -7655    -7677    -7680    -7647    -7608    -7599    -7638 
   -7716    -7811    -7889    -7929    -7921    -7879    -7825    -7766 
   -7705    -7665    -7645    -7641    -7670    -7750    -7875    -8037 
   -8182    -8268    -8299    -8268    -8163    -8006    -7807    -7553 
   -7265    -6978    -6696    -6435    -6239    -6127    -6081    -6088 
   -6151    -6261    -6390    -6513    -6636    -6771    -6917    -7071 
   -7210    -7321    -7433    -7551    -7657    -7744    -7813    -7862 
   -7915    -7974    -8027    -8070    -8098    -8117    -8141    -8129 
   -8036    -7890    -7707    -7458    -7142    -6791    -6465    -6218 
   -6039    -5899    -5798    -5744    -5736    -5755    -5783    -5834 
   -5914    -6010    -6102    -6177    -6241    -6313    -6396    -6473 
   -6544    -6635    -6752    -6887    -7060    -7264    -7446    -7599 
   -7769    -7956    -8131    -8276    -8401    -8510    -8598    -8641 
   -8621    -8527    -8375    -8187    -7975    -7730    -7439    -7114 
   -6777    -6458    -6191    -5971    -5790    -5663    -5566    -5452 
   -5331    -5221    -5136    -5084    -5063    -5093    -5215    -5456 
   -5800    -6214    -6681    -7195    -7713    -8186    -8584    -8905 
   -9131    -9252    -9297    -9271    -9186    -9089    -9009    -8931 
   -8874    -8891    -8973    -9078    -9185    -9269    -9283    -9228 
   -9131    -9027    -8930    -8827    -8710    -8600    -8475    -8294 
   -8040    -7704    -7304    -6901    -6524    -6165    -5841    -5578 
   -5370    -5194    -5028    -4873    -4753    -4683    -4669    -4733 
   -4892    -5132    -5405    -5663    -5904    -6164    -6435    -6691 
   -6939    -7175    -7368    -7510    -7609    -7658    -7646    -7576 
   -7456    -7314    -7171    -7015    -6848    -6681    -6534    -6434 
   -6399    -6401    -6392    -6351    -6330    -6362    -6388    -6382 
   -6393    -6426    -6475    -6555    -6650    -6756    -6893    -7071 
   -7294    -7538    -7780    -8016    -8279    -8567    -8837    -9076 
   -9305    -9544    -9803   -10054   -10250   -10393   -10492   -10531 
  -10500   -10395   -10216    -9991    -9728    -9418    -9080    -8733 
   -8390    -8059    -7746    -7452    -7200    -7003    -6831    -6643 
   -6426    -6189    -5935    -5653    -5352    -5065    -4827    -4662 
   -4590    -4621    -4760    -4992    -5306    -5678    -6073    -6457 
   -6797    -7079    -7314    -7516    -7707    -7917    -8145    -8378 
   -8637    -8914    -9162    -9391    -9628    -9852   -10023   -10123 
  -10141   -10049    -9844    -9563    -9240    -8881    -8491    -8089 
   -7695    -7310    -6921    -6536    -6170    -5830    -5535    -5314 
   -5181    -5128    -5144    -5227    -5373    -5553    -5749    -5969 
   -6232    -6524    -6806    -7059    -7283    -7457    -7557    -7608 
   -7655    -7711    -7767    -7819    -7870    -7925    -7978    -8028 
   -8082    -8124    -8137    -8141    -8148    -8144    -8104    -8006 
   -7861    -7681    -7445    -7157    -6871    -6601    -6343    -6126 
   -5964    -5854    -5819    -5881    -6034    -6273    -6579    -6929 
   -7299    -7658    -7977    -8251    -8486    -8681    -8834    -8938 
   -8988    -8989    -8954    -8889    -8807    -8718    -8614    -8498 
   -8379    -8253    -8120    -7982    -7854    -7746    -7654    -7578 
   -7545    -7558    -7580    -7582    -7572    -7554    -7528    -7508 
   -7495    -7487    -7489    -7501    -7514    -7485    -7399    -7277 
   -7128    -6949    -6775    -6647    -6601    -6651    -6770    -6939 
   -7145    -7372    -7578    -7743    -7863    -7936    -7951    -7885 
   -7759    -7632    -7500    -7358    -7261    -7213    -7192    -7219 
   -7285    -7368    -7446    -7480    -7457    -7406    -7315    -7160 
   -6959    -6735    -6521    -6350    -6223    -6135    -6080    -6039 
   -5994    -5958    -5946    -5930    -5908    -5922    -5981    -6064 
   -6135    -6166    -6161    -6139    -6075    -5940    -5755    -5541 
   -5314    -5094    -4896    -4737    -4646    -4641    -4722    -4878 
   -5097    -5386    -5736    -6106    -6453    -6754    -7015    -7261 
   -7510    -7780    -8081    -8410    -8748    -9050    -9305    -9526 
   -9687    -9760    -9730    -9579    -9324    -8988    -8588    -8163 
   -7753    -7383    -7065    -6836    -6712    -6671    -6682    -6732 
   -6810    -6909    -7017    -7130    -7269    -7437    -7603    -7753 
   -7886    -8009    -8125    -8236    -8318    -8374    -8425    -8459 
   -8463    -8461    -8488    -8567    -8692    -8842    -8992    -9140 
   -9298    -9458    -9579    -9628    -9586    -9451    -9224    -8941 
   -8658    -8398    -8159    -7956    -7780    -7611    -7453    -7306 
   -7167    -7034    -6914    -6820    -6783    -6825    -6932    -7084 
   -7273    -7491    -7724    -7971    -8218    -8452    -8672    -8869 
   -9018    -9116    -9158    -9119    -8993    -8804    -8569    -8289 
   -7965    -7605    -7230    -6851    -6474    -6115    -5794    -5520 
   -5286    -5107    -4996    -4936    -4911    -4918    -4972    -5082 
   -5250    -5468    -5728    -6012    -6301    -6579    -6844    -7115 
   -7404    -7699    -8001    -8317    -8613    -8866    -9089    -9256 
   -9366    -9466    -9578    -9690    -9799    -9903    -9972    -9981 
   -9927    -9821    -9676    -9497    -9283    -9049    -8780    -8457 
   -8078    -7643    -7160    -6663    -6203    -5806    -5458    -5159 
   -4936    -4787    -4687    -4619    -4576    -4554    -4549    -4556 
   -4579    -4629    -4707    -4819    -4986    -5217    -5513    -5853 
   -6203    -6528    -6814    -7030    -7148    -7186    -7184    -7157 
   -7110    -7065    -7041    -7034    -7030    -7025    -7015    -6991 
   -6952    -6897    -6814    -6723    -6635    -6544    -6444    -6345 
   -6261    -6218    -6230    -6300    -6415    -6550    -6670    -6760 
   -6818    -6839    -6828    -6791    -6728    -6636    -6529    -6444 
   -6399    -6385    -6404    -6463    -6563    -6679    -6775    -6836 
   -6852    -6825    -6774    -6708    -6627    -6542    -6470    -6427 
   -6417    -6439    -6509    -6627    -6759    -6903    -7086    -7292 
   -7493    -7680    -7838    -7956    -8039    -8077    -8078    -8070 
   -8078    -8113    -8181    -8255    -8317    -8372    -8414    -8432 
   -8424    -8386    -8324    -8237    -8127    -8001    -7873    -7739 
   -7600    -7458    -7330    -7227    -7157    -7123    -7141    -7210 
   -7318    -7454    -7588    -7715    -7844    -7960    -8029    -8059 
   -8067    -8055    -8024    -7993    -7966    -7933    -7919    -7921 
   -7912    -7893    -7874    -7852    -7844    -7862    -7893    -7923 
   -7939    -7935    -7920    -7905    -7890    -7890    -7924    -7989 
   -8068    -8163    -8274    -8401    -8532    -8642    -8698    -8691 
   -8641    -8565    -8456    -8326    -8195    -8058    -7917    -7788 
   -7662    -7530    -7391    -7238    -7076    -6909    -6729    -6539 
   -6355    -6219    -6145    -6107    -6097    -6137    -6220    -6332 
   -6469    -6627    -6799    -6982    -7164    -7330    -7454    -7539 
   -7607    -7685    -7784    -7881    -7963    -8051    -8159    -8271 
   -8353    -8397    -8406    -8372    -8289    -8155    -7973    -7742 
   -7464    -7160    -6864    -6590    -6330    -6107    -5949    -5850 
   -5810    -5833    -5918    -6057    -6250    -6497    -6772    -7048 
   -7321    -7588    -7842    -8071    -8270    -8441    -8588    -8708 
   -8804    -8874    -8914    -8928    -8932    -8928    -8901    -8850 
   -8784    -8712    -8633    -8533    -8415    -8299    -8189    -8066 
   -7920    -7754    -7581    -7415    -7249    -7074    -6885    -6670 
   -6431    -6184    -5957    -5778    -5651    -5587    -5598    -5679 
   -5811    -5961    -6103    -6216    -6295    -6330    -6327    -6293 
   -6220    -6129    -6057    -6029    -6057    -6131    -6231    -6357 
