Origin Time       2025/01/13 21:19:00
Lat.              31.8
Long.             131.6
Depth. (km)       30
Mag.              6.9
Station Code      EHM008
Station Lat.      33.8199
Station Long.     132.7282
Station Height(m) 7
Record Time       2025/01/13 21:20:30
Sampling Freq(Hz) 100Hz
Duration Time(s)  105
Dir.              N-S
Scale Factor      7845(gal)/8223790
Max. Acc. (gal)   7.145
Last Correction   2025/01/13 21:20:30
Memo.             
[...]
    5124     5418     5682     5918     6153     6359     6546     6741 
    6921     7030     7061     7015     6859     6651     6548     6554 
    6543     6478     6435     6409     6304     6102     5792     5383 
    5012     4762     4567     4434     4440     4500     4468     4376 
    4361     4433     4530     4665     4869     5127     5362     5522 
    5644     5678     5586     5562     5655     5649     5537     5468 
    5443     5414     5402     5397     5394     5405     5374     5270 
    5181     5189     5250     5263     5232     5235     5217     5077 
    4895     4797     4787     4816     4891     5036     5235     5409 
    5506     5551     5625     5805     5998     6065     6107     6250 
    6373     6393     6397     6397     6357     6327     6388     6519 
    6613     6636     6615     6563     6505     6431     6300     6106 
    5914     5814     5798     5759     5667     5580     5444     5204 
    5049     5103     5216     5271     5292     5321     5408     5580 
    5783     5884     5913     6033     6234     6417     6593     6732 
    6712     6569     6529     6666     6764     6704     6613     6567 
    6471     6273     6030     5838     5710     5574     5412     5251 
    5155     5175     5181     5077     5019     5130     5341     5575 
    5796     5984     6108     6174     6210     6251     6331     6408 
    6405     6347     6315     6285     6147     5898     5653     5475 
    5294     5019     4731     4550     4375     4162     4064     4106 
    4203     4338     4428     4438     4558     4846     5096     5251 
    5452     5680     5819     5900     6016     6168     6282     6308 
    6242     6111     5976     5888     5829     5769     5732     5746 
    5791     5834     5821     5710     5564     5487     5513     5582 
    5582     5530     5530     5540     5433     5254     5152     5144 
    5124     5100     5138     5194     5236     5294     5379     5495 
    5664     5848     5958     5987     6027     6126     6199     6210 
    6197     6158     6066     5976     5903     5759     5566     5444 
    5390     5416     5568     5767     5886     5930     5984     6019 
    5987     6003     6095     6104     5992     5873     5791     5671 
    5506     5368     5262     5166     5065     4909     4712     4526 
    4348     4195     4112     4098     4171     4330     4537     4818 
    5196     5548     5794     6019     6300     6608     6887     7125 
    7307     7404     7450     7503     7485     7296     7044     6855 
    6664     6393     6066     5715     5356     5008     4712     4496 
    4361     4298     4226     4155     4190     4293     4382     4507 
    4676     4822     4932     5007     5044     5085     5189     5377 
    5564     5672     5776     5967     6191     6342     6392     6396 
    6394     6390     6426     6482     6453     6347     6232     6066 
    5841     5684     5636     5556     5437     5433     5532     5602 
    5624     5618     5579     5620     5837     6053     6102     6135 
    6291     6471     6592     6717     6840     6863     6841     6836 
    6755     6609     6513     6466     6407     6343     6269     6111 
    5834     5509     5193     4861     4500     4212     4059     3939 
    3782     3628     3492     3402     3419     3519     3672     3936 
    4302     4683     5009     5256     5512     5868     6226     6527 
    6886     7283     7554     7728     7870     7889     7780     7676 
    7570     7364     7146     7041     6921     6671     6367     6048 
    5717     5479     5337     5178     5019     4965     5043     5202 
    5393     5657     6042     6508     6976     7393     7707     7916 
    8087     8209     8206     8094     7897     7626     7350     7121 
    6912     6677     6416     6143     5840     5530     5306     5189 
    5082     4904     4695     4484     4216     3951     3797     3674 
    3496     3354     3310     3280     3246     3260     3238     3136 
    3141     3321     3491     3632     3844     4012     4054     4141 
    4351     4519     4598     4702     4869     5050     5208     5293 
    5269     5205     5142     4997     4796     4657     4526     4256 
    3879     3542     3295     3119     2914     2583     2223     1964 
    1768     1605     1559     1660     1802     1910     2029     2203 
    2444     2758     3125     3549     4037     4542     5019     5505 
    6018     6488     6910     7311     7612     7797     7939     8074 
    8199     8298     8376     8418     8356     8251     8171     8010 
    7713     7426     7221     7014     6851     6856     6991     7133 
    7298     7564     7867     8133     8417     8731     9058     9400 
    9694     9891    10018    10096    10129    10091     9958     9832 
    9752     9553     9173     8745     8376     8044     7723     7456 
    7214     6932     6666     6505     6444     6447     6432     6313 
    6146     6079     6120     6172     6162     6037     5767     5447 
    5196     4993     4781     4587     4433     4288     4135     3981 
    3844     3726     3619     3588     3676     3809     3971     4133 
    4197     4234     4380     4584     4729     4764     4691     4594 
    4568     4596     4608     4599     4554     4426     4274     4194 
    4172     4145     4098     4008     3883     3829     3844     3800 
    3743     3812     3909     3936     4009     4162     4311     4496 
    4756     4962     5123     5429     5844     6189     6512     6889 
    7250     7528     7738     7931     8122     8260     8307     8244 
    8043     7759     7492     7214     6845     6416     6033     5746 
    5552     5448     5409     5381     5344     5324     5325     5316 
    5319     5381     5454     5503     5579     5641     5617     5535 
    5413     5190     4889     4687     4672     4684     4598     4477 
    4340     4141     3936     3778     3686     3685     3765     3859 
    3917     3960     4013     4021     3969     3890     3813     3811 
    3893     3940     3889     3820     3788     3709     3551     3408 
    3349     3326     3299     3335     3469     3591     3631     3632 
    3654     3712     3798     3960     4217     4486     4764     5069 
    5306     5474     5680     5895     6041     6247     6640     7057 
    7306     7477     7708     7878     7902     7932     7998     8004 
    8025     8114     8143     8105     8090     8056     7981     7989 
    8128     8272     8424     8688     8980     9180     9340     9517 
    9639     9645     9672     9790     9860     9826     9744     9628 
    9462     9228     8946     8618     8289     8063     7890     7636 
    7334     7034     6686     6284     5860     5443     5050     4638 
    4255     4002     3827     3649     3519     3431     3353     3424 
    3707     4031     4306     4595     4911     5201     5478     5732 
    5865     5872     5827     5733     5591     5444     5265     4996 
    4664     4344     4059     3777     3522     3325     3186     3106 
    3053     3084     3302     3624     3936     4247     4561     4826 
    5024     5221     5466     5759     6061     6273     6338     6307 
    6249     6203     6145     6050     5929     5765     5593     5486 
    5400     5287     5221     5221     5205     5174     5227     5359 
    5487     5614     5703     5718     5767     5921     6095     6305 
    6682     7115     7403     7605     7798     7921     7966     7939 
    7835     7658     7443     7240     6974     6593     6177     5726 
    5196     4656     4172     3750     3468     3383     3438     3565 
    3730     3935     4176     4423     4723     5125     5539     5883 
    6145     6320     6471     6633     6737     6712     6582     6431 
    6295     6154     6006     5872     5726     5491     5178     4870 
    4568     4224     3881     3631     3445     3230     3030     2930 
    2880     2806     2728     2648     2585     2610     2721     2870 
    3040     3240     3442     3566     3632     3721     3808     3851 
    3865     3883     3978     4137     4270     4402     4646     5003 
    5444     5976     6550     7119     7697     8270     8804     9315 
    9795    10150    10357    10519    10619    10573    10469    10376 
   10181     9861     9509     9136     8723     8297     7892     7504 
    7119     6798     6577     6382     6235     6223     6242     6153 
    6031     5972     5929     5838     5694     5589     5586     5598 
    5530     5373     5148     4932     4727     4482     4266     4160 
    4125     4083     3983     3863     3801     3761     3655     3519 
    3419     3307     3173     3090     3071     3073     3087     3148 
    3272     3457     3734     4067     4369     4676     5024     5339 
    5595     5849     6069     6203     6308     6426     6505     6555 
    6628     6697     6721     6751     6813     6824     6760     6702 
    6687     6712     6801     6956     7150     7361     7562     7746 
    7881     7904     7875     7861     7804     7700     7581     7415 
    7165     6870     6551     6183     5775     5356     4958     4610 
    4291     3996     3726     3495     3342     3262     3241     3331 
    3553     3842     4147     4482     4833     5143     5393     5589 
    5722     5805     5875     5927     5925     5927     5973     5964 
    5876     5764     5599     5418     5344     5359     5389     5481 
    5683     5958     6299     6708     7122     7496     7840     8156 
    8456     8738     8980     9162     9246     9239     9211     9170 
    9084     8918     8637     8318     8039     7731     7346     6878 
    6301     5697     5154     4607     4010     3470     3022     2555 
    2033     1541     1121      761      460      268      198      180 
     226      372      564      801     1124     1463     1790     2177 
    2609     3010     3392     3778     4106     4341     4552     4772 
    4928     4988     5009     5001     4927     4857     4846     4833 
    4780     4725     4747     4905     5155     5460     5826     6176 
    6458     6723     6991     7184     7284     7398     7549     7696 
    7912     8193     8398     8513     8650     8812     8922     9007 
    9081     9080     9015     8904     8707     8398     8000     7569 
    7117     6644     6189     5761     5374     5058     4785     4504 
    4222     3960     3704     3442     3233     3103     2997     2863 
    2705     2523     2323     2150     2003     1827     1659     1549 
    1490     1495     1575     1695     1871     2149     2525     2971 
    3461     3981     4499     5017     5541     6034     6488     6930 
    7353     7746     8125     8479     8760     8974     9167     9293 
    9309     9294     9278     9250     9265     9313     9344     9413 
    9553     9710     9852    10022    10224    10397    10544    10710 
   10903    11107    11245    11279    11230    11080    10821    10482 
   10087     9668     9247     8766     8241     7798     7379     6810 
    6134     5470     4815     4166     3577     3100     2739     2462 
    2246     2083     2010     2058     2153     2273     2504     2845 
    3265     3769     4325     4862     5356     5791     6120     6342 
    6536     6744     6902     7007     7092     7071     6866     6524 
    6108     5675     5286     4922     4560     4264     4048     3850 
    3676     3550     3472     3442     3426     3396     3415     3504 
    3612     3699     3727     3720     3754     3811     3875     4017 
    4295     4676     5030     5293     5524     5740     5908     6050 
    6195     6350     6529     6751     7014     7245     7387     7485 
    7546     7549     7546     7527     7439     7325     7223     7102 
    6912     6648     6384     6195     6050     5877     5680     5509 
    5355     5136     4807     4410     3990     3546     3063     2586 
    2181     1868     1633     1422     1233     1107      988      866 
     846      974     1179     1395     1617     1845     2046     2173 
    2239     2303     2377     2466     2544     2563     2573     2613 
    2629     2663     2786     2951     3117     3315     3545     3792 
    4075     4355     4587     4853     5177     5471     5721     5991 
    6305     6633     6953     7294     7673     8059     8407     8742 
    9123     9521     9896    10227    10493    10713    10905    11056 
   11125    11106    11067    11044    11018    10968    10886    10766 
   10602    10384    10134     9926     9805     9697     9537     9363 
    9186     8969     8676     8294     7878     7495     7141     6814 
    6535     6273     6015     5798     5622     5478     5390     5302 
    5163     5077     5121     5223     5300     5302     5201     5013 
    4799     4617     4469     4330     4225     4178     4175     4195 
    4199     4163     4110     4025     3892     3751     3599     3416 
    3225     3014     2793     2609     2473     2376     2353     2451 
    2659     2956     3331     3742     4110     4429     4777     5143 
    5468     5778     6079     6353     6602     6789     6885     6926 
    6903     6740     6417     6014     5606     5225     4842     4422 
    4036     3716     3381     3024     2729     2524     2386     2309 
    2285     2300     2376     2517     2712     3001     3430     3943 
    4511     5208     6043     6905     7715     8510     9294     9991 
   10588    11138    11684    12197    12596    12847    12984    13073 
   13135    13081    12854    12510    12074    11514    10862    10196 
    9525     8808     8086     7402     6732     6135     5692     5363 
    5100     4932     4876     4893     4962     5123     5356     5591 
    5838     6133     6431     6709     7007     7275     7403     7445 
    7487     7427     7196     6943     6716     6397     6011     5651 
    5269     4823     4398     4044     3704     3365     3087     2853 
    2571     2273     2124     2064     1939     1837     1834     1881 
    1950     2033     2083     2037     1917     1772     1557     1264 
     973      715      479      278      105      -39     -128     -178 
    -193     -151      -78       31      210      367      469      619 
     805      959     1077     1193     1325     1428     1487     1576 
    1721     1895     2110     2373     2682     3055     3522     4058 
    4604     5201     5868     6502     7036     7508     7909     8190 
    8422     8679     8892     9081     9362     9687     9968    10204 
   10399    10543    10647    10714    10729    10675    10577    10444 
   10233     9957     9725     9510     9223     8924     8677     8414 
    8132     7909     7715     7489     7319     7250     7165     7024 
    6926     6889     6833     6779     6781     6812     6836     6871 
    6943     6990     6990     7032     7107     7153     7230     7373 
    7514     7595     7616     7572     7491     7430     7364     7275 
    7194     7101     6995     6894     6771     6674     6640     6602 
    6543     6508     6488     6481     6516     6565     6600     6682 
    6849     7045     7238     7460     7711     7938     8156     8395 
    8586     8679     8710     8672     8532     8302     8002     7630 
    7187     6704     6212     5703     5161     4595     4025     3422 
    2783     2185     1661     1193      783      444      176      -28 
    -153     -159      -83       17      194      452      719     1024 
    1378     1701     1957     2174     2381     2559     2662     2720 
    2789     2821     2797     2782     2755     2685     2654     2660 
    2671     2741     2862     2968     3060     3192     3375     3537 
    3689     3875     4071     4301     4587     4895     5196     5485 
    5742     5964     6211     6488     6748     6991     7215     7425 
    7636     7816     7931     8005     8075     8170     8294     8483 
    8729     8922     9032     9123     9190     9251     9336     9412 
    9474     9531     9562     9609     9674     9705     9697     9618 
    9436     9217     8999     8712     8382     8085     7778     7419 
    7064     6759     6504     6276     6045     5825     5610     5404 
    5225     5053     4876     4758     4742     4768     4773     4799 
    4858     4893     4900     4936     4995     5000     4958     4909 
    4792     4587     4374     4167     3920     3684     3519     3366 
    3199     3122     3157     3198     3238     3345     3473     3577 
    3712     3893     4070     4263     4496     4723     4939     5205 
    5520     5815     6089     6367     6619     6837     7056     7238 
    7366     7470     7526     7508     7433     7310     7145     6968 
    6790     6589     6384     6189     5979     5752     5513     5271 
    5049     4827     4598     4395     4240     4131     4032     3940 
    3910     3951     4002     4044     4118     4239     4365     4511 
    4708     4911     5112     5348     5545     5664     5829     6043 
    6176     6269     6471     6752     6972     7138     7312     7435 
    7485     7562     7649     7646     7600     7577     7524     7408 
    7288     7188     7065     6928     6825     6770     6745     6737 
    6739     6731     6704     6708     6787     6858     6866     6897 
    6948     6905     6790     6686     6546     6313     6048     5756 
    5408     5040     4703     4365     3987     3609     3248     2853 
    2465     2165     1907     1664     1549     1579     1642     1740 
    1946     2257     2610     3007     3474     3956     4405     4870 
    5341     5752     6165     6608     6982     7296     7628     7924 
    8121     8237     8287     8295     8243     8127     8000     7865 
    7700     7519     7334     7160     6964     6740     6558     6411 
    6214     6012     5860     5665     5458     5324     5177     4959 
    4757     4558     4297     4055     3933     3862     3750     3651 
    3607     3549     3474     3474     3519     3539     3559     3608 
    3663     3719     3790     3858     3912     4020     4179     4298 
    4365     4480     4637     4737     4814     4935     5039     5092 
    5152     5250     5364     5475     5590     5702     5790     5877 
    5972     6054     6149     6258     6332     6357     6374     6428 
    6498     6552     6598     6666     6740     6779     6836     6944 
    7053     7199     7416     7630     7821     8024     8208     8336 
    8459     8598     8669     8671     8688     8677     8563     8413 
    8289     8131     7919     7722     7550     7376     7196     7007 
    6816     6623     6446     6285     6133     6006     5877     5715 
    5564     5444     5323     5211     5127     5043     4976     4978 
    5017     5035     5051     5065     5023     4949     4892     4819 
    4712     4635     4587     4490     4349     4239     4145     4037 
    3958     3910     3847     3802     3794     3773     3757     3789 
    3825     3842     3908     4033     4118     4128     4144     4193 
    4222     4253     4314     4342     4334     4365     4433     4472 
    4496     4592     4726     4835     4961     5124     5309     5464 
    5576     5732     5929     6076     6224     6423     6592     6706 
    6821     6918     6936     6897     6866     6829     6762     6709 
    6687     6617     6498     6427     6367     6257     6160     6119 
