Origin Time       2025/01/13 21:19:00
Lat.              31.8
Long.             131.6
Depth. (km)       30
Mag.              6.9
Station Code      EHM003
Station Lat.      33.9253
Station Long.     133.0844
Station Height(m) 4
Record Time       2025/01/13 21:20:59
Sampling Freq(Hz) 100Hz
Duration Time(s)  60
Dir.              E-W
Scale Factor      7845(gal)/8223790
Max. Acc. (gal)   6.023
Last Correction   2025/01/13 21:20:58
Memo.             
[...]
    6120     6049     5841     5607     5402     5142     4850     4657 
    4526     4418     4407     4429     4402     4430     4511     4500 
    4446     4444     4396     4210     3985     3825     3667     3510 
    3454     3456     3451     3528     3694     3855     4027     4253 
    4438     4511     4615     4830     5034     5239     5533     5791 
    5910     6004     6100     6096     6058     6068     5961     5660 
    5366     5097     4735     4522     4650     4857     4988     5186 
    5449     5636     5814     6066     6184     6083     5967     5813 
    5487     5198     5047     4808     4534     4498     4581     4537 
    4513     4633     4664     4595     4687     4869     4986     5154 
    5327     5286     5147     5121     5101     5032     5132     5354 
    5448     5495     5583     5525     5394     5458     5617     5691 
    5786     5880     5798     5651     5629     5637     5602     5595 
    5512     5251     5000     4831     4602     4394     4351     4328 
    4241     4236     4321     4374     4452     4579     4639     4711 
    4888     5028     5077     5158     5244     5190     5071     5030 
    4982     4904     4881     4810     4600     4402     4313     4272 
    4297     4434     4569     4607     4648     4711     4718     4741 
    4868     5024     5154     5306     5432     5382     5224     5132 
    5059     4931     4839     4819     4815     4866     5035     5219 
    5287     5321     5391     5404     5408     5525     5629     5647 
    5772     6008     6138     6204     6382     6534     6504     6451 
    6446     6330     6150     6076     6008     5875     5845     5887 
    5810     5748     5832     5859     5809     5868     5913     5813 
    5786     5896     5915     5896     6031     6111     5977     5815 
    5634     5293     4941     4718     4530     4429     4558     4754 
    4885     5081     5262     5190     4970     4808     4650     4503 
    4536     4645     4588     4475     4457     4375     4249     4286 
    4360     4283     4199     4233     4229     4194     4332     4500 
    4517     4572     4704     4749     4784     4882     4897     4824 
    4849     4949     4947     4957     5103     5185     5113     5070 
    5081     5030     5017     5151     5246     5233     5256     5298 
    5321     5452     5661     5703     5525     5374     5292     5130 
    4992     4988     4996     4968     4986     5071     5184     5340 
    5501     5479     5317     5298     5416     5490     5591     5772 
    5842     5726     5599     5497     5320     5206     5224     5136 
    4935     4860     4841     4737     4716     4833     4887     4907 
    5090     5333     5479     5640     5790     5741     5633     5710 
    5825     5809     5825     5890     5821     5705     5640     5478 
    5251     5162     5108     4928     4819     4887     4919     4958 
    5170     5339     5310     5270     5278     5244     5232     5298 
    5327     5301     5321     5304     5148     4985     4887     4764 
    4672     4708     4754     4753     4868     5132     5406     5656 
    5887     6008     6015     6039     6064     5980     5907     5896 
    5773     5557     5416     5328     5274     5364     5526     5629 
    5736     5832     5748     5513     5352     5275     5131     5023 
    5057     5071     5043     5082     5138     5162     5247     5350 
    5285     5112     5015     4895     4684     4571     4606     4680 
    4873     5224     5514     5652     5757     5794     5656     5478 
    5340     5115     4857     4734     4631     4428     4251     4155 
    4021     3892     3924     4004     3958     3942     4087     4286 
    4513     4799     4968     4884     4754     4677     4498     4340 
    4411     4541     4576     4641     4793     4930     5016     5109 
    5082     4849     4630     4509     4409     4423     4571     4676 
    4664     4587     4457     4249     4070     4039     4012     3935 
    4029     4279     4521     4823     5148     5321     5358     5319 
    5225     5115     5053     5090     5086     4982     4950     4928 
    4806     4731     4712     4646     4725     5085     5443     5620 
    5871     6285     6528     6536     6588     6597     6426     6311 
    6296     6226     6158     6130     6068     6033     6139     6315 
    6428     6565     6687     6598     6486     6573     6592     6359 
    6149     6112     6007     5771     5679     5769     5818     5795 
    5771     5749     5757     5714     5530     5347     5229     5054 
    4870     4839     4842     4664     4495     4568     4666     4687 
    4826     5009     5051     5084     5154     5098     5067     5266 
    5475     5489     5422     5335     5130     4908     4810     4677 
    4540     4625     4830     5024     5356     5772     5967     5903 
    5830     5857     5868     5840     5752     5420     4976     4711 
    4511     4302     4294     4434     4423     4274     4229     4315 
    4352     4345     4467     4649     4787     4981     5196     5348 
    5472     5537     5524     5529     5665     5846     5907     5933 
    5954     5840     5660     5524     5304     4962     4707     4603 
    4502     4463     4656     4969     5243     5532     5827     6034 
    6145     6151     6004     5841     5796     5733     5590     5532 
    5521     5347     5051     4826     4685     4623     4761     5044 
    5216     5236     5223     5123     4981     4932     4819     4590 
    4500     4500     4340     4133     3985     3754     3497     3415 
    3457     3464     3496     3665     3801     3865     4104     4396 
    4476     4487     4490     4333     4113     3981     3904     3893 
    3997     4086     4051     4033     4072     3997     3964     4230 
    4549     4739     5100     5595     5903     6123     6374     6475 
    6390     6261     6165     6095     6053     6077     6065     5967 
    5919     5891     5818     5818     5840     5736     5620     5629 
    5598     5408     5317     5371     5258     5050     4977     4873 
    4665     4598     4657     4665     4758     5051     5260     5285 
    5400     5498     5359     5267     5364     5402     5373     5413 
    5339     5015     4810     4855     4731     4449     4415     4457 
    4276     4162     4311     4421     4378     4468     4703     4769 
    4698     4758     4768     4590     4648     4946     5017     4972 
    5063     5065     4884     4777     4714     4541     4502     4687 
    4760     4741     4996     5401     5543     5539     5694     5871 
    5863     5760     5634     5413     5178     5109     5157     5139 
    5035     4966     5019     5105     5084     5057     5224     5440 
    5441     5341     5417     5559     5510     5312     5090     4899 
    4753     4607     4476     4498     4704     4934     5109     5312 
    5501     5593     5621     5593     5451     5233     5094     5065 
    5008     4946     4965     4986     4993     5042     5092     5121 
    5198     5285     5292     5306     5418     5505     5455     5336 
    5197     5008     4837     4811     4873     4926     5020     5179 
    5286     5327     5483     5796     6084     6318     6512     6504 
    6389     6386     6299     6030     5890     5896     5799     5660 
    5626     5636     5690     5857     6083     6265     6430     6608 
    6619     6492     6493     6528     6419     6311     6262     6142 
    5987     5949     5953     5884     5840     5749     5482     5238 
    5085     4845     4591     4471     4411     4457     4699     4995 
    5198     5320     5374     5368     5386     5452     5373     5171 
    5208     5429     5482     5414     5475     5632     5694     5719 
    5791     5791     5877     6115     6191     6195     6413     6660 
    6737     6721     6642     6515     6442     6498     6632     6647 
    6542     6477     6374     6208     6151     6189     6142     6025 
    5927     5721     5428     5324     5358     5331     5278     5188 
    4989     4815     4772     4737     4630     4553     4558     4552 
    4564     4714     4837     4738     4637     4714     4792     4818 
    4895     4978     5011     5011     4993     4932     4915     5042 
    5158     5136     5098     5047     4915     4865     4984     5046 
    4981     5015     5146     5125     4977     4853     4618     4234 
    3985     3847     3659     3639     3877     4178     4533     5004 
    5489     5900     6312     6667     6804     6808     6814     6717 
    6463     6218     6007     5736     5544     5433     5213     5026 
    5055     5150     5229     5433     5687     5805     5930     6129 
    6181     6104     6062     5999     5825     5636     5512     5352 
    5209     5186     5167     5108     5094     5084     5020     4984 
    5022     5030     5074     5305     5529     5593     5651     5726 
    5705     5686     5745     5756     5780     5904     5933     5802 
    5672     5590     5422     5132     4892     4725     4550     4449 
    4411     4314     4163     4031     3869     3573     3241     2979 
    2729     2555     2551     2610     2605     2601     2745     2898 
    2870     2866     2924     2743     2461     2425     2413     2286 
    2296     2331     2261     2340     2570     2729     2880     3145 
    3478     3790     4056     4290     4423     4463     4540     4575 
    4471     4449     4576     4646     4660     4738     4870     4942 
    4927     4957     5078     5211     5238     5098     4988     5011 
    4938     4722     4511     4279     3970     3689     3586     3527 
    3299     3011     2748     2470     2266     2161     2030     1852 
    1746     1701     1559     1502     1725     1888     1885     1993 
    2091     2118     2249     2347     2313     2180     2016     2004 
    2143     2421     2822     3181     3646     4291     4779     5182 
    5706     6106     6376     6743     7052     7229     7554     7931 
    8090     8191     8310     8278     8093     7865     7661     7388 
    7063     6853     6615     6301     6220     6339     6471     6731 
    7092     7298     7470     7790     7948     7846     7699     7472 
    7146     6858     6628     6313     5919     5788     5879     5836 
    5821     5927     5930     5962     6107     6255     6512     6880 
    7245     7530     7662     7722     7705     7514     7288     7088 
    6733     6288     6050     5983     5832     5686     5651     5540 
    5445     5552     5679     5806     6147     6590     6940     7298 
    7788     8259     8544     8788     9081     9234     9300     9510 
    9710     9707     9671     9675     9637     9576     9459     9200 
    8843     8503     8133     7601     7076     6660     6135     5548 
    5175     4961     4698     4494     4471     4406     4268     4293 
    4360     4297     4243     4241     4222     4176     4174     4218 
    4139     4017     4010     3798     3321     2986     2768     2473 
    2269     2215     2161     2143     2236     2438     2803     3287 
    3726     4045     4309     4594     4897     5204     5406     5394 
    5217     4981     4770     4500     4180     4145     4307     4449 
    4855     5346     5521     5755     6265     6577     6531     6521 
    6477     6096     5791     5807     5692     5385     5212     5057 
    4774     4673     4673     4433     4166     4021     3838     3669 
    3638     3689     3694     3740     3943     3967     3717     3661 
    3863     3989     3967     4043     4257     4267     4147     4264 
    4437     4495     4496     4386     4369     4511     4518     4538 
    4738     4872     4951     5116     5350     5583     5686     5796 
    5906     5718     5625     5915     5941     5697     5826     6058 
    5911     5790     5902     5846     5676     5540     5100     4479 
    4151     3894     3361     2884     2758     2608     2242     1993 
    1844     1721     1783     1865     1875     1799     1675     1810 
    1979     1822     1624     1570     1579     1555     1576     1935 
    2373     2581     2798     2971     3052     3283     3468     3375 
    3191     3103     3121     3109     3018     3002     3111     3230 
    3310     3491     3838     4072     4185     4590     5147     5540 
    5964     6412     6752     7110     7453     7736     8046     8356 
    8594     8776     8957     9128     9247     9355     9481     9502 
    9391     9374     9452     9381     9293     9351     9387     9397 
    9397     9319     9221     9039     8753     8455     8104     7723 
    7330     6806     6281     5867     5408     4993     4654     4087 
    3451     3041     2648     2296     2230     2309     2326     2296 
    2380     2533     2585     2698     2855     2825     2874     3125 
    3338     3588     3991     4402     4685     4881     5082     5148 
    5023     4990     5070     5043     5044     5130     5093     5111 
    5367     5557     5626     5796     5998     6104     6127     6118 
    6122     6023     5791     5564     5256     4915     4828     4815 
    4716     4772     4872     4907     5097     5337     5412     5358 
    5229     5119     5034     4887     4761     4730     4734     4816 
    4999     5220     5530     5953     6277     6372     6454     6635 
    6785     6851     6821     6739     6728     6836     6998     7144 
    7403     7882     8347     8711     9134     9598    10089    10611 
   10945    11082    11277    11464    11388    11090    10735    10282 
    9652     9069     8734     8347     7734     7200     6782     6367 
    6070     5782     5409     5097     4792     4467     4252     4162 
    4090     3940     3728     3422     3033     2768     2551     2056 
    1485     1243     1088      760      608      626      400      103 
      -9     -201     -537     -687     -685     -739     -633     -288 
      58      514     1197     1908     2501     3003     3537     4028 
    4272     4299     4244     4248     4368     4419     4364     4434 
    4599     4708     4989     5495     5962     6427     6925     7300 
    7651     8124     8538     8735     8861     8918     8820     8615 
    8206     7677     7276     6795     6048     5360     5000     4830 
    4685     4513     4463     4598     4552     4344     4349     4428 
    4401     4341     4249     4160     4071     3975     3963     4033 
    4193     4460     4710     4866     5013     5286     5632     5837 
    5981     6151     6147     6014     5856     5525     5071     4702 
    4419     4148     3982     3960     3862     3684     3653     3672 
    3597     3570     3638     3693     3747     3775     3666     3489 
    3407     3414     3427     3512     3730     3896     3874     3789 
    3704     3543     3389     3330     3210     3005     2952     3029 
    3060     3183     3434     3572     3554     3578     3680     3701 
    3709     3859     4014     4189     4544     4911     5157     5455 
    5832     6081     6232     6455     6660     6706     6663     6655 
    6670     6670     6670     6619     6551     6567     6556     6498 
    6463     6403     6319     6188     6037     5953     5857     5763 
    5778     5803     5809     5872     5969     6058     6160     6262 
    6284     6255     6264     6207     6075     6016     5992     5890 
    5791     5728     5616     5597     5791     6007     6235     6627 
    7083     7429     7673     7997     8309     8356     8398     8503 
    8253     7917     7866     7705     7331     7030     6727     6316 
    5954     5744     5536     5248     5090     4959     4606     4303 
    4216     4148     4131     4194     4248     4309     4367     4423 
    4511     4606     4675     4689     4765     4990     5125     5152 
    5271     5296     5236     5379     5491     5427     5470     5593 
    5625     5572     5452     5358     5364     5436     5502     5529 
    5610     5768     6003     6351     6639     6882     7303     7704 
    7977     8267     8402     8451     8586     8580     8550     8588 
    8367     8050     7878     7632     7288     6976     6782     6744 
    6721     6798     7051     7229     7389     7554     7538     7547 
    7492     7107     6631     6102     5495     4968     4384     3708 
    3161     2768     2388     2014     1756     1514     1212     1098 
    1146     1008      828      776      550      284      280      201 
     -48     -244     -483     -703     -801     -870     -900     -868 
    -691     -477     -286      275      985     1348     1790     2490 
    2979     3339     3901     4460     4730     4896     5166     5346 
    5432     5618     5737     5688     5753     5923     5934     5918 
    5967     5844     5732     5903     6027     5899     5813     5829 
    5603     5227     5043     4753     4240     3897     3603     3246 
    3102     3109     3086     3014     3007     3165     3300     3395 
    3599     3769     3906     4091     4203     4271     4414     4635 
    4811     4823     4872     5050     5132     5217     5413     5535 
    5659     5832     5913     5938     5919     5938     5975     5879 
    5903     6070     6102     6220     6500     6724     7009     7341 
    7628     7966     8241     8410     8572     8715     8880     8991 
    8976     9030     9074     8904     8714     8538     8247     7970 
    7692     7361     7048     6704     6347     5948     5481     5142 
    4826     4433     4232     4140     3939     3815     3789     3716 
    3659     3628     3574     3474     3360     3277     3090     2860 
    2808     2693     2467     2424     2400     2269     2207     2178 
    2162     2227     2367     2582     2743     2890     3190     3451 
    3646     4000     4383     4707     5131     5593     6035     6484 
    6864     7219     7510     7715     8035     8309     8376     8495 
    8556     8418     8317     8268     8194     8083     7911     7770 
    7635     7453     7373     7325     7172     7056     6997     6929 
    6952     7002     6970     6983     7098     7200     7250     7299 
    7384     7372     7233     7167     7057     6783     6608     6474 
    6150     5822     5660     5476     5162     4868     4676     4519 
    4384     4305     4210     4037     3946     3960     3856     3727 
    3739     3680     3607     3689     3716     3662     3627     3542 
    3456     3407     3375     3379     3392     3434     3485     3500 
    3655     3902     3943     3928     4079     4229     4356     4560 
    4731     4800     4866     5008     5144     5252     5481     5746 
    5861     5995     6204     6269     6296     6404     6409     6322 
    6227     6085     5953     5856     5779     5713     5606     5553 
    5570     5464     5329     5279     5166     5020     4905     4779 
    4668     4546     4417     4257     3959     3665     3426     3083 
    2779     2578     2308     2069     1960     1903     1891     1877 
    1910     2016     2096     2266     2497     2636     2876     3221 
    3480     3765     4098     4398     4676     4904     5170     5463 
    5640     5856     6103     6176     6246     6323     6212     6070 
    5958     5711     5412     5202     5026     4773     4469     4282 
    4174     4040     4079     4270     4391     4598     4920     5161 
