Origin Time       2025/01/13 21:19:00
Lat.              31.8
Long.             131.6
Depth. (km)       30
Mag.              6.9
Station Code      EHM011
Station Lat.      33.4498
Station Long.     132.4341
Station Height(m) 8
Record Time       2025/01/13 21:20:11
Sampling Freq(Hz) 100Hz
Duration Time(s)  103
Dir.              U-D
Scale Factor      7845(gal)/8223790
Max. Acc. (gal)   2.213
Last Correction   2025/01/13 21:20:10
Memo.             
[...]
     365      243      260      504      772      764      572      521 
     668      837      934     1026     1210     1431     1463     1262 
    1074     1030     1000      930      912     1053     1279     1395 
    1440     1582     1698     1593     1347     1163     1143     1201 
    1128      909      746      665      513      325      282      363 
     402      341      193       28        1      101      164      229 
     410      589      646      675      734      699      531      382 
     299      218      133       39      -31       39      199      236 
     118       45      128      305      454      540      611      623 
     534      436      407      421      444      453      429      442 
     496      542      680      841      819      750      834     1007 
    1134     1152     1100     1038      919      737      679      783 
     839      846      943     1077     1175     1210     1089      837 
     587      453      494      612      691      722      757      849 
     930      859      666      513      518      627      630      488 
     371      301      236      234      325      448      511      511 
     567      675      646      388       41     -191     -294     -378 
    -461     -481     -461     -442     -407     -288      -62      157 
     333      517      642      699      741      780      909     1121 
    1209     1167     1213     1344     1406     1485     1598     1578 
    1475     1372     1170      854      589      508      515      529 
     579      500      267      155      176      157      130      193 
     306      387      461      619      828      905      724      452 
     240       33      -56       62      190      271      357      340 
     279      409      596      595      608      826      988      967 
     986     1120     1162     1012      843      772      716      614 
     479      392      423      517      621      724      784      773 
     704      618      572      503      272      -37     -183     -132 
     -48       32      176      387      650      959     1247     1389 
    1364     1301     1264     1210     1154     1177     1246     1212 
    1057      889      741      616      518      352      116      -16 
      32      135      133       -2     -140     -241     -365     -414 
    -346     -275     -122      203      515      685      873     1190 
    1482     1540     1432     1386     1475     1593     1614     1543 
    1533     1603     1543     1270      970      758      598      472 
     391      305      220      282      490      675      797      866 
     850      787      743      731      662      511      403      422 
     552      706      773      774      820      978     1190     1256 
    1098      916      830      765      666      557      415      211 
      17     -114     -240     -326     -268     -120      -70     -145 
    -195     -163     -117      -68       58      292      594      900 
    1069     1012      895      828      648      311      103      129 
     211      332      556      781      907      911      805      668 
     584      610      706      750      747      827      969      996 
     900      820      781      749      801      934      970      877 
     816      832      815      747      719      766      846      919 
     970      997     1013     1015     1012     1050     1073      999 
     897      827      733      596      465      359      270      221 
     243      342      533      764      969     1147     1254     1213 
    1085      953      834      768      788      827      745      526 
     360      324      292      284      378      484      538      588 
     649      673      550      252       12       10      106      172 
     228      213       97      105      410      842     1123     1185 
    1127     1073     1057     1021      945      815      568      205 
    -116     -253     -249     -203     -159     -135      -78      135 
     488      745      805      866     1039     1235     1324     1228 
    1021      854      765      710      695      764      899     1039 
    1121     1098     1100     1240     1316     1165      965      901 
     909      789      513      334      452      714      899     1044 
    1169     1155     1062     1011      978      934      903      895 
     885      842      753      584      383      294      270      194 
     162      157       39      -67       72      391      683      895 
    1048     1128     1139     1140     1084      826      413       43 
    -176     -214      -91       87      267      491      754      986 
    1174     1275     1170      961      896      982     1053     1039 
     985      958      967      962      943      886      750      645 
     687      800      905      980      976      893      803      761 
     726      615      467      419      468      473      400      314 
     256      206       91      -89     -228     -253     -217     -135 
      64      372      672      885     1038     1148     1190     1136 
    1005      884      839      822      731      556      429      477 
     662      797      780      703      645      584      460      238 
      14     -112     -145     -118      -29      147      390      639 
     886     1089     1167     1163     1200     1248     1171      993 
     922     1013     1108     1111     1003      792      616      552 
     525      507      491      486      571      735      876     1016 
    1177     1209     1092     1012     1007      970      932      915 
     911     1035     1220     1229     1113     1055     1040      970 
     810      634      568      610      650      664      658      538 
     298      139       94       -5      -60      137      423      579 
     687      783      785      770      730      614      638      866 
    1008      985     1009     1162     1337     1447     1435     1252 
     992      772      587      461      442      517      645      742 
     760      764      756      646      469      325      252      230 
     178       54     -129     -307     -371     -336     -271      -98 
     228      506      548      484      537      677      726      598 
     360      139      -27     -174     -311     -440     -521     -483 
    -338     -184     -118     -128      -95        8       70       29 
     -54      -97      -60       76      274      365      330      396 
     652      874      882      831      953     1196     1426     1610 
    1679     1641     1594     1506     1337     1165     1004      892 
     930     1016     1031     1071     1134     1065      900      743 
     573      452      461      481      396      302      342      498 
     612      598      494      372      270      168       81       76 
     155      256      403      607      749      745      697      691 
     660      577      515      535      669      841      884      810 
     791      770      584      340      226      249      359      519 
     704      850      837      658      504      481      472      360 
     264      413      797     1171     1429     1595     1672     1679 
    1598     1443     1266     1043      770      469      155      -52 
      -4      287      639      849      936     1124     1458     1678 
    1572     1269     1040      926      834      830      999     1308 
    1653     1910     2080     2224     2288     2165     1885     1624 
    1517     1494     1379     1179     1046      980      876      718 
     552      426      383      355      267      207      251      351 
     453      541      614      689      807      974     1078     1001 
     800      585      378      209      141      153      136       10 
    -160     -222     -120       -8      -68     -205     -174        5 
      89       36       29       63       74      152      275      324 
     356      421      469      491      483      491      561      594 
     550      535      580      635      642      561      456      449 
     589      778      876      838      734      669      691      735 
     801      881      801      569      522      777     1082     1232 
    1220     1129     1001      789      519      282       68     -105 
     -94      153      499      807     1082     1347     1520     1468 
    1140      660      276       59     -174     -495     -766     -949 
   -1082    -1066     -889     -706     -535     -365     -249     -151 
     -75     -124     -241     -287     -252     -191     -147     -112 
     -60       39      197      346      486      684      928     1173 
    1343     1313     1123      940      797      699      735      903 
    1123     1386     1694     1977     2114     2034     1825     1617 
    1436     1197      899      741      805      904      945      993 
    1009      928      812      726      696      761      954     1227 
    1408     1386     1277     1185     1034      789      522      294 
     209      322      513      619      641      668      723      816 
    1051     1397     1588     1595     1740     2097     2353     2243 
    1863     1498     1217      866      429       54     -184     -288 
    -233      -41      230      548      815      967     1031     1044 
    1012      874      615      379      309      333      341      306 
     210       93       81      216      384      469      457      411 
     425      479      438      298      172      125      191      315 
     363      299      186       56     -102     -324     -589     -859 
   -1131    -1293    -1264    -1192    -1111     -970     -843     -654 
    -286      160      457      486      422      500      695      859 
     908      905      999     1175     1385     1609     1732     1773 
    1872     1938     1861     1741     1661     1598     1478     1294 
    1192     1289     1462     1449     1210      891      535      211 
     106      264      454      454      365      392      506      602 
     692      785      870      967     1061     1127     1193     1227 
    1179     1119     1117     1139     1086      942      841      845 
     865      891     1005     1196     1352     1426     1512     1733 
    2050     2266     2331     2392     2498     2498     2195     1566 
     827      230     -209     -652    -1123    -1444    -1502    -1320 
   -1004     -683     -394     -133       28       40      -87     -230 
    -202      -41       35      -28      -28      216      623     1027 
    1354     1606     1818     1985     2050     2042     2002     1850 
    1557     1269     1096      936      716      569      530      409 
     197       72       48      -12     -187     -361     -322     -110 
      39       78      126      222      322      398      409      291 
     144      147      240      251      145      -60     -260     -233 
      14      306      577      762      765      567      226      -79 
    -186      -99       33      141      297      542      796      984 
    1105     1155     1116     1051     1009      938      772      521 
     301      233      256      222      149      122      149      133 
     -25     -153      -45      148      301      525      777      889 
     957     1109     1270     1390     1521     1649     1722     1736 
    1717     1632     1381      936      371     -240     -824    -1267 
   -1501    -1599    -1653    -1642    -1495    -1196     -849     -583 
    -422     -341     -333     -371     -405     -414     -398     -328 
    -172       94      460      826     1105     1301     1401     1360 
    1212     1059     1043     1166     1252     1225     1081      818 
     465       67     -241     -328     -255     -148      -17      202 
     560      977     1270     1401     1513     1591     1499     1331 
    1255     1267     1302     1274     1166     1075     1073     1132 
    1215     1327     1410     1432     1520     1717     1972     2299 
    2633     2810     2783     2612     2362     2128     2010     1988 
    1869     1536     1158      954      891      850      858      939 
    1039     1151     1317     1576     1848     1938     1837     1734 
    1725     1723     1621     1408     1177     1015      924      884 
     876      826      595      147     -387     -827    -1075    -1193 
   -1201    -1001     -666     -394     -199       68      413      668 
     812      951     1030      951      787      575      276      -17 
    -197     -291     -352     -333     -159      155      469      649 
     745      889     1012     1000      904      781      631      484 
     361      306      410      675     1032     1426     1788     2099 
    2350     2497     2538     2470     2301     2043     1651     1143 
     697      440      287      105     -122     -270     -244     -201 
    -298     -405     -351     -179      -12      152      432      839 
    1181     1271     1194     1154     1227     1333     1328     1224 
    1192     1244     1194     1007      907      992     1034      963 
    1042     1300     1486     1444     1201      947      901     1042 
    1144     1127     1085     1040      953      853      822      954 
    1189     1304     1167      854      573      454      382      261 
     203      287      450      594      641      558      356      124 
       2       16       25      -59     -199     -333     -430     -519 
    -621     -679     -660     -568     -430     -337     -275     -113 
     160      514      980     1479     1933     2403     2812     2955 
    2849     2660     2420     2077     1675     1329     1101      942 
     756      544      383      292      240      180       95       62 
     117      144       47     -157     -402     -592     -665     -618 
    -449     -199       40      272      523      760      978     1196 
    1432     1664     1755     1669     1528     1341      989      448 
    -159     -675    -1023    -1237    -1371    -1470    -1570    -1609 
   -1462    -1167     -923     -797     -718     -629     -560     -595 
    -719     -789     -731     -594     -421     -265     -190     -148 
     -52       76      221      403      625      908     1192     1389 
    1568     1744     1738     1464     1077      784      595      423 
     355      567     1027     1476     1703     1738     1713     1607 
    1328      954      604      340      284      469      699      837 
     973     1163     1324     1429     1507     1543     1568     1638 
    1711     1733     1711     1660     1603     1571     1495     1277 
     973      693      441      189      -35     -198     -287     -330 
    -319     -211      -40      112      178      143      102      144 
     202      184      122       47      -35      -32       63       70 
    -144     -473     -653     -622     -545     -475     -372     -232 
     -70      120      440      912     1375     1706     1956     2204 
    2430     2546     2538     2463     2407     2409     2403     2322 
    2246     2289     2428     2494     2416     2343     2338     2269 
    2116     1968     1891     1858     1775     1705     1741     1718 
    1502     1173      745      245     -171     -413     -565     -739 
    -897     -950     -901     -812     -724     -607     -422     -197 
      63      379      660      812      841      753      616      562 
     627      796     1003     1167     1266     1277     1229     1131 
     957      799      652      441      270      253      360      494 
     653      900     1200     1449     1582     1625     1652     1679 
    1672     1578     1347     1057      849      762      807      988 
    1139     1073      812      507      279      168       95      -17 
    -129     -172     -145     -132     -199     -243      -78      268 
     554      656      688      750      827      904      973     1020 
    1003      928      893      922      913      804      625      432 
     260      135      113      201      291      400      670     1051 
    1356     1547     1676     1752     1799     1867     1949     1998 
    1980     1933     1933     1968     1930     1748     1475     1170 
     823      476      240      156      149       91      -22      -59 
      41      214      386      531      630      669      607      375 
      41     -261     -484     -637     -774     -861     -816     -760 
    -801     -884     -961    -1011    -1055    -1154    -1246    -1281 
   -1336    -1455    -1574    -1561    -1354    -1078     -886     -692 
    -355        4      230      395      587      764      846      822 
     749      681      661      662      607      487      388      398 
     477      549      719     1048     1355     1525     1625     1748 
    1864     1864     1803     1831     1914     1904     1721     1439 
    1197      958      668      445      338      265      253      329 
     402      432      422      307       82     -101     -168     -141 
     -25      102      178      251      333      399      446      508 
     592      672      803      986     1132     1232     1294     1259 
    1111      973      969     1065     1115     1038      949      970 
     990      882      738      670      645      614      625      696 
     719      635      525      472      461      395      230       13 
    -217     -422     -530     -537     -449     -279      -66      170 
     406      599      741      826      832      814      831      866 
     901      911      819      661      599      625      635      700 
     882     1113     1345     1526     1564     1467     1378     1394 
    1422     1379     1355     1359     1259     1063      889      803 
     774      720      646      599      526      414      330      309 
     326      342      337      330      321      306      298      321 
     400      540      731      900      942      932     1042     1259 
    1397     1367     1318     1401     1532     1540     1405     1267 
    1235     1267     1277     1246     1208     1177     1109     1011 
     958      974     1024     1081     1101     1051      942      816 
     710      588      421      270      186      132        8     -251 
    -503     -549     -450     -390     -344     -226      -56      121 
     247      259      207      205      272      332      364      433 
     513      508      477      511      560      565      540      490 
     449      391      229       28      -32       91      319      569 
     803     1034     1293     1534     1659     1706     1817     1989 
    2116     2182     2208     2135     1838     1348      912      653 
     473      295      157      120      156      218      249      189 
      75      -32     -130     -207     -260     -310     -363     -445 
    -550     -615     -618     -564     -477     -415     -395     -380 
    -351     -305     -228      -97       89      255      338      423 
     552      658      788      967     1124     1250     1320     1329 
    1355     1394     1379     1352     1398     1487     1521     1514 
    1503     1417     1243     1080      984      949      936      888 
     800      727      693      675      626      572      556      523 
     437      356      325      345      376      373      324      189 
      -4     -145     -222     -233     -166      -78       56      255 
