Origin Time       2025/01/13 21:19:00
Lat.              31.8
Long.             131.6
Depth. (km)       30
Mag.              6.9
Station Code      EHM010
Station Lat.      33.4511
Station Long.     132.6881
Station Height(m) 191
Record Time       2025/01/13 21:20:15
Sampling Freq(Hz) 100Hz
Duration Time(s)  92
Dir.              N-S
Scale Factor      7845(gal)/8223790
Max. Acc. (gal)   6.378
Last Correction   2025/01/13 21:20:15
Memo.             
[...]
    9633     9867    10131    10431    10697    10812    10786    10693 
   10555    10461    10539    10802    11157    11456    11543    11327 
   10808    10110     9424     8866     8530     8490     8649     8826 
    8964     9108     9227     9267     9306     9435     9651     9930 
   10230    10558    10976    11441    11793    11881    11664    11273 
   10847    10430    10058     9807     9705     9721     9844    10042 
   10220    10309    10287    10147     9983     9911     9953    10041 
   10129    10173    10146    10085    10012     9914     9828     9771 
    9703     9625     9609     9678     9756     9782     9728     9586 
    9429     9296     9127     8950     8885     9008     9301     9659 
    9990    10272    10488    10640    10775    10878    10916    10924 
   10913    10824    10648    10457    10323    10255    10234    10239 
   10238    10227    10257    10377    10585    10822    11052    11234 
   11296    11223    11079    10918    10771    10689    10693    10750 
   10832    10893    10832    10597    10280    10007     9822     9714 
    9667     9688     9806    10004    10215    10332    10274    10081 
    9853     9649     9524     9468     9400     9294     9215     9216 
    9329     9506     9597     9491     9194     8804     8491     8380 
    8461     8681     9032     9481     9965    10419    10755    10881 
   10827    10743    10719    10751    10827    10913    10986    10997 
   10883    10663    10358     9945     9520     9238     9126     9099 
    9099     9100     9115     9229     9464     9701     9811     9792 
    9759     9784     9864    10042    10353    10751    11192    11611 
   11831    11720    11362    10899    10385     9887     9528     9375 
    9386     9474     9636     9904    10253    10656    11067    11368 
   11502    11457    11182    10694    10118     9613     9363     9444 
    9707     9904     9902     9726     9462     9177     8932     8806 
    8880     9184     9639    10114    10511    10739    10720    10477 
   10111     9709     9323     9016     8835     8746     8704     8739 
    8833     8860     8850     8934     9113     9333     9548     9740 
    9918    10049    10174    10385    10646    10929    11256    11547 
   11707    11700    11537    11300    11070    10852    10698    10696 
   10832    10976    11018    10963    10835    10578    10183     9755 
    9371     9019     8757     8695     8806     8970     9155     9382 
    9617     9811     9984    10193    10459    10759    11030    11205 
   11248    11183    11122    11167    11277    11365    11352    11167 
   10824    10416    10002     9634     9408     9347     9408     9553 
    9720     9803     9790     9768     9856    10046    10238    10413 
   10604    10719    10654    10469    10260    10057     9880     9676 
    9382     9072     8843     8769     8885     9074     9194     9236 
    9262     9317     9389     9443     9570     9907    10386    10832 
   11167    11325    11223    10886    10436    10004     9702     9579 
    9583     9684     9899    10195    10528    10789    10818    10647 
   10459    10373    10442    10648    10844    10918    10882    10727 
   10480    10235     9992     9715     9417     9069     8711     8506 
    8507     8661     8935     9255     9482     9547     9487     9394 
    9346     9371     9478     9620     9717     9760     9774     9714 
    9544     9288     9038     8931     9032     9270     9518     9690 
    9790     9880    10007    10164    10314    10439    10623    10948 
   11364    11777    12112    12274    12198    11913    11480    10953 
   10465    10154     9985     9836     9706     9639     9591     9572 
    9672     9846     9992    10104    10207    10277    10280    10211 
   10098     9956     9787     9583     9366     9200     9112     9009 
    8765     8380     7996     7739     7690     7959     8634     9599 
   10534    11188    11500    11489    11242    10918    10659    10554 
   10598    10709    10785    10702    10467    10212     9948     9618 
    9282     9005     8872     8982     9256     9522     9722     9907 
   10152    10409    10557    10608    10709    10920    11180    11412 
   11599    11739    11766    11597    11254    10814    10342     9945 
    9768     9863    10111    10289    10249    10004     9664     9370 
    9227     9239     9418     9809    10354    10901    11292    11416 
   11277    11013    10750    10527    10380    10413    10689    11095 
   11434    11529    11334    10939    10454     9930     9371     8837 
    8456     8266     8205     8247     8318     8372     8479     8652 
    8873     9171     9533     9968    10471    10889    11063    11007 
   10831    10597    10365    10242    10243    10233    10071     9672 
    9040     8384     7977     7912     8122     8514     8966     9333 
    9571     9769    10035    10435    10998    11628    12093    12266 
   12202    11966    11612    11269    11041    10909    10775    10567 
   10299    10006     9699     9406     9151     8877     8534     8260 
    8276     8618     9159     9749    10305    10795    11199    11506 
   11662    11570    11229    10743    10241     9802     9458     9246 
    9197     9288     9390     9381     9335     9417     9733    10324 
   11113    11907    12561    13000    13193    13190    13032    12757 
   12476    12237    11940    11537    11099    10643    10154     9643 
    9085     8515     8094     7946     8012     8166     8359     8595 
    8880     9148     9309     9421     9612     9860    10126    10432 
   10673    10666    10397    10007     9655     9467     9486     9610 
    9640     9439     9055     8615     8232     8010     8024     8348 
    9026     9913    10721    11264    11460    11308    10978    10705 
   10538    10335    10027     9668     9335     9072     8884     8710 
    8536     8456     8596     9011     9620    10257    10804    11207 
   11483    11699    11902    12015    11942    11763    11589    11435 
   11315    11227    11063    10729    10339    10038     9818     9655 
    9571     9602     9830    10307    10966    11651    12191    12488 
   12541    12380    12073    11693    11277    10852    10432     9964 
    9409     8768     8004     7114     6215     5516     5150     5144 
    5537     6249     7042     7789     8482     9104     9637    10075 
   10427    10720    11030    11399    11736    11929    11881    11515 
   10932    10291     9614     8949     8455     8229     8240     8448 
    8851     9404     9987    10501    10924    11323    11776    12216 
   12561    12843    13042    13035    12753    12241    11583    10847 
   10145     9595     9265     9142     9080     8941     8726     8486 
    8249     8041     7927     7967     8129     8349     8594     8779 
    8806     8671     8428     8109     7774     7553     7547     7798 
    8289     8915     9548    10077    10461    10732    10948    11099 
   11173    11200    11167    11036    10829    10573    10250     9877 
    9544     9321     9167     8973     8714     8448     8275     8349 
    8738     9297     9842    10305    10692    11007    11263    11535 
   11894    12285    12626    12831    12766    12386    11755    10972 
   10154     9390     8746     8272     7993     8020     8495     9321 
   10227    10993    11480    11637    11566    11457    11388    11331 
   11306    11337    11387    11426    11411    11279    11037    10713 
   10276     9807     9475     9300     9205     9211     9370     9690 
   10129    10602    11030    11365    11549    11560    11510    11516 
   11569    11632    11697    11777    11929    12175    12469    12680 
   12600    12136    11395    10490     9551     8784     8305     8112 
    8203     8530     9005     9510     9861     9961     9879     9788 
    9860    10111    10440    10733    10898    10906    10731    10316 
    9705     9028     8476     8213     8257     8510     8834     9057 
    9088     9023     9005     9063     9190     9385     9563     9699 
    9927    10346    10916    11562    12220    12731    12900    12668 
   12133    11411    10605     9850     9254     8873     8646     8406 
    8093     7763     7429     7083     6758     6527     6461     6588 
    6967     7591     8301     9018     9772    10493    11024    11250 
   11202    11049    10983    11090    11281    11288    10948    10358 
    9624     8791     7992     7360     6961     6835     6976     7393 
    8075     8920     9836    10814    11854    12884    13791    14482 
   14906    15039    14906    14615    14281    13945    13614    13324 
   13077    12802    12413    11788    10836     9640     8401     7285 
    6415     5896     5786     6062     6681     7550     8468     9236 
    9836    10330    10737    11067    11340    11592    11843    12050 
   12112    11977    11749    11533    11296    11025    10740    10436 
   10150     9969     9949    10134    10563    11205    11919    12538 
   12949    13119    13100    12982    12808    12579    12337    12105 
   11836    11473    10979    10278     9316     8175     7071     6246 
    5888     6072     6693     7458     8068     8426     8600     8718 
    8889     9146     9447     9707     9857     9859     9748     9634 
    9609     9661     9742     9795     9753     9583     9283     8900 
    8517     8170     7867     7636     7511     7516     7699     8091 
    8634     9205     9752    10210    10455    10535    10701    11109 
   11713    12394    13019    13487    13749    13697    13165    12163 
   10949     9825     9045     8726     8783     9066     9410     9641 
    9764     9938    10222    10547    10813    10862    10639    10388 
   10347    10484    10690    10935    11179    11298    11145    10710 
   10120     9514     9001     8640     8411     8280     8257     8397 
    8723     9197     9760    10339    10845    11210    11403    11435 
   11380    11264    11005    10617    10278    10131    10174    10331 
   10521    10609    10427     9918     9163     8295     7472     6864 
    6563     6551     6812     7338     8055     8849     9571    10069 
   10382    10659    10937    11203    11479    11739    11961    12179 
   12391    12519    12528    12425    12208    11967    11867    11858 
   11766    11585    11311    10899    10484    10201    10023     9886 
    9801     9806     9873     9996    10214    10489    10731    10872 
   10863    10702    10434    10119     9886     9849    10004    10281 
   10628    11003    11350    11639    11881    12055    12093    11962 
   11681    11287    10825    10334     9832     9350     8857     8310 
    7735     7125     6478     5911     5532     5336     5340     5614 
    6193     6986     7815     8548     9159     9603     9814     9879 
   10025    10349    10835    11485    12170    12723    13127    13366 
   13448    13452    13387    13250    13046    12725    12248    11619 
   10862    10087     9450     9004     8703     8499     8386     8301 
    8137     7923     7788     7780     7911     8247     8812     9539 
   10282    10920    11365    11480    11156    10497     9756     9151 
    8770     8615     8681     8922     9227     9532     9769     9801 
    9570     9221     8958     8895     9039     9319     9630     9903 
   10130    10295    10370    10390    10392    10404    10492    10708 
   11018    11331    11541    11561    11411    11205    11013    10860 
   10743    10625    10521    10478    10494    10508    10435    10292 
   10134     9917     9580     9157     8745     8459     8283     8194 
    8271     8510     8807     9112     9433     9794    10169    10459 
   10596    10516    10176     9666     9120     8596     8129     7767 
    7487     7250     7059     6868     6651     6477     6407     6444 
    6629     7033     7654     8406     9220    10053    10829    11506 
   12094    12615    13072    13410    13545    13466    13213    12864 
   12565    12418    12356    12290    12172    11952    11596    11155 
   10723    10359    10172    10274    10601    11014    11480    11962 
   12393    12746    12965    12960    12752    12447    12156    11950 
   11842    11835    11866    11811    11578    11068    10246     9256 
    8279     7433     6837     6546     6467     6481     6532     6559 
    6475     6303     6107     5925     5829     5896     6156     6604 
    7234     8002     8788     9479    10058    10546    10952    11286 
   11580    11855    12140    12426    12622    12631    12418    12020 
   11519    11033    10652    10384    10237    10201    10146     9985 
    9738     9397     9013     8714     8579     8637     8892     9294 
    9713    10031    10274    10476    10584    10581    10505    10399 
   10243    10008     9730     9452     9147     8815     8521     8253 
    7915     7457     6943     6527     6299     6220     6243     6340 
    6585     7096     7870     8839     9984    11207    12333    13247 
   13918    14361    14585    14582    14409    14180    13986    13868 
   13768    13567    13194    12641    11946    11179    10417     9759 
    9259     8985     9035     9394     9987    10760    11588    12339 
   13012    13641    14187    14585    14770    14717    14480    14122 
   13630    13027    12393    11715    10987    10289     9668     9146 
    8804     8707     8865     9204     9606    10048    10517    10974 
   11427    11893    12334    12657    12761    12561    11979    11022 
    9759     8276     6748     5404     4401     3758     3426     3376 
    3601     4102     4857     5728     6527     7175     7682     8090 
    8432     8691     8876     9100     9450     9869    10265    10554 
   10627    10415     9972     9379     8699     8044     7531     7192 
    7064     7198     7572     8113     8765     9483    10268    11132 
   12024    12853    13544    14064    14423    14644    14715    14611 
   14299    13749    13003    12124    11215    10423     9807     9397 
    9248     9358     9701    10243    10862    11454    12005    12502 
   12918    13240    13474    13605    13566    13289    12787    12117 
   11307    10366     9347     8349     7454     6724     6158     5695 
    5298     5036     4988     5181     5614     6270     7095     8040 
    9039    10006    10889    11637    12178    12474    12560    12484 
   12267    11939    11553    11105    10573     9991     9397     8784 
    8166     7634     7295     7164     7196     7339     7545     7809 
    8122     8459     8835     9274     9749    10203    10555    10754 
   10785    10642    10380    10065     9705     9283     8826     8414 
    8109     7939     7956     8176     8545     9022     9576    10162 
   10724    11223    11655    12029    12320    12518    12672    12787 
   12798    12650    12357    11959    11476    10937    10377     9850 
    9417     9065     8791     8607     8492     8498     8700     9036 
    9394     9725    10004    10177    10185    10038     9813     9574 
    9360     9196     9045     8857     8657     8482     8355     8334 
    8429     8606     8910     9381     9954    10535    11079    11566 
   11982    12314    12587    12825    13001    13069    13047    13011 
   12985    12914    12766    12564    12328    12101    11896    11695 
   11520    11358    11215    11188    11310    11506    11680    11765 
   11749    11608    11302    10849    10305     9737     9213     8824 
    8665     8777     9138     9625    10073    10390    10543    10525 
   10381    10145     9837     9510     9211     8964     8799     8734 
    8738     8752     8735     8672     8580     8484     8406     8406 
    8530     8780     9127     9516     9879    10174    10408    10601 
   10786    10974    11099    11071    10868    10482     9960     9387 
    8803     8226     7688     7207     6837     6613     6539     6654 
    7002     7574     8340     9275    10326    11418    12486    13417 
   14156    14732    15103    15210    15103    14856    14499    14045 
   13470    12714    11769    10706     9617     8571     7655     6925 
    6376     6031     5922     6033     6326     6786     7408     8179 
    9046     9917    10747    11518    12162    12642    12978    13163 
   13194    13043    12644    11981    11094    10061     8996     8027 
    7250     6713     6420     6400     6647     7052     7533     8082 
    8677     9281     9861    10399    10881    11253    11479    11562 
   11489    11287    11006    10648    10224     9775     9359     9023 
    8752     8511     8314     8218     8320     8665     9236     9972 
   10779    11558    12217    12704    13026    13225    13365    13483 
   13545    13479    13257    12906    12455    11890    11183    10365 
    9575     8922     8398     7989     7674     7408     7214     7167 
    7276     7512     7858     8249     8563     8737     8762     8613 
    8349     8090     7908     7885     8082     8457     8934     9378 
    9660     9791     9872     9998    10211    10497    10841    11214 
   11572    11908    12210    12418    12465    12364    12194    12017 
   11889    11861    11886    11931    12043    12205    12349    12434 
   12480    12514    12499    12428    12340    12186    11927    11634 
   11375    11169    10986    10773    10534    10334    10206    10146 
   10157    10197    10238    10308    10392    10447    10470    10435 
   10319    10133     9892     9618     9298     8891     8401     7881 
    7408     7072     6901     6848     6855     6890     6956     7057 
    7168     7298     7519     7874     8333     8843     9337     9767 
   10127    10419    10632    10797    10941    11048    11101    11083 
   10959    10739    10477    10189     9914     9720     9609     9562 
    9555     9547     9537     9553     9598     9674     9784     9921 
   10066    10204    10315    10382    10388    10320    10192    10014 
    9764     9456     9144     8850     8576     8340     8152     8044 
    8054     8218     8518     8889     9290     9688    10025    10292 
   10512    10697    10920    11244    11612    11969    12280    12501 
   12587    12533    12384    12190    11947    11664    11375    11109 
   10868    10615    10347    10130     9981     9876     9818     9799 
    9802     9828     9892    10015    10157    10266    10330    10345 
   10309    10245    10162    10044     9872     9682     9549     9517 
    9622     9883    10219    10551    10856    11110    11333    11549 
   11724    11858    11973    12063    12112    12089    11951    11680 
   11294    10817    10273     9715     9182     8704     8332     8086 
    7970     7950     7970     8054     8251     8559     8969     9452 
    9925    10314    10593    10751    10789    10736    10606    10381 
   10084     9755     9406     9070     8791     8576     8433     8372 
    8417     8613     8965     9432     9958    10484    10966    11381 
   11718    11974    12170    12310    12363    12299    12137    11905 
   11626    11334    11002    10563    10007     9385     8764     8190 
    7688     7284     6997     6820     6743     6760     6859     7011 
    7202     7446     7755     8108     8488     8911     9383     9871 
   10320    10698    10986    11178    11292    11361    11394    11412 
   11448    11489    11549    11639    11723    11773    11811    11854 
