Origin Time       2025/01/13 21:19:00
Lat.              31.8
Long.             131.6
Depth. (km)       30
Mag.              6.9
Station Code      EHM002
Station Lat.      33.9211
Station Long.     133.3079
Station Height(m) 63
Record Time       2025/01/13 21:21:02
Sampling Freq(Hz) 100Hz
Duration Time(s)  60
Dir.              U-D
Scale Factor      7845(gal)/8223790
Max. Acc. (gal)   1.290
Last Correction   2025/01/13 21:21:03
Memo.             
[...]
   17624    17618    17487    17402    17305    17178    17116    17103 
   17149    17232    17231    17216    17231    17192    17247    17466 
   17513    17319    17232    17302    17267    17163    17163    17140 
   17032    17014    17043    17016    17078    17219    17277    17304 
   17278    17118    17064    17246    17298    17204    17327    17460 
   17393    17439    17601    17589    17491    17491    17462    17348 
   17335    17374    17334    17331    17371    17324    17286    17389 
   17502    17455    17301    17236    17321    17379    17288    17217 
   17253    17247    17192    17112    16976    16956    17155    17309 
   17269    17239    17301    17358    17362    17239    17051    16996 
   17081    17196    17232    17130    17035    17116    17239    17263 
   17302    17373    17327    17250    17315    17379    17301    17226 
   17228    17232    17277    17375    17442    17455    17409    17335 
   17350    17329    17119    16977    17049    17120    17151    17159 
   17150    17250    17374    17351    17231    17145    17159    17226 
   17267    17267    17224    17204    17257    17290    17232    17115 
   17084    17289    17508    17412    17289    17475    17616    17459 
   17373    17537    17687    17672    17548    17354    17234    17339 
   17502    17479    17390    17451    17512    17338    17146    17203 
   17348    17427    17512    17571    17544    17544    17591    17556 
   17455    17336    17257    17392    17533    17347    17147    17228 
   17356    17363    17240    17119    17217    17366    17319    17243 
   17286    17311    17170    17019    17093    17250    17259    17149 
   16993    16947    17161    17417    17393    17212    17180    17227 
   17217    17247    17273    17201    17158    17203    17248    17219 
   17169    17213    17263    17243    17365    17616    17637    17451 
   17305    17147    17049    17251    17570    17632    17490    17416 
   17409    17316    17216    17240    17325    17390    17347    17185 
   17123    17212    17292    17356    17369    17323    17415    17567 
   17509    17298    17174    17261    17428    17437    17388    17456 
   17483    17459    17578    17668    17532    17409    17459    17450 
   17331    17278    17302    17362    17388    17332    17325    17427 
   17501    17506    17502    17402    17221    17211    17342    17405 
   17450    17469    17311    17112    17119    17193    17162    17153 
   17189    17221    17304    17406    17462    17389    17192    17149 
   17250    17119    16951    17150    17373    17304    17219    17227 
   17192    17188    17280    17340    17251    17093    17073    17189 
   17231    17224    17358    17474    17320    17096    17086    17176 
   17207    17270    17415    17490    17431    17405    17491    17547 
   17500    17405    17374    17475    17506    17327    17205    17257 
   17288    17298    17325    17232    17136    17223    17243    17113 
   17165    17313    17255    17154    17163    17180    17178    17182 
   17139    17065    17080    17174    17262    17327    17344    17334 
   17325    17277    17188    17123    17122    17173    17261    17362 
   17401    17265    17053    17081    17300    17336    17257    17335 
   17477    17471    17338    17321    17513    17563    17338    17246 
   17448    17620    17593    17440    17275    17348    17614    17640 
   17446    17385    17433    17489    17586    17632    17528    17402 
   17373    17381    17415    17454    17363    17243    17246    17231 
   17205    17285    17319    17235    17181    17226    17327    17401 
   17392    17336    17316    17327    17244    17107    17181    17409 
   17419    17211    17108    17170    17246    17250    17189    17147 
   17163    17153    17100    17119    17242    17355    17378    17311 
   17208    17180    17230    17273    17332    17398    17446    17500 
   17459    17325    17267    17278    17352    17478    17409    17257 
   17294    17265    17112    17145    17223    17197    17200    17165 
   17084    17065    17047    17069    17135    17058    16906    16846 
   16826    16941    17234    17366    17215    17069    17068    17231 
   17539    17644    17388    17204    17344    17464    17369    17323 
   17332    17213    17131    17162    17149    17093    17041    17055 
   17240    17406    17398    17385    17350    17281    17347    17393 
   17281    17269    17389    17355    17165    17055    17051    17084 
   17169    17230    17209    17167    17085    17053    17192    17315 
   17321    17327    17328    17312    17365    17460    17415    17232 
   17127    17149    17254    17329    17215    17120    17243    17373 
   17412    17427    17362    17346    17471    17428    17281    17405 
   17521    17382    17313    17362    17377    17448    17513    17440 
   17381    17443    17529    17555    17554    17606    17656    17604 
   17562    17586    17574    17593    17648    17540    17363    17369 
   17452    17413    17308    17261    17263    17199    17080    17049 
   17062    17061    17142    17220    17135    17028    17064    17119 
   17128    17155    17095    16957    16991    17158    17254    17284 
   17236    17174    17319    17506    17443    17297    17305    17443 
   17620    17678    17537    17428    17514    17602    17587    17560 
   17486    17379    17379    17516    17645    17643    17626    17705 
   17725    17710    17734    17643    17527    17566    17589    17516 
   17450    17431    17483    17505    17412    17394    17500    17508 
   17409    17342    17305    17311    17363    17396    17425    17469 
   17460    17370    17247    17193    17193    17209    17282    17246 
   17032    16974    17108    17186    17240    17257    17178    17207 
   17325    17289    17184    17207    17243    17132    17003    17043 
   17115    17041    17015    17092    17057    17026    17147    17211 
   17184    17208    17186    17113    17201    17383    17412    17311 
   17244    17212    17178    17189    17200    17166    17177    17227 
   17213    17186    17248    17388    17464    17402    17381    17466 
   17421    17293    17346    17475    17471    17428    17419    17373 
   17361    17450    17504    17429    17319    17308    17382    17469 
   17524    17508    17459    17421    17339    17261    17305    17386 
   17413    17413    17401    17413    17416    17346    17328    17388 
   17342    17250    17286    17386    17444    17424    17308    17205 
   17248    17329    17277    17243    17370    17431    17362    17354 
   17294    17163    17207    17308    17269    17244    17354    17498 
   17545    17510    17500    17525    17591    17675    17617    17442 
   17385    17450    17437    17302    17208    17255    17313    17261 
   17216    17286    17393    17402    17313    17309    17412    17397 
   17270    17221    17240    17163    17057    17142    17278    17244 
   17201    17266    17332    17383    17385    17331    17406    17558 
   17508    17332    17278    17363    17455    17415    17319    17366 
   17455    17382    17255    17240    17332    17405    17375    17350 
   17401    17428    17421    17455    17481    17448    17343    17173 
   17127    17305    17448    17427    17383    17336    17292    17335 
   17365    17274    17207    17247    17281    17320    17393    17315 
   17151    17162    17231    17181    17100    16995    16896    16953 
   17035    16957    16845    16827    16866    16889    16843    16768 
   16758    16834    16892    16861    16831    16834    16807    16823 
   16911    16934    16951    17043    17073    17054    17088    17155 
   17255    17340    17338    17298    17271    17292    17401    17494 
   17493    17523    17594    17577    17540    17616    17726    17732 
   17687    17730    17840    17890    17842    17778    17766    17806 
   17825    17783    17772    17825    17848    17864    17922    17884 
   17743    17687    17749    17809    17793    17724    17699    17755 
   17776    17705    17664    17695    17625    17490    17527    17601 
   17487    17432    17563    17583    17437    17417    17517    17410 
   17181    17220    17374    17231    16972    16953    17019    16939 
   16812    16753    16746    16757    16735    16684    16653    16663 
   16717    16749    16731    16752    16791    16803    16865    16888 
   16822    16891    17085    17153    17105    17123    17161    17111 
   17091    17157    17215    17271    17321    17259    17150    17138 
   17153    17130    17163    17224    17186    17077    16991    16972 
   17016    17035    16991    17051    17203    17146    16977    17026 
   17151    17145    17085    17064    17108    17135    17035    16974 
   17089    17181    17150    17146    17212    17278    17305    17317 
   17361    17355    17293    17386    17558    17485    17335    17397 
   17481    17446    17451    17524    17556    17571    17637    17647 
   17547    17544    17649    17667    17610    17591    17672    17798 
   17820    17782    17798    17798    17749    17763    17822    17829 
   17828    17855    17840    17741    17631    17604    17586    17482 
   17369    17301    17259    17240    17181    17099    17051    16969 
   16904    16950    16918    16729    16632    16650    16588    16501 
   16480    16421    16328    16313    16343    16352    16344    16359 
   16459    16588    16659    16723    16775    16740    16687    16675 
   16683    16707    16700    16665    16694    16707    16654    16686 
   16802    16829    16775    16756    16791    16903    17010    16985 
   16945    16995    17042    17086    17158    17220    17297    17409 
   17502    17544    17583    17709    17824    17753    17651    17697 
   17790    17856    17907    17849    17702    17672    17743    17722 
   17697    17794    17825    17707    17664    17729    17734    17707 
   17740    17779    17802    17833    17817    17755    17736    17741 
   17675    17583    17494    17394    17396    17467    17471    17440 
   17408    17394    17456    17523    17536    17544    17536    17502 
   17533    17605    17620    17641    17689    17663    17616    17651 
   17740    17770    17679    17599    17652    17714    17656    17562 
   17531    17539    17560    17566    17500    17369    17312    17362 
   17352    17309    17350    17338    17289    17373    17446    17404 
   17397    17473    17541    17562    17604    17690    17740    17753 
   17780    17837    17909    17973    18046    18075    17998    17959 
   17999    17950    17886    17919    17876    17712    17605    17568 
   17470    17329    17269    17259    17236    17223    17211    17153 
   17064    17018    17103    17216    17154    17035    17037    17070 
   17073    17061    17035    17026    17062    17120    17122    17041 
   17010    17093    17163    17130    17050    17026    17059    17037 
   16962    16974    17053    17070    17034    17015    16997    16974 
   16965    16927    16880    16942    17054    17018    16910    16961 
   17115    17165    17128    17127    17178    17238    17267    17328 
   17416    17415    17427    17571    17643    17570    17545    17560 
   17512    17493    17539    17540    17467    17456    17517    17482 
   17401    17392    17336    17248    17224    17158    17059    17065 
   17076    17008    17019    17111    17143    17154    17154    17080 
   17057    17173    17266    17251    17235    17281    17355    17404 
   17425    17460    17478    17460    17471    17482    17473    17528 
   17605    17632    17656    17666    17597    17487    17425    17419 
   17356    17255    17258    17284    17207    17127    17118    17100 
   17054    17016    16985    16949    16937    16966    16985    16973 
   16985    17018    17003    16974    17000    17015    16992    17008 
   17037    17046    17081    17099    17065    17088    17172    17162 
   17095    17145    17242    17213    17151    17185    17193    17123 
   17149    17262    17275    17251    17329    17390    17363    17370 
   17443    17491    17483    17506    17528    17446    17370    17365 
   17320    17253    17224    17177    17122    17135    17163    17128 
   17062    17041    17096    17120    17042    17012    17092    17142 
   17153    17167    17118    17028    16985    16958    16930    16942 
   16976    16954    16889    16862    16833    16721    16618    16584 
   16517    16409    16348    16335    16332    16309    16301    16384 
   16456    16443    16447    16482    16534    16634    16725    16796 
   16908    17010    17055    17103    17153    17212    17325    17429 
   17498    17598    17702    17771    17868    17996    18058    18087 
   18156    18164    18121    18158    18206    18196    18188    18164 
   18110    18083    18072    18045    18019    17992    17938    17876 
   17825    17756    17683    17631    17578    17548    17551    17532 
   17475    17458    17479    17419    17297    17280    17347    17374 
   17348    17271    17174    17139    17139    17115    17077    17018 
   17004    17077    17091    17066    17142    17169    17081    17072 
   17107    17073    17032    16978    16912    16920    16964    16974 
   17003    17030    16988    16957    17014    17107    17177    17261 
   17382    17483    17562    17683    17824    17965    18111    18164 
   18133    18206    18366    18428    18453    18530    18554    18550 
   18609    18655    18619    18558    18539    18546    18515    18481 
   18462    18385    18274    18210    18156    18048    17882    17728 
   17660    17617    17527    17435    17370    17328    17328    17354 
   17369    17336    17297    17320    17351    17343    17319    17246 
   17193    17208    17159    17065    17064    17082    17011    16942 
   16949    16920    16896    16989    17066    17027    16938    16856 
   16843    16865    16825    16749    16652    16533    16471    16495 
   16494    16380    16258    16248    16252    16163    16086    16100 
   16106    16069    16093    16187    16266    16337    16440    16518 
   16580    16714    16846    16883    16900    16950    16984    17022 
   17115    17209    17242    17278    17336    17339    17308    17344 
   17432    17451    17404    17392    17377    17339    17366    17405 
   17355    17309    17336    17344    17292    17259    17292    17347 
   17386    17388    17377    17417    17475    17512    17574    17658 
   17709    17683    17589    17552    17606    17604    17539    17545 
   17624    17683    17666    17602    17609    17683    17721    17747 
   17772    17739    17722    17774    17763    17707    17721    17718 
   17644    17598    17590    17575    17570    17560    17518    17477 
   17454    17437    17408    17332    17246    17228    17230    17154 
   17037    16983    17018    17055    17049    17046    17043    16992 
   16946    16964    16950    16833    16744    16788    16856    16825 
   16757    16776    16872    16923    16900    16881    16877    16887 
   16953    16996    16958    16957    17032    17103    17181    17289 
   17379    17450    17514    17568    17631    17679    17707    17761 
   17810    17826    17888    17982    17998    17984    18037    18079 
   18026    17990    18006    17961    17876    17805    17717    17668 
   17675    17632    17551    17543    17604    17668    17732    17779 
   17805    17883    17994    18053    18114    18164    18144    18148 
   18184    18115    17972    17887    17875    17865    17794    17717 
   17682    17581    17451    17439    17427    17315    17253    17244 
   17185    17134    17128    17097    17057    17059    17057    17037 
   17043    17020    16968    16992    17035    17001    16972    16996 
   16999    16991    17034    17093    17130    17162    17186    17188 
   17208    17235    17226    17254    17336    17340    17282    17294 
   17356    17373    17350    17355    17416    17466    17470    17497 
   17543    17510    17431    17383    17343    17288    17258    17263 
   17236    17174    17147    17153    17142    17142    17194    17232 
   17196    17163    17192    17224    17224    17261    17348    17369 
   17332    17354    17373    17327    17307    17307    17248    17190 
   17167    17138    17092    17032    16974    16922    16868    16850 
   16854    16818    16769    16758    16746    16714    16737    16804 
   16785    16694    16691    16771    16803    16802    16834    16879 
   16903    16939    17046    17174    17234    17275    17342    17356 
   17339    17355    17386    17424    17456    17454    17417    17351 
   17301    17286    17248    17196    17166    17139    17109    17099 
   17089    17045    17007    17031    17034    16991    16991    17022 
   17038    17055    17093    17165    17235    17248    17261    17319 
   17356    17351    17339    17309    17293    17307    17259    17185 
   17196    17255    17288    17269    17232    17251    17294    17292 
   17273    17280    17284    17273    17266    17246    17221    17215 
   17207    17209    17236    17250    17262    17271    17250    17259 
   17316    17331    17313    17331    17346    17307    17290    17339 
   17356    17336    17356    17377    17375    17427    17524    17570 
   17555    17577    17662    17724    17725    17745    17840    17915 
   17892    17880    17950    17990    17998    18049    18030    17934 
   17919    17913    17813    17763    17779    17713    17617    17583 
   17536    17456    17402    17358    17309    17273    17216    17151 
   17126    17105    17065    17022    16945    16862    16841    16830 
   16800    16788    16776    16756    16767    16804    16823    16812 
   16812    16818    16816    16825    16826    16819    16837    16858 
   16875    16877    16866    16885    16922    16927    16934    16947 
   16943    16964    16983    16938    16892    16902    16896    16872 
   16887    16914    16918    16924    16965    17027    17047    17055 
   17116    17157    17146    17162    17178    17186    17240    17294 
   17313    17338    17374    17416    17447    17447    17458    17510 
   17567    17608    17631    17655    17699    17717    17709    17747 
   17803    17856    17901    17890    17875    17918    17955    17972 
   17984    17986    18017    18046    18007    17971    17959    17898 
   17836    17806    17757    17679    17614    17590    17560    17479 
   17400    17371    17351    17308    17263    17239    17223    17193 
   17163    17155    17186    17255    17294    17259    17221    17255 
   17340    17408    17432    17437    17417    17412    17498    17583 
   17547    17486    17517    17572    17587    17614    17667    17686 
   17694    17730    17752    17736    17724    17722    17713    17691 
   17648    17572    17520    17528    17560    17563    17504    17420 
   17371    17355    17332    17273    17176    17078    17011    16964 
   16920    16873    16807    16735    16683    16669    16679    16646 
   16594    16599    16644    16659    16615    16565    16565    16568 
   16552    16565    16567    16548    16586    16632    16625    16633 
   16648    16634    16664    16718    16707    16695    16741    16775 
   16777    16785    16779    16808    16891    16929    16927    16964 
