Origin Time       2025/01/13 21:19:00
Lat.              31.8
Long.             131.6
Depth. (km)       30
Mag.              6.9
Station Code      EHM007
Station Lat.      33.9616
Station Long.     132.7719
Station Height(m) 3
Record Time       2025/01/13 21:20:35
Sampling Freq(Hz) 100Hz
Duration Time(s)  92
Dir.              E-W
Scale Factor      7845(gal)/8223790
Max. Acc. (gal)   5.512
Last Correction   2025/01/13 21:20:35
Memo.             
[...]
  -11943   -12027   -12078   -12110   -12193   -12293   -12348   -12393 
  -12460   -12530   -12583   -12622   -12658   -12700   -12727   -12704 
  -12669   -12648   -12590   -12483   -12349   -12213   -12093   -11985 
  -11890   -11858   -11901   -11955   -11971   -11952   -11902   -11809 
  -11653   -11497   -11423   -11340   -11232   -11190   -11187   -11219 
  -11291   -11395   -11557   -11668   -11722   -11799   -11811   -11848 
  -12017   -12158   -12274   -12442   -12550   -12590   -12694   -12819 
  -12841   -12829   -12834   -12761   -12687   -12699   -12703   -12631 
  -12482   -12336   -12247   -12151   -12067   -12040   -12040   -12012 
  -11935   -11853   -11844   -11927   -11958   -11874   -11754   -11641 
  -11560   -11491   -11425   -11422   -11515   -11669   -11840   -12017 
  -12148   -12186   -12189   -12231   -12320   -12441   -12501   -12433 
  -12391   -12428   -12420   -12398   -12445   -12529   -12583   -12590 
  -12567   -12490   -12351   -12199   -12029   -11777   -11535   -11402 
  -11318   -11280   -11308   -11319   -11313   -11342   -11357   -11319 
  -11260   -11191   -11144   -11119   -11125   -11209   -11361   -11519 
  -11670   -11875   -12168   -12460   -12672   -12830   -12976   -13082 
  -13095   -13034   -12974   -12942   -12899   -12819   -12721   -12642 
  -12600   -12583   -12595   -12621   -12634   -12636   -12618   -12617 
  -12696   -12815   -12880   -12849   -12698   -12495   -12366   -12267 
  -12098   -11865   -11627   -11502   -11547   -11673   -11796   -11858 
  -11839   -11766   -11624   -11443   -11317   -11265   -11238   -11187 
  -11126   -11109   -11121   -11133   -11205   -11356   -11500   -11612 
  -11762   -11907   -11985   -12087   -12299   -12576   -12806   -12908 
  -12911   -12864   -12781   -12717   -12708   -12780   -12942   -13097 
  -13155   -13092   -12903   -12654   -12394   -12140   -11944   -11816 
  -11727   -11649   -11572   -11551   -11622   -11708   -11726   -11711 
  -11776   -11920   -12074   -12191   -12236   -12239   -12289   -12403 
  -12490   -12478   -12441   -12456   -12468   -12399   -12307   -12256 
  -12189   -12113   -12098   -12131   -12212   -12287   -12275   -12209 
  -12156   -12121   -12073   -11997   -11917   -11847   -11789   -11803 
  -11877   -11882   -11777   -11665   -11630   -11662   -11723   -11793 
  -11858   -11892   -11915   -12002   -12137   -12216   -12240   -12272 
  -12293   -12320   -12395   -12480   -12550   -12586   -12571   -12565 
  -12541   -12430   -12340   -12351   -12409   -12465   -12495   -12526 
  -12600   -12675   -12706   -12718   -12700   -12630   -12540   -12460 
  -12380   -12255   -12047   -11766   -11492   -11325   -11269   -11268 
  -11303   -11329   -11311   -11302   -11264   -11178   -11119   -11079 
  -11068   -11117   -11205   -11371   -11616   -11871   -12055   -12133 
  -12144   -12141   -12131   -12055   -11931   -11858   -11944   -12221 
  -12591   -12984   -13294   -13425   -13540   -13691   -13753   -13726 
  -13603   -13439   -13328   -13240   -13089   -12847   -12648   -12603 
  -12619   -12561   -12428   -12278   -12110   -11917   -11732   -11593 
  -11496   -11379   -11233   -11125   -11102   -11115   -11061   -10982 
  -10991   -11072   -11175   -11294   -11465   -11700   -11905   -12031 
  -12108   -12160   -12209   -12266   -12310   -12355   -12429   -12526 
  -12638   -12752   -12883   -13055   -13200   -13265   -13244   -13107 
  -12915   -12734   -12511   -12274   -12112   -12043   -11994   -11851 
  -11662   -11593   -11641   -11722   -11804   -11858   -11877   -11846 
  -11761   -11699   -11739   -11815   -11796   -11686   -11596   -11592 
  -11635   -11681   -11766   -11886   -11963   -12012   -12090   -12178 
  -12237   -12253   -12195   -12079   -11990   -11956   -11940   -11958 
  -12079   -12271   -12413   -12474   -12511   -12563   -12588   -12533 
  -12411   -12253   -12067   -11884   -11772   -11745   -11765   -11857 
  -12013   -12171   -12266   -12275   -12241   -12214   -12185   -12089 
  -11950   -11835   -11724   -11649   -11685   -11797   -11881   -11923 
  -12019   -12166   -12263   -12235   -12039   -11747   -11523   -11446 
  -11518   -11703   -11898   -12059   -12217   -12359   -12441   -12472 
  -12486   -12455   -12374   -12295   -12235   -12182   -12133   -12087 
  -12082   -12118   -12139   -12108   -12077   -12074   -12037   -11979 
  -11950   -11920   -11857   -11800   -11812   -11898   -12051   -12206 
  -12280   -12312   -12399   -12480   -12415   -12245   -12085   -11929 
  -11785   -11722   -11776   -11950   -12208   -12447   -12567   -12559 
  -12488   -12391   -12221   -11994   -11831   -11801   -11867   -11997 
  -12144   -12204   -12120   -11955   -11758   -11565   -11450   -11430 
  -11442   -11456   -11541   -11796   -12145   -12386   -12517   -12687 
  -12877   -12995   -12980   -12802   -12564   -12395   -12314   -12305 
  -12317   -12336   -12405   -12519   -12598   -12563   -12395   -12160 
  -11951   -11834   -11784   -11732   -11697   -11765   -11923   -12081 
  -12168   -12139   -12009   -11901   -11873   -11893   -12002   -12164 
  -12209   -12129   -12048   -11977   -11890   -11867   -11909   -11913 
  -11925   -11971   -11863   -11608   -11443   -11431   -11485   -11566 
  -11653   -11735   -11861   -12016   -12135   -12191   -12154   -12040 
  -11967   -11942   -11902   -11851   -11781   -11713   -11757   -11967 
  -12225   -12361   -12352   -12275   -12186   -12136   -12097   -12020 
  -11992   -12047   -12085   -12100   -12166   -12260   -12359   -12515 
  -12717   -12869   -12888   -12777   -12653   -12607   -12575   -12491 
  -12361   -12231   -12195   -12322   -12521   -12641   -12649   -12641 
  -12667   -12680   -12621   -12468   -12231   -11967   -11734   -11535 
  -11384   -11303   -11221   -11053   -10885   -10809   -10794   -10841 
  -10933   -11033   -11194   -11358   -11481   -11608   -11701   -11776 
  -11881   -11977   -12056   -12179   -12371   -12523   -12545   -12478 
  -12413   -12410   -12399   -12366   -12379   -12384   -12276   -12050 
  -11853   -11766   -11695   -11560   -11354   -11196   -11173   -11217 
  -11331   -11496   -11610   -11685   -11792   -11947   -12102   -12186 
  -12208   -12243   -12349   -12468   -12513   -12469   -12434   -12537 
  -12748   -12893   -12888   -12791   -12690   -12658   -12723   -12835 
  -12907   -12866   -12777   -12781   -12896   -12977   -12889   -12700 
  -12506   -12336   -12233   -12168   -12144   -12202   -12236   -12135 
  -11921   -11680   -11476   -11360   -11287   -11188   -11076   -10941 
  -10805   -10758   -10908   -11188   -11242   -11043   -10989   -11157 
  -11241   -11047   -10750   -10598   -10628   -10820   -11080   -11302 
  -11541   -11827   -12109   -12402   -12694   -12881   -12914   -12804 
  -12660   -12610   -12629   -12641   -12614   -12575   -12603   -12680 
  -12737   -12746   -12738   -12741   -12808   -12993   -13240   -13423 
  -13423   -13262   -13074   -12873   -12658   -12463   -12330   -12324 
  -12316   -12222   -12081   -11799   -11479   -11304   -11215   -11173 
  -11168   -11157   -11173   -11261   -11431   -11674   -11975   -12262 
  -12406   -12356   -12243   -12240   -12333   -12460   -12564   -12579 
  -12583   -12598   -12584   -12565   -12483   -12403   -12444   -12569 
  -12742   -12903   -13034   -13188   -13289   -13248   -13072   -12779 
  -12499   -12366   -12283   -12148   -12013   -11901   -11804   -11708 
  -11583   -11502   -11522   -11562   -11484   -11215   -10920   -10782 
  -10756   -10732   -10662   -10532   -10397   -10350   -10431   -10628 
  -10924   -11290   -11704   -12077   -12280   -12402   -12630   -12942 
  -13208   -13409   -13567   -13666   -13752   -13852   -13833   -13657 
  -13501   -13478   -13558   -13752   -14027   -14224   -14319   -14365 
  -14288   -14067   -13778   -13508   -13342   -13254   -13159   -13065 
  -12978   -12819   -12541   -12202   -11877   -11635   -11497   -11437 
  -11442   -11553   -11746   -11916   -12001   -11973   -11824   -11657 
  -11551   -11418   -11171   -10867   -10604   -10447   -10412   -10423 
  -10435   -10513   -10713   -11009   -11299   -11484   -11578   -11713 
  -11989   -12326   -12572   -12699   -12764   -12798   -12789   -12721 
  -12586   -12380   -12159   -12001   -11951   -12015   -12139   -12287 
  -12480   -12723   -12987   -13184   -13247   -13215   -13178   -13254 
  -13500   -13797   -13957   -13880   -13605   -13251   -12927   -12665 
  -12421   -12167   -11917   -11680   -11508   -11454   -11484   -11545 
  -11627   -11735   -11804   -11773   -11630   -11400   -11180   -11055 
  -11048   -11144   -11302   -11491   -11620   -11597   -11485   -11394 
  -11341   -11296   -11214   -11114   -11059   -11106   -11257   -11431 
  -11538   -11593   -11707   -11901   -12094   -12268   -12428   -12515 
  -12542   -12567   -12623   -12739   -12872   -12919   -12916   -12953 
  -13012   -13032   -12941   -12700   -12414   -12198   -12081   -12027 
  -11946   -11784   -11585   -11434   -11341   -11219   -11007   -10721 
  -10449   -10309   -10343   -10458   -10584   -10768   -11070   -11485 
  -11939   -12361   -12718   -12964   -13136   -13284   -13346   -13306 
  -13271   -13304   -13366   -13425   -13462   -13466   -13490   -13590 
  -13752   -13929   -14080   -14173   -14230   -14250   -14143   -13873 
  -13498   -13076   -12675   -12321   -11971   -11605   -11254   -10899 
  -10512   -10165    -9917    -9730    -9578    -9477    -9477    -9578 
   -9711    -9818    -9868    -9853    -9830    -9896   -10049   -10170 
  -10201   -10204   -10242   -10293   -10346   -10489   -10775   -11137 
  -11515   -11890   -12208   -12407   -12499   -12552   -12590   -12619 
  -12661   -12656   -12583   -12571   -12676   -12802   -12870   -12933 
  -13043   -13163   -13203   -13113   -12933   -12744   -12625   -12615 
  -12676   -12722   -12696   -12600   -12471   -12368   -12353   -12417 
  -12517   -12634   -12754   -12846   -12865   -12779   -12640   -12542 
  -12460   -12345   -12267   -12267   -12272   -12195   -12039   -11939 
  -11924   -11812   -11562   -11308   -11065   -10820   -10682   -10724 
  -10837   -10843   -10693   -10494   -10341   -10251   -10203   -10207 
  -10338   -10565   -10732   -10805   -10867   -10970   -11155   -11404 
  -11645   -11854   -12029   -12147   -12186   -12195   -12270   -12420 
  -12559   -12661   -12772   -12883   -12937   -12996   -13196   -13518 
  -13861   -14156   -14312   -14293   -14199   -14145   -14195   -14341 
  -14511   -14612   -14612   -14499   -14265   -13934   -13554   -13173 
  -12870   -12669   -12525   -12414   -12279   -12070   -11867   -11713 
  -11533   -11300   -11051   -10802   -10612   -10539   -10530   -10511 
  -10505   -10563   -10679   -10808   -10893   -10909   -10921   -10964 
  -11017   -11145   -11354   -11565   -11777   -11977   -12135   -12264 
  -12401   -12582   -12752   -12823   -12837   -12839   -12825   -12802 
  -12768   -12703   -12625   -12542   -12426   -12270   -12073   -11843 
  -11655   -11542   -11396   -11165   -10932   -10764   -10666   -10585 
  -10434   -10227   -10068   -10007   -10058   -10207   -10400   -10628 
  -10951   -11341   -11692   -11951   -12108   -12189   -12220   -12199 
  -12166   -12159   -12209   -12332   -12498   -12672   -12784   -12784 
  -12735   -12677   -12591   -12549   -12631   -12823   -13097   -13410 
  -13699   -13917   -13992   -13884   -13612   -13244   -12889   -12596 
  -12398   -12291   -12255   -12309   -12387   -12411   -12429   -12440 
  -12379   -12249   -12113   -11954   -11763   -11601   -11484   -11458 
  -11545   -11651   -11684   -11623   -11557   -11481   -11337   -11176 
  -11029   -10922   -10891   -10948   -11117   -11307   -11450   -11619 
  -11885   -12231   -12544   -12735   -12781   -12735   -12706   -12735 
  -12781   -12766   -12685   -12646   -12699   -12768   -12712   -12494 
  -12248   -12102   -12063   -12066   -12102   -12212   -12366   -12564 
  -12804   -13016   -13189   -13342   -13518   -13761   -14027   -14251 
  -14435   -14594   -14693   -14720   -14666   -14521   -14376   -14254 
  -14084   -13899   -13710   -13446   -13119   -12789   -12459   -12132 
  -11826   -11506   -11183   -10922   -10709   -10478   -10181    -9836 
   -9597    -9545    -9524    -9487    -9602    -9879   -10203   -10577 
  -10964   -11273   -11562   -11866   -12102   -12237   -12247   -12159 
  -12081   -12070   -12136   -12303   -12584   -12954   -13374   -13740 
  -13932   -13971   -13913   -13749   -13528   -13315   -13138   -12976 
  -12799   -12575   -12295   -12010   -11784   -11619   -11431   -11133 
  -10744   -10389   -10181   -10125   -10130   -10110   -10084   -10157 
  -10330   -10539   -10751   -10891   -10948   -11005   -11121   -11298 
  -11479   -11659   -11848   -12019   -12190   -12386   -12634   -12954 
  -13289   -13593   -13869   -14131   -14384   -14609   -14775   -14909 
  -15068   -15255   -15434   -15562   -15588   -15543   -15446   -15283 
  -15099   -14906   -14671   -14462   -14343   -14307   -14354   -14415 
  -14382   -14227   -13915   -13451   -12964   -12557   -12253   -12024 
  -11813   -11642   -11522   -11425   -11276   -11051   -10847   -10723 
  -10708   -10800   -10960   -11217   -11535   -11907   -12359   -12815 
  -13212   -13467   -13566   -13598   -13594   -13570   -13528   -13501 
  -13516   -13477   -13362   -13216   -13062   -12893   -12652   -12359 
  -12063   -11792   -11495   -11126   -10770   -10428   -10046    -9693 
   -9425    -9147    -8787    -8382    -7950    -7591    -7337    -7040 
   -6720    -6482    -6331    -6374    -6660    -7056    -7460    -7865 
   -8324    -8885    -9498   -10077   -10584   -11032   -11466   -11897 
  -12255   -12528   -12829   -13180   -13470   -13586   -13548   -13524 
  -13570   -13651   -13767   -13845   -13837   -13787   -13687   -13522 
  -13379   -13312   -13255   -13139   -12987   -12857   -12777   -12773 
  -12823   -12826   -12746   -12606   -12440   -12310   -12252   -12249 
  -12313   -12433   -12560   -12668   -12753   -12804   -12833   -12830 
  -12776   -12730   -12739   -12745   -12719   -12672   -12594   -12523 
  -12545   -12669   -12812   -12906   -12961   -12982   -12945   -12860 
  -12739   -12594   -12482   -12401   -12285   -12081   -11755   -11323 
  -10916   -10635   -10462   -10365   -10304   -10192   -10035    -9950 
   -9980   -10133   -10388   -10648   -10891   -11126   -11327   -11526 
  -11740   -11973   -12232   -12503   -12804   -13131   -13409   -13563 
  -13533   -13378   -13201   -12953   -12557   -12120   -11739   -11427 
  -11246   -11206   -11236   -11290   -11325   -11373   -11503   -11711 
  -12012   -12305   -12503   -12654   -12744   -12800   -12915   -13090 
  -13262   -13396   -13535   -13702   -13871   -13984   -14011   -13940 
  -13755   -13455   -13051   -12563   -12008   -11456   -10994   -10586 
  -10216    -9940    -9764    -9678    -9652    -9647    -9678    -9814 
  -10060   -10343   -10629   -10870   -11029   -11200   -11457   -11776 
  -12124   -12460   -12771   -13068   -13358   -13591   -13747   -13892 
  -14054   -14214   -14400   -14586   -14739   -14875   -15021   -15206 
  -15412   -15593   -15703   -15693   -15565   -15338   -15003   -14605 
  -14196   -13778   -13398   -13086   -12783   -12463   -12098   -11705 
  -11375   -11095   -10831   -10596   -10404   -10274   -10210   -10226 
  -10347   -10515   -10667   -10851   -11094   -11369   -11699   -12044 
  -12290   -12399   -12437   -12472   -12525   -12615   -12757   -12885 
  -12939   -12927   -12841   -12710   -12577   -12413   -12179   -11863 
  -11464   -11030   -10616   -10231    -9898    -9680    -9601    -9586 
   -9606    -9710    -9921   -10203   -10525   -10844   -11091   -11242 
  -11315   -11302   -11242   -11222   -11306   -11520   -11819   -12100 
  -12287   -12428   -12617   -12847   -13080   -13324   -13554   -13763 
  -13998   -14253   -14474   -14632   -14729   -14758   -14779   -14863 
  -14955   -15001   -15029   -15006   -14863   -14628   -14323   -13859 
  -13220   -12577   -12044   -11615   -11245   -10875   -10512   -10160 
   -9782    -9401    -9049    -8692    -8301    -7942    -7712    -7601 
   -7570    -7615    -7651    -7632    -7651    -7755    -7921    -8166 
   -8441    -8696    -9046    -9547   -10108   -10670   -11203   -11677 
  -12104   -12503   -12915   -13429   -14045   -14661   -15248   -15812 
  -16313   -16735   -17082   -17365   -17581   -17664   -17528   -17193 
  -16794   -16387   -15913   -15385   -14885   -14430   -14023   -13656 
  -13259   -12795   -12306   -11832   -11391   -11002   -10677   -10423 
  -10243   -10123   -10058   -10056   -10071   -10029    -9927    -9817 
   -9741    -9721    -9767    -9913   -10146   -10426   -10746   -11074 
  -11362   -11630   -11919   -12216   -12505   -12803   -13096   -13327 
  -13498   -13647   -13737   -13736   -13694   -13655   -13575   -13400 
  -13143   -12864   -12577   -12240   -11853   -11458   -11083   -10737 
  -10401   -10080    -9823    -9613    -9391    -9186    -9011    -8800 
   -8553    -8380    -8353    -8472    -8688    -8946    -9269    -9660 
  -10044   -10404   -10746   -11094   -11488   -11865   -12197   -12568 
  -12937   -13225   -13478   -13672   -13797   -13961   -14116   -14137 
  -14026   -13806   -13556   -13373   -13225   -13101   -13008   -12942 
  -12918   -12935   -12954   -12900   -12781   -12656   -12496   -12372 
  -12366   -12406   -12395   -12285   -12151   -12112   -12132   -12150 
  -12166   -12197   -12267   -12337   -12355   -12349   -12325   -12222 
  -12023   -11796   -11615   -11476   -11418   -11518   -11740   -12008 
  -12305   -12565   -12719   -12830   -12972   -13097   -13158   -13169 
  -13181   -13203   -13197   -13182   -13207   -13252   -13327   -13440 
  -13543   -13606   -13680   -13813   -13964   -14100   -14246   -14392 
  -14485   -14480   -14389   -14235   -14000   -13725   -13455   -13184 
  -12903   -12611   -12337   -12121   -11955   -11861   -11917   -12085 
  -12244   -12375   -12507   -12619   -12658   -12600   -12488   -12368 
  -12266   -12187   -12163   -12247   -12402   -12577   -12798   -13028 
  -13200   -13251   -13150   -12930   -12613   -12228   -11823   -11452 
  -11155   -10908   -10674   -10449   -10233   -10068    -9921    -9733 
   -9537    -9313    -9036    -8769    -8580    -8550    -8626    -8716 
   -8884    -9121    -9347    -9562    -9749    -9903   -10052   -10211 
  -10363   -10534   -10775   -11043   -11291   -11537   -11792   -12064 
  -12343   -12633   -12914   -13213   -13633   -14135   -14654   -15147 
  -15541   -15844   -16040   -16116   -16132   -16124   -16087   -16016 
  -15932   -15834   -15701   -15547   -15342   -15021   -14543   -13926 
  -13227   -12538   -11925   -11406   -11005   -10716   -10536   -10450 
  -10355   -10241   -10129    -9994    -9849    -9715    -9630    -9606 
   -9621    -9730    -9945   -10166   -10404   -10693   -10976   -11207 
  -11391   -11542   -11677   -11767   -11797   -11850   -11919   -11958 
  -12089   -12322   -12515   -12644   -12726   -12777   -12823   -12865 
  -12881   -12915   -13011   -13170   -13400   -13616   -13794   -13968 
  -14064   -14088   -14102   -14102   -14056   -13944   -13783   -13568 
  -13363   -13176   -12964   -12842   -12756   -12542   -12294   -12083 
  -11865   -11622   -11344   -11047   -10833   -10741   -10658   -10470 
  -10231   -10095   -10089   -10135   -10174   -10195   -10265   -10384 
