Origin Time       2025/01/13 21:19:00
Lat.              31.8
Long.             131.6
Depth. (km)       30
Mag.              6.9
Station Code      EHM012
Station Lat.      33.2217
Station Long.     132.5724
Station Height(m) 34
Record Time       2025/01/13 21:20:10
Sampling Freq(Hz) 100Hz
Duration Time(s)  87
Dir.              E-W
Scale Factor      7845(gal)/8223790
Max. Acc. (gal)   6.513
Last Correction   2025/01/13 21:20:09
Memo.             
[...]
  -12619   -12883   -12977   -12691   -12413   -12465   -12640   -12625 
  -12298   -11840   -11584   -11483   -11411   -11483   -11578   -11545 
  -11558   -11812   -12241   -12590   -12830   -13189   -13603   -13737 
  -13501   -13177   -12957   -12719   -12460   -12345   -12339   -12324 
  -12357   -12452   -12533   -12661   -12812   -12776   -12598   -12579 
  -12673   -12529   -12212   -12101   -12059   -11773   -11426   -11288 
  -11384   -11677   -12048   -12380   -12721   -13081   -13316   -13379 
  -13346   -13217   -13126   -13242   -13390   -13284   -12829   -12205 
  -11819   -11782   -11797   -11751   -11838   -12140   -12447   -12557 
  -12502   -12421   -12420   -12536   -12715   -12731   -12530   -12456 
  -12600   -12676   -12698   -12937   -13205   -12961   -12314   -11952 
  -11986   -12021   -11890   -11718   -11754   -12004   -12216   -12324 
  -12341   -12356   -12486   -12491   -12344   -12367   -12399   -12278 
  -12339   -12604   -12776   -12830   -12918   -13046   -13015   -12806 
  -12687   -12742   -12829   -12800   -12739   -12815   -12754   -12426 
  -12260   -12221   -11978   -11786   -11773   -11692   -11624   -11664 
  -11728   -11929   -12218   -12370   -12487   -12722   -12908   -12977 
  -13072   -13109   -12884   -12492   -12249   -12268   -12318   -12272 
  -12393   -12792   -13150   -13297   -13396   -13398   -13126   -12718 
  -12457   -12433   -12633   -12896   -12901   -12657   -12533   -12653 
  -12827   -12852   -12618   -12251   -12128   -12330   -12394   -12093 
  -11847   -11966   -12255   -12490   -12602   -12436   -11923   -11425 
  -11325   -11520   -11700   -11692   -11506   -11290   -11195   -11361 
  -11774   -12229   -12596   -12830   -13053   -13435   -13632   -13327 
  -12919   -12812   -12820   -12600   -12166   -11815   -11543   -11206 
  -11063   -11263   -11426   -11356   -11389   -11678   -11940   -12121 
  -12349   -12526   -12675   -12893   -13032   -13101   -13207   -13155 
  -12895   -12695   -12603   -12530   -12587   -12823   -13150   -13441 
  -13463   -13165   -12798   -12464   -12163   -11959   -11773   -11558 
  -11441   -11514   -11711   -11898   -12108   -12460   -12868   -13072 
  -12966   -12785   -12874   -13238   -13601   -13822   -13878   -13703 
  -13308   -12945   -12885   -12947   -12861   -12677   -12461   -12349 
  -12548   -12951   -13344   -13563   -13474   -13186   -12926   -12737 
  -12563   -12382   -12193   -12042   -12051   -12232   -12410   -12571 
  -12680   -12540   -12468   -12795   -13090   -13019   -12722   -12401 
  -12221   -12121   -11944   -11719   -11560   -11607   -11846   -12190 
  -12646   -13043   -13092   -12723   -12185   -11820   -11578   -11249 
  -11065   -11186   -11238   -11138   -11261   -11512   -11502   -11529 
  -11975   -12432   -12491   -12332   -12224   -12317   -12537   -12799 
  -13242   -13703   -13782   -13473   -13051   -12715   -12403   -11866 
  -11272   -11206   -11713   -12152   -12367   -12815   -13439   -13753 
  -13622   -13230   -12773   -12368   -12083   -11820   -11487   -11218 
  -10980   -10791   -10972   -11560   -12293   -12825   -12924   -12873 
  -12895   -12885   -12950   -13182   -13427   -13605   -13822   -14100 
  -14145   -13830   -13497   -13278   -12997   -12710   -12609   -12654 
  -12560   -12210   -11865   -11691   -11574   -11539   -11704   -11842 
  -11751   -11772   -12251   -13063   -13894   -14481   -14735   -14677 
  -14332   -13780   -13066   -12221   -11304   -10247    -9297    -8981 
   -9119    -9328    -9940   -11148   -12453   -13313   -13587   -13649 
  -13787   -13693   -13259   -12856   -12453   -11774   -11018   -10651 
  -10816   -11196   -11500   -11785   -12074   -12154   -11909   -11562 
  -11452   -11692   -12136   -12492   -12563   -12480   -12407   -12437 
  -12677   -13019   -13321   -13514   -13464   -13323   -13328   -13201 
  -12718   -12181   -11734   -11298   -11110   -11394   -11928   -12368 
  -12588   -12631   -12580   -12478   -12372   -12349   -12403   -12448 
  -12444   -12378   -12210   -12040   -12081   -12324   -12644   -12996 
  -13284   -13405   -13271   -12835   -12279   -11921   -11862   -11782 
  -11368   -10851   -10638   -10743   -11014   -11499   -12309   -13285 
  -14137   -14785   -15134   -14945   -14235   -13396   -12660   -11851 
  -10909   -10112    -9597    -9171    -8826    -9018    -9967   -11119 
  -12017   -12742   -13246   -13477   -13693   -13863   -13725   -13398 
  -13026   -12553   -12085   -11759   -11682   -11855   -11927   -11805 
  -11823   -11935   -11942   -11974   -12175   -12506   -12780   -12942 
  -13080   -13194   -13327   -13359   -13063   -12658   -12447   -12336 
  -12217   -12218   -12425   -12665   -12768   -12731   -12611   -12532 
  -12573   -12654   -12661   -12472   -12195   -12135   -12274   -12492 
  -12760   -12856   -12757   -12766   -12969   -13223   -13487   -13695 
  -13662   -13350   -12831   -12186   -11628   -11248   -10922   -10617 
  -10423   -10435   -10712   -11334   -12355   -13570   -14685   -15643 
  -16383   -16638   -16245   -15383   -14258   -12846   -11353   -10296 
   -9809    -9622    -9603    -9760   -10068   -10539   -11145   -11680 
  -12025   -12302   -12603   -13034   -13670   -14204   -14397   -14439 
  -14389   -14027   -13412   -12787   -12070   -11165   -10449   -10326 
  -10640   -11030   -11507   -12023   -12283   -12347   -12455   -12621 
  -12676   -12421   -12015   -11793   -11682   -11508   -11311   -11133 
  -11034   -11169   -11603   -12167   -12550   -12546   -12245   -12004 
  -12040   -12201   -12390   -12804   -13500   -14131   -14293   -13945 
  -13236   -12333   -11588   -11171   -10982   -11122   -11614   -12124 
  -12471   -12680   -12825   -13046   -13324   -13502   -13581   -13667 
  -13663   -13363   -12934   -12576   -12028   -11291   -10895   -10980 
  -11128   -11121   -11051   -10995   -11242   -12055   -13008   -13629 
  -14175   -14848   -15272   -15201   -14798   -14166   -13313   -12522 
  -12082   -11901   -11803   -11759   -11794   -11943   -12216   -12528 
  -12752   -12838   -12888   -13113   -13541   -13945   -14154   -14076 
  -13668   -13208   -13061   -13201   -13351   -13219   -12610   -11599 
  -10428    -9452    -8999    -9123    -9825   -10974   -12050   -12792 
  -13490   -14116   -14162   -13637   -13138   -12843   -12441   -11805 
  -11001   -10154    -9580    -9510    -9829   -10382   -11146   -11997 
  -12668   -12965   -12969   -12930   -13007   -13178   -13386   -13633 
  -13784   -13572   -12973   -12328   -11902   -11623   -11487   -11620 
  -11847   -11998   -12191   -12480   -12808   -12988   -13004   -13246 
  -13732   -13925   -13660   -13320   -13247   -13308   -13028   -12247 
  -11380   -10901   -10891   -11141   -11458   -11790   -12166   -12571 
  -12865   -12964   -12951   -12919   -13008   -13312   -13549   -13352 
  -12727   -11961   -11319   -10999   -11130   -11655   -12266   -12633 
  -12818   -13161   -13713   -14177   -14258   -13811   -12901   -11632 
  -10133    -9009    -8934    -9594   -10270   -10920   -11669   -12344 
  -12823   -12991   -12839   -12627   -12356   -11916   -11601   -11537 
  -11475   -11271   -10926   -10666   -10725   -10924   -11175   -11763 
  -12717   -13751   -14686   -15400   -15628   -15315   -14837   -14477 
  -14192   -13906   -13652   -13498   -13344   -12879   -12042   -11439 
  -11520   -11751   -11674   -11607   -11757   -11954   -11998   -11885 
  -11776   -11584   -11275   -11191   -11367   -11573   -11703   -11584 
  -11372   -11503   -11824   -11958   -12055   -12239   -12259   -12066 
  -12006   -12337   -12847   -13213   -13377   -13320   -13020   -12528 
  -11978   -11719   -11997   -12495   -12722   -12654   -12533   -12357 
  -12067   -11813   -11778   -12033   -12494   -12873   -12942   -12726 
  -12486   -12438   -12390   -12079   -11624   -11298   -11229   -11394 
  -11759   -12263   -12708   -12826   -12506   -11938   -11348   -11024 
  -11277   -12042   -12978   -13675   -13811   -13500   -13065   -12762 
  -12654   -12526   -12249   -11977   -11842   -11920   -12283   -12721 
  -12820   -12645   -12563   -12490   -12256   -12062   -11944   -11751 
  -11588   -11524   -11502   -11637   -11881   -11928   -11817   -11816 
  -11873   -11790   -11560   -11252   -11113   -11519   -12310   -12900 
  -13158   -13158   -12877   -12734   -13070   -13383   -13279   -13123 
  -13158   -13165   -13055   -12968   -12964   -13032   -13234   -13618 
  -13972   -13805   -12989   -11948   -10955   -10039    -9462    -9497 
  -10112   -11080   -12185   -13319   -14210   -14480   -14404   -14733 
  -15412   -15699   -15392   -14732   -13652   -12106   -10512    -9386 
   -8901    -8787    -8787    -9175   -10200   -11487   -12600   -13404 
  -13825   -13770   -13196   -12264   -11308   -10531    -9836    -9171 
   -8862    -9147    -9900   -10924   -12110   -13497   -14914   -15930 
  -16395   -16335   -15834   -15048   -13914   -12723   -12098   -11897 
  -11550   -10993   -10427   -10099   -10300   -10856   -11388   -12047 
  -12842   -13205   -13004   -12625   -12278   -12094   -12210   -12402 
  -12372   -12349   -12553   -12483   -11730   -10840   -10592   -11017 
  -11666   -12220   -12633   -12972   -13123   -12974   -12880   -13176 
  -13670   -14154   -14519   -14426   -13832   -13269   -13105   -13228 
  -13493   -13824   -14010   -13909   -13536   -12973   -12607   -12803 
  -13161   -13225   -13331   -13649   -13710   -13360   -12854   -12376 
  -12114   -12172   -12395   -12696   -13257   -14099   -14949   -15508 
  -15462   -14794   -13949   -13131   -12144   -10925    -9612    -8371 
   -7445    -7078    -7350    -8324   -10021   -12016   -13668   -14654 
  -15034   -14994   -14604   -14143   -13987   -13917   -13571   -13012 
  -12302   -11546   -11172   -11458   -12147   -12762   -13161   -13533 
  -13840   -13801   -13516   -13385   -13432   -13308   -12830   -12224 
  -11812   -11578   -11345   -11113   -10948   -10922   -11159   -11655 
  -12256   -12746   -12870   -12675   -12479   -12329   -12202   -12216 
  -12225   -12077   -11890   -11808   -11902   -12148   -12463   -12830 
  -13198   -13304   -12881   -12062   -11217   -10708   -10763   -11209 
  -11711   -12113   -12222   -11853   -11248   -10876   -10836   -10939 
  -11043   -10928   -10455    -9994    -9973   -10358   -11114   -12388 
  -13963   -15326   -16167   -16564   -16741   -16634   -16177   -15573 
  -14767   -13594   -12263   -10989    -9795    -8888    -8734    -9602 
  -11146   -12650   -13668   -14261   -14747   -15265   -15670   -15884 
  -15817   -15291   -14315   -12962   -11518   -10671   -10708   -11168 
  -11585   -11757   -11703   -11770   -12077   -12349   -12765   -13598 
  -14320   -14272   -13487   -12441   -11511   -10845   -10484   -10451 
  -10794   -11327   -11646   -11699   -11645   -11507   -11383   -11188 
  -10812   -10536   -10430   -10291   -10224   -10343   -10470   -10507 
  -10670   -11142   -11585   -11568   -11198   -10663   -10103   -10008 
  -10700   -11742   -12357   -12272   -11973   -12052   -12561   -13095 
  -13311   -13105   -12486   -11658   -10966   -10588   -10631   -11180 
  -11935   -12496   -12907   -13208   -13298   -13463   -13780   -13852 
  -13693   -13536   -13300   -12946   -12402   -11600   -10898   -10665 
  -10914   -11583   -12411   -12988   -13186   -13000   -12339   -11429 
  -10577    -9741    -9027    -8793    -9171   -10071   -11245   -12395 
  -13513   -14844   -16281   -17105   -16914   -16000   -14516   -12706 
  -11264   -10350    -9661    -9370    -9863   -11173   -12962   -14801 
  -16309   -17190   -17562   -17690   -17490   -16815   -15611   -14002 
  -12499   -11506   -10979   -10798   -10828   -10870   -10935   -11125 
  -11291   -11395   -11615   -11785   -11577   -11068   -10573   -10268 
  -10243   -10570   -11145   -11749   -12195   -12399   -12555   -12783 
  -12559   -11624   -10716   -10431   -10573   -10781   -11013   -11433 
  -11996   -12457   -12725   -12839   -12679   -11973   -10908   -10147 
   -9976   -10312   -11245   -12694   -14183   -15390   -16266   -16456 
  -15666   -14439   -13593   -13315   -13155   -12704   -12286   -12357 
  -12660   -12788   -12563   -11927   -11286   -11037   -11052   -11198 
  -11404   -11441   -11449   -12096   -13463   -14594   -14945   -14890 
  -14612   -13925   -12931   -11990   -11179   -10336    -9560    -9008 
   -8830    -9271   -10116   -10997   -11967   -12985   -13937   -14773 
  -15049   -14465   -13582   -13157   -13242   -13521   -13788   -13900 
  -13963   -14123   -14192   -14073   -13959   -13992   -14110   -14056 
  -13822   -13757   -13900   -13981   -14108   -14509   -14997   -15271 
  -15142   -14493   -13421   -12313   -11766   -11928   -12190   -12258 
  -12490   -13088   -14011   -14972   -15479   -15477   -15346   -15174 
  -14728   -14037   -13312   -12499   -11452   -10374    -9585    -9027 
   -8433    -7701    -7092    -7160    -8074    -9431   -11028   -13014 
  -15209   -17080   -18266   -18624   -18115   -16877   -15171   -13274 
  -11473   -10174    -9668    -9738   -10143   -10920   -11915   -12826 
  -13529   -14091   -14561   -14827   -14773   -14400   -13938   -13807 
  -13911   -13747   -13410   -13270   -13111   -12625   -12062   -11844 
  -12086   -12561   -12943   -13062   -13159   -13778   -14877   -15658 
  -15696   -15299   -14752   -13882   -12575   -11222   -10088    -9078 
   -8302    -8118    -8618    -9281    -9620    -9911   -10486   -11317 
  -12325   -13089   -13042   -12132   -10725    -9243    -7882    -6691 
   -5853    -5568    -5938    -6978    -8433    -9877   -11172   -12448 
  -13695   -14698   -15277   -15525   -15466   -14931   -14131   -13456 
  -12843   -12310   -12222   -12606   -12989   -13084   -13009   -12922 
  -12987   -13273   -13429   -13204   -12870   -12690   -12650   -12796 
  -13231   -13814   -14115   -13720   -12668   -11562   -11038   -11122 
  -11232   -10824    -9950    -9161    -8874    -9049    -9576   -10430 
  -11414   -12305   -12950   -13221   -13289   -13267   -12884   -12214 
  -11693   -11365   -11060   -10986   -11466   -12424   -13504   -14322 
  -14559   -14148   -13296   -12538   -12382   -12590   -12634   -12517 
  -12260   -11664   -10982   -10705   -10971   -11618   -12243   -12502 
  -12363   -11939   -11570   -11533   -11738   -12245   -12941   -13244 
  -13236   -13593   -14386   -15253   -15888   -15974   -15434   -14509 
  -13338   -12005   -10901   -10408   -10435   -10669   -10897   -11032 
  -11307   -11988   -12852   -13549   -13830   -13455   -12661   -11925 
  -11254   -10593   -10056    -9607    -9204    -8953    -8954    -9162 
   -9532   -10053   -10573   -10983   -11286   -11354   -11086   -10532 
   -9823    -9036    -8213    -7554    -7214    -7217    -7771    -8884 
  -10108   -11272   -12525   -13689   -14376   -14589   -14656   -14617 
  -14382   -14249   -14534   -15149   -15790   -16299   -16792   -17398 
  -18040   -18566   -18878   -18958   -18837   -18492   -17919   -17282 
  -16748   -16189   -15390   -14519   -13869   -13440   -13194   -12974 
  -12492   -11994   -11928   -12113   -12143   -11901   -11384   -10824 
  -10631   -10783   -10908   -10818   -10524    -9995    -9277    -8715 
   -8645    -9038    -9594    -9936    -9925    -9846    -9930   -10021 
   -9906    -9629    -9525    -9867   -10492   -11022   -11362   -11777 
  -12334   -12761   -13046   -13208   -13003   -12582   -12289   -12198 
  -12471   -13115   -13844   -14509   -14918   -15012   -15137   -15284 
  -14994   -14129   -13001   -12108   -11605   -11172   -10746   -10660 
  -11007   -11547   -12144   -12907   -13829   -14628   -15098   -15363 
  -15549   -15334   -14436   -13408   -12930   -12803   -12676   -12819 
  -13316   -13788   -14202   -14862   -15734   -16428   -16711   -16569 
  -16013   -15194   -14222   -13077   -11874   -10697    -9610    -8899 
   -8738    -8916    -9240    -9734   -10343   -10932   -11357   -11389 
  -11227   -11408   -11788   -11921   -11889   -11762   -11398   -10840 
  -10423   -10470   -10854   -11173   -11168   -10889   -10670   -10584 
  -10458   -10419   -10602   -10930   -11321   -11678   -11998   -12226 
  -12110   -11742   -11450   -11183   -10824   -10508   -10466   -10914 
  -11749   -12626   -13485   -14310   -14818   -14966   -15175   -15574 
  -15699   -15326   -14617   -13621   -12509   -11601   -10995   -10709 
  -10895   -11568   -12328   -12783   -13049   -13425   -13846   -14106 
  -14254   -14424   -14631   -14762   -14679   -14505   -14428   -14378 
  -14393   -14661   -15091   -15450   -15654   -15596   -15225   -14843 
  -14694   -14539   -14123   -13548   -12982   -12563   -12461   -12550 
  -12453   -12293   -12495   -12834   -12676   -11880   -10916   -10257 
   -9869    -9568    -9471    -9645    -9914   -10118   -10292   -10636 
  -11163   -11569   -11827   -12290   -12962   -13369   -13277   -12992 
  -12853   -12914   -13155   -13532   -13805   -13636   -13042   -12424 
  -11969   -11707   -11797   -12108   -12268   -12243   -12179   -12042 
  -11743   -11322   -10978   -10875   -10845   -10781   -10908   -11110 
  -11095   -11102   -11303   -11485   -11535   -11481   -11441   -11539 
  -11724   -11835   -11812   -11820   -12031   -12390   -12773   -13103 
  -13306   -13359   -13360   -13377   -13243   -12931   -12868   -13346 
  -14026   -14434   -14470   -14253   -13788   -13041   -12290   -11951 
  -11954   -11928   -11831   -11857   -12002   -12040   -11840   -11518 
  -11205   -10903   -10682   -10746   -11134   -11612   -11954   -12075 
  -11882   -11381   -10845   -10515   -10449   -10656   -11067   -11537 
  -11865   -11993   -12025   -11815   -11261   -10768   -10608   -10508 
  -10231    -9988    -9931    -9833    -9633    -9625    -9944   -10395 
  -10798   -11280   -11974   -12757   -13450   -14034   -14611   -15107 
  -15242   -14931   -14427   -13986   -13644   -13460   -13516   -13695 
  -13936   -14220   -14408   -14469   -14350   -13956   -13471   -13059 
  -12683   -12418   -12410   -12610   -12737   -12602   -12432   -12661 
  -13266   -13706   -13676   -13217   -12518   -11992   -11745   -11487 
  -11284   -11388   -11718   -12052   -12352   -12595   -12582   -12285 
  -12074   -12253   -12540   -12482   -12356   -12683   -13315   -13859 
  -14080   -13929   -13513   -12847   -12085   -11533   -11303   -11449 
  -11859   -12347   -12991   -13706   -14187   -14457   -14750   -15064 
  -15138   -14848   -14430   -14099   -13845   -13621   -13454   -13373 
  -13278   -13073   -12807   -12557   -12476   -12622   -12802   -12941 
  -13023   -12900   -12522   -11994   -11461   -10901   -10164    -9474 
   -9175    -9093    -8968    -8947    -9139    -9385    -9610    -9938 
  -10469   -11084   -11565   -11861   -12100   -12374   -12530   -12417 
  -12175   -11951   -11696   -11383   -11097   -10909   -10813   -10851 
  -11074   -11497   -12160   -12911   -13373   -13459   -13413   -13439 
  -13737   -14346   -14824   -14806   -14507   -14145   -13698   -13242 
  -12852   -12565   -12536   -12749   -12865   -12669   -12356   -12217 
  -12279   -12363   -12314   -12150   -11946   -11705   -11500   -11465 
  -11560   -11661   -11846   -12210   -12564   -12679   -12626   -12567 
  -12463   -12345   -12469   -12802   -13043   -13203   -13427   -13616 
  -13656   -13477   -13062   -12636   -12376   -12251   -12199   -12191 
  -12264   -12449   -12648   -12744   -12633   -12349   -12137   -12117 
