Origin Time       2025/01/13 21:19:00
Lat.              31.8
Long.             131.6
Depth. (km)       30
Mag.              6.9
Station Code      EHM009
Station Lat.      33.6333
Station Long.     132.7965
Station Height(m) 252
Record Time       2025/01/13 21:20:33
Sampling Freq(Hz) 100Hz
Duration Time(s)  70
Dir.              N-S
Scale Factor      7845(gal)/8223790
Max. Acc. (gal)   4.030
Last Correction   2025/01/13 21:20:32
Memo.             
[...]
  -12437   -12340   -12253   -12271   -12432   -12711   -13069   -13460 
  -13792   -13938   -13845   -13564   -13203   -12908   -12777   -12779 
  -12841   -12926   -13049   -13217   -13365   -13417   -13343   -13126 
  -12819   -12587   -12506   -12496   -12502   -12538   -12607   -12703 
  -12783   -12772   -12676   -12580   -12538   -12548   -12563   -12522 
  -12430   -12291   -12077   -11869   -11770   -11703   -11592   -11491 
  -11452   -11534   -11790   -12163   -12536   -12822   -12964   -12989 
  -12935   -12768   -12491   -12160   -11854   -11686   -11726   -11951 
  -12307   -12691   -12969   -13072   -13066   -13054   -13096   -13225 
  -13400   -13500   -13487   -13421   -13301   -13116   -12924   -12756 
  -12559   -12344   -12197   -12156   -12179   -12236   -12328   -12436 
  -12515   -12567   -12631   -12731   -12829   -12850   -12825   -12829 
  -12829   -12792   -12752   -12699   -12633   -12559   -12415   -12191 
  -12027   -12019   -12118   -12268   -12414   -12507   -12590   -12692 
  -12771   -12829   -12897   -12970   -13051   -13162   -13281   -13354 
  -13340   -13251   -13149   -13104   -13134   -13167   -13146   -13074 
  -12981   -12899   -12810   -12658   -12495   -12421   -12417   -12415 
  -12421   -12445   -12449   -12461   -12590   -12830   -13090   -13304 
  -13375   -13240   -12982   -12708   -12444   -12221   -12093   -12040 
  -12074   -12314   -12703   -13026   -13212   -13277   -13224   -13120 
  -12992   -12837   -12690   -12545   -12436   -12482   -12663   -12761 
  -12622   -12301   -11958   -11720   -11641   -11707   -11902   -12217 
  -12548   -12730   -12730   -12671   -12613   -12567   -12633   -12808 
  -12895   -12816   -12696   -12636   -12653   -12715   -12762   -12726 
  -12592   -12422   -12252   -12086   -11981   -11986   -12064   -12170 
  -12334   -12604   -12934   -13235   -13483   -13680   -13806   -13824 
  -13659   -13284   -12787   -12287   -11900   -11723   -11740   -11892 
  -12147   -12436   -12672   -12799   -12831   -12837   -12835   -12781 
  -12695   -12640   -12606   -12592   -12673   -12815   -12914   -12937 
  -12847   -12636   -12426   -12293   -12152   -11981   -11893   -12013 
  -12339   -12781   -13248   -13606   -13744   -13709   -13620   -13554 
  -13532   -13514   -13474   -13464   -13512   -13510   -13370   -13119 
  -12788   -12438   -12205   -12178   -12359   -12661   -12946   -13131 
  -13201   -13130   -12933   -12681   -12479   -12415   -12491   -12613 
  -12758   -12928   -13027   -12988   -12841   -12623   -12415   -12312 
  -12264   -12158   -11994   -11882   -11861   -11890   -11969   -12098 
  -12191   -12187   -12148   -12152   -12251   -12479   -12734   -12911 
  -13045   -13128   -13076   -12908   -12710   -12536   -12422   -12403 
  -12498   -12667   -12814   -12847   -12787   -12745   -12764   -12814 
  -12918   -13063   -13207   -13346   -13487   -13595   -13605   -13473 
  -13197   -12776   -12280   -11936   -11869   -11954   -12044   -12105 
  -12106   -12000   -11794   -11576   -11433   -11438   -11615   -11847 
  -12015   -12158   -12353   -12610   -12920   -13262   -13547   -13690 
  -13697   -13632   -13541   -13447   -13362   -13308   -13320   -13402 
  -13494   -13467   -13267   -13020   -12892   -12970   -13265   -13674 
  -14035   -14231   -14226   -14046   -13717   -13293   -12919   -12745 
  -12818   -13014   -13138   -13124   -13020   -12835   -12569   -12267 
  -11940   -11608   -11376   -11342   -11475   -11684   -11925   -12129 
  -12222   -12195   -12074   -11898   -11754   -11696   -11735   -11913 
  -12236   -12600   -12892   -13031   -13012   -12945   -12995   -13161 
  -13293   -13346   -13379   -13409   -13414   -13358   -13209   -12950 
  -12610   -12340   -12341   -12648   -13109   -13524   -13724   -13648 
  -13336   -12911   -12538   -12334   -12366   -12645   -13072   -13501 
  -13836   -13986   -13909   -13652   -13250   -12748   -12295   -12046 
  -11992   -12006   -12056   -12194   -12375   -12452   -12356   -12105 
  -11790   -11588   -11592   -11776   -12101   -12540   -13004   -13367 
  -13574   -13651   -13622   -13510   -13336   -13108   -12897   -12789 
  -12808   -12926   -13024   -12950   -12699   -12428   -12249   -12194 
  -12276   -12410   -12441   -12376   -12397   -12591   -12892   -13211 
  -13481   -13595   -13467   -13119   -12658   -12214   -11901   -11762 
  -11780   -11965   -12276   -12560   -12721   -12769   -12688   -12440 
  -12070   -11692   -11404   -11280   -11357   -11584   -11874   -12147 
  -12344   -12509   -12752   -13117   -13551   -13917   -14027   -13759 
  -13207   -12636   -12262   -12158   -12301   -12573   -12866   -13176 
  -13490   -13737   -13903   -13961   -13848   -13603   -13286   -12893 
  -12480   -12109   -11881   -11971   -12406   -13011   -13517   -13670 
  -13468   -13117   -12777   -12537   -12391   -12305   -12348   -12579 
  -12901   -13166   -13282   -13209   -12953   -12603   -12272   -12005 
  -11811   -11726   -11755   -11819   -11894   -12031   -12167   -12278 
  -12486   -12792   -13082   -13279   -13306   -13173   -13020   -12934 
  -12930   -13012   -13147   -13297   -13446   -13544   -13514   -13350 
  -13081   -12773   -12528   -12424   -12482   -12640   -12781   -12850 
  -12862   -12829   -12752   -12669   -12630   -12592   -12467   -12282 
  -12089   -11913   -11812   -11788   -11762   -11754   -11784   -11792 
  -11769   -11759   -11815   -12035   -12447   -12973   -13522   -13936 
  -14061   -13899   -13575   -13192   -12748   -12263   -11878   -11740 
  -11862   -12108   -12322   -12414   -12432   -12532   -12753   -12961 
  -13046   -12996   -12842   -12687   -12613   -12515   -12285   -12035 
  -11934   -12033   -12290   -12561   -12699   -12658   -12491   -12297 
  -12140   -12058   -12120   -12384   -12780   -13138   -13298   -13261 
  -13174   -13124   -13046   -12891   -12668   -12422   -12274   -12336 
  -12561   -12803   -12992   -13162   -13281   -13248   -13027   -12637 
  -12172   -11803   -11608   -11554   -11626   -11794   -12008   -12237 
  -12422   -12459   -12345   -12248   -12299   -12488   -12762   -13062 
  -13273   -13329   -13282   -13162   -12951   -12681   -12425   -12255 
  -12236   -12349   -12483   -12598   -12721   -12800   -12785   -12671 
  -12456   -12213   -12047   -11982   -12004   -12129   -12374   -12729 
  -13162   -13562   -13761   -13664   -13302   -12799   -12316   -12020 
  -11983   -12096   -12268   -12563   -12988   -13466   -13968   -14463 
  -14854   -15028   -14958   -14693   -14324   -13934   -13545   -13176 
  -12897   -12807   -12893   -13036   -13182   -13351   -13518   -13728 
  -14010   -14175   -14067   -13752   -13311   -12846   -12513   -12326 
  -12150   -11905   -11692   -11657   -11857   -12218   -12565   -12765 
  -12825   -12752   -12559   -12340   -12147   -11950   -11761   -11630 
  -11592   -11626   -11670   -11708   -11780   -11920   -12104   -12253 
  -12366   -12455   -12437   -12317   -12208   -12109   -12013   -11996 
  -12059   -12178   -12380   -12654   -12926   -13147   -13265   -13192 
  -12991   -12872   -12907   -12992   -13084   -13188   -13304   -13466 
  -13674   -13832   -13863   -13744   -13458   -13053   -12660   -12390 
  -12274   -12268   -12285   -12295   -12349   -12509   -12765   -12965 
  -13027   -13080   -13215   -13373   -13482   -13466   -13271   -12966 
  -12708   -12571   -12482   -12424   -12507   -12750   -12981   -13042 
  -12885   -12518   -12013   -11511   -11102   -10858   -10840   -11090 
  -11572   -12148   -12698   -13181   -13522   -13671   -13667   -13559 
  -13385   -13230   -13161   -13149   -13147   -13100   -12951   -12734 
  -12509   -12334   -12287   -12384   -12571   -12799   -13022   -13174 
  -13224   -13200   -13149   -13093   -12951   -12609   -12112   -11618 
  -11227   -11007   -10970   -11071   -11265   -11497   -11724   -11882 
  -11894   -11794   -11707   -11723   -11869   -12078   -12258   -12401 
  -12509   -12519   -12488   -12537   -12642   -12721   -12769   -12822 
  -12912   -13022   -13093   -13131   -13194   -13331   -13491   -13595 
  -13656   -13743   -13891   -14103   -14299   -14385   -14349   -14219 
  -14002   -13747   -13510   -13225   -12854   -12528   -12379   -12398 
  -12424   -12278   -11977   -11673   -11479   -11441   -11581   -11896 
  -12355   -12869   -13331   -13659   -13815   -13801   -13648   -13433 
  -13247   -13080   -12910   -12798   -12772   -12807   -12879   -12873 
  -12675   -12391   -12231   -12243   -12429   -12771   -13068   -13119 
  -12988   -12897   -13019   -13319   -13555   -13537   -13297   -13000 
  -12838   -12924   -13159   -13348   -13424   -13429   -13398   -13344 
  -13263   -13146   -12982   -12757   -12529   -12445   -12617   -13070 
  -13701   -14283   -14681   -14885   -14875   -14696   -14493   -14276 
  -13926   -13458   -12964   -12495   -12125   -11942   -11986   -12170 
  -12333   -12399   -12348   -12214   -12105   -11973   -11676   -11246 
  -10795   -10392   -10131   -10106   -10312   -10646   -10975   -11236 
  -11484   -11820   -12167   -12344   -12325   -12205   -12032   -11830 
  -11637   -11453   -11314   -11294   -11415   -11651   -11966   -12274 
  -12472   -12542   -12580   -12637   -12622   -12533   -12447   -12318 
  -12151   -12052   -11990   -11897   -11853   -11896   -11908   -11828 
  -11723   -11641   -11573   -11535   -11515   -11479   -11477   -11553 
  -11668   -11769   -11807   -11793   -11843   -12027   -12299   -12595 
  -12869   -13162   -13544   -13944   -14220   -14327   -14295   -14220 
  -14183   -14200   -14310   -14507   -14702   -14893   -15144   -15400 
  -15520   -15412   -15125   -14797   -14528   -14368   -14314   -14341 
  -14466   -14705   -14976   -15152   -15157   -14970   -14605   -14107 
  -13541   -13012   -12587   -12312   -12251   -12368   -12506   -12584 
  -12565   -12402   -12150   -11901   -11650   -11368   -11078   -10820 
  -10667   -10698   -10878   -11076   -11202   -11219   -11102   -10912 
  -10809   -10862   -10999   -11160   -11311   -11430   -11480   -11446 
  -11392   -11403   -11469   -11535   -11564   -11533   -11427   -11314 
  -11292   -11349   -11407   -11456   -11506   -11515   -11422   -11252 
  -11099   -10994   -10920   -10867   -10804   -10704   -10604   -10504 
  -10380   -10309   -10389   -10574   -10773   -10989   -11269   -11662 
  -12217   -12847   -13346   -13589   -13578   -13377   -13146   -13050 
  -13095   -13225   -13481   -13841   -14157   -14361   -14485   -14524 
  -14482   -14397   -14276   -14119   -13977   -13878   -13810   -13787 
  -13771   -13643   -13400   -13127   -12847   -12609   -12492   -12483 
  -12502   -12499   -12467   -12447   -12522   -12719   -12943   -13049 
  -12918   -12549   -12083   -11655   -11311   -11065   -10929   -10967 
  -11267   -11801   -12452   -13076   -13510   -13720   -13825   -13948 
  -14091   -14218   -14326   -14447   -14638   -14921   -15259   -15576 
  -15786   -15836   -15762   -15620   -15400   -15079   -14670   -14206 
  -13756   -13413   -13217   -13139   -13123   -13143   -13163   -13093 
  -12897   -12615   -12271   -11894   -11533   -11192   -10855   -10552 
  -10420   -10563   -10909   -11292   -11592   -11731   -11718   -11627 
  -11502   -11396   -11375   -11415   -11522   -11767   -12125   -12522 
  -12930   -13243   -13344   -13227   -12934   -12569   -12305   -12251 
  -12367   -12568   -12810   -13053   -13282   -13491   -13643   -13684 
  -13556   -13244   -12861   -12536   -12290   -12109   -11974   -11830 
  -11673   -11600   -11685   -11890   -12160   -12488   -12866   -13227 
  -13498   -13663   -13729   -13690   -13605   -13552   -13516   -13498 
  -13545   -13624   -13741   -13956   -14233   -14521   -14804   -15003 
  -15082   -15052   -14895   -14640   -14365   -14083   -13795   -13554 
  -13374   -13246   -13194   -13188   -13153   -13161   -13265   -13351 
  -13350   -13296   -13220   -13161   -13151   -13188   -13297   -13525 
  -13826   -14061   -14141   -14041   -13753   -13336   -12928   -12621 
  -12395   -12209   -12089   -12077   -12148   -12258   -12387   -12501 
  -12555   -12549   -12499   -12417   -12330   -12260   -12170   -12056 
  -11973   -11900   -11809   -11727   -11668   -11653   -11724   -11865 
  -12024   -12162   -12233   -12237   -12194   -12085   -11934   -11823 
  -11780   -11742   -11654   -11510   -11317   -11101   -10951   -10944 
  -11075   -11291   -11534   -11788   -12025   -12181   -12248   -12249 
  -12171   -12009   -11828   -11740   -11807   -12000   -12248   -12451 
  -12538   -12553   -12545   -12447   -12239   -12054   -12002   -12105 
  -12394   -12889   -13477   -13957   -14222   -14254   -14053   -13667 
  -13176   -12665   -12236   -11950   -11819   -11850   -12002   -12194 
  -12361   -12441   -12421   -12363   -12305   -12287   -12387   -12588 
  -12749   -12775   -12719   -12698   -12748   -12833   -12866   -12776 
  -12594   -12426   -12367   -12440   -12549   -12577   -12537   -12519 
  -12591   -12750   -12935   -13109   -13279   -13408   -13404   -13267 
  -13072   -12850   -12649   -12518   -12421   -12317   -12241   -12252 
  -12337   -12445   -12560   -12671   -12784   -12945   -13203   -13560 
  -13945   -14268   -14512   -14708   -14850   -14862   -14700   -14465 
  -14334   -14359   -14488   -14685   -14883   -15024   -15138   -15223 
  -15225   -15136   -14948   -14634   -14262   -13961   -13763   -13622 
  -13495   -13335   -13108   -12864   -12637   -12398   -12139   -11878 
  -11572   -11198   -10843   -10578   -10357   -10118    -9822    -9458 
   -9092    -8785    -8561    -8461    -8492    -8581    -8694    -8860 
   -9101    -9347    -9521    -9644    -9760    -9911   -10180   -10606 
  -11105   -11530   -11843   -12110   -12361   -12595   -12791   -12891 
  -12887   -12823   -12765   -12787   -12927   -13171   -13470   -13795 
  -14172   -14607   -15029   -15329   -15460   -15431   -15252   -14997 
  -14801   -14716   -14706   -14758   -14848   -14909   -14933   -14944 
  -14868   -14661   -14366   -13990   -13510   -13020   -12641   -12401 
  -12271   -12213   -12175   -12137   -12108   -12086   -12085   -12106 
  -12118   -12091   -12025   -11956   -11939   -11983   -12062   -12145 
  -12178   -12100   -11951   -11812   -11713   -11674   -11709   -11807 
  -11961   -12156   -12374   -12607   -12829   -12985   -13082   -13159 
  -13189   -13147   -13076   -12982   -12845   -12688   -12586   -12595 
  -12723   -12903   -13062   -13203   -13339   -13451   -13513   -13525 
  -13485   -13392   -13292   -13217   -13186   -13221   -13282   -13317 
  -13328   -13305   -13239   -13177   -13150   -13116   -13023   -12892 
  -12771   -12664   -12577   -12545   -12580   -12640   -12725   -12891 
  -13130   -13369   -13581   -13724   -13724   -13586   -13346   -13022 
  -12676   -12376   -12148   -12005   -11970   -12036   -12131   -12185 
  -12199   -12213   -12231   -12229   -12194   -12154   -12123   -12085 
  -12036   -11982   -11900   -11793   -11713   -11637   -11507   -11369 
  -11287   -11261   -11290   -11344   -11372   -11389   -11461   -11600 
  -11773   -11938   -12066   -12164   -12278   -12424   -12555   -12602 
  -12590   -12573   -12528   -12444   -12368   -12294   -12221   -12194 
  -12222   -12278   -12326   -12357   -12386   -12438   -12511   -12536 
  -12479   -12411   -12348   -12279   -12256   -12301   -12380   -12482 
  -12572   -12590   -12541   -12457   -12306   -12075   -11854   -11716 
  -11685   -11772   -11966   -12218   -12459   -12636   -12727   -12789 
  -12887   -13005   -13124   -13247   -13347   -13460   -13663   -13909 
  -14091   -14185   -14211   -14172   -14062   -13884   -13659   -13432 
  -13262   -13212   -13296   -13448   -13628   -13784   -13801   -13651 
  -13424   -13177   -12937   -12737   -12569   -12415   -12305   -12293 
  -12390   -12540   -12698   -12858   -13009   -13149   -13273   -13360 
  -13405   -13409   -13409   -13459   -13514   -13516   -13482   -13413 
  -13292   -13188   -13151   -13136   -13104   -13108   -13196   -13352 
  -13541   -13695   -13763   -13761   -13730   -13705   -13691   -13647 
  -13560   -13471   -13393   -13308   -13192   -13041   -12896   -12773 
  -12654   -12557   -12510   -12495   -12490   -12491   -12513   -12552 
  -12552   -12492   -12422   -12393   -12455   -12623   -12815   -12945 
  -12991   -12966   -12908   -12833   -12746   -12703   -12729   -12771 
  -12787   -12757   -12677   -12571   -12467   -12382   -12321   -12276 
  -12243   -12226   -12259   -12348   -12426   -12406   -12270   -12060 
  -11870   -11755   -11719   -11780   -11943   -12178   -12474   -12800 
  -13104   -13354   -13531   -13614   -13618   -13586   -13525   -13429 
  -13340   -13277   -13197   -13084   -12941   -12742   -12505   -12307 
  -12199   -12172   -12190   -12206   -12221   -12263   -12310   -12339 
  -12355   -12325   -12204   -11986   -11718   -11483   -11346   -11279 
  -11230   -11219   -11241   -11236   -11213   -11236   -11308   -11399 
  -11511   -11655   -11840   -12098   -12421   -12723   -12946   -13080 
  -13147   -13189   -13242   -13319   -13387   -13401   -13338   -13176 
  -12934   -12668   -12414   -12204   -12091   -12093   -12178   -12289 
  -12368   -12393   -12348   -12229   -12081   -11962   -11886   -11813 
  -11711   -11596   -11497   -11445   -11449   -11477   -11504   -11527 
  -11523   -11519   -11603   -11772   -11947   -12091   -12214   -12328 
  -12449   -12592   -12760   -12964   -13197   -13444   -13690   -13895 
  -14002   -13994   -13927   -13867   -13798   -13707   -13622   -13533 
  -13448   -13409   -13406   -13402   -13406   -13425   -13440   -13451 
  -13479   -13545   -13653   -13759   -13802   -13778   -13703   -13589 
  -13452   -13305   -13153   -13019   -12933   -12881   -12839   -12779 
  -12683   -12580   -12488   -12401   -12330   -12272   -12189   -12096 
  -12033   -12006   -12017   -12058   -12097   -12148   -12252   -12420 
  -12633   -12838   -12993   -13088   -13138   -13186   -13252   -13304 
  -13348   -13397   -13412   -13370   -13286   -13189   -13104   -13049 
  -13059   -13167   -13315   -13424   -13482   -13497   -13447   -13311 
  -13119   -12912   -12696   -12475   -12272   -12101   -11974   -11913 
  -11913   -11951   -12054   -12204   -12334   -12467   -12618   -12757 
  -12906   -13055   -13144   -13177   -13161   -13112   -13090   -13078 
  -13026   -12945   -12854   -12780   -12749   -12752   -12760   -12773 
  -12788   -12795   -12789   -12775   -12748   -12723   -12710   -12696 
  -12691   -12696   -12672   -12631   -12626   -12642   -12631   -12572 
  -12453   -12294   -12136   -11994   -11853   -11738   -11693   -11711 
  -11763   -11834   -11880   -11886   -11893   -11894   -11862   -11812 
  -11759   -11685   -11597   -11519   -11446   -11419   -11491   -11631 
  -11794   -11973   -12141   -12267   -12361   -12447   -12509   -12505 
  -12405   -12240   -12105   -12075   -12155   -12302   -12456   -12568 
  -12619   -12656   -12700   -12710   -12658   -12567   -12456   -12384 
  -12403   -12502   -12627   -12727   -12795   -12852   -12908   -12966 
  -13063   -13234   -13475   -13783   -14112   -14395   -14627   -14825 
  -14956   -14997   -14983   -14926   -14824   -14702   -14597   -14517 
  -14454   -14384   -14284   -14149   -13990   -13818   -13649   -13485 
  -13302   -13107   -12943   -12829   -12748   -12711   -12727   -12760 
  -12780   -12772   -12706   -12580   -12418   -12245   -12098   -12012 
