Origin Time       2025/01/13 21:19:00
Lat.              31.8
Long.             131.6
Depth. (km)       30
Mag.              6.9
Station Code      EHM004
Station Lat.      34.0627
Station Long.     132.9986
Station Height(m) 4
Record Time       2025/01/13 21:20:53
Sampling Freq(Hz) 100Hz
Duration Time(s)  76
Dir.              N-S
Scale Factor      7845(gal)/8223790
Max. Acc. (gal)   6.157
Last Correction   2025/01/13 21:20:52
Memo.             
[...]
    6124     5906     5636     5356     5081     4846     4714     4688 
    4716     4738     4725     4688     4669     4688     4715     4722 
    4747     4819     4896     4947     5009     5107     5244     5432 
    5638     5802     5908     5952     5931     5875     5799     5706 
    5597     5460     5314     5201     5128     5123     5215     5366 
    5535     5714     5873     5995     6084     6134     6151     6165 
    6149     6068     5945     5830     5764     5753     5782     5817 
    5818     5760     5690     5663     5663     5652     5652     5687 
    5769     5892     6029     6151     6259     6380     6529     6667 
    6763     6836     6887     6903     6872     6767     6597     6384 
    6106     5771     5452     5212     5061     4973     4931     4939 
    4959     4941     4885     4828     4814     4877     5009     5169 
    5340     5513     5648     5725     5786     5848     5917     6026 
    6174     6301     6381     6438     6477     6492     6470     6403 
    6312     6228     6131     5984     5814     5690     5626     5598 
    5603     5640     5695     5764     5833     5884     5887     5822 
    5711     5591     5506     5518     5628     5764     5869     5929 
    5961     6003     6042     6052     6049     6058     6085     6131 
    6189     6276     6396     6496     6505     6411     6222     5983 
    5763     5584     5440     5339     5273     5220     5192     5201 
    5239     5289     5320     5327     5343     5381     5405     5383 
    5329     5286     5242     5157     5043     4938     4861     4799 
    4726     4645     4600     4617     4687     4808     4958     5109 
    5255     5395     5540     5703     5863     5989     6081     6143 
    6181     6208     6224     6219     6166     6057     5915     5771 
    5644     5580     5617     5728     5846     5940     6004     6052 
    6087     6097     6087     6077     6068     6062     6087     6130 
    6156     6116     5980     5773     5553     5333     5113     4901 
    4712     4552     4414     4305     4247     4243     4270     4280 
    4244     4180     4126     4102     4137     4233     4356     4480 
    4577     4621     4633     4661     4726     4815     4881     4887 
    4869     4876     4905     4955     5050     5190     5363     5547 
    5726     5915     6145     6413     6662     6843     6970     7069 
    7145     7173     7155     7105     7032     6947     6876     6847 
    6860     6876     6860     6814     6755     6656     6502     6327 
    6158     5998     5826     5613     5350     5078     4860     4696 
    4545     4372     4197     4060     3983     3958     3960     3986 
    4037     4078     4074     4045     4020     3997     3981     4018 
    4168     4417     4680     4922     5158     5371     5539     5667 
    5769     5873     6004     6126     6203     6243     6268     6309 
    6361     6370     6323     6246     6143     5999     5821     5661 
    5572     5555     5570     5589     5617     5671     5745     5800 
    5791     5711     5624     5567     5532     5530     5572     5603 
    5589     5559     5544     5571     5641     5690     5682     5636 
    5567     5499     5481     5510     5541     5552     5557     5553 
    5541     5557     5620     5695     5764     5832     5888     5921 
    5950     5985     5980     5910     5807     5705     5616     5536 
    5448     5341     5205     5042     4893     4803     4781     4819 
    4900     5019     5185     5373     5552     5742     5922     6035 
    6110     6207     6340     6500     6675     6847     6999     7099 
    7133     7146     7148     7095     7003     6928     6871     6809 
    6721     6602     6480     6347     6181     6018     5914     5891 
    5968     6122     6270     6374     6454     6497     6457     6323 
    6126     5913     5706     5522     5382     5293     5238     5167 
    5038     4878     4734     4567     4352     4129     3948     3813 
    3708     3631     3599     3603     3640     3705     3781     3851 
    3902     3935     3970     4021     4090     4186     4301     4436 
    4627     4854     5065     5265     5448     5609     5780     5934 
    6029     6103     6201     6301     6385     6453     6494     6511 
    6523     6538     6581     6685     6835     6999     7153     7275 
    7381     7491     7565     7581     7541     7430     7264     7068 
    6851     6631     6420     6207     6014     5849     5684     5505 
    5340     5243     5217     5215     5219     5250     5314     5408 
    5520     5632     5732     5821     5921     6033     6127     6176 
    6161     6096     6000     5884     5765     5678     5643     5637 
    5643     5653     5683     5764     5904     6062     6207     6327 
    6411     6454     6466     6446     6405     6346     6239     6069 
    5853     5625     5412     5192     4932     4612     4226     3828 
    3483     3210     3003     2844     2744     2725     2775     2874 
    3033     3265     3565     3908     4252     4590     4962     5373 
    5753     6076     6359     6613     6824     6964     7032     7055 
    7096     7203     7353     7500     7642     7788     7909     7981 
    8005     7974     7884     7766     7632     7470     7284     7090 
    6917     6797     6696     6561     6377     6131     5838     5548 
    5309     5123     4969     4837     4727     4645     4588     4549 
    4526     4527     4561     4641     4753     4868     5011     5233 
    5513     5787     6033     6224     6362     6461     6486     6438 
    6374     6313     6261     6208     6129     6042     5977     5900 
    5787     5644     5497     5389     5313     5238     5173     5148 
    5169     5221     5279     5328     5364     5375     5362     5327 
    5240     5101     4939     4772     4633     4544     4463     4382 
    4337     4342     4395     4479     4553     4600     4612     4572 
    4468     4307     4131     3982     3850     3697     3542     3422 
    3337     3284     3271     3302     3376     3480     3605     3773 
    4016     4315     4603     4849     5070     5302     5571     5869 
    6160     6403     6605     6804     6979     7090     7149     7175 
    7167     7128     7044     6909     6751     6600     6481     6409 
    6369     6320     6254     6204     6184     6169     6143     6126 
    6111     6075     6012     5941     5879     5811     5734     5688 
    5702     5763     5857     5973     6091     6203     6288     6340 
    6376     6378     6319     6230     6150     6092     6058     6066 
    6157     6323     6511     6694     6886     7092     7319     7557 
    7788     7992     8166     8334     8486     8575     8610     8617 
    8587     8492     8324     8098     7875     7684     7495     7288 
    7083     6879     6679     6482     6280     6085     5945     5854 
    5805     5810     5859     5934     6019     6075     6085     6042 
    5902     5660     5354     5000     4619     4236     3865     3524 
    3231     2997     2812     2648     2512     2430     2386     2351 
    2315     2270     2249     2289     2374     2471     2590     2729 
    2889     3080     3277     3438     3585     3730     3855     3977 
    4114     4264     4429     4595     4731     4835     4931     5028 
    5134     5243     5375     5544     5721     5861     5946     5977 
    5995     6046     6114     6158     6187     6227     6278     6307 
    6284     6218     6118     5976     5790     5553     5293     5058 
    4850     4645     4463     4309     4159     4033     3944     3867 
    3809     3797     3835     3933     4106     4347     4627     4923 
    5250     5610     5950     6235     6485     6710     6918     7125 
    7326     7545     7807     8094     8390     8702     9000     9244 
    9401     9460     9444     9378     9290     9208     9120     9012 
    8892     8754     8588     8413     8225     7993     7720     7415 
    7068     6683     6268     5821     5355     4901     4476     4082 
    3734     3449     3215     3014     2857     2760     2705     2677 
    2689     2741     2817     2922     3068     3222     3333     3391 
    3414     3411     3399     3387     3361     3352     3408     3524 
    3685     3888     4116     4347     4587     4862     5208     5647 
    6168     6747     7358     7971     8541     9049     9510     9940 
   10341    10700    10980    11156    11227    11217    11140    10998 
   10805    10573    10303    10008     9683     9316     8904     8437 
    7940     7465     7024     6604     6226     5929     5721     5590 
    5510     5437     5356     5282     5200     5093     4950     4752 
    4507     4234     3959     3730     3559     3437     3368     3339 
    3321     3306     3289     3295     3352     3426     3473     3507 
    3555     3626     3727     3847     3959     4045     4121     4189 
    4234     4259     4274     4279     4270     4243     4199     4128 
    4032     3920     3807     3713     3667     3700     3834     4050 
    4324     4657     5016     5354     5663     5925     6116     6269 
    6380     6428     6451     6494     6565     6654     6756     6843 
    6887     6897     6909     6928     6939     6941     6933     6906 
    6867     6814     6754     6728     6751     6781     6809     6839 
    6867     6907     6986     7107     7257     7411     7541     7630 
    7659     7619     7499     7272     6939     6555     6169     5782 
    5408     5049     4698     4387     4136     3925     3746     3611 
    3511     3427     3346     3276     3225     3187     3167     3136 
    3053     2938     2845     2776     2725     2683     2620     2536 
    2477     2457     2473     2532     2620     2695     2760     2859 
    2999     3175     3392     3642     3910     4195     4506     4828 
    5128     5378     5580     5753     5910     6064     6226     6411 
    6628     6870     7096     7296     7501     7728     7975     8229 
    8464     8680     8885     9069     9234     9386     9532     9656 
    9715     9701     9634     9525     9362     9123     8761     8262 
    7662     7017     6358     5680     4974     4261     3568     2903 
    2277     1705     1210      810      511      309      194      197 
     330      569      892     1267     1625     1953     2300     2682 
    3090     3535     4020     4541     5108     5699     6281     6849 
    7389     7873     8284     8622     8899     9136     9348     9537 
    9687     9769     9805     9832     9823     9763     9688     9587 
    9466     9369     9277     9165     9045     8920     8788     8653 
    8500     8299     8056     7788     7499     7199     6887     6556 
    6204     5813     5390     4951     4490     4023     3592     3206 
    2862     2597     2432     2370     2412     2531     2683     2872 
    3096     3337     3581     3828     4075     4286     4452     4615 
    4773     4891     4970     5026     5084     5178     5312     5456 
    5584     5680     5748     5817     5903     5988     6039     6077 
    6119     6145     6154     6164     6176     6203     6249     6284 
    6296     6313     6350     6401     6450     6467     6439     6373 
    6276     6173     6079     5979     5869     5779     5721     5678 
    5653     5660     5663     5628     5552     5460     5382     5344 
    5351     5395     5471     5568     5679     5806     5937     6057 
    6158     6239     6304     6355     6390     6409     6424     6426 
    6405     6365     6289     6176     6045     5895     5718     5544 
    5386     5231     5088     4968     4885     4842     4826     4828 
    4846     4870     4892     4888     4885     4931     5004     5089 
    5206     5340     5440     5498     5526     5512     5436     5301 
    5124     4911     4668     4438     4266     4143     4039     3948 
    3870     3809     3759     3709     3667     3632     3600     3607 
    3677     3790     3913     4041     4167     4282     4388     4490 
    4568     4621     4676     4741     4792     4824     4846     4849 
    4843     4861     4903     4961     5027     5101     5190     5304 
    5449     5629     5823     6016     6218     6428     6654     6879 
    7082     7250     7388     7520     7662     7797     7919     8040 
    8163     8301     8461     8596     8688     8765     8811     8796 
    8725     8625     8526     8437     8352     8278     8210     8127 
    8014     7871     7713     7553     7364     7119     6824     6493 
    6141     5773     5421     5121     4857     4599     4364     4160 
    3969     3796     3666     3581     3531     3496     3450     3402 
    3370     3358     3354     3354     3366     3414     3512     3669 
    3882     4120     4348     4575     4801     5038     5287     5528 
    5749     5958     6147     6328     6523     6736     6975     7240 
    7520     7793     8029     8221     8376     8486     8529     8500 
    8417     8290     8127     7938     7750     7577     7388     7171 
    6949     6733     6502     6239     5946     5621     5269     4915 
    4568     4220     3869     3508     3134     2755     2390     2039 
    1699     1381     1107      876      687      552      477      459 
     473      522      614      750      940     1189     1475     1807 
    2199     2624     3092     3624     4206     4835     5509     6180 
    6822     7435     8006     8536     9024     9483     9933    10373 
   10779    11152    11500    11789    11981    12071    12069    11981 
   11801    11543    11242    10885    10466    10026     9556     9047 
    8529     8006     7479     6957     6440     5930     5444     4986 
    4567     4187     3840     3542     3285     3042     2828     2643 
    2475     2339     2211     2095     2052     2062     2074     2115 
    2180     2223     2249     2273     2288     2293     2288     2286 
    2290     2295     2316     2361     2419     2527     2689     2882 
    3136     3451     3808     4222     4685     5161     5632     6085 
    6534     7001     7453     7875     8307     8748     9175     9579 
    9921    10196    10428    10606    10721    10785    10805    10787 
   10717    10596    10440    10245    10014     9774     9525     9271 
    9046     8838     8611     8356     8063     7724     7354     6951 
    6512     6050     5589     5142     4703     4264     3838     3442 
    3071     2735     2448     2184     1923     1675     1420     1150 
     896      656      430      255      139       59       21       48 
     155      338      583      870     1193     1529     1869     2234 
    2623     3010     3408     3835     4279     4749     5224     5656 
    6042     6392     6701     6983     7244     7465     7659     7834 
    7997     8170     8353     8556     8768     8943     9086     9224 
    9336     9428     9512     9575     9630     9688     9717     9713 
    9686     9602     9452     9243     8966     8629     8244     7836 
    7439     7051     6679     6359     6077     5819     5605     5401 
    5157     4877     4583     4280     3983     3699     3430     3176 
    2945     2766     2633     2516     2416     2316     2204     2111 
    2038     1975     1922     1858     1782     1706     1624     1549 
    1501     1490     1524     1588     1702     1904     2193     2552 
    2986     3451     3917     4379     4827     5267     5706     6129 
    6532     6922     7291     7641     7973     8280     8568     8839 
    9101     9362     9628     9896    10166    10408    10590    10708 
   10764    10774    10758    10723    10673    10602    10489    10309 
   10065     9778     9454     9081     8667     8232     7800     7369 
    6903     6403     5888     5370     4874     4421     3987     3596 
    3276     3014     2802     2658     2569     2512     2471     2442 
    2411     2362     2311     2281     2272     2285     2316     2326 
    2304     2254     2172     2070     1965     1857     1764     1696 
    1671     1705     1780     1880     2025     2215     2428     2673 
    2959     3272     3632     4045     4471     4905     5390     5927 
    6486     7044     7593     8113     8587     9024     9424     9779 
   10102    10401    10681    10929    11152    11344    11458    11488 
   11454    11350    11184    10982    10736    10446    10122     9767 
    9393     9005     8591     8154     7695     7219     6745     6265 
    5792     5364     4962     4569     4218     3885     3569     3310 
    3092     2880     2690     2540     2440     2400     2408     2461 
    2547     2635     2716     2799     2895     3024     3180     3343 
    3526     3712     3856     3977     4097     4198     4291     4392 
    4503     4638     4808     4988     5169     5343     5494     5617 
    5725     5833     5950     6077     6214     6347     6462     6546 
    6602     6651     6686     6682     6656     6628     6582     6535 
    6513     6496     6484     6482     6473     6444     6412     6390 
    6373     6343     6288     6204     6085     5950     5811     5651 
    5475     5302     5136     4982     4851     4738     4637     4541 
    4437     4325     4217     4122     4075     4093     4145     4224 
    4322     4434     4569     4722     4874     5042     5225     5429 
    5663     5907     6135     6349     6548     6710     6843     6963 
    7053     7094     7096     7075     7036     6984     6928     6874 
    6818     6762     6712     6652     6588     6532     6470     6405 
    6366     6357     6381     6430     6473     6507     6527     6504 
    6447     6394     6331     6254     6196     6165     6133     6087 
    6048     6030     6025     6016     5991     5930     5844     5744 
    5616     5478     5354     5219     5090     4992     4884     4762 
    4661     4567     4483     4434     4399     4368     4355     4361 
    4378     4398     4407     4392     4348     4295     4244     4198 
    4155     4124     4117     4137     4187     4259     4338     4411 
    4487     4587     4696     4810     4946     5097     5231     5336 
    5428     5526     5624     5703     5767     5818     5852     5860 
    5842     5814     5788     5753     5692     5611     5512     5401 
    5301     5201     5076     4934     4792     4668     4564     4480 
    4452     4492     4575     4688     4842     5030     5250     5503 
    5775     6039     6285     6523     6758     6979     7183     7366 
    7522     7636     7708     7753     7781     7790     7781     7744 
    7686     7624     7549     7465     7375     7275     7182     7101 
    7025     6968     6944     6949     6968     6974     6952     6899 
    6804     6666     6512     6349     6164     5962     5756     5549 
    5344     5127     4892     4661     4455     4270     4091     3919 
    3763     3638     3542     3474     3415     3361     3331     3322 
    3331     3372     3435     3526     3651     3790     3939     4104 
    4267     4423     4572     4703     4839     4993     5143     5282 
    5409     5508     5586     5652     5697     5732     5773     5802 
    5832     5879     5930     5981     6034     6069     6093     6114 
    6127     6137     6127     6085     6029     5967     5906     5861 
    5814     5749     5661     5555     5432     5300     5169     5046 
