Origin Time       2025/01/13 21:19:00
Lat.              31.8
Long.             131.6
Depth. (km)       30
Mag.              6.9
Station Code      EHM001
Station Lat.      33.9788
Station Long.     133.5494
Station Height(m) 25
Record Time       2025/01/13 21:21:01
Sampling Freq(Hz) 100Hz
Duration Time(s)  81
Dir.              U-D
Scale Factor      7845(gal)/8223790
Max. Acc. (gal)   1.394
Last Correction   2025/01/13 21:21:02
Memo.             
[...]
   14937    14964    14987    14987    14982    14939    14844    14832 
   14916    14931    14885    14879    14850    14775    14758    14789 
   14833    14906    14967    14998    15017    14991    14958    14972 
   14953    14887    14868    14867    14840    14850    14904    14962 
   15024    15080    15113    15149    15207    15255    15282    15302 
   15338    15379    15365    15311    15268    15228    15205    15221 
   15234    15215    15218    15264    15314    15342    15330    15288 
   15242    15182    15122    15079    15007    14960    15010    15066 
   15049    15044    15076    15078    15061    15105    15153    15129 
   15103    15118    15094    15016    14970    14964    14958    14958 
   14941    14887    14847    14845    14868    14894    14904    14918 
   14966    15022    15043    15043    15047    15034    14986    14908 
   14872    14908    14922    14913    14939    14929    14877    14855 
   14841    14832    14879    14905    14870    14883    14947    14999 
   15074    15142    15142    15106    15071    15063    15114    15144 
   15098    15061    15056    15066    15101    15125    15133    15153 
   15148    15121    15151    15219    15259    15267    15265    15253 
   15233    15201    15165    15142    15105    15049    15020    14998 
   14949    14904    14894    14910    14920    14897    14883    14922 
   14974    15009    15043    15052    15045    15099    15202    15256 
   15264    15275    15280    15275    15267    15225    15190    15234 
   15294    15295    15267    15228    15156    15084    15072    15103 
   15086    15036    15037    15037    14994    14995    15016    14990 
   14995    15051    15087    15105    15125    15164    15205    15213 
   15230    15288    15326    15322    15292    15219    15147    15136 
   15130    15117    15182    15265    15282    15298    15322    15298 
   15272    15271    15237    15221    15259    15267    15259    15265 
   15217    15115    15022    14940    14868    14804    14723    14643 
   14561    14476    14428    14404    14369    14339    14308    14270 
   14258    14285    14361    14485    14604    14698    14760    14783 
   14818    14886    14945    15010    15102    15187    15256    15315 
   15356    15411    15480    15496    15502    15550    15537    15442 
   15406    15429    15423    15423    15445    15435    15404    15364 
   15277    15186    15153    15128    15082    15068    15061    15032 
   15022    15013    14989    15007    15057    15097    15161    15222 
   15236    15248    15255    15228    15248    15309    15317    15311 
   15318    15273    15222    15238    15275    15260    15207    15172 
   15147    15087    15030    15036    15067    15059    15041    15013 
   14941    14899    14910    14866    14778    14752    14771    14793 
   14814    14806    14789    14796    14786    14758    14762    14785 
   14779    14781    14806    14812    14791    14766    14752    14800 
   14918    15001    15005    15030    15063    15032    14989    14979 
   14987    15003    15016    15022    15013    14982    14928    14891 
   14926    14982    14970    14949    14972    14968    14940    14943 
   14958    14986    15029    15056    15064    15059    15005    14948 
   14962    14995    15022    15086    15157    15191    15196    15169 
   15110    15063    15048    15039    15047    15084    15118    15157 
   15199    15199    15178    15160    15148    15180    15229    15246 
   15276    15346    15417    15456    15452    15425    15419    15429 
   15411    15394    15415    15422    15402    15422    15450    15417 
   15345    15280    15218    15128    15013    14956    14983    15013 
   15006    14968    14908    14874    14859    14821    14774    14740 
   14725    14743    14773    14783    14790    14801    14812    14805 
   14790    14802    14808    14791    14779    14742    14688    14651 
   14600    14550    14559    14598    14625    14632    14594    14553 
   14580    14628    14646    14647    14611    14565    14566    14586 
   14605    14647    14697    14729    14743    14747    14767    14791 
   14785    14778    14833    14913    14960    15007    15080    15145 
   15183    15209    15230    15229    15234    15295    15341    15331 
   15372    15453    15471    15495    15585    15620    15576    15543 
   15518    15481    15453    15403    15349    15365    15396    15349 
   15273    15221    15169    15151    15180    15213    15241    15288 
   15341    15377    15368    15315    15272    15263    15250    15206 
   15133    15076    15047    14990    14921    14887    14855    14810 
   14800    14814    14802    14787    14814    14840    14832    14828 
   14818    14810    14821    14800    14762    14754    14747    14756 
   14779    14763    14751    14766    14764    14779    14820    14862 
   14899    14909    14908    14955    15012    15017    15002    15017 
   15021    14976    14922    14909    14944    14978    14967    14966 
   14999    14989    14935    14894    14870    14885    14953    15029 
   15093    15136    15128    15093    15079    15086    15101    15132 
   15134    15088    15070    15113    15161    15179    15195    15219 
   15221    15206    15203    15198    15172    15138    15124    15134 
   15134    15130    15168    15217    15215    15199    15201    15194 
   15203    15250    15265    15214    15175    15178    15187    15209 
   15234    15252    15295    15356    15408    15468    15504    15495 
   15493    15526    15546    15527    15496    15479    15466    15454 
   15461    15472    15441    15360    15269    15205    15163    15124 
   15091    15072    15056    15036    15017    15005    14970    14899 
   14860    14874    14875    14885    14951    14994    14972    14975 
   15022    15007    14924    14897    14949    15003    15051    15084 
   15068    15020    14976    14959    14967    14928    14841    14825 
   14866    14866    14856    14881    14898    14890    14883    14893 
   14935    14983    15001    14998    14999    15001    15017    15074 
   15161    15230    15259    15264    15283    15331    15350    15327 
   15342    15388    15376    15326    15303    15291    15252    15217 
   15219    15201    15118    15039    14995    14939    14871    14840 
   14818    14796    14805    14802    14760    14754    14779    14767 
   14728    14692    14658    14665    14717    14742    14744    14789 
   14828    14820    14820    14871    14929    14940    14939    14971 
   15010    15039    15074    15106    15124    15151    15182    15186 
   15175    15175    15192    15253    15319    15333    15331    15338 
   15345    15363    15364    15358    15368    15372    15380    15406 
   15388    15334    15311    15288    15246    15245    15250    15217 
   15195    15183    15137    15093    15056    15018    14994    14966 
   14910    14850    14820    14812    14813    14847    14908    14945 
   14951    14948    14970    15026    15080    15114    15134    15125 
   15130    15206    15261    15246    15250    15264    15242    15248 
   15288    15313    15338    15384    15400    15372    15352    15336 
   15298    15236    15155    15088    15079    15072    15043    15057 
   15090    15086    15078    15083    15095    15101    15061    15014 
   14990    14962    14939    14922    14890    14864    14831    14783 
   14752    14733    14735    14774    14806    14823    14867    14918 
   14925    14935    15007    15082    15093    15057    15005    14987 
   15034    15068    15063    15067    15061    15048    15060    15057 
   15037    15053    15094    15125    15142    15122    15072    15060 
   15060    15020    14989    14991    14967    14939    14966    14998 
   15003    15040    15072    15045    15017    15028    15028    15017 
   15032    15033    15012    14994    14974    14966    14980    14982 
   14955    14922    14889    14887    14939    14972    14970    14986 
   15025    15043    15036    15017    14985    14945    14926    14932 
   14940    14931    14914    14910    14883    14821    14773    14747 
   14733    14764    14787    14751    14729    14746    14760    14790 
   14836    14889    14958    15017    15063    15094    15090    15080 
   15095    15109    15111    15118    15140    15168    15187    15190 
   15186    15187    15191    15178    15160    15152    15159    15183 
   15188    15176    15178    15191    15207    15221    15217    15213 
   15215    15201    15171    15155    15148    15138    15125    15102 
   15087    15111    15155    15163    15142    15152    15186    15199 
   15194    15203    15218    15184    15118    15079    15048    14999 
   14976    14971    14925    14877    14874    14874    14879    14899 
   14897    14893    14899    14889    14895    14935    14943    14937 
   14955    14951    14929    14931    14940    14960    14991    15003 
   15025    15078    15122    15160    15195    15194    15180    15180 
   15161    15147    15157    15141    15113    15130    15149    15124 
   15109    15124    15115    15093    15090    15091    15076    15051 
   15032    15017    14985    14943    14928    14916    14886    14885 
   14925    14941    14912    14894    14905    14887    14852    14844 
   14829    14790    14774    14787    14777    14739    14728    14752 
   14794    14836    14858    14877    14895    14883    14862    14855 
   14856    14870    14877    14863    14843    14814    14785    14767 
   14760    14752    14747    14763    14801    14841    14874    14885 
   14877    14878    14878    14875    14897    14909    14897    14901 
   14912    14908    14916    14941    14963    14990    15040    15101 
   15163    15226    15277    15306    15322    15340    15367    15414 
   15485    15553    15580    15570    15552    15535    15529    15516 
   15465    15392    15323    15249    15174    15110    15040    14959 
   14910    14894    14848    14770    14717    14709    14713    14716 
   14742    14786    14832    14887    14948    15001    15063    15122 
   15169    15232    15302    15358    15406    15403    15369    15376 
   15388    15356    15323    15302    15276    15273    15284    15272 
   15233    15187    15164    15180    15188    15167    15164    15183 
   15184    15176    15176    15161    15155    15175    15178    15149 
   15132    15130    15134    15140    15111    15063    15053    15060 
   15040    14997    14941    14889    14889    14935    14970    14997 
   15032    15057    15087    15130    15161    15195    15238    15250 
   15241    15283    15345    15368    15369    15354    15325    15319 
   15333    15331    15323    15325    15319    15295    15288    15300 
   15296    15265    15215    15163    15126    15095    15036    14949 
   14874    14818    14773    14732    14690    14642    14608    14586 
   14563    14575    14632    14682    14702    14735    14787    14847 
   14917    14980    15026    15072    15117    15137    15153    15192 
   15230    15219    15199    15210    15214    15236    15294    15333 
   15349    15358    15356    15369    15391    15381    15352    15314 
   15276    15241    15194    15140    15098    15047    14983    14948 
   14944    14922    14872    14833    14825    14817    14810    14816 
   14814    14793    14781    14794    14821    14832    14829    14854 
   14901    14933    14968    15017    15030    15030    15064    15113 
   15151    15207    15275    15325    15352    15357    15352    15346 
   15330    15313    15300    15273    15237    15207    15168    15109 
   15071    15036    14952    14875    14851    14824    14793    14801 
   14806    14774    14756    14759    14758    14767    14777    14760 
   14721    14694    14705    14705    14655    14615    14611    14597 
   14575    14570    14578    14600    14627    14640    14661    14701 
   14723    14719    14716    14719    14739    14790    14845    14875 
   14890    14918    14945    14971    15018    15064    15101    15161 
   15237    15292    15344    15402    15441    15469    15510    15549 
   15560    15554    15546    15523    15493    15469    15421    15338 
   15260    15202    15153    15098    15032    14972    14940    14917 
   14885    14854    14810    14733    14663    14634    14620    14598 
   14581    14589    14611    14624    14634    14638    14621    14604 
   14609    14623    14644    14708    14805    14902    14976    15026 
   15088    15155    15187    15210    15257    15296    15304    15322 
   15363    15392    15414    15462    15527    15581    15618    15641 
   15664    15696    15731    15758    15770    15762    15736    15703 
   15669    15643    15620    15591    15576    15572    15552    15525 
   15491    15445    15403    15380    15360    15323    15290    15263 
   15225    15182    15140    15087    15037    14995    14956    14926 
   14899    14875    14875    14882    14878    14887    14904    14914 
   14918    14922    14944    14967    14975    14983    14980    14960 
   14948    14959    14962    14940    14932    14939    14939    14959 
   15013    15087    15182    15269    15319    15349    15375    15391 
   15403    15419    15425    15415    15392    15349    15299    15246 
   15192    15145    15093    15021    14947    14870    14778    14689 
   14602    14494    14386    14297    14210    14130    14057    13983 
   13917    13867    13828    13803    13787    13765    13733    13706 
   13684    13652    13613    13587    13589    13613    13655    13710 
   13768    13825    13884    13954    14041    14131    14207    14281 
   14374    14461    14528    14621    14762    14902    15028    15163 
   15307    15435    15537    15623    15703    15766    15809    15846 
   15885    15927    15966    15998    16032    16069    16109    16146 
   16159    16151    16140    16119    16079    16054    16020    15950 
   15876    15822    15766    15708    15658    15599    15515    15427 
   15345    15249    15149    15067    14993    14910    14823    14755 
   14717    14698    14685    14675    14678    14698    14739    14790 
   14827    14855    14905    14959    15007    15072    15156    15248 
   15361    15485    15587    15662    15746    15846    15940    16012 
   16081    16154    16217    16276    16329    16359    16380    16405 
   16394    16345    16286    16224    16156    16081    16000    15920 
   15836    15757    15685    15601    15512    15445    15403    15368 
   15325    15265    15207    15164    15106    15016    14921    14847 
   14793    14754    14724    14693    14643    14588    14551    14504 
   14434    14381    14339    14291    14266    14262    14249    14215 
   14184    14180    14179    14150    14118    14089    14062    14056 
   14062    14064    14080    14121    14156    14188    14231    14264 
   14278    14312    14353    14373    14409    14476    14534    14574 
   14621    14683    14740    14793    14872    14966    15036    15109 
   15199    15268    15337    15439    15538    15612    15684    15754 
   15809    15838    15827    15795    15768    15746    15704    15646 
   15597    15564    15515    15448    15379    15306    15221    15151 
   15111    15086    15056    15016    14964    14925    14902    14874 
   14848    14837    14821    14813    14823    14825    14833    14845 
   14837    14814    14785    14737    14677    14619    14554    14470 
   14396    14342    14278    14200    14115    14029    13972    13942 
   13925    13933    13956    13971    13990    14038    14091    14118 
   14138    14170    14212    14270    14345    14426    14528    14651 
   14760    14852    14960    15072    15165    15257    15345    15418 
   15496    15589    15669    15726    15785    15853    15911    15946 
   15958    15958    15946    15916    15876    15826    15777    15751 
   15743    15718    15672    15620    15576    15545    15525    15512 
   15502    15488    15495    15515    15515    15507    15515    15527 
   15535    15552    15564    15568    15584    15595    15584    15583 
   15596    15596    15591    15591    15581    15580    15581    15538 
   15473    15427    15373    15315    15272    15213    15148    15103 
   15052    14998    14980    14982    14983    14991    15002    15016 
   15037    15036    15005    14976    14945    14905    14859    14802 
   14746    14694    14638    14584    14547    14535    14550    14592 
   14648    14706    14759    14818    14885    14941    14999    15080 
   15167    15229    15273    15310    15330    15337    15341    15349 
   15369    15377    15367    15372    15380    15364    15358    15368 
   15353    15331    15326    15329    15334    15338    15330    15319 
   15322    15327    15327    15319    15298    15275    15265    15248 
   15210    15172    15134    15083    15024    14964    14905    14843 
   14779    14715    14654    14604    14565    14531    14494    14461 
   14438    14420    14396    14377    14378    14391    14420    14465 
   14515    14570    14634    14712    14802    14885    14980    15090 
   15178    15252    15325    15379    15427    15477    15504    15514 
   15529    15531    15512    15489    15460    15419    15390    15353 
   15295    15242    15206    15167    15129    15091    15047    14985 
   14916    14863    14821    14774    14728    14683    14632    14592 
   14578    14573    14557    14540    14539    14540    14532    14539 
   14573    14621    14665    14698    14746    14802    14860    14931 
   15010    15080    15145    15222    15294    15327    15337    15356 
   15379    15384    15394    15426    15445    15444    15442    15445 
   15442    15446    15466    15469    15444    15412    15377    15336 
   15294    15264    15233    15194    15175    15179    15159    15121 
   15094    15061    15028    15009    14972    14920    14887    14866 
   14820    14758    14720    14693    14639    14578    14542    14496 
   14426    14359    14310    14269    14231    14192    14164    14157 
   14164    14173    14193    14230    14285    14355    14427    14501 
   14578    14654    14743    14843    14939    15040    15151    15234 
   15275    15306    15348    15391    15425    15442    15466    15523 
   15580    15622    15665    15708    15745    15769    15780    15793 
   15803    15784    15742    15697    15655    15619    15583    15553 
   15522    15475    15425    15377    15321    15271    15240    15192 
   15121    15055    15003    14970    14951    14912    14847    14791 
   14742    14678    14615    14566    14521    14467    14412    14366 
   14332    14318    14318    14319    14331    14362    14407    14461 
   14521    14581    14632    14702    14790    14878    14980    15095 
   15198    15290    15388    15484    15561    15610    15642    15673 
   15695    15703    15714    15714    15664    15589    15519    15441 
   15371    15325    15286    15242    15190    15128    15074    15039 
   15010    14993    14987    14976    14962    14967    14994    15025 
   15075    15149    15228    15310    15404    15493    15568    15631 
   15685    15719    15746    15778    15797    15796    15793    15777 
   15742    15711    15685    15651    15607    15552    15493    15437 
   15368    15299    15245    15187    15121    15053    14975    14895 
