Origin Time       2025/01/13 21:19:00
Lat.              31.8
Long.             131.6
Depth. (km)       30
Mag.              6.9
Station Code      EHM002
Station Lat.      33.9211
Station Long.     133.3079
Station Height(m) 63
Record Time       2025/01/13 21:21:02
Sampling Freq(Hz) 100Hz
Duration Time(s)  60
Dir.              N-S
Scale Factor      7845(gal)/8223790
Max. Acc. (gal)   1.392
Last Correction   2025/01/13 21:21:03
Memo.             
[...]
     573      309      372      506      591      550      400      282 
     216       16     -220       71      673      712      444      492 
     635      662      537      234       95      226      371      461 
     464      508      801      862      345      -40      159      461 
     480      279      -16     -189       22      492      735      560 
     386      549      722      511      259      535     1035     1063 
     788      723      818      780      538      302      337      575 
     742      872     1008      913      583      444      778     1152 
    1021      641      480      595      874     1000      819      700 
     820      970     1055     1011      781      575      575      653 
     753      982     1094      781      356      238      384      580 
     599      500      625      882      985      958      851      672 
     483      515      932     1146      680      264      508      831 
     733      596      718      799      658      496      541      807 
     876      541      369      751     1314     1486     1162      926 
    1155     1490     1545     1254      857      675      664      661 
     622      596      648      594      473      610      789      818 
     946      988      747      652      895     1142     1090      769 
     464      453      627      615      549      754      866      486 
       2       63      616      862      481      110      209      492 
     549      444      548      828      899      652      359      423 
     862     1070      788      564      692      886      942      830 
     634      615      868     1194     1291     1067      841      762 
     608      432      521      729      635      361      330      448 
     506      618      700      579      417      464      692      909 
    1077     1129      853      504      577      888      986      851 
     507      103      236      916     1105      552      373      816 
     949      703      629      729      957     1197     1173     1038 
     882      572      387      523      648      612      688      943 
    1097      950      575      287      436      886     1111      896 
     500      287      398      675      923     1078     1030      773 
     637      720      703      530      444      441      453      556 
     692      700      554      429      598     1000     1105      750 
     433      369      348      318      271      295      558      687 
     469      450      710      777      642      535      526      546 
     546      513      342      275      544      661      427      317 
     491      706      742      668      645      691      837      873 
     564      399      749     1051      851      486      476      819 
    1094     1075      823      529      488      708      746      511 
     417      515      585      729      973      982      679      517 
     689      854      800      611      575      853      993      662 
     234       71      218      533      568      189      -16      275 
     565      494      356      369      371      278      168       75 
      14      -14      -21       98      315      345      202      187 
     369      579      518      176       70      311      390      144 
      -9      213      589      758      615      333      180      183 
     171      198      298      329      319      310      214      112 
     183      334      295      153      118      103      156      255 
      89     -103      109      299       39     -160      148      437 
     260      153      376      469      496      652      626      440 
     356      383      445      492      498      351       78       31 
     230      402      514      490      378      492      657      504 
     240      222      467      643      521      338      278      251 
     297      430      483      396      344      395      464      576 
     626      481      387      500      618      675      747      688 
     430      342      544      607      499      622      877      957 
     920      828      756      807      832      747      703      760 
     895     1034     1017      822      652      673      830     1016 
    1129     1026      849      837      783      558      461      579 
     743      868      854      688      653      849      861      545 
     337      465      714      853      791      580      506      696 
     885      853      757      882     1150     1216     1119     1182 
    1426     1541     1339     1046      980      993      760      526 
     677      901      826      716      841      973      835      639 
     685      751      658      584      591      642      649      468 
     238      237      425      481      240       -2       82      292 
     353      442      635      724      702      615      499      515 
     652      652      465      338      386      479      625      905 
    1082      899      604      583      783      893      832      749 
     801      962      976      729      503      499      530      544 
     703      830      683      523      575      712      812      754 
     550      530      858     1139     1051      911     1005     1182 
    1278     1231     1109     1140     1301     1351     1301     1309 
    1337     1394     1467     1316     1069     1109     1283     1290 
    1181     1113     1121     1156     1208     1267     1262     1212 
    1188     1152     1119     1167     1228     1147      924      746 
     757      858      880      846      908     1036     1034      903 
     820      899     1048     1013      807      639      526      529 
     737      957      951      739      625      808     1011      911 
     629      513      596      562      423      456      521      403 
     278      292      340      332      346      403      346      264 
     367      457      326      225      409      653      599      427 
     515      741      849      807      768      939     1181     1179 
    1000      912      972      982      876      862      969     1026 
    1125     1235     1051      729      677      818      859      839 
     884      955      999      931      745      684      830      928 
     907      951      974      816      773     1013     1201     1181 
    1146     1200     1240     1105      837      770     1062     1259 
     955      577      625      827      750      481      438      723 
     889      704      507      527      558      396      230      255 
     238      117      172      322      265       81       85      274 
     324      340      546      572      373      340      371      336 
     403      535      580      587      727      924      936      842 
     876     1007     1074     1043      963      911      950      982 
     864      703      634      653      723      689      521      519 
     768      957      885      653      500      498      492      473 
     477      365      179      125      194      279      282      189 
     164      263      395      517      572      572      575      585 
     592      494      284      117      -12     -108      -74       24 
      83      103      121      147      113       36      132      365 
     291      -28      -27      248      324      182       29       -6 
     139      248      147       48       27      -55     -149     -222 
    -336     -426     -454     -467     -542     -629     -494     -255 
    -294     -494     -575     -538     -364     -140      -48       25 
     159      144       35      126      329      356      290      353 
     515      660      757      774      750      791      872      882 
     885     1063     1336     1449     1363     1194     1151     1350 
    1510     1424     1252     1116     1102     1259     1409     1459 
    1436     1355     1335     1383     1378     1352     1347     1286 
    1167     1084     1102     1156     1134     1102     1112     1112 
    1173     1215     1032      783      761      957     1121     1075 
     950      911      853      747      738      724      585      487 
     508      511      473      418      292      162      103       67 
      68      163      260      183      -40     -129       31      234 
     256      135      105      132       40       29      251      492 
     623      675      757      951     1128     1193     1215     1297 
    1475     1575     1463     1262     1154     1256     1405     1333 
    1143     1043     1069     1179     1301     1379     1377     1426 
    1642     1707     1462     1255     1297     1471     1590     1603 
    1656     1776     1794     1682     1603     1632     1657     1607 
    1540     1551     1629     1613     1487     1510     1698     1695 
    1399     1129     1102     1179     1161     1035      901      868 
     926      922      824      653      409      375      662      832 
     751      730      792      815      891      980      877      652 
     546      541      564      649      680      627      700      870 
     949     1026     1142     1053      780      649      687      711 
     706      615      395      280      373      407      305      286 
     346      326      260      270      363      477      542      483 
     373      380      432      382      324      390      506      558 
     568      587      548      456      459      514      476      384 
     298      276      369      448      452      419      355      319 
     322      314      360      433      392      288      297      376 
     351      261      194      114       89      137      135      110 
     139      113      -45     -197     -166      -86     -125     -130 
     -35      -78     -248     -236     -141     -243     -353     -288 
    -226     -251     -276     -272     -248     -189      -58       60 
      98      187      297      283      299      409      456      490 
     576      611      573      560      679      839      781      592 
     537      558      557      604      735      839      803      720 
     708      762      842      889      908      945     1031     1193 
    1347     1426     1497     1548     1560     1541     1447     1324 
    1248     1193     1197     1304     1382     1327     1200     1082 
     961      816      738      742      704      639      619      611 
     599      591      534      419      301      172        1     -116 
    -124      -36      170      326      263      178      306      575 
     754      742      687      743      881     1012     1084     1127 
    1166     1140     1113     1167     1220     1243     1216     1100 
    1020     1007      900      773      830      918      773      546 
     486      562      672      753      791      827      858      911 
    1047     1147     1117     1080     1053      989     1024     1167 
    1174     1038      994     1067     1121     1102     1016      912 
     893      959      958      874      822      796      742      645 
     515      417      315      171       59       -8      -99     -168 
    -124      -64     -164     -351     -383     -252     -139      -74 
     -21      -52     -141     -128       10      157      238      198 
      85       59      103      118      133      151      220      371 
     400      245      189      403      691      774      653      519 
     464      496      538      433      233      157      198      233 
     297      321      193       89      117      137      182      368 
     579      688      757      758      627      580      774     1011 
    1107     1123     1166     1254     1351     1422     1440     1408 
    1332     1248     1202     1127      969      831      766      684 
     589      587      603      510      340      209      164      160 
     186      260      330      376      418      460      556      708 
     784      745      746      854      972     1047     1135     1227 
    1264     1302     1435     1572     1597     1609     1629     1536 
    1467     1539     1549     1437     1356     1328     1287     1225 
    1200     1213     1194     1161     1104      969      895      873 
     723      573      626      788      839      747      719      820 
     857      785      780      872      905      783      592      506 
     554      608      600      553      472      434      490      518 
     508      553      608      612      546      441      419      515 
     561      464      352      360      481      564      483      375 
     453      606      562      352      234      284      317      255 
     257      353      423      568      850     1043     1040     1042 
    1213     1401     1424     1372     1356     1375     1379     1289 
    1161     1089     1069     1085     1066     1003      970      901 
     765      656      562      457      349      224      153      182 
     203      207      229      155       32       58      135       66 
     -14       52      149      184      274      400      487      607 
     723      768      847      926      882      811      765      670 
     548      403      194       -9     -163     -349     -573     -716 
    -778     -811     -762     -675     -695     -757     -731     -664 
    -599     -467     -216      -17      -25        6      230      406 
     526      716      859      945     1057     1161     1271     1416 
    1526     1561     1599     1694     1744     1773     1896     2016 
    2076     2106     2050     1957     1900     1841     1772     1692 
    1574     1462     1371     1256     1101      928      818      724 
     531      321      237      253      255      130      -47     -164 
    -292     -444     -467     -371     -334     -356     -317     -265 
    -279     -274     -184      -64       20       74       97       64 
      85      249      411      419      356      360      386      375 
     457      638      747      778      811      846      880      908 
     936     1013     1120     1158     1117     1113     1196     1273 
    1271     1235     1224     1196     1100     1015      982      935 
     866      861      926      936      842      784      837      907 
     919      899      872      793      688      653      665      693 
     776      884      965      981      927      920      994     1040 
    1057     1131     1244     1329     1375     1413     1448     1453 
    1410     1390     1413     1390     1308     1209     1128     1117 
    1117     1031      918      841      780      731      702      672 
     622      626      743      874      965     1057     1158     1282 
    1352     1293     1239     1289     1372     1404     1336     1242 
    1242     1294     1282     1202     1132     1113     1111     1058 
     945      838      743      633      534      441      342      276 
     198       55      -58     -105     -171     -248     -247     -243 
    -334     -398     -356     -328     -326     -322     -382     -441 
    -410     -383     -422     -463     -437     -360     -349     -421 
    -406     -291     -282     -392     -452     -429     -402     -364 
    -326     -340     -310     -164      -86     -110      -28      114 
     216      365      517      549      569      653      680      612 
     565      564      550      513      522      623      729      785 
     835      869      913     1008     1058     1030     1001     1011 
    1067     1140     1197     1243     1242     1217     1255     1278 
    1210     1146     1113     1057     1013     1016     1007      984 
    1032     1073      989      935     1011     1043      992      997 
    1074     1107     1115     1181     1186     1093     1055     1063 
    1035     1043     1115     1143     1078     1048     1082     1035 
     931      881      861      839      796      710      648      657 
     676      658      618      557      471      400      422      480 
     459      400      372      372      419      433      375      391 
     488      530      488      388      353      476      591      631 
     676      680      672      714      733      691      638      665 
     762      749      610      522      538      577      571      558 
     599      650      661      604      503      473      550      612 
     552      407      326      379      494      557      467      282 
     236      376      468      403      329      338      353      305 
     247      248      284      314      334      332      310      279 
     259      337      472      503      446      410      449      548 
     576      526      526      573      633      745      881      930 
     878      888     1030     1170     1205     1150     1057     1001 
     981      908      796      724      708      710      683      648 
     630      606      625      696      684      589      565      603 
     602      558      515      495      511      561      599      604 
     637      714      757      766      789      816      904     1000 
     949      851      855      872      874      922      997     1043 
    1008      940      892      849      853      881      847      788 
     734      718      774      826      835      822      797      831 
     909      959      984      993     1019     1050     1001      947 
    1015     1132     1185     1171     1124     1121     1175     1150 
    1030      943      885      810      777      764      707      669 
     699      756      776      719      648      627      631      623 
     594      571      580      558      490      440      414      409 
     433      436      372      276      230      256      310      342 
     329      303      297      282      297      371      421      395 
     349      344      411      515      542      498      480      484 
     483      507      576      652      670      627      607      665 
     749      757      700      672      687      730      814      912 
     973      969      970     1031     1070     1063     1040      994 
     954      951      950      911      859      845      826      762 
     715      696      662      652      656      621      540      440 
     426      522      572      510      403      307      280      292 
     263      236      287      355      371      342      326      372 
     433      426      395      402      422      419      415      417 
     432      491      527      475      422      418      394      324 
     263      256      248      187      125      101       82       43 
      -4      -24        1       14      -24      -55      -25       24 
      45       20      -35      -39       24       74       81       78 
      93      179      337      467      511      517      546      616 
     692      746      762      745      769      850      899      920 
     977     1020     1008      993     1000     1000      973      935 
     928      905      820      765      770      751      723      724 
     722      723      770      823      818      757      697      703 
     756      774      726      664      652      703      772      818 
     837      853      877      864      832      869      900      846 
     818      859      861      788      715      666      631      594 
     518      441      438      490      496      409      322      334 
