Origin Time       2025/01/13 21:19:00
Lat.              31.8
Long.             131.6
Depth. (km)       30
Mag.              6.9
Station Code      EHM005
Station Lat.      33.7973
Station Long.     132.9144
Station Height(m) 136
Record Time       2025/01/13 21:20:35
Sampling Freq(Hz) 100Hz
Duration Time(s)  83
Dir.              U-D
Scale Factor      7845(gal)/8223790
Max. Acc. (gal)   2.142
Last Correction   2025/01/13 21:20:35
Memo.             
[...]
    7677     7742     7769     7777     7785     7823     7905     8016 
    8114     8210     8314     8382     8415     8457     8469     8451 
    8464     8460     8355     8202     8067     7956     7847     7682 
    7493     7360     7248     7133     7037     6939     6880     6907 
    6937     6926     6898     6845     6768     6716     6702     6706 
    6731     6783     6859     6932     6968     6949     6898     6897 
    6968     7051     7145     7260     7364     7462     7527     7537 
    7531     7520     7460     7325     7211     7204     7183     7069 
    6949     6906     6943     6995     7055     7169     7261     7288 
    7376     7558     7742     7894     8023     8094     8073     7985 
    7917     7915     7912     7850     7773     7673     7534     7439 
    7387     7296     7180     7115     7095     7020     6917     6882 
    6863     6818     6837     6945     7076     7188     7272     7346 
    7434     7510     7551     7592     7638     7659     7673     7693 
    7731     7789     7805     7763     7713     7624     7497     7384 
    7265     7155     7088     7052     7041     7026     6988     6968 
    6957     6959     6983     7002     7044     7119     7209     7321 
    7450     7568     7668     7758     7838     7867     7871     7909 
    7960     7975     7966     7975     8001     8024     8059     8101 
    8087     8035     8056     8118     8089     8014     7944     7821 
    7719     7685     7604     7483     7426     7395     7299     7215 
    7221     7229     7203     7172     7152     7157     7125     7022 
    6914     6799     6675     6588     6516     6465     6477     6489 
    6475     6527     6623     6663     6691     6754     6801     6841 
    6916     6994     7069     7182     7295     7376     7460     7520 
    7507     7500     7541     7554     7558     7576     7560     7565 
    7634     7690     7678     7663     7735     7850     7923     7973 
    8023     8063     8067     8040     8036     8009     7948     7896 
    7785     7632     7527     7430     7319     7246     7218     7214 
    7246     7317     7364     7381     7411     7443     7476     7485 
    7457     7438     7420     7362     7264     7180     7137     7065 
    6956     6848     6752     6723     6785     6885     6980     7045 
    7080     7159     7334     7526     7638     7699     7699     7657 
    7623     7545     7411     7326     7317     7330     7315     7311 
    7384     7492     7564     7626     7720     7816     7892     7952 
    7981     7939     7830     7728     7636     7488     7344     7253 
    7110     6920     6795     6727     6673     6647     6667     6777 
    6947     7084     7222     7411     7566     7663     7732     7755 
    7754     7776     7813     7839     7855     7884     7946     8070 
    8181     8178     8086     7993     7920     7823     7715     7650 
    7605     7553     7528     7539     7547     7564     7605     7607 
    7562     7541     7485     7345     7210     7138     7080     6982 
    6885     6844     6805     6745     6756     6841     6898     6889 
    6874     6886     6882     6870     6901     6941     6936     6897 
    6870     6921     7025     7094     7142     7202     7225     7223 
    7267     7338     7353     7346     7411     7483     7506     7577 
    7686     7753     7803     7855     7890     7904     7901     7917 
    7955     7973     7944     7857     7776     7735     7666     7562 
    7483     7443     7416     7361     7317     7317     7280     7191 
    7138     7132     7121     7113     7122     7125     7140     7237 
    7408     7524     7519     7503     7534     7557     7585     7605 
    7574     7528     7443     7322     7267     7236     7171     7142 
    7111     7024     6994     7092     7213     7271     7292     7315 
    7318     7310     7329     7358     7402     7489     7576     7619 
    7607     7546     7499     7480     7422     7342     7315     7329 
    7296     7219     7167     7159     7190     7257     7307     7291 
    7218     7149     7091     7010     6901     6790     6739     6745 
    6747     6751     6786     6837     6937     7099     7254     7376 
    7476     7538     7591     7608     7546     7465     7415     7372 
    7331     7300     7280     7249     7237     7291     7321     7292 
    7298     7354     7422     7468     7442     7379     7377     7368 
    7244     7144     7156     7146     7117     7196     7327     7383 
    7406     7503     7635     7708     7755     7781     7730     7685 
    7682     7616     7519     7445     7354     7280     7248     7203 
    7156     7105     7026     6970     6933     6897     6925     7018 
    7053     6980     6907     6928     6964     6947     6956     7029 
    7082     7101     7105     7094     7111     7150     7200     7257 
    7257     7211     7192     7229     7299     7318     7312     7384 
    7477     7512     7526     7580     7676     7755     7781     7782 
    7785     7765     7711     7672     7669     7674     7645     7531 
    7412     7387     7391     7388     7434     7508     7549     7520 
    7446     7381     7339     7317     7280     7215     7214     7315 
    7380     7339     7300     7315     7349     7433     7541     7585 
    7585     7554     7522     7554     7620     7666     7692     7708 
    7724     7711     7643     7550     7485     7434     7330     7171 
    6987     6832     6782     6779     6764     6787     6862     6975 
    7092     7159     7211     7273     7354     7474     7578     7665 
    7805     7938     7948     7884     7834     7794     7749     7693 
    7622     7547     7474     7400     7321     7238     7207     7221 
    7240     7323     7456     7577     7708     7803     7793     7735 
    7688     7634     7565     7514     7457     7360     7265     7230 
    7257     7318     7346     7334     7398     7551     7647     7672 
    7719     7769     7743     7676     7595     7484     7429     7427 
    7333     7217     7231     7261     7214     7219     7302     7358 
    7376     7426     7528     7580     7518     7454     7431     7345 
    7240     7226     7194     7083     6998     6940     6883     6882 
    6937     6990     7065     7192     7312     7441     7616     7792 
    7931     7977     7919     7879     7898     7901     7896     7869 
    7758     7655     7626     7588     7551     7569     7607     7650 
    7731     7878     8025     8095     8124     8127     8097     8095 
    8093     8004     7863     7720     7573     7429     7308     7242 
    7175     7072     7014     6993     6970     7018     7144     7246 
    7214     7105     7091     7175     7234     7203     7107     7038 
    6979     6887     6843     6852     6872     6955     7079     7210 
    7372     7523     7649     7746     7821     7908     7952     7925 
    7890     7850     7798     7750     7704     7655     7597     7577 
    7584     7539     7468     7445     7452     7446     7419     7366 
    7341     7368     7361     7304     7256     7241     7263     7315 
    7371     7419     7514     7649     7755     7852     7927     7938 
    7909     7869     7857     7886     7882     7819     7723     7615 
    7519     7470     7437     7346     7257     7242     7263     7302 
    7323     7322     7322     7279     7227     7203     7145     7071 
    7041     7063     7052     6998     7026     7067     7002     6974 
    7009     6974     6871     6805     6840     6897     6879     6894 
    7009     7157     7298     7387     7441     7524     7630     7703 
    7715     7684     7632     7557     7470     7384     7303     7229 
    7156     7086     7011     6953     6940     6918     6867     6841 
    6852     6912     6988     7011     7028     7122     7246     7304 
    7303     7299     7299     7331     7391     7365     7249     7188 
    7153     7026     6934     6972     7007     7007     7010     6980 
    6994     7132     7275     7312     7322     7387     7447     7473 
    7553     7689     7805     7906     8013     8079     8082     8081 
    8108     8105     8058     8016     7955     7863     7804     7785 
    7738     7657     7588     7518     7420     7356     7369     7376 
    7298     7194     7156     7194     7214     7159     7117     7132 
    7117     7095     7130     7203     7288     7368     7411     7419 
    7481     7631     7728     7758     7793     7785     7761     7770 
    7784     7827     7869     7848     7798     7731     7673     7618 
    7507     7360     7238     7136     7018     6933     6949     7011 
    7091     7204     7263     7246     7214     7152     7078     6997 
    6894     6821     6754     6620     6480     6420     6434     6462 
    6471     6494     6561     6651     6766     6933     7119     7242 
    7312     7389     7441     7466     7488     7452     7380     7352 
    7319     7245     7203     7196     7190     7211     7229     7192 
    7184     7260     7315     7303     7321     7387     7396     7321 
    7268     7265     7207     7060     6898     6775     6697     6644 
    6596     6542     6488     6492     6571     6667     6762     6902 
    7121     7307     7373     7414     7484     7533     7519     7458 
    7420     7392     7326     7268     7237     7229     7257     7308 
    7376     7439     7506     7591     7681     7781     7882     7958 
    8025     8060     8041     8008     7966     7906     7827     7742 
    7680     7630     7585     7515     7438     7439     7489     7523 
    7570     7623     7655     7703     7781     7838     7823     7782 
    7774     7770     7754     7717     7645     7580     7524     7465 
    7481     7533     7531     7539     7570     7592     7607     7581 
    7512     7431     7371     7344     7318     7298     7298     7323 
    7364     7348     7311     7348     7422     7464     7457     7435 
    7429     7420     7429     7450     7469     7547     7649     7695 
    7747     7840     7929     8000     8032     8016     7990     7979 
    7959     7921     7902     7898     7886     7862     7812     7762 
    7717     7632     7537     7443     7329     7226     7172     7159 
    7152     7134     7182     7302     7399     7430     7430     7450 
    7501     7554     7600     7628     7630     7622     7597     7522 
    7442     7411     7392     7348     7298     7308     7392     7473 
    7535     7623     7730     7785     7747     7692     7680     7657 
    7645     7682     7677     7620     7600     7603     7603     7627 
    7662     7680     7695     7707     7696     7678     7650     7604 
    7588     7566     7539     7545     7491     7361     7252     7152 
    7065     7044     7063     7101     7129     7122     7165     7275 
    7357     7403     7412     7356     7318     7326     7299     7287 
    7344     7365     7315     7299     7372     7474     7564     7634 
    7665     7695     7794     7901     7977     8073     8100     8012 
    7962     7993     8020     7992     7897     7811     7786     7758 
    7722     7719     7711     7709     7767     7823     7804     7755 
    7697     7607     7480     7330     7198     7074     6937     6858 
    6820     6764     6750     6772     6741     6678     6669     6728 
    6808     6875     6949     7052     7159     7231     7260     7287 
    7327     7358     7399     7453     7477     7495     7535     7573 
    7595     7588     7576     7622     7705     7790     7885     7951 
    7981     8006     8032     8060     8073     8094     8132     8124 
    8112     8141     8135     8067     7996     7938     7842     7700 
    7580     7465     7319     7204     7123     7032     6956     6903 
    6883     6917     6932     6898     6907     6970     7042     7099 
    7082     7014     6980     6956     6907     6871     6856     6859 
    6895     6925     6941     6968     6967     6924     6851     6758 
    6648     6488     6286     6097     5929     5765     5606     5456 
    5321     5229     5217     5240     5258     5339     5501     5665 
    5853     6096     6334     6534     6721     6916     7082     7164 
    7190     7202     7179     7113     7037     6963     6898     6872 
    6885     6903     6922     6964     7026     7105     7207     7256 
    7245     7272     7319     7323     7296     7252     7207     7177 
    7113     6991     6879     6831     6799     6729     6691     6737 
    6806     6845     6874     6934     7001     7018     7042     7109 
    7155     7207     7345     7504     7603     7674     7700     7681 
    7700     7712     7659     7591     7500     7411     7384     7364 
    7311     7272     7272     7327     7411     7450     7489     7609 
    7754     7836     7875     7897     7861     7755     7631     7531 
    7460     7358     7238     7157     7088     7034     7041     7078 
    7119     7188     7292     7439     7616     7788     7951     8125 
    8279     8344     8332     8310     8253     8124     7982     7878 
    7788     7668     7492     7302     7140     7024     6957     6901 
    6853     6835     6801     6781     6817     6840     6835     6849 
    6863     6863     6856     6879     6949     7024     7072     7117 
    7221     7381     7518     7628     7740     7817     7900     8029 
    8160     8268     8372     8476     8580     8662     8729     8843 
    9001     9124     9204     9290     9410     9521     9571     9593 
    9621     9628     9591     9516     9412     9301     9155     8957 
    8743     8559     8434     8324     8159     8006     7916     7863 
    7823     7771     7742     7742     7709     7665     7663     7672 
    7646     7605     7568     7523     7481     7462     7454     7457 
    7473     7507     7576     7672     7755     7809     7875     7990 
    8113     8210     8303     8392     8448     8480     8525     8567 
    8564     8541     8517     8440     8295     8155     8055     7959 
    7852     7740     7646     7574     7503     7441     7412     7407 
    7392     7354     7315     7269     7177     7065     6970     6866 
    6748     6646     6562     6493     6439     6389     6372     6399 
    6432     6500     6606     6674     6727     6843     6944     6976 
    7052     7184     7275     7323     7335     7292     7234     7190 
    7173     7173     7133     7040     6910     6787     6691     6561 
    6423     6342     6281     6258     6313     6415     6501     6562 
    6646     6756     6828     6863     6876     6852     6825     6814 
    6802     6783     6740     6667     6575     6474     6354     6218 
    6110     6030     5953     5913     5910     5914     5948     6057 
    6203     6296     6382     6546     6729     6883     7025     7149 
    7273     7419     7545     7622     7677     7712     7690     7645 
    7609     7546     7462     7364     7275     7268     7258     7202 
    7191     7194     7177     7172     7113     6991     6879     6763 
    6609     6457     6320     6201     6106     6034     6012     6061 
    6146     6262     6412     6552     6647     6724     6839     6956 
    7011     7040     7059     7068     7090     7095     7118     7218 
    7331     7420     7522     7643     7798     7974     8114     8206 
    8271     8334     8413     8475     8459     8382     8309     8239 
    8143     8046     7990     7951     7886     7831     7831     7894 
    7987     8073     8191     8375     8557     8708     8842     8947 
    9013     9020     8957     8839     8677     8460     8187     7885 
    7574     7258     6971     6762     6623     6516     6420     6343 
    6334     6394     6475     6565     6669     6808     6997     7211 
    7430     7659     7927     8212     8442     8617     8765     8876 
    8947     8999     9019     9004     8970     8947     8950     8943 
    8922     8888     8793     8658     8546     8410     8236     8101 
    8010     7915     7784     7630     7531     7483     7395     7265 
    7128     6979     6812     6647     6561     6513     6426     6365 
    6357     6373     6427     6478     6513     6598     6735     6882 
    7030     7191     7344     7461     7585     7711     7800     7863 
    7902     7889     7859     7836     7773     7636     7449     7236 
    7006     6779     6574     6385     6200     6029     5881     5771 
    5732     5753     5787     5845     5954     6037     6088     6207 
    6350     6451     6589     6752     6863     6987     7168     7348 
    7472     7557     7636     7701     7738     7782     7847     7917 
    7975     8005     8024     8032     8000     7936     7874     7832 
    7838     7893     7973     8046     8091     8122     8143     8125 
    8075     8028     7990     7946     7928     7955     7994     8025 
    8066     8129     8199     8271     8330     8371     8413     8424 
    8364     8270     8178     8083     7956     7809     7688     7580 
    7450     7330     7241     7160     7086     7015     6932     6863 
    6805     6721     6659     6643     6609     6525     6423     6332 
    6239     6154     6116     6110     6091     6062     6054     6083 
    6126     6161     6192     6230     6272     6308     6330     6350 
    6393     6431     6430     6388     6338     6328     6332     6289 
    6215     6172     6189     6262     6355     6461     6617     6832 
    7040     7214     7376     7519     7628     7707     7739     7732 
    7722     7719     7740     7784     7823     7889     7994     8079 
    8158     8284     8414     8486     8507     8533     8591     8634 
    8642     8652     8664     8691     8739     8765     8793     8864 
    8907     8892     8857     8803     8729     8633     8506     8359 
    8213     8068     7908     7743     7607     7483     7358     7268 
    7210     7142     7068     7018     6984     6982     7040     7087 
    7068     7033     7002     6952     6882     6812     6768     6725 
    6648     6567     6513     6488     6470     6459     6439     6400 
    6381     6394     6385     6349     6307     6261     6224     6203 
    6212     6239     6266     6315     6397     6496     6573     6637 
    6747     6917     7101     7238     7307     7357     7439     7541 
    7654     7777     7865     7916     7987     8089     8185     8262 
    8340     8444     8530     8557     8567     8602     8658     8712 
    8742     8743     8719     8702     8725     8775     8814     8822 
    8819     8819     8802     8784     8761     8694     8599     8510 
    8405     8257     8086     7917     7746     7569     7385     7179 
    6967     6779     6602     6447     6350     6301     6288     6316 
    6384     6450     6531     6671     6858     7056     7267     7469 
    7645     7789     7902     7987     8054     8105     8118     8090 
    8054     8020     7989     7954     7921     7904     7897     7900 
    7909     7938     7985     8036     8082     8114     8145     8185 
    8199     8187     8131     8024     7932     7863     7789     7743 
    7723     7673     7619     7608     7620     7642     7669     7682 
    7697     7723     7728     7716     7699     7653     7565     7449 
    7303     7123     6917     6685     6455     6272     6137     6037 
    5971     5948     5973     6023     6089     6169     6253     6369 
