Origin Time       2025/01/13 21:19:00
Lat.              31.8
Long.             131.6
Depth. (km)       30
Mag.              6.9
Station Code      EHM012
Station Lat.      33.2217
Station Long.     132.5724
Station Height(m) 34
Record Time       2025/01/13 21:20:10
Sampling Freq(Hz) 100Hz
Duration Time(s)  87
Dir.              U-D
Scale Factor      7845(gal)/8223790
Max. Acc. (gal)   2.750
Last Correction   2025/01/13 21:20:09
Memo.             
[...]
   23345    23218    23157    23072    22896    22638    22408    22318 
   22364    22536    22809    23110    23357    23427    23230    22825 
   22412    22218    22296    22457    22501    22470    22545    22793 
   23082    23253    23315    23259    22970    22493    22126    22090 
   22292    22628    23032    23274    23292    23232    23203    23283 
   23350    23263    23193    23287    23476    23764    24138    24368 
   24239    23823    23355    22990    22801    22709    22670    22920 
   23398    23696    23773    23726    23530    23287    23094    23045 
   23268    23639    23901    23897    23711    23611    23685    23760 
   23681    23515    23391    23247    23090    23157    23465    23760 
   23969    24106    24021    23733    23614    23778    23822    23525 
   23078    22700    22516    22432    22350    22380    22446    22416 
   22389    22430    22599    22847    22997    23188    23564    23747 
   23450    23055    22999    23210    23438    23511    23440    23473 
   23731    24063    24255    24289    24335    24335    24193    24007 
   23750    23426    23094    22793    22696    22751    22800    22954 
   23157    23166    22977    22742    22539    22345    22241    22391 
   22670    22901    23134    23386    23527    23371    22918    22424 
   22119    22137    22505    23002    23267    23226    23133    23132 
   23203    23337    23448    23426    23291    23147    23085    23147 
   23348    23634    23796    23801    23838    23839    23830    24101 
   24491    24602    24413    24121    23981    24043    24065    24035 
   24105    24089    23773    23325    22991    22831    22793    22927 
   23249    23539    23589    23396    23132    22991    22954    22908 
   22800    22671    22662    22790    23040    23394    23664    23747 
   23623    23191    22621    22195    21940    21953    22327    22727 
   22842    22746    22513    22221    22054    22030    22049    22180 
   22470    22829    23210    23562    23758    23768    23635    23392 
   23221    23298    23517    23716    23874    24020    24181    24298 
   24300    24165    24003    23978    24008    23954    23861    23803 
   23750    23625    23495    23441    23368    23263    23240    23311 
   23452    23693    24047    24320    24283    24085    23953    23796 
   23529    23302    23368    23739    24066    24139    24036    23761 
   23318    22756    22056    21373    21020    21087    21401    21802 
   22216    22621    23008    23330    23643    23971    24094    23946 
   23723    23549    23471    23521    23661    23764    23789    23870 
   23940    23885    23828    23727    23395    22893    22458    22249 
   22249    22395    22639    22875    23064    23261    23488    23634 
   23530    23264    23060    22945    22947    23095    23325    23638 
   23893    23872    23639    23333    22999    22752    22619    22464 
   22350    22516    22925    23359    23670    23781    23760    23764 
   23847    23951    23911    23592    23132    22740    22385    22011 
   21797    21849    21979    22133    22473    22908    23233    23380 
   23260    23020    23035    23305    23612    23962    24255    24213 
   23907    23679    23573    23465    23365    23249    23140    23225 
   23464    23603    23637    23715    23850    23958    23967    23909 
   23803    23681    23737    24034    24417    24707    24769    24656 
   24518    24381    24205    24005    23881    23927    24032    24019 
   23880    23743    23754    23892    24024    24031    23751    23259 
   22894    22779    22786    22792    22729    22626    22611    22786 
   23033    23147    23183    23184    22994    22677    22495    22553 
   22778    22935    22851    22666    22569    22515    22414    22438 
   22725    23102    23480    23896    24167    24154    23896    23399 
   22844    22612    22744    22968    23186    23413    23484    23256 
   22869    22532    22252    21973    21805    21867    22107    22446 
   22762    22816    22604    22431    22465    22577    22576    22512 
   22582    22786    23083    23534    23926    23957    23789    23728 
   23727    23639    23538    23558    23687    23822    23934    24051 
   24202    24379    24402    24086    23587    23251    23183    23203 
   23202    23221    23202    23114    23024    22920    22847    22959 
   23226    23410    23395    23303    23298    23415    23556    23625 
   23695    23895    24173    24313    24170    23666    22854    22096 
   21836    22087    22511    22932    23299    23500    23602    23708 
   23704    23511    23183    22978    23184    23514    23526    23333 
   23226    23306    23453    23433    23167    22802    22545    22553 
   22769    22974    23191    23544    23822    23849    23843    23895 
   23796    23612    23575    23583    23427    23141    22887    22767 
   22813    22993    23211    23441    23666    23816    23815    23649 
   23446    23237    22902    22545    22303    22203    22455    23109 
   23687    23830    23693    23465    23122    22684    22330    22268 
   22577    23099    23580    23951    24208    24268    24171    24032 
   23993    24048    23950    23696    23463    23238    23094    23190 
   23359    23236    22877    22682    22675    22609    22442    22275 
   22113    21878    21624    21532    21755    22239    22717    23157 
   23639    23901    23843    23688    23475    23152    22778    22492 
   22427    22601    22999    23477    23820    24085    24196    23872 
   23379    23226    23377    23490    23440    23448    23734    24177 
   24587    24831    24698    24212    23657    23253    23068    23058 
   23147    23269    23379    23409    23263    23064    23066    23249 
   23481    23657    23541    23124    22750    22653    22804    23056 
   23267    23377    23444    23503    23467    23334    23256    23318 
   23436    23515    23631    23812    24000    24120    24088    23970 
   23824    23576    23220    22854    22661    22693    22806    22991 
   23261    23430    23448    23461    23406    23121    22810    22731 
   22786    22901    23095    23265    23452    23808    24171    24308 
   24301    24210    23992    23789    23673    23503    23287    23136 
   23036    23031    23271    23680    24047    24371    24619    24668 
   24565    24364    24077    23873    23830    23679    23245    22823 
   22702    22789    22955    23234    23556    23712    23657    23548 
   23475    23390    23286    23237    23275    23336    23356    23421 
   23556    23548    23367    23301    23477    23673    23654    23465 
   23210    22761    22114    21593    21444    21720    22295    22820 
   23167    23418    23449    23282    23221    23415    23707    23897 
   24020    24144    24151    23949    23701    23643    23664    23526 
   23348    23326    23375    23242    22937    22684    22491    22329 
   22214    21998    21760    21702    21675    21543    21358    21122 
   20937    20947    20993    20983    21212    21621    21864    22006 
   22153    22272    22457    22759    22977    22918    22850    23071 
   23369    23519    23701    24098    24503    24559    24258    23911 
   23650    23353    23043    23021    23379    23855    24210    24260 
   23981    23674    23619    23808    24088    24343    24538    24671 
   24764    24746    24548    24408    24471    24509    24452    24413 
   24283    23915    23499    23283    23217    23205    23195    23014 
   22686    22453    22350    22300    22311    22457    22821    23259 
   23481    23512    23506    23461    23437    23564    23838    24219 
   24726    25222    25444    25392    25249    25049    24729    24291 
   23955    23927    24046    24070    23854    23279    22566    22148 
   22130    22364    22616    22666    22551    22396    22188    22014 
   22068    22365    22702    22833    22667    22339    22099    22073 
   22156    22196    22094    21859    21608    21442    21474    21670 
   21882    22127    22486    22991    23537    23815    23641    23159 
   22642    22304    22283    22582    22936    23070    22994    22819 
   22678    22731    22918    22974    22790    22634    22693    22762 
   22746    22908    23388    23950    24348    24534    24507    24246 
   23897    23754    23866    24146    24564    24918    24918    24486 
   23800    23143    22659    22430    22466    22563    22707    23059 
   23425    23461    23264    23325    23843    24401    24619    24587 
   24453    24279    24250    24445    24694    24798    24679    24331 
   23809    23387    23307    23465    23656    23791    23861    23884 
   23854    23718    23549    23579    23784    23843    23627    23271 
   22870    22512    22389    22594    22987    23346    23479    23350 
   23110    22843    22692    22908    23321    23508    23506    23549 
   23573    23444    23244    23129    23144    23288    23468    23506 
   23415    23299    23087    22790    22603    22550    22474    22288 
   22069    21897    21832    22015    22385    22693    22819    22731 
   22482    22222    22146    22397    22863    23376    23858    24132 
   24120    24075    24208    24375    24514    24764    24925    24723 
   24305    23892    23647    23676    23849    24007    24100    24028 
   23747    23415    23129    22939    23025    23301    23461    23434 
   23186    22794    22582    22611    22705    22869    23194    23583 
   23785    23803    23890    24025    24031    23863    23454    22810 
   22138    21649    21438    21497    21829    22337    22747    22923 
   22777    22315    21963    22060    22439    22833    23095    23121 
   22906    22574    22306    22218    22275    22445    22879    23569 
   24035    23908    23456    23032    22659    22337    22084    21897 
   21910    22179    22470    22762    23179    23527    23734    23953 
   24017    23730    23329    23134    23193    23371    23544    23685 
   23836    24063    24339    24470    24390    24317    24331    24250 
   24063    23982    24047    24024    23776    23631    23978    24626 
   25088    25169    24995    24740    24468    24233    24146    24198 
   24309    24403    24308    24044    23866    23788    23679    23548 
   23592    23787    23746    23461    23220    22974    22697    22593 
   22765    23071    23224    23147    22966    22808    22809    22927 
   23089    23355    23575    23566    23375    23048    22789    22902 
   23268    23515    23514    23287    22871    22400    21980    21687 
   21635    21787    21976    22131    22248    22299    22273    22243 
   22333    22492    22546    22474    22354    22261    22327    22627 
   23099    23647    24129    24403    24452    24287    23969    23689 
   23514    23448    23612    23942    24174    24178    24042    23926 
   23851    23766    23755    23896    24052    24101    24067    23951 
   23741    23518    23413    23444    23449    23340    23074    22535 
   21906    21564    21516    21617    21928    22403    22862    23130 
   23112    22935    22751    22577    22465    22466    22608    22816 
   22920    22913    22767    22486    22315    22304    22345    22550 
   22913    23171    23190    23136    23274    23650    24065    24339 
   24457    24548    24745    24954    24937    24742    24638    24614 
   24381    23966    23858    24175    24511    24725    24885    24871 
   24622    24305    24065    23885    23743    23635    23473    23271 
   23166    23197    23340    23511    23652    23842    24071    24216 
   24205    24038    23827    23684    23637    23696    23820    23981 
   24147    24023    23514    23109    23017    23031    23180    23460 
   23664    23660    23367    22871    22399    22079    21940    21967 
   22133    22364    22549    22551    22431    22427    22513    22457 
   22276    22150    22146    22250    22405    22455    22280    21955 
   21705    21624    21574    21571    21749    21976    22083    22096 
   22072    22079    22165    22312    22488    22646    22774    22854 
   22823    22747    22793    23008    23229    23253    23078    22931 
   23079    23456    23793    24097    24474    24723    24614    24268 
   23920    23695    23615    23634    23765    23930    23917    23762 
   23683    23778    23996    24071    23843    23575    23560    23701 
   23700    23504    23295    23170    23268    23614    23888    23966 
   23978    23897    23706    23488    23267    23118    23141    23355 
   23716    24007    24003    23774    23430    23079    22956    23040 
   23107    23097    22954    22681    22465    22392    22384    22437 
   22631    22912    23186    23380    23383    23236    23164    23237 
   23345    23438    23618    23927    24165    24150    23981    23754 
   23494    23284    23190    23236    23348    23340    23152    22958 
   22894    22819    22584    22314    22206    22303    22497    22720 
   23017    23384    23715    23899    23944    24009    24155    24295 
   24402    24510    24606    24634    24574    24513    24506    24509 
   24495    24459    24452    24483    24435    24295    24121    23880 
   23587    23338    23149    22947    22752    22653    22642    22701 
   22836    22967    23022    23043    23094    23139    23051    22858 
   22692    22480    22162    21919    21865    21901    21991    22308 
   22847    23375    23811    24111    24202    24263    24484    24738 
   24848    24798    24628    24441    24372    24525    24904    25402 
   25893    26157    25983    25486    24935    24498    24287    24241 
   24237    24250    24105    23687    23238    22891    22519    22235 
   22234    22378    22446    22422    22426    22509    22599    22654 
   22713    22740    22705    22715    22794    22797    22665    22435 
   22131    21801    21579    21644    21921    22130    22184    22246 
   22404    22507    22455    22399    22411    22423    22445    22454 
   22380    22256    22214    22324    22438    22468    22574    22813 
   23117    23465    23822    24062    24075    23984    24016    24098 
   24000    23733    23434    23157    22874    22607    22424    22293 
   22169    22106    22087    22113    22272    22424    22396    22403 
   22538    22509    22303    22231    22327    22360    22307    22368 
   22604    22870    23035    23149    23326    23639    24039    24233 
   23988    23463    22983    22675    22496    22472    22669    23053 
   23468    23687    23723    23778    23854    23886    23863    23761 
   23661    23708    23935    24239    24510    24752    24962    25045 
   24992    25002    25176    25301    25253    25172    25243    25483 
   25624    25466    25238    25172    25114    24900    24672    24502 
   24270    24007    23792    23626    23626    23795    24001    24262 
   24486    24425    24048    23530    23063    22754    22623    22680 
   22770    22671    22438    22229    22019    21733    21501    21500 
   21612    21601    21514    21567    21764    21949    22126    22399 
   22700    22854    22823    22677    22447    22287    22354    22505 
   22635    22771    22860    22939    23091    23264    23360    23388 
   23440    23504    23553    23631    23723    23772    23766    23734 
   23711    23646    23500    23337    23149    22881    22566    22297 
   22092    21865    21633    21595    21805    22064    22279    22474 
   22596    22554    22364    22200    22214    22315    22411    22619 
   22968    23274    23434    23533    23649    23776    23869    23947 
   24127    24448    24717    24773    24675    24521    24475    24634 
   24877    25138    25382    25471    25428    25373    25270    25088 
   24902    24808    24853    24950    24939    24777    24568    24376 
   24173    23934    23669    23390    23089    22769    22515    22431 
   22505    22542    22437    22319    22252    22199    22126    22054 
   22048    22033    21967    21942    21953    21906    21772    21676 
   21743    21887    22026    22210    22459    22634    22594    22465 
   22378    22342    22369    22361    22238    22110    22034    22000 
   22045    22169    22291    22266    22117    22077    22230    22392 
   22430    22453    22559    22720    22960    23229    23413    23598 
   23819    24000    24163    24372    24619    24821    24987    25168 
   25243    25141    24988    24964    25158    25401    25488    25501 
   25496    25377    25197    25123    25192    25255    25185    24938 
   24501    24071    23901    23926    23969    23931    23733    23415 
   23191    23188    23251    23230    23205    23217    23240    23241 
   23114    22817    22462    22167    21982    21907    21821    21604 
   21347    21150    20979    20861    20875    21038    21304    21571 
   21745    21832    21894    21955    22090    22277    22315    22268 
   22284    22242    22127    22045    21983    21986    22087    22113 
   21999    21887    21821    21824    22044    22505    23064    23544 
   23751    23708    23660    23718    23881    24105    24185    24048 
   23955    24027    24046    23922    23889    24116    24468    24738 
   24862    24841    24736    24597    24379    24139    24028    24042 
   24030    23886    23650    23410    23194    23055    23045    23105 
   23090    22935    22704    22497    22343    22288    22374    22504 
   22551    22543    22609    22802    23031    23237    23519    23869 
   24109    24189    24175    24100    24007    23986    24120    24337 
   24467    24441    24289    24066    23873    23777    23791    23862 
   23877    23792    23685    23598    23503    23380    23226    22990 
   22647    22387    22343    22364    22358    22426    22520    22493 
   22338    22169    22067    22018    21973    21913    21861    21848 
   21897    22068    22361    22671    22937    23129    23271    23436 
   23581    23598    23494    23365    23307    23383    23554    23743 
   23873    23873    23803    23741    23676    23638    23642    23639 
   23629    23588    23458    23272    23098    22960    22935    23008 
   23075    23144    23195    23187    23232    23317    23278    23106 
   22943    22936    23109    23360    23623    23858    24020    24119 
   24138    24066    24003    24021    24057    24066    24147    24325 
   24540    24783    25024    25236    25434    25509    25317    24972 
   24702    24506    24277    24063    23884    23673    23544    23576 
   23615    23552    23491    23579    23754    23834    23791    23681 
   23477    23190    22960    22854    22788    22736    22702    22638 
   22576    22609    22689    22720    22711    22661    22526    22326 
   22172    22192    22331    22422    22500    22682    22871    22954 
   23024    23140    23232    23248    23226    23224    23184    23094 
   23109    23282    23440    23425    23318    23261    23224    23136 
   23032    22928    22798    22551    22180    21919    21901    21967 
   22014    22084    22198    22268    22194    22023    21907    21910 
   21980    22041    22086    22162    22326    22534    22690    22759 
   22801    22862    22904    22947    23025    23087    23153    23249 
   23292    23242    23147    23105    23143    23184    23264    23437 
   23580    23614    23602    23625    23731    23861    23916    23934 
   23974    24038    24092    24088    24040    24009    24047    24156 
