Origin Time       2025/01/13 21:19:00
Lat.              31.8
Long.             131.6
Depth. (km)       30
Mag.              6.9
Station Code      EHM007
Station Lat.      33.9616
Station Long.     132.7719
Station Height(m) 3
Record Time       2025/01/13 21:20:35
Sampling Freq(Hz) 100Hz
Duration Time(s)  92
Dir.              U-D
Scale Factor      7845(gal)/8223790
Max. Acc. (gal)   1.377
Last Correction   2025/01/13 21:20:35
Memo.             
[...]
    5017     4982     4922     4851     4756     4637     4554     4592 
    4737     4896     5054     5192     5233     5193     5152     5134 
    5098     5024     4959     4961     4999     5038     5093     5171 
    5243     5236     5131     5000     4884     4784     4707     4658 
    4644     4644     4668     4777     4924     5003     5043     5107 
    5173     5178     5135     5143     5158     5080     5007     5004 
    5023     5071     5143     5228     5306     5339     5340     5354 
    5381     5405     5404     5391     5382     5368     5350     5297 
    5182     5053     4969     4893     4796     4730     4706     4639 
    4514     4434     4467     4549     4599     4592     4567     4571 
    4571     4563     4560     4533     4541     4646     4739     4803 
    4878     4908     4872     4799     4773     4815     4857     4872 
    4816     4765     4811     4851     4892     4996     5123     5205 
    5220     5216     5219     5269     5335     5297     5235     5267 
    5340     5368     5324     5255     5205     5148     5074     5009 
    4950     4872     4757     4653     4610     4612     4622     4627 
    4653     4689     4706     4769     4891     4981     5055     5107 
    5093     5055     5007     4958     4946     4954     4931     4899 
    4935     5039     5096     5022     4916     4895     4920     4947 
    4958     4982     5028     5011     4968     5020     5123     5154 
    5109     5049     5016     5053     5081     5036     5012     5035 
    5082     5166     5248     5275     5215     5120     5094     5144 
    5179     5162     5175     5219     5181     5146     5216     5262 
    5171     5032     5001     5046     4984     4869     4857     4896 
    4942     5001     5062     5124     5063     4869     4774     4842 
    4912     4888     4876     4959     5071     5194     5321     5413 
    5478     5475     5367     5247     5209     5202     5159     5078 
    4968     4951     5046     5088     5080     5070     5059     5073 
    5096     5142     5116     4931     4743     4666     4695     4727 
    4648     4552     4542     4584     4641     4693     4708     4691 
    4688     4703     4742     4827     4887     4884     4858     4826 
    4792     4737     4695     4757     4900     4999     5028     5051 
    5069     5046     4969     4926     5024     5205     5294     5239 
    5130     5066     5067     5084     5089     5151     5301     5435 
    5482     5458     5444     5505     5551     5467     5309     5177 
    5067     4988     5004     5093     5150     5162     5233     5337 
    5306     5173     5144     5231     5269     5193     5080     5058 
    5140     5157     5035     4924     4873     4784     4672     4634 
    4635     4577     4492     4494     4560     4602     4637     4693 
    4730     4730     4772     4934     5113     5165     5130     5090 
    5047     5016     5005     5005     5015     4985     4882     4826 
    4893     4957     4932     4946     5059     5151     5142     5073 
    5012     4978     4951     4951     4943     4831     4676     4608 
    4621     4650     4642     4576     4526     4506     4436     4345 
    4375     4515     4607     4592     4588     4693     4795     4766 
    4718     4756     4816     4889     5009     5139     5236     5269 
    5240     5252     5347     5435     5441     5366     5247     5162 
    5132     5124     5120     5139     5196     5247     5240     5206 
    5147     5042     4954     4919     4932     4970     5005     4988 
    4920     4920     5026     5111     5109     5054     5019     5020 
    4947     4774     4603     4514     4557     4679     4792     4892 
    4938     4900     4880     4916     4904     4796     4669     4617 
    4619     4557     4436     4407     4467     4440     4310     4272 
    4336     4334     4260     4201     4191     4239     4317     4418 
    4550     4661     4730     4807     4833     4729     4573     4484 
    4457     4417     4351     4315     4324     4337     4345     4376 
    4390     4314     4182     4056     4016     4121     4261     4313 
    4356     4475     4575     4561     4445     4344     4387     4553 
    4714     4803     4847     4884     4909     4915     4905     4936 
    5030     5096     5116     5147     5179     5197     5185     5098 
    4954     4841     4828     4920     5049     5111     5112     5142 
    5202     5233     5225     5252     5358     5458     5475     5454 
    5458     5490     5517     5517     5524     5559     5630     5729 
    5807     5852     5898     5921     5880     5829     5806     5784 
    5775     5773     5744     5734     5744     5656     5474     5325 
    5251     5232     5240     5212     5151     5100     5058     5063 
    5136     5198     5224     5294     5389     5404     5340     5267 
    5275     5358     5360     5256     5148     5058     5027     5066 
    5050     4966     4932     4949     4919     4837     4792     4850 
    5005     5190     5333     5466     5606     5648     5595     5551 
    5479     5367     5282     5193     5067     4988     4978     4963 
    4941     4984     5066     5078     5007     4951     4938     4904 
    4837     4808     4870     4981     5096     5198     5292     5390 
    5431     5400     5418     5512     5539     5435     5296     5192 
    5131     5142     5200     5197     5128     5080     5067     5036 
    4985     4949     4947     4972     5016     5065     5089     5061 
    4996     4935     4882     4850     4847     4827     4752     4684 
    4696     4739     4737     4702     4687     4688     4646     4606 
    4666     4791     4843     4796     4733     4661     4565     4499 
    4492     4506     4460     4341     4213     4114     4055     4014 
    3987     4018     4098     4178     4228     4253     4303     4398 
    4495     4580     4652     4733     4851     4939     4932     4889 
    4946     5139     5282     5269     5233     5240     5235     5232 
    5242     5259     5266     5236     5197     5181     5171     5161 
    5147     5119     5104     5100     5013     4824     4662     4660 
    4758     4788     4777     4811     4776     4639     4513     4476 
    4556     4610     4525     4498     4642     4777     4831     4892 
    5009     5150     5213     5186     5190     5259     5312     5308 
    5292     5278     5242     5200     5189     5220     5198     5085 
    5004     5013     5094     5205     5269     5317     5421     5583 
    5738     5854     5918     5903     5879     5846     5769     5706 
    5602     5439     5301     5219     5193     5150     5069     5020 
    5016     5023     5049     5113     5134     5040     4980     5077 
    5254     5383     5451     5478     5441     5364     5316     5292 
    5209     5043     4914     4914     4966     5004     5003     4928 
    4868     4849     4795     4733     4681     4599     4553     4584 
    4642     4720     4796     4826     4816     4772     4715     4677 
    4638     4630     4675     4689     4671     4673     4679     4693 
    4719     4753     4791     4804     4801     4783     4735     4684 
    4646     4606     4567     4575     4669     4815     4895     4828 
    4720     4715     4757     4722     4661     4727     4905     5017 
    5008     4974     4962     4931     4842     4750     4742     4776 
    4774     4787     4831     4843     4783     4683     4618     4602 
    4629     4662     4644     4619     4649     4650     4571     4467 
    4396     4367     4333     4293     4336     4434     4506     4571 
    4608     4588     4571     4580     4602     4631     4661     4691 
    4733     4796     4861     4868     4837     4824     4812     4797 
    4795     4818     4909     5028     5080     5086     5131     5181 
    5147     5082     5103     5186     5231     5189     5105     5073 
    5107     5116     5050     4981     4993     5019     4980     4908 
    4869     4945     5080     5162     5194     5167     5158     5221 
    5228     5184     5154     5134     5112     5038     4941     4842 
    4723     4642     4627     4606     4517     4403     4322     4274 
    4259     4271     4328     4395     4388     4371     4419     4491 
    4530     4522     4504     4540     4617     4638     4626     4692 
    4797     4924     5131     5347     5458     5495     5595     5782 
    5945     6015     6041     6085     6102     6054     6042     6102 
    6146     6111     6025     5980     5991     5940     5805     5692 
    5589     5435     5327     5324     5324     5244     5115     5017 
    4990     4989     4986     4985     4995     5022     5050     5094 
    5173     5192     5076     4909     4801     4727     4615     4500 
    4483     4544     4571     4531     4480     4441     4392     4394 
    4482     4560     4548     4491     4509     4607     4652     4639 
    4671     4730     4734     4675     4630     4627     4662     4752 
    4847     4889     4922     4970     4996     5009     5057     5148 
    5270     5371     5406     5378     5327     5320     5319     5250 
    5170     5104     5016     4920     4858     4868     4934     4957 
    4915     4916     4955     4978     5030     5101     5167     5263 
    5364     5454     5574     5702     5802     5875     5891     5863 
    5886     5971     6021     6038     6050     5999     5907     5852 
    5814     5765     5714     5683     5668     5660     5641     5548 
    5414     5281     5128     4996     4878     4718     4536     4422 
    4383     4333     4271     4207     4116     4043     4013     4001 
    3994     3990     4028     4108     4144     4120     4131     4183 
    4224     4278     4391     4564     4719     4806     4853     4842 
    4772     4720     4725     4720     4658     4598     4571     4526 
    4467     4437     4453     4473     4422     4353     4363     4421 
    4449     4429     4407     4438     4533     4658     4756     4816 
    4866     4923     5007     5098     5161     5194     5186     5125 
    5047     5003     5031     5088     5097     5078     5063     5024 
    4941     4839     4780     4772     4766     4729     4691     4706 
    4754     4749     4706     4712     4780     4882     4982     5022 
    5031     5088     5165     5179     5101     4969     4891     4893 
    4893     4891     4918     4936     4939     4962     5022     5089 
    5121     5138     5132     5094     5082     5098     5101     5117 
    5142     5112     5055     5007     4938     4869     4842     4816 
    4745     4677     4671     4689     4664     4623     4650     4729 
    4783     4831     4927     5019     5038     5038     5090     5171 
    5221     5240     5265     5286     5285     5277     5266     5235 
    5142     5003     4915     4912     4936     4965     5030     5130 
    5190     5188     5184     5186     5157     5123     5150     5229 
    5273     5251     5256     5316     5328     5290     5310     5387 
    5456     5510     5539     5566     5655     5748     5798     5900 
    6045     6130     6177     6196     6147     6042     5881     5703 
    5575     5468     5355     5270     5217     5185     5201     5251 
    5266     5221     5151     5086     5000     4862     4737     4687 
    4626     4480     4348     4344     4386     4332     4207     4116 
    4082     4062     4016     3997     4045     4089     4105     4170 
    4279     4374     4460     4569     4703     4816     4901     4978 
    5015     4988     4957     4947     4926     4885     4845     4827 
    4818     4783     4733     4680     4584     4453     4345     4286 
    4286     4330     4371     4418     4488     4542     4588     4648 
    4691     4738     4841     4938     4953     4926     4905     4865 
    4796     4726     4661     4633     4645     4630     4577     4540 
    4518     4473     4406     4383     4448     4531     4563     4619 
    4783     4962     5044     5086     5194     5358     5481     5495 
    5456     5445     5420     5348     5297     5244     5142     5089 
    5108     5132     5202     5300     5348     5410     5503     5566 
    5626     5682     5722     5825     5973     6092     6199     6303 
    6359     6354     6292     6195     6087     5952     5787     5710 
    5763     5751     5553     5340     5316     5404     5391     5289 
    5242     5267     5302     5267     5200     5194     5201     5188 
    5201     5258     5337     5347     5252     5178     5162     5115 
    4969     4768     4602     4475     4372     4279     4168     4081 
    4040     4037     4093     4147     4141     4155     4226     4330 
    4437     4484     4513     4611     4700     4711     4702     4706 
    4733     4761     4758     4745     4722     4711     4746     4753 
    4735     4792     4904     5019     5139     5240     5340     5475 
    5597     5699     5826     5946     6011     5981     5867     5768 
    5721     5672     5578     5420     5254     5131     5040     4963 
    4911     4884     4868     4857     4865     4927     5035     5151 
    5278     5395     5475     5520     5543     5571     5586     5579 
    5579     5539     5444     5339     5224     5104     4954     4761 
    4569     4401     4278     4164     4056     4006     4004     4071 
    4206     4306     4391     4525     4658     4741     4776     4760 
    4729     4733     4743     4757     4758     4684     4577     4475 
    4310     4114     3964     3824     3666     3558     3520     3516 
    3537     3615     3747     3892     4081     4320     4509     4652 
    4815     4957     5058     5148     5242     5312     5327     5320 
    5310     5262     5169     5058     4939     4819     4745     4758 
    4835     4950     5069     5138     5189     5243     5248     5250 
    5286     5300     5271     5247     5317     5478     5599     5652 
    5691     5706     5686     5640     5609     5553     5439     5418 
    5468     5455     5460     5509     5568     5571     5454     5347 
    5304     5221     5093     5012     4995     4976     4908     4843 
    4872     4930     4919     4896     4892     4860     4811     4780 
    4718     4579     4453     4460     4536     4502     4345     4237 
    4257     4297     4276     4278     4310     4310     4309     4342 
    4368     4361     4378     4425     4449     4464     4469     4488 
    4519     4460     4372     4407     4519     4590     4633     4737 
    4895     5054     5174     5248     5310     5400     5499     5586 
    5690     5784     5852     5953     6042     6062     6060     6008 
    5918     5869     5829     5779     5752     5695     5586     5464 
    5351     5256     5169     5112     5117     5112     5044     4958 
    4895     4891     4949     5019     5077     5127     5181     5217 
    5155     5016     4915     4855     4780     4710     4638     4499 
    4336     4221     4144     4113     4116     4106     4074     4072 
    4145     4239     4314     4390     4433     4450     4476     4504 
    4567     4666     4702     4688     4757     4853     4892     4923 
    4968     5026     5096     5159     5243     5333     5406     5490 
    5551     5557     5574     5597     5579     5557     5506     5400 
    5324     5298     5232     5121     5023     4973     4945     4870 
    4776     4730     4711     4689     4691     4727     4797     4874 
    4914     4926     4939     4926     4878     4819     4766     4704 
    4618     4544     4522     4514     4480     4450     4442     4410 
    4353     4321     4309     4283     4260     4288     4355     4413 
    4469     4588     4750     4861     4901     4914     4927     4963 
    5015     5051     5092     5157     5231     5278     5265     5231 
    5256     5319     5355     5366     5413     5510     5606     5683 
    5755     5811     5850     5894     5942     5987     6035     6087 
    6127     6139     6110     6057     6038     6045     5991     5879 
    5805     5744     5645     5544     5436     5328     5240     5119 
    4990     4958     4989     4946     4819     4722     4642     4530 
    4415     4267     4128     4091     4081     4066     4105     4137 
    4108     4079     4094     4141     4201     4272     4355     4421 
    4455     4473     4517     4608     4669     4645     4617     4639 
    4691     4765     4828     4874     4959     5046     5071     5090 
    5125     5120     5077     5093     5202     5304     5309     5236 
    5143     5097     5092     5081     5063     5073     5116     5115 
    5054     5038     5088     5144     5219     5305     5398     5503 
    5552     5571     5641     5657     5595     5535     5458     5371 
    5256     5116     5024     4939     4811     4699     4630     4579 
    4540     4496     4469     4480     4456     4399     4387     4391 
    4386     4388     4396     4436     4525     4606     4635     4652 
    4665     4645     4621     4629     4635     4634     4661     4712 
    4781     4814     4808     4877     4989     5047     5098     5174 
    5239     5265     5265     5287     5325     5321     5275     5243 
    5247     5229     5174     5148     5132     5043     4912     4797 
    4689     4573     4469     4394     4322     4239     4172     4166 
    4241     4363     4449     4460     4445     4475     4530     4573 
    4610     4611     4584     4571     4540     4498     4507     4549 
    4595     4657     4726     4765     4760     4760     4811     4849 
    4838     4834     4877     4943     4974     4954     4923     4893 
    4833     4727     4612     4548     4529     4503     4461     4428 
    4437     4473     4480     4471     4502     4598     4723     4793 
    4819     4878     4985     5093     5190     5308     5433     5525 
    5593     5630     5633     5656     5711     5764     5822     5891 
    5927     5942     5969     5989     5991     5987     5968     5941 
    5934     5926     5894     5865     5800     5691     5638     5621 
    5544     5412     5290     5242     5239     5202     5132     5046 
    4958     4908     4866     4800     4762     4770     4769     4707 
    4599     4517     4487     4465     4432     4380     4315     4263 
    4241     4252     4270     4270     4280     4310     4318     4297 
    4252     4226     4261     4324     4356     4376     4414     4467 
    4515     4557     4618     4706     4784     4850     4920     5004 
    5085     5128     5142     5144     5146     5171     5216     5231 
    5202     5167     5140     5101     5053     4999     4935     4849 
    4716     4568     4480     4442     4372     4260     4164     4112 
    4098     4108     4097     4090     4145     4217     4257     4328 
    4445     4536     4583     4641     4737     4845     4934     5030 
    5161     5269     5301     5302     5325     5340     5294     5211 
    5146     5112     5092     5090     5131     5209     5298     5393 
    5498     5564     5578     5599     5653     5703     5721     5734 
    5772     5814     5834     5845     5850     5850     5841     5814 
    5769     5719     5678     5620     5530     5468     5439     5417 
    5424     5429     5390     5363     5416     5487     5471     5348 
    5236     5258     5340     5304     5147     5044     5066     5135 
