Origin Time       2025/01/13 21:19:00
Lat.              31.8
Long.             131.6
Depth. (km)       30
Mag.              6.9
Station Code      EHM005
Station Lat.      33.7973
Station Long.     132.9144
Station Height(m) 136
Record Time       2025/01/13 21:20:35
Sampling Freq(Hz) 100Hz
Duration Time(s)  83
Dir.              E-W
Scale Factor      7845(gal)/8223790
Max. Acc. (gal)   3.399
Last Correction   2025/01/13 21:20:35
Memo.             
[...]
    1888     1802     1694     1566     1439     1345     1283     1264 
    1332     1459     1591     1763     2003     2261     2484     2632 
    2682     2666     2652     2685     2745     2821     2921     3015 
    3057     3049     2995     2902     2833     2802     2782     2775 
    2735     2648     2604     2619     2648     2701     2741     2737 
    2727     2698     2617     2506     2389     2277     2199     2165 
    2177     2181     2141     2073     1985     1908     1857     1782 
    1691     1659     1695     1750     1786     1782     1765     1799 
    1869     1904     1922     1991     2122     2270     2392     2451 
    2443     2420     2413     2365     2243     2089     1942     1811 
    1687     1566     1499     1513     1566     1642     1732     1791 
    1837     1891     1941     1984     2034     2114     2220     2312 
    2358     2332     2258     2180     2069     1914     1767     1625 
    1491     1408     1331     1208     1111     1082     1077     1082 
    1085     1067     1069     1097     1123     1178     1279     1397 
    1516     1652     1825     1992     2099     2177     2224     2200 
    2169     2154     2103     2069     2062     2006     1946     1930 
    1903     1904     1992     2124     2280     2470     2674     2864 
    3001     3051     3045     3032     3038     3057     3061     3067 
    3072     3042     2998     2941     2855     2759     2631     2428 
    2169     1906     1692     1526     1401     1321     1270     1260 
    1306     1351     1383     1443     1499     1498     1460     1435 
    1466     1564     1678     1769     1856     1926     2000     2093 
    2149     2133     2074     2000     1950     1948     1944     1894 
    1809     1752     1759     1784     1821     1914     2034     2137 
    2243     2346     2448     2608     2758     2822     2848     2826 
    2735     2635     2566     2548     2573     2567     2501     2409 
    2323     2255     2216     2178     2138     2122     2103     2054 
    2016     1983     1930     1856     1760     1701     1717     1763 
    1798     1809     1823     1902     2025     2135     2243     2377 
    2527     2697     2839     2902     2928     2947     2926     2864 
    2758     2612     2469     2349     2269     2200     2077     1934 
    1806     1674     1556     1480     1449     1490     1598     1722 
    1848     1964     2054     2130     2189     2197     2160     2133 
    2124     2103     2080     2080     2093     2128     2176     2187 
    2178     2220     2259     2211     2138     2115     2106     2103 
    2126     2122     2092     2069     2035     2019     2030     1961 
    1815     1717     1703     1752     1848     1948     2049     2160 
    2245     2328     2434     2513     2579     2673     2735     2714 
    2637     2519     2393     2340     2340     2328     2319     2295 
    2224     2142     2043     1929     1884     1929     1989     2049 
    2093     2097     2111     2145     2173     2223     2303     2378 
    2419     2407     2358     2273     2169     2126     2145     2178 
    2227     2278     2307     2311     2297     2281     2255     2201 
    2151     2123     2103     2083     2053     2066     2164     2282 
    2361     2430     2506     2535     2490     2413     2313     2200 
    2122     2066     2006     1964     1904     1780     1603     1413 
    1262     1163     1105     1128     1240     1420     1653     1880 
    2038     2127     2174     2214     2259     2304     2332     2330 
    2292     2242     2191     2151     2130     2114     2106     2115 
    2123     2139     2182     2218     2231     2273     2331     2358 
    2363     2343     2297     2277     2282     2276     2242     2150 
    2002     1850     1726     1642     1624     1661     1744     1884 
    2062     2222     2370     2505     2586     2600     2562     2520 
    2496     2430     2313     2203     2123     2087     2080     2073 
    2045     2006     2006     2015     1981     1954     1942     1923 
    1922     1921     1892     1881     1906     1912     1864     1810 
    1825     1875     1892     1904     1954     2039     2143     2253 
    2347     2434     2512     2560     2573     2562     2536     2501 
    2446     2367     2276     2165     2054     1960     1858     1765 
    1714     1678     1640     1618     1614     1626     1648     1640 
    1586     1507     1416     1291     1156     1089     1107     1171 
    1283     1382     1410     1460     1557     1572     1493     1412 
    1367     1397     1525     1684     1821     1984     2189     2358 
    2455     2528     2596     2639     2664     2697     2736     2771 
    2803     2836     2851     2833     2794     2739     2648     2502 
    2335     2207     2111     2008     1918     1877     1911     1966 
    1942     1846     1742     1630     1528     1467     1471     1576 
    1749     1895     1992     2066     2110     2111     2126     2208 
    2320     2431     2520     2566     2655     2826     2988     3121 
    3237     3298     3303     3258     3156     3018     2866     2706 
    2546     2354     2110     1848     1603     1371     1183     1061 
     950      866      841      847      900      994     1063     1098 
    1125     1136     1147     1158     1129     1074     1016      981 
     999     1066     1173     1329     1526     1725     1892     2010 
    2106     2258     2462     2627     2724     2785     2793     2747 
    2687     2605     2504     2440     2407     2349     2290     2269 
    2257     2222     2161     2077     1972     1858     1756     1660 
    1579     1534     1502     1443     1368     1305     1270     1270 
    1278     1283     1324     1418     1522     1632     1809     2046 
    2301     2560     2803     3029     3258     3462     3613     3715 
    3785     3838     3866     3856     3811     3731     3632     3537 
    3442     3318     3164     3010     2852     2675     2512     2388 
    2293     2212     2145     2100     2083     2062     1988     1857 
    1702     1516     1301     1089      895      750      675      635 
     635      723      884     1057     1209     1335     1417     1485 
    1610     1780     1925     2070     2226     2342     2440     2524 
    2554     2546     2517     2481     2493     2575     2705     2852 
    2974     3064     3192     3387     3584     3755     3917     4059 
    4153     4164     4083     3967     3866     3769     3635     3443 
    3223     2997     2783     2640     2560     2462     2322     2146 
    1957     1809     1726     1680     1633     1576     1513     1462 
    1439     1437     1466     1516     1556     1590     1624     1649 
    1703     1806     1931     2062     2176     2255     2328     2436 
    2571     2687     2759     2808     2857     2907     2959     3019 
    3080     3118     3105     3028     2893     2729     2602     2547 
    2523     2485     2412     2315     2241     2201     2168     2103 
    2007     1917     1831     1703     1512     1251      957      704 
     498      341      274      274      306      382      467      511 
     545      600      696      874     1112     1339     1543     1734 
    1938     2195     2463     2710     2955     3175     3352     3514 
    3650     3755     3861     3942     3973     3970     3942     3929 
    3942     3894     3780     3643     3453     3229     3025     2822 
    2623     2471     2351     2231     2128     2042     1904     1717 
    1571     1495     1476     1525     1580     1574     1532     1489 
    1470     1497     1509     1482     1459     1448     1448     1467 
    1485     1522     1615     1728     1845     2002     2178     2335 
    2454     2532     2590     2635     2673     2749     2859     2948 
    3015     3067     3075     3032     2943     2824     2704     2594 
    2479     2355     2249     2166     2080     1988     1872     1695 
    1479     1244      981      729      504      282       91      -35 
    -128     -211     -294     -357     -364     -317     -230     -101 
      66      257      450      649      877     1146     1451     1780 
    2110     2424     2722     2994     3211     3381     3511     3550 
    3462     3296     3087     2849     2632     2428     2201     1975 
    1760     1556     1383     1205      994      783      565      322 
     102      -60     -156     -159     -112      -64        1       90 
     195      329      498      718      989     1258     1487     1669 
    1795     1871     1898     1860     1772     1672     1556     1429 
    1323     1220     1089      965      880      831      834      901 
    1031     1229     1491     1777     2056     2301     2506     2702 
    2893     3075     3246     3379     3451     3510     3580     3649 
    3709     3766     3794     3798     3827     3886     3962     4060 
    4153     4212     4259     4286     4267     4247     4243     4193 
    4055     3847     3577     3241     2879     2538     2235     1969 
    1725     1495     1300     1151     1044      951      835      703 
     575      406      187      -20     -213     -371     -421     -398 
    -356     -284     -222     -199     -162      -89        5      116 
     222      348      561      849     1147     1471     1842     2228 
    2600     2936     3221     3470     3677     3834     3967     4074 
    4120     4101     4013     3866     3717     3596     3500     3427 
    3331     3172     2976     2772     2559     2370     2235     2135 
    2058     2008     1957     1887     1817     1746     1671     1626 
    1620     1603     1543     1475     1448     1447     1460     1489 
    1513     1555     1644     1764     1911     2072     2226     2398 
    2589     2758     2895     3024     3137     3230     3310     3352 
    3343     3337     3360     3384     3423     3481     3504     3480 
    3447     3423     3446     3528     3630     3726     3804     3863 
    3901     3900     3869     3840     3812     3771     3723     3689 
    3708     3792     3910     4045     4180     4299     4375     4367 
    4301     4210     4074     3871     3607     3308     3010     2702 
    2382     2077     1779     1464     1121      735      326      -31 
    -305     -508     -654     -753     -839     -922     -973     -980 
    -947     -870     -754     -638     -545     -445     -334     -217 
     -83       55      182      299      418      522      594      645 
     691      714      714      710      697      680      657      592 
     471      334      234      190      214      309      463      665 
     915     1189     1451     1710     1979     2241     2505     2789 
    3072     3321     3523     3667     3774     3881     3982     4068 
    4137     4125     3993     3797     3570     3308     3052     2810 
    2589     2443     2347     2238     2134     2050     1969     1915 
    1919     1950     1960     1950     1960     1989     2029     2068 
    2068     2016     1948     1885     1853     1857     1892     1957 
    2049     2166     2288     2392     2500     2604     2646     2624 
    2574     2512     2454     2405     2331     2200     2031     1846 
    1680     1590     1579     1610     1651     1688     1719     1745 
    1782     1834     1894     1987     2124     2234     2304     2407 
    2559     2731     2894     2999     3021     3003     2956     2863 
    2737     2554     2290     2018     1786     1598     1458     1323 
    1209     1182     1186     1148     1092     1043     1026     1070 
    1135     1196     1301     1453     1606     1757     1908     2050 
    2200     2363     2517     2639     2729     2808     2916     3080 
    3252     3385     3503     3604     3681     3757     3807     3816 
    3812     3790     3734     3640     3489     3300     3129     2986 
    2862     2775     2706     2623     2535     2462     2407     2340 
    2200     1950     1624     1240      797      363        2     -292 
    -500     -579     -534     -387     -163       93      369      685 
    1026     1368     1736     2134     2524     2860     3148     3424 
    3686     3894     4023     4082     4067     3956     3771     3559 
    3346     3138     2936     2743     2579     2471     2417     2388 
    2362     2322     2261     2199     2155     2134     2138     2134 
    2091     2004     1895     1790     1703     1625     1541     1456 
    1332     1159      981      807      639      513      426      394 
     452      573      731      931     1173     1441     1713     1981 
    2241     2459     2644     2799     2917     3014     3073     3078 
    3082     3115     3142     3141     3111     3041     2914     2760 
    2612     2484     2405     2390     2409     2450     2489     2479 
    2417     2331     2246     2191     2176     2165     2131     2080 
    2029     2006     2035     2110     2195     2266     2347     2448 
    2535     2594     2656     2716     2782     2906     3051     3179 
    3321     3437     3460     3420     3325     3153     2947     2749 
    2566     2413     2308     2222     2123     2025     1966     1971 
    2043     2177     2336     2505     2678     2847     3003     3148 
    3275     3366     3408     3424     3435     3423     3389     3348 
    3288     3210     3100     2933     2717     2488     2251     1989 
    1698     1408     1128      851      592      356      118     -125 
    -383     -646     -882    -1085    -1250    -1364    -1440    -1478 
   -1474    -1444    -1390    -1327    -1294    -1275    -1225    -1154 
   -1071     -976     -872     -731     -523     -255       55      395 
     742     1093     1458     1822     2161     2459     2721     2970 
    3217     3441     3642     3839     4031     4212     4375     4495 
    4567     4573     4486     4299     4048     3755     3431     3068 
    2660     2245     1854     1474     1086      715      382      114 
     -72     -195     -253     -230     -145      -25      125      286 
     437      575      685      788      920     1082     1270     1495 
    1748     2004     2249     2443     2579     2686     2798     2909 
    2980     3028     3091     3153     3206     3275     3339     3385 
    3437     3478     3504     3543     3591     3624     3662     3738 
    3843     3935     4005     4058     4081     4087     4097     4095 
    4075     4048     3987     3865     3715     3569     3415     3253 
    3079     2897     2713     2515     2303     2103     1923     1756 
    1598     1459     1359     1324     1348     1412     1532     1713 
    1935     2189     2452     2705     2955     3204     3431     3616 
    3746     3819     3838     3819     3771     3709     3630     3519 
    3400     3291     3161     2997     2820     2628     2420     2214 
    1999     1773     1561     1360     1183     1053      955      891 
     872      888      940     1021     1125     1260     1426     1603 
    1769     1919     2030     2093     2124     2123     2091     2031 
    1942     1841     1752     1676     1603     1545     1509     1490 
    1490     1491     1466     1424     1374     1302     1223     1156 
    1107     1078     1061     1016      936      843      734      594 
     453      352      290      279      329      413      517      661 
     865     1107     1364     1640     1912     2154     2370     2555 
    2698     2797     2855     2866     2848     2824     2797     2779 
    2783     2813     2864     2920     2986     3064     3160     3289 
    3438     3573     3686     3757     3744     3647     3485     3260 
    2988     2686     2343     1995     1703     1464     1252     1081 
     954      874      846      853      869      873      845      801 
     772      749      738      747      761      774      788      804 
     820      831      864      940     1059     1221     1404     1580 
    1767     1953     2100     2203     2282     2347     2390     2403 
    2366     2289     2209     2123     2027     1939     1868     1807 
    1765     1736     1688     1613     1522     1433     1358     1309 
    1283     1267     1267     1298     1366     1464     1587     1721 
    1860     2012     2187     2362     2519     2658     2768     2844 
    2879     2849     2760     2644     2516     2376     2222     2060 
    1912     1794     1707     1652     1620     1594     1570     1555 
    1575     1659     1802     1971     2146     2320     2492     2662 
    2828     2990     3157     3314     3449     3550     3609     3628 
    3620     3577     3487     3356     3199     3030     2836     2600 
    2335     2065     1792     1503     1189      866      561      278 
      22     -182     -360     -538     -680     -749     -737     -639 
    -469     -245       33      365      739     1140     1560     1993 
    2430     2864     3284     3670     4009     4282     4499     4698 
    4851     4922     4943     4935     4881     4779     4621     4406 
    4180     3971     3781     3620     3481     3354     3231     3107 
    2987     2876     2763     2647     2538     2440     2357     2277 
    2193     2099     1993     1877     1752     1625     1497     1379 
    1289     1223     1181     1174     1197     1240     1304     1397 
    1524     1687     1892     2120     2354     2579     2785     2968 
    3111     3202     3260     3287     3288     3275     3229     3140 
    3024     2886     2732     2585     2443     2293     2128     1944 
    1750     1561     1372     1177      972      774      615      511 
     446      392      334      292      283      318      405      526 
     665      824     1008     1204     1395     1570     1702     1780 
    1821     1841     1853     1873     1923     1989     2072     2200 
    2367     2551     2749     2960     3165     3365     3562     3750 
    3910     4041     4151     4245     4330     4398     4438     4455 
    4452     4430     4382     4303     4183     4013     3821     3635 
    3457     3284     3121     2947     2743     2509     2258     2014 
    1798     1606     1428     1255     1101      967      835      711 
     616      533      448      364      268      147       14     -101 
    -202     -286     -357     -415     -457     -484     -499     -492 
    -461     -415     -338     -218      -74       82      263      468 
     675      884     1102     1323     1545     1769     1981     2173 
    2332     2465     2573     2648     2687     2691     2640     2538 
    2415     2274     2133     2031     1969     1937     1921     1900 
    1867     1829     1776     1715     1663     1620     1578     1556 
    1555     1567     1605     1659     1710     1764     1830     1910 
    2003     2116     2250     2396     2556     2739     2930     3114 
    3284     3433     3562     3681     3770     3811     3812     3774 
    3715     3657     3593     3507     3389     3246     3078     2886 
    2687     2498     2335     2197     2064     1918     1752     1580 
    1443     1341     1243     1169     1129     1100     1090     1134 
    1235     1389     1580     1790     2006     2222     2424     2620 
    2810     2986     3146     3302     3445     3578     3711     3834 
    3960     4090     4182     4220     4210     4148     4041     3896 
