Origin Time       2025/01/13 21:19:00
Lat.              31.8
Long.             131.6
Depth. (km)       30
Mag.              6.9
Station Code      EHM012
Station Lat.      33.2217
Station Long.     132.5724
Station Height(m) 34
Record Time       2025/01/13 21:20:10
Sampling Freq(Hz) 100Hz
Duration Time(s)  87
Dir.              N-S
Scale Factor      7845(gal)/8223790
Max. Acc. (gal)   6.489
Last Correction   2025/01/13 21:20:09
Memo.             
[...]
    5645     5580     5324     4847     4337     3964     3844     4008 
    4299     4571     4797     4942     4959     5017     5240     5509 
    5788     6046     6201     6281     6249     6077     5867     5660 
    5437     5221     5022     4791     4573     4522     4742     5173 
    5541     5661     5630     5482     5179     4799     4387     4078 
    3990     4035     4164     4276     4299     4353     4453     4569 
    4691     4725     4730     4756     4665     4544     4550     4564 
    4544     4631     4772     4793     4677     4556     4537     4612 
    4733     4773     4681     4646     4723     4749     4733     4792 
    4911     4968     4922     4861     4870     4999     5109     5062 
    5004     5005     5013     5127     5314     5373     5305     5260 
    5282     5346     5343     5219     5155     5269     5432     5499 
    5494     5535     5535     5356     5143     5009     4866     4737 
    4725     4811     4935     5120     5431     5798     5988     5863 
    5551     5190     4722     4116     3550     3219     3165     3294 
    3505     3819     4224     4541     4691     4838     5058     5242 
    5377     5494     5503     5443     5502     5649     5663     5524 
    5373     5243     5086     4815     4403     3998     3720     3531 
    3447     3562     3819     4139     4531     4880     5089     5266 
    5444     5563     5616     5555     5381     5283     5331     5410 
    5444     5340     5067     4800     4722     4820     4996     5220 
    5424     5520     5551     5516     5420     5374     5259     5005 
    4842     4810     4801     4823     4824     4842     5031     5341 
    5567     5599     5429     5152     5000     5140     5428     5568 
    5424     5112     4869     4796     4842     4932     4943     4881 
    4968     5220     5459     5516     5348     5177     5170     5243 
    5340     5490     5718     5995     6245     6477     6686     6720 
    6458     5933     5251     4540     3983     3707     3684     3824 
    3993     4182     4461     4734     4957     5251     5649     6054 
    6286     6212     5952     5668     5308     4908     4579     4237 
    3944     3897     4041     4229     4403     4631     5032     5522 
    5849     5884     5745     5537     5157     4585     3963     3389 
    2971     2771     2754     2886     3179     3677     4299     4888 
    5360     5589     5524     5368     5248     5159     5173     5275 
    5282     5154     5047     4955     4808     4742     4900     5297 
    5834     6308     6593     6643     6416     6008     5590     5275 
    5008     4614     4164     3917     4041     4596     5383     6062 
    6494     6678     6702     6727     6743     6632     6399     6107 
    5827     5637     5570     5636     5730     5625     5254     4791 
    4425     4305     4510     4958     5451     5840     6106     6187 
    5972     5524     4958     4267     3555     3076     2833     2748 
    2968     3415     3809     4156     4565     4989     5258     5219 
    4950     4602     4279     4094     4074     4145     4252     4426 
    4692     5024     5455     5872     6087     6215     6419     6570 
    6497     6250     5949     5552     5067     4576     4051     3532 
    3145     3046     3373     3936     4438     4855     5228     5513 
    5698     5810     5865     5854     5764     5545     5206     4950 
    4869     4777     4644     4638     4777     4965     5204     5506 
    5832     6096     6285     6527     6804     6883     6714     6404 
    5937     5329     4768     4428     4328     4253     3994     3728 
    3732     4008     4423     4777     5051     5489     6004     6304 
    6400     6258     5733     4954     4197     3730     3605     3588 
    3568     3591     3686     3943     4386     4959     5637     6295 
    6714     6713     6250     5575     4976     4506     4147     3904 
    3834     3996     4266     4496     4634     4579     4311     4001 
    3870     4091     4585     5077     5412     5501     5333     4969 
    4445     3966     3788     3873     4033     4221     4484     4807 
    5190     5695     6191     6493     6643     6745     6860     6933 
    6771     6380     5998     5697     5406     5185     5081     4996 
    4958     5125     5555     6205     6924     7445     7572     7264 
    6601     5749     5017     4648     4471     4266     4071     3871 
    3705     3746     3967     4283     4666     4963     5032     4819 
    4417     4099     4059     4237     4364     4203     3854     3538 
    3318     3264     3497     4020     4656     5235     5613     5653 
    5447     5128     4730     4337     3959     3682     3751     4230 
    4951     5719     6455     7173     7862     8337     8318     7816 
    6988     5849     4541     3379     2575     2205     2214     2493 
    3086     3978     4880     5482     5657     5414     4969     4673 
    4718     5046     5452     5725     5802     5714     5491     5117 
    4530     3838     3314     3113     3199     3388     3507     3596 
    3754     4028     4499     5111     5733     6413     7096     7545 
    7620     7256     6583     5933     5375     4764     4151     3774 
    3685     3701     3777     3879     3844     3654     3424     3321 
    3477     3754     4002     4201     4228     4135     4170     4315 
    4422     4403     4205     4033     4140     4415     4634     4777 
    4876     4950     5148     5621     6322     7049     7605     7936 
    8047     7830     7288     6602     5886     5292     4955     4870 
    5084     5517     5873     5940     5647     5104     4581     4371 
    4689     5421     6150     6529     6411     6012     5829     6100 
    6658     7126     7165     6754     6107     5405     4666     3824 
    2995     2431     2245     2439     2917     3447     3786     3920 
    4031     4178     4330     4509     4653     4660     4568     4550 
    4716     4899     4812     4463     4058     3630     3271     3202 
    3375     3708     4260     4851     5296     5622     5780     5705 
    5464     5166     4842     4374     3755     3245     3009     3067 
    3537     4307     4916     5163     5260     5381     5621     6060 
    6664     7292     7676     7611     7233     6741     6099     5336 
    4639     4093     3711     3532     3585     3906     4523     5309 
    6141     6952     7561     7840     7724     7069     5995     4870 
    3923     3419     3547     4083     4752     5341     5541     5313 
    4909     4522     4337     4432     4758     5278     5768     5933 
    5780     5572     5448     5320     5206     5201     5174     4923 
    4459     3960     3403     2755     2409     2686     3392     4151 
    4803     5455     6120     6636     6880     6700     6075     5333 
    4793     4421     4067     3771     3704     3928     4330     4843 
    5486     6129     6539     6625     6408     5954     5395     4855 
    4432     4220     4270     4471     4745     5255     6060     6860 
    7341     7331     6805     5925     4885     3808     2812     2057 
    1804     2255     3269     4538     5834     6913     7580     7838 
    7696     7117     6253     5373     4592     3958     3611     3537 
    3624     3950     4421     4788     5026     5105     5040     5000 
    4853     4302     3473     2785     2613     3179     4143     4970 
    5751     6575     7141     7323     7101     6532     5833     5135 
    4625     4382     4151     3854     3599     3360     3277     3605 
    4228     4819     5167     5312     5564     5979     6165     5973 
    5601     5158     4714     4288     3724     3022     2544     2629 
    3246     4077     4780     5208     5375     5366     5354     5437 
    5510     5490     5472     5553     5663     5778     5930     6016 
    6025     6151     6382     6467     6411     6311     6064     5668 
    5209     4637     4000     3465     3073     2887     3037     3393 
    3657     3773     3882     3981     4024     4044     4048     4166 
    4499     4792     4839     4669     4352     4126     4172     4392 
    4750     5252     5706     5980     6268     6751     7308     7788 
    8110     8171     7905     7311     6443     5389     4303     3577 
    3534     3919     4322     4692     4958     4953     4708     4387 
    4195     4207     4359     4626     4882     4985     4873     4525 
    4212     4244     4459     4560     4509     4449     4472     4526 
    4707     5239     6014     6816     7600     8105     7965     7159 
    5888     4452     3198     2376     2115     2355     2812     3180 
    3379     3476     3542     3738     4193     4853     5559     6111 
    6312     5958     5051     3981     3154     2785     2928     3501 
    4417     5512     6579     7558     8338     8799     8997     8947 
    8537     7651     6304     4684     2978     1386      168     -534 
    -534      419     2226     4452     6605     8276     9336     9873 
   10042     9880     9238     8114     6705     5186     3713     2486 
    1826     1962     2776     3970     5328     6732     7788     7929 
    7101     5749     4477     3678     3213     2817     2525     2374 
    2257     2092     1950     2238     3268     4693     6021     6939 
    7153     6793     6323     5953     5800     6007     6319     6307 
    5937     5439     4924     4446     4135     4045     4081     4168 
    4291     4378     4382     4384     4557     5011     5566     5903 
    5983     5953     5856     5713     5528     5192     4816     4696 
    4720     4499     3993     3415     2897     2596     2674     3133 
    3781     4364     4907     5559     6131     6380     6328     6070 
    5706     5290     4769     4230     3858     3692     3694     3805 
    3994     4464     5229     5800     5900     5760     5659     5844 
    6392     7011     7339     7285     7106     7018     6883     6574 
    6107     5549     5139     5143     5680     6662     7811     8910 
    9802    10196     9891     9123     8162     6902     5417     4078 
    3071     2569     2570     2694     2870     3218     3483     3457 
    3335     3451     3952     4702     5382     5532     4976     4166 
    3604     3438     3620     4012     4565     5197     5645     5842 
    5813     5568     5505     5949     6629     7186     7437     7142 
    6111     4503     2805     1401      449      145      450      973 
    1462     1836     2204     2929     4180     5742     7156     7948 
    8159     8139     7996     7884     8048     8297     8186     7650 
    7134     7117     7481     7716     7554     6991     6124     5147 
    4051     2744     1553      939     1020     1429     1652     1710 
    1791     1838     2043     2731     3931     5400     6605     7099 
    7125     7141     7040     6679     6390     6384     6408     6151 
    5614     5076     4656     4287     4155     4453     4853     4864 
    4395     3627     2839     2500     2840     3568     4364     5065 
    5559     5869     5942     5705     5368     5177     5151     5119 
    4869     4449     3971     3609     3680     4172     4789     5319 
    5584     5433     4919     4461     4441     4725     4974     5096 
    5233     5383     5425     5556     5952     6424     6714     6535 
    5765     4791     4077     3673     3334     2972     2889     3235 
    3777     4437     5206     5886     6438     6921     7240     7203 
    6666     5815     5042     4461     4071     3905     3954     4467 
    5574     6799     7765     8357     8343     7635     6320     4608 
    3007     1900     1413     1512     2027     3084     4723     6453 
    7884     8742     8727     7938     6723     5367     4002     2774 
    2030     1904     2188     2795     3717     4734     5649     6388 
    6820     6961     6872     6292     5096     3649     2469     1973 
    2430     3792     5621     7488     9151    10219    10493    10274 
    9694     8560     6893     5089     3647     2744     2289     2384 
    3149     4328     5528     6457     6767     6299     5483     4892 
    4426     3690     2884     2309     1740     1124      731      592 
     711     1024     1285     1470     1517     1281     1138     1607 
    2745     4390     6319     8160     9634    10638    11148    11271 
   11011    10438     9850     9147     8114     7145     6515     5988 
    5436     5016     4963     5266     5467     5198     4615     4031 
    3496     2948     2540     2596     3210     4102     4878     5285 
    5402     5549     5668     5366     4774     4407     4337     4382 
    4430     4402     4553     5078     5609     5919     6114     6313 
    6762     7296     7362     6804     5786     4652     3681     2602 
    1395      591      375      652     1339     2215     3075     3645 
    3775     3908     4521     5584     6764     7555     7647     7249 
    6681     6134     5738     5512     5459     5564     5670     5705 
    5748     5859     6103     6474     6771     6960     7184     7345 
    7288     7145     7090     7119     7134     6906     6358     5836 
    5413     4762     4018     3588     3537     3865     4606     5435 
    5841     5721     5413     5240     5262     5394     5590     5819 
    6031     6210     6343     6335     6112     5624     4756     3642 
    2766     2261     1956     2182     3257     4746     6191     7533 
    8660     9238     9093     8469     7678     6816     5730     4102 
    2085      326     -923    -1659    -1794    -1426     -564      697 
    1848     2632     3314     4097     4773     5128     5292     5363 
    5340     5294     5088     4569     3975     3612     3704     4314 
    5092     5595     5633     5296     4963     4904     4941     4969 
    5166     5418     5532     5611     5655     5676     5918     6389 
    6845     7037     6886     6624     6498     6558     6768     7020 
    7249     7508     7711     7703     7587     7515     7376     7009 
    6349     5375     4233     3204     2583     2631     3307     4340 
    5568     6721     7288     7014     6126     5042     4055     3148 
    2072      822     -228     -805     -884     -577     -122      463 
    1335     2517     3901     5096     5707     5759     5302     4511 
    3906     3653     3458     3240     3177     3492     4221     5047 
    5513     5463     5181     4912     4580     4193     3946     3901 
    3936     3915     3940     4234     4815     5495     6034     6334 
    6385     6261     6292     6594     6885     6988     6859     6586 
    6470     6565     6635     6559     6351     6156     6056     5940 
    5829     5751     5513     5254     5374     5796     6174     6419 
    6650     6940     7175     7176     6855     6293     5799     5609 
    5572     5506     5437     5325     5080     4792     4549     4347 
    4326     4558     4839     5090     5277     5220     4959     4672 
    4446     4325     4218     4117     4220     4599     5121     5575 
    5838     6008     6146     6070     5663     5136     4803     4729 
    4834     5055     5340     5665     6007     6277     6512     6840 
    7140     7079     6500     5674     5007     4561     4271     4133 
    4104     4220     4571     5019     5302     5440     5621     5775 
    5807     5830     5775     5520     5217     4932     4598     4374 
    4415     4611     4789     4878     4931     5186     5745     6265 
    6461     6357     5954     5252     4266     3092     2092     1491 
    1127      760      406      388      851     1534     2238     2992 
    3780     4464     4935     5225     5456     5713     5929     6003 
    6011     6153     6501     6871     7145     7375     7384     6964 
    6291     5557     4683     3627     2621     1962     1745     1819 
    2076     2535     3134     3788     4533     5252     5690     5853 
    5856     5625     5125     4587     4275     4183     4294     4812 
    5836     7198     8484     9262     9470     9234     8604     7731 
    6787     5861     5043     4460     4203     4116     4064     4310 
    4958     5724     6311     6527     6411     6164     5854     5547 
    5370     5398     5687     6189     6747     7230     7661     8106 
    8349     8144     7630     6845     5614     4133     2755     1489 
     398     -133      121      939     2042     3294     4426     5259 
    5922     6447     6708     6737     6627     6411     6261     6286 
    6249     5921     5337     4722     4279     3969     3705     3505 
    3349     3188     2948     2651     2543     2668     2756     2805 
    3018     3298     3511     3778     4217     4897     5822     6642 
    7063     7242     7294     7202     7022     6683     6285     6161 
    6288     6403     6377     6214     6000     5718     5409     5333 
    5454     5543     5548     5362     5026     4864     5017     5377 
    5706     5778     5594     5265     4876     4486     3962     3257 
    2722     2566     2536     2447     2340     2223     2199     2509 
    3219     4112     4853     5146     4931     4392     3743     3240 
    3086     3164     3391     3890     4372     4463     4396     4391 
    4357     4229     3790     3075     2397     1722     1090      704 
     581      891     1732     2945     4438     5887     6895     7503 
    7885     8135     8259     8166     7955     7846     7909     8191 
    8575     8696     8425     7989     7699     7693     7823     7871 
    7720     7379     7030     6690     6246     5881     5776     5907 
    6304     6840     7233     7400     7335     7042     6678     6332 
    5941     5482     5022     4627     4332     3982     3384     2747 
    2331     2107     2172     2650     3315     3904     4275     4349 
    4136     3793     3599     3642     3846     4175     4429     4521 
    4598     4565     4322     4043     3867     3901     4090     4213 
    4351     4675     5076     5391     5541     5624     5756     5728 
    5366     4904     4704     4973     5582     6127     6326     6219 
    5984     5691     5282     4795     4357     4006     3823     3952 
    4329     4787     5255     5660     6014     6343     6498     6366 
    6046     5647     5213     4837     4483     4040     3604     3257 
    3017     2992     3188     3461     3682     3921     4310     4642 
    4743     4745     4495     3813     3040     2548     2407     2532 
    2744     3073     3780     4927     6222     7194     7603     7546 
    7122     6453     5803     5367     5116     4884     4596     4463 
    4661     5059     5493     5890     6226     6462     6498     6436 
    6469     6544     6670     6910     7110     7150     7017     6681 
    6115     5323     4525     3964     3607     3395     3354     3504 
    4002     4880     5859     6689     7214     7441     7573     7641 
    7507     7075     6242     5161     4225     3601     3226     3009 
    2810     2651     2697     2916     3252     3748     4178     4357 
    4438     4445     4409     4529     4653     4580     4554     4754 
    5098     5551     5941     5962     5633     5228     4932     4814 
    4824     4837     4738     4515     4226     3944     3801     3815 
    3856     3936     4072     4147     4155     4176     4261     4479 
    4833     5179     5393     5466     5420     5202     4788     4267 
