Origin Time       2025/01/13 21:19:00
Lat.              31.8
Long.             131.6
Depth. (km)       30
Mag.              6.9
Station Code      EHM007
Station Lat.      33.9616
Station Long.     132.7719
Station Height(m) 3
Record Time       2025/01/13 21:20:35
Sampling Freq(Hz) 100Hz
Duration Time(s)  92
Dir.              N-S
Scale Factor      7845(gal)/8223790
Max. Acc. (gal)   4.023
Last Correction   2025/01/13 21:20:35
Memo.             
[...]
   -4502    -4349    -4129    -3902    -3684    -3586    -3574    -3585 
   -3673    -3788    -3886    -3909    -3886    -3877    -3834    -3765 
   -3697    -3696    -3804    -3921    -3973    -3962    -3962    -3948 
   -3858    -3835    -3975    -4210    -4438    -4595    -4714    -4826 
   -4909    -4903    -4795    -4652    -4534    -4480    -4472    -4480 
   -4407    -4198    -3993    -3863    -3816    -3892    -4058    -4253 
   -4422    -4500    -4441    -4287    -4160    -4114    -4091    -4014 
   -3894    -3827    -3885    -4017    -4121    -4218    -4306    -4360 
   -4465    -4617    -4702    -4730    -4797    -4959    -5236    -5590 
   -5817    -5805    -5659    -5418    -5103    -4822    -4648    -4565 
   -4541    -4553    -4622    -4760    -4880    -4876    -4787    -4726 
   -4764    -4900    -5017    -5040    -5039    -5070    -5135    -5208 
   -5252    -5217    -5104    -5007    -5024    -5112    -5101    -4942 
   -4742    -4502    -4207    -3981    -3908    -3939    -3960    -3886 
   -3707    -3478    -3256    -3088    -3015    -3055    -3176    -3322 
   -3461    -3559    -3596    -3643    -3775    -3974    -4137    -4170 
   -4090    -4001    -3927    -3877    -3928    -4051    -4139    -4170 
   -4153    -4128    -4174    -4274    -4351    -4425    -4490    -4495 
   -4437    -4371    -4353    -4388    -4527    -4839    -5258    -5647 
   -5922    -6079    -6133    -6102    -6014    -5888    -5742    -5571 
   -5386    -5212    -5038    -4855    -4683    -4606    -4711    -4930 
   -5125    -5213    -5174    -5077    -4958    -4823    -4803    -4939 
   -5039    -4965    -4768    -4542    -4382    -4356    -4410    -4463 
   -4541    -4599    -4563    -4519    -4476    -4395    -4336    -4272 
   -4240    -4286    -4306    -4240    -4082    -3878    -3746    -3719 
   -3759    -3843    -3955    -4043    -4091    -4117    -4109    -4108 
   -4105    -4006    -3821    -3642    -3524    -3450    -3391    -3395 
   -3518    -3750    -4001    -4191    -4301    -4313    -4264    -4248 
   -4278    -4291    -4317    -4415    -4565    -4768    -4995    -5174 
   -5319    -5414    -5416    -5317    -5146    -4978    -4861    -4761 
   -4696    -4723    -4787    -4812    -4820    -4837    -4826    -4725 
   -4545    -4361    -4168    -3925    -3649    -3407    -3253    -3183 
   -3207    -3385    -3699    -4012    -4213    -4266    -4195    -4091 
   -4020    -3986    -4014    -4143    -4376    -4685    -4977    -5108 
   -5016    -4789    -4558    -4410    -4340    -4307    -4261    -4132 
   -3974    -3964    -4147    -4410    -4707    -5069    -5447    -5725 
   -5881    -5887    -5699    -5385    -5059    -4807    -4639    -4536 
   -4519    -4569    -4595    -4602    -4661    -4739    -4747    -4658 
   -4519    -4441    -4479    -4583    -4734    -4951    -5186    -5364 
   -5460    -5481    -5456    -5441    -5439    -5386    -5238    -4990 
   -4680    -4340    -3982    -3663    -3458    -3326    -3186    -3109 
   -3140    -3134    -3086    -3142    -3254    -3331    -3410    -3481 
   -3565    -3705    -3836    -3963    -4170    -4382    -4500    -4583 
   -4675    -4716    -4668    -4484    -4159    -3805    -3550    -3392 
   -3235    -3015    -2825    -2817    -2990    -3260    -3581    -3924 
   -4257    -4502    -4668    -4878    -5094    -5232    -5324    -5400 
   -5495    -5706    -6038    -6367    -6625    -6795    -6802    -6623 
   -6357    -6100    -5887    -5732    -5655    -5632    -5637    -5628 
   -5556    -5404    -5142    -4830    -4550    -4252    -3909    -3586 
   -3370    -3265    -3153    -3033    -2970    -2959    -3002    -3103 
   -3280    -3478    -3595    -3640    -3672    -3699    -3685    -3605 
   -3504    -3396    -3258    -3113    -3032    -3029    -3034    -3036 
   -3055    -3132    -3264    -3383    -3535    -3808    -4144    -4492 
   -4881    -5327    -5810    -6266    -6588    -6739    -6750    -6662 
   -6524    -6377    -6227    -6048    -5832    -5609    -5394    -5204 
   -5036    -4872    -4723    -4612    -4515    -4392    -4267    -4143 
   -4008    -3973    -4033    -4071    -4139    -4237    -4297    -4311 
   -4302    -4337    -4372    -4351    -4305    -4284    -4347    -4399 
   -4396    -4444    -4580    -4769    -4924    -5088    -5314    -5462 
   -5549    -5749    -5985    -6157    -6355    -6450    -6366    -6309 
   -6235    -6168    -6143    -6000    -5849    -5679    -5425    -5186 
   -4935    -4716    -4529    -4384    -4291    -4202    -4202    -4179 
   -4144    -4144    -4008    -3879    -3847    -3874    -3978    -4025 
   -4055    -4079    -4060    -3994    -3773    -3493    -3246    -3052 
   -2992    -3006    -3045    -3094    -3118    -3146    -3196    -3249 
   -3283    -3337    -3415    -3539    -3781    -4091    -4417    -4679 
   -4816    -4918    -5013    -5038    -4950    -4764    -4534    -4353 
   -4302    -4302    -4268    -4237    -4162    -4016    -3866    -3731 
   -3589    -3435    -3323    -3304    -3368    -3487    -3636    -3765 
   -3854    -3979    -4155    -4306    -4444    -4584    -4725    -4918 
   -5136    -5324    -5522    -5737    -5919    -6062    -6166    -6231 
   -6286    -6299    -6254    -6235    -6227    -6189    -6180    -6170 
   -6114    -6065    -6049    -6056    -6127    -6241    -6330    -6430 
   -6554    -6642    -6658    -6643    -6674    -6627    -6388    -6143 
   -5872    -5489    -5152    -4766    -4364    -4145    -3948    -3808 
   -3782    -3596    -3269    -2948    -2573    -2222    -1973    -1726 
   -1590    -1644    -1678    -1674    -1674    -1599    -1470    -1341 
   -1274    -1289    -1372    -1549    -1803    -2092    -2390    -2656 
   -2814    -2790    -2659    -2523    -2374    -2263    -2251    -2324 
   -2450    -2597    -2781    -3032    -3365    -3771    -4197    -4596 
   -4986    -5347    -5636    -5892    -6143    -6322    -6388    -6366 
   -6326    -6286    -6196    -6031    -5891    -5848    -5690    -5406 
   -5217    -4955    -4680    -4576    -4407    -4278    -4201    -3993 
   -3763    -3427    -3024    -2659    -2319    -2101    -1941    -1858 
   -1858    -1854    -1858    -1845    -1977    -2228    -2413    -2566 
   -2679    -2821    -3046    -3321    -3609    -3840    -4031    -4183 
   -4288    -4340    -4361    -4438    -4488    -4533    -4638    -4725 
   -4860    -4974    -4992    -5032    -5140    -5319    -5510    -5725 
   -5979    -6218    -6493    -6732    -6852    -6932    -7026    -7142 
   -7186    -7164    -7198    -7231    -7213    -7164    -7052    -6852 
   -6581    -6297    -6089    -5913    -5725    -5628    -5629    -5637 
   -5653    -5680    -5655    -5537    -5398    -5294    -5170    -5057 
   -4985    -4888    -4797    -4725    -4638    -4554    -4484    -4411 
   -4293    -4117    -3909    -3686    -3473    -3308    -3249    -3294 
   -3407    -3599    -3850    -4125    -4364    -4492    -4518    -4457 
   -4359    -4286    -4202    -4136    -4143    -4164    -4185    -4191 
   -4101    -3975    -3875    -3663    -3365    -3110    -2906    -2764 
   -2647    -2542    -2458    -2394    -2428    -2513    -2648    -2890 
   -3156    -3407    -3658    -3929    -4156    -4294    -4432    -4585 
   -4758    -4931    -5053    -5179    -5327    -5478    -5633    -5780 
   -5933    -6070    -6162    -6141    -6038    -5999    -5944    -5914 
   -6016    -6038    -5973    -5914    -5769    -5625    -5487    -5358 
   -5308    -5243    -5217    -5273    -5305    -5329    -5374    -5378 
   -5242    -5116    -5063    -4930    -4828    -4747    -4645    -4610 
   -4487    -4301    -4133    -3900    -3642    -3385    -3080    -2720 
   -2394    -2124    -1846    -1614    -1489    -1486    -1566    -1674 
   -1829    -2072    -2386    -2725    -3103    -3473    -3788    -4066 
   -4295    -4526    -4791    -5094    -5508    -5999    -6448    -6818 
   -7101    -7254    -7267    -7191    -7113    -7061    -6997    -6864 
   -6659    -6417    -6165    -5910    -5620    -5285    -4968    -4693 
   -4465    -4298    -4164    -4035    -3932    -3870    -3805    -3734 
   -3686    -3632    -3551    -3478    -3457    -3520    -3616    -3645 
   -3595    -3481    -3349    -3261    -3215    -3240    -3364    -3535 
   -3734    -3948    -4117    -4263    -4406    -4490    -4517    -4565 
   -4680    -4827    -4923    -4930    -4887    -4793    -4614    -4384 
   -4152    -3929    -3736    -3597    -3507    -3439    -3376    -3326 
   -3281    -3222    -3169    -3157    -3188    -3187    -3123    -3107 
   -3191    -3339    -3574    -3869    -4132    -4329    -4477    -4641 
   -4847    -5053    -5215    -5292    -5317    -5370    -5406    -5401 
   -5382    -5333    -5278    -5239    -5177    -5046    -4792    -4441 
   -4139    -3946    -3817    -3805    -3923    -4050    -4129    -4191 
   -4243    -4290    -4334    -4399    -4561    -4822    -5104    -5428 
   -5795    -6108    -6369    -6635    -6825    -6905    -6974    -7042 
   -7052    -7047    -7057    -6990    -6760    -6392    -5960    -5498 
   -5074    -4770    -4523    -4275    -4039    -3782    -3468    -3100 
   -2720    -2370    -2060    -1786    -1595    -1495    -1443    -1436 
   -1479    -1540    -1588    -1570    -1503    -1493    -1545    -1618 
   -1763    -2025    -2371    -2759    -3138    -3500    -3875    -4279 
   -4685    -5067    -5400    -5628    -5752    -5846    -5931    -5913 
   -5772    -5632    -5510    -5367    -5248    -5165    -5084    -5035 
   -5023    -5019    -5067    -5198    -5354    -5516    -5697    -5868 
   -6038    -6205    -6309    -6315    -6273    -6280    -6334    -6376 
   -6417    -6453    -6397    -6219    -5902    -5436    -4860    -4199 
   -3510    -2920    -2482    -2134    -1898    -1818    -1837    -1904 
   -2007    -2177    -2475    -2866    -3292    -3746    -4166    -4488 
   -4710    -4846    -4916    -4930    -4861    -4696    -4473    -4209 
   -3944    -3744    -3586    -3430    -3302    -3204    -3118    -3100 
   -3203    -3396    -3649    -3954    -4314    -4680    -5017    -5368 
   -5753    -6156    -6550    -6902    -7191    -7358    -7380    -7306 
   -7141    -6922    -6725    -6517    -6276    -6076    -5919    -5733 
   -5553    -5459    -5445    -5459    -5443    -5398    -5351    -5289 
   -5170    -5008    -4908    -4873    -4776    -4627    -4450    -4226 
   -4001    -3800    -3655    -3591    -3565    -3524    -3388    -3207 
   -3125    -3087    -2988    -2902    -2866    -2806    -2718    -2663 
   -2674    -2749    -2872    -3040    -3261    -3507    -3720    -3879 
   -4017    -4164    -4321    -4488    -4627    -4703    -4745    -4770 
   -4768    -4734    -4639    -4486    -4348    -4297    -4313    -4355 
   -4469    -4645    -4787    -4908    -5031    -5086    -5097    -5127 
   -5136    -5078    -4970    -4842    -4656    -4378    -4064    -3747 
   -3416    -3106    -2857    -2717    -2690    -2713    -2774    -2903 
   -3090    -3329    -3653    -4045    -4453    -4869    -5279    -5670 
   -6060    -6424    -6723    -6928    -6978    -6903    -6797    -6650 
   -6455    -6249    -6065    -5927    -5818    -5678    -5483    -5277 
   -5089    -4895    -4737    -4722    -4799    -4854    -4993    -5219 
   -5427    -5760    -6072    -6195    -6300    -6309    -6218    -6073 
   -5823    -5593    -5344    -5086    -4849    -4568    -4329    -4071 
   -3784    -3519    -3253    -3032    -2803    -2624    -2520    -2403 
   -2322    -2276    -2282    -2338    -2369    -2394    -2401    -2362 
   -2270    -2174    -2083    -1939    -1783    -1582    -1324    -1081 
    -823     -595     -441     -360     -352     -383     -507     -724 
    -988    -1339    -1783    -2249    -2663    -3067    -3504    -3917 
   -4283    -4627    -4935    -5211    -5532    -5908    -6246    -6488 
   -6650    -6781    -6878    -6934    -7014    -7109    -7107    -6984 
   -6939    -7026    -7002    -6979    -7049    -6971    -6924    -6913 
   -6794    -6793    -6824    -6916    -7138    -7319    -7565    -7786 
   -7897    -7933    -7836    -7676    -7356    -6970    -6644    -6188 
   -5710    -5331    -4950    -4631    -4407    -4218    -4133    -4124 
   -4059    -4004    -3948    -3862    -3780    -3681    -3620    -3534 
   -3331    -3115    -2902    -2623    -2384    -2274    -2139    -2012 
   -1899    -1652    -1448    -1310    -1151    -1036     -970     -981 
   -1036    -1175    -1426    -1701    -2034    -2416    -2813    -3177 
   -3480    -3804    -4164    -4525    -4877    -5285    -5725    -6077 
   -6374    -6646    -6885    -7096    -7292    -7519    -7757    -7979 
   -8183    -8340    -8421    -8376    -8205    -7974    -7727    -7501 
   -7357    -7269    -7128    -6918    -6702    -6458    -6126    -5730 
   -5339    -4977    -4631    -4328    -4091    -3877    -3676    -3539 
   -3434    -3307    -3172    -3057    -2955    -2803    -2624    -2502 
   -2403    -2258    -2087    -1912    -1796    -1737    -1667    -1620 
   -1629    -1661    -1756    -1964    -2262    -2593    -2979    -3468 
   -3969    -4425    -4888    -5331    -5703    -5933    -6006    -6048 
   -6118    -6177    -6218    -6254    -6259    -6191    -6069    -5917 
   -5740    -5607    -5540    -5475    -5439    -5493    -5609    -5738 
   -5842    -5925    -6027    -6139    -6208    -6234    -6226    -6185 
   -6133    -6066    -5988    -5917    -5792    -5618    -5463    -5297 
   -5107    -4914    -4695    -4465    -4229    -3959    -3653    -3330 
   -2991    -2650    -2343    -2089    -1858    -1629    -1368    -1069 
    -803     -602     -433     -309     -241     -253     -352     -481 
    -623     -764     -834     -872     -942     -982    -1000    -1062 
   -1167    -1335    -1575    -1873    -2211    -2531    -2816    -3087 
   -3341    -3599    -3905    -4271    -4648    -4978    -5283    -5576 
   -5814    -6016    -6245    -6488    -6698    -6868    -7022    -7145 
   -7184    -7179    -7231    -7330    -7411    -7476    -7541    -7608 
   -7663    -7693    -7704    -7701    -7692    -7669    -7573    -7373 
   -7098    -6751    -6380    -6062    -5768    -5468    -5224    -5053 
   -4919    -4774    -4575    -4351    -4132    -3893    -3631    -3370 
   -3145    -2967    -2833    -2790    -2871    -3042    -3302    -3607 
   -3852    -4021    -4147    -4228    -4287    -4356    -4436    -4514 
   -4546    -4530    -4486    -4407    -4333    -4280    -4209    -4126 
   -4033    -3902    -3774    -3700    -3673    -3692    -3755    -3836 
   -3960    -4162    -4398    -4623    -4861    -5125    -5360    -5530 
   -5621    -5601    -5466    -5266    -5111    -5053    -4984    -4905 
   -4950    -5000    -4946    -4953    -4980    -4941    -4936    -4903 
   -4853    -4801    -4665    -4550    -4405    -4217    -4145    -4083 
   -4009    -4013    -4013    -3986    -4028    -4087    -4085    -4110 
   -4144    -4128    -4101    -4077    -4040    -3979    -3948    -3959 
   -3994    -4047    -4094    -4176    -4255    -4284    -4348    -4480 
   -4631    -4743    -4872    -5043    -5181    -5290    -5425    -5564 
   -5676    -5775    -5859    -5923    -5961    -5962    -5957    -5935 
   -5877    -5802    -5714    -5576    -5408    -5255    -5112    -4981 
   -4876    -4770    -4648    -4461    -4194    -3898    -3618    -3369 
   -3157    -3006    -2928    -2895    -2911    -2991    -3107    -3237 
   -3379    -3547    -3730    -3925    -4180    -4463    -4684    -4864 
   -5034    -5170    -5273    -5336    -5346    -5282    -5189    -5121 
   -5001    -4837    -4684    -4507    -4382    -4303    -4186    -4086 
   -4013    -3943    -3908    -3916    -3959    -3991    -3948    -3850 
   -3720    -3605    -3553    -3492    -3435    -3431    -3406    -3403 
   -3485    -3586    -3684    -3780    -3890    -4052    -4247    -4433 
   -4598    -4731    -4810    -4853    -4924    -5055    -5213    -5368 
   -5514    -5624    -5678    -5713    -5746    -5778    -5840    -5919 
   -5973    -6010    -6029    -6018    -5995    -5957    -5875    -5767 
   -5645    -5491    -5324    -5159    -4978    -4774    -4549    -4325 
   -4114    -3902    -3686    -3465    -3204    -2945    -2762    -2641 
   -2575    -2558    -2577    -2647    -2774    -2948    -3153    -3329 
   -3430    -3504    -3592    -3715    -3873    -4014    -4120    -4207 
   -4263    -4267    -4240    -4199    -4147    -4099    -4055    -4010 
   -3973    -3919    -3812    -3665    -3538    -3473    -3487    -3589 
   -3762    -3962    -4175    -4359    -4465    -4515    -4546    -4526 
   -4455    -4403    -4399    -4374    -4297    -4232    -4218    -4226 
   -4264    -4348    -4438    -4519    -4635    -4799    -4953    -5036 
   -5088    -5127    -5090    -4989    -4882    -4760    -4619    -4483 
   -4355    -4207    -3997    -3743    -3503    -3271    -3052    -2930 
   -2911    -2920    -2957    -3042    -3140    -3237    -3339    -3456 
   -3601    -3732    -3811    -3900    -4031    -4174    -4326    -4465 
   -4594    -4725    -4862    -5034    -5233    -5416    -5544    -5630 
   -5697    -5745    -5769    -5741    -5651    -5560    -5535    -5562 
   -5583    -5589    -5599    -5591    -5537    -5449    -5368    -5336 
   -5356    -5387    -5374    -5285    -5155    -5027    -4904    -4795 
   -4699    -4631    -4607    -4604    -4611    -4600    -4542    -4461 
   -4405    -4440    -4563    -4696    -4842    -5004    -5131    -5208 
   -5221    -5185    -5163    -5171    -5169    -5123    -5093    -5109 
   -5103    -5058    -5024    -4989    -4908    -4768    -4587    -4387 
   -4166    -3948    -3780    -3640    -3553    -3569    -3624    -3686 
   -3825    -4024    -4209    -4411    -4673    -4941    -5170    -5382 
   -5589    -5791    -5975    -6118    -6228    -6299    -6295    -6207 
   -6050    -5840    -5610    -5377    -5109    -4824    -4585    -4386 
   -4148    -3912    -3840    -3846    -3773    -3804    -3874    -3838 
   -3871    -3859    -3802    -3840    -3801    -3753    -3696    -3582 
   -3512    -3407    -3345    -3335    -3296    -3277    -3252    -3191 
   -3075    -3040    -3021    -2862    -2857    -2911    -2886    -2964 
   -2953    -2938    -3021    -3009    -3078    -3226    -3366    -3531 
   -3647    -3748    -3823    -3893    -3969    -4029    -4156    -4283 
   -4417    -4540    -4550    -4523    -4515    -4536    -4529    -4482 
   -4444    -4352    -4326    -4365    -4329    -4353    -4415    -4426 
   -4487    -4572    -4602    -4596    -4607    -4588    -4558    -4611 
   -4660    -4673    -4702    -4745    -4787    -4831    -4934    -5047 
   -5103    -5147    -5179    -5178    -5134    -5078    -5074    -5111 
   -5162    -5215    -5260    -5289    -5274    -5248    -5260    -5309 
   -5356    -5416    -5562    -5699    -5745    -5818    -5875    -5844 
   -5823    -5807    -5817    -5856    -5834    -5841    -5861    -5821 
   -5778    -5680    -5575    -5491    -5400    -5375    -5360    -5339 
   -5320    -5173    -4946    -4738    -4531    -4301    -4000    -3688 
   -3418    -3175    -2995    -2903    -2893    -2937    -2978    -3009 
   -3026    -3057    -3145    -3249    -3349    -3441    -3510    -3592 
   -3657    -3680    -3697    -3732    -3762    -3755    -3778    -3813 
   -3792    -3775    -3742    -3686    -3699    -3688    -3611    -3516 
   -3399    -3322    -3306    -3333    -3391    -3443    -3493    -3532 
   -3601    -3680    -3721    -3807    -3946    -4131    -4390    -4656 
