Origin Time       2025/01/13 21:19:00
Lat.              31.8
Long.             131.6
Depth. (km)       30
Mag.              6.9
Station Code      EHM016
Station Lat.      33.7654
Station Long.     132.7089
Station Height(m) 3
Record Time       2025/01/13 21:20:29
Sampling Freq(Hz) 100Hz
Duration Time(s)  114
Dir.              U-D
Scale Factor      7845(gal)/8223790
Max. Acc. (gal)   4.856
Last Correction   2025/01/13 21:20:29
Memo.             
[...]
   -4526    -4534    -4533    -4642    -4815    -4909    -4962    -5036 
   -5022    -4918    -4888    -4908    -4827    -4706    -4677    -4696 
   -4692    -4727    -4833    -4864    -4787    -4735    -4716    -4631 
   -4522    -4465    -4390    -4257    -4210    -4301    -4409    -4500 
   -4604    -4688    -4681    -4590    -4472    -4314    -4125    -4012 
   -3963    -3858    -3755    -3762    -3763    -3681    -3650    -3697 
   -3677    -3576    -3507    -3456    -3375    -3385    -3550    -3724 
   -3808    -3863    -3939    -3967    -3964    -4044    -4190    -4303 
   -4392    -4479    -4518    -4507    -4568    -4715    -4818    -4881 
   -4974    -5008    -4916    -4833    -4843    -4843    -4789    -4765 
   -4757    -4710    -4730    -4895    -5027    -4990    -4896    -4827 
   -4734    -4576    -4409    -4287    -4152    -4004    -3967    -4063 
   -4158    -4202    -4226    -4217    -4195    -4245    -4340    -4363 
   -4309    -4232    -4109    -3944    -3852    -3892    -3958    -3987 
   -4039    -4085    -4037    -3956    -3962    -4018    -4045    -4087 
   -4199    -4284    -4278    -4283    -4324    -4299    -4240    -4252 
   -4307    -4302    -4257    -4255    -4280    -4294    -4353    -4504 
   -4684    -4823    -4908    -4972    -5055    -5143    -5151    -5046 
   -4915    -4866    -4884    -4857    -4819    -4884    -4961    -4927 
   -4854    -4760    -4565    -4347    -4232    -4189    -4094    -3970 
   -3921    -3936    -3974    -4081    -4230    -4317    -4368    -4476 
   -4567    -4553    -4523    -4548    -4545    -4492    -4463    -4417 
   -4284    -4176    -4199    -4228    -4141    -4060    -4112    -4203 
   -4261    -4365    -4488    -4515    -4511    -4553    -4553    -4482 
   -4433    -4394    -4286    -4190    -4220    -4279    -4257    -4228 
   -4230    -4180    -4116    -4158    -4268    -4345    -4386    -4437 
   -4475    -4456    -4445    -4464    -4392    -4260    -4214    -4213 
   -4193    -4197    -4218    -4183    -4089    -4028    -4005    -3940 
   -3942    -4148    -4430    -4612    -4734    -4851    -4869    -4772 
   -4708    -4679    -4558    -4423    -4413    -4460    -4438    -4376 
   -4341    -4268    -4125    -4041    -4028    -3944    -3854    -3883 
   -3948    -3967    -4040    -4176    -4245    -4239    -4287    -4367 
   -4353    -4299    -4325    -4390    -4450    -4568    -4695    -4719 
   -4695    -4731    -4768    -4737    -4781    -4958    -5062    -5031 
   -4996    -4965    -4855    -4707    -4622    -4573    -4452    -4306 
   -4226    -4141    -4006    -3909    -3877    -3859    -3888    -4006 
   -4143    -4229    -4309    -4374    -4361    -4334    -4392    -4475 
   -4479    -4423    -4337    -4170    -3989    -3974    -4120    -4251 
   -4321    -4371    -4349    -4248    -4153    -4113    -4110    -4118 
   -4145    -4225    -4298    -4288    -4256    -4232    -4158    -4078 
   -4054    -4027    -3937    -3819    -3721    -3673    -3667    -3669 
   -3645    -3584    -3551    -3616    -3700    -3765    -3908    -4085 
   -4178    -4256    -4405    -4567    -4684    -4807    -4949    -5016 
   -5011    -5086    -5225    -5244    -5171    -5148    -5108    -4997 
   -4939    -4976    -5004    -4969    -4924    -4870    -4733    -4573 
   -4506    -4456    -4349    -4261    -4224    -4153    -4028    -3921 
   -3832    -3685    -3559    -3561    -3616    -3651    -3700    -3744 
   -3734    -3708    -3715    -3680    -3566    -3497    -3547    -3584 
   -3535    -3547    -3655    -3719    -3754    -3866    -3939    -3894 
   -3916    -4067    -4198    -4264    -4334    -4392    -4341    -4193 
   -4062    -3932    -3793    -3773    -3843    -3854    -3859    -3951 
   -4037    -4047    -4087    -4229    -4317    -4276    -4260    -4291 
   -4218    -4105    -4079    -4033    -3897    -3789    -3784    -3828 
   -3921    -4137    -4396    -4530    -4584    -4666    -4683    -4585 
   -4498    -4453    -4383    -4293    -4261    -4261    -4249    -4309 
   -4464    -4579    -4610    -4646    -4700    -4684    -4638    -4693 
   -4791    -4788    -4760    -4795    -4796    -4738    -4707    -4639 
   -4492    -4437    -4518    -4548    -4488    -4472    -4483    -4395 
   -4268    -4272    -4363    -4399    -4422    -4487    -4525    -4530 
   -4595    -4700    -4756    -4783    -4842    -4884    -4881    -4924 
   -5032    -5112    -5115    -5104    -5104    -5043    -4926    -4831 
   -4737    -4603    -4540    -4583    -4575    -4476    -4395    -4332 
   -4249    -4199    -4201    -4166    -4054    -3939    -3892    -3897 
   -3921    -3970    -4023    -4041    -4047    -4032    -3936    -3797 
   -3724    -3701    -3611    -3508    -3527    -3601    -3643    -3708 
   -3839    -3983    -4060    -4090    -4179    -4260    -4264    -4299 
   -4383    -4444    -4511    -4627    -4719    -4746    -4781    -4803 
   -4734    -4698    -4795    -4893    -4935    -5004    -5098    -5157 
   -5181    -5227    -5260    -5190    -5089    -5103    -5188    -5232 
   -5269    -5314    -5319    -5310    -5348    -5382    -5359    -5329 
   -5308    -5233    -5111    -5035    -5035    -4981    -4820    -4666 
   -4530    -4361    -4253    -4255    -4230    -4129    -4047    -4012 
   -3966    -3936    -3960    -3954    -3863    -3807    -3854    -3906 
   -3919    -3952    -3964    -3870    -3770    -3777    -3789    -3740 
   -3708    -3699    -3657    -3603    -3601    -3653    -3693    -3748 
   -3850    -3866    -3805    -3863    -4016    -4072    -4067    -4159 
   -4310    -4391    -4488    -4658    -4720    -4623    -4518    -4432 
   -4345    -4351    -4492    -4664    -4791    -4922    -5039    -5058 
   -5043    -5100    -5169    -5157    -5127    -5140    -5125    -5074 
   -5092    -5190    -5248    -5231    -5184    -5098    -4950    -4772 
   -4606    -4440    -4299    -4266    -4321    -4384    -4483    -4638 
   -4756    -4800    -4814    -4789    -4687    -4509    -4341    -4229 
   -4125    -4051    -4075    -4168    -4266    -4351    -4392    -4349 
   -4232    -4125    -4062    -4008    -3983    -4004    -3977    -3881 
   -3817    -3829    -3827    -3780    -3775    -3788    -3726    -3667 
   -3676    -3632    -3526    -3491    -3515    -3446    -3322    -3314 
   -3379    -3360    -3302    -3289    -3267    -3204    -3176    -3181 
   -3165    -3184    -3306    -3439    -3489    -3535    -3632    -3667 
   -3604    -3554    -3549    -3510    -3456    -3451    -3423    -3296 
   -3153    -3022    -2851    -2695    -2647    -2643    -2569    -2494 
   -2544    -2640    -2693    -2812    -3005    -3146    -3265    -3477 
   -3728    -3951    -4203    -4471    -4638    -4725    -4839    -4980 
   -5038    -5032    -5100    -5215    -5262    -5346    -5552    -5713 
   -5710    -5634    -5557    -5464    -5366    -5286    -5201    -5131 
   -5158    -5259    -5313    -5320    -5350    -5321    -5170    -5022 
   -4966    -4951    -4951    -4985    -4996    -4893    -4746    -4671 
   -4618    -4523    -4434    -4357    -4256    -4164    -4158    -4230 
   -4293    -4311    -4311    -4264    -4126    -3979    -3929    -3929 
   -3924    -3985    -4091    -4141    -4172    -4253    -4329    -4351 
   -4363    -4368    -4299    -4175    -4112    -4124    -4136    -4151 
   -4233    -4341    -4406    -4490    -4658    -4828    -4951    -5134 
   -5370    -5499    -5540    -5606    -5601    -5503    -5487    -5541 
   -5506    -5428    -5412    -5387    -5302    -5242    -5254    -5275 
   -5298    -5374    -5416    -5290    -5093    -4978    -4874    -4684 
   -4495    -4411    -4406    -4442    -4534    -4612    -4600    -4536 
   -4482    -4436    -4367    -4290    -4230    -4110    -3890    -3670 
   -3493    -3335    -3253    -3253    -3196    -3045    -2955    -2979 
   -2975    -2944    -2998    -3075    -3098    -3149    -3267    -3348 
   -3366    -3445    -3607    -3755    -3909    -4141    -4367    -4511 
   -4683    -4895    -5022    -5089    -5170    -5212    -5159    -5076 
   -5032    -4981    -4884    -4828    -4839    -4812    -4727    -4662 
   -4576    -4399    -4240    -4210    -4255    -4279    -4293    -4303 
   -4268    -4249    -4328    -4434    -4531    -4672    -4812    -4873 
   -4885    -4957    -5092    -5186    -5286    -5447    -5555    -5572 
   -5586    -5593    -5524    -5408    -5348    -5287    -5120    -4949 
   -4857    -4741    -4568    -4444    -4369    -4221    -4005    -3855 
   -3747    -3580    -3422    -3358    -3289    -3171    -3114    -3103 
   -3037    -2984    -3007    -3013    -2959    -2933    -2975    -3001 
   -2982    -3017    -3111    -3168    -3204    -3312    -3460    -3543 
   -3589    -3650    -3658    -3627    -3667    -3746    -3778    -3800 
   -3848    -3870    -3882    -3963    -4064    -4106    -4132    -4185 
   -4229    -4278    -4413    -4604    -4702    -4711    -4776    -4837 
   -4761    -4633    -4604    -4641    -4641    -4645    -4699    -4750 
   -4791    -4892    -5038    -5134    -5197    -5254    -5212    -5076 
   -4999    -5027    -5069    -5103    -5186    -5296    -5363    -5416 
   -5498    -5587    -5647    -5675    -5667    -5576    -5449    -5394 
   -5351    -5256    -5216    -5252    -5260    -5240    -5285    -5386 
   -5481    -5606    -5783    -5873    -5830    -5819    -5904    -5922 
   -5805    -5695    -5622    -5436    -5170    -4973    -4800    -4548 
   -4286    -4090    -3886    -3662    -3519    -3420    -3252    -3053 
   -2913    -2783    -2600    -2471    -2475    -2471    -2404    -2408 
   -2461    -2438    -2416    -2496    -2571    -2565    -2543    -2546 
   -2523    -2508    -2575    -2650    -2656    -2670    -2704    -2673 
   -2616    -2628    -2656    -2628    -2635    -2736    -2825    -2828 
   -2826    -2897    -2982    -3087    -3288    -3532    -3748    -4000 
   -4320    -4603    -4799    -5030    -5344    -5599    -5779    -6004 
   -6254    -6442    -6594    -6747    -6856    -6872    -6833    -6813 
   -6787    -6718    -6660    -6629    -6567    -6485    -6451    -6420 
   -6316    -6223    -6169    -6050    -5886    -5719    -5475    -5181 
   -4974    -4846    -4676    -4490    -4382    -4271    -4072    -3908 
   -3854    -3796    -3678    -3574    -3472    -3306    -3133    -3022 
   -2879    -2668    -2539    -2527    -2457    -2299    -2230    -2250 
   -2184    -2064    -2043    -2069    -2061    -2089    -2188    -2259 
   -2288    -2380    -2517    -2579    -2608    -2740    -2901    -2960 
   -3030    -3173    -3234    -3199    -3210    -3292    -3381    -3461 
   -3593    -3786    -3994    -4241    -4499    -4664    -4772    -4927 
   -5076    -5152    -5238    -5395    -5529    -5572    -5630    -5737 
   -5799    -5860    -6007    -6172    -6284    -6421    -6605    -6705 
   -6669    -6585    -6508    -6419    -6355    -6347    -6323    -6262 
   -6230    -6237    -6212    -6137    -6088    -6057    -5946    -5799 
   -5688    -5536    -5293    -5030    -4795    -4552    -4284    -4062 
   -3882    -3665    -3470    -3377    -3272    -3122    -3075    -3118 
   -3075    -2963    -2932    -2948    -2916    -2909    -2984    -3046 
   -3079    -3188    -3357    -3469    -3527    -3626    -3755    -3821 
   -3847    -3901    -3929    -3921    -4000    -4124    -4166    -4210 
   -4326    -4395    -4383    -4386    -4444    -4521    -4590    -4671 
   -4752    -4774    -4785    -4876    -5000    -5071    -5136    -5233 
   -5302    -5354    -5460    -5536    -5491    -5454    -5486    -5454 
   -5336    -5275    -5282    -5224    -5096    -5043    -5065    -5059 
   -5096    -5216    -5275    -5255    -5301    -5406    -5437    -5371 
   -5310    -5259    -5143    -5027    -4992    -4918    -4741    -4579 
   -4438    -4232    -4028    -3898    -3754    -3550    -3377    -3262 
   -3114    -2922    -2775    -2656    -2478    -2268    -2112    -1957 
   -1723    -1517    -1418    -1331    -1278    -1347    -1420    -1413 
   -1453    -1583    -1671    -1709    -1826    -1989    -2072    -2180 
   -2442    -2752    -3024    -3302    -3597    -3835    -3977    -4109 
   -4255    -4347    -4445    -4600    -4707    -4757    -4884    -5063 
   -5130    -5123    -5189    -5242    -5193    -5152    -5175    -5177 
   -5134    -5157    -5259    -5319    -5336    -5435    -5547    -5563 
   -5584    -5688    -5751    -5710    -5694    -5734    -5715    -5657 
   -5637    -5580    -5462    -5402    -5410    -5368    -5300    -5339 
   -5433    -5447    -5420    -5421    -5359    -5188    -5009    -4851 
   -4646    -4465    -4426    -4457    -4461    -4514    -4666    -4808 
   -4904    -5030    -5152    -5216    -5296    -5454    -5584    -5648 
   -5749    -5850    -5814    -5683    -5589    -5505    -5358    -5208 
   -5138    -5061    -4916    -4847    -4876    -4803    -4660    -4621 
   -4603    -4476    -4313    -4194    -4067    -3908    -3788    -3715 
   -3623    -3530    -3492    -3469    -3368    -3219    -3114    -3003 
   -2855    -2772    -2743    -2658    -2538    -2457    -2408    -2359 
   -2338    -2367    -2392    -2371    -2347    -2303    -2155    -1921 
   -1705    -1529    -1324    -1129    -1028     -935     -810     -799 
    -923    -1035    -1113    -1260    -1452    -1595    -1726    -1887 
   -1983    -2004    -2054    -2100    -2083    -2081    -2149    -2219 
   -2251    -2338    -2506    -2648    -2781    -2998    -3206    -3322 
   -3465    -3677    -3842    -3967    -4202    -4560    -4900    -5224 
   -5630    -6041    -6367    -6716    -7138    -7511    -7805    -8116 
   -8402    -8586    -8752    -8958    -9111    -9193    -9308    -9421 
   -9394    -9293    -9235    -9132    -8932    -8785    -8757    -8712 
   -8599    -8506    -8419    -8259    -8066    -7889    -7696    -7470 
   -7264    -7099    -6910    -6682    -6513    -6372    -6157    -5956 
   -5827    -5629    -5302    -4977    -4704    -4395    -4041    -3761 
   -3570    -3364    -3153    -2975    -2740    -2455    -2268    -2168 
   -2043    -1950    -1977    -1991    -1912    -1895    -1992    -2088 
   -2164    -2292    -2470    -2641    -2833    -3110    -3412    -3657 
   -3897    -4179    -4440    -4634    -4789    -4922    -4993    -5031 
   -5103    -5169    -5177    -5196    -5239    -5206    -5069    -4918 
   -4787    -4603    -4406    -4287    -4151    -3925    -3751    -3659 
   -3534    -3366    -3254    -3210    -3150    -3117    -3219    -3337 
   -3366    -3430    -3527    -3549    -3524    -3553    -3578    -3495 
   -3410    -3423    -3407    -3314    -3279    -3316    -3307    -3294 
   -3376    -3450    -3434    -3478    -3639    -3750    -3765    -3811 
   -3916    -3958    -3940    -3970    -4002    -3959    -3933    -3970 
   -3990    -3981    -3998    -4060    -4077    -4031    -4060    -4124 
   -4101    -4106    -4199    -4261    -4275    -4291    -4276    -4202 
   -4128    -4094    -4036    -3921    -3846    -3827    -3773    -3692 
   -3661    -3631    -3541    -3484    -3483    -3453    -3431    -3501 
   -3586    -3600    -3645    -3812    -3982    -4059    -4137    -4255 
   -4297    -4259    -4256    -4280    -4251    -4225    -4306    -4418 
   -4477    -4568    -4716    -4818    -4864    -4915    -4912    -4819 
   -4758    -4758    -4687    -4580    -4579    -4594    -4522    -4477 
   -4521    -4513    -4407    -4367    -4461    -4557    -4619    -4742 
   -4900    -5003    -5063    -5109    -5115    -5093    -5111    -5147 
   -5116    -5078    -5134    -5174    -5131    -5135    -5224    -5273 
   -5250    -5275    -5360    -5408    -5432    -5489    -5518    -5485 
   -5482    -5530    -5522    -5482    -5533    -5606    -5575    -5536 
   -5572    -5557    -5444    -5351    -5293    -5159    -4974    -4865 
   -4785    -4634    -4504    -4460    -4386    -4264    -4191    -4129 
   -3983    -3821    -3761    -3736    -3634    -3518    -3483    -3466 
   -3410    -3362    -3335    -3288    -3272    -3352    -3449    -3519 
   -3657    -3865    -4024    -4133    -4276    -4406    -4471    -4590 
   -4774    -4853    -4816    -4814    -4846    -4812    -4730    -4683 
   -4622    -4448    -4247    -4114    -3966    -3769    -3638    -3591 
   -3537    -3468    -3446    -3433    -3357    -3291    -3310    -3312 
   -3225    -3177    -3202    -3163    -3088    -3064    -2987    -2830 
   -2744    -2732    -2693    -2666    -2729    -2832    -2909    -3021 
   -3214    -3395    -3508    -3638    -3813    -3964    -4102    -4286 
   -4455    -4546    -4646    -4793    -4887    -4904    -4938    -4992 
   -5007    -5000    -5042    -5125    -5206    -5300    -5417    -5485 
   -5481    -5481    -5455    -5297    -5086    -4928    -4745    -4476 
   -4236    -4075    -3888    -3669    -3543    -3491    -3372    -3211 
   -3126    -3071    -2947    -2859    -2894    -2928    -2934    -3019 
   -3141    -3202    -3264    -3404    -3526    -3595    -3742    -3959 
   -4106    -4207    -4363    -4533    -4646    -4762    -4939    -5097 
   -5198    -5328    -5476    -5559    -5613    -5722    -5838    -5875 
   -5899    -5989    -6038    -6006    -6034    -6099    -6062    -5995 
   -5991    -5935    -5763    -5591    -5452    -5258    -5055    -4918 
   -4779    -4614    -4499    -4428    -4330    -4207    -4118    -4060 
   -3960    -3859    -3840    -3840    -3790    -3759    -3798    -3831 
   -3809    -3831    -3919    -3975    -4016    -4132    -4278    -4367 
   -4438    -4540    -4608    -4638    -4707    -4769    -4754    -4758 
   -4834    -4869    -4847    -4878    -4951    -4927    -4824    -4788 
   -4761    -4630    -4523    -4580    -4683    -4726    -4801    -4924 
   -4976    -5003    -5097    -5155    -5117    -5109    -5161    -5147 
   -5047    -5011    -5043    -4992    -4909    -4938    -4970    -4905 
   -4842    -4822    -4758    -4645    -4549    -4453    -4329    -4222 
   -4136    -3996    -3811    -3682    -3623    -3557    -3485    -3485 
   -3530    -3523    -3501    -3527    -3559    -3599    -3707    -3859 
   -3971    -4067    -4222    -4376    -4433    -4464    -4527    -4533 
   -4469    -4450    -4483    -4457    -4406    -4450    -4531    -4550 
   -4584    -4665    -4680    -4645    -4692    -4795    -4824    -4845 
   -4978    -5135    -5217    -5309    -5431    -5493    -5487    -5487 
   -5475    -5390    -5305    -5270    -5189    -5059    -5007    -5003 
   -4896    -4698    -4554    -4453    -4295    -4143    -4063    -3974 
   -3854    -3788    -3736    -3623    -3535    -3538    -3504    -3391 
   -3352    -3411    -3433    -3410    -3426    -3465    -3474    -3472 
   -3495    -3484    -3412    -3366    -3331    -3223    -3113    -3099 
   -3127    -3109    -3095    -3160    -3218    -3186    -3153    -3168 
   -3142    -3109    -3172    -3262    -3315    -3429    -3623    -3770 
   -3851    -3970    -4094    -4114    -4110    -4170    -4214    -4229 
   -4298    -4384    -4419    -4468    -4554    -4548    -4407    -4298 
   -4279    -4189    -4009    -3910    -3863    -3732    -3600    -3555 
   -3491    -3361    -3294    -3314    -3311    -3303    -3373    -3453 
   -3473    -3522    -3642    -3708    -3666    -3672    -3793    -3874 
   -3894    -4035    -4268    -4452    -4657    -4949    -5184    -5312 
   -5474    -5675    -5802    -5895    -6039    -6166    -6234    -6326 
   -6463    -6571    -6621    -6671    -6718    -6718    -6706    -6720 
   -6714    -6682    -6675    -6658    -6546    -6401    -6326    -6247 
