Origin Time       2025/01/13 21:19:00
Lat.              31.8
Long.             131.6
Depth. (km)       30
Mag.              6.9
Station Code      EHM009
Station Lat.      33.6333
Station Long.     132.7965
Station Height(m) 252
Record Time       2025/01/13 21:20:33
Sampling Freq(Hz) 100Hz
Duration Time(s)  70
Dir.              E-W
Scale Factor      7845(gal)/8223790
Max. Acc. (gal)   3.878
Last Correction   2025/01/13 21:20:32
Memo.             
[...]
    6706     6864     7056     7146     7102     7021     6909     6729 
    6573     6552     6706     7036     7474     7888     8154     8233 
    8202     8098     7900     7672     7422     7049     6633     6404 
    6407     6535     6717     6921     7105     7263     7425     7557 
    7604     7578     7541     7539     7520     7404     7246     7107 
    6980     6934     7047     7238     7387     7453     7479     7541 
    7596     7549     7439     7356     7300     7257     7240     7287 
    7402     7527     7645     7713     7663     7535     7402     7257 
    7121     7105     7252     7398     7410     7314     7128     6913 
    6787     6758     6763     6795     6922     7200     7547     7847 
    8048     8062     7832     7492     7146     6766     6413     6196 
    6110     6165     6436     6853     7207     7362     7346     7345 
    7534     7815     8005     8110     8203     8291     8332     8252 
    8054     7847     7703     7574     7438     7310     7233     7244 
    7268     7207     7061     6866     6712     6679     6732     6887 
    7222     7649     8067     8463     8742     8838     8764     8488 
    8032     7534     7115     6812     6633     6625     6763     6980 
    7281     7611     7821     7874     7793     7538     7184     6928 
    6855     6862     6756     6469     6176     6061     6141     6376 
    6750     7246     7798     8278     8583     8695     8595     8251 
    7715     7136     6656     6336     6184     6197     6332     6542 
    6806     7078     7331     7564     7758     7917     8008     7997 
    7955     7898     7726     7434     7206     7210     7434     7690 
    7785     7738     7727     7807     7843     7780     7740     7819 
    7956     8051     8013     7792     7407     6926     6446     6084 
    5942     6069     6405     6808     7204     7546     7761     7840 
    7732     7392     6959     6610     6366     6196     6162     6335 
    6673     7087     7453     7624     7581     7430     7307     7307 
    7348     7263     7110     7026     6979     6940     6933     6897 
    6843     6891     7045     7198     7294     7364     7492     7707 
    7874     7850     7643     7333     6991     6737     6662     6795 
    7098     7396     7595     7809     8083     8336     8492     8414 
    8070     7634     7244     6994     6953     7001     7052     7187 
    7398     7587     7665     7516     7169     6878     6848     7029 
    7295     7595     7816     7835     7703     7524     7334     7145 
    6970     6847     6872     7045     7203     7268     7290     7254 
    7182     7155     7132     7044     6932     6889     7009     7226 
    7371     7416     7416     7422     7466     7501     7520     7573 
    7599     7565     7535     7564     7684     7816     7767     7542 
    7334     7196     7101     7064     7014     6883     6768     6752 
    6779     6782     6770     6767     6799     6963     7333     7824 
    8247     8469     8482     8337     8066     7686     7260     6885 
    6701     6732     6801     6845     6967     7159     7338     7450 
    7429     7267     7064     6948     6976     7088     7218     7329 
    7362     7333     7300     7261     7308     7560     7865     7997 
    7955     7840     7693     7547     7454     7425     7411     7383 
    7399     7496     7511     7321     7090     7049     7240     7555 
    7824     7932     7893     7709     7381     7011     6739     6631 
    6642     6697     6822     6983     7024     7025     7207     7515 
    7723     7717     7533     7267     7020     6885     6890     6997 
    7209     7523     7820     8006     8147     8212     8021     7558 
    7014     6548     6219     6099     6200     6396     6592     6786 
    6970     7136     7268     7354     7456     7551     7570     7566 
    7580     7562     7492     7358     7207     7132     7141     7263 
    7577     7908     7928     7676     7461     7398     7403     7346 
    7186     7086     7152     7248     7204     7017     6835     6816 
    6972     7260     7604     7843     7923     7920     7850     7690 
    7485     7244     7011     6963     7130     7357     7584     7769 
    7807     7654     7339     7029     6924     7014     7211     7442 
    7555     7503     7368     7187     7038     7069     7260     7462 
    7651     7866     8005     7960     7788     7611     7545     7628 
    7712     7585     7268     6960     6758     6673     6701     6737 
    6747     6845     7014     7165     7362     7546     7576     7551 
    7566     7464     7196     6957     6889     6972     7133     7299 
    7369     7348     7362     7431     7495     7593     7713     7753 
    7684     7493     7196     6970     6959     7086     7221     7371 
    7487     7434     7298     7308     7480     7716     7959     8100 
    8002     7646     7209     6893     6778     6920     7248     7557 
    7785     7950     7931     7681     7384     7267     7357     7488 
    7558     7608     7662     7692     7674     7600     7522     7618 
    7959     8305     8382     8137     7719     7420     7429     7614 
    7720     7661     7538     7452     7384     7226     6943     6663 
    6531     6558     6713     6925     7114     7349     7704     8046 
    8206     8143     7909     7630     7402     7233     7125     7109 
    7150     7194     7249     7341     7462     7562     7580     7504 
    7356     7182     7095     7119     7138     7107     7030     6876 
    6731     6674     6624     6551     6507     6578     6836     7084 
    7090     7002     7042     7196     7362     7454     7435     7329 
    7237     7275     7408     7464     7358     7188     7075     7056 
    7130     7285     7479     7649     7766     7842     7858     7801 
    7699     7506     7218     6978     6856     6839     6988     7321 
    7682     7873     7747     7335     6878     6578     6424     6405 
    6565     6863     7258     7696     8001     8029     7778     7344 
    6905     6628     6505     6439     6474     6669     6963     7308 
    7587     7614     7408     7134     6920     6778     6655     6631 
    6859     7233     7504     7642     7697     7636     7462     7167 
    6785     6570     6659     6928     7261     7511     7457     7141 
    6782     6469     6315     6442     6712     6991     7319     7565 
    7519     7203     6797     6515     6550     6897     7366     7788 
    8051     8120     8074     7994     7839     7576     7263     6971 
    6762     6712     6882     7198     7547     7927     8318     8626 
    8718     8500     8014     7416     6971     6898     7102     7322 
    7361     7183     6949     6751     6531     6299     6104     5987 
    6015     6199     6481     6775     7001     7156     7269     7306 
    7271     7315     7484     7647     7769     7816     7704     7526 
    7422     7412     7531     7743     7919     8000     7935     7684 
    7317     6928     6633     6547     6615     6733     6972     7334 
    7647     7830     7892     7893     7952     8029     7942     7696 
    7474     7366     7307     7281     7342     7473     7601     7649 
    7570     7439     7300     7105     6976     7088     7323     7564 
    7792     7867     7731     7435     7009     6612     6440     6512 
    6767     7172     7681     8114     8256     8124     7859     7549 
    7338     7310     7329     7292     7234     7173     7110     7134 
    7304     7429     7369     7268     7203     7144     7115     7034 
    6875     6856     7076     7364     7551     7600     7623     7665 
    7611     7439     7192     6875     6662     6673     6698     6578 
    6440     6412     6586     6997     7411     7543     7392     7129 
    6849     6604     6482     6511     6658     6940     7223     7231 
    6991     6732     6528     6436     6488     6633     6934     7396 
    7770     7804     7550     7260     7101     7157     7435     7747 
    7952     8128     8302     8387     8351     8257     8170     8067 
    7932     7790     7595     7308     7056     7029     7268     7630 
    7917     8028     7950     7709     7411     7155     6926     6709 
    6594     6628     6779     7028     7331     7588     7809     8106 
    8457     8735     8920     8991     8850     8505     8124     7821 
    7562     7330     7161     7080     7130     7296     7472     7535 
    7472     7435     7510     7591     7564     7346     6994     6767 
    6760     6829     6926     7094     7338     7692     8168     8604 
    8745     8556     8225     7894     7623     7371     7106     6922 
    6875     6987     7304     7717     8055     8286     8459     8611 
    8698     8576     8216     7715     7155     6639     6272     6084 
    6091     6242     6492     6855     7260     7574     7743     7774 
    7700     7560     7410     7268     7144     7153     7291     7368 
    7385     7479     7600     7690     7766     7762     7653     7538 
    7427     7214     6901     6619     6453     6384     6394     6497 
    6659     6752     6705     6539     6322     6168     6103     6039 
    5994     6050     6289     6747     7310     7751     7869     7642 
    7335     7157     7029     6894     6840     6876     6980     7198 
    7484     7735     8001     8314     8540     8556     8359     8004 
    7576     7215     7014     6933     6925     7014     7184     7338 
    7412     7415     7344     7263     7276     7357     7454     7642 
    7948     8237     8374     8356     8232     8050     7839     7566 
    7196     6783     6485     6470     6700     6937     7086     7257 
    7445     7554     7620     7676     7701     7836     8147     8424 
    8484     8361     8155     7960     7815     7616     7283     6875 
    6461     6114     5992     6130     6388     6642     6866     7163 
    7542     7836     7950     7902     7782     7707     7618     7393 
    7005     6489     5985     5625     5474     5637     6043     6396 
    6573     6685     6798     6885     6936     7042     7321     7746 
    8191     8575     8819     8873     8761     8473     8029     7622 
    7388     7284     7276     7330     7360     7325     7218     7074 
    6964     6926     7009     7207     7420     7650     7921     8090 
    8090     8017     7878     7620     7339     7184     7155     7130 
    7069     7092     7319     7719     8171     8553     8756     8706 
    8391     7850     7209     6673     6389     6357     6574     7063 
    7732     8387     8834     8957     8776     8424     8033     7682 
    7389     7129     6952     6930     6964     6951     6948     6994 
    7080     7264     7508     7626     7492     7198     6889     6586 
    6293     6011     5752     5683     5892     6214     6529     6789 
    6913     6936     6945     6926     6810     6529     6087     5603 
    5285     5216     5273     5336     5436     5605     5840     6124 
    6370     6480     6474     6389     6231     6080     5991     5906 
    5759     5586     5487     5525     5749     6241     6886     7447 
    7911     8305     8502     8532     8557     8608     8633     8621 
    8608     8564     8422     8191     7892     7565     7327     7285 
    7523     7966     8284     8318     8186     7994     7842     7765 
    7662     7547     7523     7639     7959     8348     8484     8295 
    7938     7582     7393     7326     7150     6868     6712     6822 
    7096     7310     7371     7360     7299     7167     6982     6743 
    6516     6434     6505     6677     6941     7225     7406     7474 
    7456     7290     6953     6542     6131     5763     5584     5803 
    6358     6991     7574     8050     8299     8256     7940     7481 
    7049     6759     6677     6777     6982     7246     7501     7703 
    7923     8129     8158     7981     7786     7747     7865     8006 
    8017     7850     7549     7175     6868     6755     6785     6949 
    7290     7657     7859     7889     7817     7665     7452     7269 
    7163     7034     6852     6716     6651     6717     7040     7480 
    7809     8019     8089     7925     7554     7022     6393     5861 
    5602     5614     5823     6123     6397     6615     6841     7113 
    7354     7473     7514     7501     7414     7392     7503     7589 
    7632     7697     7712     7632     7472     7215     6926     6710 
    6589     6571     6671     6866     7129     7389     7572     7657 
    7600     7344     6920     6469     6151     6060     6241     6705 
    7256     7653     7850     7893     7794     7480     6925     6312 
    5849     5606     5583     5728     5931     6129     6378     6783 
    7304     7790     8139     8303     8294     8213     8147     8046 
    7886     7750     7673     7663     7765     7960     8152     8280 
    8391     8452     8295     7884     7330     6712     6154     5822 
    5730     5807     6025     6362     6728     6952     6933     6708 
    6412     6207     6184     6351     6640     6987     7362     7665 
    7834     7982     8113     8122     8043     7927     7770     7611 
    7460     7314     7238     7275     7383     7515     7634     7677 
    7649     7591     7468     7248     7002     6783     6633     6583 
    6532     6427     6394     6536     6810     7149     7499     7780 
    7929     8021     8186     8429     8645     8812     8993     9161 
    9278     9420     9602     9756     9942    10245    10627    11032 
   11327    11364    11151    10739    10164     9487     8730     8001 
    7492     7229     7157     7292     7591     7908     8144     8248 
    8159     7912     7595     7234     6948     6937     7187     7491 
    7659     7593     7311     6874     6365     5933     5709     5769 
    6091     6490     6774     6866     6760     6501     6238     6120 
    6104     6103     6181     6346     6497     6612     6675     6651 
    6597     6554     6448     6304     6238     6216     6177     6212 
    6311     6308     6204     6112     6016     5919     5937     6070 
    6243     6462     6691     6789     6721     6646     6705     6947 
    7364     7850     8251     8513     8599     8451     8086     7628 
    7249     7051     7010     7060     7072     7005     6964     6993 
    7038     7051     6971     6843     6763     6779     6897     7086 
    7311     7611     7967     8275     8465     8509     8348     7959 
    7499     7215     7165     7246     7430     7684     7919     8083 
    8129     8027     7803     7528     7345     7327     7449     7722 
    8082     8330     8397     8313     8056     7731     7545     7557 
    7734     8051     8432     8754     8978     9146     9239     9192 
    9043     8897     8816     8818     8829     8731     8505     8226 
    8009     7909     7846     7754     7681     7605     7495     7376 
    7190     6906     6606     6300     5965     5682     5522     5491 
    5552     5645     5706     5680     5525     5301     5116     4996 
    4923     4909     5009     5313     5818     6365     6762     6986 
    7071     6976     6759     6492     6124     5763     5614     5652 
    5768     5927     6058     6106     6133     6266     6561     6933 
    7272     7512     7654     7765     7836     7776     7604     7403 
    7159     6922     6804     6775     6759     6764     6783     6810 
    6852     6880     6920     7014     7079     7022     6910     6901 
    7059     7338     7709     8079     8324     8494     8696     8865 
    8892     8789     8625     8448     8336     8337     8386     8405 
    8370     8282     8148     7963     7744     7528     7283     6982 
    6735     6633     6621     6640     6739     6907     7040     7168 
    7404     7685     7928     8191     8459     8664     8856     8996 
    8959     8781     8550     8244     7870     7538     7280     7072 
    6916     6798     6655     6443     6224     6116     6168     6347 
    6547     6642     6613     6520     6381     6211     6070     6043 
    6164     6405     6723     7055     7353     7627     7820     7842 
    7726     7516     7210     6864     6554     6343     6304     6373 
    6447     6577     6793     6991     7103     7128     7067     6975 
    6921     6905     6910     6949     7017     7102     7221     7352 
    7447     7510     7508     7416     7322     7263     7200     7144 
    7072     6934     6740     6536     6378     6316     6376     6554 
    6817     7082     7252     7263     7069     6727     6419     6262 
    6230     6307     6465     6660     6934     7252     7453     7487 
    7427     7346     7312     7345     7425     7530     7635     7740 
    7925     8259     8695     9130     9512     9823    10012    10048 
    9964     9780     9513     9254     9061     8883     8677     8449 
    8202     7962     7782     7608     7361     7076     6775     6466 
    6219     6056     5944     5895     5918     5975     6021     6015 
    5977     5983     6097     6361     6759     7165     7473     7707 
    7884     7958     7911     7753     7496     7219     7021     6903 
    6844     6820     6770     6660     6521     6366     6222     6097 
    5991     5988     6138     6347     6556     6745     6882     6972 
    7028     7055     7087     7133     7179     7198     7186     7231 
    7349     7483     7596     7592     7437     7272     7196     7222 
    7375     7650     7987     8343     8688     8986     9171     9163 
    8972     8694     8382     8087     7906     7869     7938     8078 
    8284     8561     8880     9142     9251     9189     8966     8610 
    8187     7805     7549     7398     7330     7369     7447     7497 
    7493     7376     7187     7042     6940     6844     6737     6594 
    6440     6327     6234     6145     6095     6127     6254     6473 
    6731     6957     7128     7194     7106     6925     6727     6543 
    6450     6490     6586     6689     6826     6995     7149     7256 
    7327     7371     7365     7318     7249     7198     7238     7365 
    7496     7599     7666     7715     7781     7861     7917     7893 
    7751     7555     7338     7055     6770     6563     6408     6327 
    6369     6484     6594     6689     6777     6862     6978     7160 
    7373     7561     7740     7906     8009     8039     8036     8044 
    8079     8128     8212     8324     8363     8302     8201     8066 
    7920     7831     7774     7672     7553     7461     7349     7186 
    7026     6889     6750     6675     6750     6940     7169     7393 
    7584     7707     7711     7592     7454     7368     7300     7241 
    7238     7304     7414     7534     7651     7767     7836     7811 
    7740     7693     7654     7553     7387     7192     6949     6643 
    6303     5941     5629     5475     5454     5483     5549     5618 
    5636     5647     5745     5923     6124     6349     6527     6588 
    6602     6613     6588     6542     6484     6439     6426     6357 
    6203     6058     5977     5967     6043     6195     6388     6569 
    6677     6718     6732     6745     6771     6825     6940     7099 
    7237     7345     7454     7561     7631     7593     7464     7349 
    7281     7229     7196     7161     7109     7102     7192     7377 
    7585     7747     7902     8063     8172     8270     8352     8333 
