Origin Time       2025/01/13 21:19:00
Lat.              31.8
Long.             131.6
Depth. (km)       30
Mag.              6.9
Station Code      EHM006
Station Lat.      33.6412
Station Long.     133.0080
Station Height(m) 466
Record Time       2025/01/13 21:20:45
Sampling Freq(Hz) 100Hz
Duration Time(s)  66
Dir.              U-D
Scale Factor      7845(gal)/8223790
Max. Acc. (gal)   1.946
Last Correction   2025/01/13 21:20:45
Memo.             
[...]
   13419    13437    13441    13401    13331    13282    13278    13300 
   13324    13347    13392    13443    13474    13518    13610    13714 
   13765    13765    13765    13740    13659    13608    13620    13616 
   13560    13493    13468    13500    13525    13509    13505    13533 
   13547    13552    13579    13599    13567    13485    13396    13362 
   13362    13332    13321    13398    13489    13551    13630    13705 
   13745    13764    13744    13726    13761    13759    13655    13552 
   13495    13427    13370    13385    13432    13444    13448    13502 
   13589    13655    13693    13732    13756    13721    13667    13655 
   13664    13659    13640    13625    13613    13586    13581    13632 
   13680    13671    13641    13655    13711    13732    13707    13721 
   13775    13826    13887    13957    14017    14053    14054    14058 
   14087    14091    14037    13977    13968    13984    13984    13980 
   13971    13911    13806    13711    13640    13567    13493    13429 
   13359    13277    13247    13294    13336    13360    13383    13348 
   13286    13267    13243    13182    13128    13092    13078    13072 
   13049    13053    13109    13174    13207    13230    13274    13311 
   13305    13271    13238    13225    13219    13190    13166    13142 
   13089    13059    13080    13103    13138    13201    13262    13346 
   13462    13544    13595    13664    13729    13780    13821    13846 
   13905    13999    14065    14118    14175    14208    14223    14230 
   14230    14224    14189    14139    14102    14030    13927    13880 
   13873    13842    13819    13844    13865    13860    13849    13838 
   13833    13826    13795    13741    13686    13616    13506    13379 
   13293    13271    13259    13200    13142    13143    13184    13242 
   13320    13406    13500    13578    13622    13672    13744    13768 
   13707    13651    13655    13649    13597    13548    13539    13547 
   13560    13601    13662    13694    13682    13648    13637    13670 
   13691    13660    13613    13552    13452    13371    13354    13319 
   13238    13211    13254    13267    13267    13332    13416    13493 
   13579    13628    13660    13694    13648    13594    13618    13594 
   13485    13402    13363    13332    13288    13242    13251    13308 
   13323    13317    13375    13485    13586    13643    13664    13671 
   13674    13657    13602    13548    13555    13560    13512    13491 
   13529    13543    13528    13537    13586    13649    13689    13707 
   13748    13778    13756    13770    13876    13946    13907    13876 
   13910    13913    13830    13724    13670    13664    13643    13566 
   13473    13420    13389    13339    13292    13261    13209    13142 
   13109    13117    13101    13036    13003    13031    13036    13023 
   13081    13176    13213    13219    13277    13397    13501    13562 
   13622    13682    13718    13725    13701    13682    13683    13653 
   13598    13595    13635    13662    13682    13730    13784    13780 
   13726    13689    13670    13612    13522    13467    13443    13416 
   13398    13385    13355    13327    13317    13320    13352    13423 
   13535    13686    13792    13825    13890    13984    14019    14029 
   14077    14110    14075    14018    14015    14065    14087    14050 
   14027    14031    13976    13865    13798    13799    13803    13782 
   13780    13786    13718    13608    13524    13455    13397    13367 
   13346    13324    13321    13332    13340    13371    13454    13521 
   13531    13543    13555    13533    13528    13551    13587    13630 
   13624    13575    13563    13583    13599    13618    13637    13641 
   13628    13626    13643    13618    13543    13479    13441    13402 
   13356    13329    13315    13285    13267    13286    13316    13365 
   13452    13551    13630    13687    13734    13809    13894    13936 
   13957    13994    13987    13937    13940    13976    13946    13884 
   13867    13867    13851    13834    13805    13770    13772    13801 
   13830    13884    13942    13983    14034    14075    14071    14064 
   14067    14049    14029    14014    13991    13936    13851    13771 
   13687    13587    13518    13500    13489    13451    13398    13373 
   13382    13383    13355    13332    13344    13382    13433    13501 
   13575    13648    13717    13752    13749    13756    13768    13764 
   13759    13743    13699    13657    13618    13564    13517    13502 
   13531    13583    13605    13601    13599    13581    13568    13591 
   13564    13479    13444    13437    13350    13236    13185    13131 
   13041    12982    12949    12912    12900    12900    12874    12843 
   12847    12877    12920    13004    13123    13225    13311    13423 
   13547    13670    13780    13864    13940    14010    14034    14060 
   14116    14146    14145    14165    14208    14246    14270    14270 
   14258    14258    14265    14265    14272    14273    14229    14158 
   14139    14162    14123    14008    13882    13734    13591    13509 
   13433    13331    13252    13227    13227    13239    13278    13319 
   13346    13409    13504    13544    13535    13517    13504    13522 
   13551    13540    13532    13568    13599    13610    13649    13698 
   13706    13698    13699    13675    13630    13563    13462    13374 
   13324    13286    13254    13228    13225    13251    13236    13170 
   13130    13116    13100    13107    13151    13208    13234    13217 
   13227    13284    13331    13351    13378    13400    13394    13413 
   13486    13568    13637    13697    13748    13817    13888    13927 
   13987    14115    14235    14277    14303    14365    14380    14308 
   14216    14118    14004    13892    13771    13656    13575    13494 
   13409    13393    13439    13425    13312    13231    13259    13288 
   13248    13215    13235    13250    13197    13124    13113    13147 
   13153    13120    13120    13194    13266    13258    13235    13266 
   13321    13359    13393    13432    13448    13429    13424    13468 
   13548    13616    13648    13684    13714    13670    13591    13564 
   13541    13446    13329    13266    13216    13149    13108    13105 
   13122    13146    13144    13138    13197    13278    13308    13338 
   13417    13506    13566    13594    13594    13616    13705    13787 
   13778    13744    13747    13744    13736    13759    13795    13829 
   13871    13899    13930    13980    13979    13933    13929    13926 
   13865    13829    13861    13898    13914    13900    13828    13751 
   13738    13759    13760    13726    13689    13697    13736    13752 
   13747    13772    13851    13929    13976    14023    14062    14071 
   14108    14202    14273    14272    14234    14206    14185    14164 
   14134    14127    14161    14152    14106    14142    14216    14222 
   14212    14234    14243    14226    14195    14170    14164    14138 
   14092    14069    14045    13965    13879    13864    13873    13830 
   13778    13780    13787    13729    13641    13590    13586    13601 
   13606    13579    13545    13537    13527    13490    13452    13427 
   13420    13431    13397    13301    13230    13209    13207    13228 
   13277    13332    13378    13394    13383    13355    13317    13300 
   13302    13305    13281    13219    13197    13242    13228    13165 
   13165    13180    13140    13107    13127    13159    13161    13151 
   13150    13155    13159    13131    13097    13096    13088    13088 
   13154    13248    13313    13351    13385    13424    13450    13473 
   13518    13545    13510    13462    13464    13501    13489    13423 
   13374    13359    13373    13413    13450    13482    13516    13535 
   13548    13558    13559    13548    13518    13490    13443    13344 
   13265    13244    13224    13201    13219    13262    13306    13366 
   13424    13444    13451    13485    13516    13518    13501    13428 
   13332    13273    13208    13151    13182    13257    13325    13423 
   13505    13554    13633    13751    13848    13909    13933    13917 
   13876    13848    13811    13748    13694    13657    13652    13668 
   13656    13674    13778    13872    13919    13996    14099    14169 
   14235    14311    14337    14318    14297    14266    14245    14250 
   14226    14192    14230    14288    14296    14285    14269    14256 
   14266    14253    14184    14122    14079    14007    13918    13840 
   13790    13756    13716    13697    13710    13730    13734    13714 
   13710    13765    13810    13772    13695    13625    13535    13419 
   13316    13231    13147    13089    13065    13023    12962    12930 
   12931    12947    12972    12985    12995    13009    13026    13057 
   13090    13092    13066    13011    12911    12792    12684    12596 
   12538    12513    12534    12595    12671    12783    12938    13097 
   13270    13447    13586    13710    13805    13822    13818    13841 
   13852    13853    13892    13957    13996    13998    13998    14007 
   13991    13963    13969    14002    14023    13998    13952    13968 
   13980    13905    13871    13925    13923    13859    13809    13787 
   13802    13829    13838    13860    13903    13923    13945    14000 
   14048    14094    14173    14222    14181    14111    14054    13998 
   13941    13900    13886    13890    13902    13923    13946    13960 
   13976    13999    14035    14092    14118    14088    14072    14080 
   14049    14017    14029    14048    14037    13986    13932    13919 
   13900    13855    13819    13780    13761    13801    13826    13821 
   13853    13890    13864    13825    13802    13764    13729    13709 
   13672    13625    13583    13566    13589    13590    13522    13447 
   13379    13278    13147    13026    12930    12834    12721    12607 
   12517    12455    12402    12352    12324    12312    12305    12339 
   12395    12418    12418    12438    12482    12519    12541    12590 
   12667    12721    12758    12800    12853    12927    12977    12973 
   12970    13000    13047    13097    13107    13073    13077    13134 
   13189    13254    13344    13427    13471    13490    13529    13591 
   13639    13666    13679    13653    13608    13587    13586    13581 
   13579    13597    13608    13570    13508    13481    13495    13487 
   13431    13367    13343    13331    13278    13232    13230    13208 
   13165    13171    13215    13266    13359    13490    13603    13672 
   13760    13910    14049    14111    14158    14234    14297    14335 
   14359    14368    14373    14388    14384    14346    14287    14230 
   14187    14142    14084    14027    13979    13921    13859    13830 
   13846    13860    13840    13810    13803    13805    13770    13718 
   13680    13640    13598    13562    13505    13441    13400    13351 
   13285    13224    13161    13124    13150    13185    13211    13273 
   13375    13487    13586    13662    13748    13873    13983    14042 
   14100    14170    14219    14242    14243    14242    14257    14272 
   14287    14327    14354    14347    14346    14349    14297    14196 
   14098    13987    13819    13653    13559    13501    13431    13374 
   13358    13352    13340    13348    13371    13387    13425    13513 
   13628    13736    13838    13971    14112    14220    14320    14451 
   14584    14677    14743    14821    14891    14917    14949    14995 
   14990    14931    14877    14839    14770    14675    14602    14553 
   14494    14399    14269    14183    14156    14080    13960    13882 
   13797    13683    13616    13567    13506    13468    13425    13377 
   13371    13352    13271    13221    13238    13263    13277    13284 
   13296    13329    13378    13419    13424    13424    13462    13474 
   13421    13390    13410    13427    13428    13450    13481    13504 
   13522    13536    13531    13498    13460    13444    13452    13464 
   13494    13558    13621    13678    13755    13830    13888    13925 
   13933    13945    13973    13976    13973    13991    13965    13892 
   13849    13811    13716    13613    13536    13454    13374    13277 
   13138    13000    12876    12757    12652    12552    12469    12424 
   12372    12303    12264    12278    12316    12333    12337    12378 
   12437    12448    12437    12475    12552    12622    12677    12761 
   12889    12997    13045    13097    13194    13269    13292    13312 
   13339    13343    13331    13305    13259    13221    13186    13124 
   13049    12978    12916    12858    12791    12731    12718    12730 
   12745    12795    12884    12978    13084    13213    13347    13481 
   13620    13755    13898    14034    14148    14264    14386    14478 
   14546    14601    14625    14632    14635    14621    14613    14624 
   14585    14478    14373    14292    14229    14168    14071    13948 
   13852    13791    13759    13728    13657    13575    13514    13468 
   13419    13347    13275    13224    13157    13061    12976    12901 
   12815    12725    12652    12590    12528    12488    12487    12502 
   12532    12577    12622    12648    12673    12726    12775    12787 
   12803    12834    12837    12834    12866    12891    12869    12846 
   12854    12862    12856    12876    12937    13018    13138    13267 
   13352    13425    13514    13608    13721    13840    13942    14048 
   14168    14296    14418    14538    14674    14823    14972    15126 
   15276    15398    15471    15529    15601    15634    15593    15522 
   15441    15348    15252    15142    15030    14936    14844    14760 
   14723    14727    14717    14681    14671    14686    14667    14616 
   14558    14484    14419    14369    14314    14261    14216    14152 
   14054    13936    13811    13679    13518    13350    13205    13084 
   12977    12889    12815    12753    12718    12715    12714    12695 
   12658    12614    12603    12613    12572    12519    12533    12563 
   12564    12563    12556    12560    12619    12702    12781    12876 
   12965    13034    13090    13112    13101    13093    13090    13082 
   13085    13100    13101    13109    13157    13221    13298    13385 
   13474    13581    13683    13763    13856    13949    14017    14084 
   14145    14158    14119    14075    14038    13961    13851    13756 
   13652    13535    13428    13315    13232    13221    13220    13201 
   13201    13217    13248    13302    13340    13360    13404    13454 
   13490    13517    13536    13555    13567    13555    13549    13586 
   13630    13643    13632    13637    13653    13652    13653    13690 
   13748    13798    13840    13883    13930    13972    14013    14053 
   14081    14103    14145    14195    14229    14242    14230    14207 
   14208    14214    14195    14207    14270    14315    14331    14365 
   14400    14423    14442    14442    14443    14447    14393    14289 
   14184    14085    14008    13957    13913    13872    13849    13848 
   13865    13890    13896    13883    13872    13880    13898    13921 
   13940    13945    13950    13963    13969    13994    14048    14089 
   14076    14034    14011    13999    13954    13883    13825    13772 
   13699    13618    13543    13486    13450    13393    13308    13240 
   13197    13154    13095    13018    12954    12916    12860    12800 
   12768    12746    12754    12784    12795    12814    12866    12907 
   12922    12931    12939    12923    12869    12816    12776    12699 
   12598    12523    12482    12455    12425    12388    12366    12355 
   12345    12345    12356    12372    12399    12438    12502    12569 
   12627    12692    12765    12823    12872    12935    13004    13051 
   13070    13093    13149    13230    13323    13427    13544    13679 
   13811    13932    14072    14226    14359    14493    14613    14697 
   14785    14897    14998    15074    15129    15182    15250    15304 
   15323    15344    15384    15400    15381    15352    15311    15230 
   15097    14944    14796    14644    14486    14338    14199    14056 
   13927    13824    13734    13660    13594    13533    13504    13483 
   13435    13367    13308    13255    13201    13146    13095    13045 
   12974    12884    12815    12788    12753    12694    12653    12641 
   12637    12626    12596    12572    12591    12614    12619    12652 
   12715    12800    12911    12996    13047    13119    13207    13275 
   13340    13423    13494    13527    13533    13547    13558    13552 
   13535    13510    13513    13545    13563    13575    13629    13710 
   13763    13786    13805    13813    13807    13790    13740    13683 
   13664    13656    13644    13667    13710    13738    13788    13867 
   13933    13976    14022    14072    14103    14133    14179    14218 
   14249    14272    14285    14304    14299    14280    14304    14339 
   14316    14268    14237    14215    14180    14125    14071    14041 
   14015    13976    13949    13936    13900    13842    13783    13741 
   13703    13643    13586    13541    13458    13359    13301    13244 
   13157    13069    13000    12945    12889    12830    12803    12811 
   12800    12781    12802    12838    12866    12899    12939    12987 
   13032    13068    13119    13194    13262    13327    13402    13475 
   13551    13648    13733    13799    13890    13976    14013    14049 
   14106    14126    14121    14137    14161    14170    14157    14137 
   14129    14108    14048    13995    13988    13986    13968    13950 
   13942    13948    13953    13927    13882    13837    13788    13737 
   13697    13656    13605    13555    13510    13458    13405    13352 
   13290    13230    13176    13103    13022    12964    12935    12933 
   12943    12947    12970    13034    13111    13184    13255    13329 
   13398    13448    13467    13473    13486    13501    13510    13535 
   13571    13597    13598    13589    13597    13618    13614    13593 
   13583    13566    13524    13489    13475    13459    13436    13429 
   13447    13467    13482    13510    13536    13540    13559    13599 
   13616    13599    13590    13609    13632    13616    13576    13552 
   13531    13505    13482    13452    13423    13398    13367    13335 
   13306    13262    13208    13176    13142    13092    13059    13036 
   12993    12964    12977    13011    13051    13097    13155    13220 
   13289    13374    13464    13539    13608    13666    13702    13732 
   13733    13706    13690    13667    13626    13594    13560    13539 
   13548    13559    13571    13589    13598    13610    13640    13671 
   13703    13752    13798    13833    13863    13884    13900    13917 
   13941    13964    13983    14015    14064    14103    14118    14131 
   14149    14173    14199    14203    14183    14168    14143    14083 
   14008    13959    13915    13842    13751    13674    13630    13606 
   13572    13541    13539    13548    13564    13605    13660    13717 
   13768    13810    13860    13913    13949    13984    14030    14068 
   14081    14081    14077    14076    14076    14046    13988    13953 
   13938    13892    13811    13736    13689    13633    13562    13512 
   13477    13429    13363    13292    13244    13209    13140    13066 
   13042    13024    12957    12866    12802    12757    12695    12614 
