Origin Time       2025/01/13 21:19:00
Lat.              31.8
Long.             131.6
Depth. (km)       30
Mag.              6.9
Station Code      EHM014
Station Lat.      32.9451
Station Long.     132.5042
Station Height(m) 3
Record Time       2025/01/13 21:20:03
Sampling Freq(Hz) 100Hz
Duration Time(s)  92
Dir.              E-W
Scale Factor      7845(gal)/8223790
Max. Acc. (gal)   12.421
Last Correction   2025/01/13 21:20:03
Memo.             
[...]
    7020     6727     6484     6158     5652     5225     4828     4325 
    4291     5194     6428     7033     6643     5620     4677     4387 
    5058     6515     7812     7894     6635     4881     3665     3492 
    4014     4716     5497     6222     6880     7406     7271     6535 
    5714     4758     3769     3248     3430     4328     5547     6388 
    6513     5911     4758     3821     4162     5695     6799     6481 
    5779     5918     6512     6806     6772     6083     4641     3852 
    4699     5931     6072     5587     5551     5611     5070     4550 
    4720     5074     5308     5933     6924     7362     6937     6393 
    5767     4487     3449     3769     4814     5800     6804     7561 
    7599     7017     6153     5298     4716     4500     4599     4866 
    5200     5656     6150     6296     5818     5103     4880     5165 
    5516     5927     6211     5837     5008     4321     4109     4499 
    5105     5321     5011     4432     4051     4212     4729     5177 
    5429     5607     5760     5877     6052     6423     6967     7449 
    7581     7217     6540     5907     5454     4977     4226     3485 
    3125     3002     3262     4232     5395     6253     6995     7341 
    6787     5910     5385     5011     4706     4833     5451     6050 
    6135     5987     5984     5733     5097     4468     3766     2980 
    2728     3296     4301     5316     5946     5632     4468     3731 
    4321     5545     6381     6621     6417     5911     5466     5563 
    6172     6555     6264     5616     5032     4900     5300     5401 
    4602     3782     3894     4411     4438     4122     4008     4105 
    4378     4957     5429     5262     4854     5024     5810     6490 
    6588     6463     6620     6835     6616     5938     5094     4334 
    3815     3510     3292     3289     3661     4239     4696     4903 
    5282     6361     7616     8066     7689     7125     6629     6097 
    5764     5845     5732     5220     5292     6189     6808     6519 
    5800     5192     4818     4831     5391     6085     6157     5501 
    4784     4426     4144     3805     3921     4718     5691     6208 
    5935     5389     5563     6238     6367     6026     5667     5082 
    4683     5169     5780     5464     4769     4577     4677     4880 
    5387     5894     6012     5937     6102     6786     7665     8149 
    8279     8154     7511     6677     6124     5672     5359     5344 
    4931     3591     2223     1898     2285     2883     4212     6037 
    6913     6585     6019     5524     5035     4984     5602     6185 
    5937     5509     6192     7470     7479     5931     4341     3532 
    3284     3840     5128     5830     5308     4604     4881     6162 
    7489     8037     7836     7325     6878     6631     6565     6806 
    7299     7608     7666     7851     8152     8232     8109     7770 
    6559     4564     3515     4448     6135     6868     6077     4202 
    2355     1702     2481     4006     5381     6087     6330     6316 
    5922     5574     5791     6462     7441     8218     8102     7358 
    6490     5526     4652     4004     3415     3080     3578     4976 
    6322     6673     6469     6697     7433     8220     8503     7754 
    6192     4807     4498     5293     6295     6612     6416     6609 
    7218     7348     6879     6289     5560     4923     5017     5416 
    5024     4179     3932     4239     4768     5643     6898     8156 
    8322     6847     5346     5462     6446     7087     7514     7686 
    7140     6609     7091     7854     7538     6354     5383     4788 
    4476     4824     5528     5584     4612     3356     3019     3740 
    4540     5134     6041     7106     7315     6208     4542     3086 
    2134     2176     3279     4695     6012     7331     8403     8926 
    9121     9208     9013     8338     7194     5741     4288     3181 
    2548     2249     2273     2884     4062     5051     5027     4307 
    4261     5607     7539     8889     9185     8426     6925     5328 
    4176     3609     3600     4149     5188     6205     6488     6227 
    6141     5994     5287     4317     3434     2771     2683     3538 
    5278     7153     8210     8311     7870     6995     5566     3650 
    1933     1499     2808     5146     7384     8904     9552     9682 
   10084    10813    11033    10091     7959     5520     3997     3370 
    2874     2392     1856      845     -530    -1329     -529     1613 
    3576     4464     4919     5760     6843     7809     8633     8949 
    8463     8036     8608     9409     9088     7890     6849     5969 
    4822     3869     3854     4464     4787     4665     4255     3350 
    2489     2733     3946     5166     5787     5705     5533     6154 
    7545     8716     8756     7707     6639     6639     7705     8893 
    9281     8502     6547     3871     1800     1363     1890     2384 
    3072     4298     5418     5715     5543     5917     6903     7302 
    6554     5818     6413     7916     8837     8775     8175     7067 
    5836     5310     5449     5663     5524     4514     2623     1136 
    1487     3245     4671     5127     4912     4059     3001     2556 
    2960     3801     4600     5266     5724     5849     5919     6237 
    6735     7134     7636     9042    11146    12530    12231    10546 
    8827     7780     6497     4727     3542     3127     2810     2259 
    1197     -322    -1309    -1057      -39     1354     3306     5643 
    8083    10525    12174    12008     9814     6126     2589     1502 
    3338     6201     8626    10233    10061     7587     3842      827 
     403     1775     2593     3055     4531     6400     7199     6627 
    5435     4260     3457     3651     5159     7345     9038     9516 
    9294     9012     7931     5859     4464     4707     5949     7330 
    7950     7342     6126     5231     4901     4591     3784     2412 
     735     -665    -1597    -2259    -2224    -1051     1051     4079 
    7962    11799    14328    14681    13220    11380    10053     9177 
    8405     7276     5579     3966     3577     4376     4819     4182 
    3269     2664     2413     2610     3245     4040     4706     5244 
    5991     7531     9930    11739    11342     9054     6377     4819 
    5402     7323     8702     8598     7064     4861     2930     1690 
    1389     2149     3596     5026     5898     6224     5926     4787 
    3677     3488     3645     3716     4382     6073     7987     8951 
    8827     7850     5996     4075     3358     4016     5215     6212 
    6644     6434     5983     5779     5529     4442     2662     1462 
    1750     3269     5232     6754     7006     6112     5246     5312 
    6378     7793     8554     8289     7334     5944     4171     2390 
    1084      394      760     2994     6640     9265     8600     5256 
    1983      372       51      531     1753     3515     5629     8108 
   10797    12667    12429    10594     8997     8355     8451     9019 
    9279     8884     8399     7615     5956     3927     2330     1498 
    1275     1633     2960     4307     3782     1637      132      834 
    3839     8380    12914    15326    14392    10849     6623     3669 
    2609     2334     2390     3674     6030     7963     8415     7695 
    7230     7973     9363    10382    10284     8831     6899     5755 
    5572     5325     3986     2095     1383     2359     3859     4630 
    4336     3743     3561     3429     2859     2099     1687     2068 
    3659     6690    10710    14455    16648    16664    14062     9054 
    3700      387     -361      549     1895     2714     3338     4884 
    6925     8019     8098     7770     6975     5706     4527     3873 
    3573     3708     4868     6778     8154     8135     6758     4739 
    3542     4315     6374     7869     7746     6276     4351     2929 
    2539     3045     3711     3630     3096     3388     4666     6004 
    6551     5733     3824     2010     1429     2336     3871     4824 
    4785     4797     6615    10493    14474    16299    15033    11037 
    6039     3109     3730     5266     5370     5294     5629     5859 
    6473     6858     6328     5570     4849     4166     3296     1665 
     -58     -333     1491     5144     9757    13432    14114    11632 
    7794     4503     2594     2089     3136     5763     8731    10646 
   10864     8926     5705     2979     1568     1868     3693     5904 
    7379     7326     5661     3491     2332     2724     4112     6077 
    8129     9065     8229     5976     2798     -544    -2583    -2042 
     298     1984     1949     1539     2200     3740     5632     8176 
   10660    11191     9714     8166     7827     8492     9261     9586 
    9867    10199     9594     7676     5605     4329     3761     4280 
    6538     9917    12954    14435    14091    12286     9200     5667 
    3156     2131     2195     2748     2921     2876     3770     5379 
    6577     6986     6361     4810     3485     3060     2686     1661 
     650      581     1857     4075     5698     5436     3670     1753 
     864     1256     1966     2004     1641     1771     2806     4445 
    5927     6817     7570     9120    11610    13312    12027     8031 
    3969     1661      788      797     1906     3499     4251     4159 
    4172     4735     5400     5559     5701     6361     6871     6789 
    6451     6145     6054     5834     4882     3720     3493     4580 
    6172     6832     6181     5130     4307     3905     4468     6268 
    8074     8174     6608     4646     3063     2151     1706      974 
     -44     -383      854     4071     8291    11124    10758     7319 
    3138     1051     1333     2069     1802     1007     1934     5709 
   10312    12826    12058     9121     6176     4727     5008     5695 
    5225     3723     2438     2504     4140     6469     8494     9579 
    9784     9775     9602     8843     7593     6127     4569     3624 
    4203     5733     6686     6421     4941     2539      464      -94 
     862     2774     4575     5232     5223     5340     5350     5247 
    5505     6373     7989     9895    10527     8599     5220     3028 
    2884     3721     5104     6754     7380     7061     7645     9769 
   12229    13818    14351    13743    11785     9327     7758     7395 
    7384     7164     7287     8263     9197     8626     6864     5667 
    5173     4040     2292      922       70     -533    -1007    -1547 
   -2358    -3183    -3242    -2313    -1150     -810    -1405     -805 
    2816     7693    10694    10585     8239     6069     6381     8819 
   10972    11641    11313    10601     9817     8719     6999     4841 
    2288     -302    -2076    -2894    -2713    -1194     1236     4067 
    7065     9485    11103    12766    14364    14208    11672     8761 
    7767     8899    10725    11327    10079     8241     6602     5228 
    4455     3744     2025     -839    -3701    -4881    -4153    -2733 
    -703     2910     7527    11254    12829    12349    11426    11489 
   11713    10242     7198     5142     5454     6675     7411     7334 
    6423     5687     6366     7708     7474     4846     1553     -449 
    -932     -160     2030     4924     6825     7250     7115     6571 
    5491     4928     5513     6585     7261     7087     7001     8230 
   10407    12745    14341    14033    12295    10840    10353     9852 
    7827     4338     1084     -907    -1656    -1262     -322      -21 
    -468     -137     1755     4023     5682     6972     8189     9389 
   10848    12550    13393    12148     9448     7736     8139     8556 
    6868     3812      804    -1868    -3996    -5165    -5039    -3261 
     -90     3426     6268     8036     8977     9541    10022    10296 
    9734     7655     4731     3410     4743     6679     7388     7380 
    7958     9483    11045    11462    10320     7885     4980     3113 
    3218     4390     5139     5486     6405     7361     6571     3909 
    1329      598     1567     2508     2083      625     -468       86 
    2864     6858     9628    10025     9379     9440    10528    11163 
    9811     6882     3642      911     -743    -1121     -415      650 
    1142      936      553      672     1846     3851     6081     8025 
    9126     9497     9784    10224    10925    11971    13142    14189 
   14759    14098    11673     8386     6038     5266     5472     6116 
    6458     5427     2876      291     -612       54     1125     2439 
    3954     5031     5752     6579     7076     6546     5289     4437 
    4922     6559     7800     7230     5223     3478     3589     5611 
    8039     9644     9976     8982     7461     6066     4031      749 
   -2562    -4101    -3133     -406     2100     2925     2693     3173 
    5497     9283    12799    14046    12328     9140     6894     6802 
    8275     9545     9553     9140     8853     7884     6138     4392 
    2844     1205     -214     -346      839     1941     2307     2594 
    3375     4413     5479     7102     9328    10978    11259    10605 
    9585     8348     6916     5260     3435     1753      729      598 
    1169     2124     2775     2474     1810     1952     3040     4315 
    5293     5892     6201     6563     6797     6458     6083     6164 
    6274     6512     7852    10057    11538    11924    12170    12492 
   12453    12143    11377     9385     6340     3198      456    -1703 
   -3302    -4654    -6035    -7246    -7447    -5967    -2933      923 
    4720     7825     9578     9876     9601     9101     8330     7678 
    7285     7141     7460     8347     9288     9514     9082     8328 
    7068     5683     5279     5983     6886     7176     6581     5773 
    5590     5999     6261     5759     4779     3936     3518     3639 
    3811     3221     2196     1977     3028     4702     6169     6944 
    7096     7082     6987     6489     5817     5672     5683     4772 
    3269     2292     2006     2423     3804     5408     6204     6285 
    6031     5493     4938     4502     4032     3558     3111     2911 
    3164     3134     2484     2575     4332     6836     8873     9853 
    9312     7337     5498     5468     6577     6917     6193     5331 
    4671     4117     3827     4071     5042     6910     9281    10741 
   10187     8154     6075     4870     4384     4035     3739     3975 
    5117     6629     7491     7456     7063     6876     7119     7659 
    8144     8106     7357     6361     5760     5798     6250     6659 
    6818     7076     7820     8968    10200    10968    10219     7438 
    4072     2312     2486     3206     3708     4240     4954     5871 
    6974     7724     7254     5651     4364     4396     5310     6342 
    6937     6922     6967     7767     8833     9288     9186     9024 
    8822     8206     7067     5832     4831     3927     3323     3682 
    4761     5445     5418     5134     4564     3461     2201     1232 
     652      895     2169     3265     2847     1606     1375     2640 
    4433     5908     6858     7199     6810     5864     4826     4016 
    3723     4590     6840     9445    11160    11549    10687     9258 
    8432     8533     8922     9143     8854     7638     5796     4114 
    2972     2218     1398      388     -348     -406      373     1726 
    2795     3335     3963     4502     4364     4240     4819     5286 
    4806     3643     2134      461     -550      -32     1962     4561 
    6430     6820     6575     6855     7623     8203     8132     7430 
    6602     5946     5358     4888     4749     5250     6608     8364 
    9747    10255     9724     8689     8014     7904     8083     8361 
    8688     8868     8559     7523     5707     3678     2230     1421 
    1131     1443     2049     2702     3635     4706     5170     4610 
    3503     3061     4347     7101     9857    11290    11092    10030 
    9232     8918     8217     6629     4693     3130     2096     1294 
     508       28      373     1676     3352     4479     4830     4923 
    5215     5945     6979     7734     7974     8149     8622     8995 
    8487     7119     5944     5746     6264     6717     6779     6867 
    7452     8179     7958     6382     4537     3595     3553     3975 
    4623     5175     5418     5451     5459     5595     5663     5319 
    4845     4881     5638     6843     7973     8506     8100     6905 
    5819     5829     6791     7608     7701     7314     6647     5759 
    4966     4583     4426     4253     4325     4760     5024     4692 
    4147     4006     4174     4202     4344     5076     6025     6397 
    6029     5397     4999     4958     5016     4946     4924     5232 
    5925     6802     7385     7497     7635     7942     7982     7866 
    7923     7790     7091     6187     5611     5356     5159     5120 
    5385     5543     5171     4738     5071     6110     6852     6458 
    5123     3885     3438     3562     3889     4280     4442     4301 
    4473     5328     6046     5788     5055     4557     3935     2675 
    1212      702     1799     3673     4969     5464     5906     6579 
    7136     7497     7516     6766     5937     6195     7051     7159 
    6435     5838     5802     5907     5908     6095     6396     6201 
    5358     4299     3319     2538     2280     2952     4460     6022 
    6960     7465     7894     7960     7446     6886     6778     6821 
    6646     6396     5954     4978     4013     4008     4965     6019 
    6373     5918     5116     4228     3258     2430     1787     1086 
     627     1019     2110     3242     4120     4789     5290     5532 
    5512     5478     5574     5702     5821     5934     6131     6612 
    7312     7851     7948     7551     6928     6744     7134     7032 
    5868     4726     4545     5040     5732     6204     5822     4584 
    3595     3681     4378     4918     5082     4980     4874     5036 
    5506     6177     6968     7731     8305     8671     8673     8116 
    7275     6625     6489     6991     7574     7469     6860     6369 
    6030     5733     5643     5595     5175     4509     4021     3709 
    3410     3285     3462     3774     3979     3915     3993     4899 
    6208     6909     6963     6709     6123     5559     5418     5270 
    4591     3624     2832     2328     2133     2203     2384     2741 
    3235     3478     3570     4070     5070     6203     7169     7769 
    7805     7473     7352     7557     7550     7088     6720     6943 
    7427     7647     7612     7437     6955     6278     5992     6212 
    6315     6108     6120     6381     6181     5247     4087     3068 
    2185     1792     2340     3477     4480     5148     5732     6413 
    6941     6893     6501     6571     7225     7700     7673     7520 
    7223     6484     5649     5085     4419     3507     2884     2663 
    2446     2301     2589     3179     3627     3777     3744     3690 
    3785     4190     5069     6126     6625     6455     6185     6021 
    5880     5929     6149     6324     6598     6963     6787     5686 
    4197     3172     2906     3175     3769     4560     5200     5228 
    4824     4757     5223     5760     6133     6336     6376     6299 
    6043     5471     4707     4129     4032     4514     5489     6601 
