Origin Time       2025/01/13 21:19:00
Lat.              31.8
Long.             131.6
Depth. (km)       30
Mag.              6.9
Station Code      EHM014
Station Lat.      32.9451
Station Long.     132.5042
Station Height(m) 3
Record Time       2025/01/13 21:20:03
Sampling Freq(Hz) 100Hz
Duration Time(s)  92
Dir.              U-D
Scale Factor      7845(gal)/8223790
Max. Acc. (gal)   4.901
Last Correction   2025/01/13 21:20:03
Memo.             
[...]
    6879     7009     6809     6639     6386     6197     6328     6021 
    5887     6816     7177     6637     7053     7747     7065     6363 
    7117     7969     7759     7338     7122     6867     6976     7384 
    7565     7677     7439     6606     6502     7504     7998     7553 
    6983     6570     6446     6546     6717     7088     7261     7230 
    7712     7901     6998     6189     6046     6091     6291     6501 
    6615     6581     6230     6142     6612     6880     6729     6613 
    6724     6709     6065     5613     6388     7167     6999     7014 
    7013     6050     5472     6011     6509     7098     7892     7662 
    6883     6781     6766     6623     6945     7071     6457     6142 
    6805     7601     7909     8110     7919     6781     5822     6269 
    7361     7808     7352     6361     5402     5252     6141     6953 
    6913     7032     7562     7392     7068     7423     7275     6462 
    6118     5975     6021     6813     7281     6766     6519     7145 
    7758     7784     7608     7523     7358     7398     7798     7530 
    6473     6196     6602     6361     6097     6602     7059     6957 
    6536     6123     6079     6288     6617     7468     8378     8070 
    6918     6427     6512     6548     7053     7784     7492     6380 
    5678     5621     5895     6528     7250     7670     7809     7414 
    6482     6124     6685     6901     6276     5972     6705     7592 
    7746     7462     7190     6831     6581     6808     6856     6363 
    6439     6845     6454     6448     7277     7375     7087     7209 
    6983     6822     7317     7215     6551     7067     8071     7689 
    6928     7091     7231     7295     7975     8052     6736     5406 
    5124     5672     6417     6590     6122     5771     5977     6895 
    8197     8513     7346     6127     5741     5771     6264     7371 
    8152     7825     7132     6957     6808     6274     6384     7728 
    9007     8746     7187     5787     5444     5691     6052     6921 
    7925     7811     6791     6509     7377     7908     7466     7230 
    7204     6327     5526     6231     7553     7947     7299     6432 
    6045     6215     6619     7038     7365     7203     6176     5089 
    5464     6907     7615     7855     8434     7882     5957     5120 
    5940     6867     7686     8432     8149     6902     5537     4530 
    4858     6546     7433     6631     5431     4495     4365     5826 
    7815     8596     8318     8102     8197     8137     7792     7357 
    6756     6026     5630     5884     6737     7825     8464     8194 
    7191     6160     5890     6399     7125     7859     7843     6173 
    4542     4995     6365     7295     8004     7943     6955     6335 
    6608     7311     7996     8127     7597     6933     6421     6108 
    6318     6907     7087     6961     7018     6616     5946     6404 
    7364     7346     6941     6925     6864     6808     7419     8328 
    8239     7209     6602     6451     6108     6361     7523     8224 
    7851     6964     5854     4853     4384     4806     6374     7947 
    8058     7327     6767     6183     5734     5931     6500     7129 
    7801     8182     8051     7624     7164     7021     7484     8041 
    7836     7141     6710     6593     6980     7761     7916     7412 
    6907     6257     5584     5293     5393     5834     6039     5702 
    5602     5969     6347     6860     7580     7832     7260     6493 
    6000     5625     5701     6461     6991     6953     7183     7524 
    7357     7253     7376     6986     6273     5953     5949     6110 
    6772     7566     7407     6490     5969     5881     6143     7503 
    9213     9518     8625     7565     6517     5935     5930     5869 
    6138     7009     7264     6662     6257     6079     5796     5717 
    5652     5242     5094     5599     6088     6396     6929     7395 
    7492     7474     7678     8132     8122     7473     7022     6539 
    5744     5706     6362     6717     6808     6632     6116     5710 
    5405     5162     5215     5567     6473     7539     7593     7169 
    7587     8197     8144     8062     8020     7383     6519     5876 
    5269     5260     6446     7666     7670     7078     6862     6980 
    7134     7179     6975     6543     6072     5560     4942     4789 
    5675     6847     7272     7233     7242     6998     6832     7693 
    8856     8920     8290     7701     6982     6370     6216     6363 
    6751     7196     7497     7658     7253     6220     5687     6340 
    7236     7283     6475     5157     4135     4699     6426     7447 
    7381     6948     6292     5736     5984     6897     7535     7456 
    6924     5922     4804     4885     6068     6926     7466     7838 
    7302     6610     7017     8035     8922     9209     8155     6411 
    5653     6008     6694     7420     7522     6696     6120     6205 
    6346     7194     8257     7276     5458     5591     6498     6812 
    7582     8333     7898     6974     6285     5929     6162     6737 
    7121     7260     6690     5066     4293     5779     7242     7230 
    7225     7101     6100     5594     6124     6718     6822     6312 
    6056     7034     8337     8876     8637     7570     6299     5833 
    6035     6647     7649     7992     7051     6215     6315     6416 
    6639     7537     7686     6384     5269     5310     6083     7393 
    8935     9526     8652     7730     7591     7146     6605     6930 
    6706     5287     4625     4953     5205     5872     6583     6366 
    6311     6901     7086     6909     6652     6428     6970     7859 
    8228     8672     9382     9671     9640     9580     9329     8629 
    7516     6855     6972     6907     6493     6512     7092     7832 
    8464     8985     9186     8640     7851     7587     7465     7140 
    6875     6497     5753     5181     5698     7304     8689     8826 
    8008     7204     7122     7411     7356     7258     7387     7265 
    7098     7006     6453     6011     6246     6521     6863     7360 
    7229     6682     6357     5898     5516     6033     6897     6795 
    5868     5625     6335     6575     6242     6594     7354     7516 
    7452     7709     7954     7890     7569     7164     7190     7992 
    8897     9026     8533     7890     7145     6475     6141     6266 
    6650     6380     5329     4866     5541     6793     8392     9640 
    9344     7789     6446     5915     5988     6519     6759     6237 
    6010     6309     6146     5803     5746     5668     5935     6689 
    7250     7501     7722     7966     7996     7460     6678     6130 
    5881     6064     6245     5949     5788     5952     6068     6635 
    7635     7777     6795     5848     5653     6137     6948     7761 
    8446     8664     8302     8125     8341     8143     7265     6242 
    5628     5368     5098     5254     6176     6925     7086     7453 
    8016     8117     8058     8247     8355     8168     7645     6886 
    6481     6528     6373     5751     5134     5189     5718     5787 
    5468     5298     4897     4410     4662     5594     6797     7696 
    7260     6053     5941     6851     7693     8644     9202     8033 
    6156     5883     7092     7935     7888     7507     6801     5887 
    5238     4959     5489     6929     7703     6650     4968     4581 
    5788     6974     7263     7747     8563     8661     8399     8459 
    8924     9815    10071     8996     7932     7479     6743     6011 
    5903     5675     5294     5664     5902     5057     4693     5324 
    5240     4758     5576     7299     8357     7940     6656     6076 
    6551     7308     8446     9590     9283     7817     6902     6960 
    7427     7697     7261     6655     6681     6816     6598     6493 
    6432     6205     6199     6089     5443     5012     5271     5645 
    5849     6066     6039     5544     5506     6721     8216     8684 
    8172     7450     7009     6948     7107     7393     7808     7550 
    5872     4248     4326     5101     5274     5279     5902     7094 
    7534     6412     5566     6365     7134     6783     6421     6285 
    5570     4889     5462     6914     8122     8452     7577     6204 
    5864     6697     7429     7418     6793     5707     4779     4683 
    5182     5794     5969     4980     3573     3504     4752     5980 
    6648     6836     6855     7111     7561     8078     8449     8337 
    8186     8533     9265    10235    10706     9981     8919     8249 
    7591     7072     7036     7029     6729     6655     7088     7581 
    8168     9223    10061     9836     9116     8588     7974     7803 
    8646     8783     7495     7253     8753     9628     9073     8191 
    7055     5252     4041     4835     6393     7215     7742     7647 
    6619     6259     6858     7117     7047     7011     6696     6146 
    5985     6330     6378     6075     6349     7038     7345     7345 
    7115     6508     6076     6208     6330     5918     5228     4765 
    4585     4498     4707     5498     6434     6906     6903     6420 
    5834     5981     6258     5705     5148     5398     5945     6224 
    6332     6529     6390     5668     5277     5525     5482     4953 
    4511     4249     4336     5128     6195     6851     7296     8189 
    9238     9471     8961     8322     7442     6600     6825     7998 
    8691     8356     7940     8112     8564     8927     8955     8518 
    7828     6959     5865     5157     5630     6639     6570     5645 
    5398     5535     5225     5402     6540     7407     7176     6241 
    5385     5306     6453     8378     9409     8880     8012     7184 
    5946     5004     5147     5886     6232     6052     6046     6426 
    6620     6633     7213     8218     8679     8344     7533     6691 
    6367     6602     7215     8082     8590     7986     6542     5881 
    7150     9134     9698     8584     7180     6200     5728     6330 
    7581     7630     6062     4792     5225     6652     7757     7757 
    6550     5233     4992     5427     5836     6355     6768     6559 
    5961     5641     6088     6893     6971     6450     6463     6866 
    6736     6488     7049     7713     7379     7094     8023     8865 
    8730     8710     9086     9229     9324     9400     8818     8032 
    7935     7874     7700     8523     9562     9429     8776     7904 
    6598     6234     7500     8700     8560     7784     7115     6372 
    5926     6547     7506     7497     6820     6588     7007     7474 
    7603     7410     6690     5594     5499     7161     8883     8905 
    7924     7275     7186     7646     8503     9055     8988     8397 
    7321     6531     6612     6548     5732     5379     6349     7587 
    7622     6532     5362     4383     3582     3661     4658     5495 
    5984     6369     5930     4999     4814     5043     5355     6295 
    7346     7712     7253     6069     5263     5925     7325     8332 
    9019     9713     9975     9367     8310     7411     6624     5792 
    5451     5996     6689     6709     6276     5705     4969     4575 
    5358     7346     9136     9134     7393     5036     3129     2913 
    4738     6662     6949     6519     6097     4897     3542     3445 
    4472     5875     7041     7612     7889     7865     7059     5940 
    5653     6303     7034     7414     7287     6486     5817     6203 
    7192     8164     9177     9923     9925     9452     8776     7472 
    5846     5131     5267     5161     4882     4936     5093     5525 
    6393     6897     6939     7153     7082     6330     5753     5676 
    5555     5864     7379     9205    10127    10192     9803     9112 
    8379     7909     7381     6349     5761     6561     7539     7618 
    7555     7581     7244     7369     8360     8783     8024     7053 
    6386     5927     5595     5360     5603     6473     7052     6718 
    6173     6096     6374     6767     7221     7796     8293     8081 
    7102     6215     5930     5915     5638     5128     5155     5841 
    6234     6083     5968     6154     6629     7110     7349     7670 
    8257     8641     8214     7067     6134     5860     5915     6180 
    6454     6551     7101     8533    10023    10650    10303     9111 
    7431     6203     5998     6193     5925     5140     4510     4774 
    5737     6463     7018     7925     8452     7985     7263     6791 
    6143     5228     4677     4796     5242     5644     5900     6273 
    6752     6717     6411     7051     8526     9327     9132     9126 
    9630     9796     9524     9467     9486     8764     7207     5956 
    5980     6623     6964     7512     8580     9104     8561     7875 
    7582     7057     6251     6079     6358     5962     4864     3642 
    2744     2983     4114     4564     4402     4700     4625     3804 
    4156     5953     6895     6424     6129     6110     5389     4606 
    4691     5138     5589     6303     6970     7258     7430     7862 
    8760     9775    10338    10585    10872    10991    10353     8727 
    6998     6516     7458     8667     9013     8183     6535     5042 
    4638     5258     6220     6831     6532     5773     5671     6196 
    6602     7099     7935     8224     7574     6916     6731     6720 
    6664     6280     5580     5089     4936     5062     5857     7056 
    7148     5749     4819     5560     6986     8473     9772     9823 
    8986     9066    10270    11435    11998    11979    11259     9656 
    7704     6350     5470     4784     4989     5607     5136     4063 
    3943     4766     5840     7015     7555     6654     5568     5641 
    5694     4764     3977     3983     4448     5788     7987     9437 
    9231     8392     7858     7433     6957     6755     6779     6696 
    6763     7194     7231     6494     6168     7163     8271     8159 
    7415     6940     6523     6049     5821     5702     5946     7249 
    8837     9460     9370     8811     7681     6833     6729     6859 
    6980     6829     6138     5432     5073     4714     4507     4773 
    4919     4688     4899     5584     5849     5961     6993     8722 
    9933    10247    10459    10933    10797     9660     8541     8044 
    7472     6566     6288     6786     6636     5328     4237     4563 
    5988     7306     7703     7245     6403     5859     6061     6806 
    7497     7236     5895     4973     5381     6079     6347     6696 
    6774     5718     4544     4838     6185     7095     6926     6247 
    5728     5221     5074     6327     8406     9367     8544     6980 
    5844     5663     6384     7079     6673     5436     4785     5432 
    6578     7501     8463     9370     9653     9441     9418     9695 
    9578     9007     8804     8964     8946     8718     8325     7798 
    7095     6199     5539     5373     5269     4851     4641     5229 
    6019     6265     6207     6280     6725     7434     7765     7784 
    8414     9559    10007     9590     9205     8900     8445     8213 
    8044     7715     7582     7414     6756     5979     5522     5483 
    5879     6415     6782     7006     7025     6694     6045     5502 
    5629     6122     6147     5799     5827     6382     6957     7146 
    7068     7020     7065     7269     7731     8081     7560     6006 
    4384     3690     3920     4608     5448     6207     6619     6694 
    6936     7469     7825     8020     8293     8298     7875     7393 
    7064     6930     7114     7407     7291     6675     6079     6119 
    6512     6358     5726     5028     4141     3457     3723     4784 
    5490     5209     4797     5036     5769     6893     8116     8573 
    7962     7218     7233     7651     7828     7815     7720     7441 
    7132     7103     7520     8056     8106     7909     8185     8565 
    8101     6898     5977     5768     5682     5463     5456     5368 
    4896     4723     5305     6357     7423     8083     8384     8359 
    8137     8739     9891     9849     8843     8019     7115     6324 
    6489     7245     7646     7296     6575     6342     6920     8037 
    9360    10295    10264     9509     8976     8924     8806     8692 
    8673     8168     7182     6365     6080     6358     6902     6955 
    6242     5609     5625     5817     5891     5985     5811     5329 
    5273     5660     5641     5213     4984     4785     4303     3981 
    4102     4318     4421     4342     3962     3647     3950     4787 
    5651     6176     6195     5872     5917     6717     7560     7879 
    8064     8239     8229     8361     8650     8779     9000     9301 
    9347     9482     9647     9154     8162     7183     6475     6486 
    7096     7387     6983     6515     6548     6786     6930     7285 
    7707     7700     7584     7661     7275     6322     5713     5634 
    5625     5779     6037     5863     5644     6372     7624     8067 
    7785     7857     8185     8017     7658     7662     7732     7674 
    7750     7929     8147     8402     8476     8341     8093     7727 
    7339     6766     5890     5304     5325     5520     5779     6334 
    6934     7113     6947     6821     6752     6739     6799     6438 
    5755     5805     6462     6693     6613     6511     6068     5679 
    5821     5929     5509     4729     3989     3982     5004     6211 
    6886     7200     7106     6735     6887     7426     7757     8112 
    8170     7304     6390     6427     7002     7605     8287     8737 
    8590     8337     8456     8457     8140     8094     8182     7724 
    6905     6509     6886     7466     7628     7688     7979     8124 
    7734     6903     6083     5657     5717     5887     5459     4504 
    3943     4051     4361     4745     5277     5687     5649     5300 
    5134     5410     5844     6157     6488     6859     7020     7048 
    7079     6818     6417     6478     6714     6621     6656     7018 
    7298     7723     8391     8594     8241     7816     7383     7145 
    7308     7272     6517     5509     4962     5255     6338     7492 
    7928     7649     7186     7101     7516     7708     7015     5875 
    5206     5161     5246     5464     5846     5782     5472     5697 
    6169     6662     7628     8591     8764     8615     8773     8937 
    8899     9108     9510     9367     8866     8819     8943     8731 
    8448     8059     7306     6600     6504     7005     7453     7202 
    6453     5910     5856     6187     6763     7353     7759     7924 
    7828     7696     7774     7812     7686     7636     7379     6613 
    5903     5827     6323     6882     6982     6743     6590     6548 
    6505     6401     6158     5760     5313     5108     5254     5463 
    5482     5224     4831     4946     5803     6326     5795     5256 
    5643     6280     6407     6273     6370     6841     7322     7234 
    6781     6648     6760     6617     6412     6619     7053     7258 
    7071     6616     6323     6330     6334     6494     7053     7466 
    7364     7287     7476     7399     7269     7817     8403     8266 
    8063     7912     7210     6687     7096     7582     7437     7064 
    6875     7025     7473     7684     7396     7188     7323     7290 
    7007     7052     7257     6879     6203     5876     5514     4959 
