Origin Time       2025/01/13 21:19:00
Lat.              31.8
Long.             131.6
Depth. (km)       30
Mag.              6.9
Station Code      FKO008
Station Lat.      33.5712
Station Long.     130.8546
Station Height(m) 70
Record Time       2025/01/13 21:20:13
Sampling Freq(Hz) 100Hz
Duration Time(s)  99
Dir.              E-W
Scale Factor      7845(gal)/8223790
Max. Acc. (gal)   5.776
Last Correction   2025/01/13 21:20:13
Memo.             
[...]
    1448     1460     1362     1159      899      630      371      163 
      29      -31      -12       81      230      415      604      784 
     955     1100     1212     1293     1333     1340     1321     1273 
    1225     1206     1210     1233     1275     1298     1286     1239 
    1162     1054      915      766      626      498      390      305 
     244      199      160      141      141      145      139      124 
     113       99       94      120      168      252      388      572 
     783      992     1156     1250     1266     1221     1129     1000 
     857      716      589      488      411      338      255      152 
      40      -66     -162     -259     -363     -456     -557     -687 
    -816     -965    -1143    -1317    -1495    -1667    -1796    -1900 
   -1976    -1993    -1948    -1856    -1721    -1541    -1339    -1135 
    -949     -808     -708     -633     -575     -519     -457     -384 
    -297     -206     -129      -85      -58      -32      -10       25 
      78      149      264      423      598      749      850      893 
     880      822      738      657      612      626      695      819 
    1000     1225     1475     1733     1969     2155     2268     2292 
    2238     2118     1946     1729     1462     1154      819      471 
     139     -157     -406     -585     -702     -756     -754     -716 
    -630     -469     -244       25      332      662      994     1283 
    1506     1664     1749     1763     1722     1636     1506     1333 
    1135      934      758      619      527      496      510      567 
     673      799      920     1026     1071     1061     1015      918 
     778      600      376      164       20      -36      -22       47 
     163      278      364      433      461      432      355      234 
      90      -37     -124     -176     -198     -184     -143      -59 
      97      305      533      776     1007     1190     1314     1360 
    1302     1140      930      715      515      341      194       79 
       1      -40      -49      -43      -24       20       91      180 
     268      342      398      422      433      467      535      638 
     778      951     1134     1300     1416     1464     1441     1359 
    1227     1055      873      723      618      556      534      545 
     571      596      594      530      390      174      -83     -334 
    -540     -677     -758     -788     -770     -715     -635     -554 
    -468     -372     -282     -203     -133      -71      -16       24 
      59      116      194      278      356      427      508      607 
     722      842      963     1100     1237     1332     1378     1371 
    1297     1171     1026      859      665      476      306      139 
     -17     -163     -305     -452     -622     -815    -1001    -1144 
   -1231    -1274    -1287    -1290    -1300    -1308    -1300    -1270 
   -1212    -1111     -959     -772     -569     -365     -170       16 
     189      328      444      568      687      772      824      846 
     837      803      764      719      672      610      537      487 
     463      452      460      484      549      662      793      954 
    1150     1348     1543     1729     1883     2006     2096     2151 
    2188     2197     2173     2120     2038     1927     1799     1663 
    1540     1435     1351     1317     1331     1385     1494     1634 
    1775     1900     1981     1985     1910     1760     1541     1286 
    1031      799      610      468      361      268      166       43 
    -102     -255     -396     -530     -652     -766     -877     -984 
   -1088    -1166    -1216    -1246    -1248    -1223    -1147    -1015 
    -818     -557     -280      -14      233      438      598      711 
     751      720      629      468      259       25     -216     -444 
    -652     -838     -973    -1042    -1058    -1038     -996     -943 
    -900     -892     -908     -932     -972     -997    -1008    -1026 
   -1034    -1017     -986     -918     -823     -749     -693     -649 
    -642     -687     -781     -927    -1111    -1298    -1460    -1570 
   -1607    -1568    -1463    -1312    -1128     -920     -715     -525 
    -337     -171      -25      113      233      348      488      661 
     876     1121     1377     1640     1906     2134     2304     2419 
    2479     2490     2466     2420     2363     2304     2269     2284 
    2357     2497     2712     2980     3294     3647     3994     4291 
    4527     4669     4700     4656     4569     4463     4351     4244 
    4153     4093     4055     4017     3960     3867     3730     3558 
    3365     3156     2947     2760     2610     2509     2458     2455 
    2475     2474     2427     2309     2101     1799     1431     1030 
     606      182     -221     -614     -999    -1362    -1710    -2042 
   -2354    -2654    -2934    -3196    -3442    -3655    -3834    -3981 
   -4099    -4168    -4172    -4120    -4016    -3865    -3677    -3447 
   -3175    -2878    -2565    -2230    -1902    -1603    -1327    -1080 
    -872     -693     -542     -406     -267     -135      -13       83 
     139      160      133       48      -75     -234     -430     -630 
    -807     -949    -1042    -1096    -1140    -1173    -1190    -1189 
   -1169    -1128    -1077    -1013     -931     -846     -789     -762 
    -758     -780     -832     -895     -946     -981     -957     -854 
    -683     -432     -117      226      580      924     1252     1552 
    1792     1987     2151     2277     2378     2459     2494     2473 
    2388     2230     2025     1798     1560     1341     1190     1109 
    1066     1054     1067     1093     1129     1161     1170     1177 
    1196     1216     1231     1248     1262     1258     1217     1136 
    1030      899      749      592      434      290      197      164 
     190      278      410      541      657      761      851      939 
    1031     1113     1177     1215     1217     1190     1144     1092 
    1043      993      950      931      936      977     1051     1142 
    1248     1364     1467     1525     1512     1414     1229      974 
     675      355       43     -240     -494     -711     -876     -981 
   -1021     -986     -872     -702     -490     -225       85      421 
     770     1115     1437     1723     1948     2093     2146     2089 
    1918     1652     1314      930      527      139     -206     -491 
    -711     -858     -930     -940     -901     -820     -699     -540 
    -367     -178       22      207      375      519      622      696 
     753      804      878      992     1135     1285     1421     1530 
    1593     1590     1517     1393     1232     1039      814      577 
     353      148      -25     -162     -265     -346     -421     -508 
    -606     -691     -754     -797     -801     -772     -731     -683 
    -637     -612     -603     -612     -643     -687     -746     -797 
    -822     -830     -819     -792     -756     -689     -585     -442 
    -265      -81      116      326      521      697      858      993 
    1090     1143     1146     1077      938      756      545      317 
      82     -145     -349     -531     -693     -841     -993    -1171 
   -1366    -1568    -1761    -1923    -2047    -2138    -2174    -2161 
   -2095    -1966    -1782    -1561    -1317    -1053     -777     -513 
    -279      -82       85      218      329      450      584      730 
     901     1085     1271     1455     1606     1726     1818     1867 
    1868     1831     1773     1699     1607     1512     1444     1424 
    1464     1571     1730     1908     2077     2220     2312     2339 
    2290     2168     1983     1759     1516     1255     1005      803 
     643      523      441      380      332      299      276      256 
     236      221      207      182      143       99       49        0 
     -35      -66      -94     -118     -164     -236     -322     -429 
    -554     -691     -837     -982    -1115    -1216    -1279    -1323 
   -1354    -1362    -1345    -1305    -1235    -1139    -1043     -955 
    -880     -814     -751     -688     -611     -517     -399     -257 
     -97       82      275      480      712      965     1236     1529 
    1815     2079     2312     2502     2639     2713     2736     2717 
    2670     2604     2519     2419     2301     2154     1984     1786 
    1553     1304     1055      820      619      459      334      240 
     167      112       74       28      -54     -163     -299     -471 
    -661     -843    -1007    -1150    -1278    -1395    -1493    -1563 
   -1611    -1621    -1588    -1520    -1420    -1287    -1139     -993 
    -878     -814     -800     -832     -912    -1023    -1131    -1219 
   -1275    -1281    -1232    -1142    -1013     -843     -649     -463 
    -305     -162      -21      114      245      361      465      571 
     684      816      963     1109     1251     1402     1561     1715 
    1861     1987     2073     2135     2173     2180     2181     2192 
    2192     2196     2211     2205     2170     2095     1965     1780 
    1537     1233      880      487       83     -305     -657     -943 
   -1158    -1304    -1360    -1312    -1173     -958     -685     -391 
    -106      159      399      604      785      959     1129     1283 
    1417     1526     1598     1633     1641     1632     1622     1634 
    1667     1730     1844     1993     2160     2326     2469     2578 
    2651     2683     2675     2639     2596     2558     2529     2505 
    2467     2401     2284     2097     1836     1495     1108      715 
     330      -22     -306     -514     -653     -729     -757     -766 
    -769     -765     -766     -783     -816     -866     -930    -1019 
   -1135    -1260    -1393    -1540    -1692    -1833    -1942    -2007 
   -2019    -1966    -1849    -1680    -1472    -1237     -986     -720 
    -452     -189       67      305      527      734      922     1075 
    1156     1165     1139     1116     1107     1131     1189     1264 
    1348     1436     1507     1551     1567     1537     1443     1291 
    1080      807      487      126     -255     -641    -1032    -1410 
   -1763    -2084    -2355    -2569    -2728    -2830    -2884    -2901 
   -2870    -2802    -2728    -2637    -2512    -2350    -2147    -1902 
   -1611    -1297     -978     -670     -369      -74      195      437 
     660      853     1021     1190     1366     1564     1794     2060 
    2361     2683     3025     3369     3699     4012     4303     4567 
    4810     5044     5270     5470     5643     5779     5871     5922 
    5926     5877     5776     5614     5387     5100     4747     4344 
    3924     3496     3078     2698     2365     2083     1871     1707 
    1555     1410     1271     1113      943      797      691      612 
     567      565      583      596      595      554      457      290 
      58     -211     -513     -831    -1129    -1398    -1636    -1831 
   -2000    -2139    -2243    -2331    -2404    -2469    -2544    -2617 
   -2687    -2766    -2852    -2961    -3086    -3203    -3326    -3454 
   -3572    -3672    -3740    -3774    -3789    -3777    -3740    -3704 
   -3665    -3618    -3580    -3549    -3510    -3477    -3433    -3342 
   -3207    -3032    -2812    -2581    -2381    -2218    -2085    -1996 
   -1922    -1829    -1717    -1584    -1420    -1220     -993     -747 
    -510     -303     -130        1       97      178      253      325 
     403      510      664      880     1167     1522     1927     2359 
    2798     3210     3569     3886     4159     4372     4542     4673 
    4758     4827     4882     4905     4912     4909     4885     4846 
    4799     4743     4687     4627     4541     4403     4224     4014 
    3785     3543     3288     3021     2733     2417     2065     1672 
    1250      816      391       -2     -364     -707    -1026    -1318 
   -1611    -1918    -2226    -2515    -2775    -2988    -3138    -3208 
   -3186    -3063    -2849    -2552    -2187    -1771    -1320     -834 
    -318      202      703     1182     1624     1995     2299     2546 
    2743     2906     3038     3141     3221     3276     3303     3300 
    3253     3161     3041     2905     2755     2590     2415     2222 
    2010     1786     1540     1262      970      681      375       55 
    -263     -600     -965    -1325    -1672    -2012    -2320    -2574 
   -2770    -2894    -2929    -2891    -2802    -2659    -2467    -2232 
   -1965    -1687    -1413    -1156     -915     -687     -472     -245 
       1      252      506      758      981     1167     1316     1413 
    1462     1482     1486     1479     1466     1458     1448     1418 
    1383     1340     1267     1178     1066      930      774      614 
     476      351      234      157      110       63       27        2 
     -29      -90     -174     -280     -414     -560     -714     -885 
   -1057    -1216    -1383    -1553    -1709    -1857    -2002    -2139 
   -2273    -2407    -2543    -2682    -2814    -2944    -3082    -3219 
   -3343    -3454    -3549    -3622    -3654    -3628    -3550    -3416 
   -3233    -2999    -2695    -2324    -1896    -1422     -920     -413 
      83      553      993     1404     1769     2089     2384     2670 
    2959     3261     3577     3896     4203     4506     4801     5069 
    5305     5517     5706     5861     5996     6115     6219     6312 
    6382     6417     6413     6361     6264     6127     5961     5791 
    5607     5401     5196     4982     4737     4457     4129     3744 
    3314     2830     2304     1745     1151      526     -113     -753 
   -1374    -1971    -2528    -3014    -3412    -3713    -3921    -4052 
   -4118    -4131    -4113    -4082    -4050    -4025    -4006    -3971 
   -3919    -3861    -3782    -3682    -3566    -3429    -3277    -3115 
   -2948    -2775    -2598    -2420    -2234    -2043    -1865    -1678 
   -1463    -1227     -963     -662     -344        0      372      749 
    1127     1491     1833     2161     2473     2764     3029     3254 
    3431     3558     3645     3684     3651     3558     3414     3203 
    2938     2625     2270     1908     1561     1240      959      715 
     508      334      182       40     -120     -301     -508     -773 
   -1075    -1399    -1740    -2068    -2367    -2646    -2887    -3087 
   -3254    -3388    -3504    -3615    -3711    -3789    -3855    -3909 
   -3958    -3981    -3960    -3886    -3739    -3523    -3252    -2928 
   -2562    -2164    -1757    -1359     -963     -573     -190      195 
     575      943     1302     1632     1931     2215     2458     2646 
    2781     2839     2839     2795     2701     2569     2419     2263 
    2128     2030     1976     1971     2012     2083     2172     2278 
    2382     2475     2552     2586     2565     2497     2376     2218 
    2058     1894     1729     1593     1480     1389     1320     1264 
    1219     1189     1185     1202     1242     1298     1372     1453 
    1537     1615     1667     1674     1636     1533     1358     1135 
     864      549      234      -49     -305     -495     -611     -683 
    -702     -662     -599     -519     -414     -303     -194      -68 
      76      232      402      588      778      973     1163     1337 
    1498     1647     1777     1904     2033     2151     2254     2330 
    2361     2355     2308     2216     2089     1934     1757     1578 
    1406     1246     1097      973      869      766      650      519 
     368      203       43     -113     -270     -415     -557     -710 
    -865    -1021    -1178    -1308    -1408    -1479    -1494    -1471 
   -1435    -1379    -1323    -1278    -1242    -1213    -1193    -1173 
   -1151    -1121    -1081    -1038     -988     -924     -862     -810 
    -760     -733     -742     -770     -803     -841     -872     -884 
    -886     -874     -830     -773     -710     -639     -576     -527 
    -488     -456     -430     -409     -396     -388     -383     -373 
    -353     -305     -217      -93       70      268      496      745 
     996     1223     1412     1563     1660     1698     1695     1668 
    1622     1579     1552     1543     1556     1586     1613     1629 
    1630     1603     1551     1489     1424     1356     1300     1271 
    1274     1313     1366     1422     1497     1560     1598     1629 
    1644     1644     1659     1679     1694     1710     1723     1740 
    1756     1760     1756     1737     1703     1665     1614     1548 
    1472     1385     1296     1208     1125     1067     1017      967 
     940      924      900      873      843      801      742      657 
     556      444      314      176       31     -122     -268     -411 
    -560     -697     -842    -1011    -1186    -1370    -1559    -1740 
   -1903    -2023    -2079    -2064    -1985    -1848    -1660    -1445 
   -1232    -1038     -864     -718     -627     -591     -577     -575 
    -580     -575     -534     -456     -325     -128      113      392 
     697      988     1244     1472     1644     1749     1802     1811 
    1792     1760     1710     1645     1568     1468     1341     1182 
     992      783      548      288       31     -217     -445     -634 
    -778     -882     -950     -981     -980     -935     -841     -720 
    -595     -452     -286     -112       63      240      425      596 
     737      864      982     1084     1173     1242     1279     1296 
    1279     1213     1107      977      819      629      422      220 
      12     -182     -328     -415     -436     -375     -248      -66 
     175      453      737     1019     1283     1514     1722     1910 
    2058     2168     2241     2274     2289     2292     2289     2297 
    2312     2331     2354     2365     2344     2285     2200     2091 
    1962     1836     1714     1595     1495     1410     1318     1217 
    1090      923      729      504      255       10     -206     -405 
    -576     -699     -778     -823     -831     -800     -729     -622 
    -500     -379     -264     -168     -102      -51       -6       29 
      67      112      159      206      247      274      279      271 
     260      218      125       -4     -179     -405     -660     -950 
   -1269    -1587    -1908    -2224    -2517    -2789    -3030    -3234 
   -3402    -3530    -3616    -3670    -3686    -3662    -3593    -3462 
   -3273    -3041    -2772    -2479    -2166    -1838    -1494    -1134 
    -751     -353       60      498      957     1417     1854     2261 
    2619     2890     3076     3196     3240     3218     3149     3028 
    2882     2729     2559     2396     2247     2093     1945     1806 
    1667     1521     1367     1206     1040      869      693      513 
     352      230      124       48       32       52       99      179 
     271      369      472      575      680      793      905     1005 
    1096     1170     1221     1251     1267     1279     1285     1279 
    1269     1244     1209     1170     1124     1088     1074     1085 
    1116     1165     1228     1289     1329     1362     1381     1367 
    1344     1313     1273     1244     1215     1179     1163     1144 
    1108     1058      982      872      733      568      390      205 
