Origin Time       2025/01/13 21:19:00
Lat.              31.8
Long.             131.6
Depth. (km)       30
Mag.              6.9
Station Code      FKO015
Station Lat.      33.1629
Station Long.     130.4052
Station Height(m) 3
Record Time       2025/01/13 21:20:07
Sampling Freq(Hz) 100Hz
Duration Time(s)  142
Dir.              U-D
Scale Factor      7845(gal)/8223790
Max. Acc. (gal)   5.396
Last Correction   2025/01/13 21:20:07
Memo.             
[...]
    7723     7776     7897     8075     8275     8449     8565     8615 
    8604     8552     8471     8367     8233     8073     7931     7836 
    7778     7771     7827     7943     8131     8394     8727     9124 
    9560     9994    10407    10795    11160    11473    11670    11719 
   11642    11446    11113    10644    10069     9433     8780     8140 
    7554     7059     6671     6411     6313     6386     6574     6821 
    7109     7419     7736     8035     8284     8488     8656     8811 
    8980     9165     9359     9545     9679     9729     9695     9578 
    9375     9100     8783     8461     8174     7947     7793     7700 
    7641     7609     7638     7747     7921     8143     8415     8719 
    9000     9215     9340     9359     9250     9013     8681     8286 
    7850     7407     7003     6679     6459     6349     6332     6380 
    6451     6517     6567     6597     6625     6670     6729     6781 
    6820     6862     6906     6959     7028     7113     7217     7346 
    7499     7666     7809     7894     7912     7859     7736     7553 
    7331     7091     6844     6592     6350     6150     5999     5879 
    5787     5725     5702     5722     5780     5871     6003     6183 
    6403     6648     6916     7202     7506     7835     8175     8483 
    8723     8888     8988     9046     9061     9018     8930     8831 
    8733     8640     8586     8603     8695     8857     9080     9329 
    9567     9771     9940    10060    10119    10120    10065     9952 
    9805     9661     9531     9420     9339     9286     9254     9240 
    9247     9285     9348     9439     9559     9683     9788     9859 
    9876     9832     9720     9560     9378     9180     8978     8812 
    8696     8629     8611     8633     8667     8672     8611     8479 
    8320     8178     8066     7997     7983     8032     8129     8243 
    8344     8426     8483     8519     8554     8600     8671     8760 
    8860     8947     8993     8992     8962     8881     8725     8515 
    8270     8013     7792     7605     7447     7345     7304     7318 
    7371     7419     7423     7373     7284     7163     6999     6785 
    6527     6239     5915     5557     5184     4795     4399     4028 
    3700     3445     3312     3310     3430     3678     4047     4509 
    5039     5618     6226     6831     7391     7848     8145     8263 
    8206     8002     7690     7304     6870     6409     5958     5555 
    5231     5017     4908     4889     4976     5165     5425     5748 
    6120     6515     6910     7271     7555     7731     7808     7821 
    7788     7720     7635     7545     7465     7411     7384     7381 
    7415     7499     7639     7850     8125     8433     8742     9034 
    9292     9513     9694     9830     9914     9930     9864     9718 
    9514     9271     9009     8765     8565     8406     8275     8189 
    8171     8240     8407     8684     9065     9509     9980    10455 
   10916    11323    11641    11847    11947    11939    11832    11650 
   11422    11182    10952    10736    10544    10378    10222    10080 
    9969     9900     9898     9971    10092    10247    10435    10632 
   10809    10948    11036    11092    11140    11137    11083    11017 
   10917    10775    10650    10594    10620    10705    10839    11011 
   11186    11361    11554    11734    11871    11954    11983    11979 
   11934    11803    11572    11277    10955    10625    10315    10050 
    9834     9655     9491     9352     9263     9235     9259     9324 
    9414     9528     9671     9837    10000    10114    10153    10120 
   10027     9900     9776     9664     9558     9437     9292     9115 
    8911     8694     8479     8267     8055     7852     7668     7491 
    7291     7053     6789     6497     6200     5918     5659     5439 
    5270     5140     5049     4999     4959     4911     4874     4846 
    4800     4746     4688     4645     4679     4796     4990     5298 
    5736     6265     6829     7384     7909     8374     8726     8930 
    8972     8885     8707     8452     8160     7885     7645     7438 
    7264     7111     6953     6785     6606     6412     6219     6043 
    5881     5737     5616     5530     5479     5433     5383     5327 
    5259     5211     5197     5169     5088     4999     4939     4923 
    4945     5000     5097     5221     5323     5375     5378     5364 
    5394     5478     5591     5744     5949     6199     6488     6824 
    7204     7585     7925     8216     8473     8679     8808     8891 
    8950     8982     8986     8958     8862     8710     8552     8406 
    8270     8127     7955     7755     7527     7280     7052     6872 
    6745     6675     6660     6710     6829     6997     7190     7418 
    7680     7960     8256     8542     8793     9004     9173     9328 
    9472     9580     9668     9724     9709     9632     9537     9451 
    9375     9313     9262     9202     9151     9115     9065     9027 
    9059     9201     9470     9829    10238    10679    11115    11524 
   11890    12160    12314    12353    12237    11994    11693    11360 
   11002    10638    10293     9988     9711     9462     9246     9058 
    8916     8834     8806     8811     8811     8795     8758     8680 
    8564     8407     8194     7952     7701     7429     7142     6852 
    6579     6359     6226     6180     6183     6222     6313     6466 
    6678     6925     7198     7484     7726     7896     8021     8117 
    8174     8199     8206     8191     8163     8128     8070     7997 
    7946     7935     7950     7975     8009     8032     8021     7970 
    7889     7774     7622     7464     7317     7145     6948     6752 
    6571     6417     6293     6177     6073     5999     5940     5884 
    5832     5773     5695     5606     5530     5505     5548     5649 
    5809     6010     6218     6413     6605     6806     7006     7199 
    7393     7581     7739     7879     8020     8160     8283     8363 
    8379     8344     8266     8183     8144     8156     8216     8291 
    8361     8456     8553     8619     8689     8802     8962     9167 
    9394     9651     9949    10289    10652    11011    11375    11762 
   12155    12526    12854    13108    13266    13324    13281    13151 
   12950    12660    12290    11855    11357    10825    10292     9767 
    9283     8858     8502     8245     8097     8027     8009     8037 
    8124     8280     8492     8741     8997     9242     9459     9607 
    9641     9539     9309     8972     8564     8128     7708     7322 
    6975     6670     6408     6200     6065     6027     6092     6258 
    6519     6862     7257     7666     8060     8425     8737     8977 
    9142     9228     9227     9121     8916     8610     8210     7757 
    7281     6799     6363     6018     5787     5692     5737     5908 
    6174     6497     6851     7213     7573     7925     8257     8549 
    8777     8926     8978     8930     8795     8599     8375     8128 
    7846     7565     7348     7207     7138     7145     7214     7331 
    7483     7646     7797     7936     8062     8179     8290     8357 
    8372     8380     8421     8487     8603     8796     9038     9288 
    9531     9764     9983    10172    10324    10466    10617    10773 
   10925    11068    11173    11200    11136    11009    10835    10611 
   10349    10066     9767     9444     9082     8688     8297     7943 
    7620     7308     7021     6783     6592     6431     6304     6211 
    6143     6100     6081     6087     6112     6120     6096     6061 
    6022     5979     5953     5962     6014     6108     6258     6467 
    6739     7084     7501     7948     8380     8735     8986     9132 
    9138     8981     8685     8262     7736     7155     6550     5945 
    5374     4891     4533     4283     4112     4025     4039     4114 
    4225     4391     4603     4849     5130     5395     5614     5776 
    5877     5937     5973     5979     5965     5935     5884     5850 
    5868     5944     6085     6311     6613     6967     7360     7761 
    8128     8467     8773     9024     9215     9366     9498     9629 
    9736     9796     9818     9787     9671     9471     9190     8829 
    8429     8054     7705     7360     7048     6810     6651     6581 
    6596     6682     6832     7015     7190     7339     7469     7574 
    7636     7676     7740     7847     8019     8307     8707     9148 
    9613    10095    10547    10940    11250    11470    11607    11650 
   11605    11500    11334    11113    10879    10692    10567    10469 
   10396    10404    10492    10631    10814    11020    11222    11416 
   11578    11670    11651    11503    11252    10936    10563    10165 
    9769     9394     9073     8807     8588     8410     8266     8174 
    8149     8164     8190     8213     8229     8249     8278     8325 
    8388     8436     8472     8538     8606     8611     8575     8550 
    8540     8536     8538     8527     8484     8395     8241     8036 
    7840     7678     7516     7333     7169     7092     7107     7200 
    7354     7530     7716     7909     8063     8185     8306     8411 
    8464     8445     8359     8216     8016     7736     7379     7002 
    6642     6335     6154     6096     6120     6235     6423     6664 
    6937     7176     7366     7545     7704     7847     7986     8114 
    8217     8291     8332     8326     8291     8244     8155     8019 
    7848     7641     7410     7204     7047     6912     6783     6666 
    6554     6471     6474     6566     6727     6948     7230     7576 
    7981     8414     8810     9117     9346     9478     9478     9379 
    9227     9030     8810     8590     8405     8307     8287     8307 
    8349     8392     8451     8546     8657     8761     8866     8966 
    9009     8961     8839     8658     8419     8143     7851     7574 
    7342     7164     7044     6999     7053     7196     7412     7704 
    8041     8394     8750     9073     9354     9603     9813     9975 
   10061    10052     9965     9825     9643     9416     9150     8869 
    8598     8345     8125     7939     7751     7543     7349     7176 
    7014     6878     6750     6619     6512     6413     6320     6278 
    6280     6292     6281     6219     6119     6006     5902     5854 
    5865     5904     5942     5964     5984     6003     6006     6025 
    6084     6165     6251     6339     6450     6589     6751     6932 
    7109     7298     7518     7728     7940     8162     8357     8527 
    8677     8802     8901     8968     8965     8899     8796     8637 
    8426     8229     8068     7944     7866     7812     7784     7800 
    7854     7947     8083     8236     8382     8542     8743     8973 
    9208     9427     9607     9775     9973    10212    10488    10782 
   11067    11346    11611    11804    11916    11982    11974    11863 
   11707    11531    11315    11076    10849    10651    10473    10273 
   10035     9763     9460     9143     8818     8499     8201     7897 
    7577     7250     6937     6652     6381     6095     5800     5532 
    5274     5020     4810     4649     4537     4504     4553     4656 
    4796     4965     5186     5487     5827     6165     6513     6883 
    7256     7630     8009     8359     8667     8946     9180     9362 
    9518     9624     9652     9597     9436     9197     8934     8648 
    8348     8081     7866     7708     7609     7576     7593     7645 
    7717     7808     7911     8009     8097     8191     8286     8378 
    8500     8649     8777     8883     8978     9074     9171     9262 
    9350     9435     9495     9526     9529     9521     9512     9487 
    9447     9389     9308     9231     9135     9001     8866     8730 
    8592     8486     8401     8349     8333     8318     8298     8276 
    8249     8213     8139     8019     7866     7724     7603     7472 
    7345     7227     7111     7034     6999     6964     6907     6840 
    6795     6794     6829     6880     6933     6993     7032     7015 
    6959     6887     6816     6754     6685     6596     6493     6378 
    6258     6166     6122     6102     6097     6111     6126     6158 
    6246     6382     6531     6685     6849     6995     7090     7142 
    7175     7215     7294     7389     7477     7564     7634     7670 
    7692     7730     7804     7896     7983     8073     8183     8324 
    8464     8591     8723     8831     8907     8978     9049     9128 
    9216     9304     9397     9458     9471     9463     9445     9428 
    9414     9393     9389     9402     9408     9414     9439     9490 
    9570     9661     9751     9850     9964    10072    10161    10224 
   10250    10239    10203    10150    10091    10042    10022    10003 
    9969     9956     9973     9996    10017    10035    10044    10018 
    9950     9887     9853     9832     9825     9848     9904    10017 
   10184    10368    10557    10768    10975    11155    11325    11438 
   11446    11375    11242    11051    10821    10585    10368    10195 
   10065     9975     9927     9917     9934     9980    10045    10133 
   10250    10374    10482    10551    10593    10628    10643    10629 
   10600    10559    10519    10473    10411    10322    10210    10084 
    9917     9679     9373     8962     8440     7846     7186     6467 
    5738     5013     4320     3726     3260     2917     2687     2554 
    2498     2515     2598     2743     2928     3133     3338     3522 
    3658     3744     3817     3898     3991     4090     4168     4267 
    4426     4590     4702     4773     4850     4941     5019     5062 
    5050     5005     4969     4922     4861     4810     4753     4695 
    4676     4695     4730     4791     4884     4988     5080     5144 
    5194     5242     5271     5274     5269     5263     5252     5247 
    5282     5360     5445     5526     5625     5729     5829     5946 
    6080     6218     6366     6508     6625     6756     6929     7098 
    7258     7447     7657     7897     8194     8527     8897     9313 
    9755    10207    10654    11072    11445    11750    11962    12079 
   12113    12060    11946    11794    11612    11448    11345    11304 
   11325    11400    11510    11614    11693    11750    11774    11767 
   11751    11716    11658    11580    11473    11337    11178    11013 
   10860    10735    10651    10604    10588    10602    10643    10705 
   10777    10832    10854    10818    10720    10575    10377    10141 
    9892     9630     9364     9113     8850     8544     8201     7831 
    7422     6983     6542     6107     5705     5373     5105     4923 
    4842     4846     4931     5062     5194     5348     5520     5653 
    5746     5814     5853     5877     5911     5952     6002     6091 
    6218     6357     6534     6747     6966     7217     7511     7819 
    8148     8479     8779     9063     9333     9564     9761     9933 
   10061    10149    10230    10312    10365    10385    10390    10385 
   10382    10381    10377    10409    10490    10598    10746    10925 
   11109    11314    11542    11734    11874    11969    11974    11882 
   11742    11584    11404    11200    10979    10755    10548    10355 
   10168     9981     9786     9570     9321     9059     8797     8518 
    8235     7974     7727     7485     7252     7040     6866     6745 
    6675     6613     6524     6417     6291     6151     6027     5922 
    5841     5794     5779     5799     5850     5922     6018     6137 
    6247     6319     6365     6393     6381     6346     6301     6243 
    6199     6170     6143     6119     6088     6045     6015     6030 
    6084     6150     6239     6339     6411     6474     6556     6646 
    6732     6822     6933     7069     7233     7427     7626     7792 
    7921     8013     8055     8048     8021     7987     7944     7919 
    7924     7942     7992     8077     8176     8295     8437     8590 
    8739     8888     9035     9169     9286     9371     9401     9414 
    9420     9409     9436     9505     9560     9606     9667     9732 
    9821     9942    10077    10239    10424    10592    10748    10922 
   11105    11279    11453    11605    11722    11808    11821    11738 
   11593    11402    11151    10860    10561    10255     9934     9603 
    9266     8934     8623     8345     8098     7881     7681     7469 
    7265     7065     6844     6619     6386     6137     5881     5606 
    5327     5073     4833     4596     4365     4128     3892     3673 
    3489     3364     3292     3227     3164     3167     3260     3389 
    3534     3703     3878     4081     4322     4577     4851     5135 
    5409     5706     6006     6265     6508     6772     7052     7334 
    7604     7842     8041     8230     8453     8721     8989     9238 
    9478     9709     9936    10169    10384    10574    10762    10935 
   11097    11252    11368    11456    11561    11637    11645    11666 
   11728    11740    11711    11716    11745    11757    11754    11753 
   11785    11830    11842    11866    11907    11908    11890    11844 
   11735    11596    11422    11200    10976    10748    10470    10179 
    9921     9672     9410     9132     8850     8573     8272     7989 
    7754     7516     7318     7182     7049     6909     6771     6656 
    6602     6578     6546     6542     6593     6619     6567     6524 
    6513     6396     6142     5894     5659     5352     5071     4878 
    4684     4518     4475     4492     4509     4544     4588     4618 
    4638     4675     4722     4727     4693     4652     4602     4572 
    4595     4658     4754     4887     5043     5206     5401     5664 
    5976     6289     6594     6910     7234     7539     7813     8058 
    8266     8419     8515     8594     8656     8668     8675     8669 
    8608     8577     8604     8610     8623     8676     8745     8839 
    8950     9059     9178     9279     9352     9425     9487     9535 
    9564     9572     9587     9586     9572     9586     9610     9653 
    9726     9786     9850     9929     9981    10034    10096    10135 
   10162    10173    10152    10130    10139    10195    10255    10293 
   10309    10260    10157    10052     9921     9772     9616     9408 
    9173     8962     8769     8600     8482     8394     8305     8221 
    8155     8110     8067     8004     7939     7901     7881     7881 
    7896     7881     7839     7801     7771     7754     7753     7751 
    7749     7780     7861     7971     8095     8239     8388     8533 
    8675     8807     8932     9062     9196     9321     9432     9521 
    9580     9614     9618     9590     9514     9393     9259     9112 
    8928     8739     8564     8394     8252     8145     8081     8058 
    8037     8024     8051     8105     8159     8217     8278     8324 
    8336     8330     8324     8307     8274     8255     8252     8233 
    8201     8179     8164     8143     8117     8090     8067     8079 
    8124     8162     8191     8222     8237     8244     8252     8245 
    8226     8198     8154     8120     8113     8117     8118     8135 
    8156     8172     8198     8237     8290     8357     8409     8417 
    8395     8326     8197     8041     7873     7673     7468     7285 
