Origin Time       2025/01/13 21:19:00
Lat.              31.8
Long.             131.6
Depth. (km)       30
Mag.              6.9
Station Code      FKO007
Station Lat.      33.5614
Station Long.     130.2024
Station Height(m) 6
Record Time       2025/01/13 21:20:54
Sampling Freq(Hz) 100Hz
Duration Time(s)  60
Dir.              U-D
Scale Factor      7845(gal)/8223790
Max. Acc. (gal)   1.225
Last Correction   2025/01/13 21:20:54
Memo.             
   23728    23784    23843    23900    23955    24012    24035    24012 
   23970    23908    23839    23793    23780    23785    23778    23743 
   23699    23647    23602    23595    23610    23608    23588    23562 
   23539    23517    23492    23463    23434    23414    23388    23372 
   23399    23442    23471    23500    23518    23507    23485    23457 
   23418    23371    23321    23268    23213    23168    23130    23079 
   23029    23002    22987    22971    22966    22971    22978    22987 
   23006    23035    23074    23120    23156    23183    23213    23248 
   23291    23341    23391    23437    23465    23483    23500    23511 
   23515    23512    23496    23473    23441    23394    23356    23334 
   23318    23317    23322    23317    23315    23321    23309    23288 
   23274    23263    23247    23232    23230    23252    23290    23326 
   23360    23396    23414    23396    23371    23344    23296    23218 
   23124    23033    22941    22837    22748    22684    22615    22536 
   22465    22401    22350    22323    22319    22337    22376    22428 
   22489    22551    22616    22682    22735    22774    22823    22879 
   22935    22989    23037    23075    23124    23206    23310    23421 
   23538    23652    23751    23836    23912    23971    24003    24012 
   24005    23977    23939    23897    23850    23803    23750    23683 
   23611    23552    23521    23518    23534    23545    23542    23541 
   23548    23566    23599    23631    23647    23649    23646    23643 
   23646    23654    23658    23654    23630    23579    23523    23480 
   23446    23434    23427    23407    23380    23349    23329    23340 
   23368    23395    23418    23442    23460    23464    23450    23422 
   23379    23323    23261    23210    23176    23149    23128    23122 
   23128    23134    23151    23176    23199    23225    23259    23288 
   23311    23322    23314    23296    23287    23286    23287    23290 
   23291    23288    23283    23278    23279    23294    23322    23345 
   23355    23363    23368    23382    23421    23475    23527    23584 
   23649    23703    23734    23738    23722    23684    23614    23535 
   23477    23429    23390    23376    23368    23359    23373    23400 
   23411    23417    23425    23414    23383    23352    23330    23314 
   23306    23309    23317    23329    23342    23359    23373    23369 
   23349    23317    23263    23201    23141    23076    23018    22982 
   22967    22972    22991    23013    23028    23032    23028    23024 
   23022    23025    23044    23074    23120    23193    23287    23382 
   23471    23554    23623    23668    23689    23696    23687    23658 
   23619    23580    23549    23522    23512    23531    23562    23591 
   23633    23689    23754    23826    23893    23939    23971    23996 
   24004    23988    23947    23892    23832    23772    23707    23635 
   23562    23506    23465    23436    23418    23413    23422    23438 
   23444    23446    23456    23469    23483    23495    23499    23502 
   23511    23518    23521    23529    23541    23557    23579    23602 
   23630    23660    23677    23673    23641    23579    23494    23395 
   23290    23175    23056    22951    22864    22793    22748    22738 
   22751    22794    22869    22963    23063    23163    23263    23363 
   23453    23519    23561    23584    23581    23545    23499    23454 
   23413    23373    23341    23311    23287    23271    23264    23257 
   23252    23251    23255    23257    23274    23307    23345    23383 
   23425    23460    23487    23515    23539    23556    23571    23576 
   23571    23557    23529    23480    23422    23361    23292    23224 
   23163    23110    23080    23083    23109    23153    23215    23280 
   23342    23402    23438    23452    23442    23410    23365    23310 
   23242    23174    23105    23026    22944    22867    22797    22736 
   22689    22659    22653    22673    22713    22773    22836    22894 
   22941    22983    23029    23078    23126    23187    23260    23322 
   23375    23427    23467    23484    23483    23463    23423    23373 
   23325    23287    23260    23244    23240    23249    23269    23288 
   23302    23311    23317    23319    23323    23322    23302    23264 
   23213    23160    23120    23091    23072    23062    23066    23085 
   23112    23147    23199    23264    23326    23375    23409    23421 
   23406    23371    23332    23291    23257    23249    23260    23284 
   23328    23384    23450    23519    23581    23643    23701    23735 
   23751    23762    23764    23749    23730    23711    23688    23669 
   23661    23658    23650    23645    23646    23645    23647    23666 
   23697    23737    23785    23839    23892    23934    23955    23961 
   23955    23936    23905    23868    23831    23800    23773    23750 
   23726    23693    23660    23627    23592    23568    23565    23576 
   23599    23634    23681    23741    23801    23849    23884    23905 
   23912    23907    23877    23819    23743    23653    23556    23458 
   23360    23267    23194    23137    23091    23067    23072    23087 
   23097    23106    23106    23087    23059    23021    22977    22931 
   22881    22828    22783    22746    22716    22697    22690    22693 
   22692    22686    22680    22665    22642    22619    22599    22589 
   22597    22615    22638    22678    22727    22774    22828    22889 
   22945    22998    23044    23076    23089    23094    23097    23094 
   23093    23099    23109    23122    23147    23179    23221    23279 
   23349    23425    23506    23580    23653    23726    23787    23831 
   23854    23854    23832    23795    23755    23711    23656    23608 
   23573    23535    23500    23471    23445    23423    23406    23399 
   23400    23399    23398    23399    23398    23390    23375    23353 
   23328    23298    23267    23237    23209    23178    23145    23114 
   23097    23091    23097    23116    23148    23187    23238    23296 
   23357    23433    23522    23611    23700    23789    23866    23924 
   23961    23978    23982    23977    23971    23982    24012    24058 
   24113    24178    24248    24314    24376    24436    24482    24502 
   24501    24484    24449    24394    24320    24235    24146    24054 
   23969    23895    23819    23743    23676    23608    23534    23457 
   23380    23309    23242    23184    23130    23085    23053    23039 
   23037    23047    23063    23075    23082    23086    23093    23097 
   23095    23093    23090    23080    23074    23070    23055    23025 
   22989    22947    22908    22875    22847    22832    22836    22858 
   22896    22948    23013    23080    23147    23215    23283    23337 
   23384    23433    23479    23518    23552    23580    23604    23619 
   23627    23633    23631    23625    23616    23606    23596    23592 
   23591    23588    23583    23580    23580    23571    23548    23521 
   23492    23457    23413    23360    23305    23244    23174    23099 
   23028    22964    22914    22879    22855    22840    22829    22817 
   22806    22792    22773    22758    22747    22740    22734    22720 
   22704    22684    22669    22670    22690    22728    22789    22860 
   22932    23006    23078    23132    23163    23172    23160    23133 
   23098    23058    23021    22997    22986    22985    22997    23028 
   23070    23121    23188    23263    23329    23392    23456    23507 
   23544    23571    23589    23599    23606    23615    23631    23646 
   23658    23673    23689    23704    23716    23723    23723    23718 
   23706    23687    23664    23626    23583    23545    23508    23476 
   23458    23461    23476    23502    23549    23611    23687    23780 
   23882    23974    24051    24115    24160    24179    24178    24155 
   24115    24065    24012    23958    23913    23877    23841    23808 
   23774    23741    23715    23699    23687    23684    23687    23689 
   23685    23665    23635    23599    23553    23512    23481    23446 
   23413    23388    23376    23382    23407    23452    23507    23568 
   23630    23688    23738    23777    23805    23822    23826    23819 
   23797    23760    23703    23635    23577    23530    23487    23450 
   23426    23414    23418    23436    23458    23477    23495    23515 
   23531    23535    23534    23525    23508    23491    23469    23446 
   23429    23410    23388    23368    23350    23329    23306    23282 
   23260    23238    23215    23199    23186    23176    23172    23175 
   23186    23201    23206    23205    23193    23167    23120    23048 
   22963    22874    22777    22680    22603    22538    22477    22430 
   22393    22358    22333    22319    22320    22339    22374    22422 
   22481    22542    22597    22658    22723    22781    22837    22891 
   22936    22970    22999    23032    23060    23089    23124    23157 
   23193    23222    23244    23267    23287    23298    23302    23299 
   23286    23261    23233    23210    23187    23164    23156    23163 
   23184    23229    23288    23350    23411    23469    23519    23558 
   23580    23592    23596    23591    23573    23546    23514    23468 
   23419    23394    23377    23345    23319    23311    23296    23284 
   23290    23310    23349    23409    23491    23600    23727    23866 
   24013    24154    24277    24383    24471    24540    24598    24637 
   24652    24651    24634    24602    24561    24509    24448    24387 
   24328    24279    24237    24200    24167    24129    24088    24043 
   23997    23951    23901    23850    23804    23760    23706    23646 
   23587    23527    23469    23410    23352    23291    23225    23167 
   23117    23076    23043    23012    22991    22979    22970    22972 
   22989    23012    23049    23098    23147    23195    23242    23276 
   23305    23334    23349    23344    23323    23288    23242    23191 
   23132    23074    23029    22994    22966    22952    22958    22978 
   23001    23025    23051    23063    23067    23070    23075    23082 
   23089    23095    23099    23109    23122    23139    23152    23161 
   23160    23155    23153    23156    23159    23163    23164    23156 
   23145    23134    23124    23110    23091    23070    23043    23017 
   22998    22979    22964    22958    22951    22941    22937    22939 
   22948    22970    22998    23032    23072    23121    23176    23232 
   23286    23342    23398    23449    23490    23512    23527    23535 
   23535    23530    23522    23511    23506    23507    23508    23510 
   23512    23510    23503    23491    23475    23460    23440    23415 
   23396    23380    23359    23329    23296    23265    23234    23195 
   23155    23116    23075    23041    23029    23037    23063    23105 
   23161    23228    23306    23395    23487    23564    23627    23674 
   23706    23722    23731    23731    23722    23704    23687    23673 
   23662    23656    23653    23657    23672    23692    23723    23769 
   23816    23865    23924    23981    24025    24062    24092    24113 
   24129    24144    24152    24152    24147    24140    24132    24115 
   24088    24054    24012    23961    23899    23824    23747    23672 
   23591    23500    23402    23301    23207    23116    23020    22925 
   22835    22747    22662    22582    22520    22478    22453    22449 
   22464    22489    22535    22592    22646    22698    22747    22800 
   22864    22931    22994    23062    23134    23211    23292    23377 
   23468    23556    23637    23704    23754    23789    23812    23824 
   23828    23827    23818    23801    23774    23742    23708    23669 
   23630    23591    23548    23515    23499    23488    23494    23519 
   23554    23592    23629    23656    23674    23679    23664    23638 
   23602    23560    23522    23494    23479    23483    23500    23534 
   23585    23645    23707    23769    23824    23865    23881    23874 
   23849    23812    23765    23715    23665    23612    23556    23508 
   23473    23436    23395    23363    23336    23309    23284    23261 
   23241    23230    23226    23232    23249    23280    23314    23348 
   23380    23404    23417    23418    23406    23375    23321    23253 
   23180    23114    23060    23020    22993    22979    22983    23002 
   23032    23062    23093    23132    23178    23222    23261    23294 
   23321    23333    23332    23323    23306    23276    23242    23221 
   23213    23220    23238    23276    23334    23398    23465    23541 
   23616    23691    23765    23836    23900    23951    23988    24005 
   24017    24032    24047    24059    24062    24048    24030    24013 
   23989    23958    23917    23859    23787    23710    23633    23556 
   23490    23426    23357    23290    23233    23184    23137    23095 
   23060    23022    22975    22924    22867    22808    22744    22674 
   22609    22561    22518    22489    22478    22477    22491    22522 
   22559    22604    22659    22724    22798    22877    22955    23031 
   23099    23161    23222    23279    23332    23390    23453    23510 
   23558    23600    23629    23645    23653    23653    23643    23631 
   23620    23615    23610    23604    23596    23591    23581    23561 
   23539    23517    23487    23452    23411    23367    23319    23272 
   23237    23217    23202    23199    23213    23236    23267    23307 
   23360    23423    23490    23550    23600    23634    23646    23638 
   23626    23610    23589    23572    23560    23542    23525    23511 
   23503    23502    23507    23514    23522    23535    23556    23580 
   23598    23608    23620    23627    23625    23620    23612    23602 
   23593    23583    23560    23534    23502    23468    23438    23407 
   23377    23353    23334    23326    23328    23337    23349    23363 
   23372    23379    23382    23383    23380    23376    23379    23392 
   23404    23415    23436    23457    23477    23496    23518    23531 
   23535    23529    23510    23481    23448    23404    23357    23314 
   23271    23230    23198    23174    23153    23136    23121    23112 
   23098    23074    23045    23006    22947    22881    22810    22729 
   22644    22561    22484    22424    22383    22362    22368    22396 
   22443    22509    22586    22671    22763    22850    22928    22999 
   23059    23110    23149    23176    23193    23205    23218    23237 
   23255    23268    23275    23278    23276    23264    23244    23220 
   23186    23145    23102    23056    23009    22968    22929    22894 
   22867    22844    22827    22827    22840    22859    22890    22936 
   22987    23040    23097    23159    23220    23280    23337    23388 
   23441    23494    23541    23588    23637    23684    23734    23778 
   23818    23855    23881    23892    23899    23897    23888    23873 
   23843    23799    23743    23676    23595    23507    23423    23346 
   23276    23211    23159    23122    23094    23070    23058    23055 
   23051    23047    23052    23064    23078    23091    23103    23118 
   23136    23153    23175    23210    23255    23307    23368    23434 
   23500    23561    23611    23652    23676    23683    23684    23681 
   23670    23662    23661    23666    23684    23704    23722    23741 
   23758    23766    23765    23761    23757    23745    23724    23703 
   23674    23638    23600    23565    23530    23502    23475    23441 
   23404    23361    23310    23251    23184    23113    23037    22960 
   22883    22805    22731    22661    22597    22545    22511    22489 
   22474    22466    22465    22472    22478    22492    22515    22540 
   22569    22601    22634    22669    22708    22751    22804    22863 
   22923    22990    23064    23128    23190    23252    23301    23338 
   23376    23415    23452    23485    23518    23545    23561    23572 
   23580    23577    23575    23571    23560    23545    23525    23502 
   23477    23452    23433    23415    23399    23383    23365    23346 
   23336    23330    23329    23330    23328    23317    23302    23284 
   23264    23240    23213    23180    23141    23103    23079    23063 
   23058    23072    23102    23143    23198    23259    23319    23384 
   23449    23508    23564    23612    23641    23656    23657    23650 
   23639    23623    23608    23607    23612    23626    23652    23687 
   23733    23777    23811    23838    23853    23855    23851    23838 
   23816    23793    23777    23762    23746    23731    23726    23728 
   23728    23726    23727    23726    23719    23697    23668    23630 
   23587    23541    23496    23450    23404    23360    23321    23288 
   23255    23224    23207    23197    23191    23195    23205    23217 
   23236    23256    23275    23286    23288    23290    23284    23268 
   23251    23241    23232    23220    23206    23193    23174    23153 
   23143    23137    23137    23149    23174    23206    23248    23298 
   23355    23413    23465    23519    23571    23615    23656    23692 
   23718    23739    23758    23769    23777    23792    23807    23822 
   23841    23861    23877    23893    23905    23909    23903    23888 
   23861    23826    23791    23755    23712    23657    23596    23527 
   23449    23369    23294    23220    23147    23079    23017    22962 
   22908    22854    22813    22790    22775    22767    22767    22773 
   22788    22815    22843    22874    22912    22952    23006    23076 
   23149    23224    23298    23364    23427    23487    23537    23580 
   23614    23637    23653    23662    23658    23657    23664    23666 
   23664    23662    23658    23649    23635    23619    23598    23580 
   23561    23533    23506    23477    23438    23394    23352    23313 
   23268    23222    23180    23139    23094    23058    23037    23018 
   23002    22995    22997    23001    23013    23028    23040    23066 
   23098    23125    23155    23190    23217    23240    23265    23290 
   23313    23334    23364    23399    23434    23469    23511    23557 
   23598    23638    23683    23724    23764    23800    23830    23858 
   23877    23877    23866    23853    23827    23793    23757    23715 
   23669    23625    23581    23545    23514    23481    23445    23407 
   23368    23333    23299    23275    23261    23248    23232    23218 
   23201    23179    23157    23137    23114    23091    23070    23048 
   23014    22978    22951    22924    22904    22901    22921    22948 
   22978    23014    23058    23094    23125    23156    23187    23220 
   23251    23278    23305    23333    23352    23369    23391    23418 
   23449    23483    23517    23544    23560    23569    23572    23571 
   23568    23561    23549    23534    23519    23507    23498    23492 
   23494    23498    23500    23506    23514    23523    23529    23521 
   23499    23472    23437    23392    23342    23286    23226    23170 
   23118    23064    23009    22958    22914    22877    22847    22832 
   22831    22836    22850    22871    22894    22918    22940    22958 
   22977    23002    23036    23076    23120    23163    23206    23248 
   23286    23315    23348    23383    23414    23441    23471    23499 
   23518    23533    23549    23558    23558    23556    23558    23565 
   23576    23595    23626    23656    23681    23707    23727    23734 
