Origin Time       2025/01/13 21:19:00
Lat.              31.8
Long.             131.6
Depth. (km)       30
Mag.              6.9
Station Code      FKO007
Station Lat.      33.5614
Station Long.     130.2024
Station Height(m) 6
Record Time       2025/01/13 21:20:54
Sampling Freq(Hz) 100Hz
Duration Time(s)  60
Dir.              N-S
Scale Factor      7845(gal)/8223790
Max. Acc. (gal)   2.435
Last Correction   2025/01/13 21:20:54
Memo.             
[...]
    -881     -851     -822     -797     -777     -756     -737     -715 
    -669     -611     -542     -467     -400     -344     -315     -344 
    -409     -487     -575     -664     -757     -831     -881     -915 
    -924     -928     -932     -916     -907     -905     -873     -801 
    -716     -629     -529     -429     -348     -287     -255     -233 
    -199     -179     -172     -149     -125      -95      -62      -41 
      -6       48       90      112      124      145      172      194 
     228      264      298      337      388      463      542      610 
     687      765      845      935     1008     1066     1125     1175 
    1208     1223     1246     1266     1243     1185     1100      996 
     878      734      579      430      287      163       54      -43 
    -124     -210     -314     -429     -544     -648     -758     -868 
    -965    -1065    -1148    -1196    -1219    -1206    -1165    -1093 
    -977     -822     -652     -486     -317     -124       63      214 
     329      411      467      495      500      487      444      383 
     329      280      233      180      129       99       89       94 
     120      149      189      251      310      353      388      419 
     453      477      483      481      468      440      392      322 
     251      191      136       87       41        2      -20      -32 
     -40      -44      -43      -35      -35      -33      -25      -24 
     -29      -35      -48      -74     -114     -170     -236     -317 
    -399     -471     -526     -564     -573     -546     -500     -448 
    -383     -317     -265     -236     -228     -222     -202     -171 
    -157     -167     -168     -160     -171     -194     -218     -247 
    -280     -324     -345     -348     -357     -352     -314     -265 
    -228     -211     -201     -190     -197     -217     -251     -280 
    -295     -332     -387     -429     -446     -442     -432     -398 
    -336     -275     -214     -160     -128     -102      -86      -72 
     -47      -18        9       51      106      159      189      195 
     198      210      232      257      298      357      419      473 
     511      533      540      526      488      438      375      278 
     156       25     -121     -278     -436     -588     -706     -774 
    -810     -807     -762     -688     -587     -457     -319     -174 
     -22      121      256      382      476      538      568      552 
     500      422      315      182       28     -137     -310     -487 
    -658     -816     -961    -1077    -1161    -1201    -1188    -1121 
   -1009     -861     -689     -507     -332     -187      -85      -20 
       0      -31     -105     -203     -305     -406     -496     -552 
    -577     -583     -548     -471     -368     -244     -105       55 
     238      414      564      693      787      834      854      847 
     803      745      675      585      488      390      301      225 
     153       91       41        0      -22      -27      -21        1 
      62      144      233      332      413      463      481      452 
     382      287      167       35      -90     -207     -314     -400 
    -473     -540     -589     -618     -625     -611     -573     -519 
    -461     -411     -372     -359     -367     -378     -390     -398 
    -399     -390     -360     -306     -245     -179     -112      -39 
      35      101      164      217      249      261      249      209 
     148       68      -31     -148     -290     -442     -587     -716 
    -818     -876     -901     -895     -847     -768     -679     -587 
    -502     -427     -372     -329     -291     -256     -226     -197 
    -171     -153     -129     -110     -110     -132     -174     -228 
    -279     -324     -364     -394     -407     -398     -361     -294 
    -205     -103        8      116      203      259      276      255 
     205      135       48      -43     -140     -247     -353     -453 
    -540     -599     -621     -603     -548     -454     -334     -214 
    -110      -14       68      135      193      247      299      348 
     395      442      476      494      507      508      496      488 
     488      491      503      534      579      623      672      727 
     776      814      842      855      850      820      766      696 
     611      518      440      379      330      299      270      229 
     176      118       55       -6      -72     -143     -211     -290 
    -388     -502     -618     -738     -857     -961    -1036    -1085 
   -1108    -1097    -1061    -1015     -957     -881     -796     -703 
    -598     -476     -348     -228     -113      -10       71      133 
     179      213      234      244      233      202      153       89 
      17      -52     -113     -159     -190     -209     -217     -221 
    -225     -232     -257     -292     -333     -388     -446     -496 
    -546     -585     -608     -618     -614     -599     -579     -548 
    -508     -467     -409     -338     -263     -184     -102      -21 
      59      133      191      236      275      311      342      359 
     357      341      305      247      180      109       35      -29 
     -76     -103     -110     -102      -76      -47      -17       21 
      63       91      110      129      151      172      205      245 
     288      341      400      463      525      581      641      704 
     761      818      877      922      936      922      885      835 
     774      704      622      522      405      276      137      -10 
    -167     -328     -483     -623     -743     -850     -945    -1019 
   -1074    -1119    -1155    -1182    -1209    -1233    -1254    -1270 
   -1274    -1262    -1233    -1178    -1090     -980     -851     -711 
    -558     -402     -248      -90       63      187      294      391 
     449      467      459      402      295      166       14     -157 
    -340     -525     -706     -872    -1021    -1136    -1198    -1210 
   -1181    -1108    -1000     -874     -743     -612     -490     -382 
    -283     -195     -122      -60       -1       52      102      148 
     184      203      203      179      140       93       40       -6 
     -29      -25        0       47      113      189      263      341 
     427      504      565      599      594      546      465      356 
     222       72      -76     -211     -319     -388     -414     -400 
    -352     -275     -174      -56       68      198      337      490 
     657      832     1011     1178     1327     1444     1524     1564 
    1563     1522     1452     1360     1252     1132      990      822 
     635      434      220        2     -211     -417     -602     -762 
    -888     -963     -985     -954     -880     -781     -657     -507 
    -351     -198      -58       45      108      129       99       22 
     -91     -244     -410     -573     -734     -881     -994    -1080 
   -1143    -1178    -1170    -1124    -1055     -965     -854     -741 
    -626     -504     -386     -279     -183      -99      -31        6 
       8      -18      -75     -159     -260     -368     -472     -571 
    -660     -731     -785     -824     -841     -838     -826     -796 
    -751     -703     -657     -618     -579     -538     -499     -453 
    -384     -288     -160        2      194      399      602      800 
     997     1193     1385     1576     1764     1938     2093     2226 
    2326     2384     2401     2370     2288     2165     2003     1798 
    1563     1313     1043      768      500      244       10     -199 
    -388     -531     -629     -700     -753     -791     -834     -893 
    -977    -1081    -1204    -1348    -1494    -1622    -1734    -1807 
   -1817    -1772    -1686    -1561    -1394    -1192     -969     -741 
    -517     -298      -85      114      292      456      600      714 
     788      822      814      762      675      564      442      310 
     172       32     -112     -259     -405     -544     -675     -800 
    -912     -999    -1061    -1102    -1116    -1104    -1069    -1008 
    -919     -799     -649     -476     -282      -71      129      307 
     465      588      657      684      677      625      529      403 
     252       93      -64     -217     -357     -475     -569     -645 
    -697     -723     -729     -704     -648     -562     -453     -322 
    -180      -36       99      224      321      380      407      394 
     337      252      145       16     -114     -226     -311     -363 
    -380     -373     -341     -291     -229     -151      -60       35 
     137      240      342      441      533      621      696      764 
     823      861      878      876      857      832      808      781 
     757      756      772      799      843      901      950      984 
    1007     1008      988      958      911      838      743      621 
     467      292       99      -99     -295     -486     -664     -819 
    -958    -1084    -1196    -1297    -1386    -1464    -1522    -1548 
   -1541    -1502    -1426    -1318    -1189    -1047     -900     -753 
    -608     -472     -345     -225     -113       -2      105      202 
     287      357      396      405      383      332      247      128 
     -14     -172     -345     -522     -691     -845     -969    -1048 
   -1084    -1078    -1040     -985     -920     -842     -745     -635 
    -522     -402     -274     -136       12      178      360      546 
     720      872      997     1090     1144     1163     1147     1090 
    1004      896      769      630      483      329      174       20 
    -139     -298     -450     -591     -718     -820     -897     -947 
    -973     -977     -963     -936     -895     -843     -792     -742 
    -684     -619     -553     -475     -378     -270     -147        4 
     176      361      556      754      942     1113     1256     1354 
    1402     1397     1331     1208     1028      795      518      216 
    -101     -417     -711     -967    -1175    -1318    -1410    -1459 
   -1462    -1429    -1374    -1294    -1185    -1053     -896     -716 
    -519     -313     -112       64      213      324      392      425 
     429      421      409      396      386      386      394      417 
     452      487      526      577      634      676      689      668 
     600      490      342      167      -35     -259     -486     -704 
    -909    -1093    -1240    -1341    -1389    -1370    -1289    -1156 
    -984     -780     -557     -322      -89      137      344      517 
     646      731      772      762      689      553      353       94 
    -205     -526     -862    -1193    -1487    -1736    -1941    -2088 
   -2162    -2172    -2123    -2020    -1875    -1690    -1479    -1267 
   -1051     -832     -616     -406     -193       13      205      383 
     548      685      784      847      877      886      885      868 
     828      780      731      691      652      616      591      558 
     504      427      330      213       89      -33     -140     -206 
    -238     -247     -222     -171     -103      -24       67      166 
     260      351      432      514      614      724      842      970 
    1097     1216     1332     1437     1524     1583     1605     1578 
    1498     1374     1213     1023      815      607      403      205 
       9     -197     -406     -615     -832    -1044    -1246    -1441 
   -1622    -1777    -1910    -2014    -2076    -2099    -2077    -2008 
   -1895    -1733    -1533    -1312    -1078     -842     -611     -388 
    -182        6      180      338      476      603      723      819 
     886      919      899      815      679      504      302       82 
    -144     -367     -583     -783     -949    -1084    -1194    -1274 
   -1323    -1350    -1352    -1324    -1270    -1188    -1082     -963 
    -824     -670     -508     -341     -179      -18      141      294 
     440      576      693      796      872      905      905      870 
     801      708      588      445      298      148        1     -133 
    -251     -348     -429     -499     -558     -616     -684     -754 
    -830     -907     -977    -1030    -1069    -1094    -1094    -1061 
   -1011     -950     -866     -764     -631     -465     -287      -95 
     106      303      486      649      781      873      928      955 
     951      916      862      791      707      623      537      456 
     383      315      255      206      170      141      120      106 
      93       83       86      103      137      184      237      295 
     359      419      467      491      496      494      486      467 
     433      383      315      230      136       40      -59     -160 
    -257     -348     -430     -498     -548     -577     -585     -568 
    -523     -453     -373     -286     -189      -93       -8       76 
     151      199      217      205      163       99       18      -74 
    -175     -270     -352     -427     -499     -562     -621     -672 
    -704     -715     -712     -687     -635     -564     -472     -367 
    -249     -121        6      124      244      363      459      533 
     580      606      606      576      523      453      363      259 
     157       66      -16      -82     -125     -151     -156     -137 
    -105      -67      -22       21       51       62       43      -12 
    -102     -216     -357     -527     -723     -945    -1177    -1406 
   -1644    -1876    -2088    -2276    -2436    -2552    -2621    -2639 
   -2602    -2515    -2369    -2160    -1892    -1575    -1213     -822 
    -419      -13      386      761     1104     1413     1674     1880 
    2039     2149     2212     2238     2228     2189     2127     2052 
    1965     1871     1769     1663     1547     1417     1275     1116 
     935      734      515      279       31     -228     -487     -726 
    -939    -1117    -1246    -1323    -1355    -1337    -1279    -1185 
   -1055     -901     -720     -508     -280      -40      207      446 
     675      897     1109     1302     1471     1613     1723     1787 
    1807     1795     1742     1645     1514     1348     1152      935 
     706      476      249       28     -178     -379     -569     -750 
    -926    -1090    -1233    -1356    -1449    -1509    -1541    -1545 
   -1522    -1485    -1437    -1379    -1312    -1239    -1161    -1077 
    -989     -899     -804     -702     -589     -475     -363     -249 
    -145      -56       20       74       95       87       54        1 
     -59     -129     -199     -257     -306     -349     -386     -419 
    -450     -487     -540     -600     -661     -730     -807     -886 
    -965    -1040    -1107    -1169    -1225    -1270    -1302    -1318 
   -1309    -1273    -1227    -1171    -1101    -1028     -953     -866 
    -772     -676     -584     -502     -429     -371     -338     -322 
    -311     -311     -325     -348     -378     -409     -436     -459 
    -473     -479     -471     -453     -421     -363     -283     -189 
     -82       32      159      299      450      607      769      930 
    1080     1225     1368     1498     1621     1729     1807     1858 
    1877     1850     1784     1683     1541     1372     1189      994 
     803      615      433      265      120       -5     -110     -184 
    -222     -229     -210     -171     -114      -48       27      110 
     202      292      375      445      495      521      527      515 
     480      425      359      286      206      132       59      -20 
    -102     -180     -255     -326     -394     -452     -490     -513 
    -519     -510     -488     -465     -448     -429     -403     -378 
    -341     -295     -248     -201     -152     -112      -93      -94 
    -114     -153     -206     -261     -321     -383     -449     -521 
    -591     -670     -760     -839     -905     -962    -1001    -1023 
   -1031    -1023     -999     -955     -895     -824     -750     -673 
    -595     -519     -450     -390     -336     -294     -256     -207 
    -159     -108      -49       13       78      143      194      232 
     249      248      234      206      164      133      116      109 
     124      167      228      292      361      432      494      540 
     580      610      619      618      606      580      542      494 
     438      380      326      275      228      187      152      126 
     112      110      120      143      179      214      244      272 
     288      284      260      214      148       66      -27     -137 
    -259     -383     -506     -631     -757     -865     -950    -1005 
   -1019     -990     -924     -824     -697     -550     -383     -205 
     -13      189      395      595      784      958     1111     1235 
    1327     1390     1422     1426     1414     1393     1360     1324 
    1281     1221     1158     1102     1042      973      903      826 
     742      658      575      486      395      295      171       18 
    -166     -388     -631     -878    -1127    -1368    -1586    -1776 
   -1937    -2062    -2149    -2195    -2207    -2188    -2133    -2050 
   -1942    -1810    -1665    -1510    -1344    -1175     -996     -811 
    -627     -449     -276     -109       51      194      317      417 
     488      537      569      584      589      584      568      557 
     550      529      488      433      364      282      189       99 
       8      -87     -175     -249     -317     -376     -422     -454 
    -476     -492     -499     -504     -515     -527     -545     -569 
    -602     -641     -687     -734     -778     -818     -843     -861 
    -874     -874     -861     -834     -783     -711     -621     -508 
    -379     -236      -76       91      267      437      602      769 
     928     1067     1186     1287     1364     1406     1413     1386 
    1325     1232     1112      969      815      662      517      380 
     259      152       76       31        0      -16      -12        8 
      39       79      135      202      280      371      471      554 
     611      637      629      573      481      369      243      102 
     -40     -176     -315     -459     -600     -737     -862     -981 
   -1092    -1188    -1270    -1335    -1371    -1378    -1364    -1321 
   -1254    -1169    -1069     -954     -831     -699     -561     -421 
    -280     -149      -39       55      143      213      264      315 
     367      411      454      494      521      538      552      561 
     569      576      587      603      622      642      665      681 
     689      688      664      615      546      456      355      251 
     136       17     -102     -228     -348     -456     -557     -643 
    -704     -743     -758     -741     -696     -623     -531     -425 
    -299     -162      -18      128      267      391      498      580 
     629      641      622      572      492      390      271      145 
      22      -98     -214     -322     -423     -515     -596     -666 
    -720     -760     -789     -810     -818     -816     -803     -774 
    -739     -692     -637     -579     -511     -432     -346     -255 
    -156      -45       79      210      349      500      645      781 
     912     1034     1151     1258     1341     1406     1453     1476 
