Origin Time       2025/01/13 21:19:00
Lat.              31.8
Long.             131.6
Depth. (km)       30
Mag.              6.9
Station Code      FKO003
Station Lat.      33.8324
Station Long.     130.9013
Station Height(m) 14
Record Time       2025/01/13 21:20:23
Sampling Freq(Hz) 100Hz
Duration Time(s)  90
Dir.              E-W
Scale Factor      7845(gal)/8223790
Max. Acc. (gal)   3.322
Last Correction   2025/01/13 21:20:23
Memo.             
[...]
  -11665   -11749   -11877   -12044   -12224   -12367   -12441   -12444 
  -12367   -12243   -12121   -12009   -11920   -11874   -11885   -11958 
  -12052   -12127   -12174   -12194   -12194   -12171   -12125   -12066 
  -11993   -11913   -11839   -11758   -11676   -11614   -11577   -11568 
  -11595   -11657   -11724   -11789   -11874   -11989   -12128   -12267 
  -12374   -12444   -12490   -12521   -12537   -12526   -12483   -12418 
  -12332   -12217   -12100   -12017   -11982   -11992   -12032   -12110 
  -12222   -12332   -12433   -12519   -12549   -12510   -12430   -12328 
  -12198   -12064   -11970   -11942   -11966   -11998   -12013   -12017 
  -11992   -11913   -11790   -11657   -11550   -11492   -11473   -11470 
  -11481   -11518   -11570   -11643   -11749   -11880   -11996   -12074 
  -12125   -12158   -12181   -12212   -12248   -12264   -12264   -12268 
  -12278   -12271   -12255   -12244   -12226   -12193   -12160   -12156 
  -12191   -12220   -12202   -12144   -12067   -11978   -11889   -11820 
  -11803   -11821   -11826   -11777   -11691   -11585   -11487   -11407 
  -11338   -11281   -11238   -11192   -11145   -11113   -11107   -11138 
  -11191   -11249   -11319   -11418   -11539   -11661   -11773   -11866 
  -11938   -12027   -12159   -12285   -12356   -12352   -12287   -12194 
  -12067   -11915   -11776   -11685   -11684   -11746   -11813   -11874 
  -11925   -11970   -12015   -12029   -12001   -11956   -11902   -11830 
  -11740   -11669   -11647   -11673   -11712   -11750   -11803   -11886 
  -11985   -12037   -12035   -12009   -11992   -12016   -12089   -12186 
  -12289   -12364   -12413   -12444   -12437   -12410   -12421   -12463 
  -12514   -12559   -12569   -12545   -12471   -12321   -12109   -11873 
  -11658   -11492   -11376   -11318   -11318   -11353   -11411   -11481 
  -11538   -11566   -11569   -11565   -11570   -11572   -11556   -11533 
  -11500   -11461   -11423   -11398   -11418   -11493   -11599   -11715 
  -11836   -11975   -12121   -12241   -12333   -12417   -12502   -12590 
  -12673   -12745   -12787   -12777   -12733   -12658   -12544   -12401 
  -12251   -12104   -11986   -11908   -11851   -11804   -11751   -11678 
  -11628   -11635   -11699   -11803   -11912   -11990   -12016   -11977 
  -11892   -11796   -11718   -11666   -11612   -11543   -11473   -11392 
  -11318   -11295   -11329   -11400   -11507   -11639   -11770   -11885 
  -11988   -12086   -12212   -12393   -12606   -12811   -12965   -13051 
  -13084   -13074   -13028   -12955   -12873   -12822   -12815   -12798 
  -12714   -12565   -12356   -12098   -11861   -11674   -11529   -11425 
  -11345   -11257   -11164   -11090   -11041   -11020   -11030   -11055 
  -11079   -11101   -11115   -11133   -11159   -11200   -11276   -11375 
  -11479   -11585   -11682   -11761   -11820   -11857   -11877   -11920 
  -12010   -12127   -12233   -12307   -12336   -12322   -12299   -12299 
  -12299   -12309   -12367   -12442   -12514   -12598   -12703   -12835 
  -12987   -13111   -13189   -13224   -13182   -13066   -12883   -12600 
  -12247   -11884   -11543   -11272   -11090   -10956   -10858   -10797 
  -10778   -10802   -10845   -10901   -10986   -11091   -11195   -11284 
  -11342   -11356   -11337   -11302   -11275   -11276   -11308   -11377 
  -11488   -11624   -11767   -11912   -12039   -12132   -12233   -12360 
  -12496   -12642   -12781   -12912   -13032   -13116   -13150   -13127 
  -13047   -12961   -12877   -12760   -12619   -12467   -12297   -12113 
  -11913   -11703   -11506   -11317   -11134   -10966   -10813   -10677 
  -10557   -10431   -10322   -10246   -10208   -10230   -10296   -10377 
  -10478   -10585   -10675   -10759   -10845   -10966   -11141   -11340 
  -11546   -11785   -12062   -12371   -12687   -12989   -13277   -13520 
  -13679   -13763   -13792   -13788   -13776   -13780   -13829   -13899 
  -13960   -14004   -14010   -13964   -13882   -13778   -13664   -13528 
  -13366   -13189   -12999   -12791   -12572   -12333   -12085   -11848 
  -11632   -11449   -11299   -11176   -11059   -10928   -10787   -10651 
  -10524   -10403   -10299   -10224   -10189   -10206   -10272   -10365 
  -10461   -10566   -10706   -10894   -11140   -11426   -11723   -12024 
  -12332   -12640   -12933   -13171   -13352   -13491   -13567   -13571 
  -13527   -13444   -13327   -13180   -13030   -12869   -12679   -12530 
  -12469   -12448   -12428   -12405   -12374   -12343   -12309   -12267 
  -12221   -12181   -12144   -12081   -11973   -11850   -11730   -11611 
  -11485   -11350   -11206   -11052   -10902   -10779   -10717   -10724 
  -10774   -10854   -10956   -11083   -11223   -11345   -11425   -11460 
  -11446   -11410   -11388   -11368   -11344   -11334   -11330   -11334 
  -11358   -11404   -11473   -11564   -11673   -11780   -11859   -11913 
  -11963   -12046   -12174   -12314   -12425   -12484   -12490   -12474 
  -12459   -12471   -12536   -12615   -12677   -12737   -12789   -12837 
  -12901   -12970   -13031   -13070   -13051   -12976   -12876   -12783 
  -12706   -12615   -12521   -12444   -12368   -12293   -12212   -12102 
  -11977   -11844   -11728   -11645   -11572   -11515   -11483   -11448 
  -11412   -11373   -11310   -11233   -11145   -11057   -10990   -10941 
  -10917   -10914   -10897   -10852   -10821   -10814   -10837   -10912 
  -11037   -11207   -11423   -11668   -11919   -12147   -12339   -12503 
  -12631   -12710   -12758   -12789   -12804   -12808   -12812   -12818 
  -12806   -12768   -12718   -12658   -12591   -12518   -12422   -12318 
  -12232   -12158   -12070   -11962   -11842   -11719   -11583   -11423 
  -11259   -11091   -10912   -10744   -10602   -10485   -10413   -10396 
  -10443   -10563   -10748   -10980   -11223   -11473   -11751   -12024 
  -12267   -12474   -12619   -12710   -12772   -12833   -12893   -12916 
  -12904   -12865   -12783   -12667   -12532   -12399   -12295   -12199 
  -12106   -12017   -11916   -11816   -11724   -11646   -11577   -11465 
  -11279   -11055   -10841   -10667   -10530   -10416   -10336   -10295 
  -10277   -10280   -10319   -10374   -10442   -10515   -10586   -10690 
  -10835   -10999   -11205   -11456   -11739   -12044   -12339   -12607 
  -12853   -13053   -13198   -13311   -13419   -13522   -13626   -13736 
  -13840   -13942   -14031   -14058   -14007   -13894   -13757   -13628 
  -13493   -13336   -13151   -12931   -12694   -12465   -12252   -12035 
  -11797   -11514   -11195   -10876   -10555   -10241    -9958    -9726 
   -9559    -9454    -9404    -9413    -9468    -9580    -9763   -10000 
  -10278   -10571   -10839   -11083   -11314   -11518   -11699   -11851 
  -11973   -12079   -12170   -12255   -12340   -12413   -12475   -12546 
  -12637   -12738   -12830   -12883   -12916   -12972   -13027   -13076 
  -13097   -13055   -12974   -12883   -12768   -12626   -12459   -12274 
  -12090   -11917   -11759   -11628   -11543   -11518   -11524   -11535 
  -11560   -11601   -11647   -11699   -11765   -11844   -11915   -11943 
  -11936   -11928   -11934   -11965   -11998   -12013   -12033   -12089 
  -12179   -12285   -12391   -12496   -12591   -12675   -12739   -12775 
  -12788   -12787   -12775   -12735   -12664   -12569   -12448   -12297 
  -12136   -11994   -11908   -11882   -11880   -11893   -11923   -11927 
  -11880   -11774   -11622   -11456   -11298   -11121   -10914   -10702 
  -10496   -10308   -10157   -10056   -10015   -10049   -10180   -10412 
  -10714   -11049   -11395   -11757   -12118   -12453   -12760   -13027 
  -13244   -13404   -13500   -13529   -13483   -13375   -13246   -13134 
  -13058   -13022   -13008   -12977   -12919   -12850   -12762   -12668 
  -12618   -12615   -12619   -12630   -12665   -12712   -12739   -12721 
  -12658   -12561   -12434   -12255   -12013   -11738   -11476   -11284 
  -11176   -11109   -11044   -10974   -10901   -10812   -10720   -10662 
  -10674   -10777   -10939   -11111   -11294   -11491   -11700   -11905 
  -12106   -12332   -12582   -12826   -13070   -13315   -13528   -13706 
  -13848   -13954   -14044   -14098   -14110   -14098   -14037   -13927 
  -13792   -13624   -13440   -13267   -13109   -12962   -12800   -12627 
  -12461   -12282   -12083   -11877   -11674   -11489   -11318   -11142 
  -10963   -10777   -10598   -10439   -10270   -10095    -9938    -9807 
   -9717    -9680    -9711    -9825    -9990   -10174   -10377   -10590 
  -10825   -11084   -11358   -11651   -11952   -12241   -12513   -12758 
  -12968   -13149   -13306   -13460   -13618   -13776   -13938   -14089 
  -14199   -14247   -14243   -14207   -14142   -14038   -13873   -13653 
  -13377   -13045   -12673   -12301   -11983   -11743   -11558   -11422 
  -11300   -11151   -10997   -10845   -10705   -10593   -10508   -10455 
  -10444   -10451   -10474   -10516   -10561   -10619   -10701   -10825 
  -11014   -11229   -11431   -11624   -11820   -12043   -12279   -12505 
  -12735   -12950   -13115   -13220   -13255   -13243   -13203   -13153 
  -13115   -13082   -13020   -12924   -12810   -12688   -12564   -12442 
  -12316   -12175   -12043   -11944   -11866   -11793   -11719   -11631 
  -11537   -11466   -11434   -11435   -11460   -11479   -11475   -11430 
  -11335   -11238   -11180   -11157   -11178   -11254   -11379   -11527 
  -11677   -11831   -11996   -12177   -12361   -12540   -12704   -12849 
  -12982   -13080   -13101   -13076   -13027   -12951   -12868   -12787 
  -12712   -12646   -12583   -12534   -12499   -12456   -12406   -12351 
  -12278   -12193   -12093   -11948   -11753   -11522   -11254   -10962 
  -10667   -10385   -10153   -10018    -9984   -10035   -10158   -10349 
  -10592   -10852   -11106   -11350   -11565   -11753   -11929   -12100 
  -12262   -12421   -12577   -12722   -12853   -12969   -13063   -13147 
  -13219   -13259   -13243   -13193   -13138   -13088   -13068   -13101 
  -13167   -13238   -13284   -13277   -13223   -13142   -13038   -12915 
  -12814   -12765   -12750   -12754   -12787   -12816   -12818   -12791 
  -12721   -12606   -12460   -12282   -12085   -11892   -11705   -11515 
  -11340   -11200   -11091   -10997   -10901   -10806   -10736   -10697 
  -10697   -10748   -10844   -10984   -11167   -11377   -11595   -11794 
  -11958   -12091   -12204   -12290   -12351   -12379   -12368   -12326 
  -12263   -12178   -12082   -11998   -11938   -11909   -11892   -11870 
  -11850   -11843   -11855   -11877   -11898   -11934   -11959   -11946 
  -11888   -11794   -11693   -11596   -11522   -11488   -11493   -11527 
  -11568   -11615   -11673   -11718   -11727   -11701   -11637   -11543 
  -11434   -11314   -11209   -11128   -11061   -11014   -11007   -11040 
  -11095   -11171   -11256   -11323   -11365   -11380   -11376   -11344 
  -11268   -11153   -10995   -10806   -10620   -10454   -10308   -10177 
  -10042    -9895    -9755    -9633    -9537    -9485    -9495    -9578 
   -9748    -9983   -10243   -10530   -10832   -11126   -11410   -11691 
  -11977   -12253   -12498   -12708   -12877   -12989   -13054   -13077 
  -13070   -13057   -13043   -13030   -13014   -12980   -12935   -12884 
  -12803   -12695   -12571   -12437   -12322   -12235   -12147   -12046 
  -11934   -11808   -11680   -11557   -11439   -11341   -11257   -11188 
  -11142   -11137   -11184   -11273   -11414   -11596   -11770   -11904 
  -11990   -12047   -12074   -12082   -12106   -12158   -12233   -12347 
  -12506   -12710   -12955   -13221   -13489   -13753   -14007   -14246 
  -14476   -14688   -14859   -14958   -14964   -14894   -14760   -14571 
  -14331   -14019   -13622   -13150   -12630   -12104   -11595   -11128 
  -10733   -10413   -10164    -9988    -9856    -9755    -9682    -9618 
   -9576    -9564    -9579    -9644    -9767    -9942   -10172   -10436 
  -10720   -11006   -11300   -11618   -11919   -12164   -12370   -12561 
  -12768   -12997   -13246   -13521   -13788   -14004   -14168   -14283 
  -14347   -14351   -14287   -14160   -13968   -13710   -13400   -13054 
  -12702   -12368   -12078   -11816   -11553   -11268   -10953   -10629 
  -10334   -10073    -9842    -9633    -9451    -9300    -9180    -9101 
   -9069    -9077    -9136    -9256    -9439    -9678    -9964   -10304 
  -10704   -11141   -11593   -12050   -12499   -12937   -13359   -13759 
  -14134   -14455   -14693   -14862   -14964   -14991   -14964   -14894 
  -14781   -14627   -14428   -14206   -13976   -13749   -13545   -13377 
  -13240   -13108   -12933   -12706   -12444   -12137   -11780   -11398 
  -11025   -10693   -10417   -10189   -10004    -9861    -9745    -9647 
   -9589    -9598    -9688    -9850   -10071   -10358   -10713   -11102 
  -11514   -11946   -12382   -12816   -13217   -13555   -13828   -14050 
  -14246   -14428   -14607   -14785   -14929   -15018   -15059   -15060 
  -15051   -15044   -15013   -14928   -14760   -14511   -14189   -13803 
  -13386   -12961   -12545   -12170   -11812   -11461   -11144   -10836 
  -10542   -10297   -10096    -9934    -9801    -9690    -9616    -9551 
   -9491    -9451    -9424    -9412    -9417    -9436    -9483    -9571 
   -9684    -9832   -10018   -10223   -10424   -10606   -10758   -10875 
  -10940   -10947   -10930   -10940   -11011   -11148   -11321   -11527 
  -11755   -11985   -12208   -12420   -12631   -12854   -13085   -13315 
  -13520   -13693   -13825   -13919   -14002   -14072   -14122   -14154 
  -14150   -14096   -14018   -13933   -13838   -13734   -13610   -13470 
  -13315   -13124   -12870   -12545   -12155   -11719   -11259   -10800 
  -10370    -9979    -9621    -9304    -9034    -8820    -8664    -8548 
   -8479    -8471    -8529    -8645    -8808    -9026    -9292    -9594 
   -9936   -10304   -10685   -11075   -11470   -11862   -12252   -12617 
  -12954   -13282   -13594   -13884   -14130   -14291   -14370   -14381 
  -14326   -14227   -14085   -13907   -13722   -13528   -13315   -13072 
  -12785   -12480   -12171   -11842   -11510   -11198   -10913   -10674 
  -10500   -10385   -10307   -10243   -10192   -10164   -10181   -10251 
  -10369   -10525   -10721   -10960   -11206   -11414   -11577   -11699 
  -11792   -11894   -12024   -12183   -12366   -12561   -12768   -12966 
  -13131   -13243   -13309   -13356   -13386   -13386   -13348   -13274 
  -13169   -13030   -12861   -12679   -12488   -12274   -12012   -11711 
  -11389   -11068   -10771   -10530   -10343   -10201   -10107   -10052 
  -10007    -9972    -9956    -9969   -10026   -10133   -10285   -10485 
  -10708   -10930   -11167   -11429   -11713   -12002   -12255   -12447 
  -12591   -12710   -12815   -12910   -12997   -13097   -13220   -13348 
  -13475   -13591   -13676   -13726   -13741   -13726   -13672   -13575 
  -13477   -13400   -13331   -13238   -13088   -12881   -12622   -12326 
  -12027   -11739   -11479   -11275   -11125   -11028   -10983   -10975 
  -10991   -11033   -11091   -11152   -11203   -11242   -11280   -11307 
  -11334   -11402   -11516   -11653   -11799   -11950   -12113   -12280 
  -12438   -12594   -12735   -12842   -12920   -12973   -13003   -13023 
  -13018   -12960   -12873   -12780   -12679   -12587   -12515   -12452 
  -12388   -12328   -12275   -12218   -12155   -12108   -12071   -12028 
  -11978   -11911   -11827   -11746   -11676   -11628   -11627   -11665 
  -11711   -11742   -11774   -11828   -11901   -11997   -12124   -12291 
  -12487   -12699   -12935   -13178   -13398   -13578   -13707   -13795 
  -13851   -13868   -13842   -13780   -13674   -13513   -13305   -13058 
  -12806   -12565   -12333   -12148   -12025   -11927   -11857   -11831 
  -11854   -11916   -12000   -12094   -12170   -12217   -12244   -12237 
  -12216   -12191   -12148   -12106   -12093   -12117   -12178   -12253 
  -12334   -12428   -12536   -12663   -12788   -12888   -12953   -12968 
  -12934   -12873   -12764   -12602   -12434   -12259   -12083   -11944 
  -11831   -11722   -11585   -11398   -11184   -10963   -10751   -10567 
  -10416   -10316   -10270   -10258   -10270   -10299   -10324   -10346 
  -10342   -10304   -10250   -10200   -10168   -10183   -10255   -10382 
  -10581   -10840   -11140   -11458   -11778   -12090   -12374   -12626 
  -12862   -13085   -13294   -13486   -13656   -13807   -13906   -13942 
  -13915   -13821   -13679   -13489   -13240   -12955   -12652   -12336 
  -12013   -11708   -11427   -11155   -10885   -10620   -10374   -10158 
   -9980    -9856    -9802    -9814    -9883   -10000   -10170   -10389 
  -10647   -10947   -11290   -11661   -12037   -12386   -12691   -12962 
  -13194   -13371   -13490   -13540   -13517   -13443   -13343   -13216 
  -13053   -12864   -12656   -12428   -12191   -11967   -11773   -11614 
  -11465   -11281   -11061   -10841   -10633   -10431   -10230   -10023 
   -9828    -9634    -9445    -9294    -9192    -9140    -9151    -9211 
   -9302    -9427    -9583    -9772   -10006   -10295   -10635   -11009 
  -11394   -11785   -12167   -12528   -12876   -13216   -13533   -13824 
  -14095   -14350   -14570   -14737   -14859   -14936   -14966   -14940 
  -14856   -14716   -14513   -14262   -13975   -13659   -13338   -13018 
  -12703   -12409   -12113   -11811   -11519   -11232   -10952   -10682 
  -10413   -10160    -9923    -9690    -9467    -9278    -9138    -9050 
   -9004    -9003    -9066    -9192    -9383    -9639    -9946   -10311 
  -10724   -11167   -11626   -12077   -12505   -12922   -13316   -13660 
  -13959   -14224   -14431   -14577   -14677   -14728   -14732   -14693 
  -14607   -14499   -14385   -14273   -14146   -13981   -13794   -13593 
  -13360   -13101   -12841   -12575   -12302   -12020   -11727   -11419 
  -11106   -10797   -10516   -10296   -10150   -10072   -10049   -10050 
  -10072   -10108   -10139   -10169   -10207   -10264   -10366   -10516 
  -10714   -10951   -11207   -11491   -11803   -12137   -12492   -12857 
  -13213   -13545   -13842   -14119   -14358   -14517   -14598   -14615 
  -14554   -14435   -14281   -14098   -13900   -13684   -13447   -13196 
  -12933   -12658   -12368   -12059   -11743   -11443   -11167   -10924 
  -10725   -10552   -10392   -10228   -10053    -9873    -9703    -9568 
   -9506    -9510    -9568    -9693    -9869   -10081   -10320   -10570 
  -10840   -11138   -11452   -11777   -12104   -12414   -12711   -12976 
  -13186   -13354   -13494   -13616   -13714   -13783   -13832   -13860 
  -13863   -13842   -13806   -13755   -13698   -13632   -13543   -13419 
  -13274   -13113   -12918   -12683   -12420   -12135   -11826   -11500 
  -11190   -10902   -10640   -10399   -10176    -9991    -9848    -9745 
   -9682    -9649    -9664    -9740    -9846    -9969   -10107   -10254 
  -10417   -10606   -10822   -11070   -11346   -11649   -11967   -12282 
  -12582   -12862   -13111   -13321   -13497   -13649   -13782   -13890 
  -13972   -14021   -14029   -13992   -13891   -13725   -13513   -13279 
  -13032   -12761   -12463   -12166   -11875   -11587   -11325   -11095 
  -10897   -10723   -10567   -10440   -10335   -10226   -10112   -10003 
   -9913    -9850    -9817    -9818    -9861    -9940   -10061   -10235 
  -10446   -10682   -10936   -11188   -11434   -11677   -11909   -12145 
  -12390   -12619   -12827   -13014   -13178   -13323   -13435   -13513 
  -13578   -13632   -13670   -13691   -13697   -13675   -13626   -13551 
  -13460   -13359   -13230   -13074   -12914   -12750   -12577   -12382 
  -12148   -11875   -11574   -11252   -10932   -10632   -10361   -10127 
   -9936    -9782    -9653    -9544    -9456    -9406    -9409    -9459 
