Origin Time       2025/01/13 21:19:00
Lat.              31.8
Long.             131.6
Depth. (km)       30
Mag.              6.9
Station Code      FKO016
Station Lat.      33.0159
Station Long.     130.4472
Station Height(m) 22
Record Time       2025/01/13 21:20:07
Sampling Freq(Hz) 100Hz
Duration Time(s)  88
Dir.              N-S
Scale Factor      7845(gal)/8223790
Max. Acc. (gal)   4.436
Last Correction   2025/01/13 21:20:09
Memo.             
[...]
   -1836    -1876    -1860    -1877    -1942    -1918    -1784    -1593 
   -1345    -1086     -808     -515     -387     -507     -652     -729 
    -969    -1324    -1414    -1248    -1113     -931     -552     -249 
    -241     -352     -429     -572     -864    -1173    -1294    -1328 
   -1575    -1895    -1875    -1607    -1398    -1156     -749     -372 
    -152       39      183      130       22       95      203       79 
    -157     -252     -256     -324     -438     -595     -859    -1173 
   -1467    -1903    -2590    -3289    -3824    -4322    -4777    -4981 
   -4907    -4668    -4293    -3844    -3458    -3258    -3260    -3384 
   -3623    -4037    -4477    -4726    -4857    -5007    -5031    -4800 
   -4468    -4210    -3970    -3723    -3647    -3773    -3890    -3912 
   -3924    -3906    -3696    -3235    -2686    -2239    -1903    -1578 
   -1266    -1073    -1038    -1097    -1256    -1588    -1999    -2339 
   -2656    -2917    -2906    -2646    -2381    -2174    -1964    -1871 
   -2039    -2265    -2289    -2251    -2280    -2153    -1817    -1555 
   -1439    -1260    -1050     -997    -1034     -994     -916     -911 
    -988    -1044     -990     -915     -897     -811     -600     -376 
    -191      -43      -28     -280     -747    -1252    -1713    -2039 
   -2174    -2214    -2185    -2061    -1910    -1738    -1545    -1421 
   -1305    -1111     -997    -1084    -1169    -1128    -1154    -1296 
   -1336    -1256    -1217    -1231    -1237    -1341    -1615    -1915 
   -2226    -2720    -3245    -3505    -3689    -4047    -4332    -4295 
   -4125    -4028    -3908    -3646    -3319    -3038    -2830    -2651 
   -2442    -2219    -2038    -1880    -1698    -1439    -1166    -1089 
   -1210    -1313    -1375    -1552    -1763    -1809    -1721    -1595 
   -1426    -1204     -997     -895     -828     -726     -722     -880 
   -1011     -985     -919     -897     -872     -846     -868     -918 
   -1004    -1132    -1244    -1381    -1606    -1796    -1864    -1980 
   -2231    -2446    -2581    -2782    -3011    -3141    -3229    -3318 
   -3276    -3099    -2960    -2901    -2840    -2789    -2793    -2768 
   -2583    -2236    -1857    -1574    -1362    -1139     -982    -1001 
   -1090    -1082    -1047    -1096    -1094    -1004    -1003    -1080 
   -1124    -1269    -1624    -1993    -2245    -2513    -2821    -3044 
   -3194    -3322    -3429    -3524    -3578    -3530    -3380    -3204 
   -3071    -2952    -2775    -2547    -2390    -2300    -2101    -1815 
   -1676    -1715    -1647    -1381    -1159    -1036     -882     -734 
    -679     -700     -834    -1111    -1440    -1775    -2087    -2282 
   -2404    -2550    -2547    -2231    -1864    -1675    -1444    -1039 
    -673     -442     -274     -243     -376     -423     -311     -315 
    -469     -465     -249     -132     -232     -305     -195     -102 
    -216     -383     -432     -422     -452     -487     -480     -414 
    -298     -184      -89       20      152      263      247       86 
     -86     -234     -418     -558     -565     -542     -591     -652 
    -765    -1039    -1301    -1345    -1316    -1337    -1304    -1194 
   -1131    -1182    -1285    -1335    -1324    -1297    -1267    -1290 
   -1490    -1891    -2381    -2894    -3411    -3878    -4206    -4264 
   -4087    -3881    -3703    -3539    -3470    -3419    -3253    -3130 
   -3141    -3059    -2851    -2828    -3073    -3341    -3572    -3850 
   -4021    -3944    -3823    -3797    -3657    -3315    -3057    -3041 
   -3038    -2844    -2556    -2330    -2189    -2047    -1776    -1435 
   -1224    -1166    -1162    -1132    -1036     -997    -1138    -1329 
   -1379    -1399    -1607    -1919    -2161    -2343    -2528    -2732 
   -2851    -2799    -2731    -2768    -2764    -2613    -2436    -2320 
   -2220    -2060    -1804    -1534    -1360    -1221     -980     -722 
    -595     -557     -581     -689     -859    -1051    -1182    -1220 
   -1278    -1398    -1413    -1260    -1134    -1102    -1054     -993 
    -932     -884     -928     -974     -842     -606     -444     -407 
    -446     -515     -626     -828    -1098    -1273    -1277    -1281 
   -1409    -1560    -1707    -1958    -2223    -2327    -2373    -2436 
   -2316    -2042    -1949    -2039    -2110    -2201    -2380    -2575 
   -2713    -2682    -2508    -2388    -2363    -2357    -2440    -2616 
   -2759    -2925    -3226    -3518    -3657    -3832    -4148    -4349 
   -4338    -4244    -4101    -3960    -3936    -4024    -4170    -4411 
   -4777    -5158    -5386    -5491    -5618    -5688    -5555    -5317 
   -5104    -4885    -4542    -4017    -3419    -2894    -2417    -1883 
   -1344     -993     -931    -1057    -1198    -1290    -1370    -1482 
   -1610    -1684    -1692    -1718    -1783    -1834    -1813    -1715 
   -1641    -1609    -1479    -1146     -680     -210      255      704 
    1011     1127     1059      738      240     -135     -352     -626 
    -822     -707     -545     -568     -612     -697     -978    -1305 
   -1521    -1723    -1938    -1996    -1807    -1474    -1161     -942 
    -658     -244       28       45        8       18      -22     -164 
    -284     -310     -345     -457     -600     -785    -1119    -1606 
   -2058    -2363    -2651    -2987    -3179    -3218    -3316    -3429 
   -3385    -3208    -2971    -2656    -2227    -1744    -1327     -997 
    -764     -693     -780     -897     -996    -1209    -1502    -1628 
   -1614    -1703    -1849    -1817    -1641    -1582    -1679    -1786 
   -1825    -1895    -2134    -2398    -2431    -2322    -2292    -2261 
   -2076    -1881    -1819    -1752    -1642    -1638    -1707    -1678 
   -1576    -1571    -1660    -1736    -1819    -1953    -2058    -2137 
   -2290    -2500    -2668    -2837    -3071    -3281    -3308    -3152 
   -2906    -2558    -2150    -1822    -1530    -1279    -1223    -1244 
   -1143    -1098    -1266    -1410    -1301    -1086    -1000     -990 
    -884     -661     -469     -403     -321      -98      164      415 
     683      842      772      638      626      643      568      468 
     418      338      125     -209     -634    -1166    -1707    -2142 
   -2512    -2952    -3468    -3889    -4145    -4387    -4656    -4808 
   -4803    -4650    -4337    -3983    -3666    -3289    -2902    -2636 
   -2396    -2124    -1965    -1918    -1814    -1633    -1522    -1603 
   -1777    -1827    -1750    -1740    -1810    -1787    -1614    -1410 
   -1250    -1085     -920     -851     -831     -727     -649     -724 
    -785     -757     -795     -889     -930    -1036    -1296    -1493 
   -1544    -1695    -1988    -2191    -2243    -2320    -2505    -2716 
   -2879    -2953    -2930    -2878    -2814    -2708    -2579    -2558 
   -2695    -2871    -3053    -3275    -3561    -3935    -4221    -4247 
   -4136    -4027    -3846    -3483    -3037    -2677    -2411    -2219 
   -2066    -1915    -1773    -1653    -1636    -1725    -1767    -1769 
   -1861    -2038    -2268    -2559    -2875    -3173    -3512    -3874 
   -4094    -4050    -3769    -3414    -3060    -2610    -2110    -1779 
   -1649    -1609    -1656    -1810    -1956    -1991    -1991    -2038 
   -2035    -1881    -1597    -1251     -922     -612     -283       45 
     287      357      352      437      537      580      697      947 
    1197     1401     1641     1823     1854     1900     2000     1973 
    1850     1867     1979     1918     1753     1680     1529     1200 
     882      558       72     -475     -985    -1552    -2161    -2713 
   -3202    -3595    -3913    -4261    -4553    -4630    -4588    -4581 
   -4507    -4283    -4087    -4031    -4033    -4093    -4193    -4217 
   -4209    -4271    -4283    -4218    -4263    -4328    -4197    -4043 
   -4041    -4001    -3828    -3711    -3712    -3732    -3767    -3801 
   -3770    -3724    -3690    -3592    -3488    -3477    -3488    -3524 
   -3707    -3959    -4117    -4251    -4525    -4887    -5124    -5189 
   -5185    -5096    -4785    -4241    -3609    -3001    -2436    -1945 
   -1561    -1264     -977     -692     -488     -303       22      395 
     627      769      961     1220     1416     1439     1323     1152 
     916      503     -164    -1019    -1877    -2631    -3273    -3761 
   -4029    -4090    -3946    -3562    -3049    -2579    -2120    -1588 
   -1057     -567     -109      248      561     1005     1510     1807 
    1888     1944     1922     1649     1192      712      164     -521 
   -1186    -1730    -2309    -3013    -3662    -4068    -4324    -4645 
   -4982    -5163    -5325    -5599    -5759    -5707    -5691    -5752 
   -5660    -5387    -5127    -4941    -4707    -4307    -3746    -3150 
   -2620    -2106    -1549     -961     -376      148      573      955 
    1364     1710     1868     1894     1890     1804     1494      966 
     390     -197     -877    -1548    -1977    -2172    -2307    -2366 
   -2219    -1896    -1578    -1426    -1410    -1341    -1233    -1321 
   -1599    -1821    -1931    -2015    -2031    -1999    -2007    -2033 
   -2089    -2308    -2682    -3051    -3358    -3686    -4009    -4168 
   -4101    -3942    -3856    -3771    -3555    -3397    -3542    -3832 
   -3997    -4059    -4051    -3834    -3477    -3168    -2803    -2315 
   -1969    -1873    -1699    -1316    -1051    -1007     -877     -622 
    -480     -423     -282      -41      278      627      909     1197 
    1543     1686     1493     1236     1013      621      110     -292 
    -665    -1125    -1524    -1753    -1953    -2182    -2242    -2034 
   -1764    -1545    -1255     -903     -641     -445     -220      -29 
      66      152      257      342      441      488      326       35 
    -214     -525    -1046    -1653    -2145    -2490    -2756    -2955 
   -3052    -3036    -2913    -2718    -2531    -2478    -2605    -2766 
   -2880    -3111    -3505    -3836    -4002    -4162    -4301    -4228 
   -4023    -3931    -3890    -3730    -3564    -3564    -3631    -3592 
   -3485    -3385    -3218    -3026    -2934    -2825    -2596    -2376 
   -2234    -2131    -2025    -1818    -1520    -1378    -1424    -1310 
    -992     -835     -859     -731     -540     -622     -819     -903 
   -1073    -1333    -1382    -1194     -938     -637     -245      162 
     481      741     1000     1202     1294     1378     1555     1692 
    1644     1556     1522     1375     1069      711      352       -4 
    -349     -673     -963    -1240    -1597    -2054    -2439    -2712 
   -3001    -3211    -3213    -3069    -2820    -2512    -2246    -1985 
   -1707    -1534    -1532    -1618    -1752    -2033    -2504    -2983 
   -3322    -3607    -3929    -4175    -4260    -4318    -4455    -4610 
   -4707    -4680    -4521    -4383    -4302    -4054    -3670    -3434 
   -3318    -3160    -3032    -2971    -2911    -2882    -2894    -2867 
   -2849    -2938    -3052    -3121    -3253    -3450    -3620    -3747 
   -3809    -3785    -3715    -3619    -3476    -3249    -3002    -2849 
   -2751    -2596    -2385    -2164    -1926    -1713    -1553    -1351 
   -1031     -718     -585     -577     -508     -418     -448     -573 
    -715     -801     -765     -611     -440     -314     -190      -68 
     -35      -68     -102     -207     -453     -687     -788     -911 
   -1143    -1320    -1360    -1308    -1143     -923     -839     -907 
    -916     -841     -862     -972    -1026     -954     -796     -746 
    -950    -1301    -1563    -1706    -1922    -2187    -2292    -2305 
   -2415    -2556    -2635    -2826    -3177    -3410    -3534    -3819 
   -4178    -4315    -4226    -4128    -4043    -3792    -3412    -3137 
   -3014    -2890    -2697    -2474    -2187    -1844    -1498    -1086 
    -648     -359     -229     -133      -22       21      -63     -195 
    -330     -514     -703     -808     -854     -920     -942     -838 
    -724     -719     -788     -904    -1078    -1285    -1498    -1734 
   -1956    -2099    -2255    -2489    -2677    -2770    -2898    -3100 
   -3227    -3184    -3080    -3073    -3106    -2991    -2794    -2697 
   -2643    -2511    -2326    -2157    -2010    -1849    -1651    -1420 
   -1229    -1113    -1004     -897     -907    -1078    -1283    -1406 
   -1502    -1618    -1719    -1827    -1910    -1869    -1811    -1904 
   -2020    -1968    -1890    -1999    -2191    -2299    -2415    -2579 
   -2581    -2385    -2255    -2232    -2085    -1810    -1692    -1811 
   -1915    -1891    -1818    -1707    -1615    -1644    -1686    -1622 
   -1633    -1908    -2243    -2369    -2363    -2377    -2349    -2208 
   -2012    -1814    -1586    -1329    -1175    -1189    -1173    -1062 
   -1135    -1451    -1773    -2110    -2570    -2970    -3213    -3503 
   -3828    -3944    -3873    -3769    -3665    -3522    -3280    -2925 
   -2532    -2195    -1933    -1656    -1337    -1129    -1171    -1429 
   -1822    -2305    -2839    -3397    -3915    -4261    -4405    -4434 
   -4409    -4303    -4114    -3958    -3889    -3715    -3343    -3011 
   -2845    -2686    -2454    -2315    -2373    -2506    -2614    -2679 
   -2659    -2555    -2427    -2293    -2096    -1811    -1512    -1293 
   -1181    -1108    -1021     -999    -1077    -1140    -1161    -1167 
   -1032     -688     -282       36      307      676     1115     1424 
    1540     1607     1748     1879     1907     1892     1888     1908 
    2007     2201     2393     2519     2633     2758     2814     2724 
    2489     2181     1834     1425      955      472       21     -437 
    -940    -1377    -1637    -1799    -2012    -2258    -2405    -2431 
   -2515    -2798    -3106    -3234    -3280    -3369    -3450    -3465 
   -3418    -3339    -3327    -3468    -3685    -3871    -4052    -4313 
   -4680    -5049    -5337    -5653    -6027    -6280    -6388    -6461 
   -6416    -6181    -5922    -5683    -5273    -4714    -4253    -3861 
   -3389    -2971    -2695    -2497    -2408    -2409    -2353    -2204 
   -2050    -1925    -1784    -1611    -1412    -1186     -989     -819 
    -552     -248     -113      -99      -47      -41     -152     -171 
      10      220      382      599      881     1104     1224     1314 
    1350     1251     1097      928      688      464      318      163 
      -9     -133     -164      -83        5        8       58      237 
     348      303      221      110      -81     -315     -600     -976 
   -1366    -1671    -1926    -2162    -2330    -2438    -2578    -2767 
   -2925    -3052    -3183    -3230    -3163    -3090    -3028    -2884 
   -2685    -2548    -2493    -2431    -2340    -2307    -2381    -2523 
   -2610    -2579    -2473    -2315    -2160    -2034    -1868    -1782 
   -1938    -2155    -2296    -2501    -2756    -2872    -2887    -2932 
   -2945    -2882    -2839    -2820    -2771    -2697    -2639    -2664 
   -2727    -2698    -2643    -2704    -2814    -2833    -2778    -2725 
   -2690    -2716    -2821    -2851    -2778    -2781    -2866    -2952 
   -3057    -3118    -3119    -3235    -3414    -3385    -3199    -3092 
   -3060    -3024    -3007    -2959    -2818    -2695    -2648    -2550 
   -2369    -2215    -2107    -1969    -1814    -1698    -1579    -1424 
   -1271    -1154    -1098    -1051     -896     -750     -773     -811 
    -720     -634     -602     -567     -604     -743     -866     -913 
    -915     -926     -984     -984     -804     -600     -583     -633 
    -515     -279     -101       -2       31       32       29      -74 
    -306     -554     -776     -984    -1179    -1374    -1557    -1755 
   -2019    -2301    -2536    -2789    -3099    -3385    -3578    -3699 
   -3804    -3901    -3935    -3900    -3828    -3713    -3580    -3472 
   -3339    -3190    -3137    -3115    -3021    -2983    -3026    -2976 
   -2837    -2764    -2737    -2602    -2390    -2250    -2180    -2123 
   -2062    -2004    -2025    -2089    -2096    -2130    -2228    -2218 
   -2143    -2239    -2398    -2396    -2351    -2434    -2585    -2741 
   -2816    -2724    -2681    -2895    -3071    -2938    -2826    -2960 
   -3057    -2980    -2856    -2702    -2484    -2268    -2088    -1871 
   -1625    -1447    -1356    -1296    -1158     -989     -973     -994 
    -842     -718     -831     -927     -788     -623     -618     -614 
    -463     -257      -83       74      209      307      384      457 
     483      418      333      268      135      -82     -291     -500 
    -780    -1039    -1181    -1259    -1306    -1354    -1464    -1547 
   -1524    -1568    -1769    -1933    -1958    -1966    -1950    -1871 
   -1857    -1921    -1896    -1814    -1906    -2160    -2346    -2404 
   -2420    -2492    -2683    -2844    -2825    -2756    -2744    -2736 
   -2744    -2732    -2596    -2467    -2504    -2547    -2469    -2466 
   -2617    -2731    -2789    -2911    -2991    -2918    -2833    -2820 
   -2717    -2508    -2397    -2355    -2162    -1841    -1572    -1356 
   -1061     -676     -314      -37      126      195      253      271 
     159       -5     -139     -322     -596     -865    -1078    -1310 
   -1568    -1775    -1907    -2019    -2180    -2381    -2512    -2604 
   -2762    -2874    -2841    -2801    -2805    -2781    -2760    -2798 
   -2833    -2833    -2878    -2934    -2905    -2848    -2805    -2759 
   -2709    -2610    -2467    -2342    -2236    -2139    -2045    -1941 
   -1887    -1900    -1923    -1903    -1836    -1796    -1860    -1926 
   -1884    -1895    -2130    -2380    -2378    -2316    -2457    -2581 
   -2439    -2257    -2258    -2301    -2249    -2146    -2073    -2058 
   -2060    -1987    -1854    -1746    -1664    -1576    -1482    -1345 
   -1175    -1044     -928     -747     -552     -427     -318     -156 
     -41      -33      -22       12       14        4        4        5 
       6        9       -5      -55     -152     -253     -295     -324 
    -406     -459     -430     -449     -603     -765     -851     -972 
   -1156    -1318    -1455    -1517    -1466    -1429    -1487    -1575 
   -1586    -1518    -1563    -1788    -1972    -1957    -1903    -1991 
   -2127    -2182    -2235    -2336    -2417    -2494    -2623    -2720 
   -2706    -2658    -2717    -2859    -2867    -2743    -2682    -2651 
   -2539    -2404    -2311    -2258    -2227    -2201    -2176    -2138 
   -2134    -2200    -2214    -2168    -2239    -2407    -2532    -2655 
   -2814    -2974    -3110    -3200    -3223    -3215    -3246    -3323 
   -3312    -3181    -3090    -3049    -2922    -2740    -2652    -2662 
   -2702    -2789    -2886    -2920    -2978    -3133    -3234    -3203 
   -3194    -3242    -3194    -3045    -2907    -2755    -2575    -2419 
   -2261    -2112    -2015    -1895    -1745    -1703    -1733    -1688 
   -1630    -1632    -1618    -1540    -1413    -1281    -1202    -1174 
   -1132    -1104    -1193    -1293    -1248    -1196    -1216    -1139 
    -977     -891     -889     -901     -892     -912    -1024    -1170 
   -1242    -1289    -1417    -1539    -1580    -1615    -1660    -1671 
   -1652    -1602    -1479    -1325    -1260    -1255    -1201    -1143 
   -1186    -1320    -1429    -1476    -1570    -1719    -1811    -1830 
   -1842    -1833    -1765    -1759    -1848    -1848    -1777    -1846 
